zipcode,prefecture_name,city,town,prefecture_kana,city_kana,town_kana,normalized_address
3700000,群馬県,高崎市,,グンマケン,タカサキシ,,群馬県高崎市
3700001,群馬県,高崎市,中尾町,グンマケン,タカサキシ,ナカオマチ,群馬県高崎市中尾町
3700002,群馬県,高崎市,日高町,グンマケン,タカサキシ,ヒダカマチ,群馬県高崎市日高町
3700003,群馬県,高崎市,新保田中町,グンマケン,タカサキシ,シンボタナカマチ,群馬県高崎市新保田中町
3700004,群馬県,高崎市,井野町,グンマケン,タカサキシ,イノマチ,群馬県高崎市井野町
3700005,群馬県,高崎市,浜尻町,グンマケン,タカサキシ,ハマジリマチ,群馬県高崎市浜尻町
3700006,群馬県,高崎市,問屋町,グンマケン,タカサキシ,トンヤマチ,群馬県高崎市問屋町
3700007,群馬県,高崎市,問屋町西,グンマケン,タカサキシ,トンヤマチニシ,群馬県高崎市問屋町西
3700008,群馬県,高崎市,正観寺町,グンマケン,タカサキシ,ショウカンジマチ,群馬県高崎市正観寺町
3700011,群馬県,高崎市,京目町,グンマケン,タカサキシ,キョウメマチ,群馬県高崎市京目町
3700012,群馬県,高崎市,大沢町,グンマケン,タカサキシ,オオサワマチ,群馬県高崎市大沢町
3700013,群馬県,高崎市,萩原町,グンマケン,タカサキシ,ハギワラマチ,群馬県高崎市萩原町
3700014,群馬県,高崎市,元島名町,グンマケン,タカサキシ,モトシマナマチ,群馬県高崎市元島名町
3700015,群馬県,高崎市,島野町,グンマケン,タカサキシ,シマノマチ,群馬県高崎市島野町
3700016,群馬県,高崎市,矢島町,グンマケン,タカサキシ,ヤジママチ,群馬県高崎市矢島町
3700017,群馬県,高崎市,西島町,グンマケン,タカサキシ,ニシジママチ,群馬県高崎市西島町
3700018,群馬県,高崎市,新保町,グンマケン,タカサキシ,シンボマチ,群馬県高崎市新保町
3700021,群馬県,高崎市,西横手町,グンマケン,タカサキシ,ニシヨコテマチ,群馬県高崎市西横手町
3700022,群馬県,高崎市,宿横手町,グンマケン,タカサキシ,シュクヨコテマチ,群馬県高崎市宿横手町
3700023,群馬県,高崎市,中島町,グンマケン,タカサキシ,ナカジママチ,群馬県高崎市中島町
3700024,群馬県,高崎市,八幡原町,グンマケン,タカサキシ,ヤワタバラマチ,群馬県高崎市八幡原町
3700025,群馬県,高崎市,下斉田町,グンマケン,タカサキシ,シモサイダマチ,群馬県高崎市下斉田町
3700026,群馬県,高崎市,下滝町,グンマケン,タカサキシ,シモタキマチ,群馬県高崎市下滝町
3700027,群馬県,高崎市,上滝町,グンマケン,タカサキシ,カミタキマチ,群馬県高崎市上滝町
3700031,群馬県,高崎市,上大類町,グンマケン,タカサキシ,カミオオルイマチ,群馬県高崎市上大類町
3700032,群馬県,高崎市,宿大類町,グンマケン,タカサキシ,シュクオオルイマチ,群馬県高崎市宿大類町
3700033,群馬県,高崎市,中大類町,グンマケン,タカサキシ,ナカオオルイマチ,群馬県高崎市中大類町
3700034,群馬県,高崎市,下大類町,グンマケン,タカサキシ,シモオオルイマチ,群馬県高崎市下大類町
3700035,群馬県,高崎市,柴崎町,グンマケン,タカサキシ,シバサキマチ,群馬県高崎市柴崎町
3700036,群馬県,高崎市,南大類町,グンマケン,タカサキシ,ミナミオオルイマチ,群馬県高崎市南大類町
3700041,群馬県,高崎市,東貝沢町,グンマケン,タカサキシ,ヒガシカイザワマチ,群馬県高崎市東貝沢町
3700042,群馬県,高崎市,貝沢町,グンマケン,タカサキシ,カイザワマチ,群馬県高崎市貝沢町
3700043,群馬県,高崎市,高関町,グンマケン,タカサキシ,タカゼキマチ,群馬県高崎市高関町
3700044,群馬県,高崎市,岩押町,グンマケン,タカサキシ,イワオシマチ,群馬県高崎市岩押町
3700045,群馬県,高崎市,東町,グンマケン,タカサキシ,アズマチョウ,群馬県高崎市東町
3700046,群馬県,高崎市,江木町,グンマケン,タカサキシ,エギマチ,群馬県高崎市江木町
3700047,群馬県,高崎市,高砂町,グンマケン,タカサキシ,タカサゴチョウ,群馬県高崎市高砂町
3700048,群馬県,高崎市,日光町,グンマケン,タカサキシ,ニッコウチョウ,群馬県高崎市日光町
3700051,群馬県,高崎市,弓町,グンマケン,タカサキシ,ユミチョウ,群馬県高崎市弓町
3700052,群馬県,高崎市,旭町,グンマケン,タカサキシ,アサヒチョウ,群馬県高崎市旭町
3700053,群馬県,高崎市,通町,グンマケン,タカサキシ,トオリマチ,群馬県高崎市通町
3700054,群馬県,高崎市,真町,グンマケン,タカサキシ,シンチョウ,群馬県高崎市真町
3700055,群馬県,高崎市,羅漢町,グンマケン,タカサキシ,ラカンチョウ,群馬県高崎市羅漢町
3700056,群馬県,高崎市,北通町,グンマケン,タカサキシ,キタトオリマチ,群馬県高崎市北通町
3700057,群馬県,高崎市,元紺屋町,グンマケン,タカサキシ,モトコンヤマチ,群馬県高崎市元紺屋町
3700058,群馬県,高崎市,九蔵町,グンマケン,タカサキシ,クゾウマチ,群馬県高崎市九蔵町
3700059,群馬県,高崎市,椿町,グンマケン,タカサキシ,ツバキチョウ,群馬県高崎市椿町
3700061,群馬県,高崎市,天神町,グンマケン,タカサキシ,テンジンチョウ,群馬県高崎市天神町
3700062,群馬県,高崎市,稲荷町,グンマケン,タカサキシ,イナリチョウ,群馬県高崎市稲荷町
3700063,群馬県,高崎市,飯玉町,グンマケン,タカサキシ,イイダママチ,群馬県高崎市飯玉町
3700064,群馬県,高崎市,芝塚町,グンマケン,タカサキシ,シバヅカマチ,群馬県高崎市芝塚町
3700065,群馬県,高崎市,末広町,グンマケン,タカサキシ,スエヒロチョウ,群馬県高崎市末広町
3700066,群馬県,高崎市,山田町,グンマケン,タカサキシ,ヤマダチョウ,群馬県高崎市山田町
3700067,群馬県,高崎市,請地町,グンマケン,タカサキシ,ウケチマチ,群馬県高崎市請地町
3700068,群馬県,高崎市,昭和町,グンマケン,タカサキシ,ショウワマチ,群馬県高崎市昭和町
3700069,群馬県,高崎市,飯塚町,グンマケン,タカサキシ,イイヅカマチ,群馬県高崎市飯塚町
3700071,群馬県,高崎市,小八木町,グンマケン,タカサキシ,コヤギマチ,群馬県高崎市小八木町
3700072,群馬県,高崎市,大八木町,グンマケン,タカサキシ,オオヤギマチ,群馬県高崎市大八木町
3700073,群馬県,高崎市,緑町,グンマケン,タカサキシ,ミドリチョウ,群馬県高崎市緑町
3700074,群馬県,高崎市,下小鳥町,グンマケン,タカサキシ,シモコトリマチ,群馬県高崎市下小鳥町
3700075,群馬県,高崎市,筑縄町,グンマケン,タカサキシ,ツクナワマチ,群馬県高崎市筑縄町
3700076,群馬県,高崎市,下小塙町,グンマケン,タカサキシ,シモコバナマチ,群馬県高崎市下小塙町
3700077,群馬県,高崎市,上小塙町,グンマケン,タカサキシ,カミコバナマチ,群馬県高崎市上小塙町
3700078,群馬県,高崎市,上小鳥町,グンマケン,タカサキシ,カミコトリマチ,群馬県高崎市上小鳥町
3700081,群馬県,高崎市,浜川町,グンマケン,タカサキシ,ハマガワマチ,群馬県高崎市浜川町
3700082,群馬県,高崎市,北新波町,グンマケン,タカサキシ,キタアラナミマチ,群馬県高崎市北新波町
3700083,群馬県,高崎市,南新波町,グンマケン,タカサキシ,ミナミアラナミマチ,群馬県高崎市南新波町
3700084,群馬県,高崎市,菊地町,グンマケン,タカサキシ,キクヂマチ,群馬県高崎市菊地町
3700085,群馬県,高崎市,我峰町,グンマケン,タカサキシ,ワガミネマチ,群馬県高崎市我峰町
3700086,群馬県,高崎市,沖町,グンマケン,タカサキシ,オキマチ,群馬県高崎市沖町
3700087,群馬県,高崎市,楽間町,グンマケン,タカサキシ,ラクママチ,群馬県高崎市楽間町
3700088,群馬県,高崎市,行力町,グンマケン,タカサキシ,ギョウリキマチ,群馬県高崎市行力町
3700101,群馬県,伊勢崎市,境東新井,グンマケン,イセサキシ,サカイヒガシアライ,群馬県伊勢崎市境東新井
3700102,群馬県,伊勢崎市,境上渕名,グンマケン,イセサキシ,サカイカミフチナ,群馬県伊勢崎市境上渕名
3700103,群馬県,伊勢崎市,境下渕名,グンマケン,イセサキシ,サカイシモフチナ,群馬県伊勢崎市境下渕名
3700104,群馬県,伊勢崎市,境木島,グンマケン,イセサキシ,サカイキジマ,群馬県伊勢崎市境木島
3700105,群馬県,伊勢崎市,境伊与久,グンマケン,イセサキシ,サカイイヨク,群馬県伊勢崎市境伊与久
3700111,群馬県,伊勢崎市,境上矢島,グンマケン,イセサキシ,サカイカミヤジマ,群馬県伊勢崎市境上矢島
3700112,群馬県,伊勢崎市,境西今井,グンマケン,イセサキシ,サカイニシイマイ,群馬県伊勢崎市境西今井
3700113,群馬県,伊勢崎市,境三ツ木,グンマケン,イセサキシ,サカイミツギ,群馬県伊勢崎市境三ツ木
3700114,群馬県,伊勢崎市,境新栄,グンマケン,イセサキシ,サカイシンエイ,群馬県伊勢崎市境新栄
3700115,群馬県,伊勢崎市,境美原,グンマケン,イセサキシ,サカイミハラ,群馬県伊勢崎市境美原
3700116,群馬県,伊勢崎市,境百々東,グンマケン,イセサキシ,サカイドウドウヒガシ,群馬県伊勢崎市境百々東
3700117,群馬県,伊勢崎市,境百々,グンマケン,イセサキシ,サカイドウドウ,群馬県伊勢崎市境百々
3700121,群馬県,伊勢崎市,境女塚,グンマケン,イセサキシ,サカイオナヅカ,群馬県伊勢崎市境女塚
3700122,群馬県,伊勢崎市,境栄,グンマケン,イセサキシ,サカイサカエ,群馬県伊勢崎市境栄
3700123,群馬県,伊勢崎市,境東,グンマケン,イセサキシ,サカイアズマ,群馬県伊勢崎市境東
3700124,群馬県,伊勢崎市,境,グンマケン,イセサキシ,サカイ,群馬県伊勢崎市境
3700125,群馬県,伊勢崎市,境萩原,グンマケン,イセサキシ,サカイハギワラ,群馬県伊勢崎市境萩原
3700126,群馬県,伊勢崎市,境下武士,グンマケン,イセサキシ,サカイシモタケシ,群馬県伊勢崎市境下武士
3700127,群馬県,伊勢崎市,境上武士,グンマケン,イセサキシ,サカイカミタケシ,群馬県伊勢崎市境上武士
3700128,群馬県,伊勢崎市,境保泉,グンマケン,イセサキシ,サカイホズミ,群馬県伊勢崎市境保泉
3700131,群馬県,伊勢崎市,境米岡,グンマケン,イセサキシ,サカイヨネオカ,群馬県伊勢崎市境米岡
3700132,群馬県,伊勢崎市,境平塚,グンマケン,イセサキシ,サカイヒラヅカ,群馬県伊勢崎市境平塚
3700133,群馬県,伊勢崎市,境中島,グンマケン,イセサキシ,サカイナカジマ,群馬県伊勢崎市境中島
3700134,群馬県,伊勢崎市,境島村,グンマケン,イセサキシ,サカイシマムラ,群馬県伊勢崎市境島村
3700135,群馬県,伊勢崎市,境小此木,グンマケン,イセサキシ,サカイオコノギ,群馬県伊勢崎市境小此木
3700301,群馬県,太田市,新田天良町,グンマケン,オオタシ,ニッタテンラチョウ,群馬県太田市新田天良町
3700302,群馬県,太田市,新田小金町,グンマケン,オオタシ,ニッタコキンチョウ,群馬県太田市新田小金町
3700303,群馬県,太田市,新田小金井町,グンマケン,オオタシ,ニッタコガナイチョウ,群馬県太田市新田小金井町
3700304,群馬県,太田市,新田市町,グンマケン,オオタシ,ニッタイチチョウ,群馬県太田市新田市町
3700305,群馬県,太田市,新田多村新田町,グンマケン,オオタシ,ニッタタムラシンデンチョウ,群馬県太田市新田多村新田町
3700306,群馬県,太田市,新田市野倉町,グンマケン,オオタシ,ニッタイチノクラチョウ,群馬県太田市新田市野倉町
3700311,群馬県,太田市,新田瑞木町,グンマケン,オオタシ,ニッタミズキチョウ,群馬県太田市新田瑞木町
3700312,群馬県,太田市,新田村田町,グンマケン,オオタシ,ニッタムラタチョウ,群馬県太田市新田村田町
3700313,群馬県,太田市,新田反町町,グンマケン,オオタシ,ニッタソリマチチョウ,群馬県太田市新田反町町
3700314,群馬県,太田市,新田市野井町,グンマケン,オオタシ,ニッタイチノイチョウ,群馬県太田市新田市野井町
3700321,群馬県,太田市,新田木崎町,グンマケン,オオタシ,ニッタキザキチョウ,群馬県太田市新田木崎町
3700331,群馬県,太田市,新田赤堀町,グンマケン,オオタシ,ニッタアカボリチョウ,群馬県太田市新田赤堀町
3700332,群馬県,太田市,新田中江田町,グンマケン,オオタシ,ニッタナカエダチョウ,群馬県太田市新田中江田町
3700333,群馬県,太田市,新田下江田町,グンマケン,オオタシ,ニッタシモエダチョウ,群馬県太田市新田下江田町
3700334,群馬県,太田市,新田高尾町,グンマケン,オオタシ,ニッタタカオチョウ,群馬県太田市新田高尾町
3700341,群馬県,太田市,新田金井町,グンマケン,オオタシ,ニッタカナイチョウ,群馬県太田市新田金井町
3700342,群馬県,太田市,新田上江田町,グンマケン,オオタシ,ニッタカミエダチョウ,群馬県太田市新田上江田町
3700343,群馬県,太田市,新田下田中町,グンマケン,オオタシ,ニッタシモダナカチョウ,群馬県太田市新田下田中町
3700344,群馬県,太田市,新田早川町,グンマケン,オオタシ,ニッタハヤカワチョウ,群馬県太田市新田早川町
3700345,群馬県,太田市,新田花香塚町,グンマケン,オオタシ,ニッタハナカヅカチョウ,群馬県太田市新田花香塚町
3700346,群馬県,太田市,新田上田中町,グンマケン,オオタシ,ニッタカミダナカチョウ,群馬県太田市新田上田中町
3700347,群馬県,太田市,新田大根町,グンマケン,オオタシ,ニッタオオネチョウ,群馬県太田市新田大根町
3700351,群馬県,太田市,新田大町,グンマケン,オオタシ,ニッタオオチョウ,群馬県太田市新田大町
3700352,群馬県,太田市,新田嘉祢町,グンマケン,オオタシ,ニッタカネチョウ,群馬県太田市新田嘉祢町
3700353,群馬県,太田市,新田上中町,グンマケン,オオタシ,ニッタカミナカチョウ,群馬県太田市新田上中町
3700354,群馬県,太田市,新田溜池町,グンマケン,オオタシ,ニッタタメイケチョウ,群馬県太田市新田溜池町
3700355,群馬県,太田市,新田権右衛門町,グンマケン,オオタシ,ニッタゴンエモンチョウ,群馬県太田市新田権右衛門町
3700356,群馬県,太田市,新田萩町,グンマケン,オオタシ,ニッタハギチョウ,群馬県太田市新田萩町
3700401,群馬県,太田市,尾島町,グンマケン,オオタシ,オジマチョウ,群馬県太田市尾島町
3700402,群馬県,太田市,阿久津町,グンマケン,オオタシ,アクツチョウ,群馬県太田市阿久津町
3700403,群馬県,太田市,岩松町,グンマケン,オオタシ,イワマツチョウ,群馬県太田市岩松町
3700404,群馬県,太田市,備前島町,グンマケン,オオタシ,ビゼンジマチョウ,群馬県太田市備前島町
3700405,群馬県,太田市,押切町,グンマケン,オオタシ,オシキリチョウ,群馬県太田市押切町
3700406,群馬県,太田市,前小屋町,グンマケン,オオタシ,マエゴヤチョウ,群馬県太田市前小屋町
3700411,群馬県,太田市,亀岡町,グンマケン,オオタシ,カメオカチョウ,群馬県太田市亀岡町
3700412,群馬県,太田市,太子町,グンマケン,オオタシ,タイシチョウ,群馬県太田市太子町
3700413,群馬県,太田市,すずかけ町,グンマケン,オオタシ,スズカケチョウ,群馬県太田市すずかけ町
3700414,群馬県,太田市,堀口町,グンマケン,オオタシ,ホリグチチョウ,群馬県太田市堀口町
3700415,群馬県,太田市,南ケ丘町,グンマケン,オオタシ,ミナミガオカチョウ,群馬県太田市南ケ丘町
3700416,群馬県,太田市,前島町,グンマケン,オオタシ,マエジマチョウ,群馬県太田市前島町
3700417,群馬県,太田市,二ツ小屋町,グンマケン,オオタシ,フタツゴヤチョウ,群馬県太田市二ツ小屋町
3700418,群馬県,太田市,武蔵島町,グンマケン,オオタシ,ムサシジマチョウ,群馬県太田市武蔵島町
3700421,群馬県,太田市,粕川町,グンマケン,オオタシ,カスカワチョウ,群馬県太田市粕川町
3700422,群馬県,太田市,安養寺町,グンマケン,オオタシ,アンヨウジチョウ,群馬県太田市安養寺町
3700423,群馬県,太田市,大舘町,グンマケン,オオタシ,オオタチチョウ,群馬県太田市大舘町
3700424,群馬県,太田市,出塚町,グンマケン,オオタシ,イデヅカチョウ,群馬県太田市出塚町
3700425,群馬県,太田市,徳川町,グンマケン,オオタシ,トクガワチョウ,群馬県太田市徳川町
3700426,群馬県,太田市,世良田町,グンマケン,オオタシ,セラダチョウ,群馬県太田市世良田町
3700427,群馬県,太田市,小角田町,グンマケン,オオタシ,コズミダチョウ,群馬県太田市小角田町
3700500,群馬県,邑楽郡千代田町,,グンマケン,オウラグンチヨダマチ,,群馬県邑楽郡千代田町
3700500,群馬県,邑楽郡大泉町,,グンマケン,オウラグンオオイズミマチ,,群馬県邑楽郡大泉町
3700501,群馬県,邑楽郡千代田町,福島,グンマケン,オウラグンチヨダマチ,フクジマ,群馬県邑楽郡千代田町福島
3700502,群馬県,邑楽郡千代田町,鍋谷,グンマケン,オウラグンチヨダマチ,ナベヤ,群馬県邑楽郡千代田町鍋谷
3700503,群馬県,邑楽郡千代田町,赤岩,グンマケン,オウラグンチヨダマチ,アカイワ,群馬県邑楽郡千代田町赤岩
3700504,群馬県,邑楽郡千代田町,舞木,グンマケン,オウラグンチヨダマチ,マイギ,群馬県邑楽郡千代田町舞木
3700505,群馬県,邑楽郡千代田町,新福寺,グンマケン,オウラグンチヨダマチ,シンプクジ,群馬県邑楽郡千代田町新福寺
3700506,群馬県,邑楽郡千代田町,赤岩西,グンマケン,オウラグンチヨダマチ,アカイワニシ,群馬県邑楽郡千代田町赤岩西
3700507,群馬県,邑楽郡千代田町,舞木東,グンマケン,オウラグンチヨダマチ,マイギヒガシ,群馬県邑楽郡千代田町舞木東
3700511,群馬県,邑楽郡大泉町,北小泉,グンマケン,オウラグンオオイズミマチ,キタコイズミ,群馬県邑楽郡大泉町北小泉
3700512,群馬県,邑楽郡大泉町,上小泉,グンマケン,オウラグンオオイズミマチ,カミコイズミ,群馬県邑楽郡大泉町上小泉
3700513,群馬県,邑楽郡大泉町,東小泉,グンマケン,オウラグンオオイズミマチ,ヒガシコイズミ,群馬県邑楽郡大泉町東小泉
3700514,群馬県,邑楽郡大泉町,朝日,グンマケン,オウラグンオオイズミマチ,アサヒ,群馬県邑楽郡大泉町朝日
3700515,群馬県,邑楽郡大泉町,下小泉,グンマケン,オウラグンオオイズミマチ,シモコイズミ,群馬県邑楽郡大泉町下小泉
3700516,群馬県,邑楽郡大泉町,中央,グンマケン,オウラグンオオイズミマチ,チュウオウ,群馬県邑楽郡大泉町中央
3700517,群馬県,邑楽郡大泉町,西小泉,グンマケン,オウラグンオオイズミマチ,ニシコイズミ,群馬県邑楽郡大泉町西小泉
3700518,群馬県,邑楽郡大泉町,城之内,グンマケン,オウラグンオオイズミマチ,シロノウチ,群馬県邑楽郡大泉町城之内
3700521,群馬県,邑楽郡大泉町,住吉,グンマケン,オウラグンオオイズミマチ,スミヨシ,群馬県邑楽郡大泉町住吉
3700522,群馬県,邑楽郡大泉町,富士,グンマケン,オウラグンオオイズミマチ,フジ,群馬県邑楽郡大泉町富士
3700523,群馬県,邑楽郡大泉町,吉田,グンマケン,オウラグンオオイズミマチ,ヨシダ,群馬県邑楽郡大泉町吉田
3700524,群馬県,邑楽郡大泉町,古海,グンマケン,オウラグンオオイズミマチ,コカイ,群馬県邑楽郡大泉町古海
3700525,群馬県,邑楽郡大泉町,日の出,グンマケン,オウラグンオオイズミマチ,ヒノデ,群馬県邑楽郡大泉町日の出
3700531,群馬県,邑楽郡大泉町,いずみ,グンマケン,オウラグンオオイズミマチ,イズミ,群馬県邑楽郡大泉町いずみ
3700532,群馬県,邑楽郡大泉町,坂田,グンマケン,オウラグンオオイズミマチ,サカダ,群馬県邑楽郡大泉町坂田
3700533,群馬県,邑楽郡大泉町,仙石,グンマケン,オウラグンオオイズミマチ,センゴク,群馬県邑楽郡大泉町仙石
3700534,群馬県,邑楽郡大泉町,丘山,グンマケン,オウラグンオオイズミマチ,オカヤマ,群馬県邑楽郡大泉町丘山
3700535,群馬県,邑楽郡大泉町,寄木戸,グンマケン,オウラグンオオイズミマチ,ヨリキド,群馬県邑楽郡大泉町寄木戸
3700536,群馬県,邑楽郡大泉町,古氷,グンマケン,オウラグンオオイズミマチ,フルコオリ,群馬県邑楽郡大泉町古氷
3700600,群馬県,邑楽郡邑楽町,,グンマケン,オウラグンオウラマチ,,群馬県邑楽郡邑楽町
3700601,群馬県,邑楽郡邑楽町,鶉,グンマケン,オウラグンオウラマチ,ウズラ,群馬県邑楽郡邑楽町鶉
3700602,群馬県,邑楽郡邑楽町,明野,グンマケン,オウラグンオウラマチ,アケノ,群馬県邑楽郡邑楽町明野
3700603,群馬県,邑楽郡邑楽町,中野,グンマケン,オウラグンオウラマチ,ナカノ,群馬県邑楽郡邑楽町中野
3700604,群馬県,邑楽郡邑楽町,石打,グンマケン,オウラグンオウラマチ,イシウチ,群馬県邑楽郡邑楽町石打
3700605,群馬県,邑楽郡邑楽町,藤川,グンマケン,オウラグンオウラマチ,フジカワ,群馬県邑楽郡邑楽町藤川
3700606,群馬県,邑楽郡邑楽町,秋妻,グンマケン,オウラグンオウラマチ,アキヅマ,群馬県邑楽郡邑楽町秋妻
3700611,群馬県,邑楽郡邑楽町,鶉新田,グンマケン,オウラグンオウラマチ,ウズラシンデン,群馬県邑楽郡邑楽町鶉新田
3700612,群馬県,邑楽郡邑楽町,新中野,グンマケン,オウラグンオウラマチ,シンナカノ,群馬県邑楽郡邑楽町新中野
3700613,群馬県,邑楽郡邑楽町,狸塚,グンマケン,オウラグンオウラマチ,ムジナヅカ,群馬県邑楽郡邑楽町狸塚
3700614,群馬県,邑楽郡邑楽町,赤堀,グンマケン,オウラグンオウラマチ,アカホリ,群馬県邑楽郡邑楽町赤堀
3700615,群馬県,邑楽郡邑楽町,篠塚,グンマケン,オウラグンオウラマチ,シノヅカ,群馬県邑楽郡邑楽町篠塚
3700616,群馬県,邑楽郡邑楽町,光善寺,グンマケン,オウラグンオウラマチ,コウゼンジ,群馬県邑楽郡邑楽町光善寺
3700700,群馬県,邑楽郡明和町,,グンマケン,オウラグンメイワマチ,,群馬県邑楽郡明和町
3700701,群馬県,邑楽郡明和町,南大島,グンマケン,オウラグンメイワマチ,ミナミオオシマ,群馬県邑楽郡明和町南大島
3700702,群馬県,邑楽郡明和町,上江黒,グンマケン,オウラグンメイワマチ,カミエグロ,群馬県邑楽郡明和町上江黒
3700703,群馬県,邑楽郡明和町,下江黒,グンマケン,オウラグンメイワマチ,シモエグロ,群馬県邑楽郡明和町下江黒
3700704,群馬県,邑楽郡明和町,斗合田,グンマケン,オウラグンメイワマチ,トゴウタ,群馬県邑楽郡明和町斗合田
3700705,群馬県,邑楽郡明和町,千津井,グンマケン,オウラグンメイワマチ,センヅイ,群馬県邑楽郡明和町千津井
3700706,群馬県,邑楽郡明和町,江口,グンマケン,オウラグンメイワマチ,エグチ,群馬県邑楽郡明和町江口
3700707,群馬県,邑楽郡明和町,田島,グンマケン,オウラグンメイワマチ,タジマ,群馬県邑楽郡明和町田島
3700708,群馬県,邑楽郡明和町,新里,グンマケン,オウラグンメイワマチ,ニッサト,群馬県邑楽郡明和町新里
3700711,群馬県,邑楽郡明和町,入ケ谷,グンマケン,オウラグンメイワマチ,イリカヤ,群馬県邑楽郡明和町入ケ谷
3700712,群馬県,邑楽郡明和町,矢島,グンマケン,オウラグンメイワマチ,ヤジマ,群馬県邑楽郡明和町矢島
3700713,群馬県,邑楽郡明和町,中谷,グンマケン,オウラグンメイワマチ,ナカヤ,群馬県邑楽郡明和町中谷
3700714,群馬県,邑楽郡明和町,梅原,グンマケン,オウラグンメイワマチ,ウメバラ,群馬県邑楽郡明和町梅原
3700715,群馬県,邑楽郡明和町,大佐貫,グンマケン,オウラグンメイワマチ,オオザヌキ,群馬県邑楽郡明和町大佐貫
3700716,群馬県,邑楽郡明和町,川俣,グンマケン,オウラグンメイワマチ,カワマタ,群馬県邑楽郡明和町川俣
3700717,群馬県,邑楽郡明和町,須賀,グンマケン,オウラグンメイワマチ,スカ,群馬県邑楽郡明和町須賀
3700718,群馬県,邑楽郡明和町,大輪,グンマケン,オウラグンメイワマチ,オオワ,群馬県邑楽郡明和町大輪
3700721,群馬県,邑楽郡千代田町,木崎,グンマケン,オウラグンチヨダマチ,キザキ,群馬県邑楽郡千代田町木崎
3700722,群馬県,邑楽郡千代田町,萱野,グンマケン,オウラグンチヨダマチ,カヤノ,群馬県邑楽郡千代田町萱野
3700723,群馬県,邑楽郡千代田町,昭和,グンマケン,オウラグンチヨダマチ,ショウワ,群馬県邑楽郡千代田町昭和
3700724,群馬県,邑楽郡千代田町,下中森,グンマケン,オウラグンチヨダマチ,シモナカモリ,群馬県邑楽郡千代田町下中森
3700725,群馬県,邑楽郡千代田町,上中森,グンマケン,オウラグンチヨダマチ,カミナカモリ,群馬県邑楽郡千代田町上中森
3700726,群馬県,邑楽郡千代田町,上五箇,グンマケン,オウラグンチヨダマチ,カミゴカ,群馬県邑楽郡千代田町上五箇
3700727,群馬県,邑楽郡千代田町,瀬戸井,グンマケン,オウラグンチヨダマチ,セドイ,群馬県邑楽郡千代田町瀬戸井
3700801,群馬県,高崎市,上並榎町,グンマケン,タカサキシ,カミナミエマチ,群馬県高崎市上並榎町
3700802,群馬県,高崎市,並榎町,グンマケン,タカサキシ,ナミエマチ,群馬県高崎市並榎町
3700803,群馬県,高崎市,大橋町,グンマケン,タカサキシ,オオハシマチ,群馬県高崎市大橋町
3700804,群馬県,高崎市,住吉町,グンマケン,タカサキシ,スミヨシチョウ,群馬県高崎市住吉町
3700805,群馬県,高崎市,台町,グンマケン,タカサキシ,ダイマチ,群馬県高崎市台町
3700806,群馬県,高崎市,上和田町,グンマケン,タカサキシ,カミワダマチ,群馬県高崎市上和田町
3700807,群馬県,高崎市,歌川町,グンマケン,タカサキシ,ウタガワチョウ,群馬県高崎市歌川町
3700811,群馬県,高崎市,相生町,グンマケン,タカサキシ,アイオイチョウ,群馬県高崎市相生町
3700812,群馬県,高崎市,成田町,グンマケン,タカサキシ,ナリタチョウ,群馬県高崎市成田町
3700813,群馬県,高崎市,本町,グンマケン,タカサキシ,モトマチ,群馬県高崎市本町
3700814,群馬県,高崎市,嘉多町,グンマケン,タカサキシ,カタマチ,群馬県高崎市嘉多町
3700815,群馬県,高崎市,柳川町,グンマケン,タカサキシ,ヤナガワチョウ,群馬県高崎市柳川町
3700816,群馬県,高崎市,常盤町,グンマケン,タカサキシ,トキワチョウ,群馬県高崎市常盤町
3700817,群馬県,高崎市,堰代町,グンマケン,タカサキシ,セキシロチョウ,群馬県高崎市堰代町
3700818,群馬県,高崎市,赤坂町,グンマケン,タカサキシ,アカサカマチ,群馬県高崎市赤坂町
3700819,群馬県,高崎市,四ツ屋町,グンマケン,タカサキシ,ヨツヤマチ,群馬県高崎市四ツ屋町
3700821,群馬県,高崎市,新紺屋町,グンマケン,タカサキシ,シンコンヤマチ,群馬県高崎市新紺屋町
3700822,群馬県,高崎市,寄合町,グンマケン,タカサキシ,ヨリアイチョウ,群馬県高崎市寄合町
3700823,群馬県,高崎市,中紺屋町,グンマケン,タカサキシ,ナカコンヤマチ,群馬県高崎市中紺屋町
3700824,群馬県,高崎市,田町,グンマケン,タカサキシ,タマチ,群馬県高崎市田町
3700825,群馬県,高崎市,白銀町,グンマケン,タカサキシ,シロガネチョウ,群馬県高崎市白銀町
3700826,群馬県,高崎市,連雀町,グンマケン,タカサキシ,レンジャクチョウ,群馬県高崎市連雀町
3700827,群馬県,高崎市,鞘町,グンマケン,タカサキシ,サヤチョウ,群馬県高崎市鞘町
3700828,群馬県,高崎市,宮元町,グンマケン,タカサキシ,ミヤモトチョウ,群馬県高崎市宮元町
3700829,群馬県,高崎市,高松町,グンマケン,タカサキシ,タカマツチョウ,群馬県高崎市高松町
3700831,群馬県,高崎市,あら町,グンマケン,タカサキシ,アラマチ,群馬県高崎市あら町
3700832,群馬県,高崎市,砂賀町,グンマケン,タカサキシ,スナガチョウ,群馬県高崎市砂賀町
3700833,群馬県,高崎市,新田町,グンマケン,タカサキシ,シンデンマチ,群馬県高崎市新田町
3700834,群馬県,高崎市,南町,グンマケン,タカサキシ,ミナミチョウ,群馬県高崎市南町
3700835,群馬県,高崎市,竜見町,グンマケン,タカサキシ,タツミチョウ,群馬県高崎市竜見町
3700836,群馬県,高崎市,若松町,グンマケン,タカサキシ,ワカマツチョウ,群馬県高崎市若松町
3700837,群馬県,高崎市,下横町,グンマケン,タカサキシ,シモヨコチョウ,群馬県高崎市下横町
3700838,群馬県,高崎市,鍛冶町,グンマケン,タカサキシ,カジチョウ,群馬県高崎市鍛冶町
3700839,群馬県,高崎市,檜物町,グンマケン,タカサキシ,ヒモノチョウ,群馬県高崎市檜物町
3700841,群馬県,高崎市,栄町,グンマケン,タカサキシ,サカエチョウ,群馬県高崎市栄町
3700842,群馬県,高崎市,北双葉町,グンマケン,タカサキシ,キタフタバチョウ,群馬県高崎市北双葉町
3700843,群馬県,高崎市,双葉町,グンマケン,タカサキシ,フタバチョウ,群馬県高崎市双葉町
3700844,群馬県,高崎市,和田多中町,グンマケン,タカサキシ,ワダタナカマチ,群馬県高崎市和田多中町
3700845,群馬県,高崎市,新後閑町,グンマケン,タカサキシ,シゴカマチ,群馬県高崎市新後閑町
3700846,群馬県,高崎市,下和田町,グンマケン,タカサキシ,シモワダマチ,群馬県高崎市下和田町
3700847,群馬県,高崎市,和田町,グンマケン,タカサキシ,ワダマチ,群馬県高崎市和田町
3700848,群馬県,高崎市,鶴見町,グンマケン,タカサキシ,ツルミチョウ,群馬県高崎市鶴見町
3700849,群馬県,高崎市,八島町,グンマケン,タカサキシ,ヤシマチョウ,群馬県高崎市八島町
3700851,群馬県,高崎市,上中居町,グンマケン,タカサキシ,カミナカイマチ,群馬県高崎市上中居町
3700852,群馬県,高崎市,中居町,グンマケン,タカサキシ,ナカイマチ,群馬県高崎市中居町
3700853,群馬県,高崎市,下中居町,グンマケン,タカサキシ,シモナカイマチ,群馬県高崎市下中居町
3700854,群馬県,高崎市,下之城町,グンマケン,タカサキシ,シモノジョウマチ,群馬県高崎市下之城町
3700855,群馬県,高崎市,下佐野町,グンマケン,タカサキシ,シモサノマチ,群馬県高崎市下佐野町
3700856,群馬県,高崎市,佐野窪町,グンマケン,タカサキシ,サノクボマチ,群馬県高崎市佐野窪町
3700857,群馬県,高崎市,上佐野町,グンマケン,タカサキシ,カミサノマチ,群馬県高崎市上佐野町
3700861,群馬県,高崎市,八千代町,グンマケン,タカサキシ,ヤチヨマチ,群馬県高崎市八千代町
3700862,群馬県,高崎市,片岡町,グンマケン,タカサキシ,カタオカマチ,群馬県高崎市片岡町
3700863,群馬県,高崎市,聖石町,グンマケン,タカサキシ,ヒジリイシマチ,群馬県高崎市聖石町
3700864,群馬県,高崎市,石原町,グンマケン,タカサキシ,イシハラマチ,群馬県高崎市石原町
3700865,群馬県,高崎市,寺尾町,グンマケン,タカサキシ,テラオマチ,群馬県高崎市寺尾町
3700866,群馬県,高崎市,城山町,グンマケン,タカサキシ,シロヤママチ,群馬県高崎市城山町
3700867,群馬県,高崎市,乗附町,グンマケン,タカサキシ,ノツケマチ,群馬県高崎市乗附町
3700868,群馬県,高崎市,鼻高町,グンマケン,タカサキシ,ハナダカマチ,群馬県高崎市鼻高町
3700871,群馬県,高崎市,上豊岡町,グンマケン,タカサキシ,カミトヨオカマチ,群馬県高崎市上豊岡町
3700872,群馬県,高崎市,北久保町,グンマケン,タカサキシ,キタクボマチ,群馬県高崎市北久保町
3700873,群馬県,高崎市,下豊岡町,グンマケン,タカサキシ,シモトヨオカマチ,群馬県高崎市下豊岡町
3700874,群馬県,高崎市,中豊岡町,グンマケン,タカサキシ,ナカトヨオカマチ,群馬県高崎市中豊岡町
3700875,群馬県,高崎市,藤塚町,グンマケン,タカサキシ,フジヅカマチ,群馬県高崎市藤塚町
3700881,群馬県,高崎市,町屋町,グンマケン,タカサキシ,マチヤマチ,群馬県高崎市町屋町
3700882,群馬県,高崎市,金井淵町,グンマケン,タカサキシ,カナイブチマチ,群馬県高崎市金井淵町
3700883,群馬県,高崎市,剣崎町,グンマケン,タカサキシ,ケンザキマチ,群馬県高崎市剣崎町
3700884,群馬県,高崎市,八幡町,グンマケン,タカサキシ,ヤワタマチ,群馬県高崎市八幡町
3700885,群馬県,高崎市,若田町,グンマケン,タカサキシ,ワカタマチ,群馬県高崎市若田町
3700886,群馬県,高崎市,下大島町,グンマケン,タカサキシ,シモオオシママチ,群馬県高崎市下大島町
3701100,群馬県,佐波郡玉村町,,グンマケン,サワグンタマムラマチ,,群馬県佐波郡玉村町
3701101,群馬県,佐波郡玉村町,藤川,グンマケン,サワグンタマムラマチ,フジカワ,群馬県佐波郡玉村町藤川
3701102,群馬県,佐波郡玉村町,飯塚,グンマケン,サワグンタマムラマチ,イイヅカ,群馬県佐波郡玉村町飯塚
3701103,群馬県,佐波郡玉村町,樋越,グンマケン,サワグンタマムラマチ,ヒゴシ,群馬県佐波郡玉村町樋越
3701104,群馬県,佐波郡玉村町,上福島,グンマケン,サワグンタマムラマチ,カミフクシマ,群馬県佐波郡玉村町上福島
3701105,群馬県,佐波郡玉村町,福島,グンマケン,サワグンタマムラマチ,フクジマ,群馬県佐波郡玉村町福島
3701111,群馬県,佐波郡玉村町,南玉,グンマケン,サワグンタマムラマチ,ナンギョク,群馬県佐波郡玉村町南玉
3701112,群馬県,佐波郡玉村町,下之宮,グンマケン,サワグンタマムラマチ,シモノミヤ,群馬県佐波郡玉村町下之宮
3701113,群馬県,佐波郡玉村町,箱石,グンマケン,サワグンタマムラマチ,ハコイシ,群馬県佐波郡玉村町箱石
3701114,群馬県,佐波郡玉村町,小泉,グンマケン,サワグンタマムラマチ,コイズミ,群馬県佐波郡玉村町小泉
3701115,群馬県,佐波郡玉村町,五料,グンマケン,サワグンタマムラマチ,ゴリョウ,群馬県佐波郡玉村町五料
3701116,群馬県,佐波郡玉村町,飯倉,グンマケン,サワグンタマムラマチ,イイグラ,群馬県佐波郡玉村町飯倉
3701117,群馬県,佐波郡玉村町,川井,グンマケン,サワグンタマムラマチ,カワイ,群馬県佐波郡玉村町川井
3701121,群馬県,佐波郡玉村町,上飯島,グンマケン,サワグンタマムラマチ,カミイイジマ,群馬県佐波郡玉村町上飯島
3701122,群馬県,佐波郡玉村町,上茂木,グンマケン,サワグンタマムラマチ,カミモギ,群馬県佐波郡玉村町上茂木
3701123,群馬県,佐波郡玉村町,下茂木,グンマケン,サワグンタマムラマチ,シモモギ,群馬県佐波郡玉村町下茂木
3701124,群馬県,佐波郡玉村町,角渕,グンマケン,サワグンタマムラマチ,ツノブチ,群馬県佐波郡玉村町角渕
3701125,群馬県,佐波郡玉村町,八幡原,グンマケン,サワグンタマムラマチ,ヤワタバラ,群馬県佐波郡玉村町八幡原
3701126,群馬県,佐波郡玉村町,宇貫,グンマケン,サワグンタマムラマチ,ウヌキ,群馬県佐波郡玉村町宇貫
3701127,群馬県,佐波郡玉村町,上之手,グンマケン,サワグンタマムラマチ,カミノテ,群馬県佐波郡玉村町上之手
3701128,群馬県,佐波郡玉村町,後箇,グンマケン,サワグンタマムラマチ,ゴカ,群馬県佐波郡玉村町後箇
3701131,群馬県,佐波郡玉村町,斎田,グンマケン,サワグンタマムラマチ,サイダ,群馬県佐波郡玉村町斎田
3701132,群馬県,佐波郡玉村町,下新田,グンマケン,サワグンタマムラマチ,シモシンデン,群馬県佐波郡玉村町下新田
3701133,群馬県,佐波郡玉村町,上新田,グンマケン,サワグンタマムラマチ,カミシンデン,群馬県佐波郡玉村町上新田
3701134,群馬県,佐波郡玉村町,与六分,グンマケン,サワグンタマムラマチ,ヨロクブ,群馬県佐波郡玉村町与六分
3701135,群馬県,佐波郡玉村町,板井,グンマケン,サワグンタマムラマチ,イタイ,群馬県佐波郡玉村町板井
3701201,群馬県,高崎市,倉賀野町,グンマケン,タカサキシ,クラガノマチ,群馬県高崎市倉賀野町
3701202,群馬県,高崎市,宮原町,グンマケン,タカサキシ,ミヤハラマチ,群馬県高崎市宮原町
3701203,群馬県,高崎市,矢中町,グンマケン,タカサキシ,ヤナカマチ,群馬県高崎市矢中町
3701204,群馬県,高崎市,東中里町,グンマケン,タカサキシ,ヒガシナカサトマチ,群馬県高崎市東中里町
3701205,群馬県,高崎市,栗崎町,グンマケン,タカサキシ,クリザキマチ,群馬県高崎市栗崎町
3701206,群馬県,高崎市,台新田町,グンマケン,タカサキシ,ダイシンデンマチ,群馬県高崎市台新田町
3701207,群馬県,高崎市,綿貫町,グンマケン,タカサキシ,ワタヌキマチ,群馬県高崎市綿貫町
3701208,群馬県,高崎市,岩鼻町,グンマケン,タカサキシ,イワハナマチ,群馬県高崎市岩鼻町
3701211,群馬県,高崎市,阿久津町,グンマケン,タカサキシ,アクツマチ,群馬県高崎市阿久津町
3701212,群馬県,高崎市,木部町,グンマケン,タカサキシ,キベマチ,群馬県高崎市木部町
3701213,群馬県,高崎市,山名町,グンマケン,タカサキシ,ヤマナマチ,群馬県高崎市山名町
3701214,群馬県,高崎市,根小屋町,グンマケン,タカサキシ,ネゴヤマチ,群馬県高崎市根小屋町
3701301,群馬県,高崎市,新町,グンマケン,タカサキシ,シンマチ,群馬県高崎市新町
3701401,群馬県,藤岡市,鬼石,グンマケン,フジオカシ,オニシ,群馬県藤岡市鬼石
3701402,群馬県,藤岡市,譲原,グンマケン,フジオカシ,ユズリハラ,群馬県藤岡市譲原
3701403,群馬県,藤岡市,保美濃山,グンマケン,フジオカシ,ホミノヤマ,群馬県藤岡市保美濃山
3701404,群馬県,藤岡市,坂原,グンマケン,フジオカシ,サカハラ,群馬県藤岡市坂原
3701405,群馬県,藤岡市,三波川,グンマケン,フジオカシ,サンバガワ,群馬県藤岡市三波川
3701406,群馬県,藤岡市,浄法寺,グンマケン,フジオカシ,ジョウボウジ,群馬県藤岡市浄法寺
3701501,群馬県,多野郡神流町,柏木,グンマケン,タノグンカンナマチ,カシワギ,群馬県多野郡神流町柏木
3701502,群馬県,多野郡神流町,麻生,グンマケン,タノグンカンナマチ,アソウ,群馬県多野郡神流町麻生
3701503,群馬県,多野郡神流町,生利,グンマケン,タノグンカンナマチ,ショウリ,群馬県多野郡神流町生利
3701504,群馬県,多野郡神流町,万場,グンマケン,タノグンカンナマチ,マンバ,群馬県多野郡神流町万場
3701505,群馬県,多野郡神流町,森戸,グンマケン,タノグンカンナマチ,モリド,群馬県多野郡神流町森戸
3701506,群馬県,多野郡神流町,黒田,グンマケン,タノグンカンナマチ,クロダ,群馬県多野郡神流町黒田
3701511,群馬県,多野郡神流町,相原,グンマケン,タノグンカンナマチ,アイバラ,群馬県多野郡神流町相原
3701512,群馬県,多野郡神流町,青梨,グンマケン,タノグンカンナマチ,アオナシ,群馬県多野郡神流町青梨
3701513,群馬県,多野郡神流町,小平,グンマケン,タノグンカンナマチ,コダイラ,群馬県多野郡神流町小平
3701514,群馬県,多野郡神流町,塩沢,グンマケン,タノグンカンナマチ,シオザワ,群馬県多野郡神流町塩沢
3701515,群馬県,多野郡神流町,船子,グンマケン,タノグンカンナマチ,フナコ,群馬県多野郡神流町船子
3701600,群馬県,多野郡上野村,,グンマケン,タノグンウエノムラ,,群馬県多野郡上野村
3701600,群馬県,多野郡神流町,,グンマケン,タノグンカンナマチ,,群馬県多野郡神流町
3701601,群馬県,多野郡神流町,魚尾,グンマケン,タノグンカンナマチ,ヨノオ,群馬県多野郡神流町魚尾
3701602,群馬県,多野郡神流町,神ケ原,グンマケン,タノグンカンナマチ,カガハラ,群馬県多野郡神流町神ケ原
3701603,群馬県,多野郡神流町,平原,グンマケン,タノグンカンナマチ,ヘバラ,群馬県多野郡神流町平原
3701604,群馬県,多野郡神流町,尾附,グンマケン,タノグンカンナマチ,オヅク,群馬県多野郡神流町尾附
3701611,群馬県,多野郡上野村,新羽,グンマケン,タノグンウエノムラ,ニッパ,群馬県多野郡上野村新羽
3701612,群馬県,多野郡上野村,野栗沢,グンマケン,タノグンウエノムラ,ノグリサワ,群馬県多野郡上野村野栗沢
3701613,群馬県,多野郡上野村,勝山,グンマケン,タノグンウエノムラ,カツヤマ,群馬県多野郡上野村勝山
3701614,群馬県,多野郡上野村,川和,グンマケン,タノグンウエノムラ,カワワ,群馬県多野郡上野村川和
3701615,群馬県,多野郡上野村,乙母,グンマケン,タノグンウエノムラ,オトモ,群馬県多野郡上野村乙母
3701616,群馬県,多野郡上野村,乙父,グンマケン,タノグンウエノムラ,オッチ,群馬県多野郡上野村乙父
3701617,群馬県,多野郡上野村,楢原,グンマケン,タノグンウエノムラ,ナラハラ,群馬県多野郡上野村楢原
3702101,群馬県,高崎市,吉井町南陽台,グンマケン,タカサキシ,ヨシイマチナンヨウダイ,群馬県高崎市吉井町南陽台
3702102,群馬県,高崎市,吉井町小暮,グンマケン,タカサキシ,ヨシイマチコグレ,群馬県高崎市吉井町小暮
3702103,群馬県,高崎市,吉井町岩井,グンマケン,タカサキシ,ヨシイマチイワイ,群馬県高崎市吉井町岩井
3702104,群馬県,高崎市,吉井町馬庭,グンマケン,タカサキシ,ヨシイマチマニワ,群馬県高崎市吉井町馬庭
3702105,群馬県,高崎市,吉井町中島,グンマケン,タカサキシ,ヨシイマチナカジマ,群馬県高崎市吉井町中島
3702106,群馬県,高崎市,吉井町矢田,グンマケン,タカサキシ,ヨシイマチヤタ,群馬県高崎市吉井町矢田
3702107,群馬県,高崎市,吉井町池,グンマケン,タカサキシ,ヨシイマチイケ,群馬県高崎市吉井町池
3702111,群馬県,高崎市,吉井町小串,グンマケン,タカサキシ,ヨシイマチオグシ,群馬県高崎市吉井町小串
3702112,群馬県,高崎市,吉井町黒熊,グンマケン,タカサキシ,ヨシイマチクロクマ,群馬県高崎市吉井町黒熊
3702113,群馬県,高崎市,吉井町深沢,グンマケン,タカサキシ,ヨシイマチフカサワ,群馬県高崎市吉井町深沢
3702114,群馬県,高崎市,吉井町石神,グンマケン,タカサキシ,ヨシイマチイシガミ,群馬県高崎市吉井町石神
3702115,群馬県,高崎市,吉井町多比良,グンマケン,タカサキシ,ヨシイマチタイラ,群馬県高崎市吉井町多比良
3702116,群馬県,高崎市,吉井町多胡,グンマケン,タカサキシ,ヨシイマチタゴ,群馬県高崎市吉井町多胡
3702121,群馬県,高崎市,吉井町下長根,グンマケン,タカサキシ,ヨシイマチシモナガネ,群馬県高崎市吉井町下長根
3702122,群馬県,高崎市,吉井町高,グンマケン,タカサキシ,ヨシイマチタカ,群馬県高崎市吉井町高
3702123,群馬県,高崎市,吉井町神保,グンマケン,タカサキシ,ヨシイマチジンボ,群馬県高崎市吉井町神保
3702124,群馬県,高崎市,吉井町塩,グンマケン,タカサキシ,ヨシイマチシオ,群馬県高崎市吉井町塩
3702125,群馬県,高崎市,吉井町大沢,グンマケン,タカサキシ,ヨシイマチオオサワ,群馬県高崎市吉井町大沢
3702126,群馬県,高崎市,吉井町東谷,グンマケン,タカサキシ,ヨシイマチヒガシヤ,群馬県高崎市吉井町東谷
3702127,群馬県,高崎市,吉井町長根,グンマケン,タカサキシ,ヨシイマチナガネ,群馬県高崎市吉井町長根
3702128,群馬県,高崎市,吉井町本郷,グンマケン,タカサキシ,ヨシイマチホンゴウ,群馬県高崎市吉井町本郷
3702131,群馬県,高崎市,吉井町岩崎,グンマケン,タカサキシ,ヨシイマチイワザキ,群馬県高崎市吉井町岩崎
3702132,群馬県,高崎市,吉井町吉井,グンマケン,タカサキシ,ヨシイマチヨシイ,群馬県高崎市吉井町吉井
3702133,群馬県,高崎市,吉井町吉井川,グンマケン,タカサキシ,ヨシイマチヨシイカワ,群馬県高崎市吉井町吉井川
3702134,群馬県,高崎市,吉井町塩川,グンマケン,タカサキシ,ヨシイマチシオガワ,群馬県高崎市吉井町塩川
3702135,群馬県,高崎市,吉井町片山,グンマケン,タカサキシ,ヨシイマチカタヤマ,群馬県高崎市吉井町片山
3702136,群馬県,高崎市,吉井町小棚,グンマケン,タカサキシ,ヨシイマチコタナ,群馬県高崎市吉井町小棚
3702137,群馬県,高崎市,吉井町坂口,グンマケン,タカサキシ,ヨシイマチサカグチ,群馬県高崎市吉井町坂口
3702138,群馬県,高崎市,吉井町下奥平,グンマケン,タカサキシ,ヨシイマチシモオクダイラ,群馬県高崎市吉井町下奥平
3702139,群馬県,高崎市,吉井町上奥平,グンマケン,タカサキシ,ヨシイマチカミオクダイラ,群馬県高崎市吉井町上奥平
3702200,群馬県,甘楽郡甘楽町,,グンマケン,カンラグンカンラマチ,,群馬県甘楽郡甘楽町
3702201,群馬県,甘楽郡甘楽町,上野,グンマケン,カンラグンカンラマチ,ウエノ,群馬県甘楽郡甘楽町上野
3702202,群馬県,甘楽郡甘楽町,小幡,グンマケン,カンラグンカンラマチ,オバタ,群馬県甘楽郡甘楽町小幡
3702203,群馬県,甘楽郡甘楽町,轟,グンマケン,カンラグンカンラマチ,トドロク,群馬県甘楽郡甘楽町轟
3702204,群馬県,甘楽郡甘楽町,秋畑,グンマケン,カンラグンカンラマチ,アキハタ,群馬県甘楽郡甘楽町秋畑
3702205,群馬県,甘楽郡甘楽町,国峰,グンマケン,カンラグンカンラマチ,クニミネ,群馬県甘楽郡甘楽町国峰
3702206,群馬県,甘楽郡甘楽町,善慶寺,グンマケン,カンラグンカンラマチ,ゼンケイジ,群馬県甘楽郡甘楽町善慶寺
3702211,群馬県,甘楽郡甘楽町,小川,グンマケン,カンラグンカンラマチ,オガワ,群馬県甘楽郡甘楽町小川
3702212,群馬県,甘楽郡甘楽町,福島,グンマケン,カンラグンカンラマチ,フクシマ,群馬県甘楽郡甘楽町福島
3702213,群馬県,甘楽郡甘楽町,白倉,グンマケン,カンラグンカンラマチ,シラクラ,群馬県甘楽郡甘楽町白倉
3702214,群馬県,甘楽郡甘楽町,庭谷,グンマケン,カンラグンカンラマチ,ニワヤ,群馬県甘楽郡甘楽町庭谷
3702215,群馬県,甘楽郡甘楽町,造石,グンマケン,カンラグンカンラマチ,ツクリイシ,群馬県甘楽郡甘楽町造石
3702216,群馬県,甘楽郡甘楽町,金井,グンマケン,カンラグンカンラマチ,カナイ,群馬県甘楽郡甘楽町金井
3702217,群馬県,甘楽郡甘楽町,天引,グンマケン,カンラグンカンラマチ,アマビキ,群馬県甘楽郡甘楽町天引
3702300,群馬県,富岡市,,グンマケン,トミオカシ,,群馬県富岡市
3702301,群馬県,富岡市,桑原,グンマケン,トミオカシ,クワハラ,群馬県富岡市桑原
3702302,群馬県,富岡市,小桑原,グンマケン,トミオカシ,コクワハラ,群馬県富岡市小桑原
3702303,群馬県,富岡市,蕨,グンマケン,トミオカシ,ワラビ,群馬県富岡市蕨
3702304,群馬県,富岡市,後賀,グンマケン,トミオカシ,ゴカ,群馬県富岡市後賀
3702305,群馬県,富岡市,白岩,グンマケン,トミオカシ,シライワ,群馬県富岡市白岩
3702306,群馬県,富岡市,相野田,グンマケン,トミオカシ,アイノタ,群馬県富岡市相野田
3702307,群馬県,富岡市,藤木,グンマケン,トミオカシ,フジキ,群馬県富岡市藤木
3702311,群馬県,富岡市,下高尾,グンマケン,トミオカシ,シモタカオ,群馬県富岡市下高尾
3702312,群馬県,富岡市,星田,グンマケン,トミオカシ,ホシダ,群馬県富岡市星田
3702313,群馬県,富岡市,君川,グンマケン,トミオカシ,キミカワ,群馬県富岡市君川
3702314,群馬県,富岡市,田篠,グンマケン,トミオカシ,タジノ,群馬県富岡市田篠
3702315,群馬県,富岡市,曽木,グンマケン,トミオカシ,ソギ,群馬県富岡市曽木
3702316,群馬県,富岡市,富岡,グンマケン,トミオカシ,トミオカ,群馬県富岡市富岡
3702317,群馬県,富岡市,上高尾,グンマケン,トミオカシ,カミタカオ,群馬県富岡市上高尾
3702321,群馬県,富岡市,岡本,グンマケン,トミオカシ,オカモト,群馬県富岡市岡本
3702322,群馬県,富岡市,岩染,グンマケン,トミオカシ,イワソメ,群馬県富岡市岩染
3702323,群馬県,富岡市,野上,グンマケン,トミオカシ,ノガミ,群馬県富岡市野上
3702324,群馬県,富岡市,南後箇,グンマケン,トミオカシ,ミナミゴカ,群馬県富岡市南後箇
3702331,群馬県,富岡市,内匠,グンマケン,トミオカシ,タクミ,群馬県富岡市内匠
3702332,群馬県,富岡市,下高瀬,グンマケン,トミオカシ,シモダカセ,群馬県富岡市下高瀬
3702333,群馬県,富岡市,中高瀬,グンマケン,トミオカシ,ナカダカセ,群馬県富岡市中高瀬
3702334,群馬県,富岡市,上高瀬,グンマケン,トミオカシ,カミダカセ,群馬県富岡市上高瀬
3702335,群馬県,富岡市,大島,グンマケン,トミオカシ,オオシマ,群馬県富岡市大島
3702341,群馬県,富岡市,下黒岩,グンマケン,トミオカシ,シモクロイワ,群馬県富岡市下黒岩
3702342,群馬県,富岡市,別保,グンマケン,トミオカシ,ベツポ,群馬県富岡市別保
3702343,群馬県,富岡市,七日市,グンマケン,トミオカシ,ナノカイチ,群馬県富岡市七日市
3702344,群馬県,富岡市,黒川,グンマケン,トミオカシ,クロカワ,群馬県富岡市黒川
3702345,群馬県,富岡市,上黒岩,グンマケン,トミオカシ,カミクロイワ,群馬県富岡市上黒岩
3702411,群馬県,富岡市,妙義町上高田,グンマケン,トミオカシ,ミョウギマチカミタカタ,群馬県富岡市妙義町上高田
3702412,群馬県,富岡市,妙義町下高田,グンマケン,トミオカシ,ミョウギマチシモタカタ,群馬県富岡市妙義町下高田
3702413,群馬県,富岡市,妙義町八木連,グンマケン,トミオカシ,ミョウギマチヤギツレ,群馬県富岡市妙義町八木連
3702451,群馬県,富岡市,宇田,グンマケン,トミオカシ,ウダ,群馬県富岡市宇田
3702452,群馬県,富岡市,一ノ宮,グンマケン,トミオカシ,イチノミヤ,群馬県富岡市一ノ宮
3702453,群馬県,富岡市,宮崎,グンマケン,トミオカシ,ミヤザキ,群馬県富岡市宮崎
3702454,群馬県,富岡市,田島,グンマケン,トミオカシ,タジマ,群馬県富岡市田島
3702455,群馬県,富岡市,神農原,グンマケン,トミオカシ,カノハラ,群馬県富岡市神農原
3702456,群馬県,富岡市,上小林,グンマケン,トミオカシ,カミコバヤシ,群馬県富岡市上小林
3702461,群馬県,富岡市,上丹生,グンマケン,トミオカシ,カミニュウ,群馬県富岡市上丹生
3702462,群馬県,富岡市,下丹生,グンマケン,トミオカシ,シモニュウ,群馬県富岡市下丹生
3702463,群馬県,富岡市,神成,グンマケン,トミオカシ,カンナリ,群馬県富岡市神成
3702464,群馬県,富岡市,南蛇井,グンマケン,トミオカシ,ナンジャイ,群馬県富岡市南蛇井
3702465,群馬県,富岡市,中沢,グンマケン,トミオカシ,ナカザワ,群馬県富岡市中沢
3702466,群馬県,富岡市,蚊沼,グンマケン,トミオカシ,カヌマ,群馬県富岡市蚊沼
3702467,群馬県,富岡市,原,グンマケン,トミオカシ,ハラ,群馬県富岡市原
3702600,群馬県,甘楽郡下仁田町,,グンマケン,カンラグンシモニタマチ,,群馬県甘楽郡下仁田町
3702601,群馬県,甘楽郡下仁田町,下仁田,グンマケン,カンラグンシモニタマチ,シモニタ,群馬県甘楽郡下仁田町下仁田
3702602,群馬県,甘楽郡下仁田町,白山,グンマケン,カンラグンシモニタマチ,ハクサン,群馬県甘楽郡下仁田町白山
3702603,群馬県,甘楽郡下仁田町,馬山,グンマケン,カンラグンシモニタマチ,マヤマ,群馬県甘楽郡下仁田町馬山
3702604,群馬県,甘楽郡下仁田町,吉崎,グンマケン,カンラグンシモニタマチ,ヨシザキ,群馬県甘楽郡下仁田町吉崎
3702605,群馬県,甘楽郡下仁田町,栗山,グンマケン,カンラグンシモニタマチ,クリヤマ,群馬県甘楽郡下仁田町栗山
3702606,群馬県,甘楽郡下仁田町,川井,グンマケン,カンラグンシモニタマチ,カワイ,群馬県甘楽郡下仁田町川井
3702611,群馬県,甘楽郡下仁田町,青倉,グンマケン,カンラグンシモニタマチ,アオクラ,群馬県甘楽郡下仁田町青倉
3702612,群馬県,甘楽郡下仁田町,平原,グンマケン,カンラグンシモニタマチ,ヘバラ,群馬県甘楽郡下仁田町平原
3702613,群馬県,甘楽郡下仁田町,大桑原,グンマケン,カンラグンシモニタマチ,オオクワハラ,群馬県甘楽郡下仁田町大桑原
3702614,群馬県,甘楽郡下仁田町,風口,グンマケン,カンラグンシモニタマチ,カザクチ,群馬県甘楽郡下仁田町風口
3702615,群馬県,甘楽郡下仁田町,宮室,グンマケン,カンラグンシモニタマチ,ミヤムロ,群馬県甘楽郡下仁田町宮室
3702616,群馬県,甘楽郡下仁田町,下郷,グンマケン,カンラグンシモニタマチ,シモゴウ,群馬県甘楽郡下仁田町下郷
3702621,群馬県,甘楽郡下仁田町,上小坂,グンマケン,カンラグンシモニタマチ,カミオサカ,群馬県甘楽郡下仁田町上小坂
3702622,群馬県,甘楽郡下仁田町,中小坂,グンマケン,カンラグンシモニタマチ,ナカオサカ,群馬県甘楽郡下仁田町中小坂
3702623,群馬県,甘楽郡下仁田町,下小坂,グンマケン,カンラグンシモニタマチ,シモオサカ,群馬県甘楽郡下仁田町下小坂
3702624,群馬県,甘楽郡下仁田町,東野牧,グンマケン,カンラグンシモニタマチ,ヒガシノマキ,群馬県甘楽郡下仁田町東野牧
3702625,群馬県,甘楽郡下仁田町,本宿,グンマケン,カンラグンシモニタマチ,モトジュク,群馬県甘楽郡下仁田町本宿
3702626,群馬県,甘楽郡下仁田町,南野牧,グンマケン,カンラグンシモニタマチ,ミナミノマキ,群馬県甘楽郡下仁田町南野牧
3702627,群馬県,甘楽郡下仁田町,西野牧,グンマケン,カンラグンシモニタマチ,ニシノマキ,群馬県甘楽郡下仁田町西野牧
3702800,群馬県,甘楽郡南牧村,,グンマケン,カンラグンナンモクムラ,,群馬県甘楽郡南牧村
3702801,群馬県,甘楽郡南牧村,大塩沢,グンマケン,カンラグンナンモクムラ,オオシオザワ,群馬県甘楽郡南牧村大塩沢
3702802,群馬県,甘楽郡南牧村,小沢,グンマケン,カンラグンナンモクムラ,オザワ,群馬県甘楽郡南牧村小沢
3702803,群馬県,甘楽郡南牧村,千原,グンマケン,カンラグンナンモクムラ,チハラ,群馬県甘楽郡南牧村千原
3702804,群馬県,甘楽郡南牧村,磐戸,グンマケン,カンラグンナンモクムラ,イワド,群馬県甘楽郡南牧村磐戸
3702805,群馬県,甘楽郡南牧村,檜沢,グンマケン,カンラグンナンモクムラ,ヒサワ,群馬県甘楽郡南牧村檜沢
3702806,群馬県,甘楽郡南牧村,大日向,グンマケン,カンラグンナンモクムラ,オオヒナタ,群馬県甘楽郡南牧村大日向
3702811,群馬県,甘楽郡南牧村,六車,グンマケン,カンラグンナンモクムラ,ムクルマ,群馬県甘楽郡南牧村六車
3702812,群馬県,甘楽郡南牧村,大仁田,グンマケン,カンラグンナンモクムラ,オオニタ,群馬県甘楽郡南牧村大仁田
3702813,群馬県,甘楽郡南牧村,砥沢,グンマケン,カンラグンナンモクムラ,トザワ,群馬県甘楽郡南牧村砥沢
3702814,群馬県,甘楽郡南牧村,羽沢,グンマケン,カンラグンナンモクムラ,ハザワ,群馬県甘楽郡南牧村羽沢
3702815,群馬県,甘楽郡南牧村,熊倉,グンマケン,カンラグンナンモクムラ,クマクラ,群馬県甘楽郡南牧村熊倉
3702816,群馬県,甘楽郡南牧村,星尾,グンマケン,カンラグンナンモクムラ,ホシオ,群馬県甘楽郡南牧村星尾
3703101,群馬県,高崎市,箕郷町柏木沢,グンマケン,タカサキシ,ミサトマチカシワギザワ,群馬県高崎市箕郷町柏木沢
3703102,群馬県,高崎市,箕郷町生原,グンマケン,タカサキシ,ミサトマチオイバラ,群馬県高崎市箕郷町生原
3703103,群馬県,高崎市,箕郷町下芝,グンマケン,タカサキシ,ミサトマチシモシバ,群馬県高崎市箕郷町下芝
3703104,群馬県,高崎市,箕郷町上芝,グンマケン,タカサキシ,ミサトマチカミシバ,群馬県高崎市箕郷町上芝
3703105,群馬県,高崎市,箕郷町西明屋,グンマケン,タカサキシ,ミサトマチニシアキヤ,群馬県高崎市箕郷町西明屋
3703106,群馬県,高崎市,箕郷町東明屋,グンマケン,タカサキシ,ミサトマチヒガシアキヤ,群馬県高崎市箕郷町東明屋
3703107,群馬県,高崎市,箕郷町矢原,グンマケン,タカサキシ,ミサトマチヤバラ,群馬県高崎市箕郷町矢原
3703111,群馬県,高崎市,箕郷町中野,グンマケン,タカサキシ,ミサトマチナカノ,群馬県高崎市箕郷町中野
3703112,群馬県,高崎市,箕郷町善地,グンマケン,タカサキシ,ミサトマチゼンジ,群馬県高崎市箕郷町善地
3703113,群馬県,高崎市,箕郷町松之沢,グンマケン,タカサキシ,ミサトマチマツノサワ,群馬県高崎市箕郷町松之沢
3703114,群馬県,高崎市,箕郷町金敷平,グンマケン,タカサキシ,ミサトマチカナシキダイラ,群馬県高崎市箕郷町金敷平
3703115,群馬県,高崎市,箕郷町富岡,グンマケン,タカサキシ,ミサトマチトミオカ,群馬県高崎市箕郷町富岡
3703116,群馬県,高崎市,箕郷町和田山,グンマケン,タカサキシ,ミサトマチワダヤマ,群馬県高崎市箕郷町和田山
3703117,群馬県,高崎市,箕郷町白川,グンマケン,タカサキシ,ミサトマチシラカワ,群馬県高崎市箕郷町白川
3703311,群馬県,吾妻郡東吾妻町,岡崎（烏帽子「榛名湖畔」）,グンマケン,アガツマグンヒガシアガツママチ,オカザキ(エボシ<ハルナコハン>),群馬県吾妻郡東吾妻町岡崎（烏帽子「榛名湖畔」）
3703321,群馬県,吾妻郡東吾妻町,泉沢（烏帽子「榛名湖畔」、烏帽子国有林７７林班）,グンマケン,アガツマグンヒガシアガツママチ,イズミサワ(エボシ(ハルナコハン)、エボシコクユウリン77リンハン),群馬県吾妻郡東吾妻町泉沢（烏帽子「榛名湖畔」、烏帽子国有林77林班）
3703322,群馬県,吾妻郡東吾妻町,川戸（烏帽子「榛名湖畔」）,グンマケン,アガツマグンヒガシアガツママチ,カワド(エボシ<ハルナコハン>),群馬県吾妻郡東吾妻町川戸（烏帽子「榛名湖畔」）
3703331,群馬県,高崎市,十文字町,グンマケン,タカサキシ,ジュウモンジマチ,群馬県高崎市十文字町
3703332,群馬県,高崎市,白岩町,グンマケン,タカサキシ,シライワマチ,群馬県高崎市白岩町
3703333,群馬県,高崎市,高浜町,グンマケン,タカサキシ,タカハママチ,群馬県高崎市高浜町
3703334,群馬県,高崎市,本郷町,グンマケン,タカサキシ,ホンゴウマチ,群馬県高崎市本郷町
3703335,群馬県,高崎市,上大島町,グンマケン,タカサキシ,カミオオシママチ,群馬県高崎市上大島町
3703336,群馬県,高崎市,神戸町,グンマケン,タカサキシ,ゴウドマチ,群馬県高崎市神戸町
3703337,群馬県,高崎市,三ツ子沢町,グンマケン,タカサキシ,ミツゴサワマチ,群馬県高崎市三ツ子沢町
3703338,群馬県,高崎市,宮沢町,グンマケン,タカサキシ,ミヤザワマチ,群馬県高崎市宮沢町
3703341,群馬県,高崎市,榛名山町,グンマケン,タカサキシ,ハルナサンマチ,群馬県高崎市榛名山町
3703342,群馬県,高崎市,下室田町,グンマケン,タカサキシ,シモムロダマチ,群馬県高崎市下室田町
3703343,群馬県,高崎市,下里見町,グンマケン,タカサキシ,シモサトミマチ,群馬県高崎市下里見町
3703344,群馬県,高崎市,中里見町,グンマケン,タカサキシ,ナカサトミマチ,群馬県高崎市中里見町
3703345,群馬県,高崎市,上里見町,グンマケン,タカサキシ,カミサトミマチ,群馬県高崎市上里見町
3703346,群馬県,高崎市,上室田町,グンマケン,タカサキシ,カミムロダマチ,群馬県高崎市上室田町
3703347,群馬県,高崎市,中室田町,グンマケン,タカサキシ,ナカムロダマチ,群馬県高崎市中室田町
3703348,群馬県,高崎市,榛名湖町,グンマケン,タカサキシ,ハルナコマチ,群馬県高崎市榛名湖町
3703401,群馬県,高崎市,倉渕町権田,グンマケン,タカサキシ,クラブチマチゴンダ,群馬県高崎市倉渕町権田
3703402,群馬県,高崎市,倉渕町三ノ倉,グンマケン,タカサキシ,クラブチマチサンノクラ,群馬県高崎市倉渕町三ノ倉
3703403,群馬県,高崎市,倉渕町水沼,グンマケン,タカサキシ,クラブチマチミズヌマ,群馬県高崎市倉渕町水沼
3703404,群馬県,高崎市,倉渕町岩氷,グンマケン,タカサキシ,クラブチマチイワコオリ,群馬県高崎市倉渕町岩氷
3703405,群馬県,高崎市,倉渕町川浦,グンマケン,タカサキシ,クラブチマチカワウラ,群馬県高崎市倉渕町川浦
3703500,群馬県,北群馬郡榛東村,,グンマケン,キタグンマグンシントウムラ,,群馬県北群馬郡榛東村
3703501,群馬県,北群馬郡榛東村,長岡,グンマケン,キタグンマグンシントウムラ,ナガオカ,群馬県北群馬郡榛東村長岡
3703502,群馬県,北群馬郡榛東村,山子田,グンマケン,キタグンマグンシントウムラ,ヤマコダ,群馬県北群馬郡榛東村山子田
3703503,群馬県,北群馬郡榛東村,新井,グンマケン,キタグンマグンシントウムラ,アライ,群馬県北群馬郡榛東村新井
3703504,群馬県,北群馬郡榛東村,広馬場,グンマケン,キタグンマグンシントウムラ,ヒロババ,群馬県北群馬郡榛東村広馬場
3703505,群馬県,北群馬郡榛東村,上野原,グンマケン,キタグンマグンシントウムラ,ウエノハラ,群馬県北群馬郡榛東村上野原
3703511,群馬県,高崎市,金古町,グンマケン,タカサキシ,カネコマチ,群馬県高崎市金古町
3703512,群馬県,高崎市,西国分町,グンマケン,タカサキシ,ニシコクブマチ,群馬県高崎市西国分町
3703513,群馬県,高崎市,北原町,グンマケン,タカサキシ,キタハラマチ,群馬県高崎市北原町
3703514,群馬県,高崎市,東国分町,グンマケン,タカサキシ,ヒガシコクブマチ,群馬県高崎市東国分町
3703515,群馬県,高崎市,塚田町,グンマケン,タカサキシ,ツカダマチ,群馬県高崎市塚田町
3703516,群馬県,高崎市,稲荷台町,グンマケン,タカサキシ,トウカダイマチ,群馬県高崎市稲荷台町
3703517,群馬県,高崎市,引間町,グンマケン,タカサキシ,ヒキママチ,群馬県高崎市引間町
3703518,群馬県,高崎市,後疋間町,グンマケン,タカサキシ,ウシロヒキママチ,群馬県高崎市後疋間町
3703519,群馬県,高崎市,冷水町,グンマケン,タカサキシ,ヒヤミズマチ,群馬県高崎市冷水町
3703521,群馬県,高崎市,棟高町,グンマケン,タカサキシ,ムナダカマチ,群馬県高崎市棟高町
3703522,群馬県,高崎市,菅谷町,グンマケン,タカサキシ,スガヤマチ,群馬県高崎市菅谷町
3703523,群馬県,高崎市,福島町,グンマケン,タカサキシ,フクシママチ,群馬県高崎市福島町
3703524,群馬県,高崎市,中泉町,グンマケン,タカサキシ,ナカイズミマチ,群馬県高崎市中泉町
3703525,群馬県,高崎市,三ツ寺町,グンマケン,タカサキシ,ミツデラマチ,群馬県高崎市三ツ寺町
3703531,群馬県,高崎市,足門町,グンマケン,タカサキシ,アシカドマチ,群馬県高崎市足門町
3703532,群馬県,高崎市,中里町,グンマケン,タカサキシ,ナカザトマチ,群馬県高崎市中里町
3703533,群馬県,高崎市,保渡田町,グンマケン,タカサキシ,ホドタマチ,群馬県高崎市保渡田町
3703534,群馬県,高崎市,井出町,グンマケン,タカサキシ,イデマチ,群馬県高崎市井出町
3703571,群馬県,前橋市,池端町,グンマケン,マエバシシ,イケハタマチ,群馬県前橋市池端町
3703572,群馬県,前橋市,上青梨子町,グンマケン,マエバシシ,カミアオナシマチ,群馬県前橋市上青梨子町
3703573,群馬県,前橋市,青梨子町,グンマケン,マエバシシ,アオナシマチ,群馬県前橋市青梨子町
3703574,群馬県,前橋市,清野町,グンマケン,マエバシシ,キヨノマチ,群馬県前橋市清野町
3703600,群馬県,北群馬郡吉岡町,,グンマケン,キタグンマグンヨシオカマチ,,群馬県北群馬郡吉岡町
3703601,群馬県,北群馬郡吉岡町,漆原,グンマケン,キタグンマグンヨシオカマチ,ウルシバラ,群馬県北群馬郡吉岡町漆原
3703602,群馬県,北群馬郡吉岡町,大久保,グンマケン,キタグンマグンヨシオカマチ,オオクボ,群馬県北群馬郡吉岡町大久保
3703603,群馬県,北群馬郡吉岡町,陣場,グンマケン,キタグンマグンヨシオカマチ,ジンバ,群馬県北群馬郡吉岡町陣場
3703604,群馬県,北群馬郡吉岡町,南下,グンマケン,キタグンマグンヨシオカマチ,ミナミシモ,群馬県北群馬郡吉岡町南下
3703605,群馬県,北群馬郡吉岡町,北下,グンマケン,キタグンマグンヨシオカマチ,キタシモ,群馬県北群馬郡吉岡町北下
3703606,群馬県,北群馬郡吉岡町,上野田,グンマケン,キタグンマグンヨシオカマチ,カミノダ,群馬県北群馬郡吉岡町上野田
3703607,群馬県,北群馬郡吉岡町,小倉,グンマケン,キタグンマグンヨシオカマチ,オグラ,群馬県北群馬郡吉岡町小倉
3703608,群馬県,北群馬郡吉岡町,下野田,グンマケン,キタグンマグンヨシオカマチ,シモノダ,群馬県北群馬郡吉岡町下野田
3710000,群馬県,前橋市,,グンマケン,マエバシシ,,群馬県前橋市
3710001,群馬県,前橋市,荻窪町,グンマケン,マエバシシ,オギクボマチ,群馬県前橋市荻窪町
3710002,群馬県,前橋市,江木町,グンマケン,マエバシシ,エギマチ,群馬県前橋市江木町
3710003,群馬県,前橋市,堤町,グンマケン,マエバシシ,ツツミマチ,群馬県前橋市堤町
3710004,群馬県,前橋市,亀泉町,グンマケン,マエバシシ,カメイズミマチ,群馬県前橋市亀泉町
3710005,群馬県,前橋市,堀之下町,グンマケン,マエバシシ,ホリノシタマチ,群馬県前橋市堀之下町
3710006,群馬県,前橋市,石関町,グンマケン,マエバシシ,イシゼキマチ,群馬県前橋市石関町
3710007,群馬県,前橋市,上泉町,グンマケン,マエバシシ,カミイズミマチ,群馬県前橋市上泉町
3710011,群馬県,前橋市,下沖町,グンマケン,マエバシシ,シモオキマチ,群馬県前橋市下沖町
3710012,群馬県,前橋市,東片貝町,グンマケン,マエバシシ,ヒガシカタカイマチ,群馬県前橋市東片貝町
3710013,群馬県,前橋市,西片貝町,グンマケン,マエバシシ,ニシカタカイマチ,群馬県前橋市西片貝町
3710014,群馬県,前橋市,朝日町,グンマケン,マエバシシ,アサヒチョウ,群馬県前橋市朝日町
3710015,群馬県,前橋市,三河町,グンマケン,マエバシシ,ミカワチョウ,群馬県前橋市三河町
3710016,群馬県,前橋市,城東町,グンマケン,マエバシシ,ジョウトウマチ,群馬県前橋市城東町
3710017,群馬県,前橋市,日吉町,グンマケン,マエバシシ,ヒヨシチョウ,群馬県前橋市日吉町
3710018,群馬県,前橋市,三俣町,グンマケン,マエバシシ,ミツマタマチ,群馬県前橋市三俣町
3710021,群馬県,前橋市,住吉町,グンマケン,マエバシシ,スミヨシチョウ,群馬県前橋市住吉町
3710022,群馬県,前橋市,千代田町,グンマケン,マエバシシ,チヨダマチ,群馬県前橋市千代田町
3710023,群馬県,前橋市,本町,グンマケン,マエバシシ,ホンマチ,群馬県前橋市本町
3710024,群馬県,前橋市,表町,グンマケン,マエバシシ,オモテチョウ,群馬県前橋市表町
3710025,群馬県,前橋市,紅雲町,グンマケン,マエバシシ,コウウンチョウ,群馬県前橋市紅雲町
3710026,群馬県,前橋市,大手町,グンマケン,マエバシシ,オオテマチ,群馬県前橋市大手町
3710027,群馬県,前橋市,平和町,グンマケン,マエバシシ,ヘイワマチ,群馬県前橋市平和町
3710031,群馬県,前橋市,下小出町,グンマケン,マエバシシ,シモコイデマチ,群馬県前橋市下小出町
3710032,群馬県,前橋市,若宮町,グンマケン,マエバシシ,ワカミヤチョウ,群馬県前橋市若宮町
3710033,群馬県,前橋市,国領町,グンマケン,マエバシシ,コクリョウマチ,群馬県前橋市国領町
3710034,群馬県,前橋市,昭和町,グンマケン,マエバシシ,ショウワマチ,群馬県前橋市昭和町
3710035,群馬県,前橋市,岩神町,グンマケン,マエバシシ,イワガミマチ,群馬県前橋市岩神町
3710036,群馬県,前橋市,敷島町,グンマケン,マエバシシ,シキシマチョウ,群馬県前橋市敷島町
3710037,群馬県,前橋市,上小出町,グンマケン,マエバシシ,カミコイデマチ,群馬県前橋市上小出町
3710041,群馬県,前橋市,川端町,グンマケン,マエバシシ,カワバタマチ,群馬県前橋市川端町
3710042,群馬県,前橋市,日輪寺町,グンマケン,マエバシシ,ニチリンジマチ,群馬県前橋市日輪寺町
3710043,群馬県,前橋市,南橘町,グンマケン,マエバシシ,ナンキツマチ,群馬県前橋市南橘町
3710044,群馬県,前橋市,荒牧町,グンマケン,マエバシシ,アラマキマチ,群馬県前橋市荒牧町
3710045,群馬県,前橋市,緑が丘町,グンマケン,マエバシシ,ミドリガオカマチ,群馬県前橋市緑が丘町
3710046,群馬県,前橋市,川原町,グンマケン,マエバシシ,カワハラマチ,群馬県前橋市川原町
3710047,群馬県,前橋市,関根町,グンマケン,マエバシシ,セキネマチ,群馬県前橋市関根町
3710048,群馬県,前橋市,田口町,グンマケン,マエバシシ,タグチマチ,群馬県前橋市田口町
3710051,群馬県,前橋市,上細井町,グンマケン,マエバシシ,カミホソイマチ,群馬県前橋市上細井町
3710052,群馬県,前橋市,上沖町,グンマケン,マエバシシ,カミオキマチ,群馬県前橋市上沖町
3710053,群馬県,前橋市,幸塚町,グンマケン,マエバシシ,コウヅカマチ,群馬県前橋市幸塚町
3710054,群馬県,前橋市,下細井町,グンマケン,マエバシシ,シモホソイマチ,群馬県前橋市下細井町
3710055,群馬県,前橋市,北代田町,グンマケン,マエバシシ,キタシロタマチ,群馬県前橋市北代田町
3710056,群馬県,前橋市,青柳町,グンマケン,マエバシシ,アオヤギマチ,群馬県前橋市青柳町
3710057,群馬県,前橋市,龍蔵寺町,グンマケン,マエバシシ,リュウゾウジマチ,群馬県前橋市龍蔵寺町
3710101,群馬県,前橋市,富士見町赤城山,グンマケン,マエバシシ,フジミマチアカギサン,群馬県前橋市富士見町赤城山
3710102,群馬県,前橋市,富士見町皆沢,グンマケン,マエバシシ,フジミマチミナザワ,群馬県前橋市富士見町皆沢
3710103,群馬県,前橋市,富士見町小暮,グンマケン,マエバシシ,フジミマチコグレ,群馬県前橋市富士見町小暮
3710104,群馬県,前橋市,富士見町時沢,グンマケン,マエバシシ,フジミマチトキザワ,群馬県前橋市富士見町時沢
3710105,群馬県,前橋市,富士見町石井,グンマケン,マエバシシ,フジミマチイシイ,群馬県前橋市富士見町石井
3710106,群馬県,前橋市,富士見町市之木場,グンマケン,マエバシシ,フジミマチイチノキバ,群馬県前橋市富士見町市之木場
3710107,群馬県,前橋市,富士見町山口,グンマケン,マエバシシ,フジミマチヤマグチ,群馬県前橋市富士見町山口
3710111,群馬県,前橋市,富士見町米野,グンマケン,マエバシシ,フジミマチコメノ,群馬県前橋市富士見町米野
3710112,群馬県,前橋市,富士見町引田,グンマケン,マエバシシ,フジミマチヒキダ,群馬県前橋市富士見町引田
3710113,群馬県,前橋市,富士見町漆窪,グンマケン,マエバシシ,フジミマチウルクボ,群馬県前橋市富士見町漆窪
3710114,群馬県,前橋市,富士見町田島,グンマケン,マエバシシ,フジミマチタジマ,群馬県前橋市富士見町田島
3710115,群馬県,前橋市,富士見町小沢,グンマケン,マエバシシ,フジミマチオザワ,群馬県前橋市富士見町小沢
3710116,群馬県,前橋市,富士見町原之郷,グンマケン,マエバシシ,フジミマチハラノゴウ,群馬県前橋市富士見町原之郷
3710117,群馬県,前橋市,富士見町横室,グンマケン,マエバシシ,フジミマチヨコムロ,群馬県前橋市富士見町横室
3710121,群馬県,前橋市,金丸町,グンマケン,マエバシシ,カナマルマチ,群馬県前橋市金丸町
3710122,群馬県,前橋市,小坂子町,グンマケン,マエバシシ,コザカシマチ,群馬県前橋市小坂子町
3710123,群馬県,前橋市,高花台,グンマケン,マエバシシ,タカハナダイ,群馬県前橋市高花台
3710124,群馬県,前橋市,勝沢町,グンマケン,マエバシシ,カツサワマチ,群馬県前橋市勝沢町
3710125,群馬県,前橋市,嶺町,グンマケン,マエバシシ,ミネマチ,群馬県前橋市嶺町
3710131,群馬県,前橋市,鳥取町,グンマケン,マエバシシ,トットリマチ,群馬県前橋市鳥取町
3710132,群馬県,前橋市,五代町,グンマケン,マエバシシ,ゴダイマチ,群馬県前橋市五代町
3710133,群馬県,前橋市,端気町,グンマケン,マエバシシ,ハケマチ,群馬県前橋市端気町
3710134,群馬県,前橋市,小神明町,グンマケン,マエバシシ,コジンメイマチ,群馬県前橋市小神明町
3710201,群馬県,前橋市,粕川町中之沢,グンマケン,マエバシシ,カスカワマチナカノサワ,群馬県前橋市粕川町中之沢
3710202,群馬県,前橋市,粕川町室沢,グンマケン,マエバシシ,カスカワマチムロサワ,群馬県前橋市粕川町室沢
3710203,群馬県,前橋市,粕川町月田,グンマケン,マエバシシ,カスカワマチツキダ,群馬県前橋市粕川町月田
3710204,群馬県,前橋市,粕川町膳,グンマケン,マエバシシ,カスカワマチゼン,群馬県前橋市粕川町膳
3710205,群馬県,前橋市,粕川町中,グンマケン,マエバシシ,カスカワマチナカ,群馬県前橋市粕川町中
3710206,群馬県,前橋市,粕川町新屋,グンマケン,マエバシシ,カスカワマチアラヤ,群馬県前橋市粕川町新屋
3710207,群馬県,前橋市,粕川町稲里,グンマケン,マエバシシ,カスカワマチイナサト,群馬県前橋市粕川町稲里
3710211,群馬県,前橋市,粕川町上東田面,グンマケン,マエバシシ,カスカワマチカミヒガシタナボ,群馬県前橋市粕川町上東田面
3710212,群馬県,前橋市,粕川町下東田面,グンマケン,マエバシシ,カスカワマチシモヒガシタナボ,群馬県前橋市粕川町下東田面
3710213,群馬県,前橋市,粕川町一日市,グンマケン,マエバシシ,カスカワマチヒトイチ,群馬県前橋市粕川町一日市
3710214,群馬県,前橋市,粕川町女渕,グンマケン,マエバシシ,カスカワマチオナブチ,群馬県前橋市粕川町女渕
3710215,群馬県,前橋市,粕川町深津,グンマケン,マエバシシ,カスカワマチフカヅ,群馬県前橋市粕川町深津
3710216,群馬県,前橋市,粕川町込皆戸,グンマケン,マエバシシ,カスカワマチコミガイト,群馬県前橋市粕川町込皆戸
3710217,群馬県,前橋市,粕川町西田面,グンマケン,マエバシシ,カスカワマチニシタナボ,群馬県前橋市粕川町西田面
3710218,群馬県,前橋市,粕川町前皆戸,グンマケン,マエバシシ,カスカワマチマエガイト,群馬県前橋市粕川町前皆戸
3710221,群馬県,前橋市,樋越町,グンマケン,マエバシシ,ヒゴシマチ,群馬県前橋市樋越町
3710222,群馬県,前橋市,上大屋町,グンマケン,マエバシシ,カミオオヤマチ,群馬県前橋市上大屋町
3710223,群馬県,前橋市,大胡町,グンマケン,マエバシシ,オオゴマチ,群馬県前橋市大胡町
3710224,群馬県,前橋市,河原浜町,グンマケン,マエバシシ,カワラハママチ,群馬県前橋市河原浜町
3710231,群馬県,前橋市,堀越町,グンマケン,マエバシシ,ホリコシマチ,群馬県前橋市堀越町
3710232,群馬県,前橋市,茂木町,グンマケン,マエバシシ,モトギマチ,群馬県前橋市茂木町
3710233,群馬県,前橋市,横沢町,グンマケン,マエバシシ,ヨコザワマチ,群馬県前橋市横沢町
3710234,群馬県,前橋市,東金丸町,グンマケン,マエバシシ,ヒガシカナマルマチ,群馬県前橋市東金丸町
3710235,群馬県,前橋市,滝窪町,グンマケン,マエバシシ,タキクボマチ,群馬県前橋市滝窪町
3710241,群馬県,前橋市,苗ケ島町,グンマケン,マエバシシ,ナエガシママチ,群馬県前橋市苗ケ島町
3710242,群馬県,前橋市,馬場町,グンマケン,マエバシシ,ババマチ,群馬県前橋市馬場町
3710243,群馬県,前橋市,大前田町,グンマケン,マエバシシ,オオマエタマチ,群馬県前橋市大前田町
3710244,群馬県,前橋市,鼻毛石町,グンマケン,マエバシシ,ハナゲイシマチ,群馬県前橋市鼻毛石町
3710245,群馬県,前橋市,市之関町,グンマケン,マエバシシ,イチノセキマチ,群馬県前橋市市之関町
3710246,群馬県,前橋市,柏倉町,グンマケン,マエバシシ,カシワグラマチ,群馬県前橋市柏倉町
3710247,群馬県,前橋市,三夜沢町,グンマケン,マエバシシ,ミヨサワマチ,群馬県前橋市三夜沢町
3710801,群馬県,前橋市,文京町,グンマケン,マエバシシ,ブンキョウチョウ,群馬県前橋市文京町
3710802,群馬県,前橋市,天川町,グンマケン,マエバシシ,アマガワマチ,群馬県前橋市天川町
3710803,群馬県,前橋市,天川原町,グンマケン,マエバシシ,アマガワバラマチ,群馬県前橋市天川原町
3710804,群馬県,前橋市,六供町,グンマケン,マエバシシ,ロックマチ,群馬県前橋市六供町
3710805,群馬県,前橋市,南町,グンマケン,マエバシシ,ミナミチョウ,群馬県前橋市南町
3710811,群馬県,前橋市,朝倉町,グンマケン,マエバシシ,アサクラマチ,群馬県前橋市朝倉町
3710812,群馬県,前橋市,広瀬町,グンマケン,マエバシシ,ヒロセチョウ,群馬県前橋市広瀬町
3710813,群馬県,前橋市,後閑町,グンマケン,マエバシシ,ゴカンマチ,群馬県前橋市後閑町
3710814,群馬県,前橋市,宮地町,グンマケン,マエバシシ,ミヤジマチ,群馬県前橋市宮地町
3710815,群馬県,前橋市,下佐鳥町,グンマケン,マエバシシ,シモサドリマチ,群馬県前橋市下佐鳥町
3710816,群馬県,前橋市,上佐鳥町,グンマケン,マエバシシ,カミサドリマチ,群馬県前橋市上佐鳥町
3710817,群馬県,前橋市,ぬで島町,グンマケン,マエバシシ,ヌデジママチ,群馬県前橋市ぬで島町
3710821,群馬県,前橋市,上新田町,グンマケン,マエバシシ,カミシンデンマチ,群馬県前橋市上新田町
3710822,群馬県,前橋市,下新田町,グンマケン,マエバシシ,シモシンデンマチ,群馬県前橋市下新田町
3710823,群馬県,前橋市,川曲町,グンマケン,マエバシシ,カワマガリマチ,群馬県前橋市川曲町
3710824,群馬県,前橋市,稲荷新田町,グンマケン,マエバシシ,トウカシンデンマチ,群馬県前橋市稲荷新田町
3710825,群馬県,前橋市,大利根町,グンマケン,マエバシシ,オオトネマチ,群馬県前橋市大利根町
3710826,群馬県,前橋市,青葉町,グンマケン,マエバシシ,アオバチョウ,群馬県前橋市青葉町
3710831,群馬県,前橋市,小相木町,グンマケン,マエバシシ,コアイギマチ,群馬県前橋市小相木町
3710832,群馬県,前橋市,朝日が丘町,グンマケン,マエバシシ,アサヒガオカマチ,群馬県前橋市朝日が丘町
3710833,群馬県,前橋市,光が丘町,グンマケン,マエバシシ,ヒカリガオカマチ,群馬県前橋市光が丘町
3710834,群馬県,前橋市,後家町,グンマケン,マエバシシ,ゴケマチ,群馬県前橋市後家町
3710835,群馬県,前橋市,前箱田町,グンマケン,マエバシシ,マエハコダマチ,群馬県前橋市前箱田町
3710836,群馬県,前橋市,江田町,グンマケン,マエバシシ,エダマチ,群馬県前橋市江田町
3710837,群馬県,前橋市,箱田町,グンマケン,マエバシシ,ハコダマチ,群馬県前橋市箱田町
3710841,群馬県,前橋市,石倉町,グンマケン,マエバシシ,イシクラマチ,群馬県前橋市石倉町
3710842,群馬県,前橋市,下石倉町,グンマケン,マエバシシ,シモイシクラマチ,群馬県前橋市下石倉町
3710843,群馬県,前橋市,新前橋町,グンマケン,マエバシシ,シンマエバシマチ,群馬県前橋市新前橋町
3710844,群馬県,前橋市,古市町,グンマケン,マエバシシ,フルイチマチ,群馬県前橋市古市町
3710845,群馬県,前橋市,鳥羽町,グンマケン,マエバシシ,トリバマチ,群馬県前橋市鳥羽町
3710846,群馬県,前橋市,元総社町,グンマケン,マエバシシ,モトソウジャマチ,群馬県前橋市元総社町
3710847,群馬県,前橋市,大友町,グンマケン,マエバシシ,オオドモマチ,群馬県前橋市大友町
3710851,群馬県,前橋市,総社町植野,グンマケン,マエバシシ,ソウジャマチウエノ,群馬県前橋市総社町植野
3710852,群馬県,前橋市,総社町総社,グンマケン,マエバシシ,ソウジャマチソウジャ,群馬県前橋市総社町総社
3710853,群馬県,前橋市,総社町,グンマケン,マエバシシ,ソウジャマチ,群馬県前橋市総社町
3710854,群馬県,前橋市,大渡町,グンマケン,マエバシシ,オオワタリマチ,群馬県前橋市大渡町
3710855,群馬県,前橋市,問屋町,グンマケン,マエバシシ,トンヤマチ,群馬県前橋市問屋町
3710856,群馬県,前橋市,総社町高井,グンマケン,マエバシシ,ソウジャマチタカイ,群馬県前橋市総社町高井
3710857,群馬県,前橋市,高井町,グンマケン,マエバシシ,タカイマチ,群馬県前橋市高井町
3710858,群馬県,前橋市,総社町桜が丘,グンマケン,マエバシシ,ソウジャマチサクラガオカ,群馬県前橋市総社町桜が丘
3720000,群馬県,伊勢崎市,,グンマケン,イセサキシ,,群馬県伊勢崎市
3720001,群馬県,伊勢崎市,波志江町,グンマケン,イセサキシ,ハシエマチ,群馬県伊勢崎市波志江町
3720002,群馬県,伊勢崎市,堤西町,グンマケン,イセサキシ,ツツミニシマチ,群馬県伊勢崎市堤西町
3720003,群馬県,伊勢崎市,華蔵寺町,グンマケン,イセサキシ,ケゾウジマチ,群馬県伊勢崎市華蔵寺町
3720004,群馬県,伊勢崎市,堤下町,グンマケン,イセサキシ,ツツミシタチョウ,群馬県伊勢崎市堤下町
3720005,群馬県,伊勢崎市,乾町,グンマケン,イセサキシ,イヌイチョウ,群馬県伊勢崎市乾町
3720006,群馬県,伊勢崎市,太田町,グンマケン,イセサキシ,オオタマチ,群馬県伊勢崎市太田町
3720007,群馬県,伊勢崎市,安堀町,グンマケン,イセサキシ,アンボリマチ,群馬県伊勢崎市安堀町
3720011,群馬県,伊勢崎市,三和町,グンマケン,イセサキシ,サンワチョウ,群馬県伊勢崎市三和町
3720012,群馬県,伊勢崎市,豊城町,グンマケン,イセサキシ,トヨシロチョウ,群馬県伊勢崎市豊城町
3720013,群馬県,伊勢崎市,上植木本町,グンマケン,イセサキシ,カミウエキホンマチ,群馬県伊勢崎市上植木本町
3720014,群馬県,伊勢崎市,昭和町,グンマケン,イセサキシ,ショウワチョウ,群馬県伊勢崎市昭和町
3720015,群馬県,伊勢崎市,鹿島町,グンマケン,イセサキシ,カシマチョウ,群馬県伊勢崎市鹿島町
3720016,群馬県,伊勢崎市,本関町,グンマケン,イセサキシ,ホンセキチョウ,群馬県伊勢崎市本関町
3720021,群馬県,伊勢崎市,上諏訪町,グンマケン,イセサキシ,カミスワチョウ,群馬県伊勢崎市上諏訪町
3720022,群馬県,伊勢崎市,日乃出町,グンマケン,イセサキシ,ヒノデチョウ,群馬県伊勢崎市日乃出町
3720023,群馬県,伊勢崎市,粕川町,グンマケン,イセサキシ,カスカワチョウ,群馬県伊勢崎市粕川町
3720024,群馬県,伊勢崎市,下植木町,グンマケン,イセサキシ,シモウエキチョウ,群馬県伊勢崎市下植木町
3720025,群馬県,伊勢崎市,東本町,グンマケン,イセサキシ,ヒガシホンマチ,群馬県伊勢崎市東本町
3720026,群馬県,伊勢崎市,宮前町,グンマケン,イセサキシ,ミヤマエチョウ,群馬県伊勢崎市宮前町
3720031,群馬県,伊勢崎市,今泉町,グンマケン,イセサキシ,イマイズミチョウ,群馬県伊勢崎市今泉町
3720032,群馬県,伊勢崎市,北千木町,グンマケン,イセサキシ,キタセンギチョウ,群馬県伊勢崎市北千木町
3720033,群馬県,伊勢崎市,南千木町,グンマケン,イセサキシ,ミナミセンギチョウ,群馬県伊勢崎市南千木町
3720034,群馬県,伊勢崎市,茂呂町,グンマケン,イセサキシ,モロマチ,群馬県伊勢崎市茂呂町
3720036,群馬県,伊勢崎市,茂呂南町,グンマケン,イセサキシ,モロミナミチョウ,群馬県伊勢崎市茂呂南町
3720037,群馬県,伊勢崎市,美茂呂町,グンマケン,イセサキシ,ミモロチョウ,群馬県伊勢崎市美茂呂町
3720038,群馬県,伊勢崎市,新栄町,グンマケン,イセサキシ,シンエイチョウ,群馬県伊勢崎市新栄町
3720039,群馬県,伊勢崎市,ひろせ町,グンマケン,イセサキシ,ヒロセチョウ,群馬県伊勢崎市ひろせ町
3720041,群馬県,伊勢崎市,平和町,グンマケン,イセサキシ,ヘイワチョウ,群馬県伊勢崎市平和町
3720042,群馬県,伊勢崎市,中央町,グンマケン,イセサキシ,チュウオウチョウ,群馬県伊勢崎市中央町
3720043,群馬県,伊勢崎市,緑町,グンマケン,イセサキシ,ミドリチョウ,群馬県伊勢崎市緑町
3720044,群馬県,伊勢崎市,八坂町,グンマケン,イセサキシ,ヤサカチョウ,群馬県伊勢崎市八坂町
3720045,群馬県,伊勢崎市,上泉町,グンマケン,イセサキシ,カミイズミチョウ,群馬県伊勢崎市上泉町
3720046,群馬県,伊勢崎市,三光町,グンマケン,イセサキシ,サンコウチョウ,群馬県伊勢崎市三光町
3720047,群馬県,伊勢崎市,本町,グンマケン,イセサキシ,ホンマチ,群馬県伊勢崎市本町
3720048,群馬県,伊勢崎市,大手町,グンマケン,イセサキシ,オオテマチ,群馬県伊勢崎市大手町
3720051,群馬県,伊勢崎市,八幡町,グンマケン,イセサキシ,ヤハタチョウ,群馬県伊勢崎市八幡町
3720052,群馬県,伊勢崎市,寿町,グンマケン,イセサキシ,コトブキチョウ,群馬県伊勢崎市寿町
3720053,群馬県,伊勢崎市,宗高町,グンマケン,イセサキシ,ムネタカチョウ,群馬県伊勢崎市宗高町
3720054,群馬県,伊勢崎市,柳原町,グンマケン,イセサキシ,ヤナギハラチョウ,群馬県伊勢崎市柳原町
3720055,群馬県,伊勢崎市,曲輪町,グンマケン,イセサキシ,クルワチョウ,群馬県伊勢崎市曲輪町
3720056,群馬県,伊勢崎市,喜多町,グンマケン,イセサキシ,キタマチ,群馬県伊勢崎市喜多町
3720057,群馬県,伊勢崎市,末広町,グンマケン,イセサキシ,スエヒロチョウ,群馬県伊勢崎市末広町
3720058,群馬県,伊勢崎市,西田町,グンマケン,イセサキシ,ニシダマチ,群馬県伊勢崎市西田町
3720801,群馬県,伊勢崎市,宮子町,グンマケン,イセサキシ,ミヤコマチ,群馬県伊勢崎市宮子町
3720802,群馬県,伊勢崎市,田中島町,グンマケン,イセサキシ,タナカジママチ,群馬県伊勢崎市田中島町
3720803,群馬県,伊勢崎市,宮古町,グンマケン,イセサキシ,ミヤフルマチ,群馬県伊勢崎市宮古町
3720804,群馬県,伊勢崎市,稲荷町,グンマケン,イセサキシ,イナリチョウ,群馬県伊勢崎市稲荷町
3720811,群馬県,伊勢崎市,若葉町,グンマケン,イセサキシ,ワカバチョウ,群馬県伊勢崎市若葉町
3720812,群馬県,伊勢崎市,連取町,グンマケン,イセサキシ,ツナトリマチ,群馬県伊勢崎市連取町
3720813,群馬県,伊勢崎市,韮塚町,グンマケン,イセサキシ,ニラヅカマチ,群馬県伊勢崎市韮塚町
3720814,群馬県,伊勢崎市,田中町,グンマケン,イセサキシ,タナカマチ,群馬県伊勢崎市田中町
3720815,群馬県,伊勢崎市,東上之宮町,グンマケン,イセサキシ,ヒガシカミノミヤマチ,群馬県伊勢崎市東上之宮町
3720816,群馬県,伊勢崎市,西上之宮町,グンマケン,イセサキシ,ニシカミノミヤマチ,群馬県伊勢崎市西上之宮町
3720817,群馬県,伊勢崎市,連取本町,グンマケン,イセサキシ,ツナトリホンマチ,群馬県伊勢崎市連取本町
3720818,群馬県,伊勢崎市,連取元町,グンマケン,イセサキシ,ツナトリモトマチ,群馬県伊勢崎市連取元町
3720821,群馬県,伊勢崎市,阿弥大寺町,グンマケン,イセサキシ,アミダイジマチ,群馬県伊勢崎市阿弥大寺町
3720822,群馬県,伊勢崎市,中町,グンマケン,イセサキシ,ナカマチ,群馬県伊勢崎市中町
3720823,群馬県,伊勢崎市,今井町,グンマケン,イセサキシ,イマイチョウ,群馬県伊勢崎市今井町
3720824,群馬県,伊勢崎市,柴町,グンマケン,イセサキシ,シバマチ,群馬県伊勢崎市柴町
3720825,群馬県,伊勢崎市,戸谷塚町,グンマケン,イセサキシ,トヤヅカマチ,群馬県伊勢崎市戸谷塚町
3720826,群馬県,伊勢崎市,福島町,グンマケン,イセサキシ,フクジママチ,群馬県伊勢崎市福島町
3720827,群馬県,伊勢崎市,八斗島町,グンマケン,イセサキシ,ヤッタジママチ,群馬県伊勢崎市八斗島町
3720831,群馬県,伊勢崎市,山王町,グンマケン,イセサキシ,サンノウチョウ,群馬県伊勢崎市山王町
3720832,群馬県,伊勢崎市,除ケ町,グンマケン,イセサキシ,ヨゲチョウ,群馬県伊勢崎市除ケ町
3720833,群馬県,伊勢崎市,富塚町,グンマケン,イセサキシ,トミヅカチョウ,群馬県伊勢崎市富塚町
3720834,群馬県,伊勢崎市,堀口町,グンマケン,イセサキシ,ホリグチマチ,群馬県伊勢崎市堀口町
3720841,群馬県,伊勢崎市,大正寺町,グンマケン,イセサキシ,ダイショウジチョウ,群馬県伊勢崎市大正寺町
3720842,群馬県,伊勢崎市,馬見塚町,グンマケン,イセサキシ,マミヅカマチ,群馬県伊勢崎市馬見塚町
3720843,群馬県,伊勢崎市,下道寺町,グンマケン,イセサキシ,ゲドウジチョウ,群馬県伊勢崎市下道寺町
3720844,群馬県,伊勢崎市,羽黒町,グンマケン,イセサキシ,ハグロチョウ,群馬県伊勢崎市羽黒町
3720851,群馬県,伊勢崎市,上蓮町,グンマケン,イセサキシ,カミハスチョウ,群馬県伊勢崎市上蓮町
3720852,群馬県,伊勢崎市,下蓮町,グンマケン,イセサキシ,シモハスチョウ,群馬県伊勢崎市下蓮町
3720853,群馬県,伊勢崎市,国領町,グンマケン,イセサキシ,コクリョウチョウ,群馬県伊勢崎市国領町
3720854,群馬県,伊勢崎市,飯島町,グンマケン,イセサキシ,イイジマチョウ,群馬県伊勢崎市飯島町
3720855,群馬県,伊勢崎市,長沼町,グンマケン,イセサキシ,ナガヌママチ,群馬県伊勢崎市長沼町
3730000,群馬県,太田市,,グンマケン,オオタシ,,群馬県太田市
3730001,群馬県,太田市,西長岡町,グンマケン,オオタシ,ニシナガオカチョウ,群馬県太田市西長岡町
3730002,群馬県,太田市,菅塩町,グンマケン,オオタシ,スガシオチョウ,群馬県太田市菅塩町
3730003,群馬県,太田市,北金井町,グンマケン,オオタシ,キタカナイチョウ,群馬県太田市北金井町
3730004,群馬県,太田市,強戸町,グンマケン,オオタシ,ゴウドチョウ,群馬県太田市強戸町
3730006,群馬県,太田市,成塚町,グンマケン,オオタシ,ナリヅカチョウ,群馬県太田市成塚町
3730007,群馬県,太田市,石橋町,グンマケン,オオタシ,イシバシチョウ,群馬県太田市石橋町
3730008,群馬県,太田市,鶴生田町,グンマケン,オオタシ,ツルウダチョウ,群馬県太田市鶴生田町
3730011,群馬県,太田市,只上町,グンマケン,オオタシ,タダカリチョウ,群馬県太田市只上町
3730012,群馬県,太田市,清原町,グンマケン,オオタシ,キヨハラチョウ,群馬県太田市清原町
3730013,群馬県,太田市,市場町,グンマケン,オオタシ,イチバチョウ,群馬県太田市市場町
3730014,群馬県,太田市,植木野町,グンマケン,オオタシ,ウエキノチョウ,群馬県太田市植木野町
3730015,群馬県,太田市,東新町,グンマケン,オオタシ,ヒガシシンマチ,群馬県太田市東新町
3730016,群馬県,太田市,矢田堀町,グンマケン,オオタシ,ヤタボリチョウ,群馬県太田市矢田堀町
3730018,群馬県,太田市,丸山町,グンマケン,オオタシ,マルヤマチョウ,群馬県太田市丸山町
3730019,群馬県,太田市,吉沢町,グンマケン,オオタシ,ヨシザワチョウ,群馬県太田市吉沢町
3730021,群馬県,太田市,東今泉町,グンマケン,オオタシ,ヒガシイマイズミチョウ,群馬県太田市東今泉町
3730022,群馬県,太田市,東金井町,グンマケン,オオタシ,ヒガシカナイチョウ,群馬県太田市東金井町
3730023,群馬県,太田市,富若町,グンマケン,オオタシ,トミワカチョウ,群馬県太田市富若町
3730024,群馬県,太田市,上小林町,グンマケン,オオタシ,カミコバヤシチョウ,群馬県太田市上小林町
3730025,群馬県,太田市,熊野町,グンマケン,オオタシ,クマノチョウ,群馬県太田市熊野町
3730026,群馬県,太田市,東本町,グンマケン,オオタシ,ヒガシホンチョウ,群馬県太田市東本町
3730027,群馬県,太田市,金山町,グンマケン,オオタシ,カナヤマチョウ,群馬県太田市金山町
3730028,群馬県,太田市,スバル町,グンマケン,オオタシ,スバルチョウ,群馬県太田市スバル町
3730029,群馬県,太田市,韮川町,グンマケン,オオタシ,ニラガワチョウ,群馬県太田市韮川町
3730031,群馬県,太田市,脇屋町,グンマケン,オオタシ,ワキヤチョウ,群馬県太田市脇屋町
3730032,群馬県,太田市,新野町,グンマケン,オオタシ,ニイノチョウ,群馬県太田市新野町
3730033,群馬県,太田市,西本町,グンマケン,オオタシ,ニシホンチョウ,群馬県太田市西本町
3730034,群馬県,太田市,藤阿久町,グンマケン,オオタシ,フジアグチョウ,群馬県太田市藤阿久町
3730035,群馬県,太田市,藤久良町,グンマケン,オオタシ,フジクラチョウ,群馬県太田市藤久良町
3730036,群馬県,太田市,由良町,グンマケン,オオタシ,ユラチョウ,群馬県太田市由良町
3730037,群馬県,太田市,新道町,グンマケン,オオタシ,シンドウチョウ,群馬県太田市新道町
3730038,群馬県,太田市,城西町,グンマケン,オオタシ,ジョウサイチョウ,群馬県太田市城西町
3730041,群馬県,太田市,別所町,グンマケン,オオタシ,ベッショチョウ,群馬県太田市別所町
3730042,群馬県,太田市,宝町,グンマケン,オオタシ,タカラマチ,群馬県太田市宝町
3730043,群馬県,太田市,西野谷町,グンマケン,オオタシ,ニシノヤチョウ,群馬県太田市西野谷町
3730044,群馬県,太田市,上田島町,グンマケン,オオタシ,カミタジマチョウ,群馬県太田市上田島町
3730045,群馬県,太田市,沖野町,グンマケン,オオタシ,オキノチョウ,群馬県太田市沖野町
3730051,群馬県,太田市,天良町,グンマケン,オオタシ,テンラチョウ,群馬県太田市天良町
3730052,群馬県,太田市,寺井町,グンマケン,オオタシ,テライチョウ,群馬県太田市寺井町
3730053,群馬県,太田市,鳥山町,グンマケン,オオタシ,トリヤマチョウ,群馬県太田市鳥山町
3730054,群馬県,太田市,長手町,グンマケン,オオタシ,ナガテチョウ,群馬県太田市長手町
3730055,群馬県,太田市,大島町,グンマケン,オオタシ,オオシマチョウ,群馬県太田市大島町
3730056,群馬県,太田市,八幡町,グンマケン,オオタシ,ハチマンチョウ,群馬県太田市八幡町
3730057,群馬県,太田市,本町,グンマケン,オオタシ,ホンチョウ,群馬県太田市本町
3730061,群馬県,太田市,鳥山上町,グンマケン,オオタシ,トリヤマカミチョウ,群馬県太田市鳥山上町
3730062,群馬県,太田市,鳥山中町,グンマケン,オオタシ,トリヤマナカチョウ,群馬県太田市鳥山中町
3730063,群馬県,太田市,鳥山下町,グンマケン,オオタシ,トリヤマシモチョウ,群馬県太田市鳥山下町
3730071,群馬県,太田市,原宿町,グンマケン,オオタシ,ハラジュクチョウ,群馬県太田市原宿町
3730072,群馬県,太田市,高瀬町,グンマケン,オオタシ,タカゼチョウ,群馬県太田市高瀬町
3730073,群馬県,太田市,緑町,グンマケン,オオタシ,ミドリチョウ,群馬県太田市緑町
3730074,群馬県,太田市,上強戸町,グンマケン,オオタシ,カミゴウドチョウ,群馬県太田市上強戸町
3730075,群馬県,太田市,大鷲町,グンマケン,オオタシ,オオワシチョウ,群馬県太田市大鷲町
3730801,群馬県,太田市,台之郷町,グンマケン,オオタシ,ダイノゴウチョウ,群馬県太田市台之郷町
3730802,群馬県,太田市,矢場新町,グンマケン,オオタシ,ヤバシンマチ,群馬県太田市矢場新町
3730803,群馬県,太田市,矢場町,グンマケン,オオタシ,ヤバチョウ,群馬県太田市矢場町
3730804,群馬県,太田市,沖之郷町,グンマケン,オオタシ,オキノゴウチョウ,群馬県太田市沖之郷町
3730805,群馬県,太田市,八重笠町,グンマケン,オオタシ,ヤエガサチョウ,群馬県太田市八重笠町
3730806,群馬県,太田市,龍舞町,グンマケン,オオタシ,リュウマイチョウ,群馬県太田市龍舞町
3730807,群馬県,太田市,下小林町,グンマケン,オオタシ,シモコバヤシチョウ,群馬県太田市下小林町
3730808,群馬県,太田市,石原町,グンマケン,オオタシ,イシハラチョウ,群馬県太田市石原町
3730809,群馬県,太田市,茂木町,グンマケン,オオタシ,モテギチョウ,群馬県太田市茂木町
3730811,群馬県,太田市,安良岡町,グンマケン,オオタシ,ヤスラオカチョウ,群馬県太田市安良岡町
3730812,群馬県,太田市,東長岡町,グンマケン,オオタシ,ヒガシナガオカチョウ,群馬県太田市東長岡町
3730813,群馬県,太田市,内ケ島町,グンマケン,オオタシ,ウチガシマチョウ,群馬県太田市内ケ島町
3730814,群馬県,太田市,朝日町,グンマケン,オオタシ,アサヒチョウ,群馬県太田市朝日町
3730815,群馬県,太田市,東別所町,グンマケン,オオタシ,ヒガシベッショチョウ,群馬県太田市東別所町
3730816,群馬県,太田市,東矢島町,グンマケン,オオタシ,ヒガシヤジマチョウ,群馬県太田市東矢島町
3730817,群馬県,太田市,飯塚町,グンマケン,オオタシ,イイヅカチョウ,群馬県太田市飯塚町
3730818,群馬県,太田市,小舞木町,グンマケン,オオタシ,コマイギチョウ,群馬県太田市小舞木町
3730819,群馬県,太田市,新島町,グンマケン,オオタシ,ニイジマチョウ,群馬県太田市新島町
3730821,群馬県,太田市,下浜田町,グンマケン,オオタシ,シモハマダチョウ,群馬県太田市下浜田町
3730822,群馬県,太田市,庄屋町,グンマケン,オオタシ,ショウヤマチ,群馬県太田市庄屋町
3730823,群馬県,太田市,西矢島町,グンマケン,オオタシ,ニシヤジマチョウ,群馬県太田市西矢島町
3730824,群馬県,太田市,高林寿町,グンマケン,オオタシ,タカハヤシコトブキチョウ,群馬県太田市高林寿町
3730825,群馬県,太田市,高林東町,グンマケン,オオタシ,タカハヤシヒガシチョウ,群馬県太田市高林東町
3730826,群馬県,太田市,古戸町,グンマケン,オオタシ,フルトチョウ,群馬県太田市古戸町
3730827,群馬県,太田市,高林南町,グンマケン,オオタシ,タカハヤシミナミチョウ,群馬県太田市高林南町
3730828,群馬県,太田市,高林西町,グンマケン,オオタシ,タカハヤシニシチョウ,群馬県太田市高林西町
3730829,群馬県,太田市,高林北町,グンマケン,オオタシ,タカハヤシキタチョウ,群馬県太田市高林北町
3730831,群馬県,太田市,福沢町,グンマケン,オオタシ,フクザワチョウ,群馬県太田市福沢町
3730832,群馬県,太田市,富沢町,グンマケン,オオタシ,トミザワチョウ,群馬県太田市富沢町
3730833,群馬県,太田市,牛沢町,グンマケン,オオタシ,ウシザワチョウ,群馬県太田市牛沢町
3730841,群馬県,太田市,岩瀬川町,グンマケン,オオタシ,イワセガワチョウ,群馬県太田市岩瀬川町
3730842,群馬県,太田市,細谷町,グンマケン,オオタシ,ホソヤチョウ,群馬県太田市細谷町
3730843,群馬県,太田市,米沢町,グンマケン,オオタシ,ヨネザワチョウ,群馬県太田市米沢町
3730844,群馬県,太田市,下田島町,グンマケン,オオタシ,シモタジマチョウ,群馬県太田市下田島町
3730845,群馬県,太田市,泉町,グンマケン,オオタシ,イズミチョウ,群馬県太田市泉町
3730846,群馬県,太田市,中根町,グンマケン,オオタシ,ナカネチョウ,群馬県太田市中根町
3730847,群馬県,太田市,西新町,グンマケン,オオタシ,ニシシンマチ,群馬県太田市西新町
3730851,群馬県,太田市,飯田町,グンマケン,オオタシ,イイダチョウ,群馬県太田市飯田町
3730852,群馬県,太田市,新井町,グンマケン,オオタシ,アライチョウ,群馬県太田市新井町
3730853,群馬県,太田市,浜町,グンマケン,オオタシ,ハマチョウ,群馬県太田市浜町
3730861,群馬県,太田市,南矢島町,グンマケン,オオタシ,ミナミヤジマチョウ,群馬県太田市南矢島町
3730862,群馬県,太田市,末広町,グンマケン,オオタシ,スエヒロチョウ,群馬県太田市末広町
3740000,群馬県,館林市,,グンマケン,タテバヤシシ,,群馬県館林市
3740001,群馬県,館林市,大島町,グンマケン,タテバヤシシ,オオシマチョウ,群馬県館林市大島町
3740002,群馬県,館林市,田谷町,グンマケン,タテバヤシシ,タヤチョウ,群馬県館林市田谷町
3740003,群馬県,館林市,四ツ谷町,グンマケン,タテバヤシシ,ヨツヤチョウ,群馬県館林市四ツ谷町
3740004,群馬県,館林市,楠町,グンマケン,タテバヤシシ,クスノキチョウ,群馬県館林市楠町
3740005,群馬県,館林市,花山町,グンマケン,タテバヤシシ,ハナヤマチョウ,群馬県館林市花山町
3740006,群馬県,館林市,当郷町,グンマケン,タテバヤシシ,トウゴウチョウ,群馬県館林市当郷町
3740007,群馬県,館林市,若宮町,グンマケン,タテバヤシシ,ワカミヤチョウ,群馬県館林市若宮町
3740008,群馬県,館林市,細内町,グンマケン,タテバヤシシ,ホソウチチョウ,群馬県館林市細内町
3740009,群馬県,館林市,千塚町,グンマケン,タテバヤシシ,チヅカチョウ,群馬県館林市千塚町
3740011,群馬県,館林市,羽附町,グンマケン,タテバヤシシ,ハネツクチョウ,群馬県館林市羽附町
3740012,群馬県,館林市,羽附旭町,グンマケン,タテバヤシシ,ハネツクアサヒチョウ,群馬県館林市羽附旭町
3740013,群馬県,館林市,赤生田町,グンマケン,タテバヤシシ,アコウダチョウ,群馬県館林市赤生田町
3740014,群馬県,館林市,赤生田本町,グンマケン,タテバヤシシ,アコウダホンチョウ,群馬県館林市赤生田本町
3740015,群馬県,館林市,上赤生田町,グンマケン,タテバヤシシ,カミアコウダチョウ,群馬県館林市上赤生田町
3740016,群馬県,館林市,松原,グンマケン,タテバヤシシ,マツバラ,群馬県館林市松原
3740017,群馬県,館林市,つつじ町,グンマケン,タテバヤシシ,ツツジチョウ,群馬県館林市つつじ町
3740018,群馬県,館林市,城町,グンマケン,タテバヤシシ,シロマチ,群馬県館林市城町
3740019,群馬県,館林市,尾曳町,グンマケン,タテバヤシシ,オビキチョウ,群馬県館林市尾曳町
3740021,群馬県,館林市,瀬戸谷町,グンマケン,タテバヤシシ,セドヤチョウ,群馬県館林市瀬戸谷町
3740022,群馬県,館林市,加法師町,グンマケン,タテバヤシシ,カボウシチョウ,群馬県館林市加法師町
3740023,群馬県,館林市,大手町,グンマケン,タテバヤシシ,オオテマチ,群馬県館林市大手町
3740024,群馬県,館林市,本町,グンマケン,タテバヤシシ,ホンチョウ,群馬県館林市本町
3740025,群馬県,館林市,緑町,グンマケン,タテバヤシシ,ミドリチョウ,群馬県館林市緑町
3740026,群馬県,館林市,新宿,グンマケン,タテバヤシシ,シンジュク,群馬県館林市新宿
3740027,群馬県,館林市,富士見町,グンマケン,タテバヤシシ,フジミチョウ,群馬県館林市富士見町
3740028,群馬県,館林市,千代田町,グンマケン,タテバヤシシ,チヨダチョウ,群馬県館林市千代田町
3740029,群馬県,館林市,仲町,グンマケン,タテバヤシシ,ナカマチ,群馬県館林市仲町
3740031,群馬県,館林市,東美園町,グンマケン,タテバヤシシ,ヒガシミソノチョウ,群馬県館林市東美園町
3740032,群馬県,館林市,南美園町,グンマケン,タテバヤシシ,ミナミミソノチョウ,群馬県館林市南美園町
3740033,群馬県,館林市,堀工町,グンマケン,タテバヤシシ,ホリクチョウ,群馬県館林市堀工町
3740034,群馬県,館林市,分福町,グンマケン,タテバヤシシ,ブンブクチョウ,群馬県館林市分福町
3740035,群馬県,館林市,青柳町,グンマケン,タテバヤシシ,アオヤギチョウ,群馬県館林市青柳町
3740036,群馬県,館林市,諏訪町,グンマケン,タテバヤシシ,スワチョウ,群馬県館林市諏訪町
3740037,群馬県,館林市,小桑原町,グンマケン,タテバヤシシ,コクワバラチョウ,群馬県館林市小桑原町
3740038,群馬県,館林市,西美園町,グンマケン,タテバヤシシ,ニシミソノチョウ,群馬県館林市西美園町
3740039,群馬県,館林市,美園町,グンマケン,タテバヤシシ,ミソノチョウ,群馬県館林市美園町
3740041,群馬県,館林市,富士原町,グンマケン,タテバヤシシ,フジハラチョウ,群馬県館林市富士原町
3740042,群馬県,館林市,近藤町,グンマケン,タテバヤシシ,コンドウチョウ,群馬県館林市近藤町
3740043,群馬県,館林市,苗木町,グンマケン,タテバヤシシ,ナエギチョウ,群馬県館林市苗木町
3740044,群馬県,館林市,下三林町,グンマケン,タテバヤシシ,シモミバヤシチョウ,群馬県館林市下三林町
3740045,群馬県,館林市,入ケ谷町,グンマケン,タテバヤシシ,イリカヤチョウ,群馬県館林市入ケ谷町
3740046,群馬県,館林市,上三林町,グンマケン,タテバヤシシ,カミミバヤシチョウ,群馬県館林市上三林町
3740047,群馬県,館林市,野辺町,グンマケン,タテバヤシシ,ノベチョウ,群馬県館林市野辺町
3740051,群馬県,館林市,新栄町,グンマケン,タテバヤシシ,シンサカエチョウ,群馬県館林市新栄町
3740052,群馬県,館林市,栄町,グンマケン,タテバヤシシ,サカエチョウ,群馬県館林市栄町
3740053,群馬県,館林市,赤土町,グンマケン,タテバヤシシ,アカツチチョウ,群馬県館林市赤土町
3740054,群馬県,館林市,大谷町,グンマケン,タテバヤシシ,オオヤチョウ,群馬県館林市大谷町
3740055,群馬県,館林市,成島町,グンマケン,タテバヤシシ,ナルシマチョウ,群馬県館林市成島町
3740056,群馬県,館林市,松沼町,グンマケン,タテバヤシシ,マツヌマチョウ,群馬県館林市松沼町
3740057,群馬県,館林市,北成島町,グンマケン,タテバヤシシ,キタナルシマチョウ,群馬県館林市北成島町
3740061,群馬県,館林市,東広内町,グンマケン,タテバヤシシ,ヒガシヒロウチチョウ,群馬県館林市東広内町
3740062,群馬県,館林市,広内町,グンマケン,タテバヤシシ,ヒロウチチョウ,群馬県館林市広内町
3740063,群馬県,館林市,朝日町,グンマケン,タテバヤシシ,アサヒチョウ,群馬県館林市朝日町
3740064,群馬県,館林市,代官町,グンマケン,タテバヤシシ,ダイカンチョウ,群馬県館林市代官町
3740065,群馬県,館林市,西本町,グンマケン,タテバヤシシ,ニシホンチョウ,群馬県館林市西本町
3740066,群馬県,館林市,大街道,グンマケン,タテバヤシシ,オオカイドウ,群馬県館林市大街道
3740067,群馬県,館林市,岡野町,グンマケン,タテバヤシシ,オカノチョウ,群馬県館林市岡野町
3740068,群馬県,館林市,台宿町,グンマケン,タテバヤシシ,ダイジュクチョウ,群馬県館林市台宿町
3740069,群馬県,館林市,坂下町,グンマケン,タテバヤシシ,サカシタチョウ,群馬県館林市坂下町
3740071,群馬県,館林市,下早川田町,グンマケン,タテバヤシシ,シモサガワダチョウ,群馬県館林市下早川田町
3740072,群馬県,館林市,大新田町,グンマケン,タテバヤシシ,オオシンデンチョウ,群馬県館林市大新田町
3740073,群馬県,館林市,足次町,グンマケン,タテバヤシシ,アシツギチョウ,群馬県館林市足次町
3740074,群馬県,館林市,高根町,グンマケン,タテバヤシシ,タカネチョウ,群馬県館林市高根町
3740075,群馬県,館林市,西高根町,グンマケン,タテバヤシシ,ニシタカネチョウ,群馬県館林市西高根町
3740076,群馬県,館林市,日向町,グンマケン,タテバヤシシ,ヒナタチョウ,群馬県館林市日向町
3740077,群馬県,館林市,木戸町,グンマケン,タテバヤシシ,キドチョウ,群馬県館林市木戸町
3740078,群馬県,館林市,傍示塚町,グンマケン,タテバヤシシ,ホウジツカチョウ,群馬県館林市傍示塚町
3740079,群馬県,館林市,上早川田町,グンマケン,タテバヤシシ,カミサガワダチョウ,群馬県館林市上早川田町
3740100,群馬県,邑楽郡板倉町,,グンマケン,オウラグンイタクラマチ,,群馬県邑楽郡板倉町
3740101,群馬県,邑楽郡板倉町,除川,グンマケン,オウラグンイタクラマチ,ヨケガワ,群馬県邑楽郡板倉町除川
3740102,群馬県,邑楽郡板倉町,離,グンマケン,オウラグンイタクラマチ,ハナレ,群馬県邑楽郡板倉町離
3740103,群馬県,邑楽郡板倉町,細谷,グンマケン,オウラグンイタクラマチ,ホソヤ,群馬県邑楽郡板倉町細谷
3740104,群馬県,邑楽郡板倉町,大荷場,グンマケン,オウラグンイタクラマチ,オオニンバ,群馬県邑楽郡板倉町大荷場
3740105,群馬県,邑楽郡板倉町,大曲,グンマケン,オウラグンイタクラマチ,オオマガリ,群馬県邑楽郡板倉町大曲
3740106,群馬県,邑楽郡板倉町,西岡新田,グンマケン,オウラグンイタクラマチ,ニシオカシンデン,群馬県邑楽郡板倉町西岡新田
3740107,群馬県,邑楽郡板倉町,西岡,グンマケン,オウラグンイタクラマチ,ニシオカ,群馬県邑楽郡板倉町西岡
3740111,群馬県,邑楽郡板倉町,海老瀬,グンマケン,オウラグンイタクラマチ,エビセ,群馬県邑楽郡板倉町海老瀬
3740112,群馬県,邑楽郡板倉町,朝日野,グンマケン,オウラグンイタクラマチ,アサヒノ,群馬県邑楽郡板倉町朝日野
3740113,群馬県,邑楽郡板倉町,泉野,グンマケン,オウラグンイタクラマチ,イズミノ,群馬県邑楽郡板倉町泉野
3740121,群馬県,邑楽郡板倉町,下五箇,グンマケン,オウラグンイタクラマチ,シモゴカ,群馬県邑楽郡板倉町下五箇
3740122,群馬県,邑楽郡板倉町,大高嶋,グンマケン,オウラグンイタクラマチ,オオタカシマ,群馬県邑楽郡板倉町大高嶋
3740123,群馬県,邑楽郡板倉町,飯野,グンマケン,オウラグンイタクラマチ,イイノ,群馬県邑楽郡板倉町飯野
3740131,群馬県,邑楽郡板倉町,大蔵,グンマケン,オウラグンイタクラマチ,オオクラ,群馬県邑楽郡板倉町大蔵
3740132,群馬県,邑楽郡板倉町,板倉,グンマケン,オウラグンイタクラマチ,イタクラ,群馬県邑楽郡板倉町板倉
3740133,群馬県,邑楽郡板倉町,岩田,グンマケン,オウラグンイタクラマチ,イワタ,群馬県邑楽郡板倉町岩田
3740134,群馬県,邑楽郡板倉町,籾谷,グンマケン,オウラグンイタクラマチ,モミヤ,群馬県邑楽郡板倉町籾谷
3740135,群馬県,邑楽郡板倉町,内蔵新田,グンマケン,オウラグンイタクラマチ,ウチクラシンデン,群馬県邑楽郡板倉町内蔵新田
3750000,群馬県,藤岡市,,グンマケン,フジオカシ,,群馬県藤岡市
3750001,群馬県,藤岡市,中島,グンマケン,フジオカシ,ナカジマ,群馬県藤岡市中島
3750002,群馬県,藤岡市,立石,グンマケン,フジオカシ,タツイシ,群馬県藤岡市立石
3750003,群馬県,藤岡市,立石新田,グンマケン,フジオカシ,タツイシシンデン,群馬県藤岡市立石新田
3750004,群馬県,藤岡市,森,グンマケン,フジオカシ,モリ,群馬県藤岡市森
3750005,群馬県,藤岡市,中,グンマケン,フジオカシ,ナカ,群馬県藤岡市中
3750006,群馬県,藤岡市,森新田,グンマケン,フジオカシ,モリシンデン,群馬県藤岡市森新田
3750011,群馬県,藤岡市,岡之郷,グンマケン,フジオカシ,オカノゴウ,群馬県藤岡市岡之郷
3750012,群馬県,藤岡市,下戸塚,グンマケン,フジオカシ,シモトヅカ,群馬県藤岡市下戸塚
3750013,群馬県,藤岡市,上戸塚,グンマケン,フジオカシ,カミトヅカ,群馬県藤岡市上戸塚
3750014,群馬県,藤岡市,下栗須,グンマケン,フジオカシ,シモクリス,群馬県藤岡市下栗須
3750015,群馬県,藤岡市,中栗須,グンマケン,フジオカシ,ナカクリス,群馬県藤岡市中栗須
3750016,群馬県,藤岡市,上栗須,グンマケン,フジオカシ,カミクリス,群馬県藤岡市上栗須
3750017,群馬県,藤岡市,篠塚,グンマケン,フジオカシ,シノヅカ,群馬県藤岡市篠塚
3750021,群馬県,藤岡市,小林,グンマケン,フジオカシ,コバヤシ,群馬県藤岡市小林
3750022,群馬県,藤岡市,根岸,グンマケン,フジオカシ,ネギシ,群馬県藤岡市根岸
3750023,群馬県,藤岡市,本郷,グンマケン,フジオカシ,ホンゴウ,群馬県藤岡市本郷
3750024,群馬県,藤岡市,藤岡,グンマケン,フジオカシ,フジオカ,群馬県藤岡市藤岡
3750031,群馬県,藤岡市,矢場,グンマケン,フジオカシ,ヤバ,群馬県藤岡市矢場
3750032,群馬県,藤岡市,神田,グンマケン,フジオカシ,ジンダ,群馬県藤岡市神田
3750033,群馬県,藤岡市,川除,グンマケン,フジオカシ,カワヨケ,群馬県藤岡市川除
3750034,群馬県,藤岡市,牛田,グンマケン,フジオカシ,ウシタ,群馬県藤岡市牛田
3750035,群馬県,藤岡市,保美,グンマケン,フジオカシ,ホミ,群馬県藤岡市保美
3750036,群馬県,藤岡市,高山,グンマケン,フジオカシ,タカヤマ,群馬県藤岡市高山
3750037,群馬県,藤岡市,三本木,グンマケン,フジオカシ,サンボギ,群馬県藤岡市三本木
3750041,群馬県,藤岡市,緑埜,グンマケン,フジオカシ,ミドノ,群馬県藤岡市緑埜
3750042,群馬県,藤岡市,鮎川,グンマケン,フジオカシ,アユガワ,群馬県藤岡市鮎川
3750043,群馬県,藤岡市,東平井,グンマケン,フジオカシ,ヒガシヒライ,群馬県藤岡市東平井
3750044,群馬県,藤岡市,西平井,グンマケン,フジオカシ,ニシヒライ,群馬県藤岡市西平井
3750045,群馬県,藤岡市,金井,グンマケン,フジオカシ,カナイ,群馬県藤岡市金井
3750046,群馬県,藤岡市,下日野,グンマケン,フジオカシ,シモヒノ,群馬県藤岡市下日野
3750047,群馬県,藤岡市,上日野,グンマケン,フジオカシ,カミヒノ,群馬県藤岡市上日野
3750051,群馬県,藤岡市,本動堂,グンマケン,フジオカシ,モトユルギドウ,群馬県藤岡市本動堂
3750052,群馬県,藤岡市,下大塚,グンマケン,フジオカシ,シモオオヅカ,群馬県藤岡市下大塚
3750053,群馬県,藤岡市,中大塚,グンマケン,フジオカシ,ナカオオヅカ,群馬県藤岡市中大塚
3750054,群馬県,藤岡市,上大塚,グンマケン,フジオカシ,カミオオヅカ,群馬県藤岡市上大塚
3750055,群馬県,藤岡市,白石,グンマケン,フジオカシ,シロイシ,群馬県藤岡市白石
3750056,群馬県,藤岡市,三ツ木,グンマケン,フジオカシ,ミツギ,群馬県藤岡市三ツ木
3750057,群馬県,藤岡市,上落合,グンマケン,フジオカシ,カミオチアイ,群馬県藤岡市上落合
3760000,群馬県,桐生市,,グンマケン,キリュウシ,,群馬県桐生市
3760001,群馬県,桐生市,菱町,グンマケン,キリュウシ,ヒシマチ,群馬県桐生市菱町
3760002,群馬県,桐生市,境野町,グンマケン,キリュウシ,サカイノチョウ,群馬県桐生市境野町
3760003,群馬県,桐生市,琴平町,グンマケン,キリュウシ,コトヒラチョウ,群馬県桐生市琴平町
3760004,群馬県,桐生市,小梅町,グンマケン,キリュウシ,コウメチョウ,群馬県桐生市小梅町
3760005,群馬県,桐生市,三吉町,グンマケン,キリュウシ,ミヨシチョウ,群馬県桐生市三吉町
3760006,群馬県,桐生市,新宿,グンマケン,キリュウシ,シンシュク,群馬県桐生市新宿
3760007,群馬県,桐生市,浜松町,グンマケン,キリュウシ,ハママツチョウ,群馬県桐生市浜松町
3760011,群馬県,桐生市,相生町,グンマケン,キリュウシ,アイオイチョウ,群馬県桐生市相生町
3760012,群馬県,桐生市,桜木町,グンマケン,キリュウシ,サクラギチョウ,群馬県桐生市桜木町
3760013,群馬県,桐生市,広沢町,グンマケン,キリュウシ,ヒロサワチョウ,群馬県桐生市広沢町
3760014,群馬県,桐生市,広沢町間ノ島,グンマケン,キリュウシ,ヒロサワチョウアイノシマ,群馬県桐生市広沢町間ノ島
3760021,群馬県,桐生市,巴町,グンマケン,キリュウシ,トモエチョウ,群馬県桐生市巴町
3760022,群馬県,桐生市,稲荷町,グンマケン,キリュウシ,イナリチョウ,群馬県桐生市稲荷町
3760023,群馬県,桐生市,錦町,グンマケン,キリュウシ,ニシキチョウ,群馬県桐生市錦町
3760024,群馬県,桐生市,織姫町,グンマケン,キリュウシ,オリヒメチョウ,群馬県桐生市織姫町
3760025,群馬県,桐生市,美原町,グンマケン,キリュウシ,ミハラチョウ,群馬県桐生市美原町
3760026,群馬県,桐生市,清瀬町,グンマケン,キリュウシ,キヨセチョウ,群馬県桐生市清瀬町
3760027,群馬県,桐生市,元宿町,グンマケン,キリュウシ,モトジュクチョウ,群馬県桐生市元宿町
3760031,群馬県,桐生市,本町,グンマケン,キリュウシ,ホンチョウ,群馬県桐生市本町
3760032,群馬県,桐生市,東町,グンマケン,キリュウシ,アズマチョウ,群馬県桐生市東町
3760033,群馬県,桐生市,泉町,グンマケン,キリュウシ,イズミチョウ,群馬県桐生市泉町
3760034,群馬県,桐生市,東,グンマケン,キリュウシ,ヒガシ,群馬県桐生市東
3760035,群馬県,桐生市,仲町,グンマケン,キリュウシ,ナカマチ,群馬県桐生市仲町
3760036,群馬県,桐生市,川岸町,グンマケン,キリュウシ,カワギシチョウ,群馬県桐生市川岸町
3760037,群馬県,桐生市,旭町,グンマケン,キリュウシ,アサヒチョウ,群馬県桐生市旭町
3760038,群馬県,桐生市,高砂町,グンマケン,キリュウシ,タカサゴチョウ,群馬県桐生市高砂町
3760041,群馬県,桐生市,川内町,グンマケン,キリュウシ,カワウチチョウ,群馬県桐生市川内町
3760042,群馬県,桐生市,堤町,グンマケン,キリュウシ,ツツミチョウ,群馬県桐生市堤町
3760043,群馬県,桐生市,小曾根町,グンマケン,キリュウシ,コソネチョウ,群馬県桐生市小曾根町
3760044,群馬県,桐生市,永楽町,グンマケン,キリュウシ,エイラクチョウ,群馬県桐生市永楽町
3760045,群馬県,桐生市,末広町,グンマケン,キリュウシ,スエヒロチョウ,群馬県桐生市末広町
3760046,群馬県,桐生市,宮前町,グンマケン,キリュウシ,ミヤマエチョウ,群馬県桐生市宮前町
3760051,群馬県,桐生市,平井町,グンマケン,キリュウシ,ヒライチョウ,群馬県桐生市平井町
3760052,群馬県,桐生市,天神町,グンマケン,キリュウシ,テンジンチョウ,群馬県桐生市天神町
3760053,群馬県,桐生市,東久方町,グンマケン,キリュウシ,ヒガシヒサカタチョウ,群馬県桐生市東久方町
3760054,群馬県,桐生市,西久方町,グンマケン,キリュウシ,ニシヒサカタチョウ,群馬県桐生市西久方町
3760055,群馬県,桐生市,横山町,グンマケン,キリュウシ,ヨコヤマチョウ,群馬県桐生市横山町
3760056,群馬県,桐生市,宮本町,グンマケン,キリュウシ,ミヤモトチョウ,群馬県桐生市宮本町
3760100,群馬県,みどり市,,グンマケン,ミドリシ,,群馬県みどり市
3760101,群馬県,みどり市,大間々町大間々,グンマケン,ミドリシ,オオママチョウオオママ,群馬県みどり市大間々町大間々
3760102,群馬県,みどり市,大間々町桐原,グンマケン,ミドリシ,オオママチョウキリバラ,群馬県みどり市大間々町桐原
3760103,群馬県,みどり市,大間々町下神梅,グンマケン,ミドリシ,オオママチョウシモカンバイ,群馬県みどり市大間々町下神梅
3760104,群馬県,みどり市,大間々町上神梅,グンマケン,ミドリシ,オオママチョウカミカンバイ,群馬県みどり市大間々町上神梅
3760111,群馬県,みどり市,大間々町小平,グンマケン,ミドリシ,オオママチョウオダイラ,群馬県みどり市大間々町小平
3760112,群馬県,みどり市,大間々町長尾根,グンマケン,ミドリシ,オオママチョウナガオネ,群馬県みどり市大間々町長尾根
3760113,群馬県,みどり市,大間々町高津戸,グンマケン,ミドリシ,オオママチョウタカツド,群馬県みどり市大間々町高津戸
3760114,群馬県,みどり市,大間々町浅原,グンマケン,ミドリシ,オオママチョウアサバラ,群馬県みどり市大間々町浅原
3760115,群馬県,みどり市,大間々町塩原,グンマケン,ミドリシ,オオママチョウシオバラ,群馬県みどり市大間々町塩原
3760116,群馬県,みどり市,大間々町塩沢,グンマケン,ミドリシ,オオママチョウシオザワ,群馬県みどり市大間々町塩沢
3760121,群馬県,桐生市,新里町新川,グンマケン,キリュウシ,ニイサトチョウニッカワ,群馬県桐生市新里町新川
3760122,群馬県,桐生市,新里町野,グンマケン,キリュウシ,ニイサトチョウノ,群馬県桐生市新里町野
3760123,群馬県,桐生市,新里町武井,グンマケン,キリュウシ,ニイサトチョウタケイ,群馬県桐生市新里町武井
3760124,群馬県,桐生市,新里町小林,グンマケン,キリュウシ,ニイサトチョウコバヤシ,群馬県桐生市新里町小林
3760125,群馬県,桐生市,新里町山上,グンマケン,キリュウシ,ニイサトチョウヤマカミ,群馬県桐生市新里町山上
3760131,群馬県,桐生市,新里町奥沢,グンマケン,キリュウシ,ニイサトチョウオクザワ,群馬県桐生市新里町奥沢
3760132,群馬県,桐生市,新里町鶴ケ谷,グンマケン,キリュウシ,ニイサトチョウツルガヤ,群馬県桐生市新里町鶴ケ谷
3760133,群馬県,桐生市,新里町大久保,グンマケン,キリュウシ,ニイサトチョウオオクボ,群馬県桐生市新里町大久保
3760134,群馬県,桐生市,新里町関,グンマケン,キリュウシ,ニイサトチョウセキ,群馬県桐生市新里町関
3760135,群馬県,桐生市,新里町高泉,グンマケン,キリュウシ,ニイサトチョウタカイズミ,群馬県桐生市新里町高泉
3760136,群馬県,桐生市,新里町板橋,グンマケン,キリュウシ,ニイサトチョウイタバシ,群馬県桐生市新里町板橋
3760137,群馬県,桐生市,新里町赤城山,グンマケン,キリュウシ,ニイサトチョウアカギサン,群馬県桐生市新里町赤城山
3760141,群馬県,桐生市,黒保根町水沼,グンマケン,キリュウシ,クロホネチョウミズヌマ,群馬県桐生市黒保根町水沼
3760142,群馬県,桐生市,黒保根町八木原,グンマケン,キリュウシ,クロホネチョウヤギハラ,群馬県桐生市黒保根町八木原
3760143,群馬県,桐生市,黒保根町宿廻,グンマケン,キリュウシ,クロホネチョウシュクメグリ,群馬県桐生市黒保根町宿廻
3760144,群馬県,桐生市,黒保根町下田沢,グンマケン,キリュウシ,クロホネチョウシモタザワ,群馬県桐生市黒保根町下田沢
3760145,群馬県,桐生市,黒保根町上田沢,グンマケン,キリュウシ,クロホネチョウカミタザワ,群馬県桐生市黒保根町上田沢
3760301,群馬県,みどり市,東町沢入,グンマケン,ミドリシ,アズマチョウソウリ,群馬県みどり市東町沢入
3760302,群馬県,みどり市,東町草木,グンマケン,ミドリシ,アズマチョウクサギ,群馬県みどり市東町草木
3760303,群馬県,みどり市,東町座間,グンマケン,ミドリシ,アズマチョウザマ,群馬県みどり市東町座間
3760304,群馬県,みどり市,東町神戸,グンマケン,ミドリシ,アズマチョウゴウド,群馬県みどり市東町神戸
3760305,群馬県,みどり市,東町小夜戸,グンマケン,ミドリシ,アズマチョウサヤド,群馬県みどり市東町小夜戸
3760306,群馬県,みどり市,東町荻原,グンマケン,ミドリシ,アズマチョウオギハラ,群馬県みどり市東町荻原
3760307,群馬県,みどり市,東町花輪,グンマケン,ミドリシ,アズマチョウハナワ,群馬県みどり市東町花輪
3760308,群馬県,みどり市,東町小中,グンマケン,ミドリシ,アズマチョウコナカ,群馬県みどり市東町小中
3760601,群馬県,桐生市,梅田町,グンマケン,キリュウシ,ウメダチョウ,群馬県桐生市梅田町
3770000,群馬県,渋川市,,グンマケン,シブカワシ,,群馬県渋川市
3770002,群馬県,渋川市,中村,グンマケン,シブカワシ,ナカムラ,群馬県渋川市中村
3770003,群馬県,渋川市,八木原,グンマケン,シブカワシ,ヤギハラ,群馬県渋川市八木原
3770004,群馬県,渋川市,半田,グンマケン,シブカワシ,ハンダ,群馬県渋川市半田
3770005,群馬県,渋川市,有馬,グンマケン,シブカワシ,アリマ,群馬県渋川市有馬
3770006,群馬県,渋川市,行幸田,グンマケン,シブカワシ,ミユキダ,群馬県渋川市行幸田
3770007,群馬県,渋川市,石原,グンマケン,シブカワシ,イシハラ,群馬県渋川市石原
3770008,群馬県,渋川市,渋川,グンマケン,シブカワシ,シブカワ,群馬県渋川市渋川
3770024,群馬県,渋川市,祖母島,グンマケン,シブカワシ,ウバシマ,群馬県渋川市祖母島
3770025,群馬県,渋川市,川島,グンマケン,シブカワシ,カワシマ,群馬県渋川市川島
3770026,群馬県,渋川市,南牧,グンマケン,シブカワシ,ナンモク,群馬県渋川市南牧
3770027,群馬県,渋川市,金井,グンマケン,シブカワシ,カナイ,群馬県渋川市金井
3770031,群馬県,渋川市,阿久津,グンマケン,シブカワシ,アクツ,群馬県渋川市阿久津
3770051,群馬県,渋川市,北橘町赤城山,グンマケン,シブカワシ,ホッキツマチアカギサン,群馬県渋川市北橘町赤城山
3770052,群馬県,渋川市,北橘町上箱田,グンマケン,シブカワシ,ホッキツマチカミハコダ,群馬県渋川市北橘町上箱田
3770053,群馬県,渋川市,北橘町箱田,グンマケン,シブカワシ,ホッキツマチハコダ,群馬県渋川市北橘町箱田
3770054,群馬県,渋川市,北橘町下南室,グンマケン,シブカワシ,ホッキツマチシモナムロ,群馬県渋川市北橘町下南室
3770055,群馬県,渋川市,北橘町上南室,グンマケン,シブカワシ,ホッキツマチカミナムロ,群馬県渋川市北橘町上南室
3770061,群馬県,渋川市,北橘町下箱田,グンマケン,シブカワシ,ホッキツマチシモハコダ,群馬県渋川市北橘町下箱田
3770062,群馬県,渋川市,北橘町真壁,グンマケン,シブカワシ,ホッキツマチマカベ,群馬県渋川市北橘町真壁
3770063,群馬県,渋川市,北橘町分郷八崎,グンマケン,シブカワシ,ホッキツマチブンゴウハッサキ,群馬県渋川市北橘町分郷八崎
3770064,群馬県,渋川市,北橘町八崎,グンマケン,シブカワシ,ホッキツマチハッサキ,群馬県渋川市北橘町八崎
3770065,群馬県,渋川市,北橘町小室,グンマケン,シブカワシ,ホッキツマチコムロ,群馬県渋川市北橘町小室
3770101,群馬県,渋川市,伊香保町湯中子,グンマケン,シブカワシ,イカホマチユナカゴ,群馬県渋川市伊香保町湯中子
3770102,群馬県,渋川市,伊香保町伊香保,グンマケン,シブカワシ,イカホマチイカホ,群馬県渋川市伊香保町伊香保
3770103,群馬県,渋川市,伊香保町水沢,グンマケン,シブカワシ,イカホマチミズサワ,群馬県渋川市伊香保町水沢
3770201,群馬県,渋川市,上白井,グンマケン,シブカワシ,カミシロイ,群馬県渋川市上白井
3770202,群馬県,渋川市,中郷,グンマケン,シブカワシ,ナカゴウ,群馬県渋川市中郷
3770203,群馬県,渋川市,吹屋,グンマケン,シブカワシ,フキヤ,群馬県渋川市吹屋
3770204,群馬県,渋川市,白井,グンマケン,シブカワシ,シロイ,群馬県渋川市白井
3770205,群馬県,渋川市,北牧,グンマケン,シブカワシ,キタモク,群馬県渋川市北牧
3770206,群馬県,渋川市,横堀,グンマケン,シブカワシ,ヨコボリ,群馬県渋川市横堀
3770301,群馬県,吾妻郡東吾妻町,箱島,グンマケン,アガツマグンヒガシアガツママチ,ハコジマ,群馬県吾妻郡東吾妻町箱島
3770302,群馬県,吾妻郡東吾妻町,岡崎（その他）,グンマケン,アガツマグンヒガシアガツママチ,オカザキ(ソノタ),群馬県吾妻郡東吾妻町岡崎（その他）
3770303,群馬県,吾妻郡東吾妻町,新巻,グンマケン,アガツマグンヒガシアガツママチ,アラマキ,群馬県吾妻郡東吾妻町新巻
3770304,群馬県,吾妻郡東吾妻町,奥田,グンマケン,アガツマグンヒガシアガツママチ,オクダ,群馬県吾妻郡東吾妻町奥田
3770305,群馬県,吾妻郡東吾妻町,五町田,グンマケン,アガツマグンヒガシアガツママチ,ゴチョウダ,群馬県吾妻郡東吾妻町五町田
3770311,群馬県,渋川市,村上,グンマケン,シブカワシ,ムラカミ,群馬県渋川市村上
3770312,群馬県,渋川市,小野子,グンマケン,シブカワシ,オノコ,群馬県渋川市小野子
3770400,群馬県,吾妻郡中之条町,,グンマケン,アガツマグンナカノジョウマチ,,群馬県吾妻郡中之条町
3770411,群馬県,吾妻郡中之条町,大道,グンマケン,アガツマグンナカノジョウマチ,ダイドウ,群馬県吾妻郡中之条町大道
3770412,群馬県,吾妻郡中之条町,栃窪,グンマケン,アガツマグンナカノジョウマチ,トチクボ,群馬県吾妻郡中之条町栃窪
3770413,群馬県,吾妻郡中之条町,大塚,グンマケン,アガツマグンナカノジョウマチ,オオヅカ,群馬県吾妻郡中之条町大塚
3770414,群馬県,吾妻郡中之条町,平,グンマケン,アガツマグンナカノジョウマチ,タイラ,群馬県吾妻郡中之条町平
3770415,群馬県,吾妻郡中之条町,横尾,グンマケン,アガツマグンナカノジョウマチ,ヨコオ,群馬県吾妻郡中之条町横尾
3770416,群馬県,吾妻郡中之条町,蟻川,グンマケン,アガツマグンナカノジョウマチ,アリガワ,群馬県吾妻郡中之条町蟻川
3770417,群馬県,吾妻郡中之条町,赤坂,グンマケン,アガツマグンナカノジョウマチ,アカサカ,群馬県吾妻郡中之条町赤坂
3770421,群馬県,吾妻郡中之条町,市城,グンマケン,アガツマグンナカノジョウマチ,イチシロ,群馬県吾妻郡中之条町市城
3770422,群馬県,吾妻郡中之条町,青山,グンマケン,アガツマグンナカノジョウマチ,アオヤマ,群馬県吾妻郡中之条町青山
3770423,群馬県,吾妻郡中之条町,伊勢町,グンマケン,アガツマグンナカノジョウマチ,イセマチ,群馬県吾妻郡中之条町伊勢町
3770424,群馬県,吾妻郡中之条町,中之条町,グンマケン,アガツマグンナカノジョウマチ,ナカノジョウマチ,群馬県吾妻郡中之条町中之条町
3770425,群馬県,吾妻郡中之条町,西中之条,グンマケン,アガツマグンナカノジョウマチ,ニシナカノジョウ,群馬県吾妻郡中之条町西中之条
3770431,群馬県,吾妻郡中之条町,岩本,グンマケン,アガツマグンナカノジョウマチ,イワモト,群馬県吾妻郡中之条町岩本
3770432,群馬県,吾妻郡中之条町,五反田,グンマケン,アガツマグンナカノジョウマチ,ゴタンダ,群馬県吾妻郡中之条町五反田
3770433,群馬県,吾妻郡中之条町,折田（その他）,グンマケン,アガツマグンナカノジョウマチ,オリダ(ソノタ),群馬県吾妻郡中之条町折田（その他）
3770434,群馬県,吾妻郡中之条町,山田（その他）,グンマケン,アガツマグンナカノジョウマチ,ヤマダ(ソノタ),群馬県吾妻郡中之条町山田（その他）
3770541,群馬県,吾妻郡中之条町,上沢渡,グンマケン,アガツマグンナカノジョウマチ,カミサワタリ,群馬県吾妻郡中之条町上沢渡
3770542,群馬県,吾妻郡中之条町,下沢渡,グンマケン,アガツマグンナカノジョウマチ,シモサワタリ,群馬県吾妻郡中之条町下沢渡
3770543,群馬県,吾妻郡中之条町,山田（寺社原、細尾）,グンマケン,アガツマグンナカノジョウマチ,ヤマダ(ジシャバラ、ホソオ),群馬県吾妻郡中之条町山田（寺社原、細尾）
3770544,群馬県,吾妻郡中之条町,折田（戦道）,グンマケン,アガツマグンナカノジョウマチ,オリダ(センドウ),群馬県吾妻郡中之条町折田（戦道）
3770601,群馬県,吾妻郡中之条町,四万,グンマケン,アガツマグンナカノジョウマチ,シマ,群馬県吾妻郡中之条町四万
3770700,群馬県,吾妻郡高山村,,グンマケン,アガツマグンタカヤマムラ,,群馬県吾妻郡高山村
3770701,群馬県,吾妻郡高山村,尻高,グンマケン,アガツマグンタカヤマムラ,シッタカ,群馬県吾妻郡高山村尻高
3770702,群馬県,吾妻郡高山村,中山,グンマケン,アガツマグンタカヤマムラ,ナカヤマ,群馬県吾妻郡高山村中山
3770800,群馬県,吾妻郡東吾妻町,,グンマケン,アガツマグンヒガシアガツママチ,,群馬県吾妻郡東吾妻町
3770801,群馬県,吾妻郡東吾妻町,原町,グンマケン,アガツマグンヒガシアガツママチ,ハラマチ,群馬県吾妻郡東吾妻町原町
3770802,群馬県,吾妻郡東吾妻町,川戸（その他）,グンマケン,アガツマグンヒガシアガツママチ,カワド(ソノタ),群馬県吾妻郡東吾妻町川戸（その他）
3770803,群馬県,吾妻郡東吾妻町,金井,グンマケン,アガツマグンヒガシアガツママチ,カナイ,群馬県吾妻郡東吾妻町金井
3770804,群馬県,吾妻郡東吾妻町,岩井,グンマケン,アガツマグンヒガシアガツママチ,イワイ,群馬県吾妻郡東吾妻町岩井
3770805,群馬県,吾妻郡東吾妻町,植栗,グンマケン,アガツマグンヒガシアガツママチ,ウエグリ,群馬県吾妻郡東吾妻町植栗
3770806,群馬県,吾妻郡東吾妻町,小泉,グンマケン,アガツマグンヒガシアガツママチ,コイズミ,群馬県吾妻郡東吾妻町小泉
3770807,群馬県,吾妻郡東吾妻町,泉沢（その他）,グンマケン,アガツマグンヒガシアガツママチ,イズミサワ(ソノタ),群馬県吾妻郡東吾妻町泉沢（その他）
3770811,群馬県,吾妻郡東吾妻町,郷原,グンマケン,アガツマグンヒガシアガツママチ,ゴウバラ,群馬県吾妻郡東吾妻町郷原
3770812,群馬県,吾妻郡東吾妻町,厚田,グンマケン,アガツマグンヒガシアガツママチ,アツダ,群馬県吾妻郡東吾妻町厚田
3770813,群馬県,吾妻郡東吾妻町,三島,グンマケン,アガツマグンヒガシアガツママチ,ミシマ,群馬県吾妻郡東吾妻町三島
3770814,群馬県,吾妻郡東吾妻町,松谷,グンマケン,アガツマグンヒガシアガツママチ,マツヤ,群馬県吾妻郡東吾妻町松谷
3770815,群馬県,吾妻郡東吾妻町,岩下,グンマケン,アガツマグンヒガシアガツママチ,イワシタ,群馬県吾妻郡東吾妻町岩下
3770816,群馬県,吾妻郡東吾妻町,矢倉,グンマケン,アガツマグンヒガシアガツママチ,ヤグラ,群馬県吾妻郡東吾妻町矢倉
3770931,群馬県,吾妻郡東吾妻町,大戸,グンマケン,アガツマグンヒガシアガツママチ,オオド,群馬県吾妻郡東吾妻町大戸
3770932,群馬県,吾妻郡東吾妻町,萩生,グンマケン,アガツマグンヒガシアガツママチ,ハギュウ,群馬県吾妻郡東吾妻町萩生
3770933,群馬県,吾妻郡東吾妻町,本宿,グンマケン,アガツマグンヒガシアガツママチ,モトジュク,群馬県吾妻郡東吾妻町本宿
3770934,群馬県,吾妻郡東吾妻町,須賀尾,グンマケン,アガツマグンヒガシアガツママチ,スガオ,群馬県吾妻郡東吾妻町須賀尾
3770935,群馬県,吾妻郡東吾妻町,大柏木,グンマケン,アガツマグンヒガシアガツママチ,オオカシワギ,群馬県吾妻郡東吾妻町大柏木
3771300,群馬県,吾妻郡長野原町,,グンマケン,アガツマグンナガノハラマチ,,群馬県吾妻郡長野原町
3771301,群馬県,吾妻郡長野原町,川原畑,グンマケン,アガツマグンナガノハラマチ,カワラハタ,群馬県吾妻郡長野原町川原畑
3771302,群馬県,吾妻郡長野原町,川原湯,グンマケン,アガツマグンナガノハラマチ,カワラユ,群馬県吾妻郡長野原町川原湯
3771303,群馬県,吾妻郡長野原町,横壁,グンマケン,アガツマグンナガノハラマチ,ヨコカベ,群馬県吾妻郡長野原町横壁
3771304,群馬県,吾妻郡長野原町,長野原,グンマケン,アガツマグンナガノハラマチ,ナガノハラ,群馬県吾妻郡長野原町長野原
3771305,群馬県,吾妻郡長野原町,与喜屋,グンマケン,アガツマグンナガノハラマチ,ヨキヤ,群馬県吾妻郡長野原町与喜屋
3771306,群馬県,吾妻郡長野原町,古森,グンマケン,アガツマグンナガノハラマチ,フルモリ,群馬県吾妻郡長野原町古森
3771307,群馬県,吾妻郡長野原町,羽根尾,グンマケン,アガツマグンナガノハラマチ,ハネオ,群馬県吾妻郡長野原町羽根尾
3771308,群馬県,吾妻郡長野原町,大津,グンマケン,アガツマグンナガノハラマチ,オオツ,群馬県吾妻郡長野原町大津
3771309,群馬県,吾妻郡長野原町,林,グンマケン,アガツマグンナガノハラマチ,ハヤシ,群馬県吾妻郡長野原町林
3771310,群馬県,吾妻郡長野原町,応桑（堂光原）,グンマケン,アガツマグンナガノハラマチ,オオクワ(ドウコウハラ),群馬県吾妻郡長野原町応桑（堂光原）
3771311,群馬県,吾妻郡中之条町,赤岩,グンマケン,アガツマグンナカノジョウマチ,アカイワ,群馬県吾妻郡中之条町赤岩
3771312,群馬県,吾妻郡中之条町,日影,グンマケン,アガツマグンナカノジョウマチ,ヒカゲ,群馬県吾妻郡中之条町日影
3771401,群馬県,吾妻郡嬬恋村,鎌原（奥軽井沢）,グンマケン,アガツマグンツマゴイムラ,カンバラ(オクカルイザワ),群馬県吾妻郡嬬恋村鎌原（奥軽井沢）
3771402,群馬県,吾妻郡嬬恋村,鎌原（鬼の泉水）,グンマケン,アガツマグンツマゴイムラ,カンバラ(オニノセンスイ),群馬県吾妻郡嬬恋村鎌原（鬼の泉水）
3771403,群馬県,吾妻郡嬬恋村,鎌原（あやめケ原）,グンマケン,アガツマグンツマゴイムラ,カンバラ(アヤメガハラ),群馬県吾妻郡嬬恋村鎌原（あやめケ原）
3771404,群馬県,吾妻郡嬬恋村,鎌原（大カイシコ）,グンマケン,アガツマグンツマゴイムラ,カンバラ(オオカイシコ),群馬県吾妻郡嬬恋村鎌原（大カイシコ）
3771405,群馬県,吾妻郡嬬恋村,鎌原（モロシコ「浅間園」）,グンマケン,アガツマグンツマゴイムラ,カンバラ(モロシコ<アサマエン>),群馬県吾妻郡嬬恋村鎌原（モロシコ「浅間園」）
3771411,群馬県,吾妻郡長野原町,応桑（その他）,グンマケン,アガツマグンナガノハラマチ,オオクワ(ソノタ),群馬県吾妻郡長野原町応桑（その他）
3771412,群馬県,吾妻郡長野原町,北軽井沢,グンマケン,アガツマグンナガノハラマチ,キタカルイザワ,群馬県吾妻郡長野原町北軽井沢
3771500,群馬県,吾妻郡嬬恋村,,グンマケン,アガツマグンツマゴイムラ,,群馬県吾妻郡嬬恋村
3771512,群馬県,吾妻郡嬬恋村,大前（細原２２５９〜）,グンマケン,アガツマグンツマゴイムラ,オオマエ(ホソハラ2259-),群馬県吾妻郡嬬恋村大前（細原2259〜）
3771521,群馬県,吾妻郡嬬恋村,今井,グンマケン,アガツマグンツマゴイムラ,イマイ,群馬県吾妻郡嬬恋村今井
3771522,群馬県,吾妻郡嬬恋村,袋倉,グンマケン,アガツマグンツマゴイムラ,フクログラ,群馬県吾妻郡嬬恋村袋倉
3771523,群馬県,吾妻郡嬬恋村,芦生田,グンマケン,アガツマグンツマゴイムラ,アシウダ,群馬県吾妻郡嬬恋村芦生田
3771524,群馬県,吾妻郡嬬恋村,鎌原（その他）,グンマケン,アガツマグンツマゴイムラ,カンバラ(ソノタ),群馬県吾妻郡嬬恋村鎌原（その他）
3771525,群馬県,吾妻郡嬬恋村,西窪,グンマケン,アガツマグンツマゴイムラ,サイクボ,群馬県吾妻郡嬬恋村西窪
3771526,群馬県,吾妻郡嬬恋村,三原,グンマケン,アガツマグンツマゴイムラ,ミハラ,群馬県吾妻郡嬬恋村三原
3771527,群馬県,吾妻郡嬬恋村,門貝,グンマケン,アガツマグンツマゴイムラ,カドガイ,群馬県吾妻郡嬬恋村門貝
3771528,群馬県,吾妻郡嬬恋村,干俣（吾妻鉱山、万座温泉）,グンマケン,アガツマグンツマゴイムラ,ホシマタ(アガツマコウザン、マンザオンセン),群馬県吾妻郡嬬恋村干俣（吾妻鉱山、万座温泉）
3771611,群馬県,吾妻郡嬬恋村,干俣（その他）,グンマケン,アガツマグンツマゴイムラ,ホシマタ(ソノタ),群馬県吾妻郡嬬恋村干俣（その他）
3771612,群馬県,吾妻郡嬬恋村,大前（その他）,グンマケン,アガツマグンツマゴイムラ,オオマエ(ソノタ),群馬県吾妻郡嬬恋村大前（その他）
3771613,群馬県,吾妻郡嬬恋村,大笹,グンマケン,アガツマグンツマゴイムラ,オオザサ,群馬県吾妻郡嬬恋村大笹
3771614,群馬県,吾妻郡嬬恋村,田代,グンマケン,アガツマグンツマゴイムラ,タシロ,群馬県吾妻郡嬬恋村田代
3771615,群馬県,吾妻郡嬬恋村,鎌原（藤原）,グンマケン,アガツマグンツマゴイムラ,カンバラ(フジワラ),群馬県吾妻郡嬬恋村鎌原（藤原）
3771616,群馬県,吾妻郡嬬恋村,鎌原（柏木塚）,グンマケン,アガツマグンツマゴイムラ,カンバラ(カシワギヅカ),群馬県吾妻郡嬬恋村鎌原（柏木塚）
3771617,群馬県,吾妻郡嬬恋村,鎌原（群馬坂）,グンマケン,アガツマグンツマゴイムラ,カンバラ(グンマザカ),群馬県吾妻郡嬬恋村鎌原（群馬坂）
3771700,群馬県,吾妻郡草津町,,グンマケン,アガツマグンクサツマチ,,群馬県吾妻郡草津町
3771701,群馬県,吾妻郡中之条町,入山,グンマケン,アガツマグンナカノジョウマチ,イリヤマ,群馬県吾妻郡中之条町入山
3771702,群馬県,吾妻郡中之条町,生須,グンマケン,アガツマグンナカノジョウマチ,ナマス,群馬県吾妻郡中之条町生須
3771703,群馬県,吾妻郡中之条町,太子,グンマケン,アガツマグンナカノジョウマチ,オオシ,群馬県吾妻郡中之条町太子
3771704,群馬県,吾妻郡中之条町,小雨,グンマケン,アガツマグンナカノジョウマチ,コサメ,群馬県吾妻郡中之条町小雨
3771711,群馬県,吾妻郡草津町,草津,グンマケン,アガツマグンクサツマチ,クサツ,群馬県吾妻郡草津町草津
3771712,群馬県,吾妻郡草津町,前口,グンマケン,アガツマグンクサツマチ,マエグチ,群馬県吾妻郡草津町前口
3780000,群馬県,沼田市,,グンマケン,ヌマタシ,,群馬県沼田市
3780001,群馬県,沼田市,戸神町,グンマケン,ヌマタシ,トカミマチ,群馬県沼田市戸神町
3780002,群馬県,沼田市,横塚町,グンマケン,ヌマタシ,ヨコヅカマチ,群馬県沼田市横塚町
3780003,群馬県,沼田市,上久屋町,グンマケン,ヌマタシ,カミクヤマチ,群馬県沼田市上久屋町
3780004,群馬県,沼田市,下久屋町,グンマケン,ヌマタシ,シモクヤマチ,群馬県沼田市下久屋町
3780005,群馬県,沼田市,久屋原町,グンマケン,ヌマタシ,クヤハラマチ,群馬県沼田市久屋原町
3780011,群馬県,沼田市,上沼須町,グンマケン,ヌマタシ,カミヌマスマチ,群馬県沼田市上沼須町
3780012,群馬県,沼田市,沼須町,グンマケン,ヌマタシ,ヌマスマチ,群馬県沼田市沼須町
3780013,群馬県,沼田市,新町,グンマケン,ヌマタシ,シンマチ,群馬県沼田市新町
3780014,群馬県,沼田市,栄町,グンマケン,ヌマタシ,サカエマチ,群馬県沼田市栄町
3780015,群馬県,沼田市,戸鹿野町,グンマケン,ヌマタシ,トガノマチ,群馬県沼田市戸鹿野町
3780016,群馬県,沼田市,清水町,グンマケン,ヌマタシ,シミズチョウ,群馬県沼田市清水町
3780017,群馬県,沼田市,坊新田町,グンマケン,ヌマタシ,ボウシンデンマチ,群馬県沼田市坊新田町
3780018,群馬県,沼田市,鍛冶町,グンマケン,ヌマタシ,カジマチ,群馬県沼田市鍛冶町
3780021,群馬県,沼田市,岩本町,グンマケン,ヌマタシ,イワモトマチ,群馬県沼田市岩本町
3780022,群馬県,沼田市,屋形原町,グンマケン,ヌマタシ,ヤカタバラマチ,群馬県沼田市屋形原町
3780023,群馬県,沼田市,篠尾町,グンマケン,ヌマタシ,ササオマチ,群馬県沼田市篠尾町
3780024,群馬県,沼田市,下川田町,グンマケン,ヌマタシ,シモカワダマチ,群馬県沼田市下川田町
3780025,群馬県,沼田市,今井町,グンマケン,ヌマタシ,イマイマチ,群馬県沼田市今井町
3780026,群馬県,沼田市,上川田町,グンマケン,ヌマタシ,カミカワダマチ,群馬県沼田市上川田町
3780031,群馬県,沼田市,薄根町,グンマケン,ヌマタシ,ウスネマチ,群馬県沼田市薄根町
3780032,群馬県,沼田市,硯田町,グンマケン,ヌマタシ,スズリダマチ,群馬県沼田市硯田町
3780033,群馬県,沼田市,白岩町,グンマケン,ヌマタシ,シライワマチ,群馬県沼田市白岩町
3780034,群馬県,沼田市,恩田町,グンマケン,ヌマタシ,オンダマチ,群馬県沼田市恩田町
3780035,群馬県,沼田市,井土上町,グンマケン,ヌマタシ,イドノウエマチ,群馬県沼田市井土上町
3780041,群馬県,沼田市,榛名町,グンマケン,ヌマタシ,ハルナマチ,群馬県沼田市榛名町
3780042,群馬県,沼田市,西倉内町,グンマケン,ヌマタシ,ニシクラウチマチ,群馬県沼田市西倉内町
3780043,群馬県,沼田市,東倉内町,グンマケン,ヌマタシ,ヒガシクラウチマチ,群馬県沼田市東倉内町
3780044,群馬県,沼田市,下之町,グンマケン,ヌマタシ,シモノチョウ,群馬県沼田市下之町
3780045,群馬県,沼田市,材木町,グンマケン,ヌマタシ,ザイモクチョウ,群馬県沼田市材木町
3780046,群馬県,沼田市,馬喰町,グンマケン,ヌマタシ,バクロウマチ,群馬県沼田市馬喰町
3780047,群馬県,沼田市,上之町,グンマケン,ヌマタシ,カミノチョウ,群馬県沼田市上之町
3780048,群馬県,沼田市,中町,グンマケン,ヌマタシ,ナカマチ,群馬県沼田市中町
3780051,群馬県,沼田市,上原町,グンマケン,ヌマタシ,カミハラマチ,群馬県沼田市上原町
3780052,群馬県,沼田市,桜町,グンマケン,ヌマタシ,サクラマチ,群馬県沼田市桜町
3780053,群馬県,沼田市,東原新町,グンマケン,ヌマタシ,ヒガシハラシンマチ,群馬県沼田市東原新町
3780054,群馬県,沼田市,西原新町,グンマケン,ヌマタシ,ニシハラシンマチ,群馬県沼田市西原新町
3780055,群馬県,沼田市,柳町,グンマケン,ヌマタシ,ヤナギマチ,群馬県沼田市柳町
3780056,群馬県,沼田市,高橋場町,グンマケン,ヌマタシ,タカハシバマチ,群馬県沼田市高橋場町
3780061,群馬県,沼田市,岡谷町,グンマケン,ヌマタシ,オカヤマチ,群馬県沼田市岡谷町
3780062,群馬県,沼田市,町田町,グンマケン,ヌマタシ,マチダマチ,群馬県沼田市町田町
3780063,群馬県,沼田市,下沼田町,グンマケン,ヌマタシ,シモヌマタマチ,群馬県沼田市下沼田町
3780064,群馬県,沼田市,善桂寺町,グンマケン,ヌマタシ,ゼンケイジマチ,群馬県沼田市善桂寺町
3780065,群馬県,沼田市,堀廻町,グンマケン,ヌマタシ,ホリメグリマチ,群馬県沼田市堀廻町
3780066,群馬県,沼田市,原町,グンマケン,ヌマタシ,ハラマチ,群馬県沼田市原町
3780067,群馬県,沼田市,大釜町,グンマケン,ヌマタシ,オオガママチ,群馬県沼田市大釜町
3780068,群馬県,沼田市,宇楚井町,グンマケン,ヌマタシ,ウソイマチ,群馬県沼田市宇楚井町
3780071,群馬県,沼田市,上発知町,グンマケン,ヌマタシ,カミホッチマチ,群馬県沼田市上発知町
3780072,群馬県,沼田市,中発知町,グンマケン,ヌマタシ,ナカホッチマチ,群馬県沼田市中発知町
3780073,群馬県,沼田市,発知新田町,グンマケン,ヌマタシ,ホッチシンデンマチ,群馬県沼田市発知新田町
3780074,群馬県,沼田市,下発知町,グンマケン,ヌマタシ,シモホッチマチ,群馬県沼田市下発知町
3780075,群馬県,沼田市,奈良町,グンマケン,ヌマタシ,ナラマチ,群馬県沼田市奈良町
3780076,群馬県,沼田市,秋塚町,グンマケン,ヌマタシ,アキヅカマチ,群馬県沼田市秋塚町
3780077,群馬県,沼田市,石墨町,グンマケン,ヌマタシ,イシズミマチ,群馬県沼田市石墨町
3780078,群馬県,沼田市,佐山町,グンマケン,ヌマタシ,サヤママチ,群馬県沼田市佐山町
3780100,群馬県,利根郡川場村,,グンマケン,トネグンカワバムラ,,群馬県利根郡川場村
3780101,群馬県,利根郡川場村,谷地,グンマケン,トネグンカワバムラ,ヤチ,群馬県利根郡川場村谷地
3780102,群馬県,利根郡川場村,川場湯原,グンマケン,トネグンカワバムラ,カワバユバラ,群馬県利根郡川場村川場湯原
3780103,群馬県,利根郡川場村,中野,グンマケン,トネグンカワバムラ,ナカノ,群馬県利根郡川場村中野
3780104,群馬県,利根郡川場村,太田川,グンマケン,トネグンカワバムラ,オオタガワ,群馬県利根郡川場村太田川
3780105,群馬県,利根郡川場村,小田川,グンマケン,トネグンカワバムラ,コタガワ,群馬県利根郡川場村小田川
3780111,群馬県,利根郡川場村,萩室,グンマケン,トネグンカワバムラ,ハギムロ,群馬県利根郡川場村萩室
3780112,群馬県,利根郡川場村,立岩,グンマケン,トネグンカワバムラ,タツイワ,群馬県利根郡川場村立岩
3780113,群馬県,利根郡川場村,生品,グンマケン,トネグンカワバムラ,ナマシナ,群馬県利根郡川場村生品
3780114,群馬県,利根郡川場村,天神,グンマケン,トネグンカワバムラ,テンジン,群馬県利根郡川場村天神
3780115,群馬県,利根郡川場村,門前,グンマケン,トネグンカワバムラ,モンゼン,群馬県利根郡川場村門前
3780121,群馬県,沼田市,白沢町高平,グンマケン,ヌマタシ,シラサワマチタカヒラ,群馬県沼田市白沢町高平
3780122,群馬県,沼田市,白沢町生枝,グンマケン,ヌマタシ,シラサワマチナマエ,群馬県沼田市白沢町生枝
3780123,群馬県,沼田市,白沢町岩室,グンマケン,ヌマタシ,シラサワマチイワムロ,群馬県沼田市白沢町岩室
3780124,群馬県,沼田市,白沢町尾合,グンマケン,ヌマタシ,シラサワマチオアイ,群馬県沼田市白沢町尾合
3780125,群馬県,沼田市,白沢町平出,グンマケン,ヌマタシ,シラサワマチヒライデ,群馬県沼田市白沢町平出
3780126,群馬県,沼田市,白沢町上古語父,グンマケン,ヌマタシ,シラサワマチカミココブ,群馬県沼田市白沢町上古語父
3780127,群馬県,沼田市,白沢町下古語父,グンマケン,ヌマタシ,シラサワマチシモココブ,群馬県沼田市白沢町下古語父
3780301,群馬県,沼田市,利根町平川,グンマケン,ヌマタシ,トネマチヒラガワ,群馬県沼田市利根町平川
3780302,群馬県,沼田市,利根町千鳥,グンマケン,ヌマタシ,トネマチチドリ,群馬県沼田市利根町千鳥
3780303,群馬県,沼田市,利根町追貝,グンマケン,ヌマタシ,トネマチオッカイ,群馬県沼田市利根町追貝
3780304,群馬県,沼田市,利根町大楊,グンマケン,ヌマタシ,トネマチオオヨウ,群馬県沼田市利根町大楊
3780305,群馬県,沼田市,利根町穴原,グンマケン,ヌマタシ,トネマチアナバラ,群馬県沼田市利根町穴原
3780306,群馬県,沼田市,利根町日向南郷,グンマケン,ヌマタシ,トネマチヒナタナンゴウ,群馬県沼田市利根町日向南郷
3780307,群馬県,沼田市,利根町柿平,グンマケン,ヌマタシ,トネマチカキダイラ,群馬県沼田市利根町柿平
3780311,群馬県,沼田市,利根町小松,グンマケン,ヌマタシ,トネマチコマツ,群馬県沼田市利根町小松
3780312,群馬県,沼田市,利根町根利,グンマケン,ヌマタシ,トネマチネリ,群馬県沼田市利根町根利
3780313,群馬県,沼田市,利根町日影南郷,グンマケン,ヌマタシ,トネマチヒカゲナンゴウ,群馬県沼田市利根町日影南郷
3780314,群馬県,沼田市,利根町青木,グンマケン,ヌマタシ,トネマチアオキ,群馬県沼田市利根町青木
3780315,群馬県,沼田市,利根町砂川,グンマケン,ヌマタシ,トネマチスナガワ,群馬県沼田市利根町砂川
3780316,群馬県,沼田市,利根町二本松,グンマケン,ヌマタシ,トネマチニホンマツ,群馬県沼田市利根町二本松
3780317,群馬県,沼田市,利根町多那,グンマケン,ヌマタシ,トネマチタナ,群馬県沼田市利根町多那
3780321,群馬県,沼田市,利根町高戸谷,グンマケン,ヌマタシ,トネマチタカトヤ,群馬県沼田市利根町高戸谷
3780322,群馬県,沼田市,利根町老神,グンマケン,ヌマタシ,トネマチオイガミ,群馬県沼田市利根町老神
3780323,群馬県,沼田市,利根町大原,グンマケン,ヌマタシ,トネマチオオハラ,群馬県沼田市利根町大原
3780324,群馬県,沼田市,利根町園原,グンマケン,ヌマタシ,トネマチソノハラ,群馬県沼田市利根町園原
3780325,群馬県,沼田市,利根町輪組,グンマケン,ヌマタシ,トネマチワクミ,群馬県沼田市利根町輪組
3780326,群馬県,沼田市,利根町石戸新田,グンマケン,ヌマタシ,トネマチイシドシンデン,群馬県沼田市利根町石戸新田
3780400,群馬県,利根郡片品村,,グンマケン,トネグンカタシナムラ,,群馬県利根郡片品村
3780401,群馬県,利根郡片品村,須賀川,グンマケン,トネグンカタシナムラ,スカガワ,群馬県利根郡片品村須賀川
3780402,群馬県,利根郡片品村,御座入,グンマケン,トネグンカタシナムラ,ミザノリ,群馬県利根郡片品村御座入
3780403,群馬県,利根郡片品村,菅沼,グンマケン,トネグンカタシナムラ,スガヌマ,群馬県利根郡片品村菅沼
3780404,群馬県,利根郡片品村,築地,グンマケン,トネグンカタシナムラ,ツイジ,群馬県利根郡片品村築地
3780405,群馬県,利根郡片品村,下平,グンマケン,トネグンカタシナムラ,シモダイラ,群馬県利根郡片品村下平
3780406,群馬県,利根郡片品村,摺淵,グンマケン,トネグンカタシナムラ,スルブチ,群馬県利根郡片品村摺淵
3780407,群馬県,利根郡片品村,幡谷,グンマケン,トネグンカタシナムラ,ハタヤ,群馬県利根郡片品村幡谷
3780408,群馬県,利根郡片品村,花咲,グンマケン,トネグンカタシナムラ,ハナサク,群馬県利根郡片品村花咲
3780409,群馬県,利根郡片品村,針山,グンマケン,トネグンカタシナムラ,ハリヤマ,群馬県利根郡片品村針山
3780411,群馬県,利根郡片品村,戸倉,グンマケン,トネグンカタシナムラ,トクラ,群馬県利根郡片品村戸倉
3780412,群馬県,利根郡片品村,土出,グンマケン,トネグンカタシナムラ,ツチイデ,群馬県利根郡片品村土出
3780413,群馬県,利根郡片品村,越本,グンマケン,トネグンカタシナムラ,コシモト,群馬県利根郡片品村越本
3780414,群馬県,利根郡片品村,東小川,グンマケン,トネグンカタシナムラ,ヒガシオガワ,群馬県利根郡片品村東小川
3780415,群馬県,利根郡片品村,鎌田,グンマケン,トネグンカタシナムラ,カマダ,群馬県利根郡片品村鎌田
3790100,群馬県,安中市,,グンマケン,アンナカシ,,群馬県安中市
3790101,群馬県,安中市,西上秋間,グンマケン,アンナカシ,ニシカミアキマ,群馬県安中市西上秋間
3790102,群馬県,安中市,東上秋間,グンマケン,アンナカシ,ヒガシカミアキマ,群馬県安中市東上秋間
3790103,群馬県,安中市,中秋間,グンマケン,アンナカシ,ナカアキマ,群馬県安中市中秋間
3790104,群馬県,安中市,下秋間,グンマケン,アンナカシ,シモアキマ,群馬県安中市下秋間
3790105,群馬県,安中市,小俣,グンマケン,アンナカシ,オマタ,群馬県安中市小俣
3790106,群馬県,安中市,下後閑,グンマケン,アンナカシ,シモゴカン,群馬県安中市下後閑
3790107,群馬県,安中市,中後閑,グンマケン,アンナカシ,ナカゴカン,群馬県安中市中後閑
3790108,群馬県,安中市,上後閑,グンマケン,アンナカシ,カミゴカン,群馬県安中市上後閑
3790109,群馬県,安中市,秋間みのりが丘,グンマケン,アンナカシ,アキマミノリガオカ,群馬県安中市秋間みのりが丘
3790111,群馬県,安中市,板鼻,グンマケン,アンナカシ,イタハナ,群馬県安中市板鼻
3790112,群馬県,安中市,岩井,グンマケン,アンナカシ,イワイ,群馬県安中市岩井
3790113,群馬県,安中市,大谷,グンマケン,アンナカシ,オオヤ,群馬県安中市大谷
3790114,群馬県,安中市,野殿,グンマケン,アンナカシ,ノドノ,群馬県安中市野殿
3790115,群馬県,安中市,中宿,グンマケン,アンナカシ,ナカジュク,群馬県安中市中宿
3790116,群馬県,安中市,安中,グンマケン,アンナカシ,アンナカ,群馬県安中市安中
3790121,群馬県,安中市,大竹,グンマケン,アンナカシ,オオタケ,群馬県安中市大竹
3790122,群馬県,安中市,下間仁田,グンマケン,アンナカシ,シモマニタ,群馬県安中市下間仁田
3790123,群馬県,安中市,上間仁田,グンマケン,アンナカシ,カミマニタ,群馬県安中市上間仁田
3790124,群馬県,安中市,鷺宮,グンマケン,アンナカシ,サギノミヤ,群馬県安中市鷺宮
3790125,群馬県,安中市,中野谷,グンマケン,アンナカシ,ナカノヤ,群馬県安中市中野谷
3790126,群馬県,安中市,西上磯部,グンマケン,アンナカシ,ニシカミイソベ,群馬県安中市西上磯部
3790127,群馬県,安中市,磯部,グンマケン,アンナカシ,イソベ,群馬県安中市磯部
3790128,群馬県,安中市,東上磯部,グンマケン,アンナカシ,ヒガシカミイソベ,群馬県安中市東上磯部
3790129,群馬県,安中市,下磯部,グンマケン,アンナカシ,シモイソベ,群馬県安中市下磯部
3790131,群馬県,安中市,古屋,グンマケン,アンナカシ,フルヤ,群馬県安中市古屋
3790132,群馬県,安中市,高別当,グンマケン,アンナカシ,コウベツトウ,群馬県安中市高別当
3790133,群馬県,安中市,原市,グンマケン,アンナカシ,ハライチ,群馬県安中市原市
3790134,群馬県,安中市,簗瀬,グンマケン,アンナカシ,ヤナセ,群馬県安中市簗瀬
3790135,群馬県,安中市,郷原,グンマケン,アンナカシ,ゴウバラ,群馬県安中市郷原
3790136,群馬県,安中市,嶺,グンマケン,アンナカシ,ミネ,群馬県安中市嶺
3790201,群馬県,富岡市,妙義町妙義,グンマケン,トミオカシ,ミョウギマチミョウギ,群馬県富岡市妙義町妙義
3790202,群馬県,富岡市,妙義町大牛,グンマケン,トミオカシ,ミョウギマチオオウシ,群馬県富岡市妙義町大牛
3790203,群馬県,富岡市,妙義町岳,グンマケン,トミオカシ,ミョウギマチタケ,群馬県富岡市妙義町岳
3790204,群馬県,富岡市,妙義町行沢,グンマケン,トミオカシ,ミョウギマチナメザワ,群馬県富岡市妙義町行沢
3790205,群馬県,富岡市,妙義町北山,グンマケン,トミオカシ,ミョウギマチキタヤマ,群馬県富岡市妙義町北山
3790206,群馬県,富岡市,妙義町中里,グンマケン,トミオカシ,ミョウギマチナカザト,群馬県富岡市妙義町中里
3790207,群馬県,富岡市,妙義町古立,グンマケン,トミオカシ,ミョウギマチフルタチ,群馬県富岡市妙義町古立
3790208,群馬県,富岡市,妙義町菅原,グンマケン,トミオカシ,ミョウギマチスガハラ,群馬県富岡市妙義町菅原
3790209,群馬県,富岡市,妙義町諸戸,グンマケン,トミオカシ,ミョウギマチモロト,群馬県富岡市妙義町諸戸
3790211,群馬県,安中市,松井田町上増田,グンマケン,アンナカシ,マツイダマチカミマスダ,群馬県安中市松井田町上増田
3790212,群馬県,安中市,松井田町下増田,グンマケン,アンナカシ,マツイダマチシモマスダ,群馬県安中市松井田町下増田
3790213,群馬県,安中市,松井田町小日向,グンマケン,アンナカシ,マツイダマチオビナタ,群馬県安中市松井田町小日向
3790214,群馬県,安中市,松井田町国衙,グンマケン,アンナカシ,マツイダマチコクガ,群馬県安中市松井田町国衙
3790215,群馬県,安中市,松井田町高梨子,グンマケン,アンナカシ,マツイダマチタカナシ,群馬県安中市松井田町高梨子
3790216,群馬県,安中市,松井田町新井,グンマケン,アンナカシ,マツイダマチアライ,群馬県安中市松井田町新井
3790217,群馬県,安中市,松井田町土塩,グンマケン,アンナカシ,マツイダマチヒジシオ,群馬県安中市松井田町土塩
3790221,群馬県,安中市,松井田町新堀,グンマケン,アンナカシ,マツイダマチニイボリ,群馬県安中市松井田町新堀
3790222,群馬県,安中市,松井田町松井田,グンマケン,アンナカシ,マツイダマチマツイダ,群馬県安中市松井田町松井田
3790223,群馬県,安中市,松井田町二軒在家,グンマケン,アンナカシ,マツイダマチニケンザイケ,群馬県安中市松井田町二軒在家
3790224,群馬県,安中市,松井田町人見,グンマケン,アンナカシ,マツイダマチヒトミ,群馬県安中市松井田町人見
3790225,群馬県,安中市,松井田町八城,グンマケン,アンナカシ,マツイダマチヤシロ,群馬県安中市松井田町八城
3790226,群馬県,安中市,松井田町行田,グンマケン,アンナカシ,マツイダマチオクナダ,群馬県安中市松井田町行田
3790301,群馬県,安中市,松井田町横川,グンマケン,アンナカシ,マツイダマチヨコカワ,群馬県安中市松井田町横川
3790302,群馬県,安中市,松井田町五料,グンマケン,アンナカシ,マツイダマチゴリョウ,群馬県安中市松井田町五料
3790303,群馬県,安中市,松井田町西野牧,グンマケン,アンナカシ,マツイダマチニシノマキ,群馬県安中市松井田町西野牧
3790304,群馬県,安中市,松井田町北野牧,グンマケン,アンナカシ,マツイダマチキタノマキ,群馬県安中市松井田町北野牧
3790305,群馬県,安中市,松井田町入山,グンマケン,アンナカシ,マツイダマチイリヤマ,群馬県安中市松井田町入山
3790306,群馬県,安中市,松井田町原,グンマケン,アンナカシ,マツイダマチハラ,群馬県安中市松井田町原
3790307,群馬県,安中市,松井田町坂本,グンマケン,アンナカシ,マツイダマチサカモト,群馬県安中市松井田町坂本
3791101,群馬県,渋川市,赤城町棚下,グンマケン,シブカワシ,アカギマチタナシタ,群馬県渋川市赤城町棚下
3791102,群馬県,渋川市,赤城町長井小川田,グンマケン,シブカワシ,アカギマチナガイオガワダ,群馬県渋川市赤城町長井小川田
3791103,群馬県,渋川市,赤城町津久田,グンマケン,シブカワシ,アカギマチツクダ,群馬県渋川市赤城町津久田
3791104,群馬県,渋川市,赤城町敷島,グンマケン,シブカワシ,アカギマチシキシマ,群馬県渋川市赤城町敷島
3791105,群馬県,渋川市,赤城町北上野,グンマケン,シブカワシ,アカギマチキタウエノ,群馬県渋川市赤城町北上野
3791111,群馬県,渋川市,赤城町北赤城山,グンマケン,シブカワシ,アカギマチキタアカギサン,群馬県渋川市赤城町北赤城山
3791112,群馬県,渋川市,赤城町深山,グンマケン,シブカワシ,アカギマチミヤマ,群馬県渋川市赤城町深山
3791113,群馬県,渋川市,赤城町南赤城山,グンマケン,シブカワシ,アカギマチミナミアカギサン,群馬県渋川市赤城町南赤城山
3791114,群馬県,渋川市,赤城町栄,グンマケン,シブカワシ,アカギマチサカエ,群馬県渋川市赤城町栄
3791115,群馬県,渋川市,赤城町溝呂木,グンマケン,シブカワシ,アカギマチミゾロキ,群馬県渋川市赤城町溝呂木
3791116,群馬県,渋川市,赤城町持柏木,グンマケン,シブカワシ,アカギマチモチカシワギ,群馬県渋川市赤城町持柏木
3791121,群馬県,渋川市,赤城町宮田,グンマケン,シブカワシ,アカギマチミヤダ,群馬県渋川市赤城町宮田
3791122,群馬県,渋川市,赤城町勝保沢,グンマケン,シブカワシ,アカギマチカツホザワ,群馬県渋川市赤城町勝保沢
3791123,群馬県,渋川市,赤城町見立,グンマケン,シブカワシ,アカギマチミタチ,群馬県渋川市赤城町見立
3791124,群馬県,渋川市,赤城町滝沢,グンマケン,シブカワシ,アカギマチタキザワ,群馬県渋川市赤城町滝沢
3791125,群馬県,渋川市,赤城町上三原田,グンマケン,シブカワシ,アカギマチカミミハラダ,群馬県渋川市赤城町上三原田
3791126,群馬県,渋川市,赤城町三原田,グンマケン,シブカワシ,アカギマチミハラダ,群馬県渋川市赤城町三原田
3791127,群馬県,渋川市,赤城町樽,グンマケン,シブカワシ,アカギマチタル,群馬県渋川市赤城町樽
3791200,群馬県,利根郡昭和村,,グンマケン,トネグンショウワムラ,,群馬県利根郡昭和村
3791201,群馬県,利根郡昭和村,生越,グンマケン,トネグンショウワムラ,オゴセ,群馬県利根郡昭和村生越
3791202,群馬県,利根郡昭和村,貝野瀬,グンマケン,トネグンショウワムラ,カイノセ,群馬県利根郡昭和村貝野瀬
3791203,群馬県,利根郡昭和村,糸井,グンマケン,トネグンショウワムラ,イトイ,群馬県利根郡昭和村糸井
3791204,群馬県,利根郡昭和村,森下,グンマケン,トネグンショウワムラ,モリシタ,群馬県利根郡昭和村森下
3791205,群馬県,利根郡昭和村,川額,グンマケン,トネグンショウワムラ,カワハケ,群馬県利根郡昭和村川額
3791206,群馬県,利根郡昭和村,橡久保,グンマケン,トネグンショウワムラ,トチクボ,群馬県利根郡昭和村橡久保
3791207,群馬県,利根郡昭和村,赤城原,グンマケン,トネグンショウワムラ,アカギハラ,群馬県利根郡昭和村赤城原
3791300,群馬県,利根郡みなかみ町,,グンマケン,トネグンミナカミマチ,,群馬県利根郡みなかみ町
3791301,群馬県,利根郡みなかみ町,奈女沢,グンマケン,トネグンミナカミマチ,ナメザワ,群馬県利根郡みなかみ町奈女沢
3791302,群馬県,利根郡みなかみ町,大沼,グンマケン,トネグンミナカミマチ,オオヌマ,群馬県利根郡みなかみ町大沼
3791303,群馬県,利根郡みなかみ町,上牧,グンマケン,トネグンミナカミマチ,カミモク,群馬県利根郡みなかみ町上牧
3791304,群馬県,利根郡みなかみ町,下牧,グンマケン,トネグンミナカミマチ,シモモク,群馬県利根郡みなかみ町下牧
3791305,群馬県,利根郡みなかみ町,後閑,グンマケン,トネグンミナカミマチ,ゴカン,群馬県利根郡みなかみ町後閑
3791306,群馬県,利根郡みなかみ町,師,グンマケン,トネグンミナカミマチ,モロ,群馬県利根郡みなかみ町師
3791307,群馬県,利根郡みなかみ町,政所,グンマケン,トネグンミナカミマチ,マンドコロ,群馬県利根郡みなかみ町政所
3791308,群馬県,利根郡みなかみ町,真庭,グンマケン,トネグンミナカミマチ,マニワ,群馬県利根郡みなかみ町真庭
3791311,群馬県,利根郡みなかみ町,石倉,グンマケン,トネグンミナカミマチ,イシクラ,群馬県利根郡みなかみ町石倉
3791312,群馬県,利根郡みなかみ町,小川,グンマケン,トネグンミナカミマチ,オガワ,群馬県利根郡みなかみ町小川
3791313,群馬県,利根郡みなかみ町,月夜野,グンマケン,トネグンミナカミマチ,ツキヨノ,群馬県利根郡みなかみ町月夜野
3791314,群馬県,利根郡みなかみ町,下津,グンマケン,トネグンミナカミマチ,シモヅ,群馬県利根郡みなかみ町下津
3791315,群馬県,利根郡みなかみ町,上津,グンマケン,トネグンミナカミマチ,カミヅ,群馬県利根郡みなかみ町上津
3791401,群馬県,利根郡みなかみ町,永井,グンマケン,トネグンミナカミマチ,ナガイ,群馬県利根郡みなかみ町永井
3791402,群馬県,利根郡みなかみ町,吹路,グンマケン,トネグンミナカミマチ,フクロ,群馬県利根郡みなかみ町吹路
3791403,群馬県,利根郡みなかみ町,猿ヶ京温泉,グンマケン,トネグンミナカミマチ,サルガキョウオンセン,群馬県利根郡みなかみ町猿ヶ京温泉
3791404,群馬県,利根郡みなかみ町,相俣,グンマケン,トネグンミナカミマチ,アイマタ,群馬県利根郡みなかみ町相俣
3791409,群馬県,利根郡みなかみ町,湯宿温泉,グンマケン,トネグンミナカミマチ,ユジュクオンセン,群馬県利根郡みなかみ町湯宿温泉
3791411,群馬県,利根郡みなかみ町,新巻,グンマケン,トネグンミナカミマチ,アラマキ,群馬県利根郡みなかみ町新巻
3791412,群馬県,利根郡みなかみ町,羽場,グンマケン,トネグンミナカミマチ,ハバ,群馬県利根郡みなかみ町羽場
3791413,群馬県,利根郡みなかみ町,師田,グンマケン,トネグンミナカミマチ,モロダ,群馬県利根郡みなかみ町師田
3791414,群馬県,利根郡みなかみ町,布施,グンマケン,トネグンミナカミマチ,フセ,群馬県利根郡みなかみ町布施
3791415,群馬県,利根郡みなかみ町,西峰須川,グンマケン,トネグンミナカミマチ,ニシミネスカワ,群馬県利根郡みなかみ町西峰須川
3791416,群馬県,利根郡みなかみ町,入須川,グンマケン,トネグンミナカミマチ,イリスカワ,群馬県利根郡みなかみ町入須川
3791417,群馬県,利根郡みなかみ町,東峰,グンマケン,トネグンミナカミマチ,ヒガシミネ,群馬県利根郡みなかみ町東峰
3791418,群馬県,利根郡みなかみ町,須川,グンマケン,トネグンミナカミマチ,スカワ,群馬県利根郡みなかみ町須川
3791601,群馬県,利根郡みなかみ町,吉本,グンマケン,トネグンミナカミマチ,ヨシモト,群馬県利根郡みなかみ町吉本
3791611,群馬県,利根郡みなかみ町,鹿野沢,グンマケン,トネグンミナカミマチ,カノサワ,群馬県利根郡みなかみ町鹿野沢
3791612,群馬県,利根郡みなかみ町,小日向,グンマケン,トネグンミナカミマチ,オビナタ,群馬県利根郡みなかみ町小日向
3791613,群馬県,利根郡みなかみ町,高日向,グンマケン,トネグンミナカミマチ,タカヒナタ,群馬県利根郡みなかみ町高日向
3791614,群馬県,利根郡みなかみ町,寺間,グンマケン,トネグンミナカミマチ,テラマ,群馬県利根郡みなかみ町寺間
3791615,群馬県,利根郡みなかみ町,小仁田,グンマケン,トネグンミナカミマチ,コニタ,群馬県利根郡みなかみ町小仁田
3791616,群馬県,利根郡みなかみ町,川上,グンマケン,トネグンミナカミマチ,カワカミ,群馬県利根郡みなかみ町川上
3791617,群馬県,利根郡みなかみ町,湯原,グンマケン,トネグンミナカミマチ,ユバラ,群馬県利根郡みなかみ町湯原
3791618,群馬県,利根郡みなかみ町,阿能川,グンマケン,トネグンミナカミマチ,アノウガワ,群馬県利根郡みなかみ町阿能川
3791619,群馬県,利根郡みなかみ町,谷川,グンマケン,トネグンミナカミマチ,タニガワ,群馬県利根郡みなかみ町谷川
3791721,群馬県,利根郡みなかみ町,藤原,グンマケン,トネグンミナカミマチ,フジワラ,群馬県利根郡みなかみ町藤原
3791722,群馬県,利根郡みなかみ町,夜後,グンマケン,トネグンミナカミマチ,ヨゴ,群馬県利根郡みなかみ町夜後
3791723,群馬県,利根郡みなかみ町,粟沢,グンマケン,トネグンミナカミマチ,アワザワ,群馬県利根郡みなかみ町粟沢
3791724,群馬県,利根郡みなかみ町,向山,グンマケン,トネグンミナカミマチ,ムコウヤマ,群馬県利根郡みなかみ町向山
3791725,群馬県,利根郡みなかみ町,綱子,グンマケン,トネグンミナカミマチ,ツナゴ,群馬県利根郡みなかみ町綱子
3791726,群馬県,利根郡みなかみ町,幸知,グンマケン,トネグンミナカミマチ,コウチ,群馬県利根郡みなかみ町幸知
3791727,群馬県,利根郡みなかみ町,大穴,グンマケン,トネグンミナカミマチ,オオアナ,群馬県利根郡みなかみ町大穴
3791728,群馬県,利根郡みなかみ町,湯桧曽,グンマケン,トネグンミナカミマチ,ユビソ,群馬県利根郡みなかみ町湯桧曽
3792101,群馬県,前橋市,泉沢町,グンマケン,マエバシシ,イズミサワマチ,群馬県前橋市泉沢町
3792102,群馬県,前橋市,下大屋町,グンマケン,マエバシシ,シモオオヤマチ,群馬県前橋市下大屋町
3792103,群馬県,前橋市,神沢の森,グンマケン,マエバシシ,カンザワノモリ,群馬県前橋市神沢の森
3792104,群馬県,前橋市,西大室町,グンマケン,マエバシシ,ニシオオムロマチ,群馬県前橋市西大室町
3792105,群馬県,前橋市,東大室町,グンマケン,マエバシシ,ヒガシオオムロマチ,群馬県前橋市東大室町
3792106,群馬県,前橋市,荒子町,グンマケン,マエバシシ,アラコマチ,群馬県前橋市荒子町
3792107,群馬県,前橋市,荒口町,グンマケン,マエバシシ,アラクチマチ,群馬県前橋市荒口町
3792108,群馬県,前橋市,鶴が谷町,グンマケン,マエバシシ,ツルガヤマチ,群馬県前橋市鶴が谷町
3792111,群馬県,前橋市,飯土井町,グンマケン,マエバシシ,イイドイマチ,群馬県前橋市飯土井町
3792112,群馬県,前橋市,新井町,グンマケン,マエバシシ,アライマチ,群馬県前橋市新井町
3792113,群馬県,前橋市,下増田町,グンマケン,マエバシシ,シモマスダマチ,群馬県前橋市下増田町
3792114,群馬県,前橋市,上増田町,グンマケン,マエバシシ,カミマスダマチ,群馬県前橋市上増田町
3792115,群馬県,前橋市,笂井町,グンマケン,マエバシシ,ウツボイマチ,群馬県前橋市笂井町
3792116,群馬県,前橋市,今井町,グンマケン,マエバシシ,イマイマチ,群馬県前橋市今井町
3792117,群馬県,前橋市,二之宮町,グンマケン,マエバシシ,ニノミヤマチ,群馬県前橋市二之宮町
3792121,群馬県,前橋市,小屋原町,グンマケン,マエバシシ,コヤハラマチ,群馬県前橋市小屋原町
3792122,群馬県,前橋市,駒形町,グンマケン,マエバシシ,コマガタマチ,群馬県前橋市駒形町
3792123,群馬県,前橋市,山王町,グンマケン,マエバシシ,サンノウマチ,群馬県前橋市山王町
3792131,群馬県,前橋市,西善町,グンマケン,マエバシシ,ニシゼンマチ,群馬県前橋市西善町
3792132,群馬県,前橋市,東善町,グンマケン,マエバシシ,ヒガシゼンマチ,群馬県前橋市東善町
3792133,群馬県,前橋市,中内町,グンマケン,マエバシシ,ナカウチマチ,群馬県前橋市中内町
3792134,群馬県,前橋市,力丸町,グンマケン,マエバシシ,リキマルマチ,群馬県前橋市力丸町
3792135,群馬県,前橋市,徳丸町,グンマケン,マエバシシ,トクマルマチ,群馬県前橋市徳丸町
3792136,群馬県,前橋市,房丸町,グンマケン,マエバシシ,ボウマルマチ,群馬県前橋市房丸町
3792141,群馬県,前橋市,鶴光路町,グンマケン,マエバシシ,ツルコウジマチ,群馬県前橋市鶴光路町
3792142,群馬県,前橋市,下阿内町,グンマケン,マエバシシ,シモアウチマチ,群馬県前橋市下阿内町
3792143,群馬県,前橋市,新堀町,グンマケン,マエバシシ,ニイボリマチ,群馬県前橋市新堀町
3792144,群馬県,前橋市,下川町,グンマケン,マエバシシ,シモカワマチ,群馬県前橋市下川町
3792145,群馬県,前橋市,横手町,グンマケン,マエバシシ,ヨコテマチ,群馬県前橋市横手町
3792146,群馬県,前橋市,公田町,グンマケン,マエバシシ,クデンマチ,群馬県前橋市公田町
3792147,群馬県,前橋市,亀里町,グンマケン,マエバシシ,カメサトマチ,群馬県前橋市亀里町
3792151,群馬県,前橋市,下長磯町,グンマケン,マエバシシ,シモナガイソマチ,群馬県前橋市下長磯町
3792152,群馬県,前橋市,下大島町,グンマケン,マエバシシ,シモオオシママチ,群馬県前橋市下大島町
3792153,群馬県,前橋市,上大島町,グンマケン,マエバシシ,カミオオシママチ,群馬県前橋市上大島町
3792154,群馬県,前橋市,天川大島町,グンマケン,マエバシシ,アマガワオオシママチ,群馬県前橋市天川大島町
3792161,群馬県,前橋市,富田町,グンマケン,マエバシシ,トミダマチ,群馬県前橋市富田町
3792162,群馬県,前橋市,小島田町,グンマケン,マエバシシ,コジマタマチ,群馬県前橋市小島田町
3792163,群馬県,前橋市,女屋町,グンマケン,マエバシシ,オナヤマチ,群馬県前橋市女屋町
3792164,群馬県,前橋市,東上野町,グンマケン,マエバシシ,ヒガシウエノマチ,群馬県前橋市東上野町
3792165,群馬県,前橋市,上長磯町,グンマケン,マエバシシ,カミナガイソマチ,群馬県前橋市上長磯町
3792166,群馬県,前橋市,野中町,グンマケン,マエバシシ,ノナカマチ,群馬県前橋市野中町
3792201,群馬県,伊勢崎市,間野谷町,グンマケン,イセサキシ,アイノヤチョウ,群馬県伊勢崎市間野谷町
3792202,群馬県,伊勢崎市,赤堀鹿島町,グンマケン,イセサキシ,アカボリカシマチョウ,群馬県伊勢崎市赤堀鹿島町
3792203,群馬県,伊勢崎市,曲沢町,グンマケン,イセサキシ,マガリサワチョウ,群馬県伊勢崎市曲沢町
3792204,群馬県,伊勢崎市,西久保町,グンマケン,イセサキシ,ニシクボチョウ,群馬県伊勢崎市西久保町
3792205,群馬県,伊勢崎市,野町,グンマケン,イセサキシ,ノチョウ,群馬県伊勢崎市野町
3792206,群馬県,伊勢崎市,香林町,グンマケン,イセサキシ,コウバヤシチョウ,群馬県伊勢崎市香林町
3792211,群馬県,伊勢崎市,市場町,グンマケン,イセサキシ,イチバチョウ,群馬県伊勢崎市市場町
3792212,群馬県,伊勢崎市,堀下町,グンマケン,イセサキシ,ホリシタチョウ,群馬県伊勢崎市堀下町
3792213,群馬県,伊勢崎市,五目牛町,グンマケン,イセサキシ,ゴメウシチョウ,群馬県伊勢崎市五目牛町
3792214,群馬県,伊勢崎市,下触町,グンマケン,イセサキシ,シモフレイチョウ,群馬県伊勢崎市下触町
3792215,群馬県,伊勢崎市,赤堀今井町,グンマケン,イセサキシ,アカボリイマイチョウ,群馬県伊勢崎市赤堀今井町
3792216,群馬県,伊勢崎市,西野町,グンマケン,イセサキシ,ニシノチョウ,群馬県伊勢崎市西野町
3792217,群馬県,伊勢崎市,磯町,グンマケン,イセサキシ,イソチョウ,群馬県伊勢崎市磯町
3792221,群馬県,伊勢崎市,国定町,グンマケン,イセサキシ,クニサダマチ,群馬県伊勢崎市国定町
3792222,群馬県,伊勢崎市,田部井町,グンマケン,イセサキシ,タベイチョウ,群馬県伊勢崎市田部井町
3792224,群馬県,伊勢崎市,西小保方町,グンマケン,イセサキシ,ニシオボカタチョウ,群馬県伊勢崎市西小保方町
3792225,群馬県,伊勢崎市,上田町,グンマケン,イセサキシ,カミダチョウ,群馬県伊勢崎市上田町
3792231,群馬県,伊勢崎市,東町,グンマケン,イセサキシ,アズマチョウ,群馬県伊勢崎市東町
3792232,群馬県,伊勢崎市,小泉町,グンマケン,イセサキシ,コイズミチョウ,群馬県伊勢崎市小泉町
3792233,群馬県,伊勢崎市,平井町,グンマケン,イセサキシ,ヒライチョウ,群馬県伊勢崎市平井町
3792234,群馬県,伊勢崎市,東小保方町,グンマケン,イセサキシ,ヒガシオボカタチョウ,群馬県伊勢崎市東小保方町
3792235,群馬県,伊勢崎市,三室町,グンマケン,イセサキシ,ミムロチョウ,群馬県伊勢崎市三室町
3792236,群馬県,伊勢崎市,八寸町,グンマケン,イセサキシ,ハチスチョウ,群馬県伊勢崎市八寸町
3792301,群馬県,太田市,藪塚町,グンマケン,オオタシ,ヤブヅカチョウ,群馬県太田市藪塚町
3792302,群馬県,太田市,山之神町,グンマケン,オオタシ,ヤマノカミチョウ,群馬県太田市山之神町
3792303,群馬県,太田市,寄合町,グンマケン,オオタシ,ヨリアイチョウ,群馬県太田市寄合町
3792304,群馬県,太田市,大原町,グンマケン,オオタシ,オオバラチョウ,群馬県太田市大原町
3792305,群馬県,太田市,六千石町,グンマケン,オオタシ,ロクセンゴクチョウ,群馬県太田市六千石町
3792306,群馬県,太田市,大久保町,グンマケン,オオタシ,オオクボチョウ,群馬県太田市大久保町
3792311,群馬県,みどり市,笠懸町阿左美,グンマケン,ミドリシ,カサカケチョウアザミ,群馬県みどり市笠懸町阿左美
3792312,群馬県,みどり市,笠懸町久宮,グンマケン,ミドリシ,カサカケチョウクグウ,群馬県みどり市笠懸町久宮
3792313,群馬県,みどり市,笠懸町鹿,グンマケン,ミドリシ,カサカケチョウシカ,群馬県みどり市笠懸町鹿
3792314,群馬県,みどり市,笠懸町西鹿田,グンマケン,ミドリシ,カサカケチョウサイシカダ,群馬県みどり市笠懸町西鹿田
3840097,群馬県,吾妻郡嬬恋村,鎌原（高峰高原）,グンマケン,アガツマグンツマゴイムラ,カンバラ(タカミネコウゲン),群馬県吾妻郡嬬恋村鎌原（高峰高原）
3890121,群馬県,安中市,松井田町峠,グンマケン,アンナカシ,マツイダマチトウゲ,群馬県安中市松井田町峠
