zipcode,prefecture_name,city,town,prefecture_kana,city_kana,town_kana,normalized_address
3300000,埼玉県,さいたま市中央区,,サイタマケン,サイタマシチュウオウク,,埼玉県さいたま市中央区
3300000,埼玉県,さいたま市浦和区,,サイタマケン,サイタマシウラワク,,埼玉県さいたま市浦和区
3300041,埼玉県,さいたま市浦和区,三崎,サイタマケン,サイタマシウラワク,ミサキ,埼玉県さいたま市浦和区三崎
3300042,埼玉県,さいたま市浦和区,木崎,サイタマケン,サイタマシウラワク,キザキ,埼玉県さいたま市浦和区木崎
3300043,埼玉県,さいたま市浦和区,大東,サイタマケン,サイタマシウラワク,ダイトウ,埼玉県さいたま市浦和区大東
3300044,埼玉県,さいたま市浦和区,瀬ヶ崎,サイタマケン,サイタマシウラワク,セガサキ,埼玉県さいたま市浦和区瀬ヶ崎
3300045,埼玉県,さいたま市浦和区,皇山町,サイタマケン,サイタマシウラワク,コウザンチョウ,埼玉県さいたま市浦和区皇山町
3300046,埼玉県,さいたま市浦和区,大原,サイタマケン,サイタマシウラワク,オオハラ,埼玉県さいたま市浦和区大原
3300051,埼玉県,さいたま市浦和区,駒場,サイタマケン,サイタマシウラワク,コマバ,埼玉県さいたま市浦和区駒場
3300052,埼玉県,さいたま市浦和区,本太,サイタマケン,サイタマシウラワク,モトブト,埼玉県さいたま市浦和区本太
3300053,埼玉県,さいたま市浦和区,前地,サイタマケン,サイタマシウラワク,マエジ,埼玉県さいたま市浦和区前地
3300054,埼玉県,さいたま市浦和区,東岸町,サイタマケン,サイタマシウラワク,ヒガシキシチョウ,埼玉県さいたま市浦和区東岸町
3300055,埼玉県,さいたま市浦和区,東高砂町,サイタマケン,サイタマシウラワク,ヒガシタカサゴチョウ,埼玉県さいたま市浦和区東高砂町
3300056,埼玉県,さいたま市浦和区,東仲町,サイタマケン,サイタマシウラワク,ヒガシナカチョウ,埼玉県さいたま市浦和区東仲町
3300061,埼玉県,さいたま市浦和区,常盤,サイタマケン,サイタマシウラワク,トキワ,埼玉県さいたま市浦和区常盤
3300062,埼玉県,さいたま市浦和区,仲町,サイタマケン,サイタマシウラワク,ナカチョウ,埼玉県さいたま市浦和区仲町
3300063,埼玉県,さいたま市浦和区,高砂,サイタマケン,サイタマシウラワク,タカサゴ,埼玉県さいたま市浦和区高砂
3300064,埼玉県,さいたま市浦和区,岸町,サイタマケン,サイタマシウラワク,キシチョウ,埼玉県さいたま市浦和区岸町
3300065,埼玉県,さいたま市浦和区,神明,サイタマケン,サイタマシウラワク,シンメイ,埼玉県さいたま市浦和区神明
3300071,埼玉県,さいたま市浦和区,上木崎,サイタマケン,サイタマシウラワク,カミキザキ,埼玉県さいたま市浦和区上木崎
3300072,埼玉県,さいたま市浦和区,領家,サイタマケン,サイタマシウラワク,リョウケ,埼玉県さいたま市浦和区領家
3300073,埼玉県,さいたま市浦和区,元町,サイタマケン,サイタマシウラワク,モトチョウ,埼玉県さいたま市浦和区元町
3300074,埼玉県,さいたま市浦和区,北浦和,サイタマケン,サイタマシウラワク,キタウラワ,埼玉県さいたま市浦和区北浦和
3300075,埼玉県,さいたま市浦和区,針ヶ谷,サイタマケン,サイタマシウラワク,ハリガヤ,埼玉県さいたま市浦和区針ヶ谷
3300081,埼玉県,さいたま市中央区,新都心（次のビルを除く）,サイタマケン,サイタマシチュウオウク,シントシン(ツギノビルヲノゾク),埼玉県さいたま市中央区新都心（次のビルを除く）
3300800,埼玉県,さいたま市大宮区,,サイタマケン,サイタマシオオミヤク,,埼玉県さいたま市大宮区
3300801,埼玉県,さいたま市大宮区,土手町,サイタマケン,サイタマシオオミヤク,ドテチョウ,埼玉県さいたま市大宮区土手町
3300802,埼玉県,さいたま市大宮区,宮町,サイタマケン,サイタマシオオミヤク,ミヤチョウ,埼玉県さいたま市大宮区宮町
3300803,埼玉県,さいたま市大宮区,高鼻町,サイタマケン,サイタマシオオミヤク,タカハナチョウ,埼玉県さいたま市大宮区高鼻町
3300804,埼玉県,さいたま市大宮区,堀の内町,サイタマケン,サイタマシオオミヤク,ホリノウチチョウ,埼玉県さいたま市大宮区堀の内町
3300805,埼玉県,さいたま市大宮区,寿能町,サイタマケン,サイタマシオオミヤク,ジュノウチョウ,埼玉県さいたま市大宮区寿能町
3300834,埼玉県,さいたま市大宮区,天沼町,サイタマケン,サイタマシオオミヤク,アマヌマチョウ,埼玉県さいたま市大宮区天沼町
3300835,埼玉県,さいたま市大宮区,北袋町,サイタマケン,サイタマシオオミヤク,キタブクロチョウ,埼玉県さいたま市大宮区北袋町
3300836,埼玉県,さいたま市大宮区,大原,サイタマケン,サイタマシオオミヤク,オオハラ,埼玉県さいたま市大宮区大原
3300841,埼玉県,さいたま市大宮区,東町,サイタマケン,サイタマシオオミヤク,アズマチョウ,埼玉県さいたま市大宮区東町
3300842,埼玉県,さいたま市大宮区,浅間町,サイタマケン,サイタマシオオミヤク,センゲンチョウ,埼玉県さいたま市大宮区浅間町
3300843,埼玉県,さいたま市大宮区,吉敷町,サイタマケン,サイタマシオオミヤク,キシキチョウ,埼玉県さいたま市大宮区吉敷町
3300844,埼玉県,さいたま市大宮区,下町,サイタマケン,サイタマシオオミヤク,シモチョウ,埼玉県さいたま市大宮区下町
3300845,埼玉県,さいたま市大宮区,仲町,サイタマケン,サイタマシオオミヤク,ナカチョウ,埼玉県さいたま市大宮区仲町
3300846,埼玉県,さいたま市大宮区,大門町,サイタマケン,サイタマシオオミヤク,ダイモンチョウ,埼玉県さいたま市大宮区大門町
3300851,埼玉県,さいたま市大宮区,櫛引町,サイタマケン,サイタマシオオミヤク,クシヒキチョウ,埼玉県さいたま市大宮区櫛引町
3300852,埼玉県,さいたま市大宮区,大成町,サイタマケン,サイタマシオオミヤク,オオナリチョウ,埼玉県さいたま市大宮区大成町
3300853,埼玉県,さいたま市大宮区,錦町,サイタマケン,サイタマシオオミヤク,ニシキチョウ,埼玉県さいたま市大宮区錦町
3300854,埼玉県,さいたま市大宮区,桜木町,サイタマケン,サイタマシオオミヤク,サクラギチョウ,埼玉県さいたま市大宮区桜木町
3300855,埼玉県,さいたま市大宮区,上小町,サイタマケン,サイタマシオオミヤク,カミコチョウ,埼玉県さいたま市大宮区上小町
3300856,埼玉県,さいたま市大宮区,三橋,サイタマケン,サイタマシオオミヤク,ミハシ,埼玉県さいたま市大宮区三橋
3306001,埼玉県,さいたま市中央区,新都心明治安田生命さいたま新都心ビル（１階）,サイタマケン,サイタマシチュウオウク,シントシンメイジヤスダセイメイサイタマシントシンビル(1カイ),埼玉県さいたま市中央区新都心明治安田生命さいたま新都心ビル（1階）
3306002,埼玉県,さいたま市中央区,新都心明治安田生命さいたま新都心ビル（２階）,サイタマケン,サイタマシチュウオウク,シントシンメイジヤスダセイメイサイタマシントシンビル(2カイ),埼玉県さいたま市中央区新都心明治安田生命さいたま新都心ビル（2階）
3306003,埼玉県,さいたま市中央区,新都心明治安田生命さいたま新都心ビル（３階）,サイタマケン,サイタマシチュウオウク,シントシンメイジヤスダセイメイサイタマシントシンビル(3カイ),埼玉県さいたま市中央区新都心明治安田生命さいたま新都心ビル（3階）
3306004,埼玉県,さいたま市中央区,新都心明治安田生命さいたま新都心ビル（４階）,サイタマケン,サイタマシチュウオウク,シントシンメイジヤスダセイメイサイタマシントシンビル(4カイ),埼玉県さいたま市中央区新都心明治安田生命さいたま新都心ビル（4階）
3306005,埼玉県,さいたま市中央区,新都心明治安田生命さいたま新都心ビル（５階）,サイタマケン,サイタマシチュウオウク,シントシンメイジヤスダセイメイサイタマシントシンビル(5カイ),埼玉県さいたま市中央区新都心明治安田生命さいたま新都心ビル（5階）
3306006,埼玉県,さいたま市中央区,新都心明治安田生命さいたま新都心ビル（６階）,サイタマケン,サイタマシチュウオウク,シントシンメイジヤスダセイメイサイタマシントシンビル(6カイ),埼玉県さいたま市中央区新都心明治安田生命さいたま新都心ビル（6階）
3306007,埼玉県,さいたま市中央区,新都心明治安田生命さいたま新都心ビル（７階）,サイタマケン,サイタマシチュウオウク,シントシンメイジヤスダセイメイサイタマシントシンビル(7カイ),埼玉県さいたま市中央区新都心明治安田生命さいたま新都心ビル（7階）
3306008,埼玉県,さいたま市中央区,新都心明治安田生命さいたま新都心ビル（８階）,サイタマケン,サイタマシチュウオウク,シントシンメイジヤスダセイメイサイタマシントシンビル(8カイ),埼玉県さいたま市中央区新都心明治安田生命さいたま新都心ビル（8階）
3306009,埼玉県,さいたま市中央区,新都心明治安田生命さいたま新都心ビル（９階）,サイタマケン,サイタマシチュウオウク,シントシンメイジヤスダセイメイサイタマシントシンビル(9カイ),埼玉県さいたま市中央区新都心明治安田生命さいたま新都心ビル（9階）
3306010,埼玉県,さいたま市中央区,新都心明治安田生命さいたま新都心ビル（１０階）,サイタマケン,サイタマシチュウオウク,シントシンメイジヤスダセイメイサイタマシントシンビル(10カイ),埼玉県さいたま市中央区新都心明治安田生命さいたま新都心ビル（10階）
3306011,埼玉県,さいたま市中央区,新都心明治安田生命さいたま新都心ビル（１１階）,サイタマケン,サイタマシチュウオウク,シントシンメイジヤスダセイメイサイタマシントシンビル(11カイ),埼玉県さいたま市中央区新都心明治安田生命さいたま新都心ビル（11階）
3306012,埼玉県,さいたま市中央区,新都心明治安田生命さいたま新都心ビル（１２階）,サイタマケン,サイタマシチュウオウク,シントシンメイジヤスダセイメイサイタマシントシンビル(12カイ),埼玉県さいたま市中央区新都心明治安田生命さいたま新都心ビル（12階）
3306013,埼玉県,さいたま市中央区,新都心明治安田生命さいたま新都心ビル（１３階）,サイタマケン,サイタマシチュウオウク,シントシンメイジヤスダセイメイサイタマシントシンビル(13カイ),埼玉県さいたま市中央区新都心明治安田生命さいたま新都心ビル（13階）
3306014,埼玉県,さいたま市中央区,新都心明治安田生命さいたま新都心ビル（１４階）,サイタマケン,サイタマシチュウオウク,シントシンメイジヤスダセイメイサイタマシントシンビル(14カイ),埼玉県さいたま市中央区新都心明治安田生命さいたま新都心ビル（14階）
3306015,埼玉県,さいたま市中央区,新都心明治安田生命さいたま新都心ビル（１５階）,サイタマケン,サイタマシチュウオウク,シントシンメイジヤスダセイメイサイタマシントシンビル(15カイ),埼玉県さいたま市中央区新都心明治安田生命さいたま新都心ビル（15階）
3306016,埼玉県,さいたま市中央区,新都心明治安田生命さいたま新都心ビル（１６階）,サイタマケン,サイタマシチュウオウク,シントシンメイジヤスダセイメイサイタマシントシンビル(16カイ),埼玉県さいたま市中央区新都心明治安田生命さいたま新都心ビル（16階）
3306017,埼玉県,さいたま市中央区,新都心明治安田生命さいたま新都心ビル（１７階）,サイタマケン,サイタマシチュウオウク,シントシンメイジヤスダセイメイサイタマシントシンビル(17カイ),埼玉県さいたま市中央区新都心明治安田生命さいたま新都心ビル（17階）
3306018,埼玉県,さいたま市中央区,新都心明治安田生命さいたま新都心ビル（１８階）,サイタマケン,サイタマシチュウオウク,シントシンメイジヤスダセイメイサイタマシントシンビル(18カイ),埼玉県さいたま市中央区新都心明治安田生命さいたま新都心ビル（18階）
3306019,埼玉県,さいたま市中央区,新都心明治安田生命さいたま新都心ビル（１９階）,サイタマケン,サイタマシチュウオウク,シントシンメイジヤスダセイメイサイタマシントシンビル(19カイ),埼玉県さいたま市中央区新都心明治安田生命さいたま新都心ビル（19階）
3306020,埼玉県,さいたま市中央区,新都心明治安田生命さいたま新都心ビル（２０階）,サイタマケン,サイタマシチュウオウク,シントシンメイジヤスダセイメイサイタマシントシンビル(20カイ),埼玉県さいたま市中央区新都心明治安田生命さいたま新都心ビル（20階）
3306021,埼玉県,さいたま市中央区,新都心明治安田生命さいたま新都心ビル（２１階）,サイタマケン,サイタマシチュウオウク,シントシンメイジヤスダセイメイサイタマシントシンビル(21カイ),埼玉県さいたま市中央区新都心明治安田生命さいたま新都心ビル（21階）
3306022,埼玉県,さいたま市中央区,新都心明治安田生命さいたま新都心ビル（２２階）,サイタマケン,サイタマシチュウオウク,シントシンメイジヤスダセイメイサイタマシントシンビル(22カイ),埼玉県さいたま市中央区新都心明治安田生命さいたま新都心ビル（22階）
3306023,埼玉県,さいたま市中央区,新都心明治安田生命さいたま新都心ビル（２３階）,サイタマケン,サイタマシチュウオウク,シントシンメイジヤスダセイメイサイタマシントシンビル(23カイ),埼玉県さいたま市中央区新都心明治安田生命さいたま新都心ビル（23階）
3306024,埼玉県,さいたま市中央区,新都心明治安田生命さいたま新都心ビル（２４階）,サイタマケン,サイタマシチュウオウク,シントシンメイジヤスダセイメイサイタマシントシンビル(24カイ),埼玉県さいたま市中央区新都心明治安田生命さいたま新都心ビル（24階）
3306025,埼玉県,さいたま市中央区,新都心明治安田生命さいたま新都心ビル（２５階）,サイタマケン,サイタマシチュウオウク,シントシンメイジヤスダセイメイサイタマシントシンビル(25カイ),埼玉県さいたま市中央区新都心明治安田生命さいたま新都心ビル（25階）
3306026,埼玉県,さいたま市中央区,新都心明治安田生命さいたま新都心ビル（２６階）,サイタマケン,サイタマシチュウオウク,シントシンメイジヤスダセイメイサイタマシントシンビル(26カイ),埼玉県さいたま市中央区新都心明治安田生命さいたま新都心ビル（26階）
3306027,埼玉県,さいたま市中央区,新都心明治安田生命さいたま新都心ビル（２７階）,サイタマケン,サイタマシチュウオウク,シントシンメイジヤスダセイメイサイタマシントシンビル(27カイ),埼玉県さいたま市中央区新都心明治安田生命さいたま新都心ビル（27階）
3306028,埼玉県,さいたま市中央区,新都心明治安田生命さいたま新都心ビル（２８階）,サイタマケン,サイタマシチュウオウク,シントシンメイジヤスダセイメイサイタマシントシンビル(28カイ),埼玉県さいたま市中央区新都心明治安田生命さいたま新都心ビル（28階）
3306029,埼玉県,さいたま市中央区,新都心明治安田生命さいたま新都心ビル（２９階）,サイタマケン,サイタマシチュウオウク,シントシンメイジヤスダセイメイサイタマシントシンビル(29カイ),埼玉県さいたま市中央区新都心明治安田生命さいたま新都心ビル（29階）
3306030,埼玉県,さいたま市中央区,新都心明治安田生命さいたま新都心ビル（３０階）,サイタマケン,サイタマシチュウオウク,シントシンメイジヤスダセイメイサイタマシントシンビル(30カイ),埼玉県さいたま市中央区新都心明治安田生命さいたま新都心ビル（30階）
3306031,埼玉県,さいたま市中央区,新都心明治安田生命さいたま新都心ビル（３１階）,サイタマケン,サイタマシチュウオウク,シントシンメイジヤスダセイメイサイタマシントシンビル(31カイ),埼玉県さいたま市中央区新都心明治安田生命さいたま新都心ビル（31階）
3306032,埼玉県,さいたま市中央区,新都心明治安田生命さいたま新都心ビル（３２階）,サイタマケン,サイタマシチュウオウク,シントシンメイジヤスダセイメイサイタマシントシンビル(32カイ),埼玉県さいたま市中央区新都心明治安田生命さいたま新都心ビル（32階）
3306033,埼玉県,さいたま市中央区,新都心明治安田生命さいたま新都心ビル（３３階）,サイタマケン,サイタマシチュウオウク,シントシンメイジヤスダセイメイサイタマシントシンビル(33カイ),埼玉県さいたま市中央区新都心明治安田生命さいたま新都心ビル（33階）
3306034,埼玉県,さいたま市中央区,新都心明治安田生命さいたま新都心ビル（３４階）,サイタマケン,サイタマシチュウオウク,シントシンメイジヤスダセイメイサイタマシントシンビル(34カイ),埼玉県さいたま市中央区新都心明治安田生命さいたま新都心ビル（34階）
3306035,埼玉県,さいたま市中央区,新都心明治安田生命さいたま新都心ビル（３５階）,サイタマケン,サイタマシチュウオウク,シントシンメイジヤスダセイメイサイタマシントシンビル(35カイ),埼玉県さいたま市中央区新都心明治安田生命さいたま新都心ビル（35階）
3306090,埼玉県,さいたま市中央区,新都心明治安田生命さいたま新都心ビル（地階・階層不明）,サイタマケン,サイタマシチュウオウク,シントシンメイジヤスダセイメイサイタマシントシンビル(チカイ・カイソウフメイ),埼玉県さいたま市中央区新都心明治安田生命さいたま新都心ビル（地階・階層不明）
3310000,埼玉県,さいたま市西区,,サイタマケン,サイタマシニシク,,埼玉県さいたま市西区
3310045,埼玉県,さいたま市西区,内野本郷,サイタマケン,サイタマシニシク,ウチノホンゴウ,埼玉県さいたま市西区内野本郷
3310046,埼玉県,さいたま市西区,宮前町,サイタマケン,サイタマシニシク,ミヤマエチョウ,埼玉県さいたま市西区宮前町
3310047,埼玉県,さいたま市西区,指扇,サイタマケン,サイタマシニシク,サシオウギ,埼玉県さいたま市西区指扇
3310048,埼玉県,さいたま市西区,清河寺,サイタマケン,サイタマシニシク,セイガンジ,埼玉県さいたま市西区清河寺
3310049,埼玉県,さいたま市西区,西新井,サイタマケン,サイタマシニシク,ニシアライ,埼玉県さいたま市西区西新井
3310052,埼玉県,さいたま市西区,三橋,サイタマケン,サイタマシニシク,ミハシ,埼玉県さいたま市西区三橋
3310053,埼玉県,さいたま市西区,植田谷本,サイタマケン,サイタマシニシク,ウエタヤホン,埼玉県さいたま市西区植田谷本
3310054,埼玉県,さいたま市西区,島根,サイタマケン,サイタマシニシク,シマネ,埼玉県さいたま市西区島根
3310055,埼玉県,さいたま市西区,昭和,サイタマケン,サイタマシニシク,ショウワ,埼玉県さいたま市西区昭和
3310056,埼玉県,さいたま市西区,三条町,サイタマケン,サイタマシニシク,サンジョウマチ,埼玉県さいたま市西区三条町
3310057,埼玉県,さいたま市西区,中野林,サイタマケン,サイタマシニシク,ナカノバヤシ,埼玉県さいたま市西区中野林
3310058,埼玉県,さいたま市西区,飯田,サイタマケン,サイタマシニシク,イイダ,埼玉県さいたま市西区飯田
3310059,埼玉県,さいたま市西区,水判土,サイタマケン,サイタマシニシク,ミズハタ,埼玉県さいたま市西区水判土
3310060,埼玉県,さいたま市西区,塚本町,サイタマケン,サイタマシニシク,ツカモトチョウ,埼玉県さいたま市西区塚本町
3310061,埼玉県,さいたま市西区,西遊馬,サイタマケン,サイタマシニシク,ニシアスマ,埼玉県さいたま市西区西遊馬
3310062,埼玉県,さいたま市西区,土屋,サイタマケン,サイタマシニシク,ツチヤ,埼玉県さいたま市西区土屋
3310063,埼玉県,さいたま市西区,プラザ,サイタマケン,サイタマシニシク,プラザ,埼玉県さいたま市西区プラザ
3310064,埼玉県,さいたま市西区,佐知川,サイタマケン,サイタマシニシク,サジカワ,埼玉県さいたま市西区佐知川
3310065,埼玉県,さいたま市西区,二ツ宮,サイタマケン,サイタマシニシク,フタツミヤ,埼玉県さいたま市西区二ツ宮
3310066,埼玉県,さいたま市西区,塚本,サイタマケン,サイタマシニシク,ツカモト,埼玉県さいたま市西区塚本
3310067,埼玉県,さいたま市西区,植田谷本村新田,サイタマケン,サイタマシニシク,ウエタヤホンムラシンデン,埼玉県さいたま市西区植田谷本村新田
3310068,埼玉県,さいたま市西区,飯田新田,サイタマケン,サイタマシニシク,イイダシンデン,埼玉県さいたま市西区飯田新田
3310069,埼玉県,さいたま市西区,湯木町,サイタマケン,サイタマシニシク,ユギチョウ,埼玉県さいたま市西区湯木町
3310071,埼玉県,さいたま市西区,高木,サイタマケン,サイタマシニシク,タカギ,埼玉県さいたま市西区高木
3310072,埼玉県,さいたま市西区,平方領々家,サイタマケン,サイタマシニシク,ヒラカタリョウリョウケ,埼玉県さいたま市西区平方領々家
3310073,埼玉県,さいたま市西区,指扇領別所,サイタマケン,サイタマシニシク,サシオウギリョウベッショ,埼玉県さいたま市西区指扇領別所
3310074,埼玉県,さいたま市西区,宝来,サイタマケン,サイタマシニシク,ホウライ,埼玉県さいたま市西区宝来
3310075,埼玉県,さいたま市西区,峰岸,サイタマケン,サイタマシニシク,ミネギシ,埼玉県さいたま市西区峰岸
3310076,埼玉県,さいたま市西区,指扇領辻,サイタマケン,サイタマシニシク,サシオウギリョウツジ,埼玉県さいたま市西区指扇領辻
3310077,埼玉県,さいたま市西区,中釘,サイタマケン,サイタマシニシク,ナカクギ,埼玉県さいたま市西区中釘
3310078,埼玉県,さいたま市西区,西大宮,サイタマケン,サイタマシニシク,ニシオオミヤ,埼玉県さいたま市西区西大宮
3310800,埼玉県,さいたま市北区,,サイタマケン,サイタマシキタク,,埼玉県さいたま市北区
3310801,埼玉県,さいたま市北区,今羽町,サイタマケン,サイタマシキタク,コンバチョウ,埼玉県さいたま市北区今羽町
3310802,埼玉県,さいたま市北区,本郷町,サイタマケン,サイタマシキタク,ホンゴウチョウ,埼玉県さいたま市北区本郷町
3310803,埼玉県,さいたま市北区,見沼,サイタマケン,サイタマシキタク,ミヌマ,埼玉県さいたま市北区見沼
3310804,埼玉県,さいたま市北区,土呂町,サイタマケン,サイタマシキタク,トロチョウ,埼玉県さいたま市北区土呂町
3310805,埼玉県,さいたま市北区,盆栽町,サイタマケン,サイタマシキタク,ボンサイチョウ,埼玉県さいたま市北区盆栽町
3310811,埼玉県,さいたま市北区,吉野町,サイタマケン,サイタマシキタク,ヨシノチョウ,埼玉県さいたま市北区吉野町
3310812,埼玉県,さいたま市北区,宮原町,サイタマケン,サイタマシキタク,ミヤハラチョウ,埼玉県さいたま市北区宮原町
3310813,埼玉県,さいたま市北区,植竹町,サイタマケン,サイタマシキタク,ウエタケチョウ,埼玉県さいたま市北区植竹町
3310814,埼玉県,さいたま市北区,東大成町,サイタマケン,サイタマシキタク,ヒガシオオナリチョウ,埼玉県さいたま市北区東大成町
3310815,埼玉県,さいたま市北区,大成町,サイタマケン,サイタマシキタク,オオナリチョウ,埼玉県さいたま市北区大成町
3310821,埼玉県,さいたま市北区,別所町,サイタマケン,サイタマシキタク,ベッショチョウ,埼玉県さいたま市北区別所町
3310822,埼玉県,さいたま市北区,奈良町,サイタマケン,サイタマシキタク,ナラチョウ,埼玉県さいたま市北区奈良町
3310823,埼玉県,さいたま市北区,日進町,サイタマケン,サイタマシキタク,ニッシンチョウ,埼玉県さいたま市北区日進町
3310824,埼玉県,さいたま市北区,上加,サイタマケン,サイタマシキタク,カミカ,埼玉県さいたま市北区上加
3310825,埼玉県,さいたま市北区,櫛引町,サイタマケン,サイタマシキタク,クシヒキチョウ,埼玉県さいたま市北区櫛引町
3320000,埼玉県,川口市,,サイタマケン,カワグチシ,,埼玉県川口市
3320001,埼玉県,川口市,朝日,サイタマケン,カワグチシ,アサヒ,埼玉県川口市朝日
3320002,埼玉県,川口市,弥平,サイタマケン,カワグチシ,ヤヘイ,埼玉県川口市弥平
3320003,埼玉県,川口市,東領家,サイタマケン,カワグチシ,ヒガシリョウケ,埼玉県川口市東領家
3320004,埼玉県,川口市,領家,サイタマケン,カワグチシ,リョウケ,埼玉県川口市領家
3320005,埼玉県,川口市,新井町,サイタマケン,カワグチシ,アライチョウ,埼玉県川口市新井町
3320006,埼玉県,川口市,末広,サイタマケン,カワグチシ,スエヒロ,埼玉県川口市末広
3320007,埼玉県,川口市,河原町,サイタマケン,カワグチシ,カワハラチョウ,埼玉県川口市河原町
3320011,埼玉県,川口市,元郷,サイタマケン,カワグチシ,モトゴウ,埼玉県川口市元郷
3320012,埼玉県,川口市,本町,サイタマケン,カワグチシ,ホンチョウ,埼玉県川口市本町
3320013,埼玉県,川口市,舟戸町,サイタマケン,カワグチシ,フナトチョウ,埼玉県川口市舟戸町
3320014,埼玉県,川口市,金山町,サイタマケン,カワグチシ,カナヤマチョウ,埼玉県川口市金山町
3320015,埼玉県,川口市,川口,サイタマケン,カワグチシ,カワグチ,埼玉県川口市川口
3320016,埼玉県,川口市,幸町,サイタマケン,カワグチシ,サイワイチョウ,埼玉県川口市幸町
3320017,埼玉県,川口市,栄町,サイタマケン,カワグチシ,サカエチョウ,埼玉県川口市栄町
3320021,埼玉県,川口市,西川口,サイタマケン,カワグチシ,ニシカワグチ,埼玉県川口市西川口
3320022,埼玉県,川口市,仲町,サイタマケン,カワグチシ,ナカチョウ,埼玉県川口市仲町
3320023,埼玉県,川口市,飯塚,サイタマケン,カワグチシ,イイヅカ,埼玉県川口市飯塚
3320024,埼玉県,川口市,飯原町,サイタマケン,カワグチシ,イイハラチョウ,埼玉県川口市飯原町
3320025,埼玉県,川口市,原町,サイタマケン,カワグチシ,ハラマチ,埼玉県川口市原町
3320026,埼玉県,川口市,南町,サイタマケン,カワグチシ,ミナミチョウ,埼玉県川口市南町
3320027,埼玉県,川口市,緑町,サイタマケン,カワグチシ,ミドリチョウ,埼玉県川口市緑町
3320028,埼玉県,川口市,宮町,サイタマケン,カワグチシ,ミヤチョウ,埼玉県川口市宮町
3320029,埼玉県,川口市,荒川町,サイタマケン,カワグチシ,アラカワチョウ,埼玉県川口市荒川町
3320031,埼玉県,川口市,青木,サイタマケン,カワグチシ,アオキ,埼玉県川口市青木
3320032,埼玉県,川口市,中青木,サイタマケン,カワグチシ,ナカアオキ,埼玉県川口市中青木
3320033,埼玉県,川口市,並木元町,サイタマケン,カワグチシ,ナミキモトマチ,埼玉県川口市並木元町
3320034,埼玉県,川口市,並木,サイタマケン,カワグチシ,ナミキ,埼玉県川口市並木
3320035,埼玉県,川口市,西青木,サイタマケン,カワグチシ,ニシアオキ,埼玉県川口市西青木
3330801,埼玉県,川口市,東川口,サイタマケン,カワグチシ,ヒガシカワグチ,埼玉県川口市東川口
3330802,埼玉県,川口市,戸塚東,サイタマケン,カワグチシ,トヅカヒガシ,埼玉県川口市戸塚東
3330803,埼玉県,川口市,藤兵衛新田,サイタマケン,カワグチシ,トウベエシンデン,埼玉県川口市藤兵衛新田
3330804,埼玉県,川口市,久左衛門新田,サイタマケン,カワグチシ,キュウザエモンシンデン,埼玉県川口市久左衛門新田
3330805,埼玉県,川口市,戸塚鋏町,サイタマケン,カワグチシ,トヅカハサミチョウ,埼玉県川口市戸塚鋏町
3330806,埼玉県,川口市,戸塚境町,サイタマケン,カワグチシ,トヅカサカイチョウ,埼玉県川口市戸塚境町
3330807,埼玉県,川口市,長蔵,サイタマケン,カワグチシ,チョウゾウ,埼玉県川口市長蔵
3330808,埼玉県,川口市,長蔵新田,サイタマケン,カワグチシ,チョウゾウシンデン,埼玉県川口市長蔵新田
3330811,埼玉県,川口市,戸塚,サイタマケン,カワグチシ,トヅカ,埼玉県川口市戸塚
3330812,埼玉県,川口市,安行西立野,サイタマケン,カワグチシ,アンギョウニシタテノ,埼玉県川口市安行西立野
3330813,埼玉県,川口市,西立野,サイタマケン,カワグチシ,ニシタテノ,埼玉県川口市西立野
3330814,埼玉県,川口市,行衛,サイタマケン,カワグチシ,ギョエ,埼玉県川口市行衛
3330815,埼玉県,川口市,北原台,サイタマケン,カワグチシ,キタハラダイ,埼玉県川口市北原台
3330816,埼玉県,川口市,差間,サイタマケン,カワグチシ,サシマ,埼玉県川口市差間
3330817,埼玉県,川口市,戸塚南,サイタマケン,カワグチシ,トヅカミナミ,埼玉県川口市戸塚南
3330821,埼玉県,川口市,東内野,サイタマケン,カワグチシ,ヒガシウチノ,埼玉県川口市東内野
3330822,埼玉県,川口市,源左衛門新田,サイタマケン,カワグチシ,ゲンザエモンシンデン,埼玉県川口市源左衛門新田
3330823,埼玉県,川口市,石神,サイタマケン,カワグチシ,イシガミ,埼玉県川口市石神
3330824,埼玉県,川口市,赤芝新田,サイタマケン,カワグチシ,アカシバシンデン,埼玉県川口市赤芝新田
3330825,埼玉県,川口市,赤山,サイタマケン,カワグチシ,アカヤマ,埼玉県川口市赤山
3330826,埼玉県,川口市,新井宿,サイタマケン,カワグチシ,アライジュク,埼玉県川口市新井宿
3330831,埼玉県,川口市,木曽呂,サイタマケン,カワグチシ,キゾロ,埼玉県川口市木曽呂
3330832,埼玉県,川口市,神戸,サイタマケン,カワグチシ,ゴウド,埼玉県川口市神戸
3330833,埼玉県,川口市,西新井宿,サイタマケン,カワグチシ,ニシアライジュク,埼玉県川口市西新井宿
3330834,埼玉県,川口市,安行領根岸,サイタマケン,カワグチシ,アンギョウリョウネギシ,埼玉県川口市安行領根岸
3330835,埼玉県,川口市,道合,サイタマケン,カワグチシ,ミチアイ,埼玉県川口市道合
3330836,埼玉県,川口市,安行領在家,サイタマケン,カワグチシ,アンギョウリョウザイケ,埼玉県川口市安行領在家
3330841,埼玉県,川口市,前川町,サイタマケン,カワグチシ,マエカワチョウ,埼玉県川口市前川町
3330842,埼玉県,川口市,前川,サイタマケン,カワグチシ,マエカワ,埼玉県川口市前川
3330843,埼玉県,川口市,前上町,サイタマケン,カワグチシ,マエカミチョウ,埼玉県川口市前上町
3330844,埼玉県,川口市,上青木,サイタマケン,カワグチシ,カミアオキ,埼玉県川口市上青木
3330845,埼玉県,川口市,上青木西,サイタマケン,カワグチシ,カミアオキニシ,埼玉県川口市上青木西
3330846,埼玉県,川口市,南前川,サイタマケン,カワグチシ,ミナミマエカワ,埼玉県川口市南前川
3330847,埼玉県,川口市,芝中田,サイタマケン,カワグチシ,シバナカダ,埼玉県川口市芝中田
3330848,埼玉県,川口市,芝下,サイタマケン,カワグチシ,シバシモ,埼玉県川口市芝下
3330849,埼玉県,川口市,本前川,サイタマケン,カワグチシ,ホンマエカワ,埼玉県川口市本前川
3330851,埼玉県,川口市,芝新町,サイタマケン,カワグチシ,シバシンマチ,埼玉県川口市芝新町
3330852,埼玉県,川口市,芝樋ノ爪,サイタマケン,カワグチシ,シバヒノツメ,埼玉県川口市芝樋ノ爪
3330853,埼玉県,川口市,芝園町,サイタマケン,カワグチシ,シバゾノチョウ,埼玉県川口市芝園町
3330854,埼玉県,川口市,芝富士,サイタマケン,カワグチシ,シバフジ,埼玉県川口市芝富士
3330855,埼玉県,川口市,芝西,サイタマケン,カワグチシ,シバニシ,埼玉県川口市芝西
3330856,埼玉県,川口市,芝塚原,サイタマケン,カワグチシ,シバツカバラ,埼玉県川口市芝塚原
3330857,埼玉県,川口市,小谷場,サイタマケン,カワグチシ,コヤバ,埼玉県川口市小谷場
3330861,埼玉県,川口市,柳崎,サイタマケン,カワグチシ,ヤナギサキ,埼玉県川口市柳崎
3330862,埼玉県,川口市,北園町,サイタマケン,カワグチシ,キタゾノチョウ,埼玉県川口市北園町
3330863,埼玉県,川口市,在家町,サイタマケン,カワグチシ,ザイケチョウ,埼玉県川口市在家町
3330864,埼玉県,川口市,柳根町,サイタマケン,カワグチシ,ヤナネチョウ,埼玉県川口市柳根町
3330865,埼玉県,川口市,伊刈,サイタマケン,カワグチシ,イカリ,埼玉県川口市伊刈
3330866,埼玉県,川口市,芝,サイタマケン,カワグチシ,シバ,埼玉県川口市芝
3330867,埼玉県,川口市,芝東町,サイタマケン,カワグチシ,シバヒガシチョウ,埼玉県川口市芝東町
3330868,埼玉県,川口市,芝高木,サイタマケン,カワグチシ,シバタカギ,埼玉県川口市芝高木
3330869,埼玉県,川口市,芝宮根町,サイタマケン,カワグチシ,シバミヤネチョウ,埼玉県川口市芝宮根町
3340001,埼玉県,川口市,桜町,サイタマケン,カワグチシ,サクラチョウ,埼玉県川口市桜町
3340002,埼玉県,川口市,鳩ヶ谷本町,サイタマケン,カワグチシ,ハトガヤホンチョウ,埼玉県川口市鳩ヶ谷本町
3340003,埼玉県,川口市,坂下町,サイタマケン,カワグチシ,サカシタチョウ,埼玉県川口市坂下町
3340004,埼玉県,川口市,辻,サイタマケン,カワグチシ,ツジ,埼玉県川口市辻
3340005,埼玉県,川口市,里,サイタマケン,カワグチシ,サト,埼玉県川口市里
3340011,埼玉県,川口市,三ツ和,サイタマケン,カワグチシ,ミツワ,埼玉県川口市三ツ和
3340012,埼玉県,川口市,八幡木,サイタマケン,カワグチシ,ハチマンギ,埼玉県川口市八幡木
3340013,埼玉県,川口市,南鳩ヶ谷,サイタマケン,カワグチシ,ミナミハトガヤ,埼玉県川口市南鳩ヶ谷
3340014,埼玉県,川口市,前田,サイタマケン,カワグチシ,マエタ,埼玉県川口市前田
3340015,埼玉県,川口市,鳩ヶ谷緑町,サイタマケン,カワグチシ,ハトガヤミドリチョウ,埼玉県川口市鳩ヶ谷緑町
3340051,埼玉県,川口市,安行藤八,サイタマケン,カワグチシ,アンギョウトウハチ,埼玉県川口市安行藤八
3340052,埼玉県,川口市,安行出羽,サイタマケン,カワグチシ,アンギョウデワ,埼玉県川口市安行出羽
3340053,埼玉県,川口市,安行吉蔵,サイタマケン,カワグチシ,アンギョウキチゾウ,埼玉県川口市安行吉蔵
3340054,埼玉県,川口市,安行北谷,サイタマケン,カワグチシ,アンギョウキタヤ,埼玉県川口市安行北谷
3340055,埼玉県,川口市,安行小山,サイタマケン,カワグチシ,アンギョウコヤマ,埼玉県川口市安行小山
3340056,埼玉県,川口市,峯,サイタマケン,カワグチシ,ミネ,埼玉県川口市峯
3340057,埼玉県,川口市,安行原,サイタマケン,カワグチシ,アンギョウハラ,埼玉県川口市安行原
3340058,埼玉県,川口市,安行領家,サイタマケン,カワグチシ,アンギョウリョウケ,埼玉県川口市安行領家
3340059,埼玉県,川口市,安行,サイタマケン,カワグチシ,アンギョウ,埼玉県川口市安行
3340061,埼玉県,川口市,新堀,サイタマケン,カワグチシ,ニイホリ,埼玉県川口市新堀
3340062,埼玉県,川口市,榛松,サイタマケン,カワグチシ,ハエマツ,埼玉県川口市榛松
3340063,埼玉県,川口市,東本郷,サイタマケン,カワグチシ,ヒガシホンゴウ,埼玉県川口市東本郷
3340064,埼玉県,川口市,蓮沼,サイタマケン,カワグチシ,ハスヌマ,埼玉県川口市蓮沼
3340065,埼玉県,川口市,前野宿,サイタマケン,カワグチシ,マエノシュク,埼玉県川口市前野宿
3340066,埼玉県,川口市,東貝塚,サイタマケン,カワグチシ,ヒガシカイヅカ,埼玉県川口市東貝塚
3340067,埼玉県,川口市,大竹,サイタマケン,カワグチシ,オオタケ,埼玉県川口市大竹
3340068,埼玉県,川口市,新堀町,サイタマケン,カワグチシ,ニイホリチョウ,埼玉県川口市新堀町
3340071,埼玉県,川口市,安行慈林,サイタマケン,カワグチシ,アンギョウジリン,埼玉県川口市安行慈林
3340072,埼玉県,川口市,安行吉岡,サイタマケン,カワグチシ,アンギョウヨシオカ,埼玉県川口市安行吉岡
3340073,埼玉県,川口市,赤井,サイタマケン,カワグチシ,アカイ,埼玉県川口市赤井
3340074,埼玉県,川口市,江戸,サイタマケン,カワグチシ,エド,埼玉県川口市江戸
3340075,埼玉県,川口市,江戸袋,サイタマケン,カワグチシ,エドブクロ,埼玉県川口市江戸袋
3340076,埼玉県,川口市,本蓮,サイタマケン,カワグチシ,ホンバス,埼玉県川口市本蓮
3350000,埼玉県,戸田市,,サイタマケン,トダシ,,埼玉県戸田市
3350000,埼玉県,蕨市,,サイタマケン,ワラビシ,,埼玉県蕨市
3350001,埼玉県,蕨市,北町,サイタマケン,ワラビシ,キタマチ,埼玉県蕨市北町
3350002,埼玉県,蕨市,塚越,サイタマケン,ワラビシ,ツカゴシ,埼玉県蕨市塚越
3350003,埼玉県,蕨市,南町,サイタマケン,ワラビシ,ミナミチョウ,埼玉県蕨市南町
3350004,埼玉県,蕨市,中央,サイタマケン,ワラビシ,チュウオウ,埼玉県蕨市中央
3350005,埼玉県,蕨市,錦町,サイタマケン,ワラビシ,ニシキチョウ,埼玉県蕨市錦町
3350011,埼玉県,戸田市,下戸田,サイタマケン,トダシ,シモトダ,埼玉県戸田市下戸田
3350012,埼玉県,戸田市,中町,サイタマケン,トダシ,ナカチョウ,埼玉県戸田市中町
3350013,埼玉県,戸田市,喜沢,サイタマケン,トダシ,キザワ,埼玉県戸田市喜沢
3350014,埼玉県,戸田市,喜沢南,サイタマケン,トダシ,キザワミナミ,埼玉県戸田市喜沢南
3350015,埼玉県,戸田市,川岸,サイタマケン,トダシ,カワギシ,埼玉県戸田市川岸
3350016,埼玉県,戸田市,下前,サイタマケン,トダシ,シモマエ,埼玉県戸田市下前
3350021,埼玉県,戸田市,新曽,サイタマケン,トダシ,ニイゾ,埼玉県戸田市新曽
3350022,埼玉県,戸田市,上戸田,サイタマケン,トダシ,カミトダ,埼玉県戸田市上戸田
3350023,埼玉県,戸田市,本町,サイタマケン,トダシ,ホンチョウ,埼玉県戸田市本町
3350024,埼玉県,戸田市,戸田公園,サイタマケン,トダシ,トダコウエン,埼玉県戸田市戸田公園
3350025,埼玉県,戸田市,南町,サイタマケン,トダシ,ミナミチョウ,埼玉県戸田市南町
3350026,埼玉県,戸田市,新曽南,サイタマケン,トダシ,ニイゾミナミ,埼玉県戸田市新曽南
3350027,埼玉県,戸田市,氷川町,サイタマケン,トダシ,ヒカワチョウ,埼玉県戸田市氷川町
3350031,埼玉県,戸田市,美女木,サイタマケン,トダシ,ビジョギ,埼玉県戸田市美女木
3350032,埼玉県,戸田市,美女木東,サイタマケン,トダシ,ビジョギヒガシ,埼玉県戸田市美女木東
3350033,埼玉県,戸田市,笹目北町,サイタマケン,トダシ,ササメキタチョウ,埼玉県戸田市笹目北町
3350034,埼玉県,戸田市,笹目,サイタマケン,トダシ,ササメ,埼玉県戸田市笹目
3350035,埼玉県,戸田市,笹目南町,サイタマケン,トダシ,ササメミナミチョウ,埼玉県戸田市笹目南町
3350036,埼玉県,戸田市,早瀬,サイタマケン,トダシ,ハヤセ,埼玉県戸田市早瀬
3350037,埼玉県,戸田市,下笹目,サイタマケン,トダシ,シモササメ,埼玉県戸田市下笹目
3350038,埼玉県,戸田市,美女木北,サイタマケン,トダシ,ビジョギキタ,埼玉県戸田市美女木北
3360000,埼玉県,さいたま市南区,,サイタマケン,サイタマシミナミク,,埼玉県さいたま市南区
3360015,埼玉県,さいたま市南区,太田窪,サイタマケン,サイタマシミナミク,ダイタクボ,埼玉県さいたま市南区太田窪
3360016,埼玉県,さいたま市南区,大谷場,サイタマケン,サイタマシミナミク,オオヤバ,埼玉県さいたま市南区大谷場
3360017,埼玉県,さいたま市南区,南浦和,サイタマケン,サイタマシミナミク,ミナミウラワ,埼玉県さいたま市南区南浦和
3360018,埼玉県,さいたま市南区,南本町,サイタマケン,サイタマシミナミク,ミナミホンチョウ,埼玉県さいたま市南区南本町
3360021,埼玉県,さいたま市南区,別所,サイタマケン,サイタマシミナミク,ベッショ,埼玉県さいたま市南区別所
3360022,埼玉県,さいたま市南区,白幡,サイタマケン,サイタマシミナミク,シラハタ,埼玉県さいたま市南区白幡
3360023,埼玉県,さいたま市南区,神明,サイタマケン,サイタマシミナミク,シンメイ,埼玉県さいたま市南区神明
3360024,埼玉県,さいたま市南区,根岸,サイタマケン,サイタマシミナミク,ネギシ,埼玉県さいたま市南区根岸
3360025,埼玉県,さいたま市南区,文蔵,サイタマケン,サイタマシミナミク,ブゾウ,埼玉県さいたま市南区文蔵
3360026,埼玉県,さいたま市南区,辻,サイタマケン,サイタマシミナミク,ツジ,埼玉県さいたま市南区辻
3360027,埼玉県,さいたま市南区,沼影,サイタマケン,サイタマシミナミク,ヌマカゲ,埼玉県さいたま市南区沼影
3360031,埼玉県,さいたま市南区,鹿手袋,サイタマケン,サイタマシミナミク,シカテブクロ,埼玉県さいたま市南区鹿手袋
3360032,埼玉県,さいたま市南区,四谷,サイタマケン,サイタマシミナミク,ヨツヤ,埼玉県さいたま市南区四谷
3360033,埼玉県,さいたま市南区,曲本,サイタマケン,サイタマシミナミク,マガモト,埼玉県さいたま市南区曲本
3360034,埼玉県,さいたま市南区,内谷,サイタマケン,サイタマシミナミク,ウチヤ,埼玉県さいたま市南区内谷
3360035,埼玉県,さいたま市南区,松本,サイタマケン,サイタマシミナミク,マツモト,埼玉県さいたま市南区松本
3360036,埼玉県,さいたま市南区,堤外,サイタマケン,サイタマシミナミク,テイガイ,埼玉県さいたま市南区堤外
3360038,埼玉県,さいたま市南区,関,サイタマケン,サイタマシミナミク,セキ,埼玉県さいたま市南区関
3360041,埼玉県,さいたま市南区,広ケ谷戸,サイタマケン,サイタマシミナミク,ヒロガヤト,埼玉県さいたま市南区広ケ谷戸
3360042,埼玉県,さいたま市南区,大谷口,サイタマケン,サイタマシミナミク,オオヤグチ,埼玉県さいたま市南区大谷口
3360043,埼玉県,さいたま市南区,円正寺,サイタマケン,サイタマシミナミク,エンショウジ,埼玉県さいたま市南区円正寺
3360900,埼玉県,さいたま市緑区,,サイタマケン,サイタマシミドリク,,埼玉県さいたま市緑区
3360903,埼玉県,さいたま市緑区,山崎,サイタマケン,サイタマシミドリク,ヤマザキ,埼玉県さいたま市緑区山崎
3360905,埼玉県,さいたま市緑区,大道,サイタマケン,サイタマシミドリク,ダイドウ,埼玉県さいたま市緑区大道
3360906,埼玉県,さいたま市緑区,三浦,サイタマケン,サイタマシミドリク,ミウラ,埼玉県さいたま市緑区三浦
3360907,埼玉県,さいたま市緑区,道祖土,サイタマケン,サイタマシミドリク,サイド,埼玉県さいたま市緑区道祖土
3360911,埼玉県,さいたま市緑区,三室,サイタマケン,サイタマシミドリク,ミムロ,埼玉県さいたま市緑区三室
3360912,埼玉県,さいたま市緑区,馬場,サイタマケン,サイタマシミドリク,バンバ,埼玉県さいたま市緑区馬場
3360913,埼玉県,さいたま市緑区,新宿,サイタマケン,サイタマシミドリク,シンジュク,埼玉県さいたま市緑区新宿
3360914,埼玉県,さいたま市緑区,宮後,サイタマケン,サイタマシミドリク,ミヤウシロ,埼玉県さいたま市緑区宮後
3360915,埼玉県,さいたま市緑区,見沼,サイタマケン,サイタマシミドリク,ミヌマ,埼玉県さいたま市緑区見沼
3360916,埼玉県,さいたま市緑区,宮本,サイタマケン,サイタマシミドリク,ミヤモト,埼玉県さいたま市緑区宮本
3360917,埼玉県,さいたま市緑区,芝原,サイタマケン,サイタマシミドリク,シバハラ,埼玉県さいたま市緑区芝原
3360918,埼玉県,さいたま市緑区,松木,サイタマケン,サイタマシミドリク,マツキ,埼玉県さいたま市緑区松木
3360921,埼玉県,さいたま市緑区,井沼方,サイタマケン,サイタマシミドリク,イヌマカタ,埼玉県さいたま市緑区井沼方
3360922,埼玉県,さいたま市緑区,大牧,サイタマケン,サイタマシミドリク,オオマキ,埼玉県さいたま市緑区大牧
3360923,埼玉県,さいたま市緑区,大間木,サイタマケン,サイタマシミドリク,オオマギ,埼玉県さいたま市緑区大間木
3360924,埼玉県,さいたま市緑区,蓮見新田,サイタマケン,サイタマシミドリク,ハスミシンデン,埼玉県さいたま市緑区蓮見新田
3360925,埼玉県,さいたま市緑区,下山口新田,サイタマケン,サイタマシミドリク,シモヤマグチシンデン,埼玉県さいたま市緑区下山口新田
3360926,埼玉県,さいたま市緑区,東浦和,サイタマケン,サイタマシミドリク,ヒガシウラワ,埼玉県さいたま市緑区東浦和
3360931,埼玉県,さいたま市緑区,原山,サイタマケン,サイタマシミドリク,ハラヤマ,埼玉県さいたま市緑区原山
3360932,埼玉県,さいたま市緑区,中尾,サイタマケン,サイタマシミドリク,ナカオ,埼玉県さいたま市緑区中尾
3360934,埼玉県,さいたま市緑区,大谷口,サイタマケン,サイタマシミドリク,オオヤグチ,埼玉県さいたま市緑区大谷口
3360936,埼玉県,さいたま市緑区,太田窪,サイタマケン,サイタマシミドリク,ダイタクボ,埼玉県さいたま市緑区太田窪
3360961,埼玉県,さいたま市緑区,玄蕃新田,サイタマケン,サイタマシミドリク,ゲンバシンデン,埼玉県さいたま市緑区玄蕃新田
3360962,埼玉県,さいたま市緑区,下野田,サイタマケン,サイタマシミドリク,シモノダ,埼玉県さいたま市緑区下野田
3360963,埼玉県,さいたま市緑区,大門,サイタマケン,サイタマシミドリク,ダイモン,埼玉県さいたま市緑区大門
3360964,埼玉県,さいたま市緑区,東大門,サイタマケン,サイタマシミドリク,ヒガシダイモン,埼玉県さいたま市緑区東大門
3360965,埼玉県,さいたま市緑区,間宮,サイタマケン,サイタマシミドリク,マミヤ,埼玉県さいたま市緑区間宮
3360966,埼玉県,さいたま市緑区,北原,サイタマケン,サイタマシミドリク,キタハラ,埼玉県さいたま市緑区北原
3360967,埼玉県,さいたま市緑区,美園,サイタマケン,サイタマシミドリク,ミソノ,埼玉県さいたま市緑区美園
3360971,埼玉県,さいたま市緑区,高畑,サイタマケン,サイタマシミドリク,タカバタケ,埼玉県さいたま市緑区高畑
3360972,埼玉県,さいたま市緑区,中野田,サイタマケン,サイタマシミドリク,ナカノダ,埼玉県さいたま市緑区中野田
3360973,埼玉県,さいたま市緑区,南部領辻,サイタマケン,サイタマシミドリク,ナンブリョウツジ,埼玉県さいたま市緑区南部領辻
3360974,埼玉県,さいたま市緑区,大崎,サイタマケン,サイタマシミドリク,オオサキ,埼玉県さいたま市緑区大崎
3360975,埼玉県,さいたま市緑区,代山,サイタマケン,サイタマシミドリク,ダイヤマ,埼玉県さいたま市緑区代山
3360976,埼玉県,さいたま市緑区,寺山,サイタマケン,サイタマシミドリク,テラヤマ,埼玉県さいたま市緑区寺山
3360977,埼玉県,さいたま市緑区,上野田,サイタマケン,サイタマシミドリク,カミノダ,埼玉県さいたま市緑区上野田
3370000,埼玉県,さいたま市見沼区,,サイタマケン,サイタマシミヌマク,,埼玉県さいたま市見沼区
3370001,埼玉県,さいたま市見沼区,丸ケ崎,サイタマケン,サイタマシミヌマク,マルガサキ,埼玉県さいたま市見沼区丸ケ崎
3370002,埼玉県,さいたま市見沼区,春野,サイタマケン,サイタマシミヌマク,ハルノ,埼玉県さいたま市見沼区春野
3370003,埼玉県,さいたま市見沼区,深作,サイタマケン,サイタマシミヌマク,フカサク,埼玉県さいたま市見沼区深作
3370004,埼玉県,さいたま市見沼区,卸町,サイタマケン,サイタマシミヌマク,オロシチョウ,埼玉県さいたま市見沼区卸町
3370005,埼玉県,さいたま市見沼区,小深作,サイタマケン,サイタマシミヌマク,コフカサク,埼玉県さいたま市見沼区小深作
3370006,埼玉県,さいたま市見沼区,島町,サイタマケン,サイタマシミヌマク,シマチョウ,埼玉県さいたま市見沼区島町
3370007,埼玉県,さいたま市見沼区,丸ケ崎町,サイタマケン,サイタマシミヌマク,マルガサキチョウ,埼玉県さいたま市見沼区丸ケ崎町
3370008,埼玉県,さいたま市見沼区,春岡,サイタマケン,サイタマシミヌマク,ハルオカ,埼玉県さいたま市見沼区春岡
3370011,埼玉県,さいたま市見沼区,宮ケ谷塔,サイタマケン,サイタマシミヌマク,ミヤガヤトウ,埼玉県さいたま市見沼区宮ケ谷塔
3370012,埼玉県,さいたま市見沼区,東宮下,サイタマケン,サイタマシミヌマク,ヒガシミヤシタ,埼玉県さいたま市見沼区東宮下
3370013,埼玉県,さいたま市見沼区,新堤,サイタマケン,サイタマシミヌマク,ニイヅツミ,埼玉県さいたま市見沼区新堤
3370014,埼玉県,さいたま市見沼区,大谷,サイタマケン,サイタマシミヌマク,オオヤ,埼玉県さいたま市見沼区大谷
3370015,埼玉県,さいたま市見沼区,蓮沼,サイタマケン,サイタマシミヌマク,ハスヌマ,埼玉県さいたま市見沼区蓮沼
3370016,埼玉県,さいたま市見沼区,東門前,サイタマケン,サイタマシミヌマク,ヒガシモンゼン,埼玉県さいたま市見沼区東門前
3370017,埼玉県,さいたま市見沼区,風渡野,サイタマケン,サイタマシミヌマク,フットノ,埼玉県さいたま市見沼区風渡野
3370021,埼玉県,さいたま市見沼区,膝子,サイタマケン,サイタマシミヌマク,ヒザコ,埼玉県さいたま市見沼区膝子
3370022,埼玉県,さいたま市見沼区,加田屋,サイタマケン,サイタマシミヌマク,カタヤ,埼玉県さいたま市見沼区加田屋
3370023,埼玉県,さいたま市見沼区,片柳東,サイタマケン,サイタマシミヌマク,カタヤナギヒガシ,埼玉県さいたま市見沼区片柳東
3370024,埼玉県,さいたま市見沼区,片柳,サイタマケン,サイタマシミヌマク,カタヤナギ,埼玉県さいたま市見沼区片柳
3370025,埼玉県,さいたま市見沼区,山,サイタマケン,サイタマシミヌマク,ヤマ,埼玉県さいたま市見沼区山
3370026,埼玉県,さいたま市見沼区,染谷,サイタマケン,サイタマシミヌマク,ソメヤ,埼玉県さいたま市見沼区染谷
3370027,埼玉県,さいたま市見沼区,加田屋新田,サイタマケン,サイタマシミヌマク,カタヤシンデン,埼玉県さいたま市見沼区加田屋新田
3370031,埼玉県,さいたま市見沼区,笹丸,サイタマケン,サイタマシミヌマク,ササマル,埼玉県さいたま市見沼区笹丸
3370032,埼玉県,さいたま市見沼区,東新井,サイタマケン,サイタマシミヌマク,ヒガシアライ,埼玉県さいたま市見沼区東新井
3370033,埼玉県,さいたま市見沼区,御蔵,サイタマケン,サイタマシミヌマク,ミクラ,埼玉県さいたま市見沼区御蔵
3370034,埼玉県,さいたま市見沼区,西山村新田,サイタマケン,サイタマシミヌマク,ニシヤマムラシンデン,埼玉県さいたま市見沼区西山村新田
3370035,埼玉県,さいたま市見沼区,西山新田,サイタマケン,サイタマシミヌマク,ニシヤマシンデン,埼玉県さいたま市見沼区西山新田
3370036,埼玉県,さいたま市見沼区,見山,サイタマケン,サイタマシミヌマク,ミヤマ,埼玉県さいたま市見沼区見山
3370041,埼玉県,さいたま市見沼区,南中丸,サイタマケン,サイタマシミヌマク,ミナミナカマル,埼玉県さいたま市見沼区南中丸
3370042,埼玉県,さいたま市見沼区,南中野,サイタマケン,サイタマシミヌマク,ミナミナカノ,埼玉県さいたま市見沼区南中野
3370043,埼玉県,さいたま市見沼区,中川,サイタマケン,サイタマシミヌマク,ナカガワ,埼玉県さいたま市見沼区中川
3370044,埼玉県,さいたま市見沼区,上山口新田,サイタマケン,サイタマシミヌマク,カミヤマグチシンデン,埼玉県さいたま市見沼区上山口新田
3370045,埼玉県,さいたま市見沼区,新右エ門新田,サイタマケン,サイタマシミヌマク,シンウエモンシンデン,埼玉県さいたま市見沼区新右エ門新田
3370051,埼玉県,さいたま市見沼区,東大宮,サイタマケン,サイタマシミヌマク,ヒガシオオミヤ,埼玉県さいたま市見沼区東大宮
3370052,埼玉県,さいたま市見沼区,堀崎町,サイタマケン,サイタマシミヌマク,ホリサキチョウ,埼玉県さいたま市見沼区堀崎町
3370053,埼玉県,さいたま市見沼区,大和田町,サイタマケン,サイタマシミヌマク,オオワダチョウ,埼玉県さいたま市見沼区大和田町
3370054,埼玉県,さいたま市見沼区,砂町,サイタマケン,サイタマシミヌマク,スナチョウ,埼玉県さいたま市見沼区砂町
3380001,埼玉県,さいたま市中央区,上落合,サイタマケン,サイタマシチュウオウク,カミオチアイ,埼玉県さいたま市中央区上落合
3380002,埼玉県,さいたま市中央区,下落合,サイタマケン,サイタマシチュウオウク,シモオチアイ,埼玉県さいたま市中央区下落合
3380003,埼玉県,さいたま市中央区,本町東,サイタマケン,サイタマシチュウオウク,ホンマチヒガシ,埼玉県さいたま市中央区本町東
3380004,埼玉県,さいたま市中央区,本町西,サイタマケン,サイタマシチュウオウク,ホンマチニシ,埼玉県さいたま市中央区本町西
3380005,埼玉県,さいたま市中央区,桜丘,サイタマケン,サイタマシチュウオウク,サクラオカ,埼玉県さいたま市中央区桜丘
3380006,埼玉県,さいたま市中央区,八王子,サイタマケン,サイタマシチュウオウク,ハチオウジ,埼玉県さいたま市中央区八王子
3380007,埼玉県,さいたま市中央区,円阿弥,サイタマケン,サイタマシチュウオウク,エンナミ,埼玉県さいたま市中央区円阿弥
3380011,埼玉県,さいたま市中央区,新中里,サイタマケン,サイタマシチュウオウク,シンナカザト,埼玉県さいたま市中央区新中里
3380012,埼玉県,さいたま市中央区,大戸,サイタマケン,サイタマシチュウオウク,オオト,埼玉県さいたま市中央区大戸
3380013,埼玉県,さいたま市中央区,鈴谷,サイタマケン,サイタマシチュウオウク,スズヤ,埼玉県さいたま市中央区鈴谷
3380014,埼玉県,さいたま市中央区,上峰,サイタマケン,サイタマシチュウオウク,ウエミネ,埼玉県さいたま市中央区上峰
3380800,埼玉県,さいたま市桜区,,サイタマケン,サイタマシサクラク,,埼玉県さいたま市桜区
3380811,埼玉県,さいたま市桜区,白鍬,サイタマケン,サイタマシサクラク,シラクワ,埼玉県さいたま市桜区白鍬
3380812,埼玉県,さいたま市桜区,神田,サイタマケン,サイタマシサクラク,ジンデ,埼玉県さいたま市桜区神田
3380813,埼玉県,さいたま市桜区,在家,サイタマケン,サイタマシサクラク,ザイケ,埼玉県さいたま市桜区在家
3380814,埼玉県,さいたま市桜区,宿,サイタマケン,サイタマシサクラク,シュク,埼玉県さいたま市桜区宿
3380815,埼玉県,さいたま市桜区,五関,サイタマケン,サイタマシサクラク,ゴセキ,埼玉県さいたま市桜区五関
3380816,埼玉県,さいたま市桜区,塚本,サイタマケン,サイタマシサクラク,ツカモト,埼玉県さいたま市桜区塚本
3380817,埼玉県,さいたま市桜区,昭和,サイタマケン,サイタマシサクラク,ショウワ,埼玉県さいたま市桜区昭和
3380821,埼玉県,さいたま市桜区,山久保,サイタマケン,サイタマシサクラク,ヤマクボ,埼玉県さいたま市桜区山久保
3380822,埼玉県,さいたま市桜区,中島,サイタマケン,サイタマシサクラク,ナカジマ,埼玉県さいたま市桜区中島
3380823,埼玉県,さいたま市桜区,栄和,サイタマケン,サイタマシサクラク,サカワ,埼玉県さいたま市桜区栄和
3380824,埼玉県,さいたま市桜区,上大久保,サイタマケン,サイタマシサクラク,カミオオクボ,埼玉県さいたま市桜区上大久保
3380825,埼玉県,さいたま市桜区,下大久保,サイタマケン,サイタマシサクラク,シモオオクボ,埼玉県さいたま市桜区下大久保
3380826,埼玉県,さいたま市桜区,大久保領家,サイタマケン,サイタマシサクラク,オオクボリョウケ,埼玉県さいたま市桜区大久保領家
3380831,埼玉県,さいたま市桜区,南元宿,サイタマケン,サイタマシサクラク,ミナミモトジュク,埼玉県さいたま市桜区南元宿
3380832,埼玉県,さいたま市桜区,西堀,サイタマケン,サイタマシサクラク,ニシボリ,埼玉県さいたま市桜区西堀
3380833,埼玉県,さいたま市桜区,桜田,サイタマケン,サイタマシサクラク,サクラダ,埼玉県さいたま市桜区桜田
3380834,埼玉県,さいたま市桜区,新開,サイタマケン,サイタマシサクラク,シビラキ,埼玉県さいたま市桜区新開
3380835,埼玉県,さいたま市桜区,道場,サイタマケン,サイタマシサクラク,ドウジョウ,埼玉県さいたま市桜区道場
3380836,埼玉県,さいたま市桜区,町谷,サイタマケン,サイタマシサクラク,マチヤ,埼玉県さいたま市桜区町谷
3380837,埼玉県,さいたま市桜区,田島,サイタマケン,サイタマシサクラク,タジマ,埼玉県さいたま市桜区田島
3390000,埼玉県,さいたま市岩槻区,,サイタマケン,サイタマシイワツキク,,埼玉県さいたま市岩槻区
3390001,埼玉県,さいたま市岩槻区,鹿室,サイタマケン,サイタマシイワツキク,カナムロ,埼玉県さいたま市岩槻区鹿室
3390002,埼玉県,さいたま市岩槻区,裏慈恩寺,サイタマケン,サイタマシイワツキク,ウラジオンジ,埼玉県さいたま市岩槻区裏慈恩寺
3390003,埼玉県,さいたま市岩槻区,小溝,サイタマケン,サイタマシイワツキク,コミゾ,埼玉県さいたま市岩槻区小溝
3390004,埼玉県,さいたま市岩槻区,徳力,サイタマケン,サイタマシイワツキク,トクリキ,埼玉県さいたま市岩槻区徳力
3390005,埼玉県,さいたま市岩槻区,東岩槻,サイタマケン,サイタマシイワツキク,ヒガシイワツキ,埼玉県さいたま市岩槻区東岩槻
3390006,埼玉県,さいたま市岩槻区,上里,サイタマケン,サイタマシイワツキク,カミサト,埼玉県さいたま市岩槻区上里
3390007,埼玉県,さいたま市岩槻区,諏訪,サイタマケン,サイタマシイワツキク,スワ,埼玉県さいたま市岩槻区諏訪
3390008,埼玉県,さいたま市岩槻区,表慈恩寺,サイタマケン,サイタマシイワツキク,オモテジオンジ,埼玉県さいたま市岩槻区表慈恩寺
3390009,埼玉県,さいたま市岩槻区,慈恩寺,サイタマケン,サイタマシイワツキク,ジオンジ,埼玉県さいたま市岩槻区慈恩寺
3390011,埼玉県,さいたま市岩槻区,長宮,サイタマケン,サイタマシイワツキク,ナガミヤ,埼玉県さいたま市岩槻区長宮
3390012,埼玉県,さいたま市岩槻区,増長,サイタマケン,サイタマシイワツキク,マシナガ,埼玉県さいたま市岩槻区増長
3390013,埼玉県,さいたま市岩槻区,大口,サイタマケン,サイタマシイワツキク,オオグチ,埼玉県さいたま市岩槻区大口
3390014,埼玉県,さいたま市岩槻区,大戸,サイタマケン,サイタマシイワツキク,オオト,埼玉県さいたま市岩槻区大戸
3390015,埼玉県,さいたま市岩槻区,大谷,サイタマケン,サイタマシイワツキク,オオヤ,埼玉県さいたま市岩槻区大谷
3390016,埼玉県,さいたま市岩槻区,新方須賀,サイタマケン,サイタマシイワツキク,ニイガタスカ,埼玉県さいたま市岩槻区新方須賀
3390017,埼玉県,さいたま市岩槻区,大森,サイタマケン,サイタマシイワツキク,オオモリ,埼玉県さいたま市岩槻区大森
3390018,埼玉県,さいたま市岩槻区,大野島,サイタマケン,サイタマシイワツキク,オオノジマ,埼玉県さいたま市岩槻区大野島
3390021,埼玉県,さいたま市岩槻区,末田,サイタマケン,サイタマシイワツキク,スエダ,埼玉県さいたま市岩槻区末田
3390022,埼玉県,さいたま市岩槻区,高曽根,サイタマケン,サイタマシイワツキク,タカソネ,埼玉県さいたま市岩槻区高曽根
3390023,埼玉県,さいたま市岩槻区,野孫,サイタマケン,サイタマシイワツキク,ノマゴ,埼玉県さいたま市岩槻区野孫
3390024,埼玉県,さいたま市岩槻区,釣上,サイタマケン,サイタマシイワツキク,カギアゲ,埼玉県さいたま市岩槻区釣上
3390025,埼玉県,さいたま市岩槻区,釣上新田,サイタマケン,サイタマシイワツキク,カギアゲシンデン,埼玉県さいたま市岩槻区釣上新田
3390026,埼玉県,さいたま市岩槻区,尾ケ崎新田,サイタマケン,サイタマシイワツキク,オガサキシンデン,埼玉県さいたま市岩槻区尾ケ崎新田
3390027,埼玉県,さいたま市岩槻区,尾ケ崎,サイタマケン,サイタマシイワツキク,オガサキ,埼玉県さいたま市岩槻区尾ケ崎
3390028,埼玉県,さいたま市岩槻区,美園東,サイタマケン,サイタマシイワツキク,ミソノヒガシ,埼玉県さいたま市岩槻区美園東
3390031,埼玉県,さいたま市岩槻区,飯塚,サイタマケン,サイタマシイワツキク,イイヅカ,埼玉県さいたま市岩槻区飯塚
3390032,埼玉県,さいたま市岩槻区,南下新井,サイタマケン,サイタマシイワツキク,ミナミシモアライ,埼玉県さいたま市岩槻区南下新井
3390033,埼玉県,さいたま市岩槻区,黒谷,サイタマケン,サイタマシイワツキク,クロヤ,埼玉県さいたま市岩槻区黒谷
3390034,埼玉県,さいたま市岩槻区,笹久保,サイタマケン,サイタマシイワツキク,ササクボ,埼玉県さいたま市岩槻区笹久保
3390035,埼玉県,さいたま市岩槻区,笹久保新田,サイタマケン,サイタマシイワツキク,ササクボシンデン,埼玉県さいたま市岩槻区笹久保新田
3390036,埼玉県,さいたま市岩槻区,横根,サイタマケン,サイタマシイワツキク,ヨコネ,埼玉県さいたま市岩槻区横根
3390037,埼玉県,さいたま市岩槻区,浮谷,サイタマケン,サイタマシイワツキク,ウキヤ,埼玉県さいたま市岩槻区浮谷
3390041,埼玉県,さいたま市岩槻区,村国,サイタマケン,サイタマシイワツキク,ムラクニ,埼玉県さいたま市岩槻区村国
3390042,埼玉県,さいたま市岩槻区,府内,サイタマケン,サイタマシイワツキク,フナイ,埼玉県さいたま市岩槻区府内
3390043,埼玉県,さいたま市岩槻区,城南,サイタマケン,サイタマシイワツキク,ジョウナン,埼玉県さいたま市岩槻区城南
3390044,埼玉県,さいたま市岩槻区,真福寺,サイタマケン,サイタマシイワツキク,シンプクジ,埼玉県さいたま市岩槻区真福寺
3390045,埼玉県,さいたま市岩槻区,柏崎,サイタマケン,サイタマシイワツキク,カシワザキ,埼玉県さいたま市岩槻区柏崎
3390046,埼玉県,さいたま市岩槻区,谷下,サイタマケン,サイタマシイワツキク,ヤジタ,埼玉県さいたま市岩槻区谷下
3390047,埼玉県,さいたま市岩槻区,原町,サイタマケン,サイタマシイワツキク,ハラマチ,埼玉県さいたま市岩槻区原町
3390051,埼玉県,さいたま市岩槻区,南平野,サイタマケン,サイタマシイワツキク,ミナミヒラノ,埼玉県さいたま市岩槻区南平野
3390052,埼玉県,さいたま市岩槻区,太田,サイタマケン,サイタマシイワツキク,オオタ,埼玉県さいたま市岩槻区太田
3390053,埼玉県,さいたま市岩槻区,城町,サイタマケン,サイタマシイワツキク,シロマチ,埼玉県さいたま市岩槻区城町
3390054,埼玉県,さいたま市岩槻区,仲町,サイタマケン,サイタマシイワツキク,ナカチョウ,埼玉県さいたま市岩槻区仲町
3390055,埼玉県,さいたま市岩槻区,東町,サイタマケン,サイタマシイワツキク,ヒガシチョウ,埼玉県さいたま市岩槻区東町
3390056,埼玉県,さいたま市岩槻区,加倉,サイタマケン,サイタマシイワツキク,カクラ,埼玉県さいたま市岩槻区加倉
3390057,埼玉県,さいたま市岩槻区,本町,サイタマケン,サイタマシイワツキク,ホンチョウ,埼玉県さいたま市岩槻区本町
3390058,埼玉県,さいたま市岩槻区,本丸,サイタマケン,サイタマシイワツキク,ホンマル,埼玉県さいたま市岩槻区本丸
3390061,埼玉県,さいたま市岩槻区,岩槻,サイタマケン,サイタマシイワツキク,イワツキ,埼玉県さいたま市岩槻区岩槻
3390062,埼玉県,さいたま市岩槻区,南辻,サイタマケン,サイタマシイワツキク,ミナミツジ,埼玉県さいたま市岩槻区南辻
3390063,埼玉県,さいたま市岩槻区,美幸町,サイタマケン,サイタマシイワツキク,ミユキチョウ,埼玉県さいたま市岩槻区美幸町
3390064,埼玉県,さいたま市岩槻区,日の出町,サイタマケン,サイタマシイワツキク,ヒノデチョウ,埼玉県さいたま市岩槻区日の出町
3390065,埼玉県,さいたま市岩槻区,宮町,サイタマケン,サイタマシイワツキク,ミヤチョウ,埼玉県さいたま市岩槻区宮町
3390066,埼玉県,さいたま市岩槻区,愛宕町,サイタマケン,サイタマシイワツキク,アタゴチョウ,埼玉県さいたま市岩槻区愛宕町
3390067,埼玉県,さいたま市岩槻区,西町,サイタマケン,サイタマシイワツキク,ニシマチ,埼玉県さいたま市岩槻区西町
3390068,埼玉県,さいたま市岩槻区,並木,サイタマケン,サイタマシイワツキク,ナミキ,埼玉県さいたま市岩槻区並木
3390069,埼玉県,さいたま市岩槻区,箕輪,サイタマケン,サイタマシイワツキク,ミノワ,埼玉県さいたま市岩槻区箕輪
3390071,埼玉県,さいたま市岩槻区,相野原,サイタマケン,サイタマシイワツキク,アイノハラ,埼玉県さいたま市岩槻区相野原
3390072,埼玉県,さいたま市岩槻区,古ケ場,サイタマケン,サイタマシイワツキク,コカバ,埼玉県さいたま市岩槻区古ケ場
3390073,埼玉県,さいたま市岩槻区,上野,サイタマケン,サイタマシイワツキク,ウエノ,埼玉県さいたま市岩槻区上野
3390074,埼玉県,さいたま市岩槻区,本宿,サイタマケン,サイタマシイワツキク,ホンジュク,埼玉県さいたま市岩槻区本宿
3390075,埼玉県,さいたま市岩槻区,金重,サイタマケン,サイタマシイワツキク,カナシゲ,埼玉県さいたま市岩槻区金重
3390076,埼玉県,さいたま市岩槻区,平林寺,サイタマケン,サイタマシイワツキク,ヘイリンジ,埼玉県さいたま市岩槻区平林寺
3390077,埼玉県,さいたま市岩槻区,馬込,サイタマケン,サイタマシイワツキク,マゴメ,埼玉県さいたま市岩槻区馬込
3390078,埼玉県,さいたま市岩槻区,掛,サイタマケン,サイタマシイワツキク,カケ,埼玉県さいたま市岩槻区掛
3390081,埼玉県,さいたま市岩槻区,西原,サイタマケン,サイタマシイワツキク,ニシハラ,埼玉県さいたま市岩槻区西原
3390082,埼玉県,さいたま市岩槻区,西原台,サイタマケン,サイタマシイワツキク,ニシハラダイ,埼玉県さいたま市岩槻区西原台
3400000,埼玉県,草加市,,サイタマケン,ソウカシ,,埼玉県草加市
3400001,埼玉県,草加市,柿木町,サイタマケン,ソウカシ,カキノキチョウ,埼玉県草加市柿木町
3400002,埼玉県,草加市,青柳,サイタマケン,ソウカシ,アオヤギ,埼玉県草加市青柳
3400003,埼玉県,草加市,稲荷,サイタマケン,ソウカシ,イナリ,埼玉県草加市稲荷
3400004,埼玉県,草加市,弁天,サイタマケン,ソウカシ,ベンテン,埼玉県草加市弁天
3400005,埼玉県,草加市,中根,サイタマケン,ソウカシ,ナカネ,埼玉県草加市中根
3400006,埼玉県,草加市,八幡町,サイタマケン,ソウカシ,ヤハタチョウ,埼玉県草加市八幡町
3400007,埼玉県,草加市,青柳町,サイタマケン,ソウカシ,アオヤギチョウ,埼玉県草加市青柳町
3400011,埼玉県,草加市,栄町,サイタマケン,ソウカシ,サカエチョウ,埼玉県草加市栄町
3400012,埼玉県,草加市,神明,サイタマケン,ソウカシ,シンメイ,埼玉県草加市神明
3400013,埼玉県,草加市,松江,サイタマケン,ソウカシ,マツエ,埼玉県草加市松江
3400014,埼玉県,草加市,住吉,サイタマケン,ソウカシ,スミヨシ,埼玉県草加市住吉
3400015,埼玉県,草加市,高砂,サイタマケン,ソウカシ,タカサゴ,埼玉県草加市高砂
3400016,埼玉県,草加市,中央,サイタマケン,ソウカシ,チュウオウ,埼玉県草加市中央
3400017,埼玉県,草加市,吉町,サイタマケン,ソウカシ,ヨシチョウ,埼玉県草加市吉町
3400021,埼玉県,草加市,手代,サイタマケン,ソウカシ,テシロ,埼玉県草加市手代
3400022,埼玉県,草加市,瀬崎,サイタマケン,ソウカシ,セザキ,埼玉県草加市瀬崎
3400023,埼玉県,草加市,谷塚町,サイタマケン,ソウカシ,ヤツカチョウ,埼玉県草加市谷塚町
3400024,埼玉県,草加市,谷塚上町,サイタマケン,ソウカシ,ヤツカカミチョウ,埼玉県草加市谷塚上町
3400025,埼玉県,草加市,谷塚仲町,サイタマケン,ソウカシ,ヤツカナカチョウ,埼玉県草加市谷塚仲町
3400026,埼玉県,草加市,両新田東町,サイタマケン,ソウカシ,リョウシンデンヒガシチョウ,埼玉県草加市両新田東町
3400027,埼玉県,草加市,両新田西町,サイタマケン,ソウカシ,リョウシンデンニシチョウ,埼玉県草加市両新田西町
3400028,埼玉県,草加市,谷塚,サイタマケン,ソウカシ,ヤツカ,埼玉県草加市谷塚
3400031,埼玉県,草加市,新里町,サイタマケン,ソウカシ,ニッサトチョウ,埼玉県草加市新里町
3400032,埼玉県,草加市,遊馬町,サイタマケン,ソウカシ,アスマチョウ,埼玉県草加市遊馬町
3400033,埼玉県,草加市,柳島町,サイタマケン,ソウカシ,ヤナギシマチョウ,埼玉県草加市柳島町
3400034,埼玉県,草加市,氷川町,サイタマケン,ソウカシ,ヒカワチョウ,埼玉県草加市氷川町
3400035,埼玉県,草加市,西町,サイタマケン,ソウカシ,ニシチョウ,埼玉県草加市西町
3400036,埼玉県,草加市,苗塚町,サイタマケン,ソウカシ,ナエヅカチョウ,埼玉県草加市苗塚町
3400041,埼玉県,草加市,松原,サイタマケン,ソウカシ,マツバラ,埼玉県草加市松原
3400042,埼玉県,草加市,学園町,サイタマケン,ソウカシ,ガクエンチョウ,埼玉県草加市学園町
3400043,埼玉県,草加市,草加,サイタマケン,ソウカシ,ソウカ,埼玉県草加市草加
3400044,埼玉県,草加市,花栗,サイタマケン,ソウカシ,ハナグリ,埼玉県草加市花栗
3400045,埼玉県,草加市,小山,サイタマケン,ソウカシ,コヤマ,埼玉県草加市小山
3400046,埼玉県,草加市,北谷,サイタマケン,ソウカシ,キタヤ,埼玉県草加市北谷
3400047,埼玉県,草加市,北谷町,サイタマケン,ソウカシ,キタヤチョウ,埼玉県草加市北谷町
3400048,埼玉県,草加市,原町,サイタマケン,ソウカシ,ハラチョウ,埼玉県草加市原町
3400051,埼玉県,草加市,長栄,サイタマケン,ソウカシ,チョウエイ,埼玉県草加市長栄
3400052,埼玉県,草加市,金明町,サイタマケン,ソウカシ,キンメイチョウ,埼玉県草加市金明町
3400053,埼玉県,草加市,旭町,サイタマケン,ソウカシ,アサヒチョウ,埼玉県草加市旭町
3400054,埼玉県,草加市,新善町,サイタマケン,ソウカシ,シンゼンチョウ,埼玉県草加市新善町
3400055,埼玉県,草加市,清門,サイタマケン,ソウカシ,セイモン,埼玉県草加市清門
3400056,埼玉県,草加市,新栄,サイタマケン,ソウカシ,シンエイ,埼玉県草加市新栄
3400100,埼玉県,幸手市,,サイタマケン,サッテシ,,埼玉県幸手市
3400101,埼玉県,幸手市,外国府間,サイタマケン,サッテシ,ソトゴウマ,埼玉県幸手市外国府間
3400102,埼玉県,幸手市,高須賀,サイタマケン,サッテシ,タカスカ,埼玉県幸手市高須賀
3400103,埼玉県,幸手市,内国府間,サイタマケン,サッテシ,ウチゴウマ,埼玉県幸手市内国府間
3400104,埼玉県,幸手市,円藤内,サイタマケン,サッテシ,エンドウウチ,埼玉県幸手市円藤内
3400105,埼玉県,幸手市,松石,サイタマケン,サッテシ,マツイシ,埼玉県幸手市松石
3400111,埼玉県,幸手市,北,サイタマケン,サッテシ,キタ,埼玉県幸手市北
3400112,埼玉県,幸手市,権現堂,サイタマケン,サッテシ,ゴンゲンドウ,埼玉県幸手市権現堂
3400113,埼玉県,幸手市,幸手,サイタマケン,サッテシ,サッテ,埼玉県幸手市幸手
3400114,埼玉県,幸手市,東,サイタマケン,サッテシ,ヒガシ,埼玉県幸手市東
3400115,埼玉県,幸手市,中,サイタマケン,サッテシ,ナカ,埼玉県幸手市中
3400116,埼玉県,幸手市,西,サイタマケン,サッテシ,ニシ,埼玉県幸手市西
3400121,埼玉県,幸手市,上吉羽,サイタマケン,サッテシ,カミヨシバ,埼玉県幸手市上吉羽
3400122,埼玉県,幸手市,神明内,サイタマケン,サッテシ,シンメイウチ,埼玉県幸手市神明内
3400123,埼玉県,幸手市,木立,サイタマケン,サッテシ,キダチ,埼玉県幸手市木立
3400124,埼玉県,幸手市,上宇和田,サイタマケン,サッテシ,カミウワダ,埼玉県幸手市上宇和田
3400125,埼玉県,幸手市,下宇和田,サイタマケン,サッテシ,シモウワダ,埼玉県幸手市下宇和田
3400126,埼玉県,幸手市,下吉羽,サイタマケン,サッテシ,シモヨシバ,埼玉県幸手市下吉羽
3400131,埼玉県,幸手市,西関宿,サイタマケン,サッテシ,ニシセキヤド,埼玉県幸手市西関宿
3400132,埼玉県,幸手市,中島,サイタマケン,サッテシ,ナカジマ,埼玉県幸手市中島
3400133,埼玉県,幸手市,惣新田,サイタマケン,サッテシ,ソウシンデン,埼玉県幸手市惣新田
3400134,埼玉県,幸手市,花島,サイタマケン,サッテシ,ハナジマ,埼玉県幸手市花島
3400135,埼玉県,幸手市,槇野地,サイタマケン,サッテシ,マキノジ,埼玉県幸手市槇野地
3400136,埼玉県,幸手市,細野,サイタマケン,サッテシ,ホソノ,埼玉県幸手市細野
3400141,埼玉県,幸手市,平野,サイタマケン,サッテシ,ヒラノ,埼玉県幸手市平野
3400142,埼玉県,幸手市,中野,サイタマケン,サッテシ,ナカノ,埼玉県幸手市中野
3400143,埼玉県,幸手市,長間,サイタマケン,サッテシ,ナガマ,埼玉県幸手市長間
3400144,埼玉県,幸手市,戸島,サイタマケン,サッテシ,トシマ,埼玉県幸手市戸島
3400145,埼玉県,幸手市,平須賀,サイタマケン,サッテシ,ヒラスカ,埼玉県幸手市平須賀
3400146,埼玉県,幸手市,神扇,サイタマケン,サッテシ,カミオウギ,埼玉県幸手市神扇
3400151,埼玉県,幸手市,緑台,サイタマケン,サッテシ,ミドリダイ,埼玉県幸手市緑台
3400152,埼玉県,幸手市,天神島,サイタマケン,サッテシ,テンジンシマ,埼玉県幸手市天神島
3400153,埼玉県,幸手市,吉野,サイタマケン,サッテシ,ヨシノ,埼玉県幸手市吉野
3400154,埼玉県,幸手市,栄,サイタマケン,サッテシ,サカエ,埼玉県幸手市栄
3400155,埼玉県,幸手市,上高野,サイタマケン,サッテシ,カミタカノ,埼玉県幸手市上高野
3400156,埼玉県,幸手市,南,サイタマケン,サッテシ,ミナミ,埼玉県幸手市南
3400161,埼玉県,幸手市,千塚,サイタマケン,サッテシ,チヅカ,埼玉県幸手市千塚
3400162,埼玉県,幸手市,下川崎,サイタマケン,サッテシ,シモカワサキ,埼玉県幸手市下川崎
3400163,埼玉県,幸手市,中川崎,サイタマケン,サッテシ,ナカカワサキ,埼玉県幸手市中川崎
3400164,埼玉県,幸手市,香日向,サイタマケン,サッテシ,カヒナタ,埼玉県幸手市香日向
3400201,埼玉県,久喜市,八甫,サイタマケン,クキシ,ハッポウ,埼玉県久喜市八甫
3400202,埼玉県,久喜市,東大輪,サイタマケン,クキシ,ヒガシオオワ,埼玉県久喜市東大輪
3400203,埼玉県,久喜市,桜田,サイタマケン,クキシ,サクラダ,埼玉県久喜市桜田
3400204,埼玉県,久喜市,上川崎,サイタマケン,クキシ,カミカワサキ,埼玉県久喜市上川崎
3400205,埼玉県,久喜市,外野,サイタマケン,クキシ,ソトノ,埼玉県久喜市外野
3400206,埼玉県,久喜市,西大輪,サイタマケン,クキシ,ニシオオワ,埼玉県久喜市西大輪
3400211,埼玉県,久喜市,上内,サイタマケン,クキシ,ウエウチ,埼玉県久喜市上内
3400212,埼玉県,久喜市,久本寺,サイタマケン,クキシ,キュウホンジ,埼玉県久喜市久本寺
3400213,埼玉県,久喜市,中妻,サイタマケン,クキシ,ナカヅマ,埼玉県久喜市中妻
3400214,埼玉県,久喜市,葛梅,サイタマケン,クキシ,クズメ,埼玉県久喜市葛梅
3400215,埼玉県,久喜市,栄,サイタマケン,クキシ,サカエ,埼玉県久喜市栄
3400216,埼玉県,久喜市,鷲宮中央,サイタマケン,クキシ,ワシノミヤチュウオウ,埼玉県久喜市鷲宮中央
3400217,埼玉県,久喜市,鷲宮,サイタマケン,クキシ,ワシノミヤ,埼玉県久喜市鷲宮
3400218,埼玉県,久喜市,砂原,サイタマケン,クキシ,スナハラ,埼玉県久喜市砂原
3400800,埼玉県,八潮市,,サイタマケン,ヤシオシ,,埼玉県八潮市
3400801,埼玉県,八潮市,八條,サイタマケン,ヤシオシ,ハチジョウ,埼玉県八潮市八條
3400802,埼玉県,八潮市,鶴ケ曽根,サイタマケン,ヤシオシ,ツルガソネ,埼玉県八潮市鶴ケ曽根
3400803,埼玉県,八潮市,上馬場,サイタマケン,ヤシオシ,カミバンバ,埼玉県八潮市上馬場
3400804,埼玉県,八潮市,小作田,サイタマケン,ヤシオシ,コサクダ,埼玉県八潮市小作田
3400805,埼玉県,八潮市,松之木,サイタマケン,ヤシオシ,マツノキ,埼玉県八潮市松之木
3400806,埼玉県,八潮市,伊草,サイタマケン,ヤシオシ,イグサ,埼玉県八潮市伊草
3400807,埼玉県,八潮市,新町,サイタマケン,ヤシオシ,シンマチ,埼玉県八潮市新町
3400808,埼玉県,八潮市,緑町,サイタマケン,ヤシオシ,ミドリチョウ,埼玉県八潮市緑町
3400811,埼玉県,八潮市,二丁目,サイタマケン,ヤシオシ,ニチョウメ,埼玉県八潮市2
3400812,埼玉県,八潮市,中馬場,サイタマケン,ヤシオシ,ナカバンバ,埼玉県八潮市中馬場
3400813,埼玉県,八潮市,木曽根,サイタマケン,ヤシオシ,キゾネ,埼玉県八潮市木曽根
3400814,埼玉県,八潮市,南川崎,サイタマケン,ヤシオシ,ミナミカワサキ,埼玉県八潮市南川崎
3400815,埼玉県,八潮市,八潮,サイタマケン,ヤシオシ,ヤシオ,埼玉県八潮市八潮
3400816,埼玉県,八潮市,中央,サイタマケン,ヤシオシ,チュウオウ,埼玉県八潮市中央
3400821,埼玉県,八潮市,伊勢野,サイタマケン,ヤシオシ,イセノ,埼玉県八潮市伊勢野
3400822,埼玉県,八潮市,大瀬,サイタマケン,ヤシオシ,オオゼ,埼玉県八潮市大瀬
3400823,埼玉県,八潮市,古新田,サイタマケン,ヤシオシ,コシンデン,埼玉県八潮市古新田
3400824,埼玉県,八潮市,垳,サイタマケン,ヤシオシ,ガケ,埼玉県八潮市垳
3400825,埼玉県,八潮市,大原,サイタマケン,ヤシオシ,ダイバラ,埼玉県八潮市大原
3400826,埼玉県,八潮市,茜町,サイタマケン,ヤシオシ,アカネチョウ,埼玉県八潮市茜町
3400831,埼玉県,八潮市,南後谷,サイタマケン,ヤシオシ,ミナミウシロヤ,埼玉県八潮市南後谷
3400832,埼玉県,八潮市,柳之宮,サイタマケン,ヤシオシ,ヤナギノミヤ,埼玉県八潮市柳之宮
3400833,埼玉県,八潮市,西袋,サイタマケン,ヤシオシ,ニシブクロ,埼玉県八潮市西袋
3400834,埼玉県,八潮市,大曽根,サイタマケン,ヤシオシ,オオソネ,埼玉県八潮市大曽根
3400835,埼玉県,八潮市,浮塚,サイタマケン,ヤシオシ,ウキヅカ,埼玉県八潮市浮塚
3410000,埼玉県,三郷市,,サイタマケン,ミサトシ,,埼玉県三郷市
3410001,埼玉県,三郷市,彦糸,サイタマケン,ミサトシ,ヒコイト,埼玉県三郷市彦糸
3410002,埼玉県,三郷市,彦音,サイタマケン,ミサトシ,ヒコオト,埼玉県三郷市彦音
3410003,埼玉県,三郷市,彦成,サイタマケン,ミサトシ,ヒコナリ,埼玉県三郷市彦成
3410004,埼玉県,三郷市,上彦名,サイタマケン,ミサトシ,カミヒコナ,埼玉県三郷市上彦名
3410005,埼玉県,三郷市,彦川戸,サイタマケン,ミサトシ,ヒコカワド,埼玉県三郷市彦川戸
3410006,埼玉県,三郷市,上彦川戸,サイタマケン,ミサトシ,カミヒコカワド,埼玉県三郷市上彦川戸
3410007,埼玉県,三郷市,下彦川戸,サイタマケン,ミサトシ,シモヒコカワド,埼玉県三郷市下彦川戸
3410008,埼玉県,三郷市,駒形,サイタマケン,ミサトシ,コマガタ,埼玉県三郷市駒形
3410009,埼玉県,三郷市,新三郷ららシティ,サイタマケン,ミサトシ,シンミサトララシティ,埼玉県三郷市新三郷ららシティ
3410011,埼玉県,三郷市,采女,サイタマケン,ミサトシ,ウネメ,埼玉県三郷市采女
3410012,埼玉県,三郷市,半田,サイタマケン,ミサトシ,ハンタ,埼玉県三郷市半田
3410013,埼玉県,三郷市,小谷堀,サイタマケン,ミサトシ,コヤボリ,埼玉県三郷市小谷堀
3410014,埼玉県,三郷市,後谷,サイタマケン,ミサトシ,ウシロヤ,埼玉県三郷市後谷
3410015,埼玉県,三郷市,前間,サイタマケン,ミサトシ,ゼンマ,埼玉県三郷市前間
3410016,埼玉県,三郷市,田中新田,サイタマケン,ミサトシ,タナカシンデン,埼玉県三郷市田中新田
3410017,埼玉県,三郷市,丹後,サイタマケン,ミサトシ,タンゴ,埼玉県三郷市丹後
3410018,埼玉県,三郷市,早稲田,サイタマケン,ミサトシ,ワセダ,埼玉県三郷市早稲田
3410021,埼玉県,三郷市,さつき平,サイタマケン,ミサトシ,サツキダイラ,埼玉県三郷市さつき平
3410022,埼玉県,三郷市,大広戸,サイタマケン,ミサトシ,オオヒロト,埼玉県三郷市大広戸
3410023,埼玉県,三郷市,仁蔵,サイタマケン,ミサトシ,ニゾウ,埼玉県三郷市仁蔵
3410024,埼玉県,三郷市,三郷,サイタマケン,ミサトシ,ミサト,埼玉県三郷市三郷
3410025,埼玉県,三郷市,茂田井,サイタマケン,ミサトシ,モタイ,埼玉県三郷市茂田井
3410026,埼玉県,三郷市,幸房,サイタマケン,ミサトシ,コウボウ,埼玉県三郷市幸房
3410027,埼玉県,三郷市,笹塚,サイタマケン,ミサトシ,ササヅカ,埼玉県三郷市笹塚
3410028,埼玉県,三郷市,南蓮沼,サイタマケン,ミサトシ,ミナミハスヌマ,埼玉県三郷市南蓮沼
3410031,埼玉県,三郷市,岩野木,サイタマケン,ミサトシ,イワノキ,埼玉県三郷市岩野木
3410032,埼玉県,三郷市,谷中,サイタマケン,ミサトシ,ヤナカ,埼玉県三郷市谷中
3410033,埼玉県,三郷市,市助,サイタマケン,ミサトシ,イチスケ,埼玉県三郷市市助
3410034,埼玉県,三郷市,新和,サイタマケン,ミサトシ,シンワ,埼玉県三郷市新和
3410035,埼玉県,三郷市,鷹野,サイタマケン,ミサトシ,タカノ,埼玉県三郷市鷹野
3410036,埼玉県,三郷市,東町,サイタマケン,ミサトシ,アズマチョウ,埼玉県三郷市東町
3410037,埼玉県,三郷市,高州,サイタマケン,ミサトシ,タカス,埼玉県三郷市高州
3410038,埼玉県,三郷市,中央,サイタマケン,ミサトシ,チュウオウ,埼玉県三郷市中央
3410041,埼玉県,三郷市,花和田,サイタマケン,ミサトシ,ハナワダ,埼玉県三郷市花和田
3410042,埼玉県,三郷市,谷口,サイタマケン,ミサトシ,ヤグチ,埼玉県三郷市谷口
3410043,埼玉県,三郷市,栄,サイタマケン,ミサトシ,サカエ,埼玉県三郷市栄
3410044,埼玉県,三郷市,戸ケ崎,サイタマケン,ミサトシ,トガサキ,埼玉県三郷市戸ケ崎
3410045,埼玉県,三郷市,寄巻,サイタマケン,ミサトシ,ヨマキ,埼玉県三郷市寄巻
3410046,埼玉県,三郷市,鎌倉,サイタマケン,ミサトシ,カマクラ,埼玉県三郷市鎌倉
3410050,埼玉県,三郷市,ピアラシティ,サイタマケン,ミサトシ,ピアラシティ,埼玉県三郷市ピアラシティ
3410051,埼玉県,三郷市,天神,サイタマケン,ミサトシ,テンジン,埼玉県三郷市天神
3410052,埼玉県,三郷市,彦野,サイタマケン,ミサトシ,ヒコノ,埼玉県三郷市彦野
3410053,埼玉県,三郷市,彦倉,サイタマケン,ミサトシ,ヒコクラ,埼玉県三郷市彦倉
3410054,埼玉県,三郷市,泉,サイタマケン,ミサトシ,イズミ,埼玉県三郷市泉
3410055,埼玉県,三郷市,上口,サイタマケン,ミサトシ,カミグチ,埼玉県三郷市上口
3410056,埼玉県,三郷市,番匠免,サイタマケン,ミサトシ,バンショウメン,埼玉県三郷市番匠免
3410057,埼玉県,三郷市,彦沢,サイタマケン,ミサトシ,ヒコサワ,埼玉県三郷市彦沢
3410058,埼玉県,三郷市,彦江,サイタマケン,ミサトシ,ヒコエ,埼玉県三郷市彦江
3410059,埼玉県,三郷市,インター南,サイタマケン,ミサトシ,インターミナミ,埼玉県三郷市インター南
3420000,埼玉県,吉川市,,サイタマケン,ヨシカワシ,,埼玉県吉川市
3420001,埼玉県,吉川市,上内川,サイタマケン,ヨシカワシ,カミウチカワ,埼玉県吉川市上内川
3420002,埼玉県,吉川市,下内川,サイタマケン,ヨシカワシ,シモウチカワ,埼玉県吉川市下内川
3420003,埼玉県,吉川市,八子新田,サイタマケン,ヨシカワシ,ハチコシンデン,埼玉県吉川市八子新田
3420004,埼玉県,吉川市,鍋小路,サイタマケン,ヨシカワシ,ナベコウジ,埼玉県吉川市鍋小路
3420005,埼玉県,吉川市,川藤,サイタマケン,ヨシカワシ,カワフジ,埼玉県吉川市川藤
3420006,埼玉県,吉川市,南広島,サイタマケン,ヨシカワシ,ミナミヒロシマ,埼玉県吉川市南広島
3420007,埼玉県,吉川市,拾壱軒,サイタマケン,ヨシカワシ,ジュウイッケン,埼玉県吉川市拾壱軒
3420008,埼玉県,吉川市,旭,サイタマケン,ヨシカワシ,アサヒ,埼玉県吉川市旭
3420011,埼玉県,吉川市,深井新田,サイタマケン,ヨシカワシ,フカイシンデン,埼玉県吉川市深井新田
3420012,埼玉県,吉川市,平方新田,サイタマケン,ヨシカワシ,ヒラカタシンデン,埼玉県吉川市平方新田
3420013,埼玉県,吉川市,吉屋,サイタマケン,ヨシカワシ,ヨシヤ,埼玉県吉川市吉屋
3420014,埼玉県,吉川市,関新田,サイタマケン,ヨシカワシ,セキシンデン,埼玉県吉川市関新田
3420015,埼玉県,吉川市,中井,サイタマケン,ヨシカワシ,ナカイ,埼玉県吉川市中井
3420016,埼玉県,吉川市,会野谷,サイタマケン,ヨシカワシ,アイノヤ,埼玉県吉川市会野谷
3420017,埼玉県,吉川市,上笹塚,サイタマケン,ヨシカワシ,カミササヅカ,埼玉県吉川市上笹塚
3420021,埼玉県,吉川市,鹿見塚,サイタマケン,ヨシカワシ,シシミヅカ,埼玉県吉川市鹿見塚
3420022,埼玉県,吉川市,加藤,サイタマケン,ヨシカワシ,カトウ,埼玉県吉川市加藤
3420023,埼玉県,吉川市,皿沼,サイタマケン,ヨシカワシ,サラヌマ,埼玉県吉川市皿沼
3420024,埼玉県,吉川市,半割,サイタマケン,ヨシカワシ,ハンワリ,埼玉県吉川市半割
3420025,埼玉県,吉川市,飯島,サイタマケン,ヨシカワシ,イイジマ,埼玉県吉川市飯島
3420026,埼玉県,吉川市,土場,サイタマケン,ヨシカワシ,ドジョウ,埼玉県吉川市土場
3420027,埼玉県,吉川市,三輪野江,サイタマケン,ヨシカワシ,ミワノエ,埼玉県吉川市三輪野江
3420031,埼玉県,吉川市,中島,サイタマケン,ヨシカワシ,ナカジマ,埼玉県吉川市中島
3420032,埼玉県,吉川市,二ツ沼,サイタマケン,ヨシカワシ,フタツヌマ,埼玉県吉川市二ツ沼
3420033,埼玉県,吉川市,中曽根,サイタマケン,ヨシカワシ,ナカゾネ,埼玉県吉川市中曽根
3420034,埼玉県,吉川市,道庭,サイタマケン,ヨシカワシ,ドウニワ,埼玉県吉川市道庭
3420035,埼玉県,吉川市,高久,サイタマケン,ヨシカワシ,タカヒサ,埼玉県吉川市高久
3420036,埼玉県,吉川市,高富,サイタマケン,ヨシカワシ,タカドミ,埼玉県吉川市高富
3420037,埼玉県,吉川市,富新田,サイタマケン,ヨシカワシ,トミシンデン,埼玉県吉川市富新田
3420038,埼玉県,吉川市,美南,サイタマケン,ヨシカワシ,ミナミ,埼玉県吉川市美南
3420041,埼玉県,吉川市,保,サイタマケン,ヨシカワシ,ホ,埼玉県吉川市保
3420042,埼玉県,吉川市,中野,サイタマケン,ヨシカワシ,ナカノ,埼玉県吉川市中野
3420043,埼玉県,吉川市,小松川,サイタマケン,ヨシカワシ,コマツガワ,埼玉県吉川市小松川
3420044,埼玉県,吉川市,木売新田,サイタマケン,ヨシカワシ,キウリシンデン,埼玉県吉川市木売新田
3420045,埼玉県,吉川市,木売,サイタマケン,ヨシカワシ,キウリ,埼玉県吉川市木売
3420046,埼玉県,吉川市,共保,サイタマケン,ヨシカワシ,キョウホ,埼玉県吉川市共保
3420047,埼玉県,吉川市,中川台,サイタマケン,ヨシカワシ,ナカガワダイ,埼玉県吉川市中川台
3420050,埼玉県,吉川市,栄町,サイタマケン,ヨシカワシ,サカエチョウ,埼玉県吉川市栄町
3420051,埼玉県,吉川市,川野,サイタマケン,ヨシカワシ,カワノ,埼玉県吉川市川野
3420052,埼玉県,吉川市,川富,サイタマケン,ヨシカワシ,カワドミ,埼玉県吉川市川富
3420053,埼玉県,吉川市,関,サイタマケン,ヨシカワシ,セキ,埼玉県吉川市関
3420054,埼玉県,吉川市,吉川団地,サイタマケン,ヨシカワシ,ヨシカワダンチ,埼玉県吉川市吉川団地
3420055,埼玉県,吉川市,吉川,サイタマケン,ヨシカワシ,ヨシカワ,埼玉県吉川市吉川
3420056,埼玉県,吉川市,平沼,サイタマケン,ヨシカワシ,ヒラヌマ,埼玉県吉川市平沼
3420057,埼玉県,吉川市,須賀,サイタマケン,ヨシカワシ,スカ,埼玉県吉川市須賀
3420058,埼玉県,吉川市,きよみ野,サイタマケン,ヨシカワシ,キヨミノ,埼玉県吉川市きよみ野
3420059,埼玉県,吉川市,新栄,サイタマケン,ヨシカワシ,シンエイ,埼玉県吉川市新栄
3420061,埼玉県,吉川市,中央,サイタマケン,ヨシカワシ,チュウオウ,埼玉県吉川市中央
3430000,埼玉県,越谷市,,サイタマケン,コシガヤシ,,埼玉県越谷市
3430001,埼玉県,越谷市,平方南町,サイタマケン,コシガヤシ,ヒラカタミナミチョウ,埼玉県越谷市平方南町
3430002,埼玉県,越谷市,平方,サイタマケン,コシガヤシ,ヒラカタ,埼玉県越谷市平方
3430003,埼玉県,越谷市,船渡,サイタマケン,コシガヤシ,フナト,埼玉県越谷市船渡
3430004,埼玉県,越谷市,大松,サイタマケン,コシガヤシ,オオマツ,埼玉県越谷市大松
3430005,埼玉県,越谷市,大杉,サイタマケン,コシガヤシ,オオスギ,埼玉県越谷市大杉
3430006,埼玉県,越谷市,北川崎,サイタマケン,コシガヤシ,キタカワサキ,埼玉県越谷市北川崎
3430007,埼玉県,越谷市,向畑,サイタマケン,コシガヤシ,ムコウバタケ,埼玉県越谷市向畑
3430008,埼玉県,越谷市,大吉,サイタマケン,コシガヤシ,オオヨシ,埼玉県越谷市大吉
3430011,埼玉県,越谷市,増林,サイタマケン,コシガヤシ,マシバヤシ,埼玉県越谷市増林
3430012,埼玉県,越谷市,増森,サイタマケン,コシガヤシ,マシモリ,埼玉県越谷市増森
3430013,埼玉県,越谷市,中島,サイタマケン,コシガヤシ,ナカジマ,埼玉県越谷市中島
3430014,埼玉県,越谷市,宮前,サイタマケン,コシガヤシ,ミヤマエ,埼玉県越谷市宮前
3430015,埼玉県,越谷市,花田,サイタマケン,コシガヤシ,ハナタ,埼玉県越谷市花田
3430021,埼玉県,越谷市,大林,サイタマケン,コシガヤシ,オオバヤシ,埼玉県越谷市大林
3430022,埼玉県,越谷市,東大沢,サイタマケン,コシガヤシ,ヒガシオオサワ,埼玉県越谷市東大沢
3430023,埼玉県,越谷市,東越谷,サイタマケン,コシガヤシ,ヒガシコシガヤ,埼玉県越谷市東越谷
3430024,埼玉県,越谷市,越ケ谷（番地）,サイタマケン,コシガヤシ,コシガヤ(バンチ),埼玉県越谷市越ケ谷（番地）
3430025,埼玉県,越谷市,大沢,サイタマケン,コシガヤシ,オオサワ,埼玉県越谷市大沢
3430026,埼玉県,越谷市,北越谷,サイタマケン,コシガヤシ,キタコシガヤ,埼玉県越谷市北越谷
3430027,埼玉県,越谷市,大房,サイタマケン,コシガヤシ,オオフサ,埼玉県越谷市大房
3430031,埼玉県,越谷市,大里,サイタマケン,コシガヤシ,オオザト,埼玉県越谷市大里
3430032,埼玉県,越谷市,袋山,サイタマケン,コシガヤシ,フクロヤマ,埼玉県越谷市袋山
3430033,埼玉県,越谷市,恩間,サイタマケン,コシガヤシ,オンマ,埼玉県越谷市恩間
3430034,埼玉県,越谷市,大竹,サイタマケン,コシガヤシ,オオタケ,埼玉県越谷市大竹
3430035,埼玉県,越谷市,大道,サイタマケン,コシガヤシ,オオミチ,埼玉県越谷市大道
3430036,埼玉県,越谷市,三野宮,サイタマケン,コシガヤシ,サンノミヤ,埼玉県越谷市三野宮
3430037,埼玉県,越谷市,恩間新田,サイタマケン,コシガヤシ,オンマシンデン,埼玉県越谷市恩間新田
3430041,埼玉県,越谷市,千間台西,サイタマケン,コシガヤシ,センゲンダイニシ,埼玉県越谷市千間台西
3430042,埼玉県,越谷市,千間台東,サイタマケン,コシガヤシ,センゲンダイヒガシ,埼玉県越谷市千間台東
3430043,埼玉県,越谷市,上間久里,サイタマケン,コシガヤシ,カミマクリ,埼玉県越谷市上間久里
3430044,埼玉県,越谷市,大泊,サイタマケン,コシガヤシ,オオドマリ,埼玉県越谷市大泊
3430045,埼玉県,越谷市,下間久里,サイタマケン,コシガヤシ,シモマクリ,埼玉県越谷市下間久里
3430046,埼玉県,越谷市,弥栄町,サイタマケン,コシガヤシ,ヤサカチョウ,埼玉県越谷市弥栄町
3430047,埼玉県,越谷市,弥十郎,サイタマケン,コシガヤシ,ヤジュウロウ,埼玉県越谷市弥十郎
3430100,埼玉県,北葛飾郡松伏町,,サイタマケン,キタカツシカグンマツブシマチ,,埼玉県北葛飾郡松伏町
3430101,埼玉県,北葛飾郡松伏町,魚沼,サイタマケン,キタカツシカグンマツブシマチ,ウオヌマ,埼玉県北葛飾郡松伏町魚沼
3430102,埼玉県,北葛飾郡松伏町,築比地,サイタマケン,キタカツシカグンマツブシマチ,ツキヒジ,埼玉県北葛飾郡松伏町築比地
3430103,埼玉県,北葛飾郡松伏町,金杉,サイタマケン,キタカツシカグンマツブシマチ,カナスギ,埼玉県北葛飾郡松伏町金杉
3430104,埼玉県,北葛飾郡松伏町,田島東,サイタマケン,キタカツシカグンマツブシマチ,タジマヒガシ,埼玉県北葛飾郡松伏町田島東
3430105,埼玉県,北葛飾郡松伏町,田島,サイタマケン,キタカツシカグンマツブシマチ,タジマ,埼玉県北葛飾郡松伏町田島
3430106,埼玉県,北葛飾郡松伏町,大川戸,サイタマケン,キタカツシカグンマツブシマチ,オオカワド,埼玉県北葛飾郡松伏町大川戸
3430107,埼玉県,北葛飾郡松伏町,田島南,サイタマケン,キタカツシカグンマツブシマチ,タジマミナミ,埼玉県北葛飾郡松伏町田島南
3430111,埼玉県,北葛飾郡松伏町,松伏,サイタマケン,キタカツシカグンマツブシマチ,マツブシ,埼玉県北葛飾郡松伏町松伏
3430112,埼玉県,北葛飾郡松伏町,松葉,サイタマケン,キタカツシカグンマツブシマチ,マツバ,埼玉県北葛飾郡松伏町松葉
3430113,埼玉県,北葛飾郡松伏町,ゆめみ野,サイタマケン,キタカツシカグンマツブシマチ,ユメミノ,埼玉県北葛飾郡松伏町ゆめみ野
3430114,埼玉県,北葛飾郡松伏町,ゆめみ野東,サイタマケン,キタカツシカグンマツブシマチ,ユメミノヒガシ,埼玉県北葛飾郡松伏町ゆめみ野東
3430115,埼玉県,北葛飾郡松伏町,上赤岩,サイタマケン,キタカツシカグンマツブシマチ,カミアカイワ,埼玉県北葛飾郡松伏町上赤岩
3430116,埼玉県,北葛飾郡松伏町,下赤岩,サイタマケン,キタカツシカグンマツブシマチ,シモアカイワ,埼玉県北葛飾郡松伏町下赤岩
3430117,埼玉県,北葛飾郡松伏町,田中,サイタマケン,キタカツシカグンマツブシマチ,タナカ,埼玉県北葛飾郡松伏町田中
3430801,埼玉県,越谷市,野島,サイタマケン,コシガヤシ,ノジマ,埼玉県越谷市野島
3430802,埼玉県,越谷市,小曽川,サイタマケン,コシガヤシ,オソガワ,埼玉県越谷市小曽川
3430803,埼玉県,越谷市,砂原,サイタマケン,コシガヤシ,スナハラ,埼玉県越谷市砂原
3430804,埼玉県,越谷市,南荻島,サイタマケン,コシガヤシ,ミナミオギシマ,埼玉県越谷市南荻島
3430805,埼玉県,越谷市,神明町,サイタマケン,コシガヤシ,シンメイチョウ,埼玉県越谷市神明町
3430806,埼玉県,越谷市,宮本町,サイタマケン,コシガヤシ,ミヤモトチョウ,埼玉県越谷市宮本町
3430807,埼玉県,越谷市,赤山町,サイタマケン,コシガヤシ,アカヤマチョウ,埼玉県越谷市赤山町
3430808,埼玉県,越谷市,赤山本町,サイタマケン,コシガヤシ,アカヤマホンチョウ,埼玉県越谷市赤山本町
3430811,埼玉県,越谷市,御殿町,サイタマケン,コシガヤシ,ゴテンチョウ,埼玉県越谷市御殿町
3430812,埼玉県,越谷市,柳町,サイタマケン,コシガヤシ,ヤナギチョウ,埼玉県越谷市柳町
3430813,埼玉県,越谷市,越ケ谷（丁目）,サイタマケン,コシガヤシ,コシガヤ(チョウメ),埼玉県越谷市越ケ谷（丁目）
3430814,埼玉県,越谷市,東柳田町,サイタマケン,コシガヤシ,ヒガシヤナギダチョウ,埼玉県越谷市東柳田町
3430815,埼玉県,越谷市,元柳田町,サイタマケン,コシガヤシ,モトヤナギダチョウ,埼玉県越谷市元柳田町
3430816,埼玉県,越谷市,弥生町,サイタマケン,コシガヤシ,ヤヨイチョウ,埼玉県越谷市弥生町
3430817,埼玉県,越谷市,中町,サイタマケン,コシガヤシ,ナカマチ,埼玉県越谷市中町
3430818,埼玉県,越谷市,越ケ谷本町,サイタマケン,コシガヤシ,コシガヤホンチョウ,埼玉県越谷市越ケ谷本町
3430821,埼玉県,越谷市,瓦曽根,サイタマケン,コシガヤシ,カワラゾネ,埼玉県越谷市瓦曽根
3430822,埼玉県,越谷市,西方,サイタマケン,コシガヤシ,ニシカタ,埼玉県越谷市西方
3430823,埼玉県,越谷市,相模町,サイタマケン,コシガヤシ,サガミチョウ,埼玉県越谷市相模町
3430824,埼玉県,越谷市,流通団地,サイタマケン,コシガヤシ,リュウツウダンチ,埼玉県越谷市流通団地
3430825,埼玉県,越谷市,大成町,サイタマケン,コシガヤシ,タイセイチョウ,埼玉県越谷市大成町
3430826,埼玉県,越谷市,東町,サイタマケン,コシガヤシ,アズマチョウ,埼玉県越谷市東町
3430827,埼玉県,越谷市,川柳町,サイタマケン,コシガヤシ,カワヤナギチョウ,埼玉県越谷市川柳町
3430828,埼玉県,越谷市,レイクタウン,サイタマケン,コシガヤシ,レイクタウン,埼玉県越谷市レイクタウン
3430831,埼玉県,越谷市,伊原,サイタマケン,コシガヤシ,イハラ,埼玉県越谷市伊原
3430832,埼玉県,越谷市,南町,サイタマケン,コシガヤシ,ミナミチョウ,埼玉県越谷市南町
3430833,埼玉県,越谷市,蒲生南町,サイタマケン,コシガヤシ,ガモウミナミチョウ,埼玉県越谷市蒲生南町
3430834,埼玉県,越谷市,蒲生愛宕町,サイタマケン,コシガヤシ,ガモウアタゴチョウ,埼玉県越谷市蒲生愛宕町
3430835,埼玉県,越谷市,蒲生西町,サイタマケン,コシガヤシ,ガモウニシマチ,埼玉県越谷市蒲生西町
3430836,埼玉県,越谷市,蒲生寿町,サイタマケン,コシガヤシ,ガモウコトブキチョウ,埼玉県越谷市蒲生寿町
3430837,埼玉県,越谷市,蒲生本町,サイタマケン,コシガヤシ,ガモウホンチョウ,埼玉県越谷市蒲生本町
3430838,埼玉県,越谷市,蒲生,サイタマケン,コシガヤシ,ガモウ,埼玉県越谷市蒲生
3430841,埼玉県,越谷市,蒲生東町,サイタマケン,コシガヤシ,ガモウヒガシチョウ,埼玉県越谷市蒲生東町
3430842,埼玉県,越谷市,蒲生旭町,サイタマケン,コシガヤシ,ガモウアサヒチョウ,埼玉県越谷市蒲生旭町
3430843,埼玉県,越谷市,蒲生茜町,サイタマケン,コシガヤシ,ガモウアカネチョウ,埼玉県越谷市蒲生茜町
3430844,埼玉県,越谷市,大間野町,サイタマケン,コシガヤシ,オオマノチョウ,埼玉県越谷市大間野町
3430845,埼玉県,越谷市,南越谷,サイタマケン,コシガヤシ,ミナミコシガヤ,埼玉県越谷市南越谷
3430846,埼玉県,越谷市,登戸町,サイタマケン,コシガヤシ,ノボリトチョウ,埼玉県越谷市登戸町
3430851,埼玉県,越谷市,七左町,サイタマケン,コシガヤシ,シチザチョウ,埼玉県越谷市七左町
3430852,埼玉県,越谷市,新川町,サイタマケン,コシガヤシ,シンカワチョウ,埼玉県越谷市新川町
3430853,埼玉県,越谷市,長島,サイタマケン,コシガヤシ,ナガシマ,埼玉県越谷市長島
3430854,埼玉県,越谷市,北後谷,サイタマケン,コシガヤシ,キタウシロヤ,埼玉県越谷市北後谷
3430855,埼玉県,越谷市,西新井,サイタマケン,コシガヤシ,ニシアライ,埼玉県越谷市西新井
3430856,埼玉県,越谷市,谷中町,サイタマケン,コシガヤシ,ヤナカチョウ,埼玉県越谷市谷中町
3430857,埼玉県,越谷市,新越谷,サイタマケン,コシガヤシ,シンコシガヤ,埼玉県越谷市新越谷
3440000,埼玉県,春日部市,,サイタマケン,カスカベシ,,埼玉県春日部市
3440001,埼玉県,春日部市,不動院野,サイタマケン,カスカベシ,フドウインノ,埼玉県春日部市不動院野
3440002,埼玉県,春日部市,樋籠,サイタマケン,カスカベシ,ヒロウ,埼玉県春日部市樋籠
3440003,埼玉県,春日部市,新川,サイタマケン,カスカベシ,シンカワ,埼玉県春日部市新川
3440004,埼玉県,春日部市,牛島,サイタマケン,カスカベシ,ウシジマ,埼玉県春日部市牛島
3440005,埼玉県,春日部市,樋堀,サイタマケン,カスカベシ,ヒボリ,埼玉県春日部市樋堀
3440006,埼玉県,春日部市,八丁目,サイタマケン,カスカベシ,ハッチョウメ,埼玉県春日部市8
3440007,埼玉県,春日部市,小渕,サイタマケン,カスカベシ,コブチ,埼玉県春日部市小渕
3440011,埼玉県,春日部市,藤塚,サイタマケン,カスカベシ,フジツカ,埼玉県春日部市藤塚
3440012,埼玉県,春日部市,六軒町,サイタマケン,カスカベシ,ロッケンチョウ,埼玉県春日部市六軒町
3440013,埼玉県,春日部市,銚子口,サイタマケン,カスカベシ,チョウシグチ,埼玉県春日部市銚子口
3440014,埼玉県,春日部市,豊野町,サイタマケン,カスカベシ,トヨノチョウ,埼玉県春日部市豊野町
3440015,埼玉県,春日部市,赤沼,サイタマケン,カスカベシ,アカヌマ,埼玉県春日部市赤沼
3440016,埼玉県,春日部市,本田町,サイタマケン,カスカベシ,ホンデンチョウ,埼玉県春日部市本田町
3440021,埼玉県,春日部市,大場,サイタマケン,カスカベシ,オオバ,埼玉県春日部市大場
3440022,埼玉県,春日部市,大畑,サイタマケン,カスカベシ,オオハタ,埼玉県春日部市大畑
3440023,埼玉県,春日部市,大枝,サイタマケン,カスカベシ,オオエダ,埼玉県春日部市大枝
3440024,埼玉県,春日部市,千間,サイタマケン,カスカベシ,センゲン,埼玉県春日部市千間
3440025,埼玉県,春日部市,増田新田,サイタマケン,カスカベシ,マスダシンデン,埼玉県春日部市増田新田
3440026,埼玉県,春日部市,武里中野,サイタマケン,カスカベシ,タケサトナカノ,埼玉県春日部市武里中野
3440031,埼玉県,春日部市,一ノ割,サイタマケン,カスカベシ,イチノワリ,埼玉県春日部市一ノ割
3440032,埼玉県,春日部市,備後東,サイタマケン,カスカベシ,ビンゴヒガシ,埼玉県春日部市備後東
3440033,埼玉県,春日部市,備後西,サイタマケン,カスカベシ,ビンゴニシ,埼玉県春日部市備後西
3440034,埼玉県,春日部市,薄谷,サイタマケン,カスカベシ,ススキヤ,埼玉県春日部市薄谷
3440035,埼玉県,春日部市,谷原新田,サイタマケン,カスカベシ,ヤハラシンデン,埼玉県春日部市谷原新田
3440036,埼玉県,春日部市,下大増新田,サイタマケン,カスカベシ,シモオオマシシンデン,埼玉県春日部市下大増新田
3440037,埼玉県,春日部市,上大増新田,サイタマケン,カスカベシ,カミオオマシシンデン,埼玉県春日部市上大増新田
3440038,埼玉県,春日部市,大沼,サイタマケン,カスカベシ,オオヌマ,埼玉県春日部市大沼
3440041,埼玉県,春日部市,増富,サイタマケン,カスカベシ,マシトミ,埼玉県春日部市増富
3440042,埼玉県,春日部市,増戸,サイタマケン,カスカベシ,マシト,埼玉県春日部市増戸
3440043,埼玉県,春日部市,下蛭田,サイタマケン,カスカベシ,シモヒルダ,埼玉県春日部市下蛭田
3440044,埼玉県,春日部市,花積,サイタマケン,カスカベシ,ハナヅミ,埼玉県春日部市花積
3440045,埼玉県,春日部市,道口蛭田,サイタマケン,カスカベシ,ドウグチヒルダ,埼玉県春日部市道口蛭田
3440046,埼玉県,春日部市,上蛭田,サイタマケン,カスカベシ,カミヒルダ,埼玉県春日部市上蛭田
3440047,埼玉県,春日部市,道順川戸,サイタマケン,カスカベシ,ドウジュンカワド,埼玉県春日部市道順川戸
3440048,埼玉県,春日部市,南中曽根,サイタマケン,カスカベシ,ミナミナカゾネ,埼玉県春日部市南中曽根
3440051,埼玉県,春日部市,内牧,サイタマケン,カスカベシ,ウチマキ,埼玉県春日部市内牧
3440052,埼玉県,春日部市,梅田,サイタマケン,カスカベシ,ウメダ,埼玉県春日部市梅田
3440053,埼玉県,春日部市,梅田本町,サイタマケン,カスカベシ,ウメダホンチョウ,埼玉県春日部市梅田本町
3440054,埼玉県,春日部市,浜川戸,サイタマケン,カスカベシ,ハマカワド,埼玉県春日部市浜川戸
3440055,埼玉県,春日部市,八木崎町,サイタマケン,カスカベシ,ヤギサキチョウ,埼玉県春日部市八木崎町
3440056,埼玉県,春日部市,新方袋,サイタマケン,カスカベシ,ニイガタフクロ,埼玉県春日部市新方袋
3440057,埼玉県,春日部市,南栄町,サイタマケン,カスカベシ,ミナミサカエチョウ,埼玉県春日部市南栄町
3440058,埼玉県,春日部市,栄町,サイタマケン,カスカベシ,サカエチョウ,埼玉県春日部市栄町
3440059,埼玉県,春日部市,西八木崎,サイタマケン,カスカベシ,ニシヤギサキ,埼玉県春日部市西八木崎
3440061,埼玉県,春日部市,粕壁,サイタマケン,カスカベシ,カスカベ,埼玉県春日部市粕壁
3440062,埼玉県,春日部市,粕壁東,サイタマケン,カスカベシ,カスカベヒガシ,埼玉県春日部市粕壁東
3440063,埼玉県,春日部市,緑町,サイタマケン,カスカベシ,ミドリチョウ,埼玉県春日部市緑町
3440064,埼玉県,春日部市,南,サイタマケン,カスカベシ,ミナミ,埼玉県春日部市南
3440065,埼玉県,春日部市,谷原,サイタマケン,カスカベシ,ヤハラ,埼玉県春日部市谷原
3440066,埼玉県,春日部市,豊町,サイタマケン,カスカベシ,ユタカチョウ,埼玉県春日部市豊町
3440067,埼玉県,春日部市,中央,サイタマケン,カスカベシ,チュウオウ,埼玉県春日部市中央
3440101,埼玉県,春日部市,西親野井,サイタマケン,カスカベシ,ニシオヤノイ,埼玉県春日部市西親野井
3440102,埼玉県,春日部市,西宝珠花,サイタマケン,カスカベシ,ニシホウシュバナ,埼玉県春日部市西宝珠花
3440103,埼玉県,春日部市,上吉妻,サイタマケン,カスカベシ,カミキツマ,埼玉県春日部市上吉妻
3440104,埼玉県,春日部市,下吉妻,サイタマケン,カスカベシ,シモキツマ,埼玉県春日部市下吉妻
3440105,埼玉県,春日部市,小平,サイタマケン,カスカベシ,コダイラ,埼玉県春日部市小平
3440106,埼玉県,春日部市,木崎,サイタマケン,カスカベシ,キサキ,埼玉県春日部市木崎
3440107,埼玉県,春日部市,塚崎,サイタマケン,カスカベシ,ツカサキ,埼玉県春日部市塚崎
3440111,埼玉県,春日部市,上金崎,サイタマケン,カスカベシ,カミカナサキ,埼玉県春日部市上金崎
3440112,埼玉県,春日部市,西金野井,サイタマケン,カスカベシ,ニシカナノイ,埼玉県春日部市西金野井
3440113,埼玉県,春日部市,新宿新田,サイタマケン,カスカベシ,シンシュクシンデン,埼玉県春日部市新宿新田
3440114,埼玉県,春日部市,東中野,サイタマケン,カスカベシ,ヒガシナカノ,埼玉県春日部市東中野
3440115,埼玉県,春日部市,米島,サイタマケン,カスカベシ,コメジマ,埼玉県春日部市米島
3440116,埼玉県,春日部市,大衾,サイタマケン,カスカベシ,オオブスマ,埼玉県春日部市大衾
3440117,埼玉県,春日部市,金崎,サイタマケン,カスカベシ,カナサキ,埼玉県春日部市金崎
3440121,埼玉県,春日部市,上柳,サイタマケン,カスカベシ,カミヤナギ,埼玉県春日部市上柳
3440122,埼玉県,春日部市,下柳,サイタマケン,カスカベシ,シモヤナギ,埼玉県春日部市下柳
3440123,埼玉県,春日部市,永沼,サイタマケン,カスカベシ,ナガヌマ,埼玉県春日部市永沼
3440124,埼玉県,春日部市,米崎,サイタマケン,カスカベシ,コメサキ,埼玉県春日部市米崎
3440125,埼玉県,春日部市,飯沼,サイタマケン,カスカベシ,イイヌマ,埼玉県春日部市飯沼
3440126,埼玉県,春日部市,赤崎,サイタマケン,カスカベシ,アカサキ,埼玉県春日部市赤崎
3440127,埼玉県,春日部市,水角,サイタマケン,カスカベシ,スイカク,埼玉県春日部市水角
3440131,埼玉県,春日部市,芦橋,サイタマケン,カスカベシ,ヨシハシ,埼玉県春日部市芦橋
3440132,埼玉県,春日部市,神間,サイタマケン,カスカベシ,カンマ,埼玉県春日部市神間
3440133,埼玉県,春日部市,椚,サイタマケン,カスカベシ,クヌギ,埼玉県春日部市椚
3440134,埼玉県,春日部市,立野,サイタマケン,カスカベシ,タテノ,埼玉県春日部市立野
3440135,埼玉県,春日部市,榎,サイタマケン,カスカベシ,エノキ,埼玉県春日部市榎
3440136,埼玉県,春日部市,倉常,サイタマケン,カスカベシ,クラツネ,埼玉県春日部市倉常
3450000,埼玉県,北葛飾郡杉戸町,,サイタマケン,キタカツシカグンスギトマチ,,埼玉県北葛飾郡杉戸町
3450000,埼玉県,南埼玉郡宮代町,,サイタマケン,ミナミサイタマグンミヤシロマチ,,埼玉県南埼玉郡宮代町
3450001,埼玉県,北葛飾郡杉戸町,木津内,サイタマケン,キタカツシカグンスギトマチ,キヅウチ,埼玉県北葛飾郡杉戸町木津内
3450002,埼玉県,北葛飾郡杉戸町,鷲巣,サイタマケン,キタカツシカグンスギトマチ,ワシノス,埼玉県北葛飾郡杉戸町鷲巣
3450003,埼玉県,北葛飾郡杉戸町,木野川,サイタマケン,キタカツシカグンスギトマチ,キノカワ,埼玉県北葛飾郡杉戸町木野川
3450004,埼玉県,北葛飾郡杉戸町,宮前,サイタマケン,キタカツシカグンスギトマチ,ミヤマエ,埼玉県北葛飾郡杉戸町宮前
3450005,埼玉県,北葛飾郡杉戸町,目沼,サイタマケン,キタカツシカグンスギトマチ,メヌマ,埼玉県北葛飾郡杉戸町目沼
3450011,埼玉県,北葛飾郡杉戸町,屏風,サイタマケン,キタカツシカグンスギトマチ,ビョウブ,埼玉県北葛飾郡杉戸町屏風
3450012,埼玉県,北葛飾郡杉戸町,深輪,サイタマケン,キタカツシカグンスギトマチ,フカワ,埼玉県北葛飾郡杉戸町深輪
3450013,埼玉県,北葛飾郡杉戸町,椿,サイタマケン,キタカツシカグンスギトマチ,ツバキ,埼玉県北葛飾郡杉戸町椿
3450014,埼玉県,北葛飾郡杉戸町,才羽,サイタマケン,キタカツシカグンスギトマチ,サイバ,埼玉県北葛飾郡杉戸町才羽
3450015,埼玉県,北葛飾郡杉戸町,並塚,サイタマケン,キタカツシカグンスギトマチ,ナラビツカ,埼玉県北葛飾郡杉戸町並塚
3450021,埼玉県,北葛飾郡杉戸町,北蓮沼,サイタマケン,キタカツシカグンスギトマチ,キタハスヌマ,埼玉県北葛飾郡杉戸町北蓮沼
3450022,埼玉県,北葛飾郡杉戸町,大塚,サイタマケン,キタカツシカグンスギトマチ,オオツカ,埼玉県北葛飾郡杉戸町大塚
3450023,埼玉県,北葛飾郡杉戸町,本郷,サイタマケン,キタカツシカグンスギトマチ,ホンゴウ,埼玉県北葛飾郡杉戸町本郷
3450024,埼玉県,北葛飾郡杉戸町,堤根,サイタマケン,キタカツシカグンスギトマチ,ツツミネ,埼玉県北葛飾郡杉戸町堤根
3450025,埼玉県,北葛飾郡杉戸町,清地,サイタマケン,キタカツシカグンスギトマチ,セイジ,埼玉県北葛飾郡杉戸町清地
3450031,埼玉県,北葛飾郡杉戸町,遠野,サイタマケン,キタカツシカグンスギトマチ,トオノ,埼玉県北葛飾郡杉戸町遠野
3450032,埼玉県,北葛飾郡杉戸町,広戸沼,サイタマケン,キタカツシカグンスギトマチ,ヒロトヌマ,埼玉県北葛飾郡杉戸町広戸沼
3450033,埼玉県,北葛飾郡杉戸町,佐左エ門,サイタマケン,キタカツシカグンスギトマチ,サザエモン,埼玉県北葛飾郡杉戸町佐左エ門
3450034,埼玉県,北葛飾郡杉戸町,倉松,サイタマケン,キタカツシカグンスギトマチ,クラマツ,埼玉県北葛飾郡杉戸町倉松
3450035,埼玉県,北葛飾郡杉戸町,内田,サイタマケン,キタカツシカグンスギトマチ,ウチダ,埼玉県北葛飾郡杉戸町内田
3450036,埼玉県,北葛飾郡杉戸町,杉戸,サイタマケン,キタカツシカグンスギトマチ,スギト,埼玉県北葛飾郡杉戸町杉戸
3450037,埼玉県,北葛飾郡杉戸町,本島,サイタマケン,キタカツシカグンスギトマチ,モトジマ,埼玉県北葛飾郡杉戸町本島
3450041,埼玉県,北葛飾郡杉戸町,茨島,サイタマケン,キタカツシカグンスギトマチ,バラジマ,埼玉県北葛飾郡杉戸町茨島
3450042,埼玉県,北葛飾郡杉戸町,大島,サイタマケン,キタカツシカグンスギトマチ,オオジマ,埼玉県北葛飾郡杉戸町大島
3450043,埼玉県,北葛飾郡杉戸町,下高野,サイタマケン,キタカツシカグンスギトマチ,シモタカノ,埼玉県北葛飾郡杉戸町下高野
3450044,埼玉県,北葛飾郡杉戸町,下野,サイタマケン,キタカツシカグンスギトマチ,シモノ,埼玉県北葛飾郡杉戸町下野
3450045,埼玉県,北葛飾郡杉戸町,高野台西,サイタマケン,キタカツシカグンスギトマチ,タカノダイニシ,埼玉県北葛飾郡杉戸町高野台西
3450046,埼玉県,北葛飾郡杉戸町,高野台南,サイタマケン,キタカツシカグンスギトマチ,タカノダイミナミ,埼玉県北葛飾郡杉戸町高野台南
3450047,埼玉県,北葛飾郡杉戸町,高野台東,サイタマケン,キタカツシカグンスギトマチ,タカノダイヒガシ,埼玉県北葛飾郡杉戸町高野台東
3450801,埼玉県,南埼玉郡宮代町,百間,サイタマケン,ミナミサイタマグンミヤシロマチ,モンマ,埼玉県南埼玉郡宮代町百間
3450802,埼玉県,南埼玉郡宮代町,中島,サイタマケン,ミナミサイタマグンミヤシロマチ,ナカジマ,埼玉県南埼玉郡宮代町中島
3450803,埼玉県,南埼玉郡宮代町,宮東,サイタマケン,ミナミサイタマグンミヤシロマチ,ミヤヒガシ,埼玉県南埼玉郡宮代町宮東
3450804,埼玉県,南埼玉郡宮代町,川端,サイタマケン,ミナミサイタマグンミヤシロマチ,カワバタ,埼玉県南埼玉郡宮代町川端
3450811,埼玉県,南埼玉郡宮代町,道佛,サイタマケン,ミナミサイタマグンミヤシロマチ,ドウブツ,埼玉県南埼玉郡宮代町道佛
3450812,埼玉県,南埼玉郡宮代町,姫宮,サイタマケン,ミナミサイタマグンミヤシロマチ,ヒメミヤ,埼玉県南埼玉郡宮代町姫宮
3450813,埼玉県,南埼玉郡宮代町,東姫宮,サイタマケン,ミナミサイタマグンミヤシロマチ,ヒガシヒメミヤ,埼玉県南埼玉郡宮代町東姫宮
3450814,埼玉県,南埼玉郡宮代町,東,サイタマケン,ミナミサイタマグンミヤシロマチ,ヒガシ,埼玉県南埼玉郡宮代町東
3450815,埼玉県,南埼玉郡宮代町,中,サイタマケン,ミナミサイタマグンミヤシロマチ,ナカ,埼玉県南埼玉郡宮代町中
3450816,埼玉県,南埼玉郡宮代町,金原,サイタマケン,ミナミサイタマグンミヤシロマチ,カネハラ,埼玉県南埼玉郡宮代町金原
3450817,埼玉県,南埼玉郡宮代町,西原,サイタマケン,ミナミサイタマグンミヤシロマチ,ニシバラ,埼玉県南埼玉郡宮代町西原
3450821,埼玉県,南埼玉郡宮代町,中央,サイタマケン,ミナミサイタマグンミヤシロマチ,チュウオウ,埼玉県南埼玉郡宮代町中央
3450822,埼玉県,南埼玉郡宮代町,笠原,サイタマケン,ミナミサイタマグンミヤシロマチ,カサハラ,埼玉県南埼玉郡宮代町笠原
3450823,埼玉県,南埼玉郡宮代町,宮代,サイタマケン,ミナミサイタマグンミヤシロマチ,ミヤシロ,埼玉県南埼玉郡宮代町宮代
3450824,埼玉県,南埼玉郡宮代町,山崎,サイタマケン,ミナミサイタマグンミヤシロマチ,ヤマザキ,埼玉県南埼玉郡宮代町山崎
3450825,埼玉県,南埼玉郡宮代町,逆井,サイタマケン,ミナミサイタマグンミヤシロマチ,サカサイ,埼玉県南埼玉郡宮代町逆井
3450826,埼玉県,南埼玉郡宮代町,学園台,サイタマケン,ミナミサイタマグンミヤシロマチ,ガクエンダイ,埼玉県南埼玉郡宮代町学園台
3450827,埼玉県,南埼玉郡宮代町,本田,サイタマケン,ミナミサイタマグンミヤシロマチ,ホンデン,埼玉県南埼玉郡宮代町本田
3450831,埼玉県,南埼玉郡宮代町,須賀,サイタマケン,ミナミサイタマグンミヤシロマチ,スカ,埼玉県南埼玉郡宮代町須賀
3450832,埼玉県,南埼玉郡宮代町,東粂原,サイタマケン,ミナミサイタマグンミヤシロマチ,ヒガシクメハラ,埼玉県南埼玉郡宮代町東粂原
3450833,埼玉県,南埼玉郡宮代町,西粂原,サイタマケン,ミナミサイタマグンミヤシロマチ,ニシクメハラ,埼玉県南埼玉郡宮代町西粂原
3450834,埼玉県,南埼玉郡宮代町,国納,サイタマケン,ミナミサイタマグンミヤシロマチ,コクノウ,埼玉県南埼玉郡宮代町国納
3450835,埼玉県,南埼玉郡宮代町,宮代台,サイタマケン,ミナミサイタマグンミヤシロマチ,ミヤシロダイ,埼玉県南埼玉郡宮代町宮代台
3450836,埼玉県,南埼玉郡宮代町,和戸,サイタマケン,ミナミサイタマグンミヤシロマチ,ワド,埼玉県南埼玉郡宮代町和戸
3460000,埼玉県,久喜市,,サイタマケン,クキシ,,埼玉県久喜市
3460001,埼玉県,久喜市,古久喜,サイタマケン,クキシ,コグキ,埼玉県久喜市古久喜
3460002,埼玉県,久喜市,野久喜,サイタマケン,クキシ,ノグキ,埼玉県久喜市野久喜
3460003,埼玉県,久喜市,久喜中央,サイタマケン,クキシ,クキチュウオウ,埼玉県久喜市久喜中央
3460004,埼玉県,久喜市,南,サイタマケン,クキシ,ミナミ,埼玉県久喜市南
3460005,埼玉県,久喜市,本町,サイタマケン,クキシ,ホンチョウ,埼玉県久喜市本町
3460006,埼玉県,久喜市,上町,サイタマケン,クキシ,カミマチ,埼玉県久喜市上町
3460007,埼玉県,久喜市,久喜北,サイタマケン,クキシ,クキキタ,埼玉県久喜市久喜北
3460011,埼玉県,久喜市,青毛,サイタマケン,クキシ,アオゲ,埼玉県久喜市青毛
3460012,埼玉県,久喜市,栗原,サイタマケン,クキシ,クリハラ,埼玉県久喜市栗原
3460013,埼玉県,久喜市,青葉,サイタマケン,クキシ,アオバ,埼玉県久喜市青葉
3460014,埼玉県,久喜市,吉羽,サイタマケン,クキシ,ヨシバ,埼玉県久喜市吉羽
3460015,埼玉県,久喜市,西,サイタマケン,クキシ,ニシ,埼玉県久喜市西
3460016,埼玉県,久喜市,久喜東,サイタマケン,クキシ,クキヒガシ,埼玉県久喜市久喜東
3460021,埼玉県,久喜市,上早見,サイタマケン,クキシ,カミハヤミ,埼玉県久喜市上早見
3460022,埼玉県,久喜市,下早見,サイタマケン,クキシ,シモハヤミ,埼玉県久喜市下早見
3460023,埼玉県,久喜市,太田袋,サイタマケン,クキシ,オオタブクロ,埼玉県久喜市太田袋
3460024,埼玉県,久喜市,北青柳,サイタマケン,クキシ,キタアオヤギ,埼玉県久喜市北青柳
3460025,埼玉県,久喜市,樋ノ口,サイタマケン,クキシ,ヒノクチ,埼玉県久喜市樋ノ口
3460026,埼玉県,久喜市,原,サイタマケン,クキシ,ハラ,埼玉県久喜市原
3460027,埼玉県,久喜市,除堀,サイタマケン,クキシ,ヨケボリ,埼玉県久喜市除堀
3460028,埼玉県,久喜市,河原井町,サイタマケン,クキシ,カワライチョウ,埼玉県久喜市河原井町
3460029,埼玉県,久喜市,江面,サイタマケン,クキシ,エヅラ,埼玉県久喜市江面
3460031,埼玉県,久喜市,久喜本,サイタマケン,クキシ,クキホン,埼玉県久喜市久喜本
3460032,埼玉県,久喜市,久喜新,サイタマケン,クキシ,クキシン,埼玉県久喜市久喜新
3460033,埼玉県,久喜市,下清久,サイタマケン,クキシ,シモキヨク,埼玉県久喜市下清久
3460034,埼玉県,久喜市,所久喜,サイタマケン,クキシ,トコログキ,埼玉県久喜市所久喜
3460035,埼玉県,久喜市,清久町,サイタマケン,クキシ,キヨクチョウ,埼玉県久喜市清久町
3460036,埼玉県,久喜市,北中曽根,サイタマケン,クキシ,キタナカソネ,埼玉県久喜市北中曽根
3460037,埼玉県,久喜市,六万部,サイタマケン,クキシ,ロクマンブ,埼玉県久喜市六万部
3460038,埼玉県,久喜市,上清久,サイタマケン,クキシ,カミキヨク,埼玉県久喜市上清久
3460101,埼玉県,久喜市,菖蒲町昭和沼,サイタマケン,クキシ,ショウブチョウショウワヌマ,埼玉県久喜市菖蒲町昭和沼
3460102,埼玉県,久喜市,菖蒲町河原井,サイタマケン,クキシ,ショウブチョウカワハライ,埼玉県久喜市菖蒲町河原井
3460103,埼玉県,久喜市,菖蒲町台,サイタマケン,クキシ,ショウブチョウダイ,埼玉県久喜市菖蒲町台
3460104,埼玉県,久喜市,菖蒲町三箇,サイタマケン,クキシ,ショウブチョウサンガ,埼玉県久喜市菖蒲町三箇
3460105,埼玉県,久喜市,菖蒲町新堀,サイタマケン,クキシ,ショウブチョウニイボリ,埼玉県久喜市菖蒲町新堀
3460106,埼玉県,久喜市,菖蒲町菖蒲,サイタマケン,クキシ,ショウブチョウショウブ,埼玉県久喜市菖蒲町菖蒲
3460111,埼玉県,久喜市,菖蒲町上大崎,サイタマケン,クキシ,ショウブチョウカミオオサキ,埼玉県久喜市菖蒲町上大崎
3460112,埼玉県,久喜市,菖蒲町柴山枝郷,サイタマケン,クキシ,ショウブチョウシバヤマシゴウ,埼玉県久喜市菖蒲町柴山枝郷
3460113,埼玉県,久喜市,菖蒲町下栢間,サイタマケン,クキシ,ショウブチョウシモカヤマ,埼玉県久喜市菖蒲町下栢間
3460114,埼玉県,久喜市,菖蒲町上栢間,サイタマケン,クキシ,ショウブチョウカミカヤマ,埼玉県久喜市菖蒲町上栢間
3460115,埼玉県,久喜市,菖蒲町小林,サイタマケン,クキシ,ショウブチョウオバヤシ,埼玉県久喜市菖蒲町小林
3470000,埼玉県,加須市,,サイタマケン,カゾシ,,埼玉県加須市
3470001,埼玉県,加須市,大越,サイタマケン,カゾシ,オオゴエ,埼玉県加須市大越
3470002,埼玉県,加須市,外野,サイタマケン,カゾシ,ソトノ,埼玉県加須市外野
3470003,埼玉県,加須市,上樋遣川,サイタマケン,カゾシ,カミヒヤリカワ,埼玉県加須市上樋遣川
3470004,埼玉県,加須市,古川,サイタマケン,カゾシ,フルカワ,埼玉県加須市古川
3470005,埼玉県,加須市,下樋遣川,サイタマケン,カゾシ,シモヒヤリカワ,埼玉県加須市下樋遣川
3470006,埼玉県,加須市,上三俣,サイタマケン,カゾシ,カミミツマタ,埼玉県加須市上三俣
3470007,埼玉県,加須市,下三俣,サイタマケン,カゾシ,シモミツマタ,埼玉県加須市下三俣
3470008,埼玉県,加須市,中樋遣川,サイタマケン,カゾシ,ナカヒヤリカワ,埼玉県加須市中樋遣川
3470009,埼玉県,加須市,三俣,サイタマケン,カゾシ,ミツマタ,埼玉県加須市三俣
3470010,埼玉県,加須市,大桑,サイタマケン,カゾシ,オオクワ,埼玉県加須市大桑
3470011,埼玉県,加須市,北小浜,サイタマケン,カゾシ,キタコバマ,埼玉県加須市北小浜
3470012,埼玉県,加須市,多門寺,サイタマケン,カゾシ,タモンジ,埼玉県加須市多門寺
3470013,埼玉県,加須市,北篠崎,サイタマケン,カゾシ,キタシノザキ,埼玉県加須市北篠崎
3470014,埼玉県,加須市,川口,サイタマケン,カゾシ,カワグチ,埼玉県加須市川口
3470015,埼玉県,加須市,南大桑,サイタマケン,カゾシ,ミナミオオクワ,埼玉県加須市南大桑
3470016,埼玉県,加須市,花崎北,サイタマケン,カゾシ,ハナサキキタ,埼玉県加須市花崎北
3470017,埼玉県,加須市,南篠崎,サイタマケン,カゾシ,ミナミシノザキ,埼玉県加須市南篠崎
3470018,埼玉県,加須市,浜町,サイタマケン,カゾシ,ハマチョウ,埼玉県加須市浜町
3470019,埼玉県,加須市,鳩山町,サイタマケン,カゾシ,ハトヤマチョウ,埼玉県加須市鳩山町
3470021,埼玉県,加須市,船越,サイタマケン,カゾシ,フナコシ,埼玉県加須市船越
3470022,埼玉県,加須市,水深,サイタマケン,カゾシ,ミズブカ,埼玉県加須市水深
3470023,埼玉県,加須市,北辻,サイタマケン,カゾシ,キタツジ,埼玉県加須市北辻
3470024,埼玉県,加須市,今鉾,サイタマケン,カゾシ,イマボコ,埼玉県加須市今鉾
3470025,埼玉県,加須市,割目,サイタマケン,カゾシ,ワリメ,埼玉県加須市割目
3470026,埼玉県,加須市,油井ケ島,サイタマケン,カゾシ,ユイガシマ,埼玉県加須市油井ケ島
3470027,埼玉県,加須市,大室,サイタマケン,カゾシ,オオムロ,埼玉県加須市大室
3470028,埼玉県,加須市,南小浜,サイタマケン,カゾシ,ミナミオバマ,埼玉県加須市南小浜
3470031,埼玉県,加須市,南町,サイタマケン,カゾシ,ミナミチョウ,埼玉県加須市南町
3470032,埼玉県,加須市,花崎,サイタマケン,カゾシ,ハナサキ,埼玉県加須市花崎
3470033,埼玉県,加須市,下高柳,サイタマケン,カゾシ,シモタカヤナギ,埼玉県加須市下高柳
3470034,埼玉県,加須市,常泉,サイタマケン,カゾシ,ツネイズミ,埼玉県加須市常泉
3470041,埼玉県,加須市,串作,サイタマケン,カゾシ,クシツクリ,埼玉県加須市串作
3470042,埼玉県,加須市,志多見,サイタマケン,カゾシ,シダミ,埼玉県加須市志多見
3470043,埼玉県,加須市,馬内,サイタマケン,カゾシ,モウチ,埼玉県加須市馬内
3470044,埼玉県,加須市,礼羽,サイタマケン,カゾシ,ライハ,埼玉県加須市礼羽
3470045,埼玉県,加須市,富士見町,サイタマケン,カゾシ,フジミチョウ,埼玉県加須市富士見町
3470046,埼玉県,加須市,平永,サイタマケン,カゾシ,ヒラナガ,埼玉県加須市平永
3470047,埼玉県,加須市,阿良川,サイタマケン,カゾシ,アラカワ,埼玉県加須市阿良川
3470051,埼玉県,加須市,戸川,サイタマケン,カゾシ,トガワ,埼玉県加須市戸川
3470052,埼玉県,加須市,町屋新田,サイタマケン,カゾシ,マチヤシンデン,埼玉県加須市町屋新田
3470053,埼玉県,加須市,下谷,サイタマケン,カゾシ,シモヤ,埼玉県加須市下谷
3470054,埼玉県,加須市,不動岡,サイタマケン,カゾシ,フドオカ,埼玉県加須市不動岡
3470055,埼玉県,加須市,中央,サイタマケン,カゾシ,チュウオウ,埼玉県加須市中央
3470056,埼玉県,加須市,土手,サイタマケン,カゾシ,ドテ,埼玉県加須市土手
3470057,埼玉県,加須市,愛宕,サイタマケン,カゾシ,アタゴ,埼玉県加須市愛宕
3470058,埼玉県,加須市,岡古井,サイタマケン,カゾシ,オカフルイ,埼玉県加須市岡古井
3470061,埼玉県,加須市,諏訪,サイタマケン,カゾシ,スワ,埼玉県加須市諏訪
3470062,埼玉県,加須市,睦町,サイタマケン,カゾシ,ムツミチョウ,埼玉県加須市睦町
3470063,埼玉県,加須市,久下,サイタマケン,カゾシ,クゲ,埼玉県加須市久下
3470064,埼玉県,加須市,東栄,サイタマケン,カゾシ,トウエイ,埼玉県加須市東栄
3470065,埼玉県,加須市,元町,サイタマケン,カゾシ,モトマチ,埼玉県加須市元町
3470066,埼玉県,加須市,本町,サイタマケン,カゾシ,ホンチョウ,埼玉県加須市本町
3470067,埼玉県,加須市,向川岸町,サイタマケン,カゾシ,ムコウガシチョウ,埼玉県加須市向川岸町
3470068,埼玉県,加須市,大門町,サイタマケン,カゾシ,ダイモンチョウ,埼玉県加須市大門町
3470101,埼玉県,加須市,上高柳,サイタマケン,カゾシ,カミタカヤナギ,埼玉県加須市上高柳
3470102,埼玉県,加須市,日出安,サイタマケン,カゾシ,ヒデヤス,埼玉県加須市日出安
3470103,埼玉県,加須市,牛重,サイタマケン,カゾシ,ウシガサネ,埼玉県加須市牛重
3470104,埼玉県,加須市,根古屋,サイタマケン,カゾシ,ネゴヤ,埼玉県加須市根古屋
3470105,埼玉県,加須市,騎西,サイタマケン,カゾシ,キサイ,埼玉県加須市騎西
3470106,埼玉県,加須市,外川,サイタマケン,カゾシ,ソトカワ,埼玉県加須市外川
3470107,埼玉県,加須市,正能,サイタマケン,カゾシ,ショウノウ,埼玉県加須市正能
3470108,埼玉県,加須市,戸崎,サイタマケン,カゾシ,トサキ,埼玉県加須市戸崎
3470111,埼玉県,加須市,鴻茎,サイタマケン,カゾシ,コウグキ,埼玉県加須市鴻茎
3470112,埼玉県,加須市,芋茎,サイタマケン,カゾシ,イモグキ,埼玉県加須市芋茎
3470113,埼玉県,加須市,下種足,サイタマケン,カゾシ,シモタナダレ,埼玉県加須市下種足
3470114,埼玉県,加須市,中種足,サイタマケン,カゾシ,ナカタナダレ,埼玉県加須市中種足
3470115,埼玉県,加須市,上種足,サイタマケン,カゾシ,カミタナダレ,埼玉県加須市上種足
3470116,埼玉県,加須市,戸室,サイタマケン,カゾシ,トムロ,埼玉県加須市戸室
3470117,埼玉県,加須市,西ノ谷,サイタマケン,カゾシ,ニシノヤ,埼玉県加須市西ノ谷
3470121,埼玉県,加須市,道地,サイタマケン,カゾシ,ドウチ,埼玉県加須市道地
3470122,埼玉県,加須市,内田ケ谷,サイタマケン,カゾシ,ウチタガヤ,埼玉県加須市内田ケ谷
3470123,埼玉県,加須市,下崎,サイタマケン,カゾシ,シモサキ,埼玉県加須市下崎
3470124,埼玉県,加須市,中ノ目,サイタマケン,カゾシ,ナカノメ,埼玉県加須市中ノ目
3470125,埼玉県,加須市,上崎,サイタマケン,カゾシ,カミサキ,埼玉県加須市上崎
3470126,埼玉県,加須市,外田ケ谷,サイタマケン,カゾシ,ソトタガヤ,埼玉県加須市外田ケ谷
3480000,埼玉県,羽生市,,サイタマケン,ハニュウシ,,埼玉県羽生市
3480001,埼玉県,羽生市,堤,サイタマケン,ハニュウシ,ツツミ,埼玉県羽生市堤
3480002,埼玉県,羽生市,名,サイタマケン,ハニュウシ,ミョウ,埼玉県羽生市名
3480003,埼玉県,羽生市,常木,サイタマケン,ハニュウシ,ツネギ,埼玉県羽生市常木
3480004,埼玉県,羽生市,弥勒,サイタマケン,ハニュウシ,ミロク,埼玉県羽生市弥勒
3480005,埼玉県,羽生市,上村君,サイタマケン,ハニュウシ,カミムラキミ,埼玉県羽生市上村君
3480006,埼玉県,羽生市,下村君,サイタマケン,ハニュウシ,シモムラキミ,埼玉県羽生市下村君
3480011,埼玉県,羽生市,三田ケ谷,サイタマケン,ハニュウシ,ミタカヤ,埼玉県羽生市三田ケ谷
3480012,埼玉県,羽生市,与兵エ新田,サイタマケン,ハニュウシ,ヨヘエシンデン,埼玉県羽生市与兵エ新田
3480013,埼玉県,羽生市,日野手新田,サイタマケン,ハニュウシ,ヒノテシンデン,埼玉県羽生市日野手新田
3480014,埼玉県,羽生市,喜右エ門新田,サイタマケン,ハニュウシ,キウエモンシンデン,埼玉県羽生市喜右エ門新田
3480015,埼玉県,羽生市,北荻島,サイタマケン,ハニュウシ,キタオギシマ,埼玉県羽生市北荻島
3480016,埼玉県,羽生市,大沼,サイタマケン,ハニュウシ,オオヌマ,埼玉県羽生市大沼
3480017,埼玉県,羽生市,今泉,サイタマケン,ハニュウシ,イマイズミ,埼玉県羽生市今泉
3480021,埼玉県,羽生市,中手子林,サイタマケン,ハニュウシ,ナカテコバヤシ,埼玉県羽生市中手子林
3480022,埼玉県,羽生市,下手子林,サイタマケン,ハニュウシ,シモテコバヤシ,埼玉県羽生市下手子林
3480023,埼玉県,羽生市,町屋,サイタマケン,ハニュウシ,マチヤ,埼玉県羽生市町屋
3480024,埼玉県,羽生市,神戸,サイタマケン,ハニュウシ,ゴウド,埼玉県羽生市神戸
3480025,埼玉県,羽生市,上手子林,サイタマケン,ハニュウシ,カミテコバヤシ,埼玉県羽生市上手子林
3480026,埼玉県,羽生市,下羽生,サイタマケン,ハニュウシ,シモハニュウ,埼玉県羽生市下羽生
3480027,埼玉県,羽生市,上羽生,サイタマケン,ハニュウシ,カミハニュウ,埼玉県羽生市上羽生
3480028,埼玉県,羽生市,北袋,サイタマケン,ハニュウシ,キタブクロ,埼玉県羽生市北袋
3480031,埼玉県,羽生市,加羽ケ崎,サイタマケン,ハニュウシ,カバガサキ,埼玉県羽生市加羽ケ崎
3480032,埼玉県,羽生市,秀安,サイタマケン,ハニュウシ,ヒデヤス,埼玉県羽生市秀安
3480033,埼玉県,羽生市,須影,サイタマケン,ハニュウシ,スカゲ,埼玉県羽生市須影
3480034,埼玉県,羽生市,下川崎,サイタマケン,ハニュウシ,シモカワサキ,埼玉県羽生市下川崎
3480035,埼玉県,羽生市,上川崎,サイタマケン,ハニュウシ,カミカワサキ,埼玉県羽生市上川崎
3480036,埼玉県,羽生市,砂山,サイタマケン,ハニュウシ,スナヤマ,埼玉県羽生市砂山
3480037,埼玉県,羽生市,小松,サイタマケン,ハニュウシ,コマツ,埼玉県羽生市小松
3480038,埼玉県,羽生市,小松台,サイタマケン,ハニュウシ,コマツダイ,埼玉県羽生市小松台
3480039,埼玉県,羽生市,川崎,サイタマケン,ハニュウシ,カワサキ,埼玉県羽生市川崎
3480041,埼玉県,羽生市,上新郷,サイタマケン,ハニュウシ,カミシンゴウ,埼玉県羽生市上新郷
3480042,埼玉県,羽生市,小須賀,サイタマケン,ハニュウシ,コスカ,埼玉県羽生市小須賀
3480043,埼玉県,羽生市,桑崎,サイタマケン,ハニュウシ,クワサキ,埼玉県羽生市桑崎
3480044,埼玉県,羽生市,上岩瀬,サイタマケン,ハニュウシ,カミイワセ,埼玉県羽生市上岩瀬
3480045,埼玉県,羽生市,下岩瀬,サイタマケン,ハニュウシ,シモイワセ,埼玉県羽生市下岩瀬
3480046,埼玉県,羽生市,中岩瀬,サイタマケン,ハニュウシ,ナカイワセ,埼玉県羽生市中岩瀬
3480047,埼玉県,羽生市,下新郷,サイタマケン,ハニュウシ,シモシンゴウ,埼玉県羽生市下新郷
3480048,埼玉県,羽生市,下新田,サイタマケン,ハニュウシ,シモシンデン,埼玉県羽生市下新田
3480051,埼玉県,羽生市,本川俣,サイタマケン,ハニュウシ,ホンカワマタ,埼玉県羽生市本川俣
3480052,埼玉県,羽生市,東,サイタマケン,ハニュウシ,ヒガシ,埼玉県羽生市東
3480053,埼玉県,羽生市,南,サイタマケン,ハニュウシ,ミナミ,埼玉県羽生市南
3480054,埼玉県,羽生市,西,サイタマケン,ハニュウシ,ニシ,埼玉県羽生市西
3480055,埼玉県,羽生市,羽生,サイタマケン,ハニュウシ,ハニュウ,埼玉県羽生市羽生
3480056,埼玉県,羽生市,上川俣,サイタマケン,ハニュウシ,カミカワマタ,埼玉県羽生市上川俣
3480057,埼玉県,羽生市,北,サイタマケン,ハニュウシ,キタ,埼玉県羽生市北
3480058,埼玉県,羽生市,中央,サイタマケン,ハニュウシ,チュウオウ,埼玉県羽生市中央
3480061,埼玉県,羽生市,稲子,サイタマケン,ハニュウシ,イナゴ,埼玉県羽生市稲子
3480062,埼玉県,羽生市,尾崎,サイタマケン,ハニュウシ,オサキ,埼玉県羽生市尾崎
3480063,埼玉県,羽生市,発戸,サイタマケン,ハニュウシ,ホット,埼玉県羽生市発戸
3480064,埼玉県,羽生市,藤井上組,サイタマケン,ハニュウシ,フジイカミグミ,埼玉県羽生市藤井上組
3480065,埼玉県,羽生市,藤井下組,サイタマケン,ハニュウシ,フジイシモグミ,埼玉県羽生市藤井下組
3480071,埼玉県,羽生市,南羽生,サイタマケン,ハニュウシ,ミナミハニュウ,埼玉県羽生市南羽生
3490100,埼玉県,蓮田市,,サイタマケン,ハスダシ,,埼玉県蓮田市
3490101,埼玉県,蓮田市,黒浜,サイタマケン,ハスダシ,クロハマ,埼玉県蓮田市黒浜
3490102,埼玉県,蓮田市,江ケ崎,サイタマケン,ハスダシ,エガサキ,埼玉県蓮田市江ケ崎
3490103,埼玉県,蓮田市,笹山,サイタマケン,ハスダシ,ササヤマ,埼玉県蓮田市笹山
3490104,埼玉県,蓮田市,緑町,サイタマケン,ハスダシ,ミドリチョウ,埼玉県蓮田市緑町
3490105,埼玉県,蓮田市,藤ノ木,サイタマケン,ハスダシ,フジノキ,埼玉県蓮田市藤ノ木
3490111,埼玉県,蓮田市,東,サイタマケン,ハスダシ,ヒガシ,埼玉県蓮田市東
3490112,埼玉県,蓮田市,川島,サイタマケン,ハスダシ,カワジマ,埼玉県蓮田市川島
3490113,埼玉県,蓮田市,桜台,サイタマケン,ハスダシ,サクラダイ,埼玉県蓮田市桜台
3490114,埼玉県,蓮田市,馬込,サイタマケン,ハスダシ,マゴメ,埼玉県蓮田市馬込
3490115,埼玉県,蓮田市,蓮田,サイタマケン,ハスダシ,ハスダ,埼玉県蓮田市蓮田
3490121,埼玉県,蓮田市,関山,サイタマケン,ハスダシ,セキヤマ,埼玉県蓮田市関山
3490122,埼玉県,蓮田市,上,サイタマケン,ハスダシ,カミ,埼玉県蓮田市上
3490123,埼玉県,蓮田市,本町,サイタマケン,ハスダシ,ホンチョウ,埼玉県蓮田市本町
3490124,埼玉県,蓮田市,末広,サイタマケン,ハスダシ,スエヒロ,埼玉県蓮田市末広
3490125,埼玉県,蓮田市,御前橋,サイタマケン,ハスダシ,オマエバシ,埼玉県蓮田市御前橋
3490126,埼玉県,蓮田市,綾瀬,サイタマケン,ハスダシ,アヤセ,埼玉県蓮田市綾瀬
3490127,埼玉県,蓮田市,見沼町,サイタマケン,ハスダシ,ミヌマチョウ,埼玉県蓮田市見沼町
3490128,埼玉県,蓮田市,山ノ内,サイタマケン,ハスダシ,ヤマノウチ,埼玉県蓮田市山ノ内
3490131,埼玉県,蓮田市,根金,サイタマケン,ハスダシ,ネガネ,埼玉県蓮田市根金
3490132,埼玉県,蓮田市,貝塚,サイタマケン,ハスダシ,カイヅカ,埼玉県蓮田市貝塚
3490133,埼玉県,蓮田市,閏戸,サイタマケン,ハスダシ,ウルイド,埼玉県蓮田市閏戸
3490134,埼玉県,蓮田市,駒崎,サイタマケン,ハスダシ,コマサキ,埼玉県蓮田市駒崎
3490135,埼玉県,蓮田市,井沼,サイタマケン,ハスダシ,イヌマ,埼玉県蓮田市井沼
3490136,埼玉県,蓮田市,上平野,サイタマケン,ハスダシ,カミヒラノ,埼玉県蓮田市上平野
3490137,埼玉県,蓮田市,高虫,サイタマケン,ハスダシ,タカムシ,埼玉県蓮田市高虫
3490141,埼玉県,蓮田市,西新宿,サイタマケン,ハスダシ,ニシシンシュク,埼玉県蓮田市西新宿
3490142,埼玉県,蓮田市,南新宿,サイタマケン,ハスダシ,ミナミシンシュク,埼玉県蓮田市南新宿
3490143,埼玉県,蓮田市,城,サイタマケン,ハスダシ,ジョウ,埼玉県蓮田市城
3490144,埼玉県,蓮田市,椿山,サイタマケン,ハスダシ,ツバキヤマ,埼玉県蓮田市椿山
3490145,埼玉県,蓮田市,西城,サイタマケン,ハスダシ,ニシジョウ,埼玉県蓮田市西城
3490200,埼玉県,白岡市,,サイタマケン,シラオカシ,,埼玉県白岡市
3490201,埼玉県,白岡市,柴山,サイタマケン,シラオカシ,シバヤマ,埼玉県白岡市柴山
3490202,埼玉県,白岡市,荒井新田,サイタマケン,シラオカシ,アライシンデン,埼玉県白岡市荒井新田
3490203,埼玉県,白岡市,下大崎,サイタマケン,シラオカシ,シモオオサキ,埼玉県白岡市下大崎
3490204,埼玉県,白岡市,篠津,サイタマケン,シラオカシ,シノヅ,埼玉県白岡市篠津
3490205,埼玉県,白岡市,西,サイタマケン,シラオカシ,ニシ,埼玉県白岡市西
3490211,埼玉県,白岡市,野牛,サイタマケン,シラオカシ,ヤギュウ,埼玉県白岡市野牛
3490212,埼玉県,白岡市,新白岡,サイタマケン,シラオカシ,シンシラオカ,埼玉県白岡市新白岡
3490213,埼玉県,白岡市,高岩,サイタマケン,シラオカシ,タカイワ,埼玉県白岡市高岩
3490214,埼玉県,白岡市,寺塚,サイタマケン,シラオカシ,テラツカ,埼玉県白岡市寺塚
3490215,埼玉県,白岡市,千駄野,サイタマケン,シラオカシ,センダノ,埼玉県白岡市千駄野
3490216,埼玉県,白岡市,実ケ谷,サイタマケン,シラオカシ,サナガヤ,埼玉県白岡市実ケ谷
3490217,埼玉県,白岡市,小久喜,サイタマケン,シラオカシ,コグキ,埼玉県白岡市小久喜
3490218,埼玉県,白岡市,白岡,サイタマケン,シラオカシ,シラオカ,埼玉県白岡市白岡
3490219,埼玉県,白岡市,白岡東,サイタマケン,シラオカシ,シラオカヒガシ,埼玉県白岡市白岡東
3490221,埼玉県,白岡市,上野田,サイタマケン,シラオカシ,カミノダ,埼玉県白岡市上野田
3490222,埼玉県,白岡市,爪田ケ谷,サイタマケン,シラオカシ,ツメタガヤ,埼玉県白岡市爪田ケ谷
3490223,埼玉県,白岡市,下野田,サイタマケン,シラオカシ,シモノダ,埼玉県白岡市下野田
3490224,埼玉県,白岡市,彦兵衛,サイタマケン,シラオカシ,ヒコベエ,埼玉県白岡市彦兵衛
3490225,埼玉県,白岡市,太田新井,サイタマケン,シラオカシ,オオタアライ,埼玉県白岡市太田新井
3490226,埼玉県,白岡市,岡泉,サイタマケン,シラオカシ,オカイズミ,埼玉県白岡市岡泉
3491101,埼玉県,久喜市,栗橋北,サイタマケン,クキシ,クリハシキタ,埼玉県久喜市栗橋北
3491102,埼玉県,久喜市,栗橋中央,サイタマケン,クキシ,クリハシチュウオウ,埼玉県久喜市栗橋中央
3491103,埼玉県,久喜市,栗橋東,サイタマケン,クキシ,クリハシヒガシ,埼玉県久喜市栗橋東
3491104,埼玉県,久喜市,栗橋,サイタマケン,クキシ,クリハシ,埼玉県久喜市栗橋
3491105,埼玉県,久喜市,小右衛門,サイタマケン,クキシ,コエモン,埼玉県久喜市小右衛門
3491106,埼玉県,久喜市,緑,サイタマケン,クキシ,ミドリ,埼玉県久喜市緑
3491111,埼玉県,久喜市,北広島,サイタマケン,クキシ,キタヒロシマ,埼玉県久喜市北広島
3491112,埼玉県,久喜市,中里,サイタマケン,クキシ,ナカザト,埼玉県久喜市中里
3491113,埼玉県,久喜市,狐塚,サイタマケン,クキシ,キツネヅカ,埼玉県久喜市狐塚
3491114,埼玉県,久喜市,河原代,サイタマケン,クキシ,カワラダイ,埼玉県久喜市河原代
3491115,埼玉県,久喜市,新井,サイタマケン,クキシ,アライ,埼玉県久喜市新井
3491116,埼玉県,久喜市,島川,サイタマケン,クキシ,シマガワ,埼玉県久喜市島川
3491117,埼玉県,久喜市,南栗橋,サイタマケン,クキシ,ミナミクリハシ,埼玉県久喜市南栗橋
3491121,埼玉県,久喜市,伊坂,サイタマケン,クキシ,イサカ,埼玉県久喜市伊坂
3491122,埼玉県,久喜市,松永,サイタマケン,クキシ,マツナガ,埼玉県久喜市松永
3491123,埼玉県,久喜市,間鎌,サイタマケン,クキシ,マガマ,埼玉県久喜市間鎌
3491124,埼玉県,久喜市,佐間,サイタマケン,クキシ,サマ,埼玉県久喜市佐間
3491125,埼玉県,久喜市,高柳,サイタマケン,クキシ,タカヤナギ,埼玉県久喜市高柳
3491126,埼玉県,久喜市,伊坂北,サイタマケン,クキシ,イサカキタ,埼玉県久喜市伊坂北
3491127,埼玉県,久喜市,伊坂中央,サイタマケン,クキシ,イサカチュウオウ,埼玉県久喜市伊坂中央
3491128,埼玉県,久喜市,伊坂南,サイタマケン,クキシ,イサカミナミ,埼玉県久喜市伊坂南
3491131,埼玉県,加須市,中渡,サイタマケン,カゾシ,ナカワタ,埼玉県加須市中渡
3491132,埼玉県,加須市,旗井,サイタマケン,カゾシ,ハタイ,埼玉県加須市旗井
3491133,埼玉県,加須市,琴寄,サイタマケン,カゾシ,コトヨリ,埼玉県加須市琴寄
3491134,埼玉県,加須市,北下新井,サイタマケン,カゾシ,キタシモアライ,埼玉県加須市北下新井
3491135,埼玉県,加須市,北平野,サイタマケン,カゾシ,キタヒラノ,埼玉県加須市北平野
3491141,埼玉県,加須市,松永新田,サイタマケン,カゾシ,マツナガシンデン,埼玉県加須市松永新田
3491142,埼玉県,加須市,杓子木,サイタマケン,カゾシ,シャクシギ,埼玉県加須市杓子木
3491143,埼玉県,加須市,生出,サイタマケン,カゾシ,オイデ,埼玉県加須市生出
3491144,埼玉県,加須市,阿佐間,サイタマケン,カゾシ,アザマ,埼玉県加須市阿佐間
3491145,埼玉県,加須市,間口,サイタマケン,カゾシ,マクチ,埼玉県加須市間口
3491146,埼玉県,加須市,新井新田,サイタマケン,カゾシ,アライシンデン,埼玉県加須市新井新田
3491147,埼玉県,加須市,北大桑,サイタマケン,カゾシ,キタオオクワ,埼玉県加須市北大桑
3491148,埼玉県,加須市,豊野台,サイタマケン,カゾシ,トヨノダイ,埼玉県加須市豊野台
3491151,埼玉県,加須市,佐波,サイタマケン,カゾシ,ザワ,埼玉県加須市佐波
3491152,埼玉県,加須市,弥兵衛,サイタマケン,カゾシ,ヤヘエ,埼玉県加須市弥兵衛
3491153,埼玉県,加須市,新川通,サイタマケン,カゾシ,シンカワドオリ,埼玉県加須市新川通
3491154,埼玉県,加須市,外記新田,サイタマケン,カゾシ,ゲキシンデン,埼玉県加須市外記新田
3491155,埼玉県,加須市,砂原,サイタマケン,カゾシ,スナハラ,埼玉県加須市砂原
3491156,埼玉県,加須市,細間,サイタマケン,カゾシ,ホソマ,埼玉県加須市細間
3491157,埼玉県,加須市,道目,サイタマケン,カゾシ,ドウメ,埼玉県加須市道目
3491158,埼玉県,加須市,新利根,サイタマケン,カゾシ,シントネ,埼玉県加須市新利根
3491201,埼玉県,加須市,柳生,サイタマケン,カゾシ,ヤギュウ,埼玉県加須市柳生
3491202,埼玉県,加須市,小野袋,サイタマケン,カゾシ,オノフクロ,埼玉県加須市小野袋
3491203,埼玉県,加須市,柏戸,サイタマケン,カゾシ,カシワド,埼玉県加須市柏戸
3491204,埼玉県,加須市,陽光台,サイタマケン,カゾシ,ヨウコウダイ,埼玉県加須市陽光台
3491205,埼玉県,加須市,向古河,サイタマケン,カゾシ,ムカイコガ,埼玉県加須市向古河
3491211,埼玉県,加須市,飯積,サイタマケン,カゾシ,イイヅミ,埼玉県加須市飯積
3491212,埼玉県,加須市,麦倉,サイタマケン,カゾシ,ムギクラ,埼玉県加須市麦倉
3491213,埼玉県,加須市,栄,サイタマケン,カゾシ,サカエ,埼玉県加須市栄
3491214,埼玉県,加須市,駒場,サイタマケン,カゾシ,コマバ,埼玉県加須市駒場
3491215,埼玉県,加須市,伊賀袋,サイタマケン,カゾシ,イガフクロ,埼玉県加須市伊賀袋
3491216,埼玉県,加須市,本郷,サイタマケン,カゾシ,ホンゴウ,埼玉県加須市本郷
3500001,埼玉県,川越市,古谷上,サイタマケン,カワゴエシ,フルヤカミ,埼玉県川越市古谷上
3500002,埼玉県,川越市,古谷本郷,サイタマケン,カワゴエシ,フルヤホンゴウ,埼玉県川越市古谷本郷
3500003,埼玉県,川越市,八ツ島,サイタマケン,カワゴエシ,ヤツシマ,埼玉県川越市八ツ島
3500004,埼玉県,川越市,高島,サイタマケン,カワゴエシ,タカシマ,埼玉県川越市高島
3500011,埼玉県,川越市,久下戸,サイタマケン,カワゴエシ,クゲド,埼玉県川越市久下戸
3500012,埼玉県,川越市,萱沼,サイタマケン,カワゴエシ,カイヌマ,埼玉県川越市萱沼
3500013,埼玉県,川越市,渋井,サイタマケン,カワゴエシ,シブイ,埼玉県川越市渋井
3500014,埼玉県,川越市,古市場,サイタマケン,カワゴエシ,フルイチバ,埼玉県川越市古市場
3500015,埼玉県,川越市,今泉,サイタマケン,カワゴエシ,イマイズミ,埼玉県川越市今泉
3500016,埼玉県,川越市,木野目,サイタマケン,カワゴエシ,キノメ,埼玉県川越市木野目
3500017,埼玉県,川越市,牛子,サイタマケン,カワゴエシ,ウシコ,埼玉県川越市牛子
3500018,埼玉県,川越市,藤木町,サイタマケン,カワゴエシ,フジキチョウ,埼玉県川越市藤木町
3500021,埼玉県,川越市,大中居,サイタマケン,カワゴエシ,オオナカイ,埼玉県川越市大中居
3500022,埼玉県,川越市,小中居,サイタマケン,カワゴエシ,コナカイ,埼玉県川越市小中居
3500023,埼玉県,川越市,並木,サイタマケン,カワゴエシ,ナミキ,埼玉県川越市並木
3500024,埼玉県,川越市,並木新町,サイタマケン,カワゴエシ,ナミキシンマチ,埼玉県川越市並木新町
3500025,埼玉県,川越市,並木西町,サイタマケン,カワゴエシ,ナミキニシマチ,埼玉県川越市並木西町
3500026,埼玉県,川越市,泉町,サイタマケン,カワゴエシ,イズミチョウ,埼玉県川越市泉町
3500027,埼玉県,川越市,南田島,サイタマケン,カワゴエシ,ミナミタジマ,埼玉県川越市南田島
3500031,埼玉県,川越市,小仙波,サイタマケン,カワゴエシ,コセンバ,埼玉県川越市小仙波
3500032,埼玉県,川越市,大仙波,サイタマケン,カワゴエシ,オオセンバ,埼玉県川越市大仙波
3500033,埼玉県,川越市,富士見町,サイタマケン,カワゴエシ,フジミチョウ,埼玉県川越市富士見町
3500034,埼玉県,川越市,仙波町,サイタマケン,カワゴエシ,センバマチ,埼玉県川越市仙波町
3500035,埼玉県,川越市,西小仙波町,サイタマケン,カワゴエシ,ニシコセンバマチ,埼玉県川越市西小仙波町
3500036,埼玉県,川越市,小仙波町,サイタマケン,カワゴエシ,コセンバマチ,埼玉県川越市小仙波町
3500041,埼玉県,川越市,六軒町,サイタマケン,カワゴエシ,ロッケンマチ,埼玉県川越市六軒町
3500042,埼玉県,川越市,中原町,サイタマケン,カワゴエシ,ナカハラチョウ,埼玉県川越市中原町
3500043,埼玉県,川越市,新富町,サイタマケン,カワゴエシ,シントミチョウ,埼玉県川越市新富町
3500044,埼玉県,川越市,通町,サイタマケン,カワゴエシ,トオリマチ,埼玉県川越市通町
3500045,埼玉県,川越市,南通町,サイタマケン,カワゴエシ,ミナミトオリマチ,埼玉県川越市南通町
3500046,埼玉県,川越市,菅原町,サイタマケン,カワゴエシ,スガワラチョウ,埼玉県川越市菅原町
3500051,埼玉県,川越市,志多町,サイタマケン,カワゴエシ,シタマチ,埼玉県川越市志多町
3500052,埼玉県,川越市,宮下町,サイタマケン,カワゴエシ,ミヤシタマチ,埼玉県川越市宮下町
3500053,埼玉県,川越市,郭町,サイタマケン,カワゴエシ,クルワマチ,埼玉県川越市郭町
3500054,埼玉県,川越市,三久保町,サイタマケン,カワゴエシ,サンクボチョウ,埼玉県川越市三久保町
3500055,埼玉県,川越市,久保町,サイタマケン,カワゴエシ,クボマチ,埼玉県川越市久保町
3500056,埼玉県,川越市,松江町,サイタマケン,カワゴエシ,マツエチョウ,埼玉県川越市松江町
3500057,埼玉県,川越市,大手町,サイタマケン,カワゴエシ,オオテマチ,埼玉県川越市大手町
3500061,埼玉県,川越市,喜多町,サイタマケン,カワゴエシ,キタマチ,埼玉県川越市喜多町
3500062,埼玉県,川越市,元町,サイタマケン,カワゴエシ,モトマチ,埼玉県川越市元町
3500063,埼玉県,川越市,幸町,サイタマケン,カワゴエシ,サイワイチョウ,埼玉県川越市幸町
3500064,埼玉県,川越市,末広町,サイタマケン,カワゴエシ,スエヒロチョウ,埼玉県川越市末広町
3500065,埼玉県,川越市,仲町,サイタマケン,カワゴエシ,ナカチョウ,埼玉県川越市仲町
3500066,埼玉県,川越市,連雀町,サイタマケン,カワゴエシ,レンジャクチョウ,埼玉県川越市連雀町
3500067,埼玉県,川越市,三光町,サイタマケン,カワゴエシ,サンコウチョウ,埼玉県川越市三光町
3500100,埼玉県,比企郡川島町,,サイタマケン,ヒキグンカワジママチ,,埼玉県比企郡川島町
3500101,埼玉県,比企郡川島町,梅ノ木,サイタマケン,ヒキグンカワジママチ,ウメノキ,埼玉県比企郡川島町梅ノ木
3500102,埼玉県,比企郡川島町,下小見野,サイタマケン,ヒキグンカワジママチ,シモオミノ,埼玉県比企郡川島町下小見野
3500103,埼玉県,比企郡川島町,松永,サイタマケン,ヒキグンカワジママチ,マツナガ,埼玉県比企郡川島町松永
3500104,埼玉県,比企郡川島町,芝沼,サイタマケン,ヒキグンカワジママチ,シバヌマ,埼玉県比企郡川島町芝沼
3500105,埼玉県,比企郡川島町,小見野,サイタマケン,ヒキグンカワジママチ,オミノ,埼玉県比企郡川島町小見野
3500106,埼玉県,比企郡川島町,上小見野,サイタマケン,ヒキグンカワジママチ,カミオミノ,埼玉県比企郡川島町上小見野
3500107,埼玉県,比企郡川島町,加胡,サイタマケン,ヒキグンカワジママチ,カゴ,埼玉県比企郡川島町加胡
3500111,埼玉県,比企郡川島町,谷中,サイタマケン,ヒキグンカワジママチ,ヤナカ,埼玉県比企郡川島町谷中
3500112,埼玉県,比企郡川島町,鳥羽井新田,サイタマケン,ヒキグンカワジママチ,トバイシンデン,埼玉県比企郡川島町鳥羽井新田
3500113,埼玉県,比企郡川島町,東部,サイタマケン,ヒキグンカワジママチ,トウブ,埼玉県比企郡川島町東部
3500114,埼玉県,比企郡川島町,東大塚,サイタマケン,ヒキグンカワジママチ,ヒガシオオヅカ,埼玉県比企郡川島町東大塚
3500115,埼玉県,比企郡川島町,一本木,サイタマケン,ヒキグンカワジママチ,イッポンギ,埼玉県比企郡川島町一本木
3500116,埼玉県,比企郡川島町,虫塚,サイタマケン,ヒキグンカワジママチ,ムシヅカ,埼玉県比企郡川島町虫塚
3500117,埼玉県,比企郡川島町,鳥羽井,サイタマケン,ヒキグンカワジママチ,トバイ,埼玉県比企郡川島町鳥羽井
3500121,埼玉県,比企郡川島町,上八ツ林,サイタマケン,ヒキグンカワジママチ,カミヤツバヤシ,埼玉県比企郡川島町上八ツ林
3500122,埼玉県,比企郡川島町,下八ツ林,サイタマケン,ヒキグンカワジママチ,シモヤツバヤシ,埼玉県比企郡川島町下八ツ林
3500123,埼玉県,比企郡川島町,畑中,サイタマケン,ヒキグンカワジママチ,ハタナカ,埼玉県比企郡川島町畑中
3500124,埼玉県,比企郡川島町,三保谷宿,サイタマケン,ヒキグンカワジママチ,ミホヤジュク,埼玉県比企郡川島町三保谷宿
3500125,埼玉県,比企郡川島町,東野,サイタマケン,ヒキグンカワジママチ,ヒガシノ,埼玉県比企郡川島町東野
3500126,埼玉県,比企郡川島町,山ケ谷戸,サイタマケン,ヒキグンカワジママチ,ヤマガヤト,埼玉県比企郡川島町山ケ谷戸
3500127,埼玉県,比企郡川島町,牛ケ谷戸,サイタマケン,ヒキグンカワジママチ,ウシガヤト,埼玉県比企郡川島町牛ケ谷戸
3500128,埼玉県,比企郡川島町,白井沼,サイタマケン,ヒキグンカワジママチ,シロイヌマ,埼玉県比企郡川島町白井沼
3500131,埼玉県,比企郡川島町,平沼,サイタマケン,ヒキグンカワジママチ,ヒラヌマ,埼玉県比企郡川島町平沼
3500132,埼玉県,比企郡川島町,紫竹,サイタマケン,ヒキグンカワジママチ,シチク,埼玉県比企郡川島町紫竹
3500133,埼玉県,比企郡川島町,表,サイタマケン,ヒキグンカワジママチ,オモテ,埼玉県比企郡川島町表
3500134,埼玉県,比企郡川島町,新堀,サイタマケン,ヒキグンカワジママチ,ニイボリ,埼玉県比企郡川島町新堀
3500135,埼玉県,比企郡川島町,下狢,サイタマケン,ヒキグンカワジママチ,シモムジナ,埼玉県比企郡川島町下狢
3500136,埼玉県,比企郡川島町,上狢,サイタマケン,ヒキグンカワジママチ,カミムジナ,埼玉県比企郡川島町上狢
3500137,埼玉県,比企郡川島町,宮前,サイタマケン,ヒキグンカワジママチ,ミヤマエ,埼玉県比企郡川島町宮前
3500138,埼玉県,比企郡川島町,吉原,サイタマケン,ヒキグンカワジママチ,ヨシワラ,埼玉県比企郡川島町吉原
3500141,埼玉県,比企郡川島町,出丸下郷,サイタマケン,ヒキグンカワジママチ,デマルシモゴウ,埼玉県比企郡川島町出丸下郷
3500142,埼玉県,比企郡川島町,上大屋敷,サイタマケン,ヒキグンカワジママチ,カミオオヤシキ,埼玉県比企郡川島町上大屋敷
3500143,埼玉県,比企郡川島町,出丸中郷,サイタマケン,ヒキグンカワジママチ,デマルナカゴウ,埼玉県比企郡川島町出丸中郷
3500144,埼玉県,比企郡川島町,下大屋敷,サイタマケン,ヒキグンカワジママチ,シモオオヤシキ,埼玉県比企郡川島町下大屋敷
3500145,埼玉県,比企郡川島町,出丸本,サイタマケン,ヒキグンカワジママチ,デマルホン,埼玉県比企郡川島町出丸本
3500146,埼玉県,比企郡川島町,曲師,サイタマケン,ヒキグンカワジママチ,マゲシ,埼玉県比企郡川島町曲師
3500147,埼玉県,比企郡川島町,西谷,サイタマケン,ヒキグンカワジママチ,ニシヤ,埼玉県比企郡川島町西谷
3500151,埼玉県,比企郡川島町,八幡,サイタマケン,ヒキグンカワジママチ,ハチマン,埼玉県比企郡川島町八幡
3500152,埼玉県,比企郡川島町,上伊草,サイタマケン,ヒキグンカワジママチ,カミイグサ,埼玉県比企郡川島町上伊草
3500153,埼玉県,比企郡川島町,飯島,サイタマケン,ヒキグンカワジママチ,イイジマ,埼玉県比企郡川島町飯島
3500154,埼玉県,比企郡川島町,安塚,サイタマケン,ヒキグンカワジママチ,ヤスヅカ,埼玉県比企郡川島町安塚
3500155,埼玉県,比企郡川島町,釘無,サイタマケン,ヒキグンカワジママチ,クギナシ,埼玉県比企郡川島町釘無
3500156,埼玉県,比企郡川島町,角泉,サイタマケン,ヒキグンカワジママチ,カクセン,埼玉県比企郡川島町角泉
3500157,埼玉県,比企郡川島町,下伊草,サイタマケン,ヒキグンカワジママチ,シモイグサ,埼玉県比企郡川島町下伊草
3500158,埼玉県,比企郡川島町,伊草,サイタマケン,ヒキグンカワジママチ,イグサ,埼玉県比企郡川島町伊草
3500161,埼玉県,比企郡川島町,長楽,サイタマケン,ヒキグンカワジママチ,ナガラク,埼玉県比企郡川島町長楽
3500162,埼玉県,比企郡川島町,正直,サイタマケン,ヒキグンカワジママチ,ショウジキ,埼玉県比企郡川島町正直
3500163,埼玉県,比企郡川島町,北園部,サイタマケン,ヒキグンカワジママチ,キタソノベ,埼玉県比企郡川島町北園部
3500164,埼玉県,比企郡川島町,吹塚,サイタマケン,ヒキグンカワジママチ,フキヅカ,埼玉県比企郡川島町吹塚
3500165,埼玉県,比企郡川島町,中山,サイタマケン,ヒキグンカワジママチ,ナカヤマ,埼玉県比企郡川島町中山
3500166,埼玉県,比企郡川島町,戸守,サイタマケン,ヒキグンカワジママチ,トモリ,埼玉県比企郡川島町戸守
3500167,埼玉県,比企郡川島町,南園部,サイタマケン,ヒキグンカワジママチ,ミナミソノベ,埼玉県比企郡川島町南園部
3500168,埼玉県,比企郡川島町,かわじま,サイタマケン,ヒキグンカワジママチ,カワジマ,埼玉県比企郡川島町かわじま
3500200,埼玉県,坂戸市,,サイタマケン,サカドシ,,埼玉県坂戸市
3500201,埼玉県,坂戸市,赤尾,サイタマケン,サカドシ,アカオ,埼玉県坂戸市赤尾
3500202,埼玉県,坂戸市,小沼,サイタマケン,サカドシ,コヌマ,埼玉県坂戸市小沼
3500203,埼玉県,坂戸市,横沼,サイタマケン,サカドシ,ヨコヌマ,埼玉県坂戸市横沼
3500204,埼玉県,坂戸市,紺屋,サイタマケン,サカドシ,コウヤ,埼玉県坂戸市紺屋
3500205,埼玉県,坂戸市,東坂戸,サイタマケン,サカドシ,ヒガシサカド,埼玉県坂戸市東坂戸
3500206,埼玉県,坂戸市,中小坂,サイタマケン,サカドシ,ナカオサカ,埼玉県坂戸市中小坂
3500207,埼玉県,坂戸市,青木,サイタマケン,サカドシ,アオキ,埼玉県坂戸市青木
3500208,埼玉県,坂戸市,戸宮,サイタマケン,サカドシ,トミヤ,埼玉県坂戸市戸宮
3500209,埼玉県,坂戸市,塚越,サイタマケン,サカドシ,ツカゴシ,埼玉県坂戸市塚越
3500211,埼玉県,坂戸市,島田,サイタマケン,サカドシ,シマダ,埼玉県坂戸市島田
3500212,埼玉県,坂戸市,石井,サイタマケン,サカドシ,イシイ,埼玉県坂戸市石井
3500213,埼玉県,坂戸市,栄,サイタマケン,サカドシ,サカエ,埼玉県坂戸市栄
3500214,埼玉県,坂戸市,千代田,サイタマケン,サカドシ,チヨダ,埼玉県坂戸市千代田
3500215,埼玉県,坂戸市,関間,サイタマケン,サカドシ,セキマ,埼玉県坂戸市関間
3500216,埼玉県,坂戸市,柳町,サイタマケン,サカドシ,ヤナギチョウ,埼玉県坂戸市柳町
3500217,埼玉県,坂戸市,坂戸,サイタマケン,サカドシ,サカド,埼玉県坂戸市坂戸
3500218,埼玉県,坂戸市,片柳新田,サイタマケン,サカドシ,カタヤナギシンデン,埼玉県坂戸市片柳新田
3500219,埼玉県,坂戸市,片柳,サイタマケン,サカドシ,カタヤナギ,埼玉県坂戸市片柳
3500221,埼玉県,坂戸市,鎌倉町,サイタマケン,サカドシ,カマクラチョウ,埼玉県坂戸市鎌倉町
3500222,埼玉県,坂戸市,清水町,サイタマケン,サカドシ,シミズチョウ,埼玉県坂戸市清水町
3500223,埼玉県,坂戸市,八幡,サイタマケン,サカドシ,ヤハタ,埼玉県坂戸市八幡
3500224,埼玉県,坂戸市,山田町,サイタマケン,サカドシ,ヤマタチョウ,埼玉県坂戸市山田町
3500225,埼玉県,坂戸市,日の出町,サイタマケン,サカドシ,ヒノデチョウ,埼玉県坂戸市日の出町
3500226,埼玉県,坂戸市,本町,サイタマケン,サカドシ,ホンチョウ,埼玉県坂戸市本町
3500227,埼玉県,坂戸市,仲町,サイタマケン,サカドシ,ナカチョウ,埼玉県坂戸市仲町
3500228,埼玉県,坂戸市,元町,サイタマケン,サカドシ,モトチョウ,埼玉県坂戸市元町
3500229,埼玉県,坂戸市,薬師町,サイタマケン,サカドシ,ヤクシチョウ,埼玉県坂戸市薬師町
3500231,埼玉県,坂戸市,泉町,サイタマケン,サカドシ,イズミチョウ,埼玉県坂戸市泉町
3500232,埼玉県,坂戸市,中富町,サイタマケン,サカドシ,ナカトミチョウ,埼玉県坂戸市中富町
3500233,埼玉県,坂戸市,南町,サイタマケン,サカドシ,ミナミチョウ,埼玉県坂戸市南町
3500234,埼玉県,坂戸市,緑町,サイタマケン,サカドシ,ミドリチョウ,埼玉県坂戸市緑町
3500235,埼玉県,坂戸市,三光町,サイタマケン,サカドシ,サンコウチョウ,埼玉県坂戸市三光町
3500236,埼玉県,坂戸市,花影町,サイタマケン,サカドシ,ハナカゲチョウ,埼玉県坂戸市花影町
3500237,埼玉県,坂戸市,浅羽野,サイタマケン,サカドシ,アサバノ,埼玉県坂戸市浅羽野
3500238,埼玉県,坂戸市,浅羽,サイタマケン,サカドシ,アサバ,埼玉県坂戸市浅羽
3500239,埼玉県,坂戸市,粟生田,サイタマケン,サカドシ,アオタ,埼玉県坂戸市粟生田
3500241,埼玉県,坂戸市,鶴舞,サイタマケン,サカドシ,ツルマイ,埼玉県坂戸市鶴舞
3500242,埼玉県,坂戸市,厚川,サイタマケン,サカドシ,アツガワ,埼玉県坂戸市厚川
3500243,埼玉県,坂戸市,萱方,サイタマケン,サカドシ,カヤガタ,埼玉県坂戸市萱方
3500244,埼玉県,坂戸市,森戸,サイタマケン,サカドシ,モリド,埼玉県坂戸市森戸
3500245,埼玉県,坂戸市,四日市場,サイタマケン,サカドシ,ヨッカイチバ,埼玉県坂戸市四日市場
3500246,埼玉県,坂戸市,多和目,サイタマケン,サカドシ,タワメ,埼玉県坂戸市多和目
3500247,埼玉県,坂戸市,西坂戸,サイタマケン,サカドシ,ニシサカド,埼玉県坂戸市西坂戸
3500248,埼玉県,坂戸市,けやき台,サイタマケン,サカドシ,ケヤキダイ,埼玉県坂戸市けやき台
3500251,埼玉県,坂戸市,塚崎,サイタマケン,サカドシ,ツカサキ,埼玉県坂戸市塚崎
3500252,埼玉県,坂戸市,中里,サイタマケン,サカドシ,ナカザト,埼玉県坂戸市中里
3500253,埼玉県,坂戸市,北大塚,サイタマケン,サカドシ,キタオオツカ,埼玉県坂戸市北大塚
3500254,埼玉県,坂戸市,欠ノ上,サイタマケン,サカドシ,カケノウエ,埼玉県坂戸市欠ノ上
3500255,埼玉県,坂戸市,成願寺,サイタマケン,サカドシ,ジョウガンジ,埼玉県坂戸市成願寺
3500256,埼玉県,坂戸市,善能寺,サイタマケン,サカドシ,ゼンノウジ,埼玉県坂戸市善能寺
3500257,埼玉県,坂戸市,小山,サイタマケン,サカドシ,コヤマ,埼玉県坂戸市小山
3500258,埼玉県,坂戸市,北峰,サイタマケン,サカドシ,キタミネ,埼玉県坂戸市北峰
3500259,埼玉県,坂戸市,西インター,サイタマケン,サカドシ,ニシインター,埼玉県坂戸市西インター
3500261,埼玉県,坂戸市,沢木,サイタマケン,サカドシ,サワキ,埼玉県坂戸市沢木
3500262,埼玉県,坂戸市,新堀,サイタマケン,サカドシ,ニイホリ,埼玉県坂戸市新堀
3500263,埼玉県,坂戸市,堀込,サイタマケン,サカドシ,ホリゴメ,埼玉県坂戸市堀込
3500264,埼玉県,坂戸市,竹之内,サイタマケン,サカドシ,タケノウチ,埼玉県坂戸市竹之内
3500265,埼玉県,坂戸市,長岡,サイタマケン,サカドシ,ナガオカ,埼玉県坂戸市長岡
3500266,埼玉県,坂戸市,北浅羽,サイタマケン,サカドシ,キタアサバ,埼玉県坂戸市北浅羽
3500267,埼玉県,坂戸市,今西,サイタマケン,サカドシ,イマニシ,埼玉県坂戸市今西
3500268,埼玉県,坂戸市,金田,サイタマケン,サカドシ,カネダ,埼玉県坂戸市金田
3500269,埼玉県,坂戸市,にっさい花みず木,サイタマケン,サカドシ,ニッサイハナミズキ,埼玉県坂戸市にっさい花みず木
3500271,埼玉県,坂戸市,上吉田,サイタマケン,サカドシ,カミヨシダ,埼玉県坂戸市上吉田
3500272,埼玉県,坂戸市,末広町,サイタマケン,サカドシ,スエヒロチョウ,埼玉県坂戸市末広町
3500273,埼玉県,坂戸市,芦山町,サイタマケン,サカドシ,アシヤマチョウ,埼玉県坂戸市芦山町
3500274,埼玉県,坂戸市,溝端町,サイタマケン,サカドシ,ミゾハタチョウ,埼玉県坂戸市溝端町
3500275,埼玉県,坂戸市,伊豆の山町,サイタマケン,サカドシ,イズノヤマチョウ,埼玉県坂戸市伊豆の山町
3500276,埼玉県,坂戸市,戸口,サイタマケン,サカドシ,トグチ,埼玉県坂戸市戸口
3500277,埼玉県,坂戸市,東和田,サイタマケン,サカドシ,ヒガシワダ,埼玉県坂戸市東和田
3500278,埼玉県,坂戸市,新ケ谷,サイタマケン,サカドシ,シンガヤ,埼玉県坂戸市新ケ谷
3500300,埼玉県,比企郡鳩山町,,サイタマケン,ヒキグンハトヤママチ,,埼玉県比企郡鳩山町
3500301,埼玉県,比企郡鳩山町,奥田,サイタマケン,ヒキグンハトヤママチ,オクダ,埼玉県比企郡鳩山町奥田
3500302,埼玉県,比企郡鳩山町,大橋,サイタマケン,ヒキグンハトヤママチ,オオハシ,埼玉県比企郡鳩山町大橋
3500303,埼玉県,比企郡鳩山町,熊井,サイタマケン,ヒキグンハトヤママチ,クマイ,埼玉県比企郡鳩山町熊井
3500304,埼玉県,比企郡鳩山町,高野倉,サイタマケン,ヒキグンハトヤママチ,タカノクラ,埼玉県比企郡鳩山町高野倉
3500305,埼玉県,比企郡鳩山町,泉井,サイタマケン,ヒキグンハトヤママチ,イズイ,埼玉県比企郡鳩山町泉井
3500306,埼玉県,比企郡鳩山町,竹本,サイタマケン,ヒキグンハトヤママチ,タケモト,埼玉県比企郡鳩山町竹本
3500307,埼玉県,比企郡鳩山町,須江,サイタマケン,ヒキグンハトヤママチ,スエ,埼玉県比企郡鳩山町須江
3500311,埼玉県,比企郡鳩山町,石坂,サイタマケン,ヒキグンハトヤママチ,イシザカ,埼玉県比企郡鳩山町石坂
3500312,埼玉県,比企郡鳩山町,鳩ケ丘,サイタマケン,ヒキグンハトヤママチ,ハトガオカ,埼玉県比企郡鳩山町鳩ケ丘
3500313,埼玉県,比企郡鳩山町,松ケ丘,サイタマケン,ヒキグンハトヤママチ,マツガオカ,埼玉県比企郡鳩山町松ケ丘
3500314,埼玉県,比企郡鳩山町,楓ケ丘,サイタマケン,ヒキグンハトヤママチ,カエデガオカ,埼玉県比企郡鳩山町楓ケ丘
3500321,埼玉県,比企郡鳩山町,赤沼,サイタマケン,ヒキグンハトヤママチ,アカヌマ,埼玉県比企郡鳩山町赤沼
3500322,埼玉県,比企郡鳩山町,今宿,サイタマケン,ヒキグンハトヤママチ,イマジュク,埼玉県比企郡鳩山町今宿
3500323,埼玉県,比企郡鳩山町,小用,サイタマケン,ヒキグンハトヤママチ,コヨウ,埼玉県比企郡鳩山町小用
3500324,埼玉県,比企郡鳩山町,大豆戸,サイタマケン,ヒキグンハトヤママチ,マメド,埼玉県比企郡鳩山町大豆戸
3500400,埼玉県,入間郡毛呂山町,,サイタマケン,イルマグンモロヤママチ,,埼玉県入間郡毛呂山町
3500400,埼玉県,入間郡越生町,,サイタマケン,イルマグンオゴセマチ,,埼玉県入間郡越生町
3500401,埼玉県,入間郡越生町,古池,サイタマケン,イルマグンオゴセマチ,フルイケ,埼玉県入間郡越生町古池
3500402,埼玉県,入間郡越生町,鹿下,サイタマケン,イルマグンオゴセマチ,カノシタ,埼玉県入間郡越生町鹿下
3500403,埼玉県,入間郡越生町,大谷,サイタマケン,イルマグンオゴセマチ,オオヤ,埼玉県入間郡越生町大谷
3500404,埼玉県,入間郡越生町,成瀬,サイタマケン,イルマグンオゴセマチ,ナルセ,埼玉県入間郡越生町成瀬
3500405,埼玉県,入間郡越生町,津久根,サイタマケン,イルマグンオゴセマチ,ツクネ,埼玉県入間郡越生町津久根
3500406,埼玉県,入間郡越生町,堂山,サイタマケン,イルマグンオゴセマチ,ドウヤマ,埼玉県入間郡越生町堂山
3500407,埼玉県,入間郡越生町,上谷,サイタマケン,イルマグンオゴセマチ,カミヤツ,埼玉県入間郡越生町上谷
3500411,埼玉県,入間郡越生町,黒岩,サイタマケン,イルマグンオゴセマチ,クロイワ,埼玉県入間郡越生町黒岩
3500412,埼玉県,入間郡越生町,西和田,サイタマケン,イルマグンオゴセマチ,ニシワダ,埼玉県入間郡越生町西和田
3500413,埼玉県,入間郡越生町,如意,サイタマケン,イルマグンオゴセマチ,ネオイ,埼玉県入間郡越生町如意
3500414,埼玉県,入間郡越生町,越生東,サイタマケン,イルマグンオゴセマチ,オゴセヒガシ,埼玉県入間郡越生町越生東
3500415,埼玉県,入間郡越生町,上野,サイタマケン,イルマグンオゴセマチ,ウエノ,埼玉県入間郡越生町上野
3500416,埼玉県,入間郡越生町,越生,サイタマケン,イルマグンオゴセマチ,オゴセ,埼玉県入間郡越生町越生
3500417,埼玉県,入間郡越生町,上野東,サイタマケン,イルマグンオゴセマチ,ウエノヒガシ,埼玉県入間郡越生町上野東
3500421,埼玉県,入間郡越生町,麦原,サイタマケン,イルマグンオゴセマチ,ムギハラ,埼玉県入間郡越生町麦原
3500422,埼玉県,入間郡越生町,小杉,サイタマケン,イルマグンオゴセマチ,コスギ,埼玉県入間郡越生町小杉
3500423,埼玉県,入間郡越生町,大満,サイタマケン,イルマグンオゴセマチ,ダイマ,埼玉県入間郡越生町大満
3500424,埼玉県,入間郡越生町,黒山,サイタマケン,イルマグンオゴセマチ,クロヤマ,埼玉県入間郡越生町黒山
3500425,埼玉県,入間郡越生町,龍ケ谷,サイタマケン,イルマグンオゴセマチ,タツガヤ,埼玉県入間郡越生町龍ケ谷
3500431,埼玉県,入間郡毛呂山町,苦林,サイタマケン,イルマグンモロヤママチ,ニガバヤシ,埼玉県入間郡毛呂山町苦林
3500432,埼玉県,入間郡毛呂山町,大類,サイタマケン,イルマグンモロヤママチ,オオルイ,埼玉県入間郡毛呂山町大類
3500433,埼玉県,入間郡毛呂山町,西大久保,サイタマケン,イルマグンモロヤママチ,ニシオオクボ,埼玉県入間郡毛呂山町西大久保
3500434,埼玉県,入間郡毛呂山町,市場,サイタマケン,イルマグンモロヤママチ,イチバ,埼玉県入間郡毛呂山町市場
3500435,埼玉県,入間郡毛呂山町,下川原,サイタマケン,イルマグンモロヤママチ,シモガワラ,埼玉県入間郡毛呂山町下川原
3500436,埼玉県,入間郡毛呂山町,川角,サイタマケン,イルマグンモロヤママチ,カワカド,埼玉県入間郡毛呂山町川角
3500437,埼玉県,入間郡毛呂山町,箕和田,サイタマケン,イルマグンモロヤママチ,ミノワダ,埼玉県入間郡毛呂山町箕和田
3500438,埼玉県,入間郡毛呂山町,西戸,サイタマケン,イルマグンモロヤママチ,サイド,埼玉県入間郡毛呂山町西戸
3500439,埼玉県,入間郡毛呂山町,目白台,サイタマケン,イルマグンモロヤママチ,メジロダイ,埼玉県入間郡毛呂山町目白台
3500441,埼玉県,入間郡毛呂山町,岩井,サイタマケン,イルマグンモロヤママチ,イワイ,埼玉県入間郡毛呂山町岩井
3500442,埼玉県,入間郡毛呂山町,前久保,サイタマケン,イルマグンモロヤママチ,マエクボ,埼玉県入間郡毛呂山町前久保
3500443,埼玉県,入間郡毛呂山町,長瀬,サイタマケン,イルマグンモロヤママチ,ナガセ,埼玉県入間郡毛呂山町長瀬
3500444,埼玉県,入間郡毛呂山町,旭台,サイタマケン,イルマグンモロヤママチ,アサヒダイ,埼玉県入間郡毛呂山町旭台
3500445,埼玉県,入間郡毛呂山町,葛貫,サイタマケン,イルマグンモロヤママチ,ツヅラヌキ,埼玉県入間郡毛呂山町葛貫
3500446,埼玉県,入間郡毛呂山町,小田谷,サイタマケン,イルマグンモロヤママチ,コダヤ,埼玉県入間郡毛呂山町小田谷
3500451,埼玉県,入間郡毛呂山町,毛呂本郷,サイタマケン,イルマグンモロヤママチ,モロホンゴウ,埼玉県入間郡毛呂山町毛呂本郷
3500452,埼玉県,入間郡毛呂山町,大谷木,サイタマケン,イルマグンモロヤママチ,オオヤギ,埼玉県入間郡毛呂山町大谷木
3500453,埼玉県,入間郡毛呂山町,宿谷,サイタマケン,イルマグンモロヤママチ,シュクヤ,埼玉県入間郡毛呂山町宿谷
3500454,埼玉県,入間郡毛呂山町,権現堂,サイタマケン,イルマグンモロヤママチ,ゴンゲンドウ,埼玉県入間郡毛呂山町権現堂
3500455,埼玉県,入間郡毛呂山町,阿諏訪,サイタマケン,イルマグンモロヤママチ,アスワ,埼玉県入間郡毛呂山町阿諏訪
3500456,埼玉県,入間郡毛呂山町,滝ノ入,サイタマケン,イルマグンモロヤママチ,タキノイリ,埼玉県入間郡毛呂山町滝ノ入
3500461,埼玉県,入間郡毛呂山町,中央,サイタマケン,イルマグンモロヤママチ,チュウオウ,埼玉県入間郡毛呂山町中央
3500462,埼玉県,入間郡毛呂山町,若山,サイタマケン,イルマグンモロヤママチ,ワカヤマ,埼玉県入間郡毛呂山町若山
3500463,埼玉県,入間郡毛呂山町,前久保南,サイタマケン,イルマグンモロヤママチ,マエクボミナミ,埼玉県入間郡毛呂山町前久保南
3500464,埼玉県,入間郡毛呂山町,南台,サイタマケン,イルマグンモロヤママチ,ミナミダイ,埼玉県入間郡毛呂山町南台
3500465,埼玉県,入間郡毛呂山町,岩井西,サイタマケン,イルマグンモロヤママチ,イワイニシ,埼玉県入間郡毛呂山町岩井西
3500466,埼玉県,入間郡毛呂山町,平山,サイタマケン,イルマグンモロヤママチ,ヒラヤマ,埼玉県入間郡毛呂山町平山
3500467,埼玉県,入間郡毛呂山町,岩井東,サイタマケン,イルマグンモロヤママチ,イワイヒガシ,埼玉県入間郡毛呂山町岩井東
3500801,埼玉県,川越市,竹野,サイタマケン,カワゴエシ,タケノ,埼玉県川越市竹野
3500802,埼玉県,川越市,富士見,サイタマケン,カワゴエシ,フジミ,埼玉県川越市富士見
3500803,埼玉県,川越市,栄,サイタマケン,カワゴエシ,サカエ,埼玉県川越市栄
3500804,埼玉県,川越市,下広谷,サイタマケン,カワゴエシ,シモヒロヤ,埼玉県川越市下広谷
3500805,埼玉県,川越市,広谷新町,サイタマケン,カワゴエシ,ヒロヤシンマチ,埼玉県川越市広谷新町
3500806,埼玉県,川越市,天沼新田,サイタマケン,カワゴエシ,アマヌマシンデン,埼玉県川越市天沼新田
3500807,埼玉県,川越市,吉田,サイタマケン,カワゴエシ,ヨシダ,埼玉県川越市吉田
3500808,埼玉県,川越市,吉田新町,サイタマケン,カワゴエシ,ヨシダシンマチ,埼玉県川越市吉田新町
3500809,埼玉県,川越市,鯨井新田,サイタマケン,カワゴエシ,クジライシンデン,埼玉県川越市鯨井新田
3500811,埼玉県,川越市,小堤,サイタマケン,カワゴエシ,コヅツミ,埼玉県川越市小堤
3500812,埼玉県,川越市,下小坂,サイタマケン,カワゴエシ,シモオサカ,埼玉県川越市下小坂
3500813,埼玉県,川越市,平塚新田,サイタマケン,カワゴエシ,ヒラツカシンデン,埼玉県川越市平塚新田
3500814,埼玉県,川越市,平塚,サイタマケン,カワゴエシ,ヒラツカ,埼玉県川越市平塚
3500815,埼玉県,川越市,鯨井,サイタマケン,カワゴエシ,クジライ,埼玉県川越市鯨井
3500816,埼玉県,川越市,上戸,サイタマケン,カワゴエシ,ウワド,埼玉県川越市上戸
3500817,埼玉県,川越市,上戸新町,サイタマケン,カワゴエシ,ウワドシンマチ,埼玉県川越市上戸新町
3500821,埼玉県,川越市,福田,サイタマケン,カワゴエシ,フクダ,埼玉県川越市福田
3500822,埼玉県,川越市,山田,サイタマケン,カワゴエシ,ヤマダ,埼玉県川越市山田
3500823,埼玉県,川越市,神明町,サイタマケン,カワゴエシ,シンメイチョウ,埼玉県川越市神明町
3500824,埼玉県,川越市,石原町,サイタマケン,カワゴエシ,イシワラマチ,埼玉県川越市石原町
3500825,埼玉県,川越市,月吉町,サイタマケン,カワゴエシ,ツキヨシマチ,埼玉県川越市月吉町
3500826,埼玉県,川越市,上寺山,サイタマケン,カワゴエシ,カミテラヤマ,埼玉県川越市上寺山
3500827,埼玉県,川越市,寺山,サイタマケン,カワゴエシ,テラヤマ,埼玉県川越市寺山
3500831,埼玉県,川越市,府川,サイタマケン,カワゴエシ,フカワ,埼玉県川越市府川
3500832,埼玉県,川越市,菅間,サイタマケン,カワゴエシ,スガマ,埼玉県川越市菅間
3500833,埼玉県,川越市,芳野台,サイタマケン,カワゴエシ,ヨシノダイ,埼玉県川越市芳野台
3500834,埼玉県,川越市,鹿飼,サイタマケン,カワゴエシ,シシカイ,埼玉県川越市鹿飼
3500835,埼玉県,川越市,石田本郷,サイタマケン,カワゴエシ,イシダホンゴウ,埼玉県川越市石田本郷
3500836,埼玉県,川越市,谷中,サイタマケン,カワゴエシ,ヤナカ,埼玉県川越市谷中
3500837,埼玉県,川越市,石田,サイタマケン,カワゴエシ,イシダ,埼玉県川越市石田
3500838,埼玉県,川越市,宮元町,サイタマケン,カワゴエシ,ミヤモトチョウ,埼玉県川越市宮元町
3500841,埼玉県,川越市,御成町,サイタマケン,カワゴエシ,オナリチョウ,埼玉県川越市御成町
3500842,埼玉県,川越市,北田島,サイタマケン,カワゴエシ,キタタジマ,埼玉県川越市北田島
3500843,埼玉県,川越市,東明寺,サイタマケン,カワゴエシ,トウミョウジ,埼玉県川越市東明寺
3500844,埼玉県,川越市,鴨田,サイタマケン,カワゴエシ,カモダ,埼玉県川越市鴨田
3500845,埼玉県,川越市,上老袋,サイタマケン,カワゴエシ,カミオイブクロ,埼玉県川越市上老袋
3500846,埼玉県,川越市,中老袋,サイタマケン,カワゴエシ,ナカオイブクロ,埼玉県川越市中老袋
3500847,埼玉県,川越市,東本宿,サイタマケン,カワゴエシ,ヒガシホンジュク,埼玉県川越市東本宿
3500848,埼玉県,川越市,下老袋,サイタマケン,カワゴエシ,シモオイブクロ,埼玉県川越市下老袋
3500851,埼玉県,川越市,氷川町,サイタマケン,カワゴエシ,ヒカワチョウ,埼玉県川越市氷川町
3500852,埼玉県,川越市,川越,サイタマケン,カワゴエシ,カワゴエ,埼玉県川越市川越
3500853,埼玉県,川越市,城下町,サイタマケン,カワゴエシ,シロシタマチ,埼玉県川越市城下町
3500854,埼玉県,川越市,寺井,サイタマケン,カワゴエシ,テライ,埼玉県川越市寺井
3500855,埼玉県,川越市,伊佐沼,サイタマケン,カワゴエシ,イサヌマ,埼玉県川越市伊佐沼
3500856,埼玉県,川越市,問屋町,サイタマケン,カワゴエシ,トンヤマチ,埼玉県川越市問屋町
3500857,埼玉県,川越市,松郷,サイタマケン,カワゴエシ,マツゴウ,埼玉県川越市松郷
3501100,埼玉県,川越市,,サイタマケン,カワゴエシ,,埼玉県川越市
3501101,埼玉県,川越市,的場,サイタマケン,カワゴエシ,マトバ,埼玉県川越市的場
3501102,埼玉県,川越市,的場北,サイタマケン,カワゴエシ,マトバキタ,埼玉県川越市的場北
3501103,埼玉県,川越市,霞ケ関東,サイタマケン,カワゴエシ,カスミガセキヒガシ,埼玉県川越市霞ケ関東
3501104,埼玉県,川越市,小ケ谷,サイタマケン,カワゴエシ,オガヤ,埼玉県川越市小ケ谷
3501105,埼玉県,川越市,今成,サイタマケン,カワゴエシ,イマナリ,埼玉県川越市今成
3501106,埼玉県,川越市,小室,サイタマケン,カワゴエシ,コムロ,埼玉県川越市小室
3501107,埼玉県,川越市,的場新町,サイタマケン,カワゴエシ,マトバシンマチ,埼玉県川越市的場新町
3501108,埼玉県,川越市,伊勢原町,サイタマケン,カワゴエシ,イセハラチョウ,埼玉県川越市伊勢原町
3501109,埼玉県,川越市,霞ケ関北,サイタマケン,カワゴエシ,カスミガセキキタ,埼玉県川越市霞ケ関北
3501110,埼玉県,川越市,豊田町,サイタマケン,カワゴエシ,トヨダチョウ,埼玉県川越市豊田町
3501111,埼玉県,川越市,野田,サイタマケン,カワゴエシ,ノダ,埼玉県川越市野田
3501112,埼玉県,川越市,上野田町,サイタマケン,カワゴエシ,カミノダマチ,埼玉県川越市上野田町
3501113,埼玉県,川越市,田町,サイタマケン,カワゴエシ,タマチ,埼玉県川越市田町
3501114,埼玉県,川越市,東田町,サイタマケン,カワゴエシ,ヒガシタマチ,埼玉県川越市東田町
3501115,埼玉県,川越市,野田町,サイタマケン,カワゴエシ,ノダマチ,埼玉県川越市野田町
3501116,埼玉県,川越市,寿町,サイタマケン,カワゴエシ,コトブキチョウ,埼玉県川越市寿町
3501117,埼玉県,川越市,広栄町,サイタマケン,カワゴエシ,コウエイチョウ,埼玉県川越市広栄町
3501118,埼玉県,川越市,豊田本,サイタマケン,カワゴエシ,トヨダホン,埼玉県川越市豊田本
3501119,埼玉県,川越市,豊田新田,サイタマケン,カワゴエシ,トヨダシンデン,埼玉県川越市豊田新田
3501121,埼玉県,川越市,脇田新町,サイタマケン,カワゴエシ,ワキタシンマチ,埼玉県川越市脇田新町
3501122,埼玉県,川越市,脇田町,サイタマケン,カワゴエシ,ワキタマチ,埼玉県川越市脇田町
3501123,埼玉県,川越市,脇田本町,サイタマケン,カワゴエシ,ワキタホンチョウ,埼玉県川越市脇田本町
3501124,埼玉県,川越市,新宿町,サイタマケン,カワゴエシ,アラジュクマチ,埼玉県川越市新宿町
3501125,埼玉県,川越市,新宿,サイタマケン,カワゴエシ,アラジュク,埼玉県川越市新宿
3501126,埼玉県,川越市,旭町,サイタマケン,カワゴエシ,アサヒチョウ,埼玉県川越市旭町
3501128,埼玉県,川越市,大仙波新田,サイタマケン,カワゴエシ,オオセンバシンデン,埼玉県川越市大仙波新田
3501129,埼玉県,川越市,大塚,サイタマケン,カワゴエシ,オオツカ,埼玉県川越市大塚
3501131,埼玉県,川越市,岸町,サイタマケン,カワゴエシ,キシマチ,埼玉県川越市岸町
3501132,埼玉県,川越市,岸,サイタマケン,カワゴエシ,キシ,埼玉県川越市岸
3501133,埼玉県,川越市,砂,サイタマケン,カワゴエシ,スナ,埼玉県川越市砂
3501134,埼玉県,川越市,扇河岸,サイタマケン,カワゴエシ,オウギガシ,埼玉県川越市扇河岸
3501135,埼玉県,川越市,上新河岸,サイタマケン,カワゴエシ,カミシンガシ,埼玉県川越市上新河岸
3501136,埼玉県,川越市,下新河岸,サイタマケン,カワゴエシ,シモシンガシ,埼玉県川越市下新河岸
3501137,埼玉県,川越市,砂新田,サイタマケン,カワゴエシ,スナシンデン,埼玉県川越市砂新田
3501138,埼玉県,川越市,中台元町,サイタマケン,カワゴエシ,ナカダイモトマチ,埼玉県川越市中台元町
3501141,埼玉県,川越市,寺尾,サイタマケン,カワゴエシ,テラオ,埼玉県川越市寺尾
3501142,埼玉県,川越市,藤間,サイタマケン,カワゴエシ,フジマ,埼玉県川越市藤間
3501143,埼玉県,川越市,藤原町,サイタマケン,カワゴエシ,フジワラチョウ,埼玉県川越市藤原町
3501144,埼玉県,川越市,稲荷町,サイタマケン,カワゴエシ,イナリチョウ,埼玉県川越市稲荷町
3501145,埼玉県,川越市,清水町,サイタマケン,カワゴエシ,シミズチョウ,埼玉県川越市清水町
3501146,埼玉県,川越市,熊野町,サイタマケン,カワゴエシ,クマノチョウ,埼玉県川越市熊野町
3501147,埼玉県,川越市,諏訪町,サイタマケン,カワゴエシ,スワチョウ,埼玉県川越市諏訪町
3501150,埼玉県,川越市,中台南,サイタマケン,カワゴエシ,ナカダイミナミ,埼玉県川越市中台南
3501151,埼玉県,川越市,今福,サイタマケン,カワゴエシ,イマフク,埼玉県川越市今福
3501152,埼玉県,川越市,砂久保,サイタマケン,カワゴエシ,スナクボ,埼玉県川越市砂久保
3501153,埼玉県,川越市,下松原,サイタマケン,カワゴエシ,シモマツバラ,埼玉県川越市下松原
3501154,埼玉県,川越市,上松原,サイタマケン,カワゴエシ,カミマツバラ,埼玉県川越市上松原
3501155,埼玉県,川越市,下赤坂,サイタマケン,カワゴエシ,シモアカサカ,埼玉県川越市下赤坂
3501156,埼玉県,川越市,中福,サイタマケン,カワゴエシ,ナカフク,埼玉県川越市中福
3501157,埼玉県,川越市,中福東,サイタマケン,カワゴエシ,ナカフクヒガシ,埼玉県川越市中福東
3501158,埼玉県,川越市,むさし野南,サイタマケン,カワゴエシ,ムサシノミナミ,埼玉県川越市むさし野南
3501159,埼玉県,川越市,中台,サイタマケン,カワゴエシ,ナカダイ,埼玉県川越市中台
3501160,埼玉県,川越市,日東町,サイタマケン,カワゴエシ,ニットウチョウ,埼玉県川越市日東町
3501161,埼玉県,川越市,大塚新田,サイタマケン,カワゴエシ,オオツカシンデン,埼玉県川越市大塚新田
3501162,埼玉県,川越市,南大塚,サイタマケン,カワゴエシ,ミナミオオツカ,埼玉県川越市南大塚
3501163,埼玉県,川越市,四都野台,サイタマケン,カワゴエシ,ヨツヤダイ,埼玉県川越市四都野台
3501164,埼玉県,川越市,青柳,サイタマケン,カワゴエシ,アオヤギ,埼玉県川越市青柳
3501165,埼玉県,川越市,南台,サイタマケン,カワゴエシ,ミナミダイ,埼玉県川越市南台
3501166,埼玉県,川越市,藤倉,サイタマケン,カワゴエシ,フジクラ,埼玉県川越市藤倉
3501167,埼玉県,川越市,大袋新田,サイタマケン,カワゴエシ,オオフクロシンデン,埼玉県川越市大袋新田
3501168,埼玉県,川越市,大袋,サイタマケン,カワゴエシ,オオフクロ,埼玉県川越市大袋
3501169,埼玉県,川越市,山城,サイタマケン,カワゴエシ,ヤマシロ,埼玉県川越市山城
3501170,埼玉県,川越市,むさし野,サイタマケン,カワゴエシ,ムサシノ,埼玉県川越市むさし野
3501171,埼玉県,川越市,池辺,サイタマケン,カワゴエシ,イケノベ,埼玉県川越市池辺
3501172,埼玉県,川越市,増形,サイタマケン,カワゴエシ,マスカタ,埼玉県川越市増形
3501173,埼玉県,川越市,安比奈新田,サイタマケン,カワゴエシ,アイナシンデン,埼玉県川越市安比奈新田
3501174,埼玉県,川越市,かすみ野,サイタマケン,カワゴエシ,カスミノ,埼玉県川越市かすみ野
3501175,埼玉県,川越市,笠幡,サイタマケン,カワゴエシ,カサハタ,埼玉県川越市笠幡
3501176,埼玉県,川越市,川鶴,サイタマケン,カワゴエシ,カワツル,埼玉県川越市川鶴
3501177,埼玉県,川越市,かわつる三芳野,サイタマケン,カワゴエシ,カワツルミヨシノ,埼玉県川越市かわつる三芳野
3501178,埼玉県,川越市,大塚新町,サイタマケン,カワゴエシ,オオツカシンマチ,埼玉県川越市大塚新町
3501179,埼玉県,川越市,かし野台,サイタマケン,カワゴエシ,カシノダイ,埼玉県川越市かし野台
3501200,埼玉県,日高市,,サイタマケン,ヒダカシ,,埼玉県日高市
3501201,埼玉県,日高市,田波目,サイタマケン,ヒダカシ,タバメ,埼玉県日高市田波目
3501202,埼玉県,日高市,駒寺野新田,サイタマケン,ヒダカシ,コマデラノシンデン,埼玉県日高市駒寺野新田
3501203,埼玉県,日高市,旭ケ丘,サイタマケン,ヒダカシ,アサヒガオカ,埼玉県日高市旭ケ丘
3501204,埼玉県,日高市,新堀新田,サイタマケン,ヒダカシ,ニイホリシンデン,埼玉県日高市新堀新田
3501205,埼玉県,日高市,原宿,サイタマケン,ヒダカシ,ハラジュク,埼玉県日高市原宿
3501206,埼玉県,日高市,南平沢,サイタマケン,ヒダカシ,ミナミヒラサワ,埼玉県日高市南平沢
3501211,埼玉県,日高市,森戸新田,サイタマケン,ヒダカシ,モリドシンデン,埼玉県日高市森戸新田
3501212,埼玉県,日高市,下高萩新田,サイタマケン,ヒダカシ,シモタカハギシンデン,埼玉県日高市下高萩新田
3501213,埼玉県,日高市,高萩,サイタマケン,ヒダカシ,タカハギ,埼玉県日高市高萩
3501214,埼玉県,日高市,女影新田,サイタマケン,ヒダカシ,オナカゲシンデン,埼玉県日高市女影新田
3501215,埼玉県,日高市,高萩東,サイタマケン,ヒダカシ,タカハギヒガシ,埼玉県日高市高萩東
3501221,埼玉県,日高市,下大谷沢,サイタマケン,ヒダカシ,シモオオヤザワ,埼玉県日高市下大谷沢
3501222,埼玉県,日高市,大谷沢,サイタマケン,ヒダカシ,オオヤザワ,埼玉県日高市大谷沢
3501223,埼玉県,日高市,高富,サイタマケン,ヒダカシ,タカトミ,埼玉県日高市高富
3501224,埼玉県,日高市,田木,サイタマケン,ヒダカシ,タギ,埼玉県日高市田木
3501225,埼玉県,日高市,馬引沢,サイタマケン,ヒダカシ,ウマヒキザワ,埼玉県日高市馬引沢
3501226,埼玉県,日高市,中沢,サイタマケン,ヒダカシ,ナカザワ,埼玉県日高市中沢
3501227,埼玉県,日高市,女影,サイタマケン,ヒダカシ,オナカゲ,埼玉県日高市女影
3501231,埼玉県,日高市,鹿山,サイタマケン,ヒダカシ,カヤマ,埼玉県日高市鹿山
3501232,埼玉県,日高市,中鹿山,サイタマケン,ヒダカシ,ナカカヤマ,埼玉県日高市中鹿山
3501233,埼玉県,日高市,下鹿山,サイタマケン,ヒダカシ,シモカヤマ,埼玉県日高市下鹿山
3501234,埼玉県,日高市,上鹿山,サイタマケン,ヒダカシ,カミカヤマ,埼玉県日高市上鹿山
3501235,埼玉県,日高市,楡木,サイタマケン,ヒダカシ,ニレギ,埼玉県日高市楡木
3501236,埼玉県,日高市,猿田,サイタマケン,ヒダカシ,ヤエンダ,埼玉県日高市猿田
3501237,埼玉県,日高市,猿田上ノ台,サイタマケン,ヒダカシ,ヤエンダウエノダイ,埼玉県日高市猿田上ノ台
3501241,埼玉県,日高市,山根,サイタマケン,ヒダカシ,ヤマネ,埼玉県日高市山根
3501242,埼玉県,日高市,北平沢,サイタマケン,ヒダカシ,キタヒラサワ,埼玉県日高市北平沢
3501243,埼玉県,日高市,新堀,サイタマケン,ヒダカシ,ニイホリ,埼玉県日高市新堀
3501244,埼玉県,日高市,野々宮,サイタマケン,ヒダカシ,ノノミヤ,埼玉県日高市野々宮
3501245,埼玉県,日高市,栗坪,サイタマケン,ヒダカシ,クリツボ,埼玉県日高市栗坪
3501246,埼玉県,日高市,梅原,サイタマケン,ヒダカシ,ウメハラ,埼玉県日高市梅原
3501247,埼玉県,日高市,高岡,サイタマケン,ヒダカシ,タカオカ,埼玉県日高市高岡
3501248,埼玉県,日高市,四本木,サイタマケン,ヒダカシ,シホギ,埼玉県日高市四本木
3501249,埼玉県,日高市,高麗川,サイタマケン,ヒダカシ,コマガワ,埼玉県日高市高麗川
3501251,埼玉県,日高市,高麗本郷,サイタマケン,ヒダカシ,コマホンゴウ,埼玉県日高市高麗本郷
3501252,埼玉県,日高市,清流,サイタマケン,ヒダカシ,セイリュウ,埼玉県日高市清流
3501253,埼玉県,日高市,台,サイタマケン,ヒダカシ,ダイ,埼玉県日高市台
3501254,埼玉県,日高市,久保,サイタマケン,ヒダカシ,クボ,埼玉県日高市久保
3501255,埼玉県,日高市,武蔵台,サイタマケン,ヒダカシ,ムサシダイ,埼玉県日高市武蔵台
3501257,埼玉県,日高市,横手,サイタマケン,ヒダカシ,ヨコテ,埼玉県日高市横手
3501300,埼玉県,狭山市,,サイタマケン,サヤマシ,,埼玉県狭山市
3501301,埼玉県,狭山市,青柳,サイタマケン,サヤマシ,アオヤギ,埼玉県狭山市青柳
3501302,埼玉県,狭山市,東三ツ木,サイタマケン,サヤマシ,ヒガシミツギ,埼玉県狭山市東三ツ木
3501303,埼玉県,狭山市,沢,サイタマケン,サヤマシ,サワ,埼玉県狭山市沢
3501304,埼玉県,狭山市,狭山台,サイタマケン,サヤマシ,サヤマダイ,埼玉県狭山市狭山台
3501305,埼玉県,狭山市,入間川,サイタマケン,サヤマシ,イルマガワ,埼玉県狭山市入間川
3501306,埼玉県,狭山市,富士見,サイタマケン,サヤマシ,フジミ,埼玉県狭山市富士見
3501307,埼玉県,狭山市,祇園,サイタマケン,サヤマシ,ギオン,埼玉県狭山市祇園
3501308,埼玉県,狭山市,中央,サイタマケン,サヤマシ,チュウオウ,埼玉県狭山市中央
3501311,埼玉県,狭山市,中新田,サイタマケン,サヤマシ,ナカシンデン,埼玉県狭山市中新田
3501312,埼玉県,狭山市,堀兼,サイタマケン,サヤマシ,ホリガネ,埼玉県狭山市堀兼
3501313,埼玉県,狭山市,上赤坂,サイタマケン,サヤマシ,カミアカサカ,埼玉県狭山市上赤坂
3501314,埼玉県,狭山市,加佐志,サイタマケン,サヤマシ,カザシ,埼玉県狭山市加佐志
3501315,埼玉県,狭山市,北入曽,サイタマケン,サヤマシ,キタイリソ,埼玉県狭山市北入曽
3501316,埼玉県,狭山市,南入曽,サイタマケン,サヤマシ,ミナミイリソ,埼玉県狭山市南入曽
3501317,埼玉県,狭山市,水野,サイタマケン,サヤマシ,ミズノ,埼玉県狭山市水野
3501319,埼玉県,狭山市,広瀬,サイタマケン,サヤマシ,ヒロセ,埼玉県狭山市広瀬
3501320,埼玉県,狭山市,広瀬東,サイタマケン,サヤマシ,ヒロセヒガシ,埼玉県狭山市広瀬東
3501321,埼玉県,狭山市,上広瀬,サイタマケン,サヤマシ,カミヒロセ,埼玉県狭山市上広瀬
3501322,埼玉県,狭山市,下広瀬,サイタマケン,サヤマシ,シモヒロセ,埼玉県狭山市下広瀬
3501323,埼玉県,狭山市,鵜ノ木,サイタマケン,サヤマシ,ウノキ,埼玉県狭山市鵜ノ木
3501324,埼玉県,狭山市,稲荷山,サイタマケン,サヤマシ,イナリヤマ,埼玉県狭山市稲荷山
3501325,埼玉県,狭山市,根岸,サイタマケン,サヤマシ,ネギシ,埼玉県狭山市根岸
3501326,埼玉県,狭山市,つつじ野,サイタマケン,サヤマシ,ツツジノ,埼玉県狭山市つつじ野
3501327,埼玉県,狭山市,笹井,サイタマケン,サヤマシ,ササイ,埼玉県狭山市笹井
3501328,埼玉県,狭山市,広瀬台,サイタマケン,サヤマシ,ヒロセダイ,埼玉県狭山市広瀬台
3501331,埼玉県,狭山市,新狭山,サイタマケン,サヤマシ,シンサヤマ,埼玉県狭山市新狭山
3501332,埼玉県,狭山市,下奥富,サイタマケン,サヤマシ,シモオクドミ,埼玉県狭山市下奥富
3501333,埼玉県,狭山市,上奥富,サイタマケン,サヤマシ,カミオクドミ,埼玉県狭山市上奥富
3501334,埼玉県,狭山市,狭山,サイタマケン,サヤマシ,サヤマ,埼玉県狭山市狭山
3501335,埼玉県,狭山市,柏原,サイタマケン,サヤマシ,カシワバラ,埼玉県狭山市柏原
3501336,埼玉県,狭山市,柏原新田,サイタマケン,サヤマシ,カシワバラシンデン,埼玉県狭山市柏原新田
3502200,埼玉県,鶴ヶ島市,,サイタマケン,ツルガシマシ,,埼玉県鶴ヶ島市
3502201,埼玉県,鶴ヶ島市,富士見,サイタマケン,ツルガシマシ,フジミ,埼玉県鶴ヶ島市富士見
3502202,埼玉県,鶴ヶ島市,五味ヶ谷,サイタマケン,ツルガシマシ,ゴミガヤ,埼玉県鶴ヶ島市五味ヶ谷
3502203,埼玉県,鶴ヶ島市,上広谷,サイタマケン,ツルガシマシ,カミヒロヤ,埼玉県鶴ヶ島市上広谷
3502204,埼玉県,鶴ヶ島市,鶴ヶ丘,サイタマケン,ツルガシマシ,ツルガオカ,埼玉県鶴ヶ島市鶴ヶ丘
3502205,埼玉県,鶴ヶ島市,松ヶ丘,サイタマケン,ツルガシマシ,マツガオカ,埼玉県鶴ヶ島市松ヶ丘
3502206,埼玉県,鶴ヶ島市,藤金,サイタマケン,ツルガシマシ,フジガネ,埼玉県鶴ヶ島市藤金
3502211,埼玉県,鶴ヶ島市,脚折町,サイタマケン,ツルガシマシ,スネオリチョウ,埼玉県鶴ヶ島市脚折町
3502212,埼玉県,鶴ヶ島市,共栄町,サイタマケン,ツルガシマシ,キョウエイチョウ,埼玉県鶴ヶ島市共栄町
3502213,埼玉県,鶴ヶ島市,脚折,サイタマケン,ツルガシマシ,スネオリ,埼玉県鶴ヶ島市脚折
3502214,埼玉県,鶴ヶ島市,太田ヶ谷,サイタマケン,ツルガシマシ,オオタガヤ,埼玉県鶴ヶ島市太田ヶ谷
3502215,埼玉県,鶴ヶ島市,南町,サイタマケン,ツルガシマシ,ミナミチョウ,埼玉県鶴ヶ島市南町
3502216,埼玉県,鶴ヶ島市,三ツ木新田,サイタマケン,ツルガシマシ,ミツギシンデン,埼玉県鶴ヶ島市三ツ木新田
3502217,埼玉県,鶴ヶ島市,三ツ木,サイタマケン,ツルガシマシ,ミツギ,埼玉県鶴ヶ島市三ツ木
3502218,埼玉県,鶴ヶ島市,柳戸町,サイタマケン,ツルガシマシ,ヤナギドチョウ,埼玉県鶴ヶ島市柳戸町
3502219,埼玉県,鶴ヶ島市,三ツ木新町,サイタマケン,ツルガシマシ,ミツギシンマチ,埼玉県鶴ヶ島市三ツ木新町
3502221,埼玉県,鶴ヶ島市,羽折町,サイタマケン,ツルガシマシ,ハネオリチョウ,埼玉県鶴ヶ島市羽折町
3502222,埼玉県,鶴ヶ島市,下新田,サイタマケン,ツルガシマシ,シモシンデン,埼玉県鶴ヶ島市下新田
3502223,埼玉県,鶴ヶ島市,高倉,サイタマケン,ツルガシマシ,タカクラ,埼玉県鶴ヶ島市高倉
3502224,埼玉県,鶴ヶ島市,町屋,サイタマケン,ツルガシマシ,マチヤ,埼玉県鶴ヶ島市町屋
3502225,埼玉県,鶴ヶ島市,上新田,サイタマケン,ツルガシマシ,カミシンデン,埼玉県鶴ヶ島市上新田
3502226,埼玉県,鶴ヶ島市,中新田,サイタマケン,ツルガシマシ,ナカシンデン,埼玉県鶴ヶ島市中新田
3502227,埼玉県,鶴ヶ島市,新町,サイタマケン,ツルガシマシ,シンマチ,埼玉県鶴ヶ島市新町
3510000,埼玉県,朝霞市,,サイタマケン,アサカシ,,埼玉県朝霞市
3510001,埼玉県,朝霞市,上内間木,サイタマケン,アサカシ,カミウチマギ,埼玉県朝霞市上内間木
3510002,埼玉県,朝霞市,下内間木,サイタマケン,アサカシ,シモウチマギ,埼玉県朝霞市下内間木
3510003,埼玉県,朝霞市,台,サイタマケン,アサカシ,ダイ,埼玉県朝霞市台
3510004,埼玉県,朝霞市,根岸,サイタマケン,アサカシ,ネギシ,埼玉県朝霞市根岸
3510005,埼玉県,朝霞市,根岸台,サイタマケン,アサカシ,ネギシダイ,埼玉県朝霞市根岸台
3510006,埼玉県,朝霞市,仲町,サイタマケン,アサカシ,ナカチョウ,埼玉県朝霞市仲町
3510007,埼玉県,朝霞市,岡,サイタマケン,アサカシ,オカ,埼玉県朝霞市岡
3510011,埼玉県,朝霞市,本町,サイタマケン,アサカシ,ホンチョウ,埼玉県朝霞市本町
3510012,埼玉県,朝霞市,栄町,サイタマケン,アサカシ,サカエチョウ,埼玉県朝霞市栄町
3510013,埼玉県,朝霞市,膝折,サイタマケン,アサカシ,ヒザオリ,埼玉県朝霞市膝折
3510014,埼玉県,朝霞市,膝折町,サイタマケン,アサカシ,ヒザオリチョウ,埼玉県朝霞市膝折町
3510015,埼玉県,朝霞市,幸町,サイタマケン,アサカシ,サイワイチョウ,埼玉県朝霞市幸町
3510016,埼玉県,朝霞市,青葉台,サイタマケン,アサカシ,アオバダイ,埼玉県朝霞市青葉台
3510021,埼玉県,朝霞市,西弁財,サイタマケン,アサカシ,ニシベンザイ,埼玉県朝霞市西弁財
3510022,埼玉県,朝霞市,東弁財,サイタマケン,アサカシ,ヒガシベンザイ,埼玉県朝霞市東弁財
3510023,埼玉県,朝霞市,溝沼,サイタマケン,アサカシ,ミゾヌマ,埼玉県朝霞市溝沼
3510024,埼玉県,朝霞市,泉水,サイタマケン,アサカシ,センズイ,埼玉県朝霞市泉水
3510025,埼玉県,朝霞市,三原,サイタマケン,アサカシ,ミハラ,埼玉県朝霞市三原
3510031,埼玉県,朝霞市,宮戸,サイタマケン,アサカシ,ミヤド,埼玉県朝霞市宮戸
3510032,埼玉県,朝霞市,田島,サイタマケン,アサカシ,タジマ,埼玉県朝霞市田島
3510033,埼玉県,朝霞市,浜崎,サイタマケン,アサカシ,ハマサキ,埼玉県朝霞市浜崎
3510034,埼玉県,朝霞市,西原,サイタマケン,アサカシ,ニシハラ,埼玉県朝霞市西原
3510035,埼玉県,朝霞市,朝志ケ丘,サイタマケン,アサカシ,アサシガオカ,埼玉県朝霞市朝志ケ丘
3510036,埼玉県,朝霞市,北原,サイタマケン,アサカシ,キタハラ,埼玉県朝霞市北原
3510100,埼玉県,和光市,,サイタマケン,ワコウシ,,埼玉県和光市
3510101,埼玉県,和光市,白子,サイタマケン,ワコウシ,シラコ,埼玉県和光市白子
3510102,埼玉県,和光市,諏訪,サイタマケン,ワコウシ,スワ,埼玉県和光市諏訪
3510103,埼玉県,和光市,諏訪原団地,サイタマケン,ワコウシ,スワハラダンチ,埼玉県和光市諏訪原団地
3510104,埼玉県,和光市,南,サイタマケン,ワコウシ,ミナミ,埼玉県和光市南
3510105,埼玉県,和光市,西大和団地,サイタマケン,ワコウシ,ニシヤマトダンチ,埼玉県和光市西大和団地
3510106,埼玉県,和光市,広沢,サイタマケン,ワコウシ,ヒロサワ,埼玉県和光市広沢
3510111,埼玉県,和光市,下新倉,サイタマケン,ワコウシ,シモニイクラ,埼玉県和光市下新倉
3510112,埼玉県,和光市,丸山台,サイタマケン,ワコウシ,マルヤマダイ,埼玉県和光市丸山台
3510113,埼玉県,和光市,中央,サイタマケン,ワコウシ,チュウオウ,埼玉県和光市中央
3510114,埼玉県,和光市,本町,サイタマケン,ワコウシ,ホンチョウ,埼玉県和光市本町
3510115,埼玉県,和光市,新倉,サイタマケン,ワコウシ,ニイクラ,埼玉県和光市新倉
3510116,埼玉県,和光市,松ノ木島町,サイタマケン,ワコウシ,マツノキジマチョウ,埼玉県和光市松ノ木島町
3520000,埼玉県,新座市,,サイタマケン,ニイザシ,,埼玉県新座市
3520001,埼玉県,新座市,東北,サイタマケン,ニイザシ,トオホク,埼玉県新座市東北
3520002,埼玉県,新座市,東,サイタマケン,ニイザシ,ヒガシ,埼玉県新座市東
3520003,埼玉県,新座市,北野,サイタマケン,ニイザシ,キタノ,埼玉県新座市北野
3520004,埼玉県,新座市,大和田,サイタマケン,ニイザシ,オオワダ,埼玉県新座市大和田
3520005,埼玉県,新座市,中野,サイタマケン,ニイザシ,ナカノ,埼玉県新座市中野
3520006,埼玉県,新座市,新座,サイタマケン,ニイザシ,ニイザ,埼玉県新座市新座
3520011,埼玉県,新座市,野火止,サイタマケン,ニイザシ,ノビトメ,埼玉県新座市野火止
3520012,埼玉県,新座市,畑中,サイタマケン,ニイザシ,ハタナカ,埼玉県新座市畑中
3520013,埼玉県,新座市,新塚,サイタマケン,ニイザシ,ニイヅカ,埼玉県新座市新塚
3520014,埼玉県,新座市,栄,サイタマケン,ニイザシ,サカエ,埼玉県新座市栄
3520015,埼玉県,新座市,池田,サイタマケン,ニイザシ,イケダ,埼玉県新座市池田
3520016,埼玉県,新座市,馬場,サイタマケン,ニイザシ,ババ,埼玉県新座市馬場
3520017,埼玉県,新座市,菅沢,サイタマケン,ニイザシ,スガサワ,埼玉県新座市菅沢
3520021,埼玉県,新座市,あたご,サイタマケン,ニイザシ,アタゴ,埼玉県新座市あたご
3520022,埼玉県,新座市,本多,サイタマケン,ニイザシ,ホンダ,埼玉県新座市本多
3520023,埼玉県,新座市,堀ノ内,サイタマケン,ニイザシ,ホリノウチ,埼玉県新座市堀ノ内
3520024,埼玉県,新座市,道場,サイタマケン,ニイザシ,ドウジョウ,埼玉県新座市道場
3520025,埼玉県,新座市,片山,サイタマケン,ニイザシ,カタヤマ,埼玉県新座市片山
3520031,埼玉県,新座市,西堀,サイタマケン,ニイザシ,ニシボリ,埼玉県新座市西堀
3520032,埼玉県,新座市,新堀,サイタマケン,ニイザシ,シンボリ,埼玉県新座市新堀
3520033,埼玉県,新座市,石神,サイタマケン,ニイザシ,イシガミ,埼玉県新座市石神
3520034,埼玉県,新座市,野寺,サイタマケン,ニイザシ,ノデラ,埼玉県新座市野寺
3520035,埼玉県,新座市,栗原,サイタマケン,ニイザシ,クリハラ,埼玉県新座市栗原
3530000,埼玉県,志木市,,サイタマケン,シキシ,,埼玉県志木市
3530001,埼玉県,志木市,上宗岡,サイタマケン,シキシ,カミムネオカ,埼玉県志木市上宗岡
3530002,埼玉県,志木市,中宗岡,サイタマケン,シキシ,ナカムネオカ,埼玉県志木市中宗岡
3530003,埼玉県,志木市,下宗岡,サイタマケン,シキシ,シモムネオカ,埼玉県志木市下宗岡
3530004,埼玉県,志木市,本町,サイタマケン,シキシ,ホンチョウ,埼玉県志木市本町
3530005,埼玉県,志木市,幸町,サイタマケン,シキシ,サイワイチョウ,埼玉県志木市幸町
3530006,埼玉県,志木市,館,サイタマケン,シキシ,タテ,埼玉県志木市館
3530007,埼玉県,志木市,柏町,サイタマケン,シキシ,カシワチョウ,埼玉県志木市柏町
3530008,埼玉県,志木市,宗岡,サイタマケン,シキシ,ムネオカ,埼玉県志木市宗岡
3540000,埼玉県,入間郡三芳町,,サイタマケン,イルマグンミヨシマチ,,埼玉県入間郡三芳町
3540000,埼玉県,富士見市,,サイタマケン,フジミシ,,埼玉県富士見市
3540001,埼玉県,富士見市,東大久保,サイタマケン,フジミシ,ヒガシオオクボ,埼玉県富士見市東大久保
3540002,埼玉県,富士見市,上南畑,サイタマケン,フジミシ,カミナンバタ,埼玉県富士見市上南畑
3540003,埼玉県,富士見市,南畑新田,サイタマケン,フジミシ,ナンバタシンデン,埼玉県富士見市南畑新田
3540004,埼玉県,富士見市,下南畑,サイタマケン,フジミシ,シモナンバタ,埼玉県富士見市下南畑
3540005,埼玉県,富士見市,みどり野北,サイタマケン,フジミシ,ミドリノキタ,埼玉県富士見市みどり野北
3540006,埼玉県,富士見市,みどり野東,サイタマケン,フジミシ,ミドリノヒガシ,埼玉県富士見市みどり野東
3540007,埼玉県,富士見市,みどり野南,サイタマケン,フジミシ,ミドリノミナミ,埼玉県富士見市みどり野南
3540008,埼玉県,富士見市,みどり野西,サイタマケン,フジミシ,ミドリノニシ,埼玉県富士見市みどり野西
3540011,埼玉県,富士見市,水子,サイタマケン,フジミシ,ミズコ,埼玉県富士見市水子
3540012,埼玉県,富士見市,貝塚,サイタマケン,フジミシ,カイヅカ,埼玉県富士見市貝塚
3540013,埼玉県,富士見市,水谷東,サイタマケン,フジミシ,ミズタニヒガシ,埼玉県富士見市水谷東
3540014,埼玉県,富士見市,水谷,サイタマケン,フジミシ,ミズタニ,埼玉県富士見市水谷
3540015,埼玉県,富士見市,東みずほ台,サイタマケン,フジミシ,ヒガシミズホダイ,埼玉県富士見市東みずほ台
3540016,埼玉県,富士見市,榎町,サイタマケン,フジミシ,エノキチョウ,埼玉県富士見市榎町
3540017,埼玉県,富士見市,針ケ谷,サイタマケン,フジミシ,ハリガヤ,埼玉県富士見市針ケ谷
3540018,埼玉県,富士見市,西みずほ台,サイタマケン,フジミシ,ニシミズホダイ,埼玉県富士見市西みずほ台
3540021,埼玉県,富士見市,鶴馬,サイタマケン,フジミシ,ツルマ,埼玉県富士見市鶴馬
3540022,埼玉県,富士見市,山室,サイタマケン,フジミシ,ヤマムロ,埼玉県富士見市山室
3540023,埼玉県,富士見市,諏訪,サイタマケン,フジミシ,スワ,埼玉県富士見市諏訪
3540024,埼玉県,富士見市,鶴瀬東,サイタマケン,フジミシ,ツルセヒガシ,埼玉県富士見市鶴瀬東
3540025,埼玉県,富士見市,関沢,サイタマケン,フジミシ,セキザワ,埼玉県富士見市関沢
3540026,埼玉県,富士見市,鶴瀬西,サイタマケン,フジミシ,ツルセニシ,埼玉県富士見市鶴瀬西
3540031,埼玉県,富士見市,勝瀬,サイタマケン,フジミシ,カツセ,埼玉県富士見市勝瀬
3540032,埼玉県,富士見市,渡戸,サイタマケン,フジミシ,ワタド,埼玉県富士見市渡戸
3540033,埼玉県,富士見市,羽沢,サイタマケン,フジミシ,ハネサワ,埼玉県富士見市羽沢
3540034,埼玉県,富士見市,上沢,サイタマケン,フジミシ,カミサワ,埼玉県富士見市上沢
3540035,埼玉県,富士見市,ふじみ野西,サイタマケン,フジミシ,フジミノニシ,埼玉県富士見市ふじみ野西
3540036,埼玉県,富士見市,ふじみ野東,サイタマケン,フジミシ,フジミノヒガシ,埼玉県富士見市ふじみ野東
3540041,埼玉県,入間郡三芳町,藤久保,サイタマケン,イルマグンミヨシマチ,フジクボ,埼玉県入間郡三芳町藤久保
3540042,埼玉県,入間郡三芳町,みよし台,サイタマケン,イルマグンミヨシマチ,ミヨシダイ,埼玉県入間郡三芳町みよし台
3540043,埼玉県,入間郡三芳町,竹間沢,サイタマケン,イルマグンミヨシマチ,チクマザワ,埼玉県入間郡三芳町竹間沢
3540044,埼玉県,入間郡三芳町,北永井,サイタマケン,イルマグンミヨシマチ,キタナガイ,埼玉県入間郡三芳町北永井
3540045,埼玉県,入間郡三芳町,上富,サイタマケン,イルマグンミヨシマチ,カミトメ,埼玉県入間郡三芳町上富
3540046,埼玉県,入間郡三芳町,竹間沢東,サイタマケン,イルマグンミヨシマチ,チクマザワヒガシ,埼玉県入間郡三芳町竹間沢東
3550000,埼玉県,東松山市,,サイタマケン,ヒガシマツヤマシ,,埼玉県東松山市
3550001,埼玉県,東松山市,岡,サイタマケン,ヒガシマツヤマシ,オカ,埼玉県東松山市岡
3550002,埼玉県,東松山市,東平,サイタマケン,ヒガシマツヤマシ,ヒガシダイラ,埼玉県東松山市東平
3550003,埼玉県,東松山市,殿山町,サイタマケン,ヒガシマツヤマシ,トノヤマチョウ,埼玉県東松山市殿山町
3550004,埼玉県,東松山市,沢口町,サイタマケン,ヒガシマツヤマシ,サワグチチョウ,埼玉県東松山市沢口町
3550005,埼玉県,東松山市,松山,サイタマケン,ヒガシマツヤマシ,マツヤマ,埼玉県東松山市松山
3550006,埼玉県,東松山市,市ノ川,サイタマケン,ヒガシマツヤマシ,イチノカワ,埼玉県東松山市市ノ川
3550007,埼玉県,東松山市,野田,サイタマケン,ヒガシマツヤマシ,ノダ,埼玉県東松山市野田
3550008,埼玉県,東松山市,大谷,サイタマケン,ヒガシマツヤマシ,オオヤ,埼玉県東松山市大谷
3550009,埼玉県,東松山市,仲田町,サイタマケン,ヒガシマツヤマシ,ナカダチョウ,埼玉県東松山市仲田町
3550010,埼玉県,東松山市,美原町,サイタマケン,ヒガシマツヤマシ,ミハラチョウ,埼玉県東松山市美原町
3550011,埼玉県,東松山市,加美町,サイタマケン,ヒガシマツヤマシ,カミチョウ,埼玉県東松山市加美町
3550012,埼玉県,東松山市,日吉町,サイタマケン,ヒガシマツヤマシ,ヒヨシチョウ,埼玉県東松山市日吉町
3550013,埼玉県,東松山市,小松原町,サイタマケン,ヒガシマツヤマシ,コマツバラチョウ,埼玉県東松山市小松原町
3550014,埼玉県,東松山市,松本町,サイタマケン,ヒガシマツヤマシ,マツモトチョウ,埼玉県東松山市松本町
3550015,埼玉県,東松山市,本町,サイタマケン,ヒガシマツヤマシ,ホンチョウ,埼玉県東松山市本町
3550016,埼玉県,東松山市,材木町,サイタマケン,ヒガシマツヤマシ,ザイモクチョウ,埼玉県東松山市材木町
3550017,埼玉県,東松山市,松葉町,サイタマケン,ヒガシマツヤマシ,マツバチョウ,埼玉県東松山市松葉町
3550018,埼玉県,東松山市,松山町,サイタマケン,ヒガシマツヤマシ,マツヤマチョウ,埼玉県東松山市松山町
3550019,埼玉県,東松山市,砂田町,サイタマケン,ヒガシマツヤマシ,スナダチョウ,埼玉県東松山市砂田町
3550021,埼玉県,東松山市,神明町,サイタマケン,ヒガシマツヤマシ,シンメイチョウ,埼玉県東松山市神明町
3550022,埼玉県,東松山市,御茶山町,サイタマケン,ヒガシマツヤマシ,オチャヤマチョウ,埼玉県東松山市御茶山町
3550023,埼玉県,東松山市,六反町,サイタマケン,ヒガシマツヤマシ,ロクタンチョウ,埼玉県東松山市六反町
3550024,埼玉県,東松山市,六軒町,サイタマケン,ヒガシマツヤマシ,ロッケンチョウ,埼玉県東松山市六軒町
3550025,埼玉県,東松山市,幸町,サイタマケン,ヒガシマツヤマシ,サイワイチョウ,埼玉県東松山市幸町
3550026,埼玉県,東松山市,和泉町,サイタマケン,ヒガシマツヤマシ,イズミチョウ,埼玉県東松山市和泉町
3550027,埼玉県,東松山市,美土里町,サイタマケン,ヒガシマツヤマシ,ミドリチョウ,埼玉県東松山市美土里町
3550028,埼玉県,東松山市,箭弓町,サイタマケン,ヒガシマツヤマシ,ヤキュウチョウ,埼玉県東松山市箭弓町
3550031,埼玉県,東松山市,五領町,サイタマケン,ヒガシマツヤマシ,ゴリョウチョウ,埼玉県東松山市五領町
3550032,埼玉県,東松山市,新宿町,サイタマケン,ヒガシマツヤマシ,シンジュクチョウ,埼玉県東松山市新宿町
3550033,埼玉県,東松山市,山崎町,サイタマケン,ヒガシマツヤマシ,ヤマザキチョウ,埼玉県東松山市山崎町
3550034,埼玉県,東松山市,柏崎,サイタマケン,ヒガシマツヤマシ,カシワザキ,埼玉県東松山市柏崎
3550035,埼玉県,東松山市,古凍,サイタマケン,ヒガシマツヤマシ,フルコオリ,埼玉県東松山市古凍
3550036,埼玉県,東松山市,下野本,サイタマケン,ヒガシマツヤマシ,シモノモト,埼玉県東松山市下野本
3550037,埼玉県,東松山市,若松町,サイタマケン,ヒガシマツヤマシ,ワカマツチョウ,埼玉県東松山市若松町
3550041,埼玉県,東松山市,下押垂,サイタマケン,ヒガシマツヤマシ,シモオシダリ,埼玉県東松山市下押垂
3550042,埼玉県,東松山市,今泉,サイタマケン,ヒガシマツヤマシ,イマイズミ,埼玉県東松山市今泉
3550043,埼玉県,東松山市,早俣,サイタマケン,ヒガシマツヤマシ,ハヤマタ,埼玉県東松山市早俣
3550044,埼玉県,東松山市,正代,サイタマケン,ヒガシマツヤマシ,ショウダイ,埼玉県東松山市正代
3550045,埼玉県,東松山市,宮鼻,サイタマケン,ヒガシマツヤマシ,ミヤハナ,埼玉県東松山市宮鼻
3550046,埼玉県,東松山市,大黒部,サイタマケン,ヒガシマツヤマシ,オオクロベ,埼玉県東松山市大黒部
3550047,埼玉県,東松山市,高坂,サイタマケン,ヒガシマツヤマシ,タカサカ,埼玉県東松山市高坂
3550048,埼玉県,東松山市,あずま町,サイタマケン,ヒガシマツヤマシ,アズマチョウ,埼玉県東松山市あずま町
3550051,埼玉県,東松山市,白山台,サイタマケン,ヒガシマツヤマシ,ハクサンダイ,埼玉県東松山市白山台
3550052,埼玉県,東松山市,桜山台,サイタマケン,ヒガシマツヤマシ,サクラヤマダイ,埼玉県東松山市桜山台
3550053,埼玉県,東松山市,田木,サイタマケン,ヒガシマツヤマシ,タギ,埼玉県東松山市田木
3550054,埼玉県,東松山市,旗立台,サイタマケン,ヒガシマツヤマシ,ハタタテダイ,埼玉県東松山市旗立台
3550055,埼玉県,東松山市,松風台,サイタマケン,ヒガシマツヤマシ,マツカゼダイ,埼玉県東松山市松風台
3550061,埼玉県,東松山市,葛袋,サイタマケン,ヒガシマツヤマシ,クズブクロ,埼玉県東松山市葛袋
3550062,埼玉県,東松山市,西本宿,サイタマケン,ヒガシマツヤマシ,ニシモトジュク,埼玉県東松山市西本宿
3550063,埼玉県,東松山市,元宿,サイタマケン,ヒガシマツヤマシ,モトジュク,埼玉県東松山市元宿
3550064,埼玉県,東松山市,毛塚,サイタマケン,ヒガシマツヤマシ,ケツカ,埼玉県東松山市毛塚
3550065,埼玉県,東松山市,岩殿,サイタマケン,ヒガシマツヤマシ,イワドノ,埼玉県東松山市岩殿
3550066,埼玉県,東松山市,神戸,サイタマケン,ヒガシマツヤマシ,ゴウド,埼玉県東松山市神戸
3550067,埼玉県,東松山市,坂東山,サイタマケン,ヒガシマツヤマシ,バンドウヤマ,埼玉県東松山市坂東山
3550071,埼玉県,東松山市,新郷,サイタマケン,ヒガシマツヤマシ,シンゴウ,埼玉県東松山市新郷
3550072,埼玉県,東松山市,石橋,サイタマケン,ヒガシマツヤマシ,イシバシ,埼玉県東松山市石橋
3550073,埼玉県,東松山市,上野本,サイタマケン,ヒガシマツヤマシ,カミノモト,埼玉県東松山市上野本
3550074,埼玉県,東松山市,上押垂,サイタマケン,ヒガシマツヤマシ,カミオシダリ,埼玉県東松山市上押垂
3550075,埼玉県,東松山市,下青鳥,サイタマケン,ヒガシマツヤマシ,シモオオドリ,埼玉県東松山市下青鳥
3550076,埼玉県,東松山市,下唐子,サイタマケン,ヒガシマツヤマシ,シモガラコ,埼玉県東松山市下唐子
3550077,埼玉県,東松山市,上唐子,サイタマケン,ヒガシマツヤマシ,カミガラコ,埼玉県東松山市上唐子
3550100,埼玉県,比企郡吉見町,,サイタマケン,ヒキグンヨシミマチ,,埼玉県比企郡吉見町
3550101,埼玉県,比企郡吉見町,一ツ木,サイタマケン,ヒキグンヨシミマチ,ヒトツギ,埼玉県比企郡吉見町一ツ木
3550102,埼玉県,比企郡吉見町,明秋,サイタマケン,ヒキグンヨシミマチ,メイシュウ,埼玉県比企郡吉見町明秋
3550103,埼玉県,比企郡吉見町,今泉,サイタマケン,ヒキグンヨシミマチ,イマイズミ,埼玉県比企郡吉見町今泉
3550104,埼玉県,比企郡吉見町,地頭方,サイタマケン,ヒキグンヨシミマチ,ジトウホウ,埼玉県比企郡吉見町地頭方
3550105,埼玉県,比企郡吉見町,上砂,サイタマケン,ヒキグンヨシミマチ,カミズナ,埼玉県比企郡吉見町上砂
3550106,埼玉県,比企郡吉見町,中曽根,サイタマケン,ヒキグンヨシミマチ,ナカゾネ,埼玉県比企郡吉見町中曽根
3550110,埼玉県,比企郡吉見町,東野,サイタマケン,ヒキグンヨシミマチ,ヒガシノ,埼玉県比企郡吉見町東野
3550111,埼玉県,比企郡吉見町,北下砂,サイタマケン,ヒキグンヨシミマチ,キタシモズナ,埼玉県比企郡吉見町北下砂
3550112,埼玉県,比企郡吉見町,丸貫,サイタマケン,ヒキグンヨシミマチ,マルヌキ,埼玉県比企郡吉見町丸貫
3550113,埼玉県,比企郡吉見町,古名新田,サイタマケン,ヒキグンヨシミマチ,コミョウシンデン,埼玉県比企郡吉見町古名新田
3550114,埼玉県,比企郡吉見町,古名,サイタマケン,ヒキグンヨシミマチ,コミョウ,埼玉県比企郡吉見町古名
3550115,埼玉県,比企郡吉見町,上銀谷,サイタマケン,ヒキグンヨシミマチ,カミギンヤ,埼玉県比企郡吉見町上銀谷
3550116,埼玉県,比企郡吉見町,下銀谷,サイタマケン,ヒキグンヨシミマチ,シモギンヤ,埼玉県比企郡吉見町下銀谷
3550117,埼玉県,比企郡吉見町,谷口,サイタマケン,ヒキグンヨシミマチ,ヤグチ,埼玉県比企郡吉見町谷口
3550118,埼玉県,比企郡吉見町,下細谷,サイタマケン,ヒキグンヨシミマチ,シモホソヤ,埼玉県比企郡吉見町下細谷
3550119,埼玉県,比企郡吉見町,中新井,サイタマケン,ヒキグンヨシミマチ,ナカアライ,埼玉県比企郡吉見町中新井
3550121,埼玉県,比企郡吉見町,蓮沼新田,サイタマケン,ヒキグンヨシミマチ,ハスヌマシンデン,埼玉県比企郡吉見町蓮沼新田
3550122,埼玉県,比企郡吉見町,高尾新田,サイタマケン,ヒキグンヨシミマチ,タカオシンデン,埼玉県比企郡吉見町高尾新田
3550123,埼玉県,比企郡吉見町,須ノ子新田,サイタマケン,ヒキグンヨシミマチ,スノコシンデン,埼玉県比企郡吉見町須ノ子新田
3550124,埼玉県,比企郡吉見町,久保田新田,サイタマケン,ヒキグンヨシミマチ,クボタシンデン,埼玉県比企郡吉見町久保田新田
3550125,埼玉県,比企郡吉見町,蚊斗谷,サイタマケン,ヒキグンヨシミマチ,カバカリヤ,埼玉県比企郡吉見町蚊斗谷
3550126,埼玉県,比企郡吉見町,万光寺,サイタマケン,ヒキグンヨシミマチ,マンコウジ,埼玉県比企郡吉見町万光寺
3550127,埼玉県,比企郡吉見町,大和田,サイタマケン,ヒキグンヨシミマチ,オオワダ,埼玉県比企郡吉見町大和田
3550131,埼玉県,比企郡吉見町,荒子,サイタマケン,ヒキグンヨシミマチ,アラコ,埼玉県比企郡吉見町荒子
3550132,埼玉県,比企郡吉見町,飯島新田,サイタマケン,ヒキグンヨシミマチ,イイジマシンデン,埼玉県比企郡吉見町飯島新田
3550133,埼玉県,比企郡吉見町,江和井,サイタマケン,ヒキグンヨシミマチ,エワイ,埼玉県比企郡吉見町江和井
3550134,埼玉県,比企郡吉見町,大串,サイタマケン,ヒキグンヨシミマチ,オオクシ,埼玉県比企郡吉見町大串
3550135,埼玉県,比企郡吉見町,前河内,サイタマケン,ヒキグンヨシミマチ,マエゴウチ,埼玉県比企郡吉見町前河内
3550136,埼玉県,比企郡吉見町,江綱,サイタマケン,ヒキグンヨシミマチ,エツナ,埼玉県比企郡吉見町江綱
3550137,埼玉県,比企郡吉見町,久保田,サイタマケン,ヒキグンヨシミマチ,クボタ,埼玉県比企郡吉見町久保田
3550151,埼玉県,比企郡吉見町,御所,サイタマケン,ヒキグンヨシミマチ,ゴショ,埼玉県比企郡吉見町御所
3550152,埼玉県,比企郡吉見町,和名,サイタマケン,ヒキグンヨシミマチ,ワナ,埼玉県比企郡吉見町和名
3550153,埼玉県,比企郡吉見町,久米田,サイタマケン,ヒキグンヨシミマチ,クメダ,埼玉県比企郡吉見町久米田
3550154,埼玉県,比企郡吉見町,南吉見,サイタマケン,ヒキグンヨシミマチ,ミナミヨシミ,埼玉県比企郡吉見町南吉見
3550155,埼玉県,比企郡吉見町,北吉見,サイタマケン,ヒキグンヨシミマチ,キタヨシミ,埼玉県比企郡吉見町北吉見
3550156,埼玉県,比企郡吉見町,長谷,サイタマケン,ヒキグンヨシミマチ,ナガヤツ,埼玉県比企郡吉見町長谷
3550157,埼玉県,比企郡吉見町,西吉見,サイタマケン,ヒキグンヨシミマチ,ニシヨシミ,埼玉県比企郡吉見町西吉見
3550161,埼玉県,比企郡吉見町,山ノ下,サイタマケン,ヒキグンヨシミマチ,ヤマノシタ,埼玉県比企郡吉見町山ノ下
3550162,埼玉県,比企郡吉見町,松崎,サイタマケン,ヒキグンヨシミマチ,マツザキ,埼玉県比企郡吉見町松崎
3550163,埼玉県,比企郡吉見町,本沢,サイタマケン,ヒキグンヨシミマチ,ホンザワ,埼玉県比企郡吉見町本沢
3550164,埼玉県,比企郡吉見町,小新井,サイタマケン,ヒキグンヨシミマチ,コアライ,埼玉県比企郡吉見町小新井
3550165,埼玉県,比企郡吉見町,上細谷,サイタマケン,ヒキグンヨシミマチ,カミホソヤ,埼玉県比企郡吉見町上細谷
3550166,埼玉県,比企郡吉見町,黒岩,サイタマケン,ヒキグンヨシミマチ,クロイワ,埼玉県比企郡吉見町黒岩
3550167,埼玉県,比企郡吉見町,田甲,サイタマケン,ヒキグンヨシミマチ,タコウ,埼玉県比企郡吉見町田甲
3550200,埼玉県,比企郡嵐山町,,サイタマケン,ヒキグンランザンマチ,,埼玉県比企郡嵐山町
3550201,埼玉県,比企郡嵐山町,古里,サイタマケン,ヒキグンランザンマチ,フルサト,埼玉県比企郡嵐山町古里
3550202,埼玉県,比企郡嵐山町,吉田,サイタマケン,ヒキグンランザンマチ,ヨシダ,埼玉県比企郡嵐山町吉田
3550203,埼玉県,比企郡嵐山町,勝田,サイタマケン,ヒキグンランザンマチ,カチダ,埼玉県比企郡嵐山町勝田
3550204,埼玉県,比企郡嵐山町,花見台,サイタマケン,ヒキグンランザンマチ,ハナミダイ,埼玉県比企郡嵐山町花見台
3550205,埼玉県,比企郡嵐山町,広野,サイタマケン,ヒキグンランザンマチ,ヒロノ,埼玉県比企郡嵐山町広野
3550206,埼玉県,比企郡嵐山町,越畑,サイタマケン,ヒキグンランザンマチ,オツバタ,埼玉県比企郡嵐山町越畑
3550211,埼玉県,比企郡嵐山町,杉山,サイタマケン,ヒキグンランザンマチ,スギヤマ,埼玉県比企郡嵐山町杉山
3550212,埼玉県,比企郡嵐山町,太郎丸,サイタマケン,ヒキグンランザンマチ,タロウマル,埼玉県比企郡嵐山町太郎丸
3550213,埼玉県,比企郡嵐山町,川島,サイタマケン,ヒキグンランザンマチ,カワシマ,埼玉県比企郡嵐山町川島
3550214,埼玉県,比企郡嵐山町,志賀,サイタマケン,ヒキグンランザンマチ,シガ,埼玉県比企郡嵐山町志賀
3550215,埼玉県,比企郡嵐山町,平沢,サイタマケン,ヒキグンランザンマチ,ヒラサワ,埼玉県比企郡嵐山町平沢
3550216,埼玉県,比企郡嵐山町,むさし台,サイタマケン,ヒキグンランザンマチ,ムサシダイ,埼玉県比企郡嵐山町むさし台
3550221,埼玉県,比企郡嵐山町,菅谷,サイタマケン,ヒキグンランザンマチ,スガヤ,埼玉県比企郡嵐山町菅谷
3550222,埼玉県,比企郡嵐山町,大蔵,サイタマケン,ヒキグンランザンマチ,オオクラ,埼玉県比企郡嵐山町大蔵
3550223,埼玉県,比企郡嵐山町,根岸,サイタマケン,ヒキグンランザンマチ,ネギシ,埼玉県比企郡嵐山町根岸
3550224,埼玉県,比企郡嵐山町,将軍沢,サイタマケン,ヒキグンランザンマチ,ショウグンサワ,埼玉県比企郡嵐山町将軍沢
3550225,埼玉県,比企郡嵐山町,鎌形,サイタマケン,ヒキグンランザンマチ,カマガタ,埼玉県比企郡嵐山町鎌形
3550226,埼玉県,比企郡嵐山町,遠山,サイタマケン,ヒキグンランザンマチ,トオヤマ,埼玉県比企郡嵐山町遠山
3550227,埼玉県,比企郡嵐山町,千手堂,サイタマケン,ヒキグンランザンマチ,センジュドウ,埼玉県比企郡嵐山町千手堂
3550300,埼玉県,比企郡ときがわ町,,サイタマケン,ヒキグントキガワマチ,,埼玉県比企郡ときがわ町
3550300,埼玉県,比企郡小川町,,サイタマケン,ヒキグンオガワマチ,,埼玉県比企郡小川町
3550300,埼玉県,秩父郡東秩父村,,サイタマケン,チチブグンヒガシチチブムラ,,埼玉県秩父郡東秩父村
3550301,埼玉県,比企郡小川町,西古里,サイタマケン,ヒキグンオガワマチ,ニシフルサト,埼玉県比企郡小川町西古里
3550302,埼玉県,比企郡小川町,鷹巣,サイタマケン,ヒキグンオガワマチ,タカノス,埼玉県比企郡小川町鷹巣
3550303,埼玉県,比企郡小川町,奈良梨,サイタマケン,ヒキグンオガワマチ,ナラナシ,埼玉県比企郡小川町奈良梨
3550304,埼玉県,比企郡小川町,伊勢根,サイタマケン,ヒキグンオガワマチ,イセネ,埼玉県比企郡小川町伊勢根
3550305,埼玉県,比企郡小川町,能増,サイタマケン,ヒキグンオガワマチ,ノウマス,埼玉県比企郡小川町能増
3550306,埼玉県,比企郡小川町,高見,サイタマケン,ヒキグンオガワマチ,タカミ,埼玉県比企郡小川町高見
3550311,埼玉県,比企郡小川町,高谷,サイタマケン,ヒキグンオガワマチ,コウヤ,埼玉県比企郡小川町高谷
3550312,埼玉県,比企郡小川町,上横田,サイタマケン,ヒキグンオガワマチ,カミヨコタ,埼玉県比企郡小川町上横田
3550313,埼玉県,比企郡小川町,下横田,サイタマケン,ヒキグンオガワマチ,シモヨコタ,埼玉県比企郡小川町下横田
3550314,埼玉県,比企郡小川町,中爪,サイタマケン,ヒキグンオガワマチ,ナカツメ,埼玉県比企郡小川町中爪
3550315,埼玉県,比企郡小川町,みどりが丘,サイタマケン,ヒキグンオガワマチ,ミドリガオカ,埼玉県比企郡小川町みどりが丘
3550316,埼玉県,比企郡小川町,角山,サイタマケン,ヒキグンオガワマチ,カクヤマ,埼玉県比企郡小川町角山
3550317,埼玉県,比企郡小川町,原川,サイタマケン,ヒキグンオガワマチ,ハラガワ,埼玉県比企郡小川町原川
3550318,埼玉県,比企郡小川町,ひばり台,サイタマケン,ヒキグンオガワマチ,ヒバリダイ,埼玉県比企郡小川町ひばり台
3550321,埼玉県,比企郡小川町,小川,サイタマケン,ヒキグンオガワマチ,オガワ,埼玉県比企郡小川町小川
3550322,埼玉県,比企郡小川町,東小川,サイタマケン,ヒキグンオガワマチ,ヒガシオガワ,埼玉県比企郡小川町東小川
3550323,埼玉県,比企郡小川町,下里,サイタマケン,ヒキグンオガワマチ,シモザト,埼玉県比企郡小川町下里
3550324,埼玉県,比企郡小川町,青山,サイタマケン,ヒキグンオガワマチ,アオヤマ,埼玉県比企郡小川町青山
3550325,埼玉県,比企郡小川町,上古寺,サイタマケン,ヒキグンオガワマチ,カミフルテラ,埼玉県比企郡小川町上古寺
3550326,埼玉県,比企郡小川町,下古寺,サイタマケン,ヒキグンオガワマチ,シモフルテラ,埼玉県比企郡小川町下古寺
3550327,埼玉県,比企郡小川町,腰越,サイタマケン,ヒキグンオガワマチ,コシゴエ,埼玉県比企郡小川町腰越
3550328,埼玉県,比企郡小川町,大塚,サイタマケン,ヒキグンオガワマチ,オオツカ,埼玉県比企郡小川町大塚
3550331,埼玉県,比企郡小川町,靱負,サイタマケン,ヒキグンオガワマチ,ユキエ,埼玉県比企郡小川町靱負
3550332,埼玉県,比企郡小川町,増尾,サイタマケン,ヒキグンオガワマチ,マスオ,埼玉県比企郡小川町増尾
3550333,埼玉県,比企郡小川町,飯田,サイタマケン,ヒキグンオガワマチ,イイダ,埼玉県比企郡小川町飯田
3550334,埼玉県,比企郡小川町,笠原,サイタマケン,ヒキグンオガワマチ,カサハラ,埼玉県比企郡小川町笠原
3550335,埼玉県,比企郡小川町,木部,サイタマケン,ヒキグンオガワマチ,キベ,埼玉県比企郡小川町木部
3550336,埼玉県,比企郡小川町,勝呂,サイタマケン,ヒキグンオガワマチ,スグロ,埼玉県比企郡小川町勝呂
3550337,埼玉県,比企郡小川町,木呂子,サイタマケン,ヒキグンオガワマチ,キロコ,埼玉県比企郡小川町木呂子
3550341,埼玉県,比企郡ときがわ町,田黒,サイタマケン,ヒキグントキガワマチ,タグロ,埼玉県比企郡ときがわ町田黒
3550342,埼玉県,比企郡ときがわ町,玉川,サイタマケン,ヒキグントキガワマチ,タマガワ,埼玉県比企郡ときがわ町玉川
3550343,埼玉県,比企郡ときがわ町,五明,サイタマケン,ヒキグントキガワマチ,ゴミョウ,埼玉県比企郡ときがわ町五明
3550344,埼玉県,比企郡ときがわ町,日影,サイタマケン,ヒキグントキガワマチ,ヒカゲ,埼玉県比企郡ときがわ町日影
3550351,埼玉県,比企郡ときがわ町,雲河原,サイタマケン,ヒキグントキガワマチ,クモガワラ,埼玉県比企郡ときがわ町雲河原
3550352,埼玉県,比企郡ときがわ町,別所,サイタマケン,ヒキグントキガワマチ,ベッショ,埼玉県比企郡ときがわ町別所
3550353,埼玉県,比企郡ときがわ町,本郷,サイタマケン,ヒキグントキガワマチ,ホンゴウ,埼玉県比企郡ときがわ町本郷
3550354,埼玉県,比企郡ときがわ町,番匠,サイタマケン,ヒキグントキガワマチ,バンジョウ,埼玉県比企郡ときがわ町番匠
3550355,埼玉県,比企郡ときがわ町,馬場,サイタマケン,ヒキグントキガワマチ,バンバ,埼玉県比企郡ときがわ町馬場
3550356,埼玉県,比企郡ときがわ町,関堀,サイタマケン,ヒキグントキガワマチ,セキボリ,埼玉県比企郡ときがわ町関堀
3550357,埼玉県,比企郡ときがわ町,田中,サイタマケン,ヒキグントキガワマチ,タナカ,埼玉県比企郡ときがわ町田中
3550358,埼玉県,比企郡ときがわ町,瀬戸元上,サイタマケン,ヒキグントキガワマチ,セトモトカミ,埼玉県比企郡ときがわ町瀬戸元上
3550359,埼玉県,比企郡ときがわ町,瀬戸元下,サイタマケン,ヒキグントキガワマチ,セトモトシモ,埼玉県比企郡ときがわ町瀬戸元下
3550361,埼玉県,比企郡ときがわ町,桃木,サイタマケン,ヒキグントキガワマチ,モモノキ,埼玉県比企郡ときがわ町桃木
3550363,埼玉県,比企郡ときがわ町,大附,サイタマケン,ヒキグントキガワマチ,オオツキ,埼玉県比企郡ときがわ町大附
3550364,埼玉県,比企郡ときがわ町,西平,サイタマケン,ヒキグントキガワマチ,ニシダイラ,埼玉県比企郡ときがわ町西平
3550365,埼玉県,比企郡ときがわ町,椚平,サイタマケン,ヒキグントキガワマチ,クヌギダイラ,埼玉県比企郡ときがわ町椚平
3550366,埼玉県,比企郡ときがわ町,大野,サイタマケン,ヒキグントキガワマチ,オオノ,埼玉県比企郡ときがわ町大野
3550371,埼玉県,秩父郡東秩父村,大内沢,サイタマケン,チチブグンヒガシチチブムラ,オオウチザワ,埼玉県秩父郡東秩父村大内沢
3550372,埼玉県,秩父郡東秩父村,坂本,サイタマケン,チチブグンヒガシチチブムラ,サカモト,埼玉県秩父郡東秩父村坂本
3550373,埼玉県,秩父郡東秩父村,奥沢,サイタマケン,チチブグンヒガシチチブムラ,オクサワ,埼玉県秩父郡東秩父村奥沢
3550374,埼玉県,秩父郡東秩父村,安戸,サイタマケン,チチブグンヒガシチチブムラ,ヤスド,埼玉県秩父郡東秩父村安戸
3550375,埼玉県,秩父郡東秩父村,御堂,サイタマケン,チチブグンヒガシチチブムラ,ミドウ,埼玉県秩父郡東秩父村御堂
3550376,埼玉県,秩父郡東秩父村,皆谷,サイタマケン,チチブグンヒガシチチブムラ,カイヤ,埼玉県秩父郡東秩父村皆谷
3550377,埼玉県,秩父郡東秩父村,白石,サイタマケン,チチブグンヒガシチチブムラ,シロイシ,埼玉県秩父郡東秩父村白石
3550800,埼玉県,比企郡滑川町,,サイタマケン,ヒキグンナメガワマチ,,埼玉県比企郡滑川町
3550801,埼玉県,比企郡滑川町,土塩,サイタマケン,ヒキグンナメガワマチ,ツチシオ,埼玉県比企郡滑川町土塩
3550802,埼玉県,比企郡滑川町,山田,サイタマケン,ヒキグンナメガワマチ,ヤマタ,埼玉県比企郡滑川町山田
3550803,埼玉県,比企郡滑川町,福田,サイタマケン,ヒキグンナメガワマチ,フクダ,埼玉県比企郡滑川町福田
3550804,埼玉県,比企郡滑川町,中尾,サイタマケン,ヒキグンナメガワマチ,ナカオ,埼玉県比企郡滑川町中尾
3550805,埼玉県,比企郡滑川町,水房,サイタマケン,ヒキグンナメガワマチ,ミズフサ,埼玉県比企郡滑川町水房
3550806,埼玉県,比企郡滑川町,伊古,サイタマケン,ヒキグンナメガワマチ,イコ,埼玉県比企郡滑川町伊古
3550807,埼玉県,比企郡滑川町,和泉,サイタマケン,ヒキグンナメガワマチ,イズミ,埼玉県比企郡滑川町和泉
3550808,埼玉県,比企郡滑川町,菅田,サイタマケン,ヒキグンナメガワマチ,スガダ,埼玉県比企郡滑川町菅田
3550811,埼玉県,比企郡滑川町,羽尾,サイタマケン,ヒキグンナメガワマチ,ハネオ,埼玉県比企郡滑川町羽尾
3550812,埼玉県,比企郡滑川町,都,サイタマケン,ヒキグンナメガワマチ,ミヤコ,埼玉県比企郡滑川町都
3550813,埼玉県,比企郡滑川町,月輪,サイタマケン,ヒキグンナメガワマチ,ツキノワ,埼玉県比企郡滑川町月輪
3550814,埼玉県,比企郡滑川町,みなみ野,サイタマケン,ヒキグンナメガワマチ,ミナミノ,埼玉県比企郡滑川町みなみ野
3550815,埼玉県,比企郡滑川町,月の輪,サイタマケン,ヒキグンナメガワマチ,ツキノワ,埼玉県比企郡滑川町月の輪
3560000,埼玉県,ふじみ野市,,サイタマケン,フジミノシ,,埼玉県ふじみ野市
3560001,埼玉県,ふじみ野市,川崎,サイタマケン,フジミノシ,カワサキ,埼玉県ふじみ野市川崎
3560002,埼玉県,ふじみ野市,清見,サイタマケン,フジミノシ,キヨミ,埼玉県ふじみ野市清見
3560003,埼玉県,ふじみ野市,大原,サイタマケン,フジミノシ,オオハラ,埼玉県ふじみ野市大原
3560004,埼玉県,ふじみ野市,上福岡,サイタマケン,フジミノシ,カミフクオカ,埼玉県ふじみ野市上福岡
3560005,埼玉県,ふじみ野市,西,サイタマケン,フジミノシ,ニシ,埼玉県ふじみ野市西
3560006,埼玉県,ふじみ野市,霞ケ丘,サイタマケン,フジミノシ,カスミガオカ,埼玉県ふじみ野市霞ケ丘
3560007,埼玉県,ふじみ野市,北野,サイタマケン,フジミノシ,キタノ,埼玉県ふじみ野市北野
3560008,埼玉県,ふじみ野市,元福岡,サイタマケン,フジミノシ,モトフクオカ,埼玉県ふじみ野市元福岡
3560011,埼玉県,ふじみ野市,福岡,サイタマケン,フジミノシ,フクオカ,埼玉県ふじみ野市福岡
3560012,埼玉県,ふじみ野市,滝,サイタマケン,フジミノシ,タキ,埼玉県ふじみ野市滝
3560013,埼玉県,ふじみ野市,中福岡,サイタマケン,フジミノシ,ナカフクオカ,埼玉県ふじみ野市中福岡
3560014,埼玉県,ふじみ野市,福岡新田,サイタマケン,フジミノシ,フクオカシンデン,埼玉県ふじみ野市福岡新田
3560015,埼玉県,ふじみ野市,花ノ木,サイタマケン,フジミノシ,ハナノキ,埼玉県ふじみ野市花ノ木
3560016,埼玉県,ふじみ野市,中丸,サイタマケン,フジミノシ,ナカマル,埼玉県ふじみ野市中丸
3560017,埼玉県,ふじみ野市,上野台,サイタマケン,フジミノシ,ウエノダイ,埼玉県ふじみ野市上野台
3560018,埼玉県,ふじみ野市,本新田,サイタマケン,フジミノシ,モトシンデン,埼玉県ふじみ野市本新田
3560019,埼玉県,ふじみ野市,池上,サイタマケン,フジミノシ,イケガミ,埼玉県ふじみ野市池上
3560020,埼玉県,ふじみ野市,水宮,サイタマケン,フジミノシ,スイグウ,埼玉県ふじみ野市水宮
3560021,埼玉県,ふじみ野市,上ノ原,サイタマケン,フジミノシ,ウエノハラ,埼玉県ふじみ野市上ノ原
3560022,埼玉県,ふじみ野市,長宮,サイタマケン,フジミノシ,ナガミヤ,埼玉県ふじみ野市長宮
3560023,埼玉県,ふじみ野市,中ノ島,サイタマケン,フジミノシ,ナカノシマ,埼玉県ふじみ野市中ノ島
3560024,埼玉県,ふじみ野市,谷田,サイタマケン,フジミノシ,ヤタ,埼玉県ふじみ野市谷田
3560025,埼玉県,ふじみ野市,仲,サイタマケン,フジミノシ,ナカ,埼玉県ふじみ野市仲
3560026,埼玉県,ふじみ野市,築地,サイタマケン,フジミノシ,ツキジ,埼玉県ふじみ野市築地
3560027,埼玉県,ふじみ野市,松山,サイタマケン,フジミノシ,マツヤマ,埼玉県ふじみ野市松山
3560028,埼玉県,ふじみ野市,西原,サイタマケン,フジミノシ,ニシハラ,埼玉県ふじみ野市西原
3560029,埼玉県,ふじみ野市,駒西,サイタマケン,フジミノシ,コマニシ,埼玉県ふじみ野市駒西
3560030,埼玉県,ふじみ野市,新駒林,サイタマケン,フジミノシ,シンコマバヤシ,埼玉県ふじみ野市新駒林
3560031,埼玉県,ふじみ野市,福岡中央,サイタマケン,フジミノシ,フクオカチュウオウ,埼玉県ふじみ野市福岡中央
3560032,埼玉県,ふじみ野市,富士見台,サイタマケン,フジミノシ,フジミダイ,埼玉県ふじみ野市富士見台
3560033,埼玉県,ふじみ野市,新田,サイタマケン,フジミノシ,シンデン,埼玉県ふじみ野市新田
3560034,埼玉県,ふじみ野市,駒林,サイタマケン,フジミノシ,コマバヤシ,埼玉県ふじみ野市駒林
3560035,埼玉県,ふじみ野市,丸山,サイタマケン,フジミノシ,マルヤマ,埼玉県ふじみ野市丸山
3560036,埼玉県,ふじみ野市,南台,サイタマケン,フジミノシ,ミナミダイ,埼玉県ふじみ野市南台
3560037,埼玉県,ふじみ野市,福岡武蔵野,サイタマケン,フジミノシ,フクオカムサシノ,埼玉県ふじみ野市福岡武蔵野
3560038,埼玉県,ふじみ野市,駒林元町,サイタマケン,フジミノシ,コマハヤシモトマチ,埼玉県ふじみ野市駒林元町
3560041,埼玉県,ふじみ野市,鶴ケ舞,サイタマケン,フジミノシ,ツルガマイ,埼玉県ふじみ野市鶴ケ舞
3560042,埼玉県,ふじみ野市,東久保,サイタマケン,フジミノシ,ヒガシクボ,埼玉県ふじみ野市東久保
3560043,埼玉県,ふじみ野市,緑ケ丘,サイタマケン,フジミノシ,ミドリガオカ,埼玉県ふじみ野市緑ケ丘
3560044,埼玉県,ふじみ野市,西鶴ケ岡,サイタマケン,フジミノシ,ニシツルガオカ,埼玉県ふじみ野市西鶴ケ岡
3560045,埼玉県,ふじみ野市,鶴ケ岡,サイタマケン,フジミノシ,ツルガオカ,埼玉県ふじみ野市鶴ケ岡
3560050,埼玉県,ふじみ野市,ふじみ野,サイタマケン,フジミノシ,フジミノ,埼玉県ふじみ野市ふじみ野
3560051,埼玉県,ふじみ野市,亀久保,サイタマケン,フジミノシ,カメクボ,埼玉県ふじみ野市亀久保
3560052,埼玉県,ふじみ野市,苗間,サイタマケン,フジミノシ,ナエマ,埼玉県ふじみ野市苗間
3560053,埼玉県,ふじみ野市,大井,サイタマケン,フジミノシ,オオイ,埼玉県ふじみ野市大井
3560054,埼玉県,ふじみ野市,大井武蔵野,サイタマケン,フジミノシ,オオイムサシノ,埼玉県ふじみ野市大井武蔵野
3560055,埼玉県,ふじみ野市,旭,サイタマケン,フジミノシ,アサヒ,埼玉県ふじみ野市旭
3560056,埼玉県,ふじみ野市,うれし野,サイタマケン,フジミノシ,ウレシノ,埼玉県ふじみ野市うれし野
3560057,埼玉県,ふじみ野市,市沢,サイタマケン,フジミノシ,イチサワ,埼玉県ふじみ野市市沢
3560058,埼玉県,ふじみ野市,大井中央,サイタマケン,フジミノシ,オオイチュウオウ,埼玉県ふじみ野市大井中央
3560059,埼玉県,ふじみ野市,桜ケ丘,サイタマケン,フジミノシ,サクラガオカ,埼玉県ふじみ野市桜ケ丘
3570000,埼玉県,飯能市,,サイタマケン,ハンノウシ,,埼玉県飯能市
3570001,埼玉県,飯能市,宮沢,サイタマケン,ハンノウシ,ミヤザワ,埼玉県飯能市宮沢
3570002,埼玉県,飯能市,中居,サイタマケン,ハンノウシ,ナカイ,埼玉県飯能市中居
3570003,埼玉県,飯能市,青木,サイタマケン,ハンノウシ,アオキ,埼玉県飯能市青木
3570004,埼玉県,飯能市,新町,サイタマケン,ハンノウシ,シンマチ,埼玉県飯能市新町
3570005,埼玉県,飯能市,原町,サイタマケン,ハンノウシ,ハラマチ,埼玉県飯能市原町
3570006,埼玉県,飯能市,中山,サイタマケン,ハンノウシ,ナカヤマ,埼玉県飯能市中山
3570011,埼玉県,飯能市,川崎,サイタマケン,ハンノウシ,カワサキ,埼玉県飯能市川崎
3570012,埼玉県,飯能市,下川崎,サイタマケン,ハンノウシ,シモカワサキ,埼玉県飯能市下川崎
3570013,埼玉県,飯能市,芦苅場,サイタマケン,ハンノウシ,アシカリバ,埼玉県飯能市芦苅場
3570014,埼玉県,飯能市,平松,サイタマケン,ハンノウシ,ヒラマツ,埼玉県飯能市平松
3570015,埼玉県,飯能市,小久保,サイタマケン,ハンノウシ,コクボ,埼玉県飯能市小久保
3570016,埼玉県,飯能市,下加治,サイタマケン,ハンノウシ,シモカジ,埼玉県飯能市下加治
3570021,埼玉県,飯能市,双柳,サイタマケン,ハンノウシ,ナミヤナギ,埼玉県飯能市双柳
3570022,埼玉県,飯能市,新光,サイタマケン,ハンノウシ,シンコウ,埼玉県飯能市新光
3570023,埼玉県,飯能市,岩沢,サイタマケン,ハンノウシ,イワサワ,埼玉県飯能市岩沢
3570024,埼玉県,飯能市,緑町,サイタマケン,ハンノウシ,ミドリチョウ,埼玉県飯能市緑町
3570025,埼玉県,飯能市,栄町,サイタマケン,ハンノウシ,サカエチョウ,埼玉県飯能市栄町
3570031,埼玉県,飯能市,山手町,サイタマケン,ハンノウシ,ヤマテチョウ,埼玉県飯能市山手町
3570032,埼玉県,飯能市,本町,サイタマケン,ハンノウシ,ホンチョウ,埼玉県飯能市本町
3570033,埼玉県,飯能市,八幡町,サイタマケン,ハンノウシ,ハチマンチョウ,埼玉県飯能市八幡町
3570034,埼玉県,飯能市,東町,サイタマケン,ハンノウシ,アズマチョウ,埼玉県飯能市東町
3570035,埼玉県,飯能市,柳町,サイタマケン,ハンノウシ,ヤナギチョウ,埼玉県飯能市柳町
3570036,埼玉県,飯能市,南町,サイタマケン,ハンノウシ,ミナミチョウ,埼玉県飯能市南町
3570037,埼玉県,飯能市,稲荷町,サイタマケン,ハンノウシ,イナリチョウ,埼玉県飯能市稲荷町
3570038,埼玉県,飯能市,仲町,サイタマケン,ハンノウシ,ナカチョウ,埼玉県飯能市仲町
3570041,埼玉県,飯能市,美杉台,サイタマケン,ハンノウシ,ミスギダイ,埼玉県飯能市美杉台
3570042,埼玉県,飯能市,矢颪,サイタマケン,ハンノウシ,ヤオロシ,埼玉県飯能市矢颪
3570043,埼玉県,飯能市,前ケ貫,サイタマケン,ハンノウシ,マエガヌキ,埼玉県飯能市前ケ貫
3570044,埼玉県,飯能市,川寺,サイタマケン,ハンノウシ,カワデラ,埼玉県飯能市川寺
3570045,埼玉県,飯能市,笠縫,サイタマケン,ハンノウシ,カサヌイ,埼玉県飯能市笠縫
3570046,埼玉県,飯能市,阿須,サイタマケン,ハンノウシ,アズ,埼玉県飯能市阿須
3570047,埼玉県,飯能市,落合,サイタマケン,ハンノウシ,オチアイ,埼玉県飯能市落合
3570048,埼玉県,飯能市,岩渕,サイタマケン,ハンノウシ,イワブチ,埼玉県飯能市岩渕
3570049,埼玉県,飯能市,征矢町,サイタマケン,ハンノウシ,ソヤチョウ,埼玉県飯能市征矢町
3570051,埼玉県,飯能市,苅生,サイタマケン,ハンノウシ,カロウ,埼玉県飯能市苅生
3570052,埼玉県,飯能市,下畑,サイタマケン,ハンノウシ,シモハタ,埼玉県飯能市下畑
3570053,埼玉県,飯能市,上畑,サイタマケン,ハンノウシ,カミハタ,埼玉県飯能市上畑
3570054,埼玉県,飯能市,下直竹,サイタマケン,ハンノウシ,シモナオタケ,埼玉県飯能市下直竹
3570055,埼玉県,飯能市,上直竹下分,サイタマケン,ハンノウシ,カミナオタケシモブン,埼玉県飯能市上直竹下分
3570056,埼玉県,飯能市,上直竹上分,サイタマケン,ハンノウシ,カミナオタケカミブン,埼玉県飯能市上直竹上分
3570061,埼玉県,飯能市,永田台,サイタマケン,ハンノウシ,ナガタダイ,埼玉県飯能市永田台
3570062,埼玉県,飯能市,永田,サイタマケン,ハンノウシ,ナガタ,埼玉県飯能市永田
3570063,埼玉県,飯能市,飯能,サイタマケン,ハンノウシ,ハンノウ,埼玉県飯能市飯能
3570064,埼玉県,飯能市,久下,サイタマケン,ハンノウシ,クゲ,埼玉県飯能市久下
3570065,埼玉県,飯能市,大河原,サイタマケン,ハンノウシ,オオカワラ,埼玉県飯能市大河原
3570066,埼玉県,飯能市,小岩井,サイタマケン,ハンノウシ,コイワイ,埼玉県飯能市小岩井
3570067,埼玉県,飯能市,小瀬戸,サイタマケン,ハンノウシ,コセド,埼玉県飯能市小瀬戸
3570068,埼玉県,飯能市,久須美,サイタマケン,ハンノウシ,クスミ,埼玉県飯能市久須美
3570069,埼玉県,飯能市,茜台,サイタマケン,ハンノウシ,アカネダイ,埼玉県飯能市茜台
3570111,埼玉県,飯能市,上名栗,サイタマケン,ハンノウシ,カミナグリ,埼玉県飯能市上名栗
3570112,埼玉県,飯能市,下名栗,サイタマケン,ハンノウシ,シモナグリ,埼玉県飯能市下名栗
3570121,埼玉県,飯能市,中藤上郷,サイタマケン,ハンノウシ,ナカトウカミゴウ,埼玉県飯能市中藤上郷
3570122,埼玉県,飯能市,中藤中郷,サイタマケン,ハンノウシ,ナカトウナカゴウ,埼玉県飯能市中藤中郷
3570123,埼玉県,飯能市,中藤下郷,サイタマケン,ハンノウシ,ナカトウシモゴウ,埼玉県飯能市中藤下郷
3570124,埼玉県,飯能市,原市場,サイタマケン,ハンノウシ,ハライチバ,埼玉県飯能市原市場
3570125,埼玉県,飯能市,上赤工,サイタマケン,ハンノウシ,カミアカダクミ,埼玉県飯能市上赤工
3570126,埼玉県,飯能市,下赤工,サイタマケン,ハンノウシ,シモアカダクミ,埼玉県飯能市下赤工
3570127,埼玉県,飯能市,唐竹,サイタマケン,ハンノウシ,カラタケ,埼玉県飯能市唐竹
3570128,埼玉県,飯能市,赤沢,サイタマケン,ハンノウシ,アカザワ,埼玉県飯能市赤沢
3570201,埼玉県,飯能市,北川,サイタマケン,ハンノウシ,キタガワ,埼玉県飯能市北川
3570202,埼玉県,飯能市,高山,サイタマケン,ハンノウシ,タカヤマ,埼玉県飯能市高山
3570203,埼玉県,飯能市,長沢,サイタマケン,ハンノウシ,ナガサワ,埼玉県飯能市長沢
3570204,埼玉県,飯能市,虎秀,サイタマケン,ハンノウシ,コシュウ,埼玉県飯能市虎秀
3570205,埼玉県,飯能市,白子,サイタマケン,ハンノウシ,シラコ,埼玉県飯能市白子
3570206,埼玉県,飯能市,上長沢,サイタマケン,ハンノウシ,カミナガサワ,埼玉県飯能市上長沢
3570211,埼玉県,飯能市,平戸,サイタマケン,ハンノウシ,ヒラット,埼玉県飯能市平戸
3570212,埼玉県,飯能市,井上,サイタマケン,ハンノウシ,イノウエ,埼玉県飯能市井上
3570213,埼玉県,飯能市,坂石町分,サイタマケン,ハンノウシ,サカイシマチブン,埼玉県飯能市坂石町分
3570214,埼玉県,飯能市,南,サイタマケン,ハンノウシ,ミナミ,埼玉県飯能市南
3570215,埼玉県,飯能市,坂石,サイタマケン,ハンノウシ,サカイシ,埼玉県飯能市坂石
3570216,埼玉県,飯能市,吾野,サイタマケン,ハンノウシ,アガノ,埼玉県飯能市吾野
3570217,埼玉県,飯能市,南川,サイタマケン,ハンノウシ,ミナミカワ,埼玉県飯能市南川
3570218,埼玉県,飯能市,坂元,サイタマケン,ハンノウシ,サカモト,埼玉県飯能市坂元
3580000,埼玉県,入間市,,サイタマケン,イルマシ,,埼玉県入間市
3580001,埼玉県,入間市,向陽台,サイタマケン,イルマシ,コウヨウダイ,埼玉県入間市向陽台
3580002,埼玉県,入間市,東町,サイタマケン,イルマシ,アズマチョウ,埼玉県入間市東町
3580003,埼玉県,入間市,豊岡,サイタマケン,イルマシ,トヨオカ,埼玉県入間市豊岡
3580004,埼玉県,入間市,鍵山,サイタマケン,イルマシ,カギヤマ,埼玉県入間市鍵山
3580005,埼玉県,入間市,宮前町,サイタマケン,イルマシ,ミヤマエチョウ,埼玉県入間市宮前町
3580006,埼玉県,入間市,春日町,サイタマケン,イルマシ,カスガチョウ,埼玉県入間市春日町
3580007,埼玉県,入間市,黒須,サイタマケン,イルマシ,クロス,埼玉県入間市黒須
3580008,埼玉県,入間市,河原町,サイタマケン,イルマシ,カワラマチ,埼玉県入間市河原町
3580011,埼玉県,入間市,下藤沢,サイタマケン,イルマシ,シモフジサワ,埼玉県入間市下藤沢
3580012,埼玉県,入間市,東藤沢,サイタマケン,イルマシ,ヒガシフジサワ,埼玉県入間市東藤沢
3580013,埼玉県,入間市,上藤沢,サイタマケン,イルマシ,カミフジサワ,埼玉県入間市上藤沢
3580014,埼玉県,入間市,宮寺,サイタマケン,イルマシ,ミヤデラ,埼玉県入間市宮寺
3580015,埼玉県,入間市,二本木,サイタマケン,イルマシ,ニホンギ,埼玉県入間市二本木
3580016,埼玉県,入間市,高根,サイタマケン,イルマシ,タカネ,埼玉県入間市高根
3580017,埼玉県,入間市,駒形富士山,サイタマケン,イルマシ,コマガタフジヤマ,埼玉県入間市駒形富士山
3580021,埼玉県,入間市,高倉,サイタマケン,イルマシ,タカクラ,埼玉県入間市高倉
3580022,埼玉県,入間市,扇町屋,サイタマケン,イルマシ,オウギマチヤ,埼玉県入間市扇町屋
3580023,埼玉県,入間市,扇台,サイタマケン,イルマシ,オウギダイ,埼玉県入間市扇台
3580024,埼玉県,入間市,久保稲荷,サイタマケン,イルマシ,クボイナリ,埼玉県入間市久保稲荷
3580025,埼玉県,入間市,善蔵新田,サイタマケン,イルマシ,ゼンゾウシンデン,埼玉県入間市善蔵新田
3580026,埼玉県,入間市,小谷田,サイタマケン,イルマシ,コヤタ,埼玉県入間市小谷田
3580027,埼玉県,入間市,上小谷田,サイタマケン,イルマシ,ウエゴヤタ,埼玉県入間市上小谷田
3580031,埼玉県,入間市,新久,サイタマケン,イルマシ,アラク,埼玉県入間市新久
3580032,埼玉県,入間市,狭山ケ原,サイタマケン,イルマシ,サヤマガハラ,埼玉県入間市狭山ケ原
3580033,埼玉県,入間市,狭山台,サイタマケン,イルマシ,サヤマダイ,埼玉県入間市狭山台
3580034,埼玉県,入間市,根岸,サイタマケン,イルマシ,ネギシ,埼玉県入間市根岸
3580035,埼玉県,入間市,中神,サイタマケン,イルマシ,ナカガミ,埼玉県入間市中神
3580036,埼玉県,入間市,花ノ木,サイタマケン,イルマシ,ハナノキ,埼玉県入間市花ノ木
3580041,埼玉県,入間市,下谷ケ貫,サイタマケン,イルマシ,シモヤガヌキ,埼玉県入間市下谷ケ貫
3580042,埼玉県,入間市,上谷ケ貫,サイタマケン,イルマシ,カミヤガヌキ,埼玉県入間市上谷ケ貫
3580043,埼玉県,入間市,西三ツ木,サイタマケン,イルマシ,ニシミツギ,埼玉県入間市西三ツ木
3580044,埼玉県,入間市,三ツ木台,サイタマケン,イルマシ,ミツギダイ,埼玉県入間市三ツ木台
3580045,埼玉県,入間市,寺竹,サイタマケン,イルマシ,テラダケ,埼玉県入間市寺竹
3580046,埼玉県,入間市,南峯,サイタマケン,イルマシ,ミナミミネ,埼玉県入間市南峯
3580047,埼玉県,入間市,木蓮寺,サイタマケン,イルマシ,モクレンジ,埼玉県入間市木蓮寺
3580048,埼玉県,入間市,金子中央,サイタマケン,イルマシ,カネコチュウオウ,埼玉県入間市金子中央
3580051,埼玉県,入間市,牛沢町,サイタマケン,イルマシ,ウシザワチョウ,埼玉県入間市牛沢町
3580052,埼玉県,入間市,森坂,サイタマケン,イルマシ,モリサカ,埼玉県入間市森坂
3580053,埼玉県,入間市,仏子,サイタマケン,イルマシ,ブシ,埼玉県入間市仏子
3580054,埼玉県,入間市,野田,サイタマケン,イルマシ,ノダ,埼玉県入間市野田
3580055,埼玉県,入間市,新光,サイタマケン,イルマシ,シンコウ,埼玉県入間市新光
3590000,埼玉県,所沢市,,サイタマケン,トコロザワシ,,埼玉県所沢市
3590001,埼玉県,所沢市,下富,サイタマケン,トコロザワシ,シモトミ,埼玉県所沢市下富
3590002,埼玉県,所沢市,中富,サイタマケン,トコロザワシ,ナカトミ,埼玉県所沢市中富
3590003,埼玉県,所沢市,中富南,サイタマケン,トコロザワシ,ナカトミミナミ,埼玉県所沢市中富南
3590004,埼玉県,所沢市,北原町,サイタマケン,トコロザワシ,キタハラチョウ,埼玉県所沢市北原町
3590005,埼玉県,所沢市,神米金,サイタマケン,トコロザワシ,カメガネ,埼玉県所沢市神米金
3590006,埼玉県,所沢市,所沢新町,サイタマケン,トコロザワシ,トコロザワシンマチ,埼玉県所沢市所沢新町
3590007,埼玉県,所沢市,北岩岡,サイタマケン,トコロザワシ,キタイワオカ,埼玉県所沢市北岩岡
3590011,埼玉県,所沢市,南永井,サイタマケン,トコロザワシ,ミナミナガイ,埼玉県所沢市南永井
3590012,埼玉県,所沢市,坂之下,サイタマケン,トコロザワシ,サカノシタ,埼玉県所沢市坂之下
3590013,埼玉県,所沢市,城,サイタマケン,トコロザワシ,シロ,埼玉県所沢市城
3590014,埼玉県,所沢市,亀ケ谷,サイタマケン,トコロザワシ,カメガヤ,埼玉県所沢市亀ケ谷
3590015,埼玉県,所沢市,日比田,サイタマケン,トコロザワシ,ヒビタ,埼玉県所沢市日比田
3590016,埼玉県,所沢市,新郷,サイタマケン,トコロザワシ,シンゴウ,埼玉県所沢市新郷
3590021,埼玉県,所沢市,東所沢,サイタマケン,トコロザワシ,ヒガシトコロザワ,埼玉県所沢市東所沢
3590022,埼玉県,所沢市,本郷,サイタマケン,トコロザワシ,ホンゴウ,埼玉県所沢市本郷
3590023,埼玉県,所沢市,東所沢和田,サイタマケン,トコロザワシ,ヒガシトコロザワワダ,埼玉県所沢市東所沢和田
3590024,埼玉県,所沢市,下安松,サイタマケン,トコロザワシ,シモヤスマツ,埼玉県所沢市下安松
3590025,埼玉県,所沢市,上安松,サイタマケン,トコロザワシ,カミヤスマツ,埼玉県所沢市上安松
3590026,埼玉県,所沢市,牛沼,サイタマケン,トコロザワシ,ウシヌマ,埼玉県所沢市牛沼
3590027,埼玉県,所沢市,松郷,サイタマケン,トコロザワシ,マツゴウ,埼玉県所沢市松郷
3590031,埼玉県,所沢市,下新井,サイタマケン,トコロザワシ,シモアライ,埼玉県所沢市下新井
3590032,埼玉県,所沢市,若松町,サイタマケン,トコロザワシ,ワカマツチョウ,埼玉県所沢市若松町
3590033,埼玉県,所沢市,こぶし町,サイタマケン,トコロザワシ,コブシチョウ,埼玉県所沢市こぶし町
3590034,埼玉県,所沢市,東新井町,サイタマケン,トコロザワシ,ヒガシアライチョウ,埼玉県所沢市東新井町
3590035,埼玉県,所沢市,西新井町,サイタマケン,トコロザワシ,ニシアライチョウ,埼玉県所沢市西新井町
3590036,埼玉県,所沢市,旭町,サイタマケン,トコロザワシ,アサヒチョウ,埼玉県所沢市旭町
3590037,埼玉県,所沢市,くすのき台,サイタマケン,トコロザワシ,クスノキダイ,埼玉県所沢市くすのき台
3590038,埼玉県,所沢市,北秋津,サイタマケン,トコロザワシ,キタアキツ,埼玉県所沢市北秋津
3590041,埼玉県,所沢市,中新井,サイタマケン,トコロザワシ,ナカアライ,埼玉県所沢市中新井
3590042,埼玉県,所沢市,並木,サイタマケン,トコロザワシ,ナミキ,埼玉県所沢市並木
3590043,埼玉県,所沢市,弥生町,サイタマケン,トコロザワシ,ヤヨイチョウ,埼玉県所沢市弥生町
3590044,埼玉県,所沢市,松葉町,サイタマケン,トコロザワシ,マツバチョウ,埼玉県所沢市松葉町
3590045,埼玉県,所沢市,美原町,サイタマケン,トコロザワシ,ミハラチョウ,埼玉県所沢市美原町
3590046,埼玉県,所沢市,北所沢町,サイタマケン,トコロザワシ,キタトコロザワチョウ,埼玉県所沢市北所沢町
3590047,埼玉県,所沢市,花園,サイタマケン,トコロザワシ,ハナゾノ,埼玉県所沢市花園
3591101,埼玉県,所沢市,北中,サイタマケン,トコロザワシ,キタナカ,埼玉県所沢市北中
3591102,埼玉県,所沢市,岩岡町,サイタマケン,トコロザワシ,イワオカチョウ,埼玉県所沢市岩岡町
3591103,埼玉県,所沢市,向陽町,サイタマケン,トコロザワシ,コウヨウチョウ,埼玉県所沢市向陽町
3591104,埼玉県,所沢市,榎町,サイタマケン,トコロザワシ,エノキチョウ,埼玉県所沢市榎町
3591105,埼玉県,所沢市,青葉台,サイタマケン,トコロザワシ,アオバダイ,埼玉県所沢市青葉台
3591106,埼玉県,所沢市,東狭山ケ丘,サイタマケン,トコロザワシ,ヒガシサヤマガオカ,埼玉県所沢市東狭山ケ丘
3591111,埼玉県,所沢市,緑町,サイタマケン,トコロザワシ,ミドリチョウ,埼玉県所沢市緑町
3591112,埼玉県,所沢市,泉町,サイタマケン,トコロザワシ,イズミチョウ,埼玉県所沢市泉町
3591113,埼玉県,所沢市,喜多町,サイタマケン,トコロザワシ,キタマチ,埼玉県所沢市喜多町
3591114,埼玉県,所沢市,北有楽町,サイタマケン,トコロザワシ,キタユウラクチョウ,埼玉県所沢市北有楽町
3591115,埼玉県,所沢市,御幸町,サイタマケン,トコロザワシ,ミユキチョウ,埼玉県所沢市御幸町
3591116,埼玉県,所沢市,東町,サイタマケン,トコロザワシ,ヒガシチョウ,埼玉県所沢市東町
3591117,埼玉県,所沢市,有楽町,サイタマケン,トコロザワシ,ユウラクチョウ,埼玉県所沢市有楽町
3591118,埼玉県,所沢市,けやき台,サイタマケン,トコロザワシ,ケヤキダイ,埼玉県所沢市けやき台
3591121,埼玉県,所沢市,元町,サイタマケン,トコロザワシ,モトマチ,埼玉県所沢市元町
3591122,埼玉県,所沢市,寿町,サイタマケン,トコロザワシ,コトブキチョウ,埼玉県所沢市寿町
3591123,埼玉県,所沢市,日吉町,サイタマケン,トコロザワシ,ヒヨシチョウ,埼玉県所沢市日吉町
3591124,埼玉県,所沢市,東住吉,サイタマケン,トコロザワシ,ヒガシスミヨシ,埼玉県所沢市東住吉
3591125,埼玉県,所沢市,南住吉,サイタマケン,トコロザワシ,ミナミスミヨシ,埼玉県所沢市南住吉
3591126,埼玉県,所沢市,西住吉,サイタマケン,トコロザワシ,ニシスミヨシ,埼玉県所沢市西住吉
3591127,埼玉県,所沢市,星の宮,サイタマケン,トコロザワシ,ホシノミヤ,埼玉県所沢市星の宮
3591128,埼玉県,所沢市,金山町,サイタマケン,トコロザワシ,カナヤマチョウ,埼玉県所沢市金山町
3591131,埼玉県,所沢市,久米,サイタマケン,トコロザワシ,クメ,埼玉県所沢市久米
3591132,埼玉県,所沢市,松が丘,サイタマケン,トコロザワシ,マツガオカ,埼玉県所沢市松が丘
3591133,埼玉県,所沢市,荒幡,サイタマケン,トコロザワシ,アラハタ,埼玉県所沢市荒幡
3591141,埼玉県,所沢市,小手指町,サイタマケン,トコロザワシ,コテサシチョウ,埼玉県所沢市小手指町
3591142,埼玉県,所沢市,上新井,サイタマケン,トコロザワシ,カミアライ,埼玉県所沢市上新井
3591143,埼玉県,所沢市,宮本町,サイタマケン,トコロザワシ,ミヤモトチョウ,埼玉県所沢市宮本町
3591144,埼玉県,所沢市,西所沢,サイタマケン,トコロザワシ,ニシトコロザワ,埼玉県所沢市西所沢
3591145,埼玉県,所沢市,山口,サイタマケン,トコロザワシ,ヤマグチ,埼玉県所沢市山口
3591146,埼玉県,所沢市,小手指南,サイタマケン,トコロザワシ,コテサシミナミ,埼玉県所沢市小手指南
3591147,埼玉県,所沢市,小手指元町,サイタマケン,トコロザワシ,コテサシモトマチ,埼玉県所沢市小手指元町
3591148,埼玉県,所沢市,小手指台,サイタマケン,トコロザワシ,コテサシダイ,埼玉県所沢市小手指台
3591151,埼玉県,所沢市,若狭,サイタマケン,トコロザワシ,ワカサ,埼玉県所沢市若狭
3591152,埼玉県,所沢市,北野,サイタマケン,トコロザワシ,キタノ,埼玉県所沢市北野
3591153,埼玉県,所沢市,上山口,サイタマケン,トコロザワシ,カミヤマグチ,埼玉県所沢市上山口
3591154,埼玉県,所沢市,勝楽寺,サイタマケン,トコロザワシ,ショウラクジ,埼玉県所沢市勝楽寺
3591155,埼玉県,所沢市,北野新町,サイタマケン,トコロザワシ,キタノシンマチ,埼玉県所沢市北野新町
3591156,埼玉県,所沢市,北野南,サイタマケン,トコロザワシ,キタノミナミ,埼玉県所沢市北野南
3591161,埼玉県,所沢市,狭山ケ丘,サイタマケン,トコロザワシ,サヤマガオカ,埼玉県所沢市狭山ケ丘
3591162,埼玉県,所沢市,和ケ原,サイタマケン,トコロザワシ,ワガハラ,埼玉県所沢市和ケ原
3591163,埼玉県,所沢市,西狭山ケ丘,サイタマケン,トコロザワシ,ニシサヤマガオカ,埼玉県所沢市西狭山ケ丘
3591164,埼玉県,所沢市,三ケ島,サイタマケン,トコロザワシ,ミカジマ,埼玉県所沢市三ケ島
3591165,埼玉県,所沢市,堀之内,サイタマケン,トコロザワシ,ホリノウチ,埼玉県所沢市堀之内
3591166,埼玉県,所沢市,糀谷,サイタマケン,トコロザワシ,コウジヤ,埼玉県所沢市糀谷
3591167,埼玉県,所沢市,林,サイタマケン,トコロザワシ,ハヤシ,埼玉県所沢市林
3600000,埼玉県,熊谷市,,サイタマケン,クマガヤシ,,埼玉県熊谷市
3600001,埼玉県,熊谷市,上中条,サイタマケン,クマガヤシ,カミチュウジョウ,埼玉県熊谷市上中条
3600002,埼玉県,熊谷市,大塚,サイタマケン,クマガヤシ,オオツカ,埼玉県熊谷市大塚
3600003,埼玉県,熊谷市,下川上,サイタマケン,クマガヤシ,シモカワカミ,埼玉県熊谷市下川上
3600004,埼玉県,熊谷市,上川上,サイタマケン,クマガヤシ,カミカワカミ,埼玉県熊谷市上川上
3600005,埼玉県,熊谷市,今井,サイタマケン,クマガヤシ,イマイ,埼玉県熊谷市今井
3600006,埼玉県,熊谷市,四方寺,サイタマケン,クマガヤシ,シホウジ,埼玉県熊谷市四方寺
3600011,埼玉県,熊谷市,池上,サイタマケン,クマガヤシ,イケガミ,埼玉県熊谷市池上
3600012,埼玉県,熊谷市,上之,サイタマケン,クマガヤシ,カミノ,埼玉県熊谷市上之
3600013,埼玉県,熊谷市,中西,サイタマケン,クマガヤシ,ナカニシ,埼玉県熊谷市中西
3600014,埼玉県,熊谷市,箱田,サイタマケン,クマガヤシ,ハコダ,埼玉県熊谷市箱田
3600015,埼玉県,熊谷市,肥塚,サイタマケン,クマガヤシ,コイヅカ,埼玉県熊谷市肥塚
3600016,埼玉県,熊谷市,熊谷,サイタマケン,クマガヤシ,クマガヤ,埼玉県熊谷市熊谷
3600017,埼玉県,熊谷市,小曽根,サイタマケン,クマガヤシ,オゾネ,埼玉県熊谷市小曽根
3600018,埼玉県,熊谷市,中央,サイタマケン,クマガヤシ,チュウオウ,埼玉県熊谷市中央
3600021,埼玉県,熊谷市,平戸,サイタマケン,クマガヤシ,ヒラト,埼玉県熊谷市平戸
3600022,埼玉県,熊谷市,戸出,サイタマケン,クマガヤシ,トデ,埼玉県熊谷市戸出
3600023,埼玉県,熊谷市,佐谷田,サイタマケン,クマガヤシ,サヤダ,埼玉県熊谷市佐谷田
3600024,埼玉県,熊谷市,問屋町,サイタマケン,クマガヤシ,トンヤチョウ,埼玉県熊谷市問屋町
3600025,埼玉県,熊谷市,太井,サイタマケン,クマガヤシ,オオイ,埼玉県熊谷市太井
3600026,埼玉県,熊谷市,久下,サイタマケン,クマガヤシ,クゲ,埼玉県熊谷市久下
3600027,埼玉県,熊谷市,新川,サイタマケン,クマガヤシ,シンカワ,埼玉県熊谷市新川
3600031,埼玉県,熊谷市,末広,サイタマケン,クマガヤシ,スエヒロ,埼玉県熊谷市末広
3600032,埼玉県,熊谷市,銀座,サイタマケン,クマガヤシ,ギンザ,埼玉県熊谷市銀座
3600033,埼玉県,熊谷市,曙町,サイタマケン,クマガヤシ,アケボノチョウ,埼玉県熊谷市曙町
3600034,埼玉県,熊谷市,万平町,サイタマケン,クマガヤシ,マンペイチョウ,埼玉県熊谷市万平町
3600035,埼玉県,熊谷市,河原町,サイタマケン,クマガヤシ,カワラチョウ,埼玉県熊谷市河原町
3600036,埼玉県,熊谷市,桜木町,サイタマケン,クマガヤシ,サクラギチョウ,埼玉県熊谷市桜木町
3600037,埼玉県,熊谷市,筑波,サイタマケン,クマガヤシ,ツクバ,埼玉県熊谷市筑波
3600041,埼玉県,熊谷市,宮町,サイタマケン,クマガヤシ,ミヤチョウ,埼玉県熊谷市宮町
3600042,埼玉県,熊谷市,本町,サイタマケン,クマガヤシ,ホンチョウ,埼玉県熊谷市本町
3600043,埼玉県,熊谷市,星川,サイタマケン,クマガヤシ,ホシカワ,埼玉県熊谷市星川
3600044,埼玉県,熊谷市,弥生,サイタマケン,クマガヤシ,ヤヨイ,埼玉県熊谷市弥生
3600045,埼玉県,熊谷市,宮前町,サイタマケン,クマガヤシ,ミヤマエチョウ,埼玉県熊谷市宮前町
3600046,埼玉県,熊谷市,鎌倉町,サイタマケン,クマガヤシ,カマクラチョウ,埼玉県熊谷市鎌倉町
3600047,埼玉県,熊谷市,仲町,サイタマケン,クマガヤシ,ナカチョウ,埼玉県熊谷市仲町
3600101,埼玉県,熊谷市,野原,サイタマケン,クマガヤシ,ノハラ,埼玉県熊谷市野原
3600102,埼玉県,熊谷市,須賀広,サイタマケン,クマガヤシ,スガヒロ,埼玉県熊谷市須賀広
3600103,埼玉県,熊谷市,小江川,サイタマケン,クマガヤシ,オエガワ,埼玉県熊谷市小江川
3600104,埼玉県,熊谷市,塩,サイタマケン,クマガヤシ,シオ,埼玉県熊谷市塩
3600105,埼玉県,熊谷市,板井,サイタマケン,クマガヤシ,イタイ,埼玉県熊谷市板井
3600106,埼玉県,熊谷市,柴,サイタマケン,クマガヤシ,シバ,埼玉県熊谷市柴
3600107,埼玉県,熊谷市,千代,サイタマケン,クマガヤシ,センダイ,埼玉県熊谷市千代
3600111,埼玉県,熊谷市,押切,サイタマケン,クマガヤシ,オシキリ,埼玉県熊谷市押切
3600112,埼玉県,熊谷市,樋春,サイタマケン,クマガヤシ,ヒハル,埼玉県熊谷市樋春
3600113,埼玉県,熊谷市,御正新田,サイタマケン,クマガヤシ,ミショウシンデン,埼玉県熊谷市御正新田
3600114,埼玉県,熊谷市,江南中央,サイタマケン,クマガヤシ,コウナンチュウオウ,埼玉県熊谷市江南中央
3600115,埼玉県,熊谷市,成沢,サイタマケン,クマガヤシ,ナリサワ,埼玉県熊谷市成沢
3600116,埼玉県,熊谷市,三本,サイタマケン,クマガヤシ,ミツモト,埼玉県熊谷市三本
3600117,埼玉県,熊谷市,上新田,サイタマケン,クマガヤシ,カミシンデン,埼玉県熊谷市上新田
3600121,埼玉県,熊谷市,手島,サイタマケン,クマガヤシ,テシマ,埼玉県熊谷市手島
3600122,埼玉県,熊谷市,小泉,サイタマケン,クマガヤシ,コイズミ,埼玉県熊谷市小泉
3600123,埼玉県,熊谷市,下恩田,サイタマケン,クマガヤシ,シモオンダ,埼玉県熊谷市下恩田
3600124,埼玉県,熊谷市,中恩田,サイタマケン,クマガヤシ,ナカオンダ,埼玉県熊谷市中恩田
3600125,埼玉県,熊谷市,上恩田,サイタマケン,クマガヤシ,カミオンダ,埼玉県熊谷市上恩田
3600131,埼玉県,熊谷市,屈戸,サイタマケン,クマガヤシ,クット,埼玉県熊谷市屈戸
3600132,埼玉県,熊谷市,津田新田,サイタマケン,クマガヤシ,ツダシンデン,埼玉県熊谷市津田新田
3600133,埼玉県,熊谷市,中曽根,サイタマケン,クマガヤシ,ナカゾネ,埼玉県熊谷市中曽根
3600134,埼玉県,熊谷市,高本,サイタマケン,クマガヤシ,タカモト,埼玉県熊谷市高本
3600135,埼玉県,熊谷市,沼黒,サイタマケン,クマガヤシ,ヌマグロ,埼玉県熊谷市沼黒
3600136,埼玉県,熊谷市,吉所敷,サイタマケン,クマガヤシ,キショシキ,埼玉県熊谷市吉所敷
3600161,埼玉県,熊谷市,万吉,サイタマケン,クマガヤシ,マゲチ,埼玉県熊谷市万吉
3600162,埼玉県,熊谷市,村岡,サイタマケン,クマガヤシ,ムラオカ,埼玉県熊谷市村岡
3600163,埼玉県,熊谷市,平塚新田,サイタマケン,クマガヤシ,ヒラツカシンデン,埼玉県熊谷市平塚新田
3600164,埼玉県,熊谷市,楊井,サイタマケン,クマガヤシ,ヤギイ,埼玉県熊谷市楊井
3600201,埼玉県,熊谷市,妻沼,サイタマケン,クマガヤシ,メヌマ,埼玉県熊谷市妻沼
3600202,埼玉県,熊谷市,妻沼東,サイタマケン,クマガヤシ,メヌマヒガシ,埼玉県熊谷市妻沼東
3600203,埼玉県,熊谷市,弥藤吾,サイタマケン,クマガヤシ,ヤトウゴ,埼玉県熊谷市弥藤吾
3600204,埼玉県,熊谷市,妻沼中央,サイタマケン,クマガヤシ,メヌマチュウオウ,埼玉県熊谷市妻沼中央
3600211,埼玉県,熊谷市,善ケ島,サイタマケン,クマガヤシ,ゼンガシマ,埼玉県熊谷市善ケ島
3600212,埼玉県,熊谷市,江波,サイタマケン,クマガヤシ,エナミ,埼玉県熊谷市江波
3600213,埼玉県,熊谷市,上須戸,サイタマケン,クマガヤシ,カミスド,埼玉県熊谷市上須戸
3600214,埼玉県,熊谷市,西城,サイタマケン,クマガヤシ,ニシジョウ,埼玉県熊谷市西城
3600215,埼玉県,熊谷市,田島,サイタマケン,クマガヤシ,タジマ,埼玉県熊谷市田島
3600216,埼玉県,熊谷市,西野,サイタマケン,クマガヤシ,ニシノ,埼玉県熊谷市西野
3600217,埼玉県,熊谷市,上根,サイタマケン,クマガヤシ,カミネ,埼玉県熊谷市上根
3600218,埼玉県,熊谷市,八ツ口,サイタマケン,クマガヤシ,ヤツクチ,埼玉県熊谷市八ツ口
3600221,埼玉県,熊谷市,大野,サイタマケン,クマガヤシ,オオノ,埼玉県熊谷市大野
3600222,埼玉県,熊谷市,葛和田,サイタマケン,クマガヤシ,クズワダ,埼玉県熊谷市葛和田
3600223,埼玉県,熊谷市,俵瀬,サイタマケン,クマガヤシ,タワラセ,埼玉県熊谷市俵瀬
3600224,埼玉県,熊谷市,日向,サイタマケン,クマガヤシ,ヒナタ,埼玉県熊谷市日向
3600225,埼玉県,熊谷市,弁財,サイタマケン,クマガヤシ,ベンザイ,埼玉県熊谷市弁財
3600231,埼玉県,熊谷市,飯塚,サイタマケン,クマガヤシ,イイヅカ,埼玉県熊谷市飯塚
3600232,埼玉県,熊谷市,道ケ谷戸,サイタマケン,クマガヤシ,ドウガヤト,埼玉県熊谷市道ケ谷戸
3600233,埼玉県,熊谷市,八木田,サイタマケン,クマガヤシ,ヤギタ,埼玉県熊谷市八木田
3600234,埼玉県,熊谷市,上江袋,サイタマケン,クマガヤシ,カミエブクロ,埼玉県熊谷市上江袋
3600235,埼玉県,熊谷市,原井,サイタマケン,クマガヤシ,バライ,埼玉県熊谷市原井
3600236,埼玉県,熊谷市,市ノ坪,サイタマケン,クマガヤシ,イチノツボ,埼玉県熊谷市市ノ坪
3600237,埼玉県,熊谷市,永井太田,サイタマケン,クマガヤシ,ナガイオオタ,埼玉県熊谷市永井太田
3600238,埼玉県,熊谷市,妻沼西,サイタマケン,クマガヤシ,メヌマニシ,埼玉県熊谷市妻沼西
3600241,埼玉県,熊谷市,妻沼台,サイタマケン,クマガヤシ,メヌマダイ,埼玉県熊谷市妻沼台
3600242,埼玉県,熊谷市,男沼,サイタマケン,クマガヤシ,オヌマ,埼玉県熊谷市男沼
3600243,埼玉県,熊谷市,間々田,サイタマケン,クマガヤシ,ママダ,埼玉県熊谷市間々田
3600244,埼玉県,熊谷市,出来島,サイタマケン,クマガヤシ,デキジマ,埼玉県熊谷市出来島
3600245,埼玉県,熊谷市,妻沼小島,サイタマケン,クマガヤシ,メヌマコジマ,埼玉県熊谷市妻沼小島
3600801,埼玉県,熊谷市,中奈良,サイタマケン,クマガヤシ,ナカナラ,埼玉県熊谷市中奈良
3600802,埼玉県,熊谷市,下奈良,サイタマケン,クマガヤシ,シモナラ,埼玉県熊谷市下奈良
3600803,埼玉県,熊谷市,柿沼,サイタマケン,クマガヤシ,カキヌマ,埼玉県熊谷市柿沼
3600804,埼玉県,熊谷市,代,サイタマケン,クマガヤシ,ダイ,埼玉県熊谷市代
3600805,埼玉県,熊谷市,上奈良,サイタマケン,クマガヤシ,カミナラ,埼玉県熊谷市上奈良
3600806,埼玉県,熊谷市,奈良新田,サイタマケン,クマガヤシ,ナラシンデン,埼玉県熊谷市奈良新田
3600811,埼玉県,熊谷市,原島,サイタマケン,クマガヤシ,ハラジマ,埼玉県熊谷市原島
3600812,埼玉県,熊谷市,大原,サイタマケン,クマガヤシ,オオハラ,埼玉県熊谷市大原
3600813,埼玉県,熊谷市,円光,サイタマケン,クマガヤシ,エンコウ,埼玉県熊谷市円光
3600814,埼玉県,熊谷市,桜町,サイタマケン,クマガヤシ,サクラチョウ,埼玉県熊谷市桜町
3600815,埼玉県,熊谷市,本石,サイタマケン,クマガヤシ,ホンゴク,埼玉県熊谷市本石
3600816,埼玉県,熊谷市,石原,サイタマケン,クマガヤシ,イシハラ,埼玉県熊谷市石原
3600817,埼玉県,熊谷市,新島,サイタマケン,クマガヤシ,ニイジマ,埼玉県熊谷市新島
3600821,埼玉県,熊谷市,伊勢町,サイタマケン,クマガヤシ,イセチョウ,埼玉県熊谷市伊勢町
3600822,埼玉県,熊谷市,宮本町,サイタマケン,クマガヤシ,ミヤモトチョウ,埼玉県熊谷市宮本町
3600823,埼玉県,熊谷市,榎町,サイタマケン,クマガヤシ,エノキチョウ,埼玉県熊谷市榎町
3600824,埼玉県,熊谷市,見晴町,サイタマケン,クマガヤシ,ミハラシチョウ,埼玉県熊谷市見晴町
3600825,埼玉県,熊谷市,月見町,サイタマケン,クマガヤシ,ツキミチョウ,埼玉県熊谷市月見町
3600826,埼玉県,熊谷市,赤城町,サイタマケン,クマガヤシ,アカギチョウ,埼玉県熊谷市赤城町
3600831,埼玉県,熊谷市,久保島,サイタマケン,クマガヤシ,クボジマ,埼玉県熊谷市久保島
3600832,埼玉県,熊谷市,小島,サイタマケン,クマガヤシ,コジマ,埼玉県熊谷市小島
3600833,埼玉県,熊谷市,広瀬,サイタマケン,クマガヤシ,ヒロセ,埼玉県熊谷市広瀬
3600834,埼玉県,熊谷市,瀬南,サイタマケン,クマガヤシ,セナミ,埼玉県熊谷市瀬南
3600835,埼玉県,熊谷市,大麻生,サイタマケン,クマガヤシ,オオアソウ,埼玉県熊谷市大麻生
3600836,埼玉県,熊谷市,武体,サイタマケン,クマガヤシ,ブタイ,埼玉県熊谷市武体
3600837,埼玉県,熊谷市,川原明戸,サイタマケン,クマガヤシ,カワハラアケト,埼玉県熊谷市川原明戸
3600841,埼玉県,熊谷市,新堀,サイタマケン,クマガヤシ,ニイボリ,埼玉県熊谷市新堀
3600842,埼玉県,熊谷市,新堀新田,サイタマケン,クマガヤシ,ニイボリシンデン,埼玉県熊谷市新堀新田
3600843,埼玉県,熊谷市,三ケ尻,サイタマケン,クマガヤシ,ミカジリ,埼玉県熊谷市三ケ尻
3600844,埼玉県,熊谷市,御稜威ケ原,サイタマケン,クマガヤシ,ミイズガハラ,埼玉県熊谷市御稜威ケ原
3600845,埼玉県,熊谷市,美土里町,サイタマケン,クマガヤシ,ミドリチョウ,埼玉県熊谷市美土里町
3600846,埼玉県,熊谷市,拾六間,サイタマケン,クマガヤシ,ジュウロッケン,埼玉県熊谷市拾六間
3600847,埼玉県,熊谷市,籠原南,サイタマケン,クマガヤシ,カゴハラミナミ,埼玉県熊谷市籠原南
3600851,埼玉県,熊谷市,下増田,サイタマケン,クマガヤシ,シモマスダ,埼玉県熊谷市下増田
3600852,埼玉県,熊谷市,東別府,サイタマケン,クマガヤシ,ヒガシベップ,埼玉県熊谷市東別府
3600853,埼玉県,熊谷市,玉井,サイタマケン,クマガヤシ,タマイ,埼玉県熊谷市玉井
3600854,埼玉県,熊谷市,玉井南,サイタマケン,クマガヤシ,タマイミナミ,埼玉県熊谷市玉井南
3600855,埼玉県,熊谷市,高柳,サイタマケン,クマガヤシ,タカヤナギ,埼玉県熊谷市高柳
3600856,埼玉県,熊谷市,別府,サイタマケン,クマガヤシ,ベップ,埼玉県熊谷市別府
3600857,埼玉県,熊谷市,西別府,サイタマケン,クマガヤシ,ニシベップ,埼玉県熊谷市西別府
3610000,埼玉県,行田市,,サイタマケン,ギョウダシ,,埼玉県行田市
3610001,埼玉県,行田市,北河原,サイタマケン,ギョウダシ,キタガワラ,埼玉県行田市北河原
3610002,埼玉県,行田市,酒巻,サイタマケン,ギョウダシ,サカマキ,埼玉県行田市酒巻
3610003,埼玉県,行田市,下中条,サイタマケン,ギョウダシ,シモチュウジョウ,埼玉県行田市下中条
3610004,埼玉県,行田市,須加,サイタマケン,ギョウダシ,スカ,埼玉県行田市須加
3610005,埼玉県,行田市,斎条,サイタマケン,ギョウダシ,サイジョウ,埼玉県行田市斎条
3610006,埼玉県,行田市,白川戸,サイタマケン,ギョウダシ,シラカワド,埼玉県行田市白川戸
3610007,埼玉県,行田市,小見,サイタマケン,ギョウダシ,オミ,埼玉県行田市小見
3610011,埼玉県,行田市,荒木,サイタマケン,ギョウダシ,アラキ,埼玉県行田市荒木
3610012,埼玉県,行田市,下須戸,サイタマケン,ギョウダシ,シモスド,埼玉県行田市下須戸
3610013,埼玉県,行田市,真名板,サイタマケン,ギョウダシ,マナイタ,埼玉県行田市真名板
3610014,埼玉県,行田市,藤間,サイタマケン,ギョウダシ,トウマ,埼玉県行田市藤間
3610015,埼玉県,行田市,関根,サイタマケン,ギョウダシ,セキネ,埼玉県行田市関根
3610016,埼玉県,行田市,藤原町,サイタマケン,ギョウダシ,フジワラチョウ,埼玉県行田市藤原町
3610017,埼玉県,行田市,若小玉,サイタマケン,ギョウダシ,ワカコダマ,埼玉県行田市若小玉
3610021,埼玉県,行田市,富士見町,サイタマケン,ギョウダシ,フジミチョウ,埼玉県行田市富士見町
3610022,埼玉県,行田市,桜町,サイタマケン,ギョウダシ,サクラチョウ,埼玉県行田市桜町
3610023,埼玉県,行田市,長野,サイタマケン,ギョウダシ,ナガノ,埼玉県行田市長野
3610024,埼玉県,行田市,小針,サイタマケン,ギョウダシ,コバリ,埼玉県行田市小針
3610025,埼玉県,行田市,埼玉,サイタマケン,ギョウダシ,サキタマ,埼玉県行田市埼玉
3610026,埼玉県,行田市,野,サイタマケン,ギョウダシ,ノ,埼玉県行田市野
3610031,埼玉県,行田市,緑町,サイタマケン,ギョウダシ,ミドリチョウ,埼玉県行田市緑町
3610032,埼玉県,行田市,佐間,サイタマケン,ギョウダシ,サマ,埼玉県行田市佐間
3610033,埼玉県,行田市,渡柳,サイタマケン,ギョウダシ,ワタリヤナギ,埼玉県行田市渡柳
3610034,埼玉県,行田市,利田,サイタマケン,ギョウダシ,カガダ,埼玉県行田市利田
3610035,埼玉県,行田市,堤根,サイタマケン,ギョウダシ,ツツミネ,埼玉県行田市堤根
3610036,埼玉県,行田市,樋上,サイタマケン,ギョウダシ,ヒノウエ,埼玉県行田市樋上
3610037,埼玉県,行田市,下忍,サイタマケン,ギョウダシ,シモオシ,埼玉県行田市下忍
3610038,埼玉県,行田市,前谷,サイタマケン,ギョウダシ,マエヤ,埼玉県行田市前谷
3610041,埼玉県,行田市,棚田町,サイタマケン,ギョウダシ,タナダチョウ,埼玉県行田市棚田町
3610042,埼玉県,行田市,西新町,サイタマケン,ギョウダシ,ニシシンマチ,埼玉県行田市西新町
3610043,埼玉県,行田市,深水町,サイタマケン,ギョウダシ,フカミチョウ,埼玉県行田市深水町
3610044,埼玉県,行田市,門井町,サイタマケン,ギョウダシ,カドイチョウ,埼玉県行田市門井町
3610045,埼玉県,行田市,押上町,サイタマケン,ギョウダシ,オシアゲチョウ,埼玉県行田市押上町
3610046,埼玉県,行田市,壱里山町,サイタマケン,ギョウダシ,イチリヤマチョウ,埼玉県行田市壱里山町
3610047,埼玉県,行田市,清水町,サイタマケン,ギョウダシ,シミズチョウ,埼玉県行田市清水町
3610051,埼玉県,行田市,矢場,サイタマケン,ギョウダシ,ヤバ,埼玉県行田市矢場
3610052,埼玉県,行田市,本丸,サイタマケン,ギョウダシ,ホンマル,埼玉県行田市本丸
3610053,埼玉県,行田市,水城公園,サイタマケン,ギョウダシ,スイジョウコウエン,埼玉県行田市水城公園
3610054,埼玉県,行田市,城南,サイタマケン,ギョウダシ,ジョウナン,埼玉県行田市城南
3610055,埼玉県,行田市,駒形,サイタマケン,ギョウダシ,コマガタ,埼玉県行田市駒形
3610056,埼玉県,行田市,持田,サイタマケン,ギョウダシ,モチダ,埼玉県行田市持田
3610057,埼玉県,行田市,城西,サイタマケン,ギョウダシ,ジョウサイ,埼玉県行田市城西
3610061,埼玉県,行田市,和田,サイタマケン,ギョウダシ,ワダ,埼玉県行田市和田
3610062,埼玉県,行田市,谷郷,サイタマケン,ギョウダシ,ヤゴウ,埼玉県行田市谷郷
3610063,埼玉県,行田市,皿尾,サイタマケン,ギョウダシ,サラオ,埼玉県行田市皿尾
3610064,埼玉県,行田市,中里,サイタマケン,ギョウダシ,ナカザト,埼玉県行田市中里
3610065,埼玉県,行田市,小敷田,サイタマケン,ギョウダシ,コシキダ,埼玉県行田市小敷田
3610066,埼玉県,行田市,上池守,サイタマケン,ギョウダシ,カミイケモリ,埼玉県行田市上池守
3610067,埼玉県,行田市,下池守,サイタマケン,ギョウダシ,シモイケモリ,埼玉県行田市下池守
3610071,埼玉県,行田市,栄町,サイタマケン,ギョウダシ,サカエチョウ,埼玉県行田市栄町
3610072,埼玉県,行田市,宮本,サイタマケン,ギョウダシ,ミヤモト,埼玉県行田市宮本
3610073,埼玉県,行田市,行田,サイタマケン,ギョウダシ,ギョウダ,埼玉県行田市行田
3610074,埼玉県,行田市,旭町,サイタマケン,ギョウダシ,アサヒチョウ,埼玉県行田市旭町
3610075,埼玉県,行田市,向町,サイタマケン,ギョウダシ,ムカイマチ,埼玉県行田市向町
3610076,埼玉県,行田市,天満,サイタマケン,ギョウダシ,テンマ,埼玉県行田市天満
3610077,埼玉県,行田市,忍,サイタマケン,ギョウダシ,オシ,埼玉県行田市忍
3610078,埼玉県,行田市,中央,サイタマケン,ギョウダシ,チュウオウ,埼玉県行田市中央
3610081,埼玉県,行田市,犬塚,サイタマケン,ギョウダシ,イヌズカ,埼玉県行田市犬塚
3610082,埼玉県,行田市,馬見塚,サイタマケン,ギョウダシ,マミヅカ,埼玉県行田市馬見塚
3610083,埼玉県,行田市,中江袋,サイタマケン,ギョウダシ,ナカエブクロ,埼玉県行田市中江袋
3610084,埼玉県,行田市,南河原,サイタマケン,ギョウダシ,ミナミカワラ,埼玉県行田市南河原
3620000,埼玉県,上尾市,,サイタマケン,アゲオシ,,埼玉県上尾市
3620001,埼玉県,上尾市,上,サイタマケン,アゲオシ,カミ,埼玉県上尾市上
3620002,埼玉県,上尾市,南,サイタマケン,アゲオシ,ミナミ,埼玉県上尾市南
3620003,埼玉県,上尾市,菅谷,サイタマケン,アゲオシ,スガヤ,埼玉県上尾市菅谷
3620004,埼玉県,上尾市,須ケ谷,サイタマケン,アゲオシ,スカヤ,埼玉県上尾市須ケ谷
3620005,埼玉県,上尾市,西門前,サイタマケン,アゲオシ,ニシモンゼン,埼玉県上尾市西門前
3620006,埼玉県,上尾市,錦町,サイタマケン,アゲオシ,ニシキチョウ,埼玉県上尾市錦町
3620007,埼玉県,上尾市,久保,サイタマケン,アゲオシ,クボ,埼玉県上尾市久保
3620008,埼玉県,上尾市,上平中央,サイタマケン,アゲオシ,カミヒラチュウオウ,埼玉県上尾市上平中央
3620011,埼玉県,上尾市,平塚,サイタマケン,アゲオシ,ヒラツカ,埼玉県上尾市平塚
3620012,埼玉県,上尾市,上尾宿,サイタマケン,アゲオシ,アゲオシュク,埼玉県上尾市上尾宿
3620013,埼玉県,上尾市,上尾村,サイタマケン,アゲオシ,アゲオムラ,埼玉県上尾市上尾村
3620014,埼玉県,上尾市,本町,サイタマケン,アゲオシ,ホンチョウ,埼玉県上尾市本町
3620015,埼玉県,上尾市,緑丘,サイタマケン,アゲオシ,ミドリガオカ,埼玉県上尾市緑丘
3620016,埼玉県,上尾市,原新町,サイタマケン,アゲオシ,ハラシンマチ,埼玉県上尾市原新町
3620017,埼玉県,上尾市,二ツ宮,サイタマケン,アゲオシ,フタツミヤ,埼玉県上尾市二ツ宮
3620021,埼玉県,上尾市,原市,サイタマケン,アゲオシ,ハライチ,埼玉県上尾市原市
3620022,埼玉県,上尾市,瓦葺,サイタマケン,アゲオシ,カワラブキ,埼玉県上尾市瓦葺
3620023,埼玉県,上尾市,原市中,サイタマケン,アゲオシ,ハライチナカ,埼玉県上尾市原市中
3620024,埼玉県,上尾市,五番町,サイタマケン,アゲオシ,ゴバンチョウ,埼玉県上尾市五番町
3620025,埼玉県,上尾市,上尾下,サイタマケン,アゲオシ,アゲオシモ,埼玉県上尾市上尾下
3620026,埼玉県,上尾市,原市北,サイタマケン,アゲオシ,ハライチキタ,埼玉県上尾市原市北
3620031,埼玉県,上尾市,東町,サイタマケン,アゲオシ,アズマチョウ,埼玉県上尾市東町
3620032,埼玉県,上尾市,日の出,サイタマケン,アゲオシ,ヒノデ,埼玉県上尾市日の出
3620033,埼玉県,上尾市,栄町,サイタマケン,アゲオシ,サカエチョウ,埼玉県上尾市栄町
3620034,埼玉県,上尾市,愛宕,サイタマケン,アゲオシ,アタゴ,埼玉県上尾市愛宕
3620035,埼玉県,上尾市,仲町,サイタマケン,アゲオシ,ナカチョウ,埼玉県上尾市仲町
3620036,埼玉県,上尾市,宮本町,サイタマケン,アゲオシ,ミヤモトチョウ,埼玉県上尾市宮本町
3620037,埼玉県,上尾市,上町,サイタマケン,アゲオシ,カミチョウ,埼玉県上尾市上町
3620041,埼玉県,上尾市,富士見,サイタマケン,アゲオシ,フジミ,埼玉県上尾市富士見
3620042,埼玉県,上尾市,谷津,サイタマケン,アゲオシ,ヤツ,埼玉県上尾市谷津
3620043,埼玉県,上尾市,西宮下,サイタマケン,アゲオシ,ニシミヤシタ,埼玉県上尾市西宮下
3620044,埼玉県,上尾市,大谷本郷,サイタマケン,アゲオシ,オオヤホンゴウ,埼玉県上尾市大谷本郷
3620045,埼玉県,上尾市,向山,サイタマケン,アゲオシ,ムコウヤマ,埼玉県上尾市向山
3620046,埼玉県,上尾市,壱丁目,サイタマケン,アゲオシ,イッチョウメ,埼玉県上尾市壱丁目
3620047,埼玉県,上尾市,今泉,サイタマケン,アゲオシ,イマイズミ,埼玉県上尾市今泉
3620048,埼玉県,上尾市,川,サイタマケン,アゲオシ,カワ,埼玉県上尾市川
3620051,埼玉県,上尾市,地頭方,サイタマケン,アゲオシ,ジトウガタ,埼玉県上尾市地頭方
3620052,埼玉県,上尾市,中新井,サイタマケン,アゲオシ,ナカアライ,埼玉県上尾市中新井
3620053,埼玉県,上尾市,戸崎,サイタマケン,アゲオシ,トサキ,埼玉県上尾市戸崎
3620054,埼玉県,上尾市,堤崎,サイタマケン,アゲオシ,ツツミサキ,埼玉県上尾市堤崎
3620055,埼玉県,上尾市,平方領々家,サイタマケン,アゲオシ,ヒラカタリョウリョウケ,埼玉県上尾市平方領々家
3620056,埼玉県,上尾市,上野本郷,サイタマケン,アゲオシ,ウエノホンゴウ,埼玉県上尾市上野本郷
3620057,埼玉県,上尾市,西貝塚,サイタマケン,アゲオシ,ニシカイヅカ,埼玉県上尾市西貝塚
3620058,埼玉県,上尾市,上野,サイタマケン,アゲオシ,ウエノ,埼玉県上尾市上野
3620059,埼玉県,上尾市,平方,サイタマケン,アゲオシ,ヒラカタ,埼玉県上尾市平方
3620061,埼玉県,上尾市,藤波,サイタマケン,アゲオシ,フジナミ,埼玉県上尾市藤波
3620062,埼玉県,上尾市,泉台,サイタマケン,アゲオシ,イズミダイ,埼玉県上尾市泉台
3620063,埼玉県,上尾市,小泉,サイタマケン,アゲオシ,コイズミ,埼玉県上尾市小泉
3620064,埼玉県,上尾市,小敷谷,サイタマケン,アゲオシ,コシキヤ,埼玉県上尾市小敷谷
3620065,埼玉県,上尾市,畔吉,サイタマケン,アゲオシ,アゼヨシ,埼玉県上尾市畔吉
3620066,埼玉県,上尾市,領家,サイタマケン,アゲオシ,リョウケ,埼玉県上尾市領家
3620067,埼玉県,上尾市,中分,サイタマケン,アゲオシ,ナカブン,埼玉県上尾市中分
3620071,埼玉県,上尾市,井戸木,サイタマケン,アゲオシ,イドギ,埼玉県上尾市井戸木
3620072,埼玉県,上尾市,中妻,サイタマケン,アゲオシ,ナカヅマ,埼玉県上尾市中妻
3620073,埼玉県,上尾市,浅間台,サイタマケン,アゲオシ,アサマダイ,埼玉県上尾市浅間台
3620074,埼玉県,上尾市,春日,サイタマケン,アゲオシ,カスガ,埼玉県上尾市春日
3620075,埼玉県,上尾市,柏座,サイタマケン,アゲオシ,カシワザ,埼玉県上尾市柏座
3620076,埼玉県,上尾市,弁財,サイタマケン,アゲオシ,ベンザイ,埼玉県上尾市弁財
3620081,埼玉県,上尾市,壱丁目北,サイタマケン,アゲオシ,イッチョウメキタ,埼玉県上尾市壱丁目北
3620082,埼玉県,上尾市,壱丁目東,サイタマケン,アゲオシ,イッチョウメヒガシ,埼玉県上尾市壱丁目東
3620083,埼玉県,上尾市,壱丁目南,サイタマケン,アゲオシ,イッチョウメミナミ,埼玉県上尾市壱丁目南
3620084,埼玉県,上尾市,壱丁目西,サイタマケン,アゲオシ,イッチョウメニシ,埼玉県上尾市壱丁目西
3620800,埼玉県,北足立郡伊奈町,,サイタマケン,キタアダチグンイナマチ,,埼玉県北足立郡伊奈町
3620801,埼玉県,北足立郡伊奈町,小針内宿,サイタマケン,キタアダチグンイナマチ,コバリウチジュク,埼玉県北足立郡伊奈町小針内宿
3620802,埼玉県,北足立郡伊奈町,羽貫,サイタマケン,キタアダチグンイナマチ,ハヌキ,埼玉県北足立郡伊奈町羽貫
3620803,埼玉県,北足立郡伊奈町,大針,サイタマケン,キタアダチグンイナマチ,オオバリ,埼玉県北足立郡伊奈町大針
3620804,埼玉県,北足立郡伊奈町,本町,サイタマケン,キタアダチグンイナマチ,ホンチョウ,埼玉県北足立郡伊奈町本町
3620805,埼玉県,北足立郡伊奈町,栄,サイタマケン,キタアダチグンイナマチ,サカエ,埼玉県北足立郡伊奈町栄
3620806,埼玉県,北足立郡伊奈町,小室,サイタマケン,キタアダチグンイナマチ,コムロ,埼玉県北足立郡伊奈町小室
3620807,埼玉県,北足立郡伊奈町,寿,サイタマケン,キタアダチグンイナマチ,コトブキ,埼玉県北足立郡伊奈町寿
3620808,埼玉県,北足立郡伊奈町,小針新宿,サイタマケン,キタアダチグンイナマチ,コバリシンシュク,埼玉県北足立郡伊奈町小針新宿
3620809,埼玉県,北足立郡伊奈町,中央,サイタマケン,キタアダチグンイナマチ,チュウオウ,埼玉県北足立郡伊奈町中央
3620811,埼玉県,北足立郡伊奈町,西小針,サイタマケン,キタアダチグンイナマチ,ニシコバリ,埼玉県北足立郡伊奈町西小針
3620812,埼玉県,北足立郡伊奈町,内宿台,サイタマケン,キタアダチグンイナマチ,ウチジュクダイ,埼玉県北足立郡伊奈町内宿台
3620813,埼玉県,北足立郡伊奈町,学園,サイタマケン,キタアダチグンイナマチ,ガクエン,埼玉県北足立郡伊奈町学園
3630000,埼玉県,桶川市,,サイタマケン,オケガワシ,,埼玉県桶川市
3630001,埼玉県,桶川市,加納,サイタマケン,オケガワシ,カノウ,埼玉県桶川市加納
3630002,埼玉県,桶川市,赤堀,サイタマケン,オケガワシ,アカボリ,埼玉県桶川市赤堀
3630003,埼玉県,桶川市,篠津,サイタマケン,オケガワシ,シノヅ,埼玉県桶川市篠津
3630004,埼玉県,桶川市,五町台,サイタマケン,オケガワシ,ゴチョウダイ,埼玉県桶川市五町台
3630005,埼玉県,桶川市,舎人新田,サイタマケン,オケガワシ,トネリシンデン,埼玉県桶川市舎人新田
3630006,埼玉県,桶川市,倉田,サイタマケン,オケガワシ,クラタ,埼玉県桶川市倉田
3630007,埼玉県,桶川市,小針領家,サイタマケン,オケガワシ,コバリリョウケ,埼玉県桶川市小針領家
3630008,埼玉県,桶川市,坂田,サイタマケン,オケガワシ,サカタ,埼玉県桶川市坂田
3630009,埼玉県,桶川市,坂田東,サイタマケン,オケガワシ,サカタヒガシ,埼玉県桶川市坂田東
3630011,埼玉県,桶川市,北,サイタマケン,オケガワシ,キタ,埼玉県桶川市北
3630012,埼玉県,桶川市,末広,サイタマケン,オケガワシ,スエヒロ,埼玉県桶川市末広
3630013,埼玉県,桶川市,東,サイタマケン,オケガワシ,ヒガシ,埼玉県桶川市東
3630014,埼玉県,桶川市,神明,サイタマケン,オケガワシ,シンメイ,埼玉県桶川市神明
3630015,埼玉県,桶川市,南,サイタマケン,オケガワシ,ミナミ,埼玉県桶川市南
3630016,埼玉県,桶川市,寿,サイタマケン,オケガワシ,コトブキ,埼玉県桶川市寿
3630017,埼玉県,桶川市,西,サイタマケン,オケガワシ,ニシ,埼玉県桶川市西
3630018,埼玉県,桶川市,坂田西,サイタマケン,オケガワシ,サカタニシ,埼玉県桶川市坂田西
3630020,埼玉県,桶川市,上日出谷南,サイタマケン,オケガワシ,カミヒデヤミナミ,埼玉県桶川市上日出谷南
3630021,埼玉県,桶川市,泉,サイタマケン,オケガワシ,イズミ,埼玉県桶川市泉
3630022,埼玉県,桶川市,若宮,サイタマケン,オケガワシ,ワカミヤ,埼玉県桶川市若宮
3630023,埼玉県,桶川市,朝日,サイタマケン,オケガワシ,アサヒ,埼玉県桶川市朝日
3630024,埼玉県,桶川市,鴨川,サイタマケン,オケガワシ,カモガワ,埼玉県桶川市鴨川
3630025,埼玉県,桶川市,下日出谷,サイタマケン,オケガワシ,シモヒデヤ,埼玉県桶川市下日出谷
3630026,埼玉県,桶川市,上日出谷,サイタマケン,オケガワシ,カミヒデヤ,埼玉県桶川市上日出谷
3630027,埼玉県,桶川市,川田谷,サイタマケン,オケガワシ,カワタヤ,埼玉県桶川市川田谷
3630028,埼玉県,桶川市,下日出谷西,サイタマケン,オケガワシ,シモヒデヤニシ,埼玉県桶川市下日出谷西
3630029,埼玉県,桶川市,下日出谷東,サイタマケン,オケガワシ,シモヒデヤヒガシ,埼玉県桶川市下日出谷東
3640000,埼玉県,北本市,,サイタマケン,キタモトシ,,埼玉県北本市
3640001,埼玉県,北本市,深井,サイタマケン,キタモトシ,フカイ,埼玉県北本市深井
3640002,埼玉県,北本市,宮内,サイタマケン,キタモトシ,ミヤウチ,埼玉県北本市宮内
3640003,埼玉県,北本市,古市場,サイタマケン,キタモトシ,フルイチバ,埼玉県北本市古市場
3640004,埼玉県,北本市,山中,サイタマケン,キタモトシ,ヤマナカ,埼玉県北本市山中
3640005,埼玉県,北本市,本宿,サイタマケン,キタモトシ,モトジュク,埼玉県北本市本宿
3640006,埼玉県,北本市,北本,サイタマケン,キタモトシ,キタモト,埼玉県北本市北本
3640007,埼玉県,北本市,東間,サイタマケン,キタモトシ,アズマ,埼玉県北本市東間
3640011,埼玉県,北本市,朝日,サイタマケン,キタモトシ,アサヒ,埼玉県北本市朝日
3640012,埼玉県,北本市,北中丸,サイタマケン,キタモトシ,キタナカマル,埼玉県北本市北中丸
3640013,埼玉県,北本市,中丸,サイタマケン,キタモトシ,ナカマル,埼玉県北本市中丸
3640014,埼玉県,北本市,二ツ家,サイタマケン,キタモトシ,フタツヤ,埼玉県北本市二ツ家
3640021,埼玉県,北本市,北本宿,サイタマケン,キタモトシ,キタモトジュク,埼玉県北本市北本宿
3640022,埼玉県,北本市,下石戸上,サイタマケン,キタモトシ,シモイシトカミ,埼玉県北本市下石戸上
3640023,埼玉県,北本市,下石戸下,サイタマケン,キタモトシ,シモイシトシモ,埼玉県北本市下石戸下
3640024,埼玉県,北本市,石戸,サイタマケン,キタモトシ,イシト,埼玉県北本市石戸
3640025,埼玉県,北本市,石戸宿,サイタマケン,キタモトシ,イシトジュク,埼玉県北本市石戸宿
3640026,埼玉県,北本市,荒井,サイタマケン,キタモトシ,アライ,埼玉県北本市荒井
3640027,埼玉県,北本市,栄,サイタマケン,キタモトシ,サカエ,埼玉県北本市栄
3640028,埼玉県,北本市,下石戸,サイタマケン,キタモトシ,シモイシト,埼玉県北本市下石戸
3640031,埼玉県,北本市,中央,サイタマケン,キタモトシ,チュウオウ,埼玉県北本市中央
3640032,埼玉県,北本市,緑,サイタマケン,キタモトシ,ミドリ,埼玉県北本市緑
3640033,埼玉県,北本市,本町,サイタマケン,キタモトシ,ホンチョウ,埼玉県北本市本町
3640034,埼玉県,北本市,高尾,サイタマケン,キタモトシ,タカオ,埼玉県北本市高尾
3640035,埼玉県,北本市,西高尾,サイタマケン,キタモトシ,ニシタカオ,埼玉県北本市西高尾
3650000,埼玉県,鴻巣市,,サイタマケン,コウノスシ,,埼玉県鴻巣市
3650001,埼玉県,鴻巣市,赤城台,サイタマケン,コウノスシ,アカギダイ,埼玉県鴻巣市赤城台
3650002,埼玉県,鴻巣市,赤城,サイタマケン,コウノスシ,アカギ,埼玉県鴻巣市赤城
3650003,埼玉県,鴻巣市,北根,サイタマケン,コウノスシ,キタネ,埼玉県鴻巣市北根
3650004,埼玉県,鴻巣市,関新田,サイタマケン,コウノスシ,セキシンデン,埼玉県鴻巣市関新田
3650005,埼玉県,鴻巣市,広田,サイタマケン,コウノスシ,ヒロダ,埼玉県鴻巣市広田
3650011,埼玉県,鴻巣市,新井,サイタマケン,コウノスシ,アライ,埼玉県鴻巣市新井
3650012,埼玉県,鴻巣市,上会下,サイタマケン,コウノスシ,カミエゲ,埼玉県鴻巣市上会下
3650013,埼玉県,鴻巣市,境,サイタマケン,コウノスシ,サカイ,埼玉県鴻巣市境
3650014,埼玉県,鴻巣市,屈巣,サイタマケン,コウノスシ,クス,埼玉県鴻巣市屈巣
3650021,埼玉県,鴻巣市,安養寺,サイタマケン,コウノスシ,アンヨウジ,埼玉県鴻巣市安養寺
3650022,埼玉県,鴻巣市,郷地,サイタマケン,コウノスシ,ゴウジ,埼玉県鴻巣市郷地
3650023,埼玉県,鴻巣市,笠原,サイタマケン,コウノスシ,カサハラ,埼玉県鴻巣市笠原
3650024,埼玉県,鴻巣市,常光,サイタマケン,コウノスシ,ジョウコウ,埼玉県鴻巣市常光
3650025,埼玉県,鴻巣市,下谷,サイタマケン,コウノスシ,シモヤ,埼玉県鴻巣市下谷
3650026,埼玉県,鴻巣市,西中曽根,サイタマケン,コウノスシ,ニシナカゾネ,埼玉県鴻巣市西中曽根
3650027,埼玉県,鴻巣市,上谷,サイタマケン,コウノスシ,カミヤ,埼玉県鴻巣市上谷
3650028,埼玉県,鴻巣市,鴻巣,サイタマケン,コウノスシ,コウノス,埼玉県鴻巣市鴻巣
3650031,埼玉県,鴻巣市,ひばり野,サイタマケン,コウノスシ,ヒバリノ,埼玉県鴻巣市ひばり野
3650032,埼玉県,鴻巣市,中央,サイタマケン,コウノスシ,チュウオウ,埼玉県鴻巣市中央
3650033,埼玉県,鴻巣市,生出塚,サイタマケン,コウノスシ,オイネヅカ,埼玉県鴻巣市生出塚
3650034,埼玉県,鴻巣市,上生出塚,サイタマケン,コウノスシ,カミオイネヅカ,埼玉県鴻巣市上生出塚
3650035,埼玉県,鴻巣市,下生出塚,サイタマケン,コウノスシ,シモオイネヅカ,埼玉県鴻巣市下生出塚
3650036,埼玉県,鴻巣市,天神,サイタマケン,コウノスシ,テンジン,埼玉県鴻巣市天神
3650037,埼玉県,鴻巣市,人形,サイタマケン,コウノスシ,ニンギョウ,埼玉県鴻巣市人形
3650038,埼玉県,鴻巣市,本町,サイタマケン,コウノスシ,ホンチョウ,埼玉県鴻巣市本町
3650039,埼玉県,鴻巣市,東,サイタマケン,コウノスシ,ヒガシ,埼玉県鴻巣市東
3650041,埼玉県,鴻巣市,小松,サイタマケン,コウノスシ,コマツ,埼玉県鴻巣市小松
3650042,埼玉県,鴻巣市,松原,サイタマケン,コウノスシ,マツバラ,埼玉県鴻巣市松原
3650043,埼玉県,鴻巣市,原馬室,サイタマケン,コウノスシ,ハラマムロ,埼玉県鴻巣市原馬室
3650044,埼玉県,鴻巣市,滝馬室,サイタマケン,コウノスシ,タキマムロ,埼玉県鴻巣市滝馬室
3650045,埼玉県,鴻巣市,氷川町,サイタマケン,コウノスシ,ヒカワチョウ,埼玉県鴻巣市氷川町
3650046,埼玉県,鴻巣市,富士見町,サイタマケン,コウノスシ,フジミチョウ,埼玉県鴻巣市富士見町
3650047,埼玉県,鴻巣市,逆川,サイタマケン,コウノスシ,サカサガワ,埼玉県鴻巣市逆川
3650051,埼玉県,鴻巣市,宮前,サイタマケン,コウノスシ,ミヤマエ,埼玉県鴻巣市宮前
3650052,埼玉県,鴻巣市,登戸,サイタマケン,コウノスシ,ノボリト,埼玉県鴻巣市登戸
3650053,埼玉県,鴻巣市,緑町,サイタマケン,コウノスシ,ミドリチョウ,埼玉県鴻巣市緑町
3650054,埼玉県,鴻巣市,大間,サイタマケン,コウノスシ,オオマ,埼玉県鴻巣市大間
3650055,埼玉県,鴻巣市,栄町,サイタマケン,コウノスシ,サカエチョウ,埼玉県鴻巣市栄町
3650056,埼玉県,鴻巣市,堤町,サイタマケン,コウノスシ,ツツミチョウ,埼玉県鴻巣市堤町
3650057,埼玉県,鴻巣市,幸町,サイタマケン,コウノスシ,サイワイチョウ,埼玉県鴻巣市幸町
3650058,埼玉県,鴻巣市,北中野,サイタマケン,コウノスシ,キタナカノ,埼玉県鴻巣市北中野
3650059,埼玉県,鴻巣市,糠田,サイタマケン,コウノスシ,ヌカタ,埼玉県鴻巣市糠田
3650061,埼玉県,鴻巣市,川面,サイタマケン,コウノスシ,カワヅラ,埼玉県鴻巣市川面
3650062,埼玉県,鴻巣市,箕田,サイタマケン,コウノスシ,ミダ,埼玉県鴻巣市箕田
3650063,埼玉県,鴻巣市,稲荷町,サイタマケン,コウノスシ,イナリチョウ,埼玉県鴻巣市稲荷町
3650064,埼玉県,鴻巣市,赤見台,サイタマケン,コウノスシ,アカミダイ,埼玉県鴻巣市赤見台
3650065,埼玉県,鴻巣市,中井,サイタマケン,コウノスシ,ナカイ,埼玉県鴻巣市中井
3650066,埼玉県,鴻巣市,三ツ木,サイタマケン,コウノスシ,ミツギ,埼玉県鴻巣市三ツ木
3650067,埼玉県,鴻巣市,すみれ野,サイタマケン,コウノスシ,スミレノ,埼玉県鴻巣市すみれ野
3650068,埼玉県,鴻巣市,愛の町,サイタマケン,コウノスシ,アイノマチ,埼玉県鴻巣市愛の町
3650071,埼玉県,鴻巣市,寺谷,サイタマケン,コウノスシ,テラヤ,埼玉県鴻巣市寺谷
3650072,埼玉県,鴻巣市,市ノ縄,サイタマケン,コウノスシ,イチノナワ,埼玉県鴻巣市市ノ縄
3650073,埼玉県,鴻巣市,八幡田,サイタマケン,コウノスシ,ハチマンデン,埼玉県鴻巣市八幡田
3650074,埼玉県,鴻巣市,神明,サイタマケン,コウノスシ,シンメイ,埼玉県鴻巣市神明
3650075,埼玉県,鴻巣市,宮地,サイタマケン,コウノスシ,ミヤジ,埼玉県鴻巣市宮地
3650076,埼玉県,鴻巣市,本宮町,サイタマケン,コウノスシ,ホンミヤチョウ,埼玉県鴻巣市本宮町
3650077,埼玉県,鴻巣市,雷電,サイタマケン,コウノスシ,ライデン,埼玉県鴻巣市雷電
3650078,埼玉県,鴻巣市,加美,サイタマケン,コウノスシ,カミ,埼玉県鴻巣市加美
3660000,埼玉県,深谷市,,サイタマケン,フカヤシ,,埼玉県深谷市
3660001,埼玉県,深谷市,中瀬,サイタマケン,フカヤシ,ナカゼ,埼玉県深谷市中瀬
3660002,埼玉県,深谷市,下手計,サイタマケン,フカヤシ,シモテバカ,埼玉県深谷市下手計
3660003,埼玉県,深谷市,大塚,サイタマケン,フカヤシ,オオヅカ,埼玉県深谷市大塚
3660004,埼玉県,深谷市,上手計,サイタマケン,フカヤシ,カミテバカ,埼玉県深谷市上手計
3660005,埼玉県,深谷市,町田,サイタマケン,フカヤシ,マチダ,埼玉県深谷市町田
3660006,埼玉県,深谷市,血洗島,サイタマケン,フカヤシ,チアライジマ,埼玉県深谷市血洗島
3660007,埼玉県,深谷市,南阿賀野,サイタマケン,フカヤシ,ミナミアガノ,埼玉県深谷市南阿賀野
3660008,埼玉県,深谷市,北阿賀野,サイタマケン,フカヤシ,キタアガノ,埼玉県深谷市北阿賀野
3660009,埼玉県,深谷市,横瀬,サイタマケン,フカヤシ,ヨコゼ,埼玉県深谷市横瀬
3660010,埼玉県,深谷市,高島,サイタマケン,フカヤシ,タカシマ,埼玉県深谷市高島
3660011,埼玉県,深谷市,石塚,サイタマケン,フカヤシ,イシヅカ,埼玉県深谷市石塚
3660012,埼玉県,深谷市,江原,サイタマケン,フカヤシ,エバラ,埼玉県深谷市江原
3660013,埼玉県,深谷市,堀米,サイタマケン,フカヤシ,ホリゴメ,埼玉県深谷市堀米
3660014,埼玉県,深谷市,藤野木,サイタマケン,フカヤシ,フジノキ,埼玉県深谷市藤野木
3660015,埼玉県,深谷市,蓮沼,サイタマケン,フカヤシ,ハスヌマ,埼玉県深谷市蓮沼
3660016,埼玉県,深谷市,新井,サイタマケン,フカヤシ,アライ,埼玉県深谷市新井
3660017,埼玉県,深谷市,沼尻,サイタマケン,フカヤシ,ヌマジリ,埼玉県深谷市沼尻
3660018,埼玉県,深谷市,成塚,サイタマケン,フカヤシ,ナリヅカ,埼玉県深谷市成塚
3660019,埼玉県,深谷市,新戒,サイタマケン,フカヤシ,シンガイ,埼玉県深谷市新戒
3660021,埼玉県,深谷市,上増田,サイタマケン,フカヤシ,カミマスダ,埼玉県深谷市上増田
3660022,埼玉県,深谷市,本田ケ谷,サイタマケン,フカヤシ,ホンダガヤ,埼玉県深谷市本田ケ谷
3660023,埼玉県,深谷市,宮ケ谷戸,サイタマケン,フカヤシ,ミヤガヤト,埼玉県深谷市宮ケ谷戸
3660024,埼玉県,深谷市,明戸,サイタマケン,フカヤシ,アケト,埼玉県深谷市明戸
3660025,埼玉県,深谷市,寿町,サイタマケン,フカヤシ,コトブキチョウ,埼玉県深谷市寿町
3660026,埼玉県,深谷市,稲荷町,サイタマケン,フカヤシ,イナリチョウ,埼玉県深谷市稲荷町
3660027,埼玉県,深谷市,天神町,サイタマケン,フカヤシ,テンジンチョウ,埼玉県深谷市天神町
3660028,埼玉県,深谷市,稲荷町北,サイタマケン,フカヤシ,イナリチョウキタ,埼玉県深谷市稲荷町北
3660029,埼玉県,深谷市,上敷免,サイタマケン,フカヤシ,ジョウシキメン,埼玉県深谷市上敷免
3660031,埼玉県,深谷市,国済寺町,サイタマケン,フカヤシ,コクサイジチョウ,埼玉県深谷市国済寺町
3660032,埼玉県,深谷市,幡羅町,サイタマケン,フカヤシ,ハタラチョウ,埼玉県深谷市幡羅町
3660033,埼玉県,深谷市,国済寺,サイタマケン,フカヤシ,コクサイジ,埼玉県深谷市国済寺
3660034,埼玉県,深谷市,常盤町,サイタマケン,フカヤシ,トキワチョウ,埼玉県深谷市常盤町
3660035,埼玉県,深谷市,原郷,サイタマケン,フカヤシ,ハラゴウ,埼玉県深谷市原郷
3660041,埼玉県,深谷市,東方,サイタマケン,フカヤシ,ヒガシガタ,埼玉県深谷市東方
3660042,埼玉県,深谷市,東方町,サイタマケン,フカヤシ,ヒガシガタチョウ,埼玉県深谷市東方町
3660051,埼玉県,深谷市,上柴町東,サイタマケン,フカヤシ,カミシバチョウヒガシ,埼玉県深谷市上柴町東
3660052,埼玉県,深谷市,上柴町西,サイタマケン,フカヤシ,カミシバチョウニシ,埼玉県深谷市上柴町西
3660053,埼玉県,深谷市,秋元町,サイタマケン,フカヤシ,アキモトチョウ,埼玉県深谷市秋元町
3660054,埼玉県,深谷市,緑ケ丘,サイタマケン,フカヤシ,ミドリガオカ,埼玉県深谷市緑ケ丘
3660061,埼玉県,深谷市,二ツ小屋,サイタマケン,フカヤシ,フタツゴヤ,埼玉県深谷市二ツ小屋
3660062,埼玉県,深谷市,前小屋,サイタマケン,フカヤシ,マエゴヤ,埼玉県深谷市前小屋
3660801,埼玉県,深谷市,上野台,サイタマケン,フカヤシ,ウワノダイ,埼玉県深谷市上野台
3660802,埼玉県,深谷市,桜ケ丘,サイタマケン,フカヤシ,サクラガオカ,埼玉県深谷市桜ケ丘
3660810,埼玉県,深谷市,宿根,サイタマケン,フカヤシ,シュクネ,埼玉県深谷市宿根
3660811,埼玉県,深谷市,人見,サイタマケン,フカヤシ,ヒトミ,埼玉県深谷市人見
3660812,埼玉県,深谷市,折之口,サイタマケン,フカヤシ,オリノクチ,埼玉県深谷市折之口
3660813,埼玉県,深谷市,境,サイタマケン,フカヤシ,サカイ,埼玉県深谷市境
3660814,埼玉県,深谷市,大谷,サイタマケン,フカヤシ,オオヤ,埼玉県深谷市大谷
3660815,埼玉県,深谷市,櫛引,サイタマケン,フカヤシ,クシビキ,埼玉県深谷市櫛引
3660816,埼玉県,深谷市,樫合,サイタマケン,フカヤシ,カシアイ,埼玉県深谷市樫合
3660817,埼玉県,深谷市,柏合,サイタマケン,フカヤシ,カシアイ,埼玉県深谷市柏合
3660818,埼玉県,深谷市,萱場,サイタマケン,フカヤシ,カヤバ,埼玉県深谷市萱場
3660819,埼玉県,深谷市,見晴町,サイタマケン,フカヤシ,ミハラシチョウ,埼玉県深谷市見晴町
3660821,埼玉県,深谷市,田谷,サイタマケン,フカヤシ,タヤ,埼玉県深谷市田谷
3660822,埼玉県,深谷市,仲町,サイタマケン,フカヤシ,ナカチョウ,埼玉県深谷市仲町
3660823,埼玉県,深谷市,本住町,サイタマケン,フカヤシ,モトスミチョウ,埼玉県深谷市本住町
3660824,埼玉県,深谷市,西島町（西島）,サイタマケン,フカヤシ,ニシジマチョウ(ニシジマ),埼玉県深谷市西島町（西島）
3660825,埼玉県,深谷市,深谷町,サイタマケン,フカヤシ,フカヤチョウ,埼玉県深谷市深谷町
3660826,埼玉県,深谷市,田所町,サイタマケン,フカヤシ,タドコロチョウ,埼玉県深谷市田所町
3660827,埼玉県,深谷市,栄町,サイタマケン,フカヤシ,サカエチョウ,埼玉県深谷市栄町
3660828,埼玉県,深谷市,東大沼,サイタマケン,フカヤシ,ヒガシオオヌマ,埼玉県深谷市東大沼
3660829,埼玉県,深谷市,西大沼,サイタマケン,フカヤシ,ニシオオヌマ,埼玉県深谷市西大沼
3660831,埼玉県,深谷市,内ケ島,サイタマケン,フカヤシ,ウチガシマ,埼玉県深谷市内ケ島
3660832,埼玉県,深谷市,高畑,サイタマケン,フカヤシ,タカバタケ,埼玉県深谷市高畑
3660833,埼玉県,深谷市,戸森,サイタマケン,フカヤシ,トモリ,埼玉県深谷市戸森
3660834,埼玉県,深谷市,曲田（錦町）,サイタマケン,フカヤシ,マガツタ(ニシキマチ),埼玉県深谷市曲田（錦町）
3660835,埼玉県,深谷市,谷之,サイタマケン,フカヤシ,ヤノ,埼玉県深谷市谷之
3660836,埼玉県,深谷市,伊勢方,サイタマケン,フカヤシ,イセガタ,埼玉県深谷市伊勢方
3660837,埼玉県,深谷市,起会,サイタマケン,フカヤシ,オキアイ,埼玉県深谷市起会
3660838,埼玉県,深谷市,大塚島,サイタマケン,フカヤシ,オオツカジマ,埼玉県深谷市大塚島
3660839,埼玉県,深谷市,矢島,サイタマケン,フカヤシ,ヤジマ,埼玉県深谷市矢島
3670000,埼玉県,本庄市,,サイタマケン,ホンジョウシ,,埼玉県本庄市
3670001,埼玉県,本庄市,下仁手,サイタマケン,ホンジョウシ,シモニツテ,埼玉県本庄市下仁手
3670002,埼玉県,本庄市,仁手,サイタマケン,ホンジョウシ,ニッテ,埼玉県本庄市仁手
3670003,埼玉県,本庄市,台町,サイタマケン,ホンジョウシ,ダイマチ,埼玉県本庄市台町
3670004,埼玉県,本庄市,本町,サイタマケン,ホンジョウシ,モトマチ,埼玉県本庄市本町
3670005,埼玉県,本庄市,久々宇,サイタマケン,ホンジョウシ,クグウ,埼玉県本庄市久々宇
3670006,埼玉県,本庄市,田中,サイタマケン,ホンジョウシ,タナカ,埼玉県本庄市田中
3670007,埼玉県,本庄市,上仁手,サイタマケン,ホンジョウシ,カミニッテ,埼玉県本庄市上仁手
3670011,埼玉県,本庄市,小和瀬,サイタマケン,ホンジョウシ,コワゼ,埼玉県本庄市小和瀬
3670012,埼玉県,本庄市,宮戸,サイタマケン,ホンジョウシ,ミヤド,埼玉県本庄市宮戸
3670013,埼玉県,本庄市,滝瀬,サイタマケン,ホンジョウシ,タキセ,埼玉県本庄市滝瀬
3670014,埼玉県,本庄市,堀田,サイタマケン,ホンジョウシ,ホッタ,埼玉県本庄市堀田
3670015,埼玉県,本庄市,牧西,サイタマケン,ホンジョウシ,モクサイ,埼玉県本庄市牧西
3670016,埼玉県,本庄市,鵜森,サイタマケン,ホンジョウシ,ウノモリ,埼玉県本庄市鵜森
3670017,埼玉県,本庄市,傍示堂,サイタマケン,ホンジョウシ,ホウジドウ,埼玉県本庄市傍示堂
3670018,埼玉県,本庄市,諏訪町,サイタマケン,ホンジョウシ,スワチョウ,埼玉県本庄市諏訪町
3670021,埼玉県,本庄市,東台,サイタマケン,ホンジョウシ,ヒガシダイ,埼玉県本庄市東台
3670022,埼玉県,本庄市,日の出,サイタマケン,ホンジョウシ,ヒノデ,埼玉県本庄市日の出
3670023,埼玉県,本庄市,寿,サイタマケン,ホンジョウシ,コトブキ,埼玉県本庄市寿
3670024,埼玉県,本庄市,東五十子,サイタマケン,ホンジョウシ,ヒガシイカツコ,埼玉県本庄市東五十子
3670025,埼玉県,本庄市,西五十子,サイタマケン,ホンジョウシ,ニシイカツコ,埼玉県本庄市西五十子
3670026,埼玉県,本庄市,朝日町,サイタマケン,ホンジョウシ,アサヒチョウ,埼玉県本庄市朝日町
3670027,埼玉県,本庄市,五十子,サイタマケン,ホンジョウシ,イカッコ,埼玉県本庄市五十子
3670030,埼玉県,本庄市,早稲田の杜,サイタマケン,ホンジョウシ,ワセダノモリ,埼玉県本庄市早稲田の杜
3670031,埼玉県,本庄市,北堀,サイタマケン,ホンジョウシ,キタボリ,埼玉県本庄市北堀
3670032,埼玉県,本庄市,栗崎,サイタマケン,ホンジョウシ,クリザキ,埼玉県本庄市栗崎
3670033,埼玉県,本庄市,東富田,サイタマケン,ホンジョウシ,ヒガシトミダ,埼玉県本庄市東富田
3670034,埼玉県,本庄市,四方田,サイタマケン,ホンジョウシ,シホウデン,埼玉県本庄市四方田
3670035,埼玉県,本庄市,西富田,サイタマケン,ホンジョウシ,ニシトミダ,埼玉県本庄市西富田
3670036,埼玉県,本庄市,今井,サイタマケン,ホンジョウシ,イマイ,埼玉県本庄市今井
3670037,埼玉県,本庄市,共栄,サイタマケン,ホンジョウシ,キョウエイ,埼玉県本庄市共栄
3670038,埼玉県,本庄市,いまい台,サイタマケン,ホンジョウシ,イマイダイ,埼玉県本庄市いまい台
3670039,埼玉県,本庄市,四季の里,サイタマケン,ホンジョウシ,シキノサト,埼玉県本庄市四季の里
3670041,埼玉県,本庄市,駅南,サイタマケン,ホンジョウシ,エキナン,埼玉県本庄市駅南
3670042,埼玉県,本庄市,けや木,サイタマケン,ホンジョウシ,ケヤキ,埼玉県本庄市けや木
3670043,埼玉県,本庄市,緑,サイタマケン,ホンジョウシ,ミドリ,埼玉県本庄市緑
3670044,埼玉県,本庄市,見福,サイタマケン,ホンジョウシ,ケンプク,埼玉県本庄市見福
3670045,埼玉県,本庄市,柏,サイタマケン,ホンジョウシ,カシワ,埼玉県本庄市柏
3670046,埼玉県,本庄市,栄,サイタマケン,ホンジョウシ,サカエ,埼玉県本庄市栄
3670047,埼玉県,本庄市,前原,サイタマケン,ホンジョウシ,マエハラ,埼玉県本庄市前原
3670048,埼玉県,本庄市,南,サイタマケン,ホンジョウシ,ミナミ,埼玉県本庄市南
3670051,埼玉県,本庄市,本庄,サイタマケン,ホンジョウシ,ホンジョウ,埼玉県本庄市本庄
3670052,埼玉県,本庄市,銀座,サイタマケン,ホンジョウシ,ギンザ,埼玉県本庄市銀座
3670053,埼玉県,本庄市,中央,サイタマケン,ホンジョウシ,チュウオウ,埼玉県本庄市中央
3670054,埼玉県,本庄市,千代田,サイタマケン,ホンジョウシ,チヨダ,埼玉県本庄市千代田
3670055,埼玉県,本庄市,若泉,サイタマケン,ホンジョウシ,ワカイズミ,埼玉県本庄市若泉
3670056,埼玉県,本庄市,照若町,サイタマケン,ホンジョウシ,テルワカチョウ,埼玉県本庄市照若町
3670061,埼玉県,本庄市,小島,サイタマケン,ホンジョウシ,オジマ,埼玉県本庄市小島
3670062,埼玉県,本庄市,小島南,サイタマケン,ホンジョウシ,オジマミナミ,埼玉県本庄市小島南
3670063,埼玉県,本庄市,下野堂,サイタマケン,ホンジョウシ,シモノドウ,埼玉県本庄市下野堂
3670064,埼玉県,本庄市,万年寺,サイタマケン,ホンジョウシ,マンネンジ,埼玉県本庄市万年寺
3670071,埼玉県,本庄市,山王堂,サイタマケン,ホンジョウシ,サンノウドウ,埼玉県本庄市山王堂
3670072,埼玉県,本庄市,沼和田,サイタマケン,ホンジョウシ,ヌマワダ,埼玉県本庄市沼和田
3670073,埼玉県,本庄市,都島,サイタマケン,ホンジョウシ,ミヤコジマ,埼玉県本庄市都島
3670074,埼玉県,本庄市,杉山,サイタマケン,ホンジョウシ,スギヤマ,埼玉県本庄市杉山
3670075,埼玉県,本庄市,新井,サイタマケン,ホンジョウシ,アライ,埼玉県本庄市新井
3670100,埼玉県,児玉郡美里町,,サイタマケン,コダマグンミサトマチ,,埼玉県児玉郡美里町
3670101,埼玉県,児玉郡美里町,小茂田,サイタマケン,コダマグンミサトマチ,コモダ,埼玉県児玉郡美里町小茂田
3670102,埼玉県,児玉郡美里町,関,サイタマケン,コダマグンミサトマチ,セキ,埼玉県児玉郡美里町関
3670103,埼玉県,児玉郡美里町,阿那志,サイタマケン,コダマグンミサトマチ,アナシ,埼玉県児玉郡美里町阿那志
3670104,埼玉県,児玉郡美里町,根木,サイタマケン,コダマグンミサトマチ,ネギ,埼玉県児玉郡美里町根木
3670105,埼玉県,児玉郡美里町,沼上,サイタマケン,コダマグンミサトマチ,ヌマガミ,埼玉県児玉郡美里町沼上
3670106,埼玉県,児玉郡美里町,南十条,サイタマケン,コダマグンミサトマチ,ミナミジュウジョウ,埼玉県児玉郡美里町南十条
3670107,埼玉県,児玉郡美里町,北十条,サイタマケン,コダマグンミサトマチ,キタジュウジョウ,埼玉県児玉郡美里町北十条
3670108,埼玉県,児玉郡美里町,下児玉,サイタマケン,コダマグンミサトマチ,シモコダマ,埼玉県児玉郡美里町下児玉
3670111,埼玉県,児玉郡美里町,古郡,サイタマケン,コダマグンミサトマチ,フルコオリ,埼玉県児玉郡美里町古郡
3670112,埼玉県,児玉郡美里町,木部,サイタマケン,コダマグンミサトマチ,キベ,埼玉県児玉郡美里町木部
3670113,埼玉県,児玉郡美里町,甘粕,サイタマケン,コダマグンミサトマチ,アマガス,埼玉県児玉郡美里町甘粕
3670114,埼玉県,児玉郡美里町,中里,サイタマケン,コダマグンミサトマチ,ナカザト,埼玉県児玉郡美里町中里
3670115,埼玉県,児玉郡美里町,猪俣,サイタマケン,コダマグンミサトマチ,イノマタ,埼玉県児玉郡美里町猪俣
3670116,埼玉県,児玉郡美里町,円良田,サイタマケン,コダマグンミサトマチ,ツブラタ,埼玉県児玉郡美里町円良田
3670117,埼玉県,児玉郡美里町,白石,サイタマケン,コダマグンミサトマチ,シロイシ,埼玉県児玉郡美里町白石
3670118,埼玉県,児玉郡美里町,広木,サイタマケン,コダマグンミサトマチ,ヒロキ,埼玉県児玉郡美里町広木
3670119,埼玉県,児玉郡美里町,駒衣,サイタマケン,コダマグンミサトマチ,コマギヌ,埼玉県児玉郡美里町駒衣
3670200,埼玉県,児玉郡神川町,,サイタマケン,コダマグンカミカワマチ,,埼玉県児玉郡神川町
3670201,埼玉県,本庄市,児玉町高関,サイタマケン,ホンジョウシ,コダマチョウタカゼキ,埼玉県本庄市児玉町高関
3670202,埼玉県,本庄市,児玉町下浅見,サイタマケン,ホンジョウシ,コダマチョウシモアザミ,埼玉県本庄市児玉町下浅見
3670203,埼玉県,本庄市,児玉町入浅見,サイタマケン,ホンジョウシ,コダマチョウイリアザミ,埼玉県本庄市児玉町入浅見
3670204,埼玉県,本庄市,児玉町蛭川,サイタマケン,ホンジョウシ,コダマチョウヒルガワ,埼玉県本庄市児玉町蛭川
3670205,埼玉県,本庄市,児玉町上真下,サイタマケン,ホンジョウシ,コダマチョウカミマシモ,埼玉県本庄市児玉町上真下
3670206,埼玉県,本庄市,児玉町共栄,サイタマケン,ホンジョウシ,コダマチョウキョウエイ,埼玉県本庄市児玉町共栄
3670207,埼玉県,本庄市,児玉町下真下,サイタマケン,ホンジョウシ,コダマチョウシモマシモ,埼玉県本庄市児玉町下真下
3670211,埼玉県,本庄市,児玉町吉田林,サイタマケン,ホンジョウシ,コダマチョウキタバヤシ,埼玉県本庄市児玉町吉田林
3670212,埼玉県,本庄市,児玉町児玉,サイタマケン,ホンジョウシ,コダマチョウコダマ,埼玉県本庄市児玉町児玉
3670213,埼玉県,本庄市,児玉町秋山,サイタマケン,ホンジョウシ,コダマチョウアキヤマ,埼玉県本庄市児玉町秋山
3670214,埼玉県,本庄市,児玉町小平,サイタマケン,ホンジョウシ,コダマチョウコダイラ,埼玉県本庄市児玉町小平
3670215,埼玉県,本庄市,児玉町長沖,サイタマケン,ホンジョウシ,コダマチョウナガオキ,埼玉県本庄市児玉町長沖
3670216,埼玉県,本庄市,児玉町金屋,サイタマケン,ホンジョウシ,コダマチョウカナヤ,埼玉県本庄市児玉町金屋
3670217,埼玉県,本庄市,児玉町八幡山,サイタマケン,ホンジョウシ,コダマチョウハチマンヤマ,埼玉県本庄市児玉町八幡山
3670218,埼玉県,本庄市,児玉町児玉南,サイタマケン,ホンジョウシ,コダマチョウコダマミナミ,埼玉県本庄市児玉町児玉南
3670221,埼玉県,本庄市,児玉町保木野,サイタマケン,ホンジョウシ,コダマチョウホキノ,埼玉県本庄市児玉町保木野
3670222,埼玉県,本庄市,児玉町田端,サイタマケン,ホンジョウシ,コダマチョウタバタ,埼玉県本庄市児玉町田端
3670223,埼玉県,本庄市,児玉町塩谷,サイタマケン,ホンジョウシ,コダマチョウシオヤ,埼玉県本庄市児玉町塩谷
3670224,埼玉県,本庄市,児玉町高柳,サイタマケン,ホンジョウシ,コダマチョウタカヤナギ,埼玉県本庄市児玉町高柳
3670225,埼玉県,本庄市,児玉町飯倉,サイタマケン,ホンジョウシ,コダマチョウイイグラ,埼玉県本庄市児玉町飯倉
3670226,埼玉県,本庄市,児玉町宮内,サイタマケン,ホンジョウシ,コダマチョウミヤウチ,埼玉県本庄市児玉町宮内
3670231,埼玉県,児玉郡神川町,中新里,サイタマケン,コダマグンカミカワマチ,ナカニイサト,埼玉県児玉郡神川町中新里
3670232,埼玉県,児玉郡神川町,新里,サイタマケン,コダマグンカミカワマチ,ニイサト,埼玉県児玉郡神川町新里
3670233,埼玉県,児玉郡神川町,二ノ宮,サイタマケン,コダマグンカミカワマチ,ニノミヤ,埼玉県児玉郡神川町二ノ宮
3670234,埼玉県,児玉郡神川町,池田,サイタマケン,コダマグンカミカワマチ,イケダ,埼玉県児玉郡神川町池田
3670235,埼玉県,児玉郡神川町,新宿,サイタマケン,コダマグンカミカワマチ,シンシュク,埼玉県児玉郡神川町新宿
3670236,埼玉県,児玉郡神川町,小浜,サイタマケン,コダマグンカミカワマチ,コバマ,埼玉県児玉郡神川町小浜
3670237,埼玉県,児玉郡神川町,貫井,サイタマケン,コダマグンカミカワマチ,ヌクイ,埼玉県児玉郡神川町貫井
3670238,埼玉県,児玉郡神川町,肥土,サイタマケン,コダマグンカミカワマチ,ヒド,埼玉県児玉郡神川町肥土
3670241,埼玉県,児玉郡神川町,元原,サイタマケン,コダマグンカミカワマチ,モトハラ,埼玉県児玉郡神川町元原
3670242,埼玉県,児玉郡神川町,原新田,サイタマケン,コダマグンカミカワマチ,ハラシンデン,埼玉県児玉郡神川町原新田
3670243,埼玉県,児玉郡神川町,熊野堂,サイタマケン,コダマグンカミカワマチ,クマノドウ,埼玉県児玉郡神川町熊野堂
3670244,埼玉県,児玉郡神川町,八日市,サイタマケン,コダマグンカミカワマチ,ヨウカイチ,埼玉県児玉郡神川町八日市
3670245,埼玉県,児玉郡神川町,植竹,サイタマケン,コダマグンカミカワマチ,ウエダケ,埼玉県児玉郡神川町植竹
3670246,埼玉県,児玉郡神川町,関口,サイタマケン,コダマグンカミカワマチ,セキグチ,埼玉県児玉郡神川町関口
3670247,埼玉県,児玉郡神川町,元阿保,サイタマケン,コダマグンカミカワマチ,モトアボ,埼玉県児玉郡神川町元阿保
3670248,埼玉県,児玉郡神川町,四軒在家,サイタマケン,コダマグンカミカワマチ,シケンザイケ,埼玉県児玉郡神川町四軒在家
3670251,埼玉県,本庄市,児玉町稲沢,サイタマケン,ホンジョウシ,コダマチョウイナザワ,埼玉県本庄市児玉町稲沢
3670252,埼玉県,本庄市,児玉町元田,サイタマケン,ホンジョウシ,コダマチョウゲンダ,埼玉県本庄市児玉町元田
3670253,埼玉県,本庄市,児玉町河内,サイタマケン,ホンジョウシ,コダマチョウコウチ,埼玉県本庄市児玉町河内
3670254,埼玉県,本庄市,児玉町太駄,サイタマケン,ホンジョウシ,コダマチョウオオダ,埼玉県本庄市児玉町太駄
3670301,埼玉県,児玉郡神川町,渡瀬,サイタマケン,コダマグンカミカワマチ,ワタルセ,埼玉県児玉郡神川町渡瀬
3670311,埼玉県,児玉郡神川町,下阿久原,サイタマケン,コダマグンカミカワマチ,シモアグハラ,埼玉県児玉郡神川町下阿久原
3670312,埼玉県,児玉郡神川町,上阿久原,サイタマケン,コダマグンカミカワマチ,カミアグハラ,埼玉県児玉郡神川町上阿久原
3670313,埼玉県,児玉郡神川町,矢納,サイタマケン,コダマグンカミカワマチ,ヤノウ,埼玉県児玉郡神川町矢納
3680000,埼玉県,秩父市,,サイタマケン,チチブシ,,埼玉県秩父市
3680000,埼玉県,秩父郡横瀬町,,サイタマケン,チチブグンヨコゼマチ,,埼玉県秩父郡横瀬町
3680001,埼玉県,秩父市,黒谷,サイタマケン,チチブシ,クロヤ,埼玉県秩父市黒谷
3680002,埼玉県,秩父市,栃谷,サイタマケン,チチブシ,トチヤ,埼玉県秩父市栃谷
3680003,埼玉県,秩父市,定峰,サイタマケン,チチブシ,サダミネ,埼玉県秩父市定峰
3680004,埼玉県,秩父市,山田,サイタマケン,チチブシ,ヤマダ,埼玉県秩父市山田
3680005,埼玉県,秩父市,大野原,サイタマケン,チチブシ,オオノハラ,埼玉県秩父市大野原
3680011,埼玉県,秩父市,大畑町,サイタマケン,チチブシ,オオバタケマチ,埼玉県秩父市大畑町
3680012,埼玉県,秩父市,滝の上町,サイタマケン,チチブシ,タキノウエマチ,埼玉県秩父市滝の上町
3680013,埼玉県,秩父市,永田町,サイタマケン,チチブシ,ナガタマチ,埼玉県秩父市永田町
3680014,埼玉県,秩父市,金室町,サイタマケン,チチブシ,カナムロマチ,埼玉県秩父市金室町
3680015,埼玉県,秩父市,柳田町,サイタマケン,チチブシ,ヤナギダマチ,埼玉県秩父市柳田町
3680016,埼玉県,秩父市,阿保町,サイタマケン,チチブシ,アボマチ,埼玉県秩父市阿保町
3680021,埼玉県,秩父市,下宮地町,サイタマケン,チチブシ,シモミヤジマチ,埼玉県秩父市下宮地町
3680022,埼玉県,秩父市,中宮地町,サイタマケン,チチブシ,ナカミヤジマチ,埼玉県秩父市中宮地町
3680023,埼玉県,秩父市,大宮,サイタマケン,チチブシ,オオミヤ,埼玉県秩父市大宮
3680024,埼玉県,秩父市,上宮地町,サイタマケン,チチブシ,カミミヤジマチ,埼玉県秩父市上宮地町
3680025,埼玉県,秩父市,桜木町,サイタマケン,チチブシ,サクラギマチ,埼玉県秩父市桜木町
3680026,埼玉県,秩父市,相生町,サイタマケン,チチブシ,アイオイチョウ,埼玉県秩父市相生町
3680031,埼玉県,秩父市,上野町,サイタマケン,チチブシ,ウエノマチ,埼玉県秩父市上野町
3680032,埼玉県,秩父市,熊木町,サイタマケン,チチブシ,クマギマチ,埼玉県秩父市熊木町
3680033,埼玉県,秩父市,野坂町,サイタマケン,チチブシ,ノサカマチ,埼玉県秩父市野坂町
3680034,埼玉県,秩父市,日野田町,サイタマケン,チチブシ,ヒノダマチ,埼玉県秩父市日野田町
3680035,埼玉県,秩父市,上町,サイタマケン,チチブシ,カミマチ,埼玉県秩父市上町
3680041,埼玉県,秩父市,番場町,サイタマケン,チチブシ,バンバマチ,埼玉県秩父市番場町
3680042,埼玉県,秩父市,東町,サイタマケン,チチブシ,ヒガシマチ,埼玉県秩父市東町
3680043,埼玉県,秩父市,中町,サイタマケン,チチブシ,ナカマチ,埼玉県秩父市中町
3680044,埼玉県,秩父市,本町,サイタマケン,チチブシ,モトマチ,埼玉県秩父市本町
3680045,埼玉県,秩父市,道生町,サイタマケン,チチブシ,ドウジョウマチ,埼玉県秩父市道生町
3680046,埼玉県,秩父市,宮側町,サイタマケン,チチブシ,ミヤカワチョウ,埼玉県秩父市宮側町
3680051,埼玉県,秩父市,中村町,サイタマケン,チチブシ,ナカムラマチ,埼玉県秩父市中村町
3680052,埼玉県,秩父市,近戸町,サイタマケン,チチブシ,チカトマチ,埼玉県秩父市近戸町
3680053,埼玉県,秩父市,久那,サイタマケン,チチブシ,クナ,埼玉県秩父市久那
3680054,埼玉県,秩父市,別所,サイタマケン,チチブシ,ベッショ,埼玉県秩父市別所
3680055,埼玉県,秩父市,田村,サイタマケン,チチブシ,タムラ,埼玉県秩父市田村
3680056,埼玉県,秩父市,寺尾,サイタマケン,チチブシ,テラオ,埼玉県秩父市寺尾
3680061,埼玉県,秩父市,小柱,サイタマケン,チチブシ,オバシラ,埼玉県秩父市小柱
3680062,埼玉県,秩父市,蒔田,サイタマケン,チチブシ,マイタ,埼玉県秩父市蒔田
3680063,埼玉県,秩父市,伊古田,サイタマケン,チチブシ,イコタ,埼玉県秩父市伊古田
3680064,埼玉県,秩父市,品沢,サイタマケン,チチブシ,シナザワ,埼玉県秩父市品沢
3680065,埼玉県,秩父市,太田,サイタマケン,チチブシ,オオタ,埼玉県秩父市太田
3680066,埼玉県,秩父市,堀切,サイタマケン,チチブシ,ホリキリ,埼玉県秩父市堀切
3680067,埼玉県,秩父市,みどりが丘,サイタマケン,チチブシ,ミドリガオカ,埼玉県秩父市みどりが丘
3680071,埼玉県,秩父郡横瀬町,芦ケ久保,サイタマケン,チチブグンヨコゼマチ,アシガクボ,埼玉県秩父郡横瀬町芦ケ久保
3680072,埼玉県,秩父郡横瀬町,横瀬,サイタマケン,チチブグンヨコゼマチ,ヨコゼ,埼玉県秩父郡横瀬町横瀬
3680100,埼玉県,秩父郡小鹿野町,,サイタマケン,チチブグンオガノマチ,,埼玉県秩父郡小鹿野町
3680101,埼玉県,秩父郡小鹿野町,下小鹿野,サイタマケン,チチブグンオガノマチ,シモオガノ,埼玉県秩父郡小鹿野町下小鹿野
3680102,埼玉県,秩父郡小鹿野町,長留,サイタマケン,チチブグンオガノマチ,ナガル,埼玉県秩父郡小鹿野町長留
3680103,埼玉県,秩父郡小鹿野町,般若,サイタマケン,チチブグンオガノマチ,ハンニャ,埼玉県秩父郡小鹿野町般若
3680104,埼玉県,秩父郡小鹿野町,伊豆沢,サイタマケン,チチブグンオガノマチ,イズサワ,埼玉県秩父郡小鹿野町伊豆沢
3680105,埼玉県,秩父郡小鹿野町,小鹿野,サイタマケン,チチブグンオガノマチ,オガノ,埼玉県秩父郡小鹿野町小鹿野
3680111,埼玉県,秩父郡小鹿野町,飯田,サイタマケン,チチブグンオガノマチ,イイダ,埼玉県秩父郡小鹿野町飯田
3680112,埼玉県,秩父郡小鹿野町,三山,サイタマケン,チチブグンオガノマチ,サンヤマ,埼玉県秩父郡小鹿野町三山
3680113,埼玉県,秩父郡小鹿野町,河原沢,サイタマケン,チチブグンオガノマチ,カワラサワ,埼玉県秩父郡小鹿野町河原沢
3680114,埼玉県,秩父郡小鹿野町,藤倉,サイタマケン,チチブグンオガノマチ,フジクラ,埼玉県秩父郡小鹿野町藤倉
3680115,埼玉県,秩父郡小鹿野町,日尾,サイタマケン,チチブグンオガノマチ,ヒオ,埼玉県秩父郡小鹿野町日尾
3680201,埼玉県,秩父郡小鹿野町,両神薄,サイタマケン,チチブグンオガノマチ,リョウカミススキ,埼玉県秩父郡小鹿野町両神薄
3680202,埼玉県,秩父郡小鹿野町,両神小森,サイタマケン,チチブグンオガノマチ,リョウカミコモリ,埼玉県秩父郡小鹿野町両神小森
3690101,埼玉県,熊谷市,津田,サイタマケン,クマガヤシ,ツダ,埼玉県熊谷市津田
3690102,埼玉県,熊谷市,玉作,サイタマケン,クマガヤシ,タマツクリ,埼玉県熊谷市玉作
3690103,埼玉県,熊谷市,小八林,サイタマケン,クマガヤシ,コヤツバヤシ,埼玉県熊谷市小八林
3690104,埼玉県,熊谷市,冑山,サイタマケン,クマガヤシ,カブトヤマ,埼玉県熊谷市冑山
3690105,埼玉県,熊谷市,箕輪,サイタマケン,クマガヤシ,ミノワ,埼玉県熊谷市箕輪
3690106,埼玉県,熊谷市,相上,サイタマケン,クマガヤシ,アイアゲ,埼玉県熊谷市相上
3690107,埼玉県,熊谷市,向谷,サイタマケン,クマガヤシ,ムコウヤ,埼玉県熊谷市向谷
3690108,埼玉県,熊谷市,船木台,サイタマケン,クマガヤシ,フナキダイ,埼玉県熊谷市船木台
3690111,埼玉県,鴻巣市,新宿,サイタマケン,コウノスシ,シンシュク,埼玉県鴻巣市新宿
3690112,埼玉県,鴻巣市,鎌塚,サイタマケン,コウノスシ,カマツカ,埼玉県鴻巣市鎌塚
3690113,埼玉県,鴻巣市,下忍,サイタマケン,コウノスシ,シモオシ,埼玉県鴻巣市下忍
3690114,埼玉県,鴻巣市,筑波,サイタマケン,コウノスシ,ツクバ,埼玉県鴻巣市筑波
3690115,埼玉県,鴻巣市,吹上本町,サイタマケン,コウノスシ,フキアゲホンチョウ,埼玉県鴻巣市吹上本町
3690116,埼玉県,鴻巣市,北新宿,サイタマケン,コウノスシ,キタシンシュク,埼玉県鴻巣市北新宿
3690121,埼玉県,鴻巣市,吹上富士見,サイタマケン,コウノスシ,フキアゲフジミ,埼玉県鴻巣市吹上富士見
3690122,埼玉県,鴻巣市,南,サイタマケン,コウノスシ,ミナミ,埼玉県鴻巣市南
3690123,埼玉県,鴻巣市,榎戸,サイタマケン,コウノスシ,エノキド,埼玉県鴻巣市榎戸
3690124,埼玉県,鴻巣市,荊原,サイタマケン,コウノスシ,バラハラ,埼玉県鴻巣市荊原
3690131,埼玉県,鴻巣市,袋,サイタマケン,コウノスシ,フクロ,埼玉県鴻巣市袋
3690132,埼玉県,鴻巣市,前砂,サイタマケン,コウノスシ,マエスナ,埼玉県鴻巣市前砂
3690133,埼玉県,鴻巣市,小谷,サイタマケン,コウノスシ,コヤ,埼玉県鴻巣市小谷
3690134,埼玉県,鴻巣市,三町免,サイタマケン,コウノスシ,サンチョウメン,埼玉県鴻巣市三町免
3690135,埼玉県,鴻巣市,明用,サイタマケン,コウノスシ,ミョウヨウ,埼玉県鴻巣市明用
3690136,埼玉県,鴻巣市,吹上,サイタマケン,コウノスシ,フキアゲ,埼玉県鴻巣市吹上
3690137,埼玉県,鴻巣市,大芦,サイタマケン,コウノスシ,オオアシ,埼玉県鴻巣市大芦
3690201,埼玉県,深谷市,岡,サイタマケン,フカヤシ,オカ,埼玉県深谷市岡
3690202,埼玉県,深谷市,岡里,サイタマケン,フカヤシ,オカザト,埼玉県深谷市岡里
3690203,埼玉県,深谷市,普済寺,サイタマケン,フカヤシ,フサイジ,埼玉県深谷市普済寺
3690211,埼玉県,深谷市,岡部,サイタマケン,フカヤシ,オカベ,埼玉県深谷市岡部
3690212,埼玉県,深谷市,櫛挽,サイタマケン,フカヤシ,クシビキ,埼玉県深谷市櫛挽
3690213,埼玉県,深谷市,針ケ谷,サイタマケン,フカヤシ,ハリガヤ,埼玉県深谷市針ケ谷
3690214,埼玉県,深谷市,本郷,サイタマケン,フカヤシ,ホンゴウ,埼玉県深谷市本郷
3690215,埼玉県,深谷市,今泉,サイタマケン,フカヤシ,イマイズミ,埼玉県深谷市今泉
3690216,埼玉県,深谷市,山崎,サイタマケン,フカヤシ,ヤマザキ,埼玉県深谷市山崎
3690217,埼玉県,深谷市,山河,サイタマケン,フカヤシ,ヤマガ,埼玉県深谷市山河
3690221,埼玉県,深谷市,榛沢新田,サイタマケン,フカヤシ,ハンザワシンデン,埼玉県深谷市榛沢新田
3690222,埼玉県,深谷市,後榛沢,サイタマケン,フカヤシ,ウシロハンザワ,埼玉県深谷市後榛沢
3690223,埼玉県,深谷市,榛沢,サイタマケン,フカヤシ,ハンザワ,埼玉県深谷市榛沢
3690224,埼玉県,深谷市,西田,サイタマケン,フカヤシ,ニシダ,埼玉県深谷市西田
3690225,埼玉県,深谷市,沓掛,サイタマケン,フカヤシ,クツカケ,埼玉県深谷市沓掛
3690300,埼玉県,児玉郡上里町,,サイタマケン,コダマグンカミサトマチ,,埼玉県児玉郡上里町
3690301,埼玉県,児玉郡上里町,金久保,サイタマケン,コダマグンカミサトマチ,カナクボ,埼玉県児玉郡上里町金久保
3690302,埼玉県,児玉郡上里町,黛,サイタマケン,コダマグンカミサトマチ,マユズミ,埼玉県児玉郡上里町黛
3690303,埼玉県,児玉郡上里町,忍保,サイタマケン,コダマグンカミサトマチ,オシボ,埼玉県児玉郡上里町忍保
3690304,埼玉県,児玉郡上里町,八町河原,サイタマケン,コダマグンカミサトマチ,ハッチョウガワラ,埼玉県児玉郡上里町八町河原
3690305,埼玉県,児玉郡上里町,神保原町,サイタマケン,コダマグンカミサトマチ,ジンボハラマチ,埼玉県児玉郡上里町神保原町
3690306,埼玉県,児玉郡上里町,七本木,サイタマケン,コダマグンカミサトマチ,シチホンギ,埼玉県児玉郡上里町七本木
3690307,埼玉県,児玉郡上里町,嘉美,サイタマケン,コダマグンカミサトマチ,カミ,埼玉県児玉郡上里町嘉美
3690308,埼玉県,児玉郡上里町,毘沙吐,サイタマケン,コダマグンカミサトマチ,ビシャド,埼玉県児玉郡上里町毘沙吐
3690311,埼玉県,児玉郡上里町,勅使河原,サイタマケン,コダマグンカミサトマチ,テシガワラ,埼玉県児玉郡上里町勅使河原
3690312,埼玉県,児玉郡上里町,帯刀,サイタマケン,コダマグンカミサトマチ,タテワキ,埼玉県児玉郡上里町帯刀
3690313,埼玉県,児玉郡上里町,堤,サイタマケン,コダマグンカミサトマチ,ツツミ,埼玉県児玉郡上里町堤
3690314,埼玉県,児玉郡上里町,三町,サイタマケン,コダマグンカミサトマチ,ミマチ,埼玉県児玉郡上里町三町
3690315,埼玉県,児玉郡上里町,大御堂,サイタマケン,コダマグンカミサトマチ,オオミドウ,埼玉県児玉郡上里町大御堂
3690316,埼玉県,児玉郡上里町,長浜,サイタマケン,コダマグンカミサトマチ,ナガハマ,埼玉県児玉郡上里町長浜
3690317,埼玉県,児玉郡上里町,五明,サイタマケン,コダマグンカミサトマチ,ゴミョウ,埼玉県児玉郡上里町五明
3690318,埼玉県,児玉郡上里町,藤木戸,サイタマケン,コダマグンカミサトマチ,フジキド,埼玉県児玉郡上里町藤木戸
3691101,埼玉県,深谷市,長在家,サイタマケン,フカヤシ,ナガザイケ,埼玉県深谷市長在家
3691102,埼玉県,深谷市,瀬山,サイタマケン,フカヤシ,セヤマ,埼玉県深谷市瀬山
3691103,埼玉県,深谷市,川本明戸,サイタマケン,フカヤシ,カワモトアケト,埼玉県深谷市川本明戸
3691104,埼玉県,深谷市,菅沼,サイタマケン,フカヤシ,スガヌマ,埼玉県深谷市菅沼
3691105,埼玉県,深谷市,本田,サイタマケン,フカヤシ,ホンダ,埼玉県深谷市本田
3691106,埼玉県,深谷市,白草台,サイタマケン,フカヤシ,シラクサダイ,埼玉県深谷市白草台
3691107,埼玉県,深谷市,畠山,サイタマケン,フカヤシ,ハタケヤマ,埼玉県深谷市畠山
3691108,埼玉県,深谷市,田中,サイタマケン,フカヤシ,タナカ,埼玉県深谷市田中
3691109,埼玉県,深谷市,上原,サイタマケン,フカヤシ,カミハラ,埼玉県深谷市上原
3691111,埼玉県,深谷市,武川,サイタマケン,フカヤシ,タケカワ,埼玉県深谷市武川
3691200,埼玉県,大里郡寄居町,,サイタマケン,オオサトグンヨリイマチ,,埼玉県大里郡寄居町
3691201,埼玉県,大里郡寄居町,用土,サイタマケン,オオサトグンヨリイマチ,ヨウド,埼玉県大里郡寄居町用土
3691202,埼玉県,大里郡寄居町,桜沢,サイタマケン,オオサトグンヨリイマチ,サクラザワ,埼玉県大里郡寄居町桜沢
3691203,埼玉県,大里郡寄居町,寄居,サイタマケン,オオサトグンヨリイマチ,ヨリイ,埼玉県大里郡寄居町寄居
3691204,埼玉県,大里郡寄居町,藤田,サイタマケン,オオサトグンヨリイマチ,フジタ,埼玉県大里郡寄居町藤田
3691205,埼玉県,大里郡寄居町,末野,サイタマケン,オオサトグンヨリイマチ,スエノ,埼玉県大里郡寄居町末野
3691211,埼玉県,大里郡寄居町,赤浜,サイタマケン,オオサトグンヨリイマチ,アカハマ,埼玉県大里郡寄居町赤浜
3691212,埼玉県,大里郡寄居町,西古里,サイタマケン,オオサトグンヨリイマチ,ニシフルサト,埼玉県大里郡寄居町西古里
3691213,埼玉県,大里郡寄居町,鷹巣,サイタマケン,オオサトグンヨリイマチ,タカノス,埼玉県大里郡寄居町鷹巣
3691214,埼玉県,大里郡寄居町,今市,サイタマケン,オオサトグンヨリイマチ,イマイチ,埼玉県大里郡寄居町今市
3691215,埼玉県,大里郡寄居町,牟礼,サイタマケン,オオサトグンヨリイマチ,ムレイ,埼玉県大里郡寄居町牟礼
3691216,埼玉県,大里郡寄居町,富田,サイタマケン,オオサトグンヨリイマチ,トミダ,埼玉県大里郡寄居町富田
3691217,埼玉県,大里郡寄居町,小園,サイタマケン,オオサトグンヨリイマチ,コゾノ,埼玉県大里郡寄居町小園
3691221,埼玉県,大里郡寄居町,保田原,サイタマケン,オオサトグンヨリイマチ,ホダワラ,埼玉県大里郡寄居町保田原
3691222,埼玉県,大里郡寄居町,露梨子,サイタマケン,オオサトグンヨリイマチ,ツユナシ,埼玉県大里郡寄居町露梨子
3691223,埼玉県,大里郡寄居町,三ケ山,サイタマケン,オオサトグンヨリイマチ,ミカヤマ,埼玉県大里郡寄居町三ケ山
3691224,埼玉県,大里郡寄居町,鉢形,サイタマケン,オオサトグンヨリイマチ,ハチガタ,埼玉県大里郡寄居町鉢形
3691225,埼玉県,大里郡寄居町,西ノ入,サイタマケン,オオサトグンヨリイマチ,ニシノイリ,埼玉県大里郡寄居町西ノ入
3691231,埼玉県,大里郡寄居町,立原,サイタマケン,オオサトグンヨリイマチ,タテハラ,埼玉県大里郡寄居町立原
3691232,埼玉県,大里郡寄居町,三品,サイタマケン,オオサトグンヨリイマチ,ミシナ,埼玉県大里郡寄居町三品
3691233,埼玉県,大里郡寄居町,秋山,サイタマケン,オオサトグンヨリイマチ,アキヤマ,埼玉県大里郡寄居町秋山
3691234,埼玉県,大里郡寄居町,折原,サイタマケン,オオサトグンヨリイマチ,オリハラ,埼玉県大里郡寄居町折原
3691235,埼玉県,大里郡寄居町,風布,サイタマケン,オオサトグンヨリイマチ,フウプ,埼玉県大里郡寄居町風布
3691236,埼玉県,大里郡寄居町,金尾,サイタマケン,オオサトグンヨリイマチ,カナオ,埼玉県大里郡寄居町金尾
3691241,埼玉県,深谷市,武蔵野,サイタマケン,フカヤシ,ムサシノ,埼玉県深谷市武蔵野
3691242,埼玉県,深谷市,北根,サイタマケン,フカヤシ,キタネ,埼玉県深谷市北根
3691243,埼玉県,深谷市,永田,サイタマケン,フカヤシ,ナガタ,埼玉県深谷市永田
3691244,埼玉県,深谷市,黒田,サイタマケン,フカヤシ,クロダ,埼玉県深谷市黒田
3691245,埼玉県,深谷市,荒川,サイタマケン,フカヤシ,アラカワ,埼玉県深谷市荒川
3691246,埼玉県,深谷市,小前田,サイタマケン,フカヤシ,オマエダ,埼玉県深谷市小前田
3691247,埼玉県,深谷市,緑台,サイタマケン,フカヤシ,ミドリダイ,埼玉県深谷市緑台
3691300,埼玉県,秩父郡長瀞町,,サイタマケン,チチブグンナガトロマチ,,埼玉県秩父郡長瀞町
3691301,埼玉県,秩父郡長瀞町,矢那瀬,サイタマケン,チチブグンナガトロマチ,ヤナセ,埼玉県秩父郡長瀞町矢那瀬
3691302,埼玉県,秩父郡長瀞町,野上下郷,サイタマケン,チチブグンナガトロマチ,ノガミシモゴウ,埼玉県秩父郡長瀞町野上下郷
3691303,埼玉県,秩父郡長瀞町,中野上,サイタマケン,チチブグンナガトロマチ,ナカノガミ,埼玉県秩父郡長瀞町中野上
3691304,埼玉県,秩父郡長瀞町,本野上,サイタマケン,チチブグンナガトロマチ,ホンノガミ,埼玉県秩父郡長瀞町本野上
3691305,埼玉県,秩父郡長瀞町,長瀞,サイタマケン,チチブグンナガトロマチ,ナガトロ,埼玉県秩父郡長瀞町長瀞
3691311,埼玉県,秩父郡長瀞町,岩田,サイタマケン,チチブグンナガトロマチ,イワタ,埼玉県秩父郡長瀞町岩田
3691312,埼玉県,秩父郡長瀞町,井戸,サイタマケン,チチブグンナガトロマチ,イド,埼玉県秩父郡長瀞町井戸
3691313,埼玉県,秩父郡長瀞町,風布,サイタマケン,チチブグンナガトロマチ,フウプ,埼玉県秩父郡長瀞町風布
3691400,埼玉県,秩父郡皆野町,,サイタマケン,チチブグンミナノマチ,,埼玉県秩父郡皆野町
3691411,埼玉県,秩父郡皆野町,三沢,サイタマケン,チチブグンミナノマチ,ミサワ,埼玉県秩父郡皆野町三沢
3691412,埼玉県,秩父郡皆野町,皆野,サイタマケン,チチブグンミナノマチ,ミナノ,埼玉県秩父郡皆野町皆野
3691413,埼玉県,秩父郡皆野町,下田野,サイタマケン,チチブグンミナノマチ,シモタノ,埼玉県秩父郡皆野町下田野
3691501,埼玉県,秩父市,吉田久長,サイタマケン,チチブシ,ヨシダヒサナガ,埼玉県秩父市吉田久長
3691502,埼玉県,秩父市,吉田阿熊,サイタマケン,チチブシ,ヨシダアグマ,埼玉県秩父市吉田阿熊
3691503,埼玉県,秩父市,下吉田,サイタマケン,チチブシ,シモヨシダ,埼玉県秩父市下吉田
3691504,埼玉県,秩父市,吉田石間,サイタマケン,チチブシ,ヨシダイサマ,埼玉県秩父市吉田石間
3691505,埼玉県,秩父市,上吉田,サイタマケン,チチブシ,カミヨシダ,埼玉県秩父市上吉田
3691601,埼玉県,秩父郡皆野町,金沢,サイタマケン,チチブグンミナノマチ,カネザワ,埼玉県秩父郡皆野町金沢
3691621,埼玉県,秩父郡皆野町,金崎,サイタマケン,チチブグンミナノマチ,カナサキ,埼玉県秩父郡皆野町金崎
3691622,埼玉県,秩父郡皆野町,国神,サイタマケン,チチブグンミナノマチ,クニカミ,埼玉県秩父郡皆野町国神
3691623,埼玉県,秩父郡皆野町,大淵,サイタマケン,チチブグンミナノマチ,オオフチ,埼玉県秩父郡皆野町大淵
3691624,埼玉県,秩父郡皆野町,野巻,サイタマケン,チチブグンミナノマチ,ノマキ,埼玉県秩父郡皆野町野巻
3691625,埼玉県,秩父郡皆野町,下日野沢,サイタマケン,チチブグンミナノマチ,シモヒノザワ,埼玉県秩父郡皆野町下日野沢
3691626,埼玉県,秩父郡皆野町,上日野沢,サイタマケン,チチブグンミナノマチ,カミヒノザワ,埼玉県秩父郡皆野町上日野沢
3691801,埼玉県,秩父市,荒川久那,サイタマケン,チチブシ,アラカワクナ,埼玉県秩父市荒川久那
3691802,埼玉県,秩父市,荒川上田野,サイタマケン,チチブシ,アラカワカミタノ,埼玉県秩父市荒川上田野
3691803,埼玉県,秩父市,荒川日野,サイタマケン,チチブシ,アラカワヒノ,埼玉県秩父市荒川日野
3691804,埼玉県,秩父市,荒川小野原,サイタマケン,チチブシ,アラカワオノバラ,埼玉県秩父市荒川小野原
3691871,埼玉県,秩父市,下影森,サイタマケン,チチブシ,シモカゲモリ,埼玉県秩父市下影森
3691872,埼玉県,秩父市,上影森,サイタマケン,チチブシ,カミカゲモリ,埼玉県秩父市上影森
3691873,埼玉県,秩父市,浦山,サイタマケン,チチブシ,ウラヤマ,埼玉県秩父市浦山
3691874,埼玉県,秩父市,和泉町,サイタマケン,チチブシ,イズミチョウ,埼玉県秩父市和泉町
3691901,埼玉県,秩父市,大滝,サイタマケン,チチブシ,オオタキ,埼玉県秩父市大滝
3691902,埼玉県,秩父市,三峰,サイタマケン,チチブシ,ミツミネ,埼玉県秩父市三峰
3691903,埼玉県,秩父市,中津川,サイタマケン,チチブシ,ナカツガワ,埼玉県秩父市中津川
3691911,埼玉県,秩父市,荒川贄川,サイタマケン,チチブシ,アラカワニエガワ,埼玉県秩父市荒川贄川
3691912,埼玉県,秩父市,荒川白久,サイタマケン,チチブシ,アラカワシロク,埼玉県秩父市荒川白久
3701507,埼玉県,秩父市,吉田太田部,サイタマケン,チチブシ,ヨシダオオタブ,埼玉県秩父市吉田太田部
