zipcode,prefecture_name,city,town,prefecture_kana,city_kana,town_kana,normalized_address
2600000,千葉県,千葉市中央区,,チバケン,チバシチュウオウク,,千葉県千葉市中央区
2600001,千葉県,千葉市中央区,都町,チバケン,チバシチュウオウク,ミヤコチョウ,千葉県千葉市中央区都町
2600002,千葉県,千葉市中央区,旭町,チバケン,チバシチュウオウク,アサヒチョウ,千葉県千葉市中央区旭町
2600003,千葉県,千葉市中央区,鶴沢町,チバケン,チバシチュウオウク,ツルサワチョウ,千葉県千葉市中央区鶴沢町
2600004,千葉県,千葉市中央区,東本町,チバケン,チバシチュウオウク,ヒガシホンチョウ,千葉県千葉市中央区東本町
2600005,千葉県,千葉市中央区,道場南,チバケン,チバシチュウオウク,ドウジョウミナミ,千葉県千葉市中央区道場南
2600006,千葉県,千葉市中央区,道場北,チバケン,チバシチュウオウク,ドウジョウキタ,千葉県千葉市中央区道場北
2600007,千葉県,千葉市中央区,祐光,チバケン,チバシチュウオウク,ユウコウ,千葉県千葉市中央区祐光
2600011,千葉県,千葉市中央区,亀井町,チバケン,チバシチュウオウク,カメイチョウ,千葉県千葉市中央区亀井町
2600012,千葉県,千葉市中央区,本町,チバケン,チバシチュウオウク,ホンチョウ,千葉県千葉市中央区本町
2600013,千葉県,千葉市中央区,中央,チバケン,チバシチュウオウク,チュウオウ,千葉県千葉市中央区中央
2600014,千葉県,千葉市中央区,本千葉町,チバケン,チバシチュウオウク,ホンチバチョウ,千葉県千葉市中央区本千葉町
2600015,千葉県,千葉市中央区,富士見,チバケン,チバシチュウオウク,フジミ,千葉県千葉市中央区富士見
2600016,千葉県,千葉市中央区,栄町,チバケン,チバシチュウオウク,サカエチョウ,千葉県千葉市中央区栄町
2600017,千葉県,千葉市中央区,要町,チバケン,チバシチュウオウク,カナメチョウ,千葉県千葉市中央区要町
2600018,千葉県,千葉市中央区,院内,チバケン,チバシチュウオウク,インナイ,千葉県千葉市中央区院内
2600021,千葉県,千葉市中央区,新宿,チバケン,チバシチュウオウク,シンジュク,千葉県千葉市中央区新宿
2600022,千葉県,千葉市中央区,神明町,チバケン,チバシチュウオウク,シンメイチョウ,千葉県千葉市中央区神明町
2600023,千葉県,千葉市中央区,出洲港,チバケン,チバシチュウオウク,デズミナト,千葉県千葉市中央区出洲港
2600024,千葉県,千葉市中央区,中央港,チバケン,チバシチュウオウク,チュウオウコウ,千葉県千葉市中央区中央港
2600025,千葉県,千葉市中央区,問屋町,チバケン,チバシチュウオウク,トンヤチョウ,千葉県千葉市中央区問屋町
2600026,千葉県,千葉市中央区,千葉港,チバケン,チバシチュウオウク,チバミナト,千葉県千葉市中央区千葉港
2600027,千葉県,千葉市中央区,新田町,チバケン,チバシチュウオウク,シンデンチョウ,千葉県千葉市中央区新田町
2600028,千葉県,千葉市中央区,新町,チバケン,チバシチュウオウク,シンマチ,千葉県千葉市中央区新町
2600031,千葉県,千葉市中央区,新千葉,チバケン,チバシチュウオウク,シンチバ,千葉県千葉市中央区新千葉
2600032,千葉県,千葉市中央区,登戸,チバケン,チバシチュウオウク,ノブト,千葉県千葉市中央区登戸
2600033,千葉県,千葉市中央区,春日,チバケン,チバシチュウオウク,カスガ,千葉県千葉市中央区春日
2600034,千葉県,千葉市中央区,汐見丘町,チバケン,チバシチュウオウク,シオミガオカチョウ,千葉県千葉市中央区汐見丘町
2600041,千葉県,千葉市中央区,東千葉,チバケン,チバシチュウオウク,ヒガシチバ,千葉県千葉市中央区東千葉
2600042,千葉県,千葉市中央区,椿森,チバケン,チバシチュウオウク,ツバキモリ,千葉県千葉市中央区椿森
2600044,千葉県,千葉市中央区,松波,チバケン,チバシチュウオウク,マツナミ,千葉県千葉市中央区松波
2600045,千葉県,千葉市中央区,弁天,チバケン,チバシチュウオウク,ベンテン,千葉県千葉市中央区弁天
2600801,千葉県,千葉市中央区,仁戸名町,チバケン,チバシチュウオウク,ニトナチョウ,千葉県千葉市中央区仁戸名町
2600802,千葉県,千葉市中央区,川戸町,チバケン,チバシチュウオウク,カワドチョウ,千葉県千葉市中央区川戸町
2600803,千葉県,千葉市中央区,花輪町,チバケン,チバシチュウオウク,ハナワチョウ,千葉県千葉市中央区花輪町
2600804,千葉県,千葉市中央区,赤井町,チバケン,チバシチュウオウク,アカイチョウ,千葉県千葉市中央区赤井町
2600805,千葉県,千葉市中央区,宮崎町,チバケン,チバシチュウオウク,ミヤザキチョウ,千葉県千葉市中央区宮崎町
2600806,千葉県,千葉市中央区,宮崎,チバケン,チバシチュウオウク,ミヤザキ,千葉県千葉市中央区宮崎
2600807,千葉県,千葉市中央区,松ケ丘町,チバケン,チバシチュウオウク,マツガオカチョウ,千葉県千葉市中央区松ケ丘町
2600808,千葉県,千葉市中央区,星久喜町,チバケン,チバシチュウオウク,ホシグキチョウ,千葉県千葉市中央区星久喜町
2600811,千葉県,千葉市中央区,大森町,チバケン,チバシチュウオウク,オオモリチョウ,千葉県千葉市中央区大森町
2600812,千葉県,千葉市中央区,大巌寺町,チバケン,チバシチュウオウク,ダイガンジチョウ,千葉県千葉市中央区大巌寺町
2600813,千葉県,千葉市中央区,生実町,チバケン,チバシチュウオウク,オユミチョウ,千葉県千葉市中央区生実町
2600814,千葉県,千葉市中央区,南生実町,チバケン,チバシチュウオウク,ミナミオユミチョウ,千葉県千葉市中央区南生実町
2600815,千葉県,千葉市中央区,今井町,チバケン,チバシチュウオウク,イマイチョウ,千葉県千葉市中央区今井町
2600816,千葉県,千葉市中央区,鵜の森町,チバケン,チバシチュウオウク,ウノモリチョウ,千葉県千葉市中央区鵜の森町
2600821,千葉県,千葉市中央区,若草,チバケン,チバシチュウオウク,ワカクサ,千葉県千葉市中央区若草
2600822,千葉県,千葉市中央区,蘇我,チバケン,チバシチュウオウク,ソガ,千葉県千葉市中央区蘇我
2600822,千葉県,千葉市中央区,蘇我町,チバケン,チバシチュウオウク,ソガチョウ,千葉県千葉市中央区蘇我町
2600823,千葉県,千葉市中央区,塩田町,チバケン,チバシチュウオウク,シオダチョウ,千葉県千葉市中央区塩田町
2600824,千葉県,千葉市中央区,浜野町,チバケン,チバシチュウオウク,ハマノチョウ,千葉県千葉市中央区浜野町
2600825,千葉県,千葉市中央区,村田町,チバケン,チバシチュウオウク,ムラタチョウ,千葉県千葉市中央区村田町
2600826,千葉県,千葉市中央区,新浜町,チバケン,チバシチュウオウク,ニイハマチョウ,千葉県千葉市中央区新浜町
2600831,千葉県,千葉市中央区,港町,チバケン,チバシチュウオウク,ミナトチョウ,千葉県千葉市中央区港町
2600832,千葉県,千葉市中央区,寒川町,チバケン,チバシチュウオウク,サムガワチョウ,千葉県千葉市中央区寒川町
2600833,千葉県,千葉市中央区,稲荷町,チバケン,チバシチュウオウク,イナリチョウ,千葉県千葉市中央区稲荷町
2600834,千葉県,千葉市中央区,今井,チバケン,チバシチュウオウク,イマイ,千葉県千葉市中央区今井
2600835,千葉県,千葉市中央区,川崎町,チバケン,チバシチュウオウク,カワサキチョウ,千葉県千葉市中央区川崎町
2600841,千葉県,千葉市中央区,白旗,チバケン,チバシチュウオウク,シラハタ,千葉県千葉市中央区白旗
2600842,千葉県,千葉市中央区,南町,チバケン,チバシチュウオウク,ミナミチョウ,千葉県千葉市中央区南町
2600843,千葉県,千葉市中央区,末広,チバケン,チバシチュウオウク,スエヒロ,千葉県千葉市中央区末広
2600844,千葉県,千葉市中央区,千葉寺町,チバケン,チバシチュウオウク,チバデラチョウ,千葉県千葉市中央区千葉寺町
2600851,千葉県,千葉市中央区,矢作町,チバケン,チバシチュウオウク,ヤハギチョウ,千葉県千葉市中央区矢作町
2600852,千葉県,千葉市中央区,青葉町,チバケン,チバシチュウオウク,アオバチョウ,千葉県千葉市中央区青葉町
2600853,千葉県,千葉市中央区,葛城,チバケン,チバシチュウオウク,カツラギ,千葉県千葉市中央区葛城
2600854,千葉県,千葉市中央区,長洲,チバケン,チバシチュウオウク,ナガズ,千葉県千葉市中央区長洲
2600855,千葉県,千葉市中央区,市場町,チバケン,チバシチュウオウク,イチバチョウ,千葉県千葉市中央区市場町
2600856,千葉県,千葉市中央区,亥鼻,チバケン,チバシチュウオウク,イノハナ,千葉県千葉市中央区亥鼻
2600857,千葉県,千葉市中央区,亀岡町,チバケン,チバシチュウオウク,カメオカチョウ,千葉県千葉市中央区亀岡町
2610000,千葉県,千葉市美浜区,,チバケン,チバシミハマク,,千葉県千葉市美浜区
2610001,千葉県,千葉市美浜区,幸町,チバケン,チバシミハマク,サイワイチョウ,千葉県千葉市美浜区幸町
2610002,千葉県,千葉市美浜区,新港,チバケン,チバシミハマク,シンミナト,千葉県千葉市美浜区新港
2610003,千葉県,千葉市美浜区,高浜,チバケン,チバシミハマク,タカハマ,千葉県千葉市美浜区高浜
2610004,千葉県,千葉市美浜区,高洲,チバケン,チバシミハマク,タカス,千葉県千葉市美浜区高洲
2610005,千葉県,千葉市美浜区,稲毛海岸,チバケン,チバシミハマク,イナゲカイガン,千葉県千葉市美浜区稲毛海岸
2610011,千葉県,千葉市美浜区,真砂,チバケン,チバシミハマク,マサゴ,千葉県千葉市美浜区真砂
2610012,千葉県,千葉市美浜区,磯辺,チバケン,チバシミハマク,イソベ,千葉県千葉市美浜区磯辺
2610013,千葉県,千葉市美浜区,打瀬,チバケン,チバシミハマク,ウタセ,千葉県千葉市美浜区打瀬
2610014,千葉県,千葉市美浜区,若葉,チバケン,チバシミハマク,ワカバ,千葉県千葉市美浜区若葉
2610021,千葉県,千葉市美浜区,ひび野,チバケン,チバシミハマク,ヒビノ,千葉県千葉市美浜区ひび野
2610022,千葉県,千葉市美浜区,美浜,チバケン,チバシミハマク,ミハマ,千葉県千葉市美浜区美浜
2610023,千葉県,千葉市美浜区,中瀬（次のビルを除く）,チバケン,チバシミハマク,ナカセ(ツギノビルヲノゾク),千葉県千葉市美浜区中瀬（次のビルを除く）
2610024,千葉県,千葉市美浜区,豊砂,チバケン,チバシミハマク,トヨスナ,千葉県千葉市美浜区豊砂
2610025,千葉県,千葉市美浜区,浜田,チバケン,チバシミハマク,ハマダ,千葉県千葉市美浜区浜田
2610026,千葉県,千葉市美浜区,幕張西,チバケン,チバシミハマク,マクハリニシ,千葉県千葉市美浜区幕張西
2617101,千葉県,千葉市美浜区,中瀬ワールドビジネスガーデン（１階）,チバケン,チバシミハマク,ナカセワールドビジネスガーデン(1カイ),千葉県千葉市美浜区中瀬ワールドビジネスガーデン（1階）
2617102,千葉県,千葉市美浜区,中瀬ワールドビジネスガーデン（２階）,チバケン,チバシミハマク,ナカセワールドビジネスガーデン(2カイ),千葉県千葉市美浜区中瀬ワールドビジネスガーデン（2階）
2617103,千葉県,千葉市美浜区,中瀬ワールドビジネスガーデン（３階）,チバケン,チバシミハマク,ナカセワールドビジネスガーデン(3カイ),千葉県千葉市美浜区中瀬ワールドビジネスガーデン（3階）
2617104,千葉県,千葉市美浜区,中瀬ワールドビジネスガーデン（４階）,チバケン,チバシミハマク,ナカセワールドビジネスガーデン(4カイ),千葉県千葉市美浜区中瀬ワールドビジネスガーデン（4階）
2617105,千葉県,千葉市美浜区,中瀬ワールドビジネスガーデン（５階）,チバケン,チバシミハマク,ナカセワールドビジネスガーデン(5カイ),千葉県千葉市美浜区中瀬ワールドビジネスガーデン（5階）
2617106,千葉県,千葉市美浜区,中瀬ワールドビジネスガーデン（６階）,チバケン,チバシミハマク,ナカセワールドビジネスガーデン(6カイ),千葉県千葉市美浜区中瀬ワールドビジネスガーデン（6階）
2617107,千葉県,千葉市美浜区,中瀬ワールドビジネスガーデン（７階）,チバケン,チバシミハマク,ナカセワールドビジネスガーデン(7カイ),千葉県千葉市美浜区中瀬ワールドビジネスガーデン（7階）
2617108,千葉県,千葉市美浜区,中瀬ワールドビジネスガーデン（８階）,チバケン,チバシミハマク,ナカセワールドビジネスガーデン(8カイ),千葉県千葉市美浜区中瀬ワールドビジネスガーデン（8階）
2617109,千葉県,千葉市美浜区,中瀬ワールドビジネスガーデン（９階）,チバケン,チバシミハマク,ナカセワールドビジネスガーデン(9カイ),千葉県千葉市美浜区中瀬ワールドビジネスガーデン（9階）
2617110,千葉県,千葉市美浜区,中瀬ワールドビジネスガーデン（１０階）,チバケン,チバシミハマク,ナカセワールドビジネスガーデン(10カイ),千葉県千葉市美浜区中瀬ワールドビジネスガーデン（10階）
2617111,千葉県,千葉市美浜区,中瀬ワールドビジネスガーデン（１１階）,チバケン,チバシミハマク,ナカセワールドビジネスガーデン(11カイ),千葉県千葉市美浜区中瀬ワールドビジネスガーデン（11階）
2617112,千葉県,千葉市美浜区,中瀬ワールドビジネスガーデン（１２階）,チバケン,チバシミハマク,ナカセワールドビジネスガーデン(12カイ),千葉県千葉市美浜区中瀬ワールドビジネスガーデン（12階）
2617113,千葉県,千葉市美浜区,中瀬ワールドビジネスガーデン（１３階）,チバケン,チバシミハマク,ナカセワールドビジネスガーデン(13カイ),千葉県千葉市美浜区中瀬ワールドビジネスガーデン（13階）
2617114,千葉県,千葉市美浜区,中瀬ワールドビジネスガーデン（１４階）,チバケン,チバシミハマク,ナカセワールドビジネスガーデン(14カイ),千葉県千葉市美浜区中瀬ワールドビジネスガーデン（14階）
2617115,千葉県,千葉市美浜区,中瀬ワールドビジネスガーデン（１５階）,チバケン,チバシミハマク,ナカセワールドビジネスガーデン(15カイ),千葉県千葉市美浜区中瀬ワールドビジネスガーデン（15階）
2617116,千葉県,千葉市美浜区,中瀬ワールドビジネスガーデン（１６階）,チバケン,チバシミハマク,ナカセワールドビジネスガーデン(16カイ),千葉県千葉市美浜区中瀬ワールドビジネスガーデン（16階）
2617117,千葉県,千葉市美浜区,中瀬ワールドビジネスガーデン（１７階）,チバケン,チバシミハマク,ナカセワールドビジネスガーデン(17カイ),千葉県千葉市美浜区中瀬ワールドビジネスガーデン（17階）
2617118,千葉県,千葉市美浜区,中瀬ワールドビジネスガーデン（１８階）,チバケン,チバシミハマク,ナカセワールドビジネスガーデン(18カイ),千葉県千葉市美浜区中瀬ワールドビジネスガーデン（18階）
2617119,千葉県,千葉市美浜区,中瀬ワールドビジネスガーデン（１９階）,チバケン,チバシミハマク,ナカセワールドビジネスガーデン(19カイ),千葉県千葉市美浜区中瀬ワールドビジネスガーデン（19階）
2617120,千葉県,千葉市美浜区,中瀬ワールドビジネスガーデン（２０階）,チバケン,チバシミハマク,ナカセワールドビジネスガーデン(20カイ),千葉県千葉市美浜区中瀬ワールドビジネスガーデン（20階）
2617121,千葉県,千葉市美浜区,中瀬ワールドビジネスガーデン（２１階）,チバケン,チバシミハマク,ナカセワールドビジネスガーデン(21カイ),千葉県千葉市美浜区中瀬ワールドビジネスガーデン（21階）
2617122,千葉県,千葉市美浜区,中瀬ワールドビジネスガーデン（２２階）,チバケン,チバシミハマク,ナカセワールドビジネスガーデン(22カイ),千葉県千葉市美浜区中瀬ワールドビジネスガーデン（22階）
2617123,千葉県,千葉市美浜区,中瀬ワールドビジネスガーデン（２３階）,チバケン,チバシミハマク,ナカセワールドビジネスガーデン(23カイ),千葉県千葉市美浜区中瀬ワールドビジネスガーデン（23階）
2617124,千葉県,千葉市美浜区,中瀬ワールドビジネスガーデン（２４階）,チバケン,チバシミハマク,ナカセワールドビジネスガーデン(24カイ),千葉県千葉市美浜区中瀬ワールドビジネスガーデン（24階）
2617125,千葉県,千葉市美浜区,中瀬ワールドビジネスガーデン（２５階）,チバケン,チバシミハマク,ナカセワールドビジネスガーデン(25カイ),千葉県千葉市美浜区中瀬ワールドビジネスガーデン（25階）
2617126,千葉県,千葉市美浜区,中瀬ワールドビジネスガーデン（２６階）,チバケン,チバシミハマク,ナカセワールドビジネスガーデン(26カイ),千葉県千葉市美浜区中瀬ワールドビジネスガーデン（26階）
2617127,千葉県,千葉市美浜区,中瀬ワールドビジネスガーデン（２７階）,チバケン,チバシミハマク,ナカセワールドビジネスガーデン(27カイ),千葉県千葉市美浜区中瀬ワールドビジネスガーデン（27階）
2617128,千葉県,千葉市美浜区,中瀬ワールドビジネスガーデン（２８階）,チバケン,チバシミハマク,ナカセワールドビジネスガーデン(28カイ),千葉県千葉市美浜区中瀬ワールドビジネスガーデン（28階）
2617129,千葉県,千葉市美浜区,中瀬ワールドビジネスガーデン（２９階）,チバケン,チバシミハマク,ナカセワールドビジネスガーデン(29カイ),千葉県千葉市美浜区中瀬ワールドビジネスガーデン（29階）
2617130,千葉県,千葉市美浜区,中瀬ワールドビジネスガーデン（３０階）,チバケン,チバシミハマク,ナカセワールドビジネスガーデン(30カイ),千葉県千葉市美浜区中瀬ワールドビジネスガーデン（30階）
2617131,千葉県,千葉市美浜区,中瀬ワールドビジネスガーデン（３１階）,チバケン,チバシミハマク,ナカセワールドビジネスガーデン(31カイ),千葉県千葉市美浜区中瀬ワールドビジネスガーデン（31階）
2617132,千葉県,千葉市美浜区,中瀬ワールドビジネスガーデン（３２階）,チバケン,チバシミハマク,ナカセワールドビジネスガーデン(32カイ),千葉県千葉市美浜区中瀬ワールドビジネスガーデン（32階）
2617133,千葉県,千葉市美浜区,中瀬ワールドビジネスガーデン（３３階）,チバケン,チバシミハマク,ナカセワールドビジネスガーデン(33カイ),千葉県千葉市美浜区中瀬ワールドビジネスガーデン（33階）
2617134,千葉県,千葉市美浜区,中瀬ワールドビジネスガーデン（３４階）,チバケン,チバシミハマク,ナカセワールドビジネスガーデン(34カイ),千葉県千葉市美浜区中瀬ワールドビジネスガーデン（34階）
2617135,千葉県,千葉市美浜区,中瀬ワールドビジネスガーデン（３５階）,チバケン,チバシミハマク,ナカセワールドビジネスガーデン(35カイ),千葉県千葉市美浜区中瀬ワールドビジネスガーデン（35階）
2617190,千葉県,千葉市美浜区,中瀬ワールドビジネスガーデン（地階・階層不明）,チバケン,チバシミハマク,ナカセワールドビジネスガーデン(チカイ・カイソウフメイ),千葉県千葉市美浜区中瀬ワールドビジネスガーデン（地階・階層不明）
2620000,千葉県,千葉市花見川区,,チバケン,チバシハナミガワク,,千葉県千葉市花見川区
2620001,千葉県,千葉市花見川区,横戸町,チバケン,チバシハナミガワク,ヨコドチョウ,千葉県千葉市花見川区横戸町
2620002,千葉県,千葉市花見川区,内山町,チバケン,チバシハナミガワク,ウチヤマチョウ,千葉県千葉市花見川区内山町
2620003,千葉県,千葉市花見川区,宇那谷町,チバケン,チバシハナミガワク,ウナヤチョウ,千葉県千葉市花見川区宇那谷町
2620004,千葉県,千葉市花見川区,大日町,チバケン,チバシハナミガワク,ダイニチチョウ,千葉県千葉市花見川区大日町
2620005,千葉県,千葉市花見川区,こてはし台,チバケン,チバシハナミガワク,コテハシダイ,千葉県千葉市花見川区こてはし台
2620006,千葉県,千葉市花見川区,横戸台,チバケン,チバシハナミガワク,ヨコドダイ,千葉県千葉市花見川区横戸台
2620007,千葉県,千葉市花見川区,み春野,チバケン,チバシハナミガワク,ミハルノ,千葉県千葉市花見川区み春野
2620011,千葉県,千葉市花見川区,三角町,チバケン,チバシハナミガワク,サンカクチョウ,千葉県千葉市花見川区三角町
2620012,千葉県,千葉市花見川区,千種町,チバケン,チバシハナミガワク,チグサチョウ,千葉県千葉市花見川区千種町
2620013,千葉県,千葉市花見川区,犢橋町,チバケン,チバシハナミガワク,コテハシチョウ,千葉県千葉市花見川区犢橋町
2620014,千葉県,千葉市花見川区,さつきが丘,チバケン,チバシハナミガワク,サツキガオカ,千葉県千葉市花見川区さつきが丘
2620015,千葉県,千葉市花見川区,宮野木台,チバケン,チバシハナミガワク,ミヤノギダイ,千葉県千葉市花見川区宮野木台
2620016,千葉県,千葉市花見川区,西小中台,チバケン,チバシハナミガワク,ニシコナカダイ,千葉県千葉市花見川区西小中台
2620017,千葉県,千葉市花見川区,朝日ケ丘町,チバケン,チバシハナミガワク,アサヒガオカチョウ,千葉県千葉市花見川区朝日ケ丘町
2620018,千葉県,千葉市花見川区,畑町,チバケン,チバシハナミガワク,ハタマチ,千葉県千葉市花見川区畑町
2620019,千葉県,千葉市花見川区,朝日ケ丘,チバケン,チバシハナミガワク,アサヒガオカ,千葉県千葉市花見川区朝日ケ丘
2620021,千葉県,千葉市花見川区,花園町,チバケン,チバシハナミガワク,ハナゾノチョウ,千葉県千葉市花見川区花園町
2620022,千葉県,千葉市花見川区,南花園,チバケン,チバシハナミガワク,ミナミハナゾノ,千葉県千葉市花見川区南花園
2620023,千葉県,千葉市花見川区,検見川町,チバケン,チバシハナミガワク,ケミガワチョウ,千葉県千葉市花見川区検見川町
2620024,千葉県,千葉市花見川区,浪花町,チバケン,チバシハナミガワク,ナニワチョウ,千葉県千葉市花見川区浪花町
2620025,千葉県,千葉市花見川区,花園,チバケン,チバシハナミガワク,ハナゾノ,千葉県千葉市花見川区花園
2620026,千葉県,千葉市花見川区,瑞穂,チバケン,チバシハナミガワク,ミズホ,千葉県千葉市花見川区瑞穂
2620031,千葉県,千葉市花見川区,武石町,チバケン,チバシハナミガワク,タケイシチョウ,千葉県千葉市花見川区武石町
2620032,千葉県,千葉市花見川区,幕張町,チバケン,チバシハナミガワク,マクハリチョウ,千葉県千葉市花見川区幕張町
2620033,千葉県,千葉市花見川区,幕張本郷,チバケン,チバシハナミガワク,マクハリホンゴウ,千葉県千葉市花見川区幕張本郷
2620041,千葉県,千葉市花見川区,柏井町,チバケン,チバシハナミガワク,カシワイチョウ,千葉県千葉市花見川区柏井町
2620042,千葉県,千葉市花見川区,花島町,チバケン,チバシハナミガワク,ハナシマチョウ,千葉県千葉市花見川区花島町
2620043,千葉県,千葉市花見川区,天戸町,チバケン,チバシハナミガワク,アマドチョウ,千葉県千葉市花見川区天戸町
2620044,千葉県,千葉市花見川区,長作町,チバケン,チバシハナミガワク,ナガサクチョウ,千葉県千葉市花見川区長作町
2620045,千葉県,千葉市花見川区,作新台,チバケン,チバシハナミガワク,サクシンダイ,千葉県千葉市花見川区作新台
2620046,千葉県,千葉市花見川区,花見川,チバケン,チバシハナミガワク,ハナミガワ,千葉県千葉市花見川区花見川
2620047,千葉県,千葉市花見川区,長作台,チバケン,チバシハナミガワク,ナガサクダイ,千葉県千葉市花見川区長作台
2620048,千葉県,千葉市花見川区,柏井,チバケン,チバシハナミガワク,カシワイ,千葉県千葉市花見川区柏井
2630000,千葉県,千葉市稲毛区,,チバケン,チバシイナゲク,,千葉県千葉市稲毛区
2630001,千葉県,千葉市稲毛区,長沼原町,チバケン,チバシイナゲク,ナガヌマハラチョウ,千葉県千葉市稲毛区長沼原町
2630002,千葉県,千葉市稲毛区,山王町,チバケン,チバシイナゲク,サンノウチョウ,千葉県千葉市稲毛区山王町
2630003,千葉県,千葉市稲毛区,小深町,チバケン,チバシイナゲク,コブケチョウ,千葉県千葉市稲毛区小深町
2630004,千葉県,千葉市稲毛区,六方町,チバケン,チバシイナゲク,ロッポウチョウ,千葉県千葉市稲毛区六方町
2630005,千葉県,千葉市稲毛区,長沼町,チバケン,チバシイナゲク,ナガヌマチョウ,千葉県千葉市稲毛区長沼町
2630011,千葉県,千葉市稲毛区,天台町,チバケン,チバシイナゲク,テンダイチョウ,千葉県千葉市稲毛区天台町
2630012,千葉県,千葉市稲毛区,萩台町,チバケン,チバシイナゲク,ハギダイチョウ,千葉県千葉市稲毛区萩台町
2630013,千葉県,千葉市稲毛区,千草台,チバケン,チバシイナゲク,チグサダイ,千葉県千葉市稲毛区千草台
2630014,千葉県,千葉市稲毛区,作草部町,チバケン,チバシイナゲク,サクサベチョウ,千葉県千葉市稲毛区作草部町
2630015,千葉県,千葉市稲毛区,作草部,チバケン,チバシイナゲク,サクサベ,千葉県千葉市稲毛区作草部
2630016,千葉県,千葉市稲毛区,天台,チバケン,チバシイナゲク,テンダイ,千葉県千葉市稲毛区天台
2630021,千葉県,千葉市稲毛区,轟町,チバケン,チバシイナゲク,トドロキチョウ,千葉県千葉市稲毛区轟町
2630022,千葉県,千葉市稲毛区,弥生町,チバケン,チバシイナゲク,ヤヨイチョウ,千葉県千葉市稲毛区弥生町
2630023,千葉県,千葉市稲毛区,緑町,チバケン,チバシイナゲク,ミドリチョウ,千葉県千葉市稲毛区緑町
2630024,千葉県,千葉市稲毛区,穴川,チバケン,チバシイナゲク,アナガワ,千葉県千葉市稲毛区穴川
2630025,千葉県,千葉市稲毛区,穴川町,チバケン,チバシイナゲク,アナガワチョウ,千葉県千葉市稲毛区穴川町
2630031,千葉県,千葉市稲毛区,稲毛東,チバケン,チバシイナゲク,イナゲヒガシ,千葉県千葉市稲毛区稲毛東
2630032,千葉県,千葉市稲毛区,稲毛台町,チバケン,チバシイナゲク,イナゲダイチョウ,千葉県千葉市稲毛区稲毛台町
2630033,千葉県,千葉市稲毛区,稲丘町,チバケン,チバシイナゲク,イナオカチョウ,千葉県千葉市稲毛区稲丘町
2630034,千葉県,千葉市稲毛区,稲毛,チバケン,チバシイナゲク,イナゲ,千葉県千葉市稲毛区稲毛
2630035,千葉県,千葉市稲毛区,稲毛町,チバケン,チバシイナゲク,イナゲチョウ,千葉県千葉市稲毛区稲毛町
2630041,千葉県,千葉市稲毛区,黒砂台,チバケン,チバシイナゲク,クロスナダイ,千葉県千葉市稲毛区黒砂台
2630042,千葉県,千葉市稲毛区,黒砂,チバケン,チバシイナゲク,クロスナ,千葉県千葉市稲毛区黒砂
2630043,千葉県,千葉市稲毛区,小仲台,チバケン,チバシイナゲク,コナカダイ,千葉県千葉市稲毛区小仲台
2630044,千葉県,千葉市稲毛区,小中台町,チバケン,チバシイナゲク,コナカダイチョウ,千葉県千葉市稲毛区小中台町
2630051,千葉県,千葉市稲毛区,園生町,チバケン,チバシイナゲク,ソンノウチョウ,千葉県千葉市稲毛区園生町
2630052,千葉県,千葉市稲毛区,あやめ台,チバケン,チバシイナゲク,アヤメダイ,千葉県千葉市稲毛区あやめ台
2630053,千葉県,千葉市稲毛区,柏台,チバケン,チバシイナゲク,カシワダイ,千葉県千葉市稲毛区柏台
2630054,千葉県,千葉市稲毛区,宮野木町,チバケン,チバシイナゲク,ミヤノギチョウ,千葉県千葉市稲毛区宮野木町
2640000,千葉県,千葉市若葉区,,チバケン,チバシワカバク,,千葉県千葉市若葉区
2640001,千葉県,千葉市若葉区,金親町,チバケン,チバシワカバク,カネオヤチョウ,千葉県千葉市若葉区金親町
2640002,千葉県,千葉市若葉区,千城台東,チバケン,チバシワカバク,チシロダイヒガシ,千葉県千葉市若葉区千城台東
2640003,千葉県,千葉市若葉区,千城台南,チバケン,チバシワカバク,チシロダイミナミ,千葉県千葉市若葉区千城台南
2640004,千葉県,千葉市若葉区,千城台西,チバケン,チバシワカバク,チシロダイニシ,千葉県千葉市若葉区千城台西
2640005,千葉県,千葉市若葉区,千城台北,チバケン,チバシワカバク,チシロダイキタ,千葉県千葉市若葉区千城台北
2640006,千葉県,千葉市若葉区,小倉台,チバケン,チバシワカバク,オグラダイ,千葉県千葉市若葉区小倉台
2640007,千葉県,千葉市若葉区,小倉町,チバケン,チバシワカバク,オグラチョウ,千葉県千葉市若葉区小倉町
2640011,千葉県,千葉市若葉区,大草町,チバケン,チバシワカバク,オオクサチョウ,千葉県千葉市若葉区大草町
2640012,千葉県,千葉市若葉区,坂月町,チバケン,チバシワカバク,サカヅキチョウ,千葉県千葉市若葉区坂月町
2640013,千葉県,千葉市若葉区,太田町,チバケン,チバシワカバク,オオタチョウ,千葉県千葉市若葉区太田町
2640014,千葉県,千葉市若葉区,北大宮台,チバケン,チバシワカバク,キタオオミヤダイ,千葉県千葉市若葉区北大宮台
2640015,千葉県,千葉市若葉区,大宮台,チバケン,チバシワカバク,オオミヤダイ,千葉県千葉市若葉区大宮台
2640016,千葉県,千葉市若葉区,大宮町,チバケン,チバシワカバク,オオミヤチョウ,千葉県千葉市若葉区大宮町
2640017,千葉県,千葉市若葉区,加曽利町,チバケン,チバシワカバク,カソリチョウ,千葉県千葉市若葉区加曽利町
2640020,千葉県,千葉市若葉区,貝塚,チバケン,チバシワカバク,カイヅカ,千葉県千葉市若葉区貝塚
2640021,千葉県,千葉市若葉区,若松町,チバケン,チバシワカバク,ワカマツチョウ,千葉県千葉市若葉区若松町
2640023,千葉県,千葉市若葉区,貝塚町,チバケン,チバシワカバク,カイヅカチョウ,千葉県千葉市若葉区貝塚町
2640024,千葉県,千葉市若葉区,高品町,チバケン,チバシワカバク,タカシナチョウ,千葉県千葉市若葉区高品町
2640025,千葉県,千葉市若葉区,都賀,チバケン,チバシワカバク,ツガ,千葉県千葉市若葉区都賀
2640026,千葉県,千葉市若葉区,西都賀,チバケン,チバシワカバク,ニシツガ,千葉県千葉市若葉区西都賀
2640027,千葉県,千葉市若葉区,若松台,チバケン,チバシワカバク,ワカマツダイ,千葉県千葉市若葉区若松台
2640028,千葉県,千葉市若葉区,桜木,チバケン,チバシワカバク,サクラギ,千葉県千葉市若葉区桜木
2640029,千葉県,千葉市若葉区,桜木北,チバケン,チバシワカバク,サクラギキタ,千葉県千葉市若葉区桜木北
2640031,千葉県,千葉市若葉区,愛生町,チバケン,チバシワカバク,アイオイチョウ,千葉県千葉市若葉区愛生町
2640032,千葉県,千葉市若葉区,みつわ台,チバケン,チバシワカバク,ミツワダイ,千葉県千葉市若葉区みつわ台
2640033,千葉県,千葉市若葉区,都賀の台,チバケン,チバシワカバク,ツガノダイ,千葉県千葉市若葉区都賀の台
2640034,千葉県,千葉市若葉区,原町,チバケン,チバシワカバク,ハラマチ,千葉県千葉市若葉区原町
2640035,千葉県,千葉市若葉区,東寺山町,チバケン,チバシワカバク,ヒガシテラヤマチョウ,千葉県千葉市若葉区東寺山町
2640036,千葉県,千葉市若葉区,殿台町,チバケン,チバシワカバク,トノダイチョウ,千葉県千葉市若葉区殿台町
2640037,千葉県,千葉市若葉区,源町,チバケン,チバシワカバク,ミナモトチョウ,千葉県千葉市若葉区源町
2650041,千葉県,千葉市若葉区,富田町,チバケン,チバシワカバク,トミタチョウ,千葉県千葉市若葉区富田町
2650042,千葉県,千葉市若葉区,古泉町,チバケン,チバシワカバク,コイズミチョウ,千葉県千葉市若葉区古泉町
2650043,千葉県,千葉市若葉区,中田町,チバケン,チバシワカバク,ナカタチョウ,千葉県千葉市若葉区中田町
2650044,千葉県,千葉市若葉区,下泉町,チバケン,チバシワカバク,シモイズミチョウ,千葉県千葉市若葉区下泉町
2650045,千葉県,千葉市若葉区,上泉町,チバケン,チバシワカバク,カミイズミチョウ,千葉県千葉市若葉区上泉町
2650046,千葉県,千葉市若葉区,小間子町,チバケン,チバシワカバク,オマゴチョウ,千葉県千葉市若葉区小間子町
2650051,千葉県,千葉市若葉区,中野町,チバケン,チバシワカバク,ナカノチョウ,千葉県千葉市若葉区中野町
2650052,千葉県,千葉市若葉区,和泉町,チバケン,チバシワカバク,イズミチョウ,千葉県千葉市若葉区和泉町
2650053,千葉県,千葉市若葉区,野呂町,チバケン,チバシワカバク,ノロチョウ,千葉県千葉市若葉区野呂町
2650061,千葉県,千葉市若葉区,高根町,チバケン,チバシワカバク,タカネチョウ,千葉県千葉市若葉区高根町
2650062,千葉県,千葉市若葉区,川井町,チバケン,チバシワカバク,カワイチョウ,千葉県千葉市若葉区川井町
2650063,千葉県,千葉市若葉区,五十土町,チバケン,チバシワカバク,イカヅチチョウ,千葉県千葉市若葉区五十土町
2650064,千葉県,千葉市若葉区,大広町,チバケン,チバシワカバク,オオヒロチョウ,千葉県千葉市若葉区大広町
2650065,千葉県,千葉市若葉区,佐和町,チバケン,チバシワカバク,サワチョウ,千葉県千葉市若葉区佐和町
2650066,千葉県,千葉市若葉区,多部田町,チバケン,チバシワカバク,タベタチョウ,千葉県千葉市若葉区多部田町
2650067,千葉県,千葉市若葉区,北谷津町,チバケン,チバシワカバク,キタヤツチョウ,千葉県千葉市若葉区北谷津町
2650071,千葉県,千葉市若葉区,旦谷町,チバケン,チバシワカバク,ダンヤチョウ,千葉県千葉市若葉区旦谷町
2650072,千葉県,千葉市若葉区,谷当町,チバケン,チバシワカバク,ヤトウチョウ,千葉県千葉市若葉区谷当町
2650073,千葉県,千葉市若葉区,更科町,チバケン,チバシワカバク,サラシナチョウ,千葉県千葉市若葉区更科町
2650074,千葉県,千葉市若葉区,御殿町,チバケン,チバシワカバク,ゴテンチョウ,千葉県千葉市若葉区御殿町
2650075,千葉県,千葉市若葉区,大井戸町,チバケン,チバシワカバク,オオイドチョウ,千葉県千葉市若葉区大井戸町
2650076,千葉県,千葉市若葉区,下田町,チバケン,チバシワカバク,シモダチョウ,千葉県千葉市若葉区下田町
2650077,千葉県,千葉市若葉区,御成台,チバケン,チバシワカバク,オナリダイ,千葉県千葉市若葉区御成台
2660000,千葉県,千葉市緑区,,チバケン,チバシミドリク,,千葉県千葉市緑区
2660001,千葉県,千葉市緑区,東山科町,チバケン,チバシミドリク,ヒガシヤマシナチョウ,千葉県千葉市緑区東山科町
2660002,千葉県,千葉市緑区,平山町,チバケン,チバシミドリク,ヒラヤマチョウ,千葉県千葉市緑区平山町
2660003,千葉県,千葉市緑区,高田町,チバケン,チバシミドリク,タカダチョウ,千葉県千葉市緑区高田町
2660004,千葉県,千葉市緑区,平川町,チバケン,チバシミドリク,ヒラカワチョウ,千葉県千葉市緑区平川町
2660005,千葉県,千葉市緑区,誉田町,チバケン,チバシミドリク,ホンダチョウ,千葉県千葉市緑区誉田町
2660006,千葉県,千葉市緑区,大膳野町,チバケン,チバシミドリク,ダイゼンノチョウ,千葉県千葉市緑区大膳野町
2660007,千葉県,千葉市緑区,辺田町,チバケン,チバシミドリク,ヘタチョウ,千葉県千葉市緑区辺田町
2660011,千葉県,千葉市緑区,鎌取町,チバケン,チバシミドリク,カマトリチョウ,千葉県千葉市緑区鎌取町
2660014,千葉県,千葉市緑区,大金沢町,チバケン,チバシミドリク,オオカネザワチョウ,千葉県千葉市緑区大金沢町
2660015,千葉県,千葉市緑区,小金沢町,チバケン,チバシミドリク,コカネザワチョウ,千葉県千葉市緑区小金沢町
2660016,千葉県,千葉市緑区,椎名崎町,チバケン,チバシミドリク,シイナザキチョウ,千葉県千葉市緑区椎名崎町
2660021,千葉県,千葉市緑区,刈田子町,チバケン,チバシミドリク,カリタゴチョウ,千葉県千葉市緑区刈田子町
2660022,千葉県,千葉市緑区,富岡町,チバケン,チバシミドリク,トミオカチョウ,千葉県千葉市緑区富岡町
2660023,千葉県,千葉市緑区,茂呂町,チバケン,チバシミドリク,モロチョウ,千葉県千葉市緑区茂呂町
2660024,千葉県,千葉市緑区,中西町,チバケン,チバシミドリク,ナカニシチョウ,千葉県千葉市緑区中西町
2660025,千葉県,千葉市緑区,落井町,チバケン,チバシミドリク,オチイチョウ,千葉県千葉市緑区落井町
2660026,千葉県,千葉市緑区,古市場町,チバケン,チバシミドリク,フルイチバチョウ,千葉県千葉市緑区古市場町
2660031,千葉県,千葉市緑区,おゆみ野,チバケン,チバシミドリク,オユミノ,千葉県千葉市緑区おゆみ野
2660032,千葉県,千葉市緑区,おゆみ野中央,チバケン,チバシミドリク,オユミノチュウオウ,千葉県千葉市緑区おゆみ野中央
2660033,千葉県,千葉市緑区,おゆみ野南,チバケン,チバシミドリク,オユミノミナミ,千葉県千葉市緑区おゆみ野南
2660034,千葉県,千葉市緑区,おゆみ野有吉,チバケン,チバシミドリク,オユミノアリヨシ,千葉県千葉市緑区おゆみ野有吉
2670051,千葉県,千葉市緑区,上大和田町,チバケン,チバシミドリク,カミオオワダチョウ,千葉県千葉市緑区上大和田町
2670052,千葉県,千葉市緑区,下大和田町,チバケン,チバシミドリク,シモオオワダチョウ,千葉県千葉市緑区下大和田町
2670053,千葉県,千葉市緑区,高津戸町,チバケン,チバシミドリク,タカツドチョウ,千葉県千葉市緑区高津戸町
2670054,千葉県,千葉市緑区,大高町,チバケン,チバシミドリク,オオタカチョウ,千葉県千葉市緑区大高町
2670055,千葉県,千葉市緑区,越智町,チバケン,チバシミドリク,オチチョウ,千葉県千葉市緑区越智町
2670056,千葉県,千葉市緑区,大野台,チバケン,チバシミドリク,オオノダイ,千葉県千葉市緑区大野台
2670057,千葉県,千葉市緑区,大木戸町,チバケン,チバシミドリク,オオキドチョウ,千葉県千葉市緑区大木戸町
2670061,千葉県,千葉市緑区,土気町,チバケン,チバシミドリク,トケチョウ,千葉県千葉市緑区土気町
2670062,千葉県,千葉市緑区,小食土町,チバケン,チバシミドリク,ヤサシドチョウ,千葉県千葉市緑区小食土町
2670063,千葉県,千葉市緑区,小山町,チバケン,チバシミドリク,オヤマチョウ,千葉県千葉市緑区小山町
2670064,千葉県,千葉市緑区,板倉町,チバケン,チバシミドリク,イタクラチョウ,千葉県千葉市緑区板倉町
2670065,千葉県,千葉市緑区,大椎町,チバケン,チバシミドリク,オオジチョウ,千葉県千葉市緑区大椎町
2670066,千葉県,千葉市緑区,あすみが丘,チバケン,チバシミドリク,アスミガオカ,千葉県千葉市緑区あすみが丘
2670067,千葉県,千葉市緑区,あすみが丘東,チバケン,チバシミドリク,アスミガオカヒガシ,千葉県千葉市緑区あすみが丘東
2700000,千葉県,松戸市,,チバケン,マツドシ,,千葉県松戸市
2700001,千葉県,松戸市,幸田,チバケン,マツドシ,コウデ,千葉県松戸市幸田
2700002,千葉県,松戸市,平賀,チバケン,マツドシ,ヒラガ,千葉県松戸市平賀
2700003,千葉県,松戸市,東平賀,チバケン,マツドシ,ヒガシヒラガ,千葉県松戸市東平賀
2700004,千葉県,松戸市,殿平賀,チバケン,マツドシ,トノヒラガ,千葉県松戸市殿平賀
2700005,千葉県,松戸市,大谷口,チバケン,マツドシ,オオヤグチ,千葉県松戸市大谷口
2700006,千葉県,松戸市,大金平,チバケン,マツドシ,オオガネダイラ,千葉県松戸市大金平
2700007,千葉県,松戸市,中金杉,チバケン,マツドシ,ナカカナスギ,千葉県松戸市中金杉
2700011,千葉県,松戸市,根木内,チバケン,マツドシ,ネギウチ,千葉県松戸市根木内
2700012,千葉県,松戸市,久保平賀,チバケン,マツドシ,クボヒラガ,千葉県松戸市久保平賀
2700013,千葉県,松戸市,小金きよしケ丘,チバケン,マツドシ,コガネキヨシガオカ,千葉県松戸市小金きよしケ丘
2700014,千葉県,松戸市,小金,チバケン,マツドシ,コガネ,千葉県松戸市小金
2700015,千葉県,松戸市,小金上総町,チバケン,マツドシ,コガネカズサチョウ,千葉県松戸市小金上総町
2700016,千葉県,松戸市,小金清志町,チバケン,マツドシ,コガネキヨシチョウ,千葉県松戸市小金清志町
2700017,千葉県,松戸市,幸谷,チバケン,マツドシ,コウヤ,千葉県松戸市幸谷
2700018,千葉県,松戸市,上総内,チバケン,マツドシ,カズサウチ,千葉県松戸市上総内
2700021,千葉県,松戸市,小金原,チバケン,マツドシ,コガネハラ,千葉県松戸市小金原
2700022,千葉県,松戸市,栗ケ沢,チバケン,マツドシ,クリガサワ,千葉県松戸市栗ケ沢
2700023,千葉県,松戸市,八ケ崎,チバケン,マツドシ,ハチガサキ,千葉県松戸市八ケ崎
2700024,千葉県,松戸市,八ケ崎緑町,チバケン,マツドシ,ハチガサキミドリチョウ,千葉県松戸市八ケ崎緑町
2700025,千葉県,松戸市,中和倉,チバケン,マツドシ,ナカワクラ,千葉県松戸市中和倉
2700026,千葉県,松戸市,三ケ月,チバケン,マツドシ,ミコゼ,千葉県松戸市三ケ月
2700027,千葉県,松戸市,二ツ木,チバケン,マツドシ,フタツギ,千葉県松戸市二ツ木
2700028,千葉県,松戸市,二ツ木二葉町,チバケン,マツドシ,フタツギフタバチョウ,千葉県松戸市二ツ木二葉町
2700031,千葉県,松戸市,横須賀,チバケン,マツドシ,ヨコスカ,千葉県松戸市横須賀
2700032,千葉県,松戸市,新松戸北,チバケン,マツドシ,シンマツドキタ,千葉県松戸市新松戸北
2700033,千葉県,松戸市,新松戸東,チバケン,マツドシ,シンマツドヒガシ,千葉県松戸市新松戸東
2700034,千葉県,松戸市,新松戸,チバケン,マツドシ,シンマツド,千葉県松戸市新松戸
2700035,千葉県,松戸市,新松戸南,チバケン,マツドシ,シンマツドミナミ,千葉県松戸市新松戸南
2700036,千葉県,松戸市,大谷口新田,チバケン,マツドシ,オオヤグチシンデン,千葉県松戸市大谷口新田
2700100,千葉県,流山市,,チバケン,ナガレヤマシ,,千葉県流山市
2700101,千葉県,流山市,東深井,チバケン,ナガレヤマシ,ヒガシフカイ,千葉県流山市東深井
2700102,千葉県,流山市,こうのす台,チバケン,ナガレヤマシ,コウノスダイ,千葉県流山市こうのす台
2700103,千葉県,流山市,美原,チバケン,ナガレヤマシ,ミハラ,千葉県流山市美原
2700105,千葉県,流山市,平方,チバケン,ナガレヤマシ,ヒラカタ,千葉県流山市平方
2700106,千葉県,流山市,平方村新田,チバケン,ナガレヤマシ,ヒラカタムラシンデン,千葉県流山市平方村新田
2700107,千葉県,流山市,西深井,チバケン,ナガレヤマシ,ニシフカイ,千葉県流山市西深井
2700108,千葉県,流山市,深井新田,チバケン,ナガレヤマシ,フカイシンデン,千葉県流山市深井新田
2700111,千葉県,流山市,江戸川台東,チバケン,ナガレヤマシ,エドガワダイヒガシ,千葉県流山市江戸川台東
2700112,千葉県,流山市,青田,チバケン,ナガレヤマシ,アオタ,千葉県流山市青田
2700113,千葉県,流山市,駒木台,チバケン,ナガレヤマシ,コマギダイ,千葉県流山市駒木台
2700114,千葉県,流山市,東初石,チバケン,ナガレヤマシ,ヒガシハツイシ,千葉県流山市東初石
2700115,千葉県,流山市,江戸川台西,チバケン,ナガレヤマシ,エドガワダイニシ,千葉県流山市江戸川台西
2700116,千葉県,流山市,中野久木,チバケン,ナガレヤマシ,ナカノクキ,千葉県流山市中野久木
2700117,千葉県,流山市,北,チバケン,ナガレヤマシ,キタ,千葉県流山市北
2700118,千葉県,流山市,小屋,チバケン,ナガレヤマシ,コヤ,千葉県流山市小屋
2700119,千葉県,流山市,おおたかの森北,チバケン,ナガレヤマシ,オオタカノモリキタ,千葉県流山市おおたかの森北
2700121,千葉県,流山市,西初石,チバケン,ナガレヤマシ,ニシハツイシ,千葉県流山市西初石
2700122,千葉県,流山市,大畔,チバケン,ナガレヤマシ,オオグロ,千葉県流山市大畔
2700123,千葉県,流山市,若葉台,チバケン,ナガレヤマシ,ワカバダイ,千葉県流山市若葉台
2700124,千葉県,流山市,南,チバケン,ナガレヤマシ,ミナミ,千葉県流山市南
2700125,千葉県,流山市,上新宿,チバケン,ナガレヤマシ,カミシンシュク,千葉県流山市上新宿
2700126,千葉県,流山市,上新宿新田,チバケン,ナガレヤマシ,カミシンシュクシンデン,千葉県流山市上新宿新田
2700127,千葉県,流山市,富士見台,チバケン,ナガレヤマシ,フジミダイ,千葉県流山市富士見台
2700128,千葉県,流山市,おおたかの森西,チバケン,ナガレヤマシ,オオタカノモリニシ,千葉県流山市おおたかの森西
2700131,千葉県,流山市,美田,チバケン,ナガレヤマシ,ミタ,千葉県流山市美田
2700132,千葉県,流山市,駒木,チバケン,ナガレヤマシ,コマギ,千葉県流山市駒木
2700133,千葉県,流山市,十太夫,チバケン,ナガレヤマシ,ジュウダユウ,千葉県流山市十太夫
2700134,千葉県,流山市,長崎,チバケン,ナガレヤマシ,ナガサキ,千葉県流山市長崎
2700135,千葉県,流山市,野々下,チバケン,ナガレヤマシ,ノノシタ,千葉県流山市野々下
2700136,千葉県,流山市,古間木,チバケン,ナガレヤマシ,フルマギ,千葉県流山市古間木
2700137,千葉県,流山市,市野谷,チバケン,ナガレヤマシ,イチノヤ,千葉県流山市市野谷
2700138,千葉県,流山市,おおたかの森東,チバケン,ナガレヤマシ,オオタカノモリヒガシ,千葉県流山市おおたかの森東
2700139,千葉県,流山市,おおたかの森南,チバケン,ナガレヤマシ,オオタカノモリミナミ,千葉県流山市おおたかの森南
2700141,千葉県,流山市,松ケ丘,チバケン,ナガレヤマシ,マツガオカ,千葉県流山市松ケ丘
2700142,千葉県,流山市,西松ケ丘,チバケン,ナガレヤマシ,ニシマツガオカ,千葉県流山市西松ケ丘
2700143,千葉県,流山市,向小金,チバケン,ナガレヤマシ,ムカイコガネ,千葉県流山市向小金
2700144,千葉県,流山市,前ケ崎,チバケン,ナガレヤマシ,マエガサキ,千葉県流山市前ケ崎
2700145,千葉県,流山市,名都借,チバケン,ナガレヤマシ,ナズカリ,千葉県流山市名都借
2700146,千葉県,流山市,芝崎,チバケン,ナガレヤマシ,シバサキ,千葉県流山市芝崎
2700151,千葉県,流山市,後平井,チバケン,ナガレヤマシ,ウシロヒライ,千葉県流山市後平井
2700152,千葉県,流山市,前平井,チバケン,ナガレヤマシ,マエヒライ,千葉県流山市前平井
2700153,千葉県,流山市,中,チバケン,ナガレヤマシ,ナカ,千葉県流山市中
2700154,千葉県,流山市,思井,チバケン,ナガレヤマシ,オモイ,千葉県流山市思井
2700155,千葉県,流山市,宮園,チバケン,ナガレヤマシ,ミヤゾノ,千葉県流山市宮園
2700156,千葉県,流山市,西平井,チバケン,ナガレヤマシ,ニシヒライ,千葉県流山市西平井
2700157,千葉県,流山市,平和台,チバケン,ナガレヤマシ,ヘイワダイ,千葉県流山市平和台
2700161,千葉県,流山市,鰭ケ崎,チバケン,ナガレヤマシ,ヒレガサキ,千葉県流山市鰭ケ崎
2700162,千葉県,流山市,木,チバケン,ナガレヤマシ,キ,千葉県流山市木
2700163,千葉県,流山市,南流山,チバケン,ナガレヤマシ,ミナミナガレヤマ,千葉県流山市南流山
2700164,千葉県,流山市,流山,チバケン,ナガレヤマシ,ナガレヤマ,千葉県流山市流山
2700171,千葉県,流山市,上貝塚,チバケン,ナガレヤマシ,カミカイヅカ,千葉県流山市上貝塚
2700172,千葉県,流山市,桐ケ谷,チバケン,ナガレヤマシ,キリガヤ,千葉県流山市桐ケ谷
2700173,千葉県,流山市,谷,チバケン,ナガレヤマシ,タニ,千葉県流山市谷
2700174,千葉県,流山市,下花輪,チバケン,ナガレヤマシ,シモハナワ,千葉県流山市下花輪
2700175,千葉県,流山市,三輪野山,チバケン,ナガレヤマシ,ミワノヤマ,千葉県流山市三輪野山
2700176,千葉県,流山市,加,チバケン,ナガレヤマシ,カ,千葉県流山市加
2700201,千葉県,野田市,関宿三軒家,チバケン,ノダシ,セキヤドサンゲンヤ,千葉県野田市関宿三軒家
2700202,千葉県,野田市,関宿台町,チバケン,ノダシ,セキヤドダイマチ,千葉県野田市関宿台町
2700203,千葉県,野田市,関宿元町,チバケン,ノダシ,セキヤドモトマチ,千葉県野田市関宿元町
2700204,千葉県,野田市,関宿内町,チバケン,ノダシ,セキヤドウチマチ,千葉県野田市関宿内町
2700205,千葉県,野田市,関宿江戸町,チバケン,ノダシ,セキヤドエドマチ,千葉県野田市関宿江戸町
2700206,千葉県,野田市,関宿町,チバケン,ノダシ,セキヤドマチ,千葉県野田市関宿町
2700211,千葉県,野田市,東高野,チバケン,ノダシ,ヒガシゴウヤ,千葉県野田市東高野
2700212,千葉県,野田市,新田戸,チバケン,ノダシ,ニッタド,千葉県野田市新田戸
2700213,千葉県,野田市,桐ケ作,チバケン,ノダシ,キリガサク,千葉県野田市桐ケ作
2700214,千葉県,野田市,柏寺,チバケン,ノダシ,カシワデラ,千葉県野田市柏寺
2700215,千葉県,野田市,中戸,チバケン,ノダシ,ナカト,千葉県野田市中戸
2700216,千葉県,野田市,西高野,チバケン,ノダシ,ニシゴウヤ,千葉県野田市西高野
2700217,千葉県,野田市,はやま,チバケン,ノダシ,ハヤマ,千葉県野田市はやま
2700221,千葉県,野田市,古布内,チバケン,ノダシ,コブウチ,千葉県野田市古布内
2700222,千葉県,野田市,木間ケ瀬,チバケン,ノダシ,キマガセ,千葉県野田市木間ケ瀬
2700223,千葉県,野田市,岡田,チバケン,ノダシ,オカダ,千葉県野田市岡田
2700224,千葉県,野田市,丸井,チバケン,ノダシ,マルイ,千葉県野田市丸井
2700225,千葉県,野田市,平井,チバケン,ノダシ,ヒライ,千葉県野田市平井
2700226,千葉県,野田市,東宝珠花,チバケン,ノダシ,ヒガシホウシュバナ,千葉県野田市東宝珠花
2700227,千葉県,野田市,親野井,チバケン,ノダシ,オヤノイ,千葉県野田市親野井
2700228,千葉県,野田市,次木,チバケン,ノダシ,ナミキ,千葉県野田市次木
2700229,千葉県,野田市,なみき,チバケン,ノダシ,ナミキ,千葉県野田市なみき
2700231,千葉県,野田市,小山,チバケン,ノダシ,オヤマ,千葉県野田市小山
2700232,千葉県,野田市,莚打,チバケン,ノダシ,ムシロウチ,千葉県野田市莚打
2700233,千葉県,野田市,船形,チバケン,ノダシ,フナカタ,千葉県野田市船形
2700234,千葉県,野田市,日の出町,チバケン,ノダシ,ヒノデチョウ,千葉県野田市日の出町
2700235,千葉県,野田市,尾崎,チバケン,ノダシ,オサキ,千葉県野田市尾崎
2700236,千葉県,野田市,東金野井,チバケン,ノダシ,ヒガシカナノイ,千葉県野田市東金野井
2700237,千葉県,野田市,中里,チバケン,ノダシ,ナカザト,千葉県野田市中里
2700238,千葉県,野田市,尾崎台,チバケン,ノダシ,オサキダイ,千葉県野田市尾崎台
2700239,千葉県,野田市,泉,チバケン,ノダシ,イズミ,千葉県野田市泉
2701100,千葉県,我孫子市,,チバケン,アビコシ,,千葉県我孫子市
2701101,千葉県,我孫子市,布佐,チバケン,アビコシ,フサ,千葉県我孫子市布佐
2701102,千葉県,我孫子市,都,チバケン,アビコシ,ミヤコ,千葉県我孫子市都
2701103,千葉県,我孫子市,布佐酉町,チバケン,アビコシ,フサトリマチ,千葉県我孫子市布佐酉町
2701104,千葉県,我孫子市,新々田,チバケン,アビコシ,シンシンデン,千葉県我孫子市新々田
2701105,千葉県,我孫子市,三河屋新田,チバケン,アビコシ,ミカワヤシンデン,千葉県我孫子市三河屋新田
2701106,千葉県,我孫子市,相島新田,チバケン,アビコシ,アイジマシンデン,千葉県我孫子市相島新田
2701107,千葉県,我孫子市,布佐下新田,チバケン,アビコシ,フサシタシンデン,千葉県我孫子市布佐下新田
2701108,千葉県,我孫子市,布佐平和台,チバケン,アビコシ,フサヘイワダイ,千葉県我孫子市布佐平和台
2701111,千葉県,我孫子市,古戸,チバケン,アビコシ,フルド,千葉県我孫子市古戸
2701112,千葉県,我孫子市,新木,チバケン,アビコシ,アラキ,千葉県我孫子市新木
2701113,千葉県,我孫子市,江蔵地,チバケン,アビコシ,エゾウチ,千葉県我孫子市江蔵地
2701114,千葉県,我孫子市,新木野,チバケン,アビコシ,アラキノ,千葉県我孫子市新木野
2701115,千葉県,我孫子市,大作新田,チバケン,アビコシ,オオサクシンデン,千葉県我孫子市大作新田
2701116,千葉県,我孫子市,浅間前新田,チバケン,アビコシ,センゲンマエシンデン,千葉県我孫子市浅間前新田
2701117,千葉県,我孫子市,下沼田,チバケン,アビコシ,シモヌマタ,千葉県我孫子市下沼田
2701118,千葉県,我孫子市,新木村下,チバケン,アビコシ,アラキムラシタ,千葉県我孫子市新木村下
2701119,千葉県,我孫子市,南新木,チバケン,アビコシ,ミナミアラキ,千葉県我孫子市南新木
2701121,千葉県,我孫子市,中峠,チバケン,アビコシ,ナカビョウ,千葉県我孫子市中峠
2701122,千葉県,我孫子市,中里,チバケン,アビコシ,ナカザト,千葉県我孫子市中里
2701123,千葉県,我孫子市,日秀,チバケン,アビコシ,ヒビリ,千葉県我孫子市日秀
2701124,千葉県,我孫子市,日秀新田,チバケン,アビコシ,ヒビリシンデン,千葉県我孫子市日秀新田
2701125,千葉県,我孫子市,中沼田,チバケン,アビコシ,ナカヌマタ,千葉県我孫子市中沼田
2701126,千葉県,我孫子市,中里新田,チバケン,アビコシ,ナカザトシンデン,千葉県我孫子市中里新田
2701127,千葉県,我孫子市,中峠村下,チバケン,アビコシ,ナカビョウムラシタ,千葉県我孫子市中峠村下
2701128,千葉県,我孫子市,中峠台,チバケン,アビコシ,ナカビョウダイ,千葉県我孫子市中峠台
2701131,千葉県,我孫子市,都部,チバケン,アビコシ,イチブ,千葉県我孫子市都部
2701132,千葉県,我孫子市,湖北台,チバケン,アビコシ,コホクダイ,千葉県我孫子市湖北台
2701133,千葉県,我孫子市,上沼田,チバケン,アビコシ,カミヌマタ,千葉県我孫子市上沼田
2701134,千葉県,我孫子市,都部村新田,チバケン,アビコシ,イチブムラシンデン,千葉県我孫子市都部村新田
2701135,千葉県,我孫子市,都部新田,チバケン,アビコシ,イチブシンデン,千葉県我孫子市都部新田
2701136,千葉県,我孫子市,岡発戸新田,チバケン,アビコシ,オカホットシンデン,千葉県我孫子市岡発戸新田
2701137,千葉県,我孫子市,岡発戸,チバケン,アビコシ,オカホット,千葉県我孫子市岡発戸
2701138,千葉県,我孫子市,下ケ戸,チバケン,アビコシ,サゲト,千葉県我孫子市下ケ戸
2701141,千葉県,我孫子市,栄,チバケン,アビコシ,サカエ,千葉県我孫子市栄
2701142,千葉県,我孫子市,泉,チバケン,アビコシ,イズミ,千葉県我孫子市泉
2701143,千葉県,我孫子市,天王台,チバケン,アビコシ,テンノウダイ,千葉県我孫子市天王台
2701144,千葉県,我孫子市,東我孫子,チバケン,アビコシ,ヒガシアビコ,千葉県我孫子市東我孫子
2701145,千葉県,我孫子市,高野山,チバケン,アビコシ,コウノヤマ,千葉県我孫子市高野山
2701146,千葉県,我孫子市,高野山新田,チバケン,アビコシ,コウノヤマシンデン,千葉県我孫子市高野山新田
2701147,千葉県,我孫子市,若松,チバケン,アビコシ,ワカマツ,千葉県我孫子市若松
2701151,千葉県,我孫子市,本町,チバケン,アビコシ,ホンチョウ,千葉県我孫子市本町
2701152,千葉県,我孫子市,寿,チバケン,アビコシ,コトブキ,千葉県我孫子市寿
2701153,千葉県,我孫子市,緑,チバケン,アビコシ,ミドリ,千葉県我孫子市緑
2701154,千葉県,我孫子市,白山,チバケン,アビコシ,ハクサン,千葉県我孫子市白山
2701155,千葉県,我孫子市,我孫子新田,チバケン,アビコシ,アビコシンデン,千葉県我孫子市我孫子新田
2701156,千葉県,我孫子市,根戸新田,チバケン,アビコシ,ネドシンデン,千葉県我孫子市根戸新田
2701157,千葉県,我孫子市,呼塚新田,チバケン,アビコシ,ヨバツカシンデン,千葉県我孫子市呼塚新田
2701158,千葉県,我孫子市,船戸,チバケン,アビコシ,フナト,千葉県我孫子市船戸
2701161,千葉県,我孫子市,布施下,チバケン,アビコシ,フセシタ,千葉県我孫子市布施下
2701162,千葉県,我孫子市,布施,チバケン,アビコシ,フセ,千葉県我孫子市布施
2701163,千葉県,我孫子市,久寺家,チバケン,アビコシ,クジケ,千葉県我孫子市久寺家
2701164,千葉県,我孫子市,つくし野,チバケン,アビコシ,ツクシノ,千葉県我孫子市つくし野
2701165,千葉県,我孫子市,並木,チバケン,アビコシ,ナミキ,千葉県我孫子市並木
2701166,千葉県,我孫子市,我孫子,チバケン,アビコシ,アビコ,千葉県我孫子市我孫子
2701167,千葉県,我孫子市,台田,チバケン,アビコシ,ダイダ,千葉県我孫子市台田
2701168,千葉県,我孫子市,根戸,チバケン,アビコシ,ネド,千葉県我孫子市根戸
2701171,千葉県,我孫子市,弁天下,チバケン,アビコシ,ベンテンシタ,千葉県我孫子市弁天下
2701172,千葉県,我孫子市,北新田,チバケン,アビコシ,キタシンデン,千葉県我孫子市北新田
2701173,千葉県,我孫子市,青山,チバケン,アビコシ,アオヤマ,千葉県我孫子市青山
2701174,千葉県,我孫子市,日の出,チバケン,アビコシ,ヒノデ,千葉県我孫子市日の出
2701175,千葉県,我孫子市,青山台,チバケン,アビコシ,アオヤマダイ,千葉県我孫子市青山台
2701176,千葉県,我孫子市,柴崎台,チバケン,アビコシ,シバサキダイ,千葉県我孫子市柴崎台
2701177,千葉県,我孫子市,柴崎,チバケン,アビコシ,シバサキ,千葉県我孫子市柴崎
2701178,千葉県,我孫子市,南青山,チバケン,アビコシ,ミナミアオヤマ,千葉県我孫子市南青山
2701300,千葉県,印西市,,チバケン,インザイシ,,千葉県印西市
2701313,千葉県,印西市,小林北,チバケン,インザイシ,コバヤシキタ,千葉県印西市小林北
2701315,千葉県,印西市,小林浅間,チバケン,インザイシ,コバヤシセンゲン,千葉県印西市小林浅間
2701316,千葉県,印西市,小林大門下,チバケン,インザイシ,コバヤシダイモンシタ,千葉県印西市小林大門下
2701318,千葉県,印西市,小林,チバケン,インザイシ,コバヤシ,千葉県印西市小林
2701321,千葉県,印西市,相嶋,チバケン,インザイシ,アイジマ,千葉県印西市相嶋
2701322,千葉県,印西市,浅間前,チバケン,インザイシ,センゲンマエ,千葉県印西市浅間前
2701323,千葉県,印西市,木下東,チバケン,インザイシ,キオロシヒガシ,千葉県印西市木下東
2701324,千葉県,印西市,平岡,チバケン,インザイシ,ヒラオカ,千葉県印西市平岡
2701325,千葉県,印西市,竹袋,チバケン,インザイシ,タケフクロ,千葉県印西市竹袋
2701326,千葉県,印西市,木下,チバケン,インザイシ,キオロシ,千葉県印西市木下
2701327,千葉県,印西市,大森,チバケン,インザイシ,オオモリ,千葉県印西市大森
2701328,千葉県,印西市,木下南,チバケン,インザイシ,キオロシミナミ,千葉県印西市木下南
2701331,千葉県,印西市,牧の原,チバケン,インザイシ,マキノハラ,千葉県印西市牧の原
2701332,千葉県,印西市,別所,チバケン,インザイシ,ベッショ,千葉県印西市別所
2701333,千葉県,印西市,宗甫,チバケン,インザイシ,ソウホ,千葉県印西市宗甫
2701334,千葉県,印西市,西の原,チバケン,インザイシ,ニシノハラ,千葉県印西市西の原
2701335,千葉県,印西市,原,チバケン,インザイシ,ハラ,千葉県印西市原
2701336,千葉県,印西市,東の原,チバケン,インザイシ,ヒガシノハラ,千葉県印西市東の原
2701337,千葉県,印西市,草深,チバケン,インザイシ,ソウフケ,千葉県印西市草深
2701338,千葉県,印西市,松崎台,チバケン,インザイシ,マツザキダイ,千葉県印西市松崎台
2701339,千葉県,印西市,牧の台,チバケン,インザイシ,マキノダイ,千葉県印西市牧の台
2701340,千葉県,印西市,中央南,チバケン,インザイシ,チュウオウミナミ,千葉県印西市中央南
2701341,千葉県,印西市,原山,チバケン,インザイシ,ハラヤマ,千葉県印西市原山
2701342,千葉県,印西市,高花,チバケン,インザイシ,タカバナ,千葉県印西市高花
2701343,千葉県,印西市,結縁寺,チバケン,インザイシ,ケツエンジ,千葉県印西市結縁寺
2701344,千葉県,印西市,松崎,チバケン,インザイシ,マツザキ,千葉県印西市松崎
2701345,千葉県,印西市,船尾,チバケン,インザイシ,フナオ,千葉県印西市船尾
2701346,千葉県,印西市,多々羅田,チバケン,インザイシ,タタラダ,千葉県印西市多々羅田
2701347,千葉県,印西市,内野,チバケン,インザイシ,ウチノ,千葉県印西市内野
2701348,千葉県,印西市,戸神,チバケン,インザイシ,トカミ,千葉県印西市戸神
2701349,千葉県,印西市,戸神台,チバケン,インザイシ,トカミダイ,千葉県印西市戸神台
2701350,千葉県,印西市,中央北,チバケン,インザイシ,チュウオウキタ,千葉県印西市中央北
2701351,千葉県,印西市,和泉,チバケン,インザイシ,イズミ,千葉県印西市和泉
2701352,千葉県,印西市,大塚,チバケン,インザイシ,オオツカ,千葉県印西市大塚
2701353,千葉県,印西市,泉,チバケン,インザイシ,イズミ,千葉県印西市泉
2701354,千葉県,印西市,武西,チバケン,インザイシ,ムザイ,千葉県印西市武西
2701355,千葉県,印西市,武西学園台,チバケン,インザイシ,ムザイガクエンダイ,千葉県印西市武西学園台
2701356,千葉県,印西市,小倉台,チバケン,インザイシ,オグラダイ,千葉県印西市小倉台
2701357,千葉県,印西市,牧の木戸,チバケン,インザイシ,マキノキド,千葉県印西市牧の木戸
2701358,千葉県,印西市,小倉,チバケン,インザイシ,オグラ,千葉県印西市小倉
2701359,千葉県,印西市,木刈,チバケン,インザイシ,キカリ,千葉県印西市木刈
2701360,千葉県,印西市,泉野,チバケン,インザイシ,イズミノ,千葉県印西市泉野
2701361,千葉県,印西市,発作,チバケン,インザイシ,ホッサク,千葉県印西市発作
2701362,千葉県,印西市,亀成,チバケン,インザイシ,カメナリ,千葉県印西市亀成
2701363,千葉県,印西市,鹿黒,チバケン,インザイシ,カグロ,千葉県印西市鹿黒
2701364,千葉県,印西市,浦幡新田,チバケン,インザイシ,ウラハタシンデン,千葉県印西市浦幡新田
2701365,千葉県,印西市,高西新田,チバケン,インザイシ,コウサイシンデン,千葉県印西市高西新田
2701366,千葉県,印西市,白幡,チバケン,インザイシ,シラハタ,千葉県印西市白幡
2701367,千葉県,印西市,浦部,チバケン,インザイシ,ウラベ,千葉県印西市浦部
2701368,千葉県,印西市,浦部村新田,チバケン,インザイシ,ウラベムラシンデン,千葉県印西市浦部村新田
2701369,千葉県,印西市,鹿黒南,チバケン,インザイシ,カグロミナミ,千葉県印西市鹿黒南
2701400,千葉県,白井市,,チバケン,シロイシ,,千葉県白井市
2701401,千葉県,白井市,今井,チバケン,シロイシ,イマイ,千葉県白井市今井
2701402,千葉県,白井市,平塚,チバケン,シロイシ,ヒラツカ,千葉県白井市平塚
2701403,千葉県,白井市,河原子,チバケン,シロイシ,カワラゴ,千葉県白井市河原子
2701404,千葉県,白井市,折立,チバケン,シロイシ,オリタテ,千葉県白井市折立
2701405,千葉県,白井市,富塚,チバケン,シロイシ,トミツカ,千葉県白井市富塚
2701406,千葉県,白井市,中,チバケン,シロイシ,ナカ,千葉県白井市中
2701407,千葉県,白井市,名内,チバケン,シロイシ,ナウチ,千葉県白井市名内
2701408,千葉県,白井市,西白井,チバケン,シロイシ,ニシシロイ,千葉県白井市西白井
2701411,千葉県,白井市,十余一,チバケン,シロイシ,トヨイチ,千葉県白井市十余一
2701412,千葉県,白井市,桜台,チバケン,シロイシ,サクラダイ,千葉県白井市桜台
2701413,千葉県,白井市,武西,チバケン,シロイシ,ムザイ,千葉県白井市武西
2701414,千葉県,白井市,谷田,チバケン,シロイシ,ヤタ,千葉県白井市谷田
2701415,千葉県,白井市,清戸,チバケン,シロイシ,キヨド,千葉県白井市清戸
2701416,千葉県,白井市,神々廻,チバケン,シロイシ,シシバ,千葉県白井市神々廻
2701421,千葉県,白井市,白井,チバケン,シロイシ,シロイ,千葉県白井市白井
2701422,千葉県,白井市,復,チバケン,シロイシ,フク,千葉県白井市復
2701423,千葉県,白井市,南山,チバケン,シロイシ,ミナミヤマ,千葉県白井市南山
2701424,千葉県,白井市,堀込,チバケン,シロイシ,ホリゴメ,千葉県白井市堀込
2701425,千葉県,白井市,池の上,チバケン,シロイシ,イケノカミ,千葉県白井市池の上
2701426,千葉県,白井市,笹塚,チバケン,シロイシ,ササヅカ,千葉県白井市笹塚
2701431,千葉県,白井市,根,チバケン,シロイシ,ネ,千葉県白井市根
2701432,千葉県,白井市,冨士,チバケン,シロイシ,フジ,千葉県白井市冨士
2701433,千葉県,白井市,けやき台,チバケン,シロイシ,ケヤキダイ,千葉県白井市けやき台
2701434,千葉県,白井市,大山口,チバケン,シロイシ,オオヤマグチ,千葉県白井市大山口
2701435,千葉県,白井市,清水口,チバケン,シロイシ,シミズグチ,千葉県白井市清水口
2701436,千葉県,白井市,七次台,チバケン,シロイシ,ナナツギダイ,千葉県白井市七次台
2701437,千葉県,白井市,木,チバケン,シロイシ,キ,千葉県白井市木
2701438,千葉県,白井市,野口,チバケン,シロイシ,ノグチ,千葉県白井市野口
2701439,千葉県,白井市,大松,チバケン,シロイシ,ダイマツ,千葉県白井市大松
2701441,千葉県,柏市,鷲野谷新田,チバケン,カシワシ,ワシノヤシンデン,千葉県柏市鷲野谷新田
2701442,千葉県,柏市,染井入新田,チバケン,カシワシ,ソメイイリシンデン,千葉県柏市染井入新田
2701443,千葉県,柏市,鷲野谷,チバケン,カシワシ,ワシノヤ,千葉県柏市鷲野谷
2701444,千葉県,柏市,若白毛,チバケン,カシワシ,ワカシラガ,千葉県柏市若白毛
2701445,千葉県,柏市,岩井,チバケン,カシワシ,イワイ,千葉県柏市岩井
2701446,千葉県,柏市,岩井村新田,チバケン,カシワシ,イワイムラシンデン,千葉県柏市岩井村新田
2701447,千葉県,柏市,手賀の杜,チバケン,カシワシ,テガノモリ,千葉県柏市手賀の杜
2701451,千葉県,柏市,曙橋,チバケン,カシワシ,アケボノバシ,千葉県柏市曙橋
2701452,千葉県,柏市,片山新田,チバケン,カシワシ,カタヤマシンデン,千葉県柏市片山新田
2701453,千葉県,柏市,片山,チバケン,カシワシ,カタヤマ,千葉県柏市片山
2701454,千葉県,柏市,柳戸,チバケン,カシワシ,ヤナド,千葉県柏市柳戸
2701455,千葉県,柏市,金山,チバケン,カシワシ,カネヤマ,千葉県柏市金山
2701456,千葉県,柏市,泉,チバケン,カシワシ,イズミ,千葉県柏市泉
2701457,千葉県,柏市,泉村新田,チバケン,カシワシ,イズミムラシンデン,千葉県柏市泉村新田
2701461,千葉県,柏市,水道橋,チバケン,カシワシ,スイドウバシ,千葉県柏市水道橋
2701462,千葉県,柏市,千間橋,チバケン,カシワシ,センゲンバシ,千葉県柏市千間橋
2701463,千葉県,柏市,布瀬新田,チバケン,カシワシ,フゼシンデン,千葉県柏市布瀬新田
2701464,千葉県,柏市,布瀬,チバケン,カシワシ,フゼ,千葉県柏市布瀬
2701465,千葉県,柏市,手賀,チバケン,カシワシ,テガ,千葉県柏市手賀
2701466,千葉県,柏市,手賀新田,チバケン,カシワシ,テガシンデン,千葉県柏市手賀新田
2701471,千葉県,船橋市,小室町,チバケン,フナバシシ,コムロチョウ,千葉県船橋市小室町
2701500,千葉県,印旛郡栄町,,チバケン,インバグンサカエマチ,,千葉県印旛郡栄町
2701501,千葉県,印旛郡栄町,矢口神明,チバケン,インバグンサカエマチ,ヤコウシンメイ,千葉県印旛郡栄町矢口神明
2701502,千葉県,印旛郡栄町,矢口,チバケン,インバグンサカエマチ,ヤコウ,千葉県印旛郡栄町矢口
2701503,千葉県,印旛郡栄町,興津,チバケン,インバグンサカエマチ,オキツ,千葉県印旛郡栄町興津
2701504,千葉県,印旛郡栄町,麻生,チバケン,インバグンサカエマチ,アソウ,千葉県印旛郡栄町麻生
2701505,千葉県,印旛郡栄町,竜角寺台,チバケン,インバグンサカエマチ,リュウカクジダイ,千葉県印旛郡栄町竜角寺台
2701506,千葉県,印旛郡栄町,龍角寺,チバケン,インバグンサカエマチ,リュウカクジ,千葉県印旛郡栄町龍角寺
2701511,千葉県,印旛郡栄町,北辺田,チバケン,インバグンサカエマチ,キタベタ,千葉県印旛郡栄町北辺田
2701512,千葉県,印旛郡栄町,須賀,チバケン,インバグンサカエマチ,スカ,千葉県印旛郡栄町須賀
2701513,千葉県,印旛郡栄町,酒直,チバケン,インバグンサカエマチ,サカナオ,千葉県印旛郡栄町酒直
2701514,千葉県,印旛郡栄町,酒直台,チバケン,インバグンサカエマチ,サカナオダイ,千葉県印旛郡栄町酒直台
2701515,千葉県,印旛郡栄町,安食台,チバケン,インバグンサカエマチ,アジキダイ,千葉県印旛郡栄町安食台
2701516,千葉県,印旛郡栄町,安食,チバケン,インバグンサカエマチ,アジキ,千葉県印旛郡栄町安食
2701517,千葉県,印旛郡栄町,安食卜杭新田,チバケン,インバグンサカエマチ,アジキボツクイシンデン,千葉県印旛郡栄町安食卜杭新田
2701521,千葉県,印旛郡栄町,和田,チバケン,インバグンサカエマチ,ワダ,千葉県印旛郡栄町和田
2701522,千葉県,印旛郡栄町,布鎌酒直,チバケン,インバグンサカエマチ,フカマサカナオ,千葉県印旛郡栄町布鎌酒直
2701523,千葉県,印旛郡栄町,脇川,チバケン,インバグンサカエマチ,ワキカワ,千葉県印旛郡栄町脇川
2701524,千葉県,印旛郡栄町,長門谷,チバケン,インバグンサカエマチ,ナガトヤ,千葉県印旛郡栄町長門谷
2701525,千葉県,印旛郡栄町,四箇,チバケン,インバグンサカエマチ,シカ,千葉県印旛郡栄町四箇
2701526,千葉県,印旛郡栄町,大森,チバケン,インバグンサカエマチ,オオモリ,千葉県印旛郡栄町大森
2701527,千葉県,印旛郡栄町,押付,チバケン,インバグンサカエマチ,オシツケ,千葉県印旛郡栄町押付
2701531,千葉県,印旛郡栄町,曽根,チバケン,インバグンサカエマチ,ソネ,千葉県印旛郡栄町曽根
2701532,千葉県,印旛郡栄町,南,チバケン,インバグンサカエマチ,ミナミ,千葉県印旛郡栄町南
2701533,千葉県,印旛郡栄町,南ケ丘,チバケン,インバグンサカエマチ,ミナミガオカ,千葉県印旛郡栄町南ケ丘
2701534,千葉県,印旛郡栄町,西,チバケン,インバグンサカエマチ,ニシ,千葉県印旛郡栄町西
2701535,千葉県,印旛郡栄町,布太,チバケン,インバグンサカエマチ,フダ,千葉県印旛郡栄町布太
2701536,千葉県,印旛郡栄町,三和,チバケン,インバグンサカエマチ,ミワ,千葉県印旛郡栄町三和
2701541,千葉県,印旛郡栄町,龍ケ崎町歩,チバケン,インバグンサカエマチ,リュウガサキチョウブ,千葉県印旛郡栄町龍ケ崎町歩
2701542,千葉県,印旛郡栄町,四ッ谷,チバケン,インバグンサカエマチ,ヨツヤ,千葉県印旛郡栄町四ッ谷
2701543,千葉県,印旛郡栄町,請方,チバケン,インバグンサカエマチ,ウケカタ,千葉県印旛郡栄町請方
2701544,千葉県,印旛郡栄町,中谷,チバケン,インバグンサカエマチ,ナカヤ,千葉県印旛郡栄町中谷
2701545,千葉県,印旛郡栄町,北,チバケン,インバグンサカエマチ,キタ,千葉県印旛郡栄町北
2701546,千葉県,印旛郡栄町,生板鍋子新田,チバケン,インバグンサカエマチ,マナイタナベコシンデン,千葉県印旛郡栄町生板鍋子新田
2701601,千葉県,印西市,萩原,チバケン,インザイシ,ハギワラ,千葉県印西市萩原
2701602,千葉県,印西市,松虫,チバケン,インザイシ,マツムシ,千葉県印西市松虫
2701603,千葉県,印西市,吉高,チバケン,インザイシ,ヨシタカ,千葉県印西市吉高
2701604,千葉県,印西市,山田,チバケン,インザイシ,ヤマダ,千葉県印西市山田
2701605,千葉県,印西市,平賀,チバケン,インザイシ,ヒラカ,千葉県印西市平賀
2701606,千葉県,印西市,平賀学園台,チバケン,インザイシ,ヒラカガクエンダイ,千葉県印西市平賀学園台
2701607,千葉県,印西市,美瀬,チバケン,インザイシ,ミセ,千葉県印西市美瀬
2701608,千葉県,印西市,舞姫,チバケン,インザイシ,マイヒメ,千葉県印西市舞姫
2701609,千葉県,印西市,若萩,チバケン,インザイシ,ワカハギ,千葉県印西市若萩
2701611,千葉県,印西市,造谷,チバケン,インザイシ,ツクリヤ,千葉県印西市造谷
2701612,千葉県,印西市,大廻,チバケン,インザイシ,オオバ,千葉県印西市大廻
2701613,千葉県,印西市,鎌苅,チバケン,インザイシ,カマガリ,千葉県印西市鎌苅
2701614,千葉県,印西市,瀬戸,チバケン,インザイシ,セト,千葉県印西市瀬戸
2701615,千葉県,印西市,師戸,チバケン,インザイシ,モロト,千葉県印西市師戸
2701616,千葉県,印西市,岩戸,チバケン,インザイシ,イワト,千葉県印西市岩戸
2701617,千葉県,印西市,吉田,チバケン,インザイシ,ヨシダ,千葉県印西市吉田
2701618,千葉県,印西市,つくりや台,チバケン,インザイシ,ツクリヤダイ,千葉県印西市つくりや台
2702201,千葉県,松戸市,高柳新田,チバケン,マツドシ,タカヤナギシンデン,千葉県松戸市高柳新田
2702202,千葉県,松戸市,高柳,チバケン,マツドシ,タカヤナギ,千葉県松戸市高柳
2702203,千葉県,松戸市,六高台,チバケン,マツドシ,ロッコウダイ,千葉県松戸市六高台
2702204,千葉県,松戸市,六実,チバケン,マツドシ,ムツミ,千葉県松戸市六実
2702205,千葉県,松戸市,六高台西,チバケン,マツドシ,ロッコウダイニシ,千葉県松戸市六高台西
2702211,千葉県,松戸市,五香六実,チバケン,マツドシ,ゴコウムツミ,千葉県松戸市五香六実
2702212,千葉県,松戸市,五香南,チバケン,マツドシ,ゴコウミナミ,千葉県松戸市五香南
2702213,千葉県,松戸市,五香,チバケン,マツドシ,ゴコウ,千葉県松戸市五香
2702214,千葉県,松戸市,松飛台,チバケン,マツドシ,マツヒダイ,千葉県松戸市松飛台
2702215,千葉県,松戸市,串崎南町,チバケン,マツドシ,クシザキミナミチョウ,千葉県松戸市串崎南町
2702216,千葉県,松戸市,串崎新田,チバケン,マツドシ,クシザキシンデン,千葉県松戸市串崎新田
2702217,千葉県,松戸市,初富飛地,チバケン,マツドシ,ハツトミトビチ,千葉県松戸市初富飛地
2702218,千葉県,松戸市,五香西,チバケン,マツドシ,ゴコウニシ,千葉県松戸市五香西
2702221,千葉県,松戸市,紙敷,チバケン,マツドシ,カミシキ,千葉県松戸市紙敷
2702222,千葉県,松戸市,高塚新田,チバケン,マツドシ,タカツカシンデン,千葉県松戸市高塚新田
2702223,千葉県,松戸市,秋山,チバケン,マツドシ,アキヤマ,千葉県松戸市秋山
2702224,千葉県,松戸市,大橋,チバケン,マツドシ,オオハシ,千葉県松戸市大橋
2702225,千葉県,松戸市,東松戸,チバケン,マツドシ,ヒガシマツド,千葉県松戸市東松戸
2702231,千葉県,松戸市,稔台,チバケン,マツドシ,ミノリダイ,千葉県松戸市稔台
2702232,千葉県,松戸市,和名ケ谷,チバケン,マツドシ,ワナガヤ,千葉県松戸市和名ケ谷
2702241,千葉県,松戸市,松戸新田,チバケン,マツドシ,マツドシンデン,千葉県松戸市松戸新田
2702242,千葉県,松戸市,仲井町,チバケン,マツドシ,ナカイチョウ,千葉県松戸市仲井町
2702243,千葉県,松戸市,野菊野,チバケン,マツドシ,ノギクノ,千葉県松戸市野菊野
2702251,千葉県,松戸市,金ケ作,チバケン,マツドシ,カネガサク,千葉県松戸市金ケ作
2702252,千葉県,松戸市,千駄堀,チバケン,マツドシ,センダボリ,千葉県松戸市千駄堀
2702253,千葉県,松戸市,日暮,チバケン,マツドシ,ヒグラシ,千葉県松戸市日暮
2702254,千葉県,松戸市,河原塚,チバケン,マツドシ,カワラヅカ,千葉県松戸市河原塚
2702255,千葉県,松戸市,田中新田,チバケン,マツドシ,タナカシンデン,千葉県松戸市田中新田
2702261,千葉県,松戸市,常盤平,チバケン,マツドシ,トキワダイラ,千葉県松戸市常盤平
2702262,千葉県,松戸市,常盤平双葉町,チバケン,マツドシ,トキワダイラフタバチョウ,千葉県松戸市常盤平双葉町
2702263,千葉県,松戸市,常盤平柳町,チバケン,マツドシ,トキワダイラヤナギチョウ,千葉県松戸市常盤平柳町
2702264,千葉県,松戸市,常盤平松葉町,チバケン,マツドシ,トキワダイラマツバチョウ,千葉県松戸市常盤平松葉町
2702265,千葉県,松戸市,常盤平陣屋前,チバケン,マツドシ,トキワダイラジンヤマエ,千葉県松戸市常盤平陣屋前
2702266,千葉県,松戸市,常盤平西窪町,チバケン,マツドシ,トキワダイラニシクボチョウ,千葉県松戸市常盤平西窪町
2702267,千葉県,松戸市,牧の原,チバケン,マツドシ,マキノハラ,千葉県松戸市牧の原
2702301,千葉県,印西市,将監,チバケン,インザイシ,ショウゲン,千葉県印西市将監
2702302,千葉県,印西市,安食卜杭,チバケン,インザイシ,アジキボックイ,千葉県印西市安食卜杭
2702303,千葉県,印西市,酒直卜杭,チバケン,インザイシ,サカナオボックイ,千葉県印西市酒直卜杭
2702304,千葉県,印西市,甚兵衛,チバケン,インザイシ,ジンベエ,千葉県印西市甚兵衛
2702305,千葉県,印西市,佐野屋,チバケン,インザイシ,サノヤ,千葉県印西市佐野屋
2702306,千葉県,印西市,中田切,チバケン,インザイシ,ナカタギリ,千葉県印西市中田切
2702307,千葉県,印西市,松木,チバケン,インザイシ,マツキ,千葉県印西市松木
2702308,千葉県,印西市,本埜小林,チバケン,インザイシ,モトノコバヤシ,千葉県印西市本埜小林
2702311,千葉県,印西市,萩埜,チバケン,インザイシ,ハギノ,千葉県印西市萩埜
2702312,千葉県,印西市,長門屋,チバケン,インザイシ,ナガトヤ,千葉県印西市長門屋
2702313,千葉県,印西市,下井,チバケン,インザイシ,シモイ,千葉県印西市下井
2702314,千葉県,印西市,桜野,チバケン,インザイシ,サクラノ,千葉県印西市桜野
2702315,千葉県,印西市,中,チバケン,インザイシ,ナカ,千葉県印西市中
2702316,千葉県,印西市,行徳,チバケン,インザイシ,ギョウトク,千葉県印西市行徳
2702317,千葉県,印西市,下曽根,チバケン,インザイシ,シモゾネ,千葉県印西市下曽根
2702318,千葉県,印西市,押付,チバケン,インザイシ,オシツケ,千葉県印西市押付
2702319,千葉県,印西市,川向,チバケン,インザイシ,カワムカイ,千葉県印西市川向
2702321,千葉県,印西市,物木,チバケン,インザイシ,モノキ,千葉県印西市物木
2702322,千葉県,印西市,笠神,チバケン,インザイシ,カサガミ,千葉県印西市笠神
2702323,千葉県,印西市,和泉屋,チバケン,インザイシ,イズミヤ,千葉県印西市和泉屋
2702324,千葉県,印西市,中根,チバケン,インザイシ,ナカネ,千葉県印西市中根
2702325,千葉県,印西市,角田,チバケン,インザイシ,ツノダ,千葉県印西市角田
2702326,千葉県,印西市,荒野,チバケン,インザイシ,コウヤ,千葉県印西市荒野
2702327,千葉県,印西市,竜腹寺,チバケン,インザイシ,リュウフクジ,千葉県印西市竜腹寺
2702328,千葉県,印西市,滝,チバケン,インザイシ,タキ,千葉県印西市滝
2702329,千葉県,印西市,滝野,チバケン,インザイシ,タキノ,千葉県印西市滝野
2702331,千葉県,印西市,みどり台,チバケン,インザイシ,ミドリダイ,千葉県印西市みどり台
2710041,千葉県,松戸市,七右衛門新田,チバケン,マツドシ,シチウエモンシンデン,千葉県松戸市七右衛門新田
2710042,千葉県,松戸市,主水新田,チバケン,マツドシ,モントシンデン,千葉県松戸市主水新田
2710043,千葉県,松戸市,旭町,チバケン,マツドシ,アサヒチョウ,千葉県松戸市旭町
2710044,千葉県,松戸市,西馬橋,チバケン,マツドシ,ニシマバシ,千葉県松戸市西馬橋
2710045,千葉県,松戸市,西馬橋相川町,チバケン,マツドシ,ニシマバシアイカワチョウ,千葉県松戸市西馬橋相川町
2710046,千葉県,松戸市,西馬橋蔵元町,チバケン,マツドシ,ニシマバシクラモトチョウ,千葉県松戸市西馬橋蔵元町
2710047,千葉県,松戸市,西馬橋幸町,チバケン,マツドシ,ニシマバシサイワイチョウ,千葉県松戸市西馬橋幸町
2710048,千葉県,松戸市,西馬橋広手町,チバケン,マツドシ,ニシマバシヒロテチョウ,千葉県松戸市西馬橋広手町
2710051,千葉県,松戸市,馬橋,チバケン,マツドシ,マバシ,千葉県松戸市馬橋
2710052,千葉県,松戸市,新作,チバケン,マツドシ,シンザク,千葉県松戸市新作
2710053,千葉県,松戸市,中根,チバケン,マツドシ,ナカネ,千葉県松戸市中根
2710054,千葉県,松戸市,中根長津町,チバケン,マツドシ,ナカネナガツチョウ,千葉県松戸市中根長津町
2710061,千葉県,松戸市,栄町西,チバケン,マツドシ,サカエチョウニシ,千葉県松戸市栄町西
2710062,千葉県,松戸市,栄町,チバケン,マツドシ,サカエチョウ,千葉県松戸市栄町
2710063,千葉県,松戸市,北松戸,チバケン,マツドシ,キタマツド,千葉県松戸市北松戸
2710064,千葉県,松戸市,上本郷,チバケン,マツドシ,カミホンゴウ,千葉県松戸市上本郷
2710065,千葉県,松戸市,南花島,チバケン,マツドシ,ミナミハナシマ,千葉県松戸市南花島
2710066,千葉県,松戸市,吉井町,チバケン,マツドシ,ヨシイチョウ,千葉県松戸市吉井町
2710067,千葉県,松戸市,樋野口,チバケン,マツドシ,ヒノクチ,千葉県松戸市樋野口
2710068,千葉県,松戸市,古ケ崎,チバケン,マツドシ,コガサキ,千葉県松戸市古ケ崎
2710071,千葉県,松戸市,竹ケ花西町,チバケン,マツドシ,タケガハナニシマチ,千葉県松戸市竹ケ花西町
2710072,千葉県,松戸市,竹ケ花,チバケン,マツドシ,タケガハナ,千葉県松戸市竹ケ花
2710073,千葉県,松戸市,小根本,チバケン,マツドシ,コネモト,千葉県松戸市小根本
2710074,千葉県,松戸市,緑ケ丘,チバケン,マツドシ,ミドリガオカ,千葉県松戸市緑ケ丘
2710075,千葉県,松戸市,胡録台,チバケン,マツドシ,コロクダイ,千葉県松戸市胡録台
2710076,千葉県,松戸市,岩瀬,チバケン,マツドシ,イワセ,千葉県松戸市岩瀬
2710077,千葉県,松戸市,根本,チバケン,マツドシ,ネモト,千葉県松戸市根本
2710081,千葉県,松戸市,二十世紀が丘美野里町,チバケン,マツドシ,ニジュッセイキガオカミノリチョウ,千葉県松戸市二十世紀が丘美野里町
2710082,千葉県,松戸市,二十世紀が丘戸山町,チバケン,マツドシ,ニジュッセイキガオカトヤマチョウ,千葉県松戸市二十世紀が丘戸山町
2710083,千葉県,松戸市,二十世紀が丘梨元町,チバケン,マツドシ,ニジュッセイキガオカナシモトチョウ,千葉県松戸市二十世紀が丘梨元町
2710084,千葉県,松戸市,二十世紀が丘丸山町,チバケン,マツドシ,ニジュッセイキガオカマルヤマチョウ,千葉県松戸市二十世紀が丘丸山町
2710085,千葉県,松戸市,二十世紀が丘中松町,チバケン,マツドシ,ニジュッセイキガオカナカマツチョウ,千葉県松戸市二十世紀が丘中松町
2710086,千葉県,松戸市,二十世紀が丘萩町,チバケン,マツドシ,ニジュッセイキガオカハギチョウ,千葉県松戸市二十世紀が丘萩町
2710087,千葉県,松戸市,三矢小台,チバケン,マツドシ,ミヤコダイ,千葉県松戸市三矢小台
2710088,千葉県,松戸市,二十世紀が丘柿の木町,チバケン,マツドシ,ニジュッセイキガオカカキノキチョウ,千葉県松戸市二十世紀が丘柿の木町
2710091,千葉県,松戸市,本町,チバケン,マツドシ,ホンチョウ,千葉県松戸市本町
2710092,千葉県,松戸市,松戸,チバケン,マツドシ,マツド,千葉県松戸市松戸
2710093,千葉県,松戸市,小山,チバケン,マツドシ,コヤマ,千葉県松戸市小山
2710094,千葉県,松戸市,上矢切,チバケン,マツドシ,カミヤキリ,千葉県松戸市上矢切
2710095,千葉県,松戸市,中矢切,チバケン,マツドシ,ナカヤキリ,千葉県松戸市中矢切
2710096,千葉県,松戸市,下矢切,チバケン,マツドシ,シモヤキリ,千葉県松戸市下矢切
2710097,千葉県,松戸市,栗山,チバケン,マツドシ,クリヤマ,千葉県松戸市栗山
2720000,千葉県,市川市,,チバケン,イチカワシ,,千葉県市川市
2720001,千葉県,市川市,二俣,チバケン,イチカワシ,フタマタ,千葉県市川市二俣
2720002,千葉県,市川市,二俣新町,チバケン,イチカワシ,フタマタシンマチ,千葉県市川市二俣新町
2720003,千葉県,市川市,東浜,チバケン,イチカワシ,ヒガシハマ,千葉県市川市東浜
2720004,千葉県,市川市,原木,チバケン,イチカワシ,バラキ,千葉県市川市原木
2720011,千葉県,市川市,高谷新町,チバケン,イチカワシ,コウヤシンマチ,千葉県市川市高谷新町
2720012,千葉県,市川市,上妙典（その他）,チバケン,イチカワシ,カミミョウデン(ソノタ),千葉県市川市上妙典（その他）
2720013,千葉県,市川市,高谷,チバケン,イチカワシ,コウヤ,千葉県市川市高谷
2720014,千葉県,市川市,田尻,チバケン,イチカワシ,タジリ,千葉県市川市田尻
2720015,千葉県,市川市,鬼高,チバケン,イチカワシ,オニタカ,千葉県市川市鬼高
2720021,千葉県,市川市,八幡,チバケン,イチカワシ,ヤワタ,千葉県市川市八幡
2720022,千葉県,市川市,鬼越,チバケン,イチカワシ,オニゴエ,千葉県市川市鬼越
2720023,千葉県,市川市,南八幡,チバケン,イチカワシ,ミナミヤワタ,千葉県市川市南八幡
2720024,千葉県,市川市,稲荷木,チバケン,イチカワシ,トウカギ,千葉県市川市稲荷木
2720025,千葉県,市川市,大和田,チバケン,イチカワシ,オオワダ,千葉県市川市大和田
2720026,千葉県,市川市,東大和田,チバケン,イチカワシ,ヒガシオオワダ,千葉県市川市東大和田
2720031,千葉県,市川市,平田,チバケン,イチカワシ,ヒラタ,千葉県市川市平田
2720032,千葉県,市川市,大洲,チバケン,イチカワシ,オオス,千葉県市川市大洲
2720033,千葉県,市川市,市川南,チバケン,イチカワシ,イチカワミナミ,千葉県市川市市川南
2720034,千葉県,市川市,市川,チバケン,イチカワシ,イチカワ,千葉県市川市市川
2720035,千葉県,市川市,新田,チバケン,イチカワシ,シンデン,千葉県市川市新田
2720101,千葉県,市川市,河原,チバケン,イチカワシ,カワラ,千葉県市川市河原
2720102,千葉県,市川市,下新宿,チバケン,イチカワシ,シモシンシュク,千葉県市川市下新宿
2720103,千葉県,市川市,本行徳,チバケン,イチカワシ,ホンギョウトク,千葉県市川市本行徳
2720104,千葉県,市川市,本塩,チバケン,イチカワシ,ホンシオ,千葉県市川市本塩
2720105,千葉県,市川市,関ケ島,チバケン,イチカワシ,セキガシマ,千葉県市川市関ケ島
2720106,千葉県,市川市,伊勢宿,チバケン,イチカワシ,イセジュク,千葉県市川市伊勢宿
2720107,千葉県,市川市,押切,チバケン,イチカワシ,オシキリ,千葉県市川市押切
2720111,千葉県,市川市,妙典,チバケン,イチカワシ,ミョウデン,千葉県市川市妙典
2720112,千葉県,市川市,上妙典（１〜９９９番地）,チバケン,イチカワシ,カミミョウデン(1-999バンチ),千葉県市川市上妙典（1〜999-）
2720113,千葉県,市川市,下妙典,チバケン,イチカワシ,シモミョウデン,千葉県市川市下妙典
2720114,千葉県,市川市,塩焼,チバケン,イチカワシ,シオヤキ,千葉県市川市塩焼
2720115,千葉県,市川市,富浜,チバケン,イチカワシ,トミハマ,千葉県市川市富浜
2720121,千葉県,市川市,末広,チバケン,イチカワシ,スエヒロ,千葉県市川市末広
2720122,千葉県,市川市,宝,チバケン,イチカワシ,タカラ,千葉県市川市宝
2720123,千葉県,市川市,幸,チバケン,イチカワシ,サイワイ,千葉県市川市幸
2720124,千葉県,市川市,加藤新田,チバケン,イチカワシ,カトウシンデン,千葉県市川市加藤新田
2720125,千葉県,市川市,高浜町,チバケン,イチカワシ,タカハママチ,千葉県市川市高浜町
2720126,千葉県,市川市,千鳥町,チバケン,イチカワシ,チドリチョウ,千葉県市川市千鳥町
2720127,千葉県,市川市,塩浜,チバケン,イチカワシ,シオハマ,千葉県市川市塩浜
2720131,千葉県,市川市,湊,チバケン,イチカワシ,ミナト,千葉県市川市湊
2720132,千葉県,市川市,湊新田,チバケン,イチカワシ,ミナトシンデン,千葉県市川市湊新田
2720133,千葉県,市川市,行徳駅前,チバケン,イチカワシ,ギョウトクエキマエ,千葉県市川市行徳駅前
2720134,千葉県,市川市,入船,チバケン,イチカワシ,イリフネ,千葉県市川市入船
2720135,千葉県,市川市,日之出,チバケン,イチカワシ,ヒノデ,千葉県市川市日之出
2720136,千葉県,市川市,新浜,チバケン,イチカワシ,ニイハマ,千葉県市川市新浜
2720137,千葉県,市川市,福栄,チバケン,イチカワシ,フクエイ,千葉県市川市福栄
2720138,千葉県,市川市,南行徳,チバケン,イチカワシ,ミナミギョウトク,千葉県市川市南行徳
2720141,千葉県,市川市,香取,チバケン,イチカワシ,カンドリ,千葉県市川市香取
2720142,千葉県,市川市,欠真間,チバケン,イチカワシ,カケママ,千葉県市川市欠真間
2720143,千葉県,市川市,相之川,チバケン,イチカワシ,アイノカワ,千葉県市川市相之川
2720144,千葉県,市川市,新井,チバケン,イチカワシ,アライ,千葉県市川市新井
2720145,千葉県,市川市,島尻,チバケン,イチカワシ,シマジリ,千葉県市川市島尻
2720146,千葉県,市川市,広尾,チバケン,イチカワシ,ヒロオ,千葉県市川市広尾
2720801,千葉県,市川市,大町,チバケン,イチカワシ,オオマチ,千葉県市川市大町
2720802,千葉県,市川市,柏井町,チバケン,イチカワシ,カシワイマチ,千葉県市川市柏井町
2720803,千葉県,市川市,奉免町,チバケン,イチカワシ,ホウメマチ,千葉県市川市奉免町
2720804,千葉県,市川市,南大野,チバケン,イチカワシ,ミナミオオノ,千葉県市川市南大野
2720805,千葉県,市川市,大野町,チバケン,イチカワシ,オオノマチ,千葉県市川市大野町
2720811,千葉県,市川市,北方町,チバケン,イチカワシ,ボッケマチ,千葉県市川市北方町
2720812,千葉県,市川市,若宮,チバケン,イチカワシ,ワカミヤ,千葉県市川市若宮
2720813,千葉県,市川市,中山,チバケン,イチカワシ,ナカヤマ,千葉県市川市中山
2720814,千葉県,市川市,高石神,チバケン,イチカワシ,タカイシガミ,千葉県市川市高石神
2720815,千葉県,市川市,北方,チバケン,イチカワシ,キタカタ,千葉県市川市北方
2720816,千葉県,市川市,本北方,チバケン,イチカワシ,モトキタカタ,千葉県市川市本北方
2720821,千葉県,市川市,下貝塚,チバケン,イチカワシ,シモカイヅカ,千葉県市川市下貝塚
2720822,千葉県,市川市,宮久保,チバケン,イチカワシ,ミヤクボ,千葉県市川市宮久保
2720823,千葉県,市川市,東菅野,チバケン,イチカワシ,ヒガシスガノ,千葉県市川市東菅野
2720824,千葉県,市川市,菅野,チバケン,イチカワシ,スガノ,千葉県市川市菅野
2720825,千葉県,市川市,須和田,チバケン,イチカワシ,スワダ,千葉県市川市須和田
2720826,千葉県,市川市,真間,チバケン,イチカワシ,ママ,千葉県市川市真間
2720827,千葉県,市川市,国府台,チバケン,イチカワシ,コウノダイ,千葉県市川市国府台
2720831,千葉県,市川市,稲越,チバケン,イチカワシ,イナゴシ,千葉県市川市稲越
2720832,千葉県,市川市,曽谷,チバケン,イチカワシ,ソヤ,千葉県市川市曽谷
2720833,千葉県,市川市,東国分,チバケン,イチカワシ,ヒガシコクブン,千葉県市川市東国分
2720834,千葉県,市川市,国分,チバケン,イチカワシ,コクブン,千葉県市川市国分
2720835,千葉県,市川市,中国分,チバケン,イチカワシ,ナカコクブン,千葉県市川市中国分
2720836,千葉県,市川市,北国分,チバケン,イチカワシ,キタコクブン,千葉県市川市北国分
2720837,千葉県,市川市,堀之内,チバケン,イチカワシ,ホリノウチ,千葉県市川市堀之内
2730000,千葉県,船橋市,,チバケン,フナバシシ,,千葉県船橋市
2730001,千葉県,船橋市,市場,チバケン,フナバシシ,イチバ,千葉県船橋市市場
2730002,千葉県,船橋市,東船橋,チバケン,フナバシシ,ヒガシフナバシ,千葉県船橋市東船橋
2730003,千葉県,船橋市,宮本,チバケン,フナバシシ,ミヤモト,千葉県船橋市宮本
2730004,千葉県,船橋市,南本町,チバケン,フナバシシ,ミナミホンチョウ,千葉県船橋市南本町
2730005,千葉県,船橋市,本町,チバケン,フナバシシ,ホンチョウ,千葉県船橋市本町
2730011,千葉県,船橋市,湊町,チバケン,フナバシシ,ミナトチョウ,千葉県船橋市湊町
2730012,千葉県,船橋市,浜町,チバケン,フナバシシ,ハマチョウ,千葉県船橋市浜町
2730013,千葉県,船橋市,若松,チバケン,フナバシシ,ワカマツ,千葉県船橋市若松
2730014,千葉県,船橋市,高瀬町,チバケン,フナバシシ,タカセチョウ,千葉県船橋市高瀬町
2730015,千葉県,船橋市,日の出,チバケン,フナバシシ,ヒノデ,千葉県船橋市日の出
2730016,千葉県,船橋市,潮見町,チバケン,フナバシシ,シオミチョウ,千葉県船橋市潮見町
2730017,千葉県,船橋市,西浦,チバケン,フナバシシ,ニシウラ,千葉県船橋市西浦
2730018,千葉県,船橋市,栄町,チバケン,フナバシシ,サカエチョウ,千葉県船橋市栄町
2730021,千葉県,船橋市,海神,チバケン,フナバシシ,カイジン,千葉県船橋市海神
2730022,千葉県,船橋市,海神町,チバケン,フナバシシ,カイジンチョウ,千葉県船橋市海神町
2730023,千葉県,船橋市,南海神,チバケン,フナバシシ,ミナミカイジン,千葉県船橋市南海神
2730024,千葉県,船橋市,海神町南,チバケン,フナバシシ,カイジンチョウミナミ,千葉県船橋市海神町南
2730025,千葉県,船橋市,印内町,チバケン,フナバシシ,インナイチョウ,千葉県船橋市印内町
2730026,千葉県,船橋市,山野町,チバケン,フナバシシ,ヤマノチョウ,千葉県船橋市山野町
2730027,千葉県,船橋市,海神町西,チバケン,フナバシシ,カイジンチョウニシ,千葉県船橋市海神町西
2730028,千葉県,船橋市,海神町東,チバケン,フナバシシ,カイジンチョウヒガシ,千葉県船橋市海神町東
2730031,千葉県,船橋市,西船,チバケン,フナバシシ,ニシフナ,千葉県船橋市西船
2730032,千葉県,船橋市,葛飾町,チバケン,フナバシシ,カツシカチョウ,千葉県船橋市葛飾町
2730033,千葉県,船橋市,本郷町,チバケン,フナバシシ,ホンゴウチョウ,千葉県船橋市本郷町
2730034,千葉県,船橋市,二子町,チバケン,フナバシシ,フタゴチョウ,千葉県船橋市二子町
2730035,千葉県,船橋市,本中山,チバケン,フナバシシ,モトナカヤマ,千葉県船橋市本中山
2730036,千葉県,船橋市,東中山,チバケン,フナバシシ,ヒガシナカヤマ,千葉県船橋市東中山
2730037,千葉県,船橋市,古作,チバケン,フナバシシ,コサク,千葉県船橋市古作
2730038,千葉県,船橋市,古作町,チバケン,フナバシシ,コサクチョウ,千葉県船橋市古作町
2730039,千葉県,船橋市,印内,チバケン,フナバシシ,インナイ,千葉県船橋市印内
2730041,千葉県,船橋市,旭町,チバケン,フナバシシ,アサヒチョウ,千葉県船橋市旭町
2730042,千葉県,船橋市,前貝塚町,チバケン,フナバシシ,マエカイヅカチョウ,千葉県船橋市前貝塚町
2730043,千葉県,船橋市,行田町,チバケン,フナバシシ,ギョウダチョウ,千葉県船橋市行田町
2730044,千葉県,船橋市,行田,チバケン,フナバシシ,ギョウダ,千葉県船橋市行田
2730045,千葉県,船橋市,山手,チバケン,フナバシシ,ヤマテ,千葉県船橋市山手
2730046,千葉県,船橋市,上山町,チバケン,フナバシシ,カミヤマチョウ,千葉県船橋市上山町
2730047,千葉県,船橋市,藤原,チバケン,フナバシシ,フジワラ,千葉県船橋市藤原
2730048,千葉県,船橋市,丸山,チバケン,フナバシシ,マルヤマ,千葉県船橋市丸山
2730100,千葉県,鎌ケ谷市,,チバケン,カマガヤシ,,千葉県鎌ケ谷市
2730101,千葉県,鎌ケ谷市,富岡,チバケン,カマガヤシ,トミオカ,千葉県鎌ケ谷市富岡
2730102,千葉県,鎌ケ谷市,右京塚,チバケン,カマガヤシ,ウキョウヅカ,千葉県鎌ケ谷市右京塚
2730103,千葉県,鎌ケ谷市,丸山,チバケン,カマガヤシ,マルヤマ,千葉県鎌ケ谷市丸山
2730104,千葉県,鎌ケ谷市,東鎌ケ谷,チバケン,カマガヤシ,ヒガシカマガヤ,千葉県鎌ケ谷市東鎌ケ谷
2730105,千葉県,鎌ケ谷市,鎌ケ谷,チバケン,カマガヤシ,カマガヤ,千葉県鎌ケ谷市鎌ケ谷
2730106,千葉県,鎌ケ谷市,南鎌ケ谷,チバケン,カマガヤシ,ミナミカマガヤ,千葉県鎌ケ谷市南鎌ケ谷
2730107,千葉県,鎌ケ谷市,新鎌ケ谷,チバケン,カマガヤシ,シンカマガヤ,千葉県鎌ケ谷市新鎌ケ谷
2730111,千葉県,鎌ケ谷市,北中沢,チバケン,カマガヤシ,キタナカザワ,千葉県鎌ケ谷市北中沢
2730112,千葉県,鎌ケ谷市,東中沢,チバケン,カマガヤシ,ヒガシナカザワ,千葉県鎌ケ谷市東中沢
2730113,千葉県,鎌ケ谷市,道野辺中央,チバケン,カマガヤシ,ミチノベチュウオウ,千葉県鎌ケ谷市道野辺中央
2730114,千葉県,鎌ケ谷市,道野辺,チバケン,カマガヤシ,ミチノベ,千葉県鎌ケ谷市道野辺
2730115,千葉県,鎌ケ谷市,東道野辺,チバケン,カマガヤシ,ヒガシミチノベ,千葉県鎌ケ谷市東道野辺
2730116,千葉県,鎌ケ谷市,馬込沢,チバケン,カマガヤシ,マゴメザワ,千葉県鎌ケ谷市馬込沢
2730117,千葉県,鎌ケ谷市,西道野辺,チバケン,カマガヤシ,ニシミチノベ,千葉県鎌ケ谷市西道野辺
2730118,千葉県,鎌ケ谷市,中沢,チバケン,カマガヤシ,ナカザワ,千葉県鎌ケ谷市中沢
2730119,千葉県,鎌ケ谷市,中沢新町,チバケン,カマガヤシ,ナカザワシンマチ,千葉県鎌ケ谷市中沢新町
2730121,千葉県,鎌ケ谷市,初富,チバケン,カマガヤシ,ハツトミ,千葉県鎌ケ谷市初富
2730122,千葉県,鎌ケ谷市,東初富,チバケン,カマガヤシ,ヒガシハツトミ,千葉県鎌ケ谷市東初富
2730123,千葉県,鎌ケ谷市,南初富,チバケン,カマガヤシ,ミナミハツトミ,千葉県鎌ケ谷市南初富
2730124,千葉県,鎌ケ谷市,中央,チバケン,カマガヤシ,チュウオウ,千葉県鎌ケ谷市中央
2730125,千葉県,鎌ケ谷市,初富本町,チバケン,カマガヤシ,ハツトミホンチョウ,千葉県鎌ケ谷市初富本町
2730126,千葉県,鎌ケ谷市,北初富,チバケン,カマガヤシ,キタハツトミ,千葉県鎌ケ谷市北初富
2730127,千葉県,鎌ケ谷市,串崎新田,チバケン,カマガヤシ,クシザキシンデン,千葉県鎌ケ谷市串崎新田
2730128,千葉県,鎌ケ谷市,くぬぎ山,チバケン,カマガヤシ,クヌギヤマ,千葉県鎌ケ谷市くぬぎ山
2730131,千葉県,鎌ケ谷市,軽井沢,チバケン,カマガヤシ,カルイザワ,千葉県鎌ケ谷市軽井沢
2730132,千葉県,鎌ケ谷市,粟野,チバケン,カマガヤシ,アワノ,千葉県鎌ケ谷市粟野
2730133,千葉県,鎌ケ谷市,南佐津間,チバケン,カマガヤシ,ミナミサツマ,千葉県鎌ケ谷市南佐津間
2730134,千葉県,鎌ケ谷市,西佐津間,チバケン,カマガヤシ,ニシサツマ,千葉県鎌ケ谷市西佐津間
2730135,千葉県,鎌ケ谷市,中佐津間,チバケン,カマガヤシ,ナカサツマ,千葉県鎌ケ谷市中佐津間
2730136,千葉県,鎌ケ谷市,佐津間,チバケン,カマガヤシ,サツマ,千葉県鎌ケ谷市佐津間
2730137,千葉県,鎌ケ谷市,道野辺本町,チバケン,カマガヤシ,ミチノベホンチョウ,千葉県鎌ケ谷市道野辺本町
2730851,千葉県,船橋市,馬込町,チバケン,フナバシシ,マゴメチョウ,千葉県船橋市馬込町
2730852,千葉県,船橋市,金杉台,チバケン,フナバシシ,カナスギダイ,千葉県船橋市金杉台
2730853,千葉県,船橋市,金杉,チバケン,フナバシシ,カナスギ,千葉県船橋市金杉
2730854,千葉県,船橋市,金杉町,チバケン,フナバシシ,カナスギチョウ,千葉県船橋市金杉町
2730855,千葉県,船橋市,馬込西,チバケン,フナバシシ,マゴメニシ,千葉県船橋市馬込西
2730861,千葉県,船橋市,米ケ崎町,チバケン,フナバシシ,コメガサキチョウ,千葉県船橋市米ケ崎町
2730862,千葉県,船橋市,駿河台,チバケン,フナバシシ,スルガダイ,千葉県船橋市駿河台
2730863,千葉県,船橋市,東町,チバケン,フナバシシ,アズマチョウ,千葉県船橋市東町
2730864,千葉県,船橋市,北本町,チバケン,フナバシシ,キタホンチョウ,千葉県船橋市北本町
2730865,千葉県,船橋市,夏見,チバケン,フナバシシ,ナツミ,千葉県船橋市夏見
2730866,千葉県,船橋市,夏見台,チバケン,フナバシシ,ナツミダイ,千葉県船橋市夏見台
2730867,千葉県,船橋市,夏見町,チバケン,フナバシシ,ナツミチョウ,千葉県船橋市夏見町
2740051,千葉県,船橋市,車方町,チバケン,フナバシシ,クルマガタチョウ,千葉県船橋市車方町
2740052,千葉県,船橋市,鈴身町,チバケン,フナバシシ,スズミチョウ,千葉県船橋市鈴身町
2740053,千葉県,船橋市,豊富町,チバケン,フナバシシ,トヨトミチョウ,千葉県船橋市豊富町
2740054,千葉県,船橋市,金堀町,チバケン,フナバシシ,カネホリチョウ,千葉県船橋市金堀町
2740055,千葉県,船橋市,楠が山町,チバケン,フナバシシ,クスガヤマチョウ,千葉県船橋市楠が山町
2740056,千葉県,船橋市,神保町,チバケン,フナバシシ,ジンボウチョウ,千葉県船橋市神保町
2740060,千葉県,船橋市,坪井東,チバケン,フナバシシ,ツボイヒガシ,千葉県船橋市坪井東
2740061,千葉県,船橋市,古和釜町,チバケン,フナバシシ,コワガマチョウ,千葉県船橋市古和釜町
2740062,千葉県,船橋市,坪井町,チバケン,フナバシシ,ツボイチョウ,千葉県船橋市坪井町
2740063,千葉県,船橋市,習志野台,チバケン,フナバシシ,ナラシノダイ,千葉県船橋市習志野台
2740064,千葉県,船橋市,松が丘,チバケン,フナバシシ,マツガオカ,千葉県船橋市松が丘
2740065,千葉県,船橋市,高根台,チバケン,フナバシシ,タカネダイ,千葉県船橋市高根台
2740066,千葉県,船橋市,大穴町,チバケン,フナバシシ,オオアナチョウ,千葉県船橋市大穴町
2740067,千葉県,船橋市,大穴南,チバケン,フナバシシ,オオアナミナミ,千葉県船橋市大穴南
2740068,千葉県,船橋市,大穴北,チバケン,フナバシシ,オオアナキタ,千葉県船橋市大穴北
2740069,千葉県,船橋市,坪井西,チバケン,フナバシシ,ツボイニシ,千葉県船橋市坪井西
2740071,千葉県,船橋市,習志野,チバケン,フナバシシ,ナラシノ,千葉県船橋市習志野
2740072,千葉県,船橋市,三山,チバケン,フナバシシ,ミヤマ,千葉県船橋市三山
2740073,千葉県,船橋市,田喜野井,チバケン,フナバシシ,タキノイ,千葉県船橋市田喜野井
2740074,千葉県,船橋市,滝台,チバケン,フナバシシ,タキダイ,千葉県船橋市滝台
2740075,千葉県,船橋市,滝台町,チバケン,フナバシシ,タキダイチョウ,千葉県船橋市滝台町
2740076,千葉県,船橋市,薬園台町,チバケン,フナバシシ,ヤクエンダイチョウ,千葉県船橋市薬園台町
2740077,千葉県,船橋市,薬円台,チバケン,フナバシシ,ヤクエンダイ,千葉県船橋市薬円台
2740081,千葉県,船橋市,小野田町,チバケン,フナバシシ,コノダチョウ,千葉県船橋市小野田町
2740082,千葉県,船橋市,大神保町,チバケン,フナバシシ,オオジンボウチョウ,千葉県船橋市大神保町
2740801,千葉県,船橋市,高野台,チバケン,フナバシシ,コウヤダイ,千葉県船橋市高野台
2740802,千葉県,船橋市,八木が谷,チバケン,フナバシシ,ヤキガヤ,千葉県船橋市八木が谷
2740803,千葉県,船橋市,八木が谷町,チバケン,フナバシシ,ヤキガヤチョウ,千葉県船橋市八木が谷町
2740804,千葉県,船橋市,みやぎ台,チバケン,フナバシシ,ミヤギダイ,千葉県船橋市みやぎ台
2740805,千葉県,船橋市,二和東,チバケン,フナバシシ,フタワヒガシ,千葉県船橋市二和東
2740806,千葉県,船橋市,二和西,チバケン,フナバシシ,フタワニシ,千葉県船橋市二和西
2740807,千葉県,船橋市,咲が丘,チバケン,フナバシシ,サキガオカ,千葉県船橋市咲が丘
2740811,千葉県,船橋市,三咲町,チバケン,フナバシシ,ミサキチョウ,千葉県船橋市三咲町
2740812,千葉県,船橋市,三咲,チバケン,フナバシシ,ミサキ,千葉県船橋市三咲
2740813,千葉県,船橋市,南三咲,チバケン,フナバシシ,ミナミミサキ,千葉県船橋市南三咲
2740814,千葉県,船橋市,新高根,チバケン,フナバシシ,シンタカネ,千葉県船橋市新高根
2740815,千葉県,船橋市,西習志野,チバケン,フナバシシ,ニシナラシノ,千葉県船橋市西習志野
2740816,千葉県,船橋市,芝山,チバケン,フナバシシ,シバヤマ,千葉県船橋市芝山
2740817,千葉県,船橋市,高根町,チバケン,フナバシシ,タカネチョウ,千葉県船橋市高根町
2740818,千葉県,船橋市,緑台,チバケン,フナバシシ,ミドリダイ,千葉県船橋市緑台
2740821,千葉県,船橋市,七林町,チバケン,フナバシシ,ナナバヤシチョウ,千葉県船橋市七林町
2740822,千葉県,船橋市,飯山満町,チバケン,フナバシシ,ハサマチョウ,千葉県船橋市飯山満町
2740823,千葉県,船橋市,二宮,チバケン,フナバシシ,ニノミヤ,千葉県船橋市二宮
2740824,千葉県,船橋市,前原東,チバケン,フナバシシ,マエバラヒガシ,千葉県船橋市前原東
2740825,千葉県,船橋市,前原西,チバケン,フナバシシ,マエバラニシ,千葉県船橋市前原西
2740826,千葉県,船橋市,中野木,チバケン,フナバシシ,ナカノキ,千葉県船橋市中野木
2750000,千葉県,習志野市,,チバケン,ナラシノシ,,千葉県習志野市
2750001,千葉県,習志野市,東習志野,チバケン,ナラシノシ,ヒガシナラシノ,千葉県習志野市東習志野
2750002,千葉県,習志野市,実籾,チバケン,ナラシノシ,ミモミ,千葉県習志野市実籾
2750003,千葉県,習志野市,実籾本郷,チバケン,ナラシノシ,ミモミホンゴウ,千葉県習志野市実籾本郷
2750004,千葉県,習志野市,屋敷,チバケン,ナラシノシ,ヤシキ,千葉県習志野市屋敷
2750005,千葉県,習志野市,新栄,チバケン,ナラシノシ,シンエイ,千葉県習志野市新栄
2750006,千葉県,習志野市,泉町,チバケン,ナラシノシ,イズミチョウ,千葉県習志野市泉町
2750011,千葉県,習志野市,大久保,チバケン,ナラシノシ,オオクボ,千葉県習志野市大久保
2750012,千葉県,習志野市,本大久保,チバケン,ナラシノシ,モトオオクボ,千葉県習志野市本大久保
2750013,千葉県,習志野市,花咲,チバケン,ナラシノシ,ハナサキ,千葉県習志野市花咲
2750014,千葉県,習志野市,鷺沼,チバケン,ナラシノシ,サギヌマ,千葉県習志野市鷺沼
2750015,千葉県,習志野市,鷺沼台,チバケン,ナラシノシ,サギヌマダイ,千葉県習志野市鷺沼台
2750016,千葉県,習志野市,津田沼,チバケン,ナラシノシ,ツダヌマ,千葉県習志野市津田沼
2750017,千葉県,習志野市,藤崎,チバケン,ナラシノシ,フジサキ,千葉県習志野市藤崎
2750021,千葉県,習志野市,袖ケ浦,チバケン,ナラシノシ,ソデガウラ,千葉県習志野市袖ケ浦
2750022,千葉県,習志野市,香澄,チバケン,ナラシノシ,カスミ,千葉県習志野市香澄
2750023,千葉県,習志野市,芝園,チバケン,ナラシノシ,シバゾノ,千葉県習志野市芝園
2750024,千葉県,習志野市,茜浜,チバケン,ナラシノシ,アカネハマ,千葉県習志野市茜浜
2750025,千葉県,習志野市,秋津,チバケン,ナラシノシ,アキツ,千葉県習志野市秋津
2750026,千葉県,習志野市,谷津,チバケン,ナラシノシ,ヤツ,千葉県習志野市谷津
2750027,千葉県,習志野市,谷津町,チバケン,ナラシノシ,ヤツマチ,千葉県習志野市谷津町
2750028,千葉県,習志野市,奏の杜,チバケン,ナラシノシ,カナデノモリ,千葉県習志野市奏の杜
2760000,千葉県,八千代市,,チバケン,ヤチヨシ,,千葉県八千代市
2760001,千葉県,八千代市,小池,チバケン,ヤチヨシ,コイケ,千葉県八千代市小池
2760002,千葉県,八千代市,真木野,チバケン,ヤチヨシ,マキノ,千葉県八千代市真木野
2760003,千葉県,八千代市,大学町,チバケン,ヤチヨシ,ダイガクチョウ,千葉県八千代市大学町
2760004,千葉県,八千代市,島田台,チバケン,ヤチヨシ,シマダダイ,千葉県八千代市島田台
2760005,千葉県,八千代市,島田,チバケン,ヤチヨシ,シマダ,千葉県八千代市島田
2760006,千葉県,八千代市,桑納,チバケン,ヤチヨシ,カンノウ,千葉県八千代市桑納
2760007,千葉県,八千代市,桑橋,チバケン,ヤチヨシ,ソウノハシ,千葉県八千代市桑橋
2760008,千葉県,八千代市,神久保,チバケン,ヤチヨシ,イモノクボ,千葉県八千代市神久保
2760011,千葉県,八千代市,佐山,チバケン,ヤチヨシ,サヤマ,千葉県八千代市佐山
2760012,千葉県,八千代市,堀の内,チバケン,ヤチヨシ,ホリノウチ,千葉県八千代市堀の内
2760013,千葉県,八千代市,保品,チバケン,ヤチヨシ,ホシナ,千葉県八千代市保品
2760014,千葉県,八千代市,米本（米本団地）,チバケン,ヤチヨシ,ヨナモト(ヨナモトダンチ),千葉県八千代市米本（米本団地）
2760015,千葉県,八千代市,米本（その他）,チバケン,ヤチヨシ,ヨナモト(ソノタ),千葉県八千代市米本（その他）
2760016,千葉県,八千代市,神野,チバケン,ヤチヨシ,カノ,千葉県八千代市神野
2760017,千葉県,八千代市,平戸,チバケン,ヤチヨシ,ヒラト,千葉県八千代市平戸
2760020,千葉県,八千代市,勝田台北,チバケン,ヤチヨシ,カツタダイキタ,千葉県八千代市勝田台北
2760021,千葉県,八千代市,下高野,チバケン,ヤチヨシ,シモコウヤ,千葉県八千代市下高野
2760022,千葉県,八千代市,上高野,チバケン,ヤチヨシ,カミコウヤ,千葉県八千代市上高野
2760023,千葉県,八千代市,勝田台,チバケン,ヤチヨシ,カツタダイ,千葉県八千代市勝田台
2760024,千葉県,八千代市,勝田,チバケン,ヤチヨシ,カツタ,千葉県八千代市勝田
2760025,千葉県,八千代市,勝田台南,チバケン,ヤチヨシ,カツタダイミナミ,千葉県八千代市勝田台南
2760026,千葉県,八千代市,下市場,チバケン,ヤチヨシ,シモイチバ,千葉県八千代市下市場
2760027,千葉県,八千代市,村上（村上団地）,チバケン,ヤチヨシ,ムラカミ(ムラカミダンチ),千葉県八千代市村上（村上団地）
2760028,千葉県,八千代市,村上（その他）,チバケン,ヤチヨシ,ムラカミ(ソノタ),千葉県八千代市村上（その他）
2760029,千葉県,八千代市,村上南,チバケン,ヤチヨシ,ムラカミミナミ,千葉県八千代市村上南
2760031,千葉県,八千代市,八千代台北,チバケン,ヤチヨシ,ヤチヨダイキタ,千葉県八千代市八千代台北
2760032,千葉県,八千代市,八千代台東,チバケン,ヤチヨシ,ヤチヨダイヒガシ,千葉県八千代市八千代台東
2760033,千葉県,八千代市,八千代台南,チバケン,ヤチヨシ,ヤチヨダイミナミ,千葉県八千代市八千代台南
2760034,千葉県,八千代市,八千代台西,チバケン,ヤチヨシ,ヤチヨダイニシ,千葉県八千代市八千代台西
2760035,千葉県,八千代市,大和田新田（高津団地）,チバケン,ヤチヨシ,オオワダシンデン(タカヅダンチ),千葉県八千代市大和田新田（高津団地）
2760035,千葉県,八千代市,高津（高津団地）,チバケン,ヤチヨシ,タカヅ(タカヅダンチ),千葉県八千代市高津（高津団地）
2760036,千葉県,八千代市,高津（その他）,チバケン,ヤチヨシ,タカヅ(ソノタ),千葉県八千代市高津（その他）
2760037,千葉県,八千代市,高津東,チバケン,ヤチヨシ,タカヅヒガシ,千葉県八千代市高津東
2760040,千葉県,八千代市,緑が丘西,チバケン,ヤチヨシ,ミドリガオカニシ,千葉県八千代市緑が丘西
2760041,千葉県,八千代市,麦丸,チバケン,ヤチヨシ,ムギマル,千葉県八千代市麦丸
2760042,千葉県,八千代市,ゆりのき台,チバケン,ヤチヨシ,ユリノキダイ,千葉県八千代市ゆりのき台
2760043,千葉県,八千代市,萱田,チバケン,ヤチヨシ,カヤダ,千葉県八千代市萱田
2760044,千葉県,八千代市,萱田町,チバケン,ヤチヨシ,カヤダマチ,千葉県八千代市萱田町
2760045,千葉県,八千代市,大和田,チバケン,ヤチヨシ,オオワダ,千葉県八千代市大和田
2760046,千葉県,八千代市,大和田新田（その他）,チバケン,ヤチヨシ,オオワダシンデン(ソノタ),千葉県八千代市大和田新田（その他）
2760047,千葉県,八千代市,吉橋,チバケン,ヤチヨシ,ヨシハシ,千葉県八千代市吉橋
2760048,千葉県,八千代市,尾崎,チバケン,ヤチヨシ,オサキ,千葉県八千代市尾崎
2760049,千葉県,八千代市,緑が丘,チバケン,ヤチヨシ,ミドリガオカ,千葉県八千代市緑が丘
2770000,千葉県,柏市,,チバケン,カシワシ,,千葉県柏市
2770001,千葉県,柏市,呼塚新田,チバケン,カシワシ,ヨバツカシンデン,千葉県柏市呼塚新田
2770002,千葉県,柏市,呼塚,チバケン,カシワシ,ヨバツカ,千葉県柏市呼塚
2770003,千葉県,柏市,柏堀之内新田,チバケン,カシワシ,カシワホリノウチシンデン,千葉県柏市柏堀之内新田
2770004,千葉県,柏市,柏下,チバケン,カシワシ,カシワシタ,千葉県柏市柏下
2770005,千葉県,柏市,柏,チバケン,カシワシ,カシワ,千葉県柏市柏
2770006,千葉県,柏市,柏中村下,チバケン,カシワシ,カシワナカムラシタ,千葉県柏市柏中村下
2770007,千葉県,柏市,戸張新田,チバケン,カシワシ,トバリシンデン,千葉県柏市戸張新田
2770008,千葉県,柏市,戸張,チバケン,カシワシ,トバリ,千葉県柏市戸張
2770011,千葉県,柏市,東上町,チバケン,カシワシ,アズマカミチョウ,千葉県柏市東上町
2770012,千葉県,柏市,桜台,チバケン,カシワシ,サクラダイ,千葉県柏市桜台
2770013,千葉県,柏市,東台本町,チバケン,カシワシ,アズマダイホンチョウ,千葉県柏市東台本町
2770014,千葉県,柏市,東,チバケン,カシワシ,アズマ,千葉県柏市東
2770015,千葉県,柏市,弥生町,チバケン,カシワシ,ヤヨイチョウ,千葉県柏市弥生町
2770016,千葉県,柏市,八幡町,チバケン,カシワシ,ハチマンチョウ,千葉県柏市八幡町
2770017,千葉県,柏市,東柏,チバケン,カシワシ,ヒガシカシワ,千葉県柏市東柏
2770021,千葉県,柏市,中央町,チバケン,カシワシ,チュウオウチョウ,千葉県柏市中央町
2770022,千葉県,柏市,泉町,チバケン,カシワシ,イズミチョウ,千葉県柏市泉町
2770023,千葉県,柏市,中央,チバケン,カシワシ,チュウオウ,千葉県柏市中央
2770024,千葉県,柏市,若葉町,チバケン,カシワシ,ワカバチョウ,千葉県柏市若葉町
2770025,千葉県,柏市,千代田,チバケン,カシワシ,チヨダ,千葉県柏市千代田
2770026,千葉県,柏市,大塚町,チバケン,カシワシ,オオツカチョウ,千葉県柏市大塚町
2770027,千葉県,柏市,あかね町,チバケン,カシワシ,アカネチョウ,千葉県柏市あかね町
2770028,千葉県,柏市,関場町,チバケン,カシワシ,セキバチョウ,千葉県柏市関場町
2770031,千葉県,柏市,亀甲台町,チバケン,カシワシ,キッコウダイチョウ,千葉県柏市亀甲台町
2770032,千葉県,柏市,名戸ケ谷,チバケン,カシワシ,ナドガヤ,千葉県柏市名戸ケ谷
2770033,千葉県,柏市,増尾,チバケン,カシワシ,マスオ,千葉県柏市増尾
2770034,千葉県,柏市,藤心,チバケン,カシワシ,フジゴコロ,千葉県柏市藤心
2770041,千葉県,柏市,逆井藤ノ台,チバケン,カシワシ,サカサイフジノダイ,千葉県柏市逆井藤ノ台
2770042,千葉県,柏市,逆井,チバケン,カシワシ,サカサイ,千葉県柏市逆井
2770043,千葉県,柏市,南逆井,チバケン,カシワシ,ミナミサカサイ,千葉県柏市南逆井
2770044,千葉県,柏市,新逆井,チバケン,カシワシ,シンサカサイ,千葉県柏市新逆井
2770045,千葉県,柏市,東逆井,チバケン,カシワシ,ヒガシサカサイ,千葉県柏市東逆井
2770051,千葉県,柏市,加賀,チバケン,カシワシ,カガ,千葉県柏市加賀
2770052,千葉県,柏市,増尾台,チバケン,カシワシ,マスオダイ,千葉県柏市増尾台
2770053,千葉県,柏市,酒井根,チバケン,カシワシ,サカイネ,千葉県柏市酒井根
2770054,千葉県,柏市,南増尾,チバケン,カシワシ,ミナミマスオ,千葉県柏市南増尾
2770055,千葉県,柏市,青葉台,チバケン,カシワシ,アオバダイ,千葉県柏市青葉台
2770061,千葉県,柏市,東中新宿,チバケン,カシワシ,ヒガシナカシンジュク,千葉県柏市東中新宿
2770062,千葉県,柏市,光ケ丘団地,チバケン,カシワシ,ヒカリガオカダンチ,千葉県柏市光ケ丘団地
2770063,千葉県,柏市,西山,チバケン,カシワシ,ニシヤマ,千葉県柏市西山
2770064,千葉県,柏市,東山,チバケン,カシワシ,ヒガシヤマ,千葉県柏市東山
2770065,千葉県,柏市,光ケ丘,チバケン,カシワシ,ヒカリガオカ,千葉県柏市光ケ丘
2770066,千葉県,柏市,中新宿,チバケン,カシワシ,ナカシンジュク,千葉県柏市中新宿
2770071,千葉県,柏市,豊住,チバケン,カシワシ,トヨスミ,千葉県柏市豊住
2770072,千葉県,柏市,つくしが丘,チバケン,カシワシ,ツクシガオカ,千葉県柏市つくしが丘
2770073,千葉県,柏市,今谷南町,チバケン,カシワシ,イマヤミナミチョウ,千葉県柏市今谷南町
2770074,千葉県,柏市,今谷上町,チバケン,カシワシ,イマヤカミチョウ,千葉県柏市今谷上町
2770075,千葉県,柏市,南柏中央,チバケン,カシワシ,ミナミカシワチュウオウ,千葉県柏市南柏中央
2770081,千葉県,柏市,富里,チバケン,カシワシ,トミサト,千葉県柏市富里
2770082,千葉県,柏市,緑ケ丘,チバケン,カシワシ,ミドリガオカ,千葉県柏市緑ケ丘
2770083,千葉県,柏市,日立台,チバケン,カシワシ,ヒタチダイ,千葉県柏市日立台
2770084,千葉県,柏市,新柏,チバケン,カシワシ,シンカシワ,千葉県柏市新柏
2770085,千葉県,柏市,中原,チバケン,カシワシ,ナカハラ,千葉県柏市中原
2770086,千葉県,柏市,永楽台,チバケン,カシワシ,エイラクダイ,千葉県柏市永楽台
2770087,千葉県,柏市,常盤台,チバケン,カシワシ,トキワダイ,千葉県柏市常盤台
2770088,千葉県,柏市,ひばりが丘,チバケン,カシワシ,ヒバリガオカ,千葉県柏市ひばりが丘
2770801,千葉県,柏市,船戸山高野,チバケン,カシワシ,フナトヤマゴウヤ,千葉県柏市船戸山高野
2770802,千葉県,柏市,船戸,チバケン,カシワシ,フナト,千葉県柏市船戸
2770803,千葉県,柏市,小青田,チバケン,カシワシ,コアオタ,千葉県柏市小青田
2770804,千葉県,柏市,新十余二,チバケン,カシワシ,シントヨフタ,千葉県柏市新十余二
2770805,千葉県,柏市,大青田,チバケン,カシワシ,オオアオタ,千葉県柏市大青田
2770806,千葉県,柏市,柏インター東,チバケン,カシワシ,カシワインターヒガシ,千葉県柏市柏インター東
2770811,千葉県,柏市,上利根,チバケン,カシワシ,カミトネ,千葉県柏市上利根
2770812,千葉県,柏市,花野井,チバケン,カシワシ,ハナノイ,千葉県柏市花野井
2770813,千葉県,柏市,大室,チバケン,カシワシ,オオムロ,千葉県柏市大室
2770814,千葉県,柏市,正連寺,チバケン,カシワシ,ショウレンジ,千葉県柏市正連寺
2770821,千葉県,柏市,弁天下,チバケン,カシワシ,ベンテンシタ,千葉県柏市弁天下
2770822,千葉県,柏市,布施下,チバケン,カシワシ,フセシタ,千葉県柏市布施下
2770823,千葉県,柏市,布施新町,チバケン,カシワシ,フセシンマチ,千葉県柏市布施新町
2770824,千葉県,柏市,布施新田,チバケン,カシワシ,フセシンデン,千葉県柏市布施新田
2770825,千葉県,柏市,布施,チバケン,カシワシ,フセ,千葉県柏市布施
2770826,千葉県,柏市,宿連寺,チバケン,カシワシ,シュクレンジ,千葉県柏市宿連寺
2770827,千葉県,柏市,松葉町,チバケン,カシワシ,マツバチョウ,千葉県柏市松葉町
2770831,千葉県,柏市,根戸,チバケン,カシワシ,ネド,千葉県柏市根戸
2770832,千葉県,柏市,北柏,チバケン,カシワシ,キタカシワ,千葉県柏市北柏
2770833,千葉県,柏市,根戸新田,チバケン,カシワシ,ネドシンデン,千葉県柏市根戸新田
2770834,千葉県,柏市,松ケ崎新田,チバケン,カシワシ,マツガサキシンデン,千葉県柏市松ケ崎新田
2770835,千葉県,柏市,松ケ崎,チバケン,カシワシ,マツガサキ,千葉県柏市松ケ崎
2770836,千葉県,柏市,北柏台,チバケン,カシワシ,キタカシワダイ,千葉県柏市北柏台
2770837,千葉県,柏市,大山台,チバケン,カシワシ,オオヤマダイ,千葉県柏市大山台
2770841,千葉県,柏市,あけぼの,チバケン,カシワシ,アケボノ,千葉県柏市あけぼの
2770842,千葉県,柏市,末広町,チバケン,カシワシ,スエヒロチョウ,千葉県柏市末広町
2770843,千葉県,柏市,明原,チバケン,カシワシ,アケハラ,千葉県柏市明原
2770844,千葉県,柏市,西町,チバケン,カシワシ,ニシチョウ,千葉県柏市西町
2770845,千葉県,柏市,豊四季台,チバケン,カシワシ,トヨシキダイ,千葉県柏市豊四季台
2770846,千葉県,柏市,かやの町,チバケン,カシワシ,カヤノチョウ,千葉県柏市かやの町
2770851,千葉県,柏市,向原町,チバケン,カシワシ,ムカイハラチョウ,千葉県柏市向原町
2770852,千葉県,柏市,旭町,チバケン,カシワシ,アサヒチョウ,千葉県柏市旭町
2770853,千葉県,柏市,吉野沢,チバケン,カシワシ,ヨシノザワ,千葉県柏市吉野沢
2770854,千葉県,柏市,豊町,チバケン,カシワシ,ユタカチョウ,千葉県柏市豊町
2770855,千葉県,柏市,南柏,チバケン,カシワシ,ミナミカシワ,千葉県柏市南柏
2770856,千葉県,柏市,新富町,チバケン,カシワシ,シントミチョウ,千葉県柏市新富町
2770857,千葉県,柏市,豊平町,チバケン,カシワシ,トヨヒラチョウ,千葉県柏市豊平町
2770858,千葉県,柏市,豊上町,チバケン,カシワシ,トヨガミチョウ,千葉県柏市豊上町
2770861,千葉県,柏市,高田,チバケン,カシワシ,タカタ,千葉県柏市高田
2770862,千葉県,柏市,篠籠田,チバケン,カシワシ,シコダ,千葉県柏市篠籠田
2770863,千葉県,柏市,豊四季,チバケン,カシワシ,トヨシキ,千葉県柏市豊四季
2770871,千葉県,柏市,若柴,チバケン,カシワシ,ワカシバ,千葉県柏市若柴
2770872,千葉県,柏市,十余二,チバケン,カシワシ,トヨフタ,千葉県柏市十余二
2770873,千葉県,柏市,中十余二,チバケン,カシワシ,ナカトヨフタ,千葉県柏市中十余二
2770874,千葉県,柏市,柏インター南,チバケン,カシワシ,カシワインターミナミ,千葉県柏市柏インター南
2770881,千葉県,柏市,青田新田飛地,チバケン,カシワシ,アオタシンデントビチ,千葉県柏市青田新田飛地
2770882,千葉県,柏市,柏の葉,チバケン,カシワシ,カシワノハ,千葉県柏市柏の葉
2770883,千葉県,柏市,伊勢原,チバケン,カシワシ,イセハラ,千葉県柏市伊勢原
2770884,千葉県,柏市,みどり台,チバケン,カシワシ,ミドリダイ,千葉県柏市みどり台
2770885,千葉県,柏市,西原,チバケン,カシワシ,ニシハラ,千葉県柏市西原
2770886,千葉県,柏市,西柏台,チバケン,カシワシ,ニシカシワダイ,千葉県柏市西柏台
2770901,千葉県,柏市,大井新田,チバケン,カシワシ,オオイシンデン,千葉県柏市大井新田
2770902,千葉県,柏市,大井,チバケン,カシワシ,オオイ,千葉県柏市大井
2770903,千葉県,柏市,緑台,チバケン,カシワシ,ミドリダイ,千葉県柏市緑台
2770911,千葉県,柏市,箕輪新田,チバケン,カシワシ,ミノワシンデン,千葉県柏市箕輪新田
2770912,千葉県,柏市,箕輪,チバケン,カシワシ,ミノワ,千葉県柏市箕輪
2770913,千葉県,柏市,五條谷,チバケン,カシワシ,ゴジョウヤ,千葉県柏市五條谷
2770921,千葉県,柏市,大津ケ丘,チバケン,カシワシ,オオツガオカ,千葉県柏市大津ケ丘
2770922,千葉県,柏市,大島田,チバケン,カシワシ,オオシマタ,千葉県柏市大島田
2770923,千葉県,柏市,塚崎,チバケン,カシワシ,ツカザキ,千葉県柏市塚崎
2770924,千葉県,柏市,風早,チバケン,カシワシ,カザハヤ,千葉県柏市風早
2770931,千葉県,柏市,藤ケ谷,チバケン,カシワシ,フジガヤ,千葉県柏市藤ケ谷
2770932,千葉県,柏市,藤ケ谷新田,チバケン,カシワシ,フジガヤシンデン,千葉県柏市藤ケ谷新田
2770941,千葉県,柏市,高柳,チバケン,カシワシ,タカヤナギ,千葉県柏市高柳
2770942,千葉県,柏市,高南台,チバケン,カシワシ,コウナンダイ,千葉県柏市高南台
2770943,千葉県,柏市,高柳新田,チバケン,カシワシ,タカヤナギシンデン,千葉県柏市高柳新田
2770944,千葉県,柏市,南高柳,チバケン,カシワシ,ミナミタカヤナギ,千葉県柏市南高柳
2770945,千葉県,柏市,しいの木台,チバケン,カシワシ,シイノキダイ,千葉県柏市しいの木台
2780000,千葉県,野田市,,チバケン,ノダシ,,千葉県野田市
2780001,千葉県,野田市,目吹,チバケン,ノダシ,メフキ,千葉県野田市目吹
2780002,千葉県,野田市,木野崎,チバケン,ノダシ,キノサキ,千葉県野田市木野崎
2780003,千葉県,野田市,鶴奉,チバケン,ノダシ,ツルホウ,千葉県野田市鶴奉
2780004,千葉県,野田市,横内,チバケン,ノダシ,ヨコウチ,千葉県野田市横内
2780005,千葉県,野田市,宮崎,チバケン,ノダシ,ミヤザキ,千葉県野田市宮崎
2780006,千葉県,野田市,柳沢,チバケン,ノダシ,ヤナギサワ,千葉県野田市柳沢
2780007,千葉県,野田市,金杉,チバケン,ノダシ,カナスギ,千葉県野田市金杉
2780011,千葉県,野田市,三ツ堀,チバケン,ノダシ,ミツボリ,千葉県野田市三ツ堀
2780012,千葉県,野田市,瀬戸,チバケン,ノダシ,セト,千葉県野田市瀬戸
2780013,千葉県,野田市,上三ケ尾,チバケン,ノダシ,カミサンガオ,千葉県野田市上三ケ尾
2780014,千葉県,野田市,下三ケ尾,チバケン,ノダシ,シモサンガオ,千葉県野田市下三ケ尾
2780015,千葉県,野田市,西三ケ尾,チバケン,ノダシ,ニシサンガオ,千葉県野田市西三ケ尾
2780016,千葉県,野田市,二ツ塚,チバケン,ノダシ,フタツカ,千葉県野田市二ツ塚
2780017,千葉県,野田市,大殿井,チバケン,ノダシ,オオドノイ,千葉県野田市大殿井
2780021,千葉県,野田市,堤根,チバケン,ノダシ,ツツミネ,千葉県野田市堤根
2780022,千葉県,野田市,山崎,チバケン,ノダシ,ヤマザキ,千葉県野田市山崎
2780023,千葉県,野田市,山崎貝塚町,チバケン,ノダシ,ヤマザキカイヅカチョウ,千葉県野田市山崎貝塚町
2780024,千葉県,野田市,山崎梅の台,チバケン,ノダシ,ヤマザキウメノダイ,千葉県野田市山崎梅の台
2780025,千葉県,野田市,今上,チバケン,ノダシ,イマガミ,千葉県野田市今上
2780026,千葉県,野田市,花井,チバケン,ノダシ,ハナイ,千葉県野田市花井
2780027,千葉県,野田市,みずき,チバケン,ノダシ,ミズキ,千葉県野田市みずき
2780028,千葉県,野田市,桜木,チバケン,ノダシ,サクラギ,千葉県野田市桜木
2780029,千葉県,野田市,山崎新町,チバケン,ノダシ,ヤマザキシンマチ,千葉県野田市山崎新町
2780031,千葉県,野田市,中根,チバケン,ノダシ,ナカネ,千葉県野田市中根
2780032,千葉県,野田市,桜台,チバケン,ノダシ,サクラダイ,千葉県野田市桜台
2780033,千葉県,野田市,上花輪,チバケン,ノダシ,カミハナワ,千葉県野田市上花輪
2780034,千葉県,野田市,上花輪新町,チバケン,ノダシ,カミハナワシンマチ,千葉県野田市上花輪新町
2780035,千葉県,野田市,中野台,チバケン,ノダシ,ナカノダイ,千葉県野田市中野台
2780036,千葉県,野田市,中野台鹿島町,チバケン,ノダシ,ナカノダイカシマチョウ,千葉県野田市中野台鹿島町
2780037,千葉県,野田市,野田,チバケン,ノダシ,ノダ,千葉県野田市野田
2780038,千葉県,野田市,つつみ野,チバケン,ノダシ,ツツミノ,千葉県野田市つつみ野
2780041,千葉県,野田市,蕃昌,チバケン,ノダシ,バンショウ,千葉県野田市蕃昌
2780042,千葉県,野田市,吉春,チバケン,ノダシ,ヨシハル,千葉県野田市吉春
2780043,千葉県,野田市,清水,チバケン,ノダシ,シミズ,千葉県野田市清水
2780044,千葉県,野田市,堤台,チバケン,ノダシ,ツツミダイ,千葉県野田市堤台
2780045,千葉県,野田市,座生,チバケン,ノダシ,ザオウ,千葉県野田市座生
2780046,千葉県,野田市,谷津,チバケン,ノダシ,ヤツ,千葉県野田市谷津
2780047,千葉県,野田市,清水公園東,チバケン,ノダシ,シミズコウエンヒガシ,千葉県野田市清水公園東
2780048,千葉県,野田市,桜の里,チバケン,ノダシ,サクラノサト,千葉県野田市桜の里
2780051,千葉県,野田市,七光台,チバケン,ノダシ,ナナコウダイ,千葉県野田市七光台
2780052,千葉県,野田市,春日町,チバケン,ノダシ,カスガチョウ,千葉県野田市春日町
2780053,千葉県,野田市,五木新町,チバケン,ノダシ,ゴキシンマチ,千葉県野田市五木新町
2780054,千葉県,野田市,五木,チバケン,ノダシ,ゴキ,千葉県野田市五木
2780055,千葉県,野田市,岩名,チバケン,ノダシ,イワナ,千葉県野田市岩名
2780056,千葉県,野田市,五木新田,チバケン,ノダシ,ゴキシンデン,千葉県野田市五木新田
2780057,千葉県,野田市,光葉町,チバケン,ノダシ,コウヨウチョウ,千葉県野田市光葉町
2790000,千葉県,浦安市,,チバケン,ウラヤスシ,,千葉県浦安市
2790001,千葉県,浦安市,当代島,チバケン,ウラヤスシ,トウダイジマ,千葉県浦安市当代島
2790002,千葉県,浦安市,北栄,チバケン,ウラヤスシ,キタザカエ,千葉県浦安市北栄
2790003,千葉県,浦安市,海楽,チバケン,ウラヤスシ,カイラク,千葉県浦安市海楽
2790004,千葉県,浦安市,猫実,チバケン,ウラヤスシ,ネコザネ,千葉県浦安市猫実
2790011,千葉県,浦安市,美浜,チバケン,ウラヤスシ,ミハマ,千葉県浦安市美浜
2790012,千葉県,浦安市,入船,チバケン,ウラヤスシ,イリフネ,千葉県浦安市入船
2790013,千葉県,浦安市,日の出,チバケン,ウラヤスシ,ヒノデ,千葉県浦安市日の出
2790014,千葉県,浦安市,明海,チバケン,ウラヤスシ,アケミ,千葉県浦安市明海
2790021,千葉県,浦安市,富岡,チバケン,ウラヤスシ,トミオカ,千葉県浦安市富岡
2790022,千葉県,浦安市,今川,チバケン,ウラヤスシ,イマガワ,千葉県浦安市今川
2790023,千葉県,浦安市,高洲,チバケン,ウラヤスシ,タカス,千葉県浦安市高洲
2790024,千葉県,浦安市,港,チバケン,ウラヤスシ,ミナト,千葉県浦安市港
2790025,千葉県,浦安市,鉄鋼通り,チバケン,ウラヤスシ,テッコウドオリ,千葉県浦安市鉄鋼通り
2790026,千葉県,浦安市,弁天,チバケン,ウラヤスシ,ベンテン,千葉県浦安市弁天
2790031,千葉県,浦安市,舞浜,チバケン,ウラヤスシ,マイハマ,千葉県浦安市舞浜
2790032,千葉県,浦安市,千鳥,チバケン,ウラヤスシ,チドリ,千葉県浦安市千鳥
2790041,千葉県,浦安市,堀江,チバケン,ウラヤスシ,ホリエ,千葉県浦安市堀江
2790042,千葉県,浦安市,東野,チバケン,ウラヤスシ,ヒガシノ,千葉県浦安市東野
2790043,千葉県,浦安市,富士見,チバケン,ウラヤスシ,フジミ,千葉県浦安市富士見
2820001,千葉県,成田市,天浪,チバケン,ナリタシ,テンナミ,千葉県成田市天浪
2820002,千葉県,成田市,天神峰（成田国際空港内）,チバケン,ナリタシ,テンジンミネ(ナリタコクサイクウコウナイ),千葉県成田市天神峰（成田国際空港内）
2820003,千葉県,成田市,東峰（成田国際空港内）,チバケン,ナリタシ,トウホウ(ナリタコクサイクウコウナイ),千葉県成田市東峰（成田国際空港内）
2820004,千葉県,成田市,古込（成田国際空港内）,チバケン,ナリタシ,フルゴメ(ナリタコクサイクウコウナイ),千葉県成田市古込（成田国際空港内）
2820005,千葉県,成田市,木の根（成田国際空港内）,チバケン,ナリタシ,キノネ(ナリタコクサイクウコウナイ),千葉県成田市木の根（成田国際空港内）
2820006,千葉県,成田市,取香（成田国際空港内）,チバケン,ナリタシ,トッコウ(ナリタコクサイクウコウナイ),千葉県成田市取香（成田国際空港内）
2820007,千葉県,成田市,堀之内（成田国際空港内）,チバケン,ナリタシ,ホリノウチ(ナリタコクサイクウコウナイ),千葉県成田市堀之内（成田国際空港内）
2820009,千葉県,成田市,十余三（成田国際空港内）,チバケン,ナリタシ,トヨミ(ナリタコクサイクウコウナイ),千葉県成田市十余三（成田国際空港内）
2820010,千葉県,成田市,吉岡（成田国際空港内）,チバケン,ナリタシ,キチオカ(ナリタコクサイクウコウナイ),千葉県成田市吉岡（成田国際空港内）
2820011,千葉県,成田市,三里塚（御料牧場・成田国際空港内）,チバケン,ナリタシ,サンリヅカ(ゴリョウボクジョウ・ナリタコクサイクウコウナイ),千葉県成田市三里塚（御料牧場・成田国際空港内）
2820012,千葉県,成田市,東三里塚（成田国際空港内）,チバケン,ナリタシ,ヒガシサンリヅカ(ナリタコクサイクウコウナイ),千葉県成田市東三里塚（成田国際空港内）
2820021,千葉県,成田市,駒井野（成田国際空港内）,チバケン,ナリタシ,コマイノ(ナリタコクサイクウコウナイ),千葉県成田市駒井野（成田国際空港内）
2820027,千葉県,成田市,小菅（成田国際空港内）,チバケン,ナリタシ,コスゲ(ナリタコクサイクウコウナイ),千葉県成田市小菅（成田国際空港内）
2820031,千葉県,香取郡多古町,一鍬田（成田国際空港内）,チバケン,カトリグンタコマチ,ヒトクワダ(ナリタコクサイクウコウナイ),千葉県香取郡多古町一鍬田（成田国際空港内）
2820032,千葉県,山武郡芝山町,香山新田（成田国際空港内）,チバケン,サンブグンシバヤママチ,カヤマシンデン(ナリタコクサイクウコウナイ),千葉県山武郡芝山町香山新田（成田国際空港内）
2820033,千葉県,山武郡芝山町,菱田（成田国際空港内）,チバケン,サンブグンシバヤママチ,ヒシダ(ナリタコクサイクウコウナイ),千葉県山武郡芝山町菱田（成田国際空港内）
2820034,千葉県,山武郡芝山町,大里（成田国際空港内）,チバケン,サンブグンシバヤママチ,オオサト(ナリタコクサイクウコウナイ),千葉県山武郡芝山町大里（成田国際空港内）
2820035,千葉県,山武郡芝山町,岩山（成田国際空港内）,チバケン,サンブグンシバヤママチ,イワヤマ(ナリタコクサイクウコウナイ),千葉県山武郡芝山町岩山（成田国際空港内）
2830000,千葉県,東金市,,チバケン,トウガネシ,,千葉県東金市
2830001,千葉県,東金市,家之子,チバケン,トウガネシ,イエノコ,千葉県東金市家之子
2830002,千葉県,東金市,求名,チバケン,トウガネシ,グミョウ,千葉県東金市求名
2830003,千葉県,東金市,道庭,チバケン,トウガネシ,ドウニワ,千葉県東金市道庭
2830004,千葉県,東金市,二又,チバケン,トウガネシ,フタマタ,千葉県東金市二又
2830005,千葉県,東金市,田間,チバケン,トウガネシ,タマ,千葉県東金市田間
2830006,千葉県,東金市,東新宿,チバケン,トウガネシ,ヒガシシンシュク,千葉県東金市東新宿
2830011,千葉県,東金市,上武射田,チバケン,トウガネシ,カミムザタ,千葉県東金市上武射田
2830012,千葉県,東金市,下武射田,チバケン,トウガネシ,シモムザタ,千葉県東金市下武射田
2830013,千葉県,東金市,士農田,チバケン,トウガネシ,シノダ,千葉県東金市士農田
2830014,千葉県,東金市,関内,チバケン,トウガネシ,セキウチ,千葉県東金市関内
2830015,千葉県,東金市,前之内,チバケン,トウガネシ,マエノウチ,千葉県東金市前之内
2830016,千葉県,東金市,菱沼,チバケン,トウガネシ,ヒシヌマ,千葉県東金市菱沼
2830021,千葉県,東金市,東中,チバケン,トウガネシ,ヒガシナカ,千葉県東金市東中
2830022,千葉県,東金市,高倉,チバケン,トウガネシ,タカクラ,千葉県東金市高倉
2830023,千葉県,東金市,宮,チバケン,トウガネシ,ミヤ,千葉県東金市宮
2830024,千葉県,東金市,御門,チバケン,トウガネシ,ミカド,千葉県東金市御門
2830025,千葉県,東金市,殿廻,チバケン,トウガネシ,トノマワリ,千葉県東金市殿廻
2830026,千葉県,東金市,中野,チバケン,トウガネシ,ナカノ,千葉県東金市中野
2830027,千葉県,東金市,堀之内,チバケン,トウガネシ,ホリノウチ,千葉県東金市堀之内
2830028,千葉県,東金市,三浦名,チバケン,トウガネシ,ミウラミョウ,千葉県東金市三浦名
2830031,千葉県,東金市,薄島,チバケン,トウガネシ,ススキシマ,千葉県東金市薄島
2830032,千葉県,東金市,荒生,チバケン,トウガネシ,アラオイ,千葉県東金市荒生
2830033,千葉県,東金市,宿,チバケン,トウガネシ,シュク,千葉県東金市宿
2830034,千葉県,東金市,大沼,チバケン,トウガネシ,オオヌマ,千葉県東金市大沼
2830035,千葉県,東金市,粟生飛地,チバケン,トウガネシ,アオトビチ,千葉県東金市粟生飛地
2830036,千葉県,東金市,不動堂飛地,チバケン,トウガネシ,フドウドウトビチ,千葉県東金市不動堂飛地
2830037,千葉県,東金市,細屋敷,チバケン,トウガネシ,ホソヤシキ,千葉県東金市細屋敷
2830038,千葉県,東金市,関下,チバケン,トウガネシ,セキシタ,千葉県東金市関下
2830041,千葉県,東金市,広瀬,チバケン,トウガネシ,ヒロセ,千葉県東金市広瀬
2830042,千葉県,東金市,西野飛地,チバケン,トウガネシ,ニシノトビチ,千葉県東金市西野飛地
2830043,千葉県,東金市,藤下飛地,チバケン,トウガネシ,フジシタトビチ,千葉県東金市藤下飛地
2830044,千葉県,東金市,小沼田,チバケン,トウガネシ,コヌマタ,千葉県東金市小沼田
2830045,千葉県,東金市,西中,チバケン,トウガネシ,ニシナカ,千葉県東金市西中
2830046,千葉県,東金市,上谷,チバケン,トウガネシ,ウワヤ,千葉県東金市上谷
2830047,千葉県,東金市,北幸谷,チバケン,トウガネシ,キタゴウヤ,千葉県東金市北幸谷
2830048,千葉県,東金市,幸田,チバケン,トウガネシ,コウダ,千葉県東金市幸田
2830051,千葉県,東金市,大沼田,チバケン,トウガネシ,オオヌマタ,千葉県東金市大沼田
2830052,千葉県,東金市,二之袋,チバケン,トウガネシ,ニノフクロ,千葉県東金市二之袋
2830053,千葉県,東金市,東中島,チバケン,トウガネシ,ヒガシナカジマ,千葉県東金市東中島
2830054,千葉県,東金市,下谷,チバケン,トウガネシ,シモヤ,千葉県東金市下谷
2830055,千葉県,東金市,依古島,チバケン,トウガネシ,ヨコジマ,千葉県東金市依古島
2830056,千葉県,東金市,砂古瀬,チバケン,トウガネシ,イサゴゼ,千葉県東金市砂古瀬
2830057,千葉県,東金市,一之袋,チバケン,トウガネシ,イチノフクロ,千葉県東金市一之袋
2830061,千葉県,東金市,北之幸谷,チバケン,トウガネシ,キタノコウヤ,千葉県東金市北之幸谷
2830062,千葉県,東金市,家徳,チバケン,トウガネシ,カトク,千葉県東金市家徳
2830063,千葉県,東金市,堀上,チバケン,トウガネシ,ホリアゲ,千葉県東金市堀上
2830064,千葉県,東金市,川場,チバケン,トウガネシ,カワバ,千葉県東金市川場
2830065,千葉県,東金市,押堀,チバケン,トウガネシ,オシホリ,千葉県東金市押堀
2830066,千葉県,東金市,南上宿,チバケン,トウガネシ,ミナミカミジュク,千葉県東金市南上宿
2830067,千葉県,東金市,東上宿,チバケン,トウガネシ,ヒガシカミジュク,千葉県東金市東上宿
2830068,千葉県,東金市,東岩崎,チバケン,トウガネシ,ヒガシイワサキ,千葉県東金市東岩崎
2830100,千葉県,山武郡九十九里町,,チバケン,サンブグンクジュウクリマチ,,千葉県山武郡九十九里町
2830101,千葉県,山武郡九十九里町,作田,チバケン,サンブグンクジュウクリマチ,サクダ,千葉県山武郡九十九里町作田
2830102,千葉県,山武郡九十九里町,小関,チバケン,サンブグンクジュウクリマチ,コセキ,千葉県山武郡九十九里町小関
2830103,千葉県,山武郡九十九里町,田中荒生,チバケン,サンブグンクジュウクリマチ,タナカアラオイ,千葉県山武郡九十九里町田中荒生
2830104,千葉県,山武郡九十九里町,片貝,チバケン,サンブグンクジュウクリマチ,カタカイ,千葉県山武郡九十九里町片貝
2830105,千葉県,山武郡九十九里町,粟生,チバケン,サンブグンクジュウクリマチ,アオ,千葉県山武郡九十九里町粟生
2830106,千葉県,山武郡九十九里町,宿,チバケン,サンブグンクジュウクリマチ,シュク,千葉県山武郡九十九里町宿
2830107,千葉県,山武郡九十九里町,荒生,チバケン,サンブグンクジュウクリマチ,アラオイ,千葉県山武郡九十九里町荒生
2830111,千葉県,山武郡九十九里町,細屋敷,チバケン,サンブグンクジュウクリマチ,ホソヤシキ,千葉県山武郡九十九里町細屋敷
2830112,千葉県,山武郡九十九里町,藤下,チバケン,サンブグンクジュウクリマチ,フジシタ,千葉県山武郡九十九里町藤下
2830113,千葉県,山武郡九十九里町,不動堂,チバケン,サンブグンクジュウクリマチ,フドウドウ,千葉県山武郡九十九里町不動堂
2830114,千葉県,山武郡九十九里町,真亀,チバケン,サンブグンクジュウクリマチ,マガメ,千葉県山武郡九十九里町真亀
2830115,千葉県,山武郡九十九里町,真亀新田,チバケン,サンブグンクジュウクリマチ,マガメシンデン,千葉県山武郡九十九里町真亀新田
2830116,千葉県,山武郡九十九里町,西野,チバケン,サンブグンクジュウクリマチ,ニシノ,千葉県山武郡九十九里町西野
2830117,千葉県,山武郡九十九里町,下貝塚,チバケン,サンブグンクジュウクリマチ,シモカイヅカ,千葉県山武郡九十九里町下貝塚
2830801,千葉県,東金市,八坂台,チバケン,トウガネシ,ヤサカダイ,千葉県東金市八坂台
2830802,千葉県,東金市,東金,チバケン,トウガネシ,トウガネ,千葉県東金市東金
2830803,千葉県,東金市,日吉台,チバケン,トウガネシ,ヒヨシダイ,千葉県東金市日吉台
2830804,千葉県,東金市,油井,チバケン,トウガネシ,ユイ,千葉県東金市油井
2830805,千葉県,東金市,松之郷,チバケン,トウガネシ,マツノゴウ,千葉県東金市松之郷
2830811,千葉県,東金市,台方,チバケン,トウガネシ,ダイカタ,千葉県東金市台方
2830812,千葉県,東金市,福俵,チバケン,トウガネシ,フクタワラ,千葉県東金市福俵
2830813,千葉県,東金市,山口,チバケン,トウガネシ,ヤマグチ,千葉県東金市山口
2830814,千葉県,東金市,田中,チバケン,トウガネシ,タナカ,千葉県東金市田中
2830815,千葉県,東金市,大豆谷,チバケン,トウガネシ,マメザク,千葉県東金市大豆谷
2830816,千葉県,東金市,西福俵,チバケン,トウガネシ,ニシフクタワラ,千葉県東金市西福俵
2830821,千葉県,東金市,小野,チバケン,トウガネシ,オノ,千葉県東金市小野
2830822,千葉県,東金市,季美の森東,チバケン,トウガネシ,キミノモリヒガシ,千葉県東金市季美の森東
2830823,千葉県,東金市,山田,チバケン,トウガネシ,ヤマダ,千葉県東金市山田
2830824,千葉県,東金市,丹尾,チバケン,トウガネシ,タンノオ,千葉県東金市丹尾
2830825,千葉県,東金市,滝,チバケン,トウガネシ,タキ,千葉県東金市滝
2830826,千葉県,東金市,丘山台,チバケン,トウガネシ,オカヤマダイ,千葉県東金市丘山台
2830831,千葉県,東金市,酒蔵,チバケン,トウガネシ,シュゾウ,千葉県東金市酒蔵
2830832,千葉県,東金市,三ケ尻,チバケン,トウガネシ,ミカジリ,千葉県東金市三ケ尻
2830833,千葉県,東金市,滝沢,チバケン,トウガネシ,タキサワ,千葉県東金市滝沢
2830834,千葉県,東金市,上布田,チバケン,トウガネシ,カミフダ,千葉県東金市上布田
2830835,千葉県,東金市,極楽寺,チバケン,トウガネシ,ゴクラクジ,千葉県東金市極楽寺
2840000,千葉県,四街道市,,チバケン,ヨツカイドウシ,,千葉県四街道市
2840001,千葉県,四街道市,大日,チバケン,ヨツカイドウシ,ダイニチ,千葉県四街道市大日
2840002,千葉県,四街道市,萱橋,チバケン,ヨツカイドウシ,カヤハシ,千葉県四街道市萱橋
2840003,千葉県,四街道市,鹿渡,チバケン,ヨツカイドウシ,シカワタシ,千葉県四街道市鹿渡
2840004,千葉県,四街道市,みのり町,チバケン,ヨツカイドウシ,ミノリチョウ,千葉県四街道市みのり町
2840005,千葉県,四街道市,四街道,チバケン,ヨツカイドウシ,ヨツカイドウ,千葉県四街道市四街道
2840006,千葉県,四街道市,下志津新田,チバケン,ヨツカイドウシ,シモシヅシンデン,千葉県四街道市下志津新田
2840007,千葉県,四街道市,さつきケ丘,チバケン,ヨツカイドウシ,サツキガオカ,千葉県四街道市さつきケ丘
2840008,千葉県,四街道市,鹿放ケ丘,チバケン,ヨツカイドウシ,ロッポウガオカ,千葉県四街道市鹿放ケ丘
2840009,千葉県,四街道市,中央,チバケン,ヨツカイドウシ,チュウオウ,千葉県四街道市中央
2840011,千葉県,四街道市,亀崎,チバケン,ヨツカイドウシ,カメザキ,千葉県四街道市亀崎
2840012,千葉県,四街道市,物井,チバケン,ヨツカイドウシ,モノイ,千葉県四街道市物井
2840013,千葉県,四街道市,内黒田,チバケン,ヨツカイドウシ,ウチクロダ,千葉県四街道市内黒田
2840014,千葉県,四街道市,池花,チバケン,ヨツカイドウシ,イケハナ,千葉県四街道市池花
2840015,千葉県,四街道市,千代田,チバケン,ヨツカイドウシ,チヨダ,千葉県四街道市千代田
2840016,千葉県,四街道市,もねの里,チバケン,ヨツカイドウシ,モネノサト,千葉県四街道市もねの里
2840021,千葉県,四街道市,長岡,チバケン,ヨツカイドウシ,ナガオカ,千葉県四街道市長岡
2840022,千葉県,四街道市,山梨,チバケン,ヨツカイドウシ,ヤマナシ,千葉県四街道市山梨
2840023,千葉県,四街道市,みそら,チバケン,ヨツカイドウシ,ミソラ,千葉県四街道市みそら
2840024,千葉県,四街道市,旭ケ丘,チバケン,ヨツカイドウシ,アサヒガオカ,千葉県四街道市旭ケ丘
2840025,千葉県,四街道市,さちが丘,チバケン,ヨツカイドウシ,サチガオカ,千葉県四街道市さちが丘
2840026,千葉県,四街道市,つくし座,チバケン,ヨツカイドウシ,ツクシザ,千葉県四街道市つくし座
2840027,千葉県,四街道市,栗山,チバケン,ヨツカイドウシ,クリヤマ,千葉県四街道市栗山
2840031,千葉県,四街道市,成山,チバケン,ヨツカイドウシ,ナリヤマ,千葉県四街道市成山
2840032,千葉県,四街道市,吉岡,チバケン,ヨツカイドウシ,ヨシオカ,千葉県四街道市吉岡
2840033,千葉県,四街道市,鷹の台,チバケン,ヨツカイドウシ,タカノダイ,千葉県四街道市鷹の台
2840034,千葉県,四街道市,南波佐間,チバケン,ヨツカイドウシ,ナバサマ,千葉県四街道市南波佐間
2840035,千葉県,四街道市,和田,チバケン,ヨツカイドウシ,ワダ,千葉県四街道市和田
2840036,千葉県,四街道市,中野,チバケン,ヨツカイドウシ,ナカノ,千葉県四街道市中野
2840037,千葉県,四街道市,中台,チバケン,ヨツカイドウシ,ナカダイ,千葉県四街道市中台
2840038,千葉県,四街道市,たかおの杜,チバケン,ヨツカイドウシ,タカオノモリ,千葉県四街道市たかおの杜
2840041,千葉県,四街道市,上野,チバケン,ヨツカイドウシ,ウエノ,千葉県四街道市上野
2840042,千葉県,四街道市,小名木,チバケン,ヨツカイドウシ,オナギ,千葉県四街道市小名木
2840043,千葉県,四街道市,めいわ,チバケン,ヨツカイドウシ,メイワ,千葉県四街道市めいわ
2840044,千葉県,四街道市,和良比,チバケン,ヨツカイドウシ,ワラビ,千葉県四街道市和良比
2840045,千葉県,四街道市,美しが丘,チバケン,ヨツカイドウシ,ウツクシガオカ,千葉県四街道市美しが丘
2850000,千葉県,佐倉市,,チバケン,サクラシ,,千葉県佐倉市
2850001,千葉県,佐倉市,土浮,チバケン,サクラシ,ツチウキ,千葉県佐倉市土浮
2850002,千葉県,佐倉市,萩山新田,チバケン,サクラシ,ハギヤマシンデン,千葉県佐倉市萩山新田
2850003,千葉県,佐倉市,飯野,チバケン,サクラシ,イイノ,千葉県佐倉市飯野
2850004,千葉県,佐倉市,岩名,チバケン,サクラシ,イワナ,千葉県佐倉市岩名
2850005,千葉県,佐倉市,宮前,チバケン,サクラシ,ミヤマエ,千葉県佐倉市宮前
2850006,千葉県,佐倉市,下根,チバケン,サクラシ,シモネ,千葉県佐倉市下根
2850007,千葉県,佐倉市,下根町,チバケン,サクラシ,シモネマチ,千葉県佐倉市下根町
2850008,千葉県,佐倉市,鹿島干拓,チバケン,サクラシ,カシマカンタク,千葉県佐倉市鹿島干拓
2850009,千葉県,佐倉市,飯野町,チバケン,サクラシ,イイノマチ,千葉県佐倉市飯野町
2850011,千葉県,佐倉市,山崎,チバケン,サクラシ,ヤマノサキ,千葉県佐倉市山崎
2850012,千葉県,佐倉市,田町,チバケン,サクラシ,タマチ,千葉県佐倉市田町
2850013,千葉県,佐倉市,海隣寺町,チバケン,サクラシ,カイリンジマチ,千葉県佐倉市海隣寺町
2850014,千葉県,佐倉市,栄町,チバケン,サクラシ,サカエチョウ,千葉県佐倉市栄町
2850015,千葉県,佐倉市,並木町,チバケン,サクラシ,ナミキマチ,千葉県佐倉市並木町
2850016,千葉県,佐倉市,宮小路町,チバケン,サクラシ,ミヤコウジマチ,千葉県佐倉市宮小路町
2850017,千葉県,佐倉市,城内町,チバケン,サクラシ,ジョウナイチョウ,千葉県佐倉市城内町
2850021,千葉県,佐倉市,最上町,チバケン,サクラシ,モガミマチ,千葉県佐倉市最上町
2850022,千葉県,佐倉市,中尾余町,チバケン,サクラシ,ナカビョウマチ,千葉県佐倉市中尾余町
2850023,千葉県,佐倉市,新町,チバケン,サクラシ,シンマチ,千葉県佐倉市新町
2850024,千葉県,佐倉市,裏新町,チバケン,サクラシ,ウラシンマチ,千葉県佐倉市裏新町
2850025,千葉県,佐倉市,鏑木町,チバケン,サクラシ,カブラギマチ,千葉県佐倉市鏑木町
2850026,千葉県,佐倉市,鏑木仲田町,チバケン,サクラシ,カブラギナカタマチ,千葉県佐倉市鏑木仲田町
2850031,千葉県,佐倉市,飯田台,チバケン,サクラシ,イイダダイ,千葉県佐倉市飯田台
2850032,千葉県,佐倉市,飯田,チバケン,サクラシ,イイダ,千葉県佐倉市飯田
2850033,千葉県,佐倉市,鍋山町,チバケン,サクラシ,ナベヤママチ,千葉県佐倉市鍋山町
2850034,千葉県,佐倉市,千成,チバケン,サクラシ,センナリ,千葉県佐倉市千成
2850035,千葉県,佐倉市,樹木町,チバケン,サクラシ,ジュモクマチ,千葉県佐倉市樹木町
2850036,千葉県,佐倉市,藤沢町,チバケン,サクラシ,フジサワマチ,千葉県佐倉市藤沢町
2850037,千葉県,佐倉市,本町,チバケン,サクラシ,モトマチ,千葉県佐倉市本町
2850038,千葉県,佐倉市,弥勒町,チバケン,サクラシ,ミロクマチ,千葉県佐倉市弥勒町
2850039,千葉県,佐倉市,野狐台町,チバケン,サクラシ,ヤッコダイマチ,千葉県佐倉市野狐台町
2850041,千葉県,佐倉市,大佐倉,チバケン,サクラシ,オオザクラ,千葉県佐倉市大佐倉
2850042,千葉県,佐倉市,将門町,チバケン,サクラシ,マサカドマチ,千葉県佐倉市将門町
2850043,千葉県,佐倉市,大蛇町,チバケン,サクラシ,オオジャマチ,千葉県佐倉市大蛇町
2850044,千葉県,佐倉市,上代,チバケン,サクラシ,カミダイ,千葉県佐倉市上代
2850045,千葉県,佐倉市,白銀,チバケン,サクラシ,シロガネ,千葉県佐倉市白銀
2850046,千葉県,佐倉市,高岡,チバケン,サクラシ,タカオカ,千葉県佐倉市高岡
2850051,千葉県,佐倉市,長熊,チバケン,サクラシ,ナガクマ,千葉県佐倉市長熊
2850052,千葉県,佐倉市,八木,チバケン,サクラシ,ヤギ,千葉県佐倉市八木
2850053,千葉県,佐倉市,下勝田,チバケン,サクラシ,シモカツタ,千葉県佐倉市下勝田
2850054,千葉県,佐倉市,上勝田,チバケン,サクラシ,カミカツタ,千葉県佐倉市上勝田
2850055,千葉県,佐倉市,瓜坪新田,チバケン,サクラシ,ウリツボシンデン,千葉県佐倉市瓜坪新田
2850056,千葉県,佐倉市,坪山新田,チバケン,サクラシ,ツボヤマシンデン,千葉県佐倉市坪山新田
2850057,千葉県,佐倉市,米戸,チバケン,サクラシ,コメド,千葉県佐倉市米戸
2850061,千葉県,佐倉市,高崎,チバケン,サクラシ,タカサキ,千葉県佐倉市高崎
2850062,千葉県,佐倉市,寒風,チバケン,サクラシ,サムカゼ,千葉県佐倉市寒風
2850063,千葉県,佐倉市,宮本,チバケン,サクラシ,ミヤモト,千葉県佐倉市宮本
2850064,千葉県,佐倉市,天辺,チバケン,サクラシ,アマベ,千葉県佐倉市天辺
2850065,千葉県,佐倉市,直弥,チバケン,サクラシ,ナオヤ,千葉県佐倉市直弥
2850066,千葉県,佐倉市,上別所,チバケン,サクラシ,カミベッシヨ,千葉県佐倉市上別所
2850071,千葉県,佐倉市,岩富,チバケン,サクラシ,イワトミ,千葉県佐倉市岩富
2850072,千葉県,佐倉市,岩富町,チバケン,サクラシ,イワトミマチ,千葉県佐倉市岩富町
2850073,千葉県,佐倉市,七曲,チバケン,サクラシ,ナナマガリ,千葉県佐倉市七曲
2850074,千葉県,佐倉市,西御門,チバケン,サクラシ,ニシミカド,千葉県佐倉市西御門
2850075,千葉県,佐倉市,宮内,チバケン,サクラシ,ミヤウチ,千葉県佐倉市宮内
2850076,千葉県,佐倉市,飯塚,チバケン,サクラシ,イイヅカ,千葉県佐倉市飯塚
2850077,千葉県,佐倉市,内田,チバケン,サクラシ,ウチダ,千葉県佐倉市内田
2850078,千葉県,佐倉市,坂戸,チバケン,サクラシ,サカド,千葉県佐倉市坂戸
2850801,千葉県,佐倉市,木野子,チバケン,サクラシ,キノコ,千葉県佐倉市木野子
2850802,千葉県,佐倉市,大作,チバケン,サクラシ,オオサク,千葉県佐倉市大作
2850803,千葉県,佐倉市,神門,チバケン,サクラシ,ゴウド,千葉県佐倉市神門
2850804,千葉県,佐倉市,馬渡,チバケン,サクラシ,マワタシ,千葉県佐倉市馬渡
2850805,千葉県,佐倉市,小篠塚,チバケン,サクラシ,コシノヅカ,千葉県佐倉市小篠塚
2850806,千葉県,佐倉市,大篠塚,チバケン,サクラシ,オオシノヅカ,千葉県佐倉市大篠塚
2850807,千葉県,佐倉市,山王,チバケン,サクラシ,サンノウ,千葉県佐倉市山王
2850808,千葉県,佐倉市,太田,チバケン,サクラシ,オオタ,千葉県佐倉市太田
2850811,千葉県,佐倉市,表町,チバケン,サクラシ,オモテチョウ,千葉県佐倉市表町
2850812,千葉県,佐倉市,六崎,チバケン,サクラシ,ムツザキ,千葉県佐倉市六崎
2850813,千葉県,佐倉市,石川,チバケン,サクラシ,イシカワ,千葉県佐倉市石川
2850814,千葉県,佐倉市,春路,チバケン,サクラシ,ハルジ,千葉県佐倉市春路
2850815,千葉県,佐倉市,城,チバケン,サクラシ,ジョウ,千葉県佐倉市城
2850816,千葉県,佐倉市,藤治台,チバケン,サクラシ,トウジダイ,千葉県佐倉市藤治台
2850817,千葉県,佐倉市,大崎台,チバケン,サクラシ,オオサキダイ,千葉県佐倉市大崎台
2850818,千葉県,佐倉市,寺崎,チバケン,サクラシ,テラザキ,千葉県佐倉市寺崎
2850819,千葉県,佐倉市,寺崎北,チバケン,サクラシ,テラザキキタ,千葉県佐倉市寺崎北
2850821,千葉県,佐倉市,角来,チバケン,サクラシ,カクライ,千葉県佐倉市角来
2850822,千葉県,佐倉市,印南,チバケン,サクラシ,インナン,千葉県佐倉市印南
2850823,千葉県,佐倉市,江原新田,チバケン,サクラシ,エバラシンデン,千葉県佐倉市江原新田
2850824,千葉県,佐倉市,江原,チバケン,サクラシ,エバラ,千葉県佐倉市江原
2850825,千葉県,佐倉市,江原台,チバケン,サクラシ,エバラダイ,千葉県佐倉市江原台
2850831,千葉県,佐倉市,染井野,チバケン,サクラシ,ソメイノ,千葉県佐倉市染井野
2850832,千葉県,佐倉市,飯重,チバケン,サクラシ,イイジュウ,千葉県佐倉市飯重
2850833,千葉県,佐倉市,羽鳥,チバケン,サクラシ,ハドリ,千葉県佐倉市羽鳥
2850834,千葉県,佐倉市,吉見,チバケン,サクラシ,ヨシミ,千葉県佐倉市吉見
2850835,千葉県,佐倉市,畔田,チバケン,サクラシ,アゼタ,千葉県佐倉市畔田
2850836,千葉県,佐倉市,生谷,チバケン,サクラシ,オブカイ,千葉県佐倉市生谷
2850837,千葉県,佐倉市,王子台,チバケン,サクラシ,オウジダイ,千葉県佐倉市王子台
2850841,千葉県,佐倉市,下志津,チバケン,サクラシ,シモシヅ,千葉県佐倉市下志津
2850842,千葉県,佐倉市,下志津原,チバケン,サクラシ,シモシヅハラ,千葉県佐倉市下志津原
2850843,千葉県,佐倉市,中志津,チバケン,サクラシ,ナカシヅ,千葉県佐倉市中志津
2850844,千葉県,佐倉市,上志津原,チバケン,サクラシ,カミシヅハラ,千葉県佐倉市上志津原
2850845,千葉県,佐倉市,西志津,チバケン,サクラシ,ニシシヅ,千葉県佐倉市西志津
2850846,千葉県,佐倉市,上志津,チバケン,サクラシ,カミシヅ,千葉県佐倉市上志津
2850850,千葉県,佐倉市,西ユーカリが丘,チバケン,サクラシ,ニシユーカリガオカ,千葉県佐倉市西ユーカリが丘
2850851,千葉県,佐倉市,先崎,チバケン,サクラシ,マッサキ,千葉県佐倉市先崎
2850852,千葉県,佐倉市,青菅,チバケン,サクラシ,アオスゲ,千葉県佐倉市青菅
2850853,千葉県,佐倉市,小竹,チバケン,サクラシ,オダケ,千葉県佐倉市小竹
2850854,千葉県,佐倉市,上座,チバケン,サクラシ,ジョウザ,千葉県佐倉市上座
2850855,千葉県,佐倉市,井野,チバケン,サクラシ,イノ,千葉県佐倉市井野
2850856,千葉県,佐倉市,井野町,チバケン,サクラシ,イノマチ,千葉県佐倉市井野町
2850857,千葉県,佐倉市,宮ノ台,チバケン,サクラシ,ミヤノダイ,千葉県佐倉市宮ノ台
2850858,千葉県,佐倉市,ユーカリが丘,チバケン,サクラシ,ユーカリガオカ,千葉県佐倉市ユーカリが丘
2850859,千葉県,佐倉市,南ユーカリが丘,チバケン,サクラシ,ミナミユーカリガオカ,千葉県佐倉市南ユーカリが丘
2850861,千葉県,佐倉市,臼井田,チバケン,サクラシ,ウスイタ,千葉県佐倉市臼井田
2850862,千葉県,佐倉市,新臼井田,チバケン,サクラシ,シンウスイダ,千葉県佐倉市新臼井田
2850863,千葉県,佐倉市,臼井,チバケン,サクラシ,ウスイ,千葉県佐倉市臼井
2850864,千葉県,佐倉市,稲荷台,チバケン,サクラシ,イナリダイ,千葉県佐倉市稲荷台
2850865,千葉県,佐倉市,南臼井台,チバケン,サクラシ,ミナミウスイダイ,千葉県佐倉市南臼井台
2850866,千葉県,佐倉市,臼井台,チバケン,サクラシ,ウスイダイ,千葉県佐倉市臼井台
2850867,千葉県,佐倉市,八幡台,チバケン,サクラシ,ハチマンダイ,千葉県佐倉市八幡台
2850900,千葉県,印旛郡酒々井町,,チバケン,インバグンシスイマチ,,千葉県印旛郡酒々井町
2850901,千葉県,印旛郡酒々井町,篠山新田,チバケン,インバグンシスイマチ,シノヤマシンデン,千葉県印旛郡酒々井町篠山新田
2850902,千葉県,印旛郡酒々井町,伊篠,チバケン,インバグンシスイマチ,イジノ,千葉県印旛郡酒々井町伊篠
2850903,千葉県,印旛郡酒々井町,今倉新田,チバケン,インバグンシスイマチ,イマクラシンデン,千葉県印旛郡酒々井町今倉新田
2850904,千葉県,印旛郡酒々井町,伊篠新田,チバケン,インバグンシスイマチ,イジノシンデン,千葉県印旛郡酒々井町伊篠新田
2850905,千葉県,印旛郡酒々井町,上岩橋,チバケン,インバグンシスイマチ,カミイワハシ,千葉県印旛郡酒々井町上岩橋
2850906,千葉県,印旛郡酒々井町,柏木,チバケン,インバグンシスイマチ,カシワキ,千葉県印旛郡酒々井町柏木
2850907,千葉県,印旛郡酒々井町,下岩橋,チバケン,インバグンシスイマチ,シモイワハシ,千葉県印旛郡酒々井町下岩橋
2850911,千葉県,印旛郡酒々井町,尾上,チバケン,インバグンシスイマチ,オガミ,千葉県印旛郡酒々井町尾上
2850912,千葉県,印旛郡酒々井町,飯積,チバケン,インバグンシスイマチ,イイズミ,千葉県印旛郡酒々井町飯積
2850913,千葉県,印旛郡酒々井町,墨,チバケン,インバグンシスイマチ,スミ,千葉県印旛郡酒々井町墨
2850914,千葉県,印旛郡酒々井町,馬橋,チバケン,インバグンシスイマチ,マバシ,千葉県印旛郡酒々井町馬橋
2850921,千葉県,印旛郡酒々井町,中川,チバケン,インバグンシスイマチ,ナカガワ,千葉県印旛郡酒々井町中川
2850922,千葉県,印旛郡酒々井町,中央台,チバケン,インバグンシスイマチ,チュウオウダイ,千葉県印旛郡酒々井町中央台
2850923,千葉県,印旛郡酒々井町,東酒々井,チバケン,インバグンシスイマチ,ヒガシシスイ,千葉県印旛郡酒々井町東酒々井
2850924,千葉県,印旛郡酒々井町,下台,チバケン,インバグンシスイマチ,シモダイ,千葉県印旛郡酒々井町下台
2850925,千葉県,印旛郡酒々井町,上本佐倉,チバケン,インバグンシスイマチ,カミモトサクラ,千葉県印旛郡酒々井町上本佐倉
2850926,千葉県,印旛郡酒々井町,本佐倉,チバケン,インバグンシスイマチ,モトサクラ,千葉県印旛郡酒々井町本佐倉
2850927,千葉県,印旛郡酒々井町,酒々井,チバケン,インバグンシスイマチ,シスイ,千葉県印旛郡酒々井町酒々井
2850928,千葉県,印旛郡酒々井町,ふじき野,チバケン,インバグンシスイマチ,フジキノ,千葉県印旛郡酒々井町ふじき野
2860000,千葉県,成田市,,チバケン,ナリタシ,,千葉県成田市
2860001,千葉県,成田市,船形,チバケン,ナリタシ,フナカタ,千葉県成田市船形
2860002,千葉県,成田市,八代,チバケン,ナリタシ,ヤツシロ,千葉県成田市八代
2860003,千葉県,成田市,台方,チバケン,ナリタシ,ダイカタ,千葉県成田市台方
2860004,千葉県,成田市,宗吾,チバケン,ナリタシ,ソウゴ,千葉県成田市宗吾
2860005,千葉県,成田市,下方,チバケン,ナリタシ,シタカタ,千葉県成田市下方
2860006,千葉県,成田市,北須賀,チバケン,ナリタシ,キタスカ,千葉県成田市北須賀
2860007,千葉県,成田市,はなのき台,チバケン,ナリタシ,ハナノキダイ,千葉県成田市はなのき台
2860011,千葉県,成田市,玉造,チバケン,ナリタシ,タマツクリ,千葉県成田市玉造
2860012,千葉県,成田市,山口,チバケン,ナリタシ,ヤマグチ,千葉県成田市山口
2860013,千葉県,成田市,美郷台,チバケン,ナリタシ,ミサトダイ,千葉県成田市美郷台
2860014,千葉県,成田市,郷部,チバケン,ナリタシ,ゴウブ,千葉県成田市郷部
2860015,千葉県,成田市,中台,チバケン,ナリタシ,ナカダイ,千葉県成田市中台
2860016,千葉県,成田市,米野,チバケン,ナリタシ,ヨネノ,千葉県成田市米野
2860017,千葉県,成田市,赤坂,チバケン,ナリタシ,アカサカ,千葉県成田市赤坂
2860018,千葉県,成田市,吾妻,チバケン,ナリタシ,アヅマ,千葉県成田市吾妻
2860021,千葉県,成田市,土屋,チバケン,ナリタシ,ツチヤ,千葉県成田市土屋
2860022,千葉県,成田市,寺台,チバケン,ナリタシ,テラダイ,千葉県成田市寺台
2860023,千葉県,成田市,成田,チバケン,ナリタシ,ナリタ,千葉県成田市成田
2860024,千葉県,成田市,田町,チバケン,ナリタシ,タマチ,千葉県成田市田町
2860025,千葉県,成田市,東町,チバケン,ナリタシ,アズマチョウ,千葉県成田市東町
2860026,千葉県,成田市,本町,チバケン,ナリタシ,ホンチョウ,千葉県成田市本町
2860027,千葉県,成田市,仲町,チバケン,ナリタシ,ナカマチ,千葉県成田市仲町
2860028,千葉県,成田市,幸町,チバケン,ナリタシ,サイワイチョウ,千葉県成田市幸町
2860029,千葉県,成田市,ウイング土屋,チバケン,ナリタシ,ウイングツチヤ,千葉県成田市ウイング土屋
2860031,千葉県,成田市,新町,チバケン,ナリタシ,シンマチ,千葉県成田市新町
2860032,千葉県,成田市,上町,チバケン,ナリタシ,カミチョウ,千葉県成田市上町
2860033,千葉県,成田市,花崎町,チバケン,ナリタシ,ハナザキチョウ,千葉県成田市花崎町
2860034,千葉県,成田市,馬橋,チバケン,ナリタシ,マバシ,千葉県成田市馬橋
2860035,千葉県,成田市,囲護台,チバケン,ナリタシ,イゴダイ,千葉県成田市囲護台
2860036,千葉県,成田市,加良部,チバケン,ナリタシ,カラベ,千葉県成田市加良部
2860037,千葉県,成田市,橋賀台,チバケン,ナリタシ,ハシカダイ,千葉県成田市橋賀台
2860041,千葉県,成田市,飯田町,チバケン,ナリタシ,イイダチョウ,千葉県成田市飯田町
2860042,千葉県,成田市,南平台,チバケン,ナリタシ,ナンペイダイ,千葉県成田市南平台
2860043,千葉県,成田市,大袋,チバケン,ナリタシ,オオブクロ,千葉県成田市大袋
2860044,千葉県,成田市,不動ケ岡,チバケン,ナリタシ,フドウガオカ,千葉県成田市不動ケ岡
2860045,千葉県,成田市,並木町,チバケン,ナリタシ,ナミキチョウ,千葉県成田市並木町
2860046,千葉県,成田市,飯仲,チバケン,ナリタシ,イイナカ,千葉県成田市飯仲
2860047,千葉県,成田市,江弁須,チバケン,ナリタシ,エベス,千葉県成田市江弁須
2860048,千葉県,成田市,公津の杜,チバケン,ナリタシ,コウヅノモリ,千葉県成田市公津の杜
2860101,千葉県,成田市,十余三（その他）,チバケン,ナリタシ,トヨミ(ソノタ),千葉県成田市十余三（その他）
2860102,千葉県,成田市,天神峰（その他）,チバケン,ナリタシ,テンジンミネ(ソノタ),千葉県成田市天神峰（その他）
2860103,千葉県,成田市,東峰（その他）,チバケン,ナリタシ,トウホウ(ソノタ),千葉県成田市東峰（その他）
2860104,千葉県,成田市,古込（その他）,チバケン,ナリタシ,フルゴメ(ソノタ),千葉県成田市古込（その他）
2860105,千葉県,成田市,木の根（その他）,チバケン,ナリタシ,キノネ(ソノタ),千葉県成田市木の根（その他）
2860106,千葉県,成田市,取香（その他）,チバケン,ナリタシ,トッコウ(ソノタ),千葉県成田市取香（その他）
2860107,千葉県,成田市,堀之内（その他）,チバケン,ナリタシ,ホリノウチ(ソノタ),千葉県成田市堀之内（その他）
2860108,千葉県,成田市,長田,チバケン,ナリタシ,ナガタ,千葉県成田市長田
2860111,千葉県,成田市,三里塚（その他）,チバケン,ナリタシ,サンリヅカ(ソノタ),千葉県成田市三里塚（その他）
2860112,千葉県,成田市,東三里塚（その他）,チバケン,ナリタシ,ヒガシサンリヅカ(ソノタ),千葉県成田市東三里塚（その他）
2860113,千葉県,成田市,南三里塚,チバケン,ナリタシ,ミナミサンリヅカ,千葉県成田市南三里塚
2860114,千葉県,成田市,本城,チバケン,ナリタシ,ホンジョウ,千葉県成田市本城
2860115,千葉県,成田市,西三里塚,チバケン,ナリタシ,ニシサンリヅカ,千葉県成田市西三里塚
2860116,千葉県,成田市,三里塚御料,チバケン,ナリタシ,サンリヅカゴリョウ,千葉県成田市三里塚御料
2860117,千葉県,成田市,三里塚光ケ丘,チバケン,ナリタシ,サンリヅカヒカリガオカ,千葉県成田市三里塚光ケ丘
2860118,千葉県,成田市,本三里塚,チバケン,ナリタシ,ホンサンリヅカ,千葉県成田市本三里塚
2860121,千葉県,成田市,駒井野（その他）,チバケン,ナリタシ,コマイノ(ソノタ),千葉県成田市駒井野（その他）
2860122,千葉県,成田市,大清水,チバケン,ナリタシ,オオシミズ,千葉県成田市大清水
2860123,千葉県,成田市,新駒井野,チバケン,ナリタシ,シンコマイノ,千葉県成田市新駒井野
2860124,千葉県,成田市,畑ケ田,チバケン,ナリタシ,ハタケダ,千葉県成田市畑ケ田
2860125,千葉県,成田市,川栗,チバケン,ナリタシ,カワグリ,千葉県成田市川栗
2860126,千葉県,成田市,久米野,チバケン,ナリタシ,クメノ,千葉県成田市久米野
2860127,千葉県,成田市,小菅（その他）,チバケン,ナリタシ,コスゲ(ソノタ),千葉県成田市小菅（その他）
2860131,千葉県,成田市,大山,チバケン,ナリタシ,オオヤマ,千葉県成田市大山
2860132,千葉県,成田市,馬場,チバケン,ナリタシ,ババ,千葉県成田市馬場
2860133,千葉県,成田市,吉倉,チバケン,ナリタシ,ヨシクラ,千葉県成田市吉倉
2860134,千葉県,成田市,東和田,チバケン,ナリタシ,トウワダ,千葉県成田市東和田
2860135,千葉県,成田市,山之作,チバケン,ナリタシ,ヤマノサク,千葉県成田市山之作
2860136,千葉県,成田市,久米,チバケン,ナリタシ,クメ,千葉県成田市久米
2860137,千葉県,成田市,御所の内,チバケン,ナリタシ,ゴショノウチ,千葉県成田市御所の内
2860200,千葉県,富里市,,チバケン,トミサトシ,,千葉県富里市
2860201,千葉県,富里市,日吉台,チバケン,トミサトシ,ヒヨシダイ,千葉県富里市日吉台
2860202,千葉県,富里市,日吉倉,チバケン,トミサトシ,ヒヨシクラ,千葉県富里市日吉倉
2860203,千葉県,富里市,久能,チバケン,トミサトシ,クノウ,千葉県富里市久能
2860204,千葉県,富里市,大和,チバケン,トミサトシ,オオワ,千葉県富里市大和
2860205,千葉県,富里市,根木名,チバケン,トミサトシ,ネコナ,千葉県富里市根木名
2860211,千葉県,富里市,御料,チバケン,トミサトシ,ゴリョウ,千葉県富里市御料
2860212,千葉県,富里市,十倉,チバケン,トミサトシ,トクラ,千葉県富里市十倉
2860213,千葉県,富里市,高松,チバケン,トミサトシ,タカマツ,千葉県富里市高松
2860214,千葉県,富里市,立沢,チバケン,トミサトシ,タツザワ,千葉県富里市立沢
2860215,千葉県,富里市,立沢新田,チバケン,トミサトシ,タツザワシンデン,千葉県富里市立沢新田
2860216,千葉県,富里市,高野,チバケン,トミサトシ,コウヤ,千葉県富里市高野
2860221,千葉県,富里市,七栄,チバケン,トミサトシ,ナナエ,千葉県富里市七栄
2860222,千葉県,富里市,中沢,チバケン,トミサトシ,ナカザワ,千葉県富里市中沢
2860223,千葉県,富里市,新中沢,チバケン,トミサトシ,シンナカザワ,千葉県富里市新中沢
2860224,千葉県,富里市,新橋,チバケン,トミサトシ,ニッパシ,千葉県富里市新橋
2860225,千葉県,富里市,美沢,チバケン,トミサトシ,ミサワ,千葉県富里市美沢
2860801,千葉県,成田市,竜台,チバケン,ナリタシ,タツダイ,千葉県成田市竜台
2860802,千葉県,成田市,北部,チバケン,ナリタシ,ホクブ,千葉県成田市北部
2860803,千葉県,成田市,安西,チバケン,ナリタシ,アンサイ,千葉県成田市安西
2860804,千葉県,成田市,長沼,チバケン,ナリタシ,ナガヌマ,千葉県成田市長沼
2860805,千葉県,成田市,南羽鳥,チバケン,ナリタシ,ミナミハドリ,千葉県成田市南羽鳥
2860806,千葉県,成田市,南部,チバケン,ナリタシ,ナンブ,千葉県成田市南部
2860807,千葉県,成田市,北羽鳥,チバケン,ナリタシ,キタハドリ,千葉県成田市北羽鳥
2860808,千葉県,成田市,佐野,チバケン,ナリタシ,サノ,千葉県成田市佐野
2860811,千葉県,成田市,磯部,チバケン,ナリタシ,イソベ,千葉県成田市磯部
2860812,千葉県,成田市,水掛,チバケン,ナリタシ,ミズカケ,千葉県成田市水掛
2860813,千葉県,成田市,飯岡,チバケン,ナリタシ,イノオカ,千葉県成田市飯岡
2860814,千葉県,成田市,幡谷,チバケン,ナリタシ,ハタヤ,千葉県成田市幡谷
2860815,千葉県,成田市,土室,チバケン,ナリタシ,ツチムロ,千葉県成田市土室
2860816,千葉県,成田市,成毛,チバケン,ナリタシ,ナルゲ,千葉県成田市成毛
2860817,千葉県,成田市,大生,チバケン,ナリタシ,オオウ,千葉県成田市大生
2860818,千葉県,成田市,荒海,チバケン,ナリタシ,アラウミ,千葉県成田市荒海
2860819,千葉県,成田市,久住中央,チバケン,ナリタシ,クズミチュウオウ,千葉県成田市久住中央
2860821,千葉県,成田市,大室,チバケン,ナリタシ,オオムロ,千葉県成田市大室
2860822,千葉県,成田市,芝,チバケン,ナリタシ,シバ,千葉県成田市芝
2860823,千葉県,成田市,小泉,チバケン,ナリタシ,コイズミ,千葉県成田市小泉
2860824,千葉県,成田市,野毛平,チバケン,ナリタシ,ノゲダイラ,千葉県成田市野毛平
2860825,千葉県,成田市,新泉,チバケン,ナリタシ,シンイズミ,千葉県成田市新泉
2860826,千葉県,成田市,東和泉,チバケン,ナリタシ,ヒガシイズミ,千葉県成田市東和泉
2860827,千葉県,成田市,西和泉,チバケン,ナリタシ,ニシイズミ,千葉県成田市西和泉
2860831,千葉県,成田市,芦田,チバケン,ナリタシ,アシダ,千葉県成田市芦田
2860832,千葉県,成田市,赤荻,チバケン,ナリタシ,アカオギ,千葉県成田市赤荻
2860833,千葉県,成田市,東金山,チバケン,ナリタシ,ヒガシカナヤマ,千葉県成田市東金山
2860834,千葉県,成田市,和田,チバケン,ナリタシ,ワダ,千葉県成田市和田
2860835,千葉県,成田市,関戸,チバケン,ナリタシ,セキド,千葉県成田市関戸
2860836,千葉県,成田市,下金山,チバケン,ナリタシ,シモカナヤマ,千葉県成田市下金山
2860837,千葉県,成田市,新妻,チバケン,ナリタシ,ニッツマ,千葉県成田市新妻
2860841,千葉県,成田市,大竹,チバケン,ナリタシ,オオダケ,千葉県成田市大竹
2860842,千葉県,成田市,上福田,チバケン,ナリタシ,カミフクダ,千葉県成田市上福田
2860843,千葉県,成田市,下福田,チバケン,ナリタシ,シモフクダ,千葉県成田市下福田
2860844,千葉県,成田市,宝田,チバケン,ナリタシ,タカラダ,千葉県成田市宝田
2860845,千葉県,成田市,押畑,チバケン,ナリタシ,オシハタ,千葉県成田市押畑
2860846,千葉県,成田市,松崎,チバケン,ナリタシ,マンザキ,千葉県成田市松崎
2870000,千葉県,香取市,,チバケン,カトリシ,,千葉県香取市
2870001,千葉県,香取市,佐原ロ,チバケン,カトリシ,サワラロ,千葉県香取市佐原ロ
2870002,千葉県,香取市,北,チバケン,カトリシ,キタ,千葉県香取市北
2870003,千葉県,香取市,佐原イ,チバケン,カトリシ,サワライ,千葉県香取市佐原イ
2870004,千葉県,香取市,岩ケ崎台,チバケン,カトリシ,イワガサキダイ,千葉県香取市岩ケ崎台
2870005,千葉県,香取市,佐原ホ,チバケン,カトリシ,サワラホ,千葉県香取市佐原ホ
2870006,千葉県,香取市,篠原イ,チバケン,カトリシ,シノハライ,千葉県香取市篠原イ
2870011,千葉県,香取市,津宮,チバケン,カトリシ,ツノミヤ,千葉県香取市津宮
2870012,千葉県,香取市,大倉丁子,チバケン,カトリシ,オオクラヨウロゴ,千葉県香取市大倉丁子
2870013,千葉県,香取市,大倉,チバケン,カトリシ,オオクラ,千葉県香取市大倉
2870014,千葉県,香取市,多田,チバケン,カトリシ,タダ,千葉県香取市多田
2870015,千葉県,香取市,吉原,チバケン,カトリシ,ヨシワラ,千葉県香取市吉原
2870016,千葉県,香取市,新市場,チバケン,カトリシ,ニイチバ,千葉県香取市新市場
2870017,千葉県,香取市,香取,チバケン,カトリシ,カトリ,千葉県香取市香取
2870018,千葉県,香取市,丁子,チバケン,カトリシ,ヨウロゴ,千葉県香取市丁子
2870021,千葉県,香取市,下小野,チバケン,カトリシ,シモオノ,千葉県香取市下小野
2870022,千葉県,香取市,九美上,チバケン,カトリシ,クミアゲ,千葉県香取市九美上
2870023,千葉県,香取市,伊地山,チバケン,カトリシ,イチヤマ,千葉県香取市伊地山
2870024,千葉県,香取市,福田,チバケン,カトリシ,フクダ,千葉県香取市福田
2870025,千葉県,香取市,本矢作,チバケン,カトリシ,モトヤハギ,千葉県香取市本矢作
2870026,千葉県,香取市,大根,チバケン,カトリシ,オオネ,千葉県香取市大根
2870027,千葉県,香取市,返田,チバケン,カトリシ,カヤダ,千葉県香取市返田
2870031,千葉県,香取市,新部,チバケン,カトリシ,ニッペ,千葉県香取市新部
2870032,千葉県,香取市,釜塚,チバケン,カトリシ,カマヅカ,千葉県香取市釜塚
2870033,千葉県,香取市,牧野,チバケン,カトリシ,マキノ,千葉県香取市牧野
2870034,千葉県,香取市,長山,チバケン,カトリシ,ナガヤマ,千葉県香取市長山
2870035,千葉県,香取市,大崎,チバケン,カトリシ,オオサキ,千葉県香取市大崎
2870036,千葉県,香取市,観音,チバケン,カトリシ,カンノウ,千葉県香取市観音
2870037,千葉県,香取市,与倉,チバケン,カトリシ,ヨクラ,千葉県香取市与倉
2870038,千葉県,香取市,鳥羽,チバケン,カトリシ,トッパ,千葉県香取市鳥羽
2870041,千葉県,香取市,玉造,チバケン,カトリシ,タマツクリ,千葉県香取市玉造
2870042,千葉県,香取市,山之辺,チバケン,カトリシ,ヤマノベ,千葉県香取市山之辺
2870043,千葉県,香取市,大戸,チバケン,カトリシ,オオト,千葉県香取市大戸
2870044,千葉県,香取市,片野,チバケン,カトリシ,カタノ,千葉県香取市片野
2870045,千葉県,香取市,関,チバケン,カトリシ,セキ,千葉県香取市関
2870046,千葉県,香取市,上小川,チバケン,カトリシ,カミオガワ,千葉県香取市上小川
2870047,千葉県,香取市,鴇崎,チバケン,カトリシ,トキザキ,千葉県香取市鴇崎
2870048,千葉県,香取市,西和田,チバケン,カトリシ,ニシワダ,千葉県香取市西和田
2870051,千葉県,香取市,新寺,チバケン,カトリシ,ニイデラ,千葉県香取市新寺
2870052,千葉県,香取市,森戸,チバケン,カトリシ,モリド,千葉県香取市森戸
2870053,千葉県,香取市,大戸新田,チバケン,カトリシ,オオトシンデン,千葉県香取市大戸新田
2870054,千葉県,香取市,大戸川,チバケン,カトリシ,オオトガワ,千葉県香取市大戸川
2870055,千葉県,香取市,昭和町,チバケン,カトリシ,ショウワマチ,千葉県香取市昭和町
2870056,千葉県,香取市,飯島,チバケン,カトリシ,イイジマ,千葉県香取市飯島
2870061,千葉県,香取市,谷中,チバケン,カトリシ,ヤナカ,千葉県香取市谷中
2870062,千葉県,香取市,寺内,チバケン,カトリシ,テラウチ,千葉県香取市寺内
2870063,千葉県,香取市,西坂,チバケン,カトリシ,ニシザカ,千葉県香取市西坂
2870064,千葉県,香取市,みずほ台,チバケン,カトリシ,ミズホダイ,千葉県香取市みずほ台
2870065,千葉県,香取市,西部田,チバケン,カトリシ,ニシベタ,千葉県香取市西部田
2870066,千葉県,香取市,堀之内,チバケン,カトリシ,ホリノウチ,千葉県香取市堀之内
2870067,千葉県,香取市,川尻,チバケン,カトリシ,カワジリ,千葉県香取市川尻
2870101,千葉県,香取市,高萩,チバケン,カトリシ,タカハギ,千葉県香取市高萩
2870102,千葉県,香取市,岩部,チバケン,カトリシ,イワベ,千葉県香取市岩部
2870103,千葉県,香取市,西田部,チバケン,カトリシ,ニシタベ,千葉県香取市西田部
2870104,千葉県,香取市,苅毛,チバケン,カトリシ,カリケ,千葉県香取市苅毛
2870105,千葉県,香取市,沢,チバケン,カトリシ,サワ,千葉県香取市沢
2870106,千葉県,香取市,荒北,チバケン,カトリシ,アラキタ,千葉県香取市荒北
2870107,千葉県,香取市,助沢,チバケン,カトリシ,スケザワ,千葉県香取市助沢
2870201,千葉県,成田市,柴田,チバケン,ナリタシ,シバタ,千葉県成田市柴田
2870202,千葉県,成田市,堀籠,チバケン,ナリタシ,ホウメ,千葉県成田市堀籠
2870203,千葉県,成田市,村田,チバケン,ナリタシ,ムラタ,千葉県成田市村田
2870204,千葉県,成田市,伊能,チバケン,ナリタシ,イノウ,千葉県成田市伊能
2870205,千葉県,成田市,奈土,チバケン,ナリタシ,ナド,千葉県成田市奈土
2870206,千葉県,成田市,浅間,チバケン,ナリタシ,センゲン,千葉県成田市浅間
2870211,千葉県,成田市,所,チバケン,ナリタシ,トコロ,千葉県成田市所
2870212,千葉県,成田市,東ノ台,チバケン,ナリタシ,ヒガシノダイ,千葉県成田市東ノ台
2870213,千葉県,成田市,大沼,チバケン,ナリタシ,オオヌマ,千葉県成田市大沼
2870214,千葉県,成田市,横山,チバケン,ナリタシ,ヨコヤマ,千葉県成田市横山
2870215,千葉県,成田市,馬乗里,チバケン,ナリタシ,マジョウリ,千葉県成田市馬乗里
2870216,千葉県,成田市,南敷,チバケン,ナリタシ,ナジキ,千葉県成田市南敷
2870217,千葉県,成田市,桜田,チバケン,ナリタシ,サクラダ,千葉県成田市桜田
2870221,千葉県,成田市,官林,チバケン,ナリタシ,カンリン,千葉県成田市官林
2870222,千葉県,成田市,前林,チバケン,ナリタシ,マエバヤシ,千葉県成田市前林
2870224,千葉県,成田市,新田,チバケン,ナリタシ,シンデン,千葉県成田市新田
2870225,千葉県,成田市,吉岡（その他）,チバケン,ナリタシ,キチオカ(ソノタ),千葉県成田市吉岡（その他）
2870227,千葉県,成田市,一坪田,チバケン,ナリタシ,ヒトツボタ,千葉県成田市一坪田
2870232,千葉県,成田市,久井崎,チバケン,ナリタシ,クイザキ,千葉県成田市久井崎
2870233,千葉県,成田市,稲荷山,チバケン,ナリタシ,トウカヤマ,千葉県成田市稲荷山
2870234,千葉県,成田市,松子,チバケン,ナリタシ,マツコ,千葉県成田市松子
2870235,千葉県,成田市,臼作,チバケン,ナリタシ,ウスクリ,千葉県成田市臼作
2870236,千葉県,成田市,津富浦,チバケン,ナリタシ,ツブウラ,千葉県成田市津富浦
2870237,千葉県,成田市,中野,チバケン,ナリタシ,ナカノ,千葉県成田市中野
2870241,千葉県,成田市,水の上,チバケン,ナリタシ,ミズノカミ,千葉県成田市水の上
2870242,千葉県,成田市,多良貝,チバケン,ナリタシ,タラガイ,千葉県成田市多良貝
2870243,千葉県,成田市,大栄十余三,チバケン,ナリタシ,タイエイトヨミ,千葉県成田市大栄十余三
2870244,千葉県,成田市,川上,チバケン,ナリタシ,カワカミ,千葉県成田市川上
2870801,千葉県,香取市,扇島,チバケン,カトリシ,オウギシマ,千葉県香取市扇島
2870802,千葉県,香取市,加藤洲,チバケン,カトリシ,カドウズ,千葉県香取市加藤洲
2870803,千葉県,香取市,磯山,チバケン,カトリシ,イソヤマ,千葉県香取市磯山
2870804,千葉県,香取市,市和田,チバケン,カトリシ,イチワダ,千葉県香取市市和田
2870805,千葉県,香取市,公官洲,チバケン,カトリシ,コウカンズ,千葉県香取市公官洲
2870806,千葉県,香取市,附洲新田,チバケン,カトリシ,ツキスシンデン,千葉県香取市附洲新田
2870811,千葉県,香取市,大島,チバケン,カトリシ,オオシマ,千葉県香取市大島
2870812,千葉県,香取市,三島,チバケン,カトリシ,ミシマ,千葉県香取市三島
2870813,千葉県,香取市,境島,チバケン,カトリシ,サカイジマ,千葉県香取市境島
2870814,千葉県,香取市,中洲,チバケン,カトリシ,ナカズ,千葉県香取市中洲
2870815,千葉県,香取市,八筋川,チバケン,カトリシ,ヤスジカワ,千葉県香取市八筋川
2870816,千葉県,香取市,佐原ハ,チバケン,カトリシ,サワラハ,千葉県香取市佐原ハ
2870821,千葉県,香取市,篠原ロ,チバケン,カトリシ,シノハラロ,千葉県香取市篠原ロ
2870822,千葉県,香取市,佐原ニ,チバケン,カトリシ,サワラニ,千葉県香取市佐原ニ
2870823,千葉県,香取市,笄島,チバケン,カトリシ,コウガイジマ,千葉県香取市笄島
2870824,千葉県,香取市,長島,チバケン,カトリシ,ナガシマ,千葉県香取市長島
2870825,千葉県,香取市,野間谷原,チバケン,カトリシ,ノマヤワラ,千葉県香取市野間谷原
2870826,千葉県,香取市,石納,チバケン,カトリシ,コクノウ,千葉県香取市石納
2880000,千葉県,銚子市,,チバケン,チョウシシ,,千葉県銚子市
2880001,千葉県,銚子市,川口町,チバケン,チョウシシ,カワグチチョウ,千葉県銚子市川口町
2880002,千葉県,銚子市,明神町,チバケン,チョウシシ,ミョウジンチョウ,千葉県銚子市明神町
2880003,千葉県,銚子市,黒生町,チバケン,チョウシシ,クロハイチョウ,千葉県銚子市黒生町
2880004,千葉県,銚子市,笠上町,チバケン,チョウシシ,カサガミチョウ,千葉県銚子市笠上町
2880005,千葉県,銚子市,海鹿島町,チバケン,チョウシシ,アシカジマチョウ,千葉県銚子市海鹿島町
2880006,千葉県,銚子市,榊町,チバケン,チョウシシ,サカキチョウ,千葉県銚子市榊町
2880007,千葉県,銚子市,愛宕町,チバケン,チョウシシ,アタゴチョウ,千葉県銚子市愛宕町
2880011,千葉県,銚子市,君ケ浜,チバケン,チョウシシ,キミガハマ,千葉県銚子市君ケ浜
2880012,千葉県,銚子市,犬吠埼,チバケン,チョウシシ,イヌボウザキ,千葉県銚子市犬吠埼
2880013,千葉県,銚子市,長崎町,チバケン,チョウシシ,ナガサキマチ,千葉県銚子市長崎町
2880014,千葉県,銚子市,外川町,チバケン,チョウシシ,トカワマチ,千葉県銚子市外川町
2880015,千葉県,銚子市,犬若,チバケン,チョウシシ,イヌワカ,千葉県銚子市犬若
2880016,千葉県,銚子市,外川台町,チバケン,チョウシシ,トカワダイマチ,千葉県銚子市外川台町
2880021,千葉県,銚子市,小畑新町,チバケン,チョウシシ,コバタケシンマチ,千葉県銚子市小畑新町
2880022,千葉県,銚子市,小畑町,チバケン,チョウシシ,コバタケマチ,千葉県銚子市小畑町
2880023,千葉県,銚子市,高神東町,チバケン,チョウシシ,タカガミヒガシマチ,千葉県銚子市高神東町
2880024,千葉県,銚子市,天王台,チバケン,チョウシシ,テンノウダイ,千葉県銚子市天王台
2880025,千葉県,銚子市,潮見町,チバケン,チョウシシ,シオミチョウ,千葉県銚子市潮見町
2880026,千葉県,銚子市,高神西町,チバケン,チョウシシ,タカガミニシマチ,千葉県銚子市高神西町
2880027,千葉県,銚子市,高神原町,チバケン,チョウシシ,タカガミハラマチ,千葉県銚子市高神原町
2880031,千葉県,銚子市,前宿町,チバケン,チョウシシ,マエジュクチョウ,千葉県銚子市前宿町
2880032,千葉県,銚子市,東小川町,チバケン,チョウシシ,ヒガシオガワチョウ,千葉県銚子市東小川町
2880033,千葉県,銚子市,南小川町,チバケン,チョウシシ,ミナミオガワチョウ,千葉県銚子市南小川町
2880034,千葉県,銚子市,粟島町,チバケン,チョウシシ,アワシマチョウ,千葉県銚子市粟島町
2880035,千葉県,銚子市,名洗町,チバケン,チョウシシ,ナアライマチ,千葉県銚子市名洗町
2880036,千葉県,銚子市,西小川町,チバケン,チョウシシ,ニシオガワチョウ,千葉県銚子市西小川町
2880037,千葉県,銚子市,北小川町,チバケン,チョウシシ,キタオガワチョウ,千葉県銚子市北小川町
2880038,千葉県,銚子市,南町,チバケン,チョウシシ,ミナミチョウ,千葉県銚子市南町
2880041,千葉県,銚子市,中央町,チバケン,チョウシシ,チュウオウチョウ,千葉県銚子市中央町
2880042,千葉県,銚子市,末広町,チバケン,チョウシシ,スエヒロチョウ,千葉県銚子市末広町
2880043,千葉県,銚子市,東芝町,チバケン,チョウシシ,ヒガシシバチョウ,千葉県銚子市東芝町
2880044,千葉県,銚子市,西芝町,チバケン,チョウシシ,ニシシバチョウ,千葉県銚子市西芝町
2880045,千葉県,銚子市,三軒町,チバケン,チョウシシ,サンゲンチョウ,千葉県銚子市三軒町
2880046,千葉県,銚子市,大橋町,チバケン,チョウシシ,オオハシチョウ,千葉県銚子市大橋町
2880047,千葉県,銚子市,若宮町,チバケン,チョウシシ,ワカミヤチョウ,千葉県銚子市若宮町
2880048,千葉県,銚子市,双葉町,チバケン,チョウシシ,フタバチョウ,千葉県銚子市双葉町
2880051,千葉県,銚子市,飯沼町,チバケン,チョウシシ,イイヌマチョウ,千葉県銚子市飯沼町
2880052,千葉県,銚子市,浜町,チバケン,チョウシシ,ハマチョウ,千葉県銚子市浜町
2880053,千葉県,銚子市,東町,チバケン,チョウシシ,ヒガシチョウ,千葉県銚子市東町
2880054,千葉県,銚子市,馬場町,チバケン,チョウシシ,ババチョウ,千葉県銚子市馬場町
2880055,千葉県,銚子市,陣屋町,チバケン,チョウシシ,ジンヤチョウ,千葉県銚子市陣屋町
2880056,千葉県,銚子市,新生町,チバケン,チョウシシ,アラオイチョウ,千葉県銚子市新生町
2880061,千葉県,銚子市,港町,チバケン,チョウシシ,ミナトチョウ,千葉県銚子市港町
2880062,千葉県,銚子市,竹町,チバケン,チョウシシ,タケチョウ,千葉県銚子市竹町
2880063,千葉県,銚子市,清水町,チバケン,チョウシシ,シミズチョウ,千葉県銚子市清水町
2880064,千葉県,銚子市,後飯町,チバケン,チョウシシ,ゴハンチョウ,千葉県銚子市後飯町
2880065,千葉県,銚子市,田中町,チバケン,チョウシシ,タナカチョウ,千葉県銚子市田中町
2880066,千葉県,銚子市,和田町,チバケン,チョウシシ,ワダチョウ,千葉県銚子市和田町
2880067,千葉県,銚子市,新地町,チバケン,チョウシシ,シンチチョウ,千葉県銚子市新地町
2880068,千葉県,銚子市,内浜町,チバケン,チョウシシ,ウチバマチョウ,千葉県銚子市内浜町
2880071,千葉県,銚子市,植松町,チバケン,チョウシシ,ウエマツチョウ,千葉県銚子市植松町
2880072,千葉県,銚子市,弥生町,チバケン,チョウシシ,ヤヨイチョウ,千葉県銚子市弥生町
2880073,千葉県,銚子市,幸町,チバケン,チョウシシ,サイワイチョウ,千葉県銚子市幸町
2880074,千葉県,銚子市,橋本町,チバケン,チョウシシ,ハシモトチョウ,千葉県銚子市橋本町
2880075,千葉県,銚子市,通町,チバケン,チョウシシ,トオリチョウ,千葉県銚子市通町
2880076,千葉県,銚子市,本町,チバケン,チョウシシ,ホンチョウ,千葉県銚子市本町
2880077,千葉県,銚子市,仲町,チバケン,チョウシシ,ナカチョウ,千葉県銚子市仲町
2880801,千葉県,銚子市,唐子町,チバケン,チョウシシ,カラコチョウ,千葉県銚子市唐子町
2880802,千葉県,銚子市,松本町,チバケン,チョウシシ,マツモトチョウ,千葉県銚子市松本町
2880803,千葉県,銚子市,八幡町,チバケン,チョウシシ,ヤハタチョウ,千葉県銚子市八幡町
2880804,千葉県,銚子市,今宮町,チバケン,チョウシシ,イマミヤチョウ,千葉県銚子市今宮町
2880805,千葉県,銚子市,上野町,チバケン,チョウシシ,ウエノチョウ,千葉県銚子市上野町
2880811,千葉県,銚子市,妙見町,チバケン,チョウシシ,ミョウケンチョウ,千葉県銚子市妙見町
2880812,千葉県,銚子市,栄町,チバケン,チョウシシ,サカエチョウ,千葉県銚子市栄町
2880813,千葉県,銚子市,台町,チバケン,チョウシシ,ダイマチ,千葉県銚子市台町
2880814,千葉県,銚子市,春日町,チバケン,チョウシシ,カスガチョウ,千葉県銚子市春日町
2880815,千葉県,銚子市,三崎町,チバケン,チョウシシ,ミサキチョウ,千葉県銚子市三崎町
2880816,千葉県,銚子市,春日台町,チバケン,チョウシシ,カスガダイマチ,千葉県銚子市春日台町
2880817,千葉県,銚子市,清川町,チバケン,チョウシシ,キヨカワチョウ,千葉県銚子市清川町
2880821,千葉県,銚子市,小浜町,チバケン,チョウシシ,オバマチョウ,千葉県銚子市小浜町
2880822,千葉県,銚子市,八木町,チバケン,チョウシシ,ヤギチョウ,千葉県銚子市八木町
2880823,千葉県,銚子市,親田町,チバケン,チョウシシ,オヤダチョウ,千葉県銚子市親田町
2880824,千葉県,銚子市,常世田町,チバケン,チョウシシ,トコヨダチョウ,千葉県銚子市常世田町
2880825,千葉県,銚子市,新町,チバケン,チョウシシ,シンチョウ,千葉県銚子市新町
2880831,千葉県,銚子市,本城町,チバケン,チョウシシ,ホンジョウマチ,千葉県銚子市本城町
2880832,千葉県,銚子市,松岸見晴台,チバケン,チョウシシ,マツギシミハラシダイ,千葉県銚子市松岸見晴台
2880833,千葉県,銚子市,垣根見晴台,チバケン,チョウシシ,カキネミハラシダイ,千葉県銚子市垣根見晴台
2880834,千葉県,銚子市,高野町,チバケン,チョウシシ,タカノマチ,千葉県銚子市高野町
2880835,千葉県,銚子市,垣根町,チバケン,チョウシシ,カキネマチ,千葉県銚子市垣根町
2880836,千葉県,銚子市,松岸町,チバケン,チョウシシ,マツギシマチ,千葉県銚子市松岸町
2880837,千葉県,銚子市,長塚町,チバケン,チョウシシ,ナガツカマチ,千葉県銚子市長塚町
2880841,千葉県,銚子市,四日市場町,チバケン,チョウシシ,ヨッカイチバマチ,千葉県銚子市四日市場町
2880842,千葉県,銚子市,柴崎町,チバケン,チョウシシ,シバサキマチ,千葉県銚子市柴崎町
2880843,千葉県,銚子市,四日市場台,チバケン,チョウシシ,ヨッカイチバダイ,千葉県銚子市四日市場台
2880844,千葉県,銚子市,赤塚町,チバケン,チョウシシ,アカヅカマチ,千葉県銚子市赤塚町
2880845,千葉県,銚子市,三宅町,チバケン,チョウシシ,ミヤケマチ,千葉県銚子市三宅町
2880846,千葉県,銚子市,余山町,チバケン,チョウシシ,ヨヤママチ,千葉県銚子市余山町
2880851,千葉県,銚子市,三門町,チバケン,チョウシシ,ミカドチョウ,千葉県銚子市三門町
2880852,千葉県,銚子市,岡野台町,チバケン,チョウシシ,オカノダイチョウ,千葉県銚子市岡野台町
2880853,千葉県,銚子市,白石町,チバケン,チョウシシ,シライシチョウ,千葉県銚子市白石町
2880854,千葉県,銚子市,茶畑町,チバケン,チョウシシ,チャバタケチョウ,千葉県銚子市茶畑町
2880855,千葉県,銚子市,猿田町,チバケン,チョウシシ,サルダチョウ,千葉県銚子市猿田町
2880856,千葉県,銚子市,正明寺町,チバケン,チョウシシ,ショウミョウジチョウ,千葉県銚子市正明寺町
2880857,千葉県,銚子市,船木町,チバケン,チョウシシ,フナキチョウ,千葉県銚子市船木町
2880858,千葉県,銚子市,中島町,チバケン,チョウシシ,ナカジマチョウ,千葉県銚子市中島町
2880861,千葉県,銚子市,芦崎町,チバケン,チョウシシ,アシサキチョウ,千葉県銚子市芦崎町
2880862,千葉県,銚子市,高田町,チバケン,チョウシシ,タカダチョウ,千葉県銚子市高田町
2880863,千葉県,銚子市,野尻町,チバケン,チョウシシ,ノジリチョウ,千葉県銚子市野尻町
2880864,千葉県,銚子市,小船木町,チバケン,チョウシシ,コブナキチョウ,千葉県銚子市小船木町
2880865,千葉県,銚子市,長山町,チバケン,チョウシシ,ナガヤマチョウ,千葉県銚子市長山町
2880866,千葉県,銚子市,小長町,チバケン,チョウシシ,コナガチョウ,千葉県銚子市小長町
2880867,千葉県,銚子市,忍町,チバケン,チョウシシ,シノビチョウ,千葉県銚子市忍町
2880868,千葉県,銚子市,塚本町,チバケン,チョウシシ,ツカモトチョウ,千葉県銚子市塚本町
2880871,千葉県,銚子市,富川町,チバケン,チョウシシ,トミガワチョウ,千葉県銚子市富川町
2880872,千葉県,銚子市,森戸町,チバケン,チョウシシ,モリトチョウ,千葉県銚子市森戸町
2880873,千葉県,銚子市,笹本町,チバケン,チョウシシ,ササモトチョウ,千葉県銚子市笹本町
2880874,千葉県,銚子市,豊里台,チバケン,チョウシシ,トヨサトダイ,千葉県銚子市豊里台
2880875,千葉県,銚子市,諸持町,チバケン,チョウシシ,モロモチチョウ,千葉県銚子市諸持町
2880876,千葉県,銚子市,桜井町,チバケン,チョウシシ,サクライチョウ,千葉県銚子市桜井町
2880877,千葉県,銚子市,宮原町,チバケン,チョウシシ,ミヤバラチョウ,千葉県銚子市宮原町
2890100,千葉県,香取郡神崎町,,チバケン,カトリグンコウザキマチ,,千葉県香取郡神崎町
2890101,千葉県,成田市,小浮,チバケン,ナリタシ,コブケ,千葉県成田市小浮
2890102,千葉県,成田市,野馬込,チバケン,ナリタシ,ノマゴメ,千葉県成田市野馬込
2890103,千葉県,成田市,高,チバケン,ナリタシ,タカ,千葉県成田市高
2890104,千葉県,成田市,冬父,チバケン,ナリタシ,トブ,千葉県成田市冬父
2890105,千葉県,成田市,中里,チバケン,ナリタシ,ナカザト,千葉県成田市中里
2890106,千葉県,成田市,小野,チバケン,ナリタシ,オノ,千葉県成田市小野
2890107,千葉県,成田市,猿山,チバケン,ナリタシ,サルヤマ,千葉県成田市猿山
2890108,千葉県,成田市,高岡,チバケン,ナリタシ,タカオカ,千葉県成田市高岡
2890109,千葉県,成田市,大和田,チバケン,ナリタシ,オオワダ,千葉県成田市大和田
2890111,千葉県,成田市,名木,チバケン,ナリタシ,ナギ,千葉県成田市名木
2890112,千葉県,成田市,青山,チバケン,ナリタシ,アオヤマ,千葉県成田市青山
2890113,千葉県,成田市,倉水,チバケン,ナリタシ,クラミズ,千葉県成田市倉水
2890114,千葉県,成田市,成井,チバケン,ナリタシ,ナルイ,千葉県成田市成井
2890115,千葉県,成田市,地蔵原新田,チバケン,ナリタシ,ジゾウハラシンデン,千葉県成田市地蔵原新田
2890116,千葉県,成田市,名古屋,チバケン,ナリタシ,ナゴヤ,千葉県成田市名古屋
2890117,千葉県,成田市,七沢,チバケン,ナリタシ,ナナサワ,千葉県成田市七沢
2890121,千葉県,成田市,大菅,チバケン,ナリタシ,オオスゲ,千葉県成田市大菅
2890122,千葉県,成田市,高倉,チバケン,ナリタシ,タカクラ,千葉県成田市高倉
2890123,千葉県,成田市,四谷,チバケン,ナリタシ,ヨツヤ,千葉県成田市四谷
2890124,千葉県,成田市,西大須賀,チバケン,ナリタシ,ニシオオスカ,千葉県成田市西大須賀
2890125,千葉県,成田市,滑川,チバケン,ナリタシ,ナメガワ,千葉県成田市滑川
2890126,千葉県,成田市,新川,チバケン,ナリタシ,シンカワ,千葉県成田市新川
2890201,千葉県,香取郡神崎町,高谷,チバケン,カトリグンコウザキマチ,コウヤ,千葉県香取郡神崎町高谷
2890202,千葉県,香取郡神崎町,郡,チバケン,カトリグンコウザキマチ,コオリ,千葉県香取郡神崎町郡
2890203,千葉県,香取郡神崎町,大貫,チバケン,カトリグンコウザキマチ,オオヌキ,千葉県香取郡神崎町大貫
2890204,千葉県,香取郡神崎町,四季の丘,チバケン,カトリグンコウザキマチ,シキノオカ,千葉県香取郡神崎町四季の丘
2890205,千葉県,香取郡神崎町,今,チバケン,カトリグンコウザキマチ,イマ,千葉県香取郡神崎町今
2890211,千葉県,香取郡神崎町,立野,チバケン,カトリグンコウザキマチ,タチノ,千葉県香取郡神崎町立野
2890212,千葉県,香取郡神崎町,武田,チバケン,カトリグンコウザキマチ,タケダ,千葉県香取郡神崎町武田
2890213,千葉県,香取郡神崎町,新,チバケン,カトリグンコウザキマチ,シン,千葉県香取郡神崎町新
2890214,千葉県,香取郡神崎町,毛成,チバケン,カトリグンコウザキマチ,ケナリ,千葉県香取郡神崎町毛成
2890215,千葉県,香取郡神崎町,古原,チバケン,カトリグンコウザキマチ,コハラ,千葉県香取郡神崎町古原
2890216,千葉県,香取郡神崎町,植房,チバケン,カトリグンコウザキマチ,ウエボウ,千葉県香取郡神崎町植房
2890217,千葉県,香取郡神崎町,藤の台,チバケン,カトリグンコウザキマチ,フジノダイ,千葉県香取郡神崎町藤の台
2890221,千葉県,香取郡神崎町,神崎本宿,チバケン,カトリグンコウザキマチ,コウザキホンシュク,千葉県香取郡神崎町神崎本宿
2890222,千葉県,香取郡神崎町,並木,チバケン,カトリグンコウザキマチ,ナミキ,千葉県香取郡神崎町並木
2890223,千葉県,香取郡神崎町,小松,チバケン,カトリグンコウザキマチ,コマツ,千葉県香取郡神崎町小松
2890224,千葉県,香取郡神崎町,松崎,チバケン,カトリグンコウザキマチ,マツザキ,千葉県香取郡神崎町松崎
2890225,千葉県,香取郡神崎町,十三間戸,チバケン,カトリグンコウザキマチ,ジュウサンマド,千葉県香取郡神崎町十三間戸
2890226,千葉県,香取郡神崎町,神崎神宿,チバケン,カトリグンコウザキマチ,コウザキシンシュク,千葉県香取郡神崎町神崎神宿
2890301,千葉県,香取市,一ノ分目,チバケン,カトリシ,イチノワケメ,千葉県香取市一ノ分目
2890302,千葉県,香取市,三ノ分目,チバケン,カトリシ,サンノワケメ,千葉県香取市三ノ分目
2890303,千葉県,香取市,富田,チバケン,カトリシ,トミタ,千葉県香取市富田
2890304,千葉県,香取市,下小堀,チバケン,カトリシ,シモコボリ,千葉県香取市下小堀
2890305,千葉県,香取市,分郷,チバケン,カトリシ,ワカレゴウ,千葉県香取市分郷
2890306,千葉県,香取市,上小堀,チバケン,カトリシ,カミコボリ,千葉県香取市上小堀
2890307,千葉県,香取市,増田,チバケン,カトリシ,マシタ,千葉県香取市増田
2890308,千葉県,香取市,木内虫幡上小堀入会地大平,チバケン,カトリシ,キノウチムシハタカミコボリイリアイチオオダイラ,千葉県香取市木内虫幡上小堀入会地大平
2890311,千葉県,香取市,八日市場,チバケン,カトリシ,ヨウカイチバ,千葉県香取市八日市場
2890312,千葉県,香取市,本郷,チバケン,カトリシ,ホンゴウ,千葉県香取市本郷
2890313,千葉県,香取市,小見川,チバケン,カトリシ,オミガワ,千葉県香取市小見川
2890314,千葉県,香取市,野田,チバケン,カトリシ,ノダ,千葉県香取市野田
2890321,千葉県,香取市,阿玉川,チバケン,カトリシ,アタマガワ,千葉県香取市阿玉川
2890322,千葉県,香取市,下飯田,チバケン,カトリシ,シモイイダ,千葉県香取市下飯田
2890323,千葉県,香取市,岡飯田,チバケン,カトリシ,オカイイダ,千葉県香取市岡飯田
2890324,千葉県,香取市,和泉,チバケン,カトリシ,イズミ,千葉県香取市和泉
2890325,千葉県,香取市,貝塚,チバケン,カトリシ,カイヅカ,千葉県香取市貝塚
2890326,千葉県,香取市,阿玉台,チバケン,カトリシ,アタマダイ,千葉県香取市阿玉台
2890327,千葉県,香取市,久保,チバケン,カトリシ,クボ,千葉県香取市久保
2890328,千葉県,香取市,五郷内,チバケン,カトリシ,ゴゴウチ,千葉県香取市五郷内
2890329,千葉県,香取市,布野,チバケン,カトリシ,フノ,千葉県香取市布野
2890331,千葉県,香取市,羽根川,チバケン,カトリシ,ハネガワ,千葉県香取市羽根川
2890332,千葉県,香取市,南原地新田,チバケン,カトリシ,ミナミハラチシンデン,千葉県香取市南原地新田
2890333,千葉県,香取市,入会地,チバケン,カトリシ,イリアイチ,千葉県香取市入会地
2890334,千葉県,香取市,川頭,チバケン,カトリシ,カワガシラ,千葉県香取市川頭
2890335,千葉県,香取市,北原地新田,チバケン,カトリシ,キタハラチシンデン,千葉県香取市北原地新田
2890336,千葉県,香取市,新々田,チバケン,カトリシ,シンシンデン,千葉県香取市新々田
2890337,千葉県,香取市,木内,チバケン,カトリシ,キノウチ,千葉県香取市木内
2890338,千葉県,香取市,下小川,チバケン,カトリシ,シモオガワ,千葉県香取市下小川
2890341,千葉県,香取市,虫幡,チバケン,カトリシ,ムシハタ,千葉県香取市虫幡
2890342,千葉県,香取市,竜谷,チバケン,カトリシ,リュウザク,千葉県香取市竜谷
2890343,千葉県,香取市,山川,チバケン,カトリシ,ヤマガワ,千葉県香取市山川
2890344,千葉県,香取市,白井,チバケン,カトリシ,シライ,千葉県香取市白井
2890345,千葉県,香取市,八本,チバケン,カトリシ,ハチホン,千葉県香取市八本
2890346,千葉県,香取市,油田,チバケン,カトリシ,アブラタ,千葉県香取市油田
2890347,千葉県,香取市,旗鉾,チバケン,カトリシ,ハタホコ,千葉県香取市旗鉾
2890348,千葉県,香取市,織幡,チバケン,カトリシ,オリハタ,千葉県香取市織幡
2890349,千葉県,香取市,内野,チバケン,カトリシ,ウチノ,千葉県香取市内野
2890401,千葉県,香取市,米野井,チバケン,カトリシ,コメノイ,千葉県香取市米野井
2890402,千葉県,香取市,小見,チバケン,カトリシ,オミ,千葉県香取市小見
2890403,千葉県,香取市,川上,チバケン,カトリシ,カワカミ,千葉県香取市川上
2890404,千葉県,香取市,高野,チバケン,カトリシ,コウヤ,千葉県香取市高野
2890405,千葉県,香取市,竹之内,チバケン,カトリシ,タケノウチ,千葉県香取市竹之内
2890406,千葉県,香取市,田部,チバケン,カトリシ,タベ,千葉県香取市田部
2890407,千葉県,香取市,仁良,チバケン,カトリシ,ニラ,千葉県香取市仁良
2890408,千葉県,香取市,神生,チバケン,カトリシ,カンノウ,千葉県香取市神生
2890411,千葉県,香取市,府馬,チバケン,カトリシ,フマ,千葉県香取市府馬
2890412,千葉県,香取市,古内,チバケン,カトリシ,フルウチ,千葉県香取市古内
2890413,千葉県,香取市,志高,チバケン,カトリシ,シダカ,千葉県香取市志高
2890414,千葉県,香取市,長岡,チバケン,カトリシ,ナガオカ,千葉県香取市長岡
2890421,千葉県,香取市,鳩山,チバケン,カトリシ,ハトヤマ,千葉県香取市鳩山
2890422,千葉県,香取市,桐谷,チバケン,カトリシ,キリザク,千葉県香取市桐谷
2890423,千葉県,香取市,小川,チバケン,カトリシ,オガワ,千葉県香取市小川
2890424,千葉県,香取市,新里,チバケン,カトリシ,ニッサト,千葉県香取市新里
2890425,千葉県,香取市,大角,チバケン,カトリシ,オオトガリ,千葉県香取市大角
2890426,千葉県,香取市,山倉,チバケン,カトリシ,ヤマクラ,千葉県香取市山倉
2890501,千葉県,旭市,清和乙,チバケン,アサヒシ,セイワオツ,千葉県旭市清和乙
2890502,千葉県,旭市,長部,チバケン,アサヒシ,ナガベ,千葉県旭市長部
2890503,千葉県,旭市,溝原,チバケン,アサヒシ,ミゾワラ,千葉県旭市溝原
2890504,千葉県,旭市,櫻井,チバケン,アサヒシ,サクライ,千葉県旭市櫻井
2890505,千葉県,旭市,萬歳,チバケン,アサヒシ,マンザイ,千葉県旭市萬歳
2890506,千葉県,旭市,さくら台,チバケン,アサヒシ,サクラダイ,千葉県旭市さくら台
2890507,千葉県,旭市,清和甲,チバケン,アサヒシ,セイワコウ,千葉県旭市清和甲
2890511,千葉県,旭市,鏑木,チバケン,アサヒシ,カブラキ,千葉県旭市鏑木
2890512,千葉県,旭市,南堀之内,チバケン,アサヒシ,ミナミホリノウチ,千葉県旭市南堀之内
2890513,千葉県,旭市,舟戸,チバケン,アサヒシ,フナド,千葉県旭市舟戸
2890514,千葉県,旭市,関戸,チバケン,アサヒシ,セキド,千葉県旭市関戸
2890515,千葉県,旭市,入野,チバケン,アサヒシ,イリノ,千葉県旭市入野
2890516,千葉県,旭市,米込,チバケン,アサヒシ,ヨネゴメ,千葉県旭市米込
2890517,千葉県,旭市,萬力,チバケン,アサヒシ,マンリキ,千葉県旭市萬力
2890518,千葉県,旭市,秋田,チバケン,アサヒシ,アキタ,千葉県旭市秋田
2890600,千葉県,香取郡東庄町,,チバケン,カトリグントウノショウマチ,,千葉県香取郡東庄町
2890601,千葉県,香取郡東庄町,笹川い,チバケン,カトリグントウノショウマチ,ササガワイ,千葉県香取郡東庄町笹川い
2890602,千葉県,香取郡東庄町,笹川ろ,チバケン,カトリグントウノショウマチ,ササガワロ,千葉県香取郡東庄町笹川ろ
2890611,千葉県,香取郡東庄町,新宿,チバケン,カトリグントウノショウマチ,ニイジュク,千葉県香取郡東庄町新宿
2890612,千葉県,香取郡東庄町,石出,チバケン,カトリグントウノショウマチ,イシデ,千葉県香取郡東庄町石出
2890613,千葉県,香取郡東庄町,東今泉,チバケン,カトリグントウノショウマチ,ヒガシイマイズミ,千葉県香取郡東庄町東今泉
2890614,千葉県,香取郡東庄町,宮本,チバケン,カトリグントウノショウマチ,ミヤモト,千葉県香取郡東庄町宮本
2890615,千葉県,香取郡東庄町,青馬,チバケン,カトリグントウノショウマチ,オオマ,千葉県香取郡東庄町青馬
2890616,千葉県,香取郡東庄町,高部,チバケン,カトリグントウノショウマチ,タカベ,千葉県香取郡東庄町高部
2890617,千葉県,香取郡東庄町,羽計,チバケン,カトリグントウノショウマチ,ハバカリ,千葉県香取郡東庄町羽計
2890618,千葉県,香取郡東庄町,谷津,チバケン,カトリグントウノショウマチ,ヤヅ,千葉県香取郡東庄町谷津
2890619,千葉県,香取郡東庄町,今郡,チバケン,カトリグントウノショウマチ,イマゴオリ,千葉県香取郡東庄町今郡
2890621,千葉県,香取郡東庄町,大友,チバケン,カトリグントウノショウマチ,オオトモ,千葉県香取郡東庄町大友
2890622,千葉県,香取郡東庄町,小座,チバケン,カトリグントウノショウマチ,オザ,千葉県香取郡東庄町小座
2890623,千葉県,香取郡東庄町,宮野台,チバケン,カトリグントウノショウマチ,ミヤノダイ,千葉県香取郡東庄町宮野台
2890624,千葉県,香取郡東庄町,小南,チバケン,カトリグントウノショウマチ,コミナミ,千葉県香取郡東庄町小南
2890625,千葉県,香取郡東庄町,夏目,チバケン,カトリグントウノショウマチ,ナツメ,千葉県香取郡東庄町夏目
2890626,千葉県,香取郡東庄町,八重穂,チバケン,カトリグントウノショウマチ,ヤエボ,千葉県香取郡東庄町八重穂
2890627,千葉県,香取郡東庄町,粟野,チバケン,カトリグントウノショウマチ,アワノ,千葉県香取郡東庄町粟野
2890631,千葉県,香取郡東庄町,平山,チバケン,カトリグントウノショウマチ,ヒラヤマ,千葉県香取郡東庄町平山
2890632,千葉県,香取郡東庄町,窪野谷,チバケン,カトリグントウノショウマチ,クボノヤ,千葉県香取郡東庄町窪野谷
2890633,千葉県,香取郡東庄町,大久保,チバケン,カトリグントウノショウマチ,オオクボ,千葉県香取郡東庄町大久保
2890634,千葉県,香取郡東庄町,舟戸,チバケン,カトリグントウノショウマチ,フナド,千葉県香取郡東庄町舟戸
2890635,千葉県,香取郡東庄町,神田,チバケン,カトリグントウノショウマチ,カンダ,千葉県香取郡東庄町神田
2890636,千葉県,香取郡東庄町,東和田,チバケン,カトリグントウノショウマチ,トウワダ,千葉県香取郡東庄町東和田
2890637,千葉県,香取郡東庄町,小貝野,チバケン,カトリグントウノショウマチ,コガイノ,千葉県香取郡東庄町小貝野
2891100,千葉県,八街市,,チバケン,ヤチマタシ,,千葉県八街市
2891101,千葉県,八街市,朝日,チバケン,ヤチマタシ,アサヒ,千葉県八街市朝日
2891102,千葉県,八街市,沖渡,チバケン,ヤチマタシ,オキワタシ,千葉県八街市沖渡
2891103,千葉県,八街市,八街に,チバケン,ヤチマタシ,ヤチマタニ,千葉県八街市八街に
2891104,千葉県,八街市,文違,チバケン,ヤチマタシ,ヒジカイ,千葉県八街市文違
2891105,千葉県,八街市,泉台,チバケン,ヤチマタシ,イズミダイ,千葉県八街市泉台
2891106,千葉県,八街市,榎戸,チバケン,ヤチマタシ,エノキド,千葉県八街市榎戸
2891107,千葉県,八街市,八街は,チバケン,ヤチマタシ,ヤチマタハ,千葉県八街市八街は
2891108,千葉県,八街市,雁丸,チバケン,ヤチマタシ,ガンマル,千葉県八街市雁丸
2891111,千葉県,八街市,大木,チバケン,ヤチマタシ,オオギ,千葉県八街市大木
2891112,千葉県,八街市,木原,チバケン,ヤチマタシ,キバラ,千葉県八街市木原
2891113,千葉県,八街市,八街へ,チバケン,ヤチマタシ,ヤチマタヘ,千葉県八街市八街へ
2891114,千葉県,八街市,東吉田,チバケン,ヤチマタシ,ヒガシヨシダ,千葉県八街市東吉田
2891115,千葉県,八街市,八街ほ,チバケン,ヤチマタシ,ヤチマタホ,千葉県八街市八街ほ
2891116,千葉県,八街市,中央,チバケン,ヤチマタシ,チュウオウ,千葉県八街市中央
2891121,千葉県,八街市,砂,チバケン,ヤチマタシ,イサゴ,千葉県八街市砂
2891122,千葉県,八街市,四木,チバケン,ヤチマタシ,シモク,千葉県八街市四木
2891123,千葉県,八街市,滝台,チバケン,ヤチマタシ,タキダイ,千葉県八街市滝台
2891124,千葉県,八街市,山田台,チバケン,ヤチマタシ,ヤマダダイ,千葉県八街市山田台
2891125,千葉県,八街市,上砂,チバケン,ヤチマタシ,カミイサゴ,千葉県八街市上砂
2891126,千葉県,八街市,沖,チバケン,ヤチマタシ,オキ,千葉県八街市沖
2891131,千葉県,八街市,希望ケ丘,チバケン,ヤチマタシ,キボウガオカ,千葉県八街市希望ケ丘
2891132,千葉県,八街市,勢田,チバケン,ヤチマタシ,セタ,千葉県八街市勢田
2891133,千葉県,八街市,吉倉,チバケン,ヤチマタシ,ヨシクラ,千葉県八街市吉倉
2891134,千葉県,八街市,大谷流,チバケン,ヤチマタシ,オオヤル,千葉県八街市大谷流
2891135,千葉県,八街市,小谷流,チバケン,ヤチマタシ,コヤル,千葉県八街市小谷流
2891136,千葉県,八街市,根古谷,チバケン,ヤチマタシ,ネゴヤ,千葉県八街市根古谷
2891137,千葉県,八街市,岡田,チバケン,ヤチマタシ,オカダ,千葉県八街市岡田
2891138,千葉県,八街市,用草,チバケン,ヤチマタシ,モチクサ,千葉県八街市用草
2891141,千葉県,八街市,富山,チバケン,ヤチマタシ,トヤマ,千葉県八街市富山
2891142,千葉県,八街市,大関,チバケン,ヤチマタシ,オオセキ,千葉県八街市大関
2891143,千葉県,八街市,八街い,チバケン,ヤチマタシ,ヤチマタイ,千葉県八街市八街い
2891144,千葉県,八街市,八街ろ,チバケン,ヤチマタシ,ヤチマタロ,千葉県八街市八街ろ
2891145,千葉県,八街市,みどり台,チバケン,ヤチマタシ,ミドリダイ,千葉県八街市みどり台
2891201,千葉県,山武市,板川,チバケン,サンムシ,イタガワ,千葉県山武市板川
2891202,千葉県,山武市,中津田,チバケン,サンムシ,ナカツタ,千葉県山武市中津田
2891203,千葉県,山武市,麻生新田,チバケン,サンムシ,アソウシンデン,千葉県山武市麻生新田
2891204,千葉県,山武市,戸田,チバケン,サンムシ,トダ,千葉県山武市戸田
2891205,千葉県,山武市,椎崎,チバケン,サンムシ,シイザキ,千葉県山武市椎崎
2891206,千葉県,山武市,日向台,チバケン,サンムシ,ヒュウガダイ,千葉県山武市日向台
2891211,千葉県,山武市,大木,チバケン,サンムシ,オオギ,千葉県山武市大木
2891212,千葉県,山武市,木原,チバケン,サンムシ,キバラ,千葉県山武市木原
2891213,千葉県,山武市,雨坪,チバケン,サンムシ,アメツボ,千葉県山武市雨坪
2891214,千葉県,山武市,森,チバケン,サンムシ,モリ,千葉県山武市森
2891215,千葉県,山武市,矢部,チバケン,サンムシ,ヤベ,千葉県山武市矢部
2891216,千葉県,山武市,植草,チバケン,サンムシ,ウエクサ,千葉県山武市植草
2891217,千葉県,山武市,下布田,チバケン,サンムシ,シモフダ,千葉県山武市下布田
2891218,千葉県,山武市,武勝,チバケン,サンムシ,ムショウ,千葉県山武市武勝
2891221,千葉県,山武市,実門,チバケン,サンムシ,サネカド,千葉県山武市実門
2891222,千葉県,山武市,板中新田,チバケン,サンムシ,イタナカシンデン,千葉県山武市板中新田
2891223,千葉県,山武市,埴谷,チバケン,サンムシ,ハニヤ,千葉県山武市埴谷
2891224,千葉県,山武市,美杉野,チバケン,サンムシ,ミスギノ,千葉県山武市美杉野
2891225,千葉県,山武市,沖渡,チバケン,サンムシ,オキワタシ,千葉県山武市沖渡
2891226,千葉県,山武市,横田,チバケン,サンムシ,ヨコタ,千葉県山武市横田
2891300,千葉県,山武市,,チバケン,サンムシ,,千葉県山武市
2891301,千葉県,山武市,木戸,チバケン,サンムシ,キド,千葉県山武市木戸
2891302,千葉県,山武市,小松,チバケン,サンムシ,コマツ,千葉県山武市小松
2891303,千葉県,山武市,松ヶ谷,チバケン,サンムシ,マツガヤ,千葉県山武市松ヶ谷
2891304,千葉県,山武市,井之内,チバケン,サンムシ,イノウチ,千葉県山武市井之内
2891305,千葉県,山武市,本須賀,チバケン,サンムシ,モトスカ,千葉県山武市本須賀
2891306,千葉県,山武市,白幡,チバケン,サンムシ,シラハタ,千葉県山武市白幡
2891311,千葉県,山武市,早船,チバケン,サンムシ,ハヤフネ,千葉県山武市早船
2891312,千葉県,山武市,柴原,チバケン,サンムシ,シバハラ,千葉県山武市柴原
2891313,千葉県,山武市,上横地,チバケン,サンムシ,カミヨコジ,千葉県山武市上横地
2891314,千葉県,山武市,下横地,チバケン,サンムシ,シモヨコヂ,千葉県山武市下横地
2891315,千葉県,山武市,草深,チバケン,サンムシ,クサブカ,千葉県山武市草深
2891316,千葉県,山武市,五木田,チバケン,サンムシ,ゴキタ,千葉県山武市五木田
2891317,千葉県,山武市,小泉,チバケン,サンムシ,コイズミ,千葉県山武市小泉
2891318,千葉県,山武市,寺崎,チバケン,サンムシ,テラザキ,千葉県山武市寺崎
2891321,千葉県,山武市,富田,チバケン,サンムシ,トミダ,千葉県山武市富田
2891322,千葉県,山武市,富田幸谷,チバケン,サンムシ,トミダゴウヤ,千葉県山武市富田幸谷
2891323,千葉県,山武市,富口,チバケン,サンムシ,トミグチ,千葉県山武市富口
2891324,千葉県,山武市,殿台,チバケン,サンムシ,トノダイ,千葉県山武市殿台
2891325,千葉県,山武市,島,チバケン,サンムシ,シマ,千葉県山武市島
2891326,千葉県,山武市,成東,チバケン,サンムシ,ナルトウ,千葉県山武市成東
2891327,千葉県,山武市,姫島,チバケン,サンムシ,ヒメシマ,千葉県山武市姫島
2891328,千葉県,山武市,湯坂,チバケン,サンムシ,ユサカ,千葉県山武市湯坂
2891331,千葉県,山武市,川崎,チバケン,サンムシ,カワサキ,千葉県山武市川崎
2891332,千葉県,山武市,親田,チバケン,サンムシ,オヤダ,千葉県山武市親田
2891333,千葉県,山武市,市場,チバケン,サンムシ,イチバ,千葉県山武市市場
2891334,千葉県,山武市,和田,チバケン,サンムシ,ワダ,千葉県山武市和田
2891335,千葉県,山武市,板附,チバケン,サンムシ,イタツキ,千葉県山武市板附
2891341,千葉県,山武市,野堀,チバケン,サンムシ,ノボリ,千葉県山武市野堀
2891342,千葉県,山武市,嶋戸,チバケン,サンムシ,シマド,千葉県山武市嶋戸
2891343,千葉県,山武市,真行寺,チバケン,サンムシ,シンギョウジ,千葉県山武市真行寺
2891344,千葉県,山武市,新泉,チバケン,サンムシ,ニイノミ,千葉県山武市新泉
2891345,千葉県,山武市,津辺,チバケン,サンムシ,ツベ,千葉県山武市津辺
2891501,千葉県,山武市,松尾町山室,チバケン,サンムシ,マツオマチヤマムロ,千葉県山武市松尾町山室
2891502,千葉県,山武市,松尾町引越,チバケン,サンムシ,マツオマチヒッコシ,千葉県山武市松尾町引越
2891503,千葉県,山武市,松尾町谷津,チバケン,サンムシ,マツオマチヤツ,千葉県山武市松尾町谷津
2891504,千葉県,山武市,松尾町古和,チバケン,サンムシ,マツオマチコワ,千葉県山武市松尾町古和
2891505,千葉県,山武市,松尾町金尾,チバケン,サンムシ,マツオマチカンノオ,千葉県山武市松尾町金尾
2891506,千葉県,山武市,松尾町上大蔵,チバケン,サンムシ,マツオマチカミオオクラ,千葉県山武市松尾町上大蔵
2891507,千葉県,山武市,松尾町小川,チバケン,サンムシ,マツオマチオガワ,千葉県山武市松尾町小川
2891511,千葉県,山武市,松尾町蕪木,チバケン,サンムシ,マツオマチカブラキ,千葉県山武市松尾町蕪木
2891512,千葉県,山武市,松尾町八田,チバケン,サンムシ,マツオマチハッタ,千葉県山武市松尾町八田
2891513,千葉県,山武市,松尾町猿尾,チバケン,サンムシ,マツオマチサルオ,千葉県山武市松尾町猿尾
2891514,千葉県,山武市,松尾町松尾,チバケン,サンムシ,マツオマチマツオ,千葉県山武市松尾町松尾
2891515,千葉県,山武市,松尾町富士見台,チバケン,サンムシ,マツオマチフジミダイ,千葉県山武市松尾町富士見台
2891516,千葉県,山武市,松尾町田越,チバケン,サンムシ,マツオマチタコエ,千葉県山武市松尾町田越
2891517,千葉県,山武市,松尾町下大蔵,チバケン,サンムシ,マツオマチシモオオクラ,千葉県山武市松尾町下大蔵
2891521,千葉県,山武市,松尾町本柏,チバケン,サンムシ,マツオマチモトガシワ,千葉県山武市松尾町本柏
2891522,千葉県,山武市,松尾町高富,チバケン,サンムシ,マツオマチタカトミ,千葉県山武市松尾町高富
2891523,千葉県,山武市,松尾町五反田,チバケン,サンムシ,マツオマチゴタンダ,千葉県山武市松尾町五反田
2891524,千葉県,山武市,松尾町祝田,チバケン,サンムシ,マツオマチイワイタ,千葉県山武市松尾町祝田
2891525,千葉県,山武市,松尾町本水深,チバケン,サンムシ,マツオマチモトミズフカ,千葉県山武市松尾町本水深
2891526,千葉県,山武市,松尾町水深,チバケン,サンムシ,マツオマチミズフカ,千葉県山武市松尾町水深
2891527,千葉県,山武市,松尾町大堤,チバケン,サンムシ,マツオマチオオツツミ,千葉県山武市松尾町大堤
2891531,千葉県,山武市,松尾町木刀,チバケン,サンムシ,マツオマチキガタナ,千葉県山武市松尾町木刀
2891532,千葉県,山武市,松尾町武野里,チバケン,サンムシ,マツオマチタケノサト,千葉県山武市松尾町武野里
2891533,千葉県,山武市,松尾町広根,チバケン,サンムシ,マツオマチヒロネ,千葉県山武市松尾町広根
2891534,千葉県,山武市,松尾町下野,チバケン,サンムシ,マツオマチシモノ,千葉県山武市松尾町下野
2891535,千葉県,山武市,松尾町折戸,チバケン,サンムシ,マツオマチオリト,千葉県山武市松尾町折戸
2891536,千葉県,山武市,松尾町下之郷,チバケン,サンムシ,マツオマチシモノゴウ,千葉県山武市松尾町下之郷
2891537,千葉県,山武市,松尾町借毛本郷,チバケン,サンムシ,マツオマチカシケホンゴウ,千葉県山武市松尾町借毛本郷
2891600,千葉県,山武郡芝山町,,チバケン,サンブグンシバヤママチ,,千葉県山武郡芝山町
2891601,千葉県,山武郡芝山町,香山新田（その他）,チバケン,サンブグンシバヤママチ,カヤマシンデン(ソノタ),千葉県山武郡芝山町香山新田（その他）
2891602,千葉県,山武郡芝山町,菱田（その他）,チバケン,サンブグンシバヤママチ,ヒシダ(ソノタ),千葉県山武郡芝山町菱田（その他）
2891603,千葉県,山武郡芝山町,大里（その他）,チバケン,サンブグンシバヤママチ,オオサト(ソノタ),千葉県山武郡芝山町大里（その他）
2891604,千葉県,山武郡芝山町,飯櫃,チバケン,サンブグンシバヤママチ,イビツ,千葉県山武郡芝山町飯櫃
2891605,千葉県,山武郡芝山町,大台,チバケン,サンブグンシバヤママチ,オオダイ,千葉県山武郡芝山町大台
2891606,千葉県,山武郡芝山町,山田,チバケン,サンブグンシバヤママチ,ヤマダ,千葉県山武郡芝山町山田
2891607,千葉県,山武郡芝山町,朝倉,チバケン,サンブグンシバヤママチ,アサクラ,千葉県山武郡芝山町朝倉
2891608,千葉県,山武郡芝山町,岩山（その他）,チバケン,サンブグンシバヤママチ,イワヤマ(ソノタ),千葉県山武郡芝山町岩山（その他）
2891611,千葉県,山武郡芝山町,小原子,チバケン,サンブグンシバヤママチ,オバラク,千葉県山武郡芝山町小原子
2891612,千葉県,山武郡芝山町,上吹入,チバケン,サンブグンシバヤママチ,カミフキイレ,千葉県山武郡芝山町上吹入
2891613,千葉県,山武郡芝山町,下吹入,チバケン,サンブグンシバヤママチ,シモフキイレ,千葉県山武郡芝山町下吹入
2891614,千葉県,山武郡芝山町,宮崎,チバケン,サンブグンシバヤママチ,ミヤザキ,千葉県山武郡芝山町宮崎
2891615,千葉県,山武郡芝山町,境,チバケン,サンブグンシバヤママチ,サカイ,千葉県山武郡芝山町境
2891616,千葉県,山武郡芝山町,高谷,チバケン,サンブグンシバヤママチ,タカヤ,千葉県山武郡芝山町高谷
2891617,千葉県,山武郡芝山町,殿部田,チバケン,サンブグンシバヤママチ,トノベタ,千葉県山武郡芝山町殿部田
2891618,千葉県,山武郡芝山町,山中,チバケン,サンブグンシバヤママチ,ヤマナカ,千葉県山武郡芝山町山中
2891619,千葉県,山武郡芝山町,芝山,チバケン,サンブグンシバヤママチ,シバヤマ,千葉県山武郡芝山町芝山
2891621,千葉県,山武郡芝山町,牧野,チバケン,サンブグンシバヤママチ,マキノ,千葉県山武郡芝山町牧野
2891622,千葉県,山武郡芝山町,宝馬,チバケン,サンブグンシバヤママチ,ホウマ,千葉県山武郡芝山町宝馬
2891623,千葉県,山武郡芝山町,高田,チバケン,サンブグンシバヤママチ,タカダ,千葉県山武郡芝山町高田
2891624,千葉県,山武郡芝山町,小池,チバケン,サンブグンシバヤママチ,コイケ,千葉県山武郡芝山町小池
2891625,千葉県,山武郡芝山町,新井田,チバケン,サンブグンシバヤママチ,ニイダ,千葉県山武郡芝山町新井田
2891626,千葉県,山武郡芝山町,新井田新田,チバケン,サンブグンシバヤママチ,ニイダシンデン,千葉県山武郡芝山町新井田新田
2891700,千葉県,山武郡横芝光町,,チバケン,サンブグンヨコシバヒカリマチ,,千葉県山武郡横芝光町
2891701,千葉県,山武郡横芝光町,篠本,チバケン,サンブグンヨコシバヒカリマチ,ササモト,千葉県山武郡横芝光町篠本
2891702,千葉県,山武郡横芝光町,二又,チバケン,サンブグンヨコシバヒカリマチ,フタマタ,千葉県山武郡横芝光町二又
2891703,千葉県,山武郡横芝光町,傍示戸,チバケン,サンブグンヨコシバヒカリマチ,ホウジド,千葉県山武郡横芝光町傍示戸
2891704,千葉県,山武郡横芝光町,富下,チバケン,サンブグンヨコシバヒカリマチ,トミシタ,千葉県山武郡横芝光町富下
2891705,千葉県,山武郡横芝光町,宝米,チバケン,サンブグンヨコシバヒカリマチ,ホウメ,千葉県山武郡横芝光町宝米
2891706,千葉県,山武郡横芝光町,市野原,チバケン,サンブグンヨコシバヒカリマチ,イチノハラ,千葉県山武郡横芝光町市野原
2891707,千葉県,山武郡横芝光町,新井,チバケン,サンブグンヨコシバヒカリマチ,アライ,千葉県山武郡横芝光町新井
2891708,千葉県,山武郡横芝光町,篠本根切,チバケン,サンブグンヨコシバヒカリマチ,ササモトネギリ,千葉県山武郡横芝光町篠本根切
2891711,千葉県,山武郡横芝光町,小川台,チバケン,サンブグンヨコシバヒカリマチ,オガワダイ,千葉県山武郡横芝光町小川台
2891712,千葉県,山武郡横芝光町,台,チバケン,サンブグンヨコシバヒカリマチ,ダイ,千葉県山武郡横芝光町台
2891713,千葉県,山武郡横芝光町,小田部,チバケン,サンブグンヨコシバヒカリマチ,コタベ,千葉県山武郡横芝光町小田部
2891714,千葉県,山武郡横芝光町,母子,チバケン,サンブグンヨコシバヒカリマチ,ハハコ,千葉県山武郡横芝光町母子
2891715,千葉県,山武郡横芝光町,芝崎,チバケン,サンブグンヨコシバヒカリマチ,シバサキ,千葉県山武郡横芝光町芝崎
2891716,千葉県,山武郡横芝光町,芝崎南,チバケン,サンブグンヨコシバヒカリマチ,シバサキミナミ,千葉県山武郡横芝光町芝崎南
2891717,千葉県,山武郡横芝光町,虫生,チバケン,サンブグンヨコシバヒカリマチ,ムショウ,千葉県山武郡横芝光町虫生
2891721,千葉県,山武郡横芝光町,谷中,チバケン,サンブグンヨコシバヒカリマチ,ヤナカ,千葉県山武郡横芝光町谷中
2891722,千葉県,山武郡横芝光町,目篠,チバケン,サンブグンヨコシバヒカリマチ,メジノ,千葉県山武郡横芝光町目篠
2891723,千葉県,山武郡横芝光町,上原,チバケン,サンブグンヨコシバヒカリマチ,カンバラ,千葉県山武郡横芝光町上原
2891724,千葉県,山武郡横芝光町,原方,チバケン,サンブグンヨコシバヒカリマチ,ハラカタ,千葉県山武郡横芝光町原方
2891725,千葉県,山武郡横芝光町,尾垂,チバケン,サンブグンヨコシバヒカリマチ,オダレ,千葉県山武郡横芝光町尾垂
2891726,千葉県,山武郡横芝光町,木戸,チバケン,サンブグンヨコシバヒカリマチ,キド,千葉県山武郡横芝光町木戸
2891727,千葉県,山武郡横芝光町,宮川,チバケン,サンブグンヨコシバヒカリマチ,ミヤガワ,千葉県山武郡横芝光町宮川
2891731,千葉県,山武郡横芝光町,古川,チバケン,サンブグンヨコシバヒカリマチ,コカワ,千葉県山武郡横芝光町古川
2891732,千葉県,山武郡横芝光町,横芝,チバケン,サンブグンヨコシバヒカリマチ,ヨコシバ,千葉県山武郡横芝光町横芝
2891733,千葉県,山武郡横芝光町,栗山,チバケン,サンブグンヨコシバヒカリマチ,クリヤマ,千葉県山武郡横芝光町栗山
2891734,千葉県,山武郡横芝光町,北清水,チバケン,サンブグンヨコシバヒカリマチ,キタシミズ,千葉県山武郡横芝光町北清水
2891735,千葉県,山武郡横芝光町,屋形,チバケン,サンブグンヨコシバヒカリマチ,ヤカタ,千葉県山武郡横芝光町屋形
2891736,千葉県,山武郡横芝光町,新島,チバケン,サンブグンヨコシバヒカリマチ,ニイジマ,千葉県山武郡横芝光町新島
2891737,千葉県,山武郡横芝光町,鳥喰下,チバケン,サンブグンヨコシバヒカリマチ,トリハミシモ,千葉県山武郡横芝光町鳥喰下
2891738,千葉県,山武郡横芝光町,鳥喰上,チバケン,サンブグンヨコシバヒカリマチ,トリハミカミ,千葉県山武郡横芝光町鳥喰上
2891739,千葉県,山武郡横芝光町,鳥喰新田,チバケン,サンブグンヨコシバヒカリマチ,トリハミシンデン,千葉県山武郡横芝光町鳥喰新田
2891741,千葉県,山武郡横芝光町,中台,チバケン,サンブグンヨコシバヒカリマチ,ナカダイ,千葉県山武郡横芝光町中台
2891742,千葉県,山武郡横芝光町,牛熊,チバケン,サンブグンヨコシバヒカリマチ,ウシクマ,千葉県山武郡横芝光町牛熊
2891743,千葉県,山武郡横芝光町,谷台,チバケン,サンブグンヨコシバヒカリマチ,ヤツダイ,千葉県山武郡横芝光町谷台
2891744,千葉県,山武郡横芝光町,木戸台,チバケン,サンブグンヨコシバヒカリマチ,キドダイ,千葉県山武郡横芝光町木戸台
2891745,千葉県,山武郡横芝光町,小堤,チバケン,サンブグンヨコシバヒカリマチ,オンヅミ,千葉県山武郡横芝光町小堤
2891746,千葉県,山武郡横芝光町,寺方,チバケン,サンブグンヨコシバヒカリマチ,テラカタ,千葉県山武郡横芝光町寺方
2891747,千葉県,山武郡横芝光町,曽根合,チバケン,サンブグンヨコシバヒカリマチ,ソネアイ,千葉県山武郡横芝光町曽根合
2891748,千葉県,山武郡横芝光町,於幾,チバケン,サンブグンヨコシバヒカリマチ,オキ,千葉県山武郡横芝光町於幾
2891749,千葉県,山武郡横芝光町,両国新田,チバケン,サンブグンヨコシバヒカリマチ,リョウゴクシンデン,千葉県山武郡横芝光町両国新田
2891751,千葉県,山武郡横芝光町,長山台,チバケン,サンブグンヨコシバヒカリマチ,ナガヤマダイ,千葉県山武郡横芝光町長山台
2891752,千葉県,山武郡横芝光町,姥山,チバケン,サンブグンヨコシバヒカリマチ,ウバヤマ,千葉県山武郡横芝光町姥山
2891753,千葉県,山武郡横芝光町,取立,チバケン,サンブグンヨコシバヒカリマチ,トリタテ,千葉県山武郡横芝光町取立
2891754,千葉県,山武郡横芝光町,坂田,チバケン,サンブグンヨコシバヒカリマチ,サカタ,千葉県山武郡横芝光町坂田
2891755,千葉県,山武郡横芝光町,坂田池,チバケン,サンブグンヨコシバヒカリマチ,サカタイケ,千葉県山武郡横芝光町坂田池
2891756,千葉県,山武郡横芝光町,長倉,チバケン,サンブグンヨコシバヒカリマチ,ナガクラ,千葉県山武郡横芝光町長倉
2891757,千葉県,山武郡横芝光町,遠山,チバケン,サンブグンヨコシバヒカリマチ,トオヤマ,千葉県山武郡横芝光町遠山
2891801,千葉県,山武市,蓮沼イ,チバケン,サンムシ,ハスヌマイ,千葉県山武市蓮沼イ
2891802,千葉県,山武市,蓮沼ロ,チバケン,サンムシ,ハスヌマロ,千葉県山武市蓮沼ロ
2891803,千葉県,山武市,蓮沼ホ,チバケン,サンムシ,ハスヌマホ,千葉県山武市蓮沼ホ
2891804,千葉県,山武市,蓮沼平,チバケン,サンムシ,ハスヌマヒラ,千葉県山武市蓮沼平
2891805,千葉県,山武市,蓮沼ニ,チバケン,サンムシ,ハスヌマニ,千葉県山武市蓮沼ニ
2891806,千葉県,山武市,蓮沼ハ,チバケン,サンムシ,ハスヌマハ,千葉県山武市蓮沼ハ
2892100,千葉県,匝瑳市,,チバケン,ソウサシ,,千葉県匝瑳市
2892101,千葉県,匝瑳市,春海,チバケン,ソウサシ,ハルミ,千葉県匝瑳市春海
2892102,千葉県,匝瑳市,椿,チバケン,ソウサシ,ツバキ,千葉県匝瑳市椿
2892103,千葉県,匝瑳市,宮本,チバケン,ソウサシ,ミヤモト,千葉県匝瑳市宮本
2892104,千葉県,匝瑳市,生尾,チバケン,ソウサシ,オイオ,千葉県匝瑳市生尾
2892105,千葉県,匝瑳市,山桑,チバケン,ソウサシ,ヤマクワ,千葉県匝瑳市山桑
2892106,千葉県,匝瑳市,飯塚,チバケン,ソウサシ,イイヅカ,千葉県匝瑳市飯塚
2892107,千葉県,匝瑳市,米持,チバケン,ソウサシ,ヨネモチ,千葉県匝瑳市米持
2892108,千葉県,匝瑳市,大寺,チバケン,ソウサシ,オオデラ,千葉県匝瑳市大寺
2892111,千葉県,匝瑳市,川向,チバケン,ソウサシ,カワムカイ,千葉県匝瑳市川向
2892112,千葉県,匝瑳市,荻野,チバケン,ソウサシ,オギノ,千葉県匝瑳市荻野
2892113,千葉県,匝瑳市,平木,チバケン,ソウサシ,ヒラギ,千葉県匝瑳市平木
2892114,千葉県,匝瑳市,上谷中,チバケン,ソウサシ,ジョウヤナカ,千葉県匝瑳市上谷中
2892115,千葉県,匝瑳市,東谷,チバケン,ソウサシ,ヒガシヤ,千葉県匝瑳市東谷
2892121,千葉県,匝瑳市,東小笹,チバケン,ソウサシ,ヒガシコザサ,千葉県匝瑳市東小笹
2892122,千葉県,匝瑳市,吉崎,チバケン,ソウサシ,ヨシザキ,千葉県匝瑳市吉崎
2892123,千葉県,匝瑳市,長谷,チバケン,ソウサシ,ナガヤ,千葉県匝瑳市長谷
2892124,千葉県,匝瑳市,登戸,チバケン,ソウサシ,ノブト,千葉県匝瑳市登戸
2892125,千葉県,匝瑳市,西小笹,チバケン,ソウサシ,ニシコザサ,千葉県匝瑳市西小笹
2892131,千葉県,匝瑳市,みどり平,チバケン,ソウサシ,ミドリダイラ,千葉県匝瑳市みどり平
2892132,千葉県,匝瑳市,高,チバケン,ソウサシ,タカ,千葉県匝瑳市高
2892133,千葉県,匝瑳市,蕪里,チバケン,ソウサシ,カブザト,千葉県匝瑳市蕪里
2892134,千葉県,匝瑳市,横須賀,チバケン,ソウサシ,ヨコスカ,千葉県匝瑳市横須賀
2892135,千葉県,匝瑳市,高野,チバケン,ソウサシ,コウヤ,千葉県匝瑳市高野
2892136,千葉県,匝瑳市,時曽根,チバケン,ソウサシ,トキゾネ,千葉県匝瑳市時曽根
2892141,千葉県,匝瑳市,八日市場ハ,チバケン,ソウサシ,ヨウカイチバハ,千葉県匝瑳市八日市場ハ
2892142,千葉県,匝瑳市,八日市場ニ,チバケン,ソウサシ,ヨウカイチバニ,千葉県匝瑳市八日市場ニ
2892143,千葉県,匝瑳市,八日市場ロ,チバケン,ソウサシ,ヨウカイチバロ,千葉県匝瑳市八日市場ロ
2892144,千葉県,匝瑳市,八日市場イ,チバケン,ソウサシ,ヨウカイチバイ,千葉県匝瑳市八日市場イ
2892145,千葉県,匝瑳市,若潮町,チバケン,ソウサシ,ワカシオチョウ,千葉県匝瑳市若潮町
2892146,千葉県,匝瑳市,八日市場ホ,チバケン,ソウサシ,ヨウカイチバホ,千葉県匝瑳市八日市場ホ
2892147,千葉県,匝瑳市,飯倉,チバケン,ソウサシ,イイグラ,千葉県匝瑳市飯倉
2892148,千葉県,匝瑳市,飯倉台,チバケン,ソウサシ,イイグラダイ,千葉県匝瑳市飯倉台
2892149,千葉県,匝瑳市,貝塚,チバケン,ソウサシ,カイヅカ,千葉県匝瑳市貝塚
2892151,千葉県,匝瑳市,大浦,チバケン,ソウサシ,オオウラ,千葉県匝瑳市大浦
2892152,千葉県,匝瑳市,松山,チバケン,ソウサシ,マツヤマ,千葉県匝瑳市松山
2892153,千葉県,匝瑳市,中台,チバケン,ソウサシ,ナカダイ,千葉県匝瑳市中台
2892154,千葉県,匝瑳市,富岡,チバケン,ソウサシ,トミオカ,千葉県匝瑳市富岡
2892155,千葉県,匝瑳市,八辺,チバケン,ソウサシ,ヤッペ,千葉県匝瑳市八辺
2892156,千葉県,匝瑳市,長岡,チバケン,ソウサシ,ナガオカ,千葉県匝瑳市長岡
2892157,千葉県,匝瑳市,堀之内,チバケン,ソウサシ,ホリノウチ,千葉県匝瑳市堀之内
2892161,千葉県,匝瑳市,入山崎,チバケン,ソウサシ,イリヤマザキ,千葉県匝瑳市入山崎
2892162,千葉県,匝瑳市,南山崎,チバケン,ソウサシ,ミナミヤマザキ,千葉県匝瑳市南山崎
2892163,千葉県,匝瑳市,南神崎,チバケン,ソウサシ,ミナミカンザキ,千葉県匝瑳市南神崎
2892164,千葉県,匝瑳市,木積,チバケン,ソウサシ,キズミ,千葉県匝瑳市木積
2892165,千葉県,匝瑳市,田久保,チバケン,ソウサシ,タクボ,千葉県匝瑳市田久保
2892166,千葉県,匝瑳市,新,チバケン,ソウサシ,シムラ,千葉県匝瑳市新
2892167,千葉県,匝瑳市,亀崎,チバケン,ソウサシ,カメザキ,千葉県匝瑳市亀崎
2892168,千葉県,匝瑳市,久方,チバケン,ソウサシ,ヒサカタ,千葉県匝瑳市久方
2892169,千葉県,匝瑳市,吉田,チバケン,ソウサシ,ヨシダ,千葉県匝瑳市吉田
2892171,千葉県,匝瑳市,内山,チバケン,ソウサシ,ウチヤマ,千葉県匝瑳市内山
2892172,千葉県,匝瑳市,城下,チバケン,ソウサシ,ネゴヤ,千葉県匝瑳市城下
2892173,千葉県,匝瑳市,飯高,チバケン,ソウサシ,イイダカ,千葉県匝瑳市飯高
2892174,千葉県,匝瑳市,公崎,チバケン,ソウサシ,コウザキ,千葉県匝瑳市公崎
2892175,千葉県,匝瑳市,片子,チバケン,ソウサシ,カタコ,千葉県匝瑳市片子
2892176,千葉県,匝瑳市,大堀,チバケン,ソウサシ,オオホリ,千葉県匝瑳市大堀
2892177,千葉県,匝瑳市,金原,チバケン,ソウサシ,カナバラ,千葉県匝瑳市金原
2892178,千葉県,匝瑳市,安久山,チバケン,ソウサシ,アグヤマ,千葉県匝瑳市安久山
2892179,千葉県,匝瑳市,小高,チバケン,ソウサシ,オダカ,千葉県匝瑳市小高
2892200,千葉県,香取郡多古町,,チバケン,カトリグンタコマチ,,千葉県香取郡多古町
2892231,千葉県,香取郡多古町,飯笹,チバケン,カトリグンタコマチ,イイザサ,千葉県香取郡多古町飯笹
2892232,千葉県,香取郡多古町,喜多,チバケン,カトリグンタコマチ,キタ,千葉県香取郡多古町喜多
2892233,千葉県,香取郡多古町,林,チバケン,カトリグンタコマチ,ハヤシ,千葉県香取郡多古町林
2892234,千葉県,香取郡多古町,五反田,チバケン,カトリグンタコマチ,ゴタンダ,千葉県香取郡多古町五反田
2892235,千葉県,香取郡多古町,間倉,チバケン,カトリグンタコマチ,マグラ,千葉県香取郡多古町間倉
2892236,千葉県,香取郡多古町,一鍬田（その他）,チバケン,カトリグンタコマチ,ヒトクワダ(ソノタ),千葉県香取郡多古町一鍬田（その他）
2892241,千葉県,香取郡多古町,多古,チバケン,カトリグンタコマチ,タコ,千葉県香取郡多古町多古
2892242,千葉県,香取郡多古町,染井,チバケン,カトリグンタコマチ,ソメイ,千葉県香取郡多古町染井
2892243,千葉県,香取郡多古町,島,チバケン,カトリグンタコマチ,シマ,千葉県香取郡多古町島
2892244,千葉県,香取郡多古町,船越,チバケン,カトリグンタコマチ,フナコシ,千葉県香取郡多古町船越
2892245,千葉県,香取郡多古町,牛尾,チバケン,カトリグンタコマチ,ウシノオ,千葉県香取郡多古町牛尾
2892246,千葉県,香取郡多古町,千田,チバケン,カトリグンタコマチ,チダ,千葉県香取郡多古町千田
2892247,千葉県,香取郡多古町,水戸,チバケン,カトリグンタコマチ,ミト,千葉県香取郡多古町水戸
2892251,千葉県,香取郡多古町,北中,チバケン,カトリグンタコマチ,キタナカ,千葉県香取郡多古町北中
2892252,千葉県,香取郡多古町,南和田,チバケン,カトリグンタコマチ,ミナミワダ,千葉県香取郡多古町南和田
2892253,千葉県,香取郡多古町,南借当,チバケン,カトリグンタコマチ,ミナミカリアテ,千葉県香取郡多古町南借当
2892254,千葉県,香取郡多古町,東輝,チバケン,カトリグンタコマチ,トウキ,千葉県香取郡多古町東輝
2892255,千葉県,香取郡多古町,南並木,チバケン,カトリグンタコマチ,ミナミナミキ,千葉県香取郡多古町南並木
2892256,千葉県,香取郡多古町,中村新田,チバケン,カトリグンタコマチ,ナカムラシンデン,千葉県香取郡多古町中村新田
2892257,千葉県,香取郡多古町,南中,チバケン,カトリグンタコマチ,ミナミナカ,千葉県香取郡多古町南中
2892301,千葉県,香取郡多古町,出沼,チバケン,カトリグンタコマチ,イデヌマ,千葉県香取郡多古町出沼
2892302,千葉県,香取郡多古町,桧木,チバケン,カトリグンタコマチ,ヒノキ,千葉県香取郡多古町桧木
2892303,千葉県,香取郡多古町,大門,チバケン,カトリグンタコマチ,オオカド,千葉県香取郡多古町大門
2892304,千葉県,香取郡多古町,高津原,チバケン,カトリグンタコマチ,タカツハラ,千葉県香取郡多古町高津原
2892305,千葉県,香取郡多古町,大高,チバケン,カトリグンタコマチ,オオタカ,千葉県香取郡多古町大高
2892306,千葉県,香取郡多古町,十余三,チバケン,カトリグンタコマチ,トヨミ,千葉県香取郡多古町十余三
2892311,千葉県,香取郡多古町,本三倉,チバケン,カトリグンタコマチ,モトミクラ,千葉県香取郡多古町本三倉
2892312,千葉県,香取郡多古町,谷三倉,チバケン,カトリグンタコマチ,サクミクラ,千葉県香取郡多古町谷三倉
2892313,千葉県,香取郡多古町,次浦,チバケン,カトリグンタコマチ,ツギウラ,千葉県香取郡多古町次浦
2892314,千葉県,香取郡多古町,西古内,チバケン,カトリグンタコマチ,ニシフルウチ,千葉県香取郡多古町西古内
2892315,千葉県,香取郡多古町,御所台,チバケン,カトリグンタコマチ,ゴショダイ,千葉県香取郡多古町御所台
2892316,千葉県,香取郡多古町,寺作,チバケン,カトリグンタコマチ,テラサク,千葉県香取郡多古町寺作
2892317,千葉県,香取郡多古町,井戸山,チバケン,カトリグンタコマチ,イドヤマ,千葉県香取郡多古町井戸山
2892321,千葉県,香取郡多古町,東松崎,チバケン,カトリグンタコマチ,ヒガシマツサキ,千葉県香取郡多古町東松崎
2892322,千葉県,香取郡多古町,坂,チバケン,カトリグンタコマチ,サカ,千葉県香取郡多古町坂
2892323,千葉県,香取郡多古町,方田,チバケン,カトリグンタコマチ,ホウダ,千葉県香取郡多古町方田
2892324,千葉県,香取郡多古町,川島,チバケン,カトリグンタコマチ,カワシマ,千葉県香取郡多古町川島
2892325,千葉県,香取郡多古町,南玉造,チバケン,カトリグンタコマチ,ミナミタマツクリ,千葉県香取郡多古町南玉造
2892500,千葉県,旭市,,チバケン,アサヒシ,,千葉県旭市
2892501,千葉県,旭市,新町,チバケン,アサヒシ,シンマチ,千葉県旭市新町
2892502,千葉県,旭市,琴田（その他）,チバケン,アサヒシ,コトダ(ソノタ),千葉県旭市琴田（その他）
2892503,千葉県,旭市,江ケ崎（その他）,チバケン,アサヒシ,エガサキ(ソノタ),千葉県旭市江ケ崎（その他）
2892504,千葉県,旭市,ニ,チバケン,アサヒシ,ニ,千葉県旭市ニ
2892505,千葉県,旭市,鎌数,チバケン,アサヒシ,カマカズ,千葉県旭市鎌数
2892511,千葉県,旭市,イ,チバケン,アサヒシ,イ,千葉県旭市イ
2892512,千葉県,旭市,東足洗,チバケン,アサヒシ,ヒガシアシアライ,千葉県旭市東足洗
2892513,千葉県,旭市,野中,チバケン,アサヒシ,ノナカ,千葉県旭市野中
2892514,千葉県,旭市,椎名内,チバケン,アサヒシ,シイナウチ,千葉県旭市椎名内
2892515,千葉県,旭市,西足洗,チバケン,アサヒシ,ニシアシアライ,千葉県旭市西足洗
2892516,千葉県,旭市,ロ,チバケン,アサヒシ,ロ,千葉県旭市ロ
2892521,千葉県,旭市,ハ,チバケン,アサヒシ,ハ,千葉県旭市ハ
2892522,千葉県,旭市,足川,チバケン,アサヒシ,アシカワ,千葉県旭市足川
2892523,千葉県,旭市,中谷里,チバケン,アサヒシ,ナカヤリ,千葉県旭市中谷里
2892524,千葉県,旭市,神宮寺,チバケン,アサヒシ,ジングウジ,千葉県旭市神宮寺
2892525,千葉県,旭市,仁玉,チバケン,アサヒシ,ニッタマ,千葉県旭市仁玉
2892531,千葉県,旭市,井戸野,チバケン,アサヒシ,イドノ,千葉県旭市井戸野
2892532,千葉県,旭市,駒込,チバケン,アサヒシ,コマゴメ,千葉県旭市駒込
2892533,千葉県,旭市,大塚原,チバケン,アサヒシ,オオツカハラ,千葉県旭市大塚原
2892534,千葉県,旭市,泉川,チバケン,アサヒシ,イズミカワ,千葉県旭市泉川
2892535,千葉県,旭市,川口,チバケン,アサヒシ,カワグチ,千葉県旭市川口
2892601,千葉県,旭市,松ケ谷,チバケン,アサヒシ,マツガヤ,千葉県旭市松ケ谷
2892602,千葉県,旭市,岩井,チバケン,アサヒシ,イワイ,千葉県旭市岩井
2892603,千葉県,旭市,大間手,チバケン,アサヒシ,オオマデ,千葉県旭市大間手
2892604,千葉県,旭市,高生,チバケン,アサヒシ,タカオイ,千葉県旭市高生
2892605,千葉県,旭市,琴田（８５〜１６０、１３８６〜１８１５、２５９３〜２８２０、,チバケン,アサヒシ,コトダ(85-160、1386-1815、2593-2820、,千葉県旭市琴田（85〜160、1386〜1815、2593〜2820、
2892606,千葉県,旭市,清滝,チバケン,アサヒシ,キヨタキ,千葉県旭市清滝
2892607,千葉県,旭市,幾世,チバケン,アサヒシ,イクヨ,千葉県旭市幾世
2892611,千葉県,旭市,倉橋,チバケン,アサヒシ,クラハシ,千葉県旭市倉橋
2892612,千葉県,旭市,蛇園,チバケン,アサヒシ,ヘビソノ,千葉県旭市蛇園
2892613,千葉県,旭市,後草,チバケン,アサヒシ,ウシログサ,千葉県旭市後草
2892614,千葉県,旭市,江ケ崎（１２〜２２、１２７〜１４０、１７０９、１７２３−３、,チバケン,アサヒシ,エガサキ(12-22、127-140、1709、1723-3、,千葉県旭市江ケ崎（12〜22、127〜140、1709、1723-3、
2892615,千葉県,旭市,長尾,チバケン,アサヒシ,ナガオ,千葉県旭市長尾
2892616,千葉県,旭市,見広,チバケン,アサヒシ,ミヒロ,千葉県旭市見広
2892701,千葉県,旭市,狢野,チバケン,アサヒシ,ムジナノ,千葉県旭市狢野
2892702,千葉県,旭市,塙,チバケン,アサヒシ,ハナワ,千葉県旭市塙
2892703,千葉県,旭市,八木,チバケン,アサヒシ,ヤギ,千葉県旭市八木
2892704,千葉県,旭市,上永井,チバケン,アサヒシ,カミナガイ,千葉県旭市上永井
2892705,千葉県,旭市,飯岡,チバケン,アサヒシ,イイオカ,千葉県旭市飯岡
2892706,千葉県,旭市,下永井,チバケン,アサヒシ,シモナガイ,千葉県旭市下永井
2892707,千葉県,旭市,行内,チバケン,アサヒシ,ギョウジ,千葉県旭市行内
2892708,千葉県,旭市,平松,チバケン,アサヒシ,ヒラマツ,千葉県旭市平松
2892711,千葉県,旭市,岩崎,チバケン,アサヒシ,イワサキ,千葉県旭市岩崎
2892712,千葉県,旭市,横根,チバケン,アサヒシ,ヨコネ,千葉県旭市横根
2892713,千葉県,旭市,萩園,チバケン,アサヒシ,ハギゾノ,千葉県旭市萩園
2892714,千葉県,旭市,三川,チバケン,アサヒシ,サンガワ,千葉県旭市三川
2892715,千葉県,旭市,権田沼新田,チバケン,アサヒシ,ゴンダヌマシンデン,千葉県旭市権田沼新田
2893181,千葉県,匝瑳市,野手,チバケン,ソウサシ,ノデ,千葉県匝瑳市野手
2893182,千葉県,匝瑳市,今泉,チバケン,ソウサシ,イマイズミ,千葉県匝瑳市今泉
2893183,千葉県,匝瑳市,新堀,チバケン,ソウサシ,ニイボリ,千葉県匝瑳市新堀
2893184,千葉県,匝瑳市,栢田,チバケン,ソウサシ,カヤダ,千葉県匝瑳市栢田
2893185,千葉県,匝瑳市,堀川,チバケン,ソウサシ,ホリカワ,千葉県匝瑳市堀川
2893186,千葉県,匝瑳市,川辺,チバケン,ソウサシ,カワベ,千葉県匝瑳市川辺
2900000,千葉県,市原市,,チバケン,イチハラシ,,千葉県市原市
2900001,千葉県,市原市,草刈（その他）,チバケン,イチハラシ,クサカリ(ソノタ),千葉県市原市草刈（その他）
2900002,千葉県,市原市,大厩,チバケン,イチハラシ,オオマヤ,千葉県市原市大厩
2900003,千葉県,市原市,辰巳台東,チバケン,イチハラシ,タツミダイヒガシ,千葉県市原市辰巳台東
2900004,千葉県,市原市,辰巳台西,チバケン,イチハラシ,タツミダイニシ,千葉県市原市辰巳台西
2900005,千葉県,市原市,山木,チバケン,イチハラシ,ヤマキ,千葉県市原市山木
2900006,千葉県,市原市,若宮,チバケン,イチハラシ,ワカミヤ,千葉県市原市若宮
2900007,千葉県,市原市,菊間,チバケン,イチハラシ,キクマ,千葉県市原市菊間
2900008,千葉県,市原市,古市場,チバケン,イチハラシ,フルイチバ,千葉県市原市古市場
2900011,千葉県,市原市,能満,チバケン,イチハラシ,ノウマン,千葉県市原市能満
2900012,千葉県,市原市,藤井,チバケン,イチハラシ,フジイ,千葉県市原市藤井
2900013,千葉県,市原市,郡本,チバケン,イチハラシ,コオリモト,千葉県市原市郡本
2900014,千葉県,市原市,西野谷,チバケン,イチハラシ,ニシノヤ,千葉県市原市西野谷
2900015,千葉県,市原市,市原,チバケン,イチハラシ,イチハラ,千葉県市原市市原
2900016,千葉県,市原市,門前,チバケン,イチハラシ,モンゼン,千葉県市原市門前
2900021,千葉県,市原市,山田橋,チバケン,イチハラシ,ヤマダバシ,千葉県市原市山田橋
2900022,千葉県,市原市,西広,チバケン,イチハラシ,サイヒロ,千葉県市原市西広
2900023,千葉県,市原市,惣社,チバケン,イチハラシ,ソウジャ,千葉県市原市惣社
2900024,千葉県,市原市,根田,チバケン,イチハラシ,ネダ,千葉県市原市根田
2900025,千葉県,市原市,加茂,チバケン,イチハラシ,カモ,千葉県市原市加茂
2900026,千葉県,市原市,諏訪,チバケン,イチハラシ,スワ,千葉県市原市諏訪
2900031,千葉県,市原市,村上,チバケン,イチハラシ,ムラカミ,千葉県市原市村上
2900032,千葉県,市原市,廿五里,チバケン,イチハラシ,ツイヘイジ,千葉県市原市廿五里
2900033,千葉県,市原市,野毛,チバケン,イチハラシ,ノゲ,千葉県市原市野毛
2900034,千葉県,市原市,島野,チバケン,イチハラシ,シマノ,千葉県市原市島野
2900035,千葉県,市原市,松ケ島,チバケン,イチハラシ,マツガシマ,千葉県市原市松ケ島
2900036,千葉県,市原市,松ケ島西,チバケン,イチハラシ,マツガシマニシ,千葉県市原市松ケ島西
2900037,千葉県,市原市,飯沼,チバケン,イチハラシ,イイヌマ,千葉県市原市飯沼
2900038,千葉県,市原市,五井西,チバケン,イチハラシ,ゴイニシ,千葉県市原市五井西
2900041,千葉県,市原市,玉前,チバケン,イチハラシ,タマサキ,千葉県市原市玉前
2900042,千葉県,市原市,出津,チバケン,イチハラシ,デヅ,千葉県市原市出津
2900043,千葉県,市原市,出津西,チバケン,イチハラシ,デヅニシ,千葉県市原市出津西
2900044,千葉県,市原市,玉前西,チバケン,イチハラシ,タマサキニシ,千葉県市原市玉前西
2900045,千葉県,市原市,五井南海岸,チバケン,イチハラシ,ゴイミナミカイガン,千葉県市原市五井南海岸
2900046,千葉県,市原市,岩崎西,チバケン,イチハラシ,イワサキニシ,千葉県市原市岩崎西
2900047,千葉県,市原市,岩崎,チバケン,イチハラシ,イワサキ,千葉県市原市岩崎
2900050,千葉県,市原市,更級,チバケン,イチハラシ,サラシナ,千葉県市原市更級
2900051,千葉県,市原市,君塚,チバケン,イチハラシ,キミヅカ,千葉県市原市君塚
2900052,千葉県,市原市,岩野見,チバケン,イチハラシ,イワノミ,千葉県市原市岩野見
2900053,千葉県,市原市,平田,チバケン,イチハラシ,ヒラタ,千葉県市原市平田
2900054,千葉県,市原市,五井中央東,チバケン,イチハラシ,ゴイチュウオウヒガシ,千葉県市原市五井中央東
2900055,千葉県,市原市,五井東,チバケン,イチハラシ,ゴイヒガシ,千葉県市原市五井東
2900056,千葉県,市原市,五井,チバケン,イチハラシ,ゴイ,千葉県市原市五井
2900057,千葉県,市原市,五井金杉,チバケン,イチハラシ,ゴイカナスギ,千葉県市原市五井金杉
2900058,千葉県,市原市,五井海岸,チバケン,イチハラシ,ゴイカイガン,千葉県市原市五井海岸
2900059,千葉県,市原市,白金町,チバケン,イチハラシ,シロガネチョウ,千葉県市原市白金町
2900061,千葉県,市原市,八幡石塚,チバケン,イチハラシ,ヤワタイシヅカ,千葉県市原市八幡石塚
2900062,千葉県,市原市,八幡,チバケン,イチハラシ,ヤワタ,千葉県市原市八幡
2900063,千葉県,市原市,旭五所,チバケン,イチハラシ,アサヒゴショ,千葉県市原市旭五所
2900064,千葉県,市原市,東五所,チバケン,イチハラシ,ヒガシゴショ,千葉県市原市東五所
2900065,千葉県,市原市,西五所,チバケン,イチハラシ,ニシゴショ,千葉県市原市西五所
2900066,千葉県,市原市,五所,チバケン,イチハラシ,ゴショ,千葉県市原市五所
2900067,千葉県,市原市,八幡海岸通,チバケン,イチハラシ,ヤワタカイガンドオリ,千葉県市原市八幡海岸通
2900068,千葉県,市原市,八幡浦,チバケン,イチハラシ,ヤワタウラ,千葉県市原市八幡浦
2900069,千葉県,市原市,八幡北町,チバケン,イチハラシ,ヤワタキタチョウ,千葉県市原市八幡北町
2900071,千葉県,市原市,北国分寺台,チバケン,イチハラシ,キタコクブンジダイ,千葉県市原市北国分寺台
2900072,千葉県,市原市,西国分寺台,チバケン,イチハラシ,ニシコクブンジダイ,千葉県市原市西国分寺台
2900073,千葉県,市原市,国分寺台中央,チバケン,イチハラシ,コクブンジダイチュウオウ,千葉県市原市国分寺台中央
2900074,千葉県,市原市,東国分寺台,チバケン,イチハラシ,ヒガシコクブンジダイ,千葉県市原市東国分寺台
2900075,千葉県,市原市,南国分寺台,チバケン,イチハラシ,ミナミコクブンジダイ,千葉県市原市南国分寺台
2900081,千葉県,市原市,五井中央西,チバケン,イチハラシ,ゴイチュウオウニシ,千葉県市原市五井中央西
2900082,千葉県,市原市,五井中央南,チバケン,イチハラシ,ゴイチュウオウミナミ,千葉県市原市五井中央南
2900141,千葉県,市原市,ちはら台東,チバケン,イチハラシ,チハラダイヒガシ,千葉県市原市ちはら台東
2900142,千葉県,市原市,ちはら台南,チバケン,イチハラシ,チハラダイミナミ,千葉県市原市ちはら台南
2900143,千葉県,市原市,ちはら台西,チバケン,イチハラシ,チハラダイニシ,千葉県市原市ちはら台西
2900151,千葉県,市原市,瀬又,チバケン,イチハラシ,セマタ,千葉県市原市瀬又
2900152,千葉県,市原市,高田,チバケン,イチハラシ,タカダ,千葉県市原市高田
2900153,千葉県,市原市,中野,チバケン,イチハラシ,ナカノ,千葉県市原市中野
2900154,千葉県,市原市,下野,チバケン,イチハラシ,シモノ,千葉県市原市下野
2900155,千葉県,市原市,番場,チバケン,イチハラシ,バンバ,千葉県市原市番場
2900156,千葉県,市原市,草刈（１６５６〜１９９９）,チバケン,イチハラシ,クサカリ(1656-1999),千葉県市原市草刈（1656〜1999）
2900157,千葉県,市原市,押沼,チバケン,イチハラシ,オシヌマ,千葉県市原市押沼
2900161,千葉県,市原市,高倉,チバケン,イチハラシ,タカクラ,千葉県市原市高倉
2900162,千葉県,市原市,金剛地,チバケン,イチハラシ,コンゴウジ,千葉県市原市金剛地
2900163,千葉県,市原市,東国吉,チバケン,イチハラシ,ヒガシクニヨシ,千葉県市原市東国吉
2900164,千葉県,市原市,奈良,チバケン,イチハラシ,ナラ,千葉県市原市奈良
2900165,千葉県,市原市,古都辺,チバケン,イチハラシ,コツベ,千葉県市原市古都辺
2900166,千葉県,市原市,犬成,チバケン,イチハラシ,イヌナリ,千葉県市原市犬成
2900167,千葉県,市原市,喜多,チバケン,イチハラシ,キタ,千葉県市原市喜多
2900168,千葉県,市原市,永吉,チバケン,イチハラシ,ナガヨシ,千葉県市原市永吉
2900170,千葉県,市原市,うるいど南,チバケン,イチハラシ,ウルイドミナミ,千葉県市原市うるいど南
2900171,千葉県,市原市,潤井戸,チバケン,イチハラシ,ウルイド,千葉県市原市潤井戸
2900172,千葉県,市原市,大作,チバケン,イチハラシ,オオサク,千葉県市原市大作
2900173,千葉県,市原市,滝口,チバケン,イチハラシ,タキグチ,千葉県市原市滝口
2900174,千葉県,市原市,勝間,チバケン,イチハラシ,カツマ,千葉県市原市勝間
2900175,千葉県,市原市,葉木,チバケン,イチハラシ,ハギ,千葉県市原市葉木
2900176,千葉県,市原市,小田部,チバケン,イチハラシ,オダツペ,千葉県市原市小田部
2900177,千葉県,市原市,荻作,チバケン,イチハラシ,オギサク,千葉県市原市荻作
2900178,千葉県,市原市,神崎,チバケン,イチハラシ,カンザキ,千葉県市原市神崎
2900179,千葉県,市原市,久々津,チバケン,イチハラシ,クグツ,千葉県市原市久々津
2900201,千葉県,市原市,山倉,チバケン,イチハラシ,ヤマクラ,千葉県市原市山倉
2900202,千葉県,市原市,福増,チバケン,イチハラシ,フクマス,千葉県市原市福増
2900203,千葉県,市原市,武士,チバケン,イチハラシ,タケシ,千葉県市原市武士
2900204,千葉県,市原市,磯ケ谷,チバケン,イチハラシ,イソガヤ,千葉県市原市磯ケ谷
2900205,千葉県,市原市,山田,チバケン,イチハラシ,ヤマダ,千葉県市原市山田
2900206,千葉県,市原市,新堀,チバケン,イチハラシ,ニイホリ,千葉県市原市新堀
2900207,千葉県,市原市,海士有木,チバケン,イチハラシ,アマアリキ,千葉県市原市海士有木
2900208,千葉県,市原市,大坪,チバケン,イチハラシ,オオツボ,千葉県市原市大坪
2900209,千葉県,市原市,権現堂,チバケン,イチハラシ,ゴンゲンドウ,千葉県市原市権現堂
2900211,千葉県,市原市,大桶,チバケン,イチハラシ,オオオケ,千葉県市原市大桶
2900212,千葉県,市原市,新巻,チバケン,イチハラシ,アラマキ,千葉県市原市新巻
2900213,千葉県,市原市,川在,チバケン,イチハラシ,カワザイ,千葉県市原市川在
2900214,千葉県,市原市,櫃挾,チバケン,イチハラシ,ヒツバ,千葉県市原市櫃挾
2900215,千葉県,市原市,土宇,チバケン,イチハラシ,ツチウ,千葉県市原市土宇
2900216,千葉県,市原市,二日市場,チバケン,イチハラシ,フツカイチバ,千葉県市原市二日市場
2900217,千葉県,市原市,松崎,チバケン,イチハラシ,マツザキ,千葉県市原市松崎
2900221,千葉県,市原市,馬立,チバケン,イチハラシ,ウマタテ,千葉県市原市馬立
2900222,千葉県,市原市,上原,チバケン,イチハラシ,ウエハラ,千葉県市原市上原
2900223,千葉県,市原市,妙香,チバケン,イチハラシ,ミョウコウ,千葉県市原市妙香
2900224,千葉県,市原市,奉免,チバケン,イチハラシ,ホウメ,千葉県市原市奉免
2900225,千葉県,市原市,牛久,チバケン,イチハラシ,ウシク,千葉県市原市牛久
2900226,千葉県,市原市,中,チバケン,イチハラシ,ナカ,千葉県市原市中
2900227,千葉県,市原市,藪,チバケン,イチハラシ,ヤブ,千葉県市原市藪
2900228,千葉県,市原市,岩,チバケン,イチハラシ,イワ,千葉県市原市岩
2900229,千葉県,市原市,佐是,チバケン,イチハラシ,サゼ,千葉県市原市佐是
2900231,千葉県,市原市,西国吉,チバケン,イチハラシ,ニシクニヨシ,千葉県市原市西国吉
2900232,千葉県,市原市,皆吉,チバケン,イチハラシ,ミナヨシ,千葉県市原市皆吉
2900233,千葉県,市原市,金沢,チバケン,イチハラシ,カネサワ,千葉県市原市金沢
2900234,千葉県,市原市,大蔵,チバケン,イチハラシ,オオクラ,千葉県市原市大蔵
2900235,千葉県,市原市,栢橋,チバケン,イチハラシ,カヤハシ,千葉県市原市栢橋
2900236,千葉県,市原市,寺谷,チバケン,イチハラシ,テラヤツ,千葉県市原市寺谷
2900241,千葉県,市原市,風戸,チバケン,イチハラシ,カザト,千葉県市原市風戸
2900242,千葉県,市原市,中高根,チバケン,イチハラシ,ナカタカネ,千葉県市原市中高根
2900243,千葉県,市原市,上高根,チバケン,イチハラシ,カミタカネ,千葉県市原市上高根
2900244,千葉県,市原市,南岩崎,チバケン,イチハラシ,ミナミイワサキ,千葉県市原市南岩崎
2900251,千葉県,市原市,浅井小向,チバケン,イチハラシ,アサイコムカイ,千葉県市原市浅井小向
2900252,千葉県,市原市,相川,チバケン,イチハラシ,アイカワ,千葉県市原市相川
2900253,千葉県,市原市,安須,チバケン,イチハラシ,アズ,千葉県市原市安須
2900254,千葉県,市原市,高坂,チバケン,イチハラシ,コウザカ,千葉県市原市高坂
2900255,千葉県,市原市,光風台,チバケン,イチハラシ,コウフウダイ,千葉県市原市光風台
2900256,千葉県,市原市,引田,チバケン,イチハラシ,ヒキダ,千葉県市原市引田
2900257,千葉県,市原市,新生,チバケン,イチハラシ,アラオイ,千葉県市原市新生
2900258,千葉県,市原市,神代,チバケン,イチハラシ,カジロ,千葉県市原市神代
2900259,千葉県,市原市,分目,チバケン,イチハラシ,ワンメ,千葉県市原市分目
2900261,千葉県,市原市,西野,チバケン,イチハラシ,ニシノ,千葉県市原市西野
2900262,千葉県,市原市,糸久,チバケン,イチハラシ,イトヒサ,千葉県市原市糸久
2900263,千葉県,市原市,十五沢,チバケン,イチハラシ,ジュウゴザワ,千葉県市原市十五沢
2900264,千葉県,市原市,宮原,チバケン,イチハラシ,ミヤバラ,千葉県市原市宮原
2900265,千葉県,市原市,今富,チバケン,イチハラシ,イマドミ,千葉県市原市今富
2900266,千葉県,市原市,海保,チバケン,イチハラシ,カイホ,千葉県市原市海保
2900267,千葉県,市原市,町田,チバケン,イチハラシ,マチダ,千葉県市原市町田
2900268,千葉県,市原市,柳原,チバケン,イチハラシ,ヤナギハラ,千葉県市原市柳原
2900269,千葉県,市原市,小折,チバケン,イチハラシ,コオリ,千葉県市原市小折
2900501,千葉県,市原市,米沢,チバケン,イチハラシ,ヨネザワ,千葉県市原市米沢
2900502,千葉県,市原市,真ケ谷,チバケン,イチハラシ,シンガヤ,千葉県市原市真ケ谷
2900503,千葉県,市原市,宿,チバケン,イチハラシ,シュク,千葉県市原市宿
2900504,千葉県,市原市,堀越,チバケン,イチハラシ,ホリコシ,千葉県市原市堀越
2900505,千葉県,市原市,市場,チバケン,イチハラシ,イチバ,千葉県市原市市場
2900506,千葉県,市原市,島田,チバケン,イチハラシ,シマダ,千葉県市原市島田
2900507,千葉県,市原市,原田,チバケン,イチハラシ,ハラダ,千葉県市原市原田
2900508,千葉県,市原市,江子田,チバケン,イチハラシ,エゴダ,千葉県市原市江子田
2900509,千葉県,市原市,安久谷,チバケン,イチハラシ,アクヤ,千葉県市原市安久谷
2900511,千葉県,市原市,石川,チバケン,イチハラシ,イシカワ,千葉県市原市石川
2900512,千葉県,市原市,鶴舞,チバケン,イチハラシ,ツルマイ,千葉県市原市鶴舞
2900513,千葉県,市原市,奥野,チバケン,イチハラシ,オクノ,千葉県市原市奥野
2900514,千葉県,市原市,水沢,チバケン,イチハラシ,ミズサワ,千葉県市原市水沢
2900515,千葉県,市原市,田尾,チバケン,イチハラシ,タビ,千葉県市原市田尾
2900516,千葉県,市原市,池和田,チバケン,イチハラシ,イケワダ,千葉県市原市池和田
2900517,千葉県,市原市,矢田,チバケン,イチハラシ,ヤタ,千葉県市原市矢田
2900518,千葉県,市原市,下矢田,チバケン,イチハラシ,シモヤタ,千葉県市原市下矢田
2900521,千葉県,市原市,山小川,チバケン,イチハラシ,ヤマコガワ,千葉県市原市山小川
2900522,千葉県,市原市,新井,チバケン,イチハラシ,アライ,千葉県市原市新井
2900523,千葉県,市原市,吉沢,チバケン,イチハラシ,キチサワ,千葉県市原市吉沢
2900524,千葉県,市原市,平蔵,チバケン,イチハラシ,ヘイゾウ,千葉県市原市平蔵
2900525,千葉県,市原市,米原,チバケン,イチハラシ,ヨネワラ,千葉県市原市米原
2900526,千葉県,市原市,小草畑,チバケン,イチハラシ,コクサバタ,千葉県市原市小草畑
2900527,千葉県,市原市,月出,チバケン,イチハラシ,ツキデ,千葉県市原市月出
2900528,千葉県,市原市,古敷谷,チバケン,イチハラシ,コシキヤ,千葉県市原市古敷谷
2900529,千葉県,市原市,小谷田,チバケン,イチハラシ,コヤタ,千葉県市原市小谷田
2900531,千葉県,市原市,国本,チバケン,イチハラシ,コクモト,千葉県市原市国本
2900532,千葉県,市原市,大久保,チバケン,イチハラシ,オオクボ,千葉県市原市大久保
2900533,千葉県,市原市,折津,チバケン,イチハラシ,オリヅ,千葉県市原市折津
2900534,千葉県,市原市,石神,チバケン,イチハラシ,イシガミ,千葉県市原市石神
2900535,千葉県,市原市,朝生原,チバケン,イチハラシ,アソウバラ,千葉県市原市朝生原
2900536,千葉県,市原市,戸面,チバケン,イチハラシ,トヅラ,千葉県市原市戸面
2900537,千葉県,市原市,石塚,チバケン,イチハラシ,イシヅカ,千葉県市原市石塚
2900538,千葉県,市原市,柳川,チバケン,イチハラシ,ヤナガワ,千葉県市原市柳川
2900539,千葉県,市原市,菅野,チバケン,イチハラシ,スゲノ,千葉県市原市菅野
2900541,千葉県,市原市,平野,チバケン,イチハラシ,ヒラノ,千葉県市原市平野
2900542,千葉県,市原市,大戸,チバケン,イチハラシ,オオト,千葉県市原市大戸
2900543,千葉県,市原市,飯給,チバケン,イチハラシ,イタブ,千葉県市原市飯給
2900544,千葉県,市原市,徳氏,チバケン,イチハラシ,トクウジ,千葉県市原市徳氏
2900545,千葉県,市原市,田淵旧日竹,チバケン,イチハラシ,タブチキュウヒタケ,千葉県市原市田淵旧日竹
2900546,千葉県,市原市,田淵,チバケン,イチハラシ,タブチ,千葉県市原市田淵
2900547,千葉県,市原市,月崎,チバケン,イチハラシ,ツキザキ,千葉県市原市月崎
2900548,千葉県,市原市,柿木台,チバケン,イチハラシ,カキノキダイ,千葉県市原市柿木台
2900549,千葉県,市原市,万田野,チバケン,イチハラシ,マンダノ,千葉県市原市万田野
2900551,千葉県,市原市,外部田,チバケン,イチハラシ,トノベタ,千葉県市原市外部田
2900552,千葉県,市原市,久保,チバケン,イチハラシ,クボ,千葉県市原市久保
2900553,千葉県,市原市,大和田,チバケン,イチハラシ,オオワダ,千葉県市原市大和田
2900554,千葉県,市原市,不入,チバケン,イチハラシ,フニュウ,千葉県市原市不入
2900555,千葉県,市原市,高滝,チバケン,イチハラシ,タカタキ,千葉県市原市高滝
2900556,千葉県,市原市,本郷,チバケン,イチハラシ,ホンゴウ,千葉県市原市本郷
2900557,千葉県,市原市,養老,チバケン,イチハラシ,ヨウロウ,千葉県市原市養老
2900558,千葉県,市原市,山口,チバケン,イチハラシ,ヤマグチ,千葉県市原市山口
2900559,千葉県,市原市,駒込,チバケン,イチハラシ,コマゴメ,千葉県市原市駒込
2920000,千葉県,木更津市,,チバケン,キサラヅシ,,千葉県木更津市
2920001,千葉県,木更津市,牛込,チバケン,キサラヅシ,ウシゴメ,千葉県木更津市牛込
2920002,千葉県,木更津市,中野,チバケン,キサラヅシ,ナカノ,千葉県木更津市中野
2920003,千葉県,木更津市,万石,チバケン,キサラヅシ,マンゴク,千葉県木更津市万石
2920004,千葉県,木更津市,久津間,チバケン,キサラヅシ,クヅマ,千葉県木更津市久津間
2920005,千葉県,木更津市,畔戸,チバケン,キサラヅシ,クロト,千葉県木更津市畔戸
2920006,千葉県,木更津市,北浜町,チバケン,キサラヅシ,キタハマチョウ,千葉県木更津市北浜町
2920007,千葉県,木更津市,瓜倉,チバケン,キサラヅシ,ウリクラ,千葉県木更津市瓜倉
2920008,千葉県,木更津市,中島,チバケン,キサラヅシ,ナカジマ,千葉県木更津市中島
2920009,千葉県,木更津市,金田東,チバケン,キサラヅシ,カネダヒガシ,千葉県木更津市金田東
2920011,千葉県,木更津市,牛袋野,チバケン,キサラヅシ,ウシブクロノ,千葉県木更津市牛袋野
2920012,千葉県,木更津市,牛袋,チバケン,キサラヅシ,ウシブクロ,千葉県木更津市牛袋
2920013,千葉県,木更津市,若葉町,チバケン,キサラヅシ,ワカバチョウ,千葉県木更津市若葉町
2920014,千葉県,木更津市,高柳,チバケン,キサラヅシ,タカヤナギ,千葉県木更津市高柳
2920015,千葉県,木更津市,本郷,チバケン,キサラヅシ,ホンゴウ,千葉県木更津市本郷
2920016,千葉県,木更津市,高砂,チバケン,キサラヅシ,タカサゴ,千葉県木更津市高砂
2920021,千葉県,木更津市,有吉,チバケン,キサラヅシ,アリヨシ,千葉県木更津市有吉
2920022,千葉県,木更津市,上望陀,チバケン,キサラヅシ,カミモウダ,千葉県木更津市上望陀
2920023,千葉県,木更津市,下望陀,チバケン,キサラヅシ,シモモウダ,千葉県木更津市下望陀
2920024,千葉県,木更津市,大寺,チバケン,キサラヅシ,オオテラ,千葉県木更津市大寺
2920025,千葉県,木更津市,十日市場,チバケン,キサラヅシ,トオカイチバ,千葉県木更津市十日市場
2920026,千葉県,木更津市,井尻,チバケン,キサラヅシ,イジリ,千葉県木更津市井尻
2920027,千葉県,木更津市,曽根,チバケン,キサラヅシ,ソネ,千葉県木更津市曽根
2920031,千葉県,木更津市,椿,チバケン,キサラヅシ,ツバキ,千葉県木更津市椿
2920032,千葉県,木更津市,笹子,チバケン,キサラヅシ,ササゴ,千葉県木更津市笹子
2920033,千葉県,木更津市,犬成,チバケン,キサラヅシ,インナリ,千葉県木更津市犬成
2920034,千葉県,木更津市,伊豆島,チバケン,キサラヅシ,イズシマ,千葉県木更津市伊豆島
2920035,千葉県,木更津市,中尾,チバケン,キサラヅシ,ナカオ,千葉県木更津市中尾
2920036,千葉県,木更津市,菅生,チバケン,キサラヅシ,スゴウ,千葉県木更津市菅生
2920037,千葉県,木更津市,日の出町,チバケン,キサラヅシ,ヒノデチョウ,千葉県木更津市日の出町
2920038,千葉県,木更津市,ほたる野,チバケン,キサラヅシ,ホタルノ,千葉県木更津市ほたる野
2920041,千葉県,木更津市,清見台東,チバケン,キサラヅシ,キヨミダイヒガシ,千葉県木更津市清見台東
2920042,千葉県,木更津市,清見台南,チバケン,キサラヅシ,キヨミダイミナミ,千葉県木更津市清見台南
2920043,千葉県,木更津市,東太田,チバケン,キサラヅシ,ヒガシオオダ,千葉県木更津市東太田
2920044,千葉県,木更津市,太田,チバケン,キサラヅシ,オオダ,千葉県木更津市太田
2920045,千葉県,木更津市,清見台,チバケン,キサラヅシ,キヨミダイ,千葉県木更津市清見台
2920051,千葉県,木更津市,清川,チバケン,キサラヅシ,キヨカワ,千葉県木更津市清川
2920052,千葉県,木更津市,祇園,チバケン,キサラヅシ,ギオン,千葉県木更津市祇園
2920053,千葉県,木更津市,永井作,チバケン,キサラヅシ,ナガイサク,千葉県木更津市永井作
2920054,千葉県,木更津市,長須賀,チバケン,キサラヅシ,ナガスカ,千葉県木更津市長須賀
2920055,千葉県,木更津市,朝日,チバケン,キサラヅシ,アサヒ,千葉県木更津市朝日
2920056,千葉県,木更津市,木更津,チバケン,キサラヅシ,キサラヅ,千葉県木更津市木更津
2920057,千葉県,木更津市,東中央,チバケン,キサラヅシ,ヒガシチュウオウ,千葉県木更津市東中央
2920061,千葉県,木更津市,岩根,チバケン,キサラヅシ,イワネ,千葉県木更津市岩根
2920062,千葉県,木更津市,西岩根,チバケン,キサラヅシ,ニシイワネ,千葉県木更津市西岩根
2920063,千葉県,木更津市,江川,チバケン,キサラヅシ,エガワ,千葉県木更津市江川
2920064,千葉県,木更津市,中里,チバケン,キサラヅシ,ナカザト,千葉県木更津市中里
2920065,千葉県,木更津市,吾妻,チバケン,キサラヅシ,アヅマ,千葉県木更津市吾妻
2920066,千葉県,木更津市,新宿,チバケン,キサラヅシ,シンジュク,千葉県木更津市新宿
2920067,千葉県,木更津市,中央,チバケン,キサラヅシ,チュウオウ,千葉県木更津市中央
2920071,千葉県,木更津市,中島地先海ほたる,チバケン,キサラヅシ,ナカジマチサキウミホタル,千葉県木更津市中島地先海ほたる
2920201,千葉県,木更津市,真里谷,チバケン,キサラヅシ,マリヤツ,千葉県木更津市真里谷
2920202,千葉県,木更津市,茅野七曲,チバケン,キサラヅシ,カヤノナナマガリ,千葉県木更津市茅野七曲
2920203,千葉県,木更津市,山本七曲,チバケン,キサラヅシ,ヤマモトナナマガリ,千葉県木更津市山本七曲
2920204,千葉県,木更津市,茅野,チバケン,キサラヅシ,カヤノ,千葉県木更津市茅野
2920205,千葉県,木更津市,下郡,チバケン,キサラヅシ,シモゴオリ,千葉県木更津市下郡
2920206,千葉県,木更津市,佐野,チバケン,キサラヅシ,サノ,千葉県木更津市佐野
2920207,千葉県,木更津市,田川,チバケン,キサラヅシ,タガワ,千葉県木更津市田川
2920211,千葉県,木更津市,大稲,チバケン,キサラヅシ,オオイネ,千葉県木更津市大稲
2920212,千葉県,木更津市,真里,チバケン,キサラヅシ,マリ,千葉県木更津市真里
2920213,千葉県,木更津市,下内橋,チバケン,キサラヅシ,ゲナイバシ,千葉県木更津市下内橋
2920214,千葉県,木更津市,戸国,チバケン,キサラヅシ,トクニ,千葉県木更津市戸国
2920215,千葉県,木更津市,上根岸,チバケン,キサラヅシ,カミネギシ,千葉県木更津市上根岸
2920216,千葉県,木更津市,根岸,チバケン,キサラヅシ,ネギシ,千葉県木更津市根岸
2920217,千葉県,木更津市,下宮田,チバケン,キサラヅシ,シモミヤダ,千葉県木更津市下宮田
2920401,千葉県,君津市,山本,チバケン,キミツシ,ヤマモト,千葉県君津市山本
2920402,千葉県,君津市,西原,チバケン,キミツシ,ニシバラ,千葉県君津市西原
2920403,千葉県,君津市,三田,チバケン,キミツシ,サンダ,千葉県君津市三田
2920404,千葉県,君津市,賀恵渕,チバケン,キミツシ,カエフチ,千葉県君津市賀恵渕
2920411,千葉県,君津市,長谷川,チバケン,キミツシ,ハセガワ,千葉県君津市長谷川
2920412,千葉県,君津市,小櫃台,チバケン,キミツシ,オビツダイ,千葉県君津市小櫃台
2920413,千葉県,君津市,吉野,チバケン,キミツシ,ヨシノ,千葉県君津市吉野
2920414,千葉県,君津市,久留里大谷,チバケン,キミツシ,クルリオオヤツ,千葉県君津市久留里大谷
2920415,千葉県,君津市,川谷,チバケン,キミツシ,カワヤツ,千葉県君津市川谷
2920416,千葉県,君津市,小市部,チバケン,キミツシ,コイチブ,千葉県君津市小市部
2920421,千葉県,君津市,久留里市場,チバケン,キミツシ,クルリイチバ,千葉県君津市久留里市場
2920422,千葉県,君津市,久留里,チバケン,キミツシ,クルリ,千葉県君津市久留里
2920423,千葉県,君津市,久留里大和田,チバケン,キミツシ,クルリオオワダ,千葉県君津市久留里大和田
2920431,千葉県,君津市,怒田,チバケン,キミツシ,ヌダ,千葉県君津市怒田
2920432,千葉県,君津市,浦田,チバケン,キミツシ,ウラタ,千葉県君津市浦田
2920433,千葉県,君津市,芋窪,チバケン,キミツシ,イモクボ,千葉県君津市芋窪
2920434,千葉県,君津市,向郷,チバケン,キミツシ,ムカイゴウ,千葉県君津市向郷
2920435,千葉県,君津市,栗坪,チバケン,キミツシ,クリツボ,千葉県君津市栗坪
2920441,千葉県,君津市,戸崎,チバケン,キミツシ,トザキ,千葉県君津市戸崎
2920442,千葉県,君津市,岩出,チバケン,キミツシ,イワデ,千葉県君津市岩出
2920443,千葉県,君津市,寺沢,チバケン,キミツシ,テラザワ,千葉県君津市寺沢
2920444,千葉県,君津市,富田,チバケン,キミツシ,トミダ,千葉県君津市富田
2920445,千葉県,君津市,愛宕,チバケン,キミツシ,アタゴ,千葉県君津市愛宕
2920451,千葉県,君津市,末吉,チバケン,キミツシ,スエヨシ,千葉県君津市末吉
2920452,千葉県,君津市,上新田,チバケン,キミツシ,カミニッタ,千葉県君津市上新田
2920453,千葉県,君津市,箕輪,チバケン,キミツシ,ミノワ,千葉県君津市箕輪
2920454,千葉県,君津市,青柳,チバケン,キミツシ,アオヤギ,千葉県君津市青柳
2920455,千葉県,君津市,俵田,チバケン,キミツシ,タワラダ,千葉県君津市俵田
2920501,千葉県,君津市,山滝野,チバケン,キミツシ,ヤマタキノ,千葉県君津市山滝野
2920502,千葉県,君津市,平山,チバケン,キミツシ,ヒラヤマ,千葉県君津市平山
2920503,千葉県,君津市,広岡,チバケン,キミツシ,ヒロオカ,千葉県君津市広岡
2920511,千葉県,君津市,大坂,チバケン,キミツシ,オサカ,千葉県君津市大坂
2920512,千葉県,君津市,大戸見,チバケン,キミツシ,オオトミ,千葉県君津市大戸見
2920513,千葉県,君津市,加名盛,チバケン,キミツシ,カナモリ,千葉県君津市加名盛
2920514,千葉県,君津市,大戸見旧名殿,チバケン,キミツシ,オオトミキュウナドノ,千葉県君津市大戸見旧名殿
2920515,千葉県,君津市,柳城,チバケン,キミツシ,ヤナシロ,千葉県君津市柳城
2920516,千葉県,君津市,高水,チバケン,キミツシ,タカミズ,千葉県君津市高水
2920521,千葉県,君津市,利根,チバケン,キミツシ,トネ,千葉県君津市利根
2920522,千葉県,君津市,大中,チバケン,キミツシ,ダイナカ,千葉県君津市大中
2920523,千葉県,君津市,豊田,チバケン,キミツシ,トヨダ,千葉県君津市豊田
2920524,千葉県,君津市,川俣,チバケン,キミツシ,カワマタ,千葉県君津市川俣
2920525,千葉県,君津市,草川原,チバケン,キミツシ,クサガワラ,千葉県君津市草川原
2920526,千葉県,君津市,笹,チバケン,キミツシ,ササ,千葉県君津市笹
2920527,千葉県,君津市,香木原,チバケン,キミツシ,カギハラ,千葉県君津市香木原
2920531,千葉県,君津市,藤林,チバケン,キミツシ,フジバヤシ,千葉県君津市藤林
2920532,千葉県,君津市,坂畑,チバケン,キミツシ,サカハタ,千葉県君津市坂畑
2920533,千葉県,君津市,折木沢,チバケン,キミツシ,オリキサワ,千葉県君津市折木沢
2920534,千葉県,君津市,滝原,チバケン,キミツシ,タキハラ,千葉県君津市滝原
2920535,千葉県,君津市,釜生,チバケン,キミツシ,カモウ,千葉県君津市釜生
2920536,千葉県,君津市,蔵玉,チバケン,キミツシ,クラダマ,千葉県君津市蔵玉
2920537,千葉県,君津市,黄和田畑,チバケン,キミツシ,キワダハタ,千葉県君津市黄和田畑
2920801,千葉県,木更津市,請西,チバケン,キサラヅシ,ジョウザイ,千葉県木更津市請西
2920802,千葉県,木更津市,真舟,チバケン,キサラヅシ,マフネ,千葉県木更津市真舟
2920803,千葉県,木更津市,幸町,チバケン,キサラヅシ,サイワイチョウ,千葉県木更津市幸町
2920804,千葉県,木更津市,文京,チバケン,キサラヅシ,ブンキョウ,千葉県木更津市文京
2920805,千葉県,木更津市,大和,チバケン,キサラヅシ,ヤマト,千葉県木更津市大和
2920806,千葉県,木更津市,請西東,チバケン,キサラヅシ,ジョウザイヒガシ,千葉県木更津市請西東
2920807,千葉県,木更津市,請西南,チバケン,キサラヅシ,ジョウザイミナミ,千葉県木更津市請西南
2920808,千葉県,木更津市,千束台,チバケン,キサラヅシ,センゾクダイ,千葉県木更津市千束台
2920811,千葉県,木更津市,草敷,チバケン,キサラヅシ,クサジキ,千葉県木更津市草敷
2920812,千葉県,木更津市,矢那,チバケン,キサラヅシ,ヤナ,千葉県木更津市矢那
2920813,千葉県,木更津市,上烏田,チバケン,キサラヅシ,カミカラスダ,千葉県木更津市上烏田
2920814,千葉県,木更津市,八幡台,チバケン,キサラヅシ,ハチマンダイ,千葉県木更津市八幡台
2920815,千葉県,木更津市,大久保,チバケン,キサラヅシ,オオクボ,千葉県木更津市大久保
2920816,千葉県,木更津市,下烏田,チバケン,キサラヅシ,シモカラスダ,千葉県木更津市下烏田
2920817,千葉県,木更津市,中烏田,チバケン,キサラヅシ,ナカカラスダ,千葉県木更津市中烏田
2920818,千葉県,木更津市,かずさ鎌足,チバケン,キサラヅシ,カズサカマタリ,千葉県木更津市かずさ鎌足
2920819,千葉県,木更津市,羽鳥野,チバケン,キサラヅシ,ハトリノ,千葉県木更津市羽鳥野
2920821,千葉県,木更津市,桜町,チバケン,キサラヅシ,サクラマチ,千葉県木更津市桜町
2920822,千葉県,木更津市,桜井,チバケン,キサラヅシ,サクライ,千葉県木更津市桜井
2920823,千葉県,木更津市,桜井新町,チバケン,キサラヅシ,サクライシンマチ,千葉県木更津市桜井新町
2920824,千葉県,木更津市,小浜,チバケン,キサラヅシ,コバマ,千葉県木更津市小浜
2920825,千葉県,木更津市,畑沢,チバケン,キサラヅシ,ハタザワ,千葉県木更津市畑沢
2920826,千葉県,木更津市,畑沢南,チバケン,キサラヅシ,ハタザワミナミ,千葉県木更津市畑沢南
2920827,千葉県,木更津市,港南台,チバケン,キサラヅシ,コウナンダイ,千葉県木更津市港南台
2920831,千葉県,木更津市,富士見,チバケン,キサラヅシ,フジミ,千葉県木更津市富士見
2920832,千葉県,木更津市,新田,チバケン,キサラヅシ,シンデン,千葉県木更津市新田
2920833,千葉県,木更津市,貝渕,チバケン,キサラヅシ,カイフチ,千葉県木更津市貝渕
2920834,千葉県,木更津市,潮見,チバケン,キサラヅシ,シオミ,千葉県木更津市潮見
2920835,千葉県,木更津市,築地,チバケン,キサラヅシ,ツキジ,千葉県木更津市築地
2920836,千葉県,木更津市,新港,チバケン,キサラヅシ,シンミナト,千葉県木更津市新港
2920837,千葉県,木更津市,木材港,チバケン,キサラヅシ,モクザイミナト,千葉県木更津市木材港
2920838,千葉県,木更津市,潮浜,チバケン,キサラヅシ,シオハマ,千葉県木更津市潮浜
2920839,千葉県,木更津市,中の島,チバケン,キサラヅシ,ナカノシマ,千葉県木更津市中の島
2921140,千葉県,君津市,糠田飛地,チバケン,キミツシ,ヌカタトビチ,千葉県君津市糠田飛地
2921141,千葉県,君津市,根本,チバケン,キミツシ,ネモト,千葉県君津市根本
2921142,千葉県,君津市,小糸大谷,チバケン,キミツシ,コイトオオヤツ,千葉県君津市小糸大谷
2921143,千葉県,君津市,長石,チバケン,キミツシ,ナガシ,千葉県君津市長石
2921144,千葉県,君津市,法木,チバケン,キミツシ,ホウギ,千葉県君津市法木
2921145,千葉県,君津市,糸川,チバケン,キミツシ,イトガワ,千葉県君津市糸川
2921146,千葉県,君津市,大井戸,チバケン,キミツシ,オオイド,千葉県君津市大井戸
2921147,千葉県,君津市,塚原,チバケン,キミツシ,ツカハラ,千葉県君津市塚原
2921148,千葉県,君津市,行馬,チバケン,キミツシ,ギョウマ,千葉県君津市行馬
2921149,千葉県,君津市,かずさ小糸,チバケン,キミツシ,カズサコイト,千葉県君津市かずさ小糸
2921151,千葉県,君津市,大野台,チバケン,キミツシ,オオノダイ,千葉県君津市大野台
2921152,千葉県,君津市,日渡根,チバケン,キミツシ,ニットネ,千葉県君津市日渡根
2921153,千葉県,君津市,市宿,チバケン,キミツシ,イチジュク,千葉県君津市市宿
2921154,千葉県,君津市,清和市場,チバケン,キミツシ,セイワイチバ,千葉県君津市清和市場
2921155,千葉県,君津市,鹿野山,チバケン,キミツシ,カノウザン,千葉県君津市鹿野山
2921156,千葉県,君津市,荻作,チバケン,キミツシ,オギサク,千葉県君津市荻作
2921157,千葉県,君津市,福岡,チバケン,キミツシ,フクオカ,千葉県君津市福岡
2921158,千葉県,君津市,鎌滝,チバケン,キミツシ,カマダキ,千葉県君津市鎌滝
2921161,千葉県,君津市,東猪原,チバケン,キミツシ,ヒガシイノハラ,千葉県君津市東猪原
2921162,千葉県,君津市,西猪原,チバケン,キミツシ,ニシイノハラ,千葉県君津市西猪原
2921163,千葉県,君津市,東粟倉,チバケン,キミツシ,ヒガシアワグラ,千葉県君津市東粟倉
2921164,千葉県,君津市,東日笠,チバケン,キミツシ,ヒガシヒカサ,千葉県君津市東日笠
2921165,千葉県,君津市,西日笠,チバケン,キミツシ,ニシヒカサ,千葉県君津市西日笠
2921166,千葉県,君津市,植畑,チバケン,キミツシ,ウエハタ,千葉県君津市植畑
2921167,千葉県,君津市,平田,チバケン,キミツシ,ヒラッタ,千葉県君津市平田
2921168,千葉県,君津市,西粟倉,チバケン,キミツシ,ニシアワグラ,千葉県君津市西粟倉
2921171,千葉県,君津市,二入,チバケン,キミツシ,フタイリ,千葉県君津市二入
2921172,千葉県,君津市,辻森,チバケン,キミツシ,ツジモリ,千葉県君津市辻森
2921173,千葉県,君津市,大岩,チバケン,キミツシ,オオイワ,千葉県君津市大岩
2921174,千葉県,君津市,正木,チバケン,キミツシ,マサキ,千葉県君津市正木
2921175,千葉県,君津市,奥米,チバケン,キミツシ,オクゴメ,千葉県君津市奥米
2921176,千葉県,君津市,宿原,チバケン,キミツシ,シュクバラ,千葉県君津市宿原
2921177,千葉県,君津市,怒田沢,チバケン,キミツシ,ヌタザワ,千葉県君津市怒田沢
2921178,千葉県,君津市,旅名,チバケン,キミツシ,タビナ,千葉県君津市旅名
2921179,千葉県,君津市,豊英,チバケン,キミツシ,トヨフサ,千葉県君津市豊英
2930000,千葉県,富津市,,チバケン,フッツシ,,千葉県富津市
2930001,千葉県,富津市,大堀,チバケン,フッツシ,オオホリ,千葉県富津市大堀
2930002,千葉県,富津市,二間塚,チバケン,フッツシ,フタマヅカ,千葉県富津市二間塚
2930003,千葉県,富津市,本郷,チバケン,フッツシ,ホンゴウ,千葉県富津市本郷
2930004,千葉県,富津市,前久保,チバケン,フッツシ,マエクボ,千葉県富津市前久保
2930005,千葉県,富津市,上飯野,チバケン,フッツシ,カミイイノ,千葉県富津市上飯野
2930006,千葉県,富津市,下飯野,チバケン,フッツシ,シモイイノ,千葉県富津市下飯野
2930011,千葉県,富津市,新富,チバケン,フッツシ,シントミ,千葉県富津市新富
2930012,千葉県,富津市,青木,チバケン,フッツシ,アオキ,千葉県富津市青木
2930013,千葉県,富津市,西川,チバケン,フッツシ,ニシカワ,千葉県富津市西川
2930021,千葉県,富津市,富津,チバケン,フッツシ,フッツ,千葉県富津市富津
2930022,千葉県,富津市,新井,チバケン,フッツシ,アライ,千葉県富津市新井
2930023,千葉県,富津市,川名,チバケン,フッツシ,カワナ,千葉県富津市川名
2930024,千葉県,富津市,篠部,チバケン,フッツシ,シノベ,千葉県富津市篠部
2930031,千葉県,富津市,相野谷,チバケン,フッツシ,アイノヤツ,千葉県富津市相野谷
2930032,千葉県,富津市,障子谷,チバケン,フッツシ,ショウジヤツ,千葉県富津市障子谷
2930033,千葉県,富津市,一色,チバケン,フッツシ,イッシキ,千葉県富津市一色
2930034,千葉県,富津市,絹,チバケン,フッツシ,キヌ,千葉県富津市絹
2930035,千葉県,富津市,西大和田,チバケン,フッツシ,ニシオオワダ,千葉県富津市西大和田
2930036,千葉県,富津市,千種新田,チバケン,フッツシ,チグサシンデン,千葉県富津市千種新田
2930041,千葉県,富津市,上,チバケン,フッツシ,カミ,千葉県富津市上
2930042,千葉県,富津市,小久保,チバケン,フッツシ,コクボ,千葉県富津市小久保
2930043,千葉県,富津市,岩瀬,チバケン,フッツシ,イワセ,千葉県富津市岩瀬
2930044,千葉県,富津市,中,チバケン,フッツシ,ナカ,千葉県富津市中
2930045,千葉県,富津市,八田沼,チバケン,フッツシ,ヤタヌマ,千葉県富津市八田沼
2930046,千葉県,富津市,近藤,チバケン,フッツシ,コンドウ,千葉県富津市近藤
2930051,千葉県,富津市,亀沢,チバケン,フッツシ,カメザワ,千葉県富津市亀沢
2930052,千葉県,富津市,宝竜寺,チバケン,フッツシ,ホウリュウジ,千葉県富津市宝竜寺
2930053,千葉県,富津市,花香谷,チバケン,フッツシ,ハナガヤツ,千葉県富津市花香谷
2930054,千葉県,富津市,鶴岡,チバケン,フッツシ,ツルオカ,千葉県富津市鶴岡
2930055,千葉県,富津市,笹毛,チバケン,フッツシ,ササゲ,千葉県富津市笹毛
2930056,千葉県,富津市,八幡,チバケン,フッツシ,ヤワタ,千葉県富津市八幡
2930057,千葉県,富津市,亀田,チバケン,フッツシ,カメダ,千葉県富津市亀田
2930058,千葉県,富津市,佐貫,チバケン,フッツシ,サヌキ,千葉県富津市佐貫
2940000,千葉県,館山市,,チバケン,タテヤマシ,,千葉県館山市
2940001,千葉県,館山市,竹原,チバケン,タテヤマシ,タケワラ,千葉県館山市竹原
2940002,千葉県,館山市,大井,チバケン,タテヤマシ,オオイ,千葉県館山市大井
2940003,千葉県,館山市,水玉,チバケン,タテヤマシ,ミズタマ,千葉県館山市水玉
2940004,千葉県,館山市,水岡,チバケン,タテヤマシ,ミズオカ,千葉県館山市水岡
2940005,千葉県,館山市,安東,チバケン,タテヤマシ,アンドウ,千葉県館山市安東
2940006,千葉県,館山市,薗,チバケン,タテヤマシ,ソノ,千葉県館山市薗
2940007,千葉県,館山市,腰越,チバケン,タテヤマシ,コシゴエ,千葉県館山市腰越
2940008,千葉県,館山市,広瀬,チバケン,タテヤマシ,ヒロセ,千葉県館山市広瀬
2940009,千葉県,館山市,江田,チバケン,タテヤマシ,エダ,千葉県館山市江田
2940011,千葉県,館山市,二子,チバケン,タテヤマシ,フタゴ,千葉県館山市二子
2940012,千葉県,館山市,稲,チバケン,タテヤマシ,イナ,千葉県館山市稲
2940013,千葉県,館山市,宝貝,チバケン,タテヤマシ,ホウガイ,千葉県館山市宝貝
2940014,千葉県,館山市,山本,チバケン,タテヤマシ,ヤマモト,千葉県館山市山本
2940015,千葉県,館山市,古茂口,チバケン,タテヤマシ,コモグチ,千葉県館山市古茂口
2940016,千葉県,館山市,飯沼,チバケン,タテヤマシ,イイヌマ,千葉県館山市飯沼
2940017,千葉県,館山市,南条,チバケン,タテヤマシ,ナンジョウ,千葉県館山市南条
2940018,千葉県,館山市,国分,チバケン,タテヤマシ,コクブ,千葉県館山市国分
2940021,千葉県,館山市,山荻,チバケン,タテヤマシ,ヤモオギ,千葉県館山市山荻
2940022,千葉県,館山市,畑,チバケン,タテヤマシ,ハタ,千葉県館山市畑
2940023,千葉県,館山市,神余,チバケン,タテヤマシ,カナマリ,千葉県館山市神余
2940024,千葉県,館山市,岡田,チバケン,タテヤマシ,オカダ,千葉県館山市岡田
2940025,千葉県,館山市,大戸,チバケン,タテヤマシ,オオト,千葉県館山市大戸
2940026,千葉県,館山市,出野尾,チバケン,タテヤマシ,イデノオ,千葉県館山市出野尾
2940027,千葉県,館山市,西長田,チバケン,タテヤマシ,ニシナガタ,千葉県館山市西長田
2940028,千葉県,館山市,東長田,チバケン,タテヤマシ,ヒガシナガタ,千葉県館山市東長田
2940029,千葉県,館山市,作名,チバケン,タテヤマシ,サクナ,千葉県館山市作名
2940031,千葉県,館山市,大賀,チバケン,タテヤマシ,オオカ,千葉県館山市大賀
2940032,千葉県,館山市,笠名,チバケン,タテヤマシ,カサナ,千葉県館山市笠名
2940033,千葉県,館山市,宮城,チバケン,タテヤマシ,ミヤギ,千葉県館山市宮城
2940034,千葉県,館山市,沼,チバケン,タテヤマシ,ヌマ,千葉県館山市沼
2940035,千葉県,館山市,富士見,チバケン,タテヤマシ,フジミ,千葉県館山市富士見
2940036,千葉県,館山市,館山,チバケン,タテヤマシ,タテヤマ,千葉県館山市館山
2940037,千葉県,館山市,長須賀,チバケン,タテヤマシ,ナガスカ,千葉県館山市長須賀
2940038,千葉県,館山市,上真倉,チバケン,タテヤマシ,カミサナグラ,千葉県館山市上真倉
2940041,千葉県,館山市,高井,チバケン,タテヤマシ,タカイ,千葉県館山市高井
2940042,千葉県,館山市,上野原,チバケン,タテヤマシ,ウエノハラ,千葉県館山市上野原
2940043,千葉県,館山市,安布里,チバケン,タテヤマシ,アブリ,千葉県館山市安布里
2940044,千葉県,館山市,大網,チバケン,タテヤマシ,オオアミ,千葉県館山市大網
2940045,千葉県,館山市,北条,チバケン,タテヤマシ,ホウジョウ,千葉県館山市北条
2940046,千葉県,館山市,新宿,チバケン,タテヤマシ,シンジュク,千葉県館山市新宿
2940047,千葉県,館山市,八幡,チバケン,タテヤマシ,ヤワタ,千葉県館山市八幡
2940048,千葉県,館山市,下真倉,チバケン,タテヤマシ,シモサナグラ,千葉県館山市下真倉
2940051,千葉県,館山市,正木,チバケン,タテヤマシ,マサキ,千葉県館山市正木
2940052,千葉県,館山市,亀ケ原,チバケン,タテヤマシ,カメガハラ,千葉県館山市亀ケ原
2940053,千葉県,館山市,北条正木,チバケン,タテヤマシ,ホウジョウマサキ,千葉県館山市北条正木
2940054,千葉県,館山市,湊,チバケン,タテヤマシ,ミナト,千葉県館山市湊
2940055,千葉県,館山市,那古,チバケン,タテヤマシ,ナゴ,千葉県館山市那古
2940056,千葉県,館山市,船形,チバケン,タテヤマシ,フナカタ,千葉県館山市船形
2940057,千葉県,館山市,川名,チバケン,タテヤマシ,カワナ,千葉県館山市川名
2940058,千葉県,館山市,小原,チバケン,タテヤマシ,コバラ,千葉県館山市小原
2940221,千葉県,館山市,布沼,チバケン,タテヤマシ,メヌマ,千葉県館山市布沼
2940222,千葉県,館山市,茂名,チバケン,タテヤマシ,モナ,千葉県館山市茂名
2940223,千葉県,館山市,洲宮,チバケン,タテヤマシ,スノミヤ,千葉県館山市洲宮
2940224,千葉県,館山市,藤原,チバケン,タテヤマシ,フジワラ,千葉県館山市藤原
2940225,千葉県,館山市,佐野,チバケン,タテヤマシ,サノ,千葉県館山市佐野
2940226,千葉県,館山市,犬石,チバケン,タテヤマシ,イヌイシ,千葉県館山市犬石
2940231,千葉県,館山市,中里,チバケン,タテヤマシ,ナカザト,千葉県館山市中里
2940232,千葉県,館山市,竜岡,チバケン,タテヤマシ,リュウオカ,千葉県館山市竜岡
2940233,千葉県,館山市,大神宮,チバケン,タテヤマシ,ダイジングウ,千葉県館山市大神宮
2940234,千葉県,館山市,布良,チバケン,タテヤマシ,メラ,千葉県館山市布良
2940235,千葉県,館山市,相浜,チバケン,タテヤマシ,アイハマ,千葉県館山市相浜
2940301,千葉県,館山市,香,チバケン,タテヤマシ,コウヤツ,千葉県館山市香
2940302,千葉県,館山市,塩見,チバケン,タテヤマシ,シオミ,千葉県館山市塩見
2940303,千葉県,館山市,浜田,チバケン,タテヤマシ,ハマダ,千葉県館山市浜田
2940304,千葉県,館山市,早物,チバケン,タテヤマシ,ハヤブツ,千葉県館山市早物
2940305,千葉県,館山市,見物,チバケン,タテヤマシ,ケンブツ,千葉県館山市見物
2940306,千葉県,館山市,加賀名,チバケン,タテヤマシ,カガナ,千葉県館山市加賀名
2940307,千葉県,館山市,波左間,チバケン,タテヤマシ,ハサマ,千葉県館山市波左間
2940308,千葉県,館山市,坂田,チバケン,タテヤマシ,バンダ,千葉県館山市坂田
2940311,千葉県,館山市,坂井,チバケン,タテヤマシ,サカイ,千葉県館山市坂井
2940312,千葉県,館山市,小沼,チバケン,タテヤマシ,コヌマ,千葉県館山市小沼
2940313,千葉県,館山市,坂足,チバケン,タテヤマシ,サカダル,千葉県館山市坂足
2940314,千葉県,館山市,伊戸,チバケン,タテヤマシ,イト,千葉県館山市伊戸
2940315,千葉県,館山市,西川名,チバケン,タテヤマシ,ニシカワナ,千葉県館山市西川名
2940316,千葉県,館山市,洲崎,チバケン,タテヤマシ,スノサキ,千葉県館山市洲崎
2940801,千葉県,南房総市,増間,チバケン,ミナミボウソウシ,マスマ,千葉県南房総市増間
2940802,千葉県,南房総市,山名,チバケン,ミナミボウソウシ,ヤマナ,千葉県南房総市山名
2940803,千葉県,南房総市,御庄,チバケン,ミナミボウソウシ,ミショウ,千葉県南房総市御庄
2940804,千葉県,南房総市,海老敷,チバケン,ミナミボウソウシ,エビシキ,千葉県南房総市海老敷
2940805,千葉県,南房総市,下滝田,チバケン,ミナミボウソウシ,シモタキダ,千葉県南房総市下滝田
2940806,千葉県,南房総市,上滝田,チバケン,ミナミボウソウシ,カミタキダ,千葉県南房総市上滝田
2940811,千葉県,南房総市,中,チバケン,ミナミボウソウシ,ナカ,千葉県南房総市中
2940812,千葉県,南房総市,池之内,チバケン,ミナミボウソウシ,イケノウチ,千葉県南房総市池之内
2940813,千葉県,南房総市,谷向,チバケン,ミナミボウソウシ,ヤムカイ,千葉県南房総市谷向
2940814,千葉県,南房総市,川田,チバケン,ミナミボウソウシ,カワタ,千葉県南房総市川田
2940815,千葉県,南房総市,千代,チバケン,ミナミボウソウシ,センダイ,千葉県南房総市千代
2940816,千葉県,南房総市,山下,チバケン,ミナミボウソウシ,ヤマシタ,千葉県南房総市山下
2940817,千葉県,南房総市,大学口,チバケン,ミナミボウソウシ,オオガクチ,千葉県南房総市大学口
2940821,千葉県,南房総市,明石,チバケン,ミナミボウソウシ,アカシ,千葉県南房総市明石
2940822,千葉県,南房総市,本織,チバケン,ミナミボウソウシ,モトオリ,千葉県南房総市本織
2940823,千葉県,南房総市,府中,チバケン,ミナミボウソウシ,フチュウ,千葉県南房総市府中
2940824,千葉県,南房総市,下堀,チバケン,ミナミボウソウシ,シモホリ,千葉県南房総市下堀
2940825,千葉県,南房総市,上堀,チバケン,ミナミボウソウシ,カミホリ,千葉県南房総市上堀
2940826,千葉県,南房総市,三坂,チバケン,ミナミボウソウシ,ミサカ,千葉県南房総市三坂
2950001,千葉県,南房総市,千倉町久保,チバケン,ミナミボウソウシ,チクラチョウクボ,千葉県南房総市千倉町久保
2950002,千葉県,南房総市,千倉町川合,チバケン,ミナミボウソウシ,チクラチョウカワイ,千葉県南房総市千倉町川合
2950003,千葉県,南房総市,千倉町白子,チバケン,ミナミボウソウシ,チクラチョウシラコ,千葉県南房総市千倉町白子
2950004,千葉県,南房総市,千倉町瀬戸,チバケン,ミナミボウソウシ,チクラチョウセト,千葉県南房総市千倉町瀬戸
2950005,千葉県,南房総市,千倉町牧田,チバケン,ミナミボウソウシ,チクラチョウマキダ,千葉県南房総市千倉町牧田
2950006,千葉県,南房総市,千倉町宇田,チバケン,ミナミボウソウシ,チクラチョウウダ,千葉県南房総市千倉町宇田
2950011,千葉県,南房総市,千倉町北朝夷,チバケン,ミナミボウソウシ,チクラチョウキタアサイ,千葉県南房総市千倉町北朝夷
2950012,千葉県,南房総市,千倉町南朝夷,チバケン,ミナミボウソウシ,チクラチョウミナミアサイ,千葉県南房総市千倉町南朝夷
2950013,千葉県,南房総市,千倉町大貫,チバケン,ミナミボウソウシ,チクラチョウオオヌキ,千葉県南房総市千倉町大貫
2950014,千葉県,南房総市,千倉町川戸,チバケン,ミナミボウソウシ,チクラチョウカワト,千葉県南房総市千倉町川戸
2950021,千葉県,南房総市,千倉町平舘,チバケン,ミナミボウソウシ,チクラチョウヘダテ,千葉県南房総市千倉町平舘
2950022,千葉県,南房総市,千倉町忽戸,チバケン,ミナミボウソウシ,チクラチョウコット,千葉県南房総市千倉町忽戸
2950023,千葉県,南房総市,千倉町川口,チバケン,ミナミボウソウシ,チクラチョウカワグチ,千葉県南房総市千倉町川口
2950024,千葉県,南房総市,千倉町平磯,チバケン,ミナミボウソウシ,チクラチョウヒライソ,千葉県南房総市千倉町平磯
2950025,千葉県,南房総市,千倉町千田,チバケン,ミナミボウソウシ,チクラチョウセンダ,千葉県南房総市千倉町千田
2950026,千葉県,南房総市,千倉町大川,チバケン,ミナミボウソウシ,チクラチョウオオカワ,千葉県南房総市千倉町大川
2950027,千葉県,南房総市,千倉町白間津,チバケン,ミナミボウソウシ,チクラチョウシラマヅ,千葉県南房総市千倉町白間津
2950101,千葉県,南房総市,白浜町乙浜,チバケン,ミナミボウソウシ,シラハマチョウオトハマ,千葉県南房総市白浜町乙浜
2950102,千葉県,南房総市,白浜町白浜,チバケン,ミナミボウソウシ,シラハマチョウシラハマ,千葉県南房総市白浜町白浜
2950103,千葉県,南房総市,白浜町滝口,チバケン,ミナミボウソウシ,シラハマチョウタキグチ,千葉県南房総市白浜町滝口
2950104,千葉県,南房総市,白浜町根本,チバケン,ミナミボウソウシ,シラハマチョウネモト,千葉県南房総市白浜町根本
2960000,千葉県,鴨川市,,チバケン,カモガワシ,,千葉県鴨川市
2960001,千葉県,鴨川市,横渚,チバケン,カモガワシ,ヨコスカ,千葉県鴨川市横渚
2960002,千葉県,鴨川市,前原,チバケン,カモガワシ,マエバラ,千葉県鴨川市前原
2960003,千葉県,鴨川市,磯村,チバケン,カモガワシ,イソムラ,千葉県鴨川市磯村
2960004,千葉県,鴨川市,貝渚,チバケン,カモガワシ,カイスカ,千葉県鴨川市貝渚
2960011,千葉県,鴨川市,大里,チバケン,カモガワシ,ダイリ,千葉県鴨川市大里
2960012,千葉県,鴨川市,来秀,チバケン,カモガワシ,ライシュウ,千葉県鴨川市来秀
2960013,千葉県,鴨川市,田原西,チバケン,カモガワシ,タバラニシ,千葉県鴨川市田原西
2960014,千葉県,鴨川市,太尾,チバケン,カモガワシ,フトオ,千葉県鴨川市太尾
2960015,千葉県,鴨川市,川代,チバケン,カモガワシ,カワシロ,千葉県鴨川市川代
2960016,千葉県,鴨川市,坂東,チバケン,カモガワシ,バンドウ,千葉県鴨川市坂東
2960021,千葉県,鴨川市,竹平,チバケン,カモガワシ,タケヒラ,千葉県鴨川市竹平
2960022,千葉県,鴨川市,京田,チバケン,カモガワシ,キョウデン,千葉県鴨川市京田
2960023,千葉県,鴨川市,押切,チバケン,カモガワシ,オシキリ,千葉県鴨川市押切
2960024,千葉県,鴨川市,池田,チバケン,カモガワシ,イケダ,千葉県鴨川市池田
2960025,千葉県,鴨川市,太田学,チバケン,カモガワシ,オダガク,千葉県鴨川市太田学
2960031,千葉県,鴨川市,粟斗,チバケン,カモガワシ,アワト,千葉県鴨川市粟斗
2960032,千葉県,鴨川市,花房,チバケン,カモガワシ,ハナブサ,千葉県鴨川市花房
2960033,千葉県,鴨川市,八色,チバケン,カモガワシ,ヤイロ,千葉県鴨川市八色
2960034,千葉県,鴨川市,滑谷,チバケン,カモガワシ,ヌカリヤ,千葉県鴨川市滑谷
2960035,千葉県,鴨川市,打墨,チバケン,カモガワシ,ウツツミ,千葉県鴨川市打墨
2960041,千葉県,鴨川市,東町,チバケン,カモガワシ,ヒガシチョウ,千葉県鴨川市東町
2960042,千葉県,鴨川市,東元浜荻飛地,チバケン,カモガワシ,ヒガシモトハマオギトビチ,千葉県鴨川市東元浜荻飛地
2960043,千葉県,鴨川市,西町,チバケン,カモガワシ,ニシチョウ,千葉県鴨川市西町
2960044,千葉県,鴨川市,広場,チバケン,カモガワシ,ヒロバ,千葉県鴨川市広場
2960045,千葉県,鴨川市,和泉,チバケン,カモガワシ,イズミ,千葉県鴨川市和泉
2960101,千葉県,鴨川市,北小町,チバケン,カモガワシ,キタコマチ,千葉県鴨川市北小町
2960102,千葉県,鴨川市,下小原,チバケン,カモガワシ,シモコバラ,千葉県鴨川市下小原
2960103,千葉県,鴨川市,上小原,チバケン,カモガワシ,カミコバラ,千葉県鴨川市上小原
2960104,千葉県,鴨川市,南小町,チバケン,カモガワシ,ミナミコマチ,千葉県鴨川市南小町
2960105,千葉県,鴨川市,成川,チバケン,カモガワシ,ナリガワ,千葉県鴨川市成川
2960106,千葉県,鴨川市,主基西,チバケン,カモガワシ,スキニシ,千葉県鴨川市主基西
2960111,千葉県,鴨川市,仲,チバケン,カモガワシ,ナカ,千葉県鴨川市仲
2960112,千葉県,鴨川市,宮山,チバケン,カモガワシ,ミヤヤマ,千葉県鴨川市宮山
2960113,千葉県,鴨川市,吉尾平塚,チバケン,カモガワシ,ヨシオヒラツカ,千葉県鴨川市吉尾平塚
2960114,千葉県,鴨川市,細野,チバケン,カモガワシ,ホソノ,千葉県鴨川市細野
2960115,千葉県,鴨川市,松尾寺,チバケン,カモガワシ,マツオジ,千葉県鴨川市松尾寺
2960121,千葉県,鴨川市,大川面,チバケン,カモガワシ,オオカワヅラ,千葉県鴨川市大川面
2960122,千葉県,鴨川市,寺門,チバケン,カモガワシ,テラカド,千葉県鴨川市寺門
2960123,千葉県,鴨川市,北風原,チバケン,カモガワシ,ナライハラ,千葉県鴨川市北風原
2960124,千葉県,鴨川市,大幡,チバケン,カモガワシ,オオハタ,千葉県鴨川市大幡
2960125,千葉県,鴨川市,横尾,チバケン,カモガワシ,ヨコオ,千葉県鴨川市横尾
2960126,千葉県,鴨川市,吉尾西,チバケン,カモガワシ,ヨシオニシ,千葉県鴨川市吉尾西
2960231,千葉県,鴨川市,釜沼,チバケン,カモガワシ,カマヌマ,千葉県鴨川市釜沼
2960232,千葉県,鴨川市,平塚,チバケン,カモガワシ,ヒラツカ,千葉県鴨川市平塚
2960233,千葉県,鴨川市,金束,チバケン,カモガワシ,コヅカ,千葉県鴨川市金束
2960234,千葉県,鴨川市,古畑,チバケン,カモガワシ,コバタ,千葉県鴨川市古畑
2960235,千葉県,鴨川市,奈良林,チバケン,カモガワシ,ナラバヤシ,千葉県鴨川市奈良林
2960236,千葉県,鴨川市,佐野,チバケン,カモガワシ,サノ,千葉県鴨川市佐野
2960237,千葉県,鴨川市,大山平塚,チバケン,カモガワシ,オオヤマヒラツカ,千葉県鴨川市大山平塚
2970000,千葉県,茂原市,,チバケン,モバラシ,,千葉県茂原市
2970001,千葉県,茂原市,七渡,チバケン,モバラシ,ナナワタリ,千葉県茂原市七渡
2970002,千葉県,茂原市,千町,チバケン,モバラシ,センチョウ,千葉県茂原市千町
2970003,千葉県,茂原市,北高根飛地,チバケン,モバラシ,キタタカネトビチ,千葉県茂原市北高根飛地
2970004,千葉県,茂原市,小轡,チバケン,モバラシ,コグツワ,千葉県茂原市小轡
2970005,千葉県,茂原市,本小轡,チバケン,モバラシ,ホンコグツワ,千葉県茂原市本小轡
2970006,千葉県,茂原市,新小轡,チバケン,モバラシ,シンコグツワ,千葉県茂原市新小轡
2970007,千葉県,茂原市,腰当,チバケン,モバラシ,コシアテ,千葉県茂原市腰当
2970008,千葉県,茂原市,渋谷,チバケン,モバラシ,シブヤ,千葉県茂原市渋谷
2970009,千葉県,茂原市,北塚,チバケン,モバラシ,キタヅカ,千葉県茂原市北塚
2970011,千葉県,茂原市,谷本,チバケン,モバラシ,ヤモト,千葉県茂原市谷本
2970012,千葉県,茂原市,六ツ野,チバケン,モバラシ,ムツノ,千葉県茂原市六ツ野
2970013,千葉県,茂原市,中之郷飛地,チバケン,モバラシ,ナカノゴウトビチ,千葉県茂原市中之郷飛地
2970014,千葉県,茂原市,川島飛地,チバケン,モバラシ,カワシマトビチ,千葉県茂原市川島飛地
2970015,千葉県,茂原市,東部台,チバケン,モバラシ,トウブダイ,千葉県茂原市東部台
2970016,千葉県,茂原市,木崎,チバケン,モバラシ,キサキ,千葉県茂原市木崎
2970017,千葉県,茂原市,東郷,チバケン,モバラシ,トウゴウ,千葉県茂原市東郷
2970018,千葉県,茂原市,萩原町,チバケン,モバラシ,ハギワラチョウ,千葉県茂原市萩原町
2970019,千葉県,茂原市,上林,チバケン,モバラシ,カンバヤシ,千葉県茂原市上林
2970021,千葉県,茂原市,高師町,チバケン,モバラシ,タカシチョウ,千葉県茂原市高師町
2970022,千葉県,茂原市,町保,チバケン,モバラシ,マチボ,千葉県茂原市町保
2970023,千葉県,茂原市,千代田町,チバケン,モバラシ,チヨダチョウ,千葉県茂原市千代田町
2970024,千葉県,茂原市,八千代,チバケン,モバラシ,ヤチヨ,千葉県茂原市八千代
2970025,千葉県,茂原市,緑町,チバケン,モバラシ,ミドリチョウ,千葉県茂原市緑町
2970026,千葉県,茂原市,茂原,チバケン,モバラシ,モバラ,千葉県茂原市茂原
2970027,千葉県,茂原市,中部,チバケン,モバラシ,チュウブ,千葉県茂原市中部
2970028,千葉県,茂原市,道表,チバケン,モバラシ,ドウビョウ,千葉県茂原市道表
2970029,千葉県,茂原市,高師,チバケン,モバラシ,タカシ,千葉県茂原市高師
2970031,千葉県,茂原市,早野新田,チバケン,モバラシ,ハヤノシンデン,千葉県茂原市早野新田
2970032,千葉県,茂原市,東茂原,チバケン,モバラシ,ヒガシモバラ,千葉県茂原市東茂原
2970033,千葉県,茂原市,大芝,チバケン,モバラシ,オオシバ,千葉県茂原市大芝
2970034,千葉県,茂原市,中の島町,チバケン,モバラシ,ナカノシマチョウ,千葉県茂原市中の島町
2970035,千葉県,茂原市,下永吉,チバケン,モバラシ,シモナガヨシ,千葉県茂原市下永吉
2970036,千葉県,茂原市,上永吉,チバケン,モバラシ,カミナガヨシ,千葉県茂原市上永吉
2970037,千葉県,茂原市,早野,チバケン,モバラシ,ハヤノ,千葉県茂原市早野
2970038,千葉県,茂原市,長清水,チバケン,モバラシ,ナガシミズ,千葉県茂原市長清水
2970039,千葉県,茂原市,茂原西,チバケン,モバラシ,モバラニシ,千葉県茂原市茂原西
2970041,千葉県,茂原市,猿袋,チバケン,モバラシ,サルブクロ,千葉県茂原市猿袋
2970042,千葉県,茂原市,三ケ谷,チバケン,モバラシ,サンガヤ,千葉県茂原市三ケ谷
2970043,千葉県,茂原市,立木,チバケン,モバラシ,タチキ,千葉県茂原市立木
2970044,千葉県,茂原市,台田,チバケン,モバラシ,ダイダ,千葉県茂原市台田
2970045,千葉県,茂原市,野牛,チバケン,モバラシ,ヤギュウ,千葉県茂原市野牛
2970051,千葉県,茂原市,鷲巣,チバケン,モバラシ,ワシノス,千葉県茂原市鷲巣
2970052,千葉県,茂原市,上茂原,チバケン,モバラシ,カミモバラ,千葉県茂原市上茂原
2970053,千葉県,茂原市,墨田,チバケン,モバラシ,スミダ,千葉県茂原市墨田
2970054,千葉県,茂原市,八幡原,チバケン,モバラシ,ヤワタバラ,千葉県茂原市八幡原
2970055,千葉県,茂原市,綱島,チバケン,モバラシ,ツナシマ,千葉県茂原市綱島
2970056,千葉県,茂原市,六田台,チバケン,モバラシ,ロクタダイ,千葉県茂原市六田台
2970057,千葉県,茂原市,中善寺,チバケン,モバラシ,チュウゼンジ,千葉県茂原市中善寺
2970058,千葉県,茂原市,石神,チバケン,モバラシ,イシガミ,千葉県茂原市石神
2970061,千葉県,茂原市,山崎,チバケン,モバラシ,ヤマサキ,千葉県茂原市山崎
2970062,千葉県,茂原市,内長谷,チバケン,モバラシ,ウチナガヤ,千葉県茂原市内長谷
2970063,千葉県,茂原市,長谷,チバケン,モバラシ,ナガヤ,千葉県茂原市長谷
2970064,千葉県,茂原市,箕輪,チバケン,モバラシ,ミノワ,千葉県茂原市箕輪
2970065,千葉県,茂原市,緑ケ丘,チバケン,モバラシ,ミドリガオカ,千葉県茂原市緑ケ丘
2970066,千葉県,茂原市,芦網,チバケン,モバラシ,アシアミ,千葉県茂原市芦網
2970067,千葉県,茂原市,国府関,チバケン,モバラシ,コウセキ,千葉県茂原市国府関
2970071,千葉県,茂原市,黒戸,チバケン,モバラシ,クロド,千葉県茂原市黒戸
2970072,千葉県,茂原市,大登,チバケン,モバラシ,オオノボリ,千葉県茂原市大登
2970073,千葉県,茂原市,長尾,チバケン,モバラシ,ナガオ,千葉県茂原市長尾
2970074,千葉県,茂原市,小林,チバケン,モバラシ,コバヤシ,千葉県茂原市小林
2970075,千葉県,茂原市,押日,チバケン,モバラシ,オシビ,千葉県茂原市押日
2970076,千葉県,茂原市,庄吉,チバケン,モバラシ,ショウヨシ,千葉県茂原市庄吉
2970077,千葉県,茂原市,真名,チバケン,モバラシ,マンナ,千葉県茂原市真名
2970078,千葉県,茂原市,高師台,チバケン,モバラシ,タカシダイ,千葉県茂原市高師台
2970079,千葉県,茂原市,ゆたか,チバケン,モバラシ,ユタカ,千葉県茂原市ゆたか
2970100,千葉県,長生郡長南町,,チバケン,チョウセイグンチョウナンマチ,,千葉県長生郡長南町
2970101,千葉県,長生郡長南町,岩川,チバケン,チョウセイグンチョウナンマチ,イワカワ,千葉県長生郡長南町岩川
2970102,千葉県,長生郡長南町,本台,チバケン,チョウセイグンチョウナンマチ,モトダイ,千葉県長生郡長南町本台
2970103,千葉県,長生郡長南町,今泉,チバケン,チョウセイグンチョウナンマチ,イマイズミ,千葉県長生郡長南町今泉
2970104,千葉県,長生郡長南町,又富,チバケン,チョウセイグンチョウナンマチ,マタドミ,千葉県長生郡長南町又富
2970105,千葉県,長生郡長南町,棚毛,チバケン,チョウセイグンチョウナンマチ,タナゲ,千葉県長生郡長南町棚毛
2970111,千葉県,長生郡長南町,須田,チバケン,チョウセイグンチョウナンマチ,スダ,千葉県長生郡長南町須田
2970112,千葉県,長生郡長南町,米満,チバケン,チョウセイグンチョウナンマチ,ヨネミチ,千葉県長生郡長南町米満
2970113,千葉県,長生郡長南町,関原,チバケン,チョウセイグンチョウナンマチ,セキバラ,千葉県長生郡長南町関原
2970114,千葉県,長生郡長南町,千手堂,チバケン,チョウセイグンチョウナンマチ,センジュドウ,千葉県長生郡長南町千手堂
2970115,千葉県,長生郡長南町,千田,チバケン,チョウセイグンチョウナンマチ,センダ,千葉県長生郡長南町千田
2970121,千葉県,長生郡長南町,長南,チバケン,チョウセイグンチョウナンマチ,チョウナン,千葉県長生郡長南町長南
2970122,千葉県,長生郡長南町,坂本,チバケン,チョウセイグンチョウナンマチ,サカモト,千葉県長生郡長南町坂本
2970123,千葉県,長生郡長南町,蔵持,チバケン,チョウセイグンチョウナンマチ,クラモチ,千葉県長生郡長南町蔵持
2970124,千葉県,長生郡長南町,深沢,チバケン,チョウセイグンチョウナンマチ,フカサワ,千葉県長生郡長南町深沢
2970125,千葉県,長生郡長南町,笠森,チバケン,チョウセイグンチョウナンマチ,カサモリ,千葉県長生郡長南町笠森
2970131,千葉県,長生郡長南町,中原,チバケン,チョウセイグンチョウナンマチ,ナカハラ,千葉県長生郡長南町中原
2970132,千葉県,長生郡長南町,給田,チバケン,チョウセイグンチョウナンマチ,キュウデン,千葉県長生郡長南町給田
2970133,千葉県,長生郡長南町,豊原,チバケン,チョウセイグンチョウナンマチ,トヨハラ,千葉県長生郡長南町豊原
2970134,千葉県,長生郡長南町,芝原,チバケン,チョウセイグンチョウナンマチ,シバハラ,千葉県長生郡長南町芝原
2970135,千葉県,長生郡長南町,地引,チバケン,チョウセイグンチョウナンマチ,ジヒキ,千葉県長生郡長南町地引
2970136,千葉県,長生郡長南町,小生田,チバケン,チョウセイグンチョウナンマチ,オブタ,千葉県長生郡長南町小生田
2970137,千葉県,長生郡長南町,上小野田,チバケン,チョウセイグンチョウナンマチ,カミオノダ,千葉県長生郡長南町上小野田
2970138,千葉県,長生郡長南町,下小野田,チバケン,チョウセイグンチョウナンマチ,シモオノダ,千葉県長生郡長南町下小野田
2970141,千葉県,長生郡長南町,報恩寺,チバケン,チョウセイグンチョウナンマチ,ホウオンジ,千葉県長生郡長南町報恩寺
2970142,千葉県,長生郡長南町,小沢,チバケン,チョウセイグンチョウナンマチ,オザワ,千葉県長生郡長南町小沢
2970143,千葉県,長生郡長南町,美原台,チバケン,チョウセイグンチョウナンマチ,ミハラダイ,千葉県長生郡長南町美原台
2970144,千葉県,長生郡長南町,市野々,チバケン,チョウセイグンチョウナンマチ,イチノノ,千葉県長生郡長南町市野々
2970145,千葉県,長生郡長南町,佐坪,チバケン,チョウセイグンチョウナンマチ,サツボ,千葉県長生郡長南町佐坪
2970151,千葉県,長生郡長南町,茗荷沢,チバケン,チョウセイグンチョウナンマチ,ミョウガザワ,千葉県長生郡長南町茗荷沢
2970152,千葉県,長生郡長南町,水沼,チバケン,チョウセイグンチョウナンマチ,ミズヌマ,千葉県長生郡長南町水沼
2970153,千葉県,長生郡長南町,山内,チバケン,チョウセイグンチョウナンマチ,ヤマウチ,千葉県長生郡長南町山内
2970154,千葉県,長生郡長南町,岩撫,チバケン,チョウセイグンチョウナンマチ,イワナデ,千葉県長生郡長南町岩撫
2970155,千葉県,長生郡長南町,竹林,チバケン,チョウセイグンチョウナンマチ,タケバヤシ,千葉県長生郡長南町竹林
2970200,千葉県,長生郡長柄町,,チバケン,チョウセイグンナガラマチ,,千葉県長生郡長柄町
2970201,千葉県,長生郡長柄町,上野,チバケン,チョウセイグンナガラマチ,ウエノ,千葉県長生郡長柄町上野
2970202,千葉県,長生郡長柄町,味庄,チバケン,チョウセイグンナガラマチ,ミショウ,千葉県長生郡長柄町味庄
2970203,千葉県,長生郡長柄町,国府里,チバケン,チョウセイグンナガラマチ,コウリ,千葉県長生郡長柄町国府里
2970204,千葉県,長生郡長柄町,力丸,チバケン,チョウセイグンナガラマチ,リキマル,千葉県長生郡長柄町力丸
2970205,千葉県,長生郡長柄町,千代丸,チバケン,チョウセイグンナガラマチ,チヨマル,千葉県長生郡長柄町千代丸
2970206,千葉県,長生郡長柄町,山根,チバケン,チョウセイグンナガラマチ,ヤマンネ,千葉県長生郡長柄町山根
2970207,千葉県,長生郡長柄町,船木,チバケン,チョウセイグンナガラマチ,フナキ,千葉県長生郡長柄町船木
2970211,千葉県,長生郡長柄町,榎本,チバケン,チョウセイグンナガラマチ,エモト,千葉県長生郡長柄町榎本
2970212,千葉県,長生郡長柄町,小榎本,チバケン,チョウセイグンナガラマチ,コエモト,千葉県長生郡長柄町小榎本
2970213,千葉県,長生郡長柄町,徳増,チバケン,チョウセイグンナガラマチ,トクマス,千葉県長生郡長柄町徳増
2970214,千葉県,長生郡長柄町,長富,チバケン,チョウセイグンナガラマチ,ナガドミ,千葉県長生郡長柄町長富
2970215,千葉県,長生郡長柄町,鴇谷,チバケン,チョウセイグンナガラマチ,トウヤ,千葉県長生郡長柄町鴇谷
2970216,千葉県,長生郡長柄町,立鳥,チバケン,チョウセイグンナガラマチ,タツトリ,千葉県長生郡長柄町立鳥
2970217,千葉県,長生郡長柄町,針ケ谷,チバケン,チョウセイグンナガラマチ,ハリガヤ,千葉県長生郡長柄町針ケ谷
2970218,千葉県,長生郡長柄町,桜谷,チバケン,チョウセイグンナガラマチ,サクラヤ,千葉県長生郡長柄町桜谷
2970221,千葉県,長生郡長柄町,高山,チバケン,チョウセイグンナガラマチ,タカヤマ,千葉県長生郡長柄町高山
2970222,千葉県,長生郡長柄町,大庭,チバケン,チョウセイグンナガラマチ,オオニワ,千葉県長生郡長柄町大庭
2970223,千葉県,長生郡長柄町,大津倉,チバケン,チョウセイグンナガラマチ,オオヅクラ,千葉県長生郡長柄町大津倉
2970224,千葉県,長生郡長柄町,田代,チバケン,チョウセイグンナガラマチ,タシロ,千葉県長生郡長柄町田代
2970225,千葉県,長生郡長柄町,刑部,チバケン,チョウセイグンナガラマチ,オサカベ,千葉県長生郡長柄町刑部
2970226,千葉県,長生郡長柄町,金谷,チバケン,チョウセイグンナガラマチ,カナヤ,千葉県長生郡長柄町金谷
2970231,千葉県,長生郡長柄町,山之郷,チバケン,チョウセイグンナガラマチ,ヤマノゴウ,千葉県長生郡長柄町山之郷
2970232,千葉県,長生郡長柄町,中野台,チバケン,チョウセイグンナガラマチ,ナカノダイ,千葉県長生郡長柄町中野台
2970233,千葉県,長生郡長柄町,六地蔵,チバケン,チョウセイグンナガラマチ,ロクジゾウ,千葉県長生郡長柄町六地蔵
2970234,千葉県,長生郡長柄町,長柄山,チバケン,チョウセイグンナガラマチ,ナガラヤマ,千葉県長生郡長柄町長柄山
2970235,千葉県,長生郡長柄町,皿木,チバケン,チョウセイグンナガラマチ,サラギ,千葉県長生郡長柄町皿木
2980000,千葉県,いすみ市,,チバケン,イスミシ,,千葉県いすみ市
2980001,千葉県,いすみ市,若山,チバケン,イスミシ,ワカヤマ,千葉県いすみ市若山
2980002,千葉県,いすみ市,日在,チバケン,イスミシ,ヒアリ,千葉県いすみ市日在
2980003,千葉県,いすみ市,深堀,チバケン,イスミシ,フカホリ,千葉県いすみ市深堀
2980004,千葉県,いすみ市,大原,チバケン,イスミシ,オオハラ,千葉県いすみ市大原
2980005,千葉県,いすみ市,新田,チバケン,イスミシ,ニッタ,千葉県いすみ市新田
2980006,千葉県,いすみ市,大原最上台,チバケン,イスミシ,オオハラモガミダイ,千葉県いすみ市大原最上台
2980011,千葉県,いすみ市,岩船,チバケン,イスミシ,イワフネ,千葉県いすみ市岩船
2980012,千葉県,いすみ市,小沢,チバケン,イスミシ,オザワ,千葉県いすみ市小沢
2980013,千葉県,いすみ市,小池,チバケン,イスミシ,オイケ,千葉県いすみ市小池
2980014,千葉県,いすみ市,大原台,チバケン,イスミシ,オオハラダイ,千葉県いすみ市大原台
2980015,千葉県,いすみ市,釈迦谷,チバケン,イスミシ,シャカヤツ,千葉県いすみ市釈迦谷
2980016,千葉県,いすみ市,新田若山深堀入会地,チバケン,イスミシ,ニッタワカヤマフカホリイリアイチ,千葉県いすみ市新田若山深堀入会地
2980017,千葉県,いすみ市,下布施,チバケン,イスミシ,シモブセ,千葉県いすみ市下布施
2980018,千葉県,いすみ市,上布施,チバケン,イスミシ,カミブセ,千葉県いすみ市上布施
2980021,千葉県,いすみ市,高谷,チバケン,イスミシ,タカダニ,千葉県いすみ市高谷
2980022,千葉県,いすみ市,佐室,チバケン,イスミシ,サムロ,千葉県いすみ市佐室
2980023,千葉県,いすみ市,沢部,チバケン,イスミシ,サワベ,千葉県いすみ市沢部
2980024,千葉県,いすみ市,長志,チバケン,イスミシ,ナガシ,千葉県いすみ市長志
2980025,千葉県,いすみ市,山田,チバケン,イスミシ,ヤマダ,千葉県いすみ市山田
2980026,千葉県,いすみ市,新田野,チバケン,イスミシ,ニッタノ,千葉県いすみ市新田野
2980027,千葉県,いすみ市,下原,チバケン,イスミシ,シモハラ,千葉県いすみ市下原
2980028,千葉県,いすみ市,細尾,チバケン,イスミシ,ホソオ,千葉県いすみ市細尾
2980029,千葉県,いすみ市,大和田,チバケン,イスミシ,オオワダ,千葉県いすみ市大和田
2980101,千葉県,いすみ市,小又井,チバケン,イスミシ,コマタイ,千葉県いすみ市小又井
2980102,千葉県,いすみ市,小高,チバケン,イスミシ,オダカ,千葉県いすみ市小高
2980103,千葉県,いすみ市,神置,チバケン,イスミシ,カミオキ,千葉県いすみ市神置
2980104,千葉県,いすみ市,松丸,チバケン,イスミシ,マツマル,千葉県いすみ市松丸
2980105,千葉県,いすみ市,能実,チバケン,イスミシ,ノウジツ,千葉県いすみ市能実
2980106,千葉県,いすみ市,須賀谷,チバケン,イスミシ,スガヤ,千葉県いすみ市須賀谷
2980111,千葉県,いすみ市,万木,チバケン,イスミシ,マンギ,千葉県いすみ市万木
2980112,千葉県,いすみ市,国府台,チバケン,イスミシ,コウノダイ,千葉県いすみ市国府台
2980113,千葉県,いすみ市,大野,チバケン,イスミシ,オオノ,千葉県いすみ市大野
2980114,千葉県,いすみ市,札森,チバケン,イスミシ,サツモリ,千葉県いすみ市札森
2980115,千葉県,いすみ市,柿和田,チバケン,イスミシ,カキワダ,千葉県いすみ市柿和田
2980116,千葉県,いすみ市,正立寺,チバケン,イスミシ,ショウリュウジ,千葉県いすみ市正立寺
2980117,千葉県,いすみ市,増田,チバケン,イスミシ,マスダ,千葉県いすみ市増田
2980121,千葉県,いすみ市,島,チバケン,イスミシ,シマ,千葉県いすみ市島
2980122,千葉県,いすみ市,楽町,チバケン,イスミシ,ラクマチ,千葉県いすみ市楽町
2980123,千葉県,いすみ市,苅谷,チバケン,イスミシ,カリヤ,千葉県いすみ市苅谷
2980124,千葉県,いすみ市,弥正,チバケン,イスミシ,ヤマサ,千葉県いすみ市弥正
2980125,千葉県,いすみ市,深谷,チバケン,イスミシ,フカヤ,千葉県いすみ市深谷
2980126,千葉県,いすみ市,今関,チバケン,イスミシ,イマゼキ,千葉県いすみ市今関
2980131,千葉県,いすみ市,荻原,チバケン,イスミシ,オギワラ,千葉県いすみ市荻原
2980132,千葉県,いすみ市,八乙女,チバケン,イスミシ,ヤオトメ,千葉県いすみ市八乙女
2980133,千葉県,いすみ市,引田,チバケン,イスミシ,ヒキダ,千葉県いすみ市引田
2980134,千葉県,いすみ市,行川,チバケン,イスミシ,ナメガワ,千葉県いすみ市行川
2980135,千葉県,いすみ市,作田,チバケン,イスミシ,サクダ,千葉県いすみ市作田
2980200,千葉県,夷隅郡大多喜町,,チバケン,イスミグンオオタキマチ,,千葉県夷隅郡大多喜町
2980201,千葉県,夷隅郡大多喜町,小土呂,チバケン,イスミグンオオタキマチ,オドロ,千葉県夷隅郡大多喜町小土呂
2980202,千葉県,夷隅郡大多喜町,下大多喜,チバケン,イスミグンオオタキマチ,シモオオタキ,千葉県夷隅郡大多喜町下大多喜
2980203,千葉県,夷隅郡大多喜町,森宮,チバケン,イスミグンオオタキマチ,モリミヤ,千葉県夷隅郡大多喜町森宮
2980204,千葉県,夷隅郡大多喜町,船子,チバケン,イスミグンオオタキマチ,フナコ,千葉県夷隅郡大多喜町船子
2980205,千葉県,夷隅郡大多喜町,上原西部田柳原入会,チバケン,イスミグンオオタキマチ,ウエバラニシベタヤナバライリアイ,千葉県夷隅郡大多喜町上原西部田柳原入会
2980206,千葉県,夷隅郡大多喜町,横山,チバケン,イスミグンオオタキマチ,ヨコヤマ,千葉県夷隅郡大多喜町横山
2980207,千葉県,夷隅郡大多喜町,泉水,チバケン,イスミグンオオタキマチ,センズイ,千葉県夷隅郡大多喜町泉水
2980211,千葉県,夷隅郡大多喜町,紺屋,チバケン,イスミグンオオタキマチ,コウヤ,千葉県夷隅郡大多喜町紺屋
2980212,千葉県,夷隅郡大多喜町,猿稲,チバケン,イスミグンオオタキマチ,サルイネ,千葉県夷隅郡大多喜町猿稲
2980213,千葉県,夷隅郡大多喜町,桜台,チバケン,イスミグンオオタキマチ,サクラダイ,千葉県夷隅郡大多喜町桜台
2980214,千葉県,夷隅郡大多喜町,新丁,チバケン,イスミグンオオタキマチ,シンマチ,千葉県夷隅郡大多喜町新丁
2980215,千葉県,夷隅郡大多喜町,久保,チバケン,イスミグンオオタキマチ,クボ,千葉県夷隅郡大多喜町久保
2980216,千葉県,夷隅郡大多喜町,大多喜,チバケン,イスミグンオオタキマチ,オオタキ,千葉県夷隅郡大多喜町大多喜
2980217,千葉県,夷隅郡大多喜町,田丁,チバケン,イスミグンオオタキマチ,タマチ,千葉県夷隅郡大多喜町田丁
2980221,千葉県,夷隅郡大多喜町,柳原,チバケン,イスミグンオオタキマチ,ヤナバラ,千葉県夷隅郡大多喜町柳原
2980222,千葉県,夷隅郡大多喜町,八声,チバケン,イスミグンオオタキマチ,ヤコエ,千葉県夷隅郡大多喜町八声
2980223,千葉県,夷隅郡大多喜町,上原,チバケン,イスミグンオオタキマチ,ウエバラ,千葉県夷隅郡大多喜町上原
2980224,千葉県,夷隅郡大多喜町,堀之内,チバケン,イスミグンオオタキマチ,ホリノウチ,千葉県夷隅郡大多喜町堀之内
2980225,千葉県,夷隅郡大多喜町,大戸,チバケン,イスミグンオオタキマチ,オオト,千葉県夷隅郡大多喜町大戸
2980226,千葉県,夷隅郡大多喜町,部田,チバケン,イスミグンオオタキマチ,ヘタ,千葉県夷隅郡大多喜町部田
2980227,千葉県,夷隅郡大多喜町,西部田,チバケン,イスミグンオオタキマチ,ニシベタ,千葉県夷隅郡大多喜町西部田
2980228,千葉県,夷隅郡大多喜町,小谷松,チバケン,イスミグンオオタキマチ,コヤマツ,千葉県夷隅郡大多喜町小谷松
2980231,千葉県,夷隅郡大多喜町,馬場内,チバケン,イスミグンオオタキマチ,ババウチ,千葉県夷隅郡大多喜町馬場内
2980232,千葉県,夷隅郡大多喜町,小内,チバケン,イスミグンオオタキマチ,コウチ,千葉県夷隅郡大多喜町小内
2980233,千葉県,夷隅郡大多喜町,笛倉,チバケン,イスミグンオオタキマチ,フエグラ,千葉県夷隅郡大多喜町笛倉
2980234,千葉県,夷隅郡大多喜町,押沼,チバケン,イスミグンオオタキマチ,オシヌマ,千葉県夷隅郡大多喜町押沼
2980235,千葉県,夷隅郡大多喜町,宇筒原,チバケン,イスミグンオオタキマチ,ウトウバラ,千葉県夷隅郡大多喜町宇筒原
2980236,千葉県,夷隅郡大多喜町,百鉾,チバケン,イスミグンオオタキマチ,モフク,千葉県夷隅郡大多喜町百鉾
2980237,千葉県,夷隅郡大多喜町,原内,チバケン,イスミグンオオタキマチ,ハラウチ,千葉県夷隅郡大多喜町原内
2980238,千葉県,夷隅郡大多喜町,小内笛倉入会,チバケン,イスミグンオオタキマチ,コウチフエグライリアイ,千葉県夷隅郡大多喜町小内笛倉入会
2980241,千葉県,夷隅郡大多喜町,紙敷,チバケン,イスミグンオオタキマチ,カミシキ,千葉県夷隅郡大多喜町紙敷
2980242,千葉県,夷隅郡大多喜町,小苗,チバケン,イスミグンオオタキマチ,コミョウ,千葉県夷隅郡大多喜町小苗
2980243,千葉県,夷隅郡大多喜町,湯倉,チバケン,イスミグンオオタキマチ,ユグラ,千葉県夷隅郡大多喜町湯倉
2980244,千葉県,夷隅郡大多喜町,松尾,チバケン,イスミグンオオタキマチ,マツオ,千葉県夷隅郡大多喜町松尾
2980245,千葉県,夷隅郡大多喜町,弥喜用,チバケン,イスミグンオオタキマチ,ヤキヨウ,千葉県夷隅郡大多喜町弥喜用
2980246,千葉県,夷隅郡大多喜町,庄司,チバケン,イスミグンオオタキマチ,ショウジ,千葉県夷隅郡大多喜町庄司
2980251,千葉県,夷隅郡大多喜町,久我原,チバケン,イスミグンオオタキマチ,クガハラ,千葉県夷隅郡大多喜町久我原
2980252,千葉県,夷隅郡大多喜町,三又,チバケン,イスミグンオオタキマチ,ミマタ,千葉県夷隅郡大多喜町三又
2980253,千葉県,夷隅郡大多喜町,川畑,チバケン,イスミグンオオタキマチ,カワハタ,千葉県夷隅郡大多喜町川畑
2980254,千葉県,夷隅郡大多喜町,平沢,チバケン,イスミグンオオタキマチ,ヒラサワ,千葉県夷隅郡大多喜町平沢
2980255,千葉県,夷隅郡大多喜町,黒原,チバケン,イスミグンオオタキマチ,クロハラ,千葉県夷隅郡大多喜町黒原
2980256,千葉県,夷隅郡大多喜町,石神,チバケン,イスミグンオオタキマチ,イシガミ,千葉県夷隅郡大多喜町石神
2980261,千葉県,夷隅郡大多喜町,板谷,チバケン,イスミグンオオタキマチ,イタヤ,千葉県夷隅郡大多喜町板谷
2980262,千葉県,夷隅郡大多喜町,堀切,チバケン,イスミグンオオタキマチ,ホリキリ,千葉県夷隅郡大多喜町堀切
2980263,千葉県,夷隅郡大多喜町,伊保田,チバケン,イスミグンオオタキマチ,イホタ,千葉県夷隅郡大多喜町伊保田
2980264,千葉県,夷隅郡大多喜町,大田代,チバケン,イスミグンオオタキマチ,オオタダイ,千葉県夷隅郡大多喜町大田代
2980265,千葉県,夷隅郡大多喜町,小田代,チバケン,イスミグンオオタキマチ,コタダイ,千葉県夷隅郡大多喜町小田代
2980266,千葉県,夷隅郡大多喜町,筒森,チバケン,イスミグンオオタキマチ,ツツモリ,千葉県夷隅郡大多喜町筒森
2980267,千葉県,夷隅郡大多喜町,葛藤,チバケン,イスミグンオオタキマチ,クズフジ,千葉県夷隅郡大多喜町葛藤
2980271,千葉県,夷隅郡大多喜町,中野,チバケン,イスミグンオオタキマチ,ナカノ,千葉県夷隅郡大多喜町中野
2980272,千葉県,夷隅郡大多喜町,市川,チバケン,イスミグンオオタキマチ,イチカワ,千葉県夷隅郡大多喜町市川
2980273,千葉県,夷隅郡大多喜町,三条,チバケン,イスミグンオオタキマチ,サンジョウ,千葉県夷隅郡大多喜町三条
2980274,千葉県,夷隅郡大多喜町,田代,チバケン,イスミグンオオタキマチ,タシロ,千葉県夷隅郡大多喜町田代
2980275,千葉県,夷隅郡大多喜町,弓木,チバケン,イスミグンオオタキマチ,ユミギ,千葉県夷隅郡大多喜町弓木
2980276,千葉県,夷隅郡大多喜町,会所,チバケン,イスミグンオオタキマチ,カイショ,千葉県夷隅郡大多喜町会所
2980277,千葉県,夷隅郡大多喜町,粟又,チバケン,イスミグンオオタキマチ,アワマタ,千葉県夷隅郡大多喜町粟又
2980278,千葉県,夷隅郡大多喜町,小沢又,チバケン,イスミグンオオタキマチ,コザワマタ,千葉県夷隅郡大多喜町小沢又
2980279,千葉県,夷隅郡大多喜町,面白,チバケン,イスミグンオオタキマチ,オモジロ,千葉県夷隅郡大多喜町面白
2990101,千葉県,市原市,青柳北,チバケン,イチハラシ,アオヤギキタ,千葉県市原市青柳北
2990102,千葉県,市原市,青柳,チバケン,イチハラシ,アオヤギ,千葉県市原市青柳
2990103,千葉県,市原市,青柳海岸,チバケン,イチハラシ,アオヤギカイガン,千葉県市原市青柳海岸
2990104,千葉県,市原市,白塚,チバケン,イチハラシ,シラツカ,千葉県市原市白塚
2990105,千葉県,市原市,柏原,チバケン,イチハラシ,カシワバラ,千葉県市原市柏原
2990106,千葉県,市原市,今津朝山,チバケン,イチハラシ,イマヅアサヤマ,千葉県市原市今津朝山
2990107,千葉県,市原市,姉崎海岸,チバケン,イチハラシ,アネサキカイガン,千葉県市原市姉崎海岸
2990108,千葉県,市原市,千種海岸,チバケン,イチハラシ,チグサカイガン,千葉県市原市千種海岸
2990109,千葉県,市原市,千種,チバケン,イチハラシ,チグサ,千葉県市原市千種
2990110,千葉県,市原市,姉崎東,チバケン,イチハラシ,アネサキヒガシ,千葉県市原市姉崎東
2990111,千葉県,市原市,姉崎,チバケン,イチハラシ,アネサキ,千葉県市原市姉崎
2990112,千葉県,市原市,畑木,チバケン,イチハラシ,ハタキ,千葉県市原市畑木
2990113,千葉県,市原市,片又木,チバケン,イチハラシ,カタマタギ,千葉県市原市片又木
2990114,千葉県,市原市,泉台,チバケン,イチハラシ,イズミダイ,千葉県市原市泉台
2990115,千葉県,市原市,不入斗,チバケン,イチハラシ,イリヤマズ,千葉県市原市不入斗
2990116,千葉県,市原市,迎田,チバケン,イチハラシ,ムカエダ,千葉県市原市迎田
2990117,千葉県,市原市,青葉台,チバケン,イチハラシ,アオバダイ,千葉県市原市青葉台
2990118,千葉県,市原市,椎津,チバケン,イチハラシ,シイヅ,千葉県市原市椎津
2990119,千葉県,市原市,姉崎西,チバケン,イチハラシ,アネサキニシ,千葉県市原市姉崎西
2990121,千葉県,市原市,立野,チバケン,イチハラシ,タテノ,千葉県市原市立野
2990122,千葉県,市原市,豊成,チバケン,イチハラシ,トヨナリ,千葉県市原市豊成
2990123,千葉県,市原市,深城,チバケン,イチハラシ,フカシロ,千葉県市原市深城
2990124,千葉県,市原市,有秋台東,チバケン,イチハラシ,ユウシュウダイヒガシ,千葉県市原市有秋台東
2990125,千葉県,市原市,有秋台西,チバケン,イチハラシ,ユウシュウダイニシ,千葉県市原市有秋台西
2990126,千葉県,市原市,天羽田,チバケン,イチハラシ,アモウダ,千葉県市原市天羽田
2990127,千葉県,市原市,桜台,チバケン,イチハラシ,サクラダイ,千葉県市原市桜台
2990128,千葉県,市原市,椎の木台,チバケン,イチハラシ,シイノキダイ,千葉県市原市椎の木台
2990200,千葉県,袖ケ浦市,,チバケン,ソデガウラシ,,千葉県袖ケ浦市
2990201,千葉県,袖ケ浦市,川原井,チバケン,ソデガウラシ,カワハライ,千葉県袖ケ浦市川原井
2990202,千葉県,袖ケ浦市,林,チバケン,ソデガウラシ,ハヤシ,千葉県袖ケ浦市林
2990203,千葉県,袖ケ浦市,高谷,チバケン,ソデガウラシ,タカヤ,千葉県袖ケ浦市高谷
2990204,千葉県,袖ケ浦市,永吉,チバケン,ソデガウラシ,ナガヨシ,千葉県袖ケ浦市永吉
2990205,千葉県,袖ケ浦市,上泉,チバケン,ソデガウラシ,カミイズミ,千葉県袖ケ浦市上泉
2990211,千葉県,袖ケ浦市,野里,チバケン,ソデガウラシ,ノザト,千葉県袖ケ浦市野里
2990212,千葉県,袖ケ浦市,三箇,チバケン,ソデガウラシ,サンガ,千葉県袖ケ浦市三箇
2990213,千葉県,袖ケ浦市,百目木,チバケン,ソデガウラシ,ドウメキ,千葉県袖ケ浦市百目木
2990214,千葉県,袖ケ浦市,下根岸,チバケン,ソデガウラシ,シモネギシ,千葉県袖ケ浦市下根岸
2990215,千葉県,袖ケ浦市,堂谷,チバケン,ソデガウラシ,ドウヤツ,千葉県袖ケ浦市堂谷
2990216,千葉県,袖ケ浦市,阿部,チバケン,ソデガウラシ,アベ,千葉県袖ケ浦市阿部
2990217,千葉県,袖ケ浦市,打越,チバケン,ソデガウラシ,ウチコシ,千葉県袖ケ浦市打越
2990221,千葉県,袖ケ浦市,大竹,チバケン,ソデガウラシ,オオタケ,千葉県袖ケ浦市大竹
2990222,千葉県,袖ケ浦市,上宮田,チバケン,ソデガウラシ,カミミヤダ,千葉県袖ケ浦市上宮田
2990223,千葉県,袖ケ浦市,下宮田,チバケン,ソデガウラシ,シモミヤダ,千葉県袖ケ浦市下宮田
2990224,千葉県,袖ケ浦市,吉野田,チバケン,ソデガウラシ,ヨシノダ,千葉県袖ケ浦市吉野田
2990225,千葉県,袖ケ浦市,玉野,チバケン,ソデガウラシ,タマノ,千葉県袖ケ浦市玉野
2990226,千葉県,袖ケ浦市,滝の口,チバケン,ソデガウラシ,タキノクチ,千葉県袖ケ浦市滝の口
2990231,千葉県,袖ケ浦市,下泉,チバケン,ソデガウラシ,シモイズミ,千葉県袖ケ浦市下泉
2990232,千葉県,袖ケ浦市,永地,チバケン,ソデガウラシ,エイチ,千葉県袖ケ浦市永地
2990233,千葉県,袖ケ浦市,岩井,チバケン,ソデガウラシ,イワイ,千葉県袖ケ浦市岩井
2990234,千葉県,袖ケ浦市,谷中,チバケン,ソデガウラシ,ヤナカ,千葉県袖ケ浦市谷中
2990235,千葉県,袖ケ浦市,三黒,チバケン,ソデガウラシ,ミクロ,千葉県袖ケ浦市三黒
2990236,千葉県,袖ケ浦市,横田,チバケン,ソデガウラシ,ヨコタ,千葉県袖ケ浦市横田
2990237,千葉県,袖ケ浦市,大鳥居,チバケン,ソデガウラシ,オオドリイ,千葉県袖ケ浦市大鳥居
2990241,千葉県,袖ケ浦市,代宿,チバケン,ソデガウラシ,ダイジュク,千葉県袖ケ浦市代宿
2990242,千葉県,袖ケ浦市,久保田,チバケン,ソデガウラシ,クボタ,千葉県袖ケ浦市久保田
2990243,千葉県,袖ケ浦市,蔵波,チバケン,ソデガウラシ,クラナミ,千葉県袖ケ浦市蔵波
2990244,千葉県,袖ケ浦市,野田,チバケン,ソデガウラシ,ノダ,千葉県袖ケ浦市野田
2990245,千葉県,袖ケ浦市,蔵波台,チバケン,ソデガウラシ,クラナミダイ,千葉県袖ケ浦市蔵波台
2990246,千葉県,袖ケ浦市,長浦駅前,チバケン,ソデガウラシ,ナガウラエキマエ,千葉県袖ケ浦市長浦駅前
2990247,千葉県,袖ケ浦市,椎の森,チバケン,ソデガウラシ,シイノモリ,千葉県袖ケ浦市椎の森
2990251,千葉県,袖ケ浦市,のぞみ野,チバケン,ソデガウラシ,ノゾミノ,千葉県袖ケ浦市のぞみ野
2990252,千葉県,袖ケ浦市,勝,チバケン,ソデガウラシ,カツ,千葉県袖ケ浦市勝
2990253,千葉県,袖ケ浦市,大曽根,チバケン,ソデガウラシ,オゾネ,千葉県袖ケ浦市大曽根
2990254,千葉県,袖ケ浦市,三ツ作,チバケン,ソデガウラシ,ミツザク,千葉県袖ケ浦市三ツ作
2990255,千葉県,袖ケ浦市,下新田,チバケン,ソデガウラシ,シモニッタ,千葉県袖ケ浦市下新田
2990256,千葉県,袖ケ浦市,飯富,チバケン,ソデガウラシ,イイトミ,千葉県袖ケ浦市飯富
2990257,千葉県,袖ケ浦市,神納,チバケン,ソデガウラシ,カンノウ,千葉県袖ケ浦市神納
2990261,千葉県,袖ケ浦市,福王台,チバケン,ソデガウラシ,フクオウダイ,千葉県袖ケ浦市福王台
2990262,千葉県,袖ケ浦市,坂戸市場,チバケン,ソデガウラシ,サカドイチバ,千葉県袖ケ浦市坂戸市場
2990263,千葉県,袖ケ浦市,奈良輪,チバケン,ソデガウラシ,ナラワ,千葉県袖ケ浦市奈良輪
2990264,千葉県,袖ケ浦市,今井,チバケン,ソデガウラシ,イマイ,千葉県袖ケ浦市今井
2990265,千葉県,袖ケ浦市,長浦,チバケン,ソデガウラシ,ナガウラ,千葉県袖ケ浦市長浦
2990266,千葉県,袖ケ浦市,北袖,チバケン,ソデガウラシ,キタソデ,千葉県袖ケ浦市北袖
2990267,千葉県,袖ケ浦市,中袖,チバケン,ソデガウラシ,ナカソデ,千葉県袖ケ浦市中袖
2990268,千葉県,袖ケ浦市,南袖,チバケン,ソデガウラシ,ミナミソデ,千葉県袖ケ浦市南袖
2990269,千葉県,袖ケ浦市,袖ケ浦駅前,チバケン,ソデガウラシ,ソデガウラエキマエ,千葉県袖ケ浦市袖ケ浦駅前
2990271,千葉県,木更津市,坂戸市場,チバケン,キサラヅシ,サカドイチバ,千葉県木更津市坂戸市場
2991100,千葉県,君津市,,チバケン,キミツシ,,千葉県君津市
2991101,千葉県,君津市,大鷲新田,チバケン,キミツシ,オオワシシンデン,千葉県君津市大鷲新田
2991102,千葉県,君津市,大鷲,チバケン,キミツシ,オオワシ,千葉県君津市大鷲
2991103,千葉県,君津市,大井,チバケン,キミツシ,オオイ,千葉県君津市大井
2991104,千葉県,君津市,糠田,チバケン,キミツシ,ヌカタ,千葉県君津市糠田
2991105,千葉県,君津市,白駒,チバケン,キミツシ,シロコマ,千葉県君津市白駒
2991106,千葉県,君津市,中島,チバケン,キミツシ,ナカジマ,千葉県君津市中島
2991107,千葉県,君津市,上,チバケン,キミツシ,カミ,千葉県君津市上
2991108,千葉県,君津市,練木,チバケン,キミツシ,ネリキ,千葉県君津市練木
2991111,千葉県,君津市,六手,チバケン,キミツシ,ムテ,千葉県君津市六手
2991112,千葉県,君津市,泉,チバケン,キミツシ,イズミ,千葉県君津市泉
2991113,千葉県,君津市,尾車,チバケン,キミツシ,ビシャ,千葉県君津市尾車
2991114,千葉県,君津市,草牛,チバケン,キミツシ,ソウギュウ,千葉県君津市草牛
2991115,千葉県,君津市,馬登,チバケン,キミツシ,マノボリ,千葉県君津市馬登
2991116,千葉県,君津市,皿引,チバケン,キミツシ,サラヒキ,千葉県君津市皿引
2991117,千葉県,君津市,宮下,チバケン,キミツシ,ミヤノシタ,千葉県君津市宮下
2991121,千葉県,君津市,常代,チバケン,キミツシ,トコシロ,千葉県君津市常代
2991122,千葉県,君津市,浜子,チバケン,キミツシ,ハマゴ,千葉県君津市浜子
2991123,千葉県,君津市,大山野,チバケン,キミツシ,オオヤマノ,千葉県君津市大山野
2991124,千葉県,君津市,作木,チバケン,キミツシ,ツクリキ,千葉県君津市作木
2991125,千葉県,君津市,山高原,チバケン,キミツシ,ヤマタカハラ,千葉県君津市山高原
2991126,千葉県,君津市,小山野,チバケン,キミツシ,コヤマノ,千葉県君津市小山野
2991127,千葉県,君津市,郡,チバケン,キミツシ,コオリ,千葉県君津市郡
2991131,千葉県,君津市,下湯江,チバケン,キミツシ,シモユエ,千葉県君津市下湯江
2991132,千葉県,君津市,中富,チバケン,キミツシ,ナカトミ,千葉県君津市中富
2991133,千葉県,君津市,貞元,チバケン,キミツシ,サダモト,千葉県君津市貞元
2991134,千葉県,君津市,八幡,チバケン,キミツシ,ヤワタ,千葉県君津市八幡
2991135,千葉県,君津市,杉谷,チバケン,キミツシ,スギヤツ,千葉県君津市杉谷
2991136,千葉県,君津市,新御堂,チバケン,キミツシ,シミドウ,千葉県君津市新御堂
2991137,千葉県,君津市,小香,チバケン,キミツシ,ショウコウ,千葉県君津市小香
2991138,千葉県,君津市,上湯江,チバケン,キミツシ,カミユエ,千葉県君津市上湯江
2991141,千葉県,君津市,君津,チバケン,キミツシ,キミツ,千葉県君津市君津
2991142,千葉県,君津市,坂田,チバケン,キミツシ,サカダ,千葉県君津市坂田
2991143,千葉県,君津市,君津台,チバケン,キミツシ,キミツダイ,千葉県君津市君津台
2991144,千葉県,君津市,東坂田,チバケン,キミツシ,ヒガシサカダ,千葉県君津市東坂田
2991145,千葉県,君津市,西坂田,チバケン,キミツシ,ニシサカダ,千葉県君津市西坂田
2991146,千葉県,君津市,大和田,チバケン,キミツシ,オオワダ,千葉県君津市大和田
2991147,千葉県,君津市,人見,チバケン,キミツシ,ヒトミ,千葉県君津市人見
2991151,千葉県,君津市,中野,チバケン,キミツシ,ナカノ,千葉県君津市中野
2991152,千葉県,君津市,久保,チバケン,キミツシ,クボ,千葉県君津市久保
2991153,千葉県,君津市,台,チバケン,キミツシ,ダイ,千葉県君津市台
2991154,千葉県,君津市,南久保,チバケン,キミツシ,ミナミクボ,千葉県君津市南久保
2991161,千葉県,君津市,北子安,チバケン,キミツシ,キタコヤス,千葉県君津市北子安
2991162,千葉県,君津市,南子安,チバケン,キミツシ,ミナミコヤス,千葉県君津市南子安
2991163,千葉県,君津市,杢師,チバケン,キミツシ,モクシ,千葉県君津市杢師
2991164,千葉県,君津市,北久保,チバケン,キミツシ,キタクボ,千葉県君津市北久保
2991165,千葉県,君津市,高坂,チバケン,キミツシ,コウサカ,千葉県君津市高坂
2991166,千葉県,君津市,陽光台,チバケン,キミツシ,ヨウコウダイ,千葉県君津市陽光台
2991171,千葉県,君津市,八重原,チバケン,キミツシ,ヤエハラ,千葉県君津市八重原
2991172,千葉県,君津市,三直,チバケン,キミツシ,ミノウ,千葉県君津市三直
2991173,千葉県,君津市,外箕輪,チバケン,キミツシ,ソトミノワ,千葉県君津市外箕輪
2991174,千葉県,君津市,法木作,チバケン,キミツシ,ホウギサク,千葉県君津市法木作
2991175,千葉県,君津市,内箕輪,チバケン,キミツシ,ウチミノワ,千葉県君津市内箕輪
2991176,千葉県,君津市,内蓑輪,チバケン,キミツシ,ウチミノワ,千葉県君津市内蓑輪
2991601,千葉県,富津市,桜井総稱鬼泪山,チバケン,フッツシ,サクライソウショウキナダヤマ,千葉県富津市桜井総稱鬼泪山
2991602,千葉県,富津市,桜井,チバケン,フッツシ,サクライ,千葉県富津市桜井
2991603,千葉県,富津市,更和,チバケン,フッツシ,サラワ,千葉県富津市更和
2991604,千葉県,富津市,台原,チバケン,フッツシ,ダイバラ,千葉県富津市台原
2991605,千葉県,富津市,望井,チバケン,フッツシ,モチイ,千葉県富津市望井
2991606,千葉県,富津市,数馬,チバケン,フッツシ,カズマ,千葉県富津市数馬
2991607,千葉県,富津市,湊,チバケン,フッツシ,ミナト,千葉県富津市湊
2991608,千葉県,富津市,岩坂,チバケン,フッツシ,イワサカ,千葉県富津市岩坂
2991609,千葉県,富津市,加藤,チバケン,フッツシ,カトウ,千葉県富津市加藤
2991611,千葉県,富津市,長崎,チバケン,フッツシ,ナガサキ,千葉県富津市長崎
2991612,千葉県,富津市,横山,チバケン,フッツシ,ヨコヤマ,千葉県富津市横山
2991613,千葉県,富津市,不入斗,チバケン,フッツシ,イリヤマズ,千葉県富津市不入斗
2991614,千葉県,富津市,梨沢（その他）,チバケン,フッツシ,ナシザワ(ソノタ),千葉県富津市梨沢（その他）
2991615,千葉県,富津市,相川,チバケン,フッツシ,アイカワ,千葉県富津市相川
2991616,千葉県,富津市,海良,チバケン,フッツシ,カイラ,千葉県富津市海良
2991617,千葉県,富津市,売津,チバケン,フッツシ,ウルヅ,千葉県富津市売津
2991618,千葉県,富津市,花輪,チバケン,フッツシ,ハナワ,千葉県富津市花輪
2991621,千葉県,富津市,竹岡,チバケン,フッツシ,タケオカ,千葉県富津市竹岡
2991622,千葉県,富津市,萩生,チバケン,フッツシ,ハギウ,千葉県富津市萩生
2991731,千葉県,富津市,田倉,チバケン,フッツシ,タグラ,千葉県富津市田倉
2991732,千葉県,富津市,宇藤原,チバケン,フッツシ,ウトウバラ,千葉県富津市宇藤原
2991733,千葉県,富津市,高溝,チバケン,フッツシ,タカミゾ,千葉県富津市高溝
2991734,千葉県,富津市,関,チバケン,フッツシ,セキ,千葉県富津市関
2991735,千葉県,富津市,大田和,チバケン,フッツシ,オオタワ,千葉県富津市大田和
2991736,千葉県,富津市,大川崎,チバケン,フッツシ,オオガワサキ,千葉県富津市大川崎
2991737,千葉県,富津市,東大和田,チバケン,フッツシ,ヒガシオオワダ,千葉県富津市東大和田
2991741,千葉県,富津市,御代原,チバケン,フッツシ,ミヨバラ,千葉県富津市御代原
2991742,千葉県,富津市,豊岡,チバケン,フッツシ,トヨオカ,千葉県富津市豊岡
2991743,千葉県,富津市,山中,チバケン,フッツシ,ヤマナカ,千葉県富津市山中
2991744,千葉県,富津市,梨沢（東井戸堀）,チバケン,フッツシ,ナシザワ(ヒガシイドボリ),千葉県富津市梨沢（東井戸堀）
2991745,千葉県,富津市,志駒,チバケン,フッツシ,シコマ,千葉県富津市志駒
2991746,千葉県,富津市,岩本,チバケン,フッツシ,イワモト,千葉県富津市岩本
2991747,千葉県,富津市,小志駒,チバケン,フッツシ,コジコマ,千葉県富津市小志駒
2991751,千葉県,富津市,恩田,チバケン,フッツシ,オンダ,千葉県富津市恩田
2991752,千葉県,富津市,関尻,チバケン,フッツシ,セキジリ,千葉県富津市関尻
2991753,千葉県,富津市,上後,チバケン,フッツシ,ウエゴ,千葉県富津市上後
2991754,千葉県,富津市,山脇,チバケン,フッツシ,ヤマワキ,千葉県富津市山脇
2991755,千葉県,富津市,田原,チバケン,フッツシ,タバラ,千葉県富津市田原
2991756,千葉県,富津市,六野,チバケン,フッツシ,ムツノ,千葉県富津市六野
2991757,千葉県,富津市,押切,チバケン,フッツシ,オシキリ,千葉県富津市押切
2991758,千葉県,富津市,大森,チバケン,フッツシ,オオモリ,千葉県富津市大森
2991759,千葉県,富津市,寺尾,チバケン,フッツシ,テラオ,千葉県富津市寺尾
2991861,千葉県,富津市,金谷,チバケン,フッツシ,カナヤ,千葉県富津市金谷
2991901,千葉県,安房郡鋸南町,元名,チバケン,アワグンキョナンマチ,モトナ,千葉県安房郡鋸南町元名
2991902,千葉県,安房郡鋸南町,保田,チバケン,アワグンキョナンマチ,ホタ,千葉県安房郡鋸南町保田
2991903,千葉県,安房郡鋸南町,大帷子,チバケン,アワグンキョナンマチ,オオカタビラ,千葉県安房郡鋸南町大帷子
2991904,千葉県,安房郡鋸南町,小保田,チバケン,アワグンキョナンマチ,コボタ,千葉県安房郡鋸南町小保田
2991905,千葉県,安房郡鋸南町,市井原,チバケン,アワグンキョナンマチ,イチイバラ,千葉県安房郡鋸南町市井原
2991906,千葉県,安房郡鋸南町,横根,チバケン,アワグンキョナンマチ,ヨコネ,千葉県安房郡鋸南町横根
2991907,千葉県,安房郡鋸南町,江月,チバケン,アワグンキョナンマチ,エヅキ,千葉県安房郡鋸南町江月
2991908,千葉県,安房郡鋸南町,吉浜,チバケン,アワグンキョナンマチ,ヨシハマ,千葉県安房郡鋸南町吉浜
2991909,千葉県,安房郡鋸南町,大六,チバケン,アワグンキョナンマチ,ダイロク,千葉県安房郡鋸南町大六
2992100,千葉県,安房郡鋸南町,,チバケン,アワグンキョナンマチ,,千葉県安房郡鋸南町
2992111,千葉県,安房郡鋸南町,大崩,チバケン,アワグンキョナンマチ,オクズレ,千葉県安房郡鋸南町大崩
2992112,千葉県,安房郡鋸南町,奥山,チバケン,アワグンキョナンマチ,オクヤマ,千葉県安房郡鋸南町奥山
2992113,千葉県,安房郡鋸南町,上佐久間,チバケン,アワグンキョナンマチ,カミサクマ,千葉県安房郡鋸南町上佐久間
2992114,千葉県,安房郡鋸南町,中佐久間,チバケン,アワグンキョナンマチ,ナカサクマ,千葉県安房郡鋸南町中佐久間
2992115,千葉県,安房郡鋸南町,下佐久間,チバケン,アワグンキョナンマチ,シモサクマ,千葉県安房郡鋸南町下佐久間
2992116,千葉県,安房郡鋸南町,岩井袋,チバケン,アワグンキョナンマチ,イワイフクロ,千葉県安房郡鋸南町岩井袋
2992117,千葉県,安房郡鋸南町,勝山,チバケン,アワグンキョナンマチ,カツヤマ,千葉県安房郡鋸南町勝山
2992118,千葉県,安房郡鋸南町,竜島,チバケン,アワグンキョナンマチ,リュウシマ,千葉県安房郡鋸南町竜島
2992201,千葉県,南房総市,荒川,チバケン,ミナミボウソウシ,アラカワ,千葉県南房総市荒川
2992202,千葉県,南房総市,平塚,チバケン,ミナミボウソウシ,ヒラツカ,千葉県南房総市平塚
2992203,千葉県,南房総市,山田,チバケン,ミナミボウソウシ,ヤマダ,千葉県南房総市山田
2992204,千葉県,南房総市,平久里中,チバケン,ミナミボウソウシ,ヘグリナカ,千葉県南房総市平久里中
2992205,千葉県,南房総市,犬掛,チバケン,ミナミボウソウシ,イヌカケ,千葉県南房総市犬掛
2992206,千葉県,南房総市,平久里下,チバケン,ミナミボウソウシ,ヘグリシモ,千葉県南房総市平久里下
2992211,千葉県,南房総市,川上,チバケン,ミナミボウソウシ,カワカミ,千葉県南房総市川上
2992212,千葉県,南房総市,井野,チバケン,ミナミボウソウシ,イノ,千葉県南房総市井野
2992213,千葉県,南房総市,吉沢,チバケン,ミナミボウソウシ,ヨシザワ,千葉県南房総市吉沢
2992214,千葉県,南房総市,二部,チバケン,ミナミボウソウシ,ニブ,千葉県南房総市二部
2992215,千葉県,南房総市,検儀谷,チバケン,ミナミボウソウシ,ケギヤ,千葉県南房総市検儀谷
2992216,千葉県,南房総市,久枝,チバケン,ミナミボウソウシ,クシ,千葉県南房総市久枝
2992221,千葉県,南房総市,合戸,チバケン,ミナミボウソウシ,ゴウド,千葉県南房総市合戸
2992222,千葉県,南房総市,宮谷,チバケン,ミナミボウソウシ,ミヤノヤツ,千葉県南房総市宮谷
2992223,千葉県,南房総市,高崎,チバケン,ミナミボウソウシ,タカサキ,千葉県南房総市高崎
2992224,千葉県,南房総市,小浦,チバケン,ミナミボウソウシ,コウラ,千葉県南房総市小浦
2992225,千葉県,南房総市,竹内,チバケン,ミナミボウソウシ,タケノウチ,千葉県南房総市竹内
2992226,千葉県,南房総市,市部,チバケン,ミナミボウソウシ,イチブ,千葉県南房総市市部
2992400,千葉県,南房総市,,チバケン,ミナミボウソウシ,,千葉県南房総市
2992401,千葉県,南房総市,富浦町南無谷,チバケン,ミナミボウソウシ,トミウラチョウナムヤ,千葉県南房総市富浦町南無谷
2992402,千葉県,南房総市,富浦町豊岡,チバケン,ミナミボウソウシ,トミウラチョウトヨオカ,千葉県南房総市富浦町豊岡
2992403,千葉県,南房総市,富浦町原岡,チバケン,ミナミボウソウシ,トミウラチョウハラオカ,千葉県南房総市富浦町原岡
2992404,千葉県,南房総市,富浦町多田良,チバケン,ミナミボウソウシ,トミウラチョウタダラ,千葉県南房総市富浦町多田良
2992411,千葉県,南房総市,富浦町居倉,チバケン,ミナミボウソウシ,トミウラチョウイグラ,千葉県南房総市富浦町居倉
2992412,千葉県,南房総市,富浦町大津,チバケン,ミナミボウソウシ,トミウラチョウオオツ,千葉県南房総市富浦町大津
2992413,千葉県,南房総市,富浦町宮本,チバケン,ミナミボウソウシ,トミウラチョウミヤモト,千葉県南房総市富浦町宮本
2992414,千葉県,南房総市,富浦町福澤,チバケン,ミナミボウソウシ,トミウラチョウフクザワ,千葉県南房総市富浦町福澤
2992415,千葉県,南房総市,富浦町深名,チバケン,ミナミボウソウシ,トミウラチョウフカナ,千葉県南房総市富浦町深名
2992416,千葉県,南房総市,富浦町青木,チバケン,ミナミボウソウシ,トミウラチョウアオキ,千葉県南房総市富浦町青木
2992417,千葉県,南房総市,富浦町丹生,チバケン,ミナミボウソウシ,トミウラチョウニュウ,千葉県南房総市富浦町丹生
2992418,千葉県,南房総市,富浦町手取,チバケン,ミナミボウソウシ,トミウラチョウテドリ,千葉県南房総市富浦町手取
2992501,千葉県,南房総市,珠師ケ谷,チバケン,ミナミボウソウシ,シュシガヤツ,千葉県南房総市珠師ケ谷
2992502,千葉県,南房総市,石堂原,チバケン,ミナミボウソウシ,イシドウハラ,千葉県南房総市石堂原
2992503,千葉県,南房総市,石堂,チバケン,ミナミボウソウシ,イシドウ,千葉県南房総市石堂
2992504,千葉県,南房総市,川谷,チバケン,ミナミボウソウシ,カワヤツ,千葉県南房総市川谷
2992505,千葉県,南房総市,宮下,チバケン,ミナミボウソウシ,ミヤシタ,千葉県南房総市宮下
2992506,千葉県,南房総市,御子神,チバケン,ミナミボウソウシ,ミコガミ,千葉県南房総市御子神
2992507,千葉県,南房総市,大井,チバケン,ミナミボウソウシ,オオイ,千葉県南房総市大井
2992508,千葉県,南房総市,丸山平塚,チバケン,ミナミボウソウシ,マルヤマヒラツカ,千葉県南房総市丸山平塚
2992511,千葉県,南房総市,小戸,チバケン,ミナミボウソウシ,オド,千葉県南房総市小戸
2992512,千葉県,南房総市,岩糸,チバケン,ミナミボウソウシ,イワイト,千葉県南房総市岩糸
2992513,千葉県,南房総市,古川,チバケン,ミナミボウソウシ,フルカワ,千葉県南房総市古川
2992514,千葉県,南房総市,西原,チバケン,ミナミボウソウシ,ニシバラ,千葉県南房総市西原
2992515,千葉県,南房総市,石神,チバケン,ミナミボウソウシ,イシガミ,千葉県南房総市石神
2992516,千葉県,南房総市,前田,チバケン,ミナミボウソウシ,マエダ,千葉県南房総市前田
2992517,千葉県,南房総市,丸本郷,チバケン,ミナミボウソウシ,マルホンゴウ,千葉県南房総市丸本郷
2992521,千葉県,南房総市,白子,チバケン,ミナミボウソウシ,シラコ,千葉県南房総市白子
2992522,千葉県,南房総市,安馬谷,チバケン,ミナミボウソウシ,アンバヤ,千葉県南房総市安馬谷
2992523,千葉県,南房総市,峰,チバケン,ミナミボウソウシ,ミネ,千葉県南房総市峰
2992524,千葉県,南房総市,久保,チバケン,ミナミボウソウシ,クボ,千葉県南房総市久保
2992525,千葉県,南房総市,加茂,チバケン,ミナミボウソウシ,カモ,千葉県南房総市加茂
2992526,千葉県,南房総市,沓見,チバケン,ミナミボウソウシ,クツミ,千葉県南房総市沓見
2992701,千葉県,南房総市,和田町花園,チバケン,ミナミボウソウシ,ワダチョウハナソノ,千葉県南房総市和田町花園
2992702,千葉県,南房総市,和田町柴,チバケン,ミナミボウソウシ,ワダチョウシバ,千葉県南房総市和田町柴
2992703,千葉県,南房総市,和田町仁我浦,チバケン,ミナミボウソウシ,ワダチョウニガウラ,千葉県南房総市和田町仁我浦
2992704,千葉県,南房総市,和田町和田,チバケン,ミナミボウソウシ,ワダチョウワダ,千葉県南房総市和田町和田
2992705,千葉県,南房総市,和田町真浦,チバケン,ミナミボウソウシ,ワダチョウモウラ,千葉県南房総市和田町真浦
2992711,千葉県,南房総市,和田町白渚,チバケン,ミナミボウソウシ,ワダチョウシラスカ,千葉県南房総市和田町白渚
2992712,千葉県,南房総市,和田町海発,チバケン,ミナミボウソウシ,ワダチョウカイホツ,千葉県南房総市和田町海発
2992713,千葉県,南房総市,和田町松田,チバケン,ミナミボウソウシ,ワダチョウマツダ,千葉県南房総市和田町松田
2992714,千葉県,南房総市,和田町沼,チバケン,ミナミボウソウシ,ワダチョウヌマ,千葉県南房総市和田町沼
2992715,千葉県,南房総市,和田町下三原,チバケン,ミナミボウソウシ,ワダチョウシモミハラ,千葉県南房総市和田町下三原
2992716,千葉県,南房総市,和田町中三原,チバケン,ミナミボウソウシ,ワダチョウナカミハラ,千葉県南房総市和田町中三原
2992721,千葉県,南房総市,和田町五十蔵,チバケン,ミナミボウソウシ,ワダチョウゴジュウクラ,千葉県南房総市和田町五十蔵
2992722,千葉県,南房総市,和田町磑森,チバケン,ミナミボウソウシ,ワダチョウスルスモリ,千葉県南房総市和田町磑森
2992723,千葉県,南房総市,和田町布野,チバケン,ミナミボウソウシ,ワダチョウフノ,千葉県南房総市和田町布野
2992724,千葉県,南房総市,和田町小向,チバケン,ミナミボウソウシ,ワダチョウコムカイ,千葉県南房総市和田町小向
2992725,千葉県,南房総市,和田町黒岩,チバケン,ミナミボウソウシ,ワダチョウクロイワ,千葉県南房総市和田町黒岩
2992726,千葉県,南房総市,和田町小川,チバケン,ミナミボウソウシ,ワダチョウオガワ,千葉県南房総市和田町小川
2992727,千葉県,南房総市,和田町上三原,チバケン,ミナミボウソウシ,ワダチョウカミミハラ,千葉県南房総市和田町上三原
2992728,千葉県,南房総市,和田町石堂,チバケン,ミナミボウソウシ,ワダチョウイシドウ,千葉県南房総市和田町石堂
2992841,千葉県,鴨川市,西江見,チバケン,カモガワシ,ニシエミ,千葉県鴨川市西江見
2992842,千葉県,鴨川市,江見青木,チバケン,カモガワシ,エミアオキ,千葉県鴨川市江見青木
2992843,千葉県,鴨川市,東江見,チバケン,カモガワシ,ヒガシエミ,千葉県鴨川市東江見
2992844,千葉県,鴨川市,江見東真門,チバケン,カモガワシ,エミヒガシマカド,千葉県鴨川市江見東真門
2992845,千葉県,鴨川市,江見西真門,チバケン,カモガワシ,エミニシマカド,千葉県鴨川市江見西真門
2992846,千葉県,鴨川市,江見外堀,チバケン,カモガワシ,エミソトボリ,千葉県鴨川市江見外堀
2992847,千葉県,鴨川市,江見内遠野,チバケン,カモガワシ,エミウトノ,千葉県鴨川市江見内遠野
2992851,千葉県,鴨川市,仲町,チバケン,カモガワシ,ナカチョウ,千葉県鴨川市仲町
2992852,千葉県,鴨川市,二子,チバケン,カモガワシ,フタゴ,千葉県鴨川市二子
2992853,千葉県,鴨川市,宮,チバケン,カモガワシ,ミヤ,千葉県鴨川市宮
2992854,千葉県,鴨川市,代,チバケン,カモガワシ,ダイ,千葉県鴨川市代
2992855,千葉県,鴨川市,畑,チバケン,カモガワシ,ハタ,千葉県鴨川市畑
2992856,千葉県,鴨川市,西,チバケン,カモガワシ,ニシ,千葉県鴨川市西
2992857,千葉県,鴨川市,東,チバケン,カモガワシ,ヒガシ,千葉県鴨川市東
2992858,千葉県,鴨川市,上,チバケン,カモガワシ,カミ,千葉県鴨川市上
2992861,千葉県,鴨川市,太海西,チバケン,カモガワシ,フトミニシ,千葉県鴨川市太海西
2992862,千葉県,鴨川市,太海,チバケン,カモガワシ,フトミ,千葉県鴨川市太海
2992863,千葉県,鴨川市,太海浜,チバケン,カモガワシ,フトミハマ,千葉県鴨川市太海浜
2992864,千葉県,鴨川市,天面,チバケン,カモガワシ,アマツラ,千葉県鴨川市天面
2992865,千葉県,鴨川市,江見太夫崎,チバケン,カモガワシ,エミタユウザキ,千葉県鴨川市江見太夫崎
2992866,千葉県,鴨川市,江見吉浦,チバケン,カモガワシ,エミヨシウラ,千葉県鴨川市江見吉浦
2992867,千葉県,鴨川市,西山,チバケン,カモガワシ,ニシヤマ,千葉県鴨川市西山
2993200,千葉県,大網白里市,,チバケン,オオアミシラサトシ,,千葉県大網白里市
2993201,千葉県,大網白里市,北今泉,チバケン,オオアミシラサトシ,キタイマイズミ,千葉県大網白里市北今泉
2993202,千葉県,大網白里市,南今泉,チバケン,オオアミシラサトシ,ミナミイマイズミ,千葉県大網白里市南今泉
2993203,千葉県,大網白里市,四天木,チバケン,オオアミシラサトシ,シテンギ,千葉県大網白里市四天木
2993211,千葉県,大網白里市,細草,チバケン,オオアミシラサトシ,ホソクサ,千葉県大網白里市細草
2993212,千葉県,大網白里市,清水,チバケン,オオアミシラサトシ,シミズ,千葉県大網白里市清水
2993213,千葉県,大網白里市,二之袋,チバケン,オオアミシラサトシ,ニノフクロ,千葉県大網白里市二之袋
2993214,千葉県,大網白里市,下ヶ傍示,チバケン,オオアミシラサトシ,サゲホウジ,千葉県大網白里市下ヶ傍示
2993215,千葉県,大網白里市,長国,チバケン,オオアミシラサトシ,ナガクニ,千葉県大網白里市長国
2993216,千葉県,大網白里市,北吉田,チバケン,オオアミシラサトシ,キタヨシダ,千葉県大網白里市北吉田
2993217,千葉県,大網白里市,木崎,チバケン,オオアミシラサトシ,キサキ,千葉県大網白里市木崎
2993218,千葉県,大網白里市,北飯塚,チバケン,オオアミシラサトシ,キタイイヅカ,千葉県大網白里市北飯塚
2993219,千葉県,大網白里市,南飯塚,チバケン,オオアミシラサトシ,ミナミイイヅカ,千葉県大網白里市南飯塚
2993221,千葉県,大網白里市,富田,チバケン,オオアミシラサトシ,トミダ,千葉県大網白里市富田
2993222,千葉県,大網白里市,星谷,チバケン,オオアミシラサトシ,ホシヤ,千葉県大網白里市星谷
2993223,千葉県,大網白里市,南横川,チバケン,オオアミシラサトシ,ミナミヨコカワ,千葉県大網白里市南横川
2993231,千葉県,大網白里市,経田,チバケン,オオアミシラサトシ,キョウデン,千葉県大網白里市経田
2993232,千葉県,大網白里市,ながた野,チバケン,オオアミシラサトシ,ナガタノ,千葉県大網白里市ながた野
2993233,千葉県,大網白里市,永田,チバケン,オオアミシラサトシ,ナガタ,千葉県大網白里市永田
2993234,千葉県,大網白里市,みずほ台,チバケン,オオアミシラサトシ,ミズホダイ,千葉県大網白里市みずほ台
2993235,千葉県,大網白里市,駒込,チバケン,オオアミシラサトシ,コマゴメ,千葉県大網白里市駒込
2993236,千葉県,大網白里市,みやこ野,チバケン,オオアミシラサトシ,ミヤコノ,千葉県大網白里市みやこ野
2993237,千葉県,大網白里市,仏島,チバケン,オオアミシラサトシ,ホトケシマ,千葉県大網白里市仏島
2993238,千葉県,大網白里市,東駒込,チバケン,オオアミシラサトシ,ヒガシコマゴメ,千葉県大網白里市東駒込
2993241,千葉県,大網白里市,季美の森南,チバケン,オオアミシラサトシ,キミノモリミナミ,千葉県大網白里市季美の森南
2993242,千葉県,大網白里市,金谷郷,チバケン,オオアミシラサトシ,カナヤゴウ,千葉県大網白里市金谷郷
2993243,千葉県,大網白里市,大竹,チバケン,オオアミシラサトシ,オオダケ,千葉県大網白里市大竹
2993244,千葉県,大網白里市,南玉,チバケン,オオアミシラサトシ,ミナミダマ,千葉県大網白里市南玉
2993245,千葉県,大網白里市,池田,チバケン,オオアミシラサトシ,イケダ,千葉県大網白里市池田
2993246,千葉県,大網白里市,小中,チバケン,オオアミシラサトシ,コナカ,千葉県大網白里市小中
2993247,千葉県,大網白里市,神房,チバケン,オオアミシラサトシ,カンボウ,千葉県大網白里市神房
2993248,千葉県,大網白里市,萱野,チバケン,オオアミシラサトシ,カヤノ,千葉県大網白里市萱野
2993249,千葉県,大網白里市,砂田,チバケン,オオアミシラサトシ,イサゴダ,千葉県大網白里市砂田
2993251,千葉県,大網白里市,大網,チバケン,オオアミシラサトシ,オオアミ,千葉県大網白里市大網
2993252,千葉県,大網白里市,餅木,チバケン,オオアミシラサトシ,モチノキ,千葉県大網白里市餅木
2993253,千葉県,大網白里市,小西,チバケン,オオアミシラサトシ,コニシ,千葉県大網白里市小西
2993254,千葉県,大網白里市,養安寺,チバケン,オオアミシラサトシ,ヨウアンジ,千葉県大網白里市養安寺
2993255,千葉県,大網白里市,みどりが丘,チバケン,オオアミシラサトシ,ミドリガオカ,千葉県大網白里市みどりが丘
2993256,千葉県,大網白里市,山口,チバケン,オオアミシラサトシ,ヤマグチ,千葉県大網白里市山口
2993261,千葉県,大網白里市,九十根,チバケン,オオアミシラサトシ,クジュウネ,千葉県大網白里市九十根
2993262,千葉県,大網白里市,桂山,チバケン,オオアミシラサトシ,カツラヤマ,千葉県大網白里市桂山
2993263,千葉県,大網白里市,柳橋,チバケン,オオアミシラサトシ,ヤナギバシ,千葉県大網白里市柳橋
2993264,千葉県,大網白里市,柿餅,チバケン,オオアミシラサトシ,カキモチ,千葉県大網白里市柿餅
2993265,千葉県,大網白里市,上貝塚,チバケン,オオアミシラサトシ,カミカイヅカ,千葉県大網白里市上貝塚
2993266,千葉県,大網白里市,北横川,チバケン,オオアミシラサトシ,キタヨコカワ,千葉県大網白里市北横川
2993267,千葉県,大網白里市,清名幸谷,チバケン,オオアミシラサトシ,セイナゴウヤ,千葉県大網白里市清名幸谷
2993268,千葉県,大網白里市,上谷新田,チバケン,オオアミシラサトシ,ウワヤシンデン,千葉県大網白里市上谷新田
2994101,千葉県,茂原市,清水,チバケン,モバラシ,シミズ,千葉県茂原市清水
2994102,千葉県,茂原市,御蔵芝,チバケン,モバラシ,ミクラシバ,千葉県茂原市御蔵芝
2994103,千葉県,茂原市,千沢,チバケン,モバラシ,センザワ,千葉県茂原市千沢
2994104,千葉県,茂原市,南吉田,チバケン,モバラシ,ミナミヨシダ,千葉県茂原市南吉田
2994105,千葉県,茂原市,弓渡,チバケン,モバラシ,ユミワタシ,千葉県茂原市弓渡
2994106,千葉県,茂原市,粟生野,チバケン,モバラシ,アオノ,千葉県茂原市粟生野
2994111,千葉県,茂原市,萱場,チバケン,モバラシ,カヤバ,千葉県茂原市萱場
2994112,千葉県,茂原市,西野,チバケン,モバラシ,ニシノ,千葉県茂原市西野
2994113,千葉県,茂原市,法目,チバケン,モバラシ,ホウメ,千葉県茂原市法目
2994114,千葉県,茂原市,本納,チバケン,モバラシ,ホンノウ,千葉県茂原市本納
2994115,千葉県,茂原市,榎神房,チバケン,モバラシ,エノキカンボウ,千葉県茂原市榎神房
2994116,千葉県,茂原市,高田,チバケン,モバラシ,タカダ,千葉県茂原市高田
2994117,千葉県,茂原市,小萱場,チバケン,モバラシ,コカヤバ,千葉県茂原市小萱場
2994118,千葉県,茂原市,榎神房飛地,チバケン,モバラシ,エノキカンボウトビチ,千葉県茂原市榎神房飛地
2994121,千葉県,茂原市,吉井下,チバケン,モバラシ,ヨシイシモ,千葉県茂原市吉井下
2994122,千葉県,茂原市,吉井上,チバケン,モバラシ,ヨシイカミ,千葉県茂原市吉井上
2994123,千葉県,茂原市,下太田,チバケン,モバラシ,シモオオダ,千葉県茂原市下太田
2994124,千葉県,茂原市,上太田,チバケン,モバラシ,カミオオダ,千葉県茂原市上太田
2994125,千葉県,茂原市,大沢,チバケン,モバラシ,オオサワ,千葉県茂原市大沢
2994126,千葉県,茂原市,柴名,チバケン,モバラシ,シバナ,千葉県茂原市柴名
2994127,千葉県,茂原市,桂,チバケン,モバラシ,カツラ,千葉県茂原市桂
2994128,千葉県,茂原市,桂飛地,チバケン,モバラシ,カツラトビチ,千葉県茂原市桂飛地
2994129,千葉県,茂原市,にいはる工業団地,チバケン,モバラシ,ニイハルコウギョウダンチ,千葉県茂原市にいはる工業団地
2994200,千葉県,長生郡白子町,,チバケン,チョウセイグンシラコマチ,,千葉県長生郡白子町
2994201,千葉県,長生郡白子町,浜宿,チバケン,チョウセイグンシラコマチ,ハマシュク,千葉県長生郡白子町浜宿
2994202,千葉県,長生郡白子町,牛込,チバケン,チョウセイグンシラコマチ,ウシゴメ,千葉県長生郡白子町牛込
2994203,千葉県,長生郡白子町,剃金,チバケン,チョウセイグンシラコマチ,ソリガネ,千葉県長生郡白子町剃金
2994204,千葉県,長生郡白子町,福島,チバケン,チョウセイグンシラコマチ,フクシマ,千葉県長生郡白子町福島
2994205,千葉県,長生郡白子町,南日当,チバケン,チョウセイグンシラコマチ,ミナミヒナタ,千葉県長生郡白子町南日当
2994206,千葉県,長生郡白子町,北日当,チバケン,チョウセイグンシラコマチ,キタヒナタ,千葉県長生郡白子町北日当
2994211,千葉県,長生郡白子町,五井,チバケン,チョウセイグンシラコマチ,ゴイ,千葉県長生郡白子町五井
2994212,千葉県,長生郡白子町,古所,チバケン,チョウセイグンシラコマチ,フルトコロ,千葉県長生郡白子町古所
2994213,千葉県,長生郡白子町,八斗,チバケン,チョウセイグンシラコマチ,ハツト,千葉県長生郡白子町八斗
2994214,千葉県,長生郡白子町,驚,チバケン,チョウセイグンシラコマチ,オドロキ,千葉県長生郡白子町驚
2994215,千葉県,長生郡白子町,中里,チバケン,チョウセイグンシラコマチ,ナカザト,千葉県長生郡白子町中里
2994216,千葉県,長生郡白子町,幸治,チバケン,チョウセイグンシラコマチ,コウジ,千葉県長生郡白子町幸治
2994217,千葉県,長生郡白子町,北高根,チバケン,チョウセイグンシラコマチ,キタダカネ,千葉県長生郡白子町北高根
2994218,千葉県,長生郡白子町,関,チバケン,チョウセイグンシラコマチ,セキ,千葉県長生郡白子町関
2994300,千葉県,長生郡一宮町,,チバケン,チョウセイグンイチノミヤマチ,,千葉県長生郡一宮町
2994300,千葉県,長生郡長生村,,チバケン,チョウセイグンチョウセイムラ,,千葉県長生郡長生村
2994301,千葉県,長生郡一宮町,一宮,チバケン,チョウセイグンイチノミヤマチ,イチノミヤ,千葉県長生郡一宮町一宮
2994302,千葉県,長生郡一宮町,田町,チバケン,チョウセイグンイチノミヤマチ,タマチ,千葉県長生郡一宮町田町
2994303,千葉県,長生郡一宮町,東浪見,チバケン,チョウセイグンイチノミヤマチ,トラミ,千葉県長生郡一宮町東浪見
2994304,千葉県,長生郡一宮町,綱田,チバケン,チョウセイグンイチノミヤマチ,ツナダ,千葉県長生郡一宮町綱田
2994305,千葉県,長生郡一宮町,本給,チバケン,チョウセイグンイチノミヤマチ,ホンキュウ,千葉県長生郡一宮町本給
2994306,千葉県,長生郡一宮町,東野,チバケン,チョウセイグンイチノミヤマチ,ヒガシノ,千葉県長生郡一宮町東野
2994311,千葉県,長生郡一宮町,白山,チバケン,チョウセイグンイチノミヤマチ,ハクサン,千葉県長生郡一宮町白山
2994312,千葉県,長生郡一宮町,宮原,チバケン,チョウセイグンイチノミヤマチ,ミヤバラ,千葉県長生郡一宮町宮原
2994313,千葉県,長生郡一宮町,船頭給,チバケン,チョウセイグンイチノミヤマチ,センドウキュウ,千葉県長生郡一宮町船頭給
2994314,千葉県,長生郡一宮町,新地,チバケン,チョウセイグンイチノミヤマチ,アラチ,千葉県長生郡一宮町新地
2994315,千葉県,長生郡一宮町,新地甲,チバケン,チョウセイグンイチノミヤマチ,アラチコウ,千葉県長生郡一宮町新地甲
2994316,千葉県,長生郡一宮町,新地丙,チバケン,チョウセイグンイチノミヤマチ,アラチヘイ,千葉県長生郡一宮町新地丙
2994321,千葉県,長生郡長生村,入山津,チバケン,チョウセイグンチョウセイムラ,イリヤマヅ,千葉県長生郡長生村入山津
2994322,千葉県,長生郡長生村,驚,チバケン,チョウセイグンチョウセイムラ,オドロキ,千葉県長生郡長生村驚
2994323,千葉県,長生郡長生村,一松戊,チバケン,チョウセイグンチョウセイムラ,ヒトツマツボ,千葉県長生郡長生村一松戊
2994324,千葉県,長生郡長生村,一松丁,チバケン,チョウセイグンチョウセイムラ,ヒトツマツテイ,千葉県長生郡長生村一松丁
2994325,千葉県,長生郡長生村,一松丙,チバケン,チョウセイグンチョウセイムラ,ヒトツマツヘイ,千葉県長生郡長生村一松丙
2994326,千葉県,長生郡長生村,一松乙,チバケン,チョウセイグンチョウセイムラ,ヒトツマツオツ,千葉県長生郡長生村一松乙
2994327,千葉県,長生郡長生村,一松,チバケン,チョウセイグンチョウセイムラ,ヒトツマツ,千葉県長生郡長生村一松
2994328,千葉県,長生郡長生村,一松甲,チバケン,チョウセイグンチョウセイムラ,ヒトツマツコウ,千葉県長生郡長生村一松甲
2994331,千葉県,長生郡長生村,信友,チバケン,チョウセイグンチョウセイムラ,ノブトモ,千葉県長生郡長生村信友
2994332,千葉県,長生郡長生村,金田,チバケン,チョウセイグンチョウセイムラ,カネダ,千葉県長生郡長生村金田
2994333,千葉県,長生郡長生村,七井土,チバケン,チョウセイグンチョウセイムラ,ナナイド,千葉県長生郡長生村七井土
2994334,千葉県,長生郡長生村,薮塚,チバケン,チョウセイグンチョウセイムラ,ヤブツカ,千葉県長生郡長生村薮塚
2994335,千葉県,長生郡長生村,水口,チバケン,チョウセイグンチョウセイムラ,ミヨグチ,千葉県長生郡長生村水口
2994336,千葉県,長生郡長生村,岩沼,チバケン,チョウセイグンチョウセイムラ,イワヌマ,千葉県長生郡長生村岩沼
2994337,千葉県,長生郡長生村,北水口,チバケン,チョウセイグンチョウセイムラ,キタミヨグチ,千葉県長生郡長生村北水口
2994338,千葉県,長生郡長生村,六ツ野飛地,チバケン,チョウセイグンチョウセイムラ,ムツノトビチ,千葉県長生郡長生村六ツ野飛地
2994341,千葉県,長生郡長生村,宮成,チバケン,チョウセイグンチョウセイムラ,ミヤナリ,千葉県長生郡長生村宮成
2994342,千葉県,長生郡長生村,一松飛地甲,チバケン,チョウセイグンチョウセイムラ,ヒトツマツトビチコウ,千葉県長生郡長生村一松飛地甲
2994343,千葉県,長生郡長生村,岩沼飛地,チバケン,チョウセイグンチョウセイムラ,イワヌマトビチ,千葉県長生郡長生村岩沼飛地
2994344,千葉県,長生郡長生村,曽根,チバケン,チョウセイグンチョウセイムラ,ソネ,千葉県長生郡長生村曽根
2994345,千葉県,長生郡長生村,本郷,チバケン,チョウセイグンチョウセイムラ,ホンゴウ,千葉県長生郡長生村本郷
2994346,千葉県,長生郡長生村,中之郷,チバケン,チョウセイグンチョウセイムラ,ナカノゴウ,千葉県長生郡長生村中之郷
2994347,千葉県,長生郡長生村,小泉,チバケン,チョウセイグンチョウセイムラ,コイズミ,千葉県長生郡長生村小泉
2994400,千葉県,長生郡睦沢町,,チバケン,チョウセイグンムツザワマチ,,千葉県長生郡睦沢町
2994401,千葉県,長生郡睦沢町,寺崎,チバケン,チョウセイグンムツザワマチ,テラサキ,千葉県長生郡睦沢町寺崎
2994402,千葉県,長生郡睦沢町,川島,チバケン,チョウセイグンムツザワマチ,カワシマ,千葉県長生郡睦沢町川島
2994403,千葉県,長生郡睦沢町,上市場,チバケン,チョウセイグンムツザワマチ,カミイチバ,千葉県長生郡睦沢町上市場
2994404,千葉県,長生郡睦沢町,北山田,チバケン,チョウセイグンムツザワマチ,キタヤマダ,千葉県長生郡睦沢町北山田
2994405,千葉県,長生郡睦沢町,大谷木,チバケン,チョウセイグンムツザワマチ,オオヤギ,千葉県長生郡睦沢町大谷木
2994406,千葉県,長生郡睦沢町,北山田寺崎新田,チバケン,チョウセイグンムツザワマチ,キタヤマダテラサキシンデン,千葉県長生郡睦沢町北山田寺崎新田
2994411,千葉県,長生郡睦沢町,河須ケ谷,チバケン,チョウセイグンムツザワマチ,カワスガヤ,千葉県長生郡睦沢町河須ケ谷
2994412,千葉県,長生郡睦沢町,岩井,チバケン,チョウセイグンムツザワマチ,イワイ,千葉県長生郡睦沢町岩井
2994413,千葉県,長生郡睦沢町,上之郷,チバケン,チョウセイグンムツザワマチ,カミノゴウ,千葉県長生郡睦沢町上之郷
2994414,千葉県,長生郡睦沢町,下之郷,チバケン,チョウセイグンムツザワマチ,シモノゴウ,千葉県長生郡睦沢町下之郷
2994415,千葉県,長生郡睦沢町,小滝,チバケン,チョウセイグンムツザワマチ,コダキ,千葉県長生郡睦沢町小滝
2994421,千葉県,長生郡睦沢町,長楽寺,チバケン,チョウセイグンムツザワマチ,チョウラクジ,千葉県長生郡睦沢町長楽寺
2994422,千葉県,長生郡睦沢町,森,チバケン,チョウセイグンムツザワマチ,モリ,千葉県長生郡睦沢町森
2994423,千葉県,長生郡睦沢町,大上,チバケン,チョウセイグンムツザワマチ,オオガミ,千葉県長生郡睦沢町大上
2994424,千葉県,長生郡睦沢町,妙楽寺,チバケン,チョウセイグンムツザワマチ,ミョウラクジ,千葉県長生郡睦沢町妙楽寺
2994425,千葉県,長生郡睦沢町,佐貫,チバケン,チョウセイグンムツザワマチ,サヌキ,千葉県長生郡睦沢町佐貫
2994501,千葉県,いすみ市,岬町椎木,チバケン,イスミシ,ミサキチョウシイギ,千葉県いすみ市岬町椎木
2994502,千葉県,いすみ市,岬町中原,チバケン,イスミシ,ミサキチョウナカハラ,千葉県いすみ市岬町中原
2994503,千葉県,いすみ市,岬町和泉（その他）,チバケン,イスミシ,ミサキチョウイズミ(ソノタ),千葉県いすみ市岬町和泉（その他）
2994504,千葉県,いすみ市,岬町桑田,チバケン,イスミシ,ミサキチョウクワダ,千葉県いすみ市岬町桑田
2994505,千葉県,いすみ市,岬町岩熊,チバケン,イスミシ,ミサキチョウイワクマ,千葉県いすみ市岬町岩熊
2994506,千葉県,いすみ市,岬町市野々,チバケン,イスミシ,ミサキチョウイチノノ,千葉県いすみ市岬町市野々
2994507,千葉県,いすみ市,岬町谷上,チバケン,イスミシ,ミサキチョウヤガミ,千葉県いすみ市岬町谷上
2994508,千葉県,いすみ市,岬町榎沢,チバケン,イスミシ,ミサキチョウエノキサワ,千葉県いすみ市岬町榎沢
2994611,千葉県,いすみ市,岬町和泉（４４００番以上）,チバケン,イスミシ,ミサキチョウイズミ(4400バンイジョウ),千葉県いすみ市岬町和泉（4400-以上）
2994612,千葉県,いすみ市,岬町江場土,チバケン,イスミシ,ミサキチョウエバド,千葉県いすみ市岬町江場土
2994613,千葉県,いすみ市,岬町三門,チバケン,イスミシ,ミサキチョウミカド,千葉県いすみ市岬町三門
2994614,千葉県,いすみ市,岬町東小高,チバケン,イスミシ,ミサキチョウヒガシオダカ,千葉県いすみ市岬町東小高
2994615,千葉県,いすみ市,岬町井沢,チバケン,イスミシ,ミサキチョウイザワ,千葉県いすみ市岬町井沢
2994616,千葉県,いすみ市,岬町長者,チバケン,イスミシ,ミサキチョウチョウジャ,千葉県いすみ市岬町長者
2994621,千葉県,いすみ市,岬町東中滝,チバケン,イスミシ,ミサキチョウヒガシナカタキ,千葉県いすみ市岬町東中滝
2994622,千葉県,いすみ市,岬町押日,チバケン,イスミシ,ミサキチョウオシビ,千葉県いすみ市岬町押日
2994623,千葉県,いすみ市,岬町中滝,チバケン,イスミシ,ミサキチョウナカダキ,千葉県いすみ市岬町中滝
2994624,千葉県,いすみ市,岬町鴨根,チバケン,イスミシ,ミサキチョウカモネ,千葉県いすみ市岬町鴨根
2994625,千葉県,いすみ市,岬町嘉谷,チバケン,イスミシ,ミサキチョウカヤ,千葉県いすみ市岬町嘉谷
2995100,千葉県,夷隅郡御宿町,,チバケン,イスミグンオンジュクマチ,,千葉県夷隅郡御宿町
2995101,千葉県,夷隅郡御宿町,高山田,チバケン,イスミグンオンジュクマチ,タカヤマダ,千葉県夷隅郡御宿町高山田
2995102,千葉県,夷隅郡御宿町,久保,チバケン,イスミグンオンジュクマチ,クボ,千葉県夷隅郡御宿町久保
2995103,千葉県,夷隅郡御宿町,新町,チバケン,イスミグンオンジュクマチ,シンマチ,千葉県夷隅郡御宿町新町
2995104,千葉県,夷隅郡御宿町,六軒町,チバケン,イスミグンオンジュクマチ,ロッケンマチ,千葉県夷隅郡御宿町六軒町
2995105,千葉県,夷隅郡御宿町,岩和田,チバケン,イスミグンオンジュクマチ,イワワダ,千葉県夷隅郡御宿町岩和田
2995106,千葉県,夷隅郡御宿町,須賀,チバケン,イスミグンオンジュクマチ,スカ,千葉県夷隅郡御宿町須賀
2995107,千葉県,夷隅郡御宿町,浜,チバケン,イスミグンオンジュクマチ,ハマ,千葉県夷隅郡御宿町浜
2995111,千葉県,夷隅郡御宿町,上布施,チバケン,イスミグンオンジュクマチ,カミフセ,千葉県夷隅郡御宿町上布施
2995112,千葉県,夷隅郡御宿町,御宿台,チバケン,イスミグンオンジュクマチ,オンジュクダイ,千葉県夷隅郡御宿町御宿台
2995113,千葉県,夷隅郡御宿町,七本,チバケン,イスミグンオンジュクマチ,ナナモト,千葉県夷隅郡御宿町七本
2995114,千葉県,夷隅郡御宿町,実谷,チバケン,イスミグンオンジュクマチ,ジッコク,千葉県夷隅郡御宿町実谷
2995200,千葉県,勝浦市,,チバケン,カツウラシ,,千葉県勝浦市
2995201,千葉県,勝浦市,市野郷,チバケン,カツウラシ,イチノゴウ,千葉県勝浦市市野郷
2995202,千葉県,勝浦市,市野川,チバケン,カツウラシ,イチノカワ,千葉県勝浦市市野川
2995203,千葉県,勝浦市,花里,チバケン,カツウラシ,ハナザト,千葉県勝浦市花里
2995204,千葉県,勝浦市,中倉,チバケン,カツウラシ,ナカグラ,千葉県勝浦市中倉
2995205,千葉県,勝浦市,杉戸,チバケン,カツウラシ,スギド,千葉県勝浦市杉戸
2995206,千葉県,勝浦市,佐野,チバケン,カツウラシ,サノ,千葉県勝浦市佐野
2995211,千葉県,勝浦市,松野,チバケン,カツウラシ,マツノ,千葉県勝浦市松野
2995212,千葉県,勝浦市,蟹田,チバケン,カツウラシ,カニタ,千葉県勝浦市蟹田
2995213,千葉県,勝浦市,芳賀,チバケン,カツウラシ,ハガ,千葉県勝浦市芳賀
2995214,千葉県,勝浦市,白木,チバケン,カツウラシ,シラキ,千葉県勝浦市白木
2995215,千葉県,勝浦市,白井久保,チバケン,カツウラシ,シライクボ,千葉県勝浦市白井久保
2995216,千葉県,勝浦市,宿戸,チバケン,カツウラシ,シュクド,千葉県勝浦市宿戸
2995217,千葉県,勝浦市,大楠,チバケン,カツウラシ,オオクス,千葉県勝浦市大楠
2995218,千葉県,勝浦市,小羽戸,チバケン,カツウラシ,コバド,千葉県勝浦市小羽戸
2995219,千葉県,勝浦市,小松野,チバケン,カツウラシ,コマツノ,千葉県勝浦市小松野
2995221,千葉県,勝浦市,平田,チバケン,カツウラシ,ヒラタ,千葉県勝浦市平田
2995222,千葉県,勝浦市,関谷,チバケン,カツウラシ,セキヤツ,千葉県勝浦市関谷
2995223,千葉県,勝浦市,部原,チバケン,カツウラシ,ヘバラ,千葉県勝浦市部原
2995224,千葉県,勝浦市,新官,チバケン,カツウラシ,シンカン,千葉県勝浦市新官
2995225,千葉県,勝浦市,墨名,チバケン,カツウラシ,トナ,千葉県勝浦市墨名
2995226,千葉県,勝浦市,串浜,チバケン,カツウラシ,クシハマ,千葉県勝浦市串浜
2995227,千葉県,勝浦市,中谷,チバケン,カツウラシ,ナカヤ,千葉県勝浦市中谷
2995228,千葉県,勝浦市,新戸,チバケン,カツウラシ,シンド,千葉県勝浦市新戸
2995231,千葉県,勝浦市,沢倉,チバケン,カツウラシ,サワクラ,千葉県勝浦市沢倉
2995232,千葉県,勝浦市,川津,チバケン,カツウラシ,カワヅ,千葉県勝浦市川津
2995233,千葉県,勝浦市,浜勝浦,チバケン,カツウラシ,ハマカツウラ,千葉県勝浦市浜勝浦
2995234,千葉県,勝浦市,勝浦,チバケン,カツウラシ,カツウラ,千葉県勝浦市勝浦
2995235,千葉県,勝浦市,出水,チバケン,カツウラシ,イデミズ,千葉県勝浦市出水
2995241,千葉県,勝浦市,松部,チバケン,カツウラシ,マツベ,千葉県勝浦市松部
2995242,千葉県,勝浦市,吉尾,チバケン,カツウラシ,ヨシオ,千葉県勝浦市吉尾
2995243,千葉県,勝浦市,鵜原,チバケン,カツウラシ,ウバラ,千葉県勝浦市鵜原
2995244,千葉県,勝浦市,守谷,チバケン,カツウラシ,モリヤ,千葉県勝浦市守谷
2995245,千葉県,勝浦市,興津,チバケン,カツウラシ,オキツ,千葉県勝浦市興津
2995246,千葉県,勝浦市,興津久保山台,チバケン,カツウラシ,オキツクボヤマダイ,千葉県勝浦市興津久保山台
2995251,千葉県,勝浦市,大森上植野入会地,チバケン,カツウラシ,オオモリカミウエノイリアイチ,千葉県勝浦市大森上植野入会地
2995252,千葉県,勝浦市,上植野,チバケン,カツウラシ,カミウエノ,千葉県勝浦市上植野
2995253,千葉県,勝浦市,名木,チバケン,カツウラシ,ナギ,千葉県勝浦市名木
2995254,千葉県,勝浦市,台宿,チバケン,カツウラシ,ダイジュク,千葉県勝浦市台宿
2995255,千葉県,勝浦市,浜行川,チバケン,カツウラシ,ハマナメガワ,千葉県勝浦市浜行川
2995256,千葉県,勝浦市,大沢,チバケン,カツウラシ,オオサワ,千葉県勝浦市大沢
2995261,千葉県,勝浦市,大森,チバケン,カツウラシ,オオモリ,千葉県勝浦市大森
2995262,千葉県,勝浦市,中里,チバケン,カツウラシ,ナカザト,千葉県勝浦市中里
2995263,千葉県,勝浦市,赤羽根,チバケン,カツウラシ,アカバネ,千葉県勝浦市赤羽根
2995264,千葉県,勝浦市,中島,チバケン,カツウラシ,ナカジマ,千葉県勝浦市中島
2995265,千葉県,勝浦市,植野,チバケン,カツウラシ,ウエノ,千葉県勝浦市植野
2995266,千葉県,勝浦市,上野,チバケン,カツウラシ,ウエノ,千葉県勝浦市上野
2995267,千葉県,勝浦市,植野元宮田,チバケン,カツウラシ,ウエノモトミヤタ,千葉県勝浦市植野元宮田
2995271,千葉県,勝浦市,法花,チバケン,カツウラシ,ホウゲ,千葉県勝浦市法花
2995272,千葉県,勝浦市,貝掛,チバケン,カツウラシ,カイガケ,千葉県勝浦市貝掛
2995273,千葉県,勝浦市,荒川,チバケン,カツウラシ,アラカワ,千葉県勝浦市荒川
2995274,千葉県,勝浦市,南山田,チバケン,カツウラシ,ミナミヤマダ,千葉県勝浦市南山田
2995501,千葉県,鴨川市,小湊,チバケン,カモガワシ,コミナト,千葉県鴨川市小湊
2995502,千葉県,鴨川市,内浦,チバケン,カモガワシ,ウチウラ,千葉県鴨川市内浦
2995503,千葉県,鴨川市,天津,チバケン,カモガワシ,アマツ,千葉県鴨川市天津
2995504,千葉県,鴨川市,浜荻,チバケン,カモガワシ,ハマオギ,千葉県鴨川市浜荻
2995505,千葉県,鴨川市,清澄,チバケン,カモガワシ,キヨスミ,千葉県鴨川市清澄
2995506,千葉県,鴨川市,四方木,チバケン,カモガワシ,ヨモギ,千葉県鴨川市四方木
