zipcode,prefecture_name,city,town,prefecture_kana,city_kana,town_kana,normalized_address
2100000,神奈川県,川崎市川崎区,,カナガワケン,カワサキシカワサキク,,神奈川県川崎市川崎区
2100001,神奈川県,川崎市川崎区,本町,カナガワケン,カワサキシカワサキク,ホンチョウ,神奈川県川崎市川崎区本町
2100002,神奈川県,川崎市川崎区,榎町,カナガワケン,カワサキシカワサキク,エノキチョウ,神奈川県川崎市川崎区榎町
2100003,神奈川県,川崎市川崎区,堀之内町,カナガワケン,カワサキシカワサキク,ホリノウチチョウ,神奈川県川崎市川崎区堀之内町
2100004,神奈川県,川崎市川崎区,宮本町,カナガワケン,カワサキシカワサキク,ミヤモトチョウ,神奈川県川崎市川崎区宮本町
2100005,神奈川県,川崎市川崎区,東田町,カナガワケン,カワサキシカワサキク,ヒガシダチョウ,神奈川県川崎市川崎区東田町
2100006,神奈川県,川崎市川崎区,砂子,カナガワケン,カワサキシカワサキク,イサゴ,神奈川県川崎市川崎区砂子
2100007,神奈川県,川崎市川崎区,駅前本町,カナガワケン,カワサキシカワサキク,エキマエホンチョウ,神奈川県川崎市川崎区駅前本町
2100011,神奈川県,川崎市川崎区,富士見,カナガワケン,カワサキシカワサキク,フジミ,神奈川県川崎市川崎区富士見
2100012,神奈川県,川崎市川崎区,宮前町,カナガワケン,カワサキシカワサキク,ミヤマエチョウ,神奈川県川崎市川崎区宮前町
2100013,神奈川県,川崎市川崎区,新川通,カナガワケン,カワサキシカワサキク,シンカワドオリ,神奈川県川崎市川崎区新川通
2100014,神奈川県,川崎市川崎区,貝塚,カナガワケン,カワサキシカワサキク,カイヅカ,神奈川県川崎市川崎区貝塚
2100015,神奈川県,川崎市川崎区,南町,カナガワケン,カワサキシカワサキク,ミナミマチ,神奈川県川崎市川崎区南町
2100021,神奈川県,川崎市川崎区,元木,カナガワケン,カワサキシカワサキク,モトギ,神奈川県川崎市川崎区元木
2100022,神奈川県,川崎市川崎区,池田,カナガワケン,カワサキシカワサキク,イケダ,神奈川県川崎市川崎区池田
2100023,神奈川県,川崎市川崎区,小川町,カナガワケン,カワサキシカワサキク,オガワチョウ,神奈川県川崎市川崎区小川町
2100024,神奈川県,川崎市川崎区,日進町,カナガワケン,カワサキシカワサキク,ニッシンチョウ,神奈川県川崎市川崎区日進町
2100025,神奈川県,川崎市川崎区,下並木,カナガワケン,カワサキシカワサキク,シモナミキ,神奈川県川崎市川崎区下並木
2100026,神奈川県,川崎市川崎区,堤根,カナガワケン,カワサキシカワサキク,ツツミネ,神奈川県川崎市川崎区堤根
2100801,神奈川県,川崎市川崎区,鈴木町,カナガワケン,カワサキシカワサキク,スズキチョウ,神奈川県川崎市川崎区鈴木町
2100802,神奈川県,川崎市川崎区,大師駅前,カナガワケン,カワサキシカワサキク,ダイシエキマエ,神奈川県川崎市川崎区大師駅前
2100803,神奈川県,川崎市川崎区,川中島,カナガワケン,カワサキシカワサキク,カワナカジマ,神奈川県川崎市川崎区川中島
2100804,神奈川県,川崎市川崎区,藤崎,カナガワケン,カワサキシカワサキク,フジサキ,神奈川県川崎市川崎区藤崎
2100805,神奈川県,川崎市川崎区,伊勢町,カナガワケン,カワサキシカワサキク,イセチョウ,神奈川県川崎市川崎区伊勢町
2100806,神奈川県,川崎市川崎区,中島,カナガワケン,カワサキシカワサキク,ナカジマ,神奈川県川崎市川崎区中島
2100807,神奈川県,川崎市川崎区,港町,カナガワケン,カワサキシカワサキク,ミナトチョウ,神奈川県川崎市川崎区港町
2100808,神奈川県,川崎市川崎区,旭町,カナガワケン,カワサキシカワサキク,アサヒチョウ,神奈川県川崎市川崎区旭町
2100811,神奈川県,川崎市川崎区,大師河原,カナガワケン,カワサキシカワサキク,ダイシガワラ,神奈川県川崎市川崎区大師河原
2100812,神奈川県,川崎市川崎区,東門前,カナガワケン,カワサキシカワサキク,ヒガシモンゼン,神奈川県川崎市川崎区東門前
2100813,神奈川県,川崎市川崎区,昭和,カナガワケン,カワサキシカワサキク,ショウワ,神奈川県川崎市川崎区昭和
2100814,神奈川県,川崎市川崎区,台町,カナガワケン,カワサキシカワサキク,ダイマチ,神奈川県川崎市川崎区台町
2100815,神奈川県,川崎市川崎区,大師公園,カナガワケン,カワサキシカワサキク,ダイシコウエン,神奈川県川崎市川崎区大師公園
2100816,神奈川県,川崎市川崎区,大師町,カナガワケン,カワサキシカワサキク,ダイシマチ,神奈川県川崎市川崎区大師町
2100817,神奈川県,川崎市川崎区,大師本町,カナガワケン,カワサキシカワサキク,ダイシホンチョウ,神奈川県川崎市川崎区大師本町
2100818,神奈川県,川崎市川崎区,中瀬,カナガワケン,カワサキシカワサキク,ナカゼ,神奈川県川崎市川崎区中瀬
2100821,神奈川県,川崎市川崎区,殿町,カナガワケン,カワサキシカワサキク,トノマチ,神奈川県川崎市川崎区殿町
2100822,神奈川県,川崎市川崎区,田町,カナガワケン,カワサキシカワサキク,タマチ,神奈川県川崎市川崎区田町
2100823,神奈川県,川崎市川崎区,江川,カナガワケン,カワサキシカワサキク,エガワ,神奈川県川崎市川崎区江川
2100824,神奈川県,川崎市川崎区,日ノ出,カナガワケン,カワサキシカワサキク,ヒノデ,神奈川県川崎市川崎区日ノ出
2100825,神奈川県,川崎市川崎区,出来野,カナガワケン,カワサキシカワサキク,デキノ,神奈川県川崎市川崎区出来野
2100826,神奈川県,川崎市川崎区,塩浜,カナガワケン,カワサキシカワサキク,シオハマ,神奈川県川崎市川崎区塩浜
2100827,神奈川県,川崎市川崎区,四谷下町,カナガワケン,カワサキシカワサキク,ヨツヤシモチョウ,神奈川県川崎市川崎区四谷下町
2100828,神奈川県,川崎市川崎区,四谷上町,カナガワケン,カワサキシカワサキク,ヨツヤカミチョウ,神奈川県川崎市川崎区四谷上町
2100831,神奈川県,川崎市川崎区,観音,カナガワケン,カワサキシカワサキク,カンノン,神奈川県川崎市川崎区観音
2100832,神奈川県,川崎市川崎区,池上新町,カナガワケン,カワサキシカワサキク,イケガミシンチョウ,神奈川県川崎市川崎区池上新町
2100833,神奈川県,川崎市川崎区,桜本,カナガワケン,カワサキシカワサキク,サクラモト,神奈川県川崎市川崎区桜本
2100834,神奈川県,川崎市川崎区,大島,カナガワケン,カワサキシカワサキク,オオシマ,神奈川県川崎市川崎区大島
2100835,神奈川県,川崎市川崎区,追分町,カナガワケン,カワサキシカワサキク,オイワケチョウ,神奈川県川崎市川崎区追分町
2100836,神奈川県,川崎市川崎区,大島上町,カナガワケン,カワサキシカワサキク,オオシマカミチョウ,神奈川県川崎市川崎区大島上町
2100837,神奈川県,川崎市川崎区,渡田,カナガワケン,カワサキシカワサキク,ワタリダ,神奈川県川崎市川崎区渡田
2100838,神奈川県,川崎市川崎区,境町,カナガワケン,カワサキシカワサキク,サカイチョウ,神奈川県川崎市川崎区境町
2100841,神奈川県,川崎市川崎区,渡田向町,カナガワケン,カワサキシカワサキク,ワタリダムカイチョウ,神奈川県川崎市川崎区渡田向町
2100842,神奈川県,川崎市川崎区,渡田東町,カナガワケン,カワサキシカワサキク,ワタリダヒガシチョウ,神奈川県川崎市川崎区渡田東町
2100843,神奈川県,川崎市川崎区,小田栄,カナガワケン,カワサキシカワサキク,オダサカエ,神奈川県川崎市川崎区小田栄
2100844,神奈川県,川崎市川崎区,渡田新町,カナガワケン,カワサキシカワサキク,ワタリダシンチョウ,神奈川県川崎市川崎区渡田新町
2100845,神奈川県,川崎市川崎区,渡田山王町,カナガワケン,カワサキシカワサキク,ワタリダサンノウチョウ,神奈川県川崎市川崎区渡田山王町
2100846,神奈川県,川崎市川崎区,小田,カナガワケン,カワサキシカワサキク,オダ,神奈川県川崎市川崎区小田
2100847,神奈川県,川崎市川崎区,浅田,カナガワケン,カワサキシカワサキク,アサダ,神奈川県川崎市川崎区浅田
2100848,神奈川県,川崎市川崎区,京町,カナガワケン,カワサキシカワサキク,キョウマチ,神奈川県川崎市川崎区京町
2100851,神奈川県,川崎市川崎区,浜町,カナガワケン,カワサキシカワサキク,ハマチョウ,神奈川県川崎市川崎区浜町
2100852,神奈川県,川崎市川崎区,鋼管通,カナガワケン,カワサキシカワサキク,コウカンドオリ,神奈川県川崎市川崎区鋼管通
2100853,神奈川県,川崎市川崎区,田島町,カナガワケン,カワサキシカワサキク,タジマチョウ,神奈川県川崎市川崎区田島町
2100854,神奈川県,川崎市川崎区,浅野町,カナガワケン,カワサキシカワサキク,アサノチョウ,神奈川県川崎市川崎区浅野町
2100855,神奈川県,川崎市川崎区,南渡田町,カナガワケン,カワサキシカワサキク,ミナミワタリダチョウ,神奈川県川崎市川崎区南渡田町
2100856,神奈川県,川崎市川崎区,田辺新田,カナガワケン,カワサキシカワサキク,タナベシンデン,神奈川県川崎市川崎区田辺新田
2100857,神奈川県,川崎市川崎区,白石町,カナガワケン,カワサキシカワサキク,シライシチョウ,神奈川県川崎市川崎区白石町
2100858,神奈川県,川崎市川崎区,大川町,カナガワケン,カワサキシカワサキク,オオカワチョウ,神奈川県川崎市川崎区大川町
2100861,神奈川県,川崎市川崎区,小島町,カナガワケン,カワサキシカワサキク,コジマチョウ,神奈川県川崎市川崎区小島町
2100862,神奈川県,川崎市川崎区,浮島町,カナガワケン,カワサキシカワサキク,ウキシマチョウ,神奈川県川崎市川崎区浮島町
2100863,神奈川県,川崎市川崎区,夜光,カナガワケン,カワサキシカワサキク,ヤコウ,神奈川県川崎市川崎区夜光
2100864,神奈川県,川崎市川崎区,池上町,カナガワケン,カワサキシカワサキク,イケガミチョウ,神奈川県川崎市川崎区池上町
2100865,神奈川県,川崎市川崎区,千鳥町,カナガワケン,カワサキシカワサキク,チドリチョウ,神奈川県川崎市川崎区千鳥町
2100866,神奈川県,川崎市川崎区,水江町,カナガワケン,カワサキシカワサキク,ミズエチョウ,神奈川県川崎市川崎区水江町
2100867,神奈川県,川崎市川崎区,扇町,カナガワケン,カワサキシカワサキク,オウギマチ,神奈川県川崎市川崎区扇町
2100868,神奈川県,川崎市川崎区,扇島,カナガワケン,カワサキシカワサキク,オオギシマ,神奈川県川崎市川崎区扇島
2100869,神奈川県,川崎市川崎区,東扇島,カナガワケン,カワサキシカワサキク,ヒガシオオギシマ,神奈川県川崎市川崎区東扇島
2110000,神奈川県,川崎市中原区,,カナガワケン,カワサキシナカハラク,,神奈川県川崎市中原区
2110001,神奈川県,川崎市中原区,上丸子八幡町,カナガワケン,カワサキシナカハラク,カミマルコハチマンチョウ,神奈川県川崎市中原区上丸子八幡町
2110002,神奈川県,川崎市中原区,上丸子山王町,カナガワケン,カワサキシナカハラク,カミマルコサンノウチョウ,神奈川県川崎市中原区上丸子山王町
2110003,神奈川県,川崎市中原区,上丸子,カナガワケン,カワサキシナカハラク,カミマルコ,神奈川県川崎市中原区上丸子
2110004,神奈川県,川崎市中原区,新丸子東,カナガワケン,カワサキシナカハラク,シンマルコヒガシ,神奈川県川崎市中原区新丸子東
2110005,神奈川県,川崎市中原区,新丸子町,カナガワケン,カワサキシナカハラク,シンマルコマチ,神奈川県川崎市中原区新丸子町
2110006,神奈川県,川崎市中原区,丸子通,カナガワケン,カワサキシナカハラク,マルコドオリ,神奈川県川崎市中原区丸子通
2110007,神奈川県,川崎市中原区,上丸子天神町,カナガワケン,カワサキシナカハラク,カミマルコテンジンチョウ,神奈川県川崎市中原区上丸子天神町
2110011,神奈川県,川崎市中原区,下沼部,カナガワケン,カワサキシナカハラク,シモヌマベ,神奈川県川崎市中原区下沼部
2110012,神奈川県,川崎市中原区,中丸子,カナガワケン,カワサキシナカハラク,ナカマルコ,神奈川県川崎市中原区中丸子
2110013,神奈川県,川崎市中原区,上平間,カナガワケン,カワサキシナカハラク,カミヒラマ,神奈川県川崎市中原区上平間
2110014,神奈川県,川崎市中原区,田尻町,カナガワケン,カワサキシナカハラク,タジリチョウ,神奈川県川崎市中原区田尻町
2110015,神奈川県,川崎市中原区,北谷町,カナガワケン,カワサキシナカハラク,キタヤチョウ,神奈川県川崎市中原区北谷町
2110016,神奈川県,川崎市中原区,市ノ坪,カナガワケン,カワサキシナカハラク,イチノツボ,神奈川県川崎市中原区市ノ坪
2110021,神奈川県,川崎市中原区,木月住吉町,カナガワケン,カワサキシナカハラク,キヅキスミヨシチョウ,神奈川県川崎市中原区木月住吉町
2110022,神奈川県,川崎市中原区,苅宿,カナガワケン,カワサキシナカハラク,カリヤド,神奈川県川崎市中原区苅宿
2110023,神奈川県,川崎市中原区,大倉町,カナガワケン,カワサキシナカハラク,オオクラチョウ,神奈川県川崎市中原区大倉町
2110024,神奈川県,川崎市中原区,西加瀬,カナガワケン,カワサキシナカハラク,ニシカセ,神奈川県川崎市中原区西加瀬
2110025,神奈川県,川崎市中原区,木月,カナガワケン,カワサキシナカハラク,キヅキ,神奈川県川崎市中原区木月
2110031,神奈川県,川崎市中原区,木月大町,カナガワケン,カワサキシナカハラク,キヅキオオマチ,神奈川県川崎市中原区木月大町
2110032,神奈川県,川崎市中原区,木月伊勢町,カナガワケン,カワサキシナカハラク,キヅキイセチョウ,神奈川県川崎市中原区木月伊勢町
2110033,神奈川県,川崎市中原区,木月祗園町,カナガワケン,カワサキシナカハラク,キヅキギオンチョウ,神奈川県川崎市中原区木月祗園町
2110034,神奈川県,川崎市中原区,井田中ノ町,カナガワケン,カワサキシナカハラク,イダナカノチョウ,神奈川県川崎市中原区井田中ノ町
2110035,神奈川県,川崎市中原区,井田,カナガワケン,カワサキシナカハラク,イダ,神奈川県川崎市中原区井田
2110036,神奈川県,川崎市中原区,井田杉山町,カナガワケン,カワサキシナカハラク,イダスギヤマチョウ,神奈川県川崎市中原区井田杉山町
2110037,神奈川県,川崎市中原区,井田三舞町,カナガワケン,カワサキシナカハラク,イダサンマイチョウ,神奈川県川崎市中原区井田三舞町
2110041,神奈川県,川崎市中原区,下小田中,カナガワケン,カワサキシナカハラク,シモコダナカ,神奈川県川崎市中原区下小田中
2110042,神奈川県,川崎市中原区,下新城,カナガワケン,カワサキシナカハラク,シモシンジョウ,神奈川県川崎市中原区下新城
2110043,神奈川県,川崎市中原区,新城中町,カナガワケン,カワサキシナカハラク,シンジョウナカチョウ,神奈川県川崎市中原区新城中町
2110044,神奈川県,川崎市中原区,新城,カナガワケン,カワサキシナカハラク,シンジョウ,神奈川県川崎市中原区新城
2110045,神奈川県,川崎市中原区,上新城,カナガワケン,カワサキシナカハラク,カミシンジョウ,神奈川県川崎市中原区上新城
2110051,神奈川県,川崎市中原区,宮内,カナガワケン,カワサキシナカハラク,ミヤウチ,神奈川県川崎市中原区宮内
2110052,神奈川県,川崎市中原区,等々力,カナガワケン,カワサキシナカハラク,トドロキ,神奈川県川崎市中原区等々力
2110053,神奈川県,川崎市中原区,上小田中,カナガワケン,カワサキシナカハラク,カミコダナカ,神奈川県川崎市中原区上小田中
2110061,神奈川県,川崎市中原区,小杉,カナガワケン,カワサキシナカハラク,コスギ,神奈川県川崎市中原区小杉
2110062,神奈川県,川崎市中原区,小杉陣屋町,カナガワケン,カワサキシナカハラク,コスギジンヤチョウ,神奈川県川崎市中原区小杉陣屋町
2110063,神奈川県,川崎市中原区,小杉町,カナガワケン,カワサキシナカハラク,コスギマチ,神奈川県川崎市中原区小杉町
2110064,神奈川県,川崎市中原区,今井南町,カナガワケン,カワサキシナカハラク,イマイミナミチョウ,神奈川県川崎市中原区今井南町
2110065,神奈川県,川崎市中原区,今井仲町,カナガワケン,カワサキシナカハラク,イマイナカマチ,神奈川県川崎市中原区今井仲町
2110066,神奈川県,川崎市中原区,今井西町,カナガワケン,カワサキシナカハラク,イマイニシマチ,神奈川県川崎市中原区今井西町
2110067,神奈川県,川崎市中原区,今井上町,カナガワケン,カワサキシナカハラク,イマイカミチョウ,神奈川県川崎市中原区今井上町
2110068,神奈川県,川崎市中原区,小杉御殿町,カナガワケン,カワサキシナカハラク,コスギゴテンチョウ,神奈川県川崎市中原区小杉御殿町
2120000,神奈川県,川崎市幸区,,カナガワケン,カワサキシサイワイク,,神奈川県川崎市幸区
2120001,神奈川県,川崎市幸区,小向東芝町,カナガワケン,カワサキシサイワイク,コムカイトウシバチョウ,神奈川県川崎市幸区小向東芝町
2120002,神奈川県,川崎市幸区,小向仲野町,カナガワケン,カワサキシサイワイク,コムカイナカノチョウ,神奈川県川崎市幸区小向仲野町
2120003,神奈川県,川崎市幸区,小向町,カナガワケン,カワサキシサイワイク,コムカイチョウ,神奈川県川崎市幸区小向町
2120004,神奈川県,川崎市幸区,小向西町,カナガワケン,カワサキシサイワイク,コムカイニシマチ,神奈川県川崎市幸区小向西町
2120005,神奈川県,川崎市幸区,戸手,カナガワケン,カワサキシサイワイク,トテ,神奈川県川崎市幸区戸手
2120006,神奈川県,川崎市幸区,遠藤町,カナガワケン,カワサキシサイワイク,エンドウマチ,神奈川県川崎市幸区遠藤町
2120007,神奈川県,川崎市幸区,河原町,カナガワケン,カワサキシサイワイク,カワラマチ,神奈川県川崎市幸区河原町
2120011,神奈川県,川崎市幸区,幸町,カナガワケン,カワサキシサイワイク,サイワイチョウ,神奈川県川崎市幸区幸町
2120012,神奈川県,川崎市幸区,中幸町,カナガワケン,カワサキシサイワイク,ナカサイワイチョウ,神奈川県川崎市幸区中幸町
2120013,神奈川県,川崎市幸区,堀川町,カナガワケン,カワサキシサイワイク,ホリカワチョウ,神奈川県川崎市幸区堀川町
2120014,神奈川県,川崎市幸区,大宮町,カナガワケン,カワサキシサイワイク,オオミヤチョウ,神奈川県川崎市幸区大宮町
2120015,神奈川県,川崎市幸区,柳町,カナガワケン,カワサキシサイワイク,ヤナギチョウ,神奈川県川崎市幸区柳町
2120016,神奈川県,川崎市幸区,南幸町,カナガワケン,カワサキシサイワイク,ミナミサイワイチョウ,神奈川県川崎市幸区南幸町
2120021,神奈川県,川崎市幸区,都町,カナガワケン,カワサキシサイワイク,ミヤコチョウ,神奈川県川崎市幸区都町
2120022,神奈川県,川崎市幸区,神明町,カナガワケン,カワサキシサイワイク,シンメイチョウ,神奈川県川崎市幸区神明町
2120023,神奈川県,川崎市幸区,戸手本町,カナガワケン,カワサキシサイワイク,トテホンマチ,神奈川県川崎市幸区戸手本町
2120024,神奈川県,川崎市幸区,塚越,カナガワケン,カワサキシサイワイク,ツカゴシ,神奈川県川崎市幸区塚越
2120025,神奈川県,川崎市幸区,古川町,カナガワケン,カワサキシサイワイク,フルカワマチ,神奈川県川崎市幸区古川町
2120026,神奈川県,川崎市幸区,紺屋町,カナガワケン,カワサキシサイワイク,コンヤマチ,神奈川県川崎市幸区紺屋町
2120027,神奈川県,川崎市幸区,新塚越,カナガワケン,カワサキシサイワイク,シンツカゴシ,神奈川県川崎市幸区新塚越
2120031,神奈川県,川崎市幸区,新小倉,カナガワケン,カワサキシサイワイク,シンオグラ,神奈川県川崎市幸区新小倉
2120032,神奈川県,川崎市幸区,新川崎,カナガワケン,カワサキシサイワイク,シンカワサキ,神奈川県川崎市幸区新川崎
2120033,神奈川県,川崎市幸区,東小倉,カナガワケン,カワサキシサイワイク,ヒガシオグラ,神奈川県川崎市幸区東小倉
2120051,神奈川県,川崎市幸区,東古市場,カナガワケン,カワサキシサイワイク,ヒガシフルイチバ,神奈川県川崎市幸区東古市場
2120052,神奈川県,川崎市幸区,古市場,カナガワケン,カワサキシサイワイク,フルイチバ,神奈川県川崎市幸区古市場
2120053,神奈川県,川崎市幸区,下平間,カナガワケン,カワサキシサイワイク,シモヒラマ,神奈川県川崎市幸区下平間
2120054,神奈川県,川崎市幸区,小倉,カナガワケン,カワサキシサイワイク,オグラ,神奈川県川崎市幸区小倉
2120055,神奈川県,川崎市幸区,南加瀬,カナガワケン,カワサキシサイワイク,ミナミカセ,神奈川県川崎市幸区南加瀬
2120056,神奈川県,川崎市幸区,矢上,カナガワケン,カワサキシサイワイク,ヤガミ,神奈川県川崎市幸区矢上
2120057,神奈川県,川崎市幸区,北加瀬,カナガワケン,カワサキシサイワイク,キタカセ,神奈川県川崎市幸区北加瀬
2120058,神奈川県,川崎市幸区,鹿島田,カナガワケン,カワサキシサイワイク,カシマダ,神奈川県川崎市幸区鹿島田
2130000,神奈川県,川崎市高津区,,カナガワケン,カワサキシタカツク,,神奈川県川崎市高津区
2130001,神奈川県,川崎市高津区,溝口,カナガワケン,カワサキシタカツク,ミゾノクチ,神奈川県川崎市高津区溝口
2130002,神奈川県,川崎市高津区,二子,カナガワケン,カワサキシタカツク,フタゴ,神奈川県川崎市高津区二子
2130003,神奈川県,川崎市高津区,瀬田,カナガワケン,カワサキシタカツク,セタ,神奈川県川崎市高津区瀬田
2130004,神奈川県,川崎市高津区,諏訪,カナガワケン,カワサキシタカツク,スワ,神奈川県川崎市高津区諏訪
2130005,神奈川県,川崎市高津区,北見方,カナガワケン,カワサキシタカツク,キタミガタ,神奈川県川崎市高津区北見方
2130006,神奈川県,川崎市高津区,下野毛,カナガワケン,カワサキシタカツク,シモノゲ,神奈川県川崎市高津区下野毛
2130011,神奈川県,川崎市高津区,久本,カナガワケン,カワサキシタカツク,ヒサモト,神奈川県川崎市高津区久本
2130012,神奈川県,川崎市高津区,坂戸,カナガワケン,カワサキシタカツク,サカド,神奈川県川崎市高津区坂戸
2130013,神奈川県,川崎市高津区,末長,カナガワケン,カワサキシタカツク,スエナガ,神奈川県川崎市高津区末長
2130014,神奈川県,川崎市高津区,新作,カナガワケン,カワサキシタカツク,シンサク,神奈川県川崎市高津区新作
2130015,神奈川県,川崎市高津区,梶ケ谷,カナガワケン,カワサキシタカツク,カジガヤ,神奈川県川崎市高津区梶ケ谷
2130021,神奈川県,川崎市高津区,千年新町,カナガワケン,カワサキシタカツク,チトセシンチョウ,神奈川県川崎市高津区千年新町
2130022,神奈川県,川崎市高津区,千年,カナガワケン,カワサキシタカツク,チトセ,神奈川県川崎市高津区千年
2130023,神奈川県,川崎市高津区,子母口,カナガワケン,カワサキシタカツク,シボクチ,神奈川県川崎市高津区子母口
2130024,神奈川県,川崎市高津区,明津,カナガワケン,カワサキシタカツク,アクツ,神奈川県川崎市高津区明津
2130025,神奈川県,川崎市高津区,蟹ケ谷,カナガワケン,カワサキシタカツク,カニガヤ,神奈川県川崎市高津区蟹ケ谷
2130026,神奈川県,川崎市高津区,久末,カナガワケン,カワサキシタカツク,ヒサスエ,神奈川県川崎市高津区久末
2130028,神奈川県,川崎市高津区,北野川,カナガワケン,カワサキシタカツク,キタノガワ,神奈川県川崎市高津区北野川
2130029,神奈川県,川崎市高津区,東野川,カナガワケン,カワサキシタカツク,ヒガシノガワ,神奈川県川崎市高津区東野川
2130031,神奈川県,川崎市高津区,宇奈根,カナガワケン,カワサキシタカツク,ウナネ,神奈川県川崎市高津区宇奈根
2130032,神奈川県,川崎市高津区,久地,カナガワケン,カワサキシタカツク,クジ,神奈川県川崎市高津区久地
2130033,神奈川県,川崎市高津区,下作延,カナガワケン,カワサキシタカツク,シモサクノベ,神奈川県川崎市高津区下作延
2130034,神奈川県,川崎市高津区,上作延,カナガワケン,カワサキシタカツク,カミサクノベ,神奈川県川崎市高津区上作延
2130035,神奈川県,川崎市高津区,向ケ丘,カナガワケン,カワサキシタカツク,ムカイガオカ,神奈川県川崎市高津区向ケ丘
2140000,神奈川県,川崎市多摩区,,カナガワケン,カワサキシタマク,,神奈川県川崎市多摩区
2140001,神奈川県,川崎市多摩区,菅,カナガワケン,カワサキシタマク,スゲ,神奈川県川崎市多摩区菅
2140002,神奈川県,川崎市多摩区,菅野戸呂,カナガワケン,カワサキシタマク,スゲノトロ,神奈川県川崎市多摩区菅野戸呂
2140003,神奈川県,川崎市多摩区,菅稲田堤,カナガワケン,カワサキシタマク,スゲイナダヅツミ,神奈川県川崎市多摩区菅稲田堤
2140004,神奈川県,川崎市多摩区,菅馬場,カナガワケン,カワサキシタマク,スゲバンバ,神奈川県川崎市多摩区菅馬場
2140005,神奈川県,川崎市多摩区,寺尾台,カナガワケン,カワサキシタマク,テラオダイ,神奈川県川崎市多摩区寺尾台
2140006,神奈川県,川崎市多摩区,菅仙谷,カナガワケン,カワサキシタマク,スゲセンゴク,神奈川県川崎市多摩区菅仙谷
2140007,神奈川県,川崎市多摩区,菅城下,カナガワケン,カワサキシタマク,スゲシロシタ,神奈川県川崎市多摩区菅城下
2140008,神奈川県,川崎市多摩区,菅北浦,カナガワケン,カワサキシタマク,スゲキタウラ,神奈川県川崎市多摩区菅北浦
2140011,神奈川県,川崎市多摩区,布田,カナガワケン,カワサキシタマク,フダ,神奈川県川崎市多摩区布田
2140012,神奈川県,川崎市多摩区,中野島,カナガワケン,カワサキシタマク,ナカノシマ,神奈川県川崎市多摩区中野島
2140013,神奈川県,川崎市多摩区,登戸新町,カナガワケン,カワサキシタマク,ノボリトシンマチ,神奈川県川崎市多摩区登戸新町
2140014,神奈川県,川崎市多摩区,登戸,カナガワケン,カワサキシタマク,ノボリト,神奈川県川崎市多摩区登戸
2140021,神奈川県,川崎市多摩区,宿河原,カナガワケン,カワサキシタマク,シュクガワラ,神奈川県川崎市多摩区宿河原
2140022,神奈川県,川崎市多摩区,堰,カナガワケン,カワサキシタマク,セキ,神奈川県川崎市多摩区堰
2140023,神奈川県,川崎市多摩区,長尾,カナガワケン,カワサキシタマク,ナガオ,神奈川県川崎市多摩区長尾
2140031,神奈川県,川崎市多摩区,東生田,カナガワケン,カワサキシタマク,ヒガシイクタ,神奈川県川崎市多摩区東生田
2140032,神奈川県,川崎市多摩区,枡形,カナガワケン,カワサキシタマク,マスガタ,神奈川県川崎市多摩区枡形
2140033,神奈川県,川崎市多摩区,東三田,カナガワケン,カワサキシタマク,ヒガシミタ,神奈川県川崎市多摩区東三田
2140034,神奈川県,川崎市多摩区,三田,カナガワケン,カワサキシタマク,ミタ,神奈川県川崎市多摩区三田
2140035,神奈川県,川崎市多摩区,長沢,カナガワケン,カワサキシタマク,ナガサワ,神奈川県川崎市多摩区長沢
2140036,神奈川県,川崎市多摩区,南生田,カナガワケン,カワサキシタマク,ミナミイクタ,神奈川県川崎市多摩区南生田
2140037,神奈川県,川崎市多摩区,西生田,カナガワケン,カワサキシタマク,ニシイクタ,神奈川県川崎市多摩区西生田
2140038,神奈川県,川崎市多摩区,生田,カナガワケン,カワサキシタマク,イクタ,神奈川県川崎市多摩区生田
2140039,神奈川県,川崎市多摩区,栗谷,カナガワケン,カワサキシタマク,クリヤ,神奈川県川崎市多摩区栗谷
2150000,神奈川県,川崎市麻生区,,カナガワケン,カワサキシアサオク,,神奈川県川崎市麻生区
2150001,神奈川県,川崎市麻生区,細山,カナガワケン,カワサキシアサオク,ホソヤマ,神奈川県川崎市麻生区細山
2150002,神奈川県,川崎市麻生区,多摩美,カナガワケン,カワサキシアサオク,タマミ,神奈川県川崎市麻生区多摩美
2150003,神奈川県,川崎市麻生区,高石,カナガワケン,カワサキシアサオク,タカイシ,神奈川県川崎市麻生区高石
2150004,神奈川県,川崎市麻生区,万福寺,カナガワケン,カワサキシアサオク,マンプクジ,神奈川県川崎市麻生区万福寺
2150005,神奈川県,川崎市麻生区,千代ケ丘,カナガワケン,カワサキシアサオク,チヨガオカ,神奈川県川崎市麻生区千代ケ丘
2150006,神奈川県,川崎市麻生区,金程,カナガワケン,カワサキシアサオク,カナホド,神奈川県川崎市麻生区金程
2150007,神奈川県,川崎市麻生区,向原,カナガワケン,カワサキシアサオク,ムカイバラ,神奈川県川崎市麻生区向原
2150011,神奈川県,川崎市麻生区,百合丘,カナガワケン,カワサキシアサオク,ユリガオカ,神奈川県川崎市麻生区百合丘
2150012,神奈川県,川崎市麻生区,東百合丘,カナガワケン,カワサキシアサオク,ヒガシユリガオカ,神奈川県川崎市麻生区東百合丘
2150013,神奈川県,川崎市麻生区,王禅寺,カナガワケン,カワサキシアサオク,オウゼンジ,神奈川県川崎市麻生区王禅寺
2150014,神奈川県,川崎市麻生区,白山,カナガワケン,カワサキシアサオク,ハクサン,神奈川県川崎市麻生区白山
2150015,神奈川県,川崎市麻生区,虹ケ丘,カナガワケン,カワサキシアサオク,ニジガオカ,神奈川県川崎市麻生区虹ケ丘
2150016,神奈川県,川崎市麻生区,早野,カナガワケン,カワサキシアサオク,ハヤノ,神奈川県川崎市麻生区早野
2150017,神奈川県,川崎市麻生区,王禅寺西,カナガワケン,カワサキシアサオク,オウゼンジニシ,神奈川県川崎市麻生区王禅寺西
2150018,神奈川県,川崎市麻生区,王禅寺東,カナガワケン,カワサキシアサオク,オウゼンジヒガシ,神奈川県川崎市麻生区王禅寺東
2150021,神奈川県,川崎市麻生区,上麻生,カナガワケン,カワサキシアサオク,カミアサオ,神奈川県川崎市麻生区上麻生
2150022,神奈川県,川崎市麻生区,下麻生,カナガワケン,カワサキシアサオク,シモアサオ,神奈川県川崎市麻生区下麻生
2150023,神奈川県,川崎市麻生区,片平,カナガワケン,カワサキシアサオク,カタヒラ,神奈川県川崎市麻生区片平
2150024,神奈川県,川崎市麻生区,白鳥,カナガワケン,カワサキシアサオク,シラトリ,神奈川県川崎市麻生区白鳥
2150025,神奈川県,川崎市麻生区,五力田,カナガワケン,カワサキシアサオク,ゴリキダ,神奈川県川崎市麻生区五力田
2150026,神奈川県,川崎市麻生区,古沢,カナガワケン,カワサキシアサオク,フルサワ,神奈川県川崎市麻生区古沢
2150027,神奈川県,川崎市麻生区,岡上,カナガワケン,カワサキシアサオク,オカガミ,神奈川県川崎市麻生区岡上
2150031,神奈川県,川崎市麻生区,栗平,カナガワケン,カワサキシアサオク,クリヒラ,神奈川県川崎市麻生区栗平
2150032,神奈川県,川崎市麻生区,栗木台,カナガワケン,カワサキシアサオク,クリギダイ,神奈川県川崎市麻生区栗木台
2150033,神奈川県,川崎市麻生区,栗木,カナガワケン,カワサキシアサオク,クリギ,神奈川県川崎市麻生区栗木
2150034,神奈川県,川崎市麻生区,南黒川,カナガワケン,カワサキシアサオク,ミナミクロカワ,神奈川県川崎市麻生区南黒川
2150035,神奈川県,川崎市麻生区,黒川,カナガワケン,カワサキシアサオク,クロカワ,神奈川県川崎市麻生区黒川
2150036,神奈川県,川崎市麻生区,はるひ野,カナガワケン,カワサキシアサオク,ハルヒノ,神奈川県川崎市麻生区はるひ野
2160000,神奈川県,川崎市宮前区,,カナガワケン,カワサキシミヤマエク,,神奈川県川崎市宮前区
2160002,神奈川県,川崎市宮前区,東有馬,カナガワケン,カワサキシミヤマエク,ヒガシアリマ,神奈川県川崎市宮前区東有馬
2160003,神奈川県,川崎市宮前区,有馬,カナガワケン,カワサキシミヤマエク,アリマ,神奈川県川崎市宮前区有馬
2160004,神奈川県,川崎市宮前区,鷺沼,カナガワケン,カワサキシミヤマエク,サギヌマ,神奈川県川崎市宮前区鷺沼
2160005,神奈川県,川崎市宮前区,土橋,カナガワケン,カワサキシミヤマエク,ツチハシ,神奈川県川崎市宮前区土橋
2160006,神奈川県,川崎市宮前区,宮前平,カナガワケン,カワサキシミヤマエク,ミヤマエダイラ,神奈川県川崎市宮前区宮前平
2160007,神奈川県,川崎市宮前区,小台,カナガワケン,カワサキシミヤマエク,コダイ,神奈川県川崎市宮前区小台
2160011,神奈川県,川崎市宮前区,犬蔵,カナガワケン,カワサキシミヤマエク,イヌクラ,神奈川県川崎市宮前区犬蔵
2160012,神奈川県,川崎市宮前区,水沢,カナガワケン,カワサキシミヤマエク,ミズサワ,神奈川県川崎市宮前区水沢
2160013,神奈川県,川崎市宮前区,潮見台,カナガワケン,カワサキシミヤマエク,シオミダイ,神奈川県川崎市宮前区潮見台
2160014,神奈川県,川崎市宮前区,菅生ケ丘,カナガワケン,カワサキシミヤマエク,スガオガオカ,神奈川県川崎市宮前区菅生ケ丘
2160015,神奈川県,川崎市宮前区,菅生,カナガワケン,カワサキシミヤマエク,スガオ,神奈川県川崎市宮前区菅生
2160021,神奈川県,川崎市宮前区,五所塚,カナガワケン,カワサキシミヤマエク,ゴショヅカ,神奈川県川崎市宮前区五所塚
2160022,神奈川県,川崎市宮前区,平,カナガワケン,カワサキシミヤマエク,タイラ,神奈川県川崎市宮前区平
2160023,神奈川県,川崎市宮前区,けやき平,カナガワケン,カワサキシミヤマエク,ケヤキダイラ,神奈川県川崎市宮前区けやき平
2160024,神奈川県,川崎市宮前区,南平台,カナガワケン,カワサキシミヤマエク,ナンペイダイ,神奈川県川崎市宮前区南平台
2160025,神奈川県,川崎市宮前区,白幡台,カナガワケン,カワサキシミヤマエク,シラハタダイ,神奈川県川崎市宮前区白幡台
2160026,神奈川県,川崎市宮前区,初山,カナガワケン,カワサキシミヤマエク,ハツヤマ,神奈川県川崎市宮前区初山
2160031,神奈川県,川崎市宮前区,神木本町,カナガワケン,カワサキシミヤマエク,シボクホンチョウ,神奈川県川崎市宮前区神木本町
2160032,神奈川県,川崎市宮前区,神木,カナガワケン,カワサキシミヤマエク,シボク,神奈川県川崎市宮前区神木
2160033,神奈川県,川崎市宮前区,宮崎,カナガワケン,カワサキシミヤマエク,ミヤザキ,神奈川県川崎市宮前区宮崎
2160034,神奈川県,川崎市宮前区,梶ケ谷,カナガワケン,カワサキシミヤマエク,カジガヤ,神奈川県川崎市宮前区梶ケ谷
2160035,神奈川県,川崎市宮前区,馬絹,カナガワケン,カワサキシミヤマエク,マギヌ,神奈川県川崎市宮前区馬絹
2160041,神奈川県,川崎市宮前区,野川本町,カナガワケン,カワサキシミヤマエク,ノガワホンチョウ,神奈川県川崎市宮前区野川本町
2160042,神奈川県,川崎市宮前区,南野川,カナガワケン,カワサキシミヤマエク,ミナミノガワ,神奈川県川崎市宮前区南野川
2160043,神奈川県,川崎市宮前区,野川台,カナガワケン,カワサキシミヤマエク,ノガワダイ,神奈川県川崎市宮前区野川台
2160044,神奈川県,川崎市宮前区,西野川,カナガワケン,カワサキシミヤマエク,ニシノガワ,神奈川県川崎市宮前区西野川
2200000,神奈川県,横浜市西区,,カナガワケン,ヨコハマシニシク,,神奈川県横浜市西区
2200001,神奈川県,横浜市西区,北軽井沢,カナガワケン,ヨコハマシニシク,キタカルイザワ,神奈川県横浜市西区北軽井沢
2200002,神奈川県,横浜市西区,南軽井沢,カナガワケン,ヨコハマシニシク,ミナミカルイザワ,神奈川県横浜市西区南軽井沢
2200003,神奈川県,横浜市西区,楠町,カナガワケン,ヨコハマシニシク,クスノキチョウ,神奈川県横浜市西区楠町
2200004,神奈川県,横浜市西区,北幸,カナガワケン,ヨコハマシニシク,キタサイワイ,神奈川県横浜市西区北幸
2200005,神奈川県,横浜市西区,南幸,カナガワケン,ヨコハマシニシク,ミナミサイワイ,神奈川県横浜市西区南幸
2200006,神奈川県,横浜市西区,宮ケ谷,カナガワケン,ヨコハマシニシク,ミヤガヤ,神奈川県横浜市西区宮ケ谷
2200011,神奈川県,横浜市西区,高島,カナガワケン,ヨコハマシニシク,タカシマ,神奈川県横浜市西区高島
2200012,神奈川県,横浜市西区,みなとみらい（次のビルを除く）,カナガワケン,ヨコハマシニシク,ミナトミライ(ツギノビルヲノゾク),神奈川県横浜市西区みなとみらい（次のビルを除く）
2200013,神奈川県,横浜市西区,緑町,カナガワケン,ヨコハマシニシク,ミドリチョウ,神奈川県横浜市西区緑町
2200021,神奈川県,横浜市西区,桜木町（４〜７丁目）,カナガワケン,ヨコハマシニシク,サクラギチョウ(4-7チョウメ),神奈川県横浜市西区桜木町（4〜7-）
2200022,神奈川県,横浜市西区,花咲町（４〜７丁目）,カナガワケン,ヨコハマシニシク,ハナサキチョウ(4-7チョウメ),神奈川県横浜市西区花咲町（4〜7-）
2200023,神奈川県,横浜市西区,平沼,カナガワケン,ヨコハマシニシク,ヒラヌマ,神奈川県横浜市西区平沼
2200024,神奈川県,横浜市西区,西平沼町,カナガワケン,ヨコハマシニシク,ニシヒラヌマチョウ,神奈川県横浜市西区西平沼町
2200031,神奈川県,横浜市西区,宮崎町,カナガワケン,ヨコハマシニシク,ミヤザキチョウ,神奈川県横浜市西区宮崎町
2200032,神奈川県,横浜市西区,老松町,カナガワケン,ヨコハマシニシク,オイマツチョウ,神奈川県横浜市西区老松町
2200033,神奈川県,横浜市西区,東ケ丘,カナガワケン,ヨコハマシニシク,アズマガオカ,神奈川県横浜市西区東ケ丘
2200034,神奈川県,横浜市西区,赤門町,カナガワケン,ヨコハマシニシク,アカモンチョウ,神奈川県横浜市西区赤門町
2200035,神奈川県,横浜市西区,霞ケ丘,カナガワケン,ヨコハマシニシク,カスミガオカ,神奈川県横浜市西区霞ケ丘
2200041,神奈川県,横浜市西区,戸部本町,カナガワケン,ヨコハマシニシク,トベホンチョウ,神奈川県横浜市西区戸部本町
2200042,神奈川県,横浜市西区,戸部町,カナガワケン,ヨコハマシニシク,トベチョウ,神奈川県横浜市西区戸部町
2200043,神奈川県,横浜市西区,御所山町,カナガワケン,ヨコハマシニシク,ゴショヤマチョウ,神奈川県横浜市西区御所山町
2200044,神奈川県,横浜市西区,紅葉ケ丘,カナガワケン,ヨコハマシニシク,モミジガオカ,神奈川県横浜市西区紅葉ケ丘
2200045,神奈川県,横浜市西区,伊勢町,カナガワケン,ヨコハマシニシク,イセチョウ,神奈川県横浜市西区伊勢町
2200046,神奈川県,横浜市西区,西戸部町,カナガワケン,ヨコハマシニシク,ニシトベチョウ,神奈川県横浜市西区西戸部町
2200051,神奈川県,横浜市西区,中央,カナガワケン,ヨコハマシニシク,チュウオウ,神奈川県横浜市西区中央
2200052,神奈川県,横浜市西区,西前町,カナガワケン,ヨコハマシニシク,ニシマエチョウ,神奈川県横浜市西区西前町
2200053,神奈川県,横浜市西区,藤棚町,カナガワケン,ヨコハマシニシク,フジダナチョウ,神奈川県横浜市西区藤棚町
2200054,神奈川県,横浜市西区,境之谷,カナガワケン,ヨコハマシニシク,サカイノタニ,神奈川県横浜市西区境之谷
2200055,神奈川県,横浜市西区,浜松町,カナガワケン,ヨコハマシニシク,ハママツチョウ,神奈川県横浜市西区浜松町
2200061,神奈川県,横浜市西区,久保町,カナガワケン,ヨコハマシニシク,クボチョウ,神奈川県横浜市西区久保町
2200062,神奈川県,横浜市西区,東久保町,カナガワケン,ヨコハマシニシク,ヒガシクボチョウ,神奈川県横浜市西区東久保町
2200063,神奈川県,横浜市西区,元久保町,カナガワケン,ヨコハマシニシク,モトクボチョウ,神奈川県横浜市西区元久保町
2200071,神奈川県,横浜市西区,浅間台,カナガワケン,ヨコハマシニシク,センゲンダイ,神奈川県横浜市西区浅間台
2200072,神奈川県,横浜市西区,浅間町,カナガワケン,ヨコハマシニシク,センゲンチョウ,神奈川県横浜市西区浅間町
2200073,神奈川県,横浜市西区,岡野,カナガワケン,ヨコハマシニシク,オカノ,神奈川県横浜市西区岡野
2200074,神奈川県,横浜市西区,南浅間町,カナガワケン,ヨコハマシニシク,ミナミセンゲンチョウ,神奈川県横浜市西区南浅間町
2206001,神奈川県,横浜市西区,みなとみらいクイーンズタワーＡ（１階）,カナガワケン,ヨコハマシニシク,ミナトミライクイーンズタワーA(1カイ),神奈川県横浜市西区みなとみらいクイーンズタワーＡ（1階）
2206002,神奈川県,横浜市西区,みなとみらいクイーンズタワーＡ（２階）,カナガワケン,ヨコハマシニシク,ミナトミライクイーンズタワーA(2カイ),神奈川県横浜市西区みなとみらいクイーンズタワーＡ（2階）
2206003,神奈川県,横浜市西区,みなとみらいクイーンズタワーＡ（３階）,カナガワケン,ヨコハマシニシク,ミナトミライクイーンズタワーA(3カイ),神奈川県横浜市西区みなとみらいクイーンズタワーＡ（3階）
2206004,神奈川県,横浜市西区,みなとみらいクイーンズタワーＡ（４階）,カナガワケン,ヨコハマシニシク,ミナトミライクイーンズタワーA(4カイ),神奈川県横浜市西区みなとみらいクイーンズタワーＡ（4階）
2206005,神奈川県,横浜市西区,みなとみらいクイーンズタワーＡ（５階）,カナガワケン,ヨコハマシニシク,ミナトミライクイーンズタワーA(5カイ),神奈川県横浜市西区みなとみらいクイーンズタワーＡ（5階）
2206006,神奈川県,横浜市西区,みなとみらいクイーンズタワーＡ（６階）,カナガワケン,ヨコハマシニシク,ミナトミライクイーンズタワーA(6カイ),神奈川県横浜市西区みなとみらいクイーンズタワーＡ（6階）
2206007,神奈川県,横浜市西区,みなとみらいクイーンズタワーＡ（７階）,カナガワケン,ヨコハマシニシク,ミナトミライクイーンズタワーA(7カイ),神奈川県横浜市西区みなとみらいクイーンズタワーＡ（7階）
2206008,神奈川県,横浜市西区,みなとみらいクイーンズタワーＡ（８階）,カナガワケン,ヨコハマシニシク,ミナトミライクイーンズタワーA(8カイ),神奈川県横浜市西区みなとみらいクイーンズタワーＡ（8階）
2206009,神奈川県,横浜市西区,みなとみらいクイーンズタワーＡ（９階）,カナガワケン,ヨコハマシニシク,ミナトミライクイーンズタワーA(9カイ),神奈川県横浜市西区みなとみらいクイーンズタワーＡ（9階）
2206010,神奈川県,横浜市西区,みなとみらいクイーンズタワーＡ（１０階）,カナガワケン,ヨコハマシニシク,ミナトミライクイーンズタワーA(10カイ),神奈川県横浜市西区みなとみらいクイーンズタワーＡ（10階）
2206011,神奈川県,横浜市西区,みなとみらいクイーンズタワーＡ（１１階）,カナガワケン,ヨコハマシニシク,ミナトミライクイーンズタワーA(11カイ),神奈川県横浜市西区みなとみらいクイーンズタワーＡ（11階）
2206012,神奈川県,横浜市西区,みなとみらいクイーンズタワーＡ（１２階）,カナガワケン,ヨコハマシニシク,ミナトミライクイーンズタワーA(12カイ),神奈川県横浜市西区みなとみらいクイーンズタワーＡ（12階）
2206013,神奈川県,横浜市西区,みなとみらいクイーンズタワーＡ（１３階）,カナガワケン,ヨコハマシニシク,ミナトミライクイーンズタワーA(13カイ),神奈川県横浜市西区みなとみらいクイーンズタワーＡ（13階）
2206014,神奈川県,横浜市西区,みなとみらいクイーンズタワーＡ（１４階）,カナガワケン,ヨコハマシニシク,ミナトミライクイーンズタワーA(14カイ),神奈川県横浜市西区みなとみらいクイーンズタワーＡ（14階）
2206015,神奈川県,横浜市西区,みなとみらいクイーンズタワーＡ（１５階）,カナガワケン,ヨコハマシニシク,ミナトミライクイーンズタワーA(15カイ),神奈川県横浜市西区みなとみらいクイーンズタワーＡ（15階）
2206016,神奈川県,横浜市西区,みなとみらいクイーンズタワーＡ（１６階）,カナガワケン,ヨコハマシニシク,ミナトミライクイーンズタワーA(16カイ),神奈川県横浜市西区みなとみらいクイーンズタワーＡ（16階）
2206017,神奈川県,横浜市西区,みなとみらいクイーンズタワーＡ（１７階）,カナガワケン,ヨコハマシニシク,ミナトミライクイーンズタワーA(17カイ),神奈川県横浜市西区みなとみらいクイーンズタワーＡ（17階）
2206018,神奈川県,横浜市西区,みなとみらいクイーンズタワーＡ（１８階）,カナガワケン,ヨコハマシニシク,ミナトミライクイーンズタワーA(18カイ),神奈川県横浜市西区みなとみらいクイーンズタワーＡ（18階）
2206019,神奈川県,横浜市西区,みなとみらいクイーンズタワーＡ（１９階）,カナガワケン,ヨコハマシニシク,ミナトミライクイーンズタワーA(19カイ),神奈川県横浜市西区みなとみらいクイーンズタワーＡ（19階）
2206020,神奈川県,横浜市西区,みなとみらいクイーンズタワーＡ（２０階）,カナガワケン,ヨコハマシニシク,ミナトミライクイーンズタワーA(20カイ),神奈川県横浜市西区みなとみらいクイーンズタワーＡ（20階）
2206021,神奈川県,横浜市西区,みなとみらいクイーンズタワーＡ（２１階）,カナガワケン,ヨコハマシニシク,ミナトミライクイーンズタワーA(21カイ),神奈川県横浜市西区みなとみらいクイーンズタワーＡ（21階）
2206022,神奈川県,横浜市西区,みなとみらいクイーンズタワーＡ（２２階）,カナガワケン,ヨコハマシニシク,ミナトミライクイーンズタワーA(22カイ),神奈川県横浜市西区みなとみらいクイーンズタワーＡ（22階）
2206023,神奈川県,横浜市西区,みなとみらいクイーンズタワーＡ（２３階）,カナガワケン,ヨコハマシニシク,ミナトミライクイーンズタワーA(23カイ),神奈川県横浜市西区みなとみらいクイーンズタワーＡ（23階）
2206024,神奈川県,横浜市西区,みなとみらいクイーンズタワーＡ（２４階）,カナガワケン,ヨコハマシニシク,ミナトミライクイーンズタワーA(24カイ),神奈川県横浜市西区みなとみらいクイーンズタワーＡ（24階）
2206025,神奈川県,横浜市西区,みなとみらいクイーンズタワーＡ（２５階）,カナガワケン,ヨコハマシニシク,ミナトミライクイーンズタワーA(25カイ),神奈川県横浜市西区みなとみらいクイーンズタワーＡ（25階）
2206026,神奈川県,横浜市西区,みなとみらいクイーンズタワーＡ（２６階）,カナガワケン,ヨコハマシニシク,ミナトミライクイーンズタワーA(26カイ),神奈川県横浜市西区みなとみらいクイーンズタワーＡ（26階）
2206027,神奈川県,横浜市西区,みなとみらいクイーンズタワーＡ（２７階）,カナガワケン,ヨコハマシニシク,ミナトミライクイーンズタワーA(27カイ),神奈川県横浜市西区みなとみらいクイーンズタワーＡ（27階）
2206028,神奈川県,横浜市西区,みなとみらいクイーンズタワーＡ（２８階）,カナガワケン,ヨコハマシニシク,ミナトミライクイーンズタワーA(28カイ),神奈川県横浜市西区みなとみらいクイーンズタワーＡ（28階）
2206029,神奈川県,横浜市西区,みなとみらいクイーンズタワーＡ（２９階）,カナガワケン,ヨコハマシニシク,ミナトミライクイーンズタワーA(29カイ),神奈川県横浜市西区みなとみらいクイーンズタワーＡ（29階）
2206030,神奈川県,横浜市西区,みなとみらいクイーンズタワーＡ（３０階）,カナガワケン,ヨコハマシニシク,ミナトミライクイーンズタワーA(30カイ),神奈川県横浜市西区みなとみらいクイーンズタワーＡ（30階）
2206031,神奈川県,横浜市西区,みなとみらいクイーンズタワーＡ（３１階）,カナガワケン,ヨコハマシニシク,ミナトミライクイーンズタワーA(31カイ),神奈川県横浜市西区みなとみらいクイーンズタワーＡ（31階）
2206032,神奈川県,横浜市西区,みなとみらいクイーンズタワーＡ（３２階）,カナガワケン,ヨコハマシニシク,ミナトミライクイーンズタワーA(32カイ),神奈川県横浜市西区みなとみらいクイーンズタワーＡ（32階）
2206033,神奈川県,横浜市西区,みなとみらいクイーンズタワーＡ（３３階）,カナガワケン,ヨコハマシニシク,ミナトミライクイーンズタワーA(33カイ),神奈川県横浜市西区みなとみらいクイーンズタワーＡ（33階）
2206034,神奈川県,横浜市西区,みなとみらいクイーンズタワーＡ（３４階）,カナガワケン,ヨコハマシニシク,ミナトミライクイーンズタワーA(34カイ),神奈川県横浜市西区みなとみらいクイーンズタワーＡ（34階）
2206035,神奈川県,横浜市西区,みなとみらいクイーンズタワーＡ（３５階）,カナガワケン,ヨコハマシニシク,ミナトミライクイーンズタワーA(35カイ),神奈川県横浜市西区みなとみらいクイーンズタワーＡ（35階）
2206090,神奈川県,横浜市西区,みなとみらいクイーンズタワーＡ（地階・階層不明）,カナガワケン,ヨコハマシニシク,ミナトミライクイーンズタワーA(チカイ・カイソウフメイ),神奈川県横浜市西区みなとみらいクイーンズタワーＡ（地階・階層不明）
2206101,神奈川県,横浜市西区,みなとみらいクイーンズタワーＢ（１階）,カナガワケン,ヨコハマシニシク,ミナトミライクイーンズタワーB(1カイ),神奈川県横浜市西区みなとみらいクイーンズタワーＢ（1階）
2206102,神奈川県,横浜市西区,みなとみらいクイーンズタワーＢ（２階）,カナガワケン,ヨコハマシニシク,ミナトミライクイーンズタワーB(2カイ),神奈川県横浜市西区みなとみらいクイーンズタワーＢ（2階）
2206103,神奈川県,横浜市西区,みなとみらいクイーンズタワーＢ（３階）,カナガワケン,ヨコハマシニシク,ミナトミライクイーンズタワーB(3カイ),神奈川県横浜市西区みなとみらいクイーンズタワーＢ（3階）
2206104,神奈川県,横浜市西区,みなとみらいクイーンズタワーＢ（４階）,カナガワケン,ヨコハマシニシク,ミナトミライクイーンズタワーB(4カイ),神奈川県横浜市西区みなとみらいクイーンズタワーＢ（4階）
2206105,神奈川県,横浜市西区,みなとみらいクイーンズタワーＢ（５階）,カナガワケン,ヨコハマシニシク,ミナトミライクイーンズタワーB(5カイ),神奈川県横浜市西区みなとみらいクイーンズタワーＢ（5階）
2206106,神奈川県,横浜市西区,みなとみらいクイーンズタワーＢ（６階）,カナガワケン,ヨコハマシニシク,ミナトミライクイーンズタワーB(6カイ),神奈川県横浜市西区みなとみらいクイーンズタワーＢ（6階）
2206107,神奈川県,横浜市西区,みなとみらいクイーンズタワーＢ（７階）,カナガワケン,ヨコハマシニシク,ミナトミライクイーンズタワーB(7カイ),神奈川県横浜市西区みなとみらいクイーンズタワーＢ（7階）
2206108,神奈川県,横浜市西区,みなとみらいクイーンズタワーＢ（８階）,カナガワケン,ヨコハマシニシク,ミナトミライクイーンズタワーB(8カイ),神奈川県横浜市西区みなとみらいクイーンズタワーＢ（8階）
2206109,神奈川県,横浜市西区,みなとみらいクイーンズタワーＢ（９階）,カナガワケン,ヨコハマシニシク,ミナトミライクイーンズタワーB(9カイ),神奈川県横浜市西区みなとみらいクイーンズタワーＢ（9階）
2206110,神奈川県,横浜市西区,みなとみらいクイーンズタワーＢ（１０階）,カナガワケン,ヨコハマシニシク,ミナトミライクイーンズタワーB(10カイ),神奈川県横浜市西区みなとみらいクイーンズタワーＢ（10階）
2206111,神奈川県,横浜市西区,みなとみらいクイーンズタワーＢ（１１階）,カナガワケン,ヨコハマシニシク,ミナトミライクイーンズタワーB(11カイ),神奈川県横浜市西区みなとみらいクイーンズタワーＢ（11階）
2206112,神奈川県,横浜市西区,みなとみらいクイーンズタワーＢ（１２階）,カナガワケン,ヨコハマシニシク,ミナトミライクイーンズタワーB(12カイ),神奈川県横浜市西区みなとみらいクイーンズタワーＢ（12階）
2206113,神奈川県,横浜市西区,みなとみらいクイーンズタワーＢ（１３階）,カナガワケン,ヨコハマシニシク,ミナトミライクイーンズタワーB(13カイ),神奈川県横浜市西区みなとみらいクイーンズタワーＢ（13階）
2206114,神奈川県,横浜市西区,みなとみらいクイーンズタワーＢ（１４階）,カナガワケン,ヨコハマシニシク,ミナトミライクイーンズタワーB(14カイ),神奈川県横浜市西区みなとみらいクイーンズタワーＢ（14階）
2206115,神奈川県,横浜市西区,みなとみらいクイーンズタワーＢ（１５階）,カナガワケン,ヨコハマシニシク,ミナトミライクイーンズタワーB(15カイ),神奈川県横浜市西区みなとみらいクイーンズタワーＢ（15階）
2206116,神奈川県,横浜市西区,みなとみらいクイーンズタワーＢ（１６階）,カナガワケン,ヨコハマシニシク,ミナトミライクイーンズタワーB(16カイ),神奈川県横浜市西区みなとみらいクイーンズタワーＢ（16階）
2206117,神奈川県,横浜市西区,みなとみらいクイーンズタワーＢ（１７階）,カナガワケン,ヨコハマシニシク,ミナトミライクイーンズタワーB(17カイ),神奈川県横浜市西区みなとみらいクイーンズタワーＢ（17階）
2206118,神奈川県,横浜市西区,みなとみらいクイーンズタワーＢ（１８階）,カナガワケン,ヨコハマシニシク,ミナトミライクイーンズタワーB(18カイ),神奈川県横浜市西区みなとみらいクイーンズタワーＢ（18階）
2206119,神奈川県,横浜市西区,みなとみらいクイーンズタワーＢ（１９階）,カナガワケン,ヨコハマシニシク,ミナトミライクイーンズタワーB(19カイ),神奈川県横浜市西区みなとみらいクイーンズタワーＢ（19階）
2206120,神奈川県,横浜市西区,みなとみらいクイーンズタワーＢ（２０階）,カナガワケン,ヨコハマシニシク,ミナトミライクイーンズタワーB(20カイ),神奈川県横浜市西区みなとみらいクイーンズタワーＢ（20階）
2206121,神奈川県,横浜市西区,みなとみらいクイーンズタワーＢ（２１階）,カナガワケン,ヨコハマシニシク,ミナトミライクイーンズタワーB(21カイ),神奈川県横浜市西区みなとみらいクイーンズタワーＢ（21階）
2206122,神奈川県,横浜市西区,みなとみらいクイーンズタワーＢ（２２階）,カナガワケン,ヨコハマシニシク,ミナトミライクイーンズタワーB(22カイ),神奈川県横浜市西区みなとみらいクイーンズタワーＢ（22階）
2206123,神奈川県,横浜市西区,みなとみらいクイーンズタワーＢ（２３階）,カナガワケン,ヨコハマシニシク,ミナトミライクイーンズタワーB(23カイ),神奈川県横浜市西区みなとみらいクイーンズタワーＢ（23階）
2206124,神奈川県,横浜市西区,みなとみらいクイーンズタワーＢ（２４階）,カナガワケン,ヨコハマシニシク,ミナトミライクイーンズタワーB(24カイ),神奈川県横浜市西区みなとみらいクイーンズタワーＢ（24階）
2206125,神奈川県,横浜市西区,みなとみらいクイーンズタワーＢ（２５階）,カナガワケン,ヨコハマシニシク,ミナトミライクイーンズタワーB(25カイ),神奈川県横浜市西区みなとみらいクイーンズタワーＢ（25階）
2206126,神奈川県,横浜市西区,みなとみらいクイーンズタワーＢ（２６階）,カナガワケン,ヨコハマシニシク,ミナトミライクイーンズタワーB(26カイ),神奈川県横浜市西区みなとみらいクイーンズタワーＢ（26階）
2206127,神奈川県,横浜市西区,みなとみらいクイーンズタワーＢ（２７階）,カナガワケン,ヨコハマシニシク,ミナトミライクイーンズタワーB(27カイ),神奈川県横浜市西区みなとみらいクイーンズタワーＢ（27階）
2206128,神奈川県,横浜市西区,みなとみらいクイーンズタワーＢ（２８階）,カナガワケン,ヨコハマシニシク,ミナトミライクイーンズタワーB(28カイ),神奈川県横浜市西区みなとみらいクイーンズタワーＢ（28階）
2206190,神奈川県,横浜市西区,みなとみらいクイーンズタワーＢ（地階・階層不明）,カナガワケン,ヨコハマシニシク,ミナトミライクイーンズタワーB(チカイ・カイソウフメイ),神奈川県横浜市西区みなとみらいクイーンズタワーＢ（地階・階層不明）
2206201,神奈川県,横浜市西区,みなとみらいクイーンズタワーＣ（１階）,カナガワケン,ヨコハマシニシク,ミナトミライクイーンズタワーC(1カイ),神奈川県横浜市西区みなとみらいクイーンズタワーＣ（1階）
2206202,神奈川県,横浜市西区,みなとみらいクイーンズタワーＣ（２階）,カナガワケン,ヨコハマシニシク,ミナトミライクイーンズタワーC(2カイ),神奈川県横浜市西区みなとみらいクイーンズタワーＣ（2階）
2206203,神奈川県,横浜市西区,みなとみらいクイーンズタワーＣ（３階）,カナガワケン,ヨコハマシニシク,ミナトミライクイーンズタワーC(3カイ),神奈川県横浜市西区みなとみらいクイーンズタワーＣ（3階）
2206204,神奈川県,横浜市西区,みなとみらいクイーンズタワーＣ（４階）,カナガワケン,ヨコハマシニシク,ミナトミライクイーンズタワーC(4カイ),神奈川県横浜市西区みなとみらいクイーンズタワーＣ（4階）
2206205,神奈川県,横浜市西区,みなとみらいクイーンズタワーＣ（５階）,カナガワケン,ヨコハマシニシク,ミナトミライクイーンズタワーC(5カイ),神奈川県横浜市西区みなとみらいクイーンズタワーＣ（5階）
2206206,神奈川県,横浜市西区,みなとみらいクイーンズタワーＣ（６階）,カナガワケン,ヨコハマシニシク,ミナトミライクイーンズタワーC(6カイ),神奈川県横浜市西区みなとみらいクイーンズタワーＣ（6階）
2206207,神奈川県,横浜市西区,みなとみらいクイーンズタワーＣ（７階）,カナガワケン,ヨコハマシニシク,ミナトミライクイーンズタワーC(7カイ),神奈川県横浜市西区みなとみらいクイーンズタワーＣ（7階）
2206208,神奈川県,横浜市西区,みなとみらいクイーンズタワーＣ（８階）,カナガワケン,ヨコハマシニシク,ミナトミライクイーンズタワーC(8カイ),神奈川県横浜市西区みなとみらいクイーンズタワーＣ（8階）
2206209,神奈川県,横浜市西区,みなとみらいクイーンズタワーＣ（９階）,カナガワケン,ヨコハマシニシク,ミナトミライクイーンズタワーC(9カイ),神奈川県横浜市西区みなとみらいクイーンズタワーＣ（9階）
2206210,神奈川県,横浜市西区,みなとみらいクイーンズタワーＣ（１０階）,カナガワケン,ヨコハマシニシク,ミナトミライクイーンズタワーC(10カイ),神奈川県横浜市西区みなとみらいクイーンズタワーＣ（10階）
2206211,神奈川県,横浜市西区,みなとみらいクイーンズタワーＣ（１１階）,カナガワケン,ヨコハマシニシク,ミナトミライクイーンズタワーC(11カイ),神奈川県横浜市西区みなとみらいクイーンズタワーＣ（11階）
2206212,神奈川県,横浜市西区,みなとみらいクイーンズタワーＣ（１２階）,カナガワケン,ヨコハマシニシク,ミナトミライクイーンズタワーC(12カイ),神奈川県横浜市西区みなとみらいクイーンズタワーＣ（12階）
2206213,神奈川県,横浜市西区,みなとみらいクイーンズタワーＣ（１３階）,カナガワケン,ヨコハマシニシク,ミナトミライクイーンズタワーC(13カイ),神奈川県横浜市西区みなとみらいクイーンズタワーＣ（13階）
2206214,神奈川県,横浜市西区,みなとみらいクイーンズタワーＣ（１４階）,カナガワケン,ヨコハマシニシク,ミナトミライクイーンズタワーC(14カイ),神奈川県横浜市西区みなとみらいクイーンズタワーＣ（14階）
2206215,神奈川県,横浜市西区,みなとみらいクイーンズタワーＣ（１５階）,カナガワケン,ヨコハマシニシク,ミナトミライクイーンズタワーC(15カイ),神奈川県横浜市西区みなとみらいクイーンズタワーＣ（15階）
2206216,神奈川県,横浜市西区,みなとみらいクイーンズタワーＣ（１６階）,カナガワケン,ヨコハマシニシク,ミナトミライクイーンズタワーC(16カイ),神奈川県横浜市西区みなとみらいクイーンズタワーＣ（16階）
2206217,神奈川県,横浜市西区,みなとみらいクイーンズタワーＣ（１７階）,カナガワケン,ヨコハマシニシク,ミナトミライクイーンズタワーC(17カイ),神奈川県横浜市西区みなとみらいクイーンズタワーＣ（17階）
2206218,神奈川県,横浜市西区,みなとみらいクイーンズタワーＣ（１８階）,カナガワケン,ヨコハマシニシク,ミナトミライクイーンズタワーC(18カイ),神奈川県横浜市西区みなとみらいクイーンズタワーＣ（18階）
2206219,神奈川県,横浜市西区,みなとみらいクイーンズタワーＣ（１９階）,カナガワケン,ヨコハマシニシク,ミナトミライクイーンズタワーC(19カイ),神奈川県横浜市西区みなとみらいクイーンズタワーＣ（19階）
2206220,神奈川県,横浜市西区,みなとみらいクイーンズタワーＣ（２０階）,カナガワケン,ヨコハマシニシク,ミナトミライクイーンズタワーC(20カイ),神奈川県横浜市西区みなとみらいクイーンズタワーＣ（20階）
2206221,神奈川県,横浜市西区,みなとみらいクイーンズタワーＣ（２１階）,カナガワケン,ヨコハマシニシク,ミナトミライクイーンズタワーC(21カイ),神奈川県横浜市西区みなとみらいクイーンズタワーＣ（21階）
2206290,神奈川県,横浜市西区,みなとみらいクイーンズタワーＣ（地階・階層不明）,カナガワケン,ヨコハマシニシク,ミナトミライクイーンズタワーC(チカイ・カイソウフメイ),神奈川県横浜市西区みなとみらいクイーンズタワーＣ（地階・階層不明）
2208101,神奈川県,横浜市西区,みなとみらいランドマークタワー（１階）,カナガワケン,ヨコハマシニシク,ミナトミライランドマークタワー(1カイ),神奈川県横浜市西区みなとみらいランドマークタワー（1階）
2208102,神奈川県,横浜市西区,みなとみらいランドマークタワー（２階）,カナガワケン,ヨコハマシニシク,ミナトミライランドマークタワー(2カイ),神奈川県横浜市西区みなとみらいランドマークタワー（2階）
2208103,神奈川県,横浜市西区,みなとみらいランドマークタワー（３階）,カナガワケン,ヨコハマシニシク,ミナトミライランドマークタワー(3カイ),神奈川県横浜市西区みなとみらいランドマークタワー（3階）
2208104,神奈川県,横浜市西区,みなとみらいランドマークタワー（４階）,カナガワケン,ヨコハマシニシク,ミナトミライランドマークタワー(4カイ),神奈川県横浜市西区みなとみらいランドマークタワー（4階）
2208105,神奈川県,横浜市西区,みなとみらいランドマークタワー（５階）,カナガワケン,ヨコハマシニシク,ミナトミライランドマークタワー(5カイ),神奈川県横浜市西区みなとみらいランドマークタワー（5階）
2208106,神奈川県,横浜市西区,みなとみらいランドマークタワー（６階）,カナガワケン,ヨコハマシニシク,ミナトミライランドマークタワー(6カイ),神奈川県横浜市西区みなとみらいランドマークタワー（6階）
2208107,神奈川県,横浜市西区,みなとみらいランドマークタワー（７階）,カナガワケン,ヨコハマシニシク,ミナトミライランドマークタワー(7カイ),神奈川県横浜市西区みなとみらいランドマークタワー（7階）
2208108,神奈川県,横浜市西区,みなとみらいランドマークタワー（８階）,カナガワケン,ヨコハマシニシク,ミナトミライランドマークタワー(8カイ),神奈川県横浜市西区みなとみらいランドマークタワー（8階）
2208109,神奈川県,横浜市西区,みなとみらいランドマークタワー（９階）,カナガワケン,ヨコハマシニシク,ミナトミライランドマークタワー(9カイ),神奈川県横浜市西区みなとみらいランドマークタワー（9階）
2208110,神奈川県,横浜市西区,みなとみらいランドマークタワー（１０階）,カナガワケン,ヨコハマシニシク,ミナトミライランドマークタワー(10カイ),神奈川県横浜市西区みなとみらいランドマークタワー（10階）
2208111,神奈川県,横浜市西区,みなとみらいランドマークタワー（１１階）,カナガワケン,ヨコハマシニシク,ミナトミライランドマークタワー(11カイ),神奈川県横浜市西区みなとみらいランドマークタワー（11階）
2208112,神奈川県,横浜市西区,みなとみらいランドマークタワー（１２階）,カナガワケン,ヨコハマシニシク,ミナトミライランドマークタワー(12カイ),神奈川県横浜市西区みなとみらいランドマークタワー（12階）
2208113,神奈川県,横浜市西区,みなとみらいランドマークタワー（１３階）,カナガワケン,ヨコハマシニシク,ミナトミライランドマークタワー(13カイ),神奈川県横浜市西区みなとみらいランドマークタワー（13階）
2208114,神奈川県,横浜市西区,みなとみらいランドマークタワー（１４階）,カナガワケン,ヨコハマシニシク,ミナトミライランドマークタワー(14カイ),神奈川県横浜市西区みなとみらいランドマークタワー（14階）
2208115,神奈川県,横浜市西区,みなとみらいランドマークタワー（１５階）,カナガワケン,ヨコハマシニシク,ミナトミライランドマークタワー(15カイ),神奈川県横浜市西区みなとみらいランドマークタワー（15階）
2208116,神奈川県,横浜市西区,みなとみらいランドマークタワー（１６階）,カナガワケン,ヨコハマシニシク,ミナトミライランドマークタワー(16カイ),神奈川県横浜市西区みなとみらいランドマークタワー（16階）
2208117,神奈川県,横浜市西区,みなとみらいランドマークタワー（１７階）,カナガワケン,ヨコハマシニシク,ミナトミライランドマークタワー(17カイ),神奈川県横浜市西区みなとみらいランドマークタワー（17階）
2208118,神奈川県,横浜市西区,みなとみらいランドマークタワー（１８階）,カナガワケン,ヨコハマシニシク,ミナトミライランドマークタワー(18カイ),神奈川県横浜市西区みなとみらいランドマークタワー（18階）
2208119,神奈川県,横浜市西区,みなとみらいランドマークタワー（１９階）,カナガワケン,ヨコハマシニシク,ミナトミライランドマークタワー(19カイ),神奈川県横浜市西区みなとみらいランドマークタワー（19階）
2208120,神奈川県,横浜市西区,みなとみらいランドマークタワー（２０階）,カナガワケン,ヨコハマシニシク,ミナトミライランドマークタワー(20カイ),神奈川県横浜市西区みなとみらいランドマークタワー（20階）
2208121,神奈川県,横浜市西区,みなとみらいランドマークタワー（２１階）,カナガワケン,ヨコハマシニシク,ミナトミライランドマークタワー(21カイ),神奈川県横浜市西区みなとみらいランドマークタワー（21階）
2208122,神奈川県,横浜市西区,みなとみらいランドマークタワー（２２階）,カナガワケン,ヨコハマシニシク,ミナトミライランドマークタワー(22カイ),神奈川県横浜市西区みなとみらいランドマークタワー（22階）
2208123,神奈川県,横浜市西区,みなとみらいランドマークタワー（２３階）,カナガワケン,ヨコハマシニシク,ミナトミライランドマークタワー(23カイ),神奈川県横浜市西区みなとみらいランドマークタワー（23階）
2208124,神奈川県,横浜市西区,みなとみらいランドマークタワー（２４階）,カナガワケン,ヨコハマシニシク,ミナトミライランドマークタワー(24カイ),神奈川県横浜市西区みなとみらいランドマークタワー（24階）
2208125,神奈川県,横浜市西区,みなとみらいランドマークタワー（２５階）,カナガワケン,ヨコハマシニシク,ミナトミライランドマークタワー(25カイ),神奈川県横浜市西区みなとみらいランドマークタワー（25階）
2208126,神奈川県,横浜市西区,みなとみらいランドマークタワー（２６階）,カナガワケン,ヨコハマシニシク,ミナトミライランドマークタワー(26カイ),神奈川県横浜市西区みなとみらいランドマークタワー（26階）
2208127,神奈川県,横浜市西区,みなとみらいランドマークタワー（２７階）,カナガワケン,ヨコハマシニシク,ミナトミライランドマークタワー(27カイ),神奈川県横浜市西区みなとみらいランドマークタワー（27階）
2208128,神奈川県,横浜市西区,みなとみらいランドマークタワー（２８階）,カナガワケン,ヨコハマシニシク,ミナトミライランドマークタワー(28カイ),神奈川県横浜市西区みなとみらいランドマークタワー（28階）
2208129,神奈川県,横浜市西区,みなとみらいランドマークタワー（２９階）,カナガワケン,ヨコハマシニシク,ミナトミライランドマークタワー(29カイ),神奈川県横浜市西区みなとみらいランドマークタワー（29階）
2208130,神奈川県,横浜市西区,みなとみらいランドマークタワー（３０階）,カナガワケン,ヨコハマシニシク,ミナトミライランドマークタワー(30カイ),神奈川県横浜市西区みなとみらいランドマークタワー（30階）
2208131,神奈川県,横浜市西区,みなとみらいランドマークタワー（３１階）,カナガワケン,ヨコハマシニシク,ミナトミライランドマークタワー(31カイ),神奈川県横浜市西区みなとみらいランドマークタワー（31階）
2208132,神奈川県,横浜市西区,みなとみらいランドマークタワー（３２階）,カナガワケン,ヨコハマシニシク,ミナトミライランドマークタワー(32カイ),神奈川県横浜市西区みなとみらいランドマークタワー（32階）
2208133,神奈川県,横浜市西区,みなとみらいランドマークタワー（３３階）,カナガワケン,ヨコハマシニシク,ミナトミライランドマークタワー(33カイ),神奈川県横浜市西区みなとみらいランドマークタワー（33階）
2208134,神奈川県,横浜市西区,みなとみらいランドマークタワー（３４階）,カナガワケン,ヨコハマシニシク,ミナトミライランドマークタワー(34カイ),神奈川県横浜市西区みなとみらいランドマークタワー（34階）
2208135,神奈川県,横浜市西区,みなとみらいランドマークタワー（３５階）,カナガワケン,ヨコハマシニシク,ミナトミライランドマークタワー(35カイ),神奈川県横浜市西区みなとみらいランドマークタワー（35階）
2208136,神奈川県,横浜市西区,みなとみらいランドマークタワー（３６階）,カナガワケン,ヨコハマシニシク,ミナトミライランドマークタワー(36カイ),神奈川県横浜市西区みなとみらいランドマークタワー（36階）
2208137,神奈川県,横浜市西区,みなとみらいランドマークタワー（３７階）,カナガワケン,ヨコハマシニシク,ミナトミライランドマークタワー(37カイ),神奈川県横浜市西区みなとみらいランドマークタワー（37階）
2208138,神奈川県,横浜市西区,みなとみらいランドマークタワー（３８階）,カナガワケン,ヨコハマシニシク,ミナトミライランドマークタワー(38カイ),神奈川県横浜市西区みなとみらいランドマークタワー（38階）
2208139,神奈川県,横浜市西区,みなとみらいランドマークタワー（３９階）,カナガワケン,ヨコハマシニシク,ミナトミライランドマークタワー(39カイ),神奈川県横浜市西区みなとみらいランドマークタワー（39階）
2208140,神奈川県,横浜市西区,みなとみらいランドマークタワー（４０階）,カナガワケン,ヨコハマシニシク,ミナトミライランドマークタワー(40カイ),神奈川県横浜市西区みなとみらいランドマークタワー（40階）
2208141,神奈川県,横浜市西区,みなとみらいランドマークタワー（４１階）,カナガワケン,ヨコハマシニシク,ミナトミライランドマークタワー(41カイ),神奈川県横浜市西区みなとみらいランドマークタワー（41階）
2208142,神奈川県,横浜市西区,みなとみらいランドマークタワー（４２階）,カナガワケン,ヨコハマシニシク,ミナトミライランドマークタワー(42カイ),神奈川県横浜市西区みなとみらいランドマークタワー（42階）
2208143,神奈川県,横浜市西区,みなとみらいランドマークタワー（４３階）,カナガワケン,ヨコハマシニシク,ミナトミライランドマークタワー(43カイ),神奈川県横浜市西区みなとみらいランドマークタワー（43階）
2208144,神奈川県,横浜市西区,みなとみらいランドマークタワー（４４階）,カナガワケン,ヨコハマシニシク,ミナトミライランドマークタワー(44カイ),神奈川県横浜市西区みなとみらいランドマークタワー（44階）
2208145,神奈川県,横浜市西区,みなとみらいランドマークタワー（４５階）,カナガワケン,ヨコハマシニシク,ミナトミライランドマークタワー(45カイ),神奈川県横浜市西区みなとみらいランドマークタワー（45階）
2208146,神奈川県,横浜市西区,みなとみらいランドマークタワー（４６階）,カナガワケン,ヨコハマシニシク,ミナトミライランドマークタワー(46カイ),神奈川県横浜市西区みなとみらいランドマークタワー（46階）
2208147,神奈川県,横浜市西区,みなとみらいランドマークタワー（４７階）,カナガワケン,ヨコハマシニシク,ミナトミライランドマークタワー(47カイ),神奈川県横浜市西区みなとみらいランドマークタワー（47階）
2208148,神奈川県,横浜市西区,みなとみらいランドマークタワー（４８階）,カナガワケン,ヨコハマシニシク,ミナトミライランドマークタワー(48カイ),神奈川県横浜市西区みなとみらいランドマークタワー（48階）
2208149,神奈川県,横浜市西区,みなとみらいランドマークタワー（４９階）,カナガワケン,ヨコハマシニシク,ミナトミライランドマークタワー(49カイ),神奈川県横浜市西区みなとみらいランドマークタワー（49階）
2208150,神奈川県,横浜市西区,みなとみらいランドマークタワー（５０階）,カナガワケン,ヨコハマシニシク,ミナトミライランドマークタワー(50カイ),神奈川県横浜市西区みなとみらいランドマークタワー（50階）
2208151,神奈川県,横浜市西区,みなとみらいランドマークタワー（５１階）,カナガワケン,ヨコハマシニシク,ミナトミライランドマークタワー(51カイ),神奈川県横浜市西区みなとみらいランドマークタワー（51階）
2208152,神奈川県,横浜市西区,みなとみらいランドマークタワー（５２階）,カナガワケン,ヨコハマシニシク,ミナトミライランドマークタワー(52カイ),神奈川県横浜市西区みなとみらいランドマークタワー（52階）
2208153,神奈川県,横浜市西区,みなとみらいランドマークタワー（５３階）,カナガワケン,ヨコハマシニシク,ミナトミライランドマークタワー(53カイ),神奈川県横浜市西区みなとみらいランドマークタワー（53階）
2208154,神奈川県,横浜市西区,みなとみらいランドマークタワー（５４階）,カナガワケン,ヨコハマシニシク,ミナトミライランドマークタワー(54カイ),神奈川県横浜市西区みなとみらいランドマークタワー（54階）
2208155,神奈川県,横浜市西区,みなとみらいランドマークタワー（５５階）,カナガワケン,ヨコハマシニシク,ミナトミライランドマークタワー(55カイ),神奈川県横浜市西区みなとみらいランドマークタワー（55階）
2208156,神奈川県,横浜市西区,みなとみらいランドマークタワー（５６階）,カナガワケン,ヨコハマシニシク,ミナトミライランドマークタワー(56カイ),神奈川県横浜市西区みなとみらいランドマークタワー（56階）
2208157,神奈川県,横浜市西区,みなとみらいランドマークタワー（５７階）,カナガワケン,ヨコハマシニシク,ミナトミライランドマークタワー(57カイ),神奈川県横浜市西区みなとみらいランドマークタワー（57階）
2208158,神奈川県,横浜市西区,みなとみらいランドマークタワー（５８階）,カナガワケン,ヨコハマシニシク,ミナトミライランドマークタワー(58カイ),神奈川県横浜市西区みなとみらいランドマークタワー（58階）
2208159,神奈川県,横浜市西区,みなとみらいランドマークタワー（５９階）,カナガワケン,ヨコハマシニシク,ミナトミライランドマークタワー(59カイ),神奈川県横浜市西区みなとみらいランドマークタワー（59階）
2208160,神奈川県,横浜市西区,みなとみらいランドマークタワー（６０階）,カナガワケン,ヨコハマシニシク,ミナトミライランドマークタワー(60カイ),神奈川県横浜市西区みなとみらいランドマークタワー（60階）
2208161,神奈川県,横浜市西区,みなとみらいランドマークタワー（６１階）,カナガワケン,ヨコハマシニシク,ミナトミライランドマークタワー(61カイ),神奈川県横浜市西区みなとみらいランドマークタワー（61階）
2208162,神奈川県,横浜市西区,みなとみらいランドマークタワー（６２階）,カナガワケン,ヨコハマシニシク,ミナトミライランドマークタワー(62カイ),神奈川県横浜市西区みなとみらいランドマークタワー（62階）
2208163,神奈川県,横浜市西区,みなとみらいランドマークタワー（６３階）,カナガワケン,ヨコハマシニシク,ミナトミライランドマークタワー(63カイ),神奈川県横浜市西区みなとみらいランドマークタワー（63階）
2208164,神奈川県,横浜市西区,みなとみらいランドマークタワー（６４階）,カナガワケン,ヨコハマシニシク,ミナトミライランドマークタワー(64カイ),神奈川県横浜市西区みなとみらいランドマークタワー（64階）
2208165,神奈川県,横浜市西区,みなとみらいランドマークタワー（６５階）,カナガワケン,ヨコハマシニシク,ミナトミライランドマークタワー(65カイ),神奈川県横浜市西区みなとみらいランドマークタワー（65階）
2208166,神奈川県,横浜市西区,みなとみらいランドマークタワー（６６階）,カナガワケン,ヨコハマシニシク,ミナトミライランドマークタワー(66カイ),神奈川県横浜市西区みなとみらいランドマークタワー（66階）
2208167,神奈川県,横浜市西区,みなとみらいランドマークタワー（６７階）,カナガワケン,ヨコハマシニシク,ミナトミライランドマークタワー(67カイ),神奈川県横浜市西区みなとみらいランドマークタワー（67階）
2208168,神奈川県,横浜市西区,みなとみらいランドマークタワー（６８階）,カナガワケン,ヨコハマシニシク,ミナトミライランドマークタワー(68カイ),神奈川県横浜市西区みなとみらいランドマークタワー（68階）
2208169,神奈川県,横浜市西区,みなとみらいランドマークタワー（６９階）,カナガワケン,ヨコハマシニシク,ミナトミライランドマークタワー(69カイ),神奈川県横浜市西区みなとみらいランドマークタワー（69階）
2208170,神奈川県,横浜市西区,みなとみらいランドマークタワー（７０階）,カナガワケン,ヨコハマシニシク,ミナトミライランドマークタワー(70カイ),神奈川県横浜市西区みなとみらいランドマークタワー（70階）
2208190,神奈川県,横浜市西区,みなとみらいランドマークタワー（地階・階層不明）,カナガワケン,ヨコハマシニシク,ミナトミライランドマークタワー(チカイ・カイソウフメイ),神奈川県横浜市西区みなとみらいランドマークタワー（地階・階層不明）
2210000,神奈川県,横浜市神奈川区,,カナガワケン,ヨコハマシカナガワク,,神奈川県横浜市神奈川区
2210001,神奈川県,横浜市神奈川区,西寺尾,カナガワケン,ヨコハマシカナガワク,ニシテラオ,神奈川県横浜市神奈川区西寺尾
2210002,神奈川県,横浜市神奈川区,大口通,カナガワケン,ヨコハマシカナガワク,オオグチドオリ,神奈川県横浜市神奈川区大口通
2210003,神奈川県,横浜市神奈川区,大口仲町,カナガワケン,ヨコハマシカナガワク,オオグチナカマチ,神奈川県横浜市神奈川区大口仲町
2210004,神奈川県,横浜市神奈川区,西大口,カナガワケン,ヨコハマシカナガワク,ニシオオグチ,神奈川県横浜市神奈川区西大口
2210005,神奈川県,横浜市神奈川区,松見町,カナガワケン,ヨコハマシカナガワク,マツミチョウ,神奈川県横浜市神奈川区松見町
2210011,神奈川県,横浜市神奈川区,神之木台,カナガワケン,ヨコハマシカナガワク,カミノキダイ,神奈川県横浜市神奈川区神之木台
2210012,神奈川県,横浜市神奈川区,子安台,カナガワケン,ヨコハマシカナガワク,コヤスダイ,神奈川県横浜市神奈川区子安台
2210013,神奈川県,横浜市神奈川区,新子安,カナガワケン,ヨコハマシカナガワク,シンコヤス,神奈川県横浜市神奈川区新子安
2210014,神奈川県,横浜市神奈川区,入江,カナガワケン,ヨコハマシカナガワク,イリエ,神奈川県横浜市神奈川区入江
2210015,神奈川県,横浜市神奈川区,神之木町,カナガワケン,ヨコハマシカナガワク,カミノキチョウ,神奈川県横浜市神奈川区神之木町
2210021,神奈川県,横浜市神奈川区,子安通,カナガワケン,ヨコハマシカナガワク,コヤスドオリ,神奈川県横浜市神奈川区子安通
2210022,神奈川県,横浜市神奈川区,守屋町,カナガワケン,ヨコハマシカナガワク,モリヤチョウ,神奈川県横浜市神奈川区守屋町
2210023,神奈川県,横浜市神奈川区,宝町,カナガワケン,ヨコハマシカナガワク,タカラチョウ,神奈川県横浜市神奈川区宝町
2210024,神奈川県,横浜市神奈川区,恵比須町,カナガワケン,ヨコハマシカナガワク,エビスチョウ,神奈川県横浜市神奈川区恵比須町
2210031,神奈川県,横浜市神奈川区,新浦島町,カナガワケン,ヨコハマシカナガワク,シンウラシマチョウ,神奈川県横浜市神奈川区新浦島町
2210032,神奈川県,横浜市神奈川区,出田町,カナガワケン,ヨコハマシカナガワク,イズタチョウ,神奈川県横浜市神奈川区出田町
2210033,神奈川県,横浜市神奈川区,鈴繁町,カナガワケン,ヨコハマシカナガワク,スズシゲチョウ,神奈川県横浜市神奈川区鈴繁町
2210034,神奈川県,横浜市神奈川区,瑞穂町,カナガワケン,ヨコハマシカナガワク,ミズホチョウ,神奈川県横浜市神奈川区瑞穂町
2210035,神奈川県,横浜市神奈川区,星野町,カナガワケン,ヨコハマシカナガワク,ホシノチョウ,神奈川県横浜市神奈川区星野町
2210036,神奈川県,横浜市神奈川区,千若町,カナガワケン,ヨコハマシカナガワク,チワカチョウ,神奈川県横浜市神奈川区千若町
2210041,神奈川県,横浜市神奈川区,亀住町,カナガワケン,ヨコハマシカナガワク,カメズミチョウ,神奈川県横浜市神奈川区亀住町
2210042,神奈川県,横浜市神奈川区,浦島町,カナガワケン,ヨコハマシカナガワク,ウラシマチョウ,神奈川県横浜市神奈川区浦島町
2210043,神奈川県,横浜市神奈川区,新町,カナガワケン,ヨコハマシカナガワク,シンマチ,神奈川県横浜市神奈川区新町
2210044,神奈川県,横浜市神奈川区,東神奈川,カナガワケン,ヨコハマシカナガワク,ヒガシカナガワ,神奈川県横浜市神奈川区東神奈川
2210045,神奈川県,横浜市神奈川区,神奈川,カナガワケン,ヨコハマシカナガワク,カナガワ,神奈川県横浜市神奈川区神奈川
2210046,神奈川県,横浜市神奈川区,神奈川本町,カナガワケン,ヨコハマシカナガワク,カナガワホンチョウ,神奈川県横浜市神奈川区神奈川本町
2210051,神奈川県,横浜市神奈川区,幸ケ谷,カナガワケン,ヨコハマシカナガワク,コウガヤ,神奈川県横浜市神奈川区幸ケ谷
2210052,神奈川県,横浜市神奈川区,栄町,カナガワケン,ヨコハマシカナガワク,サカエチョウ,神奈川県横浜市神奈川区栄町
2210053,神奈川県,横浜市神奈川区,橋本町,カナガワケン,ヨコハマシカナガワク,ハシモトチョウ,神奈川県横浜市神奈川区橋本町
2210054,神奈川県,横浜市神奈川区,山内町,カナガワケン,ヨコハマシカナガワク,ヤマノウチチョウ,神奈川県横浜市神奈川区山内町
2210055,神奈川県,横浜市神奈川区,大野町,カナガワケン,ヨコハマシカナガワク,オオノチョウ,神奈川県横浜市神奈川区大野町
2210056,神奈川県,横浜市神奈川区,金港町,カナガワケン,ヨコハマシカナガワク,キンコウチョウ,神奈川県横浜市神奈川区金港町
2210057,神奈川県,横浜市神奈川区,青木町,カナガワケン,ヨコハマシカナガワク,アオキチョウ,神奈川県横浜市神奈川区青木町
2210061,神奈川県,横浜市神奈川区,七島町,カナガワケン,ヨコハマシカナガワク,ナナシマチョウ,神奈川県横浜市神奈川区七島町
2210062,神奈川県,横浜市神奈川区,浦島丘,カナガワケン,ヨコハマシカナガワク,ウラシマオカ,神奈川県横浜市神奈川区浦島丘
2210063,神奈川県,横浜市神奈川区,立町,カナガワケン,ヨコハマシカナガワク,タテマチ,神奈川県横浜市神奈川区立町
2210064,神奈川県,横浜市神奈川区,鳥越,カナガワケン,ヨコハマシカナガワク,トリゴエ,神奈川県横浜市神奈川区鳥越
2210065,神奈川県,横浜市神奈川区,白楽,カナガワケン,ヨコハマシカナガワク,ハクラク,神奈川県横浜市神奈川区白楽
2210071,神奈川県,横浜市神奈川区,白幡仲町,カナガワケン,ヨコハマシカナガワク,シラハタナカチョウ,神奈川県横浜市神奈川区白幡仲町
2210072,神奈川県,横浜市神奈川区,白幡東町,カナガワケン,ヨコハマシカナガワク,シラハタヒガシチョウ,神奈川県横浜市神奈川区白幡東町
2210073,神奈川県,横浜市神奈川区,白幡南町,カナガワケン,ヨコハマシカナガワク,シラハタミナミチョウ,神奈川県横浜市神奈川区白幡南町
2210074,神奈川県,横浜市神奈川区,白幡西町,カナガワケン,ヨコハマシカナガワク,シラハタニシチョウ,神奈川県横浜市神奈川区白幡西町
2210075,神奈川県,横浜市神奈川区,白幡上町,カナガワケン,ヨコハマシカナガワク,シラハタカミチョウ,神奈川県横浜市神奈川区白幡上町
2210076,神奈川県,横浜市神奈川区,白幡町,カナガワケン,ヨコハマシカナガワク,シラハタチョウ,神奈川県横浜市神奈川区白幡町
2210077,神奈川県,横浜市神奈川区,白幡向町,カナガワケン,ヨコハマシカナガワク,シラハタムカイチョウ,神奈川県横浜市神奈川区白幡向町
2210801,神奈川県,横浜市神奈川区,神大寺,カナガワケン,ヨコハマシカナガワク,カンダイジ,神奈川県横浜市神奈川区神大寺
2210802,神奈川県,横浜市神奈川区,六角橋,カナガワケン,ヨコハマシカナガワク,ロッカクバシ,神奈川県横浜市神奈川区六角橋
2210803,神奈川県,横浜市神奈川区,中丸,カナガワケン,ヨコハマシカナガワク,ナカマル,神奈川県横浜市神奈川区中丸
2210804,神奈川県,横浜市神奈川区,栗田谷,カナガワケン,ヨコハマシカナガワク,クリタヤ,神奈川県横浜市神奈川区栗田谷
2210811,神奈川県,横浜市神奈川区,斎藤分町,カナガワケン,ヨコハマシカナガワク,サイトウブンチョウ,神奈川県横浜市神奈川区斎藤分町
2210812,神奈川県,横浜市神奈川区,平川町,カナガワケン,ヨコハマシカナガワク,ヒラカワチョウ,神奈川県横浜市神奈川区平川町
2210813,神奈川県,横浜市神奈川区,二本榎,カナガワケン,ヨコハマシカナガワク,ニホンエノキ,神奈川県横浜市神奈川区二本榎
2210814,神奈川県,横浜市神奈川区,旭ケ丘,カナガワケン,ヨコハマシカナガワク,アサヒガオカ,神奈川県横浜市神奈川区旭ケ丘
2210821,神奈川県,横浜市神奈川区,富家町,カナガワケン,ヨコハマシカナガワク,トミヤチョウ,神奈川県横浜市神奈川区富家町
2210822,神奈川県,横浜市神奈川区,西神奈川,カナガワケン,ヨコハマシカナガワク,ニシカナガワ,神奈川県横浜市神奈川区西神奈川
2210823,神奈川県,横浜市神奈川区,二ツ谷町,カナガワケン,ヨコハマシカナガワク,フタツヤチョウ,神奈川県横浜市神奈川区二ツ谷町
2210824,神奈川県,横浜市神奈川区,広台太田町,カナガワケン,ヨコハマシカナガワク,ヒロダイオオタマチ,神奈川県横浜市神奈川区広台太田町
2210825,神奈川県,横浜市神奈川区,反町,カナガワケン,ヨコハマシカナガワク,タンマチ,神奈川県横浜市神奈川区反町
2210831,神奈川県,横浜市神奈川区,上反町,カナガワケン,ヨコハマシカナガワク,カミタンマチ,神奈川県横浜市神奈川区上反町
2210832,神奈川県,横浜市神奈川区,桐畑,カナガワケン,ヨコハマシカナガワク,キリバタケ,神奈川県横浜市神奈川区桐畑
2210833,神奈川県,横浜市神奈川区,高島台,カナガワケン,ヨコハマシカナガワク,タカシマダイ,神奈川県横浜市神奈川区高島台
2210834,神奈川県,横浜市神奈川区,台町,カナガワケン,ヨコハマシカナガワク,ダイマチ,神奈川県横浜市神奈川区台町
2210835,神奈川県,横浜市神奈川区,鶴屋町,カナガワケン,ヨコハマシカナガワク,ツルヤチョウ,神奈川県横浜市神奈川区鶴屋町
2210841,神奈川県,横浜市神奈川区,松本町,カナガワケン,ヨコハマシカナガワク,マツモトチョウ,神奈川県横浜市神奈川区松本町
2210842,神奈川県,横浜市神奈川区,泉町,カナガワケン,ヨコハマシカナガワク,イズミチョウ,神奈川県横浜市神奈川区泉町
2210843,神奈川県,横浜市神奈川区,松ケ丘,カナガワケン,ヨコハマシカナガワク,マツガオカ,神奈川県横浜市神奈川区松ケ丘
2210844,神奈川県,横浜市神奈川区,沢渡,カナガワケン,ヨコハマシカナガワク,サワタリ,神奈川県横浜市神奈川区沢渡
2210851,神奈川県,横浜市神奈川区,三ツ沢中町,カナガワケン,ヨコハマシカナガワク,ミツザワナカマチ,神奈川県横浜市神奈川区三ツ沢中町
2210852,神奈川県,横浜市神奈川区,三ツ沢下町,カナガワケン,ヨコハマシカナガワク,ミツザワシモマチ,神奈川県横浜市神奈川区三ツ沢下町
2210853,神奈川県,横浜市神奈川区,三ツ沢東町,カナガワケン,ヨコハマシカナガワク,ミツザワヒガシマチ,神奈川県横浜市神奈川区三ツ沢東町
2210854,神奈川県,横浜市神奈川区,三ツ沢南町,カナガワケン,ヨコハマシカナガワク,ミツザワミナミマチ,神奈川県横浜市神奈川区三ツ沢南町
2210855,神奈川県,横浜市神奈川区,三ツ沢西町,カナガワケン,ヨコハマシカナガワク,ミツザワニシマチ,神奈川県横浜市神奈川区三ツ沢西町
2210856,神奈川県,横浜市神奈川区,三ツ沢上町,カナガワケン,ヨコハマシカナガワク,ミツザワカミマチ,神奈川県横浜市神奈川区三ツ沢上町
2210862,神奈川県,横浜市神奈川区,三枚町,カナガワケン,ヨコハマシカナガワク,サンマイチョウ,神奈川県横浜市神奈川区三枚町
2210863,神奈川県,横浜市神奈川区,羽沢町,カナガワケン,ヨコハマシカナガワク,ハザワチョウ,神奈川県横浜市神奈川区羽沢町
2210864,神奈川県,横浜市神奈川区,菅田町,カナガワケン,ヨコハマシカナガワク,スゲタチョウ,神奈川県横浜市神奈川区菅田町
2210865,神奈川県,横浜市神奈川区,片倉,カナガワケン,ヨコハマシカナガワク,カタクラ,神奈川県横浜市神奈川区片倉
2210866,神奈川県,横浜市神奈川区,羽沢南,カナガワケン,ヨコハマシカナガワク,ハザワミナミ,神奈川県横浜市神奈川区羽沢南
2220000,神奈川県,横浜市港北区,,カナガワケン,ヨコハマシコウホクク,,神奈川県横浜市港北区
2220001,神奈川県,横浜市港北区,樽町,カナガワケン,ヨコハマシコウホクク,タルマチ,神奈川県横浜市港北区樽町
2220002,神奈川県,横浜市港北区,師岡町,カナガワケン,ヨコハマシコウホクク,モロオカチョウ,神奈川県横浜市港北区師岡町
2220003,神奈川県,横浜市港北区,大曽根,カナガワケン,ヨコハマシコウホクク,オオソネ,神奈川県横浜市港北区大曽根
2220004,神奈川県,横浜市港北区,大曽根台,カナガワケン,ヨコハマシコウホクク,オオソネダイ,神奈川県横浜市港北区大曽根台
2220011,神奈川県,横浜市港北区,菊名,カナガワケン,ヨコハマシコウホクク,キクナ,神奈川県横浜市港北区菊名
2220012,神奈川県,横浜市港北区,富士塚,カナガワケン,ヨコハマシコウホクク,フジヅカ,神奈川県横浜市港北区富士塚
2220013,神奈川県,横浜市港北区,錦が丘,カナガワケン,ヨコハマシコウホクク,ニシキガオカ,神奈川県横浜市港北区錦が丘
2220021,神奈川県,横浜市港北区,篠原北,カナガワケン,ヨコハマシコウホクク,シノハラキタ,神奈川県横浜市港北区篠原北
2220022,神奈川県,横浜市港北区,篠原東,カナガワケン,ヨコハマシコウホクク,シノハラヒガシ,神奈川県横浜市港北区篠原東
2220023,神奈川県,横浜市港北区,仲手原,カナガワケン,ヨコハマシコウホクク,ナカテハラ,神奈川県横浜市港北区仲手原
2220024,神奈川県,横浜市港北区,篠原台町,カナガワケン,ヨコハマシコウホクク,シノハラダイマチ,神奈川県横浜市港北区篠原台町
2220025,神奈川県,横浜市港北区,篠原西町,カナガワケン,ヨコハマシコウホクク,シノハラニシチョウ,神奈川県横浜市港北区篠原西町
2220026,神奈川県,横浜市港北区,篠原町,カナガワケン,ヨコハマシコウホクク,シノハラチョウ,神奈川県横浜市港北区篠原町
2220032,神奈川県,横浜市港北区,大豆戸町,カナガワケン,ヨコハマシコウホクク,マメドチョウ,神奈川県横浜市港北区大豆戸町
2220033,神奈川県,横浜市港北区,新横浜,カナガワケン,ヨコハマシコウホクク,シンヨコハマ,神奈川県横浜市港北区新横浜
2220034,神奈川県,横浜市港北区,岸根町,カナガワケン,ヨコハマシコウホクク,キシネチョウ,神奈川県横浜市港北区岸根町
2220035,神奈川県,横浜市港北区,鳥山町,カナガワケン,ヨコハマシコウホクク,トリヤマチョウ,神奈川県横浜市港北区鳥山町
2220036,神奈川県,横浜市港北区,小机町,カナガワケン,ヨコハマシコウホクク,コヅクエチョウ,神奈川県横浜市港北区小机町
2220037,神奈川県,横浜市港北区,大倉山,カナガワケン,ヨコハマシコウホクク,オオクラヤマ,神奈川県横浜市港北区大倉山
2230051,神奈川県,横浜市港北区,箕輪町,カナガワケン,ヨコハマシコウホクク,ミノワチョウ,神奈川県横浜市港北区箕輪町
2230052,神奈川県,横浜市港北区,綱島東,カナガワケン,ヨコハマシコウホクク,ツナシマヒガシ,神奈川県横浜市港北区綱島東
2230053,神奈川県,横浜市港北区,綱島西,カナガワケン,ヨコハマシコウホクク,ツナシマニシ,神奈川県横浜市港北区綱島西
2230054,神奈川県,横浜市港北区,綱島台,カナガワケン,ヨコハマシコウホクク,ツナシマダイ,神奈川県横浜市港北区綱島台
2230055,神奈川県,横浜市港北区,綱島上町,カナガワケン,ヨコハマシコウホクク,ツナシマカミチョウ,神奈川県横浜市港北区綱島上町
2230056,神奈川県,横浜市港北区,新吉田町,カナガワケン,ヨコハマシコウホクク,シンヨシダチョウ,神奈川県横浜市港北区新吉田町
2230057,神奈川県,横浜市港北区,新羽町,カナガワケン,ヨコハマシコウホクク,ニッパチョウ,神奈川県横浜市港北区新羽町
2230058,神奈川県,横浜市港北区,新吉田東,カナガワケン,ヨコハマシコウホクク,シンヨシダヒガシ,神奈川県横浜市港北区新吉田東
2230059,神奈川県,横浜市港北区,北新横浜,カナガワケン,ヨコハマシコウホクク,キタシンヨコハマ,神奈川県横浜市港北区北新横浜
2230061,神奈川県,横浜市港北区,日吉,カナガワケン,ヨコハマシコウホクク,ヒヨシ,神奈川県横浜市港北区日吉
2230062,神奈川県,横浜市港北区,日吉本町,カナガワケン,ヨコハマシコウホクク,ヒヨシホンチョウ,神奈川県横浜市港北区日吉本町
2230063,神奈川県,横浜市港北区,高田町,カナガワケン,ヨコハマシコウホクク,タカタチョウ,神奈川県横浜市港北区高田町
2230064,神奈川県,横浜市港北区,下田町,カナガワケン,ヨコハマシコウホクク,シモダチョウ,神奈川県横浜市港北区下田町
2230065,神奈川県,横浜市港北区,高田東,カナガワケン,ヨコハマシコウホクク,タカタヒガシ,神奈川県横浜市港北区高田東
2230066,神奈川県,横浜市港北区,高田西,カナガワケン,ヨコハマシコウホクク,タカタニシ,神奈川県横浜市港北区高田西
2240000,神奈川県,横浜市都筑区,,カナガワケン,ヨコハマシツヅキク,,神奈川県横浜市都筑区
2240001,神奈川県,横浜市都筑区,中川,カナガワケン,ヨコハマシツヅキク,ナカガワ,神奈川県横浜市都筑区中川
2240003,神奈川県,横浜市都筑区,中川中央,カナガワケン,ヨコハマシツヅキク,ナカガワチュウオウ,神奈川県横浜市都筑区中川中央
2240004,神奈川県,横浜市都筑区,荏田東町,カナガワケン,ヨコハマシツヅキク,エダヒガシチョウ,神奈川県横浜市都筑区荏田東町
2240006,神奈川県,横浜市都筑区,荏田東,カナガワケン,ヨコハマシツヅキク,エダヒガシ,神奈川県横浜市都筑区荏田東
2240007,神奈川県,横浜市都筑区,荏田南,カナガワケン,ヨコハマシツヅキク,エダミナミ,神奈川県横浜市都筑区荏田南
2240008,神奈川県,横浜市都筑区,荏田南町,カナガワケン,ヨコハマシツヅキク,エダミナミチョウ,神奈川県横浜市都筑区荏田南町
2240011,神奈川県,横浜市都筑区,牛久保町,カナガワケン,ヨコハマシツヅキク,ウシクボチョウ,神奈川県横浜市都筑区牛久保町
2240012,神奈川県,横浜市都筑区,牛久保,カナガワケン,ヨコハマシツヅキク,ウシクボ,神奈川県横浜市都筑区牛久保
2240013,神奈川県,横浜市都筑区,すみれが丘,カナガワケン,ヨコハマシツヅキク,スミレガオカ,神奈川県横浜市都筑区すみれが丘
2240014,神奈川県,横浜市都筑区,牛久保東,カナガワケン,ヨコハマシツヅキク,ウシクボヒガシ,神奈川県横浜市都筑区牛久保東
2240015,神奈川県,横浜市都筑区,牛久保西,カナガワケン,ヨコハマシツヅキク,ウシクボニシ,神奈川県横浜市都筑区牛久保西
2240016,神奈川県,横浜市都筑区,あゆみが丘,カナガワケン,ヨコハマシツヅキク,アユミガオカ,神奈川県横浜市都筑区あゆみが丘
2240021,神奈川県,横浜市都筑区,北山田,カナガワケン,ヨコハマシツヅキク,キタヤマタ,神奈川県横浜市都筑区北山田
2240023,神奈川県,横浜市都筑区,東山田,カナガワケン,ヨコハマシツヅキク,ヒガシヤマタ,神奈川県横浜市都筑区東山田
2240024,神奈川県,横浜市都筑区,東山田町,カナガワケン,ヨコハマシツヅキク,ヒガシヤマタチョウ,神奈川県横浜市都筑区東山田町
2240025,神奈川県,横浜市都筑区,早渕,カナガワケン,ヨコハマシツヅキク,ハヤブチ,神奈川県横浜市都筑区早渕
2240026,神奈川県,横浜市都筑区,南山田町,カナガワケン,ヨコハマシツヅキク,ミナミヤマタチョウ,神奈川県横浜市都筑区南山田町
2240027,神奈川県,横浜市都筑区,大棚町,カナガワケン,ヨコハマシツヅキク,オオダナチョウ,神奈川県横浜市都筑区大棚町
2240028,神奈川県,横浜市都筑区,大棚西,カナガワケン,ヨコハマシツヅキク,オオダナニシ,神奈川県横浜市都筑区大棚西
2240029,神奈川県,横浜市都筑区,南山田,カナガワケン,ヨコハマシツヅキク,ミナミヤマタ,神奈川県横浜市都筑区南山田
2240031,神奈川県,横浜市都筑区,茅ケ崎町,カナガワケン,ヨコハマシツヅキク,チガサキチョウ,神奈川県横浜市都筑区茅ケ崎町
2240032,神奈川県,横浜市都筑区,茅ケ崎中央,カナガワケン,ヨコハマシツヅキク,チガサキチュウオウ,神奈川県横浜市都筑区茅ケ崎中央
2240033,神奈川県,横浜市都筑区,茅ケ崎東,カナガワケン,ヨコハマシツヅキク,チガサキヒガシ,神奈川県横浜市都筑区茅ケ崎東
2240034,神奈川県,横浜市都筑区,勝田町,カナガワケン,ヨコハマシツヅキク,カチダチョウ,神奈川県横浜市都筑区勝田町
2240035,神奈川県,横浜市都筑区,新栄町,カナガワケン,ヨコハマシツヅキク,シンエイチョウ,神奈川県横浜市都筑区新栄町
2240036,神奈川県,横浜市都筑区,勝田南,カナガワケン,ヨコハマシツヅキク,カチダミナミ,神奈川県横浜市都筑区勝田南
2240037,神奈川県,横浜市都筑区,茅ケ崎南,カナガワケン,ヨコハマシツヅキク,チガサキミナミ,神奈川県横浜市都筑区茅ケ崎南
2240041,神奈川県,横浜市都筑区,仲町台,カナガワケン,ヨコハマシツヅキク,ナカマチダイ,神奈川県横浜市都筑区仲町台
2240042,神奈川県,横浜市都筑区,大熊町,カナガワケン,ヨコハマシツヅキク,オオクマチョウ,神奈川県横浜市都筑区大熊町
2240043,神奈川県,横浜市都筑区,折本町,カナガワケン,ヨコハマシツヅキク,オリモトチョウ,神奈川県横浜市都筑区折本町
2240044,神奈川県,横浜市都筑区,川向町,カナガワケン,ヨコハマシツヅキク,カワムコウチョウ,神奈川県横浜市都筑区川向町
2240045,神奈川県,横浜市都筑区,東方町,カナガワケン,ヨコハマシツヅキク,ヒガシカタチョウ,神奈川県横浜市都筑区東方町
2240046,神奈川県,横浜市都筑区,桜並木,カナガワケン,ヨコハマシツヅキク,サクラナミキ,神奈川県横浜市都筑区桜並木
2240051,神奈川県,横浜市都筑区,富士見が丘,カナガワケン,ヨコハマシツヅキク,フジミガオカ,神奈川県横浜市都筑区富士見が丘
2240052,神奈川県,横浜市都筑区,二の丸,カナガワケン,ヨコハマシツヅキク,ニノマル,神奈川県横浜市都筑区二の丸
2240053,神奈川県,横浜市都筑区,池辺町,カナガワケン,ヨコハマシツヅキク,イコノベチョウ,神奈川県横浜市都筑区池辺町
2240054,神奈川県,横浜市都筑区,佐江戸町,カナガワケン,ヨコハマシツヅキク,サエドチョウ,神奈川県横浜市都筑区佐江戸町
2240055,神奈川県,横浜市都筑区,加賀原,カナガワケン,ヨコハマシツヅキク,カガハラ,神奈川県横浜市都筑区加賀原
2240056,神奈川県,横浜市都筑区,川和台,カナガワケン,ヨコハマシツヅキク,カワワダイ,神奈川県横浜市都筑区川和台
2240057,神奈川県,横浜市都筑区,川和町,カナガワケン,ヨコハマシツヅキク,カワワチョウ,神奈川県横浜市都筑区川和町
2240061,神奈川県,横浜市都筑区,大丸,カナガワケン,ヨコハマシツヅキク,オオマル,神奈川県横浜市都筑区大丸
2240062,神奈川県,横浜市都筑区,葛が谷,カナガワケン,ヨコハマシツヅキク,クズガヤ,神奈川県横浜市都筑区葛が谷
2240063,神奈川県,横浜市都筑区,長坂,カナガワケン,ヨコハマシツヅキク,ナガサカ,神奈川県横浜市都筑区長坂
2240064,神奈川県,横浜市都筑区,平台,カナガワケン,ヨコハマシツヅキク,ヒラダイ,神奈川県横浜市都筑区平台
2240065,神奈川県,横浜市都筑区,高山,カナガワケン,ヨコハマシツヅキク,タカヤマ,神奈川県横浜市都筑区高山
2240066,神奈川県,横浜市都筑区,見花山,カナガワケン,ヨコハマシツヅキク,ミハナヤマ,神奈川県横浜市都筑区見花山
2250001,神奈川県,横浜市青葉区,美しが丘西,カナガワケン,ヨコハマシアオバク,ウツクシガオカニシ,神奈川県横浜市青葉区美しが丘西
2250002,神奈川県,横浜市青葉区,美しが丘,カナガワケン,ヨコハマシアオバク,ウツクシガオカ,神奈川県横浜市青葉区美しが丘
2250003,神奈川県,横浜市青葉区,新石川,カナガワケン,ヨコハマシアオバク,シンイシカワ,神奈川県横浜市青葉区新石川
2250004,神奈川県,横浜市青葉区,元石川町,カナガワケン,ヨコハマシアオバク,モトイシカワチョウ,神奈川県横浜市青葉区元石川町
2250005,神奈川県,横浜市青葉区,荏子田,カナガワケン,ヨコハマシアオバク,エコダ,神奈川県横浜市青葉区荏子田
2250011,神奈川県,横浜市青葉区,あざみ野,カナガワケン,ヨコハマシアオバク,アザミノ,神奈川県横浜市青葉区あざみ野
2250012,神奈川県,横浜市青葉区,あざみ野南,カナガワケン,ヨコハマシアオバク,アザミノミナミ,神奈川県横浜市青葉区あざみ野南
2250013,神奈川県,横浜市青葉区,荏田町,カナガワケン,ヨコハマシアオバク,エダチョウ,神奈川県横浜市青葉区荏田町
2250014,神奈川県,横浜市青葉区,荏田西,カナガワケン,ヨコハマシアオバク,エダニシ,神奈川県横浜市青葉区荏田西
2250015,神奈川県,横浜市青葉区,荏田北,カナガワケン,ヨコハマシアオバク,エダキタ,神奈川県横浜市青葉区荏田北
2250016,神奈川県,横浜市青葉区,みすずが丘,カナガワケン,ヨコハマシアオバク,ミスズガオカ,神奈川県横浜市青葉区みすずが丘
2250021,神奈川県,横浜市青葉区,すすき野,カナガワケン,ヨコハマシアオバク,ススキノ,神奈川県横浜市青葉区すすき野
2250022,神奈川県,横浜市青葉区,黒須田,カナガワケン,ヨコハマシアオバク,クロスダ,神奈川県横浜市青葉区黒須田
2250023,神奈川県,横浜市青葉区,大場町,カナガワケン,ヨコハマシアオバク,オオバチョウ,神奈川県横浜市青葉区大場町
2250024,神奈川県,横浜市青葉区,市ケ尾町,カナガワケン,ヨコハマシアオバク,イチガオチョウ,神奈川県横浜市青葉区市ケ尾町
2250025,神奈川県,横浜市青葉区,鉄町,カナガワケン,ヨコハマシアオバク,クロガネチョウ,神奈川県横浜市青葉区鉄町
2250026,神奈川県,横浜市青葉区,もみの木台,カナガワケン,ヨコハマシアオバク,モミノキダイ,神奈川県横浜市青葉区もみの木台
2260000,神奈川県,横浜市緑区,,カナガワケン,ヨコハマシミドリク,,神奈川県横浜市緑区
2260001,神奈川県,横浜市緑区,東本郷町,カナガワケン,ヨコハマシミドリク,ヒガシホンゴウチョウ,神奈川県横浜市緑区東本郷町
2260002,神奈川県,横浜市緑区,東本郷,カナガワケン,ヨコハマシミドリク,ヒガシホンゴウ,神奈川県横浜市緑区東本郷
2260003,神奈川県,横浜市緑区,鴨居,カナガワケン,ヨコハマシミドリク,カモイ,神奈川県横浜市緑区鴨居
2260004,神奈川県,横浜市緑区,鴨居町,カナガワケン,ヨコハマシミドリク,カモイチョウ,神奈川県横浜市緑区鴨居町
2260005,神奈川県,横浜市緑区,竹山,カナガワケン,ヨコハマシミドリク,タケヤマ,神奈川県横浜市緑区竹山
2260006,神奈川県,横浜市緑区,白山,カナガワケン,ヨコハマシミドリク,ハクサン,神奈川県横浜市緑区白山
2260012,神奈川県,横浜市緑区,上山,カナガワケン,ヨコハマシミドリク,カミヤマ,神奈川県横浜市緑区上山
2260013,神奈川県,横浜市緑区,寺山町,カナガワケン,ヨコハマシミドリク,テラヤマチョウ,神奈川県横浜市緑区寺山町
2260014,神奈川県,横浜市緑区,台村町,カナガワケン,ヨコハマシミドリク,ダイムラチョウ,神奈川県横浜市緑区台村町
2260015,神奈川県,横浜市緑区,三保町,カナガワケン,ヨコハマシミドリク,ミホチョウ,神奈川県横浜市緑区三保町
2260016,神奈川県,横浜市緑区,霧が丘,カナガワケン,ヨコハマシミドリク,キリガオカ,神奈川県横浜市緑区霧が丘
2260017,神奈川県,横浜市緑区,新治町,カナガワケン,ヨコハマシミドリク,ニイハルチョウ,神奈川県横浜市緑区新治町
2260018,神奈川県,横浜市緑区,長津田みなみ台,カナガワケン,ヨコハマシミドリク,ナガツタミナミダイ,神奈川県横浜市緑区長津田みなみ台
2260019,神奈川県,横浜市緑区,中山,カナガワケン,ヨコハマシミドリク,ナカヤマ,神奈川県横浜市緑区中山
2260021,神奈川県,横浜市緑区,北八朔町,カナガワケン,ヨコハマシミドリク,キタハッサクチョウ,神奈川県横浜市緑区北八朔町
2260022,神奈川県,横浜市緑区,青砥町,カナガワケン,ヨコハマシミドリク,アオトチョウ,神奈川県横浜市緑区青砥町
2260023,神奈川県,横浜市緑区,小山町,カナガワケン,ヨコハマシミドリク,コヤマチョウ,神奈川県横浜市緑区小山町
2260024,神奈川県,横浜市緑区,西八朔町,カナガワケン,ヨコハマシミドリク,ニシハッサクチョウ,神奈川県横浜市緑区西八朔町
2260025,神奈川県,横浜市緑区,十日市場町,カナガワケン,ヨコハマシミドリク,トオカイチバチョウ,神奈川県横浜市緑区十日市場町
2260026,神奈川県,横浜市緑区,長津田町,カナガワケン,ヨコハマシミドリク,ナガツタチョウ,神奈川県横浜市緑区長津田町
2260027,神奈川県,横浜市緑区,長津田,カナガワケン,ヨコハマシミドリク,ナガツタ,神奈川県横浜市緑区長津田
2260028,神奈川県,横浜市緑区,いぶき野,カナガワケン,ヨコハマシミドリク,イブキノ,神奈川県横浜市緑区いぶき野
2260029,神奈川県,横浜市緑区,森の台,カナガワケン,ヨコハマシミドリク,モリノダイ,神奈川県横浜市緑区森の台
2270000,神奈川県,横浜市青葉区,,カナガワケン,ヨコハマシアオバク,,神奈川県横浜市青葉区
2270031,神奈川県,横浜市青葉区,寺家町,カナガワケン,ヨコハマシアオバク,ジケチョウ,神奈川県横浜市青葉区寺家町
2270032,神奈川県,横浜市青葉区,成合町,カナガワケン,ヨコハマシアオバク,ナリアイチョウ,神奈川県横浜市青葉区成合町
2270033,神奈川県,横浜市青葉区,鴨志田町,カナガワケン,ヨコハマシアオバク,カモシダチョウ,神奈川県横浜市青葉区鴨志田町
2270034,神奈川県,横浜市青葉区,桂台,カナガワケン,ヨコハマシアオバク,カツラダイ,神奈川県横浜市青葉区桂台
2270035,神奈川県,横浜市青葉区,すみよし台,カナガワケン,ヨコハマシアオバク,スミヨシダイ,神奈川県横浜市青葉区すみよし台
2270036,神奈川県,横浜市青葉区,奈良町,カナガワケン,ヨコハマシアオバク,ナラチョウ,神奈川県横浜市青葉区奈良町
2270037,神奈川県,横浜市青葉区,緑山,カナガワケン,ヨコハマシアオバク,ミドリヤマ,神奈川県横浜市青葉区緑山
2270038,神奈川県,横浜市青葉区,奈良,カナガワケン,ヨコハマシアオバク,ナラ,神奈川県横浜市青葉区奈良
2270041,神奈川県,横浜市青葉区,上谷本町,カナガワケン,ヨコハマシアオバク,カミヤモトチョウ,神奈川県横浜市青葉区上谷本町
2270042,神奈川県,横浜市青葉区,下谷本町,カナガワケン,ヨコハマシアオバク,シモヤモトチョウ,神奈川県横浜市青葉区下谷本町
2270043,神奈川県,横浜市青葉区,藤が丘,カナガワケン,ヨコハマシアオバク,フジガオカ,神奈川県横浜市青葉区藤が丘
2270044,神奈川県,横浜市青葉区,もえぎ野,カナガワケン,ヨコハマシアオバク,モエギノ,神奈川県横浜市青葉区もえぎ野
2270045,神奈川県,横浜市青葉区,若草台,カナガワケン,ヨコハマシアオバク,ワカクサダイ,神奈川県横浜市青葉区若草台
2270046,神奈川県,横浜市青葉区,たちばな台,カナガワケン,ヨコハマシアオバク,タチバナダイ,神奈川県横浜市青葉区たちばな台
2270047,神奈川県,横浜市青葉区,みたけ台,カナガワケン,ヨコハマシアオバク,ミタケダイ,神奈川県横浜市青葉区みたけ台
2270048,神奈川県,横浜市青葉区,柿の木台,カナガワケン,ヨコハマシアオバク,カキノキダイ,神奈川県横浜市青葉区柿の木台
2270051,神奈川県,横浜市青葉区,千草台,カナガワケン,ヨコハマシアオバク,チグサダイ,神奈川県横浜市青葉区千草台
2270052,神奈川県,横浜市青葉区,梅が丘,カナガワケン,ヨコハマシアオバク,ウメガオカ,神奈川県横浜市青葉区梅が丘
2270053,神奈川県,横浜市青葉区,さつきが丘,カナガワケン,ヨコハマシアオバク,サツキガオカ,神奈川県横浜市青葉区さつきが丘
2270054,神奈川県,横浜市青葉区,しらとり台,カナガワケン,ヨコハマシアオバク,シラトリダイ,神奈川県横浜市青葉区しらとり台
2270055,神奈川県,横浜市青葉区,つつじが丘,カナガワケン,ヨコハマシアオバク,ツツジガオカ,神奈川県横浜市青葉区つつじが丘
2270061,神奈川県,横浜市青葉区,桜台,カナガワケン,ヨコハマシアオバク,サクラダイ,神奈川県横浜市青葉区桜台
2270062,神奈川県,横浜市青葉区,青葉台,カナガワケン,ヨコハマシアオバク,アオバダイ,神奈川県横浜市青葉区青葉台
2270063,神奈川県,横浜市青葉区,榎が丘,カナガワケン,ヨコハマシアオバク,エノキガオカ,神奈川県横浜市青葉区榎が丘
2270064,神奈川県,横浜市青葉区,田奈町,カナガワケン,ヨコハマシアオバク,タナチョウ,神奈川県横浜市青葉区田奈町
2270065,神奈川県,横浜市青葉区,恩田町,カナガワケン,ヨコハマシアオバク,オンダチョウ,神奈川県横浜市青葉区恩田町
2270066,神奈川県,横浜市青葉区,あかね台,カナガワケン,ヨコハマシアオバク,アカネダイ,神奈川県横浜市青葉区あかね台
2270067,神奈川県,横浜市青葉区,松風台,カナガワケン,ヨコハマシアオバク,マツカゼダイ,神奈川県横浜市青葉区松風台
2300000,神奈川県,横浜市鶴見区,,カナガワケン,ヨコハマシツルミク,,神奈川県横浜市鶴見区
2300001,神奈川県,横浜市鶴見区,矢向,カナガワケン,ヨコハマシツルミク,ヤコウ,神奈川県横浜市鶴見区矢向
2300002,神奈川県,横浜市鶴見区,江ケ崎町,カナガワケン,ヨコハマシツルミク,エガサキチョウ,神奈川県横浜市鶴見区江ケ崎町
2300003,神奈川県,横浜市鶴見区,尻手,カナガワケン,ヨコハマシツルミク,シッテ,神奈川県横浜市鶴見区尻手
2300004,神奈川県,横浜市鶴見区,元宮,カナガワケン,ヨコハマシツルミク,モトミヤ,神奈川県横浜市鶴見区元宮
2300011,神奈川県,横浜市鶴見区,上末吉,カナガワケン,ヨコハマシツルミク,カミスエヨシ,神奈川県横浜市鶴見区上末吉
2300012,神奈川県,横浜市鶴見区,下末吉,カナガワケン,ヨコハマシツルミク,シモスエヨシ,神奈川県横浜市鶴見区下末吉
2300013,神奈川県,横浜市鶴見区,三ツ池公園,カナガワケン,ヨコハマシツルミク,ミツイケコウエン,神奈川県横浜市鶴見区三ツ池公園
2300014,神奈川県,横浜市鶴見区,諏訪坂,カナガワケン,ヨコハマシツルミク,スワザカ,神奈川県横浜市鶴見区諏訪坂
2300015,神奈川県,横浜市鶴見区,寺谷,カナガワケン,ヨコハマシツルミク,テラヤ,神奈川県横浜市鶴見区寺谷
2300016,神奈川県,横浜市鶴見区,東寺尾北台,カナガワケン,ヨコハマシツルミク,ヒガシテラオキタダイ,神奈川県横浜市鶴見区東寺尾北台
2300017,神奈川県,横浜市鶴見区,東寺尾中台,カナガワケン,ヨコハマシツルミク,ヒガシテラオナカダイ,神奈川県横浜市鶴見区東寺尾中台
2300018,神奈川県,横浜市鶴見区,東寺尾東台,カナガワケン,ヨコハマシツルミク,ヒガシテラオヒガシダイ,神奈川県横浜市鶴見区東寺尾東台
2300021,神奈川県,横浜市鶴見区,市場上町,カナガワケン,ヨコハマシツルミク,イチバカミチョウ,神奈川県横浜市鶴見区市場上町
2300022,神奈川県,横浜市鶴見区,市場東中町,カナガワケン,ヨコハマシツルミク,イチバヒガシナカチョウ,神奈川県横浜市鶴見区市場東中町
2300023,神奈川県,横浜市鶴見区,市場西中町,カナガワケン,ヨコハマシツルミク,イチバニシナカチョウ,神奈川県横浜市鶴見区市場西中町
2300024,神奈川県,横浜市鶴見区,市場下町,カナガワケン,ヨコハマシツルミク,イチバシモチョウ,神奈川県横浜市鶴見区市場下町
2300025,神奈川県,横浜市鶴見区,市場大和町,カナガワケン,ヨコハマシツルミク,イチバヤマトチョウ,神奈川県横浜市鶴見区市場大和町
2300026,神奈川県,横浜市鶴見区,市場富士見町,カナガワケン,ヨコハマシツルミク,イチバフジミチョウ,神奈川県横浜市鶴見区市場富士見町
2300027,神奈川県,横浜市鶴見区,菅沢町,カナガワケン,ヨコハマシツルミク,スガサワチョウ,神奈川県横浜市鶴見区菅沢町
2300031,神奈川県,横浜市鶴見区,平安町,カナガワケン,ヨコハマシツルミク,ヘイアンチョウ,神奈川県横浜市鶴見区平安町
2300032,神奈川県,横浜市鶴見区,大東町,カナガワケン,ヨコハマシツルミク,ダイトウチョウ,神奈川県横浜市鶴見区大東町
2300033,神奈川県,横浜市鶴見区,朝日町,カナガワケン,ヨコハマシツルミク,アサヒチョウ,神奈川県横浜市鶴見区朝日町
2300034,神奈川県,横浜市鶴見区,寛政町,カナガワケン,ヨコハマシツルミク,カンセイチョウ,神奈川県横浜市鶴見区寛政町
2300035,神奈川県,横浜市鶴見区,安善町,カナガワケン,ヨコハマシツルミク,アンゼンチョウ,神奈川県横浜市鶴見区安善町
2300036,神奈川県,横浜市鶴見区,浜町,カナガワケン,ヨコハマシツルミク,ハマチョウ,神奈川県横浜市鶴見区浜町
2300037,神奈川県,横浜市鶴見区,向井町,カナガワケン,ヨコハマシツルミク,ムカイチョウ,神奈川県横浜市鶴見区向井町
2300038,神奈川県,横浜市鶴見区,栄町通,カナガワケン,ヨコハマシツルミク,サカエチョウドオリ,神奈川県横浜市鶴見区栄町通
2300041,神奈川県,横浜市鶴見区,潮田町,カナガワケン,ヨコハマシツルミク,ウシオダチョウ,神奈川県横浜市鶴見区潮田町
2300042,神奈川県,横浜市鶴見区,仲通,カナガワケン,ヨコハマシツルミク,ナカドオリ,神奈川県横浜市鶴見区仲通
2300043,神奈川県,横浜市鶴見区,汐入町,カナガワケン,ヨコハマシツルミク,シオイリチョウ,神奈川県横浜市鶴見区汐入町
2300044,神奈川県,横浜市鶴見区,弁天町,カナガワケン,ヨコハマシツルミク,ベンテンチョウ,神奈川県横浜市鶴見区弁天町
2300045,神奈川県,横浜市鶴見区,末広町,カナガワケン,ヨコハマシツルミク,スエヒロチョウ,神奈川県横浜市鶴見区末広町
2300046,神奈川県,横浜市鶴見区,小野町,カナガワケン,ヨコハマシツルミク,オノチョウ,神奈川県横浜市鶴見区小野町
2300047,神奈川県,横浜市鶴見区,下野谷町,カナガワケン,ヨコハマシツルミク,シタノヤチョウ,神奈川県横浜市鶴見区下野谷町
2300048,神奈川県,横浜市鶴見区,本町通,カナガワケン,ヨコハマシツルミク,ホンチョウドオリ,神奈川県横浜市鶴見区本町通
2300051,神奈川県,横浜市鶴見区,鶴見中央,カナガワケン,ヨコハマシツルミク,ツルミチュウオウ,神奈川県横浜市鶴見区鶴見中央
2300052,神奈川県,横浜市鶴見区,生麦,カナガワケン,ヨコハマシツルミク,ナマムギ,神奈川県横浜市鶴見区生麦
2300053,神奈川県,横浜市鶴見区,大黒町,カナガワケン,ヨコハマシツルミク,ダイコクチョウ,神奈川県横浜市鶴見区大黒町
2300054,神奈川県,横浜市鶴見区,大黒ふ頭,カナガワケン,ヨコハマシツルミク,ダイコクフトウ,神奈川県横浜市鶴見区大黒ふ頭
2300055,神奈川県,横浜市鶴見区,扇島,カナガワケン,ヨコハマシツルミク,オウギシマ,神奈川県横浜市鶴見区扇島
2300061,神奈川県,横浜市鶴見区,佃野町,カナガワケン,ヨコハマシツルミク,ツクノチョウ,神奈川県横浜市鶴見区佃野町
2300062,神奈川県,横浜市鶴見区,豊岡町,カナガワケン,ヨコハマシツルミク,トヨオカチョウ,神奈川県横浜市鶴見区豊岡町
2300063,神奈川県,横浜市鶴見区,鶴見,カナガワケン,ヨコハマシツルミク,ツルミ,神奈川県横浜市鶴見区鶴見
2300071,神奈川県,横浜市鶴見区,駒岡,カナガワケン,ヨコハマシツルミク,コマオカ,神奈川県横浜市鶴見区駒岡
2300072,神奈川県,横浜市鶴見区,梶山,カナガワケン,ヨコハマシツルミク,カジヤマ,神奈川県横浜市鶴見区梶山
2300073,神奈川県,横浜市鶴見区,獅子ケ谷,カナガワケン,ヨコハマシツルミク,シシガヤ,神奈川県横浜市鶴見区獅子ケ谷
2300074,神奈川県,横浜市鶴見区,北寺尾,カナガワケン,ヨコハマシツルミク,キタテラオ,神奈川県横浜市鶴見区北寺尾
2300075,神奈川県,横浜市鶴見区,上の宮,カナガワケン,ヨコハマシツルミク,カミノミヤ,神奈川県横浜市鶴見区上の宮
2300076,神奈川県,横浜市鶴見区,馬場,カナガワケン,ヨコハマシツルミク,ババ,神奈川県横浜市鶴見区馬場
2300077,神奈川県,横浜市鶴見区,東寺尾,カナガワケン,ヨコハマシツルミク,ヒガシテラオ,神奈川県横浜市鶴見区東寺尾
2300078,神奈川県,横浜市鶴見区,岸谷,カナガワケン,ヨコハマシツルミク,キシヤ,神奈川県横浜市鶴見区岸谷
2310000,神奈川県,横浜市中区,,カナガワケン,ヨコハマシナカク,,神奈川県横浜市中区
2310001,神奈川県,横浜市中区,新港,カナガワケン,ヨコハマシナカク,シンコウ,神奈川県横浜市中区新港
2310002,神奈川県,横浜市中区,海岸通,カナガワケン,ヨコハマシナカク,カイガンドオリ,神奈川県横浜市中区海岸通
2310003,神奈川県,横浜市中区,北仲通,カナガワケン,ヨコハマシナカク,キタナカドオリ,神奈川県横浜市中区北仲通
2310004,神奈川県,横浜市中区,元浜町,カナガワケン,ヨコハマシナカク,モトハマチョウ,神奈川県横浜市中区元浜町
2310005,神奈川県,横浜市中区,本町,カナガワケン,ヨコハマシナカク,ホンチョウ,神奈川県横浜市中区本町
2310006,神奈川県,横浜市中区,南仲通,カナガワケン,ヨコハマシナカク,ミナミナカドオリ,神奈川県横浜市中区南仲通
2310007,神奈川県,横浜市中区,弁天通,カナガワケン,ヨコハマシナカク,ベンテンドオリ,神奈川県横浜市中区弁天通
2310011,神奈川県,横浜市中区,太田町,カナガワケン,ヨコハマシナカク,オオタマチ,神奈川県横浜市中区太田町
2310012,神奈川県,横浜市中区,相生町,カナガワケン,ヨコハマシナカク,アイオイチョウ,神奈川県横浜市中区相生町
2310013,神奈川県,横浜市中区,住吉町,カナガワケン,ヨコハマシナカク,スミヨシチョウ,神奈川県横浜市中区住吉町
2310014,神奈川県,横浜市中区,常盤町,カナガワケン,ヨコハマシナカク,トキワチョウ,神奈川県横浜市中区常盤町
2310015,神奈川県,横浜市中区,尾上町,カナガワケン,ヨコハマシナカク,オノエチョウ,神奈川県横浜市中区尾上町
2310016,神奈川県,横浜市中区,真砂町,カナガワケン,ヨコハマシナカク,マサゴチョウ,神奈川県横浜市中区真砂町
2310017,神奈川県,横浜市中区,港町,カナガワケン,ヨコハマシナカク,ミナトチョウ,神奈川県横浜市中区港町
2310021,神奈川県,横浜市中区,日本大通,カナガワケン,ヨコハマシナカク,ニホンオオドオリ,神奈川県横浜市中区日本大通
2310022,神奈川県,横浜市中区,横浜公園,カナガワケン,ヨコハマシナカク,ヨコハマコウエン,神奈川県横浜市中区横浜公園
2310023,神奈川県,横浜市中区,山下町,カナガワケン,ヨコハマシナカク,ヤマシタチョウ,神奈川県横浜市中区山下町
2310024,神奈川県,横浜市中区,吉浜町,カナガワケン,ヨコハマシナカク,ヨシハマチョウ,神奈川県横浜市中区吉浜町
2310025,神奈川県,横浜市中区,松影町,カナガワケン,ヨコハマシナカク,マツカゲチョウ,神奈川県横浜市中区松影町
2310026,神奈川県,横浜市中区,寿町,カナガワケン,ヨコハマシナカク,コトブキチョウ,神奈川県横浜市中区寿町
2310027,神奈川県,横浜市中区,扇町,カナガワケン,ヨコハマシナカク,オウギチョウ,神奈川県横浜市中区扇町
2310028,神奈川県,横浜市中区,翁町,カナガワケン,ヨコハマシナカク,オキナチョウ,神奈川県横浜市中区翁町
2310031,神奈川県,横浜市中区,万代町,カナガワケン,ヨコハマシナカク,バンダイチョウ,神奈川県横浜市中区万代町
2310032,神奈川県,横浜市中区,不老町,カナガワケン,ヨコハマシナカク,フロウチョウ,神奈川県横浜市中区不老町
2310033,神奈川県,横浜市中区,長者町,カナガワケン,ヨコハマシナカク,チョウジャマチ,神奈川県横浜市中区長者町
2310034,神奈川県,横浜市中区,三吉町,カナガワケン,ヨコハマシナカク,ミヨシチョウ,神奈川県横浜市中区三吉町
2310035,神奈川県,横浜市中区,千歳町,カナガワケン,ヨコハマシナカク,チトセチョウ,神奈川県横浜市中区千歳町
2310036,神奈川県,横浜市中区,山田町,カナガワケン,ヨコハマシナカク,ヤマダチョウ,神奈川県横浜市中区山田町
2310037,神奈川県,横浜市中区,富士見町,カナガワケン,ヨコハマシナカク,フジミチョウ,神奈川県横浜市中区富士見町
2310038,神奈川県,横浜市中区,山吹町,カナガワケン,ヨコハマシナカク,ヤマブキチョウ,神奈川県横浜市中区山吹町
2310041,神奈川県,横浜市中区,吉田町,カナガワケン,ヨコハマシナカク,ヨシダマチ,神奈川県横浜市中区吉田町
2310042,神奈川県,横浜市中区,福富町西通,カナガワケン,ヨコハマシナカク,フクトミチョウニシドオリ,神奈川県横浜市中区福富町西通
2310043,神奈川県,横浜市中区,福富町仲通,カナガワケン,ヨコハマシナカク,フクトミチョウナカドオリ,神奈川県横浜市中区福富町仲通
2310044,神奈川県,横浜市中区,福富町東通,カナガワケン,ヨコハマシナカク,フクトミチョウヒガシドオリ,神奈川県横浜市中区福富町東通
2310045,神奈川県,横浜市中区,伊勢佐木町,カナガワケン,ヨコハマシナカク,イセザキチョウ,神奈川県横浜市中区伊勢佐木町
2310046,神奈川県,横浜市中区,末広町,カナガワケン,ヨコハマシナカク,スエヒロチョウ,神奈川県横浜市中区末広町
2310047,神奈川県,横浜市中区,羽衣町,カナガワケン,ヨコハマシナカク,ハゴロモチョウ,神奈川県横浜市中区羽衣町
2310048,神奈川県,横浜市中区,蓬莱町,カナガワケン,ヨコハマシナカク,ホウライチョウ,神奈川県横浜市中区蓬莱町
2310051,神奈川県,横浜市中区,赤門町,カナガワケン,ヨコハマシナカク,アカモンチョウ,神奈川県横浜市中区赤門町
2310052,神奈川県,横浜市中区,英町,カナガワケン,ヨコハマシナカク,ハナブサチョウ,神奈川県横浜市中区英町
2310053,神奈川県,横浜市中区,初音町,カナガワケン,ヨコハマシナカク,ハツネチョウ,神奈川県横浜市中区初音町
2310054,神奈川県,横浜市中区,黄金町,カナガワケン,ヨコハマシナカク,コガネチョウ,神奈川県横浜市中区黄金町
2310055,神奈川県,横浜市中区,末吉町,カナガワケン,ヨコハマシナカク,スエヨシチョウ,神奈川県横浜市中区末吉町
2310056,神奈川県,横浜市中区,若葉町,カナガワケン,ヨコハマシナカク,ワカバチョウ,神奈川県横浜市中区若葉町
2310057,神奈川県,横浜市中区,曙町,カナガワケン,ヨコハマシナカク,アケボノチョウ,神奈川県横浜市中区曙町
2310058,神奈川県,横浜市中区,弥生町,カナガワケン,ヨコハマシナカク,ヤヨイチョウ,神奈川県横浜市中区弥生町
2310061,神奈川県,横浜市中区,内田町,カナガワケン,ヨコハマシナカク,ウチダチョウ,神奈川県横浜市中区内田町
2310062,神奈川県,横浜市中区,桜木町,カナガワケン,ヨコハマシナカク,サクラギチョウ,神奈川県横浜市中区桜木町
2310063,神奈川県,横浜市中区,花咲町,カナガワケン,ヨコハマシナカク,ハナサキチョウ,神奈川県横浜市中区花咲町
2310064,神奈川県,横浜市中区,野毛町,カナガワケン,ヨコハマシナカク,ノゲチョウ,神奈川県横浜市中区野毛町
2310065,神奈川県,横浜市中区,宮川町,カナガワケン,ヨコハマシナカク,ミヤガワチョウ,神奈川県横浜市中区宮川町
2310066,神奈川県,横浜市中区,日ノ出町,カナガワケン,ヨコハマシナカク,ヒノデチョウ,神奈川県横浜市中区日ノ出町
2310801,神奈川県,横浜市中区,新山下,カナガワケン,ヨコハマシナカク,シンヤマシタ,神奈川県横浜市中区新山下
2310802,神奈川県,横浜市中区,小港町,カナガワケン,ヨコハマシナカク,コミナトチョウ,神奈川県横浜市中区小港町
2310803,神奈川県,横浜市中区,本牧十二天,カナガワケン,ヨコハマシナカク,ホンモクジュウニテン,神奈川県横浜市中区本牧十二天
2310804,神奈川県,横浜市中区,本牧宮原,カナガワケン,ヨコハマシナカク,ホンモクミヤバラ,神奈川県横浜市中区本牧宮原
2310805,神奈川県,横浜市中区,和田山,カナガワケン,ヨコハマシナカク,ワダヤマ,神奈川県横浜市中区和田山
2310806,神奈川県,横浜市中区,本牧町,カナガワケン,ヨコハマシナカク,ホンモクチョウ,神奈川県横浜市中区本牧町
2310811,神奈川県,横浜市中区,本牧ふ頭,カナガワケン,ヨコハマシナカク,ホンモクフトウ,神奈川県横浜市中区本牧ふ頭
2310812,神奈川県,横浜市中区,錦町,カナガワケン,ヨコハマシナカク,ニシキチョウ,神奈川県横浜市中区錦町
2310813,神奈川県,横浜市中区,かもめ町,カナガワケン,ヨコハマシナカク,カモメチョウ,神奈川県横浜市中区かもめ町
2310814,神奈川県,横浜市中区,豊浦町,カナガワケン,ヨコハマシナカク,トヨウラチョウ,神奈川県横浜市中区豊浦町
2310815,神奈川県,横浜市中区,千鳥町,カナガワケン,ヨコハマシナカク,チドリチョウ,神奈川県横浜市中区千鳥町
2310816,神奈川県,横浜市中区,南本牧,カナガワケン,ヨコハマシナカク,ミナミホンモク,神奈川県横浜市中区南本牧
2310821,神奈川県,横浜市中区,本牧原,カナガワケン,ヨコハマシナカク,ホンモクハラ,神奈川県横浜市中区本牧原
2310822,神奈川県,横浜市中区,本牧元町,カナガワケン,ヨコハマシナカク,ホンモクモトマチ,神奈川県横浜市中区本牧元町
2310823,神奈川県,横浜市中区,本牧大里町,カナガワケン,ヨコハマシナカク,ホンモクオオサトチョウ,神奈川県横浜市中区本牧大里町
2310824,神奈川県,横浜市中区,本牧三之谷,カナガワケン,ヨコハマシナカク,ホンモクサンノタニ,神奈川県横浜市中区本牧三之谷
2310825,神奈川県,横浜市中区,本牧間門,カナガワケン,ヨコハマシナカク,ホンモクマカド,神奈川県横浜市中区本牧間門
2310826,神奈川県,横浜市中区,本牧荒井,カナガワケン,ヨコハマシナカク,ホンモクアライ,神奈川県横浜市中区本牧荒井
2310827,神奈川県,横浜市中区,本牧和田,カナガワケン,ヨコハマシナカク,ホンモクワダ,神奈川県横浜市中区本牧和田
2310831,神奈川県,横浜市中区,矢口台,カナガワケン,ヨコハマシナカク,ヤグチダイ,神奈川県横浜市中区矢口台
2310832,神奈川県,横浜市中区,本牧緑ケ丘,カナガワケン,ヨコハマシナカク,ホンモクミドリガオカ,神奈川県横浜市中区本牧緑ケ丘
2310833,神奈川県,横浜市中区,本牧満坂,カナガワケン,ヨコハマシナカク,ホンモクマンザカ,神奈川県横浜市中区本牧満坂
2310834,神奈川県,横浜市中区,池袋,カナガワケン,ヨコハマシナカク,イケブクロ,神奈川県横浜市中区池袋
2310835,神奈川県,横浜市中区,根岸加曽台,カナガワケン,ヨコハマシナカク,ネギシカゾウダイ,神奈川県横浜市中区根岸加曽台
2310836,神奈川県,横浜市中区,根岸町,カナガワケン,ヨコハマシナカク,ネギシチョウ,神奈川県横浜市中区根岸町
2310837,神奈川県,横浜市中区,滝之上,カナガワケン,ヨコハマシナカク,タキノウエ,神奈川県横浜市中区滝之上
2310838,神奈川県,横浜市中区,豆口台,カナガワケン,ヨコハマシナカク,マメグチダイ,神奈川県横浜市中区豆口台
2310839,神奈川県,横浜市中区,仲尾台,カナガワケン,ヨコハマシナカク,ナカオダイ,神奈川県横浜市中区仲尾台
2310841,神奈川県,横浜市中区,妙香寺台,カナガワケン,ヨコハマシナカク,ミョウコウジダイ,神奈川県横浜市中区妙香寺台
2310842,神奈川県,横浜市中区,上野町,カナガワケン,ヨコハマシナカク,ウエノチョウ,神奈川県横浜市中区上野町
2310843,神奈川県,横浜市中区,本郷町,カナガワケン,ヨコハマシナカク,ホンゴウチョウ,神奈川県横浜市中区本郷町
2310844,神奈川県,横浜市中区,西之谷町,カナガワケン,ヨコハマシナカク,ニシノヤチョウ,神奈川県横浜市中区西之谷町
2310845,神奈川県,横浜市中区,立野,カナガワケン,ヨコハマシナカク,タテノ,神奈川県横浜市中区立野
2310846,神奈川県,横浜市中区,大和町,カナガワケン,ヨコハマシナカク,ヤマトチョウ,神奈川県横浜市中区大和町
2310847,神奈川県,横浜市中区,竹之丸,カナガワケン,ヨコハマシナカク,タケノマル,神奈川県横浜市中区竹之丸
2310848,神奈川県,横浜市中区,鷺山,カナガワケン,ヨコハマシナカク,サギヤマ,神奈川県横浜市中区鷺山
2310849,神奈川県,横浜市中区,麦田町,カナガワケン,ヨコハマシナカク,ムギタチョウ,神奈川県横浜市中区麦田町
2310851,神奈川県,横浜市中区,山元町,カナガワケン,ヨコハマシナカク,ヤマモトチョウ,神奈川県横浜市中区山元町
2310852,神奈川県,横浜市中区,西竹之丸,カナガワケン,ヨコハマシナカク,ニシタケノマル,神奈川県横浜市中区西竹之丸
2310853,神奈川県,横浜市中区,根岸台,カナガワケン,ヨコハマシナカク,ネギシダイ,神奈川県横浜市中区根岸台
2310854,神奈川県,横浜市中区,根岸旭台,カナガワケン,ヨコハマシナカク,ネギシアサヒダイ,神奈川県横浜市中区根岸旭台
2310855,神奈川県,横浜市中区,寺久保,カナガワケン,ヨコハマシナカク,テラクボ,神奈川県横浜市中区寺久保
2310856,神奈川県,横浜市中区,簑沢,カナガワケン,ヨコハマシナカク,ミノサワ,神奈川県横浜市中区簑沢
2310857,神奈川県,横浜市中区,塚越,カナガワケン,ヨコハマシナカク,ツカゴシ,神奈川県横浜市中区塚越
2310858,神奈川県,横浜市中区,大芝台,カナガワケン,ヨコハマシナカク,オオシバダイ,神奈川県横浜市中区大芝台
2310859,神奈川県,横浜市中区,大平町,カナガワケン,ヨコハマシナカク,オオヒラチョウ,神奈川県横浜市中区大平町
2310861,神奈川県,横浜市中区,元町,カナガワケン,ヨコハマシナカク,モトマチ,神奈川県横浜市中区元町
2310862,神奈川県,横浜市中区,山手町,カナガワケン,ヨコハマシナカク,ヤマテチョウ,神奈川県横浜市中区山手町
2310863,神奈川県,横浜市中区,諏訪町,カナガワケン,ヨコハマシナカク,スワチョウ,神奈川県横浜市中区諏訪町
2310864,神奈川県,横浜市中区,千代崎町,カナガワケン,ヨコハマシナカク,チヨザキチョウ,神奈川県横浜市中区千代崎町
2310865,神奈川県,横浜市中区,北方町,カナガワケン,ヨコハマシナカク,キタガタチョウ,神奈川県横浜市中区北方町
2310866,神奈川県,横浜市中区,柏葉,カナガワケン,ヨコハマシナカク,カシワバ,神奈川県横浜市中区柏葉
2310867,神奈川県,横浜市中区,打越,カナガワケン,ヨコハマシナカク,ウチコシ,神奈川県横浜市中区打越
2310868,神奈川県,横浜市中区,石川町,カナガワケン,ヨコハマシナカク,イシカワチョウ,神奈川県横浜市中区石川町
2320000,神奈川県,横浜市南区,,カナガワケン,ヨコハマシミナミク,,神奈川県横浜市南区
2320001,神奈川県,横浜市南区,伏見町,カナガワケン,ヨコハマシミナミク,フシミチョウ,神奈川県横浜市南区伏見町
2320002,神奈川県,横浜市南区,三春台,カナガワケン,ヨコハマシミナミク,ミハルダイ,神奈川県横浜市南区三春台
2320003,神奈川県,横浜市南区,西中町,カナガワケン,ヨコハマシミナミク,ニシナカチョウ,神奈川県横浜市南区西中町
2320004,神奈川県,横浜市南区,前里町,カナガワケン,ヨコハマシミナミク,マエサトチョウ,神奈川県横浜市南区前里町
2320005,神奈川県,横浜市南区,白金町,カナガワケン,ヨコハマシミナミク,シロガネチョウ,神奈川県横浜市南区白金町
2320006,神奈川県,横浜市南区,南太田,カナガワケン,ヨコハマシミナミク,ミナミオオタ,神奈川県横浜市南区南太田
2320007,神奈川県,横浜市南区,清水ケ丘,カナガワケン,ヨコハマシミナミク,シミズガオカ,神奈川県横浜市南区清水ケ丘
2320008,神奈川県,横浜市南区,庚台,カナガワケン,ヨコハマシミナミク,カノエダイ,神奈川県横浜市南区庚台
2320011,神奈川県,横浜市南区,日枝町,カナガワケン,ヨコハマシミナミク,ヒエチョウ,神奈川県横浜市南区日枝町
2320012,神奈川県,横浜市南区,南吉田町,カナガワケン,ヨコハマシミナミク,ミナミヨシダチョウ,神奈川県横浜市南区南吉田町
2320013,神奈川県,横浜市南区,山王町,カナガワケン,ヨコハマシミナミク,サンノウチョウ,神奈川県横浜市南区山王町
2320014,神奈川県,横浜市南区,吉野町,カナガワケン,ヨコハマシミナミク,ヨシノチョウ,神奈川県横浜市南区吉野町
2320015,神奈川県,横浜市南区,共進町,カナガワケン,ヨコハマシミナミク,キョウシンチョウ,神奈川県横浜市南区共進町
2320016,神奈川県,横浜市南区,宮元町,カナガワケン,ヨコハマシミナミク,ミヤモトチョウ,神奈川県横浜市南区宮元町
2320017,神奈川県,横浜市南区,宿町,カナガワケン,ヨコハマシミナミク,シュクチョウ,神奈川県横浜市南区宿町
2320018,神奈川県,横浜市南区,花之木町,カナガワケン,ヨコハマシミナミク,ハナノキチョウ,神奈川県横浜市南区花之木町
2320021,神奈川県,横浜市南区,真金町,カナガワケン,ヨコハマシミナミク,マガネチョウ,神奈川県横浜市南区真金町
2320022,神奈川県,横浜市南区,高根町,カナガワケン,ヨコハマシミナミク,タカネチョウ,神奈川県横浜市南区高根町
2320023,神奈川県,横浜市南区,白妙町,カナガワケン,ヨコハマシミナミク,シロタエチョウ,神奈川県横浜市南区白妙町
2320024,神奈川県,横浜市南区,浦舟町,カナガワケン,ヨコハマシミナミク,ウラフネチョウ,神奈川県横浜市南区浦舟町
2320025,神奈川県,横浜市南区,高砂町,カナガワケン,ヨコハマシミナミク,タカサゴチョウ,神奈川県横浜市南区高砂町
2320026,神奈川県,横浜市南区,二葉町,カナガワケン,ヨコハマシミナミク,フタバチョウ,神奈川県横浜市南区二葉町
2320027,神奈川県,横浜市南区,新川町,カナガワケン,ヨコハマシミナミク,シンカワチョウ,神奈川県横浜市南区新川町
2320031,神奈川県,横浜市南区,永楽町,カナガワケン,ヨコハマシミナミク,エイラクチョウ,神奈川県横浜市南区永楽町
2320032,神奈川県,横浜市南区,万世町,カナガワケン,ヨコハマシミナミク,マンセイチョウ,神奈川県横浜市南区万世町
2320033,神奈川県,横浜市南区,中村町,カナガワケン,ヨコハマシミナミク,ナカムラチョウ,神奈川県横浜市南区中村町
2320034,神奈川県,横浜市南区,唐沢,カナガワケン,ヨコハマシミナミク,カラサワ,神奈川県横浜市南区唐沢
2320035,神奈川県,横浜市南区,平楽,カナガワケン,ヨコハマシミナミク,ヘイラク,神奈川県横浜市南区平楽
2320036,神奈川県,横浜市南区,山谷,カナガワケン,ヨコハマシミナミク,サンヤ,神奈川県横浜市南区山谷
2320037,神奈川県,横浜市南区,八幡町,カナガワケン,ヨコハマシミナミク,ハチマンチョウ,神奈川県横浜市南区八幡町
2320041,神奈川県,横浜市南区,睦町,カナガワケン,ヨコハマシミナミク,ムツミチョウ,神奈川県横浜市南区睦町
2320042,神奈川県,横浜市南区,堀ノ内町,カナガワケン,ヨコハマシミナミク,ホリノウチチョウ,神奈川県横浜市南区堀ノ内町
2320043,神奈川県,横浜市南区,蒔田町,カナガワケン,ヨコハマシミナミク,マイタチョウ,神奈川県横浜市南区蒔田町
2320044,神奈川県,横浜市南区,榎町,カナガワケン,ヨコハマシミナミク,エノキチョウ,神奈川県横浜市南区榎町
2320045,神奈川県,横浜市南区,東蒔田町,カナガワケン,ヨコハマシミナミク,ヒガシマイタマチ,神奈川県横浜市南区東蒔田町
2320051,神奈川県,横浜市南区,井土ケ谷上町,カナガワケン,ヨコハマシミナミク,イドガヤカミマチ,神奈川県横浜市南区井土ケ谷上町
2320052,神奈川県,横浜市南区,井土ケ谷中町,カナガワケン,ヨコハマシミナミク,イドガヤナカマチ,神奈川県横浜市南区井土ケ谷中町
2320053,神奈川県,横浜市南区,井土ケ谷下町,カナガワケン,ヨコハマシミナミク,イドガヤシモマチ,神奈川県横浜市南区井土ケ谷下町
2320054,神奈川県,横浜市南区,大橋町,カナガワケン,ヨコハマシミナミク,オオハシチョウ,神奈川県横浜市南区大橋町
2320055,神奈川県,横浜市南区,中島町,カナガワケン,ヨコハマシミナミク,ナカジマチョウ,神奈川県横浜市南区中島町
2320056,神奈川県,横浜市南区,通町,カナガワケン,ヨコハマシミナミク,トオリチョウ,神奈川県横浜市南区通町
2320057,神奈川県,横浜市南区,若宮町,カナガワケン,ヨコハマシミナミク,ワカミヤチョウ,神奈川県横浜市南区若宮町
2320061,神奈川県,横浜市南区,大岡,カナガワケン,ヨコハマシミナミク,オオオカ,神奈川県横浜市南区大岡
2320062,神奈川県,横浜市南区,中里町,カナガワケン,ヨコハマシミナミク,ナカザトチョウ,神奈川県横浜市南区中里町
2320063,神奈川県,横浜市南区,中里,カナガワケン,ヨコハマシミナミク,ナカザト,神奈川県横浜市南区中里
2320064,神奈川県,横浜市南区,別所,カナガワケン,ヨコハマシミナミク,ベッショ,神奈川県横浜市南区別所
2320065,神奈川県,横浜市南区,別所中里台,カナガワケン,ヨコハマシミナミク,ベッショナカザトダイ,神奈川県横浜市南区別所中里台
2320066,神奈川県,横浜市南区,六ツ川,カナガワケン,ヨコハマシミナミク,ムツカワ,神奈川県横浜市南区六ツ川
2320067,神奈川県,横浜市南区,弘明寺町,カナガワケン,ヨコハマシミナミク,グミョウジチョウ,神奈川県横浜市南区弘明寺町
2320071,神奈川県,横浜市南区,永田北,カナガワケン,ヨコハマシミナミク,ナガタキタ,神奈川県横浜市南区永田北
2320072,神奈川県,横浜市南区,永田東,カナガワケン,ヨコハマシミナミク,ナガタヒガシ,神奈川県横浜市南区永田東
2320073,神奈川県,横浜市南区,永田南,カナガワケン,ヨコハマシミナミク,ナガタミナミ,神奈川県横浜市南区永田南
2320074,神奈川県,横浜市南区,永田山王台,カナガワケン,ヨコハマシミナミク,ナガタサンノウダイ,神奈川県横浜市南区永田山王台
2320075,神奈川県,横浜市南区,永田みなみ台,カナガワケン,ヨコハマシミナミク,ナガタミナミダイ,神奈川県横浜市南区永田みなみ台
2320076,神奈川県,横浜市南区,永田台,カナガワケン,ヨコハマシミナミク,ナガタダイ,神奈川県横浜市南区永田台
2330000,神奈川県,横浜市港南区,,カナガワケン,ヨコハマシコウナンク,,神奈川県横浜市港南区
2330001,神奈川県,横浜市港南区,上大岡東,カナガワケン,ヨコハマシコウナンク,カミオオオカヒガシ,神奈川県横浜市港南区上大岡東
2330002,神奈川県,横浜市港南区,上大岡西,カナガワケン,ヨコハマシコウナンク,カミオオオカニシ,神奈川県横浜市港南区上大岡西
2330003,神奈川県,横浜市港南区,港南,カナガワケン,ヨコハマシコウナンク,コウナン,神奈川県横浜市港南区港南
2330004,神奈川県,横浜市港南区,港南中央通,カナガワケン,ヨコハマシコウナンク,コウナンチュウオウドオリ,神奈川県横浜市港南区港南中央通
2330005,神奈川県,横浜市港南区,東芹が谷,カナガワケン,ヨコハマシコウナンク,ヒガシセリガヤ,神奈川県横浜市港南区東芹が谷
2330006,神奈川県,横浜市港南区,芹が谷,カナガワケン,ヨコハマシコウナンク,セリガヤ,神奈川県横浜市港南区芹が谷
2330007,神奈川県,横浜市港南区,大久保,カナガワケン,ヨコハマシコウナンク,オオクボ,神奈川県横浜市港南区大久保
2330008,神奈川県,横浜市港南区,最戸,カナガワケン,ヨコハマシコウナンク,サイド,神奈川県横浜市港南区最戸
2330011,神奈川県,横浜市港南区,東永谷,カナガワケン,ヨコハマシコウナンク,ヒガシナガヤ,神奈川県横浜市港南区東永谷
2330012,神奈川県,横浜市港南区,上永谷,カナガワケン,ヨコハマシコウナンク,カミナガヤ,神奈川県横浜市港南区上永谷
2330013,神奈川県,横浜市港南区,丸山台,カナガワケン,ヨコハマシコウナンク,マルヤマダイ,神奈川県横浜市港南区丸山台
2330014,神奈川県,横浜市港南区,上永谷町,カナガワケン,ヨコハマシコウナンク,カミナガヤチョウ,神奈川県横浜市港南区上永谷町
2330015,神奈川県,横浜市港南区,日限山,カナガワケン,ヨコハマシコウナンク,ヒギリヤマ,神奈川県横浜市港南区日限山
2330016,神奈川県,横浜市港南区,下永谷,カナガワケン,ヨコハマシコウナンク,シモナガヤ,神奈川県横浜市港南区下永谷
2340051,神奈川県,横浜市港南区,日野,カナガワケン,ヨコハマシコウナンク,ヒノ,神奈川県横浜市港南区日野
2340052,神奈川県,横浜市港南区,笹下,カナガワケン,ヨコハマシコウナンク,ササゲ,神奈川県横浜市港南区笹下
2340053,神奈川県,横浜市港南区,日野中央,カナガワケン,ヨコハマシコウナンク,ヒノチュウオウ,神奈川県横浜市港南区日野中央
2340054,神奈川県,横浜市港南区,港南台,カナガワケン,ヨコハマシコウナンク,コウナンダイ,神奈川県横浜市港南区港南台
2340055,神奈川県,横浜市港南区,日野南,カナガワケン,ヨコハマシコウナンク,ヒノミナミ,神奈川県横浜市港南区日野南
2340056,神奈川県,横浜市港南区,野庭町,カナガワケン,ヨコハマシコウナンク,ノバチョウ,神奈川県横浜市港南区野庭町
2350000,神奈川県,横浜市磯子区,,カナガワケン,ヨコハマシイソゴク,,神奈川県横浜市磯子区
2350001,神奈川県,横浜市磯子区,上町,カナガワケン,ヨコハマシイソゴク,カミチョウ,神奈川県横浜市磯子区上町
2350002,神奈川県,横浜市磯子区,馬場町,カナガワケン,ヨコハマシイソゴク,ババチョウ,神奈川県横浜市磯子区馬場町
2350003,神奈川県,横浜市磯子区,坂下町,カナガワケン,ヨコハマシイソゴク,サカシタチョウ,神奈川県横浜市磯子区坂下町
2350004,神奈川県,横浜市磯子区,下町,カナガワケン,ヨコハマシイソゴク,シモチョウ,神奈川県横浜市磯子区下町
2350005,神奈川県,横浜市磯子区,東町,カナガワケン,ヨコハマシイソゴク,ヒガシチョウ,神奈川県横浜市磯子区東町
2350006,神奈川県,横浜市磯子区,鳳町,カナガワケン,ヨコハマシイソゴク,オオトリチョウ,神奈川県横浜市磯子区鳳町
2350007,神奈川県,横浜市磯子区,西町,カナガワケン,ヨコハマシイソゴク,ニシチョウ,神奈川県横浜市磯子区西町
2350008,神奈川県,横浜市磯子区,原町,カナガワケン,ヨコハマシイソゴク,ハラマチ,神奈川県横浜市磯子区原町
2350011,神奈川県,横浜市磯子区,丸山,カナガワケン,ヨコハマシイソゴク,マルヤマ,神奈川県横浜市磯子区丸山
2350012,神奈川県,横浜市磯子区,滝頭,カナガワケン,ヨコハマシイソゴク,タキガシラ,神奈川県横浜市磯子区滝頭
2350013,神奈川県,横浜市磯子区,広地町,カナガワケン,ヨコハマシイソゴク,ヒロチチョウ,神奈川県横浜市磯子区広地町
2350014,神奈川県,横浜市磯子区,中浜町,カナガワケン,ヨコハマシイソゴク,ナカハマチョウ,神奈川県横浜市磯子区中浜町
2350015,神奈川県,横浜市磯子区,久木町,カナガワケン,ヨコハマシイソゴク,ヒサキチョウ,神奈川県横浜市磯子区久木町
2350016,神奈川県,横浜市磯子区,磯子,カナガワケン,ヨコハマシイソゴク,イソゴ,神奈川県横浜市磯子区磯子
2350017,神奈川県,横浜市磯子区,新磯子町,カナガワケン,ヨコハマシイソゴク,シンイソゴチョウ,神奈川県横浜市磯子区新磯子町
2350018,神奈川県,横浜市磯子区,新森町,カナガワケン,ヨコハマシイソゴク,シンモリチョウ,神奈川県横浜市磯子区新森町
2350019,神奈川県,横浜市磯子区,磯子台,カナガワケン,ヨコハマシイソゴク,イソゴダイ,神奈川県横浜市磯子区磯子台
2350021,神奈川県,横浜市磯子区,岡村,カナガワケン,ヨコハマシイソゴク,オカムラ,神奈川県横浜市磯子区岡村
2350022,神奈川県,横浜市磯子区,汐見台,カナガワケン,ヨコハマシイソゴク,シオミダイ,神奈川県横浜市磯子区汐見台
2350023,神奈川県,横浜市磯子区,森,カナガワケン,ヨコハマシイソゴク,モリ,神奈川県横浜市磯子区森
2350024,神奈川県,横浜市磯子区,森が丘,カナガワケン,ヨコハマシイソゴク,モリガオカ,神奈川県横浜市磯子区森が丘
2350031,神奈川県,横浜市磯子区,新中原町,カナガワケン,ヨコハマシイソゴク,シンナカハラチョウ,神奈川県横浜市磯子区新中原町
2350032,神奈川県,横浜市磯子区,新杉田町,カナガワケン,ヨコハマシイソゴク,シンスギタチョウ,神奈川県横浜市磯子区新杉田町
2350033,神奈川県,横浜市磯子区,杉田,カナガワケン,ヨコハマシイソゴク,スギタ,神奈川県横浜市磯子区杉田
2350034,神奈川県,横浜市磯子区,杉田坪呑,カナガワケン,ヨコハマシイソゴク,スギタツボノミ,神奈川県横浜市磯子区杉田坪呑
2350035,神奈川県,横浜市磯子区,田中,カナガワケン,ヨコハマシイソゴク,タナカ,神奈川県横浜市磯子区田中
2350036,神奈川県,横浜市磯子区,中原,カナガワケン,ヨコハマシイソゴク,ナカハラ,神奈川県横浜市磯子区中原
2350041,神奈川県,横浜市磯子区,栗木,カナガワケン,ヨコハマシイソゴク,クリキ,神奈川県横浜市磯子区栗木
2350042,神奈川県,横浜市磯子区,上中里町,カナガワケン,ヨコハマシイソゴク,カミナカザトチョウ,神奈川県横浜市磯子区上中里町
2350043,神奈川県,横浜市磯子区,氷取沢町,カナガワケン,ヨコハマシイソゴク,ヒトリザワチョウ,神奈川県横浜市磯子区氷取沢町
2350044,神奈川県,横浜市磯子区,峰町,カナガワケン,ヨコハマシイソゴク,ミネチョウ,神奈川県横浜市磯子区峰町
2350045,神奈川県,横浜市磯子区,洋光台,カナガワケン,ヨコハマシイソゴク,ヨウコウダイ,神奈川県横浜市磯子区洋光台
2360000,神奈川県,横浜市金沢区,,カナガワケン,ヨコハマシカナザワク,,神奈川県横浜市金沢区
2360001,神奈川県,横浜市金沢区,昭和町,カナガワケン,ヨコハマシカナザワク,ショウワマチ,神奈川県横浜市金沢区昭和町
2360002,神奈川県,横浜市金沢区,鳥浜町,カナガワケン,ヨコハマシカナザワク,トリハマチョウ,神奈川県横浜市金沢区鳥浜町
2360003,神奈川県,横浜市金沢区,幸浦,カナガワケン,ヨコハマシカナザワク,サチウラ,神奈川県横浜市金沢区幸浦
2360004,神奈川県,横浜市金沢区,福浦,カナガワケン,ヨコハマシカナザワク,フクウラ,神奈川県横浜市金沢区福浦
2360005,神奈川県,横浜市金沢区,並木,カナガワケン,ヨコハマシカナザワク,ナミキ,神奈川県横浜市金沢区並木
2360006,神奈川県,横浜市金沢区,八景島,カナガワケン,ヨコハマシカナザワク,ハッケイジマ,神奈川県横浜市金沢区八景島
2360007,神奈川県,横浜市金沢区,白帆,カナガワケン,ヨコハマシカナザワク,シラホ,神奈川県横浜市金沢区白帆
2360011,神奈川県,横浜市金沢区,長浜,カナガワケン,ヨコハマシカナザワク,ナガハマ,神奈川県横浜市金沢区長浜
2360012,神奈川県,横浜市金沢区,柴町,カナガワケン,ヨコハマシカナザワク,シバチョウ,神奈川県横浜市金沢区柴町
2360013,神奈川県,横浜市金沢区,海の公園,カナガワケン,ヨコハマシカナザワク,ウミノコウエン,神奈川県横浜市金沢区海の公園
2360014,神奈川県,横浜市金沢区,寺前,カナガワケン,ヨコハマシカナザワク,テラマエ,神奈川県横浜市金沢区寺前
2360015,神奈川県,横浜市金沢区,金沢町,カナガワケン,ヨコハマシカナザワク,カナザワチョウ,神奈川県横浜市金沢区金沢町
2360016,神奈川県,横浜市金沢区,谷津町,カナガワケン,ヨコハマシカナザワク,ヤツチョウ,神奈川県横浜市金沢区谷津町
2360017,神奈川県,横浜市金沢区,西柴,カナガワケン,ヨコハマシカナザワク,ニシシバ,神奈川県横浜市金沢区西柴
2360021,神奈川県,横浜市金沢区,泥亀,カナガワケン,ヨコハマシカナザワク,デイキ,神奈川県横浜市金沢区泥亀
2360022,神奈川県,横浜市金沢区,町屋町,カナガワケン,ヨコハマシカナザワク,マチヤチョウ,神奈川県横浜市金沢区町屋町
2360023,神奈川県,横浜市金沢区,平潟町,カナガワケン,ヨコハマシカナザワク,ヒラカタチョウ,神奈川県横浜市金沢区平潟町
2360024,神奈川県,横浜市金沢区,乙舳町,カナガワケン,ヨコハマシカナザワク,オツトモチョウ,神奈川県横浜市金沢区乙舳町
2360025,神奈川県,横浜市金沢区,野島町,カナガワケン,ヨコハマシカナザワク,ノジマチョウ,神奈川県横浜市金沢区野島町
2360026,神奈川県,横浜市金沢区,柳町,カナガワケン,ヨコハマシカナザワク,ヤナギチョウ,神奈川県横浜市金沢区柳町
2360027,神奈川県,横浜市金沢区,瀬戸,カナガワケン,ヨコハマシカナザワク,セト,神奈川県横浜市金沢区瀬戸
2360028,神奈川県,横浜市金沢区,洲崎町,カナガワケン,ヨコハマシカナザワク,スサキチョウ,神奈川県横浜市金沢区洲崎町
2360031,神奈川県,横浜市金沢区,六浦,カナガワケン,ヨコハマシカナザワク,ムツウラ,神奈川県横浜市金沢区六浦
2360032,神奈川県,横浜市金沢区,六浦町,カナガワケン,ヨコハマシカナザワク,ムツウラチョウ,神奈川県横浜市金沢区六浦町
2360033,神奈川県,横浜市金沢区,東朝比奈,カナガワケン,ヨコハマシカナザワク,ヒガシアサヒナ,神奈川県横浜市金沢区東朝比奈
2360034,神奈川県,横浜市金沢区,朝比奈町,カナガワケン,ヨコハマシカナザワク,アサヒナチョウ,神奈川県横浜市金沢区朝比奈町
2360035,神奈川県,横浜市金沢区,大道,カナガワケン,ヨコハマシカナザワク,ダイドウ,神奈川県横浜市金沢区大道
2360036,神奈川県,横浜市金沢区,みず木町,カナガワケン,ヨコハマシカナザワク,ミズキチョウ,神奈川県横浜市金沢区みず木町
2360037,神奈川県,横浜市金沢区,六浦東,カナガワケン,ヨコハマシカナザワク,ムツウラヒガシ,神奈川県横浜市金沢区六浦東
2360038,神奈川県,横浜市金沢区,六浦南,カナガワケン,ヨコハマシカナザワク,ムツウラミナミ,神奈川県横浜市金沢区六浦南
2360041,神奈川県,横浜市金沢区,釜利谷町,カナガワケン,ヨコハマシカナザワク,カマリヤチョウ,神奈川県横浜市金沢区釜利谷町
2360042,神奈川県,横浜市金沢区,釜利谷東,カナガワケン,ヨコハマシカナザワク,カマリヤヒガシ,神奈川県横浜市金沢区釜利谷東
2360043,神奈川県,横浜市金沢区,大川,カナガワケン,ヨコハマシカナザワク,オオカワ,神奈川県横浜市金沢区大川
2360044,神奈川県,横浜市金沢区,高舟台,カナガワケン,ヨコハマシカナザワク,タカフネダイ,神奈川県横浜市金沢区高舟台
2360045,神奈川県,横浜市金沢区,釜利谷南,カナガワケン,ヨコハマシカナザワク,カマリヤミナミ,神奈川県横浜市金沢区釜利谷南
2360046,神奈川県,横浜市金沢区,釜利谷西,カナガワケン,ヨコハマシカナザワク,カマリヤニシ,神奈川県横浜市金沢区釜利谷西
2360051,神奈川県,横浜市金沢区,富岡東,カナガワケン,ヨコハマシカナザワク,トミオカヒガシ,神奈川県横浜市金沢区富岡東
2360052,神奈川県,横浜市金沢区,富岡西,カナガワケン,ヨコハマシカナザワク,トミオカニシ,神奈川県横浜市金沢区富岡西
2360053,神奈川県,横浜市金沢区,能見台通,カナガワケン,ヨコハマシカナザワク,ノウケンダイドオリ,神奈川県横浜市金沢区能見台通
2360054,神奈川県,横浜市金沢区,堀口,カナガワケン,ヨコハマシカナザワク,ホリグチ,神奈川県横浜市金沢区堀口
2360055,神奈川県,横浜市金沢区,片吹,カナガワケン,ヨコハマシカナザワク,カタブキ,神奈川県横浜市金沢区片吹
2360056,神奈川県,横浜市金沢区,能見台森,カナガワケン,ヨコハマシカナザワク,ノウケンダイモリ,神奈川県横浜市金沢区能見台森
2360057,神奈川県,横浜市金沢区,能見台,カナガワケン,ヨコハマシカナザワク,ノウケンダイ,神奈川県横浜市金沢区能見台
2360058,神奈川県,横浜市金沢区,能見台東,カナガワケン,ヨコハマシカナザワク,ノウケンダイヒガシ,神奈川県横浜市金沢区能見台東
2370061,神奈川県,横須賀市,夏島町,カナガワケン,ヨコスカシ,ナツシマチョウ,神奈川県横須賀市夏島町
2370062,神奈川県,横須賀市,浦郷町,カナガワケン,ヨコスカシ,ウラゴウチョウ,神奈川県横須賀市浦郷町
2370063,神奈川県,横須賀市,追浜東町,カナガワケン,ヨコスカシ,オッパマヒガシチョウ,神奈川県横須賀市追浜東町
2370064,神奈川県,横須賀市,追浜町,カナガワケン,ヨコスカシ,オッパマチョウ,神奈川県横須賀市追浜町
2370065,神奈川県,横須賀市,追浜南町,カナガワケン,ヨコスカシ,オッパマミナミチョウ,神奈川県横須賀市追浜南町
2370066,神奈川県,横須賀市,湘南鷹取,カナガワケン,ヨコスカシ,ショウナンタカトリ,神奈川県横須賀市湘南鷹取
2370067,神奈川県,横須賀市,鷹取,カナガワケン,ヨコスカシ,タカトリ,神奈川県横須賀市鷹取
2370068,神奈川県,横須賀市,追浜本町,カナガワケン,ヨコスカシ,オッパマホンチョウ,神奈川県横須賀市追浜本町
2370071,神奈川県,横須賀市,田浦港町,カナガワケン,ヨコスカシ,タウラミナトチョウ,神奈川県横須賀市田浦港町
2370072,神奈川県,横須賀市,長浦町,カナガワケン,ヨコスカシ,ナガウラチョウ,神奈川県横須賀市長浦町
2370073,神奈川県,横須賀市,田浦泉町,カナガワケン,ヨコスカシ,タウライズミチョウ,神奈川県横須賀市田浦泉町
2370074,神奈川県,横須賀市,田浦大作町,カナガワケン,ヨコスカシ,タウラオオサクチョウ,神奈川県横須賀市田浦大作町
2370075,神奈川県,横須賀市,田浦町,カナガワケン,ヨコスカシ,タウラチョウ,神奈川県横須賀市田浦町
2370076,神奈川県,横須賀市,船越町,カナガワケン,ヨコスカシ,フナコシチョウ,神奈川県横須賀市船越町
2370077,神奈川県,横須賀市,浜見台,カナガワケン,ヨコスカシ,ハマミダイ,神奈川県横須賀市浜見台
2370078,神奈川県,横須賀市,箱崎町,カナガワケン,ヨコスカシ,ハコザキチョウ,神奈川県横須賀市箱崎町
2370079,神奈川県,横須賀市,港が丘,カナガワケン,ヨコスカシ,ミナトガオカ,神奈川県横須賀市港が丘
2380000,神奈川県,横須賀市,,カナガワケン,ヨコスカシ,,神奈川県横須賀市
2380001,神奈川県,横須賀市,泊町,カナガワケン,ヨコスカシ,トマリチョウ,神奈川県横須賀市泊町
2380002,神奈川県,横須賀市,楠ケ浦町,カナガワケン,ヨコスカシ,クスガウラチョウ,神奈川県横須賀市楠ケ浦町
2380003,神奈川県,横須賀市,稲岡町,カナガワケン,ヨコスカシ,イナオカチョウ,神奈川県横須賀市稲岡町
2380004,神奈川県,横須賀市,小川町,カナガワケン,ヨコスカシ,オガワチョウ,神奈川県横須賀市小川町
2380005,神奈川県,横須賀市,新港町,カナガワケン,ヨコスカシ,シンコウチョウ,神奈川県横須賀市新港町
2380006,神奈川県,横須賀市,日の出町,カナガワケン,ヨコスカシ,ヒノデチョウ,神奈川県横須賀市日の出町
2380007,神奈川県,横須賀市,若松町,カナガワケン,ヨコスカシ,ワカマツチョウ,神奈川県横須賀市若松町
2380008,神奈川県,横須賀市,大滝町,カナガワケン,ヨコスカシ,オオダキチョウ,神奈川県横須賀市大滝町
2380011,神奈川県,横須賀市,米が浜通,カナガワケン,ヨコスカシ,ヨネガハマドオリ,神奈川県横須賀市米が浜通
2380012,神奈川県,横須賀市,安浦町,カナガワケン,ヨコスカシ,ヤスウラチョウ,神奈川県横須賀市安浦町
2380013,神奈川県,横須賀市,平成町,カナガワケン,ヨコスカシ,ヘイセイチョウ,神奈川県横須賀市平成町
2380014,神奈川県,横須賀市,三春町,カナガワケン,ヨコスカシ,ミハルチョウ,神奈川県横須賀市三春町
2380015,神奈川県,横須賀市,田戸台,カナガワケン,ヨコスカシ,タドダイ,神奈川県横須賀市田戸台
2380016,神奈川県,横須賀市,深田台,カナガワケン,ヨコスカシ,フカダダイ,神奈川県横須賀市深田台
2380017,神奈川県,横須賀市,上町,カナガワケン,ヨコスカシ,ウワマチ,神奈川県横須賀市上町
2380018,神奈川県,横須賀市,緑が丘,カナガワケン,ヨコスカシ,ミドリガオカ,神奈川県横須賀市緑が丘
2380019,神奈川県,横須賀市,猿島,カナガワケン,ヨコスカシ,サルシマ,神奈川県横須賀市猿島
2380021,神奈川県,横須賀市,富士見町,カナガワケン,ヨコスカシ,フジミチョウ,神奈川県横須賀市富士見町
2380022,神奈川県,横須賀市,公郷町,カナガワケン,ヨコスカシ,クゴウチョウ,神奈川県横須賀市公郷町
2380023,神奈川県,横須賀市,森崎,カナガワケン,ヨコスカシ,モリサキ,神奈川県横須賀市森崎
2380024,神奈川県,横須賀市,大矢部,カナガワケン,ヨコスカシ,オオヤベ,神奈川県横須賀市大矢部
2380025,神奈川県,横須賀市,衣笠町,カナガワケン,ヨコスカシ,キヌカサチョウ,神奈川県横須賀市衣笠町
2380026,神奈川県,横須賀市,小矢部,カナガワケン,ヨコスカシ,コヤベ,神奈川県横須賀市小矢部
2380031,神奈川県,横須賀市,衣笠栄町,カナガワケン,ヨコスカシ,キヌカササカエチョウ,神奈川県横須賀市衣笠栄町
2380032,神奈川県,横須賀市,平作,カナガワケン,ヨコスカシ,ヒラサク,神奈川県横須賀市平作
2380033,神奈川県,横須賀市,阿部倉,カナガワケン,ヨコスカシ,アベクラ,神奈川県横須賀市阿部倉
2380034,神奈川県,横須賀市,金谷,カナガワケン,ヨコスカシ,カネヤ,神奈川県横須賀市金谷
2380035,神奈川県,横須賀市,池上,カナガワケン,ヨコスカシ,イケガミ,神奈川県横須賀市池上
2380036,神奈川県,横須賀市,山中町,カナガワケン,ヨコスカシ,ヤマナカチョウ,神奈川県横須賀市山中町
2380041,神奈川県,横須賀市,本町,カナガワケン,ヨコスカシ,ホンチョウ,神奈川県横須賀市本町
2380042,神奈川県,横須賀市,汐入町,カナガワケン,ヨコスカシ,シオイリチョウ,神奈川県横須賀市汐入町
2380043,神奈川県,横須賀市,坂本町,カナガワケン,ヨコスカシ,サカモトチョウ,神奈川県横須賀市坂本町
2380044,神奈川県,横須賀市,逸見が丘,カナガワケン,ヨコスカシ,ヘミガオカ,神奈川県横須賀市逸見が丘
2380045,神奈川県,横須賀市,東逸見町,カナガワケン,ヨコスカシ,ヒガシヘミチョウ,神奈川県横須賀市東逸見町
2380046,神奈川県,横須賀市,西逸見町,カナガワケン,ヨコスカシ,ニシヘミチョウ,神奈川県横須賀市西逸見町
2380047,神奈川県,横須賀市,吉倉町,カナガワケン,ヨコスカシ,ヨシクラチョウ,神奈川県横須賀市吉倉町
2380048,神奈川県,横須賀市,安針台,カナガワケン,ヨコスカシ,アンジンダイ,神奈川県横須賀市安針台
2380051,神奈川県,横須賀市,不入斗町,カナガワケン,ヨコスカシ,イリヤマズチョウ,神奈川県横須賀市不入斗町
2380052,神奈川県,横須賀市,佐野町,カナガワケン,ヨコスカシ,サノチョウ,神奈川県横須賀市佐野町
2380053,神奈川県,横須賀市,望洋台,カナガワケン,ヨコスカシ,ボウヨウダイ,神奈川県横須賀市望洋台
2380054,神奈川県,横須賀市,汐見台,カナガワケン,ヨコスカシ,シオミダイ,神奈川県横須賀市汐見台
2380055,神奈川県,横須賀市,平和台,カナガワケン,ヨコスカシ,ヘイワダイ,神奈川県横須賀市平和台
2380056,神奈川県,横須賀市,鶴が丘,カナガワケン,ヨコスカシ,ツルガオカ,神奈川県横須賀市鶴が丘
2380101,神奈川県,三浦市,南下浦町上宮田,カナガワケン,ミウラシ,ミナミシタウラマチカミミヤダ,神奈川県三浦市南下浦町上宮田
2380102,神奈川県,三浦市,南下浦町菊名,カナガワケン,ミウラシ,ミナミシタウラマチキクナ,神奈川県三浦市南下浦町菊名
2380103,神奈川県,三浦市,南下浦町金田,カナガワケン,ミウラシ,ミナミシタウラマチカネダ,神奈川県三浦市南下浦町金田
2380104,神奈川県,三浦市,南下浦町松輪,カナガワケン,ミウラシ,ミナミシタウラマチマツワ,神奈川県三浦市南下浦町松輪
2380105,神奈川県,三浦市,南下浦町毘沙門,カナガワケン,ミウラシ,ミナミシタウラマチビシャモン,神奈川県三浦市南下浦町毘沙門
2380111,神奈川県,三浦市,初声町下宮田,カナガワケン,ミウラシ,ハッセマチシモミヤダ,神奈川県三浦市初声町下宮田
2380112,神奈川県,三浦市,初声町三戸,カナガワケン,ミウラシ,ハッセマチミト,神奈川県三浦市初声町三戸
2380113,神奈川県,三浦市,初声町入江,カナガワケン,ミウラシ,ハッセマチイリエ,神奈川県三浦市初声町入江
2380114,神奈川県,三浦市,初声町和田,カナガワケン,ミウラシ,ハッセマチワダ,神奈川県三浦市初声町和田
2380115,神奈川県,三浦市,初声町高円坊,カナガワケン,ミウラシ,ハッセマチコウエンボウ,神奈川県三浦市初声町高円坊
2380200,神奈川県,三浦市,,カナガワケン,ミウラシ,,神奈川県三浦市
2380221,神奈川県,三浦市,三崎町六合,カナガワケン,ミウラシ,ミサキマチムツアイ,神奈川県三浦市三崎町六合
2380222,神奈川県,三浦市,岬陽町,カナガワケン,ミウラシ,コウヨウチョウ,神奈川県三浦市岬陽町
2380223,神奈川県,三浦市,原町,カナガワケン,ミウラシ,ハラチョウ,神奈川県三浦市原町
2380224,神奈川県,三浦市,三崎町諸磯,カナガワケン,ミウラシ,ミサキマチモロイソ,神奈川県三浦市三崎町諸磯
2380225,神奈川県,三浦市,三崎町小網代,カナガワケン,ミウラシ,ミサキマチコアジロ,神奈川県三浦市三崎町小網代
2380231,神奈川県,三浦市,宮川町,カナガワケン,ミウラシ,ミヤガワチョウ,神奈川県三浦市宮川町
2380232,神奈川県,三浦市,晴海町,カナガワケン,ミウラシ,ハルミチョウ,神奈川県三浦市晴海町
2380233,神奈川県,三浦市,向ケ崎町,カナガワケン,ミウラシ,ムコウガサキチョウ,神奈川県三浦市向ケ崎町
2380234,神奈川県,三浦市,諏訪町,カナガワケン,ミウラシ,スワチョウ,神奈川県三浦市諏訪町
2380235,神奈川県,三浦市,城山町,カナガワケン,ミウラシ,シロヤマチョウ,神奈川県三浦市城山町
2380236,神奈川県,三浦市,栄町,カナガワケン,ミウラシ,サカエチョウ,神奈川県三浦市栄町
2380237,神奈川県,三浦市,三崎町城ケ島,カナガワケン,ミウラシ,ミサキマチジョウガシマ,神奈川県三浦市三崎町城ケ島
2380241,神奈川県,三浦市,天神町,カナガワケン,ミウラシ,テンジンチョウ,神奈川県三浦市天神町
2380242,神奈川県,三浦市,東岡町,カナガワケン,ミウラシ,ヒガシオカチョウ,神奈川県三浦市東岡町
2380243,神奈川県,三浦市,三崎,カナガワケン,ミウラシ,ミサキ,神奈川県三浦市三崎
2380244,神奈川県,三浦市,白石町,カナガワケン,ミウラシ,シライシチョウ,神奈川県三浦市白石町
2380245,神奈川県,三浦市,海外町,カナガワケン,ミウラシ,カイトチョウ,神奈川県三浦市海外町
2380246,神奈川県,三浦市,尾上町,カナガワケン,ミウラシ,オガミチョウ,神奈川県三浦市尾上町
2380311,神奈川県,横須賀市,太田和,カナガワケン,ヨコスカシ,オオタワ,神奈川県横須賀市太田和
2380312,神奈川県,横須賀市,山科台,カナガワケン,ヨコスカシ,ヤマシナダイ,神奈川県横須賀市山科台
2380313,神奈川県,横須賀市,武,カナガワケン,ヨコスカシ,タケ,神奈川県横須賀市武
2380314,神奈川県,横須賀市,須軽谷,カナガワケン,ヨコスカシ,スガルヤ,神奈川県横須賀市須軽谷
2380315,神奈川県,横須賀市,林,カナガワケン,ヨコスカシ,ハヤシ,神奈川県横須賀市林
2380316,神奈川県,横須賀市,長井,カナガワケン,ヨコスカシ,ナガイ,神奈川県横須賀市長井
2380317,神奈川県,横須賀市,御幸浜,カナガワケン,ヨコスカシ,ミユキハマ,神奈川県横須賀市御幸浜
2390801,神奈川県,横須賀市,馬堀海岸,カナガワケン,ヨコスカシ,マボリカイガン,神奈川県横須賀市馬堀海岸
2390802,神奈川県,横須賀市,馬堀町,カナガワケン,ヨコスカシ,マボリチョウ,神奈川県横須賀市馬堀町
2390803,神奈川県,横須賀市,桜が丘,カナガワケン,ヨコスカシ,サクラガオカ,神奈川県横須賀市桜が丘
2390804,神奈川県,横須賀市,吉井,カナガワケン,ヨコスカシ,ヨシイ,神奈川県横須賀市吉井
2390805,神奈川県,横須賀市,舟倉,カナガワケン,ヨコスカシ,フナグラ,神奈川県横須賀市舟倉
2390806,神奈川県,横須賀市,池田町,カナガワケン,ヨコスカシ,イケダチョウ,神奈川県横須賀市池田町
2390807,神奈川県,横須賀市,根岸町,カナガワケン,ヨコスカシ,ネギシチョウ,神奈川県横須賀市根岸町
2390808,神奈川県,横須賀市,大津町,カナガワケン,ヨコスカシ,オオツチョウ,神奈川県横須賀市大津町
2390811,神奈川県,横須賀市,走水,カナガワケン,ヨコスカシ,ハシリミズ,神奈川県横須賀市走水
2390812,神奈川県,横須賀市,小原台,カナガワケン,ヨコスカシ,オバラダイ,神奈川県横須賀市小原台
2390813,神奈川県,横須賀市,鴨居,カナガワケン,ヨコスカシ,カモイ,神奈川県横須賀市鴨居
2390814,神奈川県,横須賀市,二葉,カナガワケン,ヨコスカシ,フタバ,神奈川県横須賀市二葉
2390815,神奈川県,横須賀市,浦上台,カナガワケン,ヨコスカシ,ウラガミダイ,神奈川県横須賀市浦上台
2390820,神奈川県,横須賀市,光風台,カナガワケン,ヨコスカシ,コウフウダイ,神奈川県横須賀市光風台
2390821,神奈川県,横須賀市,東浦賀,カナガワケン,ヨコスカシ,ヒガシウラガ,神奈川県横須賀市東浦賀
2390822,神奈川県,横須賀市,浦賀,カナガワケン,ヨコスカシ,ウラガ,神奈川県横須賀市浦賀
2390823,神奈川県,横須賀市,浦賀丘,カナガワケン,ヨコスカシ,ウラガオカ,神奈川県横須賀市浦賀丘
2390824,神奈川県,横須賀市,西浦賀,カナガワケン,ヨコスカシ,ニシウラガ,神奈川県横須賀市西浦賀
2390825,神奈川県,横須賀市,南浦賀,カナガワケン,ヨコスカシ,ミナミウラガ,神奈川県横須賀市南浦賀
2390826,神奈川県,横須賀市,長瀬,カナガワケン,ヨコスカシ,ナガセ,神奈川県横須賀市長瀬
2390827,神奈川県,横須賀市,久里浜台,カナガワケン,ヨコスカシ,クリハマダイ,神奈川県横須賀市久里浜台
2390828,神奈川県,横須賀市,久比里,カナガワケン,ヨコスカシ,クビリ,神奈川県横須賀市久比里
2390829,神奈川県,横須賀市,若宮台,カナガワケン,ヨコスカシ,ワカミヤダイ,神奈川県横須賀市若宮台
2390831,神奈川県,横須賀市,久里浜,カナガワケン,ヨコスカシ,クリハマ,神奈川県横須賀市久里浜
2390832,神奈川県,横須賀市,神明町,カナガワケン,ヨコスカシ,シンメイチョウ,神奈川県横須賀市神明町
2390833,神奈川県,横須賀市,ハイランド,カナガワケン,ヨコスカシ,ハイランド,神奈川県横須賀市ハイランド
2390834,神奈川県,横須賀市,久村,カナガワケン,ヨコスカシ,クムラ,神奈川県横須賀市久村
2390835,神奈川県,横須賀市,佐原,カナガワケン,ヨコスカシ,サハラ,神奈川県横須賀市佐原
2390836,神奈川県,横須賀市,内川,カナガワケン,ヨコスカシ,ウチカワ,神奈川県横須賀市内川
2390837,神奈川県,横須賀市,内川新田,カナガワケン,ヨコスカシ,ウチカワシンデン,神奈川県横須賀市内川新田
2390841,神奈川県,横須賀市,野比,カナガワケン,ヨコスカシ,ノビ,神奈川県横須賀市野比
2390842,神奈川県,横須賀市,長沢,カナガワケン,ヨコスカシ,ナガサワ,神奈川県横須賀市長沢
2390843,神奈川県,横須賀市,津久井,カナガワケン,ヨコスカシ,ツクイ,神奈川県横須賀市津久井
2390844,神奈川県,横須賀市,岩戸,カナガワケン,ヨコスカシ,イワト,神奈川県横須賀市岩戸
2390845,神奈川県,横須賀市,粟田,カナガワケン,ヨコスカシ,アワタ,神奈川県横須賀市粟田
2390846,神奈川県,横須賀市,グリーンハイツ,カナガワケン,ヨコスカシ,グリーンハイツ,神奈川県横須賀市グリーンハイツ
2390847,神奈川県,横須賀市,光の丘,カナガワケン,ヨコスカシ,ヒカリノオカ,神奈川県横須賀市光の丘
2400000,神奈川県,横浜市保土ケ谷区,,カナガワケン,ヨコハマシホドガヤク,,神奈川県横浜市保土ケ谷区
2400001,神奈川県,横浜市保土ケ谷区,川辺町,カナガワケン,ヨコハマシホドガヤク,カワベチョウ,神奈川県横浜市保土ケ谷区川辺町
2400002,神奈川県,横浜市保土ケ谷区,宮田町,カナガワケン,ヨコハマシホドガヤク,ミヤタチョウ,神奈川県横浜市保土ケ谷区宮田町
2400003,神奈川県,横浜市保土ケ谷区,天王町,カナガワケン,ヨコハマシホドガヤク,テンノウチョウ,神奈川県横浜市保土ケ谷区天王町
2400004,神奈川県,横浜市保土ケ谷区,岩間町,カナガワケン,ヨコハマシホドガヤク,イワマチョウ,神奈川県横浜市保土ケ谷区岩間町
2400005,神奈川県,横浜市保土ケ谷区,神戸町,カナガワケン,ヨコハマシホドガヤク,ゴウドチョウ,神奈川県横浜市保土ケ谷区神戸町
2400006,神奈川県,横浜市保土ケ谷区,星川,カナガワケン,ヨコハマシホドガヤク,ホシカワ,神奈川県横浜市保土ケ谷区星川
2400007,神奈川県,横浜市保土ケ谷区,明神台,カナガワケン,ヨコハマシホドガヤク,ミョウジンダイ,神奈川県横浜市保土ケ谷区明神台
2400011,神奈川県,横浜市保土ケ谷区,桜ケ丘,カナガワケン,ヨコハマシホドガヤク,サクラガオカ,神奈川県横浜市保土ケ谷区桜ケ丘
2400012,神奈川県,横浜市保土ケ谷区,月見台,カナガワケン,ヨコハマシホドガヤク,ツキミダイ,神奈川県横浜市保土ケ谷区月見台
2400013,神奈川県,横浜市保土ケ谷区,帷子町,カナガワケン,ヨコハマシホドガヤク,カタビラチョウ,神奈川県横浜市保土ケ谷区帷子町
2400014,神奈川県,横浜市保土ケ谷区,霞台,カナガワケン,ヨコハマシホドガヤク,カスミダイ,神奈川県横浜市保土ケ谷区霞台
2400015,神奈川県,横浜市保土ケ谷区,岩崎町,カナガワケン,ヨコハマシホドガヤク,イワサキチョウ,神奈川県横浜市保土ケ谷区岩崎町
2400016,神奈川県,横浜市保土ケ谷区,初音ケ丘,カナガワケン,ヨコハマシホドガヤク,ハツネガオカ,神奈川県横浜市保土ケ谷区初音ケ丘
2400017,神奈川県,横浜市保土ケ谷区,花見台,カナガワケン,ヨコハマシホドガヤク,ハナミダイ,神奈川県横浜市保土ケ谷区花見台
2400021,神奈川県,横浜市保土ケ谷区,保土ケ谷町,カナガワケン,ヨコハマシホドガヤク,ホドガヤチョウ,神奈川県横浜市保土ケ谷区保土ケ谷町
2400022,神奈川県,横浜市保土ケ谷区,西久保町,カナガワケン,ヨコハマシホドガヤク,ニシクボチョウ,神奈川県横浜市保土ケ谷区西久保町
2400023,神奈川県,横浜市保土ケ谷区,岩井町,カナガワケン,ヨコハマシホドガヤク,イワイチョウ,神奈川県横浜市保土ケ谷区岩井町
2400024,神奈川県,横浜市保土ケ谷区,瀬戸ケ谷町,カナガワケン,ヨコハマシホドガヤク,セトガヤチョウ,神奈川県横浜市保土ケ谷区瀬戸ケ谷町
2400025,神奈川県,横浜市保土ケ谷区,狩場町,カナガワケン,ヨコハマシホドガヤク,カリバチョウ,神奈川県横浜市保土ケ谷区狩場町
2400026,神奈川県,横浜市保土ケ谷区,権太坂,カナガワケン,ヨコハマシホドガヤク,ゴンタザカ,神奈川県横浜市保土ケ谷区権太坂
2400031,神奈川県,横浜市保土ケ谷区,藤塚町,カナガワケン,ヨコハマシホドガヤク,フジツカチョウ,神奈川県横浜市保土ケ谷区藤塚町
2400032,神奈川県,横浜市保土ケ谷区,法泉,カナガワケン,ヨコハマシホドガヤク,ホウセン,神奈川県横浜市保土ケ谷区法泉
2400033,神奈川県,横浜市保土ケ谷区,境木本町,カナガワケン,ヨコハマシホドガヤク,サカイギホンチョウ,神奈川県横浜市保土ケ谷区境木本町
2400034,神奈川県,横浜市保土ケ谷区,境木町,カナガワケン,ヨコハマシホドガヤク,サカイギチョウ,神奈川県横浜市保土ケ谷区境木町
2400035,神奈川県,横浜市保土ケ谷区,今井町,カナガワケン,ヨコハマシホドガヤク,イマイチョウ,神奈川県横浜市保土ケ谷区今井町
2400036,神奈川県,横浜市保土ケ谷区,新桜ケ丘,カナガワケン,ヨコハマシホドガヤク,シンサクラガオカ,神奈川県横浜市保土ケ谷区新桜ケ丘
2400041,神奈川県,横浜市保土ケ谷区,東川島町,カナガワケン,ヨコハマシホドガヤク,ヒガシカワシマチョウ,神奈川県横浜市保土ケ谷区東川島町
2400042,神奈川県,横浜市保土ケ谷区,上星川,カナガワケン,ヨコハマシホドガヤク,カミホシカワ,神奈川県横浜市保土ケ谷区上星川
2400043,神奈川県,横浜市保土ケ谷区,坂本町,カナガワケン,ヨコハマシホドガヤク,サカモトチョウ,神奈川県横浜市保土ケ谷区坂本町
2400044,神奈川県,横浜市保土ケ谷区,仏向町,カナガワケン,ヨコハマシホドガヤク,ブッコウチョウ,神奈川県横浜市保土ケ谷区仏向町
2400045,神奈川県,横浜市保土ケ谷区,川島町,カナガワケン,ヨコハマシホドガヤク,カワシマチョウ,神奈川県横浜市保土ケ谷区川島町
2400046,神奈川県,横浜市保土ケ谷区,仏向西,カナガワケン,ヨコハマシホドガヤク,ブッコウニシ,神奈川県横浜市保土ケ谷区仏向西
2400051,神奈川県,横浜市保土ケ谷区,上菅田町,カナガワケン,ヨコハマシホドガヤク,カミスゲダチョウ,神奈川県横浜市保土ケ谷区上菅田町
2400052,神奈川県,横浜市保土ケ谷区,西谷町,カナガワケン,ヨコハマシホドガヤク,ニシヤマチ,神奈川県横浜市保土ケ谷区西谷町
2400053,神奈川県,横浜市保土ケ谷区,新井町,カナガワケン,ヨコハマシホドガヤク,アライチョウ,神奈川県横浜市保土ケ谷区新井町
2400054,神奈川県,横浜市保土ケ谷区,西谷,カナガワケン,ヨコハマシホドガヤク,ニシヤ,神奈川県横浜市保土ケ谷区西谷
2400061,神奈川県,横浜市保土ケ谷区,峰沢町,カナガワケン,ヨコハマシホドガヤク,ミネザワチョウ,神奈川県横浜市保土ケ谷区峰沢町
2400062,神奈川県,横浜市保土ケ谷区,岡沢町,カナガワケン,ヨコハマシホドガヤク,オカザワチョウ,神奈川県横浜市保土ケ谷区岡沢町
2400063,神奈川県,横浜市保土ケ谷区,鎌谷町,カナガワケン,ヨコハマシホドガヤク,カマヤチョウ,神奈川県横浜市保土ケ谷区鎌谷町
2400064,神奈川県,横浜市保土ケ谷区,峰岡町,カナガワケン,ヨコハマシホドガヤク,ミネオカチョウ,神奈川県横浜市保土ケ谷区峰岡町
2400065,神奈川県,横浜市保土ケ谷区,和田,カナガワケン,ヨコハマシホドガヤク,ワダ,神奈川県横浜市保土ケ谷区和田
2400066,神奈川県,横浜市保土ケ谷区,釜台町,カナガワケン,ヨコハマシホドガヤク,カマダイチョウ,神奈川県横浜市保土ケ谷区釜台町
2400067,神奈川県,横浜市保土ケ谷区,常盤台,カナガワケン,ヨコハマシホドガヤク,トキワダイ,神奈川県横浜市保土ケ谷区常盤台
2400100,神奈川県,三浦郡葉山町,,カナガワケン,ミウラグンハヤママチ,,神奈川県三浦郡葉山町
2400101,神奈川県,横須賀市,長坂,カナガワケン,ヨコスカシ,ナガサカ,神奈川県横須賀市長坂
2400102,神奈川県,横須賀市,荻野,カナガワケン,ヨコスカシ,オギノ,神奈川県横須賀市荻野
2400103,神奈川県,横須賀市,佐島,カナガワケン,ヨコスカシ,サジマ,神奈川県横須賀市佐島
2400104,神奈川県,横須賀市,芦名,カナガワケン,ヨコスカシ,アシナ,神奈川県横須賀市芦名
2400105,神奈川県,横須賀市,秋谷,カナガワケン,ヨコスカシ,アキヤ,神奈川県横須賀市秋谷
2400106,神奈川県,横須賀市,子安,カナガワケン,ヨコスカシ,コヤス,神奈川県横須賀市子安
2400107,神奈川県,横須賀市,湘南国際村,カナガワケン,ヨコスカシ,ショウナンコクサイムラ,神奈川県横須賀市湘南国際村
2400108,神奈川県,横須賀市,佐島の丘,カナガワケン,ヨコスカシ,サジマノオカ,神奈川県横須賀市佐島の丘
2400111,神奈川県,三浦郡葉山町,一色,カナガワケン,ミウラグンハヤママチ,イッシキ,神奈川県三浦郡葉山町一色
2400112,神奈川県,三浦郡葉山町,堀内,カナガワケン,ミウラグンハヤママチ,ホリウチ,神奈川県三浦郡葉山町堀内
2400113,神奈川県,三浦郡葉山町,長柄,カナガワケン,ミウラグンハヤママチ,ナガエ,神奈川県三浦郡葉山町長柄
2400114,神奈川県,三浦郡葉山町,木古庭,カナガワケン,ミウラグンハヤママチ,キコバ,神奈川県三浦郡葉山町木古庭
2400115,神奈川県,三浦郡葉山町,上山口,カナガワケン,ミウラグンハヤママチ,カミヤマグチ,神奈川県三浦郡葉山町上山口
2400116,神奈川県,三浦郡葉山町,下山口,カナガワケン,ミウラグンハヤママチ,シモヤマグチ,神奈川県三浦郡葉山町下山口
2410000,神奈川県,横浜市旭区,,カナガワケン,ヨコハマシアサヒク,,神奈川県横浜市旭区
2410001,神奈川県,横浜市旭区,上白根町,カナガワケン,ヨコハマシアサヒク,カミシラネチョウ,神奈川県横浜市旭区上白根町
2410002,神奈川県,横浜市旭区,上白根,カナガワケン,ヨコハマシアサヒク,カミシラネ,神奈川県横浜市旭区上白根
2410003,神奈川県,横浜市旭区,白根町,カナガワケン,ヨコハマシアサヒク,シラネチョウ,神奈川県横浜市旭区白根町
2410004,神奈川県,横浜市旭区,中白根,カナガワケン,ヨコハマシアサヒク,ナカシラネ,神奈川県横浜市旭区中白根
2410005,神奈川県,横浜市旭区,白根,カナガワケン,ヨコハマシアサヒク,シラネ,神奈川県横浜市旭区白根
2410011,神奈川県,横浜市旭区,川島町,カナガワケン,ヨコハマシアサヒク,カワシマチョウ,神奈川県横浜市旭区川島町
2410012,神奈川県,横浜市旭区,西川島町,カナガワケン,ヨコハマシアサヒク,ニシカワシマチョウ,神奈川県横浜市旭区西川島町
2410013,神奈川県,横浜市旭区,三反田町,カナガワケン,ヨコハマシアサヒク,サンタンダチョウ,神奈川県横浜市旭区三反田町
2410014,神奈川県,横浜市旭区,市沢町,カナガワケン,ヨコハマシアサヒク,イチザワチョウ,神奈川県横浜市旭区市沢町
2410015,神奈川県,横浜市旭区,小高町,カナガワケン,ヨコハマシアサヒク,オタカチョウ,神奈川県横浜市旭区小高町
2410021,神奈川県,横浜市旭区,鶴ケ峰本町,カナガワケン,ヨコハマシアサヒク,ツルガミネホンチョウ,神奈川県横浜市旭区鶴ケ峰本町
2410022,神奈川県,横浜市旭区,鶴ケ峰,カナガワケン,ヨコハマシアサヒク,ツルガミネ,神奈川県横浜市旭区鶴ケ峰
2410023,神奈川県,横浜市旭区,本宿町,カナガワケン,ヨコハマシアサヒク,ホンジュクチョウ,神奈川県横浜市旭区本宿町
2410024,神奈川県,横浜市旭区,本村町,カナガワケン,ヨコハマシアサヒク,ホンムラチョウ,神奈川県横浜市旭区本村町
2410025,神奈川県,横浜市旭区,四季美台,カナガワケン,ヨコハマシアサヒク,シキミダイ,神奈川県横浜市旭区四季美台
2410031,神奈川県,横浜市旭区,今宿西町,カナガワケン,ヨコハマシアサヒク,イマジュクニシチョウ,神奈川県横浜市旭区今宿西町
2410032,神奈川県,横浜市旭区,今宿東町,カナガワケン,ヨコハマシアサヒク,イマジュクヒガシチョウ,神奈川県横浜市旭区今宿東町
2410033,神奈川県,横浜市旭区,今川町,カナガワケン,ヨコハマシアサヒク,イマガワチョウ,神奈川県横浜市旭区今川町
2410034,神奈川県,横浜市旭区,今宿南町,カナガワケン,ヨコハマシアサヒク,イマジュクミナミチョウ,神奈川県横浜市旭区今宿南町
2410801,神奈川県,横浜市旭区,若葉台,カナガワケン,ヨコハマシアサヒク,ワカバダイ,神奈川県横浜市旭区若葉台
2410802,神奈川県,横浜市旭区,上川井町,カナガワケン,ヨコハマシアサヒク,カミカワイチョウ,神奈川県横浜市旭区上川井町
2410803,神奈川県,横浜市旭区,川井本町,カナガワケン,ヨコハマシアサヒク,カワイホンチョウ,神奈川県横浜市旭区川井本町
2410804,神奈川県,横浜市旭区,川井宿町,カナガワケン,ヨコハマシアサヒク,カワイシュクチョウ,神奈川県横浜市旭区川井宿町
2410805,神奈川県,横浜市旭区,都岡町,カナガワケン,ヨコハマシアサヒク,ツオカチョウ,神奈川県横浜市旭区都岡町
2410806,神奈川県,横浜市旭区,下川井町,カナガワケン,ヨコハマシアサヒク,シモカワイチョウ,神奈川県横浜市旭区下川井町
2410811,神奈川県,横浜市旭区,矢指町,カナガワケン,ヨコハマシアサヒク,ヤサシチョウ,神奈川県横浜市旭区矢指町
2410812,神奈川県,横浜市旭区,金が谷,カナガワケン,ヨコハマシアサヒク,カネガヤ,神奈川県横浜市旭区金が谷
2410813,神奈川県,横浜市旭区,今宿町,カナガワケン,ヨコハマシアサヒク,イマジュクチョウ,神奈川県横浜市旭区今宿町
2410814,神奈川県,横浜市旭区,中沢,カナガワケン,ヨコハマシアサヒク,ナカザワ,神奈川県横浜市旭区中沢
2410815,神奈川県,横浜市旭区,中尾,カナガワケン,ヨコハマシアサヒク,ナカオ,神奈川県横浜市旭区中尾
2410816,神奈川県,横浜市旭区,笹野台,カナガワケン,ヨコハマシアサヒク,ササノダイ,神奈川県横浜市旭区笹野台
2410817,神奈川県,横浜市旭区,今宿,カナガワケン,ヨコハマシアサヒク,イマジュク,神奈川県横浜市旭区今宿
2410821,神奈川県,横浜市旭区,二俣川,カナガワケン,ヨコハマシアサヒク,フタマタガワ,神奈川県横浜市旭区二俣川
2410822,神奈川県,横浜市旭区,さちが丘,カナガワケン,ヨコハマシアサヒク,サチガオカ,神奈川県横浜市旭区さちが丘
2410823,神奈川県,横浜市旭区,善部町,カナガワケン,ヨコハマシアサヒク,ゼンブチョウ,神奈川県横浜市旭区善部町
2410824,神奈川県,横浜市旭区,南希望が丘,カナガワケン,ヨコハマシアサヒク,ミナミキボウガオカ,神奈川県横浜市旭区南希望が丘
2410825,神奈川県,横浜市旭区,中希望が丘,カナガワケン,ヨコハマシアサヒク,ナカキボウガオカ,神奈川県横浜市旭区中希望が丘
2410826,神奈川県,横浜市旭区,東希望が丘,カナガワケン,ヨコハマシアサヒク,ヒガシキボウガオカ,神奈川県横浜市旭区東希望が丘
2410831,神奈川県,横浜市旭区,左近山,カナガワケン,ヨコハマシアサヒク,サコンヤマ,神奈川県横浜市旭区左近山
2410832,神奈川県,横浜市旭区,桐が作,カナガワケン,ヨコハマシアサヒク,キリガサク,神奈川県横浜市旭区桐が作
2410833,神奈川県,横浜市旭区,南本宿町,カナガワケン,ヨコハマシアサヒク,ミナミホンジュクチョウ,神奈川県横浜市旭区南本宿町
2410834,神奈川県,横浜市旭区,大池町,カナガワケン,ヨコハマシアサヒク,オオイケチョウ,神奈川県横浜市旭区大池町
2410835,神奈川県,横浜市旭区,柏町,カナガワケン,ヨコハマシアサヒク,カシワチョウ,神奈川県横浜市旭区柏町
2410836,神奈川県,横浜市旭区,万騎が原,カナガワケン,ヨコハマシアサヒク,マキガハラ,神奈川県横浜市旭区万騎が原
2420000,神奈川県,大和市,,カナガワケン,ヤマトシ,,神奈川県大和市
2420001,神奈川県,大和市,下鶴間,カナガワケン,ヤマトシ,シモツルマ,神奈川県大和市下鶴間
2420002,神奈川県,大和市,つきみ野,カナガワケン,ヤマトシ,ツキミノ,神奈川県大和市つきみ野
2420003,神奈川県,大和市,林間,カナガワケン,ヤマトシ,リンカン,神奈川県大和市林間
2420004,神奈川県,大和市,鶴間,カナガワケン,ヤマトシ,ツルマ,神奈川県大和市鶴間
2420005,神奈川県,大和市,西鶴間,カナガワケン,ヤマトシ,ニシツルマ,神奈川県大和市西鶴間
2420006,神奈川県,大和市,南林間,カナガワケン,ヤマトシ,ミナミリンカン,神奈川県大和市南林間
2420007,神奈川県,大和市,中央林間,カナガワケン,ヤマトシ,チュウオウリンカン,神奈川県大和市中央林間
2420008,神奈川県,大和市,中央林間西,カナガワケン,ヤマトシ,チュウオウリンカンニシ,神奈川県大和市中央林間西
2420011,神奈川県,大和市,深見,カナガワケン,ヤマトシ,フカミ,神奈川県大和市深見
2420012,神奈川県,大和市,深見東,カナガワケン,ヤマトシ,フカミヒガシ,神奈川県大和市深見東
2420013,神奈川県,大和市,深見台,カナガワケン,ヤマトシ,フカミダイ,神奈川県大和市深見台
2420014,神奈川県,大和市,上和田,カナガワケン,ヤマトシ,カミワダ,神奈川県大和市上和田
2420015,神奈川県,大和市,下和田,カナガワケン,ヤマトシ,シモワダ,神奈川県大和市下和田
2420016,神奈川県,大和市,大和南,カナガワケン,ヤマトシ,ヤマトミナミ,神奈川県大和市大和南
2420017,神奈川県,大和市,大和東,カナガワケン,ヤマトシ,ヤマトヒガシ,神奈川県大和市大和東
2420018,神奈川県,大和市,深見西,カナガワケン,ヤマトシ,フカミニシ,神奈川県大和市深見西
2420021,神奈川県,大和市,中央,カナガワケン,ヤマトシ,チュウオウ,神奈川県大和市中央
2420022,神奈川県,大和市,柳橋,カナガワケン,ヤマトシ,ヤナギバシ,神奈川県大和市柳橋
2420023,神奈川県,大和市,渋谷,カナガワケン,ヤマトシ,シブヤ,神奈川県大和市渋谷
2420024,神奈川県,大和市,福田,カナガワケン,ヤマトシ,フクダ,神奈川県大和市福田
2420025,神奈川県,大和市,代官,カナガワケン,ヤマトシ,ダイカン,神奈川県大和市代官
2420026,神奈川県,大和市,草柳,カナガワケン,ヤマトシ,ソウヤギ,神奈川県大和市草柳
2420027,神奈川県,大和市,下草柳,カナガワケン,ヤマトシ,シモソウヤギ,神奈川県大和市下草柳
2420028,神奈川県,大和市,桜森,カナガワケン,ヤマトシ,サクラモリ,神奈川県大和市桜森
2420029,神奈川県,大和市,上草柳,カナガワケン,ヤマトシ,カミソウヤギ,神奈川県大和市上草柳
2430000,神奈川県,厚木市,,カナガワケン,アツギシ,,神奈川県厚木市
2430001,神奈川県,厚木市,東町,カナガワケン,アツギシ,ヒガシチョウ,神奈川県厚木市東町
2430002,神奈川県,厚木市,元町,カナガワケン,アツギシ,モトチョウ,神奈川県厚木市元町
2430003,神奈川県,厚木市,寿町,カナガワケン,アツギシ,コトブキチョウ,神奈川県厚木市寿町
2430004,神奈川県,厚木市,水引,カナガワケン,アツギシ,ミズヒキ,神奈川県厚木市水引
2430005,神奈川県,厚木市,松枝,カナガワケン,アツギシ,マツエ,神奈川県厚木市松枝
2430006,神奈川県,厚木市,吾妻町,カナガワケン,アツギシ,アヅマチョウ,神奈川県厚木市吾妻町
2430007,神奈川県,厚木市,厚木,カナガワケン,アツギシ,アツギ,神奈川県厚木市厚木
2430011,神奈川県,厚木市,厚木町,カナガワケン,アツギシ,アツギチョウ,神奈川県厚木市厚木町
2430012,神奈川県,厚木市,幸町,カナガワケン,アツギシ,サイワイチョウ,神奈川県厚木市幸町
2430013,神奈川県,厚木市,泉町,カナガワケン,アツギシ,イズミチョウ,神奈川県厚木市泉町
2430014,神奈川県,厚木市,旭町,カナガワケン,アツギシ,アサヒチョウ,神奈川県厚木市旭町
2430015,神奈川県,厚木市,南町,カナガワケン,アツギシ,ミナミチョウ,神奈川県厚木市南町
2430016,神奈川県,厚木市,田村町,カナガワケン,アツギシ,タムラチョウ,神奈川県厚木市田村町
2430017,神奈川県,厚木市,栄町,カナガワケン,アツギシ,サカエチョウ,神奈川県厚木市栄町
2430018,神奈川県,厚木市,中町,カナガワケン,アツギシ,ナカチョウ,神奈川県厚木市中町
2430021,神奈川県,厚木市,岡田,カナガワケン,アツギシ,オカタ,神奈川県厚木市岡田
2430022,神奈川県,厚木市,酒井,カナガワケン,アツギシ,サカイ,神奈川県厚木市酒井
2430023,神奈川県,厚木市,戸田,カナガワケン,アツギシ,トダ,神奈川県厚木市戸田
2430024,神奈川県,厚木市,長沼,カナガワケン,アツギシ,ナガヌマ,神奈川県厚木市長沼
2430025,神奈川県,厚木市,上落合,カナガワケン,アツギシ,カミオチアイ,神奈川県厚木市上落合
2430026,神奈川県,厚木市,下津古久,カナガワケン,アツギシ,シモツコク,神奈川県厚木市下津古久
2430027,神奈川県,厚木市,愛甲東,カナガワケン,アツギシ,アイコウヒガシ,神奈川県厚木市愛甲東
2430028,神奈川県,厚木市,愛甲西,カナガワケン,アツギシ,アイコウニシ,神奈川県厚木市愛甲西
2430031,神奈川県,厚木市,戸室,カナガワケン,アツギシ,トムロ,神奈川県厚木市戸室
2430032,神奈川県,厚木市,恩名,カナガワケン,アツギシ,オンナ,神奈川県厚木市恩名
2430033,神奈川県,厚木市,温水,カナガワケン,アツギシ,ヌルミズ,神奈川県厚木市温水
2430034,神奈川県,厚木市,船子,カナガワケン,アツギシ,フナコ,神奈川県厚木市船子
2430035,神奈川県,厚木市,愛甲,カナガワケン,アツギシ,アイコウ,神奈川県厚木市愛甲
2430036,神奈川県,厚木市,長谷,カナガワケン,アツギシ,ハセ,神奈川県厚木市長谷
2430037,神奈川県,厚木市,毛利台,カナガワケン,アツギシ,モウリダイ,神奈川県厚木市毛利台
2430038,神奈川県,厚木市,愛名,カナガワケン,アツギシ,アイナ,神奈川県厚木市愛名
2430039,神奈川県,厚木市,温水西,カナガワケン,アツギシ,ヌルミズニシ,神奈川県厚木市温水西
2430041,神奈川県,厚木市,緑ケ丘,カナガワケン,アツギシ,ミドリガオカ,神奈川県厚木市緑ケ丘
2430100,神奈川県,愛甲郡清川村,,カナガワケン,アイコウグンキヨカワムラ,,神奈川県愛甲郡清川村
2430111,神奈川県,愛甲郡清川村,宮ヶ瀬,カナガワケン,アイコウグンキヨカワムラ,ミヤガセ,神奈川県愛甲郡清川村宮ヶ瀬
2430112,神奈川県,愛甲郡清川村,煤ヶ谷（その他）,カナガワケン,アイコウグンキヨカワムラ,ススガヤ(ソノタ),神奈川県愛甲郡清川村煤ヶ谷（その他）
2430121,神奈川県,厚木市,七沢,カナガワケン,アツギシ,ナナサワ,神奈川県厚木市七沢
2430122,神奈川県,厚木市,森の里,カナガワケン,アツギシ,モリノサト,神奈川県厚木市森の里
2430123,神奈川県,厚木市,森の里青山,カナガワケン,アツギシ,モリノサトアオヤマ,神奈川県厚木市森の里青山
2430124,神奈川県,厚木市,森の里若宮,カナガワケン,アツギシ,モリノサトワカミヤ,神奈川県厚木市森の里若宮
2430125,神奈川県,厚木市,小野,カナガワケン,アツギシ,オノ,神奈川県厚木市小野
2430126,神奈川県,厚木市,岡津古久,カナガワケン,アツギシ,オカツコク,神奈川県厚木市岡津古久
2430201,神奈川県,厚木市,上荻野,カナガワケン,アツギシ,カミオギノ,神奈川県厚木市上荻野
2430202,神奈川県,厚木市,中荻野,カナガワケン,アツギシ,ナカオギノ,神奈川県厚木市中荻野
2430203,神奈川県,厚木市,下荻野,カナガワケン,アツギシ,シモオギノ,神奈川県厚木市下荻野
2430204,神奈川県,厚木市,鳶尾,カナガワケン,アツギシ,トビオ,神奈川県厚木市鳶尾
2430205,神奈川県,厚木市,棚沢,カナガワケン,アツギシ,タナザワ,神奈川県厚木市棚沢
2430206,神奈川県,厚木市,下川入,カナガワケン,アツギシ,シモカワイリ,神奈川県厚木市下川入
2430207,神奈川県,厚木市,まつかげ台,カナガワケン,アツギシ,マツカゲダイ,神奈川県厚木市まつかげ台
2430208,神奈川県,厚木市,みはる野,カナガワケン,アツギシ,ミハルノ,神奈川県厚木市みはる野
2430211,神奈川県,厚木市,三田,カナガワケン,アツギシ,サンダ,神奈川県厚木市三田
2430212,神奈川県,厚木市,及川,カナガワケン,アツギシ,オイガワ,神奈川県厚木市及川
2430213,神奈川県,厚木市,飯山,カナガワケン,アツギシ,イイヤマ,神奈川県厚木市飯山
2430214,神奈川県,厚木市,下古沢,カナガワケン,アツギシ,シモフルサワ,神奈川県厚木市下古沢
2430215,神奈川県,厚木市,上古沢,カナガワケン,アツギシ,カミフルサワ,神奈川県厚木市上古沢
2430216,神奈川県,厚木市,宮の里,カナガワケン,アツギシ,ミヤノサト,神奈川県厚木市宮の里
2430217,神奈川県,厚木市,三田南,カナガワケン,アツギシ,サンダミナミ,神奈川県厚木市三田南
2430218,神奈川県,厚木市,飯山南,カナガワケン,アツギシ,イイヤマミナミ,神奈川県厚木市飯山南
2430300,神奈川県,愛甲郡愛川町,,カナガワケン,アイコウグンアイカワマチ,,神奈川県愛甲郡愛川町
2430301,神奈川県,愛甲郡愛川町,角田,カナガワケン,アイコウグンアイカワマチ,スミダ,神奈川県愛甲郡愛川町角田
2430302,神奈川県,愛甲郡愛川町,春日台,カナガワケン,アイコウグンアイカワマチ,カスガダイ,神奈川県愛甲郡愛川町春日台
2430303,神奈川県,愛甲郡愛川町,中津,カナガワケン,アイコウグンアイカワマチ,ナカツ,神奈川県愛甲郡愛川町中津
2430304,神奈川県,愛甲郡愛川町,棚沢,カナガワケン,アイコウグンアイカワマチ,タナザワ,神奈川県愛甲郡愛川町棚沢
2430305,神奈川県,愛甲郡愛川町,八菅山,カナガワケン,アイコウグンアイカワマチ,ハスゲサン,神奈川県愛甲郡愛川町八菅山
2430306,神奈川県,愛甲郡愛川町,田代,カナガワケン,アイコウグンアイカワマチ,タシロ,神奈川県愛甲郡愛川町田代
2430307,神奈川県,愛甲郡愛川町,半原,カナガワケン,アイコウグンアイカワマチ,ハンバラ,神奈川県愛甲郡愛川町半原
2430308,神奈川県,愛甲郡愛川町,三増,カナガワケン,アイコウグンアイカワマチ,ミマセ,神奈川県愛甲郡愛川町三増
2430400,神奈川県,海老名市,,カナガワケン,エビナシ,,神奈川県海老名市
2430401,神奈川県,海老名市,東柏ケ谷,カナガワケン,エビナシ,ヒガシカシワガヤ,神奈川県海老名市東柏ケ谷
2430402,神奈川県,海老名市,柏ケ谷,カナガワケン,エビナシ,カシワガヤ,神奈川県海老名市柏ケ谷
2430403,神奈川県,海老名市,望地,カナガワケン,エビナシ,モウチ,神奈川県海老名市望地
2430404,神奈川県,海老名市,勝瀬,カナガワケン,エビナシ,カツセ,神奈川県海老名市勝瀬
2430405,神奈川県,海老名市,国分南,カナガワケン,エビナシ,コクブミナミ,神奈川県海老名市国分南
2430406,神奈川県,海老名市,国分北,カナガワケン,エビナシ,コクブキタ,神奈川県海老名市国分北
2430410,神奈川県,海老名市,杉久保北,カナガワケン,エビナシ,スギクボキタ,神奈川県海老名市杉久保北
2430411,神奈川県,海老名市,大谷,カナガワケン,エビナシ,オオヤ,神奈川県海老名市大谷
2430412,神奈川県,海老名市,浜田町,カナガワケン,エビナシ,ハマダチョウ,神奈川県海老名市浜田町
2430413,神奈川県,海老名市,国分寺台,カナガワケン,エビナシ,コクブンジダイ,神奈川県海老名市国分寺台
2430414,神奈川県,海老名市,杉久保,カナガワケン,エビナシ,スギクボ,神奈川県海老名市杉久保
2430415,神奈川県,海老名市,上河内,カナガワケン,エビナシ,カミゴウチ,神奈川県海老名市上河内
2430416,神奈川県,海老名市,中河内,カナガワケン,エビナシ,ナカゴウチ,神奈川県海老名市中河内
2430417,神奈川県,海老名市,本郷,カナガワケン,エビナシ,ホンゴウ,神奈川県海老名市本郷
2430418,神奈川県,海老名市,大谷南,カナガワケン,エビナシ,オオヤミナミ,神奈川県海老名市大谷南
2430419,神奈川県,海老名市,大谷北,カナガワケン,エビナシ,オオヤキタ,神奈川県海老名市大谷北
2430421,神奈川県,海老名市,さつき町,カナガワケン,エビナシ,サツキチョウ,神奈川県海老名市さつき町
2430422,神奈川県,海老名市,中新田,カナガワケン,エビナシ,ナカシンデン,神奈川県海老名市中新田
2430423,神奈川県,海老名市,今里,カナガワケン,エビナシ,イマザト,神奈川県海老名市今里
2430424,神奈川県,海老名市,社家,カナガワケン,エビナシ,シャケ,神奈川県海老名市社家
2430425,神奈川県,海老名市,中野,カナガワケン,エビナシ,ナカノ,神奈川県海老名市中野
2430426,神奈川県,海老名市,門沢橋,カナガワケン,エビナシ,カドサワバシ,神奈川県海老名市門沢橋
2430427,神奈川県,海老名市,杉久保南,カナガワケン,エビナシ,スギクボミナミ,神奈川県海老名市杉久保南
2430431,神奈川県,海老名市,上今泉,カナガワケン,エビナシ,カミイマイズミ,神奈川県海老名市上今泉
2430432,神奈川県,海老名市,中央,カナガワケン,エビナシ,チュウオウ,神奈川県海老名市中央
2430433,神奈川県,海老名市,河原口,カナガワケン,エビナシ,カワラグチ,神奈川県海老名市河原口
2430434,神奈川県,海老名市,上郷,カナガワケン,エビナシ,カミゴウ,神奈川県海老名市上郷
2430435,神奈川県,海老名市,下今泉,カナガワケン,エビナシ,シモイマイズミ,神奈川県海老名市下今泉
2430436,神奈川県,海老名市,扇町,カナガワケン,エビナシ,オウギチョウ,神奈川県海老名市扇町
2430437,神奈川県,海老名市,泉,カナガワケン,エビナシ,イズミ,神奈川県海老名市泉
2430438,神奈川県,海老名市,めぐみ町,カナガワケン,エビナシ,メグミチョウ,神奈川県海老名市めぐみ町
2430801,神奈川県,厚木市,上依知,カナガワケン,アツギシ,カミエチ,神奈川県厚木市上依知
2430802,神奈川県,厚木市,猿ケ島,カナガワケン,アツギシ,サルガシマ,神奈川県厚木市猿ケ島
2430803,神奈川県,厚木市,山際,カナガワケン,アツギシ,ヤマギワ,神奈川県厚木市山際
2430804,神奈川県,厚木市,関口,カナガワケン,アツギシ,セキグチ,神奈川県厚木市関口
2430805,神奈川県,厚木市,中依知,カナガワケン,アツギシ,ナカエチ,神奈川県厚木市中依知
2430806,神奈川県,厚木市,下依知,カナガワケン,アツギシ,シモエチ,神奈川県厚木市下依知
2430807,神奈川県,厚木市,金田,カナガワケン,アツギシ,カネダ,神奈川県厚木市金田
2430811,神奈川県,厚木市,妻田,カナガワケン,アツギシ,ツマダ,神奈川県厚木市妻田
2430812,神奈川県,厚木市,妻田北,カナガワケン,アツギシ,ツマダキタ,神奈川県厚木市妻田北
2430813,神奈川県,厚木市,妻田東,カナガワケン,アツギシ,ツマダヒガシ,神奈川県厚木市妻田東
2430814,神奈川県,厚木市,妻田南,カナガワケン,アツギシ,ツマダミナミ,神奈川県厚木市妻田南
2430815,神奈川県,厚木市,妻田西,カナガワケン,アツギシ,ツマダニシ,神奈川県厚木市妻田西
2430816,神奈川県,厚木市,林,カナガワケン,アツギシ,ハヤシ,神奈川県厚木市林
2430817,神奈川県,厚木市,王子,カナガワケン,アツギシ,オウジ,神奈川県厚木市王子
2440000,神奈川県,横浜市戸塚区,,カナガワケン,ヨコハマシトツカク,,神奈川県横浜市戸塚区
2440001,神奈川県,横浜市戸塚区,鳥が丘,カナガワケン,ヨコハマシトツカク,トリガオカ,神奈川県横浜市戸塚区鳥が丘
2440002,神奈川県,横浜市戸塚区,矢部町,カナガワケン,ヨコハマシトツカク,ヤベチョウ,神奈川県横浜市戸塚区矢部町
2440003,神奈川県,横浜市戸塚区,戸塚町,カナガワケン,ヨコハマシトツカク,トツカチョウ,神奈川県横浜市戸塚区戸塚町
2440004,神奈川県,横浜市戸塚区,小雀町,カナガワケン,ヨコハマシトツカク,コスズメチョウ,神奈川県横浜市戸塚区小雀町
2440801,神奈川県,横浜市戸塚区,品濃町,カナガワケン,ヨコハマシトツカク,シナノチョウ,神奈川県横浜市戸塚区品濃町
2440802,神奈川県,横浜市戸塚区,平戸,カナガワケン,ヨコハマシトツカク,ヒラド,神奈川県横浜市戸塚区平戸
2440803,神奈川県,横浜市戸塚区,平戸町,カナガワケン,ヨコハマシトツカク,ヒラドチョウ,神奈川県横浜市戸塚区平戸町
2440804,神奈川県,横浜市戸塚区,前田町,カナガワケン,ヨコハマシトツカク,マエダチョウ,神奈川県横浜市戸塚区前田町
2440805,神奈川県,横浜市戸塚区,川上町,カナガワケン,ヨコハマシトツカク,カワカミチョウ,神奈川県横浜市戸塚区川上町
2440806,神奈川県,横浜市戸塚区,上品濃,カナガワケン,ヨコハマシトツカク,カミシナノ,神奈川県横浜市戸塚区上品濃
2440811,神奈川県,横浜市戸塚区,上柏尾町,カナガワケン,ヨコハマシトツカク,カミカシオチョウ,神奈川県横浜市戸塚区上柏尾町
2440812,神奈川県,横浜市戸塚区,柏尾町,カナガワケン,ヨコハマシトツカク,カシオチョウ,神奈川県横浜市戸塚区柏尾町
2440813,神奈川県,横浜市戸塚区,舞岡町,カナガワケン,ヨコハマシトツカク,マイオカチョウ,神奈川県横浜市戸塚区舞岡町
2440814,神奈川県,横浜市戸塚区,南舞岡,カナガワケン,ヨコハマシトツカク,ミナミマイオカ,神奈川県横浜市戸塚区南舞岡
2440815,神奈川県,横浜市戸塚区,下倉田町,カナガワケン,ヨコハマシトツカク,シモクラタチョウ,神奈川県横浜市戸塚区下倉田町
2440816,神奈川県,横浜市戸塚区,上倉田町,カナガワケン,ヨコハマシトツカク,カミクラタチョウ,神奈川県横浜市戸塚区上倉田町
2440817,神奈川県,横浜市戸塚区,吉田町,カナガワケン,ヨコハマシトツカク,ヨシダチョウ,神奈川県横浜市戸塚区吉田町
2440841,神奈川県,横浜市栄区,長沼町,カナガワケン,ヨコハマシサカエク,ナガヌマチョウ,神奈川県横浜市栄区長沼町
2440842,神奈川県,横浜市栄区,飯島町,カナガワケン,ヨコハマシサカエク,イイジマチョウ,神奈川県横浜市栄区飯島町
2440843,神奈川県,横浜市栄区,長尾台町,カナガワケン,ヨコハマシサカエク,ナガオダイチョウ,神奈川県横浜市栄区長尾台町
2440844,神奈川県,横浜市栄区,田谷町,カナガワケン,ヨコハマシサカエク,タヤチョウ,神奈川県横浜市栄区田谷町
2440845,神奈川県,横浜市栄区,金井町,カナガワケン,ヨコハマシサカエク,カナイチョウ,神奈川県横浜市栄区金井町
2450000,神奈川県,横浜市泉区,,カナガワケン,ヨコハマシイズミク,,神奈川県横浜市泉区
2450001,神奈川県,横浜市泉区,池の谷,カナガワケン,ヨコハマシイズミク,イケノタニ,神奈川県横浜市泉区池の谷
2450002,神奈川県,横浜市泉区,緑園,カナガワケン,ヨコハマシイズミク,リョクエン,神奈川県横浜市泉区緑園
2450003,神奈川県,横浜市泉区,岡津町,カナガワケン,ヨコハマシイズミク,オカヅチョウ,神奈川県横浜市泉区岡津町
2450004,神奈川県,横浜市泉区,領家,カナガワケン,ヨコハマシイズミク,リョウケ,神奈川県横浜市泉区領家
2450005,神奈川県,横浜市泉区,白百合,カナガワケン,ヨコハマシイズミク,シラユリ,神奈川県横浜市泉区白百合
2450006,神奈川県,横浜市泉区,西が岡,カナガワケン,ヨコハマシイズミク,ニシガオカ,神奈川県横浜市泉区西が岡
2450007,神奈川県,横浜市泉区,桂坂,カナガワケン,ヨコハマシイズミク,カツラザカ,神奈川県横浜市泉区桂坂
2450008,神奈川県,横浜市泉区,弥生台,カナガワケン,ヨコハマシイズミク,ヤヨイダイ,神奈川県横浜市泉区弥生台
2450009,神奈川県,横浜市泉区,新橋町,カナガワケン,ヨコハマシイズミク,シンバシチョウ,神奈川県横浜市泉区新橋町
2450011,神奈川県,横浜市泉区,中田町,カナガワケン,ヨコハマシイズミク,ナカタチョウ,神奈川県横浜市泉区中田町
2450012,神奈川県,横浜市泉区,中田北,カナガワケン,ヨコハマシイズミク,ナカタキタ,神奈川県横浜市泉区中田北
2450013,神奈川県,横浜市泉区,中田東,カナガワケン,ヨコハマシイズミク,ナカタヒガシ,神奈川県横浜市泉区中田東
2450014,神奈川県,横浜市泉区,中田南,カナガワケン,ヨコハマシイズミク,ナカタミナミ,神奈川県横浜市泉区中田南
2450015,神奈川県,横浜市泉区,中田西,カナガワケン,ヨコハマシイズミク,ナカタニシ,神奈川県横浜市泉区中田西
2450016,神奈川県,横浜市泉区,和泉町,カナガワケン,ヨコハマシイズミク,イズミチョウ,神奈川県横浜市泉区和泉町
2450017,神奈川県,横浜市泉区,下飯田町,カナガワケン,ヨコハマシイズミク,シモイイダチョウ,神奈川県横浜市泉区下飯田町
2450018,神奈川県,横浜市泉区,上飯田町,カナガワケン,ヨコハマシイズミク,カミイイダチョウ,神奈川県横浜市泉区上飯田町
2450021,神奈川県,横浜市泉区,下和泉,カナガワケン,ヨコハマシイズミク,シモイズミ,神奈川県横浜市泉区下和泉
2450022,神奈川県,横浜市泉区,和泉が丘,カナガワケン,ヨコハマシイズミク,イズミガオカ,神奈川県横浜市泉区和泉が丘
2450023,神奈川県,横浜市泉区,和泉中央南,カナガワケン,ヨコハマシイズミク,イズミチュウオウミナミ,神奈川県横浜市泉区和泉中央南
2450024,神奈川県,横浜市泉区,和泉中央北,カナガワケン,ヨコハマシイズミク,イズミチュウオウキタ,神奈川県横浜市泉区和泉中央北
2450051,神奈川県,横浜市戸塚区,名瀬町,カナガワケン,ヨコハマシトツカク,ナセチョウ,神奈川県横浜市戸塚区名瀬町
2450052,神奈川県,横浜市戸塚区,秋葉町,カナガワケン,ヨコハマシトツカク,アキバチョウ,神奈川県横浜市戸塚区秋葉町
2450053,神奈川県,横浜市戸塚区,上矢部町,カナガワケン,ヨコハマシトツカク,カミヤベチョウ,神奈川県横浜市戸塚区上矢部町
2450061,神奈川県,横浜市戸塚区,汲沢,カナガワケン,ヨコハマシトツカク,グミザワ,神奈川県横浜市戸塚区汲沢
2450062,神奈川県,横浜市戸塚区,汲沢町,カナガワケン,ヨコハマシトツカク,グミザワチョウ,神奈川県横浜市戸塚区汲沢町
2450063,神奈川県,横浜市戸塚区,原宿,カナガワケン,ヨコハマシトツカク,ハラジュク,神奈川県横浜市戸塚区原宿
2450064,神奈川県,横浜市戸塚区,影取町,カナガワケン,ヨコハマシトツカク,カゲトリチョウ,神奈川県横浜市戸塚区影取町
2450065,神奈川県,横浜市戸塚区,東俣野町,カナガワケン,ヨコハマシトツカク,ヒガシマタノチョウ,神奈川県横浜市戸塚区東俣野町
2450066,神奈川県,横浜市戸塚区,俣野町,カナガワケン,ヨコハマシトツカク,マタノチョウ,神奈川県横浜市戸塚区俣野町
2450067,神奈川県,横浜市戸塚区,深谷町,カナガワケン,ヨコハマシトツカク,フカヤチョウ,神奈川県横浜市戸塚区深谷町
2460000,神奈川県,横浜市瀬谷区,,カナガワケン,ヨコハマシセヤク,,神奈川県横浜市瀬谷区
2460001,神奈川県,横浜市瀬谷区,卸本町,カナガワケン,ヨコハマシセヤク,オロシホンチョウ,神奈川県横浜市瀬谷区卸本町
2460002,神奈川県,横浜市瀬谷区,北町,カナガワケン,ヨコハマシセヤク,キタマチ,神奈川県横浜市瀬谷区北町
2460003,神奈川県,横浜市瀬谷区,瀬谷町,カナガワケン,ヨコハマシセヤク,セヤチョウ,神奈川県横浜市瀬谷区瀬谷町
2460004,神奈川県,横浜市瀬谷区,中屋敷,カナガワケン,ヨコハマシセヤク,ナカヤシキ,神奈川県横浜市瀬谷区中屋敷
2460005,神奈川県,横浜市瀬谷区,竹村町,カナガワケン,ヨコハマシセヤク,タケムラチョウ,神奈川県横浜市瀬谷区竹村町
2460006,神奈川県,横浜市瀬谷区,上瀬谷町,カナガワケン,ヨコハマシセヤク,カミセヤチョウ,神奈川県横浜市瀬谷区上瀬谷町
2460007,神奈川県,横浜市瀬谷区,目黒町,カナガワケン,ヨコハマシセヤク,メグロチョウ,神奈川県横浜市瀬谷区目黒町
2460008,神奈川県,横浜市瀬谷区,五貫目町,カナガワケン,ヨコハマシセヤク,ゴカンメチョウ,神奈川県横浜市瀬谷区五貫目町
2460011,神奈川県,横浜市瀬谷区,東野台,カナガワケン,ヨコハマシセヤク,アズマノダイ,神奈川県横浜市瀬谷区東野台
2460012,神奈川県,横浜市瀬谷区,東野,カナガワケン,ヨコハマシセヤク,アズマノ,神奈川県横浜市瀬谷区東野
2460013,神奈川県,横浜市瀬谷区,相沢,カナガワケン,ヨコハマシセヤク,アイザワ,神奈川県横浜市瀬谷区相沢
2460014,神奈川県,横浜市瀬谷区,中央,カナガワケン,ヨコハマシセヤク,チュウオウ,神奈川県横浜市瀬谷区中央
2460015,神奈川県,横浜市瀬谷区,本郷,カナガワケン,ヨコハマシセヤク,ホンゴウ,神奈川県横浜市瀬谷区本郷
2460021,神奈川県,横浜市瀬谷区,二ツ橋町,カナガワケン,ヨコハマシセヤク,フタツバシチョウ,神奈川県横浜市瀬谷区二ツ橋町
2460022,神奈川県,横浜市瀬谷区,三ツ境,カナガワケン,ヨコハマシセヤク,ミツキョウ,神奈川県横浜市瀬谷区三ツ境
2460023,神奈川県,横浜市瀬谷区,阿久和東,カナガワケン,ヨコハマシセヤク,アクワヒガシ,神奈川県横浜市瀬谷区阿久和東
2460025,神奈川県,横浜市瀬谷区,阿久和西,カナガワケン,ヨコハマシセヤク,アクワニシ,神奈川県横浜市瀬谷区阿久和西
2460026,神奈川県,横浜市瀬谷区,阿久和南,カナガワケン,ヨコハマシセヤク,アクワミナミ,神奈川県横浜市瀬谷区阿久和南
2460031,神奈川県,横浜市瀬谷区,瀬谷,カナガワケン,ヨコハマシセヤク,セヤ,神奈川県横浜市瀬谷区瀬谷
2460032,神奈川県,横浜市瀬谷区,南台,カナガワケン,ヨコハマシセヤク,ミナミダイ,神奈川県横浜市瀬谷区南台
2460034,神奈川県,横浜市瀬谷区,南瀬谷,カナガワケン,ヨコハマシセヤク,ミナミセヤ,神奈川県横浜市瀬谷区南瀬谷
2460035,神奈川県,横浜市瀬谷区,下瀬谷,カナガワケン,ヨコハマシセヤク,シモセヤ,神奈川県横浜市瀬谷区下瀬谷
2460036,神奈川県,横浜市瀬谷区,北新,カナガワケン,ヨコハマシセヤク,キタシン,神奈川県横浜市瀬谷区北新
2460037,神奈川県,横浜市瀬谷区,橋戸,カナガワケン,ヨコハマシセヤク,ハシド,神奈川県横浜市瀬谷区橋戸
2460038,神奈川県,横浜市瀬谷区,宮沢,カナガワケン,ヨコハマシセヤク,ミヤザワ,神奈川県横浜市瀬谷区宮沢
2470000,神奈川県,横浜市栄区,,カナガワケン,ヨコハマシサカエク,,神奈川県横浜市栄区
2470001,神奈川県,横浜市栄区,小菅ケ谷町,カナガワケン,ヨコハマシサカエク,コスガヤチョウ,神奈川県横浜市栄区小菅ケ谷町
2470002,神奈川県,横浜市栄区,小山台,カナガワケン,ヨコハマシサカエク,コヤマダイ,神奈川県横浜市栄区小山台
2470003,神奈川県,横浜市栄区,鍛冶ケ谷町,カナガワケン,ヨコハマシサカエク,カジガヤチョウ,神奈川県横浜市栄区鍛冶ケ谷町
2470004,神奈川県,横浜市栄区,柏陽,カナガワケン,ヨコハマシサカエク,ハクヨウ,神奈川県横浜市栄区柏陽
2470005,神奈川県,横浜市栄区,桂町,カナガワケン,ヨコハマシサカエク,カツラチョウ,神奈川県横浜市栄区桂町
2470006,神奈川県,横浜市栄区,笠間,カナガワケン,ヨコハマシサカエク,カサマ,神奈川県横浜市栄区笠間
2470007,神奈川県,横浜市栄区,小菅ケ谷,カナガワケン,ヨコハマシサカエク,コスガヤ,神奈川県横浜市栄区小菅ケ谷
2470008,神奈川県,横浜市栄区,本郷台,カナガワケン,ヨコハマシサカエク,ホンゴウダイ,神奈川県横浜市栄区本郷台
2470009,神奈川県,横浜市栄区,鍛冶ケ谷,カナガワケン,ヨコハマシサカエク,カジガヤ,神奈川県横浜市栄区鍛冶ケ谷
2470011,神奈川県,横浜市栄区,元大橋,カナガワケン,ヨコハマシサカエク,モトオオハシ,神奈川県横浜市栄区元大橋
2470012,神奈川県,横浜市栄区,若竹町,カナガワケン,ヨコハマシサカエク,ワカタケチョウ,神奈川県横浜市栄区若竹町
2470013,神奈川県,横浜市栄区,上郷町,カナガワケン,ヨコハマシサカエク,カミゴウチョウ,神奈川県横浜市栄区上郷町
2470014,神奈川県,横浜市栄区,公田町,カナガワケン,ヨコハマシサカエク,クデンチョウ,神奈川県横浜市栄区公田町
2470015,神奈川県,横浜市栄区,中野町,カナガワケン,ヨコハマシサカエク,ナカノチョウ,神奈川県横浜市栄区中野町
2470021,神奈川県,横浜市栄区,東上郷町,カナガワケン,ヨコハマシサカエク,ヒガシカミゴウチョウ,神奈川県横浜市栄区東上郷町
2470022,神奈川県,横浜市栄区,庄戸,カナガワケン,ヨコハマシサカエク,ショウド,神奈川県横浜市栄区庄戸
2470023,神奈川県,横浜市栄区,長倉町,カナガワケン,ヨコハマシサカエク,ナガクラチョウ,神奈川県横浜市栄区長倉町
2470024,神奈川県,横浜市栄区,野七里,カナガワケン,ヨコハマシサカエク,ノシチリ,神奈川県横浜市栄区野七里
2470025,神奈川県,横浜市栄区,上之町,カナガワケン,ヨコハマシサカエク,カミノチョウ,神奈川県横浜市栄区上之町
2470026,神奈川県,横浜市栄区,犬山町,カナガワケン,ヨコハマシサカエク,イノヤマチョウ,神奈川県横浜市栄区犬山町
2470027,神奈川県,横浜市栄区,尾月,カナガワケン,ヨコハマシサカエク,オヅキ,神奈川県横浜市栄区尾月
2470028,神奈川県,横浜市栄区,亀井町,カナガワケン,ヨコハマシサカエク,カメイチョウ,神奈川県横浜市栄区亀井町
2470031,神奈川県,横浜市栄区,桂台北,カナガワケン,ヨコハマシサカエク,カツラダイキタ,神奈川県横浜市栄区桂台北
2470032,神奈川県,横浜市栄区,桂台東,カナガワケン,ヨコハマシサカエク,カツラダイヒガシ,神奈川県横浜市栄区桂台東
2470033,神奈川県,横浜市栄区,桂台南,カナガワケン,ヨコハマシサカエク,カツラダイミナミ,神奈川県横浜市栄区桂台南
2470034,神奈川県,横浜市栄区,桂台中,カナガワケン,ヨコハマシサカエク,カツラダイナカ,神奈川県横浜市栄区桂台中
2470035,神奈川県,横浜市栄区,桂台西,カナガワケン,ヨコハマシサカエク,カツラダイニシ,神奈川県横浜市栄区桂台西
2470051,神奈川県,鎌倉市,岩瀬,カナガワケン,カマクラシ,イワセ,神奈川県鎌倉市岩瀬
2470052,神奈川県,鎌倉市,今泉,カナガワケン,カマクラシ,イマイズミ,神奈川県鎌倉市今泉
2470053,神奈川県,鎌倉市,今泉台,カナガワケン,カマクラシ,イマイズミダイ,神奈川県鎌倉市今泉台
2470054,神奈川県,鎌倉市,高野,カナガワケン,カマクラシ,タカノ,神奈川県鎌倉市高野
2470055,神奈川県,鎌倉市,小袋谷,カナガワケン,カマクラシ,コブクロヤ,神奈川県鎌倉市小袋谷
2470056,神奈川県,鎌倉市,大船,カナガワケン,カマクラシ,オオフナ,神奈川県鎌倉市大船
2470061,神奈川県,鎌倉市,台,カナガワケン,カマクラシ,ダイ,神奈川県鎌倉市台
2470062,神奈川県,鎌倉市,山ノ内,カナガワケン,カマクラシ,ヤマノウチ,神奈川県鎌倉市山ノ内
2470063,神奈川県,鎌倉市,梶原,カナガワケン,カマクラシ,カジワラ,神奈川県鎌倉市梶原
2470064,神奈川県,鎌倉市,寺分,カナガワケン,カマクラシ,テラブン,神奈川県鎌倉市寺分
2470065,神奈川県,鎌倉市,上町屋,カナガワケン,カマクラシ,カミマチヤ,神奈川県鎌倉市上町屋
2470066,神奈川県,鎌倉市,山崎,カナガワケン,カマクラシ,ヤマサキ,神奈川県鎌倉市山崎
2470071,神奈川県,鎌倉市,玉縄,カナガワケン,カマクラシ,タマナワ,神奈川県鎌倉市玉縄
2470072,神奈川県,鎌倉市,岡本,カナガワケン,カマクラシ,オカモト,神奈川県鎌倉市岡本
2470073,神奈川県,鎌倉市,植木,カナガワケン,カマクラシ,ウエキ,神奈川県鎌倉市植木
2470074,神奈川県,鎌倉市,城廻,カナガワケン,カマクラシ,シロメグリ,神奈川県鎌倉市城廻
2470075,神奈川県,鎌倉市,関谷,カナガワケン,カマクラシ,セキヤ,神奈川県鎌倉市関谷
2480000,神奈川県,鎌倉市,,カナガワケン,カマクラシ,,神奈川県鎌倉市
2480001,神奈川県,鎌倉市,十二所,カナガワケン,カマクラシ,ジュウニソ,神奈川県鎌倉市十二所
2480002,神奈川県,鎌倉市,二階堂,カナガワケン,カマクラシ,ニカイドウ,神奈川県鎌倉市二階堂
2480003,神奈川県,鎌倉市,浄明寺,カナガワケン,カマクラシ,ジョウミョウジ,神奈川県鎌倉市浄明寺
2480004,神奈川県,鎌倉市,西御門,カナガワケン,カマクラシ,ニシミカド,神奈川県鎌倉市西御門
2480005,神奈川県,鎌倉市,雪ノ下,カナガワケン,カマクラシ,ユキノシタ,神奈川県鎌倉市雪ノ下
2480006,神奈川県,鎌倉市,小町,カナガワケン,カマクラシ,コマチ,神奈川県鎌倉市小町
2480007,神奈川県,鎌倉市,大町,カナガワケン,カマクラシ,オオマチ,神奈川県鎌倉市大町
2480011,神奈川県,鎌倉市,扇ガ谷,カナガワケン,カマクラシ,オウギガヤツ,神奈川県鎌倉市扇ガ谷
2480012,神奈川県,鎌倉市,御成町,カナガワケン,カマクラシ,オナリマチ,神奈川県鎌倉市御成町
2480013,神奈川県,鎌倉市,材木座,カナガワケン,カマクラシ,ザイモクザ,神奈川県鎌倉市材木座
2480014,神奈川県,鎌倉市,由比ガ浜,カナガワケン,カマクラシ,ユイガハマ,神奈川県鎌倉市由比ガ浜
2480015,神奈川県,鎌倉市,笹目町,カナガワケン,カマクラシ,ササメマチ,神奈川県鎌倉市笹目町
2480016,神奈川県,鎌倉市,長谷,カナガワケン,カマクラシ,ハセ,神奈川県鎌倉市長谷
2480017,神奈川県,鎌倉市,佐助,カナガワケン,カマクラシ,サスケ,神奈川県鎌倉市佐助
2480021,神奈川県,鎌倉市,坂ノ下,カナガワケン,カマクラシ,サカノシタ,神奈川県鎌倉市坂ノ下
2480022,神奈川県,鎌倉市,常盤,カナガワケン,カマクラシ,トキワ,神奈川県鎌倉市常盤
2480023,神奈川県,鎌倉市,極楽寺,カナガワケン,カマクラシ,ゴクラクジ,神奈川県鎌倉市極楽寺
2480024,神奈川県,鎌倉市,稲村ガ崎,カナガワケン,カマクラシ,イナムラガサキ,神奈川県鎌倉市稲村ガ崎
2480025,神奈川県,鎌倉市,七里ガ浜東,カナガワケン,カマクラシ,シチリガハマヒガシ,神奈川県鎌倉市七里ガ浜東
2480026,神奈川県,鎌倉市,七里ガ浜,カナガワケン,カマクラシ,シチリガハマ,神奈川県鎌倉市七里ガ浜
2480027,神奈川県,鎌倉市,笛田,カナガワケン,カマクラシ,フエダ,神奈川県鎌倉市笛田
2480031,神奈川県,鎌倉市,鎌倉山,カナガワケン,カマクラシ,カマクラヤマ,神奈川県鎌倉市鎌倉山
2480032,神奈川県,鎌倉市,津,カナガワケン,カマクラシ,ツ,神奈川県鎌倉市津
2480033,神奈川県,鎌倉市,腰越,カナガワケン,カマクラシ,コシゴエ,神奈川県鎌倉市腰越
2480034,神奈川県,鎌倉市,津西,カナガワケン,カマクラシ,ツニシ,神奈川県鎌倉市津西
2480035,神奈川県,鎌倉市,西鎌倉,カナガワケン,カマクラシ,ニシカマクラ,神奈川県鎌倉市西鎌倉
2480036,神奈川県,鎌倉市,手広,カナガワケン,カマクラシ,テビロ,神奈川県鎌倉市手広
2490000,神奈川県,逗子市,,カナガワケン,ズシシ,,神奈川県逗子市
2490001,神奈川県,逗子市,久木,カナガワケン,ズシシ,ヒサギ,神奈川県逗子市久木
2490002,神奈川県,逗子市,山の根,カナガワケン,ズシシ,ヤマノネ,神奈川県逗子市山の根
2490003,神奈川県,逗子市,池子,カナガワケン,ズシシ,イケゴ,神奈川県逗子市池子
2490004,神奈川県,逗子市,沼間,カナガワケン,ズシシ,ヌママ,神奈川県逗子市沼間
2490005,神奈川県,逗子市,桜山,カナガワケン,ズシシ,サクラヤマ,神奈川県逗子市桜山
2490006,神奈川県,逗子市,逗子,カナガワケン,ズシシ,ズシ,神奈川県逗子市逗子
2490007,神奈川県,逗子市,新宿,カナガワケン,ズシシ,シンジュク,神奈川県逗子市新宿
2490008,神奈川県,逗子市,小坪,カナガワケン,ズシシ,コツボ,神奈川県逗子市小坪
2500000,神奈川県,小田原市,,カナガワケン,オダワラシ,,神奈川県小田原市
2500001,神奈川県,小田原市,扇町,カナガワケン,オダワラシ,オウギチョウ,神奈川県小田原市扇町
2500002,神奈川県,小田原市,寿町,カナガワケン,オダワラシ,コトブキチョウ,神奈川県小田原市寿町
2500003,神奈川県,小田原市,東町,カナガワケン,オダワラシ,ヒガシチョウ,神奈川県小田原市東町
2500004,神奈川県,小田原市,浜町,カナガワケン,オダワラシ,ハマチョウ,神奈川県小田原市浜町
2500005,神奈川県,小田原市,中町,カナガワケン,オダワラシ,ナカチョウ,神奈川県小田原市中町
2500011,神奈川県,小田原市,栄町,カナガワケン,オダワラシ,サカエチョウ,神奈川県小田原市栄町
2500012,神奈川県,小田原市,本町,カナガワケン,オダワラシ,ホンチョウ,神奈川県小田原市本町
2500013,神奈川県,小田原市,南町,カナガワケン,オダワラシ,ミナミチョウ,神奈川県小田原市南町
2500014,神奈川県,小田原市,城内,カナガワケン,オダワラシ,ジョウナイ,神奈川県小田原市城内
2500021,神奈川県,小田原市,早川,カナガワケン,オダワラシ,ハヤカワ,神奈川県小田原市早川
2500022,神奈川県,小田原市,石橋,カナガワケン,オダワラシ,イシバシ,神奈川県小田原市石橋
2500023,神奈川県,小田原市,米神,カナガワケン,オダワラシ,コメカミ,神奈川県小田原市米神
2500024,神奈川県,小田原市,根府川,カナガワケン,オダワラシ,ネブカワ,神奈川県小田原市根府川
2500025,神奈川県,小田原市,江之浦,カナガワケン,オダワラシ,エノウラ,神奈川県小田原市江之浦
2500031,神奈川県,小田原市,入生田,カナガワケン,オダワラシ,イリュウダ,神奈川県小田原市入生田
2500032,神奈川県,小田原市,風祭,カナガワケン,オダワラシ,カザマツリ,神奈川県小田原市風祭
2500033,神奈川県,小田原市,水之尾,カナガワケン,オダワラシ,ミズノオ,神奈川県小田原市水之尾
2500034,神奈川県,小田原市,板橋,カナガワケン,オダワラシ,イタバシ,神奈川県小田原市板橋
2500035,神奈川県,小田原市,南板橋,カナガワケン,オダワラシ,ミナミイタバシ,神奈川県小田原市南板橋
2500041,神奈川県,小田原市,池上,カナガワケン,オダワラシ,イケガミ,神奈川県小田原市池上
2500042,神奈川県,小田原市,荻窪,カナガワケン,オダワラシ,オギクボ,神奈川県小田原市荻窪
2500043,神奈川県,小田原市,谷津,カナガワケン,オダワラシ,ヤツ,神奈川県小田原市谷津
2500044,神奈川県,小田原市,緑,カナガワケン,オダワラシ,ミドリ,神奈川県小田原市緑
2500045,神奈川県,小田原市,城山,カナガワケン,オダワラシ,シロヤマ,神奈川県小田原市城山
2500046,神奈川県,小田原市,十字,カナガワケン,オダワラシ,ジュウジ,神奈川県小田原市十字
2500051,神奈川県,小田原市,北ノ窪,カナガワケン,オダワラシ,キタノクボ,神奈川県小田原市北ノ窪
2500052,神奈川県,小田原市,府川,カナガワケン,オダワラシ,フカワ,神奈川県小田原市府川
2500053,神奈川県,小田原市,穴部,カナガワケン,オダワラシ,アナベ,神奈川県小田原市穴部
2500054,神奈川県,小田原市,多古,カナガワケン,オダワラシ,タコ,神奈川県小田原市多古
2500055,神奈川県,小田原市,久野,カナガワケン,オダワラシ,クノ,神奈川県小田原市久野
2500056,神奈川県,小田原市,井細田,カナガワケン,オダワラシ,イサイダ,神奈川県小田原市井細田
2500100,神奈川県,南足柄市,,カナガワケン,ミナミアシガラシ,,神奈川県南足柄市
2500101,神奈川県,南足柄市,班目,カナガワケン,ミナミアシガラシ,マダラメ,神奈川県南足柄市班目
2500102,神奈川県,南足柄市,千津島,カナガワケン,ミナミアシガラシ,センヅシマ,神奈川県南足柄市千津島
2500103,神奈川県,南足柄市,壗下,カナガワケン,ミナミアシガラシ,ママシタ,神奈川県南足柄市壗下
2500104,神奈川県,南足柄市,向田,カナガワケン,ミナミアシガラシ,ムカイダ,神奈川県南足柄市向田
2500105,神奈川県,南足柄市,関本,カナガワケン,ミナミアシガラシ,セキモト,神奈川県南足柄市関本
2500106,神奈川県,南足柄市,怒田,カナガワケン,ミナミアシガラシ,ヌダ,神奈川県南足柄市怒田
2500107,神奈川県,南足柄市,小市,カナガワケン,ミナミアシガラシ,コイチ,神奈川県南足柄市小市
2500111,神奈川県,南足柄市,竹松,カナガワケン,ミナミアシガラシ,タケマツ,神奈川県南足柄市竹松
2500112,神奈川県,南足柄市,和田河原,カナガワケン,ミナミアシガラシ,ワダガハラ,神奈川県南足柄市和田河原
2500113,神奈川県,南足柄市,岩原,カナガワケン,ミナミアシガラシ,イワハラ,神奈川県南足柄市岩原
2500114,神奈川県,南足柄市,北窪,カナガワケン,ミナミアシガラシ,キタクボ,神奈川県南足柄市北窪
2500115,神奈川県,南足柄市,沼田,カナガワケン,ミナミアシガラシ,ヌマタ,神奈川県南足柄市沼田
2500116,神奈川県,南足柄市,三竹,カナガワケン,ミナミアシガラシ,ミタケ,神奈川県南足柄市三竹
2500117,神奈川県,南足柄市,塚原,カナガワケン,ミナミアシガラシ,ツカハラ,神奈川県南足柄市塚原
2500121,神奈川県,南足柄市,広町,カナガワケン,ミナミアシガラシ,ヒロマチ,神奈川県南足柄市広町
2500122,神奈川県,南足柄市,飯沢,カナガワケン,ミナミアシガラシ,イイザワ,神奈川県南足柄市飯沢
2500123,神奈川県,南足柄市,中沼,カナガワケン,ミナミアシガラシ,ナカヌマ,神奈川県南足柄市中沼
2500124,神奈川県,南足柄市,生駒,カナガワケン,ミナミアシガラシ,イコマ,神奈川県南足柄市生駒
2500125,神奈川県,南足柄市,駒形新宿,カナガワケン,ミナミアシガラシ,コマガタシンシュク,神奈川県南足柄市駒形新宿
2500126,神奈川県,南足柄市,狩野,カナガワケン,ミナミアシガラシ,カノ,神奈川県南足柄市狩野
2500127,神奈川県,南足柄市,大雄町,カナガワケン,ミナミアシガラシ,ダイユウチョウ,神奈川県南足柄市大雄町
2500131,神奈川県,南足柄市,内山,カナガワケン,ミナミアシガラシ,ウチヤマ,神奈川県南足柄市内山
2500132,神奈川県,南足柄市,弘西寺,カナガワケン,ミナミアシガラシ,コウサイジ,神奈川県南足柄市弘西寺
2500133,神奈川県,南足柄市,福泉,カナガワケン,ミナミアシガラシ,フクセン,神奈川県南足柄市福泉
2500134,神奈川県,南足柄市,雨坪,カナガワケン,ミナミアシガラシ,アマツボ,神奈川県南足柄市雨坪
2500135,神奈川県,南足柄市,苅野,カナガワケン,ミナミアシガラシ,カリノ,神奈川県南足柄市苅野
2500136,神奈川県,南足柄市,矢倉沢,カナガワケン,ミナミアシガラシ,ヤグラザワ,神奈川県南足柄市矢倉沢
2500201,神奈川県,小田原市,曽我大沢,カナガワケン,オダワラシ,ソガオオサワ,神奈川県小田原市曽我大沢
2500202,神奈川県,小田原市,上曽我,カナガワケン,オダワラシ,カミソガ,神奈川県小田原市上曽我
2500203,神奈川県,小田原市,曽我岸,カナガワケン,オダワラシ,ソガキシ,神奈川県小田原市曽我岸
2500204,神奈川県,小田原市,曽我谷津,カナガワケン,オダワラシ,ソガヤツ,神奈川県小田原市曽我谷津
2500205,神奈川県,小田原市,曽我別所,カナガワケン,オダワラシ,ソガベッショ,神奈川県小田原市曽我別所
2500206,神奈川県,小田原市,曽我原,カナガワケン,オダワラシ,ソガハラ,神奈川県小田原市曽我原
2500207,神奈川県,小田原市,曽我光海,カナガワケン,オダワラシ,ソガコウミ,神奈川県小田原市曽我光海
2500208,神奈川県,小田原市,下大井,カナガワケン,オダワラシ,シモオオイ,神奈川県小田原市下大井
2500211,神奈川県,小田原市,鬼柳,カナガワケン,オダワラシ,オニヤナギ,神奈川県小田原市鬼柳
2500212,神奈川県,小田原市,西大友,カナガワケン,オダワラシ,ニシオオドモ,神奈川県小田原市西大友
2500213,神奈川県,小田原市,東大友,カナガワケン,オダワラシ,ヒガシオオドモ,神奈川県小田原市東大友
2500214,神奈川県,小田原市,永塚,カナガワケン,オダワラシ,ナガツカ,神奈川県小田原市永塚
2500215,神奈川県,小田原市,千代,カナガワケン,オダワラシ,チヨ,神奈川県小田原市千代
2500216,神奈川県,小田原市,高田,カナガワケン,オダワラシ,タカタ,神奈川県小田原市高田
2500217,神奈川県,小田原市,別堀,カナガワケン,オダワラシ,ベッポリ,神奈川県小田原市別堀
2500218,神奈川県,小田原市,延清,カナガワケン,オダワラシ,ノブキヨ,神奈川県小田原市延清
2500311,神奈川県,足柄下郡箱根町,湯本,カナガワケン,アシガラシモグンハコネマチ,ユモト,神奈川県足柄下郡箱根町湯本
2500312,神奈川県,足柄下郡箱根町,湯本茶屋,カナガワケン,アシガラシモグンハコネマチ,ユモトチャヤ,神奈川県足柄下郡箱根町湯本茶屋
2500313,神奈川県,足柄下郡箱根町,須雲川,カナガワケン,アシガラシモグンハコネマチ,スクモガワ,神奈川県足柄下郡箱根町須雲川
2500314,神奈川県,足柄下郡箱根町,畑宿,カナガワケン,アシガラシモグンハコネマチ,ハタジュク,神奈川県足柄下郡箱根町畑宿
2500315,神奈川県,足柄下郡箱根町,塔之澤,カナガワケン,アシガラシモグンハコネマチ,トウノサワ,神奈川県足柄下郡箱根町塔之澤
2500401,神奈川県,足柄下郡箱根町,宮城野,カナガワケン,アシガラシモグンハコネマチ,ミヤギノ,神奈川県足柄下郡箱根町宮城野
2500402,神奈川県,足柄下郡箱根町,木賀,カナガワケン,アシガラシモグンハコネマチ,キガ,神奈川県足柄下郡箱根町木賀
2500403,神奈川県,足柄下郡箱根町,底倉,カナガワケン,アシガラシモグンハコネマチ,ソコクラ,神奈川県足柄下郡箱根町底倉
2500404,神奈川県,足柄下郡箱根町,宮ノ下,カナガワケン,アシガラシモグンハコネマチ,ミヤノシタ,神奈川県足柄下郡箱根町宮ノ下
2500405,神奈川県,足柄下郡箱根町,大平台,カナガワケン,アシガラシモグンハコネマチ,オオヒラダイ,神奈川県足柄下郡箱根町大平台
2500406,神奈川県,足柄下郡箱根町,小涌谷,カナガワケン,アシガラシモグンハコネマチ,コワクダニ,神奈川県足柄下郡箱根町小涌谷
2500407,神奈川県,足柄下郡箱根町,二ノ平,カナガワケン,アシガラシモグンハコネマチ,ニノタイラ,神奈川県足柄下郡箱根町二ノ平
2500408,神奈川県,足柄下郡箱根町,強羅,カナガワケン,アシガラシモグンハコネマチ,ゴウラ,神奈川県足柄下郡箱根町強羅
2500500,神奈川県,足柄下郡箱根町,,カナガワケン,アシガラシモグンハコネマチ,,神奈川県足柄下郡箱根町
2500521,神奈川県,足柄下郡箱根町,箱根,カナガワケン,アシガラシモグンハコネマチ,ハコネ,神奈川県足柄下郡箱根町箱根
2500522,神奈川県,足柄下郡箱根町,元箱根,カナガワケン,アシガラシモグンハコネマチ,モトハコネ,神奈川県足柄下郡箱根町元箱根
2500523,神奈川県,足柄下郡箱根町,芦之湯,カナガワケン,アシガラシモグンハコネマチ,アシノユ,神奈川県足柄下郡箱根町芦之湯
2500631,神奈川県,足柄下郡箱根町,仙石原,カナガワケン,アシガラシモグンハコネマチ,センゴクハラ,神奈川県足柄下郡箱根町仙石原
2500851,神奈川県,小田原市,曽比,カナガワケン,オダワラシ,ソビ,神奈川県小田原市曽比
2500852,神奈川県,小田原市,栢山,カナガワケン,オダワラシ,カヤマ,神奈川県小田原市栢山
2500853,神奈川県,小田原市,堀之内,カナガワケン,オダワラシ,ホリノウチ,神奈川県小田原市堀之内
2500854,神奈川県,小田原市,飯田岡,カナガワケン,オダワラシ,イイダオカ,神奈川県小田原市飯田岡
2500855,神奈川県,小田原市,清水新田,カナガワケン,オダワラシ,シミズシンデン,神奈川県小田原市清水新田
2500856,神奈川県,小田原市,新屋,カナガワケン,オダワラシ,アラヤ,神奈川県小田原市新屋
2500857,神奈川県,小田原市,柳新田,カナガワケン,オダワラシ,ヤナギシンデン,神奈川県小田原市柳新田
2500858,神奈川県,小田原市,小台,カナガワケン,オダワラシ,コダイ,神奈川県小田原市小台
2500861,神奈川県,小田原市,桑原,カナガワケン,オダワラシ,クワハラ,神奈川県小田原市桑原
2500862,神奈川県,小田原市,成田,カナガワケン,オダワラシ,ナルダ,神奈川県小田原市成田
2500863,神奈川県,小田原市,飯泉,カナガワケン,オダワラシ,イイズミ,神奈川県小田原市飯泉
2500864,神奈川県,小田原市,穴部新田,カナガワケン,オダワラシ,アナベシンデン,神奈川県小田原市穴部新田
2500865,神奈川県,小田原市,蓮正寺,カナガワケン,オダワラシ,レンショウジ,神奈川県小田原市蓮正寺
2500866,神奈川県,小田原市,中曽根,カナガワケン,オダワラシ,ナカゾネ,神奈川県小田原市中曽根
2500871,神奈川県,小田原市,下堀,カナガワケン,オダワラシ,シモボリ,神奈川県小田原市下堀
2500872,神奈川県,小田原市,中里,カナガワケン,オダワラシ,ナカザト,神奈川県小田原市中里
2500873,神奈川県,小田原市,矢作,カナガワケン,オダワラシ,ヤハギ,神奈川県小田原市矢作
2500874,神奈川県,小田原市,鴨宮,カナガワケン,オダワラシ,カモノミヤ,神奈川県小田原市鴨宮
2500875,神奈川県,小田原市,南鴨宮,カナガワケン,オダワラシ,ミナミカモノミヤ,神奈川県小田原市南鴨宮
2500876,神奈川県,小田原市,中新田,カナガワケン,オダワラシ,ナカシンデン,神奈川県小田原市中新田
2500877,神奈川県,小田原市,上新田,カナガワケン,オダワラシ,カミシンデン,神奈川県小田原市上新田
2500878,神奈川県,小田原市,下新田,カナガワケン,オダワラシ,シモシンデン,神奈川県小田原市下新田
2510000,神奈川県,藤沢市,,カナガワケン,フジサワシ,,神奈川県藤沢市
2510001,神奈川県,藤沢市,西富,カナガワケン,フジサワシ,ニシトミ,神奈川県藤沢市西富
2510002,神奈川県,藤沢市,大鋸,カナガワケン,フジサワシ,ダイギリ,神奈川県藤沢市大鋸
2510003,神奈川県,藤沢市,柄沢,カナガワケン,フジサワシ,カラサワ,神奈川県藤沢市柄沢
2510004,神奈川県,藤沢市,藤が岡,カナガワケン,フジサワシ,フジガオカ,神奈川県藤沢市藤が岡
2510005,神奈川県,藤沢市,並木台,カナガワケン,フジサワシ,ナミキダイ,神奈川県藤沢市並木台
2510011,神奈川県,藤沢市,渡内,カナガワケン,フジサワシ,ワタウチ,神奈川県藤沢市渡内
2510012,神奈川県,藤沢市,村岡東,カナガワケン,フジサワシ,ムラオカヒガシ,神奈川県藤沢市村岡東
2510013,神奈川県,藤沢市,小塚,カナガワケン,フジサワシ,コツカ,神奈川県藤沢市小塚
2510014,神奈川県,藤沢市,宮前,カナガワケン,フジサワシ,ミヤマエ,神奈川県藤沢市宮前
2510015,神奈川県,藤沢市,川名,カナガワケン,フジサワシ,カワナ,神奈川県藤沢市川名
2510016,神奈川県,藤沢市,弥勒寺,カナガワケン,フジサワシ,ミロクジ,神奈川県藤沢市弥勒寺
2510017,神奈川県,藤沢市,高谷,カナガワケン,フジサワシ,タカヤ,神奈川県藤沢市高谷
2510021,神奈川県,藤沢市,鵠沼神明,カナガワケン,フジサワシ,クゲヌマシンメイ,神奈川県藤沢市鵠沼神明
2510022,神奈川県,藤沢市,鵠沼,カナガワケン,フジサワシ,クゲヌマ,神奈川県藤沢市鵠沼
2510023,神奈川県,藤沢市,鵠沼花沢町,カナガワケン,フジサワシ,クゲヌマハナザワチョウ,神奈川県藤沢市鵠沼花沢町
2510024,神奈川県,藤沢市,鵠沼橘,カナガワケン,フジサワシ,クゲヌマタチバナ,神奈川県藤沢市鵠沼橘
2510025,神奈川県,藤沢市,鵠沼石上,カナガワケン,フジサワシ,クゲヌマイシガミ,神奈川県藤沢市鵠沼石上
2510026,神奈川県,藤沢市,鵠沼東,カナガワケン,フジサワシ,クゲヌマヒガシ,神奈川県藤沢市鵠沼東
2510027,神奈川県,藤沢市,鵠沼桜が岡,カナガワケン,フジサワシ,クゲヌマサクラガオカ,神奈川県藤沢市鵠沼桜が岡
2510028,神奈川県,藤沢市,本鵠沼,カナガワケン,フジサワシ,ホンクゲヌマ,神奈川県藤沢市本鵠沼
2510031,神奈川県,藤沢市,鵠沼藤が谷,カナガワケン,フジサワシ,クゲヌマフジガヤ,神奈川県藤沢市鵠沼藤が谷
2510032,神奈川県,藤沢市,片瀬,カナガワケン,フジサワシ,カタセ,神奈川県藤沢市片瀬
2510033,神奈川県,藤沢市,片瀬山,カナガワケン,フジサワシ,カタセヤマ,神奈川県藤沢市片瀬山
2510034,神奈川県,藤沢市,片瀬目白山,カナガワケン,フジサワシ,カタセメジロヤマ,神奈川県藤沢市片瀬目白山
2510035,神奈川県,藤沢市,片瀬海岸,カナガワケン,フジサワシ,カタセカイガン,神奈川県藤沢市片瀬海岸
2510036,神奈川県,藤沢市,江の島,カナガワケン,フジサワシ,エノシマ,神奈川県藤沢市江の島
2510037,神奈川県,藤沢市,鵠沼海岸,カナガワケン,フジサワシ,クゲヌマカイガン,神奈川県藤沢市鵠沼海岸
2510038,神奈川県,藤沢市,鵠沼松が岡,カナガワケン,フジサワシ,クゲヌママツガオカ,神奈川県藤沢市鵠沼松が岡
2510041,神奈川県,藤沢市,辻堂神台,カナガワケン,フジサワシ,ツジドウカンダイ,神奈川県藤沢市辻堂神台
2510042,神奈川県,藤沢市,辻堂新町,カナガワケン,フジサワシ,ツジドウシンマチ,神奈川県藤沢市辻堂新町
2510043,神奈川県,藤沢市,辻堂元町,カナガワケン,フジサワシ,ツジドウモトマチ,神奈川県藤沢市辻堂元町
2510044,神奈川県,藤沢市,辻堂太平台,カナガワケン,フジサワシ,ツジドウタイヘイダイ,神奈川県藤沢市辻堂太平台
2510045,神奈川県,藤沢市,辻堂東海岸,カナガワケン,フジサワシ,ツジドウヒガシカイガン,神奈川県藤沢市辻堂東海岸
2510046,神奈川県,藤沢市,辻堂西海岸,カナガワケン,フジサワシ,ツジドウニシカイガン,神奈川県藤沢市辻堂西海岸
2510047,神奈川県,藤沢市,辻堂,カナガワケン,フジサワシ,ツジドウ,神奈川県藤沢市辻堂
2510051,神奈川県,藤沢市,白旗,カナガワケン,フジサワシ,シラハタ,神奈川県藤沢市白旗
2510052,神奈川県,藤沢市,藤沢,カナガワケン,フジサワシ,フジサワ,神奈川県藤沢市藤沢
2510053,神奈川県,藤沢市,本町,カナガワケン,フジサワシ,ホンチョウ,神奈川県藤沢市本町
2510054,神奈川県,藤沢市,朝日町,カナガワケン,フジサワシ,アサヒチョウ,神奈川県藤沢市朝日町
2510055,神奈川県,藤沢市,南藤沢,カナガワケン,フジサワシ,ミナミフジサワ,神奈川県藤沢市南藤沢
2510056,神奈川県,藤沢市,羽鳥,カナガワケン,フジサワシ,ハトリ,神奈川県藤沢市羽鳥
2510057,神奈川県,藤沢市,城南,カナガワケン,フジサワシ,ジョウナン,神奈川県藤沢市城南
2510861,神奈川県,藤沢市,大庭,カナガワケン,フジサワシ,オオバ,神奈川県藤沢市大庭
2510862,神奈川県,藤沢市,稲荷,カナガワケン,フジサワシ,イナリ,神奈川県藤沢市稲荷
2510871,神奈川県,藤沢市,善行,カナガワケン,フジサワシ,ゼンギョウ,神奈川県藤沢市善行
2510872,神奈川県,藤沢市,立石,カナガワケン,フジサワシ,タテイシ,神奈川県藤沢市立石
2510873,神奈川県,藤沢市,みその台,カナガワケン,フジサワシ,ミソノダイ,神奈川県藤沢市みその台
2510874,神奈川県,藤沢市,花の木,カナガワケン,フジサワシ,ハナノキ,神奈川県藤沢市花の木
2510875,神奈川県,藤沢市,本藤沢,カナガワケン,フジサワシ,ホンフジサワ,神奈川県藤沢市本藤沢
2510876,神奈川県,藤沢市,善行坂,カナガワケン,フジサワシ,ゼンギョウザカ,神奈川県藤沢市善行坂
2510877,神奈川県,藤沢市,善行団地,カナガワケン,フジサワシ,ゼンギョウダンチ,神奈川県藤沢市善行団地
2520000,神奈川県,座間市,,カナガワケン,ザマシ,,神奈川県座間市
2520001,神奈川県,座間市,相模が丘,カナガワケン,ザマシ,サガミガオカ,神奈川県座間市相模が丘
2520002,神奈川県,座間市,小松原,カナガワケン,ザマシ,コマツバラ,神奈川県座間市小松原
2520003,神奈川県,座間市,ひばりが丘,カナガワケン,ザマシ,ヒバリガオカ,神奈川県座間市ひばりが丘
2520004,神奈川県,座間市,東原,カナガワケン,ザマシ,ヒガシハラ,神奈川県座間市東原
2520005,神奈川県,座間市,さがみ野,カナガワケン,ザマシ,サガミノ,神奈川県座間市さがみ野
2520011,神奈川県,座間市,相武台,カナガワケン,ザマシ,ソウブダイ,神奈川県座間市相武台
2520012,神奈川県,座間市,広野台,カナガワケン,ザマシ,ヒロノダイ,神奈川県座間市広野台
2520013,神奈川県,座間市,栗原,カナガワケン,ザマシ,クリハラ,神奈川県座間市栗原
2520014,神奈川県,座間市,栗原中央,カナガワケン,ザマシ,クリハラチュウオウ,神奈川県座間市栗原中央
2520015,神奈川県,座間市,南栗原,カナガワケン,ザマシ,ミナミクリハラ,神奈川県座間市南栗原
2520016,神奈川県,座間市,西栗原,カナガワケン,ザマシ,ニシクリハラ,神奈川県座間市西栗原
2520021,神奈川県,座間市,緑ケ丘,カナガワケン,ザマシ,ミドリガオカ,神奈川県座間市緑ケ丘
2520022,神奈川県,座間市,明王,カナガワケン,ザマシ,ミョウオウ,神奈川県座間市明王
2520023,神奈川県,座間市,立野台,カナガワケン,ザマシ,タツノダイ,神奈川県座間市立野台
2520025,神奈川県,座間市,四ツ谷,カナガワケン,ザマシ,ヨツヤ,神奈川県座間市四ツ谷
2520026,神奈川県,座間市,新田宿,カナガワケン,ザマシ,シンデンジュク,神奈川県座間市新田宿
2520027,神奈川県,座間市,座間,カナガワケン,ザマシ,ザマ,神奈川県座間市座間
2520028,神奈川県,座間市,入谷東,カナガワケン,ザマシ,イリヤヒガシ,神奈川県座間市入谷東
2520029,神奈川県,座間市,入谷西,カナガワケン,ザマシ,イリヤニシ,神奈川県座間市入谷西
2520100,神奈川県,相模原市緑区,,カナガワケン,サガミハラシミドリク,,神奈川県相模原市緑区
2520101,神奈川県,相模原市緑区,町屋,カナガワケン,サガミハラシミドリク,マチヤ,神奈川県相模原市緑区町屋
2520102,神奈川県,相模原市緑区,原宿,カナガワケン,サガミハラシミドリク,ハラジュク,神奈川県相模原市緑区原宿
2520103,神奈川県,相模原市緑区,原宿南,カナガワケン,サガミハラシミドリク,ハラジュクミナミ,神奈川県相模原市緑区原宿南
2520104,神奈川県,相模原市緑区,向原,カナガワケン,サガミハラシミドリク,ムカイハラ,神奈川県相模原市緑区向原
2520105,神奈川県,相模原市緑区,久保沢,カナガワケン,サガミハラシミドリク,クボサワ,神奈川県相模原市緑区久保沢
2520106,神奈川県,相模原市緑区,広田,カナガワケン,サガミハラシミドリク,ヒロタ,神奈川県相模原市緑区広田
2520111,神奈川県,相模原市緑区,川尻,カナガワケン,サガミハラシミドリク,カワシリ,神奈川県相模原市緑区川尻
2520112,神奈川県,相模原市緑区,若葉台,カナガワケン,サガミハラシミドリク,ワカバダイ,神奈川県相模原市緑区若葉台
2520113,神奈川県,相模原市緑区,谷ヶ原,カナガワケン,サガミハラシミドリク,タニガハラ,神奈川県相模原市緑区谷ヶ原
2520114,神奈川県,相模原市緑区,葉山島,カナガワケン,サガミハラシミドリク,ハヤマジマ,神奈川県相模原市緑区葉山島
2520115,神奈川県,相模原市緑区,小倉,カナガワケン,サガミハラシミドリク,オグラ,神奈川県相模原市緑区小倉
2520116,神奈川県,相模原市緑区,城山,カナガワケン,サガミハラシミドリク,シロヤマ,神奈川県相模原市緑区城山
2520117,神奈川県,相模原市緑区,中沢,カナガワケン,サガミハラシミドリク,ナカザワ,神奈川県相模原市緑区中沢
2520124,神奈川県,相模原市緑区,田名,カナガワケン,サガミハラシミドリク,タナ,神奈川県相模原市緑区田名
2520131,神奈川県,相模原市緑区,西橋本,カナガワケン,サガミハラシミドリク,ニシハシモト,神奈川県相模原市緑区西橋本
2520132,神奈川県,相模原市緑区,橋本台,カナガワケン,サガミハラシミドリク,ハシモトダイ,神奈川県相模原市緑区橋本台
2520134,神奈川県,相模原市緑区,下九沢,カナガワケン,サガミハラシミドリク,シモクザワ,神奈川県相模原市緑区下九沢
2520135,神奈川県,相模原市緑区,大島,カナガワケン,サガミハラシミドリク,オオシマ,神奈川県相模原市緑区大島
2520136,神奈川県,相模原市緑区,上九沢,カナガワケン,サガミハラシミドリク,カミクザワ,神奈川県相模原市緑区上九沢
2520137,神奈川県,相模原市緑区,二本松,カナガワケン,サガミハラシミドリク,ニホンマツ,神奈川県相模原市緑区二本松
2520141,神奈川県,相模原市緑区,相原,カナガワケン,サガミハラシミドリク,アイハラ,神奈川県相模原市緑区相原
2520142,神奈川県,相模原市緑区,元橋本町,カナガワケン,サガミハラシミドリク,モトハシモトチョウ,神奈川県相模原市緑区元橋本町
2520143,神奈川県,相模原市緑区,橋本,カナガワケン,サガミハラシミドリク,ハシモト,神奈川県相模原市緑区橋本
2520144,神奈川県,相模原市緑区,東橋本,カナガワケン,サガミハラシミドリク,ヒガシハシモト,神奈川県相模原市緑区東橋本
2520146,神奈川県,相模原市緑区,大山町,カナガワケン,サガミハラシミドリク,オオヤマチョウ,神奈川県相模原市緑区大山町
2520151,神奈川県,相模原市緑区,三井,カナガワケン,サガミハラシミドリク,ミイ,神奈川県相模原市緑区三井
2520152,神奈川県,相模原市緑区,太井,カナガワケン,サガミハラシミドリク,オオイ,神奈川県相模原市緑区太井
2520153,神奈川県,相模原市緑区,根小屋,カナガワケン,サガミハラシミドリク,ネゴヤ,神奈川県相模原市緑区根小屋
2520154,神奈川県,相模原市緑区,長竹,カナガワケン,サガミハラシミドリク,ナガタケ,神奈川県相模原市緑区長竹
2520155,神奈川県,相模原市緑区,鳥屋,カナガワケン,サガミハラシミドリク,トヤ,神奈川県相模原市緑区鳥屋
2520156,神奈川県,相模原市緑区,青山,カナガワケン,サガミハラシミドリク,アオヤマ,神奈川県相模原市緑区青山
2520157,神奈川県,相模原市緑区,中野,カナガワケン,サガミハラシミドリク,ナカノ,神奈川県相模原市緑区中野
2520158,神奈川県,相模原市緑区,又野,カナガワケン,サガミハラシミドリク,マタノ,神奈川県相模原市緑区又野
2520159,神奈川県,相模原市緑区,三ケ木,カナガワケン,サガミハラシミドリク,ミカゲ,神奈川県相模原市緑区三ケ木
2520161,神奈川県,相模原市緑区,青野原,カナガワケン,サガミハラシミドリク,アオノハラ,神奈川県相模原市緑区青野原
2520162,神奈川県,相模原市緑区,青根,カナガワケン,サガミハラシミドリク,アオネ,神奈川県相模原市緑区青根
2520171,神奈川県,相模原市緑区,与瀬,カナガワケン,サガミハラシミドリク,ヨセ,神奈川県相模原市緑区与瀬
2520172,神奈川県,相模原市緑区,与瀬本町,カナガワケン,サガミハラシミドリク,ヨセホンチョウ,神奈川県相模原市緑区与瀬本町
2520173,神奈川県,相模原市緑区,小原,カナガワケン,サガミハラシミドリク,オバラ,神奈川県相模原市緑区小原
2520174,神奈川県,相模原市緑区,千木良,カナガワケン,サガミハラシミドリク,チギラ,神奈川県相模原市緑区千木良
2520175,神奈川県,相模原市緑区,若柳,カナガワケン,サガミハラシミドリク,ワカヤナギ,神奈川県相模原市緑区若柳
2520176,神奈川県,相模原市緑区,寸沢嵐（その他）,カナガワケン,サガミハラシミドリク,スワラシ(ソノタ),神奈川県相模原市緑区寸沢嵐（その他）
2520181,神奈川県,相模原市緑区,佐野川,カナガワケン,サガミハラシミドリク,サノガワ,神奈川県相模原市緑区佐野川
2520182,神奈川県,相模原市緑区,澤井,カナガワケン,サガミハラシミドリク,サワイ,神奈川県相模原市緑区澤井
2520183,神奈川県,相模原市緑区,吉野,カナガワケン,サガミハラシミドリク,ヨシノ,神奈川県相模原市緑区吉野
2520184,神奈川県,相模原市緑区,小渕,カナガワケン,サガミハラシミドリク,オブチ,神奈川県相模原市緑区小渕
2520185,神奈川県,相模原市緑区,日連,カナガワケン,サガミハラシミドリク,ヒヅレ,神奈川県相模原市緑区日連
2520186,神奈川県,相模原市緑区,牧野,カナガワケン,サガミハラシミドリク,マギノ,神奈川県相模原市緑区牧野
2520187,神奈川県,相模原市緑区,名倉,カナガワケン,サガミハラシミドリク,ナグラ,神奈川県相模原市緑区名倉
2520188,神奈川県,相模原市緑区,寸沢嵐（新戸）,カナガワケン,サガミハラシミドリク,スワラシ(シンド),神奈川県相模原市緑区寸沢嵐（新戸）
2520200,神奈川県,相模原市中央区,,カナガワケン,サガミハラシチュウオウク,,神奈川県相模原市中央区
2520201,神奈川県,相模原市中央区,上矢部,カナガワケン,サガミハラシチュウオウク,カミヤベ,神奈川県相模原市中央区上矢部
2520202,神奈川県,相模原市中央区,淵野辺本町,カナガワケン,サガミハラシチュウオウク,フチノベホンチョウ,神奈川県相模原市中央区淵野辺本町
2520203,神奈川県,相模原市中央区,東淵野辺,カナガワケン,サガミハラシチュウオウク,ヒガシフチノベ,神奈川県相模原市中央区東淵野辺
2520205,神奈川県,相模原市中央区,小山,カナガワケン,サガミハラシチュウオウク,オヤマ,神奈川県相模原市中央区小山
2520206,神奈川県,相模原市中央区,淵野辺,カナガワケン,サガミハラシチュウオウク,フチノベ,神奈川県相模原市中央区淵野辺
2520207,神奈川県,相模原市中央区,矢部新町,カナガワケン,サガミハラシチュウオウク,ヤベシンチョウ,神奈川県相模原市中央区矢部新町
2520208,神奈川県,相模原市中央区,矢部新田,カナガワケン,サガミハラシチュウオウク,ヤベシンデン,神奈川県相模原市中央区矢部新田
2520211,神奈川県,相模原市中央区,宮下本町,カナガワケン,サガミハラシチュウオウク,ミヤシモホンチョウ,神奈川県相模原市中央区宮下本町
2520212,神奈川県,相模原市中央区,宮下,カナガワケン,サガミハラシチュウオウク,ミヤシモ,神奈川県相模原市中央区宮下
2520213,神奈川県,相模原市中央区,すすきの町,カナガワケン,サガミハラシチュウオウク,ススキノチョウ,神奈川県相模原市中央区すすきの町
2520214,神奈川県,相模原市中央区,向陽町,カナガワケン,サガミハラシチュウオウク,コウヨウチョウ,神奈川県相模原市中央区向陽町
2520215,神奈川県,相模原市中央区,氷川町,カナガワケン,サガミハラシチュウオウク,ヒカワチョウ,神奈川県相模原市中央区氷川町
2520216,神奈川県,相模原市中央区,清新,カナガワケン,サガミハラシチュウオウク,セイシン,神奈川県相模原市中央区清新
2520217,神奈川県,相模原市中央区,小町通,カナガワケン,サガミハラシチュウオウク,コマチドオリ,神奈川県相模原市中央区小町通
2520221,神奈川県,相模原市中央区,高根,カナガワケン,サガミハラシチュウオウク,タカネ,神奈川県相模原市中央区高根
2520222,神奈川県,相模原市中央区,由野台,カナガワケン,サガミハラシチュウオウク,ヨシノダイ,神奈川県相模原市中央区由野台
2520223,神奈川県,相模原市中央区,松が丘,カナガワケン,サガミハラシチュウオウク,マツガオカ,神奈川県相模原市中央区松が丘
2520224,神奈川県,相模原市中央区,青葉,カナガワケン,サガミハラシチュウオウク,アオバ,神奈川県相模原市中央区青葉
2520225,神奈川県,相模原市中央区,緑が丘,カナガワケン,サガミハラシチュウオウク,ミドリガオカ,神奈川県相模原市中央区緑が丘
2520226,神奈川県,相模原市中央区,陽光台,カナガワケン,サガミハラシチュウオウク,ヨウコウダイ,神奈川県相模原市中央区陽光台
2520227,神奈川県,相模原市中央区,光が丘,カナガワケン,サガミハラシチュウオウク,ヒカリガオカ,神奈川県相模原市中央区光が丘
2520228,神奈川県,相模原市中央区,並木,カナガワケン,サガミハラシチュウオウク,ナミキ,神奈川県相模原市中央区並木
2520229,神奈川県,相模原市中央区,弥栄,カナガワケン,サガミハラシチュウオウク,ヤエイ,神奈川県相模原市中央区弥栄
2520231,神奈川県,相模原市中央区,相模原,カナガワケン,サガミハラシチュウオウク,サガミハラ,神奈川県相模原市中央区相模原
2520232,神奈川県,相模原市中央区,矢部,カナガワケン,サガミハラシチュウオウク,ヤベ,神奈川県相模原市中央区矢部
2520233,神奈川県,相模原市中央区,鹿沼台,カナガワケン,サガミハラシチュウオウク,カヌマダイ,神奈川県相模原市中央区鹿沼台
2520234,神奈川県,相模原市中央区,共和,カナガワケン,サガミハラシチュウオウク,キョウワ,神奈川県相模原市中央区共和
2520235,神奈川県,相模原市中央区,相生,カナガワケン,サガミハラシチュウオウク,アイオイ,神奈川県相模原市中央区相生
2520236,神奈川県,相模原市中央区,富士見,カナガワケン,サガミハラシチュウオウク,フジミ,神奈川県相模原市中央区富士見
2520237,神奈川県,相模原市中央区,千代田,カナガワケン,サガミハラシチュウオウク,チヨダ,神奈川県相模原市中央区千代田
2520238,神奈川県,相模原市中央区,星が丘,カナガワケン,サガミハラシチュウオウク,ホシガオカ,神奈川県相模原市中央区星が丘
2520239,神奈川県,相模原市中央区,中央,カナガワケン,サガミハラシチュウオウク,チュウオウ,神奈川県相模原市中央区中央
2520241,神奈川県,相模原市中央区,横山台,カナガワケン,サガミハラシチュウオウク,ヨコヤマダイ,神奈川県相模原市中央区横山台
2520242,神奈川県,相模原市中央区,横山,カナガワケン,サガミハラシチュウオウク,ヨコヤマ,神奈川県相模原市中央区横山
2520243,神奈川県,相模原市中央区,上溝,カナガワケン,サガミハラシチュウオウク,カミミゾ,神奈川県相模原市中央区上溝
2520244,神奈川県,相模原市中央区,田名,カナガワケン,サガミハラシチュウオウク,タナ,神奈川県相模原市中央区田名
2520245,神奈川県,相模原市中央区,田名塩田,カナガワケン,サガミハラシチュウオウク,タナシオダ,神奈川県相模原市中央区田名塩田
2520246,神奈川県,相模原市中央区,水郷田名,カナガワケン,サガミハラシチュウオウク,スイゴウタナ,神奈川県相模原市中央区水郷田名
2520251,神奈川県,相模原市中央区,大野台,カナガワケン,サガミハラシチュウオウク,オオノダイ,神奈川県相模原市中央区大野台
2520253,神奈川県,相模原市中央区,南橋本,カナガワケン,サガミハラシチュウオウク,ミナミハシモト,神奈川県相模原市中央区南橋本
2520254,神奈川県,相模原市中央区,下九沢,カナガワケン,サガミハラシチュウオウク,シモクザワ,神奈川県相模原市中央区下九沢
2520300,神奈川県,相模原市南区,,カナガワケン,サガミハラシミナミク,,神奈川県相模原市南区
2520301,神奈川県,相模原市南区,鵜野森,カナガワケン,サガミハラシミナミク,ウノモリ,神奈川県相模原市南区鵜野森
2520302,神奈川県,相模原市南区,上鶴間,カナガワケン,サガミハラシミナミク,カミツルマ,神奈川県相模原市南区上鶴間
2520303,神奈川県,相模原市南区,相模大野,カナガワケン,サガミハラシミナミク,サガミオオノ,神奈川県相模原市南区相模大野
2520304,神奈川県,相模原市南区,旭町,カナガワケン,サガミハラシミナミク,アサヒチョウ,神奈川県相模原市南区旭町
2520305,神奈川県,相模原市南区,豊町,カナガワケン,サガミハラシミナミク,ユタカチョウ,神奈川県相模原市南区豊町
2520306,神奈川県,相模原市南区,栄町,カナガワケン,サガミハラシミナミク,サカエチョウ,神奈川県相模原市南区栄町
2520307,神奈川県,相模原市南区,文京,カナガワケン,サガミハラシミナミク,ブンキョウ,神奈川県相模原市南区文京
2520311,神奈川県,相模原市南区,東林間,カナガワケン,サガミハラシミナミク,ヒガシリンカン,神奈川県相模原市南区東林間
2520312,神奈川県,相模原市南区,相南,カナガワケン,サガミハラシミナミク,ソウナン,神奈川県相模原市南区相南
2520313,神奈川県,相模原市南区,松が枝町,カナガワケン,サガミハラシミナミク,マツガエチョウ,神奈川県相模原市南区松が枝町
2520314,神奈川県,相模原市南区,南台,カナガワケン,サガミハラシミナミク,ミナミダイ,神奈川県相模原市南区南台
2520315,神奈川県,相模原市南区,桜台,カナガワケン,サガミハラシミナミク,サクラダイ,神奈川県相模原市南区桜台
2520316,神奈川県,相模原市南区,双葉,カナガワケン,サガミハラシミナミク,フタバ,神奈川県相模原市南区双葉
2520317,神奈川県,相模原市南区,御園,カナガワケン,サガミハラシミナミク,ミソノ,神奈川県相模原市南区御園
2520318,神奈川県,相模原市南区,上鶴間本町,カナガワケン,サガミハラシミナミク,カミツルマホンチョウ,神奈川県相模原市南区上鶴間本町
2520321,神奈川県,相模原市南区,相模台,カナガワケン,サガミハラシミナミク,サガミダイ,神奈川県相模原市南区相模台
2520322,神奈川県,相模原市南区,相模台団地,カナガワケン,サガミハラシミナミク,サガミダイダンチ,神奈川県相模原市南区相模台団地
2520323,神奈川県,相模原市南区,相武台団地,カナガワケン,サガミハラシミナミク,ソウブダイダンチ,神奈川県相模原市南区相武台団地
2520324,神奈川県,相模原市南区,相武台,カナガワケン,サガミハラシミナミク,ソウブダイ,神奈川県相模原市南区相武台
2520325,神奈川県,相模原市南区,新磯野,カナガワケン,サガミハラシミナミク,アライソノ,神奈川県相模原市南区新磯野
2520326,神奈川県,相模原市南区,新戸,カナガワケン,サガミハラシミナミク,シンド,神奈川県相模原市南区新戸
2520327,神奈川県,相模原市南区,磯部,カナガワケン,サガミハラシミナミク,イソベ,神奈川県相模原市南区磯部
2520328,神奈川県,相模原市南区,麻溝台,カナガワケン,サガミハラシミナミク,アサミゾダイ,神奈川県相模原市南区麻溝台
2520329,神奈川県,相模原市南区,北里,カナガワケン,サガミハラシミナミク,キタザト,神奈川県相模原市南区北里
2520331,神奈川県,相模原市南区,大野台,カナガワケン,サガミハラシミナミク,オオノダイ,神奈川県相模原市南区大野台
2520332,神奈川県,相模原市南区,西大沼,カナガワケン,サガミハラシミナミク,ニシオオヌマ,神奈川県相模原市南区西大沼
2520333,神奈川県,相模原市南区,東大沼,カナガワケン,サガミハラシミナミク,ヒガシオオヌマ,神奈川県相模原市南区東大沼
2520334,神奈川県,相模原市南区,若松,カナガワケン,サガミハラシミナミク,ワカマツ,神奈川県相模原市南区若松
2520335,神奈川県,相模原市南区,下溝,カナガワケン,サガミハラシミナミク,シモミゾ,神奈川県相模原市南区下溝
2520336,神奈川県,相模原市南区,当麻,カナガワケン,サガミハラシミナミク,タイマ,神奈川県相模原市南区当麻
2520344,神奈川県,相模原市南区,古淵,カナガワケン,サガミハラシミナミク,コブチ,神奈川県相模原市南区古淵
2520801,神奈川県,藤沢市,長後,カナガワケン,フジサワシ,チョウゴ,神奈川県藤沢市長後
2520802,神奈川県,藤沢市,高倉,カナガワケン,フジサワシ,タカクラ,神奈川県藤沢市高倉
2520803,神奈川県,藤沢市,今田,カナガワケン,フジサワシ,イマダ,神奈川県藤沢市今田
2520804,神奈川県,藤沢市,湘南台,カナガワケン,フジサワシ,ショウナンダイ,神奈川県藤沢市湘南台
2520805,神奈川県,藤沢市,円行,カナガワケン,フジサワシ,エンギョウ,神奈川県藤沢市円行
2520806,神奈川県,藤沢市,土棚,カナガワケン,フジサワシ,ツチダナ,神奈川県藤沢市土棚
2520807,神奈川県,藤沢市,下土棚,カナガワケン,フジサワシ,シモツチダナ,神奈川県藤沢市下土棚
2520811,神奈川県,藤沢市,桐原町,カナガワケン,フジサワシ,キリハラチョウ,神奈川県藤沢市桐原町
2520812,神奈川県,藤沢市,西俣野,カナガワケン,フジサワシ,ニシマタノ,神奈川県藤沢市西俣野
2520813,神奈川県,藤沢市,亀井野,カナガワケン,フジサワシ,カメイノ,神奈川県藤沢市亀井野
2520814,神奈川県,藤沢市,天神町,カナガワケン,フジサワシ,テンジンチョウ,神奈川県藤沢市天神町
2520815,神奈川県,藤沢市,石川,カナガワケン,フジサワシ,イシカワ,神奈川県藤沢市石川
2520816,神奈川県,藤沢市,遠藤,カナガワケン,フジサワシ,エンドウ,神奈川県藤沢市遠藤
2520821,神奈川県,藤沢市,用田,カナガワケン,フジサワシ,ヨウダ,神奈川県藤沢市用田
2520822,神奈川県,藤沢市,葛原,カナガワケン,フジサワシ,クズハラ,神奈川県藤沢市葛原
2520823,神奈川県,藤沢市,菖蒲沢,カナガワケン,フジサワシ,ショウブサワ,神奈川県藤沢市菖蒲沢
2520824,神奈川県,藤沢市,打戻,カナガワケン,フジサワシ,ウチモドリ,神奈川県藤沢市打戻
2520825,神奈川県,藤沢市,獺郷,カナガワケン,フジサワシ,オソゴウ,神奈川県藤沢市獺郷
2520826,神奈川県,藤沢市,宮原,カナガワケン,フジサワシ,ミヤバラ,神奈川県藤沢市宮原
2521100,神奈川県,綾瀬市,,カナガワケン,アヤセシ,,神奈川県綾瀬市
2521101,神奈川県,綾瀬市,厚木航空基地,カナガワケン,アヤセシ,アツギコウクウキチ,神奈川県綾瀬市厚木航空基地
2521102,神奈川県,綾瀬市,本蓼川,カナガワケン,アヤセシ,ホンタテカワ,神奈川県綾瀬市本蓼川
2521103,神奈川県,綾瀬市,深谷,カナガワケン,アヤセシ,フカヤ,神奈川県綾瀬市深谷
2521104,神奈川県,綾瀬市,大上,カナガワケン,アヤセシ,オオガミ,神奈川県綾瀬市大上
2521105,神奈川県,綾瀬市,蓼川,カナガワケン,アヤセシ,タテカワ,神奈川県綾瀬市蓼川
2521106,神奈川県,綾瀬市,深谷南,カナガワケン,アヤセシ,フカヤミナミ,神奈川県綾瀬市深谷南
2521107,神奈川県,綾瀬市,深谷中,カナガワケン,アヤセシ,フカヤナカ,神奈川県綾瀬市深谷中
2521108,神奈川県,綾瀬市,深谷上,カナガワケン,アヤセシ,フカヤカミ,神奈川県綾瀬市深谷上
2521111,神奈川県,綾瀬市,上土棚北,カナガワケン,アヤセシ,カミツチダナキタ,神奈川県綾瀬市上土棚北
2521112,神奈川県,綾瀬市,上土棚,カナガワケン,アヤセシ,カミツチダナ,神奈川県綾瀬市上土棚
2521113,神奈川県,綾瀬市,上土棚中,カナガワケン,アヤセシ,カミツチダナナカ,神奈川県綾瀬市上土棚中
2521114,神奈川県,綾瀬市,上土棚南,カナガワケン,アヤセシ,カミツチダナミナミ,神奈川県綾瀬市上土棚南
2521115,神奈川県,綾瀬市,落合南,カナガワケン,アヤセシ,オチアイミナミ,神奈川県綾瀬市落合南
2521116,神奈川県,綾瀬市,落合北,カナガワケン,アヤセシ,オチアイキタ,神奈川県綾瀬市落合北
2521121,神奈川県,綾瀬市,小園,カナガワケン,アヤセシ,コゾノ,神奈川県綾瀬市小園
2521122,神奈川県,綾瀬市,小園南,カナガワケン,アヤセシ,コゾノミナミ,神奈川県綾瀬市小園南
2521123,神奈川県,綾瀬市,早川,カナガワケン,アヤセシ,ハヤカワ,神奈川県綾瀬市早川
2521124,神奈川県,綾瀬市,吉岡,カナガワケン,アヤセシ,ヨシオカ,神奈川県綾瀬市吉岡
2521125,神奈川県,綾瀬市,吉岡東,カナガワケン,アヤセシ,ヨシオカヒガシ,神奈川県綾瀬市吉岡東
2521126,神奈川県,綾瀬市,綾西,カナガワケン,アヤセシ,リョウセイ,神奈川県綾瀬市綾西
2521127,神奈川県,綾瀬市,早川城山,カナガワケン,アヤセシ,ハヤカワシロヤマ,神奈川県綾瀬市早川城山
2521131,神奈川県,綾瀬市,寺尾北,カナガワケン,アヤセシ,テラオキタ,神奈川県綾瀬市寺尾北
2521132,神奈川県,綾瀬市,寺尾中,カナガワケン,アヤセシ,テラオナカ,神奈川県綾瀬市寺尾中
2521133,神奈川県,綾瀬市,寺尾本町,カナガワケン,アヤセシ,テラオホンチョウ,神奈川県綾瀬市寺尾本町
2521134,神奈川県,綾瀬市,寺尾南,カナガワケン,アヤセシ,テラオミナミ,神奈川県綾瀬市寺尾南
2521135,神奈川県,綾瀬市,寺尾釜田,カナガワケン,アヤセシ,テラオカマタ,神奈川県綾瀬市寺尾釜田
2521136,神奈川県,綾瀬市,寺尾西,カナガワケン,アヤセシ,テラオニシ,神奈川県綾瀬市寺尾西
2521137,神奈川県,綾瀬市,寺尾台,カナガワケン,アヤセシ,テラオダイ,神奈川県綾瀬市寺尾台
2530000,神奈川県,茅ヶ崎市,,カナガワケン,チガサキシ,,神奈川県茅ヶ崎市
2530001,神奈川県,茅ヶ崎市,赤羽根,カナガワケン,チガサキシ,アカバネ,神奈川県茅ヶ崎市赤羽根
2530002,神奈川県,茅ヶ崎市,高田,カナガワケン,チガサキシ,タカタ,神奈川県茅ヶ崎市高田
2530003,神奈川県,茅ヶ崎市,鶴が台,カナガワケン,チガサキシ,ツルガダイ,神奈川県茅ヶ崎市鶴が台
2530004,神奈川県,茅ヶ崎市,甘沼,カナガワケン,チガサキシ,アマヌマ,神奈川県茅ヶ崎市甘沼
2530005,神奈川県,茅ヶ崎市,松風台,カナガワケン,チガサキシ,マツカゼダイ,神奈川県茅ヶ崎市松風台
2530006,神奈川県,茅ヶ崎市,堤,カナガワケン,チガサキシ,ツツミ,神奈川県茅ヶ崎市堤
2530007,神奈川県,茅ヶ崎市,行谷,カナガワケン,チガサキシ,ナメガヤ,神奈川県茅ヶ崎市行谷
2530008,神奈川県,茅ヶ崎市,芹沢,カナガワケン,チガサキシ,セリザワ,神奈川県茅ヶ崎市芹沢
2530011,神奈川県,茅ヶ崎市,菱沼,カナガワケン,チガサキシ,ヒシヌマ,神奈川県茅ヶ崎市菱沼
2530012,神奈川県,茅ヶ崎市,小和田,カナガワケン,チガサキシ,コワダ,神奈川県茅ヶ崎市小和田
2530013,神奈川県,茅ヶ崎市,赤松町,カナガワケン,チガサキシ,アカマツチョウ,神奈川県茅ヶ崎市赤松町
2530014,神奈川県,茅ヶ崎市,本宿町,カナガワケン,チガサキシ,ホンジュクチョウ,神奈川県茅ヶ崎市本宿町
2530015,神奈川県,茅ヶ崎市,代官町,カナガワケン,チガサキシ,ダイカンチョウ,神奈川県茅ヶ崎市代官町
2530016,神奈川県,茅ヶ崎市,小桜町,カナガワケン,チガサキシ,コザクラチョウ,神奈川県茅ヶ崎市小桜町
2530017,神奈川県,茅ヶ崎市,松林,カナガワケン,チガサキシ,ショウリン,神奈川県茅ヶ崎市松林
2530018,神奈川県,茅ヶ崎市,室田,カナガワケン,チガサキシ,ムロタ,神奈川県茅ヶ崎市室田
2530021,神奈川県,茅ヶ崎市,浜竹,カナガワケン,チガサキシ,ハマタケ,神奈川県茅ヶ崎市浜竹
2530022,神奈川県,茅ヶ崎市,松浪,カナガワケン,チガサキシ,マツナミ,神奈川県茅ヶ崎市松浪
2530023,神奈川県,茅ヶ崎市,美住町,カナガワケン,チガサキシ,ミスミチョウ,神奈川県茅ヶ崎市美住町
2530024,神奈川県,茅ヶ崎市,平和町,カナガワケン,チガサキシ,ヘイワチョウ,神奈川県茅ヶ崎市平和町
2530025,神奈川県,茅ヶ崎市,松が丘,カナガワケン,チガサキシ,マツガオカ,神奈川県茅ヶ崎市松が丘
2530026,神奈川県,茅ヶ崎市,旭が丘,カナガワケン,チガサキシ,アサヒガオカ,神奈川県茅ヶ崎市旭が丘
2530027,神奈川県,茅ヶ崎市,ひばりが丘,カナガワケン,チガサキシ,ヒバリガオカ,神奈川県茅ヶ崎市ひばりが丘
2530028,神奈川県,茅ヶ崎市,出口町,カナガワケン,チガサキシ,デグチチョウ,神奈川県茅ヶ崎市出口町
2530031,神奈川県,茅ヶ崎市,富士見町,カナガワケン,チガサキシ,フジミチョウ,神奈川県茅ヶ崎市富士見町
2530032,神奈川県,茅ヶ崎市,常盤町,カナガワケン,チガサキシ,トキワチョウ,神奈川県茅ヶ崎市常盤町
2530033,神奈川県,茅ヶ崎市,汐見台,カナガワケン,チガサキシ,シオミダイ,神奈川県茅ヶ崎市汐見台
2530034,神奈川県,茅ヶ崎市,緑が浜,カナガワケン,チガサキシ,ミドリガハマ,神奈川県茅ヶ崎市緑が浜
2530035,神奈川県,茅ヶ崎市,浜須賀,カナガワケン,チガサキシ,ハマスカ,神奈川県茅ヶ崎市浜須賀
2530036,神奈川県,茅ヶ崎市,白浜町,カナガワケン,チガサキシ,シラハマチョウ,神奈川県茅ヶ崎市白浜町
2530037,神奈川県,茅ヶ崎市,菱沼海岸,カナガワケン,チガサキシ,ヒシヌマカイガン,神奈川県茅ヶ崎市菱沼海岸
2530041,神奈川県,茅ヶ崎市,茅ヶ崎,カナガワケン,チガサキシ,チガサキ,神奈川県茅ヶ崎市茅ヶ崎
2530042,神奈川県,茅ヶ崎市,本村,カナガワケン,チガサキシ,ホンソン,神奈川県茅ヶ崎市本村
2530043,神奈川県,茅ヶ崎市,元町,カナガワケン,チガサキシ,モトマチ,神奈川県茅ヶ崎市元町
2530044,神奈川県,茅ヶ崎市,新栄町,カナガワケン,チガサキシ,シンエイチョウ,神奈川県茅ヶ崎市新栄町
2530045,神奈川県,茅ヶ崎市,十間坂,カナガワケン,チガサキシ,ジュッケンザカ,神奈川県茅ヶ崎市十間坂
2530051,神奈川県,茅ヶ崎市,若松町,カナガワケン,チガサキシ,ワカマツチョウ,神奈川県茅ヶ崎市若松町
2530052,神奈川県,茅ヶ崎市,幸町,カナガワケン,チガサキシ,サイワイチョウ,神奈川県茅ヶ崎市幸町
2530053,神奈川県,茅ヶ崎市,東海岸北,カナガワケン,チガサキシ,ヒガシカイガンキタ,神奈川県茅ヶ崎市東海岸北
2530054,神奈川県,茅ヶ崎市,東海岸南,カナガワケン,チガサキシ,ヒガシカイガンミナミ,神奈川県茅ヶ崎市東海岸南
2530055,神奈川県,茅ヶ崎市,中海岸,カナガワケン,チガサキシ,ナカカイガン,神奈川県茅ヶ崎市中海岸
2530056,神奈川県,茅ヶ崎市,共恵,カナガワケン,チガサキシ,トモエ,神奈川県茅ヶ崎市共恵
2530061,神奈川県,茅ヶ崎市,南湖,カナガワケン,チガサキシ,ナンゴ,神奈川県茅ヶ崎市南湖
2530062,神奈川県,茅ヶ崎市,浜見平,カナガワケン,チガサキシ,ハマミダイラ,神奈川県茅ヶ崎市浜見平
2530063,神奈川県,茅ヶ崎市,柳島海岸,カナガワケン,チガサキシ,ヤナギシマカイガン,神奈川県茅ヶ崎市柳島海岸
2530064,神奈川県,茅ヶ崎市,柳島,カナガワケン,チガサキシ,ヤナギシマ,神奈川県茅ヶ崎市柳島
2530065,神奈川県,茅ヶ崎市,松尾,カナガワケン,チガサキシ,マツオ,神奈川県茅ヶ崎市松尾
2530071,神奈川県,茅ヶ崎市,萩園,カナガワケン,チガサキシ,ハギソノ,神奈川県茅ヶ崎市萩園
2530072,神奈川県,茅ヶ崎市,今宿,カナガワケン,チガサキシ,イマジュク,神奈川県茅ヶ崎市今宿
2530073,神奈川県,茅ヶ崎市,中島,カナガワケン,チガサキシ,ナカジマ,神奈川県茅ヶ崎市中島
2530074,神奈川県,茅ヶ崎市,平太夫新田,カナガワケン,チガサキシ,ヘイダユウシンデン,神奈川県茅ヶ崎市平太夫新田
2530081,神奈川県,茅ヶ崎市,下寺尾,カナガワケン,チガサキシ,シモテラオ,神奈川県茅ヶ崎市下寺尾
2530082,神奈川県,茅ヶ崎市,香川,カナガワケン,チガサキシ,カガワ,神奈川県茅ヶ崎市香川
2530083,神奈川県,茅ヶ崎市,西久保,カナガワケン,チガサキシ,ニシクボ,神奈川県茅ヶ崎市西久保
2530084,神奈川県,茅ヶ崎市,円蔵,カナガワケン,チガサキシ,エンゾウ,神奈川県茅ヶ崎市円蔵
2530085,神奈川県,茅ヶ崎市,矢畑,カナガワケン,チガサキシ,ヤバタ,神奈川県茅ヶ崎市矢畑
2530086,神奈川県,茅ヶ崎市,浜之郷,カナガワケン,チガサキシ,ハマノゴウ,神奈川県茅ヶ崎市浜之郷
2530087,神奈川県,茅ヶ崎市,下町屋,カナガワケン,チガサキシ,シモマチヤ,神奈川県茅ヶ崎市下町屋
2530088,神奈川県,茅ヶ崎市,みずき,カナガワケン,チガサキシ,ミズキ,神奈川県茅ヶ崎市みずき
2530100,神奈川県,高座郡寒川町,,カナガワケン,コウザグンサムカワマチ,,神奈川県高座郡寒川町
2530101,神奈川県,高座郡寒川町,倉見,カナガワケン,コウザグンサムカワマチ,クラミ,神奈川県高座郡寒川町倉見
2530102,神奈川県,高座郡寒川町,小動,カナガワケン,コウザグンサムカワマチ,コユルギ,神奈川県高座郡寒川町小動
2530103,神奈川県,高座郡寒川町,小谷,カナガワケン,コウザグンサムカワマチ,コヤト,神奈川県高座郡寒川町小谷
2530104,神奈川県,高座郡寒川町,大蔵,カナガワケン,コウザグンサムカワマチ,オオゾウ,神奈川県高座郡寒川町大蔵
2530105,神奈川県,高座郡寒川町,岡田,カナガワケン,コウザグンサムカワマチ,オカダ,神奈川県高座郡寒川町岡田
2530106,神奈川県,高座郡寒川町,宮山,カナガワケン,コウザグンサムカワマチ,ミヤヤマ,神奈川県高座郡寒川町宮山
2530111,神奈川県,高座郡寒川町,一之宮,カナガワケン,コウザグンサムカワマチ,イチノミヤ,神奈川県高座郡寒川町一之宮
2530112,神奈川県,高座郡寒川町,中瀬,カナガワケン,コウザグンサムカワマチ,ナカゼ,神奈川県高座郡寒川町中瀬
2530113,神奈川県,高座郡寒川町,大曲,カナガワケン,コウザグンサムカワマチ,オオマガリ,神奈川県高座郡寒川町大曲
2530114,神奈川県,高座郡寒川町,田端,カナガワケン,コウザグンサムカワマチ,タバタ,神奈川県高座郡寒川町田端
2540000,神奈川県,平塚市,,カナガワケン,ヒラツカシ,,神奈川県平塚市
2540001,神奈川県,平塚市,大島,カナガワケン,ヒラツカシ,オオシマ,神奈川県平塚市大島
2540002,神奈川県,平塚市,横内,カナガワケン,ヒラツカシ,ヨコウチ,神奈川県平塚市横内
2540003,神奈川県,平塚市,下島,カナガワケン,ヒラツカシ,シモジマ,神奈川県平塚市下島
2540004,神奈川県,平塚市,小鍋島,カナガワケン,ヒラツカシ,コナベシマ,神奈川県平塚市小鍋島
2540005,神奈川県,平塚市,城所,カナガワケン,ヒラツカシ,キドコロ,神奈川県平塚市城所
2540011,神奈川県,平塚市,吉際,カナガワケン,ヒラツカシ,ヨシギワ,神奈川県平塚市吉際
2540012,神奈川県,平塚市,大神,カナガワケン,ヒラツカシ,オオカミ,神奈川県平塚市大神
2540013,神奈川県,平塚市,田村,カナガワケン,ヒラツカシ,タムラ,神奈川県平塚市田村
2540014,神奈川県,平塚市,四之宮,カナガワケン,ヒラツカシ,シノミヤ,神奈川県平塚市四之宮
2540015,神奈川県,平塚市,八幡,カナガワケン,ヒラツカシ,ヤワタ,神奈川県平塚市八幡
2540016,神奈川県,平塚市,東八幡,カナガワケン,ヒラツカシ,ヒガシヤワタ,神奈川県平塚市東八幡
2540018,神奈川県,平塚市,東真土,カナガワケン,ヒラツカシ,ヒガシシンド,神奈川県平塚市東真土
2540019,神奈川県,平塚市,西真土,カナガワケン,ヒラツカシ,ニシシンド,神奈川県平塚市西真土
2540021,神奈川県,平塚市,長瀞,カナガワケン,ヒラツカシ,ナガトロ,神奈川県平塚市長瀞
2540022,神奈川県,平塚市,須賀,カナガワケン,ヒラツカシ,スカ,神奈川県平塚市須賀
2540023,神奈川県,平塚市,馬入,カナガワケン,ヒラツカシ,バニュウ,神奈川県平塚市馬入
2540024,神奈川県,平塚市,馬入本町,カナガワケン,ヒラツカシ,バニュウホンチョウ,神奈川県平塚市馬入本町
2540025,神奈川県,平塚市,榎木町,カナガワケン,ヒラツカシ,エノキチョウ,神奈川県平塚市榎木町
2540026,神奈川県,平塚市,中堂,カナガワケン,ヒラツカシ,ナカドウ,神奈川県平塚市中堂
2540027,神奈川県,平塚市,堤町,カナガワケン,ヒラツカシ,ツツミチョウ,神奈川県平塚市堤町
2540031,神奈川県,平塚市,天沼,カナガワケン,ヒラツカシ,アマヌマ,神奈川県平塚市天沼
2540032,神奈川県,平塚市,八千代町,カナガワケン,ヒラツカシ,ヤチヨチョウ,神奈川県平塚市八千代町
2540033,神奈川県,平塚市,老松町,カナガワケン,ヒラツカシ,オイマツチョウ,神奈川県平塚市老松町
2540034,神奈川県,平塚市,宝町,カナガワケン,ヒラツカシ,タカラチョウ,神奈川県平塚市宝町
2540035,神奈川県,平塚市,宮の前,カナガワケン,ヒラツカシ,ミヤノマエ,神奈川県平塚市宮の前
2540036,神奈川県,平塚市,宮松町,カナガワケン,ヒラツカシ,ミヤマツチョウ,神奈川県平塚市宮松町
2540041,神奈川県,平塚市,浅間町,カナガワケン,ヒラツカシ,センゲンチョウ,神奈川県平塚市浅間町
2540042,神奈川県,平塚市,明石町,カナガワケン,ヒラツカシ,アカシチョウ,神奈川県平塚市明石町
2540043,神奈川県,平塚市,紅谷町,カナガワケン,ヒラツカシ,ベニヤチョウ,神奈川県平塚市紅谷町
2540044,神奈川県,平塚市,錦町,カナガワケン,ヒラツカシ,ニシキチョウ,神奈川県平塚市錦町
2540045,神奈川県,平塚市,見附町,カナガワケン,ヒラツカシ,ミツケチョウ,神奈川県平塚市見附町
2540046,神奈川県,平塚市,立野町,カナガワケン,ヒラツカシ,タツノチョウ,神奈川県平塚市立野町
2540047,神奈川県,平塚市,追分,カナガワケン,ヒラツカシ,オイワケ,神奈川県平塚市追分
2540051,神奈川県,平塚市,豊原町,カナガワケン,ヒラツカシ,トヨハラチョウ,神奈川県平塚市豊原町
2540052,神奈川県,平塚市,平塚,カナガワケン,ヒラツカシ,ヒラツカ,神奈川県平塚市平塚
2540053,神奈川県,平塚市,桜ケ丘,カナガワケン,ヒラツカシ,サクラガオカ,神奈川県平塚市桜ケ丘
2540054,神奈川県,平塚市,中里,カナガワケン,ヒラツカシ,ナカザト,神奈川県平塚市中里
2540055,神奈川県,平塚市,上平塚,カナガワケン,ヒラツカシ,カミヒラツカ,神奈川県平塚市上平塚
2540061,神奈川県,平塚市,御殿,カナガワケン,ヒラツカシ,ゴテン,神奈川県平塚市御殿
2540062,神奈川県,平塚市,富士見町,カナガワケン,ヒラツカシ,フジミチョウ,神奈川県平塚市富士見町
2540063,神奈川県,平塚市,諏訪町,カナガワケン,ヒラツカシ,スワチョウ,神奈川県平塚市諏訪町
2540064,神奈川県,平塚市,達上ケ丘,カナガワケン,ヒラツカシ,タンジョウガオカ,神奈川県平塚市達上ケ丘
2540065,神奈川県,平塚市,南原,カナガワケン,ヒラツカシ,ミナミハラ,神奈川県平塚市南原
2540071,神奈川県,平塚市,中原上宿,カナガワケン,ヒラツカシ,ナカハラカミジュク,神奈川県平塚市中原上宿
2540072,神奈川県,平塚市,中原下宿,カナガワケン,ヒラツカシ,ナカハラシモジュク,神奈川県平塚市中原下宿
2540073,神奈川県,平塚市,西八幡,カナガワケン,ヒラツカシ,ニシヤワタ,神奈川県平塚市西八幡
2540074,神奈川県,平塚市,大原,カナガワケン,ヒラツカシ,オオハラ,神奈川県平塚市大原
2540075,神奈川県,平塚市,中原,カナガワケン,ヒラツカシ,ナカハラ,神奈川県平塚市中原
2540076,神奈川県,平塚市,新町,カナガワケン,ヒラツカシ,シンマチ,神奈川県平塚市新町
2540077,神奈川県,平塚市,東中原,カナガワケン,ヒラツカシ,ヒガシナカハラ,神奈川県平塚市東中原
2540081,神奈川県,平塚市,豊田打間木,カナガワケン,ヒラツカシ,トヨダウチマギ,神奈川県平塚市豊田打間木
2540082,神奈川県,平塚市,東豊田,カナガワケン,ヒラツカシ,ヒガシトヨダ,神奈川県平塚市東豊田
2540083,神奈川県,平塚市,豊田小嶺,カナガワケン,ヒラツカシ,トヨダコミネ,神奈川県平塚市豊田小嶺
2540084,神奈川県,平塚市,南豊田,カナガワケン,ヒラツカシ,ミナミトヨダ,神奈川県平塚市南豊田
2540085,神奈川県,平塚市,豊田宮下,カナガワケン,ヒラツカシ,トヨダミヤシタ,神奈川県平塚市豊田宮下
2540086,神奈川県,平塚市,豊田平等寺,カナガワケン,ヒラツカシ,トヨダビョウドウジ,神奈川県平塚市豊田平等寺
2540087,神奈川県,平塚市,豊田本郷,カナガワケン,ヒラツカシ,トヨダホンゴウ,神奈川県平塚市豊田本郷
2540088,神奈川県,平塚市,北豊田,カナガワケン,ヒラツカシ,キタトヨダ,神奈川県平塚市北豊田
2540801,神奈川県,平塚市,久領堤,カナガワケン,ヒラツカシ,クリョウヅツミ,神奈川県平塚市久領堤
2540802,神奈川県,平塚市,札場町,カナガワケン,ヒラツカシ,フダバチョウ,神奈川県平塚市札場町
2540803,神奈川県,平塚市,千石河岸,カナガワケン,ヒラツカシ,センゴクカシ,神奈川県平塚市千石河岸
2540804,神奈川県,平塚市,幸町,カナガワケン,ヒラツカシ,サイワイチョウ,神奈川県平塚市幸町
2540805,神奈川県,平塚市,高浜台,カナガワケン,ヒラツカシ,タカハマダイ,神奈川県平塚市高浜台
2540806,神奈川県,平塚市,夕陽ケ丘,カナガワケン,ヒラツカシ,ユウヒガオカ,神奈川県平塚市夕陽ケ丘
2540807,神奈川県,平塚市,代官町,カナガワケン,ヒラツカシ,ダイカンチョウ,神奈川県平塚市代官町
2540811,神奈川県,平塚市,八重咲町,カナガワケン,ヒラツカシ,ヤエザキチョウ,神奈川県平塚市八重咲町
2540812,神奈川県,平塚市,松風町,カナガワケン,ヒラツカシ,マツカゼチョウ,神奈川県平塚市松風町
2540813,神奈川県,平塚市,袖ケ浜,カナガワケン,ヒラツカシ,ソデガハマ,神奈川県平塚市袖ケ浜
2540814,神奈川県,平塚市,龍城ケ丘,カナガワケン,ヒラツカシ,リュウジョウガオカ,神奈川県平塚市龍城ケ丘
2540815,神奈川県,平塚市,桃浜町,カナガワケン,ヒラツカシ,モモハマチョウ,神奈川県平塚市桃浜町
2540821,神奈川県,平塚市,黒部丘,カナガワケン,ヒラツカシ,クロベオカ,神奈川県平塚市黒部丘
2540822,神奈川県,平塚市,菫平,カナガワケン,ヒラツカシ,スミレダイラ,神奈川県平塚市菫平
2540823,神奈川県,平塚市,虹ケ浜,カナガワケン,ヒラツカシ,ニジガハマ,神奈川県平塚市虹ケ浜
2540824,神奈川県,平塚市,花水台,カナガワケン,ヒラツカシ,ハナミズダイ,神奈川県平塚市花水台
2540825,神奈川県,平塚市,撫子原,カナガワケン,ヒラツカシ,ナデシコハラ,神奈川県平塚市撫子原
2540826,神奈川県,平塚市,唐ケ原,カナガワケン,ヒラツカシ,トウガハラ,神奈川県平塚市唐ケ原
2540901,神奈川県,平塚市,纒,カナガワケン,ヒラツカシ,マトイ,神奈川県平塚市纒
2540902,神奈川県,平塚市,徳延,カナガワケン,ヒラツカシ,トクノブ,神奈川県平塚市徳延
2540903,神奈川県,平塚市,河内,カナガワケン,ヒラツカシ,コウチ,神奈川県平塚市河内
2540904,神奈川県,平塚市,根坂間,カナガワケン,ヒラツカシ,ネザカマ,神奈川県平塚市根坂間
2540905,神奈川県,平塚市,日向岡,カナガワケン,ヒラツカシ,ヒナタオカ,神奈川県平塚市日向岡
2540906,神奈川県,平塚市,公所,カナガワケン,ヒラツカシ,グゾ,神奈川県平塚市公所
2540911,神奈川県,平塚市,山下,カナガワケン,ヒラツカシ,ヤマシタ,神奈川県平塚市山下
2540912,神奈川県,平塚市,高根,カナガワケン,ヒラツカシ,タカネ,神奈川県平塚市高根
2540913,神奈川県,平塚市,万田,カナガワケン,ヒラツカシ,マンダ,神奈川県平塚市万田
2540914,神奈川県,平塚市,高村,カナガワケン,ヒラツカシ,タカムラ,神奈川県平塚市高村
2540915,神奈川県,平塚市,出縄,カナガワケン,ヒラツカシ,イデナワ,神奈川県平塚市出縄
2550000,神奈川県,中郡大磯町,,カナガワケン,ナカグンオオイソマチ,,神奈川県中郡大磯町
2550001,神奈川県,中郡大磯町,高麗,カナガワケン,ナカグンオオイソマチ,コマ,神奈川県中郡大磯町高麗
2550002,神奈川県,中郡大磯町,東町,カナガワケン,ナカグンオオイソマチ,ヒガシチョウ,神奈川県中郡大磯町東町
2550003,神奈川県,中郡大磯町,大磯,カナガワケン,ナカグンオオイソマチ,オオイソ,神奈川県中郡大磯町大磯
2550004,神奈川県,中郡大磯町,東小磯,カナガワケン,ナカグンオオイソマチ,ヒガシコイソ,神奈川県中郡大磯町東小磯
2550005,神奈川県,中郡大磯町,西小磯,カナガワケン,ナカグンオオイソマチ,ニシコイソ,神奈川県中郡大磯町西小磯
2560801,神奈川県,小田原市,沼代,カナガワケン,オダワラシ,ヌマシロ,神奈川県小田原市沼代
2560802,神奈川県,小田原市,小竹,カナガワケン,オダワラシ,オダケ,神奈川県小田原市小竹
2560803,神奈川県,小田原市,中村原,カナガワケン,オダワラシ,ナカムラハラ,神奈川県小田原市中村原
2560804,神奈川県,小田原市,羽根尾,カナガワケン,オダワラシ,ハネオ,神奈川県小田原市羽根尾
2560805,神奈川県,小田原市,上町,カナガワケン,オダワラシ,カノマチ,神奈川県小田原市上町
2560806,神奈川県,小田原市,小船,カナガワケン,オダワラシ,オブネ,神奈川県小田原市小船
2560807,神奈川県,小田原市,山西,カナガワケン,オダワラシ,ヤマニシ,神奈川県小田原市山西
2560808,神奈川県,小田原市,東ヶ丘,カナガワケン,オダワラシ,ヒガシガオカ,神奈川県小田原市東ヶ丘
2560811,神奈川県,小田原市,田島,カナガワケン,オダワラシ,タジマ,神奈川県小田原市田島
2560812,神奈川県,小田原市,国府津,カナガワケン,オダワラシ,コウヅ,神奈川県小田原市国府津
2560813,神奈川県,小田原市,前川,カナガワケン,オダワラシ,マエカワ,神奈川県小田原市前川
2560814,神奈川県,小田原市,川匂,カナガワケン,オダワラシ,カワワ,神奈川県小田原市川匂
2560815,神奈川県,小田原市,小八幡,カナガワケン,オダワラシ,コヤワタ,神奈川県小田原市小八幡
2560816,神奈川県,小田原市,酒匂,カナガワケン,オダワラシ,サカワ,神奈川県小田原市酒匂
2560817,神奈川県,小田原市,西酒匂,カナガワケン,オダワラシ,ニシサカワ,神奈川県小田原市西酒匂
2570000,神奈川県,秦野市,,カナガワケン,ハダノシ,,神奈川県秦野市
2570001,神奈川県,秦野市,鶴巻北,カナガワケン,ハダノシ,ツルマキキタ,神奈川県秦野市鶴巻北
2570002,神奈川県,秦野市,鶴巻南,カナガワケン,ハダノシ,ツルマキミナミ,神奈川県秦野市鶴巻南
2570003,神奈川県,秦野市,南矢名,カナガワケン,ハダノシ,ミナミヤナ,神奈川県秦野市南矢名
2570004,神奈川県,秦野市,下大槻,カナガワケン,ハダノシ,シモオオヅキ,神奈川県秦野市下大槻
2570005,神奈川県,秦野市,上大槻,カナガワケン,ハダノシ,カミオオヅキ,神奈川県秦野市上大槻
2570006,神奈川県,秦野市,北矢名,カナガワケン,ハダノシ,キタヤナ,神奈川県秦野市北矢名
2570007,神奈川県,秦野市,鶴巻,カナガワケン,ハダノシ,ツルマキ,神奈川県秦野市鶴巻
2570011,神奈川県,秦野市,尾尻,カナガワケン,ハダノシ,オジリ,神奈川県秦野市尾尻
2570012,神奈川県,秦野市,西大竹,カナガワケン,ハダノシ,ニシオオダケ,神奈川県秦野市西大竹
2570013,神奈川県,秦野市,南が丘,カナガワケン,ハダノシ,ミナミガオカ,神奈川県秦野市南が丘
2570014,神奈川県,秦野市,今泉,カナガワケン,ハダノシ,イマイズミ,神奈川県秦野市今泉
2570015,神奈川県,秦野市,平沢,カナガワケン,ハダノシ,ヒラサワ,神奈川県秦野市平沢
2570016,神奈川県,秦野市,栃窪（６００〜６０３番地）,カナガワケン,ハダノシ,トチクボ(600-603バンチ),神奈川県秦野市栃窪（600〜603-）
2570017,神奈川県,秦野市,立野台,カナガワケン,ハダノシ,タテノダイ,神奈川県秦野市立野台
2570018,神奈川県,秦野市,今泉台,カナガワケン,ハダノシ,イマイズミダイ,神奈川県秦野市今泉台
2570021,神奈川県,秦野市,蓑毛,カナガワケン,ハダノシ,ミノゲ,神奈川県秦野市蓑毛
2570022,神奈川県,秦野市,小蓑毛,カナガワケン,ハダノシ,コミノゲ,神奈川県秦野市小蓑毛
2570023,神奈川県,秦野市,寺山,カナガワケン,ハダノシ,テラヤマ,神奈川県秦野市寺山
2570024,神奈川県,秦野市,名古木,カナガワケン,ハダノシ,ナガヌキ,神奈川県秦野市名古木
2570025,神奈川県,秦野市,落合,カナガワケン,ハダノシ,オチアイ,神奈川県秦野市落合
2570026,神奈川県,秦野市,下落合,カナガワケン,ハダノシ,シモオチアイ,神奈川県秦野市下落合
2570027,神奈川県,秦野市,西田原,カナガワケン,ハダノシ,ニシタワラ,神奈川県秦野市西田原
2570028,神奈川県,秦野市,東田原,カナガワケン,ハダノシ,ヒガシタワラ,神奈川県秦野市東田原
2570031,神奈川県,秦野市,曽屋,カナガワケン,ハダノシ,ソヤ,神奈川県秦野市曽屋
2570032,神奈川県,秦野市,河原町,カナガワケン,ハダノシ,カワラマチ,神奈川県秦野市河原町
2570033,神奈川県,秦野市,室町,カナガワケン,ハダノシ,ムロマチ,神奈川県秦野市室町
2570034,神奈川県,秦野市,大秦町,カナガワケン,ハダノシ,タイシンチョウ,神奈川県秦野市大秦町
2570035,神奈川県,秦野市,本町,カナガワケン,ハダノシ,ホンチョウ,神奈川県秦野市本町
2570036,神奈川県,秦野市,元町,カナガワケン,ハダノシ,モトマチ,神奈川県秦野市元町
2570037,神奈川県,秦野市,末広町,カナガワケン,ハダノシ,スエヒロチョウ,神奈川県秦野市末広町
2570041,神奈川県,秦野市,入船町,カナガワケン,ハダノシ,イリフネチョウ,神奈川県秦野市入船町
2570042,神奈川県,秦野市,寿町,カナガワケン,ハダノシ,コトブキチョウ,神奈川県秦野市寿町
2570043,神奈川県,秦野市,栄町,カナガワケン,ハダノシ,サカエチョウ,神奈川県秦野市栄町
2570044,神奈川県,秦野市,文京町,カナガワケン,ハダノシ,ブンキョウチョウ,神奈川県秦野市文京町
2570045,神奈川県,秦野市,桜町,カナガワケン,ハダノシ,サクラチョウ,神奈川県秦野市桜町
2570046,神奈川県,秦野市,ひばりケ丘,カナガワケン,ハダノシ,ヒバリガオカ,神奈川県秦野市ひばりケ丘
2570047,神奈川県,秦野市,水神町,カナガワケン,ハダノシ,スイジンチョウ,神奈川県秦野市水神町
2570048,神奈川県,秦野市,幸町,カナガワケン,ハダノシ,サイワイチョウ,神奈川県秦野市幸町
2570051,神奈川県,秦野市,今川町,カナガワケン,ハダノシ,イマガワチョウ,神奈川県秦野市今川町
2570052,神奈川県,秦野市,上今川町,カナガワケン,ハダノシ,カミイマガワチョウ,神奈川県秦野市上今川町
2570053,神奈川県,秦野市,清水町,カナガワケン,ハダノシ,シミズチョウ,神奈川県秦野市清水町
2570054,神奈川県,秦野市,緑町,カナガワケン,ハダノシ,ミドリチョウ,神奈川県秦野市緑町
2570055,神奈川県,秦野市,鈴張町,カナガワケン,ハダノシ,スズハリチョウ,神奈川県秦野市鈴張町
2570056,神奈川県,秦野市,新町,カナガワケン,ハダノシ,シンチョウ,神奈川県秦野市新町
2570057,神奈川県,秦野市,富士見町,カナガワケン,ハダノシ,フジミチョウ,神奈川県秦野市富士見町
2570061,神奈川県,愛甲郡清川村,煤ヶ谷（丹沢山札掛）,カナガワケン,アイコウグンキヨカワムラ,ススガヤ(タンザワヤマフダカケ),神奈川県愛甲郡清川村煤ヶ谷（丹沢山札掛）
2580000,神奈川県,足柄上郡大井町,,カナガワケン,アシガラカミグンオオイマチ,,神奈川県足柄上郡大井町
2580000,神奈川県,足柄上郡松田町,,カナガワケン,アシガラカミグンマツダマチ,,神奈川県足柄上郡松田町
2580000,神奈川県,足柄上郡開成町,,カナガワケン,アシガラカミグンカイセイマチ,,神奈川県足柄上郡開成町
2580001,神奈川県,足柄上郡松田町,寄,カナガワケン,アシガラカミグンマツダマチ,ヤドリキ,神奈川県足柄上郡松田町寄
2580002,神奈川県,足柄上郡松田町,神山,カナガワケン,アシガラカミグンマツダマチ,コウヤマ,神奈川県足柄上郡松田町神山
2580003,神奈川県,足柄上郡松田町,松田惣領,カナガワケン,アシガラカミグンマツダマチ,マツダソウリョウ,神奈川県足柄上郡松田町松田惣領
2580004,神奈川県,足柄上郡松田町,松田庶子,カナガワケン,アシガラカミグンマツダマチ,マツダソシ,神奈川県足柄上郡松田町松田庶子
2580010,神奈川県,足柄上郡大井町,大井中央,カナガワケン,アシガラカミグンオオイマチ,オオイチュウオウ,神奈川県足柄上郡大井町大井中央
2580011,神奈川県,足柄上郡大井町,篠窪,カナガワケン,アシガラカミグンオオイマチ,シノクボ,神奈川県足柄上郡大井町篠窪
2580012,神奈川県,足柄上郡大井町,柳,カナガワケン,アシガラカミグンオオイマチ,ヤナギ,神奈川県足柄上郡大井町柳
2580013,神奈川県,足柄上郡大井町,高尾,カナガワケン,アシガラカミグンオオイマチ,タカオ,神奈川県足柄上郡大井町高尾
2580014,神奈川県,足柄上郡大井町,赤田,カナガワケン,アシガラカミグンオオイマチ,アカダ,神奈川県足柄上郡大井町赤田
2580015,神奈川県,足柄上郡大井町,山田,カナガワケン,アシガラカミグンオオイマチ,ヤマダ,神奈川県足柄上郡大井町山田
2580016,神奈川県,足柄上郡大井町,上大井,カナガワケン,アシガラカミグンオオイマチ,カミオオイ,神奈川県足柄上郡大井町上大井
2580017,神奈川県,足柄上郡大井町,西大井,カナガワケン,アシガラカミグンオオイマチ,ニシオオイ,神奈川県足柄上郡大井町西大井
2580018,神奈川県,足柄上郡大井町,金手,カナガワケン,アシガラカミグンオオイマチ,カナデ,神奈川県足柄上郡大井町金手
2580019,神奈川県,足柄上郡大井町,金子,カナガワケン,アシガラカミグンオオイマチ,カネコ,神奈川県足柄上郡大井町金子
2580021,神奈川県,足柄上郡開成町,吉田島,カナガワケン,アシガラカミグンカイセイマチ,ヨシダジマ,神奈川県足柄上郡開成町吉田島
2580022,神奈川県,足柄上郡開成町,牛島,カナガワケン,アシガラカミグンカイセイマチ,ウシジマ,神奈川県足柄上郡開成町牛島
2580023,神奈川県,足柄上郡開成町,宮台,カナガワケン,アシガラカミグンカイセイマチ,ミヤノダイ,神奈川県足柄上郡開成町宮台
2580024,神奈川県,足柄上郡開成町,中之名,カナガワケン,アシガラカミグンカイセイマチ,ナカノミョウ,神奈川県足柄上郡開成町中之名
2580025,神奈川県,足柄上郡開成町,円通寺,カナガワケン,アシガラカミグンカイセイマチ,エンツウジ,神奈川県足柄上郡開成町円通寺
2580026,神奈川県,足柄上郡開成町,延沢,カナガワケン,アシガラカミグンカイセイマチ,ノブサワ,神奈川県足柄上郡開成町延沢
2580027,神奈川県,足柄上郡開成町,岡野,カナガワケン,アシガラカミグンカイセイマチ,オカノ,神奈川県足柄上郡開成町岡野
2580028,神奈川県,足柄上郡開成町,金井島,カナガワケン,アシガラカミグンカイセイマチ,カナイシマ,神奈川県足柄上郡開成町金井島
2580029,神奈川県,足柄上郡開成町,みなみ,カナガワケン,アシガラカミグンカイセイマチ,ミナミ,神奈川県足柄上郡開成町みなみ
2580100,神奈川県,足柄上郡山北町,,カナガワケン,アシガラカミグンヤマキタマチ,,神奈川県足柄上郡山北町
2580111,神奈川県,足柄上郡山北町,向原,カナガワケン,アシガラカミグンヤマキタマチ,ムコウハラ,神奈川県足柄上郡山北町向原
2580112,神奈川県,足柄上郡山北町,岸,カナガワケン,アシガラカミグンヤマキタマチ,キシ,神奈川県足柄上郡山北町岸
2580113,神奈川県,足柄上郡山北町,山北,カナガワケン,アシガラカミグンヤマキタマチ,ヤマキタ,神奈川県足柄上郡山北町山北
2580114,神奈川県,足柄上郡山北町,平山,カナガワケン,アシガラカミグンヤマキタマチ,ヒラヤマ,神奈川県足柄上郡山北町平山
2580115,神奈川県,足柄上郡山北町,谷ケ,カナガワケン,アシガラカミグンヤマキタマチ,ヤガ,神奈川県足柄上郡山北町谷ケ
2580121,神奈川県,足柄上郡山北町,皆瀬川,カナガワケン,アシガラカミグンヤマキタマチ,ミナセガワ,神奈川県足柄上郡山北町皆瀬川
2580122,神奈川県,足柄上郡山北町,都夫良野,カナガワケン,アシガラカミグンヤマキタマチ,ツブラノ,神奈川県足柄上郡山北町都夫良野
2580123,神奈川県,足柄上郡山北町,湯触,カナガワケン,アシガラカミグンヤマキタマチ,ユブレ,神奈川県足柄上郡山北町湯触
2580124,神奈川県,足柄上郡山北町,川西,カナガワケン,アシガラカミグンヤマキタマチ,カワニシ,神奈川県足柄上郡山北町川西
2580125,神奈川県,足柄上郡山北町,山市場,カナガワケン,アシガラカミグンヤマキタマチ,ヤマイチバ,神奈川県足柄上郡山北町山市場
2580126,神奈川県,足柄上郡山北町,神縄,カナガワケン,アシガラカミグンヤマキタマチ,カミナワ,神奈川県足柄上郡山北町神縄
2580201,神奈川県,足柄上郡山北町,中川,カナガワケン,アシガラカミグンヤマキタマチ,ナカガワ,神奈川県足柄上郡山北町中川
2580202,神奈川県,足柄上郡山北町,玄倉,カナガワケン,アシガラカミグンヤマキタマチ,クロクラ,神奈川県足柄上郡山北町玄倉
2580203,神奈川県,足柄上郡山北町,神尾田,カナガワケン,アシガラカミグンヤマキタマチ,カミオダ,神奈川県足柄上郡山北町神尾田
2580204,神奈川県,足柄上郡山北町,世附,カナガワケン,アシガラカミグンヤマキタマチ,ヨヅク,神奈川県足柄上郡山北町世附
2590100,神奈川県,中郡二宮町,,カナガワケン,ナカグンニノミヤマチ,,神奈川県中郡二宮町
2590100,神奈川県,足柄上郡中井町,,カナガワケン,アシガラカミグンナカイマチ,,神奈川県足柄上郡中井町
2590101,神奈川県,中郡大磯町,寺坂,カナガワケン,ナカグンオオイソマチ,テラサカ,神奈川県中郡大磯町寺坂
2590102,神奈川県,中郡大磯町,生沢,カナガワケン,ナカグンオオイソマチ,イクサワ,神奈川県中郡大磯町生沢
2590103,神奈川県,中郡大磯町,虫窪,カナガワケン,ナカグンオオイソマチ,ムシクボ,神奈川県中郡大磯町虫窪
2590104,神奈川県,中郡大磯町,西久保,カナガワケン,ナカグンオオイソマチ,ニシクボ,神奈川県中郡大磯町西久保
2590105,神奈川県,中郡大磯町,黒岩,カナガワケン,ナカグンオオイソマチ,クロイワ,神奈川県中郡大磯町黒岩
2590111,神奈川県,中郡大磯町,国府本郷,カナガワケン,ナカグンオオイソマチ,コクフホンゴウ,神奈川県中郡大磯町国府本郷
2590112,神奈川県,中郡大磯町,国府新宿,カナガワケン,ナカグンオオイソマチ,コクフシンシュク,神奈川県中郡大磯町国府新宿
2590113,神奈川県,中郡大磯町,石神台,カナガワケン,ナカグンオオイソマチ,イシガミダイ,神奈川県中郡大磯町石神台
2590114,神奈川県,中郡大磯町,月京,カナガワケン,ナカグンオオイソマチ,ガッキョウ,神奈川県中郡大磯町月京
2590121,神奈川県,中郡二宮町,松根,カナガワケン,ナカグンニノミヤマチ,マツネ,神奈川県中郡二宮町松根
2590122,神奈川県,中郡二宮町,富士見が丘,カナガワケン,ナカグンニノミヤマチ,フジミガオカ,神奈川県中郡二宮町富士見が丘
2590123,神奈川県,中郡二宮町,二宮,カナガワケン,ナカグンニノミヤマチ,ニノミヤ,神奈川県中郡二宮町二宮
2590124,神奈川県,中郡二宮町,山西,カナガワケン,ナカグンニノミヤマチ,ヤマニシ,神奈川県中郡二宮町山西
2590125,神奈川県,中郡二宮町,川匂,カナガワケン,ナカグンニノミヤマチ,カワワ,神奈川県中郡二宮町川匂
2590131,神奈川県,中郡二宮町,中里,カナガワケン,ナカグンニノミヤマチ,ナカザト,神奈川県中郡二宮町中里
2590132,神奈川県,中郡二宮町,緑が丘,カナガワケン,ナカグンニノミヤマチ,ミドリガオカ,神奈川県中郡二宮町緑が丘
2590133,神奈川県,中郡二宮町,百合が丘,カナガワケン,ナカグンニノミヤマチ,ユリガオカ,神奈川県中郡二宮町百合が丘
2590134,神奈川県,中郡二宮町,一色,カナガワケン,ナカグンニノミヤマチ,イシキ,神奈川県中郡二宮町一色
2590141,神奈川県,足柄上郡中井町,遠藤,カナガワケン,アシガラカミグンナカイマチ,エンドウ,神奈川県足柄上郡中井町遠藤
2590142,神奈川県,足柄上郡中井町,久所,カナガワケン,アシガラカミグンナカイマチ,グゾ,神奈川県足柄上郡中井町久所
2590143,神奈川県,足柄上郡中井町,北田,カナガワケン,アシガラカミグンナカイマチ,キタダ,神奈川県足柄上郡中井町北田
2590144,神奈川県,足柄上郡中井町,半分形,カナガワケン,アシガラカミグンナカイマチ,ハブガタ,神奈川県足柄上郡中井町半分形
2590145,神奈川県,足柄上郡中井町,田中,カナガワケン,アシガラカミグンナカイマチ,タナカ,神奈川県足柄上郡中井町田中
2590146,神奈川県,足柄上郡中井町,古怒田,カナガワケン,アシガラカミグンナカイマチ,コヌタ,神奈川県足柄上郡中井町古怒田
2590147,神奈川県,足柄上郡中井町,鴨沢,カナガワケン,アシガラカミグンナカイマチ,カモザワ,神奈川県足柄上郡中井町鴨沢
2590148,神奈川県,足柄上郡中井町,雑色,カナガワケン,アシガラカミグンナカイマチ,ゾウシキ,神奈川県足柄上郡中井町雑色
2590151,神奈川県,足柄上郡中井町,井ノ口,カナガワケン,アシガラカミグンナカイマチ,イノクチ,神奈川県足柄上郡中井町井ノ口
2590152,神奈川県,足柄上郡中井町,藤沢,カナガワケン,アシガラカミグンナカイマチ,フジサワ,神奈川県足柄上郡中井町藤沢
2590153,神奈川県,足柄上郡中井町,比奈窪,カナガワケン,アシガラカミグンナカイマチ,ヒナクボ,神奈川県足柄上郡中井町比奈窪
2590154,神奈川県,足柄上郡中井町,岩倉,カナガワケン,アシガラカミグンナカイマチ,イワクラ,神奈川県足柄上郡中井町岩倉
2590155,神奈川県,足柄上郡中井町,松本,カナガワケン,アシガラカミグンナカイマチ,マツモト,神奈川県足柄上郡中井町松本
2590156,神奈川県,足柄上郡中井町,境別所,カナガワケン,アシガラカミグンナカイマチ,サカイベッショ,神奈川県足柄上郡中井町境別所
2590157,神奈川県,足柄上郡中井町,境,カナガワケン,アシガラカミグンナカイマチ,サカイ,神奈川県足柄上郡中井町境
2590200,神奈川県,足柄下郡真鶴町,,カナガワケン,アシガラシモグンマナヅルマチ,,神奈川県足柄下郡真鶴町
2590201,神奈川県,足柄下郡真鶴町,真鶴,カナガワケン,アシガラシモグンマナヅルマチ,マナツル,神奈川県足柄下郡真鶴町真鶴
2590202,神奈川県,足柄下郡真鶴町,岩,カナガワケン,アシガラシモグンマナヅルマチ,イワ,神奈川県足柄下郡真鶴町岩
2590300,神奈川県,足柄下郡湯河原町,,カナガワケン,アシガラシモグンユガワラマチ,,神奈川県足柄下郡湯河原町
2590301,神奈川県,足柄下郡湯河原町,中央,カナガワケン,アシガラシモグンユガワラマチ,チュウオウ,神奈川県足柄下郡湯河原町中央
2590302,神奈川県,足柄下郡湯河原町,門川,カナガワケン,アシガラシモグンユガワラマチ,モンガワ,神奈川県足柄下郡湯河原町門川
2590303,神奈川県,足柄下郡湯河原町,土肥,カナガワケン,アシガラシモグンユガワラマチ,ドイ,神奈川県足柄下郡湯河原町土肥
2590304,神奈川県,足柄下郡湯河原町,宮下,カナガワケン,アシガラシモグンユガワラマチ,ミヤシタ,神奈川県足柄下郡湯河原町宮下
2590305,神奈川県,足柄下郡湯河原町,城堀,カナガワケン,アシガラシモグンユガワラマチ,シロホリ,神奈川県足柄下郡湯河原町城堀
2590311,神奈川県,足柄下郡湯河原町,福浦,カナガワケン,アシガラシモグンユガワラマチ,フクウラ,神奈川県足柄下郡湯河原町福浦
2590312,神奈川県,足柄下郡湯河原町,吉浜,カナガワケン,アシガラシモグンユガワラマチ,ヨシハマ,神奈川県足柄下郡湯河原町吉浜
2590313,神奈川県,足柄下郡湯河原町,鍛冶屋,カナガワケン,アシガラシモグンユガワラマチ,カジヤ,神奈川県足柄下郡湯河原町鍛冶屋
2590314,神奈川県,足柄下郡湯河原町,宮上,カナガワケン,アシガラシモグンユガワラマチ,ミヤカミ,神奈川県足柄下郡湯河原町宮上
2590316,神奈川県,足柄下郡湯河原町,福浦吉浜,カナガワケン,アシガラシモグンユガワラマチ,フクウラヨシハマ,神奈川県足柄下郡湯河原町福浦吉浜
2590317,神奈川県,足柄下郡湯河原町,福浦鍛冶屋,カナガワケン,アシガラシモグンユガワラマチ,フクウラカジヤ,神奈川県足柄下郡湯河原町福浦鍛冶屋
2590318,神奈川県,足柄下郡湯河原町,吉浜福浦,カナガワケン,アシガラシモグンユガワラマチ,ヨシハマフクウラ,神奈川県足柄下郡湯河原町吉浜福浦
2591100,神奈川県,伊勢原市,,カナガワケン,イセハラシ,,神奈川県伊勢原市
2591101,神奈川県,伊勢原市,日向,カナガワケン,イセハラシ,ヒナタ,神奈川県伊勢原市日向
2591102,神奈川県,伊勢原市,子易,カナガワケン,イセハラシ,コヤス,神奈川県伊勢原市子易
2591103,神奈川県,伊勢原市,三ノ宮,カナガワケン,イセハラシ,サンノミヤ,神奈川県伊勢原市三ノ宮
2591104,神奈川県,伊勢原市,坪ノ内,カナガワケン,イセハラシ,ツボノウチ,神奈川県伊勢原市坪ノ内
2591105,神奈川県,伊勢原市,大住台,カナガワケン,イセハラシ,オオスミダイ,神奈川県伊勢原市大住台
2591106,神奈川県,伊勢原市,善波,カナガワケン,イセハラシ,ゼンバ,神奈川県伊勢原市善波
2591107,神奈川県,伊勢原市,大山,カナガワケン,イセハラシ,オオヤマ,神奈川県伊勢原市大山
2591111,神奈川県,伊勢原市,西富岡,カナガワケン,イセハラシ,ニシトミオカ,神奈川県伊勢原市西富岡
2591112,神奈川県,伊勢原市,東富岡,カナガワケン,イセハラシ,ヒガシトミオカ,神奈川県伊勢原市東富岡
2591113,神奈川県,伊勢原市,粟窪,カナガワケン,イセハラシ,アワクボ,神奈川県伊勢原市粟窪
2591114,神奈川県,伊勢原市,高森,カナガワケン,イセハラシ,タカモリ,神奈川県伊勢原市高森
2591115,神奈川県,伊勢原市,高森台,カナガワケン,イセハラシ,タカモリダイ,神奈川県伊勢原市高森台
2591116,神奈川県,伊勢原市,石田,カナガワケン,イセハラシ,イシダ,神奈川県伊勢原市石田
2591117,神奈川県,伊勢原市,東成瀬,カナガワケン,イセハラシ,ヒガシナルセ,神奈川県伊勢原市東成瀬
2591118,神奈川県,伊勢原市,見附島,カナガワケン,イセハラシ,ミツケジマ,神奈川県伊勢原市見附島
2591121,神奈川県,伊勢原市,下落合,カナガワケン,イセハラシ,シモオチアイ,神奈川県伊勢原市下落合
2591122,神奈川県,伊勢原市,小稲葉,カナガワケン,イセハラシ,コイナバ,神奈川県伊勢原市小稲葉
2591123,神奈川県,伊勢原市,下谷,カナガワケン,イセハラシ,シモヤ,神奈川県伊勢原市下谷
2591124,神奈川県,伊勢原市,上平間,カナガワケン,イセハラシ,カミヒラマ,神奈川県伊勢原市上平間
2591125,神奈川県,伊勢原市,下平間,カナガワケン,イセハラシ,シモヒラマ,神奈川県伊勢原市下平間
2591126,神奈川県,伊勢原市,沼目,カナガワケン,イセハラシ,ヌマメ,神奈川県伊勢原市沼目
2591127,神奈川県,伊勢原市,上谷,カナガワケン,イセハラシ,カミヤ,神奈川県伊勢原市上谷
2591128,神奈川県,伊勢原市,歌川,カナガワケン,イセハラシ,ウタガワ,神奈川県伊勢原市歌川
2591131,神奈川県,伊勢原市,伊勢原,カナガワケン,イセハラシ,イセハラ,神奈川県伊勢原市伊勢原
2591132,神奈川県,伊勢原市,桜台,カナガワケン,イセハラシ,サクラダイ,神奈川県伊勢原市桜台
2591133,神奈川県,伊勢原市,東大竹,カナガワケン,イセハラシ,ヒガシオオダケ,神奈川県伊勢原市東大竹
2591134,神奈川県,伊勢原市,八幡台,カナガワケン,イセハラシ,ハチマンダイ,神奈川県伊勢原市八幡台
2591135,神奈川県,伊勢原市,岡崎,カナガワケン,イセハラシ,オカザキ,神奈川県伊勢原市岡崎
2591136,神奈川県,伊勢原市,串橋,カナガワケン,イセハラシ,クシハシ,神奈川県伊勢原市串橋
2591137,神奈川県,伊勢原市,笠窪,カナガワケン,イセハラシ,カサクボ,神奈川県伊勢原市笠窪
2591138,神奈川県,伊勢原市,神戸,カナガワケン,イセハラシ,ゴウド,神奈川県伊勢原市神戸
2591141,神奈川県,伊勢原市,上粕屋,カナガワケン,イセハラシ,カミカスヤ,神奈川県伊勢原市上粕屋
2591142,神奈川県,伊勢原市,田中,カナガワケン,イセハラシ,タナカ,神奈川県伊勢原市田中
2591143,神奈川県,伊勢原市,下糟屋,カナガワケン,イセハラシ,シモカスヤ,神奈川県伊勢原市下糟屋
2591144,神奈川県,伊勢原市,池端,カナガワケン,イセハラシ,イケバタ,神奈川県伊勢原市池端
2591145,神奈川県,伊勢原市,板戸,カナガワケン,イセハラシ,イタド,神奈川県伊勢原市板戸
2591146,神奈川県,伊勢原市,鈴川,カナガワケン,イセハラシ,スズカワ,神奈川県伊勢原市鈴川
2591147,神奈川県,伊勢原市,白根,カナガワケン,イセハラシ,シラネ,神奈川県伊勢原市白根
2591148,神奈川県,伊勢原市,下糟屋東,カナガワケン,イセハラシ,シモカスヤヒガシ,神奈川県伊勢原市下糟屋東
2591201,神奈川県,平塚市,南金目,カナガワケン,ヒラツカシ,ミナミカナメ,神奈川県平塚市南金目
2591202,神奈川県,平塚市,千須谷,カナガワケン,ヒラツカシ,センズヤ,神奈川県平塚市千須谷
2591203,神奈川県,平塚市,下吉沢,カナガワケン,ヒラツカシ,シモキチサワ,神奈川県平塚市下吉沢
2591204,神奈川県,平塚市,上吉沢,カナガワケン,ヒラツカシ,カミキチサワ,神奈川県平塚市上吉沢
2591205,神奈川県,平塚市,土屋,カナガワケン,ヒラツカシ,ツチヤ,神奈川県平塚市土屋
2591206,神奈川県,平塚市,真田,カナガワケン,ヒラツカシ,サナダ,神奈川県平塚市真田
2591207,神奈川県,平塚市,北金目,カナガワケン,ヒラツカシ,キタカナメ,神奈川県平塚市北金目
2591211,神奈川県,平塚市,ふじみ野,カナガワケン,ヒラツカシ,フジミノ,神奈川県平塚市ふじみ野
2591212,神奈川県,平塚市,岡崎,カナガワケン,ヒラツカシ,オカザキ,神奈川県平塚市岡崎
2591213,神奈川県,平塚市,片岡,カナガワケン,ヒラツカシ,カタオカ,神奈川県平塚市片岡
2591214,神奈川県,平塚市,飯島,カナガワケン,ヒラツカシ,イイジマ,神奈川県平塚市飯島
2591215,神奈川県,平塚市,寺田縄,カナガワケン,ヒラツカシ,テラダナワ,神奈川県平塚市寺田縄
2591216,神奈川県,平塚市,入野,カナガワケン,ヒラツカシ,イノ,神奈川県平塚市入野
2591217,神奈川県,平塚市,長持,カナガワケン,ヒラツカシ,ナガモチ,神奈川県平塚市長持
2591218,神奈川県,平塚市,入部,カナガワケン,ヒラツカシ,イリブ,神奈川県平塚市入部
2591219,神奈川県,平塚市,広川,カナガワケン,ヒラツカシ,ヒロカワ,神奈川県平塚市広川
2591220,神奈川県,平塚市,めぐみが丘,カナガワケン,ヒラツカシ,メグミガオカ,神奈川県平塚市めぐみが丘
2591301,神奈川県,秦野市,羽根,カナガワケン,ハダノシ,ハネ,神奈川県秦野市羽根
2591302,神奈川県,秦野市,菩提,カナガワケン,ハダノシ,ボダイ,神奈川県秦野市菩提
2591303,神奈川県,秦野市,三屋,カナガワケン,ハダノシ,サンヤ,神奈川県秦野市三屋
2591304,神奈川県,秦野市,堀山下,カナガワケン,ハダノシ,ホリヤマシタ,神奈川県秦野市堀山下
2591305,神奈川県,秦野市,堀川,カナガワケン,ハダノシ,ホリカワ,神奈川県秦野市堀川
2591306,神奈川県,秦野市,戸川,カナガワケン,ハダノシ,トカワ,神奈川県秦野市戸川
2591307,神奈川県,秦野市,横野,カナガワケン,ハダノシ,ヨコノ,神奈川県秦野市横野
2591311,神奈川県,秦野市,弥生町,カナガワケン,ハダノシ,ヤヨイチョウ,神奈川県秦野市弥生町
2591312,神奈川県,秦野市,春日町,カナガワケン,ハダノシ,カスガチョウ,神奈川県秦野市春日町
2591313,神奈川県,秦野市,松原町,カナガワケン,ハダノシ,マツバラチョウ,神奈川県秦野市松原町
2591314,神奈川県,秦野市,若松町,カナガワケン,ハダノシ,ワカマツチョウ,神奈川県秦野市若松町
2591315,神奈川県,秦野市,柳町,カナガワケン,ハダノシ,ヤナギチョウ,神奈川県秦野市柳町
2591316,神奈川県,秦野市,沼代新町,カナガワケン,ハダノシ,ヌマシロシンチョウ,神奈川県秦野市沼代新町
2591317,神奈川県,秦野市,並木町,カナガワケン,ハダノシ,ナミキチョウ,神奈川県秦野市並木町
2591321,神奈川県,秦野市,曲松,カナガワケン,ハダノシ,マガリマツ,神奈川県秦野市曲松
2591322,神奈川県,秦野市,渋沢,カナガワケン,ハダノシ,シブサワ,神奈川県秦野市渋沢
2591323,神奈川県,秦野市,栃窪（その他）,カナガワケン,ハダノシ,トチクボ(ソノタ),神奈川県秦野市栃窪（その他）
2591324,神奈川県,秦野市,千村,カナガワケン,ハダノシ,チムラ,神奈川県秦野市千村
2591325,神奈川県,秦野市,萩が丘,カナガワケン,ハダノシ,ハギガオカ,神奈川県秦野市萩が丘
2591326,神奈川県,秦野市,渋沢上,カナガワケン,ハダノシ,シブサワカミ,神奈川県秦野市渋沢上
2591331,神奈川県,秦野市,堀西,カナガワケン,ハダノシ,ホリニシ,神奈川県秦野市堀西
2591332,神奈川県,秦野市,菖蒲,カナガワケン,ハダノシ,ショウブ,神奈川県秦野市菖蒲
2591333,神奈川県,秦野市,八沢,カナガワケン,ハダノシ,ハッサワ,神奈川県秦野市八沢
2591334,神奈川県,秦野市,柳川,カナガワケン,ハダノシ,ヤナガワ,神奈川県秦野市柳川
2591335,神奈川県,秦野市,三廻部,カナガワケン,ハダノシ,ミクルベ,神奈川県秦野市三廻部
