zipcode,prefecture_name,city,town,prefecture_kana,city_kana,town_kana,normalized_address
9300001,富山県,富山市,明輪町,トヤマケン,トヤマシ,メイリンチョウ,富山県富山市明輪町
9300002,富山県,富山市,新富町,トヤマケン,トヤマシ,シントミチョウ,富山県富山市新富町
9300003,富山県,富山市,桜町,トヤマケン,トヤマシ,サクラマチ,富山県富山市桜町
9300004,富山県,富山市,桜橋通り,トヤマケン,トヤマシ,サクラバシドオリ,富山県富山市桜橋通り
9300005,富山県,富山市,新桜町,トヤマケン,トヤマシ,シンサクラマチ,富山県富山市新桜町
9300006,富山県,富山市,新総曲輪,トヤマケン,トヤマシ,シンソウガワ,富山県富山市新総曲輪
9300007,富山県,富山市,宝町,トヤマケン,トヤマシ,タカラマチ,富山県富山市宝町
9300008,富山県,富山市,神通本町,トヤマケン,トヤマシ,ジンヅウホンマチ,富山県富山市神通本町
9300009,富山県,富山市,神通町,トヤマケン,トヤマシ,ジンヅウマチ,富山県富山市神通町
9300010,富山県,富山市,稲荷元町,トヤマケン,トヤマシ,イナリモトマチ,富山県富山市稲荷元町
9300012,富山県,富山市,稲荷町,トヤマケン,トヤマシ,イナリマチ,富山県富山市稲荷町
9300014,富山県,富山市,館出町,トヤマケン,トヤマシ,タチイデマチ,富山県富山市館出町
9300015,富山県,富山市,於保多町,トヤマケン,トヤマシ,オオタマチ,富山県富山市於保多町
9300016,富山県,富山市,柳町,トヤマケン,トヤマシ,ヤナギマチ,富山県富山市柳町
9300017,富山県,富山市,東田地方町,トヤマケン,トヤマシ,ヒガシデンヂガタマチ,富山県富山市東田地方町
9300018,富山県,富山市,千歳町,トヤマケン,トヤマシ,チトセマチ,富山県富山市千歳町
9300019,富山県,富山市,弥生町,トヤマケン,トヤマシ,ヤヨイチョウ,富山県富山市弥生町
9300021,富山県,富山市,今木町,トヤマケン,トヤマシ,イマギマチ,富山県富山市今木町
9300022,富山県,富山市,小島町,トヤマケン,トヤマシ,コジマチョウ,富山県富山市小島町
9300023,富山県,富山市,北新町,トヤマケン,トヤマシ,キタシンマチ,富山県富山市北新町
9300024,富山県,富山市,新川原町,トヤマケン,トヤマシ,シンカワラマチ,富山県富山市新川原町
9300025,富山県,富山市,日之出町,トヤマケン,トヤマシ,ヒノデマチ,富山県富山市日之出町
9300026,富山県,富山市,八人町,トヤマケン,トヤマシ,ハチニンマチ,富山県富山市八人町
9300027,富山県,富山市,蛯町,トヤマケン,トヤマシ,エビチョウ,富山県富山市蛯町
9300028,富山県,富山市,荒町,トヤマケン,トヤマシ,アラマチ,富山県富山市荒町
9300029,富山県,富山市,本町,トヤマケン,トヤマシ,ホンマチ,富山県富山市本町
9300031,富山県,富山市,住吉町,トヤマケン,トヤマシ,スミヨシチョウ,富山県富山市住吉町
9300032,富山県,富山市,栄町,トヤマケン,トヤマシ,サカエマチ,富山県富山市栄町
9300033,富山県,富山市,元町,トヤマケン,トヤマシ,モトマチ,富山県富山市元町
9300034,富山県,富山市,清水元町,トヤマケン,トヤマシ,シミズモトマチ,富山県富山市清水元町
9300035,富山県,富山市,清水中町,トヤマケン,トヤマシ,シミズナカマチ,富山県富山市清水中町
9300036,富山県,富山市,清水町,トヤマケン,トヤマシ,シミズマチ,富山県富山市清水町
9300037,富山県,富山市,音羽町,トヤマケン,トヤマシ,オトワチョウ,富山県富山市音羽町
9300038,富山県,富山市,緑町,トヤマケン,トヤマシ,ミドリチョウ,富山県富山市緑町
9300039,富山県,富山市,東町,トヤマケン,トヤマシ,ヒガシマチ,富山県富山市東町
9300041,富山県,富山市,向川原町,トヤマケン,トヤマシ,ムコウガワラマチ,富山県富山市向川原町
9300042,富山県,富山市,泉町,トヤマケン,トヤマシ,イズミチョウ,富山県富山市泉町
9300043,富山県,富山市,石倉町,トヤマケン,トヤマシ,イシクラマチ,富山県富山市石倉町
9300044,富山県,富山市,中央通り,トヤマケン,トヤマシ,チュウオウドオリ,富山県富山市中央通り
9300045,富山県,富山市,砂町,トヤマケン,トヤマシ,スナマチ,富山県富山市砂町
9300046,富山県,富山市,堤町通り,トヤマケン,トヤマシ,ツツミチョウドオリ,富山県富山市堤町通り
9300047,富山県,富山市,常盤町,トヤマケン,トヤマシ,トキワチョウ,富山県富山市常盤町
9300048,富山県,富山市,白銀町,トヤマケン,トヤマシ,シロガネチョウ,富山県富山市白銀町
9300049,富山県,富山市,豊川町,トヤマケン,トヤマシ,トヨカワチョウ,富山県富山市豊川町
9300051,富山県,富山市,室町通り,トヤマケン,トヤマシ,ムロマチドオリ,富山県富山市室町通り
9300052,富山県,富山市,五番町,トヤマケン,トヤマシ,ゴバンマチ,富山県富山市五番町
9300053,富山県,富山市,辰巳町,トヤマケン,トヤマシ,タツミチョウ,富山県富山市辰巳町
9300054,富山県,富山市,南新町,トヤマケン,トヤマシ,ミナミシンマチ,富山県富山市南新町
9300055,富山県,富山市,梅沢町,トヤマケン,トヤマシ,ウメザワチョウ,富山県富山市梅沢町
9300056,富山県,富山市,南田町,トヤマケン,トヤマシ,ミナミダマチ,富山県富山市南田町
9300057,富山県,富山市,上本町,トヤマケン,トヤマシ,カミホンマチ,富山県富山市上本町
9300058,富山県,富山市,古鍛冶町,トヤマケン,トヤマシ,フルカジマチ,富山県富山市古鍛冶町
9300059,富山県,富山市,三番町,トヤマケン,トヤマシ,サンバンマチ,富山県富山市三番町
9300061,富山県,富山市,一番町,トヤマケン,トヤマシ,イチバンマチ,富山県富山市一番町
9300062,富山県,富山市,西町,トヤマケン,トヤマシ,ニシチョウ,富山県富山市西町
9300063,富山県,富山市,太田口通り,トヤマケン,トヤマシ,オオタグチドオリ,富山県富山市太田口通り
9300064,富山県,富山市,山王町,トヤマケン,トヤマシ,サンノウマチ,富山県富山市山王町
9300065,富山県,富山市,星井町,トヤマケン,トヤマシ,ホシイチョウ,富山県富山市星井町
9300066,富山県,富山市,千石町,トヤマケン,トヤマシ,センゴクマチ,富山県富山市千石町
9300067,富山県,富山市,越前町,トヤマケン,トヤマシ,エチゼンマチ,富山県富山市越前町
9300068,富山県,富山市,西四十物町,トヤマケン,トヤマシ,ニシアイモンチョウ,富山県富山市西四十物町
9300069,富山県,富山市,旅籠町,トヤマケン,トヤマシ,ハタゴマチ,富山県富山市旅籠町
9300071,富山県,富山市,平吹町,トヤマケン,トヤマシ,ヒラキマチ,富山県富山市平吹町
9300072,富山県,富山市,桃井町,トヤマケン,トヤマシ,モモノイチョウ,富山県富山市桃井町
9300073,富山県,富山市,西山王町,トヤマケン,トヤマシ,ニシサンノウマチ,富山県富山市西山王町
9300074,富山県,富山市,堀端町,トヤマケン,トヤマシ,ホリハタマチ,富山県富山市堀端町
9300075,富山県,富山市,相生町,トヤマケン,トヤマシ,アイオイチョウ,富山県富山市相生町
9300076,富山県,富山市,長柄町,トヤマケン,トヤマシ,ナガエマチ,富山県富山市長柄町
9300077,富山県,富山市,磯部町,トヤマケン,トヤマシ,イソベマチ,富山県富山市磯部町
9300078,富山県,富山市,土居原町,トヤマケン,トヤマシ,ドイハラマチ,富山県富山市土居原町
9300081,富山県,富山市,本丸,トヤマケン,トヤマシ,ホンマル,富山県富山市本丸
9300082,富山県,富山市,桜木町,トヤマケン,トヤマシ,サクラギチョウ,富山県富山市桜木町
9300083,富山県,富山市,総曲輪,トヤマケン,トヤマシ,ソウガワ,富山県富山市総曲輪
9300084,富山県,富山市,大手町,トヤマケン,トヤマシ,オオテマチ,富山県富山市大手町
9300085,富山県,富山市,丸の内,トヤマケン,トヤマシ,マルノウチ,富山県富山市丸の内
9300086,富山県,富山市,鹿島町,トヤマケン,トヤマシ,カシマチョウ,富山県富山市鹿島町
9300087,富山県,富山市,安野屋町,トヤマケン,トヤマシ,ヤスノヤチョウ,富山県富山市安野屋町
9300088,富山県,富山市,諏訪川原,トヤマケン,トヤマシ,スワノカワラ,富山県富山市諏訪川原
9300089,富山県,富山市,七軒町,トヤマケン,トヤマシ,シチケンマチ,富山県富山市七軒町
9300091,富山県,富山市,愛宕町,トヤマケン,トヤマシ,アタゴマチ,富山県富山市愛宕町
9300092,富山県,富山市,安田町,トヤマケン,トヤマシ,ヤスダマチ,富山県富山市安田町
9300093,富山県,富山市,内幸町,トヤマケン,トヤマシ,ウチサイワイチョウ,富山県富山市内幸町
9300094,富山県,富山市,安住町,トヤマケン,トヤマシ,アズミチョウ,富山県富山市安住町
9300095,富山県,富山市,舟橋南町,トヤマケン,トヤマシ,フナハシミナミチョウ,富山県富山市舟橋南町
9300096,富山県,富山市,舟橋北町,トヤマケン,トヤマシ,フナハシキタマチ,富山県富山市舟橋北町
9300097,富山県,富山市,芝園町,トヤマケン,トヤマシ,シバゾノチョウ,富山県富山市芝園町
9300098,富山県,富山市,舟橋今町,トヤマケン,トヤマシ,フナハシイママチ,富山県富山市舟橋今町
9300101,富山県,富山市,中沖,トヤマケン,トヤマシ,ナカオキ,富山県富山市中沖
9300102,富山県,富山市,呉羽野田,トヤマケン,トヤマシ,クレハノダ,富山県富山市呉羽野田
9300103,富山県,富山市,北代,トヤマケン,トヤマシ,キタダイ,富山県富山市北代
9300103,富山県,富山市,北代中部,トヤマケン,トヤマシ,キタダイチュウブ,富山県富山市北代中部
9300103,富山県,富山市,北代北部,トヤマケン,トヤマシ,キタダイホクブ,富山県富山市北代北部
9300103,富山県,富山市,北代東部,トヤマケン,トヤマシ,キタダイトウブ,富山県富山市北代東部
9300104,富山県,富山市,北代新,トヤマケン,トヤマシ,キタダイシン,富山県富山市北代新
9300105,富山県,富山市,北代藤ケ丘,トヤマケン,トヤマシ,キタダイフジガオカ,富山県富山市北代藤ケ丘
9300106,富山県,富山市,高木,トヤマケン,トヤマシ,タカギ,富山県富山市高木
9300106,富山県,富山市,高木南,トヤマケン,トヤマシ,タカギミナミ,富山県富山市高木南
9300106,富山県,富山市,高木東,トヤマケン,トヤマシ,タカギヒガシ,富山県富山市高木東
9300106,富山県,富山市,高木西,トヤマケン,トヤマシ,タカギニシ,富山県富山市高木西
9300107,富山県,富山市,大塚,トヤマケン,トヤマシ,オオツカ,富山県富山市大塚
9300107,富山県,富山市,大塚北,トヤマケン,トヤマシ,オオツカキタ,富山県富山市大塚北
9300107,富山県,富山市,大塚南,トヤマケン,トヤマシ,オオツカミナミ,富山県富山市大塚南
9300107,富山県,富山市,大塚東,トヤマケン,トヤマシ,オオツカヒガシ,富山県富山市大塚東
9300107,富山県,富山市,大塚西,トヤマケン,トヤマシ,オオツカニシ,富山県富山市大塚西
9300108,富山県,富山市,本郷,トヤマケン,トヤマシ,ホンゴウ,富山県富山市本郷
9300108,富山県,富山市,本郷中部,トヤマケン,トヤマシ,ホンゴウチュウブ,富山県富山市本郷中部
9300108,富山県,富山市,本郷北部,トヤマケン,トヤマシ,ホンゴウホクブ,富山県富山市本郷北部
9300108,富山県,富山市,本郷東部,トヤマケン,トヤマシ,ホンゴウトウブ,富山県富山市本郷東部
9300108,富山県,富山市,本郷西部,トヤマケン,トヤマシ,ホンゴウセイブ,富山県富山市本郷西部
9300111,富山県,富山市,長岡,トヤマケン,トヤマシ,ナガオカ,富山県富山市長岡
9300112,富山県,富山市,八ケ山,トヤマケン,トヤマシ,ハッカヤマ,富山県富山市八ケ山
9300113,富山県,富山市,長岡新,トヤマケン,トヤマシ,ナガオカシン,富山県富山市長岡新
9300114,富山県,富山市,茶屋新町,トヤマケン,トヤマシ,チャヤシンマチ,富山県富山市茶屋新町
9300115,富山県,富山市,茶屋町,トヤマケン,トヤマシ,チャヤマチ,富山県富山市茶屋町
9300116,富山県,富山市,追分茶屋,トヤマケン,トヤマシ,オイワケチャヤ,富山県富山市追分茶屋
9300121,富山県,富山市,呉羽苑,トヤマケン,トヤマシ,クレハエン,富山県富山市呉羽苑
9300122,富山県,富山市,呉羽新富田町,トヤマケン,トヤマシ,クレハシントミタマチ,富山県富山市呉羽新富田町
9300123,富山県,富山市,呉羽富田町,トヤマケン,トヤマシ,クレハトミタマチ,富山県富山市呉羽富田町
9300124,富山県,富山市,呉羽水上町,トヤマケン,トヤマシ,クレハミズカミチョウ,富山県富山市呉羽水上町
9300125,富山県,富山市,呉羽つつじが丘,トヤマケン,トヤマシ,クレハツツジガオカ,富山県富山市呉羽つつじが丘
9300126,富山県,富山市,呉羽東町,トヤマケン,トヤマシ,クレハヒガシマチ,富山県富山市呉羽東町
9300127,富山県,富山市,呉羽丸富町,トヤマケン,トヤマシ,クレハマルトミチョウ,富山県富山市呉羽丸富町
9300131,富山県,富山市,呉羽昭和町,トヤマケン,トヤマシ,クレハショウワマチ,富山県富山市呉羽昭和町
9300132,富山県,富山市,呉羽姫本,トヤマケン,トヤマシ,クレハヒメモト,富山県富山市呉羽姫本
9300133,富山県,富山市,呉羽川西,トヤマケン,トヤマシ,クレハカワニシ,富山県富山市呉羽川西
9300134,富山県,富山市,呉羽貴船巻,トヤマケン,トヤマシ,クレハキフネマキ,富山県富山市呉羽貴船巻
9300135,富山県,富山市,呉羽中の町,トヤマケン,トヤマシ,クレハナカノチョウ,富山県富山市呉羽中の町
9300136,富山県,富山市,呉羽三ツ塚,トヤマケン,トヤマシ,クレハミツヅカ,富山県富山市呉羽三ツ塚
9300137,富山県,富山市,呉羽本町,トヤマケン,トヤマシ,クレハホンマチ,富山県富山市呉羽本町
9300138,富山県,富山市,呉羽町,トヤマケン,トヤマシ,クレハマチ,富山県富山市呉羽町
9300138,富山県,富山市,呉羽町北,トヤマケン,トヤマシ,クレハマチキタ,富山県富山市呉羽町北
9300138,富山県,富山市,呉羽町西,トヤマケン,トヤマシ,クレハマチニシ,富山県富山市呉羽町西
9300141,富山県,富山市,吉作新町,トヤマケン,トヤマシ,ヨシヅクリシンマチ,富山県富山市吉作新町
9300142,富山県,富山市,吉作,トヤマケン,トヤマシ,ヨシヅクリ,富山県富山市吉作
9300143,富山県,富山市,西金屋,トヤマケン,トヤマシ,ニシカナヤ,富山県富山市西金屋
9300144,富山県,富山市,住吉,トヤマケン,トヤマシ,スミヨシ,富山県富山市住吉
9300151,富山県,富山市,古沢,トヤマケン,トヤマシ,フルサワ,富山県富山市古沢
9300152,富山県,富山市,杉谷,トヤマケン,トヤマシ,スギタニ,富山県富山市杉谷
9300153,富山県,富山市,境野新,トヤマケン,トヤマシ,サカイノシン,富山県富山市境野新
9300154,富山県,富山市,平岡,トヤマケン,トヤマシ,ヒラオカ,富山県富山市平岡
9300155,富山県,富山市,三熊,トヤマケン,トヤマシ,サンノクマ,富山県富山市三熊
9300156,富山県,富山市,坂下新,トヤマケン,トヤマシ,サカシタシン,富山県富山市坂下新
9300156,富山県,富山市,山本,トヤマケン,トヤマシ,ヤマモト,富山県富山市山本
9300157,富山県,富山市,開ケ丘,トヤマケン,トヤマシ,ヒラキガオカ,富山県富山市開ケ丘
9300158,富山県,富山市,池多,トヤマケン,トヤマシ,イケダ,富山県富山市池多
9300161,富山県,富山市,東老田,トヤマケン,トヤマシ,ヒガシオイダ,富山県富山市東老田
9300162,富山県,富山市,花木,トヤマケン,トヤマシ,ハナノキ,富山県富山市花木
9300163,富山県,富山市,栃谷,トヤマケン,トヤマシ,トチダニ,富山県富山市栃谷
9300164,富山県,富山市,北押川,トヤマケン,トヤマシ,キタオシカワ,富山県富山市北押川
9300165,富山県,富山市,西押川,トヤマケン,トヤマシ,ニシオシカワ,富山県富山市西押川
9300166,富山県,富山市,中老田,トヤマケン,トヤマシ,ナカオイダ,富山県富山市中老田
9300171,富山県,富山市,野々上,トヤマケン,トヤマシ,ノノウエ,富山県富山市野々上
9300172,富山県,富山市,北二ツ屋,トヤマケン,トヤマシ,キタフタツヤ,富山県富山市北二ツ屋
9300173,富山県,富山市,野口,トヤマケン,トヤマシ,ノグチ,富山県富山市野口
9300173,富山県,富山市,野口北部,トヤマケン,トヤマシ,ノグチホクブ,富山県富山市野口北部
9300173,富山県,富山市,野口南部,トヤマケン,トヤマシ,ノグチナンブ,富山県富山市野口南部
9300174,富山県,富山市,野町,トヤマケン,トヤマシ,ノマチ,富山県富山市野町
9300175,富山県,富山市,願海寺,トヤマケン,トヤマシ,ガンカイジ,富山県富山市願海寺
9300176,富山県,富山市,願海寺新町,トヤマケン,トヤマシ,ガンカイジシンマチ,富山県富山市願海寺新町
9300177,富山県,富山市,西二俣,トヤマケン,トヤマシ,ニシフタマタ,富山県富山市西二俣
9300200,富山県,中新川郡立山町,,トヤマケン,ナカニイカワグンタテヤママチ,,富山県中新川郡立山町
9300200,富山県,中新川郡舟橋村,,トヤマケン,ナカニイカワグンフナハシムラ,,富山県中新川郡舟橋村
9300201,富山県,中新川郡立山町,泉,トヤマケン,ナカニイカワグンタテヤママチ,イズミ,富山県中新川郡立山町泉
9300202,富山県,中新川郡立山町,若宮,トヤマケン,ナカニイカワグンタテヤママチ,ワカミヤ,富山県中新川郡立山町若宮
9300203,富山県,中新川郡立山町,若林,トヤマケン,ナカニイカワグンタテヤママチ,ワカバヤシ,富山県中新川郡立山町若林
9300204,富山県,中新川郡立山町,寺田,トヤマケン,ナカニイカワグンタテヤママチ,テラダ,富山県中新川郡立山町寺田
9300205,富山県,中新川郡立山町,寺田新,トヤマケン,ナカニイカワグンタテヤママチ,テラダシン,富山県中新川郡立山町寺田新
9300206,富山県,中新川郡立山町,竹鼻新,トヤマケン,ナカニイカワグンタテヤママチ,タケハナシン,富山県中新川郡立山町竹鼻新
9300207,富山県,中新川郡立山町,浦田新,トヤマケン,ナカニイカワグンタテヤママチ,ウラダシン,富山県中新川郡立山町浦田新
9300208,富山県,中新川郡立山町,浦田,トヤマケン,ナカニイカワグンタテヤママチ,ウラダ,富山県中新川郡立山町浦田
9300209,富山県,中新川郡立山町,寺田ことぶき町,トヤマケン,ナカニイカワグンタテヤママチ,テラダコトブキチョウ,富山県中新川郡立山町寺田ことぶき町
9300211,富山県,中新川郡立山町,辻,トヤマケン,ナカニイカワグンタテヤママチ,ツジ,富山県中新川郡立山町辻
9300212,富山県,中新川郡立山町,沢端,トヤマケン,ナカニイカワグンタテヤママチ,サワハタ,富山県中新川郡立山町沢端
9300213,富山県,中新川郡立山町,野口新,トヤマケン,ナカニイカワグンタテヤママチ,ノグチシン,富山県中新川郡立山町野口新
9300214,富山県,中新川郡立山町,五百石,トヤマケン,ナカニイカワグンタテヤママチ,ゴヒャクコク,富山県中新川郡立山町五百石
9300215,富山県,中新川郡立山町,宮成,トヤマケン,ナカニイカワグンタテヤママチ,ミヤナリ,富山県中新川郡立山町宮成
9300216,富山県,中新川郡立山町,大窪,トヤマケン,ナカニイカワグンタテヤママチ,オオクボ,富山県中新川郡立山町大窪
9300217,富山県,中新川郡立山町,野口,トヤマケン,ナカニイカワグンタテヤママチ,ノグチ,富山県中新川郡立山町野口
9300218,富山県,中新川郡立山町,二ツ塚,トヤマケン,ナカニイカワグンタテヤママチ,フタツヅカ,富山県中新川郡立山町二ツ塚
9300219,富山県,中新川郡立山町,田添,トヤマケン,ナカニイカワグンタテヤママチ,タゾエ,富山県中新川郡立山町田添
9300220,富山県,中新川郡立山町,前沢中央町,トヤマケン,ナカニイカワグンタテヤママチ,マエザワチュウオウマチ,富山県中新川郡立山町前沢中央町
9300221,富山県,中新川郡立山町,前沢,トヤマケン,ナカニイカワグンタテヤママチ,マエザワ,富山県中新川郡立山町前沢
9300222,富山県,中新川郡立山町,貫田,トヤマケン,ナカニイカワグンタテヤママチ,ヌキタ,富山県中新川郡立山町貫田
9300223,富山県,中新川郡立山町,上鉾木,トヤマケン,ナカニイカワグンタテヤママチ,カミホコノキ,富山県中新川郡立山町上鉾木
9300224,富山県,中新川郡立山町,西芦原,トヤマケン,ナカニイカワグンタテヤママチ,ニシアシハラ,富山県中新川郡立山町西芦原
9300225,富山県,中新川郡立山町,本郷島,トヤマケン,ナカニイカワグンタテヤママチ,ホンゴウジマ,富山県中新川郡立山町本郷島
9300226,富山県,中新川郡立山町,道新,トヤマケン,ナカニイカワグンタテヤママチ,ドウシン,富山県中新川郡立山町道新
9300227,富山県,中新川郡立山町,草野,トヤマケン,ナカニイカワグンタテヤママチ,クサノ,富山県中新川郡立山町草野
9300228,富山県,中新川郡立山町,手屋,トヤマケン,ナカニイカワグンタテヤママチ,タヤ,富山県中新川郡立山町手屋
9300229,富山県,中新川郡立山町,前沢新町,トヤマケン,ナカニイカワグンタテヤママチ,マエザワシンマチ,富山県中新川郡立山町前沢新町
9300231,富山県,中新川郡立山町,坂井沢,トヤマケン,ナカニイカワグンタテヤママチ,サカイザワ,富山県中新川郡立山町坂井沢
9300232,富山県,中新川郡立山町,金剛寺,トヤマケン,ナカニイカワグンタテヤママチ,コンゴウジ,富山県中新川郡立山町金剛寺
9300233,富山県,中新川郡立山町,上金剛寺,トヤマケン,ナカニイカワグンタテヤママチ,カミコンゴウジ,富山県中新川郡立山町上金剛寺
9300234,富山県,中新川郡立山町,下段,トヤマケン,ナカニイカワグンタテヤママチ,シタダン,富山県中新川郡立山町下段
9300235,富山県,中新川郡立山町,榎,トヤマケン,ナカニイカワグンタテヤママチ,エノキ,富山県中新川郡立山町榎
9300236,富山県,中新川郡立山町,新堀,トヤマケン,ナカニイカワグンタテヤママチ,シンボリ,富山県中新川郡立山町新堀
9300237,富山県,中新川郡立山町,柿の木沢,トヤマケン,ナカニイカワグンタテヤママチ,カキノキザワ,富山県中新川郡立山町柿の木沢
9300241,富山県,中新川郡立山町,道源寺,トヤマケン,ナカニイカワグンタテヤママチ,ドウゲンジ,富山県中新川郡立山町道源寺
9300242,富山県,中新川郡立山町,寺坪,トヤマケン,ナカニイカワグンタテヤママチ,テラツボ,富山県中新川郡立山町寺坪
9300243,富山県,中新川郡立山町,米道（その他）,トヤマケン,ナカニイカワグンタテヤママチ,ヨネミチ(ソノタ),富山県中新川郡立山町米道（その他）
9300244,富山県,中新川郡立山町,末谷口,トヤマケン,ナカニイカワグンタテヤママチ,スエタニグチ,富山県中新川郡立山町末谷口
9300245,富山県,中新川郡立山町,中山,トヤマケン,ナカニイカワグンタテヤママチ,ナカヤマ,富山県中新川郡立山町中山
9300245,富山県,中新川郡立山町,沢中山,トヤマケン,ナカニイカワグンタテヤママチ,サワナカヤマ,富山県中新川郡立山町沢中山
9300246,富山県,中新川郡立山町,鋳物師沢,トヤマケン,ナカニイカワグンタテヤママチ,イモノシザワ,富山県中新川郡立山町鋳物師沢
9300247,富山県,中新川郡立山町,末三賀,トヤマケン,ナカニイカワグンタテヤママチ,スエサンガ,富山県中新川郡立山町末三賀
9300248,富山県,中新川郡立山町,野村,トヤマケン,ナカニイカワグンタテヤママチ,ノムラ,富山県中新川郡立山町野村
9300251,富山県,中新川郡立山町,大島,トヤマケン,ナカニイカワグンタテヤママチ,オオシマ,富山県中新川郡立山町大島
9300252,富山県,中新川郡立山町,日俣,トヤマケン,ナカニイカワグンタテヤママチ,ヒマタ,富山県中新川郡立山町日俣
9300253,富山県,中新川郡立山町,大窪開,トヤマケン,ナカニイカワグンタテヤママチ,オオクボビラキ,富山県中新川郡立山町大窪開
9300254,富山県,中新川郡立山町,古川,トヤマケン,ナカニイカワグンタテヤママチ,フルカワ,富山県中新川郡立山町古川
9300255,富山県,中新川郡立山町,向新庄,トヤマケン,ナカニイカワグンタテヤママチ,ムカイシンジョウ,富山県中新川郡立山町向新庄
9300256,富山県,中新川郡立山町,一本木,トヤマケン,ナカニイカワグンタテヤママチ,イッポンギ,富山県中新川郡立山町一本木
9300257,富山県,中新川郡立山町,川原木,トヤマケン,ナカニイカワグンタテヤママチ,カワラギ,富山県中新川郡立山町川原木
9300261,富山県,中新川郡立山町,大石原,トヤマケン,ナカニイカワグンタテヤママチ,オオイシハラ,富山県中新川郡立山町大石原
9300262,富山県,中新川郡立山町,蔵本新,トヤマケン,ナカニイカワグンタテヤママチ,クラモトシン,富山県中新川郡立山町蔵本新
9300263,富山県,中新川郡立山町,大清水,トヤマケン,ナカニイカワグンタテヤママチ,オオショウズ,富山県中新川郡立山町大清水
9300264,富山県,中新川郡立山町,東大森,トヤマケン,ナカニイカワグンタテヤママチ,ヒガシオオモリ,富山県中新川郡立山町東大森
9300265,富山県,中新川郡立山町,泊新,トヤマケン,ナカニイカワグンタテヤママチ,トマリシン,富山県中新川郡立山町泊新
9300266,富山県,中新川郡立山町,三ツ塚,トヤマケン,ナカニイカワグンタテヤママチ,ミツヅカ,富山県中新川郡立山町三ツ塚
9300266,富山県,中新川郡立山町,三ツ塚新,トヤマケン,ナカニイカワグンタテヤママチ,ミツヅカシン,富山県中新川郡立山町三ツ塚新
9300267,富山県,中新川郡立山町,西大森,トヤマケン,ナカニイカワグンタテヤママチ,ニシオオモリ,富山県中新川郡立山町西大森
9300268,富山県,中新川郡立山町,高原八ツ屋,トヤマケン,ナカニイカワグンタテヤママチ,タカハラヤツヤ,富山県中新川郡立山町高原八ツ屋
9300269,富山県,中新川郡立山町,半屋,トヤマケン,ナカニイカワグンタテヤママチ,ナカリヤ,富山県中新川郡立山町半屋
9300271,富山県,中新川郡立山町,浅生,トヤマケン,ナカニイカワグンタテヤママチ,アソ,富山県中新川郡立山町浅生
9300272,富山県,中新川郡立山町,塚越,トヤマケン,ナカニイカワグンタテヤママチ,ツカゴシ,富山県中新川郡立山町塚越
9300273,富山県,中新川郡立山町,横沢,トヤマケン,ナカニイカワグンタテヤママチ,ヨコザワ,富山県中新川郡立山町横沢
9300274,富山県,中新川郡立山町,五郎丸,トヤマケン,ナカニイカワグンタテヤママチ,ゴロウマル,富山県中新川郡立山町五郎丸
9300275,富山県,中新川郡立山町,利田,トヤマケン,ナカニイカワグンタテヤママチ,リタ,富山県中新川郡立山町利田
9300276,富山県,中新川郡立山町,鉾木,トヤマケン,ナカニイカワグンタテヤママチ,ホコノキ,富山県中新川郡立山町鉾木
9300281,富山県,中新川郡舟橋村,舟橋,トヤマケン,ナカニイカワグンフナハシムラ,フナハシ,富山県中新川郡舟橋村舟橋
9300282,富山県,中新川郡舟橋村,仏生寺,トヤマケン,ナカニイカワグンフナハシムラ,ブッショウジ,富山県中新川郡舟橋村仏生寺
9300283,富山県,中新川郡舟橋村,海老江,トヤマケン,ナカニイカワグンフナハシムラ,エビエ,富山県中新川郡舟橋村海老江
9300284,富山県,中新川郡舟橋村,竹鼻,トヤマケン,ナカニイカワグンフナハシムラ,タケハナ,富山県中新川郡舟橋村竹鼻
9300285,富山県,中新川郡舟橋村,古海老江,トヤマケン,ナカニイカワグンフナハシムラ,フルエビエ,富山県中新川郡舟橋村古海老江
9300286,富山県,中新川郡舟橋村,東芦原,トヤマケン,ナカニイカワグンフナハシムラ,ヒガシアシハラ,富山県中新川郡舟橋村東芦原
9300287,富山県,中新川郡舟橋村,稲荷,トヤマケン,ナカニイカワグンフナハシムラ,イナリ,富山県中新川郡舟橋村稲荷
9300288,富山県,中新川郡舟橋村,国重,トヤマケン,ナカニイカワグンフナハシムラ,クニシゲ,富山県中新川郡舟橋村国重
9300289,富山県,中新川郡舟橋村,竹内,トヤマケン,ナカニイカワグンフナハシムラ,タケノウチ,富山県中新川郡舟橋村竹内
9300300,富山県,中新川郡上市町,,トヤマケン,ナカニイカワグンカミイチマチ,,富山県中新川郡上市町
9300301,富山県,中新川郡上市町,竹鼻,トヤマケン,ナカニイカワグンカミイチマチ,タケハナ,富山県中新川郡上市町竹鼻
9300302,富山県,中新川郡上市町,石仏,トヤマケン,ナカニイカワグンカミイチマチ,イシボトケ,富山県中新川郡上市町石仏
9300303,富山県,中新川郡上市町,大永田,トヤマケン,ナカニイカワグンカミイチマチ,オナガタ,富山県中新川郡上市町大永田
9300304,富山県,中新川郡上市町,森尻,トヤマケン,ナカニイカワグンカミイチマチ,モリジリ,富山県中新川郡上市町森尻
9300305,富山県,中新川郡上市町,荒田,トヤマケン,ナカニイカワグンカミイチマチ,アレタ,富山県中新川郡上市町荒田
9300311,富山県,中新川郡上市町,弥市,トヤマケン,ナカニイカワグンカミイチマチ,ヤイチ,富山県中新川郡上市町弥市
9300312,富山県,中新川郡上市町,東江上,トヤマケン,ナカニイカワグンカミイチマチ,ヒガシエガミ,富山県中新川郡上市町東江上
9300313,富山県,中新川郡上市町,中江上,トヤマケン,ナカニイカワグンカミイチマチ,ナカエガミ,富山県中新川郡上市町中江上
9300314,富山県,中新川郡上市町,若杉,トヤマケン,ナカニイカワグンカミイチマチ,ワカスギ,富山県中新川郡上市町若杉
9300315,富山県,中新川郡上市町,若杉新,トヤマケン,ナカニイカワグンカミイチマチ,ワカスギシン,富山県中新川郡上市町若杉新
9300316,富山県,中新川郡上市町,中小泉,トヤマケン,ナカニイカワグンカミイチマチ,ナカコイズミ,富山県中新川郡上市町中小泉
9300317,富山県,中新川郡上市町,江又,トヤマケン,ナカニイカワグンカミイチマチ,エマタ,富山県中新川郡上市町江又
9300318,富山県,中新川郡上市町,江上,トヤマケン,ナカニイカワグンカミイチマチ,エガミ,富山県中新川郡上市町江上
9300321,富山県,中新川郡上市町,天神町,トヤマケン,ナカニイカワグンカミイチマチ,テンジンマチ,富山県中新川郡上市町天神町
9300322,富山県,中新川郡上市町,栄町,トヤマケン,ナカニイカワグンカミイチマチ,サカエチョウ,富山県中新川郡上市町栄町
9300323,富山県,中新川郡上市町,西町,トヤマケン,ナカニイカワグンカミイチマチ,ニシチョウ,富山県中新川郡上市町西町
9300324,富山県,中新川郡上市町,新町,トヤマケン,ナカニイカワグンカミイチマチ,シンマチ,富山県中新川郡上市町新町
9300325,富山県,中新川郡上市町,三日市,トヤマケン,ナカニイカワグンカミイチマチ,ミッカイチ,富山県中新川郡上市町三日市
9300326,富山県,中新川郡上市町,柳町,トヤマケン,ナカニイカワグンカミイチマチ,ヤナギマチ,富山県中新川郡上市町柳町
9300331,富山県,中新川郡上市町,旭町,トヤマケン,ナカニイカワグンカミイチマチ,アサヒマチ,富山県中新川郡上市町旭町
9300332,富山県,中新川郡上市町,石浦町,トヤマケン,ナカニイカワグンカミイチマチ,イシウラチョウ,富山県中新川郡上市町石浦町
9300333,富山県,中新川郡上市町,上中町,トヤマケン,ナカニイカワグンカミイチマチ,カミナカマチ,富山県中新川郡上市町上中町
9300334,富山県,中新川郡上市町,西中町,トヤマケン,ナカニイカワグンカミイチマチ,ニシナカマチ,富山県中新川郡上市町西中町
9300335,富山県,中新川郡上市町,幸町,トヤマケン,ナカニイカワグンカミイチマチ,サイワイチョウ,富山県中新川郡上市町幸町
9300336,富山県,中新川郡上市町,松和町,トヤマケン,ナカニイカワグンカミイチマチ,マツワチョウ,富山県中新川郡上市町松和町
9300341,富山県,中新川郡上市町,錦町,トヤマケン,ナカニイカワグンカミイチマチ,ニシキチョウ,富山県中新川郡上市町錦町
9300342,富山県,中新川郡上市町,神明町,トヤマケン,ナカニイカワグンカミイチマチ,シンメイマチ,富山県中新川郡上市町神明町
9300343,富山県,中新川郡上市町,東町,トヤマケン,ナカニイカワグンカミイチマチ,ヒガシマチ,富山県中新川郡上市町東町
9300344,富山県,中新川郡上市町,森元町,トヤマケン,ナカニイカワグンカミイチマチ,モリモトチョウ,富山県中新川郡上市町森元町
9300345,富山県,中新川郡上市町,南町,トヤマケン,ナカニイカワグンカミイチマチ,ミナミチョウ,富山県中新川郡上市町南町
9300346,富山県,中新川郡上市町,鍵町,トヤマケン,ナカニイカワグンカミイチマチ,カギチョウ,富山県中新川郡上市町鍵町
9300347,富山県,中新川郡上市町,熊野町,トヤマケン,ナカニイカワグンカミイチマチ,クマノマチ,富山県中新川郡上市町熊野町
9300351,富山県,中新川郡上市町,北島,トヤマケン,ナカニイカワグンカミイチマチ,キタジマ,富山県中新川郡上市町北島
9300352,富山県,中新川郡上市町,上法音寺,トヤマケン,ナカニイカワグンカミイチマチ,カミホウオンジ,富山県中新川郡上市町上法音寺
9300353,富山県,中新川郡上市町,法音寺,トヤマケン,ナカニイカワグンカミイチマチ,ホウオンジ,富山県中新川郡上市町法音寺
9300354,富山県,中新川郡上市町,大坪,トヤマケン,ナカニイカワグンカミイチマチ,オオツボ,富山県中新川郡上市町大坪
9300355,富山県,中新川郡上市町,横法音寺,トヤマケン,ナカニイカワグンカミイチマチ,ヨコホウオンジ,富山県中新川郡上市町横法音寺
9300356,富山県,中新川郡上市町,上正,トヤマケン,ナカニイカワグンカミイチマチ,カミショウ,富山県中新川郡上市町上正
9300357,富山県,中新川郡上市町,正印,トヤマケン,ナカニイカワグンカミイチマチ,ショイン,富山県中新川郡上市町正印
9300358,富山県,中新川郡上市町,正印新,トヤマケン,ナカニイカワグンカミイチマチ,ショインシン,富山県中新川郡上市町正印新
9300359,富山県,中新川郡上市町,四葉台,トヤマケン,ナカニイカワグンカミイチマチ,ヨツバダイ,富山県中新川郡上市町四葉台
9300361,富山県,中新川郡上市町,湯上野,トヤマケン,ナカニイカワグンカミイチマチ,ユウワノ,富山県中新川郡上市町湯上野
9300362,富山県,中新川郡上市町,稗田,トヤマケン,ナカニイカワグンカミイチマチ,ヒエダ,富山県中新川郡上市町稗田
9300363,富山県,中新川郡上市町,和合,トヤマケン,ナカニイカワグンカミイチマチ,ワゴウ,富山県中新川郡上市町和合
9300364,富山県,中新川郡上市町,横越,トヤマケン,ナカニイカワグンカミイチマチ,ヨコゴシ,富山県中新川郡上市町横越
9300365,富山県,中新川郡上市町,神田,トヤマケン,ナカニイカワグンカミイチマチ,ジンデン,富山県中新川郡上市町神田
9300366,富山県,中新川郡上市町,新村,トヤマケン,ナカニイカワグンカミイチマチ,シンムラ,富山県中新川郡上市町新村
9300367,富山県,中新川郡上市町,野福,トヤマケン,ナカニイカワグンカミイチマチ,ノフク,富山県中新川郡上市町野福
9300368,富山県,中新川郡上市町,川原田,トヤマケン,ナカニイカワグンカミイチマチ,カワハラダ,富山県中新川郡上市町川原田
9300371,富山県,中新川郡上市町,中開発,トヤマケン,ナカニイカワグンカミイチマチ,ナカカイホツ,富山県中新川郡上市町中開発
9300372,富山県,中新川郡上市町,上経田,トヤマケン,ナカニイカワグンカミイチマチ,カミキョウデン,富山県中新川郡上市町上経田
9300373,富山県,中新川郡上市町,下経田,トヤマケン,ナカニイカワグンカミイチマチ,シモキョウデン,富山県中新川郡上市町下経田
9300374,富山県,中新川郡上市町,相ノ木新町,トヤマケン,ナカニイカワグンカミイチマチ,アイノキシンマチ,富山県中新川郡上市町相ノ木新町
9300375,富山県,中新川郡上市町,上荒又,トヤマケン,ナカニイカワグンカミイチマチ,カミアラマタ,富山県中新川郡上市町上荒又
9300376,富山県,中新川郡上市町,下荒又,トヤマケン,ナカニイカワグンカミイチマチ,シモアラマタ,富山県中新川郡上市町下荒又
9300377,富山県,中新川郡上市町,新清水,トヤマケン,ナカニイカワグンカミイチマチ,アラシミズ,富山県中新川郡上市町新清水
9300378,富山県,中新川郡上市町,放士ケ瀬,トヤマケン,ナカニイカワグンカミイチマチ,ホウジガセ,富山県中新川郡上市町放士ケ瀬
9300379,富山県,中新川郡上市町,放士ケ瀬新,トヤマケン,ナカニイカワグンカミイチマチ,ホウジガセシン,富山県中新川郡上市町放士ケ瀬新
9300381,富山県,中新川郡上市町,久金,トヤマケン,ナカニイカワグンカミイチマチ,ヒサガネ,富山県中新川郡上市町久金
9300382,富山県,中新川郡上市町,下青出,トヤマケン,ナカニイカワグンカミイチマチ,シモアオイデ,富山県中新川郡上市町下青出
9300383,富山県,中新川郡上市町,上条沖,トヤマケン,ナカニイカワグンカミイチマチ,ジョウジョウオキ,富山県中新川郡上市町上条沖
9300384,富山県,中新川郡上市町,青出新,トヤマケン,ナカニイカワグンカミイチマチ,アオイデシン,富山県中新川郡上市町青出新
9300385,富山県,中新川郡上市町,飯坂,トヤマケン,ナカニイカワグンカミイチマチ,イイザカ,富山県中新川郡上市町飯坂
9300386,富山県,中新川郡上市町,中青出,トヤマケン,ナカニイカワグンカミイチマチ,ナカアオイデ,富山県中新川郡上市町中青出
9300387,富山県,中新川郡上市町,飯坂新,トヤマケン,ナカニイカワグンカミイチマチ,イイザカシン,富山県中新川郡上市町飯坂新
9300388,富山県,中新川郡上市町,久金新,トヤマケン,ナカニイカワグンカミイチマチ,ヒサガネシン,富山県中新川郡上市町久金新
9300401,富山県,中新川郡上市町,広野新,トヤマケン,ナカニイカワグンカミイチマチ,ヒロノシン,富山県中新川郡上市町広野新
9300402,富山県,中新川郡上市町,広市新,トヤマケン,ナカニイカワグンカミイチマチ,ヒロイチシン,富山県中新川郡上市町広市新
9300403,富山県,中新川郡上市町,野開発,トヤマケン,ナカニイカワグンカミイチマチ,ノカイホツ,富山県中新川郡上市町野開発
9300404,富山県,中新川郡上市町,三杉町,トヤマケン,ナカニイカワグンカミイチマチ,ミスギマチ,富山県中新川郡上市町三杉町
9300405,富山県,中新川郡上市町,郷柿沢,トヤマケン,ナカニイカワグンカミイチマチ,ゴウカキザワ,富山県中新川郡上市町郷柿沢
9300406,富山県,中新川郡上市町,柿沢新,トヤマケン,ナカニイカワグンカミイチマチ,カキザワシン,富山県中新川郡上市町柿沢新
9300411,富山県,中新川郡上市町,砂林開,トヤマケン,ナカニイカワグンカミイチマチ,スナバヤシビラキ,富山県中新川郡上市町砂林開
9300412,富山県,中新川郡上市町,広野,トヤマケン,ナカニイカワグンカミイチマチ,ヒロノ,富山県中新川郡上市町広野
9300413,富山県,中新川郡上市町,一の越,トヤマケン,ナカニイカワグンカミイチマチ,イチノコシ,富山県中新川郡上市町一の越
9300414,富山県,中新川郡上市町,永代,トヤマケン,ナカニイカワグンカミイチマチ,エイタイ,富山県中新川郡上市町永代
9300415,富山県,中新川郡上市町,松原野,トヤマケン,ナカニイカワグンカミイチマチ,マツバラノ,富山県中新川郡上市町松原野
9300416,富山県,中新川郡上市町,黒川,トヤマケン,ナカニイカワグンカミイチマチ,クロカワ,富山県中新川郡上市町黒川
9300417,富山県,中新川郡上市町,五位尾,トヤマケン,ナカニイカワグンカミイチマチ,ゴイオ,富山県中新川郡上市町五位尾
9300421,富山県,中新川郡上市町,片地,トヤマケン,ナカニイカワグンカミイチマチ,カタジ,富山県中新川郡上市町片地
9300422,富山県,中新川郡上市町,眼目,トヤマケン,ナカニイカワグンカミイチマチ,サッカ,富山県中新川郡上市町眼目
9300423,富山県,中新川郡上市町,野島,トヤマケン,ナカニイカワグンカミイチマチ,ノジマ,富山県中新川郡上市町野島
9300424,富山県,中新川郡上市町,斉ノ神新,トヤマケン,ナカニイカワグンカミイチマチ,サイノカミシン,富山県中新川郡上市町斉ノ神新
9300425,富山県,中新川郡上市町,田島野,トヤマケン,ナカニイカワグンカミイチマチ,タジマノ,富山県中新川郡上市町田島野
9300431,富山県,中新川郡上市町,釈泉寺,トヤマケン,ナカニイカワグンカミイチマチ,シャクセンジ,富山県中新川郡上市町釈泉寺
9300432,富山県,中新川郡上市町,稲村,トヤマケン,ナカニイカワグンカミイチマチ,イナムラ,富山県中新川郡上市町稲村
9300433,富山県,中新川郡上市町,中村,トヤマケン,ナカニイカワグンカミイチマチ,ナカムラ,富山県中新川郡上市町中村
9300434,富山県,中新川郡上市町,下田,トヤマケン,ナカニイカワグンカミイチマチ,ゲダ,富山県中新川郡上市町下田
9300435,富山県,中新川郡上市町,折戸,トヤマケン,ナカニイカワグンカミイチマチ,オリト,富山県中新川郡上市町折戸
9300436,富山県,中新川郡上市町,蓬沢,トヤマケン,ナカニイカワグンカミイチマチ,ヨモギザワ,富山県中新川郡上市町蓬沢
9300437,富山県,中新川郡上市町,伊折,トヤマケン,ナカニイカワグンカミイチマチ,イオリ,富山県中新川郡上市町伊折
9300438,富山県,中新川郡上市町,馬場島,トヤマケン,ナカニイカワグンカミイチマチ,バンバジマ,富山県中新川郡上市町馬場島
9300441,富山県,中新川郡上市町,東種,トヤマケン,ナカニイカワグンカミイチマチ,ヒガシタネ,富山県中新川郡上市町東種
9300442,富山県,中新川郡上市町,千石,トヤマケン,ナカニイカワグンカミイチマチ,センゴク,富山県中新川郡上市町千石
9300443,富山県,中新川郡上市町,骨原,トヤマケン,ナカニイカワグンカミイチマチ,コツハラ,富山県中新川郡上市町骨原
9300444,富山県,中新川郡上市町,西種,トヤマケン,ナカニイカワグンカミイチマチ,ニシタネ,富山県中新川郡上市町西種
9300445,富山県,中新川郡上市町,水上,トヤマケン,ナカニイカワグンカミイチマチ,ミズカミ,富山県中新川郡上市町水上
9300451,富山県,中新川郡上市町,極楽寺,トヤマケン,ナカニイカワグンカミイチマチ,ゴクラクジ,富山県中新川郡上市町極楽寺
9300452,富山県,中新川郡上市町,須山,トヤマケン,ナカニイカワグンカミイチマチ,スヤマ,富山県中新川郡上市町須山
9300453,富山県,中新川郡上市町,堤谷,トヤマケン,ナカニイカワグンカミイチマチ,ツツミダニ,富山県中新川郡上市町堤谷
9300454,富山県,中新川郡上市町,湯神子,トヤマケン,ナカニイカワグンカミイチマチ,ユノミコ,富山県中新川郡上市町湯神子
9300455,富山県,中新川郡上市町,湯崎野,トヤマケン,ナカニイカワグンカミイチマチ,ユサキノ,富山県中新川郡上市町湯崎野
9300456,富山県,中新川郡上市町,丸山,トヤマケン,ナカニイカワグンカミイチマチ,マルヤマ,富山県中新川郡上市町丸山
9300457,富山県,中新川郡上市町,湯神子野,トヤマケン,ナカニイカワグンカミイチマチ,ユノミコノ,富山県中新川郡上市町湯神子野
9300458,富山県,中新川郡上市町,眼目新,トヤマケン,ナカニイカワグンカミイチマチ,サッカシン,富山県中新川郡上市町眼目新
9300461,富山県,中新川郡上市町,大松新,トヤマケン,ナカニイカワグンカミイチマチ,オオマツシン,富山県中新川郡上市町大松新
9300462,富山県,中新川郡上市町,大松,トヤマケン,ナカニイカワグンカミイチマチ,オオマツ,富山県中新川郡上市町大松
9300463,富山県,中新川郡上市町,大岩,トヤマケン,ナカニイカワグンカミイチマチ,オオイワ,富山県中新川郡上市町大岩
9300464,富山県,中新川郡上市町,浅生,トヤマケン,ナカニイカワグンカミイチマチ,アソ,富山県中新川郡上市町浅生
9300465,富山県,中新川郡上市町,大沢,トヤマケン,ナカニイカワグンカミイチマチ,オオサワ,富山県中新川郡上市町大沢
9300466,富山県,中新川郡上市町,桧谷,トヤマケン,ナカニイカワグンカミイチマチ,ヒノタニ,富山県中新川郡上市町桧谷
9300467,富山県,中新川郡上市町,塩谷,トヤマケン,ナカニイカワグンカミイチマチ,シオノタニ,富山県中新川郡上市町塩谷
9300471,富山県,中新川郡上市町,新屋,トヤマケン,ナカニイカワグンカミイチマチ,アラヤ,富山県中新川郡上市町新屋
9300472,富山県,中新川郡上市町,女川,トヤマケン,ナカニイカワグンカミイチマチ,オナガワ,富山県中新川郡上市町女川
9300473,富山県,中新川郡上市町,柿沢,トヤマケン,ナカニイカワグンカミイチマチ,カキザワ,富山県中新川郡上市町柿沢
9300474,富山県,中新川郡上市町,舘,トヤマケン,ナカニイカワグンカミイチマチ,タチ,富山県中新川郡上市町舘
9300801,富山県,富山市,中島,トヤマケン,トヤマシ,ナカジマ,富山県富山市中島
9300802,富山県,富山市,下新北町,トヤマケン,トヤマシ,シモシンキタマチ,富山県富山市下新北町
9300803,富山県,富山市,下新本町,トヤマケン,トヤマシ,シモシンホンマチ,富山県富山市下新本町
9300804,富山県,富山市,下新町,トヤマケン,トヤマシ,シモシンマチ,富山県富山市下新町
9300805,富山県,富山市,湊入船町,トヤマケン,トヤマシ,ミナトイリフネチョウ,富山県富山市湊入船町
9300806,富山県,富山市,木場町,トヤマケン,トヤマシ,キバマチ,富山県富山市木場町
9300807,富山県,富山市,下新西町,トヤマケン,トヤマシ,シモシンニシチョウ,富山県富山市下新西町
9300808,富山県,富山市,下新日曹町,トヤマケン,トヤマシ,シモシンニッソウマチ,富山県富山市下新日曹町
9300809,富山県,富山市,興人町,トヤマケン,トヤマシ,コウジンマチ,富山県富山市興人町
9300811,富山県,富山市,千代田町,トヤマケン,トヤマシ,チヨダマチ,富山県富山市千代田町
9300812,富山県,富山市,松若町,トヤマケン,トヤマシ,マツワカチョウ,富山県富山市松若町
9300813,富山県,富山市,下赤江町,トヤマケン,トヤマシ,シモアカエマチ,富山県富山市下赤江町
9300814,富山県,富山市,下冨居,トヤマケン,トヤマシ,シモフゴ,富山県富山市下冨居
9300815,富山県,富山市,千成町,トヤマケン,トヤマシ,センナリマチ,富山県富山市千成町
9300816,富山県,富山市,上赤江町,トヤマケン,トヤマシ,カミアカエマチ,富山県富山市上赤江町
9300817,富山県,富山市,下奥井,トヤマケン,トヤマシ,シモオクイ,富山県富山市下奥井
9300818,富山県,富山市,奥田町,トヤマケン,トヤマシ,オクダマチ,富山県富山市奥田町
9300819,富山県,富山市,奥田本町,トヤマケン,トヤマシ,オクダホンマチ,富山県富山市奥田本町
9300821,富山県,富山市,飯野,トヤマケン,トヤマシ,イイノ,富山県富山市飯野
9300822,富山県,富山市,新屋,トヤマケン,トヤマシ,アラヤ,富山県富山市新屋
9300823,富山県,富山市,新屋新町,トヤマケン,トヤマシ,アラヤシンマチ,富山県富山市新屋新町
9300824,富山県,富山市,鶴ケ丘町,トヤマケン,トヤマシ,ツルガオカマチ,富山県富山市鶴ケ丘町
9300825,富山県,富山市,上飯野新町,トヤマケン,トヤマシ,カミイイノシンマチ,富山県富山市上飯野新町
9300826,富山県,富山市,上庄町,トヤマケン,トヤマシ,カミショウマチ,富山県富山市上庄町
9300827,富山県,富山市,上飯野,トヤマケン,トヤマシ,カミイイノ,富山県富山市上飯野
9300830,富山県,富山市,中冨居新町,トヤマケン,トヤマシ,ナカフゴシンマチ,富山県富山市中冨居新町
9300831,富山県,富山市,鍋田,トヤマケン,トヤマシ,ナベタ,富山県富山市鍋田
9300832,富山県,富山市,中冨居,トヤマケン,トヤマシ,ナカフゴ,富山県富山市中冨居
9300833,富山県,富山市,冨居栄町,トヤマケン,トヤマシ,フゴサカエマチ,富山県富山市冨居栄町
9300834,富山県,富山市,問屋町,トヤマケン,トヤマシ,トイヤマチ,富山県富山市問屋町
9300835,富山県,富山市,上冨居,トヤマケン,トヤマシ,カミフゴ,富山県富山市上冨居
9300836,富山県,富山市,上冨居新町,トヤマケン,トヤマシ,カミフゴシンマチ,富山県富山市上冨居新町
9300837,富山県,富山市,上赤江,トヤマケン,トヤマシ,カミアカエ,富山県富山市上赤江
9300838,富山県,富山市,下赤江,トヤマケン,トヤマシ,シモアカエ,富山県富山市下赤江
9300839,富山県,富山市,新冨居,トヤマケン,トヤマシ,シンフゴ,富山県富山市新冨居
9300841,富山県,富山市,四ツ葉町,トヤマケン,トヤマシ,ヨツバチョウ,富山県富山市四ツ葉町
9300842,富山県,富山市,窪新町,トヤマケン,トヤマシ,クボシンマチ,富山県富山市窪新町
9300843,富山県,富山市,窪本町,トヤマケン,トヤマシ,クボモトマチ,富山県富山市窪本町
9300845,富山県,富山市,綾田町,トヤマケン,トヤマシ,アイデンマチ,富山県富山市綾田町
9300846,富山県,富山市,奥井町,トヤマケン,トヤマシ,オクイマチ,富山県富山市奥井町
9300847,富山県,富山市,曙町,トヤマケン,トヤマシ,アケボノチョウ,富山県富山市曙町
9300848,富山県,富山市,久方町,トヤマケン,トヤマシ,ヒサカタチョウ,富山県富山市久方町
9300849,富山県,富山市,稲荷園町,トヤマケン,トヤマシ,イナリソノマチ,富山県富山市稲荷園町
9300851,富山県,富山市,奥田双葉町,トヤマケン,トヤマシ,オクダフタバチョウ,富山県富山市奥田双葉町
9300852,富山県,富山市,奥田寿町,トヤマケン,トヤマシ,オクダコトブキチョウ,富山県富山市奥田寿町
9300853,富山県,富山市,永楽町,トヤマケン,トヤマシ,エイラクチョウ,富山県富山市永楽町
9300854,富山県,富山市,城北町,トヤマケン,トヤマシ,ジョウホクマチ,富山県富山市城北町
9300855,富山県,富山市,赤江町,トヤマケン,トヤマシ,アカエマチ,富山県富山市赤江町
9300856,富山県,富山市,牛島新町,トヤマケン,トヤマシ,ウシジマシンマチ,富山県富山市牛島新町
9300857,富山県,富山市,奥田新町,トヤマケン,トヤマシ,オクダシンマチ,富山県富山市奥田新町
9300858,富山県,富山市,牛島町,トヤマケン,トヤマシ,ウシジマチョウ,富山県富山市牛島町
9300859,富山県,富山市,牛島本町,トヤマケン,トヤマシ,ウシジマホンマチ,富山県富山市牛島本町
9300861,富山県,富山市,有沢新町,トヤマケン,トヤマシ,アリサワシンマチ,富山県富山市有沢新町
9300862,富山県,富山市,有沢,トヤマケン,トヤマシ,アリサワ,富山県富山市有沢
9300863,富山県,富山市,有明町,トヤマケン,トヤマシ,アリアケチョウ,富山県富山市有明町
9300864,富山県,富山市,羽根,トヤマケン,トヤマシ,ハネ,富山県富山市羽根
9300865,富山県,富山市,久郷,トヤマケン,トヤマシ,クゴウ,富山県富山市久郷
9300866,富山県,富山市,高田,トヤマケン,トヤマシ,タカタ,富山県富山市高田
9300867,富山県,富山市,庄高田,トヤマケン,トヤマシ,ショウタカタ,富山県富山市庄高田
9300871,富山県,富山市,下野,トヤマケン,トヤマシ,シモノ,富山県富山市下野
9300872,富山県,富山市,下野新,トヤマケン,トヤマシ,シモノシン,富山県富山市下野新
9300873,富山県,富山市,金屋,トヤマケン,トヤマシ,カナヤ,富山県富山市金屋
9300874,富山県,富山市,寺町,トヤマケン,トヤマシ,テラマチ,富山県富山市寺町
9300875,富山県,富山市,寺町けや木台,トヤマケン,トヤマシ,テラマチケヤキダイ,富山県富山市寺町けや木台
9300876,富山県,富山市,文京町,トヤマケン,トヤマシ,ブンキョウマチ,富山県富山市文京町
9300881,富山県,富山市,安養坊,トヤマケン,トヤマシ,アンヨウボウ,富山県富山市安養坊
9300882,富山県,富山市,五艘,トヤマケン,トヤマシ,ゴソウ,富山県富山市五艘
9300883,富山県,富山市,五福新町,トヤマケン,トヤマシ,ゴフクシンマチ,富山県富山市五福新町
9300884,富山県,富山市,五福末広町,トヤマケン,トヤマシ,ゴフクスエヒロチョウ,富山県富山市五福末広町
9300885,富山県,富山市,鵯島,トヤマケン,トヤマシ,ヒヨドリジマ,富山県富山市鵯島
9300886,富山県,富山市,ひよどり南台,トヤマケン,トヤマシ,ヒヨドリミナミダイ,富山県富山市ひよどり南台
9300887,富山県,富山市,五福,トヤマケン,トヤマシ,ゴフク,富山県富山市五福
9300891,富山県,富山市,石坂新,トヤマケン,トヤマシ,イシサカシン,富山県富山市石坂新
9300892,富山県,富山市,石坂,トヤマケン,トヤマシ,イシサカ,富山県富山市石坂
9300893,富山県,富山市,石坂東町,トヤマケン,トヤマシ,イシサカヒガシマチ,富山県富山市石坂東町
9300894,富山県,富山市,田刈屋新町,トヤマケン,トヤマシ,タカリヤシンマチ,富山県富山市田刈屋新町
9300895,富山県,富山市,駒見,トヤマケン,トヤマシ,コマミ,富山県富山市駒見
9300896,富山県,富山市,畑中,トヤマケン,トヤマシ,ハタナカ,富山県富山市畑中
9300897,富山県,富山市,田刈屋,トヤマケン,トヤマシ,タカリヤ,富山県富山市田刈屋
9300898,富山県,富山市,桜谷みどり町,トヤマケン,トヤマシ,サクラダニミドリチョウ,富山県富山市桜谷みどり町
9300901,富山県,富山市,手屋,トヤマケン,トヤマシ,タヤ,富山県富山市手屋
9300902,富山県,富山市,宮成新,トヤマケン,トヤマシ,ミヤナリシン,富山県富山市宮成新
9300903,富山県,富山市,中野新,トヤマケン,トヤマシ,ナカノシン,富山県富山市中野新
9300904,富山県,富山市,一本木,トヤマケン,トヤマシ,イッポンギ,富山県富山市一本木
9300905,富山県,富山市,五本榎,トヤマケン,トヤマシ,ゴホンエノキ,富山県富山市五本榎
9300906,富山県,富山市,金泉寺,トヤマケン,トヤマシ,キンセンジ,富山県富山市金泉寺
9300911,富山県,富山市,本郷島,トヤマケン,トヤマシ,ホンゴウジマ,富山県富山市本郷島
9300912,富山県,富山市,日俣,トヤマケン,トヤマシ,ヒマタ,富山県富山市日俣
9300913,富山県,富山市,荏原新町,トヤマケン,トヤマシ,エバラシンマチ,富山県富山市荏原新町
9300914,富山県,富山市,荏原,トヤマケン,トヤマシ,エバラ,富山県富山市荏原
9300915,富山県,富山市,荏原駅前通り,トヤマケン,トヤマシ,エバラエキマエドオリ,富山県富山市荏原駅前通り
9300916,富山県,富山市,向新庄,トヤマケン,トヤマシ,ムカイシンジョウ,富山県富山市向新庄
9300916,富山県,富山市,向新庄町,トヤマケン,トヤマシ,ムカイシンジョウマチ,富山県富山市向新庄町
9300921,富山県,富山市,中間島,トヤマケン,トヤマシ,チュウゲンジマ,富山県富山市中間島
9300922,富山県,富山市,大江干,トヤマケン,トヤマシ,オオエボシ,富山県富山市大江干
9300923,富山県,富山市,町新,トヤマケン,トヤマシ,マチシン,富山県富山市町新
9300924,富山県,富山市,新金代,トヤマケン,トヤマシ,シンカナダイ,富山県富山市新金代
9300925,富山県,富山市,栄新町,トヤマケン,トヤマシ,サカエシンマチ,富山県富山市栄新町
9300926,富山県,富山市,金代,トヤマケン,トヤマシ,カナダイ,富山県富山市金代
9300927,富山県,富山市,大江干新町,トヤマケン,トヤマシ,オオエボシシンマチ,富山県富山市大江干新町
9300928,富山県,富山市,富岡町,トヤマケン,トヤマシ,トミオカチョウ,富山県富山市富岡町
9300931,富山県,富山市,朝日,トヤマケン,トヤマシ,アサヒ,富山県富山市朝日
9300932,富山県,富山市,藤木新町,トヤマケン,トヤマシ,フジノキシンマチ,富山県富山市藤木新町
9300933,富山県,富山市,藤木新,トヤマケン,トヤマシ,フジノキシン,富山県富山市藤木新
9300934,富山県,富山市,藤の木台,トヤマケン,トヤマシ,フジノキダイ,富山県富山市藤の木台
9300935,富山県,富山市,藤見町,トヤマケン,トヤマシ,フジミチョウ,富山県富山市藤見町
9300936,富山県,富山市,藤木,トヤマケン,トヤマシ,フジノキ,富山県富山市藤木
9300941,富山県,富山市,藤木中町,トヤマケン,トヤマシ,フジノキナカマチ,富山県富山市藤木中町
9300942,富山県,富山市,藤の木園町,トヤマケン,トヤマシ,フジノキソノマチ,富山県富山市藤の木園町
9300943,富山県,富山市,藤代町,トヤマケン,トヤマシ,フジシロチョウ,富山県富山市藤代町
9300944,富山県,富山市,開,トヤマケン,トヤマシ,ヒラキ,富山県富山市開
9300951,富山県,富山市,経堂,トヤマケン,トヤマシ,キョウドウ,富山県富山市経堂
9300952,富山県,富山市,町村,トヤマケン,トヤマシ,マチムラ,富山県富山市町村
9300953,富山県,富山市,秋吉,トヤマケン,トヤマシ,アキヨシ,富山県富山市秋吉
9300954,富山県,富山市,秋吉新町,トヤマケン,トヤマシ,アキヨシシンマチ,富山県富山市秋吉新町
9300955,富山県,富山市,天正寺,トヤマケン,トヤマシ,テンショウジ,富山県富山市天正寺
9300956,富山県,富山市,経堂新町,トヤマケン,トヤマシ,キョウドウシンマチ,富山県富山市経堂新町
9300961,富山県,富山市,西長江本町,トヤマケン,トヤマシ,ニシナガエホンマチ,富山県富山市西長江本町
9300962,富山県,富山市,長江本町,トヤマケン,トヤマシ,ナガエホンマチ,富山県富山市長江本町
9300963,富山県,富山市,不二越町,トヤマケン,トヤマシ,フジコシマチ,富山県富山市不二越町
9300964,富山県,富山市,東石金町,トヤマケン,トヤマシ,ヒガシイシガネマチ,富山県富山市東石金町
9300965,富山県,富山市,不二越本町,トヤマケン,トヤマシ,フジコシホンマチ,富山県富山市不二越本町
9300966,富山県,富山市,石金,トヤマケン,トヤマシ,イシガネ,富山県富山市石金
9300971,富山県,富山市,双代町,トヤマケン,トヤマシ,ソウタイマチ,富山県富山市双代町
9300972,富山県,富山市,長江新町,トヤマケン,トヤマシ,ナガエシンマチ,富山県富山市長江新町
9300973,富山県,富山市,長江東町,トヤマケン,トヤマシ,ナガエヒガシマチ,富山県富山市長江東町
9300974,富山県,富山市,長江,トヤマケン,トヤマシ,ナガエ,富山県富山市長江
9300975,富山県,富山市,西長江,トヤマケン,トヤマシ,ニシナガエ,富山県富山市西長江
9300981,富山県,富山市,西新庄,トヤマケン,トヤマシ,ニシシンジョウ,富山県富山市西新庄
9300982,富山県,富山市,荒川,トヤマケン,トヤマシ,アラカワ,富山県富山市荒川
9300983,富山県,富山市,常盤台,トヤマケン,トヤマシ,トキワダイ,富山県富山市常盤台
9300983,富山県,富山市,荒川常盤台,トヤマケン,トヤマシ,アラカワトキワダイ,富山県富山市荒川常盤台
9300984,富山県,富山市,荒川新町,トヤマケン,トヤマシ,アラカワシンマチ,富山県富山市荒川新町
9300985,富山県,富山市,田中町,トヤマケン,トヤマシ,タナカマチ,富山県富山市田中町
9300991,富山県,富山市,新庄銀座,トヤマケン,トヤマシ,シンジョウギンザ,富山県富山市新庄銀座
9300992,富山県,富山市,新庄町,トヤマケン,トヤマシ,シンジョウマチ,富山県富山市新庄町
9300993,富山県,富山市,新園町,トヤマケン,トヤマシ,シンソノマチ,富山県富山市新園町
9300994,富山県,富山市,新庄新町,トヤマケン,トヤマシ,シンジョウシンマチ,富山県富山市新庄新町
9300995,富山県,富山市,新庄中央町,トヤマケン,トヤマシ,シンジョウチュウオウマチ,富山県富山市新庄中央町
9300996,富山県,富山市,新庄本町,トヤマケン,トヤマシ,シンジョウホンマチ,富山県富山市新庄本町
9300997,富山県,富山市,新庄北町,トヤマケン,トヤマシ,シンジョウキタマチ,富山県富山市新庄北町
9301261,富山県,富山市,東福沢（津毛）,トヤマケン,トヤマシ,ヒガシフクサワ(ツゲ),富山県富山市東福沢（津毛）
9301262,富山県,富山市,東黒牧,トヤマケン,トヤマシ,ヒガシクロマキ,富山県富山市東黒牧
9301263,富山県,富山市,東黒牧（上野）,トヤマケン,トヤマシ,ヒガシクロマキ(ウワノ),富山県富山市東黒牧（上野）
9301264,富山県,富山市,大山布目,トヤマケン,トヤマシ,オオヤマヌノメ,富山県富山市大山布目
9301265,富山県,富山市,小谷,トヤマケン,トヤマシ,オタニ,富山県富山市小谷
9301266,富山県,富山市,砂見,トヤマケン,トヤマシ,スナミ,富山県富山市砂見
9301267,富山県,富山市,砂見（芋平）,トヤマケン,トヤマシ,スナミ(イモヒラ),富山県富山市砂見（芋平）
9301268,富山県,富山市,楜ケ原,トヤマケン,トヤマシ,クルミガハラ,富山県富山市楜ケ原
9301271,富山県,富山市,石渕,トヤマケン,トヤマシ,イシブチ,富山県富山市石渕
9301272,富山県,富山市,下双嶺,トヤマケン,トヤマシ,シモゾウレイ,富山県富山市下双嶺
9301273,富山県,富山市,小坂,トヤマケン,トヤマシ,コサカ,富山県富山市小坂
9301274,富山県,富山市,大双嶺,トヤマケン,トヤマシ,オオゾウレイ,富山県富山市大双嶺
9301275,富山県,富山市,大清水,トヤマケン,トヤマシ,オオシミズ,富山県富山市大清水
9301276,富山県,富山市,折谷,トヤマケン,トヤマシ,オリタニ,富山県富山市折谷
9301281,富山県,富山市,東福沢,トヤマケン,トヤマシ,ヒガシフクサワ,富山県富山市東福沢
9301282,富山県,富山市,牧野,トヤマケン,トヤマシ,マキノ,富山県富山市牧野
9301283,富山県,富山市,日尾,トヤマケン,トヤマシ,ヒオ,富山県富山市日尾
9301284,富山県,富山市,馬瀬,トヤマケン,トヤマシ,ウマノセ,富山県富山市馬瀬
9301285,富山県,富山市,瀬戸,トヤマケン,トヤマシ,セト,富山県富山市瀬戸
9301286,富山県,富山市,小佐波,トヤマケン,トヤマシ,オザナミ,富山県富山市小佐波
9301287,富山県,富山市,東福沢（火土呂）,トヤマケン,トヤマシ,ヒガシフクサワ(ヒドロ),富山県富山市東福沢（火土呂）
9301301,富山県,富山市,馬瀬口,トヤマケン,トヤマシ,マセグチ,富山県富山市馬瀬口
9301302,富山県,富山市,馬瀬口（殿様林）,トヤマケン,トヤマシ,マセグチ(トノサマバヤシ),富山県富山市馬瀬口（殿様林）
9301303,富山県,富山市,善名,トヤマケン,トヤマシ,ゼンナ,富山県富山市善名
9301304,富山県,富山市,南大場,トヤマケン,トヤマシ,ミナミオオバ,富山県富山市南大場
9301305,富山県,富山市,下番,トヤマケン,トヤマシ,シモノバン,富山県富山市下番
9301311,富山県,富山市,大山北新町,トヤマケン,トヤマシ,オオヤマキタシンマチ,富山県富山市大山北新町
9301312,富山県,富山市,上滝,トヤマケン,トヤマシ,カミダキ,富山県富山市上滝
9301313,富山県,富山市,中滝,トヤマケン,トヤマシ,ナカダキ,富山県富山市中滝
9301314,富山県,富山市,三室荒屋,トヤマケン,トヤマシ,ミムロアラヤ,富山県富山市三室荒屋
9301315,富山県,富山市,中番,トヤマケン,トヤマシ,ナカノバン,富山県富山市中番
9301316,富山県,富山市,三室荒屋（新栄町）,トヤマケン,トヤマシ,ミムロアラヤ(シンサカエマチ),富山県富山市三室荒屋（新栄町）
9301316,富山県,富山市,中番（新栄町）,トヤマケン,トヤマシ,ナカノバン(シンサカエマチ),富山県富山市中番（新栄町）
9301321,富山県,富山市,大山上野,トヤマケン,トヤマシ,オオヤマウワノ,富山県富山市大山上野
9301321,富山県,富山市,新町,トヤマケン,トヤマシ,アラマチ,富山県富山市新町
9301322,富山県,富山市,岡田,トヤマケン,トヤマシ,オカダ,富山県富山市岡田
9301323,富山県,富山市,東小俣,トヤマケン,トヤマシ,ヒガシオマタ,富山県富山市東小俣
9301324,富山県,富山市,西小俣,トヤマケン,トヤマシ,ニシオマタ,富山県富山市西小俣
9301325,富山県,富山市,文珠寺,トヤマケン,トヤマシ,モンジュジ,富山県富山市文珠寺
9301326,富山県,富山市,花崎,トヤマケン,トヤマシ,ハナサキ,富山県富山市花崎
9301327,富山県,富山市,大栗,トヤマケン,トヤマシ,オオグリ,富山県富山市大栗
9301328,富山県,富山市,小原屋,トヤマケン,トヤマシ,オハラヤ,富山県富山市小原屋
9301331,富山県,富山市,田畠,トヤマケン,トヤマシ,タバタケ,富山県富山市田畠
9301332,富山県,富山市,津羽見,トヤマケン,トヤマシ,ツワミ,富山県富山市津羽見
9301333,富山県,富山市,上大浦,トヤマケン,トヤマシ,カミオオウラ,富山県富山市上大浦
9301334,富山県,富山市,中大浦,トヤマケン,トヤマシ,ナカオオウラ,富山県富山市中大浦
9301335,富山県,富山市,下大浦,トヤマケン,トヤマシ,シモオオウラ,富山県富山市下大浦
9301336,富山県,富山市,桑原,トヤマケン,トヤマシ,クワハラ,富山県富山市桑原
9301337,富山県,富山市,田畠（風見台）,トヤマケン,トヤマシ,タバタケ(カザミダイ),富山県富山市田畠（風見台）
9301338,富山県,富山市,田畠（明日美野）,トヤマケン,トヤマシ,タバタケ(アスミノ),富山県富山市田畠（明日美野）
9301361,富山県,中新川郡立山町,下田,トヤマケン,ナカニイカワグンタテヤママチ,ミサダ,富山県中新川郡立山町下田
9301361,富山県,中新川郡立山町,伊豆林,トヤマケン,ナカニイカワグンタテヤママチ,イズバヤシ,富山県中新川郡立山町伊豆林
9301362,富山県,中新川郡立山町,吉峰野開,トヤマケン,ナカニイカワグンタテヤママチ,ヨシミネノビラキ,富山県中新川郡立山町吉峰野開
9301362,富山県,中新川郡立山町,米道（谷内、東谷）,トヤマケン,ナカニイカワグンタテヤママチ,ヨネミチ(タニウチ、ヒガシダニ),富山県中新川郡立山町米道（谷内、東谷）
9301363,富山県,中新川郡立山町,栃津,トヤマケン,ナカニイカワグンタテヤママチ,トチヅ,富山県中新川郡立山町栃津
9301364,富山県,中新川郡立山町,天林,トヤマケン,ナカニイカワグンタテヤママチ,テンバヤシ,富山県中新川郡立山町天林
9301365,富山県,中新川郡立山町,東中野新,トヤマケン,ナカニイカワグンタテヤママチ,ヒガシナカノシン,富山県中新川郡立山町東中野新
9301366,富山県,中新川郡立山町,横江野開,トヤマケン,ナカニイカワグンタテヤママチ,ヨコエノビラキ,富山県中新川郡立山町横江野開
9301367,富山県,中新川郡立山町,宮路,トヤマケン,ナカニイカワグンタテヤママチ,ミヤジ,富山県中新川郡立山町宮路
9301368,富山県,中新川郡立山町,岩峅寺,トヤマケン,ナカニイカワグンタテヤママチ,イワクラジ,富山県中新川郡立山町岩峅寺
9301369,富山県,中新川郡立山町,岩峅野,トヤマケン,ナカニイカワグンタテヤママチ,イワクラノ,富山県中新川郡立山町岩峅野
9301377,富山県,中新川郡立山町,横江（立山地区）,トヤマケン,ナカニイカワグンタテヤママチ,ヨコエ(タテヤマチク),富山県中新川郡立山町横江（立山地区）
9301401,富山県,中新川郡立山町,称名,トヤマケン,ナカニイカワグンタテヤママチ,ショウミョウ,富山県中新川郡立山町称名
9301402,富山県,中新川郡立山町,桂台,トヤマケン,ナカニイカワグンタテヤママチ,カツラダイ,富山県中新川郡立山町桂台
9301403,富山県,中新川郡立山町,ブナ坂,トヤマケン,ナカニイカワグンタテヤママチ,ブナザカ,富山県中新川郡立山町ブナ坂
9301404,富山県,中新川郡立山町,藤橋,トヤマケン,ナカニイカワグンタテヤママチ,フジバシ,富山県中新川郡立山町藤橋
9301405,富山県,中新川郡立山町,千寿ケ原,トヤマケン,ナカニイカワグンタテヤママチ,センジュガハラ,富山県中新川郡立山町千寿ケ原
9301406,富山県,中新川郡立山町,芦峅寺,トヤマケン,ナカニイカワグンタテヤママチ,アシクラジ,富山県中新川郡立山町芦峅寺
9301407,富山県,中新川郡立山町,前谷,トヤマケン,ナカニイカワグンタテヤママチ,マエタニ,富山県中新川郡立山町前谷
9301408,富山県,中新川郡立山町,千垣,トヤマケン,ナカニイカワグンタテヤママチ,チガキ,富山県中新川郡立山町千垣
9301411,富山県,中新川郡立山町,美女平,トヤマケン,ナカニイカワグンタテヤママチ,ビジョダイラ,富山県中新川郡立山町美女平
9301412,富山県,中新川郡立山町,弥陀ケ原,トヤマケン,ナカニイカワグンタテヤママチ,ミダガハラ,富山県中新川郡立山町弥陀ケ原
9301413,富山県,中新川郡立山町,天狗平,トヤマケン,ナカニイカワグンタテヤママチ,テングダイラ,富山県中新川郡立山町天狗平
9301414,富山県,中新川郡立山町,室堂,トヤマケン,ナカニイカワグンタテヤママチ,ムロドウ,富山県中新川郡立山町室堂
9301415,富山県,中新川郡立山町,雷鳥沢,トヤマケン,ナカニイカワグンタテヤママチ,ライチョウザワ,富山県中新川郡立山町雷鳥沢
9301416,富山県,中新川郡立山町,剣御前,トヤマケン,ナカニイカワグンタテヤママチ,ツルギゴゼン,富山県中新川郡立山町剣御前
9301417,富山県,中新川郡立山町,剣沢,トヤマケン,ナカニイカワグンタテヤママチ,ツルギサワ,富山県中新川郡立山町剣沢
9301418,富山県,中新川郡立山町,立山頂上,トヤマケン,ナカニイカワグンタテヤママチ,タテヤマチョウジョウ,富山県中新川郡立山町立山頂上
9301451,富山県,富山市,本宮（粟巣野）,トヤマケン,トヤマシ,ホングウ(アワスノ),富山県富山市本宮（粟巣野）
9301452,富山県,富山市,本宮（花切割）,トヤマケン,トヤマシ,ホングウ(ハナキリワリ),富山県富山市本宮（花切割）
9301453,富山県,富山市,原（極楽坂）,トヤマケン,トヤマシ,ハラ(ゴクラクザカ),富山県富山市原（極楽坂）
9301454,富山県,富山市,原,トヤマケン,トヤマシ,ハラ,富山県富山市原
9301455,富山県,富山市,本宮,トヤマケン,トヤマシ,ホングウ,富山県富山市本宮
9301456,富山県,富山市,小見,トヤマケン,トヤマシ,オミ,富山県富山市小見
9301457,富山県,富山市,有峰（太郎平）,トヤマケン,トヤマシ,アリミネ(タロウダイラ),富山県富山市有峰（太郎平）
9301458,富山県,富山市,有峰,トヤマケン,トヤマシ,アリミネ,富山県富山市有峰
9301459,富山県,富山市,亀谷,トヤマケン,トヤマシ,カメガイ,富山県富山市亀谷
9301461,富山県,富山市,和田,トヤマケン,トヤマシ,ワダ,富山県富山市和田
9301462,富山県,富山市,中地山,トヤマケン,トヤマシ,ナカチヤマ,富山県富山市中地山
9301463,富山県,富山市,水須,トヤマケン,トヤマシ,ミズス,富山県富山市水須
9301464,富山県,富山市,才覚地,トヤマケン,トヤマシ,サイカクチ,富山県富山市才覚地
9301465,富山県,富山市,牧,トヤマケン,トヤマシ,マキ,富山県富山市牧
9301466,富山県,富山市,大山松木,トヤマケン,トヤマシ,オオヤママツノキ,富山県富山市大山松木
9302101,富山県,富山市,山田中瀬,トヤマケン,トヤマシ,ヤマダナカノセ,富山県富山市山田中瀬
9302102,富山県,富山市,山田宿坊,トヤマケン,トヤマシ,ヤマダスクボウ,富山県富山市山田宿坊
9302103,富山県,富山市,山田宿坊（柳川）,トヤマケン,トヤマシ,ヤマダスクボウ(ヤナイゴ),富山県富山市山田宿坊（柳川）
9302104,富山県,富山市,山田宿坊（沢連）,トヤマケン,トヤマシ,ヤマダスクボウ(ソウレ),富山県富山市山田宿坊（沢連）
9302105,富山県,富山市,山田湯,トヤマケン,トヤマシ,ヤマダユ,富山県富山市山田湯
9302106,富山県,富山市,山田北山,トヤマケン,トヤマシ,ヤマダキタヤマ,富山県富山市山田北山
9302107,富山県,富山市,山田中瀬（竹の内）,トヤマケン,トヤマシ,ヤマダナカノセ(タケノウチ),富山県富山市山田中瀬（竹の内）
9302108,富山県,富山市,山田中瀬（上中瀬）,トヤマケン,トヤマシ,ヤマダナカノセ(カミナカノセ),富山県富山市山田中瀬（上中瀬）
9302111,富山県,富山市,山田鎌倉,トヤマケン,トヤマシ,ヤマダカマクラ,富山県富山市山田鎌倉
9302112,富山県,富山市,山田若土,トヤマケン,トヤマシ,ヤマダワカヅチ,富山県富山市山田若土
9302113,富山県,富山市,山田谷,トヤマケン,トヤマシ,ヤマダタニ,富山県富山市山田谷
9302114,富山県,富山市,山田居舟,トヤマケン,トヤマシ,ヤマダイブネ,富山県富山市山田居舟
9302114,富山県,富山市,山田鍋谷,トヤマケン,トヤマシ,ヤマダナベタニ,富山県富山市山田鍋谷
9302115,富山県,富山市,山田小谷,トヤマケン,トヤマシ,ヤマダコダニ,富山県富山市山田小谷
9302116,富山県,富山市,山田小谷（中根）,トヤマケン,トヤマシ,ヤマダコダニ(ナカネ),富山県富山市山田小谷（中根）
9302117,富山県,富山市,山田赤目谷,トヤマケン,トヤマシ,ヤマダアカメダニ,富山県富山市山田赤目谷
9302121,富山県,富山市,山田白井谷,トヤマケン,トヤマシ,ヤマダシロイダニ,富山県富山市山田白井谷
9302122,富山県,富山市,山田小島（城山）,トヤマケン,トヤマシ,ヤマダコジマ(ジョウヤマ),富山県富山市山田小島（城山）
9302123,富山県,富山市,山田小島,トヤマケン,トヤマシ,ヤマダコジマ,富山県富山市山田小島
9302124,富山県,富山市,山田中村,トヤマケン,トヤマシ,ヤマダナカムラ,富山県富山市山田中村
9302125,富山県,富山市,山田今山田,トヤマケン,トヤマシ,ヤマダイマヤマダ,富山県富山市山田今山田
9302126,富山県,富山市,山田清水,トヤマケン,トヤマシ,ヤマダショウズ,富山県富山市山田清水
9302127,富山県,富山市,山田牧,トヤマケン,トヤマシ,ヤマダマキ,富山県富山市山田牧
9302128,富山県,富山市,山田沼又,トヤマケン,トヤマシ,ヤマダヌマノマタ,富山県富山市山田沼又
9302201,富山県,富山市,草島,トヤマケン,トヤマシ,クサジマ,富山県富山市草島
9302202,富山県,富山市,富浦町,トヤマケン,トヤマシ,トミウラマチ,富山県富山市富浦町
9302203,富山県,富山市,新千原崎,トヤマケン,トヤマシ,シンチハラザキ,富山県富山市新千原崎
9302204,富山県,富山市,金山新桜ケ丘,トヤマケン,トヤマシ,カナヤマシンサクラガオカ,富山県富山市金山新桜ケ丘
9302205,富山県,富山市,金山新東,トヤマケン,トヤマシ,カナヤマシンヒガシ,富山県富山市金山新東
9302206,富山県,富山市,金山新,トヤマケン,トヤマシ,カナヤマシン,富山県富山市金山新
9302206,富山県,富山市,金山新中,トヤマケン,トヤマシ,カナヤマシンナカ,富山県富山市金山新中
9302206,富山県,富山市,金山新北,トヤマケン,トヤマシ,カナヤマシンキタ,富山県富山市金山新北
9302206,富山県,富山市,金山新南,トヤマケン,トヤマシ,カナヤマシンミナミ,富山県富山市金山新南
9302206,富山県,富山市,金山新西,トヤマケン,トヤマシ,カナヤマシンニシ,富山県富山市金山新西
9302207,富山県,富山市,草島新町,トヤマケン,トヤマシ,クサジマシンマチ,富山県富山市草島新町
9302208,富山県,富山市,古川,トヤマケン,トヤマシ,フルカワ,富山県富山市古川
9302211,富山県,富山市,宮尾,トヤマケン,トヤマシ,ミヤオ,富山県富山市宮尾
9302212,富山県,富山市,松木新,トヤマケン,トヤマシ,マツノキシン,富山県富山市松木新
9302213,富山県,富山市,松木,トヤマケン,トヤマシ,マツノキ,富山県富山市松木
9302214,富山県,富山市,百塚,トヤマケン,トヤマシ,ヒャクヅカ,富山県富山市百塚
9302215,富山県,富山市,山岸,トヤマケン,トヤマシ,ヤマギシ,富山県富山市山岸
9302221,富山県,富山市,今市,トヤマケン,トヤマシ,イマイチ,富山県富山市今市
9302222,富山県,富山市,八幡,トヤマケン,トヤマシ,ヤハタ,富山県富山市八幡
9302223,富山県,富山市,八幡新町,トヤマケン,トヤマシ,ヤハタシンマチ,富山県富山市八幡新町
9302224,富山県,富山市,田尻,トヤマケン,トヤマシ,タノシリ,富山県富山市田尻
9302224,富山県,富山市,田尻南,トヤマケン,トヤマシ,タノシリミナミ,富山県富山市田尻南
9302224,富山県,富山市,田尻東,トヤマケン,トヤマシ,タノシリヒガシ,富山県富山市田尻東
9302224,富山県,富山市,田尻西,トヤマケン,トヤマシ,タノシリニシ,富山県富山市田尻西
9302225,富山県,富山市,寺島,トヤマケン,トヤマシ,テラシマ,富山県富山市寺島
9302226,富山県,富山市,八町,トヤマケン,トヤマシ,ハッチョウ,富山県富山市八町
9302226,富山県,富山市,八町中,トヤマケン,トヤマシ,ハッチョウナカ,富山県富山市八町中
9302226,富山県,富山市,八町北,トヤマケン,トヤマシ,ハッチョウキタ,富山県富山市八町北
9302226,富山県,富山市,八町南,トヤマケン,トヤマシ,ハッチョウミナミ,富山県富山市八町南
9302226,富山県,富山市,八町東,トヤマケン,トヤマシ,ハッチョウヒガシ,富山県富山市八町東
9302226,富山県,富山市,八町西,トヤマケン,トヤマシ,ハッチョウニシ,富山県富山市八町西
9302227,富山県,富山市,利波,トヤマケン,トヤマシ,トナミ,富山県富山市利波
9302231,富山県,富山市,布目東町,トヤマケン,トヤマシ,ヌノメヒガシマチ,富山県富山市布目東町
9302232,富山県,富山市,布目南町,トヤマケン,トヤマシ,ヌノメミナミマチ,富山県富山市布目南町
9302233,富山県,富山市,布目,トヤマケン,トヤマシ,ヌノメ,富山県富山市布目
9302233,富山県,富山市,布目北,トヤマケン,トヤマシ,ヌノメキタ,富山県富山市布目北
9302233,富山県,富山市,布目西,トヤマケン,トヤマシ,ヌノメニシ,富山県富山市布目西
9302234,富山県,富山市,布目緑町,トヤマケン,トヤマシ,ヌノメミドリマチ,富山県富山市布目緑町
9302235,富山県,富山市,布目新町,トヤマケン,トヤマシ,ヌノメシンマチ,富山県富山市布目新町
9302236,富山県,富山市,布目旭,トヤマケン,トヤマシ,ヌノメアサヒ,富山県富山市布目旭
9302237,富山県,富山市,打出,トヤマケン,トヤマシ,ウチイデ,富山県富山市打出
9302238,富山県,富山市,打出新,トヤマケン,トヤマシ,ウチイデシン,富山県富山市打出新
9302239,富山県,富山市,つばめ野,トヤマケン,トヤマシ,ツバメノ,富山県富山市つばめ野
9302241,富山県,富山市,四方西岩瀬,トヤマケン,トヤマシ,ヨカタニシイワセ,富山県富山市四方西岩瀬
9302242,富山県,富山市,四方北窪,トヤマケン,トヤマシ,ヨカタキタクボ,富山県富山市四方北窪
9302243,富山県,富山市,四方,トヤマケン,トヤマシ,ヨカタ,富山県富山市四方
9302243,富山県,富山市,四方荒屋,トヤマケン,トヤマシ,ヨカタアラヤ,富山県富山市四方荒屋
9302244,富山県,富山市,四方茶園町,トヤマケン,トヤマシ,ヨカタチャエンマチ,富山県富山市四方茶園町
9302245,富山県,富山市,四方江代町,トヤマケン,トヤマシ,ヨカタエダイマチ,富山県富山市四方江代町
9302246,富山県,富山市,四方新,トヤマケン,トヤマシ,ヨカタシン,富山県富山市四方新
9302247,富山県,富山市,四方新出町,トヤマケン,トヤマシ,ヨカタシンデマチ,富山県富山市四方新出町
9302248,富山県,富山市,四方南町,トヤマケン,トヤマシ,ヨカタミナミマチ,富山県富山市四方南町
9302251,富山県,富山市,四方東野割町,トヤマケン,トヤマシ,ヨカタヒガシノワリマチ,富山県富山市四方東野割町
9302252,富山県,富山市,四方西野割町,トヤマケン,トヤマシ,ヨカタニシノワリマチ,富山県富山市四方西野割町
9302252,富山県,富山市,四方野割町,トヤマケン,トヤマシ,ヨカタノワリマチ,富山県富山市四方野割町
9302253,富山県,富山市,四方田町,トヤマケン,トヤマシ,ヨカタタマチ,富山県富山市四方田町
9302254,富山県,富山市,四方神明町,トヤマケン,トヤマシ,ヨカタシンメイマチ,富山県富山市四方神明町
9302255,富山県,富山市,四方一番町,トヤマケン,トヤマシ,ヨカタイチバンマチ,富山県富山市四方一番町
9302256,富山県,富山市,四方港町,トヤマケン,トヤマシ,ヨカタミナトマチ,富山県富山市四方港町
9302257,富山県,富山市,四方二番町,トヤマケン,トヤマシ,ヨカタニバンマチ,富山県富山市四方二番町
9302258,富山県,富山市,四方恵比須町,トヤマケン,トヤマシ,ヨカタエビスマチ,富山県富山市四方恵比須町
9303201,富山県,中新川郡立山町,高原,トヤマケン,ナカニイカワグンタテヤママチ,タカハラ,富山県中新川郡立山町高原
9303202,富山県,中新川郡立山町,女川新,トヤマケン,ナカニイカワグンタテヤママチ,オナガワシン,富山県中新川郡立山町女川新
9303203,富山県,中新川郡立山町,上福来,トヤマケン,ナカニイカワグンタテヤママチ,カミフクライ,富山県中新川郡立山町上福来
9303204,富山県,中新川郡立山町,東野,トヤマケン,ナカニイカワグンタテヤママチ,ヒガシノ,富山県中新川郡立山町東野
9303205,富山県,中新川郡立山町,福来,トヤマケン,ナカニイカワグンタテヤママチ,フクライ,富山県中新川郡立山町福来
9303206,富山県,中新川郡立山町,竹林,トヤマケン,ナカニイカワグンタテヤママチ,タケバヤシ,富山県中新川郡立山町竹林
9303208,富山県,中新川郡立山町,下新,トヤマケン,ナカニイカワグンタテヤママチ,シモシン,富山県中新川郡立山町下新
9303211,富山県,中新川郡立山町,日中,トヤマケン,ナカニイカワグンタテヤママチ,ニッチュウ,富山県中新川郡立山町日中
9303212,富山県,中新川郡立山町,柴山,トヤマケン,ナカニイカワグンタテヤママチ,シバヤマ,富山県中新川郡立山町柴山
9303213,富山県,中新川郡立山町,日中上野,トヤマケン,ナカニイカワグンタテヤママチ,ニッチュウウワノ,富山県中新川郡立山町日中上野
9303214,富山県,中新川郡立山町,下白岩,トヤマケン,ナカニイカワグンタテヤママチ,シモシライワ,富山県中新川郡立山町下白岩
9303215,富山県,中新川郡立山町,石坂,トヤマケン,ナカニイカワグンタテヤママチ,イシザカ,富山県中新川郡立山町石坂
9303216,富山県,中新川郡立山町,福田,トヤマケン,ナカニイカワグンタテヤママチ,フクタ,富山県中新川郡立山町福田
9303217,富山県,中新川郡立山町,野沢,トヤマケン,ナカニイカワグンタテヤママチ,ノザワ,富山県中新川郡立山町野沢
9303221,富山県,中新川郡立山町,四谷尾,トヤマケン,ナカニイカワグンタテヤママチ,シダニオ,富山県中新川郡立山町四谷尾
9303222,富山県,中新川郡立山町,谷口,トヤマケン,ナカニイカワグンタテヤママチ,タニグチ,富山県中新川郡立山町谷口
9303223,富山県,中新川郡立山町,虫谷,トヤマケン,ナカニイカワグンタテヤママチ,ムシタニ,富山県中新川郡立山町虫谷
9303224,富山県,中新川郡立山町,白岩,トヤマケン,ナカニイカワグンタテヤママチ,シライワ,富山県中新川郡立山町白岩
9303231,富山県,中新川郡立山町,六郎谷,トヤマケン,ナカニイカワグンタテヤママチ,ロクロウダニ,富山県中新川郡立山町六郎谷
9303232,富山県,中新川郡立山町,目桑,トヤマケン,ナカニイカワグンタテヤママチ,メッカ,富山県中新川郡立山町目桑
9303233,富山県,中新川郡立山町,谷,トヤマケン,ナカニイカワグンタテヤママチ,タニ,富山県中新川郡立山町谷
9303234,富山県,中新川郡立山町,伊勢屋,トヤマケン,ナカニイカワグンタテヤママチ,イセヤ,富山県中新川郡立山町伊勢屋
9303235,富山県,中新川郡立山町,長倉,トヤマケン,ナカニイカワグンタテヤママチ,ナガクラ,富山県中新川郡立山町長倉
9303236,富山県,中新川郡立山町,小又,トヤマケン,ナカニイカワグンタテヤママチ,オマタ,富山県中新川郡立山町小又
9303237,富山県,中新川郡立山町,松倉,トヤマケン,ナカニイカワグンタテヤママチ,マツクラ,富山県中新川郡立山町松倉
9303238,富山県,中新川郡立山町,座主坊,トヤマケン,ナカニイカワグンタテヤママチ,ザシュウボウ,富山県中新川郡立山町座主坊
9303239,富山県,中新川郡立山町,池田,トヤマケン,ナカニイカワグンタテヤママチ,イケダ,富山県中新川郡立山町池田
9303241,富山県,中新川郡立山町,下沢,トヤマケン,ナカニイカワグンタテヤママチ,シモザワ,富山県中新川郡立山町下沢
9303242,富山県,中新川郡立山町,芦見,トヤマケン,ナカニイカワグンタテヤママチ,アシミ,富山県中新川郡立山町芦見
9303243,富山県,中新川郡立山町,下瀬戸,トヤマケン,ナカニイカワグンタテヤママチ,シモセト,富山県中新川郡立山町下瀬戸
9303244,富山県,中新川郡立山町,上瀬戸,トヤマケン,ナカニイカワグンタテヤママチ,カミセト,富山県中新川郡立山町上瀬戸
9303245,富山県,中新川郡立山町,上末,トヤマケン,ナカニイカワグンタテヤママチ,ウワズエ,富山県中新川郡立山町上末
9303246,富山県,中新川郡立山町,中林,トヤマケン,ナカニイカワグンタテヤママチ,ナカバヤシ,富山県中新川郡立山町中林
9303247,富山県,中新川郡立山町,瀬戸新,トヤマケン,ナカニイカワグンタテヤママチ,セトシン,富山県中新川郡立山町瀬戸新
9303248,富山県,中新川郡立山町,新瀬戸,トヤマケン,ナカニイカワグンタテヤママチ,シンセト,富山県中新川郡立山町新瀬戸
9303251,富山県,中新川郡立山町,上中,トヤマケン,ナカニイカワグンタテヤママチ,カミナカ,富山県中新川郡立山町上中
9303252,富山県,中新川郡立山町,末上野,トヤマケン,ナカニイカワグンタテヤママチ,スエウワノ,富山県中新川郡立山町末上野
9303253,富山県,中新川郡立山町,長屋,トヤマケン,ナカニイカワグンタテヤママチ,ナガヤ,富山県中新川郡立山町長屋
9303254,富山県,中新川郡立山町,上宮,トヤマケン,ナカニイカワグンタテヤママチ,カミミヤ,富山県中新川郡立山町上宮
9303255,富山県,中新川郡立山町,小林,トヤマケン,ナカニイカワグンタテヤママチ,コバヤシ,富山県中新川郡立山町小林
9303261,富山県,中新川郡立山町,野町,トヤマケン,ナカニイカワグンタテヤママチ,ノマチ,富山県中新川郡立山町野町
9303262,富山県,中新川郡立山町,金剛新,トヤマケン,ナカニイカワグンタテヤママチ,コンゴウシン,富山県中新川郡立山町金剛新
9303263,富山県,中新川郡立山町,渕上,トヤマケン,ナカニイカワグンタテヤママチ,フチガミ,富山県中新川郡立山町渕上
9303264,富山県,中新川郡立山町,沢新,トヤマケン,ナカニイカワグンタテヤママチ,サワシン,富山県中新川郡立山町沢新
9303265,富山県,中新川郡立山町,米沢,トヤマケン,ナカニイカワグンタテヤママチ,ヨネザワ,富山県中新川郡立山町米沢
9303266,富山県,中新川郡立山町,前沢新,トヤマケン,ナカニイカワグンタテヤママチ,マエザワシン,富山県中新川郡立山町前沢新
9303267,富山県,中新川郡立山町,江崎,トヤマケン,ナカニイカワグンタテヤママチ,エサキ,富山県中新川郡立山町江崎
9303277,富山県,中新川郡立山町,横江（高野地区）,トヤマケン,ナカニイカワグンタテヤママチ,ヨコエ(タカノチク),富山県中新川郡立山町横江（高野地区）
9318301,富山県,富山市,水落,トヤマケン,トヤマシ,ミズオチ,富山県富山市水落
9318302,富山県,富山市,緑陽町,トヤマケン,トヤマシ,リョクヨウマチ,富山県富山市緑陽町
9318303,富山県,富山市,米田,トヤマケン,トヤマシ,ヨネダ,富山県富山市米田
9318304,富山県,富山市,米田町,トヤマケン,トヤマシ,ヨネダマチ,富山県富山市米田町
9318305,富山県,富山市,豊若町,トヤマケン,トヤマシ,トヨワカチョウ,富山県富山市豊若町
9318306,富山県,富山市,米田すずかけ台,トヤマケン,トヤマシ,ヨネダスズカケダイ,富山県富山市米田すずかけ台
9318311,富山県,富山市,豊田,トヤマケン,トヤマシ,トヨタ,富山県富山市豊田
9318312,富山県,富山市,豊田本町,トヤマケン,トヤマシ,トヨタホンマチ,富山県富山市豊田本町
9318313,富山県,富山市,豊田町,トヤマケン,トヤマシ,トヨタマチ,富山県富山市豊田町
9318314,富山県,富山市,粟島町,トヤマケン,トヤマシ,アワジママチ,富山県富山市粟島町
9318315,富山県,富山市,高園町,トヤマケン,トヤマシ,タカゾノチョウ,富山県富山市高園町
9318316,富山県,富山市,豊丘町,トヤマケン,トヤマシ,トヨオカチョウ,富山県富山市豊丘町
9318321,富山県,富山市,犬島,トヤマケン,トヤマシ,イヌジマ,富山県富山市犬島
9318322,富山県,富山市,豊島町,トヤマケン,トヤマシ,トヨシマチョウ,富山県富山市豊島町
9318323,富山県,富山市,豊城新町,トヤマケン,トヤマシ,トヨシロシンマチ,富山県富山市豊城新町
9318324,富山県,富山市,豊城町,トヤマケン,トヤマシ,トヨシロチョウ,富山県富山市豊城町
9318325,富山県,富山市,城川原,トヤマケン,トヤマシ,ジョウガワラ,富山県富山市城川原
9318326,富山県,富山市,上野新町,トヤマケン,トヤマシ,ウワノシンマチ,富山県富山市上野新町
9318327,富山県,富山市,上野新,トヤマケン,トヤマシ,ウワノシン,富山県富山市上野新
9318328,富山県,富山市,犬島新町,トヤマケン,トヤマシ,イヌジマシンマチ,富山県富山市犬島新町
9318331,富山県,富山市,森住町,トヤマケン,トヤマシ,モリズミチョウ,富山県富山市森住町
9318332,富山県,富山市,森,トヤマケン,トヤマシ,モリ,富山県富山市森
9318333,富山県,富山市,蓮町,トヤマケン,トヤマシ,ハスマチ,富山県富山市蓮町
9318334,富山県,富山市,千原崎,トヤマケン,トヤマシ,チハラザキ,富山県富山市千原崎
9318335,富山県,富山市,西宮町,トヤマケン,トヤマシ,ニシノミヤマチ,富山県富山市西宮町
9318336,富山県,富山市,高畠町,トヤマケン,トヤマシ,タカバタケマチ,富山県富山市高畠町
9318337,富山県,富山市,森若町,トヤマケン,トヤマシ,モリワカチョウ,富山県富山市森若町
9318341,富山県,富山市,岩瀬御蔵町,トヤマケン,トヤマシ,イワセオクラマチ,富山県富山市岩瀬御蔵町
9318342,富山県,富山市,岩瀬神明町,トヤマケン,トヤマシ,イワセシンメイチョウ,富山県富山市岩瀬神明町
9318343,富山県,富山市,岩瀬幸町,トヤマケン,トヤマシ,イワセサイワイチョウ,富山県富山市岩瀬幸町
9318344,富山県,富山市,岩瀬新町,トヤマケン,トヤマシ,イワセシンマチ,富山県富山市岩瀬新町
9318345,富山県,富山市,西宮,トヤマケン,トヤマシ,ニシミヤ,富山県富山市西宮
9318346,富山県,富山市,岩瀬荒木町,トヤマケン,トヤマシ,イワセアラキマチ,富山県富山市岩瀬荒木町
9318347,富山県,富山市,岩瀬土場町,トヤマケン,トヤマシ,イワセドバマチ,富山県富山市岩瀬土場町
9318351,富山県,富山市,岩瀬堺町,トヤマケン,トヤマシ,イワセサカイマチ,富山県富山市岩瀬堺町
9318352,富山県,富山市,岩瀬表町,トヤマケン,トヤマシ,イワセオモテマチ,富山県富山市岩瀬表町
9318353,富山県,富山市,岩瀬文化町,トヤマケン,トヤマシ,イワセブンカマチ,富山県富山市岩瀬文化町
9318354,富山県,富山市,岩瀬祇園町,トヤマケン,トヤマシ,イワセギオンマチ,富山県富山市岩瀬祇園町
9318355,富山県,富山市,岩瀬新川町,トヤマケン,トヤマシ,イワセニイカワチョウ,富山県富山市岩瀬新川町
9318356,富山県,富山市,岩瀬大町,トヤマケン,トヤマシ,イワセオオマチ,富山県富山市岩瀬大町
9318357,富山県,富山市,岩瀬福来町,トヤマケン,トヤマシ,イワセフクライマチ,富山県富山市岩瀬福来町
9318358,富山県,富山市,東岩瀬町,トヤマケン,トヤマシ,ヒガシイワセマチ,富山県富山市東岩瀬町
9318359,富山県,富山市,東岩瀬村,トヤマケン,トヤマシ,ヒガシイワセムラ,富山県富山市東岩瀬村
9318361,富山県,富山市,岩瀬白山町,トヤマケン,トヤマシ,イワセハクサンマチ,富山県富山市岩瀬白山町
9318362,富山県,富山市,岩瀬梅本町,トヤマケン,トヤマシ,イワセウメモトチョウ,富山県富山市岩瀬梅本町
9318363,富山県,富山市,岩瀬仲町,トヤマケン,トヤマシ,イワセナカチョウ,富山県富山市岩瀬仲町
9318364,富山県,富山市,岩瀬港町,トヤマケン,トヤマシ,イワセミナトマチ,富山県富山市岩瀬港町
9318365,富山県,富山市,岩瀬入船町,トヤマケン,トヤマシ,イワセイリフネチョウ,富山県富山市岩瀬入船町
9318366,富山県,富山市,岩瀬萩浦町,トヤマケン,トヤマシ,イワセハギウラマチ,富山県富山市岩瀬萩浦町
9318367,富山県,富山市,岩瀬松原町,トヤマケン,トヤマシ,イワセマツバラチョウ,富山県富山市岩瀬松原町
9318371,富山県,富山市,岩瀬古志町,トヤマケン,トヤマシ,イワセコシマチ,富山県富山市岩瀬古志町
9318372,富山県,富山市,岩瀬天池町,トヤマケン,トヤマシ,イワセアマイケチョウ,富山県富山市岩瀬天池町
9318373,富山県,富山市,岩瀬前田町,トヤマケン,トヤマシ,イワセマエダマチ,富山県富山市岩瀬前田町
9318374,富山県,富山市,岩瀬赤田町,トヤマケン,トヤマシ,イワセアカダマチ,富山県富山市岩瀬赤田町
9318375,富山県,富山市,岩瀬高畠町,トヤマケン,トヤマシ,イワセタカバタケマチ,富山県富山市岩瀬高畠町
9318376,富山県,富山市,岩瀬池田町,トヤマケン,トヤマシ,イワセイケダマチ,富山県富山市岩瀬池田町
9318377,富山県,富山市,岩瀬諏訪町,トヤマケン,トヤマシ,イワセスワマチ,富山県富山市岩瀬諏訪町
9318378,富山県,富山市,岩瀬天神町,トヤマケン,トヤマシ,イワセテンジンマチ,富山県富山市岩瀬天神町
9318401,富山県,富山市,田畑新町,トヤマケン,トヤマシ,タバタシンマチ,富山県富山市田畑新町
9318402,富山県,富山市,田畑北部,トヤマケン,トヤマシ,タバタホクブ,富山県富山市田畑北部
9318403,富山県,富山市,田畑,トヤマケン,トヤマシ,タバタ,富山県富山市田畑
9318404,富山県,富山市,加古町,トヤマケン,トヤマシ,カコマチ,富山県富山市加古町
9318405,富山県,富山市,海岸通,トヤマケン,トヤマシ,カイガンドオリ,富山県富山市海岸通
9318406,富山県,富山市,松浦町,トヤマケン,トヤマシ,マツウラチョウ,富山県富山市松浦町
9318407,富山県,富山市,海岸通新町,トヤマケン,トヤマシ,カイガンドオリシンマチ,富山県富山市海岸通新町
9318408,富山県,富山市,那智町,トヤマケン,トヤマシ,ナチマチ,富山県富山市那智町
9318409,富山県,富山市,清風町,トヤマケン,トヤマシ,セイフウチョウ,富山県富山市清風町
9318411,富山県,富山市,高来,トヤマケン,トヤマシ,コウライ,富山県富山市高来
9318412,富山県,富山市,横越,トヤマケン,トヤマシ,ヨコゴシ,富山県富山市横越
9318413,富山県,富山市,野田,トヤマケン,トヤマシ,ノダ,富山県富山市野田
9318414,富山県,富山市,浜黒崎,トヤマケン,トヤマシ,ハマクロサキ,富山県富山市浜黒崎
9318415,富山県,富山市,針日,トヤマケン,トヤマシ,ハリヒ,富山県富山市針日
9318416,富山県,富山市,日方江,トヤマケン,トヤマシ,ヒカタエ,富山県富山市日方江
9318417,富山県,富山市,古志町,トヤマケン,トヤマシ,コシマチ,富山県富山市古志町
9318421,富山県,富山市,平榎,トヤマケン,トヤマシ,ヒラエノキ,富山県富山市平榎
9318422,富山県,富山市,野中,トヤマケン,トヤマシ,ノナカ,富山県富山市野中
9318423,富山県,富山市,町袋,トヤマケン,トヤマシ,マチブクロ,富山県富山市町袋
9318425,富山県,富山市,宮成,トヤマケン,トヤマシ,ミヤナリ,富山県富山市宮成
9318426,富山県,富山市,宮成中部,トヤマケン,トヤマシ,ミヤナリチュウブ,富山県富山市宮成中部
9318427,富山県,富山市,宮条,トヤマケン,トヤマシ,ミヤジョウ,富山県富山市宮条
9318428,富山県,富山市,野中新,トヤマケン,トヤマシ,ノナカシン,富山県富山市野中新
9318431,富山県,富山市,針原中町,トヤマケン,トヤマシ,ハリワラナカマチ,富山県富山市針原中町
9318432,富山県,富山市,針原中,トヤマケン,トヤマシ,ハリワラナカ,富山県富山市針原中
9318433,富山県,富山市,針原新町,トヤマケン,トヤマシ,ハリワラシンマチ,富山県富山市針原新町
9318434,富山県,富山市,三上,トヤマケン,トヤマシ,ミカミ,富山県富山市三上
9318435,富山県,富山市,小西,トヤマケン,トヤマシ,コニシ,富山県富山市小西
9318436,富山県,富山市,宮園町,トヤマケン,トヤマシ,ミヤゾノチョウ,富山県富山市宮園町
9318437,富山県,富山市,宮町,トヤマケン,トヤマシ,ミヤマチ,富山県富山市宮町
9318441,富山県,富山市,高島,トヤマケン,トヤマシ,タカシマ,富山県富山市高島
9318442,富山県,富山市,楠木,トヤマケン,トヤマシ,クスノキ,富山県富山市楠木
9318443,富山県,富山市,下飯野,トヤマケン,トヤマシ,シモイイノ,富山県富山市下飯野
9318444,富山県,富山市,東ケ丘,トヤマケン,トヤマシ,ヒガシガオカ,富山県富山市東ケ丘
9318445,富山県,富山市,道正,トヤマケン,トヤマシ,ドウショウ,富山県富山市道正
9318451,富山県,富山市,銀嶺町,トヤマケン,トヤマシ,ギンレイチョウ,富山県富山市銀嶺町
9318452,富山県,富山市,東富山寿町,トヤマケン,トヤマシ,ヒガシトヤマコトブキチョウ,富山県富山市東富山寿町
9318453,富山県,富山市,中田,トヤマケン,トヤマシ,ナカダ,富山県富山市中田
9318454,富山県,富山市,住友町,トヤマケン,トヤマシ,スミトモチョウ,富山県富山市住友町
9318455,富山県,富山市,晴海台,トヤマケン,トヤマシ,ハルミダイ,富山県富山市晴海台
9318456,富山県,富山市,永久町,トヤマケン,トヤマシ,トワマチ,富山県富山市永久町
9320000,富山県,小矢部市,,トヤマケン,オヤベシ,,富山県小矢部市
9320001,富山県,小矢部市,久利須,トヤマケン,オヤベシ,クリス,富山県小矢部市久利須
9320002,富山県,小矢部市,森屋,トヤマケン,オヤベシ,モリヤ,富山県小矢部市森屋
9320003,富山県,小矢部市,北屋敷,トヤマケン,オヤベシ,キタヤシキ,富山県小矢部市北屋敷
9320004,富山県,小矢部市,二ノ滝,トヤマケン,オヤベシ,ニノタキ,富山県小矢部市二ノ滝
9320005,富山県,小矢部市,下屋敷,トヤマケン,オヤベシ,シモヤシキ,富山県小矢部市下屋敷
9320006,富山県,小矢部市,高坂,トヤマケン,オヤベシ,タカサカ,富山県小矢部市高坂
9320007,富山県,小矢部市,名ケ滝,トヤマケン,オヤベシ,ミョウガダキ,富山県小矢部市名ケ滝
9320008,富山県,小矢部市,菅ケ原,トヤマケン,オヤベシ,スガハラ,富山県小矢部市菅ケ原
9320011,富山県,小矢部市,原牧,トヤマケン,オヤベシ,ハラマキ,富山県小矢部市原牧
9320012,富山県,小矢部市,嶺,トヤマケン,オヤベシ,ミネ,富山県小矢部市嶺
9320013,富山県,小矢部市,清原,トヤマケン,オヤベシ,キヨハラ,富山県小矢部市清原
9320014,富山県,小矢部市,岩崎,トヤマケン,オヤベシ,イワサキ,富山県小矢部市岩崎
9320015,富山県,小矢部市,矢波,トヤマケン,オヤベシ,ヤナミ,富山県小矢部市矢波
9320016,富山県,小矢部市,糠子島,トヤマケン,オヤベシ,ヌカゴジマ,富山県小矢部市糠子島
9320017,富山県,小矢部市,了輪,トヤマケン,オヤベシ,リョウワ,富山県小矢部市了輪
9320018,富山県,小矢部市,別所滝,トヤマケン,オヤベシ,ベッショダキ,富山県小矢部市別所滝
9320021,富山県,小矢部市,田川,トヤマケン,オヤベシ,タガワ,富山県小矢部市田川
9320022,富山県,小矢部市,桜町,トヤマケン,オヤベシ,サクラマチ,富山県小矢部市桜町
9320023,富山県,小矢部市,横谷,トヤマケン,オヤベシ,ヨコダニ,富山県小矢部市横谷
9320024,富山県,小矢部市,屋波牧,トヤマケン,オヤベシ,ヤナミマキ,富山県小矢部市屋波牧
9320025,富山県,小矢部市,宮中,トヤマケン,オヤベシ,ミヤナカ,富山県小矢部市宮中
9320026,富山県,小矢部市,宮須,トヤマケン,オヤベシ,ミヤス,富山県小矢部市宮須
9320027,富山県,小矢部市,法楽寺,トヤマケン,オヤベシ,ホウラクジ,富山県小矢部市法楽寺
9320028,富山県,小矢部市,畠中,トヤマケン,オヤベシ,ハタケナカ,富山県小矢部市畠中
9320031,富山県,小矢部市,岡,トヤマケン,オヤベシ,オカ,富山県小矢部市岡
9320032,富山県,小矢部市,地崎,トヤマケン,オヤベシ,ジサキ,富山県小矢部市地崎
9320033,富山県,小矢部市,芹川,トヤマケン,オヤベシ,セリカワ,富山県小矢部市芹川
9320034,富山県,小矢部市,坂又,トヤマケン,オヤベシ,サカマタ,富山県小矢部市坂又
9320035,富山県,小矢部市,西中野,トヤマケン,オヤベシ,ニシナカノ,富山県小矢部市西中野
9320036,富山県,小矢部市,宇治新,トヤマケン,オヤベシ,ウジシン,富山県小矢部市宇治新
9320037,富山県,小矢部市,石王丸,トヤマケン,オヤベシ,イシオウマル,富山県小矢部市石王丸
9320041,富山県,小矢部市,東福町,トヤマケン,オヤベシ,ヒガシフクマチ,富山県小矢部市東福町
9320042,富山県,小矢部市,西福町,トヤマケン,オヤベシ,ニシフクマチ,富山県小矢部市西福町
9320043,富山県,小矢部市,畠中町,トヤマケン,オヤベシ,ハタケナカマチ,富山県小矢部市畠中町
9320044,富山県,小矢部市,新富町,トヤマケン,オヤベシ,シントミマチ,富山県小矢部市新富町
9320045,富山県,小矢部市,中央町,トヤマケン,オヤベシ,チュウオウマチ,富山県小矢部市中央町
9320046,富山県,小矢部市,観音町,トヤマケン,オヤベシ,カンノンマチ,富山県小矢部市観音町
9320047,富山県,小矢部市,城山町,トヤマケン,オヤベシ,シロヤママチ,富山県小矢部市城山町
9320048,富山県,小矢部市,八和町,トヤマケン,オヤベシ,ヤツワマチ,富山県小矢部市八和町
9320051,富山県,小矢部市,今石動町,トヤマケン,オヤベシ,イマイスルギマチ,富山県小矢部市今石動町
9320052,富山県,小矢部市,泉町,トヤマケン,オヤベシ,イズミチョウ,富山県小矢部市泉町
9320053,富山県,小矢部市,石動町,トヤマケン,オヤベシ,イスルギマチ,富山県小矢部市石動町
9320054,富山県,小矢部市,上野本,トヤマケン,オヤベシ,ウワノホン,富山県小矢部市上野本
9320055,富山県,小矢部市,西町,トヤマケン,オヤベシ,ニシチョウ,富山県小矢部市西町
9320056,富山県,小矢部市,小矢部,トヤマケン,オヤベシ,オヤベ,富山県小矢部市小矢部
9320057,富山県,小矢部市,本町,トヤマケン,オヤベシ,ホンマチ,富山県小矢部市本町
9320058,富山県,小矢部市,小矢部町,トヤマケン,オヤベシ,オヤベマチ,富山県小矢部市小矢部町
9320061,富山県,小矢部市,道坪野,トヤマケン,オヤベシ,ドウツボノ,富山県小矢部市道坪野
9320062,富山県,小矢部市,安楽寺,トヤマケン,オヤベシ,アンラクジ,富山県小矢部市安楽寺
9320063,富山県,小矢部市,峰坪野,トヤマケン,オヤベシ,ミネツボノ,富山県小矢部市峰坪野
9320064,富山県,小矢部市,谷坪野,トヤマケン,オヤベシ,タニツボノ,富山県小矢部市谷坪野
9320065,富山県,小矢部市,論田,トヤマケン,オヤベシ,ロンデン,富山県小矢部市論田
9320071,富山県,小矢部市,荒間,トヤマケン,オヤベシ,アラマ,富山県小矢部市荒間
9320072,富山県,小矢部市,峠,トヤマケン,オヤベシ,トウゲ,富山県小矢部市峠
9320073,富山県,小矢部市,岩尾滝,トヤマケン,オヤベシ,イワオダキ,富山県小矢部市岩尾滝
9320074,富山県,小矢部市,千石,トヤマケン,オヤベシ,センゴク,富山県小矢部市千石
9320075,富山県,小矢部市,嘉例谷,トヤマケン,オヤベシ,カレイダニ,富山県小矢部市嘉例谷
9320101,富山県,小矢部市,下後亟,トヤマケン,オヤベシ,シモゴゼ,富山県小矢部市下後亟
9320102,富山県,小矢部市,水島,トヤマケン,オヤベシ,ミズシマ,富山県小矢部市水島
9320103,富山県,小矢部市,経田,トヤマケン,オヤベシ,キョウデン,富山県小矢部市経田
9320104,富山県,小矢部市,西川原,トヤマケン,オヤベシ,ニシガワラ,富山県小矢部市西川原
9320105,富山県,小矢部市,胡麻島,トヤマケン,オヤベシ,ゴマジマ,富山県小矢部市胡麻島
9320106,富山県,小矢部市,内御堂,トヤマケン,オヤベシ,ウチオンドウ,富山県小矢部市内御堂
9320111,富山県,小矢部市,新西,トヤマケン,オヤベシ,シンニシ,富山県小矢部市新西
9320112,富山県,小矢部市,清沢,トヤマケン,オヤベシ,キヨサワ,富山県小矢部市清沢
9320113,富山県,小矢部市,岩武,トヤマケン,オヤベシ,イワタケ,富山県小矢部市岩武
9320114,富山県,小矢部市,清水,トヤマケン,オヤベシ,シミズ,富山県小矢部市清水
9320115,富山県,小矢部市,津沢,トヤマケン,オヤベシ,ツザワ,富山県小矢部市津沢
9320116,富山県,小矢部市,西島,トヤマケン,オヤベシ,ニシノシマ,富山県小矢部市西島
9320121,富山県,小矢部市,矢水町,トヤマケン,オヤベシ,ヤスイチョウ,富山県小矢部市矢水町
9320122,富山県,小矢部市,浅地,トヤマケン,オヤベシ,アサジ,富山県小矢部市浅地
9320123,富山県,小矢部市,高木,トヤマケン,オヤベシ,タカキ,富山県小矢部市高木
9320124,富山県,小矢部市,蓑輪,トヤマケン,オヤベシ,ミノワ,富山県小矢部市蓑輪
9320125,富山県,小矢部市,鴨島,トヤマケン,オヤベシ,カモジマ,富山県小矢部市鴨島
9320126,富山県,小矢部市,下川崎,トヤマケン,オヤベシ,シモガワサキ,富山県小矢部市下川崎
9320127,富山県,小矢部市,興法寺,トヤマケン,オヤベシ,コウボウジ,富山県小矢部市興法寺
9320128,富山県,小矢部市,戸久,トヤマケン,オヤベシ,トヒサ,富山県小矢部市戸久
9320129,富山県,小矢部市,安養寺,トヤマケン,オヤベシ,アンヨウジ,富山県小矢部市安養寺
9320131,富山県,小矢部市,名畑,トヤマケン,オヤベシ,ナバタ,富山県小矢部市名畑
9320132,富山県,小矢部市,杉谷内,トヤマケン,オヤベシ,スンナイチ,富山県小矢部市杉谷内
9320133,富山県,小矢部市,小森谷,トヤマケン,オヤベシ,コモリダニ,富山県小矢部市小森谷
9320134,富山県,小矢部市,平桜,トヤマケン,オヤベシ,ヒラザクラ,富山県小矢部市平桜
9320135,富山県,小矢部市,藤森,トヤマケン,オヤベシ,フジノモリ,富山県小矢部市藤森
9320136,富山県,小矢部市,平田,トヤマケン,オヤベシ,ヒラタ,富山県小矢部市平田
9320137,富山県,小矢部市,渋江,トヤマケン,オヤベシ,シブエ,富山県小矢部市渋江
9320201,富山県,南砺市,高屋,トヤマケン,ナントシ,タカヤ,富山県南砺市高屋
9320202,富山県,南砺市,清水明,トヤマケン,ナントシ,シミズミョウ,富山県南砺市清水明
9320203,富山県,南砺市,岩屋,トヤマケン,ナントシ,イワヤ,富山県南砺市岩屋
9320204,富山県,南砺市,飛騨屋,トヤマケン,ナントシ,ヒダヤ,富山県南砺市飛騨屋
9320205,富山県,南砺市,井波軸屋,トヤマケン,ナントシ,イナミジクヤ,富山県南砺市井波軸屋
9320206,富山県,南砺市,利屋,トヤマケン,ナントシ,トギヤ,富山県南砺市利屋
9320206,富山県,南砺市,安室,トヤマケン,ナントシ,アジツ,富山県南砺市安室
9320207,富山県,南砺市,専勝寺,トヤマケン,ナントシ,センショウジ,富山県南砺市専勝寺
9320211,富山県,南砺市,井波,トヤマケン,ナントシ,イナミ,富山県南砺市井波
9320212,富山県,南砺市,山斐,トヤマケン,ナントシ,ヤマヒ,富山県南砺市山斐
9320213,富山県,南砺市,井波栄町,トヤマケン,ナントシ,イナミサカエマチ,富山県南砺市井波栄町
9320214,富山県,南砺市,今町,トヤマケン,ナントシ,イママチ,富山県南砺市今町
9320215,富山県,南砺市,山下,トヤマケン,ナントシ,ヤマシタ,富山県南砺市山下
9320216,富山県,南砺市,井波末広町,トヤマケン,ナントシ,イナミスエヒロマチ,富山県南砺市井波末広町
9320217,富山県,南砺市,本町,トヤマケン,ナントシ,ホンマチ,富山県南砺市本町
9320218,富山県,南砺市,坪野,トヤマケン,ナントシ,ツボノ,富山県南砺市坪野
9320221,富山県,南砺市,木崎野,トヤマケン,ナントシ,キザキノ,富山県南砺市木崎野
9320222,富山県,南砺市,坂ノ下,トヤマケン,ナントシ,サカノシタ,富山県南砺市坂ノ下
9320223,富山県,南砺市,松島,トヤマケン,ナントシ,マツシマ,富山県南砺市松島
9320224,富山県,南砺市,藤橋,トヤマケン,ナントシ,フジハシ,富山県南砺市藤橋
9320225,富山県,南砺市,畑方,トヤマケン,ナントシ,ハタカタ,富山県南砺市畑方
9320226,富山県,南砺市,北川,トヤマケン,ナントシ,キタガワ,富山県南砺市北川
9320227,富山県,南砺市,北新町,トヤマケン,ナントシ,キタシンマチ,富山県南砺市北新町
9320228,富山県,南砺市,井波東町,トヤマケン,ナントシ,イナミヒガシマチ,富山県南砺市井波東町
9320231,富山県,南砺市,山見,トヤマケン,ナントシ,ヤマミ,富山県南砺市山見
9320232,富山県,南砺市,京願町,トヤマケン,ナントシ,キョウガンマチ,富山県南砺市京願町
9320233,富山県,南砺市,堀道,トヤマケン,ナントシ,ホリミチ,富山県南砺市堀道
9320234,富山県,南砺市,八日町,トヤマケン,ナントシ,ヨウカマチ,富山県南砺市八日町
9320235,富山県,南砺市,六日町,トヤマケン,ナントシ,ムイカマチ,富山県南砺市六日町
9320236,富山県,南砺市,三日町,トヤマケン,ナントシ,ミッカマチ,富山県南砺市三日町
9320237,富山県,南砺市,山見町並,トヤマケン,ナントシ,ヤマミマチナミ,富山県南砺市山見町並
9320238,富山県,南砺市,下新町,トヤマケン,ナントシ,シモアラマチ,富山県南砺市下新町
9320241,富山県,南砺市,川原崎,トヤマケン,ナントシ,カワラサキ,富山県南砺市川原崎
9320242,富山県,南砺市,谷,トヤマケン,ナントシ,タニ,富山県南砺市谷
9320243,富山県,南砺市,志観寺,トヤマケン,ナントシ,シカンジ,富山県南砺市志観寺
9320244,富山県,南砺市,連代寺,トヤマケン,ナントシ,レンタイジ,富山県南砺市連代寺
9320245,富山県,南砺市,清玄寺,トヤマケン,ナントシ,セイゲンジ,富山県南砺市清玄寺
9320246,富山県,南砺市,東城寺,トヤマケン,ナントシ,トウジョウジ,富山県南砺市東城寺
9320247,富山県,南砺市,院瀬見,トヤマケン,ナントシ,イゼミ,富山県南砺市院瀬見
9320248,富山県,南砺市,沖,トヤマケン,ナントシ,オキ,富山県南砺市沖
9320251,富山県,南砺市,野能原,トヤマケン,ナントシ,ノノウハラ,富山県南砺市野能原
9320252,富山県,南砺市,高瀬,トヤマケン,ナントシ,タカセ,富山県南砺市高瀬
9320253,富山県,南砺市,戸板,トヤマケン,ナントシ,トイタ,富山県南砺市戸板
9320254,富山県,南砺市,五領,トヤマケン,ナントシ,ゴリョウ,富山県南砺市五領
9320255,富山県,南砺市,五領島,トヤマケン,ナントシ,ゴリョウジマ,富山県南砺市五領島
9320256,富山県,南砺市,今里,トヤマケン,ナントシ,イマザト,富山県南砺市今里
9320257,富山県,南砺市,北市,トヤマケン,ナントシ,キタイチ,富山県南砺市北市
9320258,富山県,南砺市,三清東,トヤマケン,ナントシ,サンキヨヒガシ,富山県南砺市三清東
9320301,富山県,砺波市,庄川町三谷,トヤマケン,トナミシ,ショウガワマチミタニ,富山県砺波市庄川町三谷
9320302,富山県,砺波市,庄川町庄,トヤマケン,トナミシ,ショウガワマチショウ,富山県砺波市庄川町庄
9320303,富山県,砺波市,庄川町名ケ原,トヤマケン,トナミシ,ショウガワマチミョウガハラ,富山県砺波市庄川町名ケ原
9320303,富山県,砺波市,庄川町横住,トヤマケン,トナミシ,ショウガワマチヨコズミ,富山県砺波市庄川町横住
9320303,富山県,砺波市,庄川町湯山,トヤマケン,トナミシ,ショウガワマチユヤマ,富山県砺波市庄川町湯山
9320303,富山県,砺波市,庄川町湯谷,トヤマケン,トナミシ,ショウガワマチユダニ,富山県砺波市庄川町湯谷
9320303,富山県,砺波市,庄川町落シ,トヤマケン,トナミシ,ショウガワマチオトシ,富山県砺波市庄川町落シ
9320303,富山県,砺波市,庄川町隠尾,トヤマケン,トナミシ,ショウガワマチカクリョウ,富山県砺波市庄川町隠尾
9320304,富山県,砺波市,庄川町前山,トヤマケン,トナミシ,ショウガワマチマエヤマ,富山県砺波市庄川町前山
9320304,富山県,砺波市,庄川町小牧,トヤマケン,トナミシ,ショウガワマチコマキ,富山県砺波市庄川町小牧
9320305,富山県,砺波市,庄川町金屋,トヤマケン,トナミシ,ショウガワマチカナヤ,富山県砺波市庄川町金屋
9320311,富山県,砺波市,庄川町古上野,トヤマケン,トナミシ,ショウガワマチフルウエノ,富山県砺波市庄川町古上野
9320312,富山県,砺波市,庄川町高儀新,トヤマケン,トナミシ,ショウガワマチタカギシン,富山県砺波市庄川町高儀新
9320313,富山県,砺波市,庄川町五ケ,トヤマケン,トナミシ,ショウガワマチゴカ,富山県砺波市庄川町五ケ
9320314,富山県,砺波市,庄川町青島,トヤマケン,トナミシ,ショウガワマチアオシマ,富山県砺波市庄川町青島
9320315,富山県,砺波市,庄川町示野,トヤマケン,トナミシ,ショウガワマチシメノ,富山県砺波市庄川町示野
9320316,富山県,砺波市,庄川町天正,トヤマケン,トナミシ,ショウガワマチテンショウ,富山県砺波市庄川町天正
9320317,富山県,砺波市,庄川町筏,トヤマケン,トナミシ,ショウガワマチイカダ,富山県砺波市庄川町筏
9320371,富山県,南砺市,利賀村下原,トヤマケン,ナントシ,トガムラシモハラ,富山県南砺市利賀村下原
9320371,富山県,南砺市,利賀村北原,トヤマケン,ナントシ,トガムラキタハラ,富山県南砺市利賀村北原
9320371,富山県,南砺市,利賀村大牧,トヤマケン,ナントシ,トガムラオオマキ,富山県南砺市利賀村大牧
9320371,富山県,南砺市,利賀村栃原,トヤマケン,ナントシ,トガムラトチハラ,富山県南砺市利賀村栃原
9320371,富山県,南砺市,利賀村長崎,トヤマケン,ナントシ,トガムラナガサキ,富山県南砺市利賀村長崎
9320801,富山県,小矢部市,五社,トヤマケン,オヤベシ,ゴシャ,富山県小矢部市五社
9320802,富山県,小矢部市,七社,トヤマケン,オヤベシ,シチシャ,富山県小矢部市七社
9320803,富山県,小矢部市,道明,トヤマケン,オヤベシ,ドウミョウ,富山県小矢部市道明
9320804,富山県,小矢部市,下中,トヤマケン,オヤベシ,シモナカ,富山県小矢部市下中
9320805,富山県,小矢部市,西中,トヤマケン,オヤベシ,ニシナカ,富山県小矢部市西中
9320806,富山県,小矢部市,水落,トヤマケン,オヤベシ,ミズオチ,富山県小矢部市水落
9320807,富山県,小矢部市,柳原,トヤマケン,オヤベシ,ヤナギハラ,富山県小矢部市柳原
9320808,富山県,小矢部市,石名田,トヤマケン,オヤベシ,イシナダ,富山県小矢部市石名田
9320811,富山県,小矢部市,水牧,トヤマケン,オヤベシ,ミズマキ,富山県小矢部市水牧
9320812,富山県,小矢部市,金屋本江,トヤマケン,オヤベシ,カナヤホンゴウ,富山県小矢部市金屋本江
9320813,富山県,小矢部市,野寺,トヤマケン,オヤベシ,ノデラ,富山県小矢部市野寺
9320814,富山県,小矢部市,赤倉,トヤマケン,オヤベシ,アカクラ,富山県小矢部市赤倉
9320815,富山県,小矢部市,高木出,トヤマケン,オヤベシ,タカギデ,富山県小矢部市高木出
9320816,富山県,小矢部市,福久,トヤマケン,オヤベシ,フクヒサ,富山県小矢部市福久
9320817,富山県,小矢部市,小神,トヤマケン,オヤベシ,オコ,富山県小矢部市小神
9320821,富山県,小矢部市,鷲島,トヤマケン,オヤベシ,ワシガシマ,富山県小矢部市鷲島
9320822,富山県,小矢部市,和沢,トヤマケン,オヤベシ,ワサワ,富山県小矢部市和沢
9320823,富山県,小矢部市,福上,トヤマケン,オヤベシ,フクガミ,富山県小矢部市福上
9320824,富山県,小矢部市,下島,トヤマケン,オヤベシ,シモジマ,富山県小矢部市下島
9320825,富山県,小矢部市,島,トヤマケン,オヤベシ,シマ,富山県小矢部市島
9320826,富山県,小矢部市,茄子島,トヤマケン,オヤベシ,ナスジマ,富山県小矢部市茄子島
9320831,富山県,小矢部市,後谷,トヤマケン,オヤベシ,ウシロダニ,富山県小矢部市後谷
9320832,富山県,小矢部市,野端,トヤマケン,オヤベシ,ノバナ,富山県小矢部市野端
9320833,富山県,小矢部市,綾子,トヤマケン,オヤベシ,アヤコ,富山県小矢部市綾子
9320834,富山県,小矢部市,蓮沼,トヤマケン,オヤベシ,ハスヌマ,富山県小矢部市蓮沼
9320835,富山県,小矢部市,石坂,トヤマケン,オヤベシ,イシサカ,富山県小矢部市石坂
9320836,富山県,小矢部市,埴生,トヤマケン,オヤベシ,ハニュウ,富山県小矢部市埴生
9320837,富山県,小矢部市,吉和台,トヤマケン,オヤベシ,ヨシワダイ,富山県小矢部市吉和台
9320838,富山県,小矢部市,メルヘンランド,トヤマケン,オヤベシ,メルヘンランド,富山県小矢部市メルヘンランド
9320841,富山県,小矢部市,道林寺,トヤマケン,オヤベシ,ドウリンジ,富山県小矢部市道林寺
9320842,富山県,小矢部市,長,トヤマケン,オヤベシ,チョウ,富山県小矢部市長
9320843,富山県,小矢部市,棚田,トヤマケン,オヤベシ,タナダ,富山県小矢部市棚田
9320844,富山県,小矢部市,北一,トヤマケン,オヤベシ,キタイチ,富山県小矢部市北一
9320845,富山県,小矢部市,松尾,トヤマケン,オヤベシ,マツオ,富山県小矢部市松尾
9320846,富山県,小矢部市,松永,トヤマケン,オヤベシ,マツナガ,富山県小矢部市松永
9320851,富山県,小矢部市,末友,トヤマケン,オヤベシ,スエトモ,富山県小矢部市末友
9320852,富山県,小矢部市,安養寺新,トヤマケン,オヤベシ,アンヨウジシン,富山県小矢部市安養寺新
9320853,富山県,小矢部市,臼谷,トヤマケン,オヤベシ,ウスタニ,富山県小矢部市臼谷
9320854,富山県,小矢部市,末沢新,トヤマケン,オヤベシ,スエザワシン,富山県小矢部市末沢新
9320855,富山県,小矢部市,川開新,トヤマケン,オヤベシ,カワビラキシン,富山県小矢部市川開新
9320856,富山県,小矢部市,フロンティアパーク,トヤマケン,オヤベシ,フロンティアパーク,富山県小矢部市フロンティアパーク
9320861,富山県,小矢部市,八講田,トヤマケン,オヤベシ,ハッコウデン,富山県小矢部市八講田
9320862,富山県,小矢部市,五郎丸,トヤマケン,オヤベシ,ゴロウマル,富山県小矢部市五郎丸
9320863,富山県,小矢部市,内山,トヤマケン,オヤベシ,ウチヤマ,富山県小矢部市内山
9320864,富山県,小矢部市,八伏,トヤマケン,オヤベシ,ハチブセ,富山県小矢部市八伏
9330000,富山県,高岡市,,トヤマケン,タカオカシ,,富山県高岡市
9330001,富山県,高岡市,富岡町,トヤマケン,タカオカシ,トミオカマチ,富山県高岡市富岡町
9330002,富山県,高岡市,吉久,トヤマケン,タカオカシ,ヨシヒサ,富山県高岡市吉久
9330003,富山県,高岡市,能町,トヤマケン,タカオカシ,ノウマチ,富山県高岡市能町
9330004,富山県,高岡市,能町東,トヤマケン,タカオカシ,ノウマチヒガシ,富山県高岡市能町東
9330005,富山県,高岡市,能町南,トヤマケン,タカオカシ,ノウマチミナミ,富山県高岡市能町南
9330006,富山県,高岡市,角三島,トヤマケン,タカオカシ,ツノミシマ,富山県高岡市角三島
9330007,富山県,高岡市,角,トヤマケン,タカオカシ,ツノ,富山県高岡市角
9330008,富山県,高岡市,材木町,トヤマケン,タカオカシ,ザイモクチョウ,富山県高岡市材木町
9330011,富山県,高岡市,石瀬,トヤマケン,タカオカシ,イシゼ,富山県高岡市石瀬
9330012,富山県,高岡市,美原町,トヤマケン,タカオカシ,ミハラマチ,富山県高岡市美原町
9330013,富山県,高岡市,三女子,トヤマケン,タカオカシ,サンヨシ,富山県高岡市三女子
9330014,富山県,高岡市,野村,トヤマケン,タカオカシ,ノムラ,富山県高岡市野村
9330015,富山県,高岡市,明園町,トヤマケン,タカオカシ,アケゾノマチ,富山県高岡市明園町
9330016,富山県,高岡市,大野,トヤマケン,タカオカシ,オオノ,富山県高岡市大野
9330017,富山県,高岡市,前田町,トヤマケン,タカオカシ,マエダチョウ,富山県高岡市前田町
9330018,富山県,高岡市,高陵町,トヤマケン,タカオカシ,コウリョウマチ,富山県高岡市高陵町
9330021,富山県,高岡市,下関町,トヤマケン,タカオカシ,シモゼキマチ,富山県高岡市下関町
9330022,富山県,高岡市,白金町,トヤマケン,タカオカシ,シロガネマチ,富山県高岡市白金町
9330023,富山県,高岡市,末広町,トヤマケン,タカオカシ,スエヒロマチ,富山県高岡市末広町
9330024,富山県,高岡市,宮脇町,トヤマケン,タカオカシ,ミヤワキチョウ,富山県高岡市宮脇町
9330025,富山県,高岡市,片原横町,トヤマケン,タカオカシ,カタハラヨコマチ,富山県高岡市片原横町
9330026,富山県,高岡市,片原町,トヤマケン,タカオカシ,カタハラマチ,富山県高岡市片原町
9330027,富山県,高岡市,片原中島町,トヤマケン,タカオカシ,カタハラナカジママチ,富山県高岡市片原中島町
9330028,富山県,高岡市,大福院,トヤマケン,タカオカシ,ダイフクイン,富山県高岡市大福院
9330029,富山県,高岡市,御旅屋町,トヤマケン,タカオカシ,オタヤマチ,富山県高岡市御旅屋町
9330030,富山県,高岡市,中央町,トヤマケン,タカオカシ,チュウオウマチ,富山県高岡市中央町
9330031,富山県,高岡市,中川町,トヤマケン,タカオカシ,ナカガワマチ,富山県高岡市中川町
9330032,富山県,高岡市,定塚町,トヤマケン,タカオカシ,ジョウヅカマチ,富山県高岡市定塚町
9330033,富山県,高岡市,東下関,トヤマケン,タカオカシ,ヒガシシモゼキ,富山県高岡市東下関
9330034,富山県,高岡市,大仏町,トヤマケン,タカオカシ,ダイブツマチ,富山県高岡市大仏町
9330035,富山県,高岡市,新横町,トヤマケン,タカオカシ,シンヨコマチ,富山県高岡市新横町
9330036,富山県,高岡市,桐木町,トヤマケン,タカオカシ,キリノキマチ,富山県高岡市桐木町
9330037,富山県,高岡市,定塚,トヤマケン,タカオカシ,ジョウヅカ,富山県高岡市定塚
9330038,富山県,高岡市,坂下町,トヤマケン,タカオカシ,サカシタマチ,富山県高岡市坂下町
9330039,富山県,高岡市,大手町,トヤマケン,タカオカシ,オオテマチ,富山県高岡市大手町
9330041,富山県,高岡市,城東,トヤマケン,タカオカシ,ジョウトウ,富山県高岡市城東
9330042,富山県,高岡市,中川栄町,トヤマケン,タカオカシ,ナカガワサカエマチ,富山県高岡市中川栄町
9330043,富山県,高岡市,中川上町,トヤマケン,タカオカシ,ナカガワカミマチ,富山県高岡市中川上町
9330044,富山県,高岡市,古城,トヤマケン,タカオカシ,コジョウ,富山県高岡市古城
9330045,富山県,高岡市,本丸町,トヤマケン,タカオカシ,ホンマルマチ,富山県高岡市本丸町
9330046,富山県,高岡市,中川本町,トヤマケン,タカオカシ,ナカガワホンマチ,富山県高岡市中川本町
9330047,富山県,高岡市,東中川町,トヤマケン,タカオカシ,ヒガシナカガワマチ,富山県高岡市東中川町
9330051,富山県,高岡市,東野,トヤマケン,タカオカシ,ヒガシノ,富山県高岡市東野
9330052,富山県,高岡市,北定塚,トヤマケン,タカオカシ,キタジョウヅカ,富山県高岡市北定塚
9330053,富山県,高岡市,城北町,トヤマケン,タカオカシ,ジョウホクマチ,富山県高岡市城北町
9330054,富山県,高岡市,古定塚,トヤマケン,タカオカシ,フルジョウヅカ,富山県高岡市古定塚
9330055,富山県,高岡市,中川園町,トヤマケン,タカオカシ,ナカガワソノマチ,富山県高岡市中川園町
9330056,富山県,高岡市,中川,トヤマケン,タカオカシ,ナカガワ,富山県高岡市中川
9330057,富山県,高岡市,広小路,トヤマケン,タカオカシ,ヒロコウジ,富山県高岡市広小路
9330058,富山県,射水市,川口宮袋,トヤマケン,イミズシ,カワグチミヤブクロ,富山県射水市川口宮袋
9330061,富山県,高岡市,青葉町,トヤマケン,タカオカシ,アオバチョウ,富山県高岡市青葉町
9330062,富山県,高岡市,江尻,トヤマケン,タカオカシ,エジリ,富山県高岡市江尻
9330063,富山県,高岡市,鶴寄町,トヤマケン,タカオカシ,ツルヨセマチ,富山県高岡市鶴寄町
9330064,富山県,高岡市,宝町,トヤマケン,タカオカシ,タカラマチ,富山県高岡市宝町
9330065,富山県,高岡市,江尻白山町,トヤマケン,タカオカシ,エジリシラヤマチョウ,富山県高岡市江尻白山町
9330066,富山県,高岡市,春日丘,トヤマケン,タカオカシ,カスガオカ,富山県高岡市春日丘
9330067,富山県,高岡市,高伏町,トヤマケン,タカオカシ,コウフクマチ,富山県高岡市高伏町
9330068,富山県,高岡市,志貴野しらとり台,トヤマケン,タカオカシ,シキノシラトリダイ,富山県高岡市志貴野しらとり台
9330071,富山県,高岡市,鷲北新,トヤマケン,タカオカシ,ワシキタシン,富山県高岡市鷲北新
9330072,富山県,高岡市,旭ケ丘,トヤマケン,タカオカシ,アサヒガオカ,富山県高岡市旭ケ丘
9330073,富山県,高岡市,荻布,トヤマケン,タカオカシ,オギノ,富山県高岡市荻布
9330074,富山県,高岡市,荻布新町,トヤマケン,タカオカシ,オギノシンマチ,富山県高岡市荻布新町
9330075,富山県,高岡市,新能町,トヤマケン,タカオカシ,シンノウマチ,富山県高岡市新能町
9330076,富山県,高岡市,米島,トヤマケン,タカオカシ,ヨネジマ,富山県高岡市米島
9330077,富山県,高岡市,能町駅南,トヤマケン,タカオカシ,ノウマチエキナン,富山県高岡市能町駅南
9330078,富山県,高岡市,荻布四つ葉町,トヤマケン,タカオカシ,オギノヨツバマチ,富山県高岡市荻布四つ葉町
9330101,富山県,高岡市,伏木国分,トヤマケン,タカオカシ,フシキコクブ,富山県高岡市伏木国分
9330102,富山県,高岡市,伏木磯町,トヤマケン,タカオカシ,フシキイソマチ,富山県高岡市伏木磯町
9330103,富山県,高岡市,伏木中央町,トヤマケン,タカオカシ,フシキチュウオウマチ,富山県高岡市伏木中央町
9330104,富山県,高岡市,伏木湊町,トヤマケン,タカオカシ,フシキミナトマチ,富山県高岡市伏木湊町
9330105,富山県,高岡市,伏木錦町,トヤマケン,タカオカシ,フシキニシキマチ,富山県高岡市伏木錦町
9330106,富山県,高岡市,伏木本町,トヤマケン,タカオカシ,フシキホンマチ,富山県高岡市伏木本町
9330111,富山県,高岡市,伏木東一宮,トヤマケン,タカオカシ,フシキヒガシイチノミヤ,富山県高岡市伏木東一宮
9330112,富山県,高岡市,伏木古国府,トヤマケン,タカオカシ,フシキフルコクフ,富山県高岡市伏木古国府
9330113,富山県,高岡市,伏木,トヤマケン,タカオカシ,フシキ,富山県高岡市伏木
9330114,富山県,高岡市,伏木古府,トヤマケン,タカオカシ,フシキコフ,富山県高岡市伏木古府
9330115,富山県,高岡市,伏木古府元町,トヤマケン,タカオカシ,フシキコフモトマチ,富山県高岡市伏木古府元町
9330116,富山県,高岡市,伏木一宮,トヤマケン,タカオカシ,フシキイチノミヤ,富山県高岡市伏木一宮
9330121,富山県,高岡市,伏木矢田新町,トヤマケン,タカオカシ,フシキヤタシンマチ,富山県高岡市伏木矢田新町
9330122,富山県,高岡市,伏木矢田上町,トヤマケン,タカオカシ,フシキヤタカミマチ,富山県高岡市伏木矢田上町
9330123,富山県,高岡市,伏木矢田,トヤマケン,タカオカシ,フシキヤタ,富山県高岡市伏木矢田
9330124,富山県,高岡市,高美町,トヤマケン,タカオカシ,タカミチョウ,富山県高岡市高美町
9330125,富山県,高岡市,伏木矢田（万葉台）,トヤマケン,タカオカシ,フシキヤタ(マンヨウダイ),富山県高岡市伏木矢田（万葉台）
9330126,富山県,高岡市,城光寺,トヤマケン,タカオカシ,ジョウコウジ,富山県高岡市城光寺
9330131,富山県,高岡市,太田伊勢領,トヤマケン,タカオカシ,オオタイセリョウ,富山県高岡市太田伊勢領
9330132,富山県,高岡市,太田（中村）,トヤマケン,タカオカシ,オオタ(ナカムラ),富山県高岡市太田（中村）
9330133,富山県,高岡市,太田,トヤマケン,タカオカシ,オオタ,富山県高岡市太田
9330134,富山県,高岡市,太田（旦保）,トヤマケン,タカオカシ,オオタ(タンボ),富山県高岡市太田（旦保）
9330134,富山県,高岡市,太田（辰ノ口）,トヤマケン,タカオカシ,オオタ(タツノクチ),富山県高岡市太田（辰ノ口）
9330135,富山県,高岡市,太田（雨晴）,トヤマケン,タカオカシ,オオタ(アマハラ),富山県高岡市太田（雨晴）
9330136,富山県,高岡市,渋谷,トヤマケン,タカオカシ,シブヤ,富山県高岡市渋谷
9330137,富山県,高岡市,太田谷内,トヤマケン,タカオカシ,オオタヤチ,富山県高岡市太田谷内
9330137,富山県,高岡市,西田,トヤマケン,タカオカシ,サイダ,富山県高岡市西田
9330138,富山県,高岡市,太田山岸,トヤマケン,タカオカシ,オオタヤマギシ,富山県高岡市太田山岸
9330201,富山県,射水市,山屋,トヤマケン,イミズシ,ヤマヤ,富山県射水市山屋
9330202,富山県,射水市,下村三箇,トヤマケン,イミズシ,シモムラサンガ,富山県射水市下村三箇
9330203,富山県,射水市,加茂東部,トヤマケン,イミズシ,カモトウブ,富山県射水市加茂東部
9330204,富山県,射水市,加茂中部,トヤマケン,イミズシ,カモチュウブ,富山県射水市加茂中部
9330205,富山県,射水市,加茂西部,トヤマケン,イミズシ,カモセイブ,富山県射水市加茂西部
9330206,富山県,射水市,倉垣小杉,トヤマケン,イミズシ,クラガキコスギ,富山県射水市倉垣小杉
9330207,富山県,射水市,白石,トヤマケン,イミズシ,シライシ,富山県射水市白石
9330208,富山県,射水市,八講,トヤマケン,イミズシ,ハッコウ,富山県射水市八講
9330209,富山県,射水市,摺出寺,トヤマケン,イミズシ,スリデジ,富山県射水市摺出寺
9330221,富山県,射水市,堀岡新明神（その他）,トヤマケン,イミズシ,ホリオカシンミョウジン(ソノタ),富山県射水市堀岡新明神（その他）
9330222,富山県,射水市,海竜町,トヤマケン,イミズシ,カイリュウマチ,富山県射水市海竜町
9330223,富山県,射水市,堀岡,トヤマケン,イミズシ,ホリオカ,富山県射水市堀岡
9330224,富山県,射水市,堀岡古明神,トヤマケン,イミズシ,ホリオカフルミョウジン,富山県射水市堀岡古明神
9330225,富山県,射水市,草岡町,トヤマケン,イミズシ,クサオカチョウ,富山県射水市草岡町
9330226,富山県,射水市,堀江千石,トヤマケン,イミズシ,ホリエセンゴク,富山県射水市堀江千石
9330227,富山県,射水市,射水町,トヤマケン,イミズシ,イミズチョウ,富山県射水市射水町
9330228,富山県,射水市,堀岡明神新,トヤマケン,イミズシ,ホリオカミョウジンシン,富山県射水市堀岡明神新
9330231,富山県,射水市,海老江浜開,トヤマケン,イミズシ,エビエハマビラキ,富山県射水市海老江浜開
9330232,富山県,射水市,浜開新町,トヤマケン,イミズシ,ハマビラキシンマチ,富山県射水市浜開新町
9330233,富山県,射水市,海老江,トヤマケン,イミズシ,エビエ,富山県射水市海老江
9330234,富山県,射水市,海老江七軒,トヤマケン,イミズシ,エビエシチケン,富山県射水市海老江七軒
9330235,富山県,射水市,海老江練合,トヤマケン,イミズシ,エビエネリヤ,富山県射水市海老江練合
9330236,富山県,射水市,東明七軒,トヤマケン,イミズシ,トウメイシチケン,富山県射水市東明七軒
9330237,富山県,射水市,東明東町,トヤマケン,イミズシ,トウメイヒガシマチ,富山県射水市東明東町
9330238,富山県,射水市,東明中町,トヤマケン,イミズシ,トウメイナカマチ,富山県射水市東明中町
9330239,富山県,射水市,東明西町,トヤマケン,イミズシ,トウメイニシマチ,富山県射水市東明西町
9330240,富山県,射水市,かもめ台,トヤマケン,イミズシ,カモメダイ,富山県射水市かもめ台
9330241,富山県,射水市,足洗新町,トヤマケン,イミズシ,アシアライシンマチ,富山県射水市足洗新町
9330242,富山県,射水市,本江針山開,トヤマケン,イミズシ,ホンゴウハリヤマビラキ,富山県射水市本江針山開
9330243,富山県,射水市,本江（足洗）,トヤマケン,イミズシ,ホンゴウ(アシアライ),富山県射水市本江（足洗）
9330244,富山県,射水市,本江,トヤマケン,イミズシ,ホンゴウ,富山県射水市本江
9330244,富山県,射水市,本江三箇,トヤマケン,イミズシ,ホンゴウサンガ,富山県射水市本江三箇
9330244,富山県,射水市,本江中,トヤマケン,イミズシ,ホンゴウナカ,富山県射水市本江中
9330244,富山県,射水市,本江北,トヤマケン,イミズシ,ホンゴウキタ,富山県射水市本江北
9330244,富山県,射水市,本江南,トヤマケン,イミズシ,ホンゴウミナミ,富山県射水市本江南
9330244,富山県,射水市,本江後新,トヤマケン,イミズシ,ホンゴウノチシン,富山県射水市本江後新
9330244,富山県,射水市,本江東,トヤマケン,イミズシ,ホンゴウヒガシ,富山県射水市本江東
9330244,富山県,射水市,本江西,トヤマケン,イミズシ,ホンゴウニシ,富山県射水市本江西
9330245,富山県,射水市,本江利波,トヤマケン,イミズシ,ホンゴウトナミ,富山県射水市本江利波
9330246,富山県,射水市,本江（道番）,トヤマケン,イミズシ,ホンゴウ(ミチバン),富山県射水市本江（道番）
9330247,富山県,射水市,本江中新,トヤマケン,イミズシ,ホンゴウナカシン,富山県射水市本江中新
9330248,富山県,射水市,本江針山,トヤマケン,イミズシ,ホンゴウハリヤマ,富山県射水市本江針山
9330249,富山県,射水市,本江針山新,トヤマケン,イミズシ,ホンゴウハリヤマシン,富山県射水市本江針山新
9330251,富山県,射水市,有磯,トヤマケン,イミズシ,アリソ,富山県射水市有磯
9330252,富山県,射水市,七美,トヤマケン,イミズシ,シチミ,富山県射水市七美
9330253,富山県,射水市,七美中野,トヤマケン,イミズシ,シチミナカノ,富山県射水市七美中野
9330301,富山県,高岡市,勝木原,トヤマケン,タカオカシ,ノデワラ,富山県高岡市勝木原
9330302,富山県,高岡市,西広谷,トヤマケン,タカオカシ,ニシヒロタニ,富山県高岡市西広谷
9330303,富山県,高岡市,山川,トヤマケン,タカオカシ,ヤマカワ,富山県高岡市山川
9330304,富山県,高岡市,境,トヤマケン,タカオカシ,サカイ,富山県高岡市境
9330305,富山県,高岡市,江道,トヤマケン,タカオカシ,エンドウ,富山県高岡市江道
9330306,富山県,高岡市,五十辺,トヤマケン,タカオカシ,イカラベ,富山県高岡市五十辺
9330307,富山県,高岡市,笹八口,トヤマケン,タカオカシ,ササヤツクチ,富山県高岡市笹八口
9330308,富山県,高岡市,八口,トヤマケン,タカオカシ,ヤツクチ,富山県高岡市八口
9330311,富山県,高岡市,大源寺,トヤマケン,タカオカシ,ダイゲンジ,富山県高岡市大源寺
9330312,富山県,高岡市,大源寺（大源寺新町）,トヤマケン,タカオカシ,ダイゲンジ(ダイゲンジシンマチ),富山県高岡市大源寺（大源寺新町）
9330313,富山県,高岡市,福田六家,トヤマケン,タカオカシ,フクタロッケ,富山県高岡市福田六家
9330314,富山県,高岡市,福栄町,トヤマケン,タカオカシ,フクエイチョウ,富山県高岡市福栄町
9330315,富山県,高岡市,西園町,トヤマケン,タカオカシ,ニシゾノチョウ,富山県高岡市西園町
9330316,富山県,高岡市,新栄町,トヤマケン,タカオカシ,シンサカエマチ,富山県高岡市新栄町
9330317,富山県,高岡市,蜂ケ島,トヤマケン,タカオカシ,ハチガシマ,富山県高岡市蜂ケ島
9330318,富山県,高岡市,池田,トヤマケン,タカオカシ,イケダ,富山県高岡市池田
9330319,富山県,高岡市,荒屋敷,トヤマケン,タカオカシ,アラヤシキ,富山県高岡市荒屋敷
9330321,富山県,高岡市,六家,トヤマケン,タカオカシ,ロッケ,富山県高岡市六家
9330322,富山県,高岡市,樋詰,トヤマケン,タカオカシ,ヒヅメ,富山県高岡市樋詰
9330323,富山県,高岡市,西高町,トヤマケン,タカオカシ,ニシタカチョウ,富山県高岡市西高町
9330324,富山県,高岡市,立野（高池町）,トヤマケン,タカオカシ,タテノ(タカイケチョウ),富山県高岡市立野（高池町）
9330325,富山県,高岡市,立野,トヤマケン,タカオカシ,タテノ,富山県高岡市立野
9330326,富山県,高岡市,立野美鳥町,トヤマケン,タカオカシ,タテノミドリチョウ,富山県高岡市立野美鳥町
9330327,富山県,高岡市,柴野内島,トヤマケン,タカオカシ,シバノウチジマ,富山県高岡市柴野内島
9330328,富山県,高岡市,内島,トヤマケン,タカオカシ,ウチジマ,富山県高岡市内島
9330329,富山県,高岡市,柴野内島（柴園町）,トヤマケン,タカオカシ,シバノウチジマ(シバゾノチョウ),富山県高岡市柴野内島（柴園町）
9330331,富山県,高岡市,中保,トヤマケン,タカオカシ,ナカホ,富山県高岡市中保
9330331,富山県,高岡市,若保町,トヤマケン,タカオカシ,ワカホチョウ,富山県高岡市若保町
9330332,富山県,高岡市,小竹,トヤマケン,タカオカシ,オダケ,富山県高岡市小竹
9330333,富山県,高岡市,本保,トヤマケン,タカオカシ,ホンボ,富山県高岡市本保
9330334,富山県,高岡市,三ケ,トヤマケン,タカオカシ,サンガ,富山県高岡市三ケ
9330335,富山県,高岡市,今市,トヤマケン,タカオカシ,イマイチ,富山県高岡市今市
9330336,富山県,高岡市,上開発,トヤマケン,タカオカシ,カミカイホツ,富山県高岡市上開発
9330337,富山県,高岡市,千鳥丘町,トヤマケン,タカオカシ,チドリガオカマチ,富山県高岡市千鳥丘町
9330338,富山県,高岡市,駒方,トヤマケン,タカオカシ,コマガタ,富山県高岡市駒方
9330341,富山県,高岡市,上渡,トヤマケン,タカオカシ,カミワタリ,富山県高岡市上渡
9330342,富山県,高岡市,東石堤,トヤマケン,タカオカシ,ヒガシイシヅツミ,富山県高岡市東石堤
9330343,富山県,高岡市,宝来町,トヤマケン,タカオカシ,タカラギチョウ,富山県高岡市宝来町
9330344,富山県,高岡市,笹川,トヤマケン,タカオカシ,ササガワ,富山県高岡市笹川
9330345,富山県,高岡市,平成町,トヤマケン,タカオカシ,ヘイセイチョウ,富山県高岡市平成町
9330351,富山県,高岡市,四日市,トヤマケン,タカオカシ,ヨッカイチ,富山県高岡市四日市
9330352,富山県,高岡市,十日市,トヤマケン,タカオカシ,トウカイチ,富山県高岡市十日市
9330353,富山県,高岡市,麻生谷,トヤマケン,タカオカシ,アソウヤ,富山県高岡市麻生谷
9330354,富山県,高岡市,六日市,トヤマケン,タカオカシ,ムイカイチ,富山県高岡市六日市
9330355,富山県,高岡市,石堤,トヤマケン,タカオカシ,イシツツミ,富山県高岡市石堤
9330356,富山県,高岡市,谷内,トヤマケン,タカオカシ,ヤチ,富山県高岡市谷内
9330357,富山県,高岡市,柴野,トヤマケン,タカオカシ,シバノ,富山県高岡市柴野
9330801,富山県,高岡市,蓮花寺新町,トヤマケン,タカオカシ,レンゲジシンマチ,富山県高岡市蓮花寺新町
9330802,富山県,高岡市,蓮花寺,トヤマケン,タカオカシ,レンゲジ,富山県高岡市蓮花寺
9330803,富山県,高岡市,出来田,トヤマケン,タカオカシ,デキデン,富山県高岡市出来田
9330804,富山県,高岡市,問屋町,トヤマケン,タカオカシ,トンヤマチ,富山県高岡市問屋町
9330805,富山県,高岡市,赤江町,トヤマケン,タカオカシ,アカエチョウ,富山県高岡市赤江町
9330806,富山県,高岡市,赤祖父,トヤマケン,タカオカシ,アカソフ,富山県高岡市赤祖父
9330807,富山県,高岡市,井口本江,トヤマケン,タカオカシ,イグチホンゴウ,富山県高岡市井口本江
9330808,富山県,高岡市,高園町,トヤマケン,タカオカシ,タカゾノマチ,富山県高岡市高園町
9330809,富山県,高岡市,出来田新町,トヤマケン,タカオカシ,デキデンシンマチ,富山県高岡市出来田新町
9330811,富山県,高岡市,深沢,トヤマケン,タカオカシ,フカサワ,富山県高岡市深沢
9330812,富山県,高岡市,明和町,トヤマケン,タカオカシ,メイワマチ,富山県高岡市明和町
9330813,富山県,高岡市,下伏間江,トヤマケン,タカオカシ,シモフスマエ,富山県高岡市下伏間江
9330814,富山県,高岡市,上伏間江,トヤマケン,タカオカシ,カミフスマエ,富山県高岡市上伏間江
9330815,富山県,高岡市,西広上,トヤマケン,タカオカシ,ニシヒロカミ,富山県高岡市西広上
9330816,富山県,高岡市,二塚,トヤマケン,タカオカシ,フタヅカ,富山県高岡市二塚
9330817,富山県,高岡市,東藤平蔵,トヤマケン,タカオカシ,ヒガシトウヘイゾウ,富山県高岡市東藤平蔵
9330818,富山県,高岡市,林新,トヤマケン,タカオカシ,ハヤシシン,富山県高岡市林新
9330821,富山県,高岡市,下島町,トヤマケン,タカオカシ,シモジママチ,富山県高岡市下島町
9330822,富山県,高岡市,十二町島,トヤマケン,タカオカシ,ジュウニチョウジマ,富山県高岡市十二町島
9330823,富山県,高岡市,北蔵新,トヤマケン,タカオカシ,キタクラシン,富山県高岡市北蔵新
9330824,富山県,高岡市,西藤平蔵,トヤマケン,タカオカシ,ニシトウヘイゾウ,富山県高岡市西藤平蔵
9330825,富山県,高岡市,佐野緑町,トヤマケン,タカオカシ,サノミドリチョウ,富山県高岡市佐野緑町
9330826,富山県,高岡市,佐野,トヤマケン,タカオカシ,サノ,富山県高岡市佐野
9330827,富山県,高岡市,泉が丘,トヤマケン,タカオカシ,イズミガオカ,富山県高岡市泉が丘
9330828,富山県,高岡市,和田上町,トヤマケン,タカオカシ,ワダカミチョウ,富山県高岡市和田上町
9330829,富山県,高岡市,福田,トヤマケン,タカオカシ,フクタ,富山県高岡市福田
9330831,富山県,高岡市,若富町,トヤマケン,タカオカシ,ワカトミチョウ,富山県高岡市若富町
9330832,富山県,高岡市,和田,トヤマケン,タカオカシ,ワダ,富山県高岡市和田
9330833,富山県,高岡市,荒見崎,トヤマケン,タカオカシ,アラミサキ,富山県高岡市荒見崎
9330834,富山県,高岡市,蔵野町,トヤマケン,タカオカシ,クラノマチ,富山県高岡市蔵野町
9330835,富山県,高岡市,辻,トヤマケン,タカオカシ,ツジ,富山県高岡市辻
9330836,富山県,高岡市,石塚,トヤマケン,タカオカシ,イシヅカ,富山県高岡市石塚
9330837,富山県,高岡市,上北島,トヤマケン,タカオカシ,カミキタジマ,富山県高岡市上北島
9330838,富山県,高岡市,北島,トヤマケン,タカオカシ,キタジマ,富山県高岡市北島
9330839,富山県,高岡市,和田西町,トヤマケン,タカオカシ,ワダニシチョウ,富山県高岡市和田西町
9330841,富山県,高岡市,金屋町,トヤマケン,タカオカシ,カナヤマチ,富山県高岡市金屋町
9330842,富山県,高岡市,横田町,トヤマケン,タカオカシ,ヨコタマチ,富山県高岡市横田町
9330843,富山県,高岡市,永楽町,トヤマケン,タカオカシ,エイラクマチ,富山県高岡市永楽町
9330844,富山県,高岡市,羽広,トヤマケン,タカオカシ,ハビロ,富山県高岡市羽広
9330845,富山県,高岡市,松原町,トヤマケン,タカオカシ,マツバラチョウ,富山県高岡市松原町
9330846,富山県,高岡市,扇町,トヤマケン,タカオカシ,オウギマチ,富山県高岡市扇町
9330847,富山県,高岡市,千石町,トヤマケン,タカオカシ,センゴクマチ,富山県高岡市千石町
9330848,富山県,高岡市,西町,トヤマケン,タカオカシ,ニシマチ,富山県高岡市西町
9330849,富山県,高岡市,横田本町,トヤマケン,タカオカシ,ヨコタホンマチ,富山県高岡市横田本町
9330851,富山県,高岡市,上関,トヤマケン,タカオカシ,カミゼキ,富山県高岡市上関
9330851,富山県,高岡市,上関町,トヤマケン,タカオカシ,カミゼキマチ,富山県高岡市上関町
9330852,富山県,高岡市,下黒田,トヤマケン,タカオカシ,シモクロダ,富山県高岡市下黒田
9330853,富山県,高岡市,上黒田,トヤマケン,タカオカシ,カミクロダ,富山県高岡市上黒田
9330853,富山県,高岡市,上黒田新,トヤマケン,タカオカシ,カミクロダシン,富山県高岡市上黒田新
9330854,富山県,高岡市,黒田新町,トヤマケン,タカオカシ,クロダシンマチ,富山県高岡市黒田新町
9330855,富山県,高岡市,市場通り,トヤマケン,タカオカシ,イチバドオリ,富山県高岡市市場通り
9330856,富山県,高岡市,鐘紡町,トヤマケン,タカオカシ,カネボウマチ,富山県高岡市鐘紡町
9330857,富山県,高岡市,木津,トヤマケン,タカオカシ,キヅ,富山県高岡市木津
9330858,富山県,高岡市,泉町,トヤマケン,タカオカシ,イズミマチ,富山県高岡市泉町
9330860,富山県,高岡市,下関,トヤマケン,タカオカシ,シモゼキ,富山県高岡市下関
9330861,富山県,高岡市,寺町,トヤマケン,タカオカシ,テラマチ,富山県高岡市寺町
9330862,富山県,高岡市,新寺町,トヤマケン,タカオカシ,シンテラマチ,富山県高岡市新寺町
9330863,富山県,高岡市,関本町,トヤマケン,タカオカシ,セキホンマチ,富山県高岡市関本町
9330864,富山県,高岡市,関町,トヤマケン,タカオカシ,セキマチ,富山県高岡市関町
9330865,富山県,高岡市,蓮美町,トヤマケン,タカオカシ,ハスミマチ,富山県高岡市蓮美町
9330866,富山県,高岡市,清水町,トヤマケン,タカオカシ,シミズマチ,富山県高岡市清水町
9330867,富山県,高岡市,大鋸屋町,トヤマケン,タカオカシ,オガヤチョウ,富山県高岡市大鋸屋町
9330868,富山県,高岡市,大工中町,トヤマケン,タカオカシ,ダイクナカマチ,富山県高岡市大工中町
9330869,富山県,高岡市,関大町,トヤマケン,タカオカシ,セキオオマチ,富山県高岡市関大町
9330871,富山県,高岡市,駅南,トヤマケン,タカオカシ,エキナン,富山県高岡市駅南
9330872,富山県,高岡市,芳野,トヤマケン,タカオカシ,ヨシノ,富山県高岡市芳野
9330873,富山県,高岡市,南田町,トヤマケン,タカオカシ,ミナミダマチ,富山県高岡市南田町
9330874,富山県,高岡市,京田,トヤマケン,タカオカシ,キョウデン,富山県高岡市京田
9330875,富山県,高岡市,神田新町,トヤマケン,タカオカシ,カンダシンマチ,富山県高岡市神田新町
9330876,富山県,高岡市,神主町,トヤマケン,タカオカシ,カンヌシマチ,富山県高岡市神主町
9330877,富山県,高岡市,荒川町,トヤマケン,タカオカシ,アラカワチョウ,富山県高岡市荒川町
9330878,富山県,高岡市,東上関,トヤマケン,タカオカシ,ヒガシカミゼキ,富山県高岡市東上関
9330879,富山県,高岡市,八丁道,トヤマケン,タカオカシ,ハッチョウミチ,富山県高岡市八丁道
9330901,富山県,高岡市,向野本町,トヤマケン,タカオカシ,ムカイノホンマチ,富山県高岡市向野本町
9330902,富山県,高岡市,向野町,トヤマケン,タカオカシ,ムカイノマチ,富山県高岡市向野町
9330903,富山県,高岡市,熊野町,トヤマケン,タカオカシ,クマノマチ,富山県高岡市熊野町
9330904,富山県,高岡市,新成町,トヤマケン,タカオカシ,シンセイマチ,富山県高岡市新成町
9330905,富山県,高岡市,明野町,トヤマケン,タカオカシ,アケノマチ,富山県高岡市明野町
9330906,富山県,高岡市,五福町,トヤマケン,タカオカシ,ゴフクマチ,富山県高岡市五福町
9330907,富山県,高岡市,地子木町,トヤマケン,タカオカシ,ジシキマチ,富山県高岡市地子木町
9330908,富山県,高岡市,木町,トヤマケン,タカオカシ,キマチ,富山県高岡市木町
9330909,富山県,高岡市,開発本町,トヤマケン,タカオカシ,カイホツホンマチ,富山県高岡市開発本町
9330910,富山県,高岡市,袋町,トヤマケン,タカオカシ,フクロチョウ,富山県高岡市袋町
9330911,富山県,高岡市,あわら町,トヤマケン,タカオカシ,アワラマチ,富山県高岡市あわら町
9330912,富山県,高岡市,丸の内,トヤマケン,タカオカシ,マルノウチ,富山県高岡市丸の内
9330913,富山県,高岡市,本町,トヤマケン,タカオカシ,ホンマチ,富山県高岡市本町
9330914,富山県,高岡市,小馬出町,トヤマケン,タカオカシ,コンマダシマチ,富山県高岡市小馬出町
9330915,富山県,高岡市,千木屋町,トヤマケン,タカオカシ,センギヤチョウ,富山県高岡市千木屋町
9330916,富山県,高岡市,大町,トヤマケン,タカオカシ,オオマチ,富山県高岡市大町
9330917,富山県,高岡市,京町,トヤマケン,タカオカシ,キョウマチ,富山県高岡市京町
9330918,富山県,高岡市,大坪町,トヤマケン,タカオカシ,オオツボマチ,富山県高岡市大坪町
9330919,富山県,高岡市,平米町,トヤマケン,タカオカシ,ヒラマイチョウ,富山県高岡市平米町
9330921,富山県,高岡市,源平町,トヤマケン,タカオカシ,ゲンペイチョウ,富山県高岡市源平町
9330922,富山県,高岡市,三番町,トヤマケン,タカオカシ,サンバンマチ,富山県高岡市三番町
9330923,富山県,高岡市,一番町,トヤマケン,タカオカシ,イチバンマチ,富山県高岡市一番町
9330924,富山県,高岡市,堀上町,トヤマケン,タカオカシ,ホリカミチョウ,富山県高岡市堀上町
9330925,富山県,高岡市,白銀町,トヤマケン,タカオカシ,シロガネチョウ,富山県高岡市白銀町
9330926,富山県,高岡市,御馬出町,トヤマケン,タカオカシ,オンマダシマチ,富山県高岡市御馬出町
9330927,富山県,高岡市,利屋町,トヤマケン,タカオカシ,トギヤマチ,富山県高岡市利屋町
9330928,富山県,高岡市,守山町,トヤマケン,タカオカシ,モリヤママチ,富山県高岡市守山町
9330929,富山県,高岡市,木舟町,トヤマケン,タカオカシ,キフネマチ,富山県高岡市木舟町
9330931,富山県,高岡市,二番町,トヤマケン,タカオカシ,ニバンマチ,富山県高岡市二番町
9330932,富山県,高岡市,鴨島町,トヤマケン,タカオカシ,カモジママチ,富山県高岡市鴨島町
9330933,富山県,高岡市,南幸町,トヤマケン,タカオカシ,ミナミサイワイマチ,富山県高岡市南幸町
9330934,富山県,高岡市,博労町,トヤマケン,タカオカシ,バクロウマチ,富山県高岡市博労町
9330935,富山県,高岡市,博労本町,トヤマケン,タカオカシ,バクロウホンマチ,富山県高岡市博労本町
9330936,富山県,高岡市,旅篭町,トヤマケン,タカオカシ,ハタゴマチ,富山県高岡市旅篭町
9330937,富山県,高岡市,通町,トヤマケン,タカオカシ,トオリマチ,富山県高岡市通町
9330938,富山県,高岡市,風呂屋町,トヤマケン,タカオカシ,フロヤチョウ,富山県高岡市風呂屋町
9330941,富山県,高岡市,内免,トヤマケン,タカオカシ,ナイメン,富山県高岡市内免
9330942,富山県,高岡市,川原町,トヤマケン,タカオカシ,カワラマチ,富山県高岡市川原町
9330943,富山県,高岡市,川原本町,トヤマケン,タカオカシ,カワラホンマチ,富山県高岡市川原本町
9330944,富山県,高岡市,中島町,トヤマケン,タカオカシ,ナカジママチ,富山県高岡市中島町
9330945,富山県,高岡市,金屋本町,トヤマケン,タカオカシ,カナヤホンマチ,富山県高岡市金屋本町
9330946,富山県,高岡市,昭和町,トヤマケン,タカオカシ,ショウワマチ,富山県高岡市昭和町
9330947,富山県,高岡市,本郷,トヤマケン,タカオカシ,ホンゴウ,富山県高岡市本郷
9330948,富山県,高岡市,上四屋,トヤマケン,タカオカシ,カミヨツヤ,富山県高岡市上四屋
9330949,富山県,高岡市,四屋,トヤマケン,タカオカシ,ヨツヤ,富山県高岡市四屋
9330951,富山県,高岡市,長慶寺,トヤマケン,タカオカシ,チョウケイジ,富山県高岡市長慶寺
9330952,富山県,高岡市,下窪,トヤマケン,タカオカシ,シタクボ,富山県高岡市下窪
9330953,富山県,高岡市,横田,トヤマケン,タカオカシ,ヨコタ,富山県高岡市横田
9330954,富山県,高岡市,美幸町,トヤマケン,タカオカシ,ミユキマチ,富山県高岡市美幸町
9330955,富山県,高岡市,瑞穂町,トヤマケン,タカオカシ,ミズホマチ,富山県高岡市瑞穂町
9330956,富山県,高岡市,宮田町,トヤマケン,タカオカシ,ミヤタマチ,富山県高岡市宮田町
9330957,富山県,高岡市,早川,トヤマケン,タカオカシ,ハヤカワ,富山県高岡市早川
9330958,富山県,高岡市,波岡,トヤマケン,タカオカシ,ハオカ,富山県高岡市波岡
9330959,富山県,高岡市,長江,トヤマケン,タカオカシ,ナガエ,富山県高岡市長江
9330961,富山県,高岡市,佐加野,トヤマケン,タカオカシ,サガノ,富山県高岡市佐加野
9330962,富山県,高岡市,佐加野東,トヤマケン,タカオカシ,サガノヒガシ,富山県高岡市佐加野東
9330963,富山県,高岡市,上八ケ新,トヤマケン,タカオカシ,カミハッカシン,富山県高岡市上八ケ新
9330964,富山県,高岡市,答野島,トヤマケン,タカオカシ,トウノシマ,富山県高岡市答野島
9330965,富山県,高岡市,高辻,トヤマケン,タカオカシ,タカツジ,富山県高岡市高辻
9330966,富山県,高岡市,月野谷,トヤマケン,タカオカシ,ツキノヤ,富山県高岡市月野谷
9330967,富山県,高岡市,手洗野,トヤマケン,タカオカシ,タライノ,富山県高岡市手洗野
9330968,富山県,高岡市,国吉,トヤマケン,タカオカシ,クニヨシ,富山県高岡市国吉
9330971,富山県,高岡市,五十里西町,トヤマケン,タカオカシ,イカリニシマチ,富山県高岡市五十里西町
9330972,富山県,高岡市,五十里東町,トヤマケン,タカオカシ,イカリヒガシマチ,富山県高岡市五十里東町
9330973,富山県,高岡市,五十里,トヤマケン,タカオカシ,イカリ,富山県高岡市五十里
9330974,富山県,高岡市,岩坪,トヤマケン,タカオカシ,イワツボ,富山県高岡市岩坪
9330975,富山県,高岡市,答野出,トヤマケン,タカオカシ,トウノデ,富山県高岡市答野出
9330976,富山県,高岡市,島崎,トヤマケン,タカオカシ,シマサキ,富山県高岡市島崎
9330977,富山県,高岡市,細池,トヤマケン,タカオカシ,ホソイケ,富山県高岡市細池
9330978,富山県,高岡市,頭川,トヤマケン,タカオカシ,ズカワ,富山県高岡市頭川
9330981,富山県,高岡市,二上,トヤマケン,タカオカシ,フタガミ,富山県高岡市二上
9330981,富山県,高岡市,二上新,トヤマケン,タカオカシ,フタガミシン,富山県高岡市二上新
9330981,富山県,高岡市,二上町,トヤマケン,タカオカシ,フタガミマチ,富山県高岡市二上町
9330982,富山県,高岡市,八ケ,トヤマケン,タカオカシ,ハッカ,富山県高岡市八ケ
9330983,富山県,高岡市,守護町,トヤマケン,タカオカシ,シュゴマチ,富山県高岡市守護町
9330983,富山県,高岡市,守護町新,トヤマケン,タカオカシ,シュゴマチシン,富山県高岡市守護町新
9330984,富山県,高岡市,守山,トヤマケン,タカオカシ,モリヤマ,富山県高岡市守山
9330985,富山県,高岡市,須田,トヤマケン,タカオカシ,スダ,富山県高岡市須田
9330986,富山県,高岡市,西海老坂,トヤマケン,タカオカシ,ニシエビサカ,富山県高岡市西海老坂
9330987,富山県,高岡市,東海老坂,トヤマケン,タカオカシ,ヒガシエビサカ,富山県高岡市東海老坂
9340001,富山県,射水市,庄西町,トヤマケン,イミズシ,ショウセイマチ,富山県射水市庄西町
9340002,富山県,射水市,港町,トヤマケン,イミズシ,ミナトマチ,富山県射水市港町
9340003,富山県,射水市,庄川本町,トヤマケン,イミズシ,ショウガワホンマチ,富山県射水市庄川本町
9340004,富山県,射水市,西新湊,トヤマケン,イミズシ,ニシシンミナト,富山県射水市西新湊
9340005,富山県,射水市,善光寺,トヤマケン,イミズシ,ゼンコウジ,富山県射水市善光寺
9340011,富山県,射水市,本町,トヤマケン,イミズシ,ホンマチ,富山県射水市本町
9340012,富山県,射水市,中央町,トヤマケン,イミズシ,チュウオウマチ,富山県射水市中央町
9340013,富山県,射水市,立町,トヤマケン,イミズシ,タテマチ,富山県射水市立町
9340014,富山県,射水市,緑町,トヤマケン,イミズシ,ミドリマチ,富山県射水市緑町
9340015,富山県,射水市,桜町,トヤマケン,イミズシ,サクラマチ,富山県射水市桜町
9340016,富山県,射水市,三日曽根,トヤマケン,イミズシ,ミッカソネ,富山県射水市三日曽根
9340021,富山県,射水市,堀岡新明神（西浜）,トヤマケン,イミズシ,ホリオカシンミョウジン(ニシハマ),富山県射水市堀岡新明神（西浜）
9340022,富山県,射水市,放生津町,トヤマケン,イミズシ,ホウジョウヅマチ,富山県射水市放生津町
9340023,富山県,射水市,海王町,トヤマケン,イミズシ,カイオウマチ,富山県射水市海王町
9340024,富山県,射水市,越の潟町,トヤマケン,イミズシ,コシノカタマチ,富山県射水市越の潟町
9340025,富山県,射水市,八幡町,トヤマケン,イミズシ,ハチマンマチ,富山県射水市八幡町
9340026,富山県,射水市,二の丸町,トヤマケン,イミズシ,ニノマルマチ,富山県射水市二の丸町
9340027,富山県,射水市,中新湊,トヤマケン,イミズシ,ナカシンミナト,富山県射水市中新湊
9340031,富山県,射水市,奈呉の江,トヤマケン,イミズシ,ナゴノエ,富山県射水市奈呉の江
9340032,富山県,射水市,片口,トヤマケン,イミズシ,カタグチ,富山県射水市片口
9340033,富山県,射水市,新片町,トヤマケン,イミズシ,シンカタマチ,富山県射水市新片町
9340034,富山県,射水市,高場新町,トヤマケン,イミズシ,タカバシンマチ,富山県射水市高場新町
9340035,富山県,射水市,新堀,トヤマケン,イミズシ,シンボリ,富山県射水市新堀
9340036,富山県,射水市,片口高場,トヤマケン,イミズシ,カタグチタカバ,富山県射水市片口高場
9340037,富山県,射水市,片口久々江,トヤマケン,イミズシ,カタグチクグエ,富山県射水市片口久々江
9340038,富山県,射水市,津幡江,トヤマケン,イミズシ,ツバタエ,富山県射水市津幡江
9340039,富山県,射水市,久々湊,トヤマケン,イミズシ,クグミナト,富山県射水市久々湊
9340040,富山県,射水市,鏡宮弥生,トヤマケン,イミズシ,カガノミヤヤヨイ,富山県射水市鏡宮弥生
9340041,富山県,射水市,作道（新生町）,トヤマケン,イミズシ,ツクリミチ(シンセイチョウ),富山県射水市作道（新生町）
9340042,富山県,射水市,作道（その他）,トヤマケン,イミズシ,ツクリミチ(ソノタ),富山県射水市作道（その他）
9340043,富山県,射水市,野村,トヤマケン,イミズシ,ノムラ,富山県射水市野村
9340044,富山県,射水市,殿村,トヤマケン,イミズシ,トノムラ,富山県射水市殿村
9340045,富山県,射水市,沖,トヤマケン,イミズシ,オキ,富山県射水市沖
9340046,富山県,射水市,今井,トヤマケン,イミズシ,イマイ,富山県射水市今井
9340047,富山県,射水市,高木,トヤマケン,イミズシ,タカキ,富山県射水市高木
9340048,富山県,射水市,布目,トヤマケン,イミズシ,ヌノメ,富山県射水市布目
9340049,富山県,射水市,鏡宮,トヤマケン,イミズシ,カガノミヤ,富山県射水市鏡宮
9340051,富山県,射水市,宮袋,トヤマケン,イミズシ,ミヤブクロ,富山県射水市宮袋
9340052,富山県,射水市,松木,トヤマケン,イミズシ,マツノキ,富山県射水市松木
9340053,富山県,射水市,朴木,トヤマケン,イミズシ,ホオノキ,富山県射水市朴木
9340054,富山県,射水市,神楽町,トヤマケン,イミズシ,カグラマチ,富山県射水市神楽町
9340055,富山県,射水市,沖塚原,トヤマケン,イミズシ,オキツカハラ,富山県射水市沖塚原
9340056,富山県,射水市,寺塚原,トヤマケン,イミズシ,テラツカハラ,富山県射水市寺塚原
9340057,富山県,射水市,坂東,トヤマケン,イミズシ,バンドウ,富山県射水市坂東
9340058,富山県,射水市,川口,トヤマケン,イミズシ,カワグチ,富山県射水市川口
9340091,富山県,高岡市,下牧野,トヤマケン,タカオカシ,シモマキノ,富山県高岡市下牧野
9340092,富山県,高岡市,中曽根,トヤマケン,タカオカシ,ナカソネ,富山県高岡市中曽根
9340093,富山県,高岡市,姫野,トヤマケン,タカオカシ,ヒメノ,富山県高岡市姫野
9340093,富山県,高岡市,放生津,トヤマケン,タカオカシ,ホウジョウヅ,富山県高岡市放生津
9340094,富山県,高岡市,堀岡又新,トヤマケン,タカオカシ,ホリオカマタシン,富山県高岡市堀岡又新
9340095,富山県,高岡市,石丸,トヤマケン,タカオカシ,イシマル,富山県高岡市石丸
9340096,富山県,高岡市,金屋,トヤマケン,タカオカシ,カナヤ,富山県高岡市金屋
9340097,富山県,高岡市,牧野金屋,トヤマケン,タカオカシ,マキノカナヤ,富山県高岡市牧野金屋
9340098,富山県,高岡市,上牧野,トヤマケン,タカオカシ,カミマキノ,富山県高岡市上牧野
9340099,富山県,高岡市,若葉町,トヤマケン,タカオカシ,ワカバチョウ,富山県高岡市若葉町
9350000,富山県,氷見市,,トヤマケン,ヒミシ,,富山県氷見市
9350001,富山県,氷見市,北八代,トヤマケン,ヒミシ,キタヤシロ,富山県氷見市北八代
9350002,富山県,氷見市,阿尾,トヤマケン,ヒミシ,アオ,富山県氷見市阿尾
9350003,富山県,氷見市,間島,トヤマケン,ヒミシ,マシマ,富山県氷見市間島
9350004,富山県,氷見市,北大町,トヤマケン,ヒミシ,キタオオマチ,富山県氷見市北大町
9350005,富山県,氷見市,栄町,トヤマケン,ヒミシ,サカエマチ,富山県氷見市栄町
9350006,富山県,氷見市,稲積,トヤマケン,ヒミシ,イナヅミ,富山県氷見市稲積
9350007,富山県,氷見市,指崎,トヤマケン,ヒミシ,サッサキ,富山県氷見市指崎
9350011,富山県,氷見市,中央町,トヤマケン,ヒミシ,チュウオウマチ,富山県氷見市中央町
9350012,富山県,氷見市,比美町,トヤマケン,ヒミシ,ヒミマチ,富山県氷見市比美町
9350013,富山県,氷見市,南大町,トヤマケン,ヒミシ,ミナミオオマチ,富山県氷見市南大町
9350014,富山県,氷見市,地蔵町,トヤマケン,ヒミシ,ジゾウマチ,富山県氷見市地蔵町
9350015,富山県,氷見市,伊勢大町,トヤマケン,ヒミシ,イセオオマチ,富山県氷見市伊勢大町
9350016,富山県,氷見市,本町,トヤマケン,ヒミシ,ホンマチ,富山県氷見市本町
9350017,富山県,氷見市,丸の内,トヤマケン,ヒミシ,マルノウチ,富山県氷見市丸の内
9350021,富山県,氷見市,幸町,トヤマケン,ヒミシ,サイワイチョウ,富山県氷見市幸町
9350022,富山県,氷見市,朝日本町,トヤマケン,ヒミシ,アサヒホンマチ,富山県氷見市朝日本町
9350023,富山県,氷見市,朝日丘,トヤマケン,ヒミシ,アサヒガオカ,富山県氷見市朝日丘
9350024,富山県,氷見市,窪,トヤマケン,ヒミシ,クボ,富山県氷見市窪
9350025,富山県,氷見市,鞍川,トヤマケン,ヒミシ,クラカワ,富山県氷見市鞍川
9350026,富山県,氷見市,大野,トヤマケン,ヒミシ,オオノ,富山県氷見市大野
9350027,富山県,氷見市,大野新,トヤマケン,ヒミシ,オオノシン,富山県氷見市大野新
9350031,富山県,氷見市,柳田,トヤマケン,ヒミシ,ヤナイダ,富山県氷見市柳田
9350032,富山県,氷見市,島尾,トヤマケン,ヒミシ,シマオ,富山県氷見市島尾
9350033,富山県,氷見市,宮田,トヤマケン,ヒミシ,ミヤダ,富山県氷見市宮田
9350034,富山県,氷見市,小竹,トヤマケン,ヒミシ,オダケ,富山県氷見市小竹
9350035,富山県,氷見市,上田子,トヤマケン,ヒミシ,カミタコ,富山県氷見市上田子
9350036,富山県,氷見市,下田子,トヤマケン,ヒミシ,シモタコ,富山県氷見市下田子
9350037,富山県,氷見市,上泉,トヤマケン,ヒミシ,カミイズミ,富山県氷見市上泉
9350041,富山県,氷見市,園,トヤマケン,ヒミシ,ソノ,富山県氷見市園
9350042,富山県,氷見市,湖光,トヤマケン,ヒミシ,コウコウ,富山県氷見市湖光
9350043,富山県,氷見市,川崎,トヤマケン,ヒミシ,カワサキ,富山県氷見市川崎
9350044,富山県,氷見市,川尻,トヤマケン,ヒミシ,カワシリ,富山県氷見市川尻
9350045,富山県,氷見市,海津,トヤマケン,ヒミシ,カイヅ,富山県氷見市海津
9350046,富山県,氷見市,下久津呂,トヤマケン,ヒミシ,シモクヅロ,富山県氷見市下久津呂
9350047,富山県,氷見市,上久津呂,トヤマケン,ヒミシ,カミクヅロ,富山県氷見市上久津呂
9350051,富山県,氷見市,十二町,トヤマケン,ヒミシ,ジュウニチョウ,富山県氷見市十二町
9350052,富山県,氷見市,坂津,トヤマケン,ヒミシ,サカツ,富山県氷見市坂津
9350053,富山県,氷見市,万尾,トヤマケン,ヒミシ,モオ,富山県氷見市万尾
9350054,富山県,氷見市,粟原,トヤマケン,ヒミシ,アワラ,富山県氷見市粟原
9350055,富山県,氷見市,中谷内,トヤマケン,ヒミシ,ナカヤチ,富山県氷見市中谷内
9350056,富山県,氷見市,上田,トヤマケン,ヒミシ,ウワダ,富山県氷見市上田
9350057,富山県,氷見市,西朴木,トヤマケン,ヒミシ,ニシホオノキ,富山県氷見市西朴木
9350061,富山県,氷見市,余川,トヤマケン,ヒミシ,ヨカワ,富山県氷見市余川
9350062,富山県,氷見市,諏訪野,トヤマケン,ヒミシ,スワノ,富山県氷見市諏訪野
9350063,富山県,氷見市,加納,トヤマケン,ヒミシ,カノウ,富山県氷見市加納
9350064,富山県,氷見市,中尾,トヤマケン,ヒミシ,ナカオ,富山県氷見市中尾
9350065,富山県,氷見市,泉,トヤマケン,ヒミシ,イズミ,富山県氷見市泉
9350066,富山県,氷見市,七分一,トヤマケン,ヒミシ,シチブイチ,富山県氷見市七分一
9350067,富山県,氷見市,柿谷,トヤマケン,ヒミシ,カキナヤ,富山県氷見市柿谷
9350101,富山県,氷見市,大浦新町,トヤマケン,ヒミシ,オオウラシンマチ,富山県氷見市大浦新町
9350102,富山県,氷見市,中島,トヤマケン,ヒミシ,ナカジマ,富山県氷見市中島
9350103,富山県,氷見市,大浦,トヤマケン,ヒミシ,オオウラ,富山県氷見市大浦
9350104,富山県,氷見市,堀田,トヤマケン,ヒミシ,ホリタ,富山県氷見市堀田
9350105,富山県,氷見市,蒲田,トヤマケン,ヒミシ,カワタ,富山県氷見市蒲田
9350106,富山県,氷見市,神代,トヤマケン,ヒミシ,コウジロ,富山県氷見市神代
9350107,富山県,氷見市,矢方,トヤマケン,ヒミシ,ヤノホウ,富山県氷見市矢方
9350111,富山県,氷見市,布施,トヤマケン,ヒミシ,フセ,富山県氷見市布施
9350112,富山県,氷見市,飯久保,トヤマケン,ヒミシ,イクボ,富山県氷見市飯久保
9350113,富山県,氷見市,惣領,トヤマケン,ヒミシ,ソウリョウ,富山県氷見市惣領
9350114,富山県,氷見市,仏生寺,トヤマケン,ヒミシ,ブッショウジ,富山県氷見市仏生寺
9350115,富山県,氷見市,鉾根,トヤマケン,ヒミシ,ホコネ,富山県氷見市鉾根
9350115,富山県,氷見市,鞍骨,トヤマケン,ヒミシ,クラボネ,富山県氷見市鞍骨
9350116,富山県,氷見市,三田窪,トヤマケン,ヒミシ,ミタクボ,富山県氷見市三田窪
9350116,富山県,氷見市,矢田部,トヤマケン,ヒミシ,ヤタベ,富山県氷見市矢田部
9350117,富山県,氷見市,深原,トヤマケン,ヒミシ,フカハラ,富山県氷見市深原
9350251,富山県,氷見市,熊無,トヤマケン,ヒミシ,クマナシ,富山県氷見市熊無
9350252,富山県,氷見市,中村,トヤマケン,ヒミシ,ナカムラ,富山県氷見市中村
9350253,富山県,氷見市,谷屋,トヤマケン,ヒミシ,タニヤ,富山県氷見市谷屋
9350254,富山県,氷見市,新保,トヤマケン,ヒミシ,シンボ,富山県氷見市新保
9350255,富山県,氷見市,早借,トヤマケン,ヒミシ,ハヤカシ,富山県氷見市早借
9350256,富山県,氷見市,田江,トヤマケン,ヒミシ,タエ,富山県氷見市田江
9350257,富山県,氷見市,小窪,トヤマケン,ヒミシ,オクボ,富山県氷見市小窪
9350258,富山県,氷見市,論田,トヤマケン,ヒミシ,ロンデン,富山県氷見市論田
9350261,富山県,氷見市,三尾,トヤマケン,ヒミシ,ミオ,富山県氷見市三尾
9350262,富山県,氷見市,日名田,トヤマケン,ヒミシ,ヒナタ,富山県氷見市日名田
9350263,富山県,氷見市,小久米,トヤマケン,ヒミシ,オグメ,富山県氷見市小久米
9350264,富山県,氷見市,日詰,トヤマケン,ヒミシ,ヒヅメ,富山県氷見市日詰
9350265,富山県,氷見市,久目,トヤマケン,ヒミシ,クメ,富山県氷見市久目
9350266,富山県,氷見市,触坂,トヤマケン,ヒミシ,フレザカ,富山県氷見市触坂
9350267,富山県,氷見市,見内,トヤマケン,ヒミシ,ミウチ,富山県氷見市見内
9350268,富山県,氷見市,葛葉,トヤマケン,ヒミシ,クズバ,富山県氷見市葛葉
9350269,富山県,氷見市,床鍋,トヤマケン,ヒミシ,トコナベ,富山県氷見市床鍋
9350271,富山県,氷見市,老谷,トヤマケン,ヒミシ,オイダニ,富山県氷見市老谷
9350272,富山県,氷見市,岩瀬,トヤマケン,ヒミシ,イワガセ,富山県氷見市岩瀬
9350273,富山県,氷見市,桑院,トヤマケン,ヒミシ,クワノイン,富山県氷見市桑院
9350274,富山県,氷見市,赤毛,トヤマケン,ヒミシ,アカゲ,富山県氷見市赤毛
9350275,富山県,氷見市,土倉,トヤマケン,ヒミシ,ツチクラ,富山県氷見市土倉
9350276,富山県,氷見市,坪池,トヤマケン,ヒミシ,ツボイケ,富山県氷見市坪池
9350277,富山県,氷見市,棚懸,トヤマケン,ヒミシ,タナガケ,富山県氷見市棚懸
9350278,富山県,氷見市,一の島,トヤマケン,ヒミシ,イチノシマ,富山県氷見市一の島
9350331,富山県,氷見市,角間,トヤマケン,ヒミシ,カクマ,富山県氷見市角間
9350332,富山県,氷見市,森寺,トヤマケン,ヒミシ,モリデラ,富山県氷見市森寺
9350333,富山県,氷見市,吉滝,トヤマケン,ヒミシ,ヨシタキ,富山県氷見市吉滝
9350334,富山県,氷見市,針木,トヤマケン,ヒミシ,ハリノキ,富山県氷見市針木
9350335,富山県,氷見市,胡桃,トヤマケン,ヒミシ,クルミ,富山県氷見市胡桃
9350336,富山県,氷見市,国見,トヤマケン,ヒミシ,クニミ,富山県氷見市国見
9350337,富山県,氷見市,小滝,トヤマケン,ヒミシ,オタキ,富山県氷見市小滝
9350338,富山県,氷見市,磯辺,トヤマケン,ヒミシ,イソベ,富山県氷見市磯辺
9350341,富山県,氷見市,一刎,トヤマケン,ヒミシ,ヒトハネ,富山県氷見市一刎
9350342,富山県,氷見市,吉懸,トヤマケン,ヒミシ,ヨシガケ,富山県氷見市吉懸
9350343,富山県,氷見市,味川,トヤマケン,ヒミシ,アジカワ,富山県氷見市味川
9350344,富山県,氷見市,上余川,トヤマケン,ヒミシ,カミヨカワ,富山県氷見市上余川
9350345,富山県,氷見市,寺尾,トヤマケン,ヒミシ,テラオ,富山県氷見市寺尾
9350346,富山県,氷見市,懸札,トヤマケン,ヒミシ,カケフダ,富山県氷見市懸札
9350401,富山県,氷見市,脇,トヤマケン,ヒミシ,ワキ,富山県氷見市脇
9350402,富山県,氷見市,中波,トヤマケン,ヒミシ,ナカナミ,富山県氷見市中波
9350403,富山県,氷見市,中田,トヤマケン,ヒミシ,ナカタ,富山県氷見市中田
9350404,富山県,氷見市,平沢,トヤマケン,ヒミシ,ヒラサワ,富山県氷見市平沢
9350405,富山県,氷見市,吉岡,トヤマケン,ヒミシ,ヨシオカ,富山県氷見市吉岡
9350406,富山県,氷見市,平,トヤマケン,ヒミシ,ダイラ,富山県氷見市平
9350411,富山県,氷見市,姿,トヤマケン,ヒミシ,スガタ,富山県氷見市姿
9350412,富山県,氷見市,大境,トヤマケン,ヒミシ,オオザカイ,富山県氷見市大境
9350413,富山県,氷見市,小境,トヤマケン,ヒミシ,コザカイ,富山県氷見市小境
9350414,富山県,氷見市,白川,トヤマケン,ヒミシ,シラガワ,富山県氷見市白川
9350415,富山県,氷見市,戸津宮,トヤマケン,ヒミシ,トツミヤ,富山県氷見市戸津宮
9350416,富山県,氷見市,大窪,トヤマケン,ヒミシ,オオクボ,富山県氷見市大窪
9350417,富山県,氷見市,長坂,トヤマケン,ヒミシ,ナガサカ,富山県氷見市長坂
9350421,富山県,氷見市,脇方,トヤマケン,ヒミシ,ワキガタ,富山県氷見市脇方
9350422,富山県,氷見市,宇波,トヤマケン,ヒミシ,ウナミ,富山県氷見市宇波
9350423,富山県,氷見市,泊,トヤマケン,ヒミシ,トマリ,富山県氷見市泊
9350424,富山県,氷見市,小杉,トヤマケン,ヒミシ,コスギ,富山県氷見市小杉
9350425,富山県,氷見市,薮田,トヤマケン,ヒミシ,ヤブタ,富山県氷見市薮田
9350426,富山県,氷見市,五十谷,トヤマケン,ヒミシ,イカダニ,富山県氷見市五十谷
9360000,富山県,滑川市,,トヤマケン,ナメリカワシ,,富山県滑川市
9360001,富山県,滑川市,三ケ,トヤマケン,ナメリカワシ,サンガ,富山県滑川市三ケ
9360002,富山県,滑川市,中村,トヤマケン,ナメリカワシ,ナカムラ,富山県滑川市中村
9360003,富山県,滑川市,吉浦,トヤマケン,ナメリカワシ,ヨシウラ,富山県滑川市吉浦
9360004,富山県,滑川市,笠木,トヤマケン,ナメリカワシ,カサギ,富山県滑川市笠木
9360005,富山県,滑川市,浜四ツ屋,トヤマケン,ナメリカワシ,ハマヨツヤ,富山県滑川市浜四ツ屋
9360006,富山県,滑川市,荒俣,トヤマケン,ナメリカワシ,アラマタ,富山県滑川市荒俣
9360007,富山県,滑川市,荒俣新町,トヤマケン,ナメリカワシ,アラマタシンマチ,富山県滑川市荒俣新町
9360011,富山県,滑川市,高塚,トヤマケン,ナメリカワシ,タカツカ,富山県滑川市高塚
9360012,富山県,滑川市,高塚曙町,トヤマケン,ナメリカワシ,タカツカアケボノチョウ,富山県滑川市高塚曙町
9360013,富山県,滑川市,高塚新市営住宅,トヤマケン,ナメリカワシ,タカツカシンシエイジュウタク,富山県滑川市高塚新市営住宅
9360014,富山県,滑川市,高塚新町,トヤマケン,ナメリカワシ,タカツカシンマチ,富山県滑川市高塚新町
9360015,富山県,滑川市,高塚寿町,トヤマケン,ナメリカワシ,タカツカコトブキマチ,富山県滑川市高塚寿町
9360016,富山県,滑川市,曲渕,トヤマケン,ナメリカワシ,マガリブチ,富山県滑川市曲渕
9360017,富山県,滑川市,二ツ破,トヤマケン,ナメリカワシ,フタツヤブリ,富山県滑川市二ツ破
9360018,富山県,滑川市,坪川,トヤマケン,ナメリカワシ,ツボカワ,富山県滑川市坪川
9360019,富山県,滑川市,坪川新,トヤマケン,ナメリカワシ,ツボカワシン,富山県滑川市坪川新
9360021,富山県,滑川市,中川原,トヤマケン,ナメリカワシ,ナカガワラ,富山県滑川市中川原
9360022,富山県,滑川市,辰野新町,トヤマケン,ナメリカワシ,タツノシンマチ,富山県滑川市辰野新町
9360023,富山県,滑川市,柳原,トヤマケン,ナメリカワシ,ヤナギハラ,富山県滑川市柳原
9360024,富山県,滑川市,辰野,トヤマケン,ナメリカワシ,タツノ,富山県滑川市辰野
9360025,富山県,滑川市,柳原新町,トヤマケン,ナメリカワシ,ヤナギハラシンマチ,富山県滑川市柳原新町
9360026,富山県,滑川市,公園通り,トヤマケン,ナメリカワシ,コウエンドオリ,富山県滑川市公園通り
9360027,富山県,滑川市,常盤町,トヤマケン,ナメリカワシ,トキワチョウ,富山県滑川市常盤町
9360031,富山県,滑川市,今町,トヤマケン,ナメリカワシ,イママチ,富山県滑川市今町
9360032,富山県,滑川市,神明町,トヤマケン,ナメリカワシ,シンメイチョウ,富山県滑川市神明町
9360033,富山県,滑川市,吾妻町,トヤマケン,ナメリカワシ,アヅマチョウ,富山県滑川市吾妻町
9360034,富山県,滑川市,吾妻町（雇用促進住宅）,トヤマケン,ナメリカワシ,アヅマチョウ(コヨウソクシンジュウタク),富山県滑川市吾妻町（雇用促進住宅）
9360035,富山県,滑川市,四間町,トヤマケン,ナメリカワシ,シケンチョウ,富山県滑川市四間町
9360036,富山県,滑川市,中町,トヤマケン,ナメリカワシ,ナカマチ,富山県滑川市中町
9360037,富山県,滑川市,武平太町,トヤマケン,ナメリカワシ,ブヘダマチ,富山県滑川市武平太町
9360038,富山県,滑川市,北町,トヤマケン,ナメリカワシ,キタマチ,富山県滑川市北町
9360039,富山県,滑川市,夷子町,トヤマケン,ナメリカワシ,エビスマチ,富山県滑川市夷子町
9360041,富山県,滑川市,松原町,トヤマケン,ナメリカワシ,マツバラチョウ,富山県滑川市松原町
9360042,富山県,滑川市,荒町,トヤマケン,ナメリカワシ,アラマチ,富山県滑川市荒町
9360043,富山県,滑川市,瓢町,トヤマケン,ナメリカワシ,フクベチョウ,富山県滑川市瓢町
9360044,富山県,滑川市,馬町,トヤマケン,ナメリカワシ,ウママチ,富山県滑川市馬町
9360045,富山県,滑川市,七間町,トヤマケン,ナメリカワシ,シチケンチョウ,富山県滑川市七間町
9360046,富山県,滑川市,河浦町,トヤマケン,ナメリカワシ,カワウラチョウ,富山県滑川市河浦町
9360047,富山県,滑川市,大町,トヤマケン,ナメリカワシ,オオマチ,富山県滑川市大町
9360048,富山県,滑川市,三穂町,トヤマケン,ナメリカワシ,ミホマチ,富山県滑川市三穂町
9360051,富山県,滑川市,寺家町,トヤマケン,ナメリカワシ,ジケイマチ,富山県滑川市寺家町
9360052,富山県,滑川市,清水町,トヤマケン,ナメリカワシ,シミズチョウ,富山県滑川市清水町
9360053,富山県,滑川市,上小泉,トヤマケン,ナメリカワシ,カミコイズミ,富山県滑川市上小泉
9360054,富山県,滑川市,上小泉（雇用促進住宅）,トヤマケン,ナメリカワシ,カミコイズミ(コヨウソクシンジュウタク),富山県滑川市上小泉（雇用促進住宅）
9360055,富山県,滑川市,泉ケ丘,トヤマケン,ナメリカワシ,イズミガオカ,富山県滑川市泉ケ丘
9360056,富山県,滑川市,田中新町,トヤマケン,ナメリカワシ,タナカシンマチ,富山県滑川市田中新町
9360057,富山県,滑川市,田中町,トヤマケン,ナメリカワシ,タナカマチ,富山県滑川市田中町
9360058,富山県,滑川市,下小泉町,トヤマケン,ナメリカワシ,シモコイズミマチ,富山県滑川市下小泉町
9360059,富山県,滑川市,晒屋,トヤマケン,ナメリカワシ,サラシヤ,富山県滑川市晒屋
9360060,富山県,滑川市,神家町,トヤマケン,ナメリカワシ,ジンカマチ,富山県滑川市神家町
9360061,富山県,滑川市,浜町,トヤマケン,ナメリカワシ,ハママチ,富山県滑川市浜町
9360062,富山県,滑川市,橋場町,トヤマケン,ナメリカワシ,ハシバマチ,富山県滑川市橋場町
9360063,富山県,滑川市,瀬羽町,トヤマケン,ナメリカワシ,セワマチ,富山県滑川市瀬羽町
9360064,富山県,滑川市,河端町,トヤマケン,ナメリカワシ,カワバタマチ,富山県滑川市河端町
9360065,富山県,滑川市,下島,トヤマケン,ナメリカワシ,シモジマ,富山県滑川市下島
9360066,富山県,滑川市,菰原,トヤマケン,ナメリカワシ,コモハラ,富山県滑川市菰原
9360067,富山県,滑川市,菰原台,トヤマケン,ナメリカワシ,コモハラダイ,富山県滑川市菰原台
9360068,富山県,滑川市,加島町,トヤマケン,ナメリカワシ,カシマチョウ,富山県滑川市加島町
9360069,富山県,滑川市,山王町,トヤマケン,ナメリカワシ,サンノウマチ,富山県滑川市山王町
9360070,富山県,滑川市,横町,トヤマケン,ナメリカワシ,ヨコチョウ,富山県滑川市横町
9360071,富山県,滑川市,領家町,トヤマケン,ナメリカワシ,リョウケマチ,富山県滑川市領家町
9360072,富山県,滑川市,緑町,トヤマケン,ナメリカワシ,ミドリマチ,富山県滑川市緑町
9360073,富山県,滑川市,幸町,トヤマケン,ナメリカワシ,サイワイチョウ,富山県滑川市幸町
9360074,富山県,滑川市,新富町,トヤマケン,ナメリカワシ,シントミチョウ,富山県滑川市新富町
9360075,富山県,滑川市,江尻,トヤマケン,ナメリカワシ,エジリ,富山県滑川市江尻
9360076,富山県,滑川市,高月南台,トヤマケン,ナメリカワシ,タカツキミナミダイ,富山県滑川市高月南台
9360077,富山県,滑川市,魚躬,トヤマケン,ナメリカワシ,ウオノミ,富山県滑川市魚躬
9360078,富山県,滑川市,高月町,トヤマケン,ナメリカワシ,タカツキマチ,富山県滑川市高月町
9360801,富山県,滑川市,大島,トヤマケン,ナメリカワシ,オオジマ,富山県滑川市大島
9360802,富山県,滑川市,大掛,トヤマケン,ナメリカワシ,オオガケ,富山県滑川市大掛
9360803,富山県,滑川市,栗山,トヤマケン,ナメリカワシ,クリヤマ,富山県滑川市栗山
9360804,富山県,滑川市,杉本,トヤマケン,ナメリカワシ,スギモト,富山県滑川市杉本
9360805,富山県,滑川市,大窪,トヤマケン,ナメリカワシ,オオクボ,富山県滑川市大窪
9360806,富山県,滑川市,北野,トヤマケン,ナメリカワシ,キタノ,富山県滑川市北野
9360807,富山県,滑川市,四ツ屋,トヤマケン,ナメリカワシ,ヨツヤ,富山県滑川市四ツ屋
9360808,富山県,滑川市,追分,トヤマケン,ナメリカワシ,オイワケ,富山県滑川市追分
9360811,富山県,滑川市,上大浦,トヤマケン,ナメリカワシ,カミオオウラ,富山県滑川市上大浦
9360811,富山県,滑川市,下大浦,トヤマケン,ナメリカワシ,シモオオウラ,富山県滑川市下大浦
9360811,富山県,滑川市,大浦,トヤマケン,ナメリカワシ,オオウラ,富山県滑川市大浦
9360812,富山県,滑川市,堀内,トヤマケン,ナメリカワシ,ホリウチ,富山県滑川市堀内
9360813,富山県,滑川市,大日,トヤマケン,ナメリカワシ,ダイニチ,富山県滑川市大日
9360814,富山県,滑川市,千鳥,トヤマケン,ナメリカワシ,チドリ,富山県滑川市千鳥
9360815,富山県,滑川市,室山,トヤマケン,ナメリカワシ,ムロヤマ,富山県滑川市室山
9360816,富山県,滑川市,中野,トヤマケン,ナメリカワシ,ナカノ,富山県滑川市中野
9360817,富山県,滑川市,下野,トヤマケン,ナメリカワシ,シモノ,富山県滑川市下野
9360818,富山県,滑川市,大林,トヤマケン,ナメリカワシ,オオバヤシ,富山県滑川市大林
9360821,富山県,滑川市,蓑輪,トヤマケン,ナメリカワシ,ミノワ,富山県滑川市蓑輪
9360822,富山県,滑川市,小森,トヤマケン,ナメリカワシ,コモリ,富山県滑川市小森
9360823,富山県,滑川市,東福寺野,トヤマケン,ナメリカワシ,トウフクジノ,富山県滑川市東福寺野
9360824,富山県,滑川市,本江,トヤマケン,ナメリカワシ,ホンゴウ,富山県滑川市本江
9360825,富山県,滑川市,安田,トヤマケン,ナメリカワシ,ヤスダ,富山県滑川市安田
9360826,富山県,滑川市,田林,トヤマケン,ナメリカワシ,タバヤシ,富山県滑川市田林
9360827,富山県,滑川市,東福寺,トヤマケン,ナメリカワシ,トウフクジ,富山県滑川市東福寺
9360831,富山県,滑川市,野尻,トヤマケン,ナメリカワシ,ノジリ,富山県滑川市野尻
9360832,富山県,滑川市,森野新,トヤマケン,ナメリカワシ,モリノシン,富山県滑川市森野新
9360833,富山県,滑川市,大崎野,トヤマケン,ナメリカワシ,オオサキノ,富山県滑川市大崎野
9360834,富山県,滑川市,東福寺開,トヤマケン,ナメリカワシ,トウフクジビラキ,富山県滑川市東福寺開
9360835,富山県,滑川市,開,トヤマケン,ナメリカワシ,ヒラキ,富山県滑川市開
9360836,富山県,滑川市,改養寺,トヤマケン,ナメリカワシ,カイヨウジ,富山県滑川市改養寺
9360837,富山県,滑川市,東金屋,トヤマケン,ナメリカワシ,ヒガシカナヤ,富山県滑川市東金屋
9360838,富山県,滑川市,道寺,トヤマケン,ナメリカワシ,ドウジ,富山県滑川市道寺
9360841,富山県,滑川市,柴,トヤマケン,ナメリカワシ,シバ,富山県滑川市柴
9360842,富山県,滑川市,赤浜栄町,トヤマケン,ナメリカワシ,アカハマサカエマチ,富山県滑川市赤浜栄町
9360843,富山県,滑川市,赤浜,トヤマケン,ナメリカワシ,アカハマ,富山県滑川市赤浜
9360844,富山県,滑川市,寺町,トヤマケン,ナメリカワシ,テラマチ,富山県滑川市寺町
9360845,富山県,滑川市,森尻新,トヤマケン,ナメリカワシ,モリジリシン,富山県滑川市森尻新
9360846,富山県,滑川市,堀江,トヤマケン,ナメリカワシ,ホリエ,富山県滑川市堀江
9360847,富山県,滑川市,天望町,トヤマケン,ナメリカワシ,テンボウチョウ,富山県滑川市天望町
9360848,富山県,滑川市,常光寺,トヤマケン,ナメリカワシ,ジョウコウジ,富山県滑川市常光寺
9360849,富山県,滑川市,高柳,トヤマケン,ナメリカワシ,タカヤナギ,富山県滑川市高柳
9360851,富山県,滑川市,沖田新,トヤマケン,ナメリカワシ,オキダシン,富山県滑川市沖田新
9360852,富山県,滑川市,上島,トヤマケン,ナメリカワシ,カミジマ,富山県滑川市上島
9360853,富山県,滑川市,上梅沢,トヤマケン,ナメリカワシ,カミウメザワ,富山県滑川市上梅沢
9360854,富山県,滑川市,小林,トヤマケン,ナメリカワシ,コバヤシ,富山県滑川市小林
9360855,富山県,滑川市,有金,トヤマケン,ナメリカワシ,アリカネ,富山県滑川市有金
9360856,富山県,滑川市,大門,トヤマケン,ナメリカワシ,ダイモン,富山県滑川市大門
9360857,富山県,滑川市,下梅沢,トヤマケン,ナメリカワシ,シモウメザワ,富山県滑川市下梅沢
9360861,富山県,滑川市,中新,トヤマケン,ナメリカワシ,ナカシン,富山県滑川市中新
9360862,富山県,滑川市,四屋新,トヤマケン,ナメリカワシ,ヨツヤシン,富山県滑川市四屋新
9360863,富山県,滑川市,栃山,トヤマケン,ナメリカワシ,トチヤマ,富山県滑川市栃山
9360864,富山県,滑川市,金屋,トヤマケン,ナメリカワシ,カナヤ,富山県滑川市金屋
9360865,富山県,滑川市,七口,トヤマケン,ナメリカワシ,ナナクチ,富山県滑川市七口
9360866,富山県,滑川市,宮窪新,トヤマケン,ナメリカワシ,ミヤノクボシン,富山県滑川市宮窪新
9360867,富山県,滑川市,宮窪台,トヤマケン,ナメリカワシ,ミヤノクボダイ,富山県滑川市宮窪台
9360868,富山県,滑川市,宮窪,トヤマケン,ナメリカワシ,ミヤノクボ,富山県滑川市宮窪
9360871,富山県,滑川市,大島新,トヤマケン,ナメリカワシ,オオジマシン,富山県滑川市大島新
9360872,富山県,滑川市,二塚,トヤマケン,ナメリカワシ,フタツカ,富山県滑川市二塚
9360873,富山県,滑川市,横道,トヤマケン,ナメリカワシ,ヨコミチ,富山県滑川市横道
9360874,富山県,滑川市,大榎,トヤマケン,ナメリカワシ,オオエノキ,富山県滑川市大榎
9360875,富山県,滑川市,中塚,トヤマケン,ナメリカワシ,ナカツカ,富山県滑川市中塚
9360876,富山県,滑川市,稲泉新,トヤマケン,ナメリカワシ,イナイズミシン,富山県滑川市稲泉新
9360877,富山県,滑川市,稲泉,トヤマケン,ナメリカワシ,イナイズミ,富山県滑川市稲泉
9360881,富山県,滑川市,藤栄,トヤマケン,ナメリカワシ,フジエイ,富山県滑川市藤栄
9360882,富山県,滑川市,中野島,トヤマケン,ナメリカワシ,ナカノシマ,富山県滑川市中野島
9360883,富山県,滑川市,野町,トヤマケン,ナメリカワシ,ノマチ,富山県滑川市野町
9360884,富山県,滑川市,米島,トヤマケン,ナメリカワシ,ヨネジマ,富山県滑川市米島
9360885,富山県,滑川市,法花寺,トヤマケン,ナメリカワシ,ホッケジ,富山県滑川市法花寺
9360891,富山県,中新川郡上市町,護摩堂,トヤマケン,ナカニイカワグンカミイチマチ,ゴマドウ,富山県中新川郡上市町護摩堂
9370000,富山県,魚津市,,トヤマケン,ウオヅシ,,富山県魚津市
9370001,富山県,魚津市,浜経田,トヤマケン,ウオヅシ,ハマキョウデン,富山県魚津市浜経田
9370002,富山県,魚津市,平伝寺,トヤマケン,ウオヅシ,ヘイデンジ,富山県魚津市平伝寺
9370003,富山県,魚津市,持光寺,トヤマケン,ウオヅシ,ジコウジ,富山県魚津市持光寺
9370004,富山県,魚津市,岡経田,トヤマケン,ウオヅシ,オカキョウデン,富山県魚津市岡経田
9370005,富山県,魚津市,天王,トヤマケン,ウオヅシ,テンノウ,富山県魚津市天王
9370006,富山県,魚津市,経田西町,トヤマケン,ウオヅシ,キョウデンニシマチ,富山県魚津市経田西町
9370007,富山県,魚津市,経田中町,トヤマケン,ウオヅシ,キョウデンナカマチ,富山県魚津市経田中町
9370008,富山県,魚津市,東町,トヤマケン,ウオヅシ,ヒガシマチ,富山県魚津市東町
9370009,富山県,魚津市,寿町,トヤマケン,ウオヅシ,コトブキマチ,富山県魚津市寿町
9370010,富山県,魚津市,新経田,トヤマケン,ウオヅシ,シンキョウデン,富山県魚津市新経田
9370011,富山県,魚津市,木下新,トヤマケン,ウオヅシ,キノシタシン,富山県魚津市木下新
9370012,富山県,魚津市,東尾崎,トヤマケン,ウオヅシ,ヒガシオザキ,富山県魚津市東尾崎
9370013,富山県,魚津市,天神野新,トヤマケン,ウオヅシ,テンジンノシン,富山県魚津市天神野新
9370014,富山県,魚津市,青柳,トヤマケン,ウオヅシ,アオヤナギ,富山県魚津市青柳
9370015,富山県,魚津市,東山,トヤマケン,ウオヅシ,ヒガシヤマ,富山県魚津市東山
9370016,富山県,魚津市,立石,トヤマケン,ウオヅシ,タテイシ,富山県魚津市立石
9370017,富山県,魚津市,江口,トヤマケン,ウオヅシ,エグチ,富山県魚津市江口
9370018,富山県,魚津市,西尾崎,トヤマケン,ウオヅシ,ニシオサキ,富山県魚津市西尾崎
9370021,富山県,魚津市,蛇田,トヤマケン,ウオヅシ,ヘビタ,富山県魚津市蛇田
9370022,富山県,魚津市,小川寺,トヤマケン,ウオヅシ,オガワジ,富山県魚津市小川寺
9370023,富山県,魚津市,長引野,トヤマケン,ウオヅシ,ナガビキノ,富山県魚津市長引野
9370024,富山県,魚津市,布施爪,トヤマケン,ウオヅシ,フセヅメ,富山県魚津市布施爪
9370025,富山県,魚津市,黒沢,トヤマケン,ウオヅシ,クロサワ,富山県魚津市黒沢
9370026,富山県,魚津市,大沢,トヤマケン,ウオヅシ,オオサワ,富山県魚津市大沢
9370027,富山県,魚津市,御影,トヤマケン,ウオヅシ,ミカゲ,富山県魚津市御影
9370028,富山県,魚津市,日尾,トヤマケン,ウオヅシ,ヒオ,富山県魚津市日尾
9370031,富山県,魚津市,道坂,トヤマケン,ウオヅシ,ドウザカ,富山県魚津市道坂
9370032,富山県,魚津市,貝田新,トヤマケン,ウオヅシ,カイダシン,富山県魚津市貝田新
9370033,富山県,魚津市,島尻,トヤマケン,ウオヅシ,シマジリ,富山県魚津市島尻
9370034,富山県,魚津市,東城,トヤマケン,ウオヅシ,トウジョウ,富山県魚津市東城
9370035,富山県,魚津市,黒谷,トヤマケン,ウオヅシ,クロダニ,富山県魚津市黒谷
9370036,富山県,魚津市,山女,トヤマケン,ウオヅシ,アケビ,富山県魚津市山女
9370037,富山県,魚津市,東蔵,トヤマケン,ウオヅシ,トウゾウ,富山県魚津市東蔵
9370038,富山県,魚津市,平沢,トヤマケン,ウオヅシ,ヒラサワ,富山県魚津市平沢
9370039,富山県,魚津市,大菅沼,トヤマケン,ウオヅシ,オオスガヌマ,富山県魚津市大菅沼
9370041,富山県,魚津市,吉島,トヤマケン,ウオヅシ,キチジマ,富山県魚津市吉島
9370042,富山県,魚津市,六郎丸,トヤマケン,ウオヅシ,ロクロウマル,富山県魚津市六郎丸
9370043,富山県,魚津市,袋,トヤマケン,ウオヅシ,フクロ,富山県魚津市袋
9370044,富山県,魚津市,横枕,トヤマケン,ウオヅシ,ヨコマクラ,富山県魚津市横枕
9370045,富山県,魚津市,相木,トヤマケン,ウオヅシ,アイノキ,富山県魚津市相木
9370046,富山県,魚津市,上村木,トヤマケン,ウオヅシ,カミムラキ,富山県魚津市上村木
9370047,富山県,魚津市,相木新,トヤマケン,ウオヅシ,アイノキシン,富山県魚津市相木新
9370051,富山県,魚津市,駅前新町,トヤマケン,ウオヅシ,エキマエシンマチ,富山県魚津市駅前新町
9370052,富山県,魚津市,緑町,トヤマケン,ウオヅシ,ミドリチョウ,富山県魚津市緑町
9370053,富山県,魚津市,村木町,トヤマケン,ウオヅシ,ムラキマチ,富山県魚津市村木町
9370054,富山県,魚津市,金浦町,トヤマケン,ウオヅシ,カナウラマチ,富山県魚津市金浦町
9370055,富山県,魚津市,中央通り,トヤマケン,ウオヅシ,チュウオウドオリ,富山県魚津市中央通り
9370056,富山県,魚津市,諏訪町,トヤマケン,ウオヅシ,スワマチ,富山県魚津市諏訪町
9370057,富山県,魚津市,港町,トヤマケン,ウオヅシ,ミナトマチ,富山県魚津市港町
9370058,富山県,魚津市,火の宮町,トヤマケン,ウオヅシ,ヒノミヤマチ,富山県魚津市火の宮町
9370059,富山県,魚津市,末広町,トヤマケン,ウオヅシ,スエヒロチョウ,富山県魚津市末広町
9370061,富山県,魚津市,仏田,トヤマケン,ウオヅシ,ブツデン,富山県魚津市仏田
9370062,富山県,魚津市,仏又,トヤマケン,ウオヅシ,ブツマタ,富山県魚津市仏又
9370063,富山県,魚津市,青島,トヤマケン,ウオヅシ,アオジマ,富山県魚津市青島
9370064,富山県,魚津市,高畠,トヤマケン,ウオヅシ,タカバタケ,富山県魚津市高畠
9370065,富山県,魚津市,北中,トヤマケン,ウオヅシ,キタナカ,富山県魚津市北中
9370066,富山県,魚津市,北鬼江,トヤマケン,ウオヅシ,キタオニエ,富山県魚津市北鬼江
9370067,富山県,魚津市,釈迦堂,トヤマケン,ウオヅシ,シャカドウ,富山県魚津市釈迦堂
9370068,富山県,魚津市,本新,トヤマケン,ウオヅシ,モトシン,富山県魚津市本新
9370068,富山県,魚津市,本新町,トヤマケン,ウオヅシ,モトシンマチ,富山県魚津市本新町
9370801,富山県,魚津市,新金屋,トヤマケン,ウオヅシ,シンカナヤ,富山県魚津市新金屋
9370802,富山県,魚津市,下村木町,トヤマケン,ウオヅシ,シモムラキマチ,富山県魚津市下村木町
9370803,富山県,魚津市,本江新町,トヤマケン,ウオヅシ,ホンゴウシンマチ,富山県魚津市本江新町
9370804,富山県,魚津市,並木町,トヤマケン,ウオヅシ,ナミキチョウ,富山県魚津市並木町
9370805,富山県,魚津市,本江,トヤマケン,ウオヅシ,ホンゴウ,富山県魚津市本江
9370806,富山県,魚津市,友道,トヤマケン,ウオヅシ,トモミチ,富山県魚津市友道
9370807,富山県,魚津市,大光寺,トヤマケン,ウオヅシ,ダイコウジ,富山県魚津市大光寺
9370811,富山県,魚津市,三田,トヤマケン,ウオヅシ,サンダ,富山県魚津市三田
9370812,富山県,魚津市,印田,トヤマケン,ウオヅシ,インデン,富山県魚津市印田
9370813,富山県,魚津市,石垣新,トヤマケン,ウオヅシ,イシガキシン,富山県魚津市石垣新
9370814,富山県,魚津市,石垣,トヤマケン,ウオヅシ,イシガキ,富山県魚津市石垣
9370815,富山県,魚津市,大海寺新,トヤマケン,ウオヅシ,ダイカイジシン,富山県魚津市大海寺新
9370816,富山県,魚津市,大海寺野,トヤマケン,ウオヅシ,ダイカイジノ,富山県魚津市大海寺野
9370821,富山県,魚津市,出,トヤマケン,ウオヅシ,イデ,富山県魚津市出
9370822,富山県,魚津市,舛田,トヤマケン,ウオヅシ,マスダ,富山県魚津市舛田
9370823,富山県,魚津市,湯上,トヤマケン,ウオヅシ,ユノエ,富山県魚津市湯上
9370824,富山県,魚津市,室田,トヤマケン,ウオヅシ,ムロダ,富山県魚津市室田
9370825,富山県,魚津市,稗畠,トヤマケン,ウオヅシ,ヒエバタケ,富山県魚津市稗畠
9370826,富山県,魚津市,北山,トヤマケン,ウオヅシ,キタヤマ,富山県魚津市北山
9370827,富山県,魚津市,坪野,トヤマケン,ウオヅシ,ツボノ,富山県魚津市坪野
9370828,富山県,魚津市,池谷,トヤマケン,ウオヅシ,イケダニ,富山県魚津市池谷
9370831,富山県,魚津市,観音堂,トヤマケン,ウオヅシ,カンノンドウ,富山県魚津市観音堂
9370832,富山県,魚津市,金山谷,トヤマケン,ウオヅシ,カナヤマダニ,富山県魚津市金山谷
9370833,富山県,魚津市,小菅沼,トヤマケン,ウオヅシ,コスガヌマ,富山県魚津市小菅沼
9370834,富山県,魚津市,鹿熊,トヤマケン,ウオヅシ,カクマ,富山県魚津市鹿熊
9370835,富山県,魚津市,大熊,トヤマケン,ウオヅシ,オオクマ,富山県魚津市大熊
9370836,富山県,魚津市,鉢,トヤマケン,ウオヅシ,ハチ,富山県魚津市鉢
9370837,富山県,魚津市,虎谷,トヤマケン,ウオヅシ,トラダニ,富山県魚津市虎谷
9370841,富山県,魚津市,佐伯,トヤマケン,ウオヅシ,サエキ,富山県魚津市佐伯
9370842,富山県,魚津市,吉野,トヤマケン,ウオヅシ,ヨシノ,富山県魚津市吉野
9370843,富山県,魚津市,上野,トヤマケン,ウオヅシ,ウワノ,富山県魚津市上野
9370844,富山県,魚津市,下椿,トヤマケン,ウオヅシ,シモツバキ,富山県魚津市下椿
9370845,富山県,魚津市,舛方,トヤマケン,ウオヅシ,マスカタ,富山県魚津市舛方
9370846,富山県,魚津市,有山,トヤマケン,ウオヅシ,アリヤマ,富山県魚津市有山
9370847,富山県,魚津市,浅生,トヤマケン,ウオヅシ,アソウ,富山県魚津市浅生
9370851,富山県,魚津市,住吉,トヤマケン,ウオヅシ,スミヨシ,富山県魚津市住吉
9370852,富山県,魚津市,慶野,トヤマケン,ウオヅシ,ケイノ,富山県魚津市慶野
9370853,富山県,魚津市,宮津,トヤマケン,ウオヅシ,ミヤヅ,富山県魚津市宮津
9370854,富山県,魚津市,弥源寺,トヤマケン,ウオヅシ,ヤゲンジ,富山県魚津市弥源寺
9370855,富山県,魚津市,川原,トヤマケン,ウオヅシ,カワハラ,富山県魚津市川原
9370856,富山県,魚津市,川縁,トヤマケン,ウオヅシ,カワベリ,富山県魚津市川縁
9370857,富山県,魚津市,三ケ,トヤマケン,ウオヅシ,サンガ,富山県魚津市三ケ
9370861,富山県,魚津市,鴨川町,トヤマケン,ウオヅシ,カモガワマチ,富山県魚津市鴨川町
9370862,富山県,魚津市,文化町,トヤマケン,ウオヅシ,ブンカマチ,富山県魚津市文化町
9370863,富山県,魚津市,新宿,トヤマケン,ウオヅシ,シンジュク,富山県魚津市新宿
9370864,富山県,魚津市,新角川,トヤマケン,ウオヅシ,シンカドガワ,富山県魚津市新角川
9370865,富山県,魚津市,上口,トヤマケン,ウオヅシ,カミグチ,富山県魚津市上口
9370866,富山県,魚津市,本町,トヤマケン,ウオヅシ,ホンマチ,富山県魚津市本町
9370867,富山県,魚津市,真成寺町,トヤマケン,ウオヅシ,シンジョウジマチ,富山県魚津市真成寺町
9370868,富山県,魚津市,双葉町,トヤマケン,ウオヅシ,フタバチョウ,富山県魚津市双葉町
9380000,富山県,黒部市,,トヤマケン,クロベシ,,富山県黒部市
9380001,富山県,黒部市,荒俣,トヤマケン,クロベシ,アラマタ,富山県黒部市荒俣
9380002,富山県,黒部市,飛騨,トヤマケン,クロベシ,ヒダ,富山県黒部市飛騨
9380003,富山県,黒部市,六天,トヤマケン,クロベシ,ロクテン,富山県黒部市六天
9380004,富山県,黒部市,飯沢,トヤマケン,クロベシ,イイザワ,富山県黒部市飯沢
9380005,富山県,黒部市,吉田,トヤマケン,クロベシ,ヨシダ,富山県黒部市吉田
9380006,富山県,黒部市,大開,トヤマケン,クロベシ,オオビラキ,富山県黒部市大開
9380011,富山県,黒部市,黒部新,トヤマケン,クロベシ,クロベシン,富山県黒部市黒部新
9380012,富山県,黒部市,出島,トヤマケン,クロベシ,デジマ,富山県黒部市出島
9380013,富山県,黒部市,沓掛,トヤマケン,クロベシ,クツカケ,富山県黒部市沓掛
9380014,富山県,黒部市,植木,トヤマケン,クロベシ,ウエキ,富山県黒部市植木
9380015,富山県,黒部市,北野,トヤマケン,クロベシ,キタノ,富山県黒部市北野
9380021,富山県,黒部市,古御堂,トヤマケン,クロベシ,フルミドウ,富山県黒部市古御堂
9380022,富山県,黒部市,金屋,トヤマケン,クロベシ,カナヤ,富山県黒部市金屋
9380023,富山県,黒部市,堀高,トヤマケン,クロベシ,ホリタカ,富山県黒部市堀高
9380024,富山県,黒部市,高橋,トヤマケン,クロベシ,タカハシ,富山県黒部市高橋
9380025,富山県,黒部市,堀切新,トヤマケン,クロベシ,ホリキリシン,富山県黒部市堀切新
9380026,富山県,黒部市,田家角内,トヤマケン,クロベシ,タイガグチ,富山県黒部市田家角内
9380027,富山県,黒部市,中新,トヤマケン,クロベシ,ナカシン,富山県黒部市中新
9380028,富山県,黒部市,栃沢,トヤマケン,クロベシ,トチザワ,富山県黒部市栃沢
9380031,富山県,黒部市,三日市,トヤマケン,クロベシ,ミッカイチ,富山県黒部市三日市
9380032,富山県,黒部市,天池,トヤマケン,クロベシ,アマイケ,富山県黒部市天池
9380033,富山県,黒部市,中野道,トヤマケン,クロベシ,ナカノミチ,富山県黒部市中野道
9380034,富山県,黒部市,中野,トヤマケン,クロベシ,ナカノ,富山県黒部市中野
9380035,富山県,黒部市,牧野,トヤマケン,クロベシ,マキノ,富山県黒部市牧野
9380036,富山県,黒部市,北新,トヤマケン,クロベシ,キタシン,富山県黒部市北新
9380037,富山県,黒部市,新牧野,トヤマケン,クロベシ,シンマキノ,富山県黒部市新牧野
9380038,富山県,黒部市,新天,トヤマケン,クロベシ,シンテン,富山県黒部市新天
9380039,富山県,黒部市,堂田,トヤマケン,クロベシ,ドウダ,富山県黒部市堂田
9380041,富山県,黒部市,堀切,トヤマケン,クロベシ,ホリキリ,富山県黒部市堀切
9380042,富山県,黒部市,天神新,トヤマケン,クロベシ,テンジンシン,富山県黒部市天神新
9380043,富山県,黒部市,犬山,トヤマケン,クロベシ,イヌヤマ,富山県黒部市犬山
9380044,富山県,黒部市,荒町,トヤマケン,クロベシ,アラマチ,富山県黒部市荒町
9380045,富山県,黒部市,田家新,トヤマケン,クロベシ,タイエシン,富山県黒部市田家新
9380046,富山県,黒部市,神谷,トヤマケン,クロベシ,コンタニ,富山県黒部市神谷
9380047,富山県,黒部市,窪野,トヤマケン,クロベシ,クボノ,富山県黒部市窪野
9380048,富山県,黒部市,阿古屋野,トヤマケン,クロベシ,アコヤノ,富山県黒部市阿古屋野
9380049,富山県,黒部市,山田,トヤマケン,クロベシ,ヤマダ,富山県黒部市山田
9380051,富山県,黒部市,立野,トヤマケン,クロベシ,タテノ,富山県黒部市立野
9380052,富山県,黒部市,経立野,トヤマケン,クロベシ,キョウタテノ,富山県黒部市経立野
9380053,富山県,黒部市,山立野,トヤマケン,クロベシ,ヤマタテノ,富山県黒部市山立野
9380054,富山県,黒部市,岡,トヤマケン,クロベシ,オカ,富山県黒部市岡
9380055,富山県,黒部市,浜石田,トヤマケン,クロベシ,ハマイシダ,富山県黒部市浜石田
9380056,富山県,黒部市,新町,トヤマケン,クロベシ,シンマチ,富山県黒部市新町
9380057,富山県,黒部市,石田新,トヤマケン,クロベシ,イシダシン,富山県黒部市石田新
9380058,富山県,黒部市,正光寺新,トヤマケン,クロベシ,ショウコウジシン,富山県黒部市正光寺新
9380059,富山県,黒部市,石田,トヤマケン,クロベシ,イシダ,富山県黒部市石田
9380061,富山県,黒部市,生地神区,トヤマケン,クロベシ,イクジシンク,富山県黒部市生地神区
9380062,富山県,黒部市,生地（轟下）,トヤマケン,クロベシ,イクジ(トドロキシタ),富山県黒部市生地（轟下）
9380063,富山県,黒部市,生地四ツ屋新,トヤマケン,クロベシ,イクジヨツヤシン,富山県黒部市生地四ツ屋新
9380064,富山県,黒部市,生地（緑町）,トヤマケン,クロベシ,イクジ(ミドリマチ),富山県黒部市生地（緑町）
9380065,富山県,黒部市,生地（神明町）,トヤマケン,クロベシ,イクジ(シンメイマチ),富山県黒部市生地（神明町）
9380066,富山県,黒部市,生地,トヤマケン,クロベシ,イクジ,富山県黒部市生地
9380071,富山県,黒部市,生地山新,トヤマケン,クロベシ,イクジヤマシン,富山県黒部市生地山新
9380072,富山県,黒部市,生地中区,トヤマケン,クロベシ,イクジナカク,富山県黒部市生地中区
9380073,富山県,黒部市,生地（上町）,トヤマケン,クロベシ,イクジ(カミマチ),富山県黒部市生地（上町）
9380074,富山県,黒部市,生地（四十物町）,トヤマケン,クロベシ,イクジ(アイモノチョウ),富山県黒部市生地（四十物町）
9380075,富山県,黒部市,生地（大町）,トヤマケン,クロベシ,イクジ(オオマチ),富山県黒部市生地（大町）
9380076,富山県,黒部市,生地（宮川町）,トヤマケン,クロベシ,イクジ(ミヤガワチョウ),富山県黒部市生地（宮川町）
9380081,富山県,黒部市,生地経新,トヤマケン,クロベシ,イクジキョウシン,富山県黒部市生地経新
9380082,富山県,黒部市,生地芦区,トヤマケン,クロベシ,イクジアシク,富山県黒部市生地芦区
9380083,富山県,黒部市,生地（阿弥陀堂）,トヤマケン,クロベシ,イクジ(アミダドウ),富山県黒部市生地（阿弥陀堂）
9380084,富山県,黒部市,生地芦崎,トヤマケン,クロベシ,イクジアシザキ,富山県黒部市生地芦崎
9380085,富山県,黒部市,生地吉田,トヤマケン,クロベシ,イクジヨシダ,富山県黒部市生地吉田
9380086,富山県,黒部市,生地吉田新,トヤマケン,クロベシ,イクジヨシダシン,富山県黒部市生地吉田新
9380101,富山県,下新川郡入善町,今江,トヤマケン,シモニイカワグンニュウゼンマチ,イマエ,富山県下新川郡入善町今江
9380102,富山県,下新川郡入善町,古林,トヤマケン,シモニイカワグンニュウゼンマチ,フルバヤシ,富山県下新川郡入善町古林
9380103,富山県,下新川郡入善町,舟見,トヤマケン,シモニイカワグンニュウゼンマチ,フナミ,富山県下新川郡入善町舟見
9380104,富山県,下新川郡入善町,西中,トヤマケン,シモニイカワグンニュウゼンマチ,ニシナカ,富山県下新川郡入善町西中
9380105,富山県,下新川郡入善町,中沢,トヤマケン,シモニイカワグンニュウゼンマチ,ナカザワ,富山県下新川郡入善町中沢
9380106,富山県,下新川郡入善町,野中,トヤマケン,シモニイカワグンニュウゼンマチ,ノナカ,富山県下新川郡入善町野中
9380161,富山県,下新川郡朝日町,殿町,トヤマケン,シモニイカワグンアサヒマチ,トノマチ,富山県下新川郡朝日町殿町
9380162,富山県,下新川郡朝日町,山崎,トヤマケン,シモニイカワグンアサヒマチ,ヤマザキ,富山県下新川郡朝日町山崎
9380162,富山県,下新川郡朝日町,山崎（坊）,トヤマケン,シモニイカワグンアサヒマチ,ヤマザキ(ボウ),富山県下新川郡朝日町山崎（坊）
9380162,富山県,下新川郡朝日町,山崎（小在池）,トヤマケン,シモニイカワグンアサヒマチ,ヤマザキ(コザイケ),富山県下新川郡朝日町山崎（小在池）
9380162,富山県,下新川郡朝日町,山崎（岩崎）,トヤマケン,シモニイカワグンアサヒマチ,ヤマザキ(イワサキ),富山県下新川郡朝日町山崎（岩崎）
9380162,富山県,下新川郡朝日町,山崎（羽入）,トヤマケン,シモニイカワグンアサヒマチ,ヤマザキ(ハニュウ),富山県下新川郡朝日町山崎（羽入）
9380162,富山県,下新川郡朝日町,山崎（花房）,トヤマケン,シモニイカワグンアサヒマチ,ヤマザキ(ハナフサ),富山県下新川郡朝日町山崎（花房）
9380162,富山県,下新川郡朝日町,山崎（越）,トヤマケン,シモニイカワグンアサヒマチ,ヤマザキ(コシ),富山県下新川郡朝日町山崎（越）
9380162,富山県,下新川郡朝日町,山崎（辻）,トヤマケン,シモニイカワグンアサヒマチ,ヤマザキ(ツジ),富山県下新川郡朝日町山崎（辻）
9380163,富山県,下新川郡朝日町,湯ノ瀬,トヤマケン,シモニイカワグンアサヒマチ,ユノセ,富山県下新川郡朝日町湯ノ瀬
9380164,富山県,下新川郡朝日町,棚山,トヤマケン,シモニイカワグンアサヒマチ,タナヤマ,富山県下新川郡朝日町棚山
9380165,富山県,下新川郡朝日町,山崎新,トヤマケン,シモニイカワグンアサヒマチ,ヤマザキシン,富山県下新川郡朝日町山崎新
9380166,富山県,下新川郡朝日町,細野,トヤマケン,シモニイカワグンアサヒマチ,ホソノ,富山県下新川郡朝日町細野
9380167,富山県,下新川郡朝日町,山王,トヤマケン,シモニイカワグンアサヒマチ,サンノウ,富山県下新川郡朝日町山王
9380168,富山県,下新川郡朝日町,藤塚（横道）,トヤマケン,シモニイカワグンアサヒマチ,フジツカ(ヨコミチ),富山県下新川郡朝日町藤塚（横道）
9380169,富山県,下新川郡朝日町,下野,トヤマケン,シモニイカワグンアサヒマチ,シモノ,富山県下新川郡朝日町下野
9380171,富山県,黒部市,宇奈月町明日,トヤマケン,クロベシ,ウナヅキマチアケビ,富山県黒部市宇奈月町明日
9380172,富山県,黒部市,宇奈月町土山,トヤマケン,クロベシ,ウナヅキマチドヤマ,富山県黒部市宇奈月町土山
9380173,富山県,黒部市,宇奈月町中谷,トヤマケン,クロベシ,ウナヅキマチナカダン,富山県黒部市宇奈月町中谷
9380174,富山県,黒部市,宇奈月町音澤（１〜９９９）,トヤマケン,クロベシ,ウナヅキマチオトザワ(1-999),富山県黒部市宇奈月町音澤（1〜999）
9380175,富山県,黒部市,宇奈月町愛本橋爪東官林地内,トヤマケン,クロベシ,ウナヅキマチアイモトハシヅメヒガシカンリンチナイ,富山県黒部市宇奈月町愛本橋爪東官林地内
9380176,富山県,黒部市,宇奈月町中ノ口,トヤマケン,クロベシ,ウナヅキマチナカノクチ,富山県黒部市宇奈月町中ノ口
9380177,富山県,黒部市,宇奈月町愛本新,トヤマケン,クロベシ,ウナヅキマチアイモトシン,富山県黒部市宇奈月町愛本新
9380178,富山県,黒部市,宇奈月町栗虫,トヤマケン,クロベシ,ウナヅキマチクリムシ,富山県黒部市宇奈月町栗虫
9380179,富山県,黒部市,宇奈月町舟見,トヤマケン,クロベシ,ウナヅキマチフナミ,富山県黒部市宇奈月町舟見
9380274,富山県,黒部市,宇奈月町音澤（１０００〜）,トヤマケン,クロベシ,ウナヅキマチオトザワ(1000-),富山県黒部市宇奈月町音澤（1000〜）
9380281,富山県,黒部市,宇奈月町内山,トヤマケン,クロベシ,ウナヅキマチウチヤマ,富山県黒部市宇奈月町内山
9380282,富山県,黒部市,宇奈月温泉,トヤマケン,クロベシ,ウナヅキオンセン,富山県黒部市宇奈月温泉
9380283,富山県,黒部市,黒部峡谷口,トヤマケン,クロベシ,クロベキョウコクグチ,富山県黒部市黒部峡谷口
9380801,富山県,黒部市,荻生,トヤマケン,クロベシ,オギュウ,富山県黒部市荻生
9380802,富山県,黒部市,若栗,トヤマケン,クロベシ,ワカグリ,富山県黒部市若栗
9380803,富山県,黒部市,栗寺,トヤマケン,クロベシ,クリデラ,富山県黒部市栗寺
9380804,富山県,黒部市,宮野,トヤマケン,クロベシ,ミヤノ,富山県黒部市宮野
9380805,富山県,黒部市,吉城寺,トヤマケン,クロベシ,キチジョウジ,富山県黒部市吉城寺
9380806,富山県,黒部市,前沢,トヤマケン,クロベシ,マエザワ,富山県黒部市前沢
9380807,富山県,黒部市,山田新,トヤマケン,クロベシ,ヤマダシン,富山県黒部市山田新
9380808,富山県,黒部市,新堂,トヤマケン,クロベシ,シンドウ,富山県黒部市新堂
9380811,富山県,黒部市,内生谷,トヤマケン,クロベシ,ウチュウダニ,富山県黒部市内生谷
9380812,富山県,黒部市,笠破,トヤマケン,クロベシ,カサヤブリ,富山県黒部市笠破
9380813,富山県,黒部市,田籾,トヤマケン,クロベシ,タモミ,富山県黒部市田籾
9380814,富山県,黒部市,嘉例沢,トヤマケン,クロベシ,カレイサワ,富山県黒部市嘉例沢
9380815,富山県,黒部市,福平,トヤマケン,クロベシ,フクヒラ,富山県黒部市福平
9380816,富山県,黒部市,池尻,トヤマケン,クロベシ,イケジリ,富山県黒部市池尻
9380821,富山県,黒部市,柳沢,トヤマケン,クロベシ,ヤナギサワ,富山県黒部市柳沢
9380822,富山県,黒部市,別所,トヤマケン,クロベシ,ベッショ,富山県黒部市別所
9380823,富山県,黒部市,釈迦堂,トヤマケン,クロベシ,シャカドウ,富山県黒部市釈迦堂
9380824,富山県,黒部市,阿弥陀堂,トヤマケン,クロベシ,アミダドウ,富山県黒部市阿弥陀堂
9380825,富山県,黒部市,尾山,トヤマケン,クロベシ,オヤマ,富山県黒部市尾山
9380826,富山県,黒部市,朴谷,トヤマケン,クロベシ,ホオノキダニ,富山県黒部市朴谷
9380827,富山県,黒部市,中陣,トヤマケン,クロベシ,ナカジン,富山県黒部市中陣
9380831,富山県,黒部市,宮沢,トヤマケン,クロベシ,ミヤザワ,富山県黒部市宮沢
9380832,富山県,黒部市,枕野,トヤマケン,クロベシ,マクラノ,富山県黒部市枕野
9380833,富山県,黒部市,本野,トヤマケン,クロベシ,モトノ,富山県黒部市本野
9380834,富山県,黒部市,中山,トヤマケン,クロベシ,ナカヤマ,富山県黒部市中山
9380835,富山県,黒部市,石田野,トヤマケン,クロベシ,イシダノ,富山県黒部市石田野
9380836,富山県,黒部市,鏡野,トヤマケン,クロベシ,カガミノ,富山県黒部市鏡野
9380837,富山県,黒部市,田家野,トヤマケン,クロベシ,タイエノ,富山県黒部市田家野
9380861,富山県,黒部市,宇奈月町下立,トヤマケン,クロベシ,ウナヅキマチオリタテ,富山県黒部市宇奈月町下立
9380862,富山県,黒部市,宇奈月町浦山,トヤマケン,クロベシ,ウナヅキマチウラヤマ,富山県黒部市宇奈月町浦山
9380863,富山県,黒部市,宇奈月町熊野,トヤマケン,クロベシ,ウナヅキマチクマノ,富山県黒部市宇奈月町熊野
9380864,富山県,黒部市,宇奈月町栃屋,トヤマケン,クロベシ,ウナヅキマチトチヤ,富山県黒部市宇奈月町栃屋
9390000,富山県,富山市,,トヤマケン,トヤマシ,,富山県富山市
9390101,富山県,高岡市,福岡町赤丸,トヤマケン,タカオカシ,フクオカマチアカマル,富山県高岡市福岡町赤丸
9390102,富山県,高岡市,福岡町三日市,トヤマケン,タカオカシ,フクオカマチミッカイチ,富山県高岡市福岡町三日市
9390103,富山県,高岡市,福岡町西,トヤマケン,タカオカシ,フクオカマチニシ,富山県高岡市福岡町西
9390104,富山県,高岡市,福岡町加茂,トヤマケン,タカオカシ,フクオカマチカモ,富山県高岡市福岡町加茂
9390105,富山県,高岡市,福岡町馬場,トヤマケン,タカオカシ,フクオカマチバンバ,富山県高岡市福岡町馬場
9390106,富山県,高岡市,福岡町舞谷,トヤマケン,タカオカシ,フクオカマチマイノヤ,富山県高岡市福岡町舞谷
9390111,富山県,高岡市,福岡町福岡,トヤマケン,タカオカシ,フクオカマチフクオカ,富山県高岡市福岡町福岡
9390111,富山県,高岡市,福岡町福岡新（大蔵町）,トヤマケン,タカオカシ,フクオカマチフクオカシン(オオクラチョウ),富山県高岡市福岡町福岡新（大蔵町）
9390111,富山県,高岡市,福岡町福岡新（旭町）,トヤマケン,タカオカシ,フクオカマチフクオカシン(アサヒマチ),富山県高岡市福岡町福岡新（旭町）
9390111,富山県,高岡市,福岡町福岡新（清水町）,トヤマケン,タカオカシ,フクオカマチフクオカシン(シミズチョウ),富山県高岡市福岡町福岡新（清水町）
9390111,富山県,高岡市,福岡町福岡（中町）,トヤマケン,タカオカシ,フクオカマチフクオカ(ナカマチ),富山県高岡市福岡町福岡（中町）
9390111,富山県,高岡市,福岡町福岡（大蔵町）,トヤマケン,タカオカシ,フクオカマチフクオカ(オオクラチョウ),富山県高岡市福岡町福岡（大蔵町）
9390111,富山県,高岡市,福岡町福岡（旭町）,トヤマケン,タカオカシ,フクオカマチフクオカ(アサヒマチ),富山県高岡市福岡町福岡（旭町）
9390111,富山県,高岡市,福岡町福岡（清水町）,トヤマケン,タカオカシ,フクオカマチフクオカ(シミズチョウ),富山県高岡市福岡町福岡（清水町）
9390112,富山県,高岡市,福岡町下蓑新（表元町）,トヤマケン,タカオカシ,フクオカマチシモミノシン(オモテモトマチ),富山県高岡市福岡町下蓑新（表元町）
9390112,富山県,高岡市,福岡町大滝（表元町）,トヤマケン,タカオカシ,フクオカマチオオタキ(オモテモトマチ),富山県高岡市福岡町大滝（表元町）
9390112,富山県,高岡市,福岡町福岡新（中央通り）,トヤマケン,タカオカシ,フクオカマチフクオカシン(チュウオウドオリ),富山県高岡市福岡町福岡新（中央通り）
9390112,富山県,高岡市,福岡町福岡（表元町）,トヤマケン,タカオカシ,フクオカマチフクオカ(オモテモトマチ),富山県高岡市福岡町福岡（表元町）
9390112,富山県,高岡市,福岡町荒屋敷（中央通り）,トヤマケン,タカオカシ,フクオカマチアラヤシキ(チュウオウドオリ),富山県高岡市福岡町荒屋敷（中央通り）
9390112,富山県,高岡市,福岡町荒屋敷（表元町）,トヤマケン,タカオカシ,フクオカマチアラヤシキ(オモテモトマチ),富山県高岡市福岡町荒屋敷（表元町）
9390113,富山県,高岡市,福岡町上蓑（末広町）,トヤマケン,タカオカシ,フクオカマチカミミノ(スエヒロチョウ),富山県高岡市福岡町上蓑（末広町）
9390113,富山県,高岡市,福岡町下蓑新（末広町）,トヤマケン,タカオカシ,フクオカマチシモミノシン(スエヒロチョウ),富山県高岡市福岡町下蓑新（末広町）
9390113,富山県,高岡市,福岡町下蓑（中島町）,トヤマケン,タカオカシ,フクオカマチシモミノ(ナカジママチ),富山県高岡市福岡町下蓑（中島町）
9390113,富山県,高岡市,福岡町下蓑（元町）,トヤマケン,タカオカシ,フクオカマチシモミノ(モトマチ),富山県高岡市福岡町下蓑（元町）
9390113,富山県,高岡市,福岡町下蓑（末広町）,トヤマケン,タカオカシ,フクオカマチシモミノ(スエヒロチョウ),富山県高岡市福岡町下蓑（末広町）
9390113,富山県,高岡市,福岡町福岡（中島町）,トヤマケン,タカオカシ,フクオカマチフクオカ(ナカジママチ),富山県高岡市福岡町福岡（中島町）
9390115,富山県,高岡市,福岡町下蓑新,トヤマケン,タカオカシ,フクオカマチシモミノシン,富山県高岡市福岡町下蓑新
9390115,富山県,高岡市,福岡町下蓑新（新栄町）,トヤマケン,タカオカシ,フクオカマチシモミノシン(シンサカエマチ),富山県高岡市福岡町下蓑新（新栄町）
9390115,富山県,高岡市,福岡町下蓑（新栄町）,トヤマケン,タカオカシ,フクオカマチシモミノ(シンサカエマチ),富山県高岡市福岡町下蓑（新栄町）
9390115,富山県,高岡市,福岡町福岡新（新栄町）,トヤマケン,タカオカシ,フクオカマチフクオカシン(シンサカエマチ),富山県高岡市福岡町福岡新（新栄町）
9390116,富山県,高岡市,福岡町下蓑,トヤマケン,タカオカシ,フクオカマチシモミノ,富山県高岡市福岡町下蓑
9390117,富山県,高岡市,福岡町大野（早稲田町）,トヤマケン,タカオカシ,フクオカマチオオノ(ワセダマチ),富山県高岡市福岡町大野（早稲田町）
9390117,富山県,高岡市,福岡町大野（桜木町）,トヤマケン,タカオカシ,フクオカマチオオノ(サクラギチョウ),富山県高岡市福岡町大野（桜木町）
9390117,富山県,高岡市,福岡町福岡新,トヤマケン,タカオカシ,フクオカマチフクオカシン,富山県高岡市福岡町福岡新
9390117,富山県,高岡市,福岡町福岡新（早稲田町）,トヤマケン,タカオカシ,フクオカマチフクオカシン(ワセダマチ),富山県高岡市福岡町福岡新（早稲田町）
9390117,富山県,高岡市,福岡町福岡新（桜木町）,トヤマケン,タカオカシ,フクオカマチフクオカシン(サクラギチョウ),富山県高岡市福岡町福岡新（桜木町）
9390117,富山県,高岡市,福岡町福岡新（西干場）,トヤマケン,タカオカシ,フクオカマチフクオカシン(ニシホシバ),富山県高岡市福岡町福岡新（西干場）
9390118,富山県,高岡市,福岡町大野,トヤマケン,タカオカシ,フクオカマチオオノ,富山県高岡市福岡町大野
9390119,富山県,高岡市,福岡町大滝（橋上町）,トヤマケン,タカオカシ,フクオカマチオオタキ(ハシガミチョウ),富山県高岡市福岡町大滝（橋上町）
9390119,富山県,高岡市,福岡町福岡新（堀川町）,トヤマケン,タカオカシ,フクオカマチフクオカシン(ホリカワチョウ),富山県高岡市福岡町福岡新（堀川町）
9390119,富山県,高岡市,福岡町福岡新（橋上町）,トヤマケン,タカオカシ,フクオカマチフクオカシン(ハシガミチョウ),富山県高岡市福岡町福岡新（橋上町）
9390119,富山県,高岡市,福岡町福岡新（西町）,トヤマケン,タカオカシ,フクオカマチフクオカシン(ニシチョウ),富山県高岡市福岡町福岡新（西町）
9390119,富山県,高岡市,福岡町福岡（堀川町）,トヤマケン,タカオカシ,フクオカマチフクオカ(ホリカワチョウ),富山県高岡市福岡町福岡（堀川町）
9390119,富山県,高岡市,福岡町福岡（西町）,トヤマケン,タカオカシ,フクオカマチフクオカ(ニシチョウ),富山県高岡市福岡町福岡（西町）
9390121,富山県,高岡市,福岡町下老子,トヤマケン,タカオカシ,フクオカマチシモオイゴ,富山県高岡市福岡町下老子
9390122,富山県,高岡市,福岡町一歩二歩,トヤマケン,タカオカシ,フクオカマチイチブニブ,富山県高岡市福岡町一歩二歩
9390123,富山県,高岡市,福岡町西川原島,トヤマケン,タカオカシ,フクオカマチニシカワラジマ,富山県高岡市福岡町西川原島
9390124,富山県,高岡市,福岡町小伊勢領,トヤマケン,タカオカシ,フクオカマチコイセリョウ,富山県高岡市福岡町小伊勢領
9390125,富山県,高岡市,福岡町矢部,トヤマケン,タカオカシ,フクオカマチヤベ,富山県高岡市福岡町矢部
9390126,富山県,高岡市,福岡町蓑島,トヤマケン,タカオカシ,フクオカマチミノジマ,富山県高岡市福岡町蓑島
9390127,富山県,高岡市,福岡町上蓑,トヤマケン,タカオカシ,フクオカマチカミミノ,富山県高岡市福岡町上蓑
9390128,富山県,高岡市,福岡町江尻,トヤマケン,タカオカシ,フクオカマチエジリ,富山県高岡市福岡町江尻
9390131,富山県,高岡市,福岡町荒屋敷,トヤマケン,タカオカシ,フクオカマチアラヤシキ,富山県高岡市福岡町荒屋敷
9390132,富山県,高岡市,福岡町大滝,トヤマケン,タカオカシ,フクオカマチオオタキ,富山県高岡市福岡町大滝
9390132,富山県,高岡市,福岡町大滝（木舟新）,トヤマケン,タカオカシ,フクオカマチオオタキ(キブネシン),富山県高岡市福岡町大滝（木舟新）
9390133,富山県,高岡市,福岡町開ほつ,トヤマケン,タカオカシ,フクオカマチカイホツ,富山県高岡市福岡町開ほつ
9390134,富山県,高岡市,福岡町木舟,トヤマケン,タカオカシ,フクオカマチキブネ,富山県高岡市福岡町木舟
9390135,富山県,高岡市,福岡町本領,トヤマケン,タカオカシ,フクオカマチホンリョウ,富山県高岡市福岡町本領
9390141,富山県,高岡市,福岡町鳥倉,トヤマケン,タカオカシ,フクオカマチトリクラ,富山県高岡市福岡町鳥倉
9390142,富山県,高岡市,福岡町土屋,トヤマケン,タカオカシ,フクオカマチツチヤ,富山県高岡市福岡町土屋
9390143,富山県,高岡市,福岡町下向田,トヤマケン,タカオカシ,フクオカマチシモムクタ,富山県高岡市福岡町下向田
9390144,富山県,高岡市,福岡町上向田,トヤマケン,タカオカシ,フクオカマチカミムクタ,富山県高岡市福岡町上向田
9390145,富山県,高岡市,福岡町上野,トヤマケン,タカオカシ,フクオカマチウワノ,富山県高岡市福岡町上野
9390151,富山県,高岡市,福岡町沢川,トヤマケン,タカオカシ,フクオカマチソウゴウ,富山県高岡市福岡町沢川
9390152,富山県,高岡市,福岡町五位,トヤマケン,タカオカシ,フクオカマチゴイ,富山県高岡市福岡町五位
9390153,富山県,高岡市,福岡町花尾,トヤマケン,タカオカシ,フクオカマチハナオ,富山県高岡市福岡町花尾
9390154,富山県,高岡市,福岡町栃丘,トヤマケン,タカオカシ,フクオカマチトチオカ,富山県高岡市福岡町栃丘
9390155,富山県,高岡市,福岡町西明寺,トヤマケン,タカオカシ,フクオカマチサイミョウジ,富山県高岡市福岡町西明寺
9390156,富山県,高岡市,福岡町小野,トヤマケン,タカオカシ,フクオカマチコノ,富山県高岡市福岡町小野
9390231,富山県,射水市,犬内,トヤマケン,イミズシ,インナイ,富山県射水市犬内
9390232,富山県,射水市,大門,トヤマケン,イミズシ,ダイモン,富山県射水市大門
9390233,富山県,射水市,大門新,トヤマケン,イミズシ,ダイモンシン,富山県射水市大門新
9390234,富山県,射水市,二口,トヤマケン,イミズシ,フタクチ,富山県射水市二口
9390235,富山県,射水市,枇杷首,トヤマケン,イミズシ,ビワクビ,富山県射水市枇杷首
9390241,富山県,射水市,中村,トヤマケン,イミズシ,ナカムラ,富山県射水市中村
9390242,富山県,射水市,安吉,トヤマケン,イミズシ,ヤスヨシ,富山県射水市安吉
9390243,富山県,射水市,下若,トヤマケン,イミズシ,シモワカ,富山県射水市下若
9390244,富山県,射水市,本田,トヤマケン,イミズシ,ホンデン,富山県射水市本田
9390245,富山県,射水市,棚田,トヤマケン,イミズシ,タナダ,富山県射水市棚田
9390246,富山県,射水市,大門本江,トヤマケン,イミズシ,ダイモンホンゴウ,富山県射水市大門本江
9390247,富山県,射水市,あおば台,トヤマケン,イミズシ,アオバダイ,富山県射水市あおば台
9390251,富山県,射水市,土合,トヤマケン,イミズシ,ドアイ,富山県射水市土合
9390252,富山県,射水市,下条,トヤマケン,イミズシ,ゲジョウ,富山県射水市下条
9390253,富山県,射水市,堀内,トヤマケン,イミズシ,ホリウチ,富山県射水市堀内
9390254,富山県,射水市,島,トヤマケン,イミズシ,シマ,富山県射水市島
9390255,富山県,射水市,上条,トヤマケン,イミズシ,ジョウジョウ,富山県射水市上条
9390256,富山県,射水市,広上,トヤマケン,イミズシ,ヒロカミ,富山県射水市広上
9390257,富山県,射水市,西広上,トヤマケン,イミズシ,ニシヒロカミ,富山県射水市西広上
9390271,富山県,射水市,大島北野,トヤマケン,イミズシ,オオシマキタノ,富山県射水市大島北野
9390272,富山県,射水市,若杉,トヤマケン,イミズシ,ワカスギ,富山県射水市若杉
9390273,富山県,射水市,中野,トヤマケン,イミズシ,ナカノ,富山県射水市中野
9390274,富山県,射水市,小島,トヤマケン,イミズシ,コジマ,富山県射水市小島
9390275,富山県,射水市,八塚,トヤマケン,イミズシ,ヤツヅカ,富山県射水市八塚
9390276,富山県,射水市,北野,トヤマケン,イミズシ,キタノ,富山県射水市北野
9390281,富山県,射水市,北高木,トヤマケン,イミズシ,キタタカキ,富山県射水市北高木
9390282,富山県,射水市,南高木,トヤマケン,イミズシ,ミナミタカキ,富山県射水市南高木
9390283,富山県,射水市,鳥取,トヤマケン,イミズシ,トットリ,富山県射水市鳥取
9390284,富山県,射水市,新開発,トヤマケン,イミズシ,シンカイホツ,富山県射水市新開発
9390285,富山県,射水市,本開発,トヤマケン,イミズシ,ホンカイホツ,富山県射水市本開発
9390286,富山県,射水市,今開発,トヤマケン,イミズシ,イマカイホツ,富山県射水市今開発
9390287,富山県,射水市,赤井,トヤマケン,イミズシ,アカイ,富山県射水市赤井
9390288,富山県,射水市,小林,トヤマケン,イミズシ,コバヤシ,富山県射水市小林
9390300,富山県,射水市,,トヤマケン,イミズシ,,富山県射水市
9390301,富山県,射水市,稲積,トヤマケン,イミズシ,イナヅミ,富山県射水市稲積
9390302,富山県,射水市,大江,トヤマケン,イミズシ,オオゴウ,富山県射水市大江
9390303,富山県,射水市,西高木,トヤマケン,イミズシ,ニシタカギ,富山県射水市西高木
9390304,富山県,射水市,小杉白石,トヤマケン,イミズシ,コスギシライシ,富山県射水市小杉白石
9390304,富山県,射水市,小杉白石（小白石）,トヤマケン,イミズシ,コスギシライシ(コシライシ),富山県射水市小杉白石（小白石）
9390305,富山県,射水市,鷲塚,トヤマケン,イミズシ,ワシヅカ,富山県射水市鷲塚
9390306,富山県,射水市,手崎,トヤマケン,イミズシ,テサキ,富山県射水市手崎
9390307,富山県,射水市,戸破（針原）,トヤマケン,イミズシ,ヒバリ(ハリハラ),富山県射水市戸破（針原）
9390311,富山県,射水市,黒河,トヤマケン,イミズシ,クロカワ,富山県射水市黒河
9390311,富山県,射水市,黒河新,トヤマケン,イミズシ,クロカワシン,富山県射水市黒河新
9390312,富山県,射水市,中老田新,トヤマケン,イミズシ,ナカオイタシン,富山県射水市中老田新
9390313,富山県,射水市,塚越,トヤマケン,イミズシ,ツカゴシ,富山県射水市塚越
9390314,富山県,射水市,土代,トヤマケン,イミズシ,ドダイ,富山県射水市土代
9390315,富山県,射水市,椎土,トヤマケン,イミズシ,シイド,富山県射水市椎土
9390316,富山県,射水市,小杉北野,トヤマケン,イミズシ,コスギキタノ,富山県射水市小杉北野
9390317,富山県,射水市,山本新,トヤマケン,イミズシ,ヤマモトシン,富山県射水市山本新
9390318,富山県,射水市,池多,トヤマケン,イミズシ,イケダ,富山県射水市池多
9390319,富山県,射水市,東太閤山,トヤマケン,イミズシ,ヒガシタイコウヤマ,富山県射水市東太閤山
9390321,富山県,射水市,入会地,トヤマケン,イミズシ,ニュウカイチ,富山県射水市入会地
9390321,富山県,射水市,宿屋,トヤマケン,イミズシ,シュクヤ,富山県射水市宿屋
9390321,富山県,射水市,流通センター（青井谷１、２丁目）,トヤマケン,イミズシ,リュウツウセンター(アオイダニ1、2チョウメ),富山県射水市流通センター（青井谷1、2-）
9390321,富山県,射水市,浄土寺,トヤマケン,イミズシ,ジョウドジ,富山県射水市浄土寺
9390321,富山県,射水市,浄土寺（東谷）,トヤマケン,イミズシ,ジョウドジ(ヒガシタニ),富山県射水市浄土寺（東谷）
9390321,富山県,射水市,浄土寺（林寺）,トヤマケン,イミズシ,ジョウドジ(ハヤシデラ),富山県射水市浄土寺（林寺）
9390321,富山県,射水市,野手,トヤマケン,イミズシ,ノデ,富山県射水市野手
9390321,富山県,射水市,青井谷,トヤマケン,イミズシ,アオイダニ,富山県射水市青井谷
9390321,富山県,射水市,青井谷（三野）,トヤマケン,イミズシ,アオイダニ(サンノ),富山県射水市青井谷（三野）
9390321,富山県,射水市,青井谷（五官野）,トヤマケン,イミズシ,アオイダニ(ゴカンノ),富山県射水市青井谷（五官野）
9390321,富山県,射水市,青井谷（新屋敷）,トヤマケン,イミズシ,アオイダニ(アラヤシキ),富山県射水市青井谷（新屋敷）
9390321,富山県,射水市,青井谷（水上谷）,トヤマケン,イミズシ,アオイダニ(ミズカミタニ),富山県射水市青井谷（水上谷）
9390321,富山県,射水市,青井谷（西谷）,トヤマケン,イミズシ,アオイダニ(ニシタニ),富山県射水市青井谷（西谷）
9390322,富山県,射水市,上野,トヤマケン,イミズシ,ウワノ,富山県射水市上野
9390323,富山県,射水市,平野,トヤマケン,イミズシ,ヒラノ,富山県射水市平野
9390331,富山県,射水市,下条新,トヤマケン,イミズシ,ゲジョウシン,富山県射水市下条新
9390332,富山県,射水市,日宮,トヤマケン,イミズシ,ヒノミヤ,富山県射水市日宮
9390332,富山県,射水市,橋下条,トヤマケン,イミズシ,ハシゲジョウ,富山県射水市橋下条
9390332,富山県,射水市,橋下条（二の井）,トヤマケン,イミズシ,ハシゲジョウ(ニノイ),富山県射水市橋下条（二の井）
9390332,富山県,射水市,橋下条（五歩一）,トヤマケン,イミズシ,ハシゲジョウ(ゴフイチ),富山県射水市橋下条（五歩一）
9390332,富山県,射水市,橋下条（囲山）,トヤマケン,イミズシ,ハシゲジョウ(カコイヤマ),富山県射水市橋下条（囲山）
9390332,富山県,射水市,橋下条（大白）,トヤマケン,イミズシ,ハシゲジョウ(ダイハク),富山県射水市橋下条（大白）
9390332,富山県,射水市,橋下条（赤田）,トヤマケン,イミズシ,ハシゲジョウ(アカタ),富山県射水市橋下条（赤田）
9390332,富山県,射水市,橋下条（駅南通り）,トヤマケン,イミズシ,ハシゲジョウ(エキナンドオリ),富山県射水市橋下条（駅南通り）
9390333,富山県,射水市,一条,トヤマケン,イミズシ,イチジョウ,富山県射水市一条
9390341,富山県,射水市,三ケ,トヤマケン,イミズシ,サンガ,富山県射水市三ケ
9390341,富山県,射水市,三ケ（さくら町）,トヤマケン,イミズシ,サンガ(サクラマチ),富山県射水市三ケ（さくら町）
9390341,富山県,射水市,三ケ（一番町）,トヤマケン,イミズシ,サンガ(イチバンマチ),富山県射水市三ケ（一番町）
9390341,富山県,射水市,三ケ（上新町）,トヤマケン,イミズシ,サンガ(カミシンマチ),富山県射水市三ケ（上新町）
9390341,富山県,射水市,三ケ（伊勢領）,トヤマケン,イミズシ,サンガ(イセリョ),富山県射水市三ケ（伊勢領）
9390341,富山県,射水市,三ケ（元町）,トヤマケン,イミズシ,サンガ(モトマチ),富山県射水市三ケ（元町）
9390341,富山県,射水市,三ケ（初音町）,トヤマケン,イミズシ,サンガ(ハツネチョウ),富山県射水市三ケ（初音町）
9390341,富山県,射水市,三ケ（常盤町）,トヤマケン,イミズシ,サンガ(トキワチョウ),富山県射水市三ケ（常盤町）
9390341,富山県,射水市,三ケ（愛宕）,トヤマケン,イミズシ,サンガ(アタゴ),富山県射水市三ケ（愛宕）
9390341,富山県,射水市,三ケ（新三ケ）,トヤマケン,イミズシ,サンガ(シンサンガ),富山県射水市三ケ（新三ケ）
9390341,富山県,射水市,三ケ（新富町）,トヤマケン,イミズシ,サンガ(シントミチョウ),富山県射水市三ケ（新富町）
9390341,富山県,射水市,三ケ（本中町）,トヤマケン,イミズシ,サンガ(ホンナカマチ),富山県射水市三ケ（本中町）
9390341,富山県,射水市,三ケ（本丸町）,トヤマケン,イミズシ,サンガ(ホンマルマチ),富山県射水市三ケ（本丸町）
9390341,富山県,射水市,三ケ（水上）,トヤマケン,イミズシ,サンガ(ミズカミ),富山県射水市三ケ（水上）
9390341,富山県,射水市,三ケ（水源町）,トヤマケン,イミズシ,サンガ(スイゲンチョウ),富山県射水市三ケ（水源町）
9390341,富山県,射水市,三ケ（田町）,トヤマケン,イミズシ,サンガ(タマチ),富山県射水市三ケ（田町）
9390341,富山県,射水市,三ケ（白銀町）,トヤマケン,イミズシ,サンガ(シロガネチョウ),富山県射水市三ケ（白銀町）
9390341,富山県,射水市,三ケ（西町）,トヤマケン,イミズシ,サンガ(ニシチョウ),富山県射水市三ケ（西町）
9390341,富山県,射水市,三ケ（諏訪町）,トヤマケン,イミズシ,サンガ(スワチョウ),富山県射水市三ケ（諏訪町）
9390341,富山県,射水市,三ケ（貝塚町）,トヤマケン,イミズシ,サンガ(カイヅカマチ),富山県射水市三ケ（貝塚町）
9390341,富山県,射水市,三ケ（錦町）,トヤマケン,イミズシ,サンガ(ニシキチョウ),富山県射水市三ケ（錦町）
9390341,富山県,射水市,三ケ（高寺）,トヤマケン,イミズシ,サンガ(タカデラ),富山県射水市三ケ（高寺）
9390351,富山県,射水市,戸破,トヤマケン,イミズシ,ヒバリ,富山県射水市戸破
9390351,富山県,射水市,戸破（さくら町）,トヤマケン,イミズシ,ヒバリ(サクラマチ),富山県射水市戸破（さくら町）
9390351,富山県,射水市,戸破（中央通り）,トヤマケン,イミズシ,ヒバリ(チュウオウドオリ),富山県射水市戸破（中央通り）
9390351,富山県,射水市,戸破（中町）,トヤマケン,イミズシ,ヒバリ(ナカマチ),富山県射水市戸破（中町）
9390351,富山県,射水市,戸破（乗舟町）,トヤマケン,イミズシ,ヒバリ(ノリブネチョウ),富山県射水市戸破（乗舟町）
9390351,富山県,射水市,戸破（元町）,トヤマケン,イミズシ,ヒバリ(モトマチ),富山県射水市戸破（元町）
9390351,富山県,射水市,戸破（北手崎）,トヤマケン,イミズシ,ヒバリ(キタテサキ),富山県射水市戸破（北手崎）
9390351,富山県,射水市,戸破（南通り）,トヤマケン,イミズシ,ヒバリ(ミナミドオリ),富山県射水市戸破（南通り）
9390351,富山県,射水市,戸破（宝町）,トヤマケン,イミズシ,ヒバリ(タカラマチ),富山県射水市戸破（宝町）
9390351,富山県,射水市,戸破（平成町）,トヤマケン,イミズシ,ヒバリ(ヘイセイマチ),富山県射水市戸破（平成町）
9390351,富山県,射水市,戸破（新栄町）,トヤマケン,イミズシ,ヒバリ(シンサカエマチ),富山県射水市戸破（新栄町）
9390351,富山県,射水市,戸破（新町）,トヤマケン,イミズシ,ヒバリ(シンマチ),富山県射水市戸破（新町）
9390351,富山県,射水市,戸破（昭和通り）,トヤマケン,イミズシ,ヒバリ(ショウワドオリ),富山県射水市戸破（昭和通り）
9390351,富山県,射水市,戸破（木舟町）,トヤマケン,イミズシ,ヒバリ(キブネマチ),富山県射水市戸破（木舟町）
9390351,富山県,射水市,戸破（末永町）,トヤマケン,イミズシ,ヒバリ(スエナガチョウ),富山県射水市戸破（末永町）
9390351,富山県,射水市,戸破（栄町）,トヤマケン,イミズシ,ヒバリ(サカエマチ),富山県射水市戸破（栄町）
9390351,富山県,射水市,戸破（江上）,トヤマケン,イミズシ,ヒバリ(エガミ),富山県射水市戸破（江上）
9390351,富山県,射水市,戸破（神川町）,トヤマケン,イミズシ,ヒバリ(カミカワチョウ),富山県射水市戸破（神川町）
9390351,富山県,射水市,戸破（若宮町）,トヤマケン,イミズシ,ヒバリ(ワカミヤチョウ),富山県射水市戸破（若宮町）
9390351,富山県,射水市,戸破（若葉町）,トヤマケン,イミズシ,ヒバリ(ワカバチョウ),富山県射水市戸破（若葉町）
9390351,富山県,射水市,戸破（茶屋町）,トヤマケン,イミズシ,ヒバリ(チャヤマチ),富山県射水市戸破（茶屋町）
9390351,富山県,射水市,戸破（荒町）,トヤマケン,イミズシ,ヒバリ(アラマチ),富山県射水市戸破（荒町）
9390351,富山県,射水市,戸破（西楠町）,トヤマケン,イミズシ,ヒバリ(ニシクスノキチョウ),富山県射水市戸破（西楠町）
9390351,富山県,射水市,戸破（鍛治屋橋）,トヤマケン,イミズシ,ヒバリ(カジヤバシ),富山県射水市戸破（鍛治屋橋）
9390351,富山県,射水市,戸破（高寺）,トヤマケン,イミズシ,ヒバリ(タカデラ),富山県射水市戸破（高寺）
9390351,富山県,射水市,戸破（高穂町）,トヤマケン,イミズシ,ヒバリ(タカホチョウ),富山県射水市戸破（高穂町）
9390361,富山県,射水市,太閤町,トヤマケン,イミズシ,タイコウマチ,富山県射水市太閤町
9390362,富山県,射水市,太閤山,トヤマケン,イミズシ,タイコウヤマ,富山県射水市太閤山
9390363,富山県,射水市,中太閤山,トヤマケン,イミズシ,ナカタイコウヤマ,富山県射水市中太閤山
9390364,富山県,射水市,南太閤山,トヤマケン,イミズシ,ミナミタイコウヤマ,富山県射水市南太閤山
9390401,富山県,射水市,水戸田,トヤマケン,イミズシ,ミトダ,富山県射水市水戸田
9390402,富山県,射水市,流通センター水戸田,トヤマケン,イミズシ,リュウツウセンターミトダ,富山県射水市流通センター水戸田
9390403,富山県,射水市,生源寺,トヤマケン,イミズシ,ショウゲンジ,富山県射水市生源寺
9390404,富山県,射水市,市井,トヤマケン,イミズシ,イチノイ,富山県射水市市井
9390405,富山県,射水市,藤巻,トヤマケン,イミズシ,フジマキ,富山県射水市藤巻
9390406,富山県,射水市,開口,トヤマケン,イミズシ,カイグチ,富山県射水市開口
9390407,富山県,射水市,竹鼻,トヤマケン,イミズシ,タケハナ,富山県射水市竹鼻
9390408,富山県,射水市,若林,トヤマケン,イミズシ,ワカバヤシ,富山県射水市若林
9390411,富山県,射水市,円池,トヤマケン,イミズシ,ツブライケ,富山県射水市円池
9390412,富山県,射水市,荒町,トヤマケン,イミズシ,アラマチ,富山県射水市荒町
9390413,富山県,射水市,串田,トヤマケン,イミズシ,クシタ,富山県射水市串田
9390414,富山県,射水市,生源寺新,トヤマケン,イミズシ,ショウゲンジシン,富山県射水市生源寺新
9390415,富山県,射水市,梅木,トヤマケン,イミズシ,ウメノキ,富山県射水市梅木
9390416,富山県,射水市,串田新,トヤマケン,イミズシ,クシタシン,富山県射水市串田新
9390417,富山県,射水市,小泉,トヤマケン,イミズシ,コイズミ,富山県射水市小泉
9390418,富山県,射水市,布目沢,トヤマケン,イミズシ,ヌノメザワ,富山県射水市布目沢
9390501,富山県,富山市,水橋東浜町,トヤマケン,トヤマシ,ミズハシヒガシハママチ,富山県富山市水橋東浜町
9390502,富山県,富山市,水橋地蔵町,トヤマケン,トヤマシ,ミズハシヂゾウマチ,富山県富山市水橋地蔵町
9390503,富山県,富山市,水橋西出町,トヤマケン,トヤマシ,ミズハシニシデマチ,富山県富山市水橋西出町
9390504,富山県,富山市,水橋田町,トヤマケン,トヤマシ,ミズハシタマチ,富山県富山市水橋田町
9390505,富山県,富山市,水橋東天神町,トヤマケン,トヤマシ,ミズハシヒガシテンジンマチ,富山県富山市水橋東天神町
9390506,富山県,富山市,水橋中大町,トヤマケン,トヤマシ,ミズハシナカオオマチ,富山県富山市水橋中大町
9390506,富山県,富山市,水橋大町（中部地区）,トヤマケン,トヤマシ,ミズハシオオマチ(チュウブチク),富山県富山市水橋大町（中部地区）
9390507,富山県,富山市,水橋西天神町,トヤマケン,トヤマシ,ミズハシニシテンジンマチ,富山県富山市水橋西天神町
9390508,富山県,富山市,水橋西浜町,トヤマケン,トヤマシ,ミズハシニシハママチ,富山県富山市水橋西浜町
9390509,富山県,富山市,水橋町,トヤマケン,トヤマシ,ミズハシマチ,富山県富山市水橋町
9390511,富山県,富山市,水橋朝日町,トヤマケン,トヤマシ,ミズハシアサヒマチ,富山県富山市水橋朝日町
9390511,富山県,富山市,水橋高月,トヤマケン,トヤマシ,ミズハシタカツキ,富山県富山市水橋高月
9390511,富山県,富山市,水橋魚躬,トヤマケン,トヤマシ,ミズハシウオノミ,富山県富山市水橋魚躬
9390512,富山県,富山市,水橋東出町,トヤマケン,トヤマシ,ミズハシヒガシデマチ,富山県富山市水橋東出町
9390513,富山県,富山市,水橋中出町,トヤマケン,トヤマシ,ミズハシナカデマチ,富山県富山市水橋中出町
9390514,富山県,富山市,水橋稲荷町,トヤマケン,トヤマシ,ミズハシイナリマチ,富山県富山市水橋稲荷町
9390515,富山県,富山市,水橋新町,トヤマケン,トヤマシ,ミズハシシンマチ,富山県富山市水橋新町
9390521,富山県,富山市,水橋下段,トヤマケン,トヤマシ,ミズハシシタダン,富山県富山市水橋下段
9390521,富山県,富山市,水橋中村町,トヤマケン,トヤマシ,ミズハシナカムラマチ,富山県富山市水橋中村町
9390522,富山県,富山市,水橋中村栄町,トヤマケン,トヤマシ,ミズハシナカムラサカエマチ,富山県富山市水橋中村栄町
9390523,富山県,富山市,水橋中村新町,トヤマケン,トヤマシ,ミズハシナカムラシンマチ,富山県富山市水橋中村新町
9390524,富山県,富山市,水橋東舘町,トヤマケン,トヤマシ,ミズハシヒガシタチマチ,富山県富山市水橋東舘町
9390525,富山県,富山市,水橋新舘町,トヤマケン,トヤマシ,ミズハシシンタチマチ,富山県富山市水橋新舘町
9390526,富山県,富山市,水橋舘町,トヤマケン,トヤマシ,ミズハシタチマチ,富山県富山市水橋舘町
9390527,富山県,富山市,水橋新大町,トヤマケン,トヤマシ,ミズハシシンオオマチ,富山県富山市水橋新大町
9390528,富山県,富山市,水橋明治町,トヤマケン,トヤマシ,ミズハシメイジマチ,富山県富山市水橋明治町
9390531,富山県,富山市,水橋市江,トヤマケン,トヤマシ,ミズハシイチエ,富山県富山市水橋市江
9390532,富山県,富山市,水橋市江新町,トヤマケン,トヤマシ,ミズハシイチエシンマチ,富山県富山市水橋市江新町
9390533,富山県,富山市,水橋高志園町,トヤマケン,トヤマシ,ミズハシコシゾノチョウ,富山県富山市水橋高志園町
9390534,富山県,富山市,水橋狐塚,トヤマケン,トヤマシ,ミズハシキツネヅカ,富山県富山市水橋狐塚
9390535,富山県,富山市,水橋開発町,トヤマケン,トヤマシ,ミズハシカイホツマチ,富山県富山市水橋開発町
9390536,富山県,富山市,水橋柳寺,トヤマケン,トヤマシ,ミズハシヤナギデラ,富山県富山市水橋柳寺
9390541,富山県,富山市,水橋鏡田,トヤマケン,トヤマシ,ミズハシカガミダ,富山県富山市水橋鏡田
9390542,富山県,富山市,水橋堅田,トヤマケン,トヤマシ,ミズハシカタダ,富山県富山市水橋堅田
9390543,富山県,富山市,水橋五郎丸,トヤマケン,トヤマシ,ミズハシゴロウマル,富山県富山市水橋五郎丸
9390544,富山県,富山市,水橋上砂子坂,トヤマケン,トヤマシ,ミズハシカミスナゴザカ,富山県富山市水橋上砂子坂
9390544,富山県,富山市,水橋下砂子坂,トヤマケン,トヤマシ,ミズハシシモスナゴザカ,富山県富山市水橋下砂子坂
9390544,富山県,富山市,水橋下砂子坂新,トヤマケン,トヤマシ,ミズハシシモスナゴザカシン,富山県富山市水橋下砂子坂新
9390545,富山県,富山市,水橋伊勢領,トヤマケン,トヤマシ,ミズハシイセリョウ,富山県富山市水橋伊勢領
9390546,富山県,富山市,水橋上桜木,トヤマケン,トヤマシ,ミズハシカミサクラギ,富山県富山市水橋上桜木
9390546,富山県,富山市,水橋桜木,トヤマケン,トヤマシ,ミズハシサクラギ,富山県富山市水橋桜木
9390547,富山県,富山市,水橋小池,トヤマケン,トヤマシ,ミズハシコイケ,富山県富山市水橋小池
9390551,富山県,富山市,水橋石政,トヤマケン,トヤマシ,ミズハシイシマサ,富山県富山市水橋石政
9390552,富山県,富山市,水橋恋塚,トヤマケン,トヤマシ,ミズハシコイヅカ,富山県富山市水橋恋塚
9390553,富山県,富山市,水橋小出,トヤマケン,トヤマシ,ミズハシコイデ,富山県富山市水橋小出
9390554,富山県,富山市,水橋専光寺,トヤマケン,トヤマシ,ミズハシセンコウジ,富山県富山市水橋専光寺
9390555,富山県,富山市,水橋高寺,トヤマケン,トヤマシ,ミズハシタカデラ,富山県富山市水橋高寺
9390556,富山県,富山市,水橋曲淵,トヤマケン,トヤマシ,ミズハシマガリブチ,富山県富山市水橋曲淵
9390557,富山県,富山市,水橋大正,トヤマケン,トヤマシ,ミズハシタイショウ,富山県富山市水橋大正
9390557,富山県,富山市,水橋大正北部,トヤマケン,トヤマシ,ミズハシタイショウホクブ,富山県富山市水橋大正北部
9390557,富山県,富山市,水橋大正南部,トヤマケン,トヤマシ,ミズハシタイショウナンブ,富山県富山市水橋大正南部
9390558,富山県,富山市,水橋上条新町,トヤマケン,トヤマシ,ミズハシジョウジョウシンマチ,富山県富山市水橋上条新町
9390561,富山県,富山市,水橋石割,トヤマケン,トヤマシ,ミズハシイシワリ,富山県富山市水橋石割
9390562,富山県,富山市,水橋田伏,トヤマケン,トヤマシ,ミズハシタブセ,富山県富山市水橋田伏
9390563,富山県,富山市,水橋佐野竹,トヤマケン,トヤマシ,ミズハシサノタケ,富山県富山市水橋佐野竹
9390564,富山県,富山市,水橋清水堂,トヤマケン,トヤマシ,ミズハシシミズドウ,富山県富山市水橋清水堂
9390565,富山県,富山市,水橋金広,トヤマケン,トヤマシ,ミズハシカネヒロ,富山県富山市水橋金広
9390566,富山県,富山市,水橋中馬場,トヤマケン,トヤマシ,ミズハシナカバンバ,富山県富山市水橋中馬場
9390567,富山県,富山市,水橋北馬場,トヤマケン,トヤマシ,ミズハシキタバンバ,富山県富山市水橋北馬場
9390568,富山県,富山市,水橋平塚,トヤマケン,トヤマシ,ミズハシヒラツカ,富山県富山市水橋平塚
9390600,富山県,下新川郡入善町,,トヤマケン,シモニイカワグンニュウゼンマチ,,富山県下新川郡入善町
9390611,富山県,下新川郡入善町,古黒部,トヤマケン,シモニイカワグンニュウゼンマチ,フルクロベ,富山県下新川郡入善町古黒部
9390612,富山県,下新川郡入善町,藤原,トヤマケン,シモニイカワグンニュウゼンマチ,フジワラ,富山県下新川郡入善町藤原
9390613,富山県,下新川郡入善町,田の又,トヤマケン,シモニイカワグンニュウゼンマチ,タノマタ,富山県下新川郡入善町田の又
9390614,富山県,下新川郡入善町,君島,トヤマケン,シモニイカワグンニュウゼンマチ,キミジマ,富山県下新川郡入善町君島
9390615,富山県,下新川郡入善町,八幡,トヤマケン,シモニイカワグンニュウゼンマチ,ヤハタ,富山県下新川郡入善町八幡
9390616,富山県,下新川郡入善町,横山,トヤマケン,シモニイカワグンニュウゼンマチ,ヨコヤマ,富山県下新川郡入善町横山
9390617,富山県,下新川郡入善町,春日,トヤマケン,シモニイカワグンニュウゼンマチ,カスガ,富山県下新川郡入善町春日
9390621,富山県,下新川郡入善町,荒又,トヤマケン,シモニイカワグンニュウゼンマチ,アラマタ,富山県下新川郡入善町荒又
9390622,富山県,下新川郡入善町,日吉,トヤマケン,シモニイカワグンニュウゼンマチ,ヒヨシ,富山県下新川郡入善町日吉
9390623,富山県,下新川郡入善町,小杉,トヤマケン,シモニイカワグンニュウゼンマチ,コスギ,富山県下新川郡入善町小杉
9390624,富山県,下新川郡入善町,青島,トヤマケン,シモニイカワグンニュウゼンマチ,アオシマ,富山県下新川郡入善町青島
9390625,富山県,下新川郡入善町,神林,トヤマケン,シモニイカワグンニュウゼンマチ,カンバヤシ,富山県下新川郡入善町神林
9390626,富山県,下新川郡入善町,入膳,トヤマケン,シモニイカワグンニュウゼンマチ,ニュウゼン,富山県下新川郡入善町入膳
9390627,富山県,下新川郡入善町,椚山,トヤマケン,シモニイカワグンニュウゼンマチ,クヌギヤマ,富山県下新川郡入善町椚山
9390628,富山県,下新川郡入善町,椚山新,トヤマケン,シモニイカワグンニュウゼンマチ,クヌギヤマシン,富山県下新川郡入善町椚山新
9390631,富山県,下新川郡入善町,下山,トヤマケン,シモニイカワグンニュウゼンマチ,ニザヤマ,富山県下新川郡入善町下山
9390632,富山県,下新川郡入善町,墓ノ木,トヤマケン,シモニイカワグンニュウゼンマチ,ハカノキ,富山県下新川郡入善町墓ノ木
9390633,富山県,下新川郡入善町,浦山新,トヤマケン,シモニイカワグンニュウゼンマチ,ウラヤマシン,富山県下新川郡入善町浦山新
9390634,富山県,下新川郡入善町,小摺戸,トヤマケン,シモニイカワグンニュウゼンマチ,コスリド,富山県下新川郡入善町小摺戸
9390635,富山県,下新川郡入善町,若栗新,トヤマケン,シモニイカワグンニュウゼンマチ,ワカグリシン,富山県下新川郡入善町若栗新
9390636,富山県,下新川郡入善町,一宿,トヤマケン,シモニイカワグンニュウゼンマチ,イチヤドリ,富山県下新川郡入善町一宿
9390637,富山県,下新川郡入善町,新屋,トヤマケン,シモニイカワグンニュウゼンマチ,アラヤ,富山県下新川郡入善町新屋
9390641,富山県,下新川郡入善町,下上野,トヤマケン,シモニイカワグンニュウゼンマチ,シモウワノ,富山県下新川郡入善町下上野
9390642,富山県,下新川郡入善町,上野,トヤマケン,シモニイカワグンニュウゼンマチ,ウワノ,富山県下新川郡入善町上野
9390643,富山県,下新川郡入善町,青木,トヤマケン,シモニイカワグンニュウゼンマチ,アオキ,富山県下新川郡入善町青木
9390644,富山県,下新川郡入善町,福島新,トヤマケン,シモニイカワグンニュウゼンマチ,フクジマシン,富山県下新川郡入善町福島新
9390645,富山県,下新川郡入善町,福島,トヤマケン,シモニイカワグンニュウゼンマチ,フクジマ,富山県下新川郡入善町福島
9390646,富山県,下新川郡入善町,青木新,トヤマケン,シモニイカワグンニュウゼンマチ,アオキシン,富山県下新川郡入善町青木新
9390647,富山県,下新川郡入善町,道古,トヤマケン,シモニイカワグンニュウゼンマチ,ドウコ,富山県下新川郡入善町道古
9390651,富山県,下新川郡入善町,上飯野新,トヤマケン,シモニイカワグンニュウゼンマチ,カミイイノシン,富山県下新川郡入善町上飯野新
9390652,富山県,下新川郡入善町,袖沢,トヤマケン,シモニイカワグンニュウゼンマチ,ソデザワ,富山県下新川郡入善町袖沢
9390653,富山県,下新川郡入善町,上飯野,トヤマケン,シモニイカワグンニュウゼンマチ,カミイイノ,富山県下新川郡入善町上飯野
9390654,富山県,下新川郡入善町,板屋,トヤマケン,シモニイカワグンニュウゼンマチ,イタヤ,富山県下新川郡入善町板屋
9390655,富山県,下新川郡入善町,五郎八,トヤマケン,シモニイカワグンニュウゼンマチ,ゴロウハチ,富山県下新川郡入善町五郎八
9390656,富山県,下新川郡入善町,笹原,トヤマケン,シモニイカワグンニュウゼンマチ,ササワラ,富山県下新川郡入善町笹原
9390657,富山県,下新川郡入善町,東狐,トヤマケン,シモニイカワグンニュウゼンマチ,トッコ,富山県下新川郡入善町東狐
9390661,富山県,下新川郡入善町,高瀬,トヤマケン,シモニイカワグンニュウゼンマチ,タカセ,富山県下新川郡入善町高瀬
9390662,富山県,下新川郡入善町,下飯野新,トヤマケン,シモニイカワグンニュウゼンマチ,シモイイノシン,富山県下新川郡入善町下飯野新
9390663,富山県,下新川郡入善町,下飯野,トヤマケン,シモニイカワグンニュウゼンマチ,シモイイノ,富山県下新川郡入善町下飯野
9390664,富山県,下新川郡入善町,蛇沢,トヤマケン,シモニイカワグンニュウゼンマチ,ヘビサワ,富山県下新川郡入善町蛇沢
9390665,富山県,下新川郡入善町,本村,トヤマケン,シモニイカワグンニュウゼンマチ,ホンムラ,富山県下新川郡入善町本村
9390666,富山県,下新川郡入善町,高畠,トヤマケン,シモニイカワグンニュウゼンマチ,タカバタケ,富山県下新川郡入善町高畠
9390667,富山県,下新川郡入善町,芦崎,トヤマケン,シモニイカワグンニュウゼンマチ,アシザキ,富山県下新川郡入善町芦崎
9390671,富山県,下新川郡入善町,東五十里,トヤマケン,シモニイカワグンニュウゼンマチ,ヒガシイカリ,富山県下新川郡入善町東五十里
9390672,富山県,下新川郡入善町,田中,トヤマケン,シモニイカワグンニュウゼンマチ,タナカ,富山県下新川郡入善町田中
9390673,富山県,下新川郡入善町,吉原東,トヤマケン,シモニイカワグンニュウゼンマチ,ヨシワラヒガシ,富山県下新川郡入善町吉原東
9390674,富山県,下新川郡入善町,吉原,トヤマケン,シモニイカワグンニュウゼンマチ,ヨシワラ,富山県下新川郡入善町吉原
9390675,富山県,下新川郡入善町,道市,トヤマケン,シモニイカワグンニュウゼンマチ,ドイチ,富山県下新川郡入善町道市
9390676,富山県,下新川郡入善町,目川,トヤマケン,シモニイカワグンニュウゼンマチ,メガワ,富山県下新川郡入善町目川
9390677,富山県,下新川郡入善町,木根,トヤマケン,シモニイカワグンニュウゼンマチ,キノネ,富山県下新川郡入善町木根
9390678,富山県,下新川郡入善町,神子沢,トヤマケン,シモニイカワグンニュウゼンマチ,ミコザワ,富山県下新川郡入善町神子沢
9390679,富山県,下新川郡入善町,五十里,トヤマケン,シモニイカワグンニュウゼンマチ,イカリ,富山県下新川郡入善町五十里
9390700,富山県,下新川郡朝日町,,トヤマケン,シモニイカワグンアサヒマチ,,富山県下新川郡朝日町
9390701,富山県,下新川郡朝日町,横尾,トヤマケン,シモニイカワグンアサヒマチ,ヨコオ,富山県下新川郡朝日町横尾
9390702,富山県,下新川郡朝日町,元屋敷,トヤマケン,シモニイカワグンアサヒマチ,モトヤシキ,富山県下新川郡朝日町元屋敷
9390703,富山県,下新川郡朝日町,宮崎,トヤマケン,シモニイカワグンアサヒマチ,ミヤザキ,富山県下新川郡朝日町宮崎
9390704,富山県,下新川郡朝日町,境,トヤマケン,シモニイカワグンアサヒマチ,サカイ,富山県下新川郡朝日町境
9390705,富山県,下新川郡朝日町,大平,トヤマケン,シモニイカワグンアサヒマチ,ダイラ,富山県下新川郡朝日町大平
9390711,富山県,下新川郡朝日町,笹川,トヤマケン,シモニイカワグンアサヒマチ,ササガワ,富山県下新川郡朝日町笹川
9390712,富山県,下新川郡朝日町,蛭谷,トヤマケン,シモニイカワグンアサヒマチ,ビルタニ,富山県下新川郡朝日町蛭谷
9390713,富山県,下新川郡朝日町,長野,トヤマケン,シモニイカワグンアサヒマチ,ナガノ,富山県下新川郡朝日町長野
9390714,富山県,下新川郡朝日町,桜町,トヤマケン,シモニイカワグンアサヒマチ,サクラマチ,富山県下新川郡朝日町桜町
9390715,富山県,下新川郡朝日町,南保,トヤマケン,シモニイカワグンアサヒマチ,ナンボ,富山県下新川郡朝日町南保
9390716,富山県,下新川郡朝日町,南保町,トヤマケン,シモニイカワグンアサヒマチ,ナンボマチ,富山県下新川郡朝日町南保町
9390717,富山県,下新川郡朝日町,石谷,トヤマケン,シモニイカワグンアサヒマチ,イシタニ,富山県下新川郡朝日町石谷
9390721,富山県,下新川郡朝日町,三枚橋,トヤマケン,シモニイカワグンアサヒマチ,サンマイバシ,富山県下新川郡朝日町三枚橋
9390722,富山県,下新川郡朝日町,大家庄,トヤマケン,シモニイカワグンアサヒマチ,オオイエノショウ,富山県下新川郡朝日町大家庄
9390723,富山県,下新川郡朝日町,不動堂,トヤマケン,シモニイカワグンアサヒマチ,フドウドウ,富山県下新川郡朝日町不動堂
9390724,富山県,下新川郡朝日町,横水,トヤマケン,シモニイカワグンアサヒマチ,ヨコミズ,富山県下新川郡朝日町横水
9390725,富山県,下新川郡朝日町,高橋,トヤマケン,シモニイカワグンアサヒマチ,タカハシ,富山県下新川郡朝日町高橋
9390726,富山県,下新川郡朝日町,下山新,トヤマケン,シモニイカワグンアサヒマチ,ニザヤマシン,富山県下新川郡朝日町下山新
9390727,富山県,下新川郡朝日町,金山,トヤマケン,シモニイカワグンアサヒマチ,カナヤマ,富山県下新川郡朝日町金山
9390728,富山県,下新川郡朝日町,窪田,トヤマケン,シモニイカワグンアサヒマチ,クボタ,富山県下新川郡朝日町窪田
9390729,富山県,下新川郡朝日町,舟川新,トヤマケン,シモニイカワグンアサヒマチ,フナガワシン,富山県下新川郡朝日町舟川新
9390731,富山県,下新川郡朝日町,東草野,トヤマケン,シモニイカワグンアサヒマチ,ヒガシクサノ,富山県下新川郡朝日町東草野
9390732,富山県,下新川郡朝日町,中草野,トヤマケン,シモニイカワグンアサヒマチ,ナカクサノ,富山県下新川郡朝日町中草野
9390733,富山県,下新川郡朝日町,月山,トヤマケン,シモニイカワグンアサヒマチ,ツキヤマ,富山県下新川郡朝日町月山
9390734,富山県,下新川郡朝日町,草野,トヤマケン,シモニイカワグンアサヒマチ,クサノ,富山県下新川郡朝日町草野
9390735,富山県,下新川郡朝日町,赤川,トヤマケン,シモニイカワグンアサヒマチ,アカガワ,富山県下新川郡朝日町赤川
9390736,富山県,下新川郡朝日町,浜草野,トヤマケン,シモニイカワグンアサヒマチ,ハマクサノ,富山県下新川郡朝日町浜草野
9390737,富山県,下新川郡朝日町,月山新,トヤマケン,シモニイカワグンアサヒマチ,ツキヤマシン,富山県下新川郡朝日町月山新
9390741,富山県,下新川郡朝日町,泊,トヤマケン,シモニイカワグンアサヒマチ,トマリ,富山県下新川郡朝日町泊
9390742,富山県,下新川郡朝日町,沼保,トヤマケン,シモニイカワグンアサヒマチ,ヌマホ,富山県下新川郡朝日町沼保
9390743,富山県,下新川郡朝日町,道下,トヤマケン,シモニイカワグンアサヒマチ,ドウゲ,富山県下新川郡朝日町道下
9390744,富山県,下新川郡朝日町,平柳,トヤマケン,シモニイカワグンアサヒマチ,ヒラヤナギ,富山県下新川郡朝日町平柳
9390745,富山県,下新川郡朝日町,西町,トヤマケン,シモニイカワグンアサヒマチ,ニシマチ,富山県下新川郡朝日町西町
9390746,富山県,下新川郡朝日町,荒川,トヤマケン,シモニイカワグンアサヒマチ,アラカワ,富山県下新川郡朝日町荒川
9390747,富山県,下新川郡朝日町,大屋,トヤマケン,シモニイカワグンアサヒマチ,ダイヤ,富山県下新川郡朝日町大屋
9390748,富山県,下新川郡朝日町,大屋新,トヤマケン,シモニイカワグンアサヒマチ,ダイヤシン,富山県下新川郡朝日町大屋新
9390749,富山県,下新川郡朝日町,泊新,トヤマケン,シモニイカワグンアサヒマチ,トマリシン,富山県下新川郡朝日町泊新
9390751,富山県,下新川郡朝日町,野新,トヤマケン,シモニイカワグンアサヒマチ,ノシン,富山県下新川郡朝日町野新
9391101,富山県,高岡市,戸出市野瀬,トヤマケン,タカオカシ,トイデイチノセ,富山県高岡市戸出市野瀬
9391102,富山県,高岡市,戸出曙町,トヤマケン,タカオカシ,トイデアケボノチョウ,富山県高岡市戸出曙町
9391102,富山県,高岡市,戸出狼,トヤマケン,タカオカシ,トイデオオカミ,富山県高岡市戸出狼
9391103,富山県,高岡市,戸出池田町,トヤマケン,タカオカシ,トイデイケダマチ,富山県高岡市戸出池田町
9391104,富山県,高岡市,戸出町,トヤマケン,タカオカシ,トイデマチ,富山県高岡市戸出町
9391105,富山県,高岡市,戸出伊勢領,トヤマケン,タカオカシ,トイデイセリョウ,富山県高岡市戸出伊勢領
9391110,富山県,高岡市,ＩＣパーク,トヤマケン,タカオカシ,アイシーパーク,富山県高岡市ＩＣパーク
9391111,富山県,高岡市,戸出徳市,トヤマケン,タカオカシ,トイデトクイチ,富山県高岡市戸出徳市
9391112,富山県,高岡市,戸出春日,トヤマケン,タカオカシ,トイデカスガ,富山県高岡市戸出春日
9391113,富山県,高岡市,戸出石代,トヤマケン,タカオカシ,トイデコクダイ,富山県高岡市戸出石代
9391114,富山県,高岡市,戸出西部金屋,トヤマケン,タカオカシ,トイデニシブカナヤ,富山県高岡市戸出西部金屋
9391115,富山県,高岡市,戸出吉住新,トヤマケン,タカオカシ,トイデヨシズミシン,富山県高岡市戸出吉住新
9391116,富山県,高岡市,戸出吉住,トヤマケン,タカオカシ,トイデヨシズミ,富山県高岡市戸出吉住
9391117,富山県,高岡市,戸出大清水,トヤマケン,タカオカシ,トイデオオシミズ,富山県高岡市戸出大清水
9391118,富山県,高岡市,戸出栄町,トヤマケン,タカオカシ,トイデサカエマチ,富山県高岡市戸出栄町
9391119,富山県,高岡市,オフィスパーク,トヤマケン,タカオカシ,オフィスパーク,富山県高岡市オフィスパーク
9391120,富山県,高岡市,グリーンパーク,トヤマケン,タカオカシ,グリーンパーク,富山県高岡市グリーンパーク
9391121,富山県,高岡市,戸出光明寺,トヤマケン,タカオカシ,トイデコウミョウジ,富山県高岡市戸出光明寺
9391121,富山県,高岡市,戸出葵町,トヤマケン,タカオカシ,トイデアオイチョウ,富山県高岡市戸出葵町
9391121,富山県,高岡市,戸出青園町,トヤマケン,タカオカシ,トイデアオゾノチョウ,富山県高岡市戸出青園町
9391122,富山県,高岡市,戸出古戸出,トヤマケン,タカオカシ,トイデフルトイデ,富山県高岡市戸出古戸出
9391123,富山県,高岡市,戸出行兼,トヤマケン,タカオカシ,トイデユキカネ,富山県高岡市戸出行兼
9391124,富山県,高岡市,戸出六十歩,トヤマケン,タカオカシ,トイデロクジュウブ,富山県高岡市戸出六十歩
9391125,富山県,高岡市,戸出岡御所,トヤマケン,タカオカシ,トイデオカゴショ,富山県高岡市戸出岡御所
9391131,富山県,高岡市,醍醐,トヤマケン,タカオカシ,ダイゴ,富山県高岡市醍醐
9391132,富山県,高岡市,戸出竹,トヤマケン,タカオカシ,トイデタケ,富山県高岡市戸出竹
9391133,富山県,高岡市,戸出放寺,トヤマケン,タカオカシ,トイデホウジ,富山県高岡市戸出放寺
9391134,富山県,高岡市,戸出放寺新,トヤマケン,タカオカシ,トイデホウジシン,富山県高岡市戸出放寺新
9391135,富山県,高岡市,戸出竹北,トヤマケン,タカオカシ,トイデタケキタ,富山県高岡市戸出竹北
9391136,富山県,高岡市,戸出延島,トヤマケン,タカオカシ,トイデノベジマ,富山県高岡市戸出延島
9391251,富山県,高岡市,常国,トヤマケン,タカオカシ,ツネクニ,富山県高岡市常国
9391252,富山県,高岡市,常国みどり台,トヤマケン,タカオカシ,ツネクニミドリダイ,富山県高岡市常国みどり台
9391253,富山県,高岡市,若杉,トヤマケン,タカオカシ,ワカスギ,富山県高岡市若杉
9391254,富山県,高岡市,滝新,トヤマケン,タカオカシ,タキシン,富山県高岡市滝新
9391255,富山県,高岡市,滝,トヤマケン,タカオカシ,タキ,富山県高岡市滝
9391261,富山県,高岡市,小泉新,トヤマケン,タカオカシ,コイズミシン,富山県高岡市小泉新
9391262,富山県,高岡市,山下,トヤマケン,タカオカシ,サンカ,富山県高岡市山下
9391263,富山県,高岡市,島新,トヤマケン,タカオカシ,シマシン,富山県高岡市島新
9391263,富山県,高岡市,御坊山,トヤマケン,タカオカシ,ゴボウヤマ,富山県高岡市御坊山
9391264,富山県,高岡市,下山田,トヤマケン,タカオカシ,シモヤマダ,富山県高岡市下山田
9391265,富山県,高岡市,東保新,トヤマケン,タカオカシ,ヒガシボシン,富山県高岡市東保新
9391266,富山県,高岡市,今泉新,トヤマケン,タカオカシ,イマイズミシン,富山県高岡市今泉新
9391267,富山県,高岡市,今泉,トヤマケン,タカオカシ,イマイズミ,富山県高岡市今泉
9391271,富山県,高岡市,下麻生伸町,トヤマケン,タカオカシ,シモアソウシンマチ,富山県高岡市下麻生伸町
9391272,富山県,高岡市,下麻生,トヤマケン,タカオカシ,シモアソ,富山県高岡市下麻生
9391273,富山県,高岡市,葦附,トヤマケン,タカオカシ,アシツキ,富山県高岡市葦附
9391274,富山県,高岡市,上麻生,トヤマケン,タカオカシ,カミアソ,富山県高岡市上麻生
9391275,富山県,高岡市,中田,トヤマケン,タカオカシ,ナカダ,富山県高岡市中田
9391300,富山県,砺波市,,トヤマケン,トナミシ,,富山県砺波市
9391301,富山県,砺波市,石丸,トヤマケン,トナミシ,イシマル,富山県砺波市石丸
9391302,富山県,砺波市,東石丸,トヤマケン,トナミシ,ヒガシイシマル,富山県砺波市東石丸
9391303,富山県,砺波市,大窪,トヤマケン,トナミシ,オオクボ,富山県砺波市大窪
9391304,富山県,砺波市,秋元,トヤマケン,トナミシ,アキモト,富山県砺波市秋元
9391305,富山県,砺波市,千保,トヤマケン,トナミシ,センボ,富山県砺波市千保
9391306,富山県,砺波市,宮村,トヤマケン,トナミシ,ミヤムラ,富山県砺波市宮村
9391307,富山県,砺波市,堀内,トヤマケン,トナミシ,ホリノウチ,富山県砺波市堀内
9391308,富山県,砺波市,三郎丸,トヤマケン,トナミシ,サブロマル,富山県砺波市三郎丸
9391311,富山県,砺波市,下中条,トヤマケン,トナミシ,シモナカジョウ,富山県砺波市下中条
9391312,富山県,砺波市,東開発,トヤマケン,トナミシ,ヒガシカイホツ,富山県砺波市東開発
9391313,富山県,砺波市,柳瀬,トヤマケン,トナミシ,ヤナゼ,富山県砺波市柳瀬
9391314,富山県,砺波市,久泉,トヤマケン,トナミシ,ヒサイズミ,富山県砺波市久泉
9391315,富山県,砺波市,太田,トヤマケン,トナミシ,オオタ,富山県砺波市太田
9391316,富山県,砺波市,大門,トヤマケン,トナミシ,オオカド,富山県砺波市大門
9391317,富山県,砺波市,矢木,トヤマケン,トナミシ,ヤギ,富山県砺波市矢木
9391318,富山県,砺波市,祖泉,トヤマケン,トナミシ,ソイズミ,富山県砺波市祖泉
9391321,富山県,砺波市,新明,トヤマケン,トナミシ,シンミョウ,富山県砺波市新明
9391322,富山県,砺波市,中野,トヤマケン,トナミシ,ナカノ,富山県砺波市中野
9391323,富山県,砺波市,上中野,トヤマケン,トナミシ,カミナカノ,富山県砺波市上中野
9391324,富山県,砺波市,荒高屋,トヤマケン,トナミシ,アラダカヤ,富山県砺波市荒高屋
9391325,富山県,砺波市,花島,トヤマケン,トナミシ,ハナジマ,富山県砺波市花島
9391326,富山県,砺波市,鹿島,トヤマケン,トナミシ,カノシマ,富山県砺波市鹿島
9391327,富山県,砺波市,五郎丸,トヤマケン,トナミシ,ゴロマル,富山県砺波市五郎丸
9391328,富山県,砺波市,大辻,トヤマケン,トナミシ,オオツジ,富山県砺波市大辻
9391331,富山県,砺波市,深江,トヤマケン,トナミシ,フカエ,富山県砺波市深江
9391332,富山県,砺波市,永福町,トヤマケン,トナミシ,エイフクチョウ,富山県砺波市永福町
9391333,富山県,砺波市,苗加,トヤマケン,トナミシ,ノウカ,富山県砺波市苗加
9391334,富山県,砺波市,野村島,トヤマケン,トナミシ,ノムラジマ,富山県砺波市野村島
9391335,富山県,砺波市,鷹栖,トヤマケン,トナミシ,タカノス,富山県砺波市鷹栖
9391336,富山県,砺波市,西中,トヤマケン,トナミシ,ニシナカ,富山県砺波市西中
9391337,富山県,砺波市,神島,トヤマケン,トナミシ,カミジマ,富山県砺波市神島
9391338,富山県,砺波市,鷹栖出,トヤマケン,トナミシ,タカノスデ,富山県砺波市鷹栖出
9391341,富山県,砺波市,高波,トヤマケン,トナミシ,タカナミ,富山県砺波市高波
9391342,富山県,砺波市,小島,トヤマケン,トナミシ,オジマ,富山県砺波市小島
9391343,富山県,砺波市,新富町,トヤマケン,トナミシ,シントミチョウ,富山県砺波市新富町
9391344,富山県,砺波市,中神,トヤマケン,トナミシ,ナカガミ,富山県砺波市中神
9391345,富山県,砺波市,林,トヤマケン,トナミシ,ハヤシ,富山県砺波市林
9391346,富山県,砺波市,狐島,トヤマケン,トナミシ,キツネジマ,富山県砺波市狐島
9391347,富山県,砺波市,下中,トヤマケン,トナミシ,シモナカ,富山県砺波市下中
9391348,富山県,砺波市,東中,トヤマケン,トナミシ,ヒガシナカ,富山県砺波市東中
9391351,富山県,砺波市,千代,トヤマケン,トナミシ,センダイ,富山県砺波市千代
9391352,富山県,砺波市,宮丸,トヤマケン,トナミシ,ミヤマル,富山県砺波市宮丸
9391353,富山県,砺波市,十年明,トヤマケン,トナミシ,ジュウネンミョウ,富山県砺波市十年明
9391354,富山県,砺波市,新栄町,トヤマケン,トナミシ,シンサカエマチ,富山県砺波市新栄町
9391355,富山県,砺波市,杉木,トヤマケン,トナミシ,スギノキ,富山県砺波市杉木
9391356,富山県,砺波市,若草町,トヤマケン,トナミシ,ワカクサマチ,富山県砺波市若草町
9391357,富山県,砺波市,小杉,トヤマケン,トナミシ,コスギ,富山県砺波市小杉
9391358,富山県,砺波市,木下,トヤマケン,トナミシ,キノシタ,富山県砺波市木下
9391361,富山県,砺波市,平成町,トヤマケン,トナミシ,ヘイセイチョウ,富山県砺波市平成町
9391362,富山県,砺波市,鍋島,トヤマケン,トナミシ,ナベシマ,富山県砺波市鍋島
9391363,富山県,砺波市,太郎丸,トヤマケン,トナミシ,タロウマル,富山県砺波市太郎丸
9391364,富山県,砺波市,豊町,トヤマケン,トナミシ,ユタカマチ,富山県砺波市豊町
9391365,富山県,砺波市,三島町,トヤマケン,トナミシ,ミシママチ,富山県砺波市三島町
9391366,富山県,砺波市,表町,トヤマケン,トナミシ,オモテマチ,富山県砺波市表町
9391367,富山県,砺波市,広上町,トヤマケン,トナミシ,ヒロカミチョウ,富山県砺波市広上町
9391368,富山県,砺波市,本町,トヤマケン,トナミシ,ホンマチ,富山県砺波市本町
9391371,富山県,砺波市,栄町,トヤマケン,トナミシ,サカエマチ,富山県砺波市栄町
9391372,富山県,砺波市,新又,トヤマケン,トナミシ,アラマタ,富山県砺波市新又
9391373,富山県,砺波市,一番町,トヤマケン,トナミシ,イチバンマチ,富山県砺波市一番町
9391374,富山県,砺波市,山王町,トヤマケン,トナミシ,サンノウマチ,富山県砺波市山王町
9391375,富山県,砺波市,中央町,トヤマケン,トナミシ,チュウオウマチ,富山県砺波市中央町
9391376,富山県,砺波市,平和町,トヤマケン,トナミシ,ヘイワマチ,富山県砺波市平和町
9391377,富山県,砺波市,寿町,トヤマケン,トナミシ,コトブキチョウ,富山県砺波市寿町
9391378,富山県,砺波市,春日町,トヤマケン,トナミシ,ハルヒマチ,富山県砺波市春日町
9391379,富山県,砺波市,出町中央,トヤマケン,トナミシ,デマチチュウオウ,富山県砺波市出町中央
9391381,富山県,砺波市,中村,トヤマケン,トナミシ,ナカムラ,富山県砺波市中村
9391382,富山県,砺波市,花園町,トヤマケン,トナミシ,ハナゾノマチ,富山県砺波市花園町
9391383,富山県,砺波市,高道,トヤマケン,トナミシ,タカンド,富山県砺波市高道
9391384,富山県,砺波市,坪内,トヤマケン,トナミシ,ツボノウチ,富山県砺波市坪内
9391385,富山県,砺波市,東幸町,トヤマケン,トナミシ,ヒガシサイワイチョウ,富山県砺波市東幸町
9391386,富山県,砺波市,幸町,トヤマケン,トナミシ,サイワイチョウ,富山県砺波市幸町
9391387,富山県,砺波市,となみ町,トヤマケン,トナミシ,トナミマチ,富山県砺波市となみ町
9391388,富山県,砺波市,宮沢町,トヤマケン,トナミシ,ミヤザワチョウ,富山県砺波市宮沢町
9391401,富山県,砺波市,本小林,トヤマケン,トナミシ,モトコバヤシ,富山県砺波市本小林
9391401,富山県,砺波市,東保,トヤマケン,トナミシ,ヒガシボ,富山県砺波市東保
9391402,富山県,砺波市,増山,トヤマケン,トナミシ,マスヤマ,富山県砺波市増山
9391403,富山県,砺波市,宮新,トヤマケン,トナミシ,ミヤシン,富山県砺波市宮新
9391404,富山県,砺波市,宮森新,トヤマケン,トナミシ,ミヤモリシン,富山県砺波市宮森新
9391405,富山県,砺波市,福岡,トヤマケン,トナミシ,フクオカ,富山県砺波市福岡
9391406,富山県,砺波市,宮森,トヤマケン,トナミシ,ミヤモリ,富山県砺波市宮森
9391407,富山県,砺波市,権正寺,トヤマケン,トナミシ,ゴンショウジ,富山県砺波市権正寺
9391408,富山県,砺波市,八十歩,トヤマケン,トナミシ,ハチジュウブ,富山県砺波市八十歩
9391411,富山県,砺波市,上和田,トヤマケン,トナミシ,カミワダ,富山県砺波市上和田
9391412,富山県,砺波市,正権寺,トヤマケン,トナミシ,ショウゴンジ,富山県砺波市正権寺
9391413,富山県,砺波市,市谷,トヤマケン,トナミシ,イチノタニ,富山県砺波市市谷
9391414,富山県,砺波市,坪野,トヤマケン,トナミシ,ツボノ,富山県砺波市坪野
9391415,富山県,砺波市,池原,トヤマケン,トナミシ,イケノハラ,富山県砺波市池原
9391416,富山県,砺波市,芹谷,トヤマケン,トナミシ,セリダニ,富山県砺波市芹谷
9391417,富山県,砺波市,頼成新,トヤマケン,トナミシ,ランジョウシン,富山県砺波市頼成新
9391421,富山県,砺波市,東別所新,トヤマケン,トナミシ,ヒガシベッショシン,富山県砺波市東別所新
9391422,富山県,砺波市,浅谷,トヤマケン,トナミシ,アサンタニ,富山県砺波市浅谷
9391423,富山県,砺波市,東別所,トヤマケン,トナミシ,ヒガシベッショ,富山県砺波市東別所
9391424,富山県,砺波市,栃上,トヤマケン,トナミシ,トチアゲ,富山県砺波市栃上
9391425,富山県,砺波市,井栗谷,トヤマケン,トナミシ,イグリダニ,富山県砺波市井栗谷
9391426,富山県,砺波市,川内,トヤマケン,トナミシ,コウチ,富山県砺波市川内
9391427,富山県,砺波市,伏木谷,トヤマケン,トナミシ,フシキダニ,富山県砺波市伏木谷
9391428,富山県,砺波市,五谷,トヤマケン,トナミシ,ゴタニ,富山県砺波市五谷
9391429,富山県,砺波市,寺尾,トヤマケン,トナミシ,テラオ,富山県砺波市寺尾
9391431,富山県,砺波市,頼成,トヤマケン,トナミシ,ランジョウ,富山県砺波市頼成
9391432,富山県,砺波市,徳万,トヤマケン,トナミシ,トクマン,富山県砺波市徳万
9391433,富山県,砺波市,徳万新,トヤマケン,トナミシ,トクマンシン,富山県砺波市徳万新
9391434,富山県,砺波市,三合,トヤマケン,トナミシ,ミアイ,富山県砺波市三合
9391435,富山県,砺波市,三合新,トヤマケン,トナミシ,ミアイシン,富山県砺波市三合新
9391436,富山県,砺波市,福山,トヤマケン,トナミシ,フクヤマ,富山県砺波市福山
9391437,富山県,砺波市,茶ノ木,トヤマケン,トナミシ,チャノキ,富山県砺波市茶ノ木
9391438,富山県,砺波市,安川,トヤマケン,トナミシ,ヤスカワ,富山県砺波市安川
9391501,富山県,南砺市,本江,トヤマケン,ナントシ,ホンゴウ,富山県南砺市本江
9391502,富山県,南砺市,野尻,トヤマケン,ナントシ,ノジリ,富山県南砺市野尻
9391503,富山県,南砺市,岩武新,トヤマケン,ナントシ,イワタケシン,富山県南砺市岩武新
9391504,富山県,南砺市,川除新,トヤマケン,ナントシ,カワヨケシン,富山県南砺市川除新
9391505,富山県,南砺市,長源寺,トヤマケン,ナントシ,チョウゲンジ,富山県南砺市長源寺
9391506,富山県,南砺市,高儀,トヤマケン,ナントシ,タカギ,富山県南砺市高儀
9391507,富山県,南砺市,二日町,トヤマケン,ナントシ,フツカマチ,富山県南砺市二日町
9391511,富山県,南砺市,高堀,トヤマケン,ナントシ,タカホリ,富山県南砺市高堀
9391512,富山県,南砺市,上野,トヤマケン,ナントシ,ウエノ,富山県南砺市上野
9391513,富山県,南砺市,野尻野,トヤマケン,ナントシ,ノジリノ,富山県南砺市野尻野
9391514,富山県,南砺市,年代,トヤマケン,ナントシ,ネンダイ,富山県南砺市年代
9391515,富山県,南砺市,福野軸屋,トヤマケン,ナントシ,フクノジクヤ,富山県南砺市福野軸屋
9391516,富山県,南砺市,焼野,トヤマケン,ナントシ,ヤケノ,富山県南砺市焼野
9391517,富山県,南砺市,百町,トヤマケン,ナントシ,ヒャクチョウ,富山県南砺市百町
9391518,富山県,南砺市,松原,トヤマケン,ナントシ,マツバラ,富山県南砺市松原
9391521,富山県,南砺市,苗島,トヤマケン,ナントシ,ノジマ,富山県南砺市苗島
9391522,富山県,南砺市,野新,トヤマケン,ナントシ,ノシン,富山県南砺市野新
9391523,富山県,南砺市,野原,トヤマケン,ナントシ,ノハラ,富山県南砺市野原
9391524,富山県,南砺市,雨潜,トヤマケン,ナントシ,アメクグリ,富山県南砺市雨潜
9391525,富山県,南砺市,三清西,トヤマケン,ナントシ,サンキヨニシ,富山県南砺市三清西
9391526,富山県,南砺市,江田,トヤマケン,ナントシ,エダ,富山県南砺市江田
9391527,富山県,南砺市,森清,トヤマケン,ナントシ,モリキヨ,富山県南砺市森清
9391528,富山県,南砺市,安清,トヤマケン,ナントシ,ヤスキヨ,富山県南砺市安清
9391531,富山県,南砺市,院林,トヤマケン,ナントシ,インバヤシ,富山県南砺市院林
9391532,富山県,南砺市,寺家,トヤマケン,ナントシ,ジケ,富山県南砺市寺家
9391533,富山県,南砺市,八塚,トヤマケン,ナントシ,ヤツヅカ,富山県南砺市八塚
9391534,富山県,南砺市,広安,トヤマケン,ナントシ,ヒロヤス,富山県南砺市広安
9391535,富山県,南砺市,石田,トヤマケン,ナントシ,イシダ,富山県南砺市石田
9391536,富山県,南砺市,東石田,トヤマケン,ナントシ,ヒガシイシダ,富山県南砺市東石田
9391537,富山県,南砺市,田屋,トヤマケン,ナントシ,タヤ,富山県南砺市田屋
9391538,富山県,南砺市,田尻,トヤマケン,ナントシ,タジリ,富山県南砺市田尻
9391541,富山県,南砺市,晩田,トヤマケン,ナントシ,バンデ,富山県南砺市晩田
9391542,富山県,南砺市,梅ケ島,トヤマケン,ナントシ,ウメガシマ,富山県南砺市梅ケ島
9391543,富山県,南砺市,下吉江,トヤマケン,ナントシ,シモヨシエ,富山県南砺市下吉江
9391544,富山県,南砺市,新邸,トヤマケン,ナントシ,シンテイ,富山県南砺市新邸
9391545,富山県,南砺市,布袋,トヤマケン,ナントシ,ホテイ,富山県南砺市布袋
9391546,富山県,南砺市,森,トヤマケン,ナントシ,モリ,富山県南砺市森
9391547,富山県,南砺市,三ツ屋,トヤマケン,ナントシ,ミツヤ,富山県南砺市三ツ屋
9391548,富山県,南砺市,桐木,トヤマケン,ナントシ,キリノキ,富山県南砺市桐木
9391549,富山県,南砺市,前田,トヤマケン,ナントシ,マエダ,富山県南砺市前田
9391551,富山県,南砺市,上津,トヤマケン,ナントシ,ジョウヅ,富山県南砺市上津
9391552,富山県,南砺市,柴田屋,トヤマケン,ナントシ,シバタヤ,富山県南砺市柴田屋
9391553,富山県,南砺市,上川崎,トヤマケン,ナントシ,カミカワサキ,富山県南砺市上川崎
9391554,富山県,南砺市,安居,トヤマケン,ナントシ,ヤスイ,富山県南砺市安居
9391555,富山県,南砺市,七村滝寺,トヤマケン,ナントシ,ナナムラタキデラ,富山県南砺市七村滝寺
9391561,富山県,南砺市,福野,トヤマケン,ナントシ,フクノ,富山県南砺市福野
9391562,富山県,南砺市,福野（浦町）,トヤマケン,ナントシ,フクノ(ウラマチ),富山県南砺市福野（浦町）
9391563,富山県,南砺市,福野（辰巳町）,トヤマケン,ナントシ,フクノ(タツミマチ),富山県南砺市福野（辰巳町）
9391564,富山県,南砺市,福野（御蔵町）,トヤマケン,ナントシ,フクノ(オクラマチ),富山県南砺市福野（御蔵町）
9391565,富山県,南砺市,福野（新町）,トヤマケン,ナントシ,フクノ(シンマチ),富山県南砺市福野（新町）
9391566,富山県,南砺市,福野（田中町）,トヤマケン,ナントシ,フクノ(タナカマチ),富山県南砺市福野（田中町）
9391567,富山県,南砺市,福野（上町）,トヤマケン,ナントシ,フクノ(カンマチ),富山県南砺市福野（上町）
9391568,富山県,南砺市,福野（横町）,トヤマケン,ナントシ,フクノ(ヨコマチ),富山県南砺市福野（横町）
9391571,富山県,南砺市,松原新,トヤマケン,ナントシ,マツバラシン,富山県南砺市松原新
9391572,富山県,南砺市,福野（駅前通り）,トヤマケン,ナントシ,フクノ(エキマエドオリ),富山県南砺市福野（駅前通り）
9391573,富山県,南砺市,福野（南町）,トヤマケン,ナントシ,フクノ(ミナミマチ),富山県南砺市福野（南町）
9391574,富山県,南砺市,福野（七ツ屋）,トヤマケン,ナントシ,フクノ(ナナツヤ),富山県南砺市福野（七ツ屋）
9391575,富山県,南砺市,上三日市,トヤマケン,ナントシ,カミミッカイチ,富山県南砺市上三日市
9391576,富山県,南砺市,やかた,トヤマケン,ナントシ,ヤカタ,富山県南砺市やかた
9391577,富山県,南砺市,寺家新屋敷,トヤマケン,ナントシ,ジケアラヤシキ,富山県南砺市寺家新屋敷
9391600,富山県,南砺市,,トヤマケン,ナントシ,,富山県南砺市
9391601,富山県,南砺市,人母,トヤマケン,ナントシ,ヒトブ,富山県南砺市人母
9391602,富山県,南砺市,高窪,トヤマケン,ナントシ,タカクボ,富山県南砺市高窪
9391603,富山県,南砺市,砂子谷,トヤマケン,ナントシ,スナゴダニ,富山県南砺市砂子谷
9391604,富山県,南砺市,土山,トヤマケン,ナントシ,ドヤマ,富山県南砺市土山
9391605,富山県,南砺市,小又,トヤマケン,ナントシ,オマタ,富山県南砺市小又
9391606,富山県,南砺市,能美,トヤマケン,ナントシ,ノミ,富山県南砺市能美
9391610,富山県,南砺市,福光,トヤマケン,ナントシ,フクミツ,富山県南砺市福光
9391611,富山県,南砺市,岩安,トヤマケン,ナントシ,イワヤス,富山県南砺市岩安
9391612,富山県,南砺市,岩木,トヤマケン,ナントシ,イワキ,富山県南砺市岩木
9391613,富山県,南砺市,川西,トヤマケン,ナントシ,カワニシ,富山県南砺市川西
9391614,富山県,南砺市,蔵原,トヤマケン,ナントシ,クラハラ,富山県南砺市蔵原
9391615,富山県,南砺市,湯谷,トヤマケン,ナントシ,ユダニ,富山県南砺市湯谷
9391621,富山県,南砺市,和泉,トヤマケン,ナントシ,イズミ,富山県南砺市和泉
9391622,富山県,南砺市,遊部川原,トヤマケン,ナントシ,アソブカワラ,富山県南砺市遊部川原
9391623,富山県,南砺市,松木,トヤマケン,ナントシ,マツノキ,富山県南砺市松木
9391624,富山県,南砺市,八幡,トヤマケン,ナントシ,ハチマン,富山県南砺市八幡
9391625,富山県,南砺市,中ノ江,トヤマケン,ナントシ,ナカノゴ,富山県南砺市中ノ江
9391626,富山県,南砺市,法林寺,トヤマケン,ナントシ,ホウリンジ,富山県南砺市法林寺
9391631,富山県,南砺市,福光（旭町）,トヤマケン,ナントシ,フクミツ(アサヒマチ),富山県南砺市福光（旭町）
9391632,富山県,南砺市,福光（観音町）,トヤマケン,ナントシ,フクミツ(カンノンマチ),富山県南砺市福光（観音町）
9391633,富山県,南砺市,福光（東町）,トヤマケン,ナントシ,フクミツ(ヒガシマチ),富山県南砺市福光（東町）
9391634,富山県,南砺市,福光（寺町）,トヤマケン,ナントシ,フクミツ(テラマチ),富山県南砺市福光（寺町）
9391635,富山県,南砺市,福光（中央通り）,トヤマケン,ナントシ,フクミツ(チュウオウドオリ),富山県南砺市福光（中央通り）
9391636,富山県,南砺市,福光（神田町）,トヤマケン,ナントシ,フクミツ(カンダマチ),富山県南砺市福光（神田町）
9391637,富山県,南砺市,福光（西町）,トヤマケン,ナントシ,フクミツ(ニシマチ),富山県南砺市福光（西町）
9391641,富山県,南砺市,福光（川原町）,トヤマケン,ナントシ,フクミツ(カワハラマチ),富山県南砺市福光（川原町）
9391642,富山県,南砺市,福光（味噌屋町）,トヤマケン,ナントシ,フクミツ(ミソヤチョウ),富山県南砺市福光（味噌屋町）
9391643,富山県,南砺市,福光（本町）,トヤマケン,ナントシ,フクミツ(ホンマチ),富山県南砺市福光（本町）
9391644,富山県,南砺市,福光（五宝町）,トヤマケン,ナントシ,フクミツ(ゴホウマチ),富山県南砺市福光（五宝町）
9391645,富山県,南砺市,福光（中荒町）,トヤマケン,ナントシ,フクミツ(ナカアラマチ),富山県南砺市福光（中荒町）
9391646,富山県,南砺市,福光（荒町）,トヤマケン,ナントシ,フクミツ(アラマチ),富山県南砺市福光（荒町）
9391651,富山県,南砺市,福光（東新町）,トヤマケン,ナントシ,フクミツ(ヒガシシンマチ),富山県南砺市福光（東新町）
9391652,富山県,南砺市,福光新町,トヤマケン,ナントシ,フクミツシンマチ,富山県南砺市福光新町
9391653,富山県,南砺市,福光（宮脇町）,トヤマケン,ナントシ,フクミツ(ミヤワキチョウ),富山県南砺市福光（宮脇町）
9391654,富山県,南砺市,福光（栄町）,トヤマケン,ナントシ,フクミツ(サカエマチ),富山県南砺市福光（栄町）
9391655,富山県,南砺市,坂本,トヤマケン,ナントシ,サカモト,富山県南砺市坂本
9391661,富山県,南砺市,天神,トヤマケン,ナントシ,テンジン,富山県南砺市天神
9391662,富山県,南砺市,福光（天神町）,トヤマケン,ナントシ,フクミツ(テンジンマチ),富山県南砺市福光（天神町）
9391664,富山県,南砺市,竹内,トヤマケン,ナントシ,タケウチ,富山県南砺市竹内
9391665,富山県,南砺市,小山,トヤマケン,ナントシ,コヤマ,富山県南砺市小山
9391666,富山県,南砺市,山本,トヤマケン,ナントシ,ヤマモト,富山県南砺市山本
9391667,富山県,南砺市,開発,トヤマケン,ナントシ,カイホツ,富山県南砺市開発
9391671,富山県,南砺市,小坂,トヤマケン,ナントシ,コザカ,富山県南砺市小坂
9391672,富山県,南砺市,広谷,トヤマケン,ナントシ,ヒロタニ,富山県南砺市広谷
9391673,富山県,南砺市,糸谷新,トヤマケン,ナントシ,イトダニシン,富山県南砺市糸谷新
9391674,富山県,南砺市,香城寺,トヤマケン,ナントシ,コウジョウジ,富山県南砺市香城寺
9391675,富山県,南砺市,祖谷,トヤマケン,ナントシ,ソダニ,富山県南砺市祖谷
9391676,富山県,南砺市,舘,トヤマケン,ナントシ,タチ,富山県南砺市舘
9391681,富山県,南砺市,才川七,トヤマケン,ナントシ,サイカワシチ,富山県南砺市才川七
9391682,富山県,南砺市,小二又,トヤマケン,ナントシ,コブタマタ,富山県南砺市小二又
9391684,富山県,南砺市,小院瀬見,トヤマケン,ナントシ,コインゼミ,富山県南砺市小院瀬見
9391701,富山県,南砺市,遊部,トヤマケン,ナントシ,アソブ,富山県南砺市遊部
9391702,富山県,南砺市,吉江中,トヤマケン,ナントシ,ヨシエナカ,富山県南砺市吉江中
9391703,富山県,南砺市,一日市,トヤマケン,ナントシ,シテイチ,富山県南砺市一日市
9391704,富山県,南砺市,田中,トヤマケン,ナントシ,タナカ,富山県南砺市田中
9391711,富山県,南砺市,在房,トヤマケン,ナントシ,アリフサ,富山県南砺市在房
9391712,富山県,南砺市,久戸,トヤマケン,ナントシ,ヒサト,富山県南砺市久戸
9391713,富山県,南砺市,神成,トヤマケン,ナントシ,カミナリ,富山県南砺市神成
9391714,富山県,南砺市,高畠,トヤマケン,ナントシ,タカバタケ,富山県南砺市高畠
9391715,富山県,南砺市,宗守,トヤマケン,ナントシ,ムネモリ,富山県南砺市宗守
9391716,富山県,南砺市,梅原,トヤマケン,ナントシ,ウメハラ,富山県南砺市梅原
9391716,富山県,南砺市,荒見崎,トヤマケン,ナントシ,アラミサキ,富山県南砺市荒見崎
9391721,富山県,南砺市,東殿,トヤマケン,ナントシ,ヒガシトノ,富山県南砺市東殿
9391722,富山県,南砺市,徳成,トヤマケン,ナントシ,トクナリ,富山県南砺市徳成
9391723,富山県,南砺市,利波河,トヤマケン,ナントシ,トノゴ,富山県南砺市利波河
9391724,富山県,南砺市,梅野,トヤマケン,ナントシ,ウメノ,富山県南砺市梅野
9391725,富山県,南砺市,鍛治,トヤマケン,ナントシ,カジ,富山県南砺市鍛治
9391732,富山県,南砺市,荒木,トヤマケン,ナントシ,アラキ,富山県南砺市荒木
9391733,富山県,南砺市,下野,トヤマケン,ナントシ,シタノ,富山県南砺市下野
9391734,富山県,南砺市,竹林,トヤマケン,ナントシ,タケバヤシ,富山県南砺市竹林
9391735,富山県,南砺市,小林,トヤマケン,ナントシ,コバヤシ,富山県南砺市小林
9391735,富山県,南砺市,神宮寺,トヤマケン,ナントシ,ジングウジ,富山県南砺市神宮寺
9391741,富山県,南砺市,高宮,トヤマケン,ナントシ,タカミヤ,富山県南砺市高宮
9391742,富山県,南砺市,吉江野,トヤマケン,ナントシ,ヨシエノ,富山県南砺市吉江野
9391743,富山県,南砺市,大塚,トヤマケン,ナントシ,オオツカ,富山県南砺市大塚
9391744,富山県,南砺市,天池,トヤマケン,ナントシ,アマイケ,富山県南砺市天池
9391745,富山県,南砺市,縄蔵,トヤマケン,ナントシ,ナワグラ,富山県南砺市縄蔵
9391746,富山県,南砺市,出村,トヤマケン,ナントシ,デムラ,富山県南砺市出村
9391747,富山県,南砺市,山田,トヤマケン,ナントシ,ヤマダ,富山県南砺市山田
9391751,富山県,南砺市,赤坂,トヤマケン,ナントシ,アカサカ,富山県南砺市赤坂
9391752,富山県,南砺市,大西,トヤマケン,ナントシ,オオニシ,富山県南砺市大西
9391754,富山県,南砺市,嫁兼,トヤマケン,ナントシ,ヨメガネ,富山県南砺市嫁兼
9391755,富山県,南砺市,立野原西,トヤマケン,ナントシ,タテノガハラニシ,富山県南砺市立野原西
9391756,富山県,南砺市,土生新,トヤマケン,ナントシ,ハブシン,富山県南砺市土生新
9391757,富山県,南砺市,土生,トヤマケン,ナントシ,ハブ,富山県南砺市土生
9391758,富山県,南砺市,殿,トヤマケン,ナントシ,トノ,富山県南砺市殿
9391761,富山県,南砺市,太美,トヤマケン,ナントシ,フトミ,富山県南砺市太美
9391762,富山県,南砺市,七曲,トヤマケン,ナントシ,ナナマガリ,富山県南砺市七曲
9391763,富山県,南砺市,樋瀬戸,トヤマケン,ナントシ,ヒノセト,富山県南砺市樋瀬戸
9391764,富山県,南砺市,吉見,トヤマケン,ナントシ,ヨシミ,富山県南砺市吉見
9391765,富山県,南砺市,綱掛,トヤマケン,ナントシ,ツナカケ,富山県南砺市綱掛
9391766,富山県,南砺市,刀利,トヤマケン,ナントシ,トウリ,富山県南砺市刀利
9391766,富山県,南砺市,立野脇,トヤマケン,ナントシ,タテノワキ,富山県南砺市立野脇
9391801,富山県,南砺市,北野（長楽寺）,トヤマケン,ナントシ,キタノ(チョウラクジ),富山県南砺市北野（長楽寺）
9391802,富山県,南砺市,北野（次郎丸）,トヤマケン,ナントシ,キタノ(ジロウマル),富山県南砺市北野（次郎丸）
9391803,富山県,南砺市,東西原,トヤマケン,ナントシ,ヒガシニシハラ,富山県南砺市東西原
9391804,富山県,南砺市,西明,トヤマケン,ナントシ,サイミョウ,富山県南砺市西明
9391805,富山県,南砺市,細野,トヤマケン,ナントシ,ホソノ,富山県南砺市細野
9391806,富山県,南砺市,北野（吉松）,トヤマケン,ナントシ,キタノ(ヨシマツ),富山県南砺市北野（吉松）
9391807,富山県,南砺市,北野,トヤマケン,ナントシ,キタノ,富山県南砺市北野
9391811,富山県,南砺市,理休,トヤマケン,ナントシ,リキュウ,富山県南砺市理休
9391812,富山県,南砺市,蓑谷,トヤマケン,ナントシ,ミノダニ,富山県南砺市蓑谷
9391813,富山県,南砺市,正谷,トヤマケン,ナントシ,マサタニ,富山県南砺市正谷
9391814,富山県,南砺市,大宮野,トヤマケン,ナントシ,オオミヤノ,富山県南砺市大宮野
9391815,富山県,南砺市,城端（東新田）,トヤマケン,ナントシ,ジョウハナ(ヒガシシンデン),富山県南砺市城端（東新田）
9391816,富山県,南砺市,城端（東上）,トヤマケン,ナントシ,ジョウハナ(ヒガシカミ),富山県南砺市城端（東上）
9391817,富山県,南砺市,城端（東下）,トヤマケン,ナントシ,ジョウハナ(ヒガシシモ),富山県南砺市城端（東下）
9391818,富山県,南砺市,城端（川島）,トヤマケン,ナントシ,ジョウハナ(カワシマ),富山県南砺市城端（川島）
9391821,富山県,南砺市,泉沢,トヤマケン,ナントシ,イズミザワ,富山県南砺市泉沢
9391822,富山県,南砺市,林道,トヤマケン,ナントシ,リンドウ,富山県南砺市林道
9391823,富山県,南砺市,打尾,トヤマケン,ナントシ,ウチオ,富山県南砺市打尾
9391824,富山県,南砺市,上田,トヤマケン,ナントシ,ウエダ,富山県南砺市上田
9391824,富山県,南砺市,大鋸屋,トヤマケン,ナントシ,オガヤ,富山県南砺市大鋸屋
9391825,富山県,南砺市,大鋸屋（大谷島）,トヤマケン,ナントシ,オガヤ(オオタニジマ),富山県南砺市大鋸屋（大谷島）
9391826,富山県,南砺市,瀬戸,トヤマケン,ナントシ,セト,富山県南砺市瀬戸
9391827,富山県,南砺市,盛新,トヤマケン,ナントシ,モリシン,富山県南砺市盛新
9391828,富山県,南砺市,中尾,トヤマケン,ナントシ,ナカオ,富山県南砺市中尾
9391831,富山県,南砺市,千福,トヤマケン,ナントシ,センプク,富山県南砺市千福
9391831,富山県,南砺市,千福新,トヤマケン,ナントシ,センプクシン,富山県南砺市千福新
9391832,富山県,南砺市,塔尾,トヤマケン,ナントシ,トウノ,富山県南砺市塔尾
9391833,富山県,南砺市,上見,トヤマケン,ナントシ,ウワミ,富山県南砺市上見
9391834,富山県,南砺市,上原,トヤマケン,ナントシ,カミハラ,富山県南砺市上原
9391835,富山県,南砺市,京塚,トヤマケン,ナントシ,キョウヅカ,富山県南砺市京塚
9391835,富山県,南砺市,南原,トヤマケン,ナントシ,ミナミハラ,富山県南砺市南原
9391835,富山県,南砺市,立野原東,トヤマケン,ナントシ,タテノハラヒガシ,富山県南砺市立野原東
9391836,富山県,南砺市,雁巻島,トヤマケン,ナントシ,ガンマキジマ,富山県南砺市雁巻島
9391837,富山県,南砺市,大宮野新,トヤマケン,ナントシ,オオミヤノシン,富山県南砺市大宮野新
9391837,富山県,南砺市,西原,トヤマケン,ナントシ,ニシハラ,富山県南砺市西原
9391841,富山県,南砺市,細木,トヤマケン,ナントシ,ホソキ,富山県南砺市細木
9391842,富山県,南砺市,野田,トヤマケン,ナントシ,ノダ,富山県南砺市野田
9391843,富山県,南砺市,金戸,トヤマケン,ナントシ,カネト,富山県南砺市金戸
9391844,富山県,南砺市,野口,トヤマケン,ナントシ,ノグチ,富山県南砺市野口
9391845,富山県,南砺市,示野,トヤマケン,ナントシ,シメノ,富山県南砺市示野
9391846,富山県,南砺市,国広,トヤマケン,ナントシ,クニヒロ,富山県南砺市国広
9391846,富山県,南砺市,経塚野,トヤマケン,ナントシ,キョウヅカノ,富山県南砺市経塚野
9391851,富山県,南砺市,信末,トヤマケン,ナントシ,ノブスエ,富山県南砺市信末
9391852,富山県,南砺市,是安,トヤマケン,ナントシ,コレヤス,富山県南砺市是安
9391853,富山県,南砺市,城端（出丸）,トヤマケン,ナントシ,ジョウハナ(デマル),富山県南砺市城端（出丸）
9391854,富山県,南砺市,城端（栄町）,トヤマケン,ナントシ,ジョウハナ(サカエマチ),富山県南砺市城端（栄町）
9391855,富山県,南砺市,大窪,トヤマケン,ナントシ,オオクボ,富山県南砺市大窪
9391856,富山県,南砺市,是安（末広町）,トヤマケン,ナントシ,コレヤス(スエヒロチョウ),富山県南砺市是安（末広町）
9391861,富山県,南砺市,城端,トヤマケン,ナントシ,ジョウハナ,富山県南砺市城端
9391862,富山県,南砺市,城端（西下）,トヤマケン,ナントシ,ジョウハナ(ニシシモ),富山県南砺市城端（西下）
9391863,富山県,南砺市,城端（西上）,トヤマケン,ナントシ,ジョウハナ(ニシカミ),富山県南砺市城端（西上）
9391864,富山県,南砺市,城端（大工町）,トヤマケン,ナントシ,ジョウハナ(ダイクマチ),富山県南砺市城端（大工町）
9391865,富山県,南砺市,城端（新町）,トヤマケン,ナントシ,ジョウハナ(シンマチ),富山県南砺市城端（新町）
9391866,富山県,南砺市,城端（南町）,トヤマケン,ナントシ,ジョウハナ(ミナミチョウ),富山県南砺市城端（南町）
9391867,富山県,南砺市,城端（野下）,トヤマケン,ナントシ,ジョウハナ(ノゲ),富山県南砺市城端（野下）
9391868,富山県,南砺市,城端（西新田）,トヤマケン,ナントシ,ジョウハナ(ニシシンデン),富山県南砺市城端（西新田）
9391871,富山県,南砺市,池尻,トヤマケン,ナントシ,イケノシリ,富山県南砺市池尻
9391872,富山県,南砺市,久保,トヤマケン,ナントシ,クボ,富山県南砺市久保
9391873,富山県,南砺市,池田,トヤマケン,ナントシ,イケダ,富山県南砺市池田
9391874,富山県,南砺市,蛇喰,トヤマケン,ナントシ,ジャバミ,富山県南砺市蛇喰
9391875,富山県,南砺市,大野,トヤマケン,ナントシ,オオノ,富山県南砺市大野
9391876,富山県,南砺市,川上中,トヤマケン,ナントシ,カワカミナカ,富山県南砺市川上中
9391877,富山県,南砺市,井口,トヤマケン,ナントシ,イノクチ,富山県南砺市井口
9391878,富山県,南砺市,上広安,トヤマケン,ナントシ,カミヒロヤス,富山県南砺市上広安
9391879,富山県,南砺市,宮後,トヤマケン,ナントシ,ミヤノウシロ,富山県南砺市宮後
9391901,富山県,南砺市,祖山,トヤマケン,ナントシ,ソヤマ,富山県南砺市祖山
9391902,富山県,南砺市,大崩島,トヤマケン,ナントシ,オオクズシマ,富山県南砺市大崩島
9391903,富山県,南砺市,寿川,トヤマケン,ナントシ,スガワ,富山県南砺市寿川
9391904,富山県,南砺市,入谷,トヤマケン,ナントシ,イリタニ,富山県南砺市入谷
9391905,富山県,南砺市,東中江,トヤマケン,ナントシ,ヒガシナカエ,富山県南砺市東中江
9391906,富山県,南砺市,高草嶺,トヤマケン,ナントシ,タカソウレイ,富山県南砺市高草嶺
9391907,富山県,南砺市,夏焼,トヤマケン,ナントシ,ナツヤケ,富山県南砺市夏焼
9391908,富山県,南砺市,下出,トヤマケン,ナントシ,シモデ,富山県南砺市下出
9391911,富山県,南砺市,篭渡,トヤマケン,ナントシ,カゴド,富山県南砺市篭渡
9391912,富山県,南砺市,大島,トヤマケン,ナントシ,オオシマ,富山県南砺市大島
9391913,富山県,南砺市,田向,トヤマケン,ナントシ,タムカイ,富山県南砺市田向
9391914,富山県,南砺市,上梨,トヤマケン,ナントシ,カミナシ,富山県南砺市上梨
9391915,富山県,南砺市,相倉,トヤマケン,ナントシ,アイノクラ,富山県南砺市相倉
9391916,富山県,南砺市,見座,トヤマケン,ナントシ,ミザ,富山県南砺市見座
9391921,富山県,南砺市,杉尾,トヤマケン,ナントシ,スギオ,富山県南砺市杉尾
9391922,富山県,南砺市,渡原,トヤマケン,ナントシ,ドノハラ,富山県南砺市渡原
9391923,富山県,南砺市,下梨,トヤマケン,ナントシ,シモナシ,富山県南砺市下梨
9391924,富山県,南砺市,中畑,トヤマケン,ナントシ,ナカバタケ,富山県南砺市中畑
9391925,富山県,南砺市,来栖,トヤマケン,ナントシ,クルス,富山県南砺市来栖
9391926,富山県,南砺市,小来栖,トヤマケン,ナントシ,コグルス,富山県南砺市小来栖
9391927,富山県,南砺市,梨谷,トヤマケン,ナントシ,ナシタニ,富山県南砺市梨谷
9391928,富山県,南砺市,上松尾,トヤマケン,ナントシ,カミマツオ,富山県南砺市上松尾
9391961,富山県,南砺市,皆葎,トヤマケン,ナントシ,カイムクラ,富山県南砺市皆葎
9391962,富山県,南砺市,猪谷,トヤマケン,ナントシ,イノタニ,富山県南砺市猪谷
9391963,富山県,南砺市,成出,トヤマケン,ナントシ,ナルデ,富山県南砺市成出
9391964,富山県,南砺市,楮,トヤマケン,ナントシ,コウズ,富山県南砺市楮
9391965,富山県,南砺市,真木,トヤマケン,ナントシ,マキ,富山県南砺市真木
9391966,富山県,南砺市,東赤尾,トヤマケン,ナントシ,ヒガシアカオ,富山県南砺市東赤尾
9391967,富山県,南砺市,小原,トヤマケン,ナントシ,オハラ,富山県南砺市小原
9391968,富山県,南砺市,上平細島,トヤマケン,ナントシ,カミタイラホソジマ,富山県南砺市上平細島
9391969,富山県,南砺市,桂,トヤマケン,ナントシ,カツラ,富山県南砺市桂
9391971,富山県,南砺市,小瀬,トヤマケン,ナントシ,オゼ,富山県南砺市小瀬
9391972,富山県,南砺市,葎島,トヤマケン,ナントシ,ムクラジマ,富山県南砺市葎島
9391973,富山県,南砺市,菅沼,トヤマケン,ナントシ,スガヌマ,富山県南砺市菅沼
9391974,富山県,南砺市,田下,トヤマケン,ナントシ,タノシタ,富山県南砺市田下
9391975,富山県,南砺市,上中田,トヤマケン,ナントシ,カミナカダ,富山県南砺市上中田
9391976,富山県,南砺市,新屋,トヤマケン,ナントシ,アタラシヤ,富山県南砺市新屋
9391977,富山県,南砺市,西赤尾町,トヤマケン,ナントシ,ニシアカオマチ,富山県南砺市西赤尾町
9391978,富山県,南砺市,下島,トヤマケン,ナントシ,シタジマ,富山県南砺市下島
9391979,富山県,南砺市,漆谷,トヤマケン,ナントシ,ウルシタニ,富山県南砺市漆谷
9392161,富山県,富山市,芦生,トヤマケン,トヤマシ,アシュウ,富山県富山市芦生
9392162,富山県,富山市,今生津,トヤマケン,トヤマシ,イモヅ,富山県富山市今生津
9392163,富山県,富山市,布尻,トヤマケン,トヤマシ,ヌノシリ,富山県富山市布尻
9392164,富山県,富山市,町長,トヤマケン,トヤマシ,マチナガ,富山県富山市町長
9392165,富山県,富山市,寺津,トヤマケン,トヤマシ,テラヅ,富山県富山市寺津
9392171,富山県,富山市,太田薄波,トヤマケン,トヤマシ,オオタウスナミ,富山県富山市太田薄波
9392171,富山県,富山市,薄波,トヤマケン,トヤマシ,ウスナミ,富山県富山市薄波
9392172,富山県,富山市,吉野,トヤマケン,トヤマシ,ヨシノ,富山県富山市吉野
9392173,富山県,富山市,伏木,トヤマケン,トヤマシ,フシキ,富山県富山市伏木
9392174,富山県,富山市,小糸,トヤマケン,トヤマシ,コイト,富山県富山市小糸
9392175,富山県,富山市,東猪谷,トヤマケン,トヤマシ,ヒガシイノタニ,富山県富山市東猪谷
9392176,富山県,富山市,舟渡,トヤマケン,トヤマシ,フナト,富山県富山市舟渡
9392181,富山県,富山市,西笹津,トヤマケン,トヤマシ,ニシササヅ,富山県富山市西笹津
9392182,富山県,富山市,岩稲,トヤマケン,トヤマシ,イワイネ,富山県富山市岩稲
9392183,富山県,富山市,割山,トヤマケン,トヤマシ,ワリヤマ,富山県富山市割山
9392184,富山県,富山市,楡原,トヤマケン,トヤマシ,ニレハラ,富山県富山市楡原
9392185,富山県,富山市,庵谷,トヤマケン,トヤマシ,イオリダニ,富山県富山市庵谷
9392186,富山県,富山市,片掛,トヤマケン,トヤマシ,カタカケ,富山県富山市片掛
9392187,富山県,富山市,猪谷,トヤマケン,トヤマシ,イノタニ,富山県富山市猪谷
9392188,富山県,富山市,蟹寺,トヤマケン,トヤマシ,カニデラ,富山県富山市蟹寺
9392189,富山県,富山市,加賀沢,トヤマケン,トヤマシ,カガサワ,富山県富山市加賀沢
9392201,富山県,富山市,合田,トヤマケン,トヤマシ,ゴウダ,富山県富山市合田
9392201,富山県,富山市,新村,トヤマケン,トヤマシ,シンムラ,富山県富山市新村
9392202,富山県,富山市,小黒,トヤマケン,トヤマシ,オグロ,富山県富山市小黒
9392203,富山県,富山市,松野,トヤマケン,トヤマシ,マツノ,富山県富山市松野
9392204,富山県,富山市,万願寺,トヤマケン,トヤマシ,マンガンジ,富山県富山市万願寺
9392205,富山県,富山市,二松,トヤマケン,トヤマシ,フタマツ,富山県富山市二松
9392206,富山県,富山市,坂本,トヤマケン,トヤマシ,サカモト,富山県富山市坂本
9392207,富山県,富山市,大野,トヤマケン,トヤマシ,オオノ,富山県富山市大野
9392208,富山県,富山市,南野田,トヤマケン,トヤマシ,ミナミノダ,富山県富山市南野田
9392209,富山県,富山市,東大久保,トヤマケン,トヤマシ,ヒガシオオクボ,富山県富山市東大久保
9392211,富山県,富山市,市場,トヤマケン,トヤマシ,イチバ,富山県富山市市場
9392212,富山県,富山市,舟倉,トヤマケン,トヤマシ,フナクラ,富山県富山市舟倉
9392213,富山県,富山市,牛ケ増,トヤマケン,トヤマシ,ウシガマセ,富山県富山市牛ケ増
9392214,富山県,富山市,寺家,トヤマケン,トヤマシ,ジケ,富山県富山市寺家
9392215,富山県,富山市,直坂,トヤマケン,トヤマシ,スグザカ,富山県富山市直坂
9392216,富山県,富山市,横樋,トヤマケン,トヤマシ,ヨコドイ,富山県富山市横樋
9392221,富山県,富山市,西大沢,トヤマケン,トヤマシ,ニシオオサワ,富山県富山市西大沢
9392222,富山県,富山市,笹津（押上）,トヤマケン,トヤマシ,ササヅ(オシアゲ),富山県富山市笹津（押上）
9392223,富山県,富山市,笹津,トヤマケン,トヤマシ,ササヅ,富山県富山市笹津
9392224,富山県,富山市,春日,トヤマケン,トヤマシ,カスガ,富山県富山市春日
9392225,富山県,富山市,長走,トヤマケン,トヤマシ,ナガシリ,富山県富山市長走
9392226,富山県,富山市,下タ林,トヤマケン,トヤマシ,シタバヤシ,富山県富山市下タ林
9392231,富山県,富山市,稲代,トヤマケン,トヤマシ,イナシロ,富山県富山市稲代
9392231,富山県,富山市,稲代（幸町）,トヤマケン,トヤマシ,イナシロ(サイワイチョウ),富山県富山市稲代（幸町）
9392232,富山県,富山市,小羽,トヤマケン,トヤマシ,コバ,富山県富山市小羽
9392233,富山県,富山市,長川原,トヤマケン,トヤマシ,ナンカワラ,富山県富山市長川原
9392234,富山県,富山市,須原,トヤマケン,トヤマシ,スワラ,富山県富山市須原
9392235,富山県,富山市,下伏,トヤマケン,トヤマシ,ゲブセ,富山県富山市下伏
9392236,富山県,富山市,土,トヤマケン,トヤマシ,ド,富山県富山市土
9392237,富山県,富山市,根上,トヤマケン,トヤマシ,ネノウエ,富山県富山市根上
9392238,富山県,富山市,葛原,トヤマケン,トヤマシ,ツヅハラ,富山県富山市葛原
9392241,富山県,富山市,神通,トヤマケン,トヤマシ,ジンヅウ,富山県富山市神通
9392242,富山県,富山市,塩,トヤマケン,トヤマシ,シオ,富山県富山市塩
9392243,富山県,富山市,中大久保,トヤマケン,トヤマシ,ナカオオクボ,富山県富山市中大久保
9392244,富山県,富山市,西塩野,トヤマケン,トヤマシ,ニシシオノ,富山県富山市西塩野
9392245,富山県,富山市,加納,トヤマケン,トヤマシ,カノウ,富山県富山市加納
9392246,富山県,富山市,岩木,トヤマケン,トヤマシ,イワキ,富山県富山市岩木
9392247,富山県,富山市,岩木新,トヤマケン,トヤマシ,イワキシン,富山県富山市岩木新
9392251,富山県,富山市,下大久保,トヤマケン,トヤマシ,シモオオクボ,富山県富山市下大久保
9392251,富山県,富山市,下大久保新町,トヤマケン,トヤマシ,シモオオクボシンマチ,富山県富山市下大久保新町
9392251,富山県,富山市,下大久保東ケ丘,トヤマケン,トヤマシ,シモオオクボヒガシガオカ,富山県富山市下大久保東ケ丘
9392251,富山県,富山市,下大久保緑町,トヤマケン,トヤマシ,シモオオクボミドリチョウ,富山県富山市下大久保緑町
9392251,富山県,富山市,下大久保（若草町）,トヤマケン,トヤマシ,シモオオクボ(ワカクサチョウ),富山県富山市下大久保（若草町）
9392251,富山県,富山市,大久保新町,トヤマケン,トヤマシ,オオクボシンマチ,富山県富山市大久保新町
9392252,富山県,富山市,上大久保,トヤマケン,トヤマシ,カミオオクボ,富山県富山市上大久保
9392252,富山県,富山市,上大久保北新町,トヤマケン,トヤマシ,カミオオクボキタシンマチ,富山県富山市上大久保北新町
9392252,富山県,富山市,上大久保東新町,トヤマケン,トヤマシ,カミオオクボヒガシシンマチ,富山県富山市上大久保東新町
9392252,富山県,富山市,上大久保栄町,トヤマケン,トヤマシ,カミオオクボサカエマチ,富山県富山市上大久保栄町
9392252,富山県,富山市,上大久保泉町,トヤマケン,トヤマシ,カミオオクボイズミチョウ,富山県富山市上大久保泉町
9392253,富山県,富山市,八木山,トヤマケン,トヤマシ,ヤキヤマ,富山県富山市八木山
9392254,富山県,富山市,高内,トヤマケン,トヤマシ,タカウチ,富山県富山市高内
9392255,富山県,富山市,長附,トヤマケン,トヤマシ,ナガツキ,富山県富山市長附
9392256,富山県,富山市,上二杉,トヤマケン,トヤマシ,カミフタスギ,富山県富山市上二杉
9392257,富山県,富山市,南花園町,トヤマケン,トヤマシ,ミナミハナゾノチョウ,富山県富山市南花園町
9392301,富山県,富山市,八尾町寺家,トヤマケン,トヤマシ,ヤツオマチジケ,富山県富山市八尾町寺家
9392302,富山県,富山市,八尾町杉田,トヤマケン,トヤマシ,ヤツオマチスギタ,富山県富山市八尾町杉田
9392303,富山県,富山市,八尾町大杉,トヤマケン,トヤマシ,ヤツオマチオオスギ,富山県富山市八尾町大杉
9392304,富山県,富山市,八尾町黒田,トヤマケン,トヤマシ,ヤツオマチクロダ,富山県富山市八尾町黒田
9392305,富山県,富山市,八尾町井田新,トヤマケン,トヤマシ,ヤツオマチイダシン,富山県富山市八尾町井田新
9392306,富山県,富山市,八尾町井田,トヤマケン,トヤマシ,ヤツオマチイダ,富山県富山市八尾町井田
9392311,富山県,富山市,八尾町中神通,トヤマケン,トヤマシ,ヤツオマチナカジンヅウ,富山県富山市八尾町中神通
9392311,富山県,富山市,八尾町西神通,トヤマケン,トヤマシ,ヤツオマチニシジンヅウ,富山県富山市八尾町西神通
9392312,富山県,富山市,八尾町薄島,トヤマケン,トヤマシ,ヤツオマチウスジマ,富山県富山市八尾町薄島
9392313,富山県,富山市,八尾町滅鬼,トヤマケン,トヤマシ,ヤツオマチメッキ,富山県富山市八尾町滅鬼
9392314,富山県,富山市,八尾町城生,トヤマケン,トヤマシ,ヤツオマチジョウノウ,富山県富山市八尾町城生
9392314,富山県,富山市,八尾町野飼,トヤマケン,トヤマシ,ヤツオマチノガイ,富山県富山市八尾町野飼
9392315,富山県,富山市,八尾町井栗谷,トヤマケン,トヤマシ,ヤツオマチイクリタニ,富山県富山市八尾町井栗谷
9392316,富山県,富山市,八尾町深谷,トヤマケン,トヤマシ,ヤツオマチフカダニ,富山県富山市八尾町深谷
9392317,富山県,富山市,八尾町丸山,トヤマケン,トヤマシ,ヤツオマチマルヤマ,富山県富山市八尾町丸山
9392321,富山県,富山市,八尾町小長谷,トヤマケン,トヤマシ,ヤツオマチコナガタニ,富山県富山市八尾町小長谷
9392322,富山県,富山市,八尾町小長谷新,トヤマケン,トヤマシ,ヤツオマチコナガタニシン,富山県富山市八尾町小長谷新
9392323,富山県,富山市,八尾町村杉,トヤマケン,トヤマシ,ヤツオマチムラスギ,富山県富山市八尾町村杉
9392324,富山県,富山市,八尾町北谷,トヤマケン,トヤマシ,ヤツオマチキタダニ,富山県富山市八尾町北谷
9392324,富山県,富山市,八尾町東坂下,トヤマケン,トヤマシ,ヤツオマチサコギ,富山県富山市八尾町東坂下
9392325,富山県,富山市,八尾町外堀,トヤマケン,トヤマシ,ヤツオマチソトボリ,富山県富山市八尾町外堀
9392325,富山県,富山市,八尾町宮腰,トヤマケン,トヤマシ,ヤツオマチミヤノコシ,富山県富山市八尾町宮腰
9392326,富山県,富山市,八尾町岩屋,トヤマケン,トヤマシ,ヤツオマチイワヤ,富山県富山市八尾町岩屋
9392327,富山県,富山市,八尾町樫尾,トヤマケン,トヤマシ,ヤツオマチカシオ,富山県富山市八尾町樫尾
9392331,富山県,富山市,八尾町下笹原,トヤマケン,トヤマシ,ヤツオマチシモササハラ,富山県富山市八尾町下笹原
9392332,富山県,富山市,八尾町上黒瀬,トヤマケン,トヤマシ,ヤツオマチカミクロゼ,富山県富山市八尾町上黒瀬
9392332,富山県,富山市,八尾町掛畑,トヤマケン,トヤマシ,ヤツオマチカケハタ,富山県富山市八尾町掛畑
9392333,富山県,富山市,八尾町小井波,トヤマケン,トヤマシ,ヤツオマチコイナミ,富山県富山市八尾町小井波
9392333,富山県,富山市,八尾町桐谷,トヤマケン,トヤマシ,ヤツオマチキリダニ,富山県富山市八尾町桐谷
9392333,富山県,富山市,八尾町滝脇,トヤマケン,トヤマシ,ヤツオマチタキノワキ,富山県富山市八尾町滝脇
9392334,富山県,富山市,八尾町上笹原,トヤマケン,トヤマシ,ヤツオマチカミササハラ,富山県富山市八尾町上笹原
9392335,富山県,富山市,八尾町茗ケ原,トヤマケン,トヤマシ,ヤツオマチミョウガハラ,富山県富山市八尾町茗ケ原
9392336,富山県,富山市,八尾町角間,トヤマケン,トヤマシ,ヤツオマチカクマ,富山県富山市八尾町角間
9392337,富山県,富山市,八尾町梅苑町,トヤマケン,トヤマシ,ヤツオマチウメゾノチョウ,富山県富山市八尾町梅苑町
9392341,富山県,富山市,八尾町鏡町,トヤマケン,トヤマシ,ヤツオマチカガミマチ,富山県富山市八尾町鏡町
9392342,富山県,富山市,八尾町上新町,トヤマケン,トヤマシ,ヤツオマチカミシンマチ,富山県富山市八尾町上新町
9392343,富山県,富山市,八尾町諏訪町,トヤマケン,トヤマシ,ヤツオマチスワマチ,富山県富山市八尾町諏訪町
9392344,富山県,富山市,八尾町東新町,トヤマケン,トヤマシ,ヤツオマチヒガシシンマチ,富山県富山市八尾町東新町
9392345,富山県,富山市,八尾町西新町,トヤマケン,トヤマシ,ヤツオマチニシシンマチ,富山県富山市八尾町西新町
9392351,富山県,富山市,八尾町天満町,トヤマケン,トヤマシ,ヤツオマチテンマンチョウ,富山県富山市八尾町天満町
9392352,富山県,富山市,八尾町下新町,トヤマケン,トヤマシ,ヤツオマチシタシンマチ,富山県富山市八尾町下新町
9392353,富山県,富山市,八尾町今町,トヤマケン,トヤマシ,ヤツオマチイママチ,富山県富山市八尾町今町
9392354,富山県,富山市,八尾町東町,トヤマケン,トヤマシ,ヤツオマチヒガシマチ,富山県富山市八尾町東町
9392355,富山県,富山市,八尾町西町,トヤマケン,トヤマシ,ヤツオマチニシマチ,富山県富山市八尾町西町
9392361,富山県,富山市,八尾町三田,トヤマケン,トヤマシ,ヤツオマチミタ,富山県富山市八尾町三田
9392362,富山県,富山市,八尾町奥田,トヤマケン,トヤマシ,ヤツオマチオクダ,富山県富山市八尾町奥田
9392363,富山県,富山市,八尾町新田,トヤマケン,トヤマシ,ヤツオマチシンデン,富山県富山市八尾町新田
9392364,富山県,富山市,八尾町水谷,トヤマケン,トヤマシ,ヤツオマチミズタニ,富山県富山市八尾町水谷
9392365,富山県,富山市,八尾町妙川寺,トヤマケン,トヤマシ,ヤツオマチミョウセンジ,富山県富山市八尾町妙川寺
9392366,富山県,富山市,八尾町保内,トヤマケン,トヤマシ,ヤツオマチヤスウチ,富山県富山市八尾町保内
9392367,富山県,富山市,八尾町平林,トヤマケン,トヤマシ,ヤツオマチヒラバヤシ,富山県富山市八尾町平林
9392367,富山県,富山市,八尾町松原,トヤマケン,トヤマシ,ヤツオマチマツバラ,富山県富山市八尾町松原
9392371,富山県,富山市,八尾町田中,トヤマケン,トヤマシ,ヤツオマチタナカ,富山県富山市八尾町田中
9392371,富山県,富山市,八尾町翠尾,トヤマケン,トヤマシ,ヤツオマチミスオ,富山県富山市八尾町翠尾
9392372,富山県,富山市,八尾町舘本郷,トヤマケン,トヤマシ,ヤツオマチタチホンゴウ,富山県富山市八尾町舘本郷
9392373,富山県,富山市,八尾町高善寺,トヤマケン,トヤマシ,ヤツオマチコウゼンジ,富山県富山市八尾町高善寺
9392374,富山県,富山市,八尾町上高善寺,トヤマケン,トヤマシ,ヤツオマチカミコウゼンジ,富山県富山市八尾町上高善寺
9392375,富山県,富山市,八尾町石戸,トヤマケン,トヤマシ,ヤツオマチセキド,富山県富山市八尾町石戸
9392376,富山県,富山市,八尾町福島,トヤマケン,トヤマシ,ヤツオマチフクジマ,富山県富山市八尾町福島
9392401,富山県,富山市,八尾町東葛坂,トヤマケン,トヤマシ,ヤツオマチヒガシクズサカ,富山県富山市八尾町東葛坂
9392401,富山県,富山市,八尾町油,トヤマケン,トヤマシ,ヤツオマチアブラ,富山県富山市八尾町油
9392401,富山県,富山市,八尾町西葛坂,トヤマケン,トヤマシ,ヤツオマチニシクズサカ,富山県富山市八尾町西葛坂
9392402,富山県,富山市,八尾町上田池,トヤマケン,トヤマシ,ヤツオマチカミタイケ,富山県富山市八尾町上田池
9392402,富山県,富山市,八尾町下田池,トヤマケン,トヤマシ,ヤツオマチシモタイケ,富山県富山市八尾町下田池
9392402,富山県,富山市,八尾町八十島,トヤマケン,トヤマシ,ヤツオマチヤトジマ,富山県富山市八尾町八十島
9392403,富山県,富山市,八尾町宮ノ下,トヤマケン,トヤマシ,ヤツオマチミヤノシタ,富山県富山市八尾町宮ノ下
9392403,富山県,富山市,八尾町道畑下中山,トヤマケン,トヤマシ,ヤツオマチドバタケシモナカヤマ,富山県富山市八尾町道畑下中山
9392404,富山県,富山市,八尾町上ケ島,トヤマケン,トヤマシ,ヤツオマチウエガシマ,富山県富山市八尾町上ケ島
9392404,富山県,富山市,八尾町水口,トヤマケン,トヤマシ,ヤツオマチミナクチ,富山県富山市八尾町水口
9392405,富山県,富山市,八尾町岩島,トヤマケン,トヤマシ,ヤツオマチイワシマ,富山県富山市八尾町岩島
9392405,富山県,富山市,八尾町青根,トヤマケン,トヤマシ,ヤツオマチアオネ,富山県富山市八尾町青根
9392406,富山県,富山市,八尾町乗嶺,トヤマケン,トヤマシ,ヤツオマチノリミネ,富山県富山市八尾町乗嶺
9392406,富山県,富山市,八尾町高峯,トヤマケン,トヤマシ,ヤツオマチタカミネ,富山県富山市八尾町高峯
9392407,富山県,富山市,八尾町下乗嶺,トヤマケン,トヤマシ,ヤツオマチシモノリミネ,富山県富山市八尾町下乗嶺
9392407,富山県,富山市,八尾町新名,トヤマケン,トヤマシ,ヤツオマチシンミョウ,富山県富山市八尾町新名
9392411,富山県,富山市,八尾町東川倉,トヤマケン,トヤマシ,ヤツオマチヒガシカワクラ,富山県富山市八尾町東川倉
9392412,富山県,富山市,八尾町東布谷,トヤマケン,トヤマシ,ヤツオマチヒガシヌノタニ,富山県富山市八尾町東布谷
9392413,富山県,富山市,八尾町赤石,トヤマケン,トヤマシ,ヤツオマチアカイシ,富山県富山市八尾町赤石
9392414,富山県,富山市,八尾町東松瀬,トヤマケン,トヤマシ,ヤツオマチヒガシマツゼ,富山県富山市八尾町東松瀬
9392414,富山県,富山市,八尾町猟師ケ原,トヤマケン,トヤマシ,ヤツオマチリョウシガハラ,富山県富山市八尾町猟師ケ原
9392415,富山県,富山市,八尾町桂原,トヤマケン,トヤマシ,ヤツオマチカツラハラ,富山県富山市八尾町桂原
9392415,富山県,富山市,八尾町西松瀬,トヤマケン,トヤマシ,ヤツオマチニシマツゼ,富山県富山市八尾町西松瀬
9392416,富山県,富山市,八尾町布谷,トヤマケン,トヤマシ,ヤツオマチヌノタニ,富山県富山市八尾町布谷
9392416,富山県,富山市,八尾町谷折,トヤマケン,トヤマシ,ヤツオマチタニオリ,富山県富山市八尾町谷折
9392417,富山県,富山市,八尾町下牧,トヤマケン,トヤマシ,ヤツオマチシモマキ,富山県富山市八尾町下牧
9392417,富山県,富山市,八尾町川住,トヤマケン,トヤマシ,ヤツオマチカワスミ,富山県富山市八尾町川住
9392417,富山県,富山市,八尾町西川倉,トヤマケン,トヤマシ,ヤツオマチニシカワクラ,富山県富山市八尾町西川倉
9392421,富山県,富山市,八尾町田頭,トヤマケン,トヤマシ,ヤツオマチタノカシラ,富山県富山市八尾町田頭
9392422,富山県,富山市,八尾町西原,トヤマケン,トヤマシ,ヤツオマチニシガハラ,富山県富山市八尾町西原
9392423,富山県,富山市,八尾町新屋,トヤマケン,トヤマシ,ヤツオマチアラヤ,富山県富山市八尾町新屋
9392424,富山県,富山市,八尾町東原,トヤマケン,トヤマシ,ヤツオマチヒガシハラ,富山県富山市八尾町東原
9392425,富山県,富山市,八尾町庵谷,トヤマケン,トヤマシ,ヤツオマチイオリダニ,富山県富山市八尾町庵谷
9392426,富山県,富山市,八尾町切詰,トヤマケン,トヤマシ,ヤツオマチキリヅメ,富山県富山市八尾町切詰
9392431,富山県,富山市,八尾町栃折,トヤマケン,トヤマシ,ヤツオマチトチオリ,富山県富山市八尾町栃折
9392431,富山県,富山市,八尾町栗須,トヤマケン,トヤマシ,ヤツオマチクリス,富山県富山市八尾町栗須
9392432,富山県,富山市,八尾町中山,トヤマケン,トヤマシ,ヤツオマチナカヤマ,富山県富山市八尾町中山
9392432,富山県,富山市,八尾町薄尾,トヤマケン,トヤマシ,ヤツオマチススキオ,富山県富山市八尾町薄尾
9392433,富山県,富山市,八尾町清水,トヤマケン,トヤマシ,ヤツオマチショウズ,富山県富山市八尾町清水
9392433,富山県,富山市,八尾町花房,トヤマケン,トヤマシ,ヤツオマチハナブサ,富山県富山市八尾町花房
9392434,富山県,富山市,八尾町島地,トヤマケン,トヤマシ,ヤツオマチシマジ,富山県富山市八尾町島地
9392435,富山県,富山市,八尾町上牧,トヤマケン,トヤマシ,ヤツオマチカミマキ,富山県富山市八尾町上牧
9392435,富山県,富山市,八尾町下島,トヤマケン,トヤマシ,ヤツオマチシモジマ,富山県富山市八尾町下島
9392436,富山県,富山市,八尾町中島,トヤマケン,トヤマシ,ヤツオマチナカジマ,富山県富山市八尾町中島
9392436,富山県,富山市,八尾町内名,トヤマケン,トヤマシ,ヤツオマチウチミョウ,富山県富山市八尾町内名
9392437,富山県,富山市,八尾町水無,トヤマケン,トヤマシ,ヤツオマチミズナシ,富山県富山市八尾町水無
9392437,富山県,富山市,八尾町高野,トヤマケン,トヤマシ,ヤツオマチタカノ,富山県富山市八尾町高野
9392441,富山県,富山市,八尾町大下,トヤマケン,トヤマシ,ヤツオマチオオシモ,富山県富山市八尾町大下
9392442,富山県,富山市,八尾町下仁歩,トヤマケン,トヤマシ,ヤツオマチシモニンブ,富山県富山市八尾町下仁歩
9392443,富山県,富山市,八尾町中仁歩,トヤマケン,トヤマシ,ヤツオマチナカニンブ,富山県富山市八尾町中仁歩
9392444,富山県,富山市,八尾町上仁歩,トヤマケン,トヤマシ,ヤツオマチカミニンブ,富山県富山市八尾町上仁歩
9392445,富山県,富山市,八尾町入谷,トヤマケン,トヤマシ,ヤツオマチイリタニ,富山県富山市八尾町入谷
9392446,富山県,富山市,八尾町草連坂,トヤマケン,トヤマシ,ヤツオマチソウレンザカ,富山県富山市八尾町草連坂
9392447,富山県,富山市,八尾町鼠谷,トヤマケン,トヤマシ,ヤツオマチヨメダニ,富山県富山市八尾町鼠谷
9392451,富山県,富山市,八尾町平沢,トヤマケン,トヤマシ,ヤツオマチヒラサワ,富山県富山市八尾町平沢
9392452,富山県,富山市,八尾町三ツ松,トヤマケン,トヤマシ,ヤツオマチミツマツ,富山県富山市八尾町三ツ松
9392453,富山県,富山市,八尾町倉ケ谷,トヤマケン,トヤマシ,ヤツオマチクラガタニ,富山県富山市八尾町倉ケ谷
9392454,富山県,富山市,八尾町尾畑,トヤマケン,トヤマシ,ヤツオマチオバタケ,富山県富山市八尾町尾畑
9392454,富山県,富山市,八尾町武道原,トヤマケン,トヤマシ,ヤツオマチブドウハラ,富山県富山市八尾町武道原
9392455,富山県,富山市,八尾町大玉生,トヤマケン,トヤマシ,ヤツオマチオオダモウ,富山県富山市八尾町大玉生
9392456,富山県,富山市,八尾町正間,トヤマケン,トヤマシ,ヤツオマチマサマ,富山県富山市八尾町正間
9392456,富山県,富山市,八尾町茗ケ島,トヤマケン,トヤマシ,ヤツオマチミョウガジマ,富山県富山市八尾町茗ケ島
9392461,富山県,富山市,八尾町高熊,トヤマケン,トヤマシ,ヤツオマチタカクマ,富山県富山市八尾町高熊
9392462,富山県,富山市,八尾町柴橋,トヤマケン,トヤマシ,ヤツオマチシバハシ,富山県富山市八尾町柴橋
9392462,富山県,富山市,八尾町高橋,トヤマケン,トヤマシ,ヤツオマチタカハシ,富山県富山市八尾町高橋
9392463,富山県,富山市,八尾町中,トヤマケン,トヤマシ,ヤツオマチナカ,富山県富山市八尾町中
9392463,富山県,富山市,八尾町谷内,トヤマケン,トヤマシ,ヤツオマチヤチ,富山県富山市八尾町谷内
9392464,富山県,富山市,八尾町宮ケ島,トヤマケン,トヤマシ,ヤツオマチミヤガシマ,富山県富山市八尾町宮ケ島
9392464,富山県,富山市,八尾町竹ノ内,トヤマケン,トヤマシ,ヤツオマチタケノウチ,富山県富山市八尾町竹ノ内
9392465,富山県,富山市,八尾町尾久,トヤマケン,トヤマシ,ヤツオマチオギュウ,富山県富山市八尾町尾久
9392465,富山県,富山市,八尾町窪,トヤマケン,トヤマシ,ヤツオマチクボ,富山県富山市八尾町窪
9392466,富山県,富山市,八尾町天池,トヤマケン,トヤマシ,ヤツオマチアマイケ,富山県富山市八尾町天池
9392467,富山県,富山市,八尾町追分,トヤマケン,トヤマシ,ヤツオマチオイワケ,富山県富山市八尾町追分
9392467,富山県,富山市,八尾町高瀬,トヤマケン,トヤマシ,ヤツオマチタカセ,富山県富山市八尾町高瀬
9392471,富山県,富山市,八尾町坂ノ下,トヤマケン,トヤマシ,ヤツオマチサカノシタ,富山県富山市八尾町坂ノ下
9392471,富山県,富山市,八尾町高尾,トヤマケン,トヤマシ,ヤツオマチタカオ,富山県富山市八尾町高尾
9392472,富山県,富山市,八尾町和山,トヤマケン,トヤマシ,ヤツオマチワヤマ,富山県富山市八尾町和山
9392472,富山県,富山市,八尾町野須郷,トヤマケン,トヤマシ,ヤツオマチノスゴウ,富山県富山市八尾町野須郷
9392473,富山県,富山市,八尾町上ノ名,トヤマケン,トヤマシ,ヤツオマチウエノミョウ,富山県富山市八尾町上ノ名
9392473,富山県,富山市,八尾町峯,トヤマケン,トヤマシ,ヤツオマチミネ,富山県富山市八尾町峯
9392474,富山県,富山市,八尾町下ノ名,トヤマケン,トヤマシ,ヤツオマチシタノミョウ,富山県富山市八尾町下ノ名
9392474,富山県,富山市,八尾町須郷,トヤマケン,トヤマシ,ヤツオマチスゴウ,富山県富山市八尾町須郷
9392475,富山県,富山市,八尾町柚木,トヤマケン,トヤマシ,ヤツオマチユノキ,富山県富山市八尾町柚木
9392475,富山県,富山市,八尾町足谷,トヤマケン,トヤマシ,ヤツオマチアシタニ,富山県富山市八尾町足谷
9392476,富山県,富山市,八尾町細滝,トヤマケン,トヤマシ,ヤツオマチホソダキ,富山県富山市八尾町細滝
9392477,富山県,富山市,八尾町上野,トヤマケン,トヤマシ,ヤツオマチウワノ,富山県富山市八尾町上野
9392501,富山県,南砺市,利賀村栗当,トヤマケン,ナントシ,トガムラクリトウ,富山県南砺市利賀村栗当
9392502,富山県,南砺市,利賀村高沼,トヤマケン,ナントシ,トガムラタカヌマ,富山県南砺市利賀村高沼
9392503,富山県,南砺市,利賀村草嶺,トヤマケン,ナントシ,トガムラソウレイ,富山県南砺市利賀村草嶺
9392504,富山県,南砺市,利賀村押場,トヤマケン,ナントシ,トガムラオシバ,富山県南砺市利賀村押場
9392505,富山県,南砺市,利賀村北豆谷,トヤマケン,ナントシ,トガムラキタマメダニ,富山県南砺市利賀村北豆谷
9392506,富山県,南砺市,利賀村大豆谷,トヤマケン,ナントシ,トガムラオオマメダニ,富山県南砺市利賀村大豆谷
9392507,富山県,南砺市,利賀村,トヤマケン,ナントシ,トガムラ,富山県南砺市利賀村
9392508,富山県,南砺市,利賀村岩渕,トヤマケン,ナントシ,トガムライワブチ,富山県南砺市利賀村岩渕
9392509,富山県,南砺市,利賀村北島,トヤマケン,ナントシ,トガムラキタジマ,富山県南砺市利賀村北島
9392511,富山県,南砺市,利賀村百瀬川,トヤマケン,ナントシ,トガムラモモセガワ,富山県南砺市利賀村百瀬川
9392512,富山県,南砺市,利賀村中村,トヤマケン,ナントシ,トガムラナカムラ,富山県南砺市利賀村中村
9392513,富山県,南砺市,利賀村上百瀬,トヤマケン,ナントシ,トガムラカミモモセ,富山県南砺市利賀村上百瀬
9392514,富山県,南砺市,利賀村上畠,トヤマケン,ナントシ,トガムラウエバタケ,富山県南砺市利賀村上畠
9392515,富山県,南砺市,利賀村細島,トヤマケン,ナントシ,トガムラホソジマ,富山県南砺市利賀村細島
9392516,富山県,南砺市,利賀村坂上,トヤマケン,ナントシ,トガムラサカウエ,富山県南砺市利賀村坂上
9392517,富山県,南砺市,利賀村阿別当,トヤマケン,ナントシ,トガムラアベットウ,富山県南砺市利賀村阿別当
9392518,富山県,南砺市,利賀村大勘場,トヤマケン,ナントシ,トガムラタイカンバ,富山県南砺市利賀村大勘場
9392519,富山県,南砺市,利賀村水無,トヤマケン,ナントシ,トガムラミズナシ,富山県南砺市利賀村水無
9392601,富山県,富山市,婦中町小長沢,トヤマケン,トヤマシ,フチュウマチコナガサワ,富山県富山市婦中町小長沢
9392602,富山県,富山市,婦中町下邑,トヤマケン,トヤマシ,フチュウマチシモムラ,富山県富山市婦中町下邑
9392603,富山県,富山市,婦中町羽根,トヤマケン,トヤマシ,フチュウマチハネ,富山県富山市婦中町羽根
9392604,富山県,富山市,婦中町富川,トヤマケン,トヤマシ,フチュウマチトミカワ,富山県富山市婦中町富川
9392604,富山県,富山市,婦中町小野島,トヤマケン,トヤマシ,フチュウマチコノシマ,富山県富山市婦中町小野島
9392605,富山県,富山市,婦中町河原町,トヤマケン,トヤマシ,フチュウマチカワラマチ,富山県富山市婦中町河原町
9392606,富山県,富山市,婦中町ひまわり台,トヤマケン,トヤマシ,フチュウマチヒマワリダイ,富山県富山市婦中町ひまわり台
9392606,富山県,富山市,婦中町長沢,トヤマケン,トヤマシ,フチュウマチナガサワ,富山県富山市婦中町長沢
9392607,富山県,富山市,婦中町新町,トヤマケン,トヤマシ,フチュウマチアラマチ,富山県富山市婦中町新町
9392611,富山県,富山市,婦中町かたかご台,トヤマケン,トヤマシ,フチュウマチカタカゴダイ,富山県富山市婦中町かたかご台
9392611,富山県,富山市,婦中町下吉川,トヤマケン,トヤマシ,フチュウマチシモヨシカワ,富山県富山市婦中町下吉川
9392611,富山県,富山市,婦中町高田,トヤマケン,トヤマシ,フチュウマチタカタ,富山県富山市婦中町高田
9392612,富山県,富山市,婦中町上吉川,トヤマケン,トヤマシ,フチュウマチカミヨシカワ,富山県富山市婦中町上吉川
9392612,富山県,富山市,婦中町上吉川ニュータウン,トヤマケン,トヤマシ,フチュウマチカミヨシカワニュータウン,富山県富山市婦中町上吉川ニュータウン
9392613,富山県,富山市,婦中町高日附,トヤマケン,トヤマシ,フチュウマチタカヒヅキ,富山県富山市婦中町高日附
9392614,富山県,富山市,婦中町上井沢,トヤマケン,トヤマシ,フチュウマチカミイサワ,富山県富山市婦中町上井沢
9392615,富山県,富山市,婦中町熊野道,トヤマケン,トヤマシ,フチュウマチヤンド,富山県富山市婦中町熊野道
9392616,富山県,富山市,婦中町小倉,トヤマケン,トヤマシ,フチュウマチオグラ,富山県富山市婦中町小倉
9392617,富山県,富山市,婦中町島田,トヤマケン,トヤマシ,フチュウマチシマダ,富山県富山市婦中町島田
9392621,富山県,富山市,婦中町富崎,トヤマケン,トヤマシ,フチュウマチトミサキ,富山県富山市婦中町富崎
9392622,富山県,富山市,婦中町千里,トヤマケン,トヤマシ,フチュウマチチサト,富山県富山市婦中町千里
9392622,富山県,富山市,婦中町沢田,トヤマケン,トヤマシ,フチュウマチサワダ,富山県富山市婦中町沢田
9392622,富山県,富山市,婦中町鉾木,トヤマケン,トヤマシ,フチュウマチホコノキ,富山県富山市婦中町鉾木
9392623,富山県,富山市,婦中町蓮花寺,トヤマケン,トヤマシ,フチュウマチレンゲジ,富山県富山市婦中町蓮花寺
9392624,富山県,富山市,婦中町下瀬,トヤマケン,トヤマシ,フチュウマチシモゼ,富山県富山市婦中町下瀬
9392625,富山県,富山市,婦中町三瀬,トヤマケン,トヤマシ,フチュウマチサンノセ,富山県富山市婦中町三瀬
9392625,富山県,富山市,婦中町上瀬,トヤマケン,トヤマシ,フチュウマチカミゼ,富山県富山市婦中町上瀬
9392625,富山県,富山市,婦中町高山,トヤマケン,トヤマシ,フチュウマチタカヤマ,富山県富山市婦中町高山
9392626,富山県,富山市,婦中町道島,トヤマケン,トヤマシ,フチュウマチドウジマ,富山県富山市婦中町道島
9392627,富山県,富山市,婦中町上野,トヤマケン,トヤマシ,フチュウマチウワノ,富山県富山市婦中町上野
9392627,富山県,富山市,婦中町皆杓,トヤマケン,トヤマシ,フチュウマチカイジャク,富山県富山市婦中町皆杓
9392631,富山県,富山市,婦中町宮ケ谷,トヤマケン,トヤマシ,フチュウマチミヤガタニ,富山県富山市婦中町宮ケ谷
9392631,富山県,富山市,婦中町高塚,トヤマケン,トヤマシ,フチュウマチタカツカ,富山県富山市婦中町高塚
9392632,富山県,富山市,婦中町吉住,トヤマケン,トヤマシ,フチュウマチヨシズミ,富山県富山市婦中町吉住
9392632,富山県,富山市,婦中町外輪野,トヤマケン,トヤマシ,フチュウマチソトワノ,富山県富山市婦中町外輪野
9392633,富山県,富山市,婦中町東谷,トヤマケン,トヤマシ,フチュウマチヒガシタニ,富山県富山市婦中町東谷
9392634,富山県,富山市,婦中町牛滑,トヤマケン,トヤマシ,フチュウマチウシナメリ,富山県富山市婦中町牛滑
9392635,富山県,富山市,婦中町大瀬谷,トヤマケン,トヤマシ,フチュウマチオオセダニ,富山県富山市婦中町大瀬谷
9392636,富山県,富山市,婦中町東山,トヤマケン,トヤマシ,フチュウマチヒガシヤマ,富山県富山市婦中町東山
9392636,富山県,富山市,婦中町葎原,トヤマケン,トヤマシ,フチュウマチムクガハラ,富山県富山市婦中町葎原
9392637,富山県,富山市,婦中町鶚谷,トヤマケン,トヤマシ,フチュウマチミサゴダニ,富山県富山市婦中町鶚谷
9392638,富山県,富山市,婦中町吉谷,トヤマケン,トヤマシ,フチュウマチヨシタニ,富山県富山市婦中町吉谷
9392638,富山県,富山市,婦中町細谷,トヤマケン,トヤマシ,フチュウマチホソタニ,富山県富山市婦中町細谷
9392639,富山県,富山市,婦中町平等,トヤマケン,トヤマシ,フチュウマチダイラ,富山県富山市婦中町平等
9392649,富山県,富山市,婦中町余川（西余川）,トヤマケン,トヤマシ,フチュウマチヨカワ(ニシヨカワ),富山県富山市婦中町余川（西余川）
9392701,富山県,富山市,婦中町西本郷,トヤマケン,トヤマシ,フチュウマチニシホンゴウ,富山県富山市婦中町西本郷
9392702,富山県,富山市,婦中町田島,トヤマケン,トヤマシ,フチュウマチタジマ,富山県富山市婦中町田島
9392703,富山県,富山市,婦中町希望ケ丘,トヤマケン,トヤマシ,フチュウマチキボウガオカ,富山県富山市婦中町希望ケ丘
9392704,富山県,富山市,婦中町羽根新,トヤマケン,トヤマシ,フチュウマチハネシン,富山県富山市婦中町羽根新
9392705,富山県,富山市,婦中町宮ケ島,トヤマケン,トヤマシ,フチュウマチミヤガシマ,富山県富山市婦中町宮ケ島
9392706,富山県,富山市,婦中町速星,トヤマケン,トヤマシ,フチュウマチハヤホシ,富山県富山市婦中町速星
9392707,富山県,富山市,婦中町東本郷,トヤマケン,トヤマシ,フチュウマチヒガシホンゴウ,富山県富山市婦中町東本郷
9392708,富山県,富山市,婦中町島本郷,トヤマケン,トヤマシ,フチュウマチシマホンゴウ,富山県富山市婦中町島本郷
9392709,富山県,富山市,婦中町夢ケ丘,トヤマケン,トヤマシ,フチュウマチユメガオカ,富山県富山市婦中町夢ケ丘
9392711,富山県,富山市,婦中町鵜坂,トヤマケン,トヤマシ,フチュウマチウサカ,富山県富山市婦中町鵜坂
9392712,富山県,富山市,婦中町塚原,トヤマケン,トヤマシ,フチュウマチツカハラ,富山県富山市婦中町塚原
9392713,富山県,富山市,婦中町上轡田,トヤマケン,トヤマシ,フチュウマチカミクツワダ,富山県富山市婦中町上轡田
9392714,富山県,富山市,婦中町増田,トヤマケン,トヤマシ,フチュウマチマスダ,富山県富山市婦中町増田
9392715,富山県,富山市,婦中町下坂倉,トヤマケン,トヤマシ,フチュウマチシモサカクラ,富山県富山市婦中町下坂倉
9392716,富山県,富山市,婦中町下轡田,トヤマケン,トヤマシ,フチュウマチシモクツワダ,富山県富山市婦中町下轡田
9392717,富山県,富山市,婦中町上田島,トヤマケン,トヤマシ,フチュウマチカミタジマ,富山県富山市婦中町上田島
9392718,富山県,富山市,婦中町分田,トヤマケン,トヤマシ,フチュウマチブンデン,富山県富山市婦中町分田
9392719,富山県,富山市,婦中町西ヶ丘,トヤマケン,トヤマシ,フチュウマチニシガオカ,富山県富山市婦中町西ヶ丘
9392721,富山県,富山市,婦中町板倉,トヤマケン,トヤマシ,フチュウマチイタクラ,富山県富山市婦中町板倉
9392721,富山県,富山市,婦中町板倉新,トヤマケン,トヤマシ,フチュウマチイタクラシン,富山県富山市婦中町板倉新
9392722,富山県,富山市,婦中町添島,トヤマケン,トヤマシ,フチュウマチソエジマ,富山県富山市婦中町添島
9392723,富山県,富山市,婦中町萩島,トヤマケン,トヤマシ,フチュウマチハギノシマ,富山県富山市婦中町萩島
9392724,富山県,富山市,婦中町ねむの木,トヤマケン,トヤマシ,フチュウマチネムノキ,富山県富山市婦中町ねむの木
9392725,富山県,富山市,婦中町持田,トヤマケン,トヤマシ,フチュウマチモチデン,富山県富山市婦中町持田
9392726,富山県,富山市,婦中町蔵島,トヤマケン,トヤマシ,フチュウマチゾウジマ,富山県富山市婦中町蔵島
9392727,富山県,富山市,婦中町砂子田,トヤマケン,トヤマシ,フチュウマチスナゴダ,富山県富山市婦中町砂子田
9392728,富山県,富山市,婦中町蛍川,トヤマケン,トヤマシ,フチュウマチホタルガワ,富山県富山市婦中町蛍川
9392729,富山県,富山市,婦中町響の杜,トヤマケン,トヤマシ,フチュウマチヒビキノモリ,富山県富山市婦中町響の杜
9392731,富山県,富山市,婦中町青島,トヤマケン,トヤマシ,フチュウマチアオジマ,富山県富山市婦中町青島
9392732,富山県,富山市,婦中町横野,トヤマケン,トヤマシ,フチュウマチヨコノ,富山県富山市婦中町横野
9392733,富山県,富山市,婦中町成子,トヤマケン,トヤマシ,フチュウマチナルコ,富山県富山市婦中町成子
9392734,富山県,富山市,婦中町新屋,トヤマケン,トヤマシ,フチュウマチアラヤ,富山県富山市婦中町新屋
9392735,富山県,富山市,婦中町為成新,トヤマケン,トヤマシ,フチュウマチタメナリシン,富山県富山市婦中町為成新
9392736,富山県,富山市,婦中町上新屋,トヤマケン,トヤマシ,フチュウマチカミアラヤ,富山県富山市婦中町上新屋
9392737,富山県,富山市,婦中町十五丁,トヤマケン,トヤマシ,フチュウマチジュウゴチョウ,富山県富山市婦中町十五丁
9392738,富山県,富山市,婦中町道喜島,トヤマケン,トヤマシ,フチュウマチドウキジマ,富山県富山市婦中町道喜島
9392741,富山県,富山市,婦中町中名,トヤマケン,トヤマシ,フチュウマチナカノミョウ,富山県富山市婦中町中名
9392742,富山県,富山市,婦中町堀,トヤマケン,トヤマシ,フチュウマチホリ,富山県富山市婦中町堀
9392743,富山県,富山市,婦中町清水島,トヤマケン,トヤマシ,フチュウマチシミズシマ,富山県富山市婦中町清水島
9392744,富山県,富山市,婦中町地角,トヤマケン,トヤマシ,フチュウマチジカク,富山県富山市婦中町地角
9392745,富山県,富山市,婦中町広田,トヤマケン,トヤマシ,フチュウマチヒロタ,富山県富山市婦中町広田
9392746,富山県,富山市,婦中町浜子,トヤマケン,トヤマシ,フチュウマチハマノコ,富山県富山市婦中町浜子
9392747,富山県,富山市,婦中町中島,トヤマケン,トヤマシ,フチュウマチナカジマ,富山県富山市婦中町中島
9392748,富山県,富山市,婦中町田屋,トヤマケン,トヤマシ,フチュウマチタヤ,富山県富山市婦中町田屋
9392748,富山県,富山市,婦中町田屋新,トヤマケン,トヤマシ,フチュウマチタヤシン,富山県富山市婦中町田屋新
9392749,富山県,富山市,婦中町余川（東余川）,トヤマケン,トヤマシ,フチュウマチヨカワ(ヒガシヨカワ),富山県富山市婦中町余川（東余川）
9392751,富山県,富山市,婦中町安田,トヤマケン,トヤマシ,フチュウマチヤスダ,富山県富山市婦中町安田
9392752,富山県,富山市,婦中町小泉,トヤマケン,トヤマシ,フチュウマチコイズミ,富山県富山市婦中町小泉
9392753,富山県,富山市,婦中町笹倉,トヤマケン,トヤマシ,フチュウマチササクラ,富山県富山市婦中町笹倉
9392754,富山県,富山市,婦中町麦島,トヤマケン,トヤマシ,フチュウマチムギジマ,富山県富山市婦中町麦島
9392755,富山県,富山市,婦中町袋,トヤマケン,トヤマシ,フチュウマチフクロ,富山県富山市婦中町袋
9392756,富山県,富山市,婦中町下井沢,トヤマケン,トヤマシ,フチュウマチシモイサワ,富山県富山市婦中町下井沢
9392757,富山県,富山市,婦中町道場,トヤマケン,トヤマシ,フチュウマチドウジョウ,富山県富山市婦中町道場
9392758,富山県,富山市,婦中町下条,トヤマケン,トヤマシ,フチュウマチゲジョウ,富山県富山市婦中町下条
9392759,富山県,富山市,婦中町友坂,トヤマケン,トヤマシ,フチュウマチトモサカ,富山県富山市婦中町友坂
9393501,富山県,富山市,水橋印田町,トヤマケン,トヤマシ,ミズハシインデンマチ,富山県富山市水橋印田町
9393502,富山県,富山市,水橋川原町,トヤマケン,トヤマシ,ミズハシカワラマチ,富山県富山市水橋川原町
9393503,富山県,富山市,水橋立山町,トヤマケン,トヤマシ,ミズハシタテヤマチョウ,富山県富山市水橋立山町
9393504,富山県,富山市,水橋今町,トヤマケン,トヤマシ,ミズハシイママチ,富山県富山市水橋今町
9393505,富山県,富山市,水橋浜町,トヤマケン,トヤマシ,ミズハシハママチ,富山県富山市水橋浜町
9393506,富山県,富山市,水橋山王町,トヤマケン,トヤマシ,ミズハシサンノウマチ,富山県富山市水橋山王町
9393511,富山県,富山市,水橋中町,トヤマケン,トヤマシ,ミズハシナカマチ,富山県富山市水橋中町
9393512,富山県,富山市,水橋大町（西部地区）,トヤマケン,トヤマシ,ミズハシオオマチ(セイブチク),富山県富山市水橋大町（西部地区）
9393512,富山県,富山市,水橋西大町,トヤマケン,トヤマシ,ミズハシニシオオマチ,富山県富山市水橋西大町
9393513,富山県,富山市,水橋大正町,トヤマケン,トヤマシ,ミズハシタイショウマチ,富山県富山市水橋大正町
9393514,富山県,富山市,水橋新堂町,トヤマケン,トヤマシ,ミズハシシンドウマチ,富山県富山市水橋新堂町
9393515,富山県,富山市,水橋辻ケ堂,トヤマケン,トヤマシ,ミズハシツジガドウ,富山県富山市水橋辻ケ堂
9393516,富山県,富山市,水橋荒町,トヤマケン,トヤマシ,ミズハシアラマチ,富山県富山市水橋荒町
9393521,富山県,富山市,水橋畠等,トヤマケン,トヤマシ,ミズハシハタケラ,富山県富山市水橋畠等
9393522,富山県,富山市,水橋花の井町,トヤマケン,トヤマシ,ミズハシハナノイチョウ,富山県富山市水橋花の井町
9393523,富山県,富山市,水橋池田舘,トヤマケン,トヤマシ,ミズハシイケダタチ,富山県富山市水橋池田舘
9393524,富山県,富山市,水橋伊勢屋,トヤマケン,トヤマシ,ミズハシイセヤ,富山県富山市水橋伊勢屋
9393525,富山県,富山市,水橋駅前,トヤマケン,トヤマシ,ミズハシエキマエ,富山県富山市水橋駅前
9393526,富山県,富山市,水橋昭和町,トヤマケン,トヤマシ,ミズハシショウワマチ,富山県富山市水橋昭和町
9393531,富山県,富山市,水橋池田町,トヤマケン,トヤマシ,ミズハシイケダマチ,富山県富山市水橋池田町
9393532,富山県,富山市,水橋二ツ屋,トヤマケン,トヤマシ,ミズハシフタツヤ,富山県富山市水橋二ツ屋
9393533,富山県,富山市,水橋高堂,トヤマケン,トヤマシ,ミズハシタカドウ,富山県富山市水橋高堂
9393534,富山県,富山市,水橋番頭名,トヤマケン,トヤマシ,ミズハシバンドウミョウ,富山県富山市水橋番頭名
9393534,富山県,富山市,水橋金尾,トヤマケン,トヤマシ,ミズハシカナオ,富山県富山市水橋金尾
9393535,富山県,富山市,水橋新堀,トヤマケン,トヤマシ,ミズハシシンボリ,富山県富山市水橋新堀
9393536,富山県,富山市,水橋金尾新,トヤマケン,トヤマシ,ミズハシカナオシン,富山県富山市水橋金尾新
9393541,富山県,富山市,水橋沖,トヤマケン,トヤマシ,ミズハシオキ,富山県富山市水橋沖
9393542,富山県,富山市,水橋開発,トヤマケン,トヤマシ,ミズハシカイホツ,富山県富山市水橋開発
9393543,富山県,富山市,水橋常願寺,トヤマケン,トヤマシ,ミズハシジョウガンジ,富山県富山市水橋常願寺
9393544,富山県,富山市,水橋入江,トヤマケン,トヤマシ,ミズハシイリエ,富山県富山市水橋入江
9393545,富山県,富山市,水橋入部町,トヤマケン,トヤマシ,ミズハシニュウブマチ,富山県富山市水橋入部町
9393546,富山県,富山市,水橋二杉,トヤマケン,トヤマシ,ミズハシフタスギ,富山県富山市水橋二杉
9393547,富山県,富山市,水橋柴草,トヤマケン,トヤマシ,ミズハシシバクサ,富山県富山市水橋柴草
9393548,富山県,富山市,三郷,トヤマケン,トヤマシ,サンゴウ,富山県富山市三郷
9393551,富山県,富山市,水橋中村,トヤマケン,トヤマシ,ミズハシナカムラ,富山県富山市水橋中村
9393552,富山県,富山市,水橋肘崎,トヤマケン,トヤマシ,ミズハシカイナザキ,富山県富山市水橋肘崎
9393553,富山県,富山市,水橋上的場,トヤマケン,トヤマシ,ミズハシカミマトバ,富山県富山市水橋上的場
9393553,富山県,富山市,水橋的場,トヤマケン,トヤマシ,ミズハシマトバ,富山県富山市水橋的場
9393554,富山県,富山市,水橋小路,トヤマケン,トヤマシ,ミズハシショウジ,富山県富山市水橋小路
9393555,富山県,富山市,水橋市田袋,トヤマケン,トヤマシ,ミズハシイチダブクロ,富山県富山市水橋市田袋
9393556,富山県,富山市,水橋中新町,トヤマケン,トヤマシ,ミズハシナカシンマチ,富山県富山市水橋中新町
9393557,富山県,富山市,水橋平榎,トヤマケン,トヤマシ,ミズハシヒラエノキ,富山県富山市水橋平榎
9393557,富山県,富山市,水橋新保,トヤマケン,トヤマシ,ミズハシシンボ,富山県富山市水橋新保
9393557,富山県,富山市,水橋新保新町,トヤマケン,トヤマシ,ミズハシシンボシンマチ,富山県富山市水橋新保新町
9393557,富山県,富山市,水橋町袋,トヤマケン,トヤマシ,ミズハシマチブクロ,富山県富山市水橋町袋
9398001,富山県,富山市,大泉東部,トヤマケン,トヤマシ,オオイズミトウブ,富山県富山市大泉東部
9398002,富山県,富山市,公文名,トヤマケン,トヤマシ,クモンミョウ,富山県富山市公文名
9398003,富山県,富山市,西公文名町,トヤマケン,トヤマシ,ニシクモンミョウマチ,富山県富山市西公文名町
9398004,富山県,富山市,西公文名,トヤマケン,トヤマシ,ニシクモンミョウ,富山県富山市西公文名
9398005,富山県,富山市,中市,トヤマケン,トヤマシ,ナカイチ,富山県富山市中市
9398006,富山県,富山市,山室,トヤマケン,トヤマシ,ヤマムロ,富山県富山市山室
9398007,富山県,富山市,山室向陽台,トヤマケン,トヤマシ,ヤマムロコウヨウダイ,富山県富山市山室向陽台
9398008,富山県,富山市,山室新町,トヤマケン,トヤマシ,ヤマムロシンマチ,富山県富山市山室新町
9398011,富山県,富山市,不二栄町,トヤマケン,トヤマシ,フジサカエマチ,富山県富山市不二栄町
9398012,富山県,富山市,高原本町,トヤマケン,トヤマシ,タカハラホンマチ,富山県富山市高原本町
9398013,富山県,富山市,高原町,トヤマケン,トヤマシ,タカハラマチ,富山県富山市高原町
9398014,富山県,富山市,中川原新町,トヤマケン,トヤマシ,ナカガワラシンマチ,富山県富山市中川原新町
9398015,富山県,富山市,中川原,トヤマケン,トヤマシ,ナカガワラ,富山県富山市中川原
9398016,富山県,富山市,中川原台,トヤマケン,トヤマシ,ナカガワラダイ,富山県富山市中川原台
9398017,富山県,富山市,松ケ丘,トヤマケン,トヤマシ,マツガオカ,富山県富山市松ケ丘
9398021,富山県,富山市,若葉台,トヤマケン,トヤマシ,ワカバダイ,富山県富山市若葉台
9398022,富山県,富山市,山室荒屋,トヤマケン,トヤマシ,ヤマムロアラヤ,富山県富山市山室荒屋
9398023,富山県,富山市,古寺,トヤマケン,トヤマシ,フルデラ,富山県富山市古寺
9398024,富山県,富山市,古寺新町,トヤマケン,トヤマシ,フルデラシンマチ,富山県富山市古寺新町
9398025,富山県,富山市,大島,トヤマケン,トヤマシ,オオシマ,富山県富山市大島
9398026,富山県,富山市,山室荒屋新町,トヤマケン,トヤマシ,ヤマムロアラヤシンマチ,富山県富山市山室荒屋新町
9398031,富山県,富山市,東流杉,トヤマケン,トヤマシ,ヒガシナガレスギ,富山県富山市東流杉
9398032,富山県,富山市,流杉,トヤマケン,トヤマシ,ナガレスギ,富山県富山市流杉
9398033,富山県,富山市,横内,トヤマケン,トヤマシ,ヨコウチ,富山県富山市横内
9398034,富山県,富山市,新横内町,トヤマケン,トヤマシ,シンヨコウチマチ,富山県富山市新横内町
9398035,富山県,富山市,大宮町,トヤマケン,トヤマシ,オオミヤチョウ,富山県富山市大宮町
9398036,富山県,富山市,高屋敷,トヤマケン,トヤマシ,タカヤシキ,富山県富山市高屋敷
9398041,富山県,富山市,太田中区,トヤマケン,トヤマシ,オオタナカク,富山県富山市太田中区
9398042,富山県,富山市,太田北区,トヤマケン,トヤマシ,オオタキタク,富山県富山市太田北区
9398043,富山県,富山市,太田向陽台,トヤマケン,トヤマシ,オオタコウヨウダイ,富山県富山市太田向陽台
9398044,富山県,富山市,太田南町,トヤマケン,トヤマシ,オオタミナミチョウ,富山県富山市太田南町
9398045,富山県,富山市,本郷町,トヤマケン,トヤマシ,ホンゴウマチ,富山県富山市本郷町
9398046,富山県,富山市,本郷新,トヤマケン,トヤマシ,ホンゴウシン,富山県富山市本郷新
9398047,富山県,富山市,清住町,トヤマケン,トヤマシ,キヨズミチョウ,富山県富山市清住町
9398048,富山県,富山市,太田,トヤマケン,トヤマシ,オオタ,富山県富山市太田
9398049,富山県,富山市,堀川本郷,トヤマケン,トヤマシ,ホリカワホンゴウ,富山県富山市堀川本郷
9398051,富山県,富山市,大泉中部,トヤマケン,トヤマシ,オオイズミチュウブ,富山県富山市大泉中部
9398052,富山県,富山市,大泉１区南部,トヤマケン,トヤマシ,オオイズミ1クナンブ,富山県富山市大泉1区南部
9398053,富山県,富山市,堀川天山町,トヤマケン,トヤマシ,ホリカワテンザンマチ,富山県富山市堀川天山町
9398054,富山県,富山市,新堀町,トヤマケン,トヤマシ,シンボリチョウ,富山県富山市新堀町
9398055,富山県,富山市,下堀,トヤマケン,トヤマシ,シモホリ,富山県富山市下堀
9398056,富山県,富山市,上堀町,トヤマケン,トヤマシ,カミホリマチ,富山県富山市上堀町
9398057,富山県,富山市,堀,トヤマケン,トヤマシ,ホリ,富山県富山市堀
9398058,富山県,富山市,大泉,トヤマケン,トヤマシ,オオイズミ,富山県富山市大泉
9398061,富山県,富山市,上新保,トヤマケン,トヤマシ,カミシンボ,富山県富山市上新保
9398062,富山県,富山市,上堀南町,トヤマケン,トヤマシ,カミホリミナミチョウ,富山県富山市上堀南町
9398063,富山県,富山市,小杉,トヤマケン,トヤマシ,コスギ,富山県富山市小杉
9398064,富山県,富山市,赤田,トヤマケン,トヤマシ,アカダ,富山県富山市赤田
9398065,富山県,富山市,赤田新町,トヤマケン,トヤマシ,アカダシンマチ,富山県富山市赤田新町
9398066,富山県,富山市,朝菜町,トヤマケン,トヤマシ,アサナチョウ,富山県富山市朝菜町
9398071,富山県,富山市,上袋,トヤマケン,トヤマシ,カミフクロ,富山県富山市上袋
9398072,富山県,富山市,堀川町,トヤマケン,トヤマシ,ホリカワマチ,富山県富山市堀川町
9398073,富山県,富山市,大町,トヤマケン,トヤマシ,オオマチ,富山県富山市大町
9398074,富山県,富山市,大町南台,トヤマケン,トヤマシ,オオマチミナミダイ,富山県富山市大町南台
9398075,富山県,富山市,今泉,トヤマケン,トヤマシ,イマイズミ,富山県富山市今泉
9398076,富山県,富山市,太郎丸,トヤマケン,トヤマシ,タロウマル,富山県富山市太郎丸
9398077,富山県,富山市,春日町,トヤマケン,トヤマシ,カスガチョウ,富山県富山市春日町
9398081,富山県,富山市,堀川小泉町,トヤマケン,トヤマシ,ホリカワコイズミチョウ,富山県富山市堀川小泉町
9398082,富山県,富山市,小泉町,トヤマケン,トヤマシ,コイズミチョウ,富山県富山市小泉町
9398083,富山県,富山市,西中野本町,トヤマケン,トヤマシ,ニシナカノホンマチ,富山県富山市西中野本町
9398084,富山県,富山市,西中野町,トヤマケン,トヤマシ,ニシナカノマチ,富山県富山市西中野町
9398085,富山県,富山市,中野新町,トヤマケン,トヤマシ,ナカノシンマチ,富山県富山市中野新町
9398086,富山県,富山市,東中野町,トヤマケン,トヤマシ,ヒガシナカノマチ,富山県富山市東中野町
9398087,富山県,富山市,大泉町,トヤマケン,トヤマシ,オオイズミマチ,富山県富山市大泉町
9398091,富山県,富山市,旭町,トヤマケン,トヤマシ,アサヒマチ,富山県富山市旭町
9398092,富山県,富山市,雄山町,トヤマケン,トヤマシ,オヤマチョウ,富山県富山市雄山町
9398093,富山県,富山市,大泉東町,トヤマケン,トヤマシ,オオイズミヒガシマチ,富山県富山市大泉東町
9398094,富山県,富山市,大泉本町,トヤマケン,トヤマシ,オオイズミホンマチ,富山県富山市大泉本町
9398095,富山県,富山市,大泉中町,トヤマケン,トヤマシ,オオイズミナカマチ,富山県富山市大泉中町
9398096,富山県,富山市,西大泉,トヤマケン,トヤマシ,ニシオオイズミ,富山県富山市西大泉
9398097,富山県,富山市,大泉北町,トヤマケン,トヤマシ,オオイズミキタマチ,富山県富山市大泉北町
9398101,富山県,富山市,西野新,トヤマケン,トヤマシ,ニシノシン,富山県富山市西野新
9398102,富山県,富山市,昭和新町,トヤマケン,トヤマシ,ショウワシンマチ,富山県富山市昭和新町
9398103,富山県,富山市,大場,トヤマケン,トヤマシ,オオバ,富山県富山市大場
9398104,富山県,富山市,西番,トヤマケン,トヤマシ,ニシノバン,富山県富山市西番
9398111,富山県,富山市,城新町,トヤマケン,トヤマシ,ジョウシンマチ,富山県富山市城新町
9398112,富山県,富山市,城ケ丘,トヤマケン,トヤマシ,ジョウガオカ,富山県富山市城ケ丘
9398113,富山県,富山市,城若町,トヤマケン,トヤマシ,ジョウワカマチ,富山県富山市城若町
9398114,富山県,富山市,城村,トヤマケン,トヤマシ,ジョウムラ,富山県富山市城村
9398115,富山県,富山市,城村新町,トヤマケン,トヤマシ,ジョウムラシンマチ,富山県富山市城村新町
9398121,富山県,富山市,石屋,トヤマケン,トヤマシ,イシヤ,富山県富山市石屋
9398122,富山県,富山市,新名,トヤマケン,トヤマシ,シンミョウ,富山県富山市新名
9398123,富山県,富山市,関,トヤマケン,トヤマシ,セキ,富山県富山市関
9398124,富山県,富山市,八川,トヤマケン,トヤマシ,ハチカワ,富山県富山市八川
9398131,富山県,富山市,中屋,トヤマケン,トヤマシ,ナカヤ,富山県富山市中屋
9398132,富山県,富山市,月岡町,トヤマケン,トヤマシ,ツキオカマチ,富山県富山市月岡町
9398133,富山県,富山市,月見が丘,トヤマケン,トヤマシ,ツキミガオカ,富山県富山市月見が丘
9398134,富山県,富山市,上千俵町,トヤマケン,トヤマシ,カミセンビョウマチ,富山県富山市上千俵町
9398135,富山県,富山市,千俵町,トヤマケン,トヤマシ,センビョウマチ,富山県富山市千俵町
9398136,富山県,富山市,月見町,トヤマケン,トヤマシ,ツキミチョウ,富山県富山市月見町
9398137,富山県,富山市,開発,トヤマケン,トヤマシ,カイホツ,富山県富山市開発
9398138,富山県,富山市,上千俵,トヤマケン,トヤマシ,カミセンビョウ,富山県富山市上千俵
9398139,富山県,富山市,月岡新,トヤマケン,トヤマシ,ツキオカシン,富山県富山市月岡新
9398141,富山県,富山市,月岡東緑町,トヤマケン,トヤマシ,ツキオカヒガシミドリチョウ,富山県富山市月岡東緑町
9398142,富山県,富山市,月岡西緑町,トヤマケン,トヤマシ,ツキオカニシミドリチョウ,富山県富山市月岡西緑町
9398143,富山県,富山市,上布目,トヤマケン,トヤマシ,カミヌノメ,富山県富山市上布目
9398144,富山県,富山市,上今町,トヤマケン,トヤマシ,カミイママチ,富山県富山市上今町
9398145,富山県,富山市,大井,トヤマケン,トヤマシ,オオイ,富山県富山市大井
9398146,富山県,富山市,中布目,トヤマケン,トヤマシ,ナカヌノメ,富山県富山市中布目
9398151,富山県,富山市,上栄,トヤマケン,トヤマシ,カミサカエ,富山県富山市上栄
9398152,富山県,富山市,経力,トヤマケン,トヤマシ,キョウリキ,富山県富山市経力
9398153,富山県,富山市,吉岡,トヤマケン,トヤマシ,ヨシオカ,富山県富山市吉岡
9398154,富山県,富山市,森田,トヤマケン,トヤマシ,モリタ,富山県富山市森田
9398155,富山県,富山市,江本,トヤマケン,トヤマシ,エノモト,富山県富山市江本
9398156,富山県,富山市,珠泉東町,トヤマケン,トヤマシ,タマイズミヒガシマチ,富山県富山市珠泉東町
9398157,富山県,富山市,珠泉西町,トヤマケン,トヤマシ,タマイズミニシマチ,富山県富山市珠泉西町
9398161,富山県,富山市,牧田,トヤマケン,トヤマシ,マキダ,富山県富山市牧田
9398162,富山県,富山市,青柳,トヤマケン,トヤマシ,アオヤナギ,富山県富山市青柳
9398163,富山県,富山市,青柳新,トヤマケン,トヤマシ,アオヤナギシン,富山県富山市青柳新
9398164,富山県,富山市,林崎,トヤマケン,トヤマシ,ハヤシザキ,富山県富山市林崎
9398165,富山県,富山市,杉瀬,トヤマケン,トヤマシ,スギセ,富山県富山市杉瀬
9398166,富山県,富山市,上熊野,トヤマケン,トヤマシ,カミクマノ,富山県富山市上熊野
9398171,富山県,富山市,宮保,トヤマケン,トヤマシ,ミヤノホ,富山県富山市宮保
9398172,富山県,富山市,辰尾,トヤマケン,トヤマシ,タツオ,富山県富山市辰尾
9398173,富山県,富山市,辰尾新町,トヤマケン,トヤマシ,タツオシンマチ,富山県富山市辰尾新町
9398174,富山県,富山市,下栗山,トヤマケン,トヤマシ,シモクリヤマ,富山県富山市下栗山
9398175,富山県,富山市,上栗山,トヤマケン,トヤマシ,カミクリヤマ,富山県富山市上栗山
9398176,富山県,富山市,南栗山,トヤマケン,トヤマシ,ミナミクリヤマ,富山県富山市南栗山
9398177,富山県,富山市,安養寺,トヤマケン,トヤマシ,アンヨウジ,富山県富山市安養寺
9398178,富山県,富山市,栗山,トヤマケン,トヤマシ,クリヤマ,富山県富山市栗山
9398181,富山県,富山市,若竹町,トヤマケン,トヤマシ,ワカタケチョウ,富山県富山市若竹町
9398182,富山県,富山市,悪王寺,トヤマケン,トヤマシ,アクオウジ,富山県富山市悪王寺
9398183,富山県,富山市,小中,トヤマケン,トヤマシ,コナカ,富山県富山市小中
9398184,富山県,富山市,二俣新町,トヤマケン,トヤマシ,フタマタシンマチ,富山県富山市二俣新町
9398185,富山県,富山市,二俣,トヤマケン,トヤマシ,フタマタ,富山県富山市二俣
9398191,富山県,富山市,布市,トヤマケン,トヤマシ,ヌノイチ,富山県富山市布市
9398192,富山県,富山市,布市新町,トヤマケン,トヤマシ,ヌノイチシンマチ,富山県富山市布市新町
9398193,富山県,富山市,石田,トヤマケン,トヤマシ,イシダ,富山県富山市石田
9398194,富山県,富山市,南金屋,トヤマケン,トヤマシ,ミナミカナヤ,富山県富山市南金屋
9398195,富山県,富山市,上野,トヤマケン,トヤマシ,ウワノ,富山県富山市上野
9398196,富山県,富山市,上野南町,トヤマケン,トヤマシ,ウワノミナミマチ,富山県富山市上野南町
9398197,富山県,富山市,上野寿町,トヤマケン,トヤマシ,ウワノコトブキチョウ,富山県富山市上野寿町
9398201,富山県,富山市,花園町,トヤマケン,トヤマシ,ハナゾノチョウ,富山県富山市花園町
9398202,富山県,富山市,西田地方町,トヤマケン,トヤマシ,ニシデンジガタマチ,富山県富山市西田地方町
9398203,富山県,富山市,西田地方,トヤマケン,トヤマシ,ニシデンジガタ,富山県富山市西田地方
9398204,富山県,富山市,根塚町,トヤマケン,トヤマシ,ネヅカマチ,富山県富山市根塚町
9398205,富山県,富山市,新根塚町,トヤマケン,トヤマシ,シンネヅカマチ,富山県富山市新根塚町
9398206,富山県,富山市,布瀬町,トヤマケン,トヤマシ,ヌノセマチ,富山県富山市布瀬町
9398207,富山県,富山市,布瀬本町,トヤマケン,トヤマシ,ヌノセホンマチ,富山県富山市布瀬本町
9398208,富山県,富山市,布瀬町南,トヤマケン,トヤマシ,ヌノセマチミナミ,富山県富山市布瀬町南
9398211,富山県,富山市,二口町,トヤマケン,トヤマシ,フタクチマチ,富山県富山市二口町
9398212,富山県,富山市,掛尾町,トヤマケン,トヤマシ,カケオマチ,富山県富山市掛尾町
9398213,富山県,富山市,黒瀬,トヤマケン,トヤマシ,クロセ,富山県富山市黒瀬
9398214,富山県,富山市,黒崎,トヤマケン,トヤマシ,クロサキ,富山県富山市黒崎
9398215,富山県,富山市,掛尾栄町,トヤマケン,トヤマシ,カケオサカエマチ,富山県富山市掛尾栄町
9398216,富山県,富山市,黒瀬北町,トヤマケン,トヤマシ,クロセキタマチ,富山県富山市黒瀬北町
9398221,富山県,富山市,八日町,トヤマケン,トヤマシ,ヨウカマチ,富山県富山市八日町
9398222,富山県,富山市,蜷川,トヤマケン,トヤマシ,ニナガワ,富山県富山市蜷川
9398223,富山県,富山市,島田,トヤマケン,トヤマシ,シマダ,富山県富山市島田
9398224,富山県,富山市,友杉,トヤマケン,トヤマシ,トモスギ,富山県富山市友杉
9398225,富山県,富山市,上八日町,トヤマケン,トヤマシ,カミヨウカマチ,富山県富山市上八日町
9398231,富山県,富山市,下熊野,トヤマケン,トヤマシ,シモクマノ,富山県富山市下熊野
9398232,富山県,富山市,南央町,トヤマケン,トヤマシ,ナンオウチョウ,富山県富山市南央町
9398233,富山県,富山市,任海,トヤマケン,トヤマシ,トウミ,富山県富山市任海
9398234,富山県,富山市,南中田,トヤマケン,トヤマシ,ミナミナカダ,富山県富山市南中田
9398241,富山県,富山市,惣在寺,トヤマケン,トヤマシ,ソウザイジ,富山県富山市惣在寺
9398242,富山県,富山市,福居,トヤマケン,トヤマシ,フクイ,富山県富山市福居
9398243,富山県,富山市,押上,トヤマケン,トヤマシ,オシアゲ,富山県富山市押上
9398244,富山県,富山市,吉倉,トヤマケン,トヤマシ,ヨシクラ,富山県富山市吉倉
9398251,富山県,富山市,西荒屋,トヤマケン,トヤマシ,ニシアラヤ,富山県富山市西荒屋
9398252,富山県,富山市,秋ケ島,トヤマケン,トヤマシ,アキガシマ,富山県富山市秋ケ島
9398253,富山県,富山市,新保,トヤマケン,トヤマシ,シンボ,富山県富山市新保
9398254,富山県,富山市,別名,トヤマケン,トヤマシ,ベツミョウ,富山県富山市別名
9398261,富山県,富山市,萩原,トヤマケン,トヤマシ,ハギハラ,富山県富山市萩原
9398262,富山県,富山市,塚原,トヤマケン,トヤマシ,ツカハラ,富山県富山市塚原
9398263,富山県,富山市,才覚寺,トヤマケン,トヤマシ,サイカクジ,富山県富山市才覚寺
9398264,富山県,富山市,経田,トヤマケン,トヤマシ,キョウデン,富山県富山市経田
9398271,富山県,富山市,太郎丸西町,トヤマケン,トヤマシ,タロウマルニシマチ,富山県富山市太郎丸西町
9398272,富山県,富山市,太郎丸本町,トヤマケン,トヤマシ,タロウマルホンマチ,富山県富山市太郎丸本町
9398281,富山県,富山市,今泉西部町,トヤマケン,トヤマシ,イマイズミセイブマチ,富山県富山市今泉西部町
9398282,富山県,富山市,今泉北部町,トヤマケン,トヤマシ,イマイズミホクブマチ,富山県富山市今泉北部町
