zipcode,prefecture_name,city,town,prefecture_kana,city_kana,town_kana,normalized_address
9200000,石川県,金沢市,,イシカワケン,カナザワシ,,石川県金沢市
9200001,石川県,金沢市,千木町,イシカワケン,カナザワシ,セギマチ,石川県金沢市千木町
9200002,石川県,金沢市,千木,イシカワケン,カナザワシ,セギ,石川県金沢市千木
9200003,石川県,金沢市,疋田,イシカワケン,カナザワシ,ヒキダ,石川県金沢市疋田
9200004,石川県,金沢市,疋田町,イシカワケン,カナザワシ,ヒキダマチ,石川県金沢市疋田町
9200005,石川県,金沢市,高柳町,イシカワケン,カナザワシ,タカヤナギマチ,石川県金沢市高柳町
9200006,石川県,金沢市,宮保町,イシカワケン,カナザワシ,ミヤボマチ,石川県金沢市宮保町
9200007,石川県,金沢市,田中町,イシカワケン,カナザワシ,タナカマチ,石川県金沢市田中町
9200008,石川県,金沢市,今昭町,イシカワケン,カナザワシ,イマショウマチ,石川県金沢市今昭町
9200011,石川県,金沢市,松寺町,イシカワケン,カナザワシ,マツデラマチ,石川県金沢市松寺町
9200012,石川県,金沢市,磯部町,イシカワケン,カナザワシ,イソベマチ,石川県金沢市磯部町
9200013,石川県,金沢市,沖町,イシカワケン,カナザワシ,オキマチ,石川県金沢市沖町
9200014,石川県,金沢市,諸江町,イシカワケン,カナザワシ,モロエマチ,石川県金沢市諸江町
9200015,石川県,金沢市,諸江町（上丁）,イシカワケン,カナザワシ,モロエマチ(カミチョウ),石川県金沢市諸江町（上丁）
9200016,石川県,金沢市,諸江町（中丁）,イシカワケン,カナザワシ,モロエマチ(ナカチョウ),石川県金沢市諸江町（中丁）
9200017,石川県,金沢市,諸江町（下丁）,イシカワケン,カナザワシ,モロエマチ(シモチョウ),石川県金沢市諸江町（下丁）
9200018,石川県,金沢市,三口町,イシカワケン,カナザワシ,ミツクチマチ,石川県金沢市三口町
9200021,石川県,金沢市,七ツ屋町,イシカワケン,カナザワシ,ナナツヤマチ,石川県金沢市七ツ屋町
9200022,石川県,金沢市,北安江,イシカワケン,カナザワシ,キタヤスエ,石川県金沢市北安江
9200023,石川県,金沢市,北安江町,イシカワケン,カナザワシ,キタヤスエチョウ,石川県金沢市北安江町
9200024,石川県,金沢市,西念,イシカワケン,カナザワシ,サイネン,石川県金沢市西念
9200025,石川県,金沢市,駅西本町,イシカワケン,カナザワシ,エキニシホンマチ,石川県金沢市駅西本町
9200026,石川県,金沢市,西念町,イシカワケン,カナザワシ,サイネンマチ,石川県金沢市西念町
9200027,石川県,金沢市,駅西新町,イシカワケン,カナザワシ,エキニシシンマチ,石川県金沢市駅西新町
9200031,石川県,金沢市,広岡,イシカワケン,カナザワシ,ヒロオカ,石川県金沢市広岡
9200032,石川県,金沢市,広岡町,イシカワケン,カナザワシ,ヒロオカマチ,石川県金沢市広岡町
9200033,石川県,金沢市,日吉町,イシカワケン,カナザワシ,ヒヨシマチ,石川県金沢市日吉町
9200034,石川県,金沢市,醒ケ井町,イシカワケン,カナザワシ,サメガイチョウ,石川県金沢市醒ケ井町
9200035,石川県,金沢市,中橋町,イシカワケン,カナザワシ,ナカバシマチ,石川県金沢市中橋町
9200036,石川県,金沢市,元菊町,イシカワケン,カナザワシ,モトギクチョウ,石川県金沢市元菊町
9200041,石川県,金沢市,長田本町,イシカワケン,カナザワシ,ナガタホンマチ,石川県金沢市長田本町
9200042,石川県,金沢市,長田町,イシカワケン,カナザワシ,ナガタマチ,石川県金沢市長田町
9200043,石川県,金沢市,長田,イシカワケン,カナザワシ,ナガタ,石川県金沢市長田
9200044,石川県,金沢市,南広岡町,イシカワケン,カナザワシ,ミナミヒロオカマチ,石川県金沢市南広岡町
9200045,石川県,金沢市,向中町,イシカワケン,カナザワシ,ムコウナカマチ,石川県金沢市向中町
9200046,石川県,金沢市,大和町,イシカワケン,カナザワシ,ダイワマチ,石川県金沢市大和町
9200047,石川県,金沢市,大豆田本町（その他）,イシカワケン,カナザワシ,マメダホンマチ(ソノタ),石川県金沢市大豆田本町（その他）
9200051,石川県,金沢市,二口町,イシカワケン,カナザワシ,フタクチマチ,石川県金沢市二口町
9200052,石川県,金沢市,薬師堂町,イシカワケン,カナザワシ,ヤクシドウマチ,石川県金沢市薬師堂町
9200053,石川県,金沢市,若宮町,イシカワケン,カナザワシ,ワカミヤマチ,石川県金沢市若宮町
9200054,石川県,金沢市,若宮,イシカワケン,カナザワシ,ワカミヤ,石川県金沢市若宮
9200055,石川県,金沢市,北町,イシカワケン,カナザワシ,キタマチ,石川県金沢市北町
9200056,石川県,金沢市,出雲町,イシカワケン,カナザワシ,イズモマチ,石川県金沢市出雲町
9200057,石川県,金沢市,桜田町,イシカワケン,カナザワシ,サクラダマチ,石川県金沢市桜田町
9200058,石川県,金沢市,示野中町,イシカワケン,カナザワシ,シメノナカマチ,石川県金沢市示野中町
9200059,石川県,金沢市,示野町,イシカワケン,カナザワシ,シメノマチ,石川県金沢市示野町
9200061,石川県,金沢市,問屋町,イシカワケン,カナザワシ,トイヤマチ,石川県金沢市問屋町
9200062,石川県,金沢市,割出町,イシカワケン,カナザワシ,ワリダシマチ,石川県金沢市割出町
9200063,石川県,金沢市,三浦町,イシカワケン,カナザワシ,ミウラマチ,石川県金沢市三浦町
9200064,石川県,金沢市,南新保町,イシカワケン,カナザワシ,ミナミシンボマチ,石川県金沢市南新保町
9200065,石川県,金沢市,二ツ屋町,イシカワケン,カナザワシ,フタツヤマチ,石川県金沢市二ツ屋町
9200067,石川県,金沢市,二宮町,イシカワケン,カナザワシ,ニノミヤマチ,石川県金沢市二宮町
9200068,石川県,金沢市,戸板,イシカワケン,カナザワシ,トイタ,石川県金沢市戸板
9200069,石川県,金沢市,戸板西,イシカワケン,カナザワシ,トイタニシ,石川県金沢市戸板西
9200101,石川県,金沢市,利屋町,イシカワケン,カナザワシ,トギヤマチ,石川県金沢市利屋町
9200102,石川県,金沢市,岸川町,イシカワケン,カナザワシ,キシガワマチ,石川県金沢市岸川町
9200103,石川県,金沢市,花園八幡町,イシカワケン,カナザワシ,ハナゾノヤワタマチ,石川県金沢市花園八幡町
9200104,石川県,金沢市,四坊町,イシカワケン,カナザワシ,シボウマチ,石川県金沢市四坊町
9200104,石川県,金沢市,四坊高坂町,イシカワケン,カナザワシ,シボウタカサカマチ,石川県金沢市四坊高坂町
9200105,石川県,金沢市,月影町,イシカワケン,カナザワシ,ツキカゲマチ,石川県金沢市月影町
9200106,石川県,金沢市,今町,イシカワケン,カナザワシ,イママチ,石川県金沢市今町
9200107,石川県,金沢市,二日市町,イシカワケン,カナザワシ,フツカイチマチ,石川県金沢市二日市町
9200111,石川県,金沢市,浅丘町,イシカワケン,カナザワシ,アサオカマチ,石川県金沢市浅丘町
9200112,石川県,金沢市,榎尾町,イシカワケン,カナザワシ,エノキオマチ,石川県金沢市榎尾町
9200113,石川県,金沢市,俵原町,イシカワケン,カナザワシ,タラワラマチ,石川県金沢市俵原町
9200114,石川県,金沢市,加賀朝日町,イシカワケン,カナザワシ,カガアサヒマチ,石川県金沢市加賀朝日町
9200115,石川県,金沢市,千杉町,イシカワケン,カナザワシ,センノスギマチ,石川県金沢市千杉町
9200116,石川県,金沢市,地代町,イシカワケン,カナザワシ,ジダイマチ,石川県金沢市地代町
9200121,石川県,金沢市,琴町,イシカワケン,カナザワシ,コトマチ,石川県金沢市琴町
9200122,石川県,金沢市,上平町,イシカワケン,カナザワシ,ウワダイラマチ,石川県金沢市上平町
9200123,石川県,金沢市,滝下町,イシカワケン,カナザワシ,タキシタマチ,石川県金沢市滝下町
9200124,石川県,金沢市,中尾町,イシカワケン,カナザワシ,ナカオマチ,石川県金沢市中尾町
9200125,石川県,金沢市,今泉町,イシカワケン,カナザワシ,イマイズミマチ,石川県金沢市今泉町
9200126,石川県,金沢市,朝日牧町,イシカワケン,カナザワシ,アサヒマキマチ,石川県金沢市朝日牧町
9200127,石川県,金沢市,南千谷町,イシカワケン,カナザワシ,ミナミセンゴクマチ,石川県金沢市南千谷町
9200128,石川県,金沢市,北千石町,イシカワケン,カナザワシ,キタセンゴクマチ,石川県金沢市北千石町
9200129,石川県,金沢市,琴坂町,イシカワケン,カナザワシ,コトサカマチ,石川県金沢市琴坂町
9200131,石川県,金沢市,東原町,イシカワケン,カナザワシ,ヒガシハラマチ,石川県金沢市東原町
9200132,石川県,金沢市,清水谷町,イシカワケン,カナザワシ,シミズダニマチ,石川県金沢市清水谷町
9200133,石川県,金沢市,堀切町,イシカワケン,カナザワシ,ホリキリマチ,石川県金沢市堀切町
9200134,石川県,金沢市,曲子原町,イシカワケン,カナザワシ,マゲシハラマチ,石川県金沢市曲子原町
9200135,石川県,金沢市,土子原町,イシカワケン,カナザワシ,ツチコハラマチ,石川県金沢市土子原町
9200136,石川県,金沢市,松根町,イシカワケン,カナザワシ,マツネマチ,石川県金沢市松根町
9200137,石川県,金沢市,竹又町,イシカワケン,カナザワシ,タケマタマチ,石川県金沢市竹又町
9200141,石川県,金沢市,直江野町,イシカワケン,カナザワシ,ナオエノマチ,石川県金沢市直江野町
9200142,石川県,金沢市,納年町,イシカワケン,カナザワシ,ノウネンマチ,石川県金沢市納年町
9200143,石川県,金沢市,北方町,イシカワケン,カナザワシ,キタガタマチ,石川県金沢市北方町
9200144,石川県,金沢市,小嶺町,イシカワケン,カナザワシ,コミネマチ,石川県金沢市小嶺町
9200145,石川県,金沢市,市瀬町,イシカワケン,カナザワシ,イチノセマチ,石川県金沢市市瀬町
9200146,石川県,金沢市,柚木町,イシカワケン,カナザワシ,ユノキマチ,石川県金沢市柚木町
9200147,石川県,金沢市,不室町,イシカワケン,カナザワシ,フムロマチ,石川県金沢市不室町
9200148,石川県,金沢市,牧山町,イシカワケン,カナザワシ,マキヤママチ,石川県金沢市牧山町
9200151,石川県,金沢市,梨木町,イシカワケン,カナザワシ,ナシノキマチ,石川県金沢市梨木町
9200152,石川県,金沢市,鳴瀬元町,イシカワケン,カナザワシ,ナラセモトマチ,石川県金沢市鳴瀬元町
9200153,石川県,金沢市,宮野町,イシカワケン,カナザワシ,ミヤノマチ,石川県金沢市宮野町
9200154,石川県,金沢市,正部町,イシカワケン,カナザワシ,ショウブマチ,石川県金沢市正部町
9200155,石川県,金沢市,高坂町,イシカワケン,カナザワシ,タカサカマチ,石川県金沢市高坂町
9200156,石川県,金沢市,古屋谷町,イシカワケン,カナザワシ,フルヤダニマチ,石川県金沢市古屋谷町
9200157,石川県,金沢市,車町,イシカワケン,カナザワシ,クルママチ,石川県金沢市車町
9200161,石川県,金沢市,鞁筒町,イシカワケン,カナザワシ,ツヅミドウマチ,石川県金沢市鞁筒町
9200162,石川県,金沢市,小池町,イシカワケン,カナザワシ,オイケマチ,石川県金沢市小池町
9200163,石川県,金沢市,桐山町,イシカワケン,カナザワシ,キリヤママチ,石川県金沢市桐山町
9200164,石川県,金沢市,堅田町,イシカワケン,カナザワシ,カタタマチ,石川県金沢市堅田町
9200165,石川県,金沢市,深谷町,イシカワケン,カナザワシ,フカタニマチ,石川県金沢市深谷町
9200166,石川県,金沢市,四王寺町,イシカワケン,カナザワシ,シオウジマチ,石川県金沢市四王寺町
9200167,石川県,金沢市,福畠町,イシカワケン,カナザワシ,フクバタケマチ,石川県金沢市福畠町
9200168,石川県,金沢市,小野町,イシカワケン,カナザワシ,コノマチ,石川県金沢市小野町
9200171,石川県,金沢市,岩出町,イシカワケン,カナザワシ,イワデマチ,石川県金沢市岩出町
9200172,石川県,金沢市,河原市町,イシカワケン,カナザワシ,カワライチマチ,石川県金沢市河原市町
9200173,石川県,金沢市,不動寺町,イシカワケン,カナザワシ,フドウジマチ,石川県金沢市不動寺町
9200174,石川県,金沢市,薬師町,イシカワケン,カナザワシ,ヤクシマチ,石川県金沢市薬師町
9200175,石川県,金沢市,上涌波町,イシカワケン,カナザワシ,カミワクナミマチ,石川県金沢市上涌波町
9200176,石川県,金沢市,下涌波町,イシカワケン,カナザワシ,シモワクナミマチ,石川県金沢市下涌波町
9200177,石川県,金沢市,北陽台,イシカワケン,カナザワシ,ホクヨウダイ,石川県金沢市北陽台
9200178,石川県,金沢市,月浦町,イシカワケン,カナザワシ,ツキウラマチ,石川県金沢市月浦町
9200200,石川県,河北郡内灘町,,イシカワケン,カホクグンウチナダマチ,,石川県河北郡内灘町
9200201,石川県,金沢市,みずき,イシカワケン,カナザワシ,ミズキ,石川県金沢市みずき
9200201,石川県,金沢市,木越町（瑞樹団地）,イシカワケン,カナザワシ,キゴシマチ(ミズキダンチ),石川県金沢市木越町（瑞樹団地）
9200202,石川県,金沢市,木越,イシカワケン,カナザワシ,キゴシ,石川県金沢市木越
9200203,石川県,金沢市,木越町（その他）,イシカワケン,カナザワシ,キゴシマチ(ソノタ),石川県金沢市木越町（その他）
9200204,石川県,金沢市,千田町,イシカワケン,カナザワシ,センダマチ,石川県金沢市千田町
9200205,石川県,金沢市,大浦町,イシカワケン,カナザワシ,オオウラマチ,石川県金沢市大浦町
9200206,石川県,金沢市,北寺町,イシカワケン,カナザワシ,キタデラマチ,石川県金沢市北寺町
9200207,石川県,金沢市,須崎町,イシカワケン,カナザワシ,スザキマチ,石川県金沢市須崎町
9200208,石川県,金沢市,蚊爪町,イシカワケン,カナザワシ,カガツメマチ,石川県金沢市蚊爪町
9200209,石川県,金沢市,東蚊爪町,イシカワケン,カナザワシ,ヒガシカガツメマチ,石川県金沢市東蚊爪町
9200210,石川県,金沢市,大河端西,イシカワケン,カナザワシ,オコバタニシ,石川県金沢市大河端西
9200211,石川県,金沢市,湊,イシカワケン,カナザワシ,ミナト,石川県金沢市湊
9200212,石川県,金沢市,北間町,イシカワケン,カナザワシ,キタママチ,石川県金沢市北間町
9200213,石川県,金沢市,大河端町,イシカワケン,カナザワシ,オコバタマチ,石川県金沢市大河端町
9200214,石川県,金沢市,三ツ屋町,イシカワケン,カナザワシ,ミツヤマチ,石川県金沢市三ツ屋町
9200215,石川県,金沢市,弓取町,イシカワケン,カナザワシ,ユミトリマチ,石川県金沢市弓取町
9200219,石川県,金沢市,かたつ,イシカワケン,カナザワシ,カタツ,石川県金沢市かたつ
9200223,石川県,金沢市,戸水町,イシカワケン,カナザワシ,トミズマチ,石川県金沢市戸水町
9200224,石川県,金沢市,五郎島町,イシカワケン,カナザワシ,ゴロジママチ,石川県金沢市五郎島町
9200225,石川県,金沢市,大野町新町,イシカワケン,カナザワシ,オオノマチシンマチ,石川県金沢市大野町新町
9200226,石川県,金沢市,粟崎町,イシカワケン,カナザワシ,アワガサキマチ,石川県金沢市粟崎町
9200227,石川県,金沢市,粟崎浜町,イシカワケン,カナザワシ,アワガサキハママチ,石川県金沢市粟崎浜町
9200231,石川県,金沢市,大野町（ソ、タ、ヌ、ヨ、レ）,イシカワケン,カナザワシ,オオノマチ(ソ、タ、ヌ、ヨ、レ),石川県金沢市大野町（ソ、タ、ヌ、ヨ、レ）
9200261,石川県,河北郡内灘町,室,イシカワケン,カホクグンウチナダマチ,ムロ,石川県河北郡内灘町室
9200262,石川県,河北郡内灘町,西荒屋,イシカワケン,カホクグンウチナダマチ,ニシアラヤ,石川県河北郡内灘町西荒屋
9200263,石川県,河北郡内灘町,湖西,イシカワケン,カホクグンウチナダマチ,コセイ,石川県河北郡内灘町湖西
9200264,石川県,河北郡内灘町,宮坂,イシカワケン,カホクグンウチナダマチ,ミヤサカ,石川県河北郡内灘町宮坂
9200265,石川県,河北郡内灘町,大学,イシカワケン,カホクグンウチナダマチ,ダイガク,石川県河北郡内灘町大学
9200266,石川県,河北郡内灘町,大根布,イシカワケン,カホクグンウチナダマチ,オオネブ,石川県河北郡内灘町大根布
9200267,石川県,河北郡内灘町,大清台,イシカワケン,カホクグンウチナダマチ,タイセイダイ,石川県河北郡内灘町大清台
9200268,石川県,河北郡内灘町,ハマナス,イシカワケン,カホクグンウチナダマチ,ハマナス,石川県河北郡内灘町ハマナス
9200269,石川県,河北郡内灘町,白帆台,イシカワケン,カホクグンウチナダマチ,シラホダイ,石川県河北郡内灘町白帆台
9200271,石川県,河北郡内灘町,鶴ケ丘,イシカワケン,カホクグンウチナダマチ,ツルガオカ,石川県河北郡内灘町鶴ケ丘
9200272,石川県,河北郡内灘町,向陽台,イシカワケン,カホクグンウチナダマチ,コウヨウダイ,石川県河北郡内灘町向陽台
9200273,石川県,河北郡内灘町,アカシア,イシカワケン,カホクグンウチナダマチ,アカシア,石川県河北郡内灘町アカシア
9200274,石川県,河北郡内灘町,向粟崎,イシカワケン,カホクグンウチナダマチ,ムカイアワガサキ,石川県河北郡内灘町向粟崎
9200275,石川県,河北郡内灘町,旭ケ丘,イシカワケン,カホクグンウチナダマチ,アサヒガオカ,石川県河北郡内灘町旭ケ丘
9200276,石川県,河北郡内灘町,緑台,イシカワケン,カホクグンウチナダマチ,ミドリダイ,石川県河北郡内灘町緑台
9200277,石川県,河北郡内灘町,千鳥台,イシカワケン,カホクグンウチナダマチ,チドリダイ,石川県河北郡内灘町千鳥台
9200310,石川県,金沢市,金石相生町,イシカワケン,カナザワシ,カナイワアイオイチョウ,石川県金沢市金石相生町
9200311,石川県,金沢市,金石上浜町,イシカワケン,カナザワシ,カナイワカミハママチ,石川県金沢市金石上浜町
9200312,石川県,金沢市,金石松前町,イシカワケン,カナザワシ,カナイワマツマエマチ,石川県金沢市金石松前町
9200313,石川県,金沢市,金石浜町,イシカワケン,カナザワシ,カナイワハママチ,石川県金沢市金石浜町
9200314,石川県,金沢市,金石御船町,イシカワケン,カナザワシ,カナイワオフネマチ,石川県金沢市金石御船町
9200315,石川県,金沢市,金石下寺町,イシカワケン,カナザワシ,カナイワシモデラマチ,石川県金沢市金石下寺町
9200316,石川県,金沢市,金石通町,イシカワケン,カナザワシ,カナイワトオリマチ,石川県金沢市金石通町
9200317,石川県,金沢市,金石下本町,イシカワケン,カナザワシ,カナイワシモホンマチ,石川県金沢市金石下本町
9200318,石川県,金沢市,金石味噌屋町,イシカワケン,カナザワシ,カナイワミソヤチョウ,石川県金沢市金石味噌屋町
9200319,石川県,金沢市,金石上越前町,イシカワケン,カナザワシ,カナイワカミエチゼンマチ,石川県金沢市金石上越前町
9200321,石川県,金沢市,金石海禅寺町,イシカワケン,カナザワシ,カナイワカイゼンジマチ,石川県金沢市金石海禅寺町
9200322,石川県,金沢市,金石今町,イシカワケン,カナザワシ,カナイワイママチ,石川県金沢市金石今町
9200330,石川県,金沢市,金石新町,イシカワケン,カナザワシ,カナイワシンチョウ,石川県金沢市金石新町
9200331,石川県,金沢市,大野町（その他）,イシカワケン,カナザワシ,オオノマチ(ソノタ),石川県金沢市大野町（その他）
9200332,石川県,金沢市,無量寺町,イシカワケン,カナザワシ,ムリョウジマチ,石川県金沢市無量寺町
9200333,石川県,金沢市,無量寺,イシカワケン,カナザワシ,ムリョウジ,石川県金沢市無量寺
9200334,石川県,金沢市,桂町,イシカワケン,カナザワシ,カツラマチ,石川県金沢市桂町
9200335,石川県,金沢市,金石東,イシカワケン,カナザワシ,カナイワヒガシ,石川県金沢市金石東
9200336,石川県,金沢市,金石本町,イシカワケン,カナザワシ,カナイワホンマチ,石川県金沢市金石本町
9200337,石川県,金沢市,金石西,イシカワケン,カナザワシ,カナイワニシ,石川県金沢市金石西
9200338,石川県,金沢市,金石北,イシカワケン,カナザワシ,カナイワキタ,石川県金沢市金石北
9200339,石川県,金沢市,木曳野,イシカワケン,カナザワシ,キビキノ,石川県金沢市木曳野
9200341,石川県,金沢市,寺中町,イシカワケン,カナザワシ,ジチュウマチ,石川県金沢市寺中町
9200342,石川県,金沢市,畝田町,イシカワケン,カナザワシ,ウネダマチ,石川県金沢市畝田町
9200342,石川県,金沢市,畝田西,イシカワケン,カナザワシ,ウネダニシ,石川県金沢市畝田西
9200343,石川県,金沢市,畝田中,イシカワケン,カナザワシ,ウネダナカ,石川県金沢市畝田中
9200344,石川県,金沢市,畝田東,イシカワケン,カナザワシ,ウネダヒガシ,石川県金沢市畝田東
9200345,石川県,金沢市,藤江北,イシカワケン,カナザワシ,フジエキタ,石川県金沢市藤江北
9200346,石川県,金沢市,藤江南,イシカワケン,カナザワシ,フジエミナミ,石川県金沢市藤江南
9200347,石川県,金沢市,松村町,イシカワケン,カナザワシ,マツムラマチ,石川県金沢市松村町
9200348,石川県,金沢市,松村,イシカワケン,カナザワシ,マツムラ,石川県金沢市松村
9200351,石川県,金沢市,普正寺町,イシカワケン,カナザワシ,フショウジマチ,石川県金沢市普正寺町
9200352,石川県,金沢市,観音堂町,イシカワケン,カナザワシ,カンノンドウマチ,石川県金沢市観音堂町
9200353,石川県,金沢市,赤土町,イシカワケン,カナザワシ,アカツチマチ,石川県金沢市赤土町
9200354,石川県,金沢市,二ツ寺町,イシカワケン,カナザワシ,フタツデラマチ,石川県金沢市二ツ寺町
9200355,石川県,金沢市,稚日野町,イシカワケン,カナザワシ,ワカヒノマチ,石川県金沢市稚日野町
9200356,石川県,金沢市,専光寺町,イシカワケン,カナザワシ,センコウジマチ,石川県金沢市専光寺町
9200357,石川県,金沢市,佐奇森町,イシカワケン,カナザワシ,サキモリマチ,石川県金沢市佐奇森町
9200361,石川県,金沢市,袋畠町,イシカワケン,カナザワシ,フクロバタケマチ,石川県金沢市袋畠町
9200362,石川県,金沢市,古府,イシカワケン,カナザワシ,コブ,石川県金沢市古府
9200362,石川県,金沢市,古府町,イシカワケン,カナザワシ,コブマチ,石川県金沢市古府町
9200362,石川県,金沢市,古府町（西）,イシカワケン,カナザワシ,コブマチ(ニシ),石川県金沢市古府町（西）
9200363,石川県,金沢市,古府町（南）,イシカワケン,カナザワシ,コブマチ(ミナミ),石川県金沢市古府町（南）
9200364,石川県,金沢市,松島,イシカワケン,カナザワシ,マツシマ,石川県金沢市松島
9200364,石川県,金沢市,松島町,イシカワケン,カナザワシ,マツシママチ,石川県金沢市松島町
9200365,石川県,金沢市,神野町,イシカワケン,カナザワシ,カミノマチ,石川県金沢市神野町
9200366,石川県,金沢市,南塚町,イシカワケン,カナザワシ,ミナミヅカマチ,石川県金沢市南塚町
9200367,石川県,金沢市,北塚町,イシカワケン,カナザワシ,キタヅカマチ,石川県金沢市北塚町
9200368,石川県,金沢市,神野,イシカワケン,カナザワシ,カミノ,石川県金沢市神野
9200370,石川県,金沢市,上安原,イシカワケン,カナザワシ,カミヤスハラ,石川県金沢市上安原
9200371,石川県,金沢市,下安原町,イシカワケン,カナザワシ,シモヤスハラマチ,石川県金沢市下安原町
9200372,石川県,金沢市,豊穂町,イシカワケン,カナザワシ,トヨホマチ,石川県金沢市豊穂町
9200373,石川県,金沢市,みどり,イシカワケン,カナザワシ,ミドリ,石川県金沢市みどり
9200374,石川県,金沢市,上安原南,イシカワケン,カナザワシ,カミヤスハラミナミ,石川県金沢市上安原南
9200374,石川県,金沢市,上安原町,イシカワケン,カナザワシ,カミヤスハラマチ,石川県金沢市上安原町
9200375,石川県,金沢市,中屋町,イシカワケン,カナザワシ,ナカヤマチ,石川県金沢市中屋町
9200376,石川県,金沢市,福増町,イシカワケン,カナザワシ,フクマスマチ,石川県金沢市福増町
9200377,石川県,金沢市,打木町,イシカワケン,カナザワシ,ウツギマチ,石川県金沢市打木町
9200378,石川県,金沢市,いなほ,イシカワケン,カナザワシ,イナホ,石川県金沢市いなほ
9200379,石川県,金沢市,中屋南,イシカワケン,カナザワシ,ナカヤミナミ,石川県金沢市中屋南
9200381,石川県,金沢市,中屋,イシカワケン,カナザワシ,ナカヤ,石川県金沢市中屋
9200801,石川県,金沢市,神谷内町,イシカワケン,カナザワシ,カミヤチマチ,石川県金沢市神谷内町
9200802,石川県,金沢市,三池町,イシカワケン,カナザワシ,ミイケマチ,石川県金沢市三池町
9200803,石川県,金沢市,神宮寺町,イシカワケン,カナザワシ,ジングウジマチ,石川県金沢市神宮寺町
9200804,石川県,金沢市,鳴和,イシカワケン,カナザワシ,ナルワ,石川県金沢市鳴和
9200805,石川県,金沢市,小金町,イシカワケン,カナザワシ,コガネマチ,石川県金沢市小金町
9200806,石川県,金沢市,神宮寺,イシカワケン,カナザワシ,ジングウジ,石川県金沢市神宮寺
9200807,石川県,金沢市,乙丸町,イシカワケン,カナザワシ,オトマルマチ,石川県金沢市乙丸町
9200808,石川県,金沢市,三池新町,イシカワケン,カナザワシ,ミイケシンマチ,石川県金沢市三池新町
9200809,石川県,金沢市,三池栄町,イシカワケン,カナザワシ,ミイケサカエマチ,石川県金沢市三池栄町
9200811,石川県,金沢市,小坂町,イシカワケン,カナザワシ,コサカマチ,石川県金沢市小坂町
9200812,石川県,金沢市,南御所町,イシカワケン,カナザワシ,ミナミゴショマチ,石川県金沢市南御所町
9200813,石川県,金沢市,御所町,イシカワケン,カナザワシ,ゴショマチ,石川県金沢市御所町
9200814,石川県,金沢市,鳴和町,イシカワケン,カナザワシ,ナルワマチ,石川県金沢市鳴和町
9200815,石川県,金沢市,鳴和台,イシカワケン,カナザワシ,ナルワダイ,石川県金沢市鳴和台
9200816,石川県,金沢市,山の上町,イシカワケン,カナザワシ,ヤマノウエマチ,石川県金沢市山の上町
9200817,石川県,金沢市,春日町,イシカワケン,カナザワシ,カスガマチ,石川県金沢市春日町
9200818,石川県,金沢市,大樋町,イシカワケン,カナザワシ,オオヒマチ,石川県金沢市大樋町
9200821,石川県,金沢市,山王町,イシカワケン,カナザワシ,サンノウマチ,石川県金沢市山王町
9200822,石川県,金沢市,東長江町,イシカワケン,カナザワシ,ヒガシナガエマチ,石川県金沢市東長江町
9200823,石川県,金沢市,夕日寺町,イシカワケン,カナザワシ,ユウヒデラマチ,石川県金沢市夕日寺町
9200824,石川県,金沢市,伝燈寺町,イシカワケン,カナザワシ,デンドウジマチ,石川県金沢市伝燈寺町
9200825,石川県,金沢市,釣部町,イシカワケン,カナザワシ,ツルベマチ,石川県金沢市釣部町
9200826,石川県,金沢市,小二又町,イシカワケン,カナザワシ,コフタマタマチ,石川県金沢市小二又町
9200827,石川県,金沢市,牧町,イシカワケン,カナザワシ,マキマチ,石川県金沢市牧町
9200831,石川県,金沢市,東山,イシカワケン,カナザワシ,ヒガシヤマ,石川県金沢市東山
9200832,石川県,金沢市,卯辰町,イシカワケン,カナザワシ,ウタツマチ,石川県金沢市卯辰町
9200833,石川県,金沢市,末広町,イシカワケン,カナザワシ,スエヒロマチ,石川県金沢市末広町
9200834,石川県,金沢市,常盤町,イシカワケン,カナザワシ,トキワマチ,石川県金沢市常盤町
9200835,石川県,金沢市,東御影町,イシカワケン,カナザワシ,ヒガシミカゲマチ,石川県金沢市東御影町
9200836,石川県,金沢市,子来町,イシカワケン,カナザワシ,コライマチ,石川県金沢市子来町
9200837,石川県,金沢市,鶯町,イシカワケン,カナザワシ,ウグイスマチ,石川県金沢市鶯町
9200838,石川県,金沢市,観音町,イシカワケン,カナザワシ,カンノンマチ,石川県金沢市観音町
9200841,石川県,金沢市,浅野本町,イシカワケン,カナザワシ,アサノホンマチ,石川県金沢市浅野本町
9200842,石川県,金沢市,元町,イシカワケン,カナザワシ,モトマチ,石川県金沢市元町
9200843,石川県,金沢市,森山,イシカワケン,カナザワシ,モリヤマ,石川県金沢市森山
9200844,石川県,金沢市,小橋町,イシカワケン,カナザワシ,コバシマチ,石川県金沢市小橋町
9200845,石川県,金沢市,瓢箪町,イシカワケン,カナザワシ,ヒョウタンマチ,石川県金沢市瓢箪町
9200846,石川県,金沢市,昌永町,イシカワケン,カナザワシ,ショウエイマチ,石川県金沢市昌永町
9200847,石川県,金沢市,堀川町,イシカワケン,カナザワシ,ホリカワマチ,石川県金沢市堀川町
9200848,石川県,金沢市,京町,イシカワケン,カナザワシ,キョウマチ,石川県金沢市京町
9200849,石川県,金沢市,堀川新町,イシカワケン,カナザワシ,ホリカワシンマチ,石川県金沢市堀川新町
9200851,石川県,金沢市,笠市町,イシカワケン,カナザワシ,カサイチマチ,石川県金沢市笠市町
9200852,石川県,金沢市,此花町,イシカワケン,カナザワシ,コノハナマチ,石川県金沢市此花町
9200853,石川県,金沢市,本町,イシカワケン,カナザワシ,ホンマチ,石川県金沢市本町
9200854,石川県,金沢市,安江町,イシカワケン,カナザワシ,ヤスエチョウ,石川県金沢市安江町
9200855,石川県,金沢市,武蔵町,イシカワケン,カナザワシ,ムサシマチ,石川県金沢市武蔵町
9200856,石川県,金沢市,昭和町,イシカワケン,カナザワシ,ショウワマチ,石川県金沢市昭和町
9200857,石川県,金沢市,折違町,イシカワケン,カナザワシ,スジカイマチ,石川県金沢市折違町
9200858,石川県,金沢市,木ノ新保町,イシカワケン,カナザワシ,キノシンボマチ,石川県金沢市木ノ新保町
9200861,石川県,金沢市,三社町,イシカワケン,カナザワシ,サンジャマチ,石川県金沢市三社町
9200862,石川県,金沢市,芳斉,イシカワケン,カナザワシ,ホウサイ,石川県金沢市芳斉
9200863,石川県,金沢市,玉川町,イシカワケン,カナザワシ,タマガワチョウ,石川県金沢市玉川町
9200864,石川県,金沢市,高岡町,イシカワケン,カナザワシ,タカオカマチ,石川県金沢市高岡町
9200865,石川県,金沢市,長町,イシカワケン,カナザワシ,ナガマチ,石川県金沢市長町
9200866,石川県,金沢市,中央通町,イシカワケン,カナザワシ,チュウオウドオリマチ,石川県金沢市中央通町
9200867,石川県,金沢市,長土塀,イシカワケン,カナザワシ,ナガドヘ,石川県金沢市長土塀
9200868,石川県,金沢市,六枚町,イシカワケン,カナザワシ,ロクマイマチ,石川県金沢市六枚町
9200869,石川県,金沢市,上堤町,イシカワケン,カナザワシ,カミツツミチョウ,石川県金沢市上堤町
9200901,石川県,金沢市,彦三町,イシカワケン,カナザワシ,ヒコソマチ,石川県金沢市彦三町
9200902,石川県,金沢市,尾張町,イシカワケン,カナザワシ,オワリチョウ,石川県金沢市尾張町
9200903,石川県,金沢市,博労町,イシカワケン,カナザワシ,バクロマチ,石川県金沢市博労町
9200904,石川県,金沢市,下近江町,イシカワケン,カナザワシ,シモオウミチョウ,石川県金沢市下近江町
9200905,石川県,金沢市,上近江町,イシカワケン,カナザワシ,カミオウミチョウ,石川県金沢市上近江町
9200906,石川県,金沢市,十間町,イシカワケン,カナザワシ,ジツケンマチ,石川県金沢市十間町
9200907,石川県,金沢市,青草町,イシカワケン,カナザワシ,アオクサマチ,石川県金沢市青草町
9200908,石川県,金沢市,主計町,イシカワケン,カナザワシ,カズエマチ,石川県金沢市主計町
9200909,石川県,金沢市,袋町,イシカワケン,カナザワシ,フクロマチ,石川県金沢市袋町
9200910,石川県,金沢市,下新町,イシカワケン,カナザワシ,シモシンチョウ,石川県金沢市下新町
9200911,石川県,金沢市,橋場町,イシカワケン,カナザワシ,ハシバチョウ,石川県金沢市橋場町
9200912,石川県,金沢市,大手町,イシカワケン,カナザワシ,オオテマチ,石川県金沢市大手町
9200913,石川県,金沢市,西町三番丁,イシカワケン,カナザワシ,ニシチョウ3バンチョウ,石川県金沢市西町三番丁
9200914,石川県,金沢市,西町四番丁,イシカワケン,カナザワシ,ニシチョウ4バンチョウ,石川県金沢市西町四番丁
9200915,石川県,金沢市,西町藪ノ内通,イシカワケン,カナザワシ,ニシチョウヤブノウチドオリ,石川県金沢市西町藪ノ内通
9200916,石川県,金沢市,下松原町,イシカワケン,カナザワシ,シモマツバラチョウ,石川県金沢市下松原町
9200917,石川県,金沢市,下堤町,イシカワケン,カナザワシ,シモツツミチョウ,石川県金沢市下堤町
9200918,石川県,金沢市,尾山町,イシカワケン,カナザワシ,オヤママチ,石川県金沢市尾山町
9200919,石川県,金沢市,南町,イシカワケン,カナザワシ,ミナミチョウ,石川県金沢市南町
9200921,石川県,金沢市,材木町,イシカワケン,カナザワシ,ザイモクチョウ,石川県金沢市材木町
9200922,石川県,金沢市,横山町,イシカワケン,カナザワシ,ヨコヤママチ,石川県金沢市横山町
9200923,石川県,金沢市,桜町,イシカワケン,カナザワシ,サクラマチ,石川県金沢市桜町
9200924,石川県,金沢市,田井町,イシカワケン,カナザワシ,タイマチ,石川県金沢市田井町
9200925,石川県,金沢市,天神町,イシカワケン,カナザワシ,テンジンマチ,石川県金沢市天神町
9200926,石川県,金沢市,暁町,イシカワケン,カナザワシ,アカツキマチ,石川県金沢市暁町
9200927,石川県,金沢市,扇町,イシカワケン,カナザワシ,オウギマチ,石川県金沢市扇町
9200928,石川県,金沢市,並木町,イシカワケン,カナザワシ,ナミキマチ,石川県金沢市並木町
9200931,石川県,金沢市,兼六元町,イシカワケン,カナザワシ,ケンロクモトマチ,石川県金沢市兼六元町
9200932,石川県,金沢市,小将町,イシカワケン,カナザワシ,コショウマチ,石川県金沢市小将町
9200933,石川県,金沢市,東兼六町,イシカワケン,カナザワシ,ヒガシケンロクマチ,石川県金沢市東兼六町
9200934,石川県,金沢市,宝町,イシカワケン,カナザワシ,タカラマチ,石川県金沢市宝町
9200935,石川県,金沢市,石引,イシカワケン,カナザワシ,イシビキ,石川県金沢市石引
9200936,石川県,金沢市,兼六町,イシカワケン,カナザワシ,ケンロクマチ,石川県金沢市兼六町
9200937,石川県,金沢市,丸の内,イシカワケン,カナザワシ,マルノウチ,石川県金沢市丸の内
9200938,石川県,金沢市,飛梅町,イシカワケン,カナザワシ,トビウメチョウ,石川県金沢市飛梅町
9200939,石川県,金沢市,下石引町,イシカワケン,カナザワシ,シモイシビキマチ,石川県金沢市下石引町
9200941,石川県,金沢市,旭町,イシカワケン,カナザワシ,アサヒマチ,石川県金沢市旭町
9200942,石川県,金沢市,小立野,イシカワケン,カナザワシ,コダツノ,石川県金沢市小立野
9200943,石川県,金沢市,上野本町,イシカワケン,カナザワシ,ウエノホンマチ,石川県金沢市上野本町
9200944,石川県,金沢市,三口新町,イシカワケン,カナザワシ,ミツクチシンマチ,石川県金沢市三口新町
9200945,石川県,金沢市,大桑新町,イシカワケン,カナザワシ,オオクワシンマチ,石川県金沢市大桑新町
9200946,石川県,金沢市,大桑町（カ、コ、サ乙、サ甲、ソ、タ、ツ甲、ナ、メ、ユ、ヨ、,イシカワケン,カナザワシ,オオクワマチ(カ、コ、サオツ、サコウ、ソ、タ、ツコウ、ナ、メ、ユ、ヨ、,石川県金沢市大桑町（カ、コ、サ乙、サ甲、ソ、タ、ツ甲、ナ、メ、ユ、ヨ、
9200947,石川県,金沢市,笠舞本町,イシカワケン,カナザワシ,カサマイホンマチ,石川県金沢市笠舞本町
9200951,石川県,金沢市,花里町,イシカワケン,カナザワシ,ハナザトマチ,石川県金沢市花里町
9200952,石川県,金沢市,錦町,イシカワケン,カナザワシ,ニシキマチ,石川県金沢市錦町
9200953,石川県,金沢市,涌波,イシカワケン,カナザワシ,ワクナミ,石川県金沢市涌波
9200954,石川県,金沢市,涌波町,イシカワケン,カナザワシ,ワクナミマチ,石川県金沢市涌波町
9200955,石川県,金沢市,土清水,イシカワケン,カナザワシ,ツチシミズ,石川県金沢市土清水
9200956,石川県,金沢市,舘山町,イシカワケン,カナザワシ,タチヤママチ,石川県金沢市舘山町
9200957,石川県,金沢市,舘町,イシカワケン,カナザワシ,タチマチ,石川県金沢市舘町
9200961,石川県,金沢市,香林坊,イシカワケン,カナザワシ,コウリンボウ,石川県金沢市香林坊
9200962,石川県,金沢市,広坂,イシカワケン,カナザワシ,ヒロサカ,石川県金沢市広坂
9200963,石川県,金沢市,出羽町,イシカワケン,カナザワシ,デワマチ,石川県金沢市出羽町
9200964,石川県,金沢市,本多町,イシカワケン,カナザワシ,ホンダマチ,石川県金沢市本多町
9200965,石川県,金沢市,笠舞,イシカワケン,カナザワシ,カサマイ,石川県金沢市笠舞
9200966,石川県,金沢市,城南,イシカワケン,カナザワシ,ジョウナン,石川県金沢市城南
9200967,石川県,金沢市,菊川,イシカワケン,カナザワシ,キクガワ,石川県金沢市菊川
9200968,石川県,金沢市,幸町,イシカワケン,カナザワシ,サイワイマチ,石川県金沢市幸町
9200971,石川県,金沢市,鱗町,イシカワケン,カナザワシ,ウロコマチ,石川県金沢市鱗町
9200972,石川県,金沢市,杉浦町,イシカワケン,カナザワシ,スギウラマチ,石川県金沢市杉浦町
9200973,石川県,金沢市,枝町,イシカワケン,カナザワシ,エダマチ,石川県金沢市枝町
9200974,石川県,金沢市,川岸町,イシカワケン,カナザワシ,カワギシマチ,石川県金沢市川岸町
9200975,石川県,金沢市,中川除町,イシカワケン,カナザワシ,ナカカワヨケマチ,石川県金沢市中川除町
9200976,石川県,金沢市,十三間町,イシカワケン,カナザワシ,ジュウサンゲンマチ,石川県金沢市十三間町
9200977,石川県,金沢市,十三間町中丁,イシカワケン,カナザワシ,ジュウサンゲンマチナカチョウ,石川県金沢市十三間町中丁
9200978,石川県,金沢市,水溜町,イシカワケン,カナザワシ,ミズタメマチ,石川県金沢市水溜町
9200981,石川県,金沢市,片町,イシカワケン,カナザワシ,カタマチ,石川県金沢市片町
9200982,石川県,金沢市,大工町,イシカワケン,カナザワシ,ダイクマチ,石川県金沢市大工町
9200983,石川県,金沢市,池田町一番丁,イシカワケン,カナザワシ,イケダマチ1バンチョウ,石川県金沢市池田町一番丁
9200984,石川県,金沢市,池田町二番丁,イシカワケン,カナザワシ,イケダマチ2バンチョウ,石川県金沢市池田町二番丁
9200985,石川県,金沢市,池田町三番丁,イシカワケン,カナザワシ,イケダマチ3バンチョウ,石川県金沢市池田町三番丁
9200986,石川県,金沢市,池田町四番丁,イシカワケン,カナザワシ,イケダマチ4バンチョウ,石川県金沢市池田町四番丁
9200987,石川県,金沢市,池田町立丁,イシカワケン,カナザワシ,イケダマチタテチョウ,石川県金沢市池田町立丁
9200988,石川県,金沢市,木倉町,イシカワケン,カナザワシ,キグラマチ,石川県金沢市木倉町
9200991,石川県,金沢市,下柿木畠,イシカワケン,カナザワシ,シモカキノキバタケ,石川県金沢市下柿木畠
9200992,石川県,金沢市,上柿木畠,イシカワケン,カナザワシ,カミカキノキバタケ,石川県金沢市上柿木畠
9200993,石川県,金沢市,下本多町,イシカワケン,カナザワシ,シモホンダマチ,石川県金沢市下本多町
9200994,石川県,金沢市,茨木町,イシカワケン,カナザワシ,イバラギチョウ,石川県金沢市茨木町
9200995,石川県,金沢市,新竪町,イシカワケン,カナザワシ,シンタテマチ,石川県金沢市新竪町
9200996,石川県,金沢市,油車,イシカワケン,カナザワシ,アブラグルマ,石川県金沢市油車
9200997,石川県,金沢市,竪町,イシカワケン,カナザワシ,タテマチ,石川県金沢市竪町
9200998,石川県,金沢市,里見町,イシカワケン,カナザワシ,サトミチョウ,石川県金沢市里見町
9200999,石川県,金沢市,柿木畠,イシカワケン,カナザワシ,カキノキバタケ,石川県金沢市柿木畠
9201101,石川県,金沢市,奥新保町,イシカワケン,カナザワシ,オクシンボマチ,石川県金沢市奥新保町
9201101,石川県,金沢市,砂子坂町,イシカワケン,カナザワシ,スナゴザカマチ,石川県金沢市砂子坂町
9201101,石川県,金沢市,荒山町,イシカワケン,カナザワシ,アラヤママチ,石川県金沢市荒山町
9201102,石川県,金沢市,二俣町,イシカワケン,カナザワシ,フタマタマチ,石川県金沢市二俣町
9201103,石川県,金沢市,田島町,イシカワケン,カナザワシ,タノシママチ,石川県金沢市田島町
9201104,石川県,金沢市,清水町,イシカワケン,カナザワシ,シミズマチ,石川県金沢市清水町
9201105,石川県,金沢市,戸室新保,イシカワケン,カナザワシ,トムロシンボ,石川県金沢市戸室新保
9201106,石川県,金沢市,戸室別所,イシカワケン,カナザワシ,トムロベッショ,石川県金沢市戸室別所
9201106,石川県,金沢市,湯谷原町,イシカワケン,カナザワシ,ユヤガハラマチ,石川県金沢市湯谷原町
9201107,石川県,金沢市,小豆沢町,イシカワケン,カナザワシ,アズキザワマチ,石川県金沢市小豆沢町
9201108,石川県,金沢市,俵町,イシカワケン,カナザワシ,タワラマチ,石川県金沢市俵町
9201109,石川県,金沢市,中山町,イシカワケン,カナザワシ,ナカヤママチ,石川県金沢市中山町
9201111,石川県,金沢市,大菱池町,イシカワケン,カナザワシ,オビシケマチ,石川県金沢市大菱池町
9201111,石川県,金沢市,小菱池町,イシカワケン,カナザワシ,コビシケマチ,石川県金沢市小菱池町
9201111,石川県,金沢市,菱池小原町,イシカワケン,カナザワシ,ヒシイケオハラマチ,石川県金沢市菱池小原町
9201111,石川県,金沢市,魚帰町,イシカワケン,カナザワシ,ウオガエリマチ,石川県金沢市魚帰町
9201112,石川県,金沢市,折谷町,イシカワケン,カナザワシ,オリタニマチ,石川県金沢市折谷町
9201113,石川県,金沢市,上山町,イシカワケン,カナザワシ,ウエヤママチ,石川県金沢市上山町
9201114,石川県,金沢市,古郷町,イシカワケン,カナザワシ,コキョウマチ,石川県金沢市古郷町
9201115,石川県,金沢市,石黒町,イシカワケン,カナザワシ,イシグロマチ,石川県金沢市石黒町
9201116,石川県,金沢市,板ケ谷町,イシカワケン,カナザワシ,イタガヤマチ,石川県金沢市板ケ谷町
9201117,石川県,金沢市,横谷町,イシカワケン,カナザワシ,ヨコタニマチ,石川県金沢市横谷町
9201118,石川県,金沢市,湯涌河内町,イシカワケン,カナザワシ,ユワクカワチマチ,石川県金沢市湯涌河内町
9201119,石川県,金沢市,湯涌曲町,イシカワケン,カナザワシ,ユワクマガリマチ,石川県金沢市湯涌曲町
9201121,石川県,金沢市,東町,イシカワケン,カナザワシ,ヒガシマチ,石川県金沢市東町
9201122,石川県,金沢市,湯涌荒屋町,イシカワケン,カナザワシ,ユワクアラヤマチ,石川県金沢市湯涌荒屋町
9201123,石川県,金沢市,湯涌町,イシカワケン,カナザワシ,ユワクマチ,石川県金沢市湯涌町
9201124,石川県,金沢市,湯涌田子島町,イシカワケン,カナザワシ,ユワクタゴジママチ,石川県金沢市湯涌田子島町
9201125,石川県,金沢市,上原町,イシカワケン,カナザワシ,カンバラマチ,石川県金沢市上原町
9201126,石川県,金沢市,白見町,イシカワケン,カナザワシ,シロミマチ,石川県金沢市白見町
9201127,石川県,金沢市,下谷町,イシカワケン,カナザワシ,シモダニマチ,石川県金沢市下谷町
9201128,石川県,金沢市,羽場町,イシカワケン,カナザワシ,ハバマチ,石川県金沢市羽場町
9201129,石川県,金沢市,芝原町,イシカワケン,カナザワシ,シバハラマチ,石川県金沢市芝原町
9201131,石川県,金沢市,東荒屋町,イシカワケン,カナザワシ,ヒガシアラヤマチ,石川県金沢市東荒屋町
9201132,石川県,金沢市,朝加屋町,イシカワケン,カナザワシ,アサカヤマチ,石川県金沢市朝加屋町
9201133,石川県,金沢市,藤六町,イシカワケン,カナザワシ,トウロクマチ,石川県金沢市藤六町
9201134,石川県,金沢市,東市瀬町,イシカワケン,カナザワシ,ヒガシイチノセマチ,石川県金沢市東市瀬町
9201135,石川県,金沢市,北袋町,イシカワケン,カナザワシ,キタブクロマチ,石川県金沢市北袋町
9201136,石川県,金沢市,西市瀬町,イシカワケン,カナザワシ,ニシイチノセマチ,石川県金沢市西市瀬町
9201137,石川県,金沢市,七曲町,イシカワケン,カナザワシ,ナナマガリマチ,石川県金沢市七曲町
9201138,石川県,金沢市,茅原町,イシカワケン,カナザワシ,チハラマチ,石川県金沢市茅原町
9201141,石川県,金沢市,平等本町,イシカワケン,カナザワシ,ダイラホンマチ,石川県金沢市平等本町
9201142,石川県,金沢市,蓮如町,イシカワケン,カナザワシ,レンニョマチ,石川県金沢市蓮如町
9201143,石川県,金沢市,高池町,イシカワケン,カナザワシ,タカイケマチ,石川県金沢市高池町
9201144,石川県,金沢市,袋板屋町,イシカワケン,カナザワシ,フクロイタヤマチ,石川県金沢市袋板屋町
9201145,石川県,金沢市,浅川町,イシカワケン,カナザワシ,アサカワマチ,石川県金沢市浅川町
9201146,石川県,金沢市,上中町,イシカワケン,カナザワシ,カミナカマチ,石川県金沢市上中町
9201147,石川県,金沢市,銚子町,イシカワケン,カナザワシ,チョウシマチ,石川県金沢市銚子町
9201148,石川県,金沢市,金川町,イシカワケン,カナザワシ,カナガワマチ,石川県金沢市金川町
9201149,石川県,金沢市,打尾町,イシカワケン,カナザワシ,ウチオマチ,石川県金沢市打尾町
9201151,石川県,金沢市,田上町,イシカワケン,カナザワシ,タガミマチ,石川県金沢市田上町
9201152,石川県,金沢市,田上,イシカワケン,カナザワシ,タガミ,石川県金沢市田上
9201153,石川県,金沢市,田上新町,イシカワケン,カナザワシ,タガミシンマチ,石川県金沢市田上新町
9201154,石川県,金沢市,太陽が丘,イシカワケン,カナザワシ,タイヨウガオカ,石川県金沢市太陽が丘
9201155,石川県,金沢市,田上本町,イシカワケン,カナザワシ,タガミホンマチ,石川県金沢市田上本町
9201156,石川県,金沢市,田上の里,イシカワケン,カナザワシ,タガミノサト,石川県金沢市田上の里
9201157,石川県,金沢市,田上さくら,イシカワケン,カナザワシ,タガミサクラ,石川県金沢市田上さくら
9201158,石川県,金沢市,朝霧台,イシカワケン,カナザワシ,アサギリダイ,石川県金沢市朝霧台
9201161,石川県,金沢市,鈴見台,イシカワケン,カナザワシ,スズミダイ,石川県金沢市鈴見台
9201162,石川県,金沢市,鈴見町,イシカワケン,カナザワシ,スズミマチ,石川県金沢市鈴見町
9201163,石川県,金沢市,角間新町,イシカワケン,カナザワシ,カクマシンマチ,石川県金沢市角間新町
9201164,石川県,金沢市,角間町,イシカワケン,カナザワシ,カクママチ,石川県金沢市角間町
9201165,石川県,金沢市,若松町,イシカワケン,カナザワシ,ワカマツマチ,石川県金沢市若松町
9201166,石川県,金沢市,上若松町,イシカワケン,カナザワシ,カミワカマツマチ,石川県金沢市上若松町
9201167,石川県,金沢市,もりの里,イシカワケン,カナザワシ,モリノサト,石川県金沢市もりの里
9201301,石川県,金沢市,永安町,イシカワケン,カナザワシ,エイアンチョウ,石川県金沢市永安町
9201302,石川県,金沢市,末町,イシカワケン,カナザワシ,スエマチ,石川県金沢市末町
9201303,石川県,金沢市,辰巳町,イシカワケン,カナザワシ,タツミマチ,石川県金沢市辰巳町
9201304,石川県,金沢市,上辰巳町,イシカワケン,カナザワシ,カミタツミマチ,石川県金沢市上辰巳町
9201311,石川県,金沢市,菅池町,イシカワケン,カナザワシ,スガイケマチ,石川県金沢市菅池町
9201312,石川県,金沢市,瀬領町,イシカワケン,カナザワシ,セリョウマチ,石川県金沢市瀬領町
9201313,石川県,金沢市,駒帰町,イシカワケン,カナザワシ,コマガエリマチ,石川県金沢市駒帰町
9201314,石川県,金沢市,娚杉町,イシカワケン,カナザワシ,メオトスギマチ,石川県金沢市娚杉町
9201315,石川県,金沢市,寺津町,イシカワケン,カナザワシ,テラヅマチ,石川県金沢市寺津町
9201316,石川県,金沢市,二又新町,イシカワケン,カナザワシ,フタマタシンマチ,石川県金沢市二又新町
9201321,石川県,金沢市,水淵町,イシカワケン,カナザワシ,ミズブチマチ,石川県金沢市水淵町
9201322,石川県,金沢市,相合谷町,イシカワケン,カナザワシ,アオダニマチ,石川県金沢市相合谷町
9201323,石川県,金沢市,下鴛原町,イシカワケン,カナザワシ,シモオシハラマチ,石川県金沢市下鴛原町
9201324,石川県,金沢市,鴛原町,イシカワケン,カナザワシ,オシハラマチ,石川県金沢市鴛原町
9201325,石川県,金沢市,城力町,イシカワケン,カナザワシ,ジョウリキマチ,石川県金沢市城力町
9201326,石川県,金沢市,熊走町,イシカワケン,カナザワシ,クマバシリマチ,石川県金沢市熊走町
9201331,石川県,金沢市,天池町,イシカワケン,カナザワシ,アマイケマチ,石川県金沢市天池町
9201332,石川県,金沢市,樫見町,イシカワケン,カナザワシ,カシミマチ,石川県金沢市樫見町
9201333,石川県,金沢市,国見町,イシカワケン,カナザワシ,クニミチョウ,石川県金沢市国見町
9201334,石川県,金沢市,平町,イシカワケン,カナザワシ,タイラマチ,石川県金沢市平町
9201335,石川県,金沢市,大平沢町,イシカワケン,カナザワシ,オオヒラソウマチ,石川県金沢市大平沢町
9201336,石川県,金沢市,中戸町,イシカワケン,カナザワシ,ナカトマチ,石川県金沢市中戸町
9201337,石川県,金沢市,山川町,イシカワケン,カナザワシ,ヤマゴマチ,石川県金沢市山川町
9201341,石川県,金沢市,別所町,イシカワケン,カナザワシ,ベッショマチ,石川県金沢市別所町
9201342,石川県,金沢市,蓮花町,イシカワケン,カナザワシ,レンゲマチ,石川県金沢市蓮花町
9201343,石川県,金沢市,小原町,イシカワケン,カナザワシ,オハラマチ,石川県金沢市小原町
9201344,石川県,金沢市,住吉町,イシカワケン,カナザワシ,スミヨシマチ,石川県金沢市住吉町
9201345,石川県,金沢市,新保町,イシカワケン,カナザワシ,シンボマチ,石川県金沢市新保町
9201346,石川県,金沢市,三小牛町,イシカワケン,カナザワシ,ミツコウジマチ,石川県金沢市三小牛町
9202101,石川県,白山市,曽谷町,イシカワケン,ハクサンシ,ソダニマチ,石川県白山市曽谷町
9202102,石川県,白山市,坂尻町,イシカワケン,ハクサンシ,サカジリマチ,石川県白山市坂尻町
9202103,石川県,白山市,小柳町,イシカワケン,ハクサンシ,オヤナギマチ,石川県白山市小柳町
9202104,石川県,白山市,月橋町,イシカワケン,ハクサンシ,ツキハシマチ,石川県白山市月橋町
9202111,石川県,白山市,鶴来朝日町,イシカワケン,ハクサンシ,ツルギアサヒマチ,石川県白山市鶴来朝日町
9202112,石川県,白山市,鶴来日吉町,イシカワケン,ハクサンシ,ツルギヒヨシマチ,石川県白山市鶴来日吉町
9202113,石川県,白山市,八幡町,イシカワケン,ハクサンシ,ヤワタマチ,石川県白山市八幡町
9202114,石川県,白山市,三宮町,イシカワケン,ハクサンシ,サンノミヤマチ,石川県白山市三宮町
9202115,石川県,白山市,白山町,イシカワケン,ハクサンシ,シラヤママチ,石川県白山市白山町
9202116,石川県,白山市,中島町,イシカワケン,ハクサンシ,ナカジママチ,石川県白山市中島町
9202121,石川県,白山市,鶴来本町（１〜４丁目）,イシカワケン,ハクサンシ,ツルギホンマチ(1-4チョウメ),石川県白山市鶴来本町（1〜4-）
9202122,石川県,白山市,鶴来知守町,イシカワケン,ハクサンシ,ツルギチモリチョウ,石川県白山市鶴来知守町
9202123,石川県,白山市,鶴来日詰町,イシカワケン,ハクサンシ,ツルギヒヅメチョウ,石川県白山市鶴来日詰町
9202124,石川県,白山市,鶴来清沢町,イシカワケン,ハクサンシ,ツルギセイサワマチ,石川県白山市鶴来清沢町
9202125,石川県,白山市,鶴来今町,イシカワケン,ハクサンシ,ツルギイママチ,石川県白山市鶴来今町
9202126,石川県,白山市,鶴来新町,イシカワケン,ハクサンシ,ツルギシンマチ,石川県白山市鶴来新町
9202127,石川県,白山市,鶴来上東町,イシカワケン,ハクサンシ,ツルギカミヒガシマチ,石川県白山市鶴来上東町
9202128,石川県,白山市,鶴来下東町,イシカワケン,ハクサンシ,ツルギシモヒガシマチ,石川県白山市鶴来下東町
9202129,石川県,白山市,鶴来古町,イシカワケン,ハクサンシ,ツルギフルマチ,石川県白山市鶴来古町
9202131,石川県,白山市,森島町,イシカワケン,ハクサンシ,モリジママチ,石川県白山市森島町
9202132,石川県,白山市,明島町,イシカワケン,ハクサンシ,アカラジママチ,石川県白山市明島町
9202133,石川県,白山市,鶴来大国町,イシカワケン,ハクサンシ,ツルギオオクニマチ,石川県白山市鶴来大国町
9202134,石川県,白山市,鶴来水戸町（２〜４丁目）,イシカワケン,ハクサンシ,ツルギミトマチ(2-4チョウメ),石川県白山市鶴来水戸町（2〜4-）
9202141,石川県,白山市,安養寺町,イシカワケン,ハクサンシ,アンヨウジマチ,石川県白山市安養寺町
9202142,石川県,白山市,深瀬新町,イシカワケン,ハクサンシ,フカゼシンマチ,石川県白山市深瀬新町
9202143,石川県,白山市,七原町,イシカワケン,ハクサンシ,シチハラマチ,石川県白山市七原町
9202144,石川県,白山市,大竹町,イシカワケン,ハクサンシ,オオダケマチ,石川県白山市大竹町
9202145,石川県,白山市,明法島町,イシカワケン,ハクサンシ,ミョウホウジママチ,石川県白山市明法島町
9202146,石川県,白山市,日向町,イシカワケン,ハクサンシ,ヒュウガマチ,石川県白山市日向町
9202147,石川県,白山市,中ノ郷町,イシカワケン,ハクサンシ,ナカノゴウマチ,石川県白山市中ノ郷町
9202148,石川県,白山市,行町,イシカワケン,ハクサンシ,アルキマチ,石川県白山市行町
9202151,石川県,白山市,荒屋町,イシカワケン,ハクサンシ,アラヤマチ,石川県白山市荒屋町
9202152,石川県,白山市,明光（１〜４丁目）,イシカワケン,ハクサンシ,メイコウ(1-4チョウメ),石川県白山市明光（1〜4-）
9202153,石川県,白山市,日御子町,イシカワケン,ハクサンシ,ヒノミコマチ,石川県白山市日御子町
9202154,石川県,白山市,井口町,イシカワケン,ハクサンシ,イノクチマチ,石川県白山市井口町
9202155,石川県,白山市,知気寺町,イシカワケン,ハクサンシ,チキジマチ,石川県白山市知気寺町
9202161,石川県,白山市,熱野町,イシカワケン,ハクサンシ,ネツノマチ,石川県白山市熱野町
9202162,石川県,白山市,道法寺町,イシカワケン,ハクサンシ,ドウホウジマチ,石川県白山市道法寺町
9202163,石川県,白山市,柴木町,イシカワケン,ハクサンシ,シバキマチ,石川県白山市柴木町
9202164,石川県,白山市,柴木（２丁目）,イシカワケン,ハクサンシ,シバキ(2チョウメ),石川県白山市柴木（2-）
9202165,石川県,白山市,富光寺町,イシカワケン,ハクサンシ,トミコウジマチ,石川県白山市富光寺町
9202166,石川県,白山市,鶴来桑島町,イシカワケン,ハクサンシ,ツルギクワジママチ,石川県白山市鶴来桑島町
9202167,石川県,白山市,部入道町,イシカワケン,ハクサンシ,ブニュウドウマチ,石川県白山市部入道町
9202168,石川県,白山市,陽羽里,イシカワケン,ハクサンシ,ヒバリ,石川県白山市陽羽里
9202301,石川県,白山市,河内町口直海,イシカワケン,ハクサンシ,カワチマチクチノミ,石川県白山市河内町口直海
9202302,石川県,白山市,河内町ふじが丘,イシカワケン,ハクサンシ,カワチマチフジガオカ,石川県白山市河内町ふじが丘
9202303,石川県,白山市,河内町福岡,イシカワケン,ハクサンシ,カワチマチフクオカ,石川県白山市河内町福岡
9202304,石川県,白山市,河内町きりの里,イシカワケン,ハクサンシ,カワチマチキリノサト,石川県白山市河内町きりの里
9202305,石川県,白山市,河内町江津,イシカワケン,ハクサンシ,カワチマチゴウヅ,石川県白山市河内町江津
9202306,石川県,白山市,河内町吉岡,イシカワケン,ハクサンシ,カワチマチヨシオカ,石川県白山市河内町吉岡
9202311,石川県,白山市,河内町中直海,イシカワケン,ハクサンシ,カワチマチナカノミ,石川県白山市河内町中直海
9202312,石川県,白山市,河内町奥池,イシカワケン,ハクサンシ,カワチマチオクイケ,石川県白山市河内町奥池
9202313,石川県,白山市,河内町久保,イシカワケン,ハクサンシ,カワチマチクボ,石川県白山市河内町久保
9202314,石川県,白山市,河内町吹上,イシカワケン,ハクサンシ,カワチマチフキアゲ,石川県白山市河内町吹上
9202315,石川県,白山市,河内町板尾,イシカワケン,ハクサンシ,カワチマチイタオ,石川県白山市河内町板尾
9202316,石川県,白山市,河内町金間,イシカワケン,ハクサンシ,カワチマチキンマ,石川県白山市河内町金間
9202317,石川県,白山市,河内町下折,イシカワケン,ハクサンシ,カワチマチソソリ,石川県白山市河内町下折
9202318,石川県,白山市,河内町内尾,イシカワケン,ハクサンシ,カワチマチウツオ,石川県白山市河内町内尾
9202321,石川県,白山市,吉野,イシカワケン,ハクサンシ,ヨシノ,石川県白山市吉野
9202322,石川県,白山市,佐良,イシカワケン,ハクサンシ,サラ,石川県白山市佐良
9202323,石川県,白山市,瀬波,イシカワケン,ハクサンシ,セナミ,石川県白山市瀬波
9202324,石川県,白山市,中宮,イシカワケン,ハクサンシ,チュウグウ,石川県白山市中宮
9202325,石川県,白山市,木滑新,イシカワケン,ハクサンシ,キナメリシン,石川県白山市木滑新
9202326,石川県,白山市,木滑,イシカワケン,ハクサンシ,キナメリ,石川県白山市木滑
9202327,石川県,白山市,市原,イシカワケン,ハクサンシ,イチハラ,石川県白山市市原
9202331,石川県,白山市,瀬戸,イシカワケン,ハクサンシ,セト,石川県白山市瀬戸
9202332,石川県,白山市,荒谷,イシカワケン,ハクサンシ,アラタニ,石川県白山市荒谷
9202333,石川県,白山市,尾添,イシカワケン,ハクサンシ,オゾウ,石川県白山市尾添
9202334,石川県,白山市,深瀬,イシカワケン,ハクサンシ,フカゼ,石川県白山市深瀬
9202335,石川県,白山市,女原,イシカワケン,ハクサンシ,オナバラ,石川県白山市女原
9202336,石川県,白山市,東二口,イシカワケン,ハクサンシ,ヒガシフタクチ,石川県白山市東二口
9202337,石川県,白山市,五味島,イシカワケン,ハクサンシ,ゴミジマ,石川県白山市五味島
9202338,石川県,白山市,釜谷,イシカワケン,ハクサンシ,カマダニ,石川県白山市釜谷
9202339,石川県,白山市,鴇ケ谷,イシカワケン,ハクサンシ,トガタニ,石川県白山市鴇ケ谷
9202341,石川県,白山市,釜清水町,イシカワケン,ハクサンシ,カマシミズマチ,石川県白山市釜清水町
9202342,石川県,白山市,下吉谷町,イシカワケン,ハクサンシ,シモヨシタニマチ,石川県白山市下吉谷町
9202343,石川県,白山市,西佐良町,イシカワケン,ハクサンシ,ニシサラマチ,石川県白山市西佐良町
9202344,石川県,白山市,上吉谷町,イシカワケン,ハクサンシ,カミヨシタニマチ,石川県白山市上吉谷町
9202345,石川県,白山市,三ツ屋野町,イシカワケン,ハクサンシ,ミツヤノマチ,石川県白山市三ツ屋野町
9202346,石川県,白山市,河原山町,イシカワケン,ハクサンシ,カワハラヤママチ,石川県白山市河原山町
9202347,石川県,白山市,仏師ケ野町,イシカワケン,ハクサンシ,ブシガノマチ,石川県白山市仏師ケ野町
9202351,石川県,白山市,柳原町,イシカワケン,ハクサンシ,ヤナギハラマチ,石川県白山市柳原町
9202352,石川県,白山市,野地町,イシカワケン,ハクサンシ,ノウヂマチ,石川県白山市野地町
9202353,石川県,白山市,左礫町,イシカワケン,ハクサンシ,ヒダリツブテマチ,石川県白山市左礫町
9202354,石川県,白山市,三ツ瀬町,イシカワケン,ハクサンシ,ミツセマチ,石川県白山市三ツ瀬町
9202355,石川県,白山市,数瀬町,イシカワケン,ハクサンシ,カズセマチ,石川県白山市数瀬町
9202356,石川県,白山市,阿手町,イシカワケン,ハクサンシ,アテマチ,石川県白山市阿手町
9202357,石川県,白山市,五十谷町,イシカワケン,ハクサンシ,ゴジュウダニマチ,石川県白山市五十谷町
9202361,石川県,白山市,三坂町,イシカワケン,ハクサンシ,ミサカマチ,石川県白山市三坂町
9202362,石川県,白山市,別宮町,イシカワケン,ハクサンシ,ベツクマチ,石川県白山市別宮町
9202363,石川県,白山市,別宮出町,イシカワケン,ハクサンシ,ベツクデマチ,石川県白山市別宮出町
9202364,石川県,白山市,杉森町,イシカワケン,ハクサンシ,スギモリマチ,石川県白山市杉森町
9202365,石川県,白山市,神子清水町,イシカワケン,ハクサンシ,ミコシミズマチ,石川県白山市神子清水町
9202366,石川県,白山市,渡津町,イシカワケン,ハクサンシ,ワタヅマチ,石川県白山市渡津町
9202367,石川県,白山市,相滝町,イシカワケン,ハクサンシ,アイタキマチ,石川県白山市相滝町
9202368,石川県,白山市,出合町,イシカワケン,ハクサンシ,デアイマチ,石川県白山市出合町
9202371,石川県,白山市,広瀬町,イシカワケン,ハクサンシ,ヒロセマチ,石川県白山市広瀬町
9202372,石川県,白山市,瀬木野町,イシカワケン,ハクサンシ,セギノマチ,石川県白山市瀬木野町
9202373,石川県,白山市,河合町,イシカワケン,ハクサンシ,カワイマチ,石川県白山市河合町
9202374,石川県,白山市,下野町,イシカワケン,ハクサンシ,シモノマチ,石川県白山市下野町
9202375,石川県,白山市,上野町,イシカワケン,ハクサンシ,カミノマチ,石川県白山市上野町
9202376,石川県,白山市,若原町,イシカワケン,ハクサンシ,ワカバラマチ,石川県白山市若原町
9202501,石川県,白山市,白峰,イシカワケン,ハクサンシ,シラミネ,石川県白山市白峰
9202502,石川県,白山市,桑島,イシカワケン,ハクサンシ,クワジマ,石川県白山市桑島
9202503,石川県,白山市,下田原,イシカワケン,ハクサンシ,シモタワラ,石川県白山市下田原
9203101,石川県,金沢市,才田町,イシカワケン,カナザワシ,サイダマチ,石川県金沢市才田町
9203102,石川県,金沢市,忠縄町,イシカワケン,カナザワシ,タダナワマチ,石川県金沢市忠縄町
9203103,石川県,金沢市,湖陽,イシカワケン,カナザワシ,コヨウ,石川県金沢市湖陽
9203104,石川県,金沢市,八田町東,イシカワケン,カナザワシ,ハッタマチヒガシ,石川県金沢市八田町東
9203105,石川県,金沢市,八田町西,イシカワケン,カナザワシ,ハッタマチニシ,石川県金沢市八田町西
9203106,石川県,金沢市,八田町,イシカワケン,カナザワシ,ハッタマチ,石川県金沢市八田町
9203107,石川県,金沢市,湖南町,イシカワケン,カナザワシ,コナンマチ,石川県金沢市湖南町
9203111,石川県,金沢市,梅田町,イシカワケン,カナザワシ,ウメダマチ,石川県金沢市梅田町
9203112,石川県,金沢市,観法寺町,イシカワケン,カナザワシ,カンポウジマチ,石川県金沢市観法寺町
9203113,石川県,金沢市,塚崎町,イシカワケン,カナザワシ,ツカザキマチ,石川県金沢市塚崎町
9203114,石川県,金沢市,吉原町,イシカワケン,カナザワシ,ヨシワラマチ,石川県金沢市吉原町
9203115,石川県,金沢市,弥勒町,イシカワケン,カナザワシ,ミロクマチ,石川県金沢市弥勒町
9203116,石川県,金沢市,南森本町,イシカワケン,カナザワシ,ミナミモリモトマチ,石川県金沢市南森本町
9203117,石川県,金沢市,北森本町,イシカワケン,カナザワシ,キタモリモトマチ,石川県金沢市北森本町
9203121,石川県,金沢市,大場町,イシカワケン,カナザワシ,オオバマチ,石川県金沢市大場町
9203122,石川県,金沢市,福久町,イシカワケン,カナザワシ,フクヒサマチ,石川県金沢市福久町
9203123,石川県,金沢市,福久東,イシカワケン,カナザワシ,フクヒサヒガシ,石川県金沢市福久東
9203124,石川県,金沢市,荒屋,イシカワケン,カナザワシ,アラヤ,石川県金沢市荒屋
9203125,石川県,金沢市,荒屋町,イシカワケン,カナザワシ,アラヤマチ,石川県金沢市荒屋町
9203126,石川県,金沢市,福久,イシカワケン,カナザワシ,フクヒサ,石川県金沢市福久
9203131,石川県,金沢市,百坂町,イシカワケン,カナザワシ,モモサカマチ,石川県金沢市百坂町
9203132,石川県,金沢市,法光寺町,イシカワケン,カナザワシ,ホウコウジマチ,石川県金沢市法光寺町
9203133,石川県,金沢市,柳橋町,イシカワケン,カナザワシ,ヤナギバシマチ,石川県金沢市柳橋町
9203134,石川県,金沢市,金市町,イシカワケン,カナザワシ,カナイチマチ,石川県金沢市金市町
9203135,石川県,金沢市,横枕町,イシカワケン,カナザワシ,ヨコマクラマチ,石川県金沢市横枕町
9208201,石川県,金沢市,鞍月東,イシカワケン,カナザワシ,クラツキヒガシ,石川県金沢市鞍月東
9208202,石川県,金沢市,西都,イシカワケン,カナザワシ,セイト,石川県金沢市西都
9208203,石川県,金沢市,鞍月,イシカワケン,カナザワシ,クラツキ,石川県金沢市鞍月
9208204,石川県,金沢市,戸水,イシカワケン,カナザワシ,トミズ,石川県金沢市戸水
9208205,石川県,金沢市,大友,イシカワケン,カナザワシ,オオトモ,石川県金沢市大友
9208213,石川県,金沢市,直江東,イシカワケン,カナザワシ,ナオエヒガシ,石川県金沢市直江東
9208214,石川県,金沢市,直江南,イシカワケン,カナザワシ,ナオエミナミ,石川県金沢市直江南
9208215,石川県,金沢市,直江西,イシカワケン,カナザワシ,ナオエニシ,石川県金沢市直江西
9208216,石川県,金沢市,直江町,イシカワケン,カナザワシ,ナオエマチ,石川県金沢市直江町
9208217,石川県,金沢市,近岡町,イシカワケン,カナザワシ,チカオカマチ,石川県金沢市近岡町
9208218,石川県,金沢市,直江北,イシカワケン,カナザワシ,ナオエキタ,石川県金沢市直江北
9208221,石川県,金沢市,御供田町,イシカワケン,カナザワシ,ゴクデンマチ,石川県金沢市御供田町
9208222,石川県,金沢市,大友町,イシカワケン,カナザワシ,オオトモマチ,石川県金沢市大友町
9210000,石川県,野々市市,,イシカワケン,ノノイチシ,,石川県野々市市
9218001,石川県,金沢市,高畠,イシカワケン,カナザワシ,タカバタケ,石川県金沢市高畠
9218002,石川県,金沢市,玉鉾,イシカワケン,カナザワシ,タマボコ,石川県金沢市玉鉾
9218003,石川県,金沢市,玉鉾町,イシカワケン,カナザワシ,タマボコマチ,石川県金沢市玉鉾町
9218004,石川県,金沢市,米丸町,イシカワケン,カナザワシ,ヨネマルマチ,石川県金沢市米丸町
9218005,石川県,金沢市,間明町,イシカワケン,カナザワシ,マギラマチ,石川県金沢市間明町
9218006,石川県,金沢市,進和町,イシカワケン,カナザワシ,シンワマチ,石川県金沢市進和町
9218011,石川県,金沢市,入江,イシカワケン,カナザワシ,イリエ,石川県金沢市入江
9218012,石川県,金沢市,本江町,イシカワケン,カナザワシ,モトエチョウ,石川県金沢市本江町
9218013,石川県,金沢市,新神田,イシカワケン,カナザワシ,シンカンダ,石川県金沢市新神田
9218014,石川県,金沢市,糸田,イシカワケン,カナザワシ,イトダ,石川県金沢市糸田
9218015,石川県,金沢市,東力,イシカワケン,カナザワシ,トウリキ,石川県金沢市東力
9218016,石川県,金沢市,東力町,イシカワケン,カナザワシ,トウリキマチ,石川県金沢市東力町
9218021,石川県,金沢市,御影町,イシカワケン,カナザワシ,ミカゲマチ,石川県金沢市御影町
9218022,石川県,金沢市,中村町,イシカワケン,カナザワシ,ナカムラマチ,石川県金沢市中村町
9218023,石川県,金沢市,千日町,イシカワケン,カナザワシ,センニチマチ,石川県金沢市千日町
9218024,石川県,金沢市,白菊町,イシカワケン,カナザワシ,シラギクチョウ,石川県金沢市白菊町
9218025,石川県,金沢市,増泉,イシカワケン,カナザワシ,マスイズミ,石川県金沢市増泉
9218026,石川県,金沢市,糸田新町,イシカワケン,カナザワシ,イトダシンマチ,石川県金沢市糸田新町
9218027,石川県,金沢市,神田,イシカワケン,カナザワシ,カンダ,石川県金沢市神田
9218031,石川県,金沢市,野町,イシカワケン,カナザワシ,ノマチ,石川県金沢市野町
9218032,石川県,金沢市,清川町,イシカワケン,カナザワシ,キヨカワマチ,石川県金沢市清川町
9218033,石川県,金沢市,寺町,イシカワケン,カナザワシ,テラマチ,石川県金沢市寺町
9218034,石川県,金沢市,泉野町,イシカワケン,カナザワシ,イズミノマチ,石川県金沢市泉野町
9218035,石川県,金沢市,泉が丘,イシカワケン,カナザワシ,イズミガオカ,石川県金沢市泉が丘
9218036,石川県,金沢市,弥生,イシカワケン,カナザワシ,ヤヨイ,石川県金沢市弥生
9218041,石川県,金沢市,泉,イシカワケン,カナザワシ,イズミ,石川県金沢市泉
9218042,石川県,金沢市,泉本町,イシカワケン,カナザワシ,イズミホンマチ,石川県金沢市泉本町
9218043,石川県,金沢市,西泉,イシカワケン,カナザワシ,ニシイズミ,石川県金沢市西泉
9218044,石川県,金沢市,米泉町,イシカワケン,カナザワシ,ヨナイズミマチ,石川県金沢市米泉町
9218045,石川県,金沢市,大桑,イシカワケン,カナザワシ,オオクワ,石川県金沢市大桑
9218046,石川県,金沢市,三小牛町（ヘ）,イシカワケン,カナザワシ,ミツコウジマチ(ヘ),石川県金沢市三小牛町（ヘ）
9218046,石川県,金沢市,大桑町（ア、イ、ヰ、ウ、上野、ヲ、オ乙、鐘搗山、上川原、上猫下、,イシカワケン,カナザワシ,オオクワマチ(ア、イ、イ、ウ、ウエノ、オ、オオツ、カネツキヤマ、カミカワラ、カミネコシタ、,石川県金沢市大桑町（ア、イ、ヰ、ウ、上野、ヲ、オ乙、鐘搗山、上川原、上猫下、
9218047,石川県,金沢市,大豆田本町（ハ、ロ）,イシカワケン,カナザワシ,マメダホンマチ(ハ、ロ),石川県金沢市大豆田本町（ハ、ロ）
9218051,石川県,金沢市,黒田,イシカワケン,カナザワシ,クロダ,石川県金沢市黒田
9218052,石川県,金沢市,保古,イシカワケン,カナザワシ,ホゴ,石川県金沢市保古
9218053,石川県,金沢市,保古町,イシカワケン,カナザワシ,ホゴマチ,石川県金沢市保古町
9218054,石川県,金沢市,西金沢,イシカワケン,カナザワシ,ニシカナザワ,石川県金沢市西金沢
9218055,石川県,金沢市,西金沢新町,イシカワケン,カナザワシ,ニシカナザワシンマチ,石川県金沢市西金沢新町
9218056,石川県,金沢市,押野,イシカワケン,カナザワシ,オシノ,石川県金沢市押野
9218061,石川県,金沢市,森戸,イシカワケン,カナザワシ,モリト,石川県金沢市森戸
9218062,石川県,金沢市,新保本,イシカワケン,カナザワシ,シンボホン,石川県金沢市新保本
9218063,石川県,金沢市,八日市出町,イシカワケン,カナザワシ,ヨウカイチデマチ,石川県金沢市八日市出町
9218064,石川県,金沢市,八日市,イシカワケン,カナザワシ,ヨウカイチ,石川県金沢市八日市
9218065,石川県,金沢市,上荒屋,イシカワケン,カナザワシ,カミアラヤ,石川県金沢市上荒屋
9218066,石川県,金沢市,矢木,イシカワケン,カナザワシ,ヤギ,石川県金沢市矢木
9218101,石川県,金沢市,法島町,イシカワケン,カナザワシ,ホウシママチ,石川県金沢市法島町
9218102,石川県,金沢市,西大桑町,イシカワケン,カナザワシ,ニシオオクワマチ,石川県金沢市西大桑町
9218103,石川県,金沢市,つつじが丘,イシカワケン,カナザワシ,ツツジガオカ,石川県金沢市つつじが丘
9218104,石川県,金沢市,野田町,イシカワケン,カナザワシ,ノダマチ,石川県金沢市野田町
9218105,石川県,金沢市,平和町,イシカワケン,カナザワシ,ヘイワマチ,石川県金沢市平和町
9218106,石川県,金沢市,十一屋町,イシカワケン,カナザワシ,ジュウイチヤマチ,石川県金沢市十一屋町
9218107,石川県,金沢市,野田,イシカワケン,カナザワシ,ノダ,石川県金沢市野田
9218111,石川県,金沢市,若草町,イシカワケン,カナザワシ,ワカクサマチ,石川県金沢市若草町
9218112,石川県,金沢市,長坂,イシカワケン,カナザワシ,ナガサカ,石川県金沢市長坂
9218114,石川県,金沢市,長坂町,イシカワケン,カナザワシ,ナガサカマチ,石川県金沢市長坂町
9218115,石川県,金沢市,長坂台,イシカワケン,カナザワシ,ナガサカダイ,石川県金沢市長坂台
9218116,石川県,金沢市,泉野出町,イシカワケン,カナザワシ,イズミノデマチ,石川県金沢市泉野出町
9218117,石川県,金沢市,緑が丘,イシカワケン,カナザワシ,ミドリガオカ,石川県金沢市緑が丘
9218121,石川県,金沢市,平栗,イシカワケン,カナザワシ,ヒラグリ,石川県金沢市平栗
9218122,石川県,金沢市,清瀬町,イシカワケン,カナザワシ,キヨセマチ,石川県金沢市清瀬町
9218123,石川県,金沢市,坪野町,イシカワケン,カナザワシ,ツボノマチ,石川県金沢市坪野町
9218124,石川県,金沢市,倉ケ嶽,イシカワケン,カナザワシ,クラガタケ,石川県金沢市倉ケ嶽
9218131,石川県,金沢市,三十苅町,イシカワケン,カナザワシ,サンジュウガリマチ,石川県金沢市三十苅町
9218132,石川県,金沢市,しじま台,イシカワケン,カナザワシ,シジマダイ,石川県金沢市しじま台
9218133,石川県,金沢市,四十万町,イシカワケン,カナザワシ,シジママチ,石川県金沢市四十万町
9218134,石川県,金沢市,南四十万,イシカワケン,カナザワシ,ミナミシジマ,石川県金沢市南四十万
9218135,石川県,金沢市,四十万,イシカワケン,カナザワシ,シジマ,石川県金沢市四十万
9218141,石川県,金沢市,馬替,イシカワケン,カナザワシ,マガエ,石川県金沢市馬替
9218142,石川県,金沢市,光が丘,イシカワケン,カナザワシ,ヒカリガオカ,石川県金沢市光が丘
9218143,石川県,金沢市,大額町,イシカワケン,カナザワシ,オオヌカマチ,石川県金沢市大額町
9218144,石川県,金沢市,額谷町,イシカワケン,カナザワシ,ヌカダニマチ,石川県金沢市額谷町
9218145,石川県,金沢市,額谷,イシカワケン,カナザワシ,ヌカダニ,石川県金沢市額谷
9218146,石川県,金沢市,額乙丸町,イシカワケン,カナザワシ,ヌカオトマルマチ,石川県金沢市額乙丸町
9218147,石川県,金沢市,大額,イシカワケン,カナザワシ,オオヌカ,石川県金沢市大額
9218148,石川県,金沢市,額新保,イシカワケン,カナザワシ,ヌカシンボ,石川県金沢市額新保
9218149,石川県,金沢市,額新町,イシカワケン,カナザワシ,ヌカシンマチ,石川県金沢市額新町
9218151,石川県,金沢市,窪,イシカワケン,カナザワシ,クボ,石川県金沢市窪
9218152,石川県,金沢市,高尾,イシカワケン,カナザワシ,タカオ,石川県金沢市高尾
9218153,石川県,金沢市,高尾町,イシカワケン,カナザワシ,タカオマチ,石川県金沢市高尾町
9218154,石川県,金沢市,高尾南,イシカワケン,カナザワシ,タカオミナミ,石川県金沢市高尾南
9218155,石川県,金沢市,高尾台,イシカワケン,カナザワシ,タカオダイ,石川県金沢市高尾台
9218161,石川県,金沢市,有松,イシカワケン,カナザワシ,アリマツ,石川県金沢市有松
9218162,石川県,金沢市,三馬,イシカワケン,カナザワシ,ミンマ,石川県金沢市三馬
9218163,石川県,金沢市,横川,イシカワケン,カナザワシ,ヨコガワ,石川県金沢市横川
9218164,石川県,金沢市,久安,イシカワケン,カナザワシ,ヒサヤス,石川県金沢市久安
9218171,石川県,金沢市,富樫,イシカワケン,カナザワシ,トガシ,石川県金沢市富樫
9218172,石川県,金沢市,伏見新町,イシカワケン,カナザワシ,フシミシンマチ,石川県金沢市伏見新町
9218173,石川県,金沢市,円光寺,イシカワケン,カナザワシ,エンコウジ,石川県金沢市円光寺
9218174,石川県,金沢市,山科町,イシカワケン,カナザワシ,ヤマシナマチ,石川県金沢市山科町
9218175,石川県,金沢市,山科,イシカワケン,カナザワシ,ヤマシナ,石川県金沢市山科
9218176,石川県,金沢市,円光寺本町,イシカワケン,カナザワシ,エンコウジホンマチ,石川県金沢市円光寺本町
9218177,石川県,金沢市,伏見台,イシカワケン,カナザワシ,フシミダイ,石川県金沢市伏見台
9218178,石川県,金沢市,寺地,イシカワケン,カナザワシ,テラジ,石川県金沢市寺地
9218801,石川県,野々市市,御経塚,イシカワケン,ノノイチシ,オキョウヅカ,石川県野々市市御経塚
9218802,石川県,野々市市,押野,イシカワケン,ノノイチシ,オシノ,石川県野々市市押野
9218803,石川県,野々市市,押越,イシカワケン,ノノイチシ,オシコシ,石川県野々市市押越
9218804,石川県,野々市市,野代,イシカワケン,ノノイチシ,ノシロ,石川県野々市市野代
9218805,石川県,野々市市,稲荷,イシカワケン,ノノイチシ,イナリ,石川県野々市市稲荷
9218806,石川県,野々市市,三日市,イシカワケン,ノノイチシ,ミッカイチ,石川県野々市市三日市
9218807,石川県,野々市市,二日市町,イシカワケン,ノノイチシ,フツカイチマチ,石川県野々市市二日市町
9218808,石川県,野々市市,長池,イシカワケン,ノノイチシ,ナガイケ,石川県野々市市長池
9218809,石川県,野々市市,二日市,イシカワケン,ノノイチシ,フツカイチ,石川県野々市市二日市
9218811,石川県,野々市市,高橋町,イシカワケン,ノノイチシ,タカハシマチ,石川県野々市市高橋町
9218812,石川県,野々市市,扇が丘,イシカワケン,ノノイチシ,オウギガオカ,石川県野々市市扇が丘
9218813,石川県,野々市市,住吉町,イシカワケン,ノノイチシ,スミヨシマチ,石川県野々市市住吉町
9218814,石川県,野々市市,菅原町,イシカワケン,ノノイチシ,スガハラマチ,石川県野々市市菅原町
9218815,石川県,野々市市,本町,イシカワケン,ノノイチシ,ホンマチ,石川県野々市市本町
9218816,石川県,野々市市,若松町,イシカワケン,ノノイチシ,ワカマツマチ,石川県野々市市若松町
9218817,石川県,野々市市,横宮町,イシカワケン,ノノイチシ,ヨコミヤマチ,石川県野々市市横宮町
9218821,石川県,野々市市,白山町,イシカワケン,ノノイチシ,ハクサンマチ,石川県野々市市白山町
9218822,石川県,野々市市,矢作,イシカワケン,ノノイチシ,ヤハギ,石川県野々市市矢作
9218823,石川県,野々市市,粟田,イシカワケン,ノノイチシ,アワダ,石川県野々市市粟田
9218824,石川県,野々市市,新庄,イシカワケン,ノノイチシ,シンジョウ,石川県野々市市新庄
9218825,石川県,野々市市,三納,イシカワケン,ノノイチシ,サンノ,石川県野々市市三納
9218831,石川県,野々市市,下林,イシカワケン,ノノイチシ,シモバヤシ,石川県野々市市下林
9218832,石川県,野々市市,藤平田,イシカワケン,ノノイチシ,トヘイダ,石川県野々市市藤平田
9218833,石川県,野々市市,藤平,イシカワケン,ノノイチシ,フジヒラ,石川県野々市市藤平
9218834,石川県,野々市市,中林,イシカワケン,ノノイチシ,ナカバヤシ,石川県野々市市中林
9218835,石川県,野々市市,上林,イシカワケン,ノノイチシ,カンバヤシ,石川県野々市市上林
9218836,石川県,野々市市,末松,イシカワケン,ノノイチシ,スエマツ,石川県野々市市末松
9218837,石川県,野々市市,清金,イシカワケン,ノノイチシ,キヨカネ,石川県野々市市清金
9218841,石川県,野々市市,郷町,イシカワケン,ノノイチシ,ゴウマチ,石川県野々市市郷町
9218842,石川県,野々市市,徳用,イシカワケン,ノノイチシ,トクモト,石川県野々市市徳用
9218843,石川県,野々市市,田尻町,イシカワケン,ノノイチシ,タノシリマチ,石川県野々市市田尻町
9218844,石川県,野々市市,堀内,イシカワケン,ノノイチシ,ホリウチ,石川県野々市市堀内
9218845,石川県,野々市市,太平寺,イシカワケン,ノノイチシ,タヘイジ,石川県野々市市太平寺
9218846,石川県,野々市市,位川,イシカワケン,ノノイチシ,クライガワ,石川県野々市市位川
9218847,石川県,野々市市,蓮花寺町,イシカワケン,ノノイチシ,レンゲジマチ,石川県野々市市蓮花寺町
9218848,石川県,野々市市,柳町,イシカワケン,ノノイチシ,ヤナギマチ,石川県野々市市柳町
9218849,石川県,野々市市,郷,イシカワケン,ノノイチシ,ゴウ,石川県野々市市郷
9220000,石川県,加賀市,,イシカワケン,カガシ,,石川県加賀市
9220001,石川県,加賀市,大聖寺上木町,イシカワケン,カガシ,ダイショウジウワギマチ,石川県加賀市大聖寺上木町
9220002,石川県,加賀市,大聖寺下福田町,イシカワケン,カガシ,ダイショウジシモフクダマチ,石川県加賀市大聖寺下福田町
9220003,石川県,加賀市,大聖寺荻生町,イシカワケン,カガシ,ダイショウジオギュウマチ,石川県加賀市大聖寺荻生町
9220004,石川県,加賀市,大聖寺上福田町,イシカワケン,カガシ,ダイショウジカミフクダマチ,石川県加賀市大聖寺上福田町
9220004,石川県,加賀市,大聖寺新川町,イシカワケン,カガシ,ダイショウジシンカワマチ,石川県加賀市大聖寺新川町
9220004,石川県,加賀市,大聖寺朝日町,イシカワケン,カガシ,ダイショウジアサヒマチ,石川県加賀市大聖寺朝日町
9220004,石川県,加賀市,大聖寺松島町,イシカワケン,カガシ,ダイショウジマツシママチ,石川県加賀市大聖寺松島町
9220004,石川県,加賀市,大聖寺畑山町,イシカワケン,カガシ,ダイショウジハタヤママチ,石川県加賀市大聖寺畑山町
9220004,石川県,加賀市,大聖寺畑町,イシカワケン,カガシ,ダイショウジハタマチ,石川県加賀市大聖寺畑町
9220004,石川県,加賀市,豊町（ハ）,イシカワケン,カガシ,ユタカマチ(ハ),石川県加賀市豊町（ハ）
9220005,石川県,加賀市,大聖寺岡町,イシカワケン,カガシ,ダイショウジオカマチ,石川県加賀市大聖寺岡町
9220006,石川県,加賀市,大聖寺藤ノ木町,イシカワケン,カガシ,ダイショウジフジノキマチ,石川県加賀市大聖寺藤ノ木町
9220007,石川県,加賀市,大聖寺天神下町,イシカワケン,カガシ,ダイショウジテンジンシタマチ,石川県加賀市大聖寺天神下町
9220011,石川県,加賀市,大聖寺平床,イシカワケン,カガシ,ダイショウジヒラトコ,石川県加賀市大聖寺平床
9220011,石川県,加賀市,大聖寺敷地,イシカワケン,カガシ,ダイショウジシキジ,石川県加賀市大聖寺敷地
9220011,石川県,加賀市,大聖寺春日町,イシカワケン,カガシ,ダイショウジカスガチョウ,石川県加賀市大聖寺春日町
9220011,石川県,加賀市,大聖寺東敷地町,イシカワケン,カガシ,ダイショウジヒガシシキジマチ,石川県加賀市大聖寺東敷地町
9220012,石川県,加賀市,下河崎町,イシカワケン,カガシ,シモカワサキマチ,石川県加賀市下河崎町
9220013,石川県,加賀市,上河崎町,イシカワケン,カガシ,カミカワサキマチ,石川県加賀市上河崎町
9220014,石川県,加賀市,中代町,イシカワケン,カガシ,ナカダイマチ,石川県加賀市中代町
9220015,石川県,加賀市,保賀町,イシカワケン,カガシ,ホウガマチ,石川県加賀市保賀町
9220021,石川県,加賀市,大聖寺新栄町,イシカワケン,カガシ,ダイショウジシンサカエマチ,石川県加賀市大聖寺新栄町
9220022,石川県,加賀市,大聖寺曙町,イシカワケン,カガシ,ダイショウジアケボノチョウ,石川県加賀市大聖寺曙町
9220023,石川県,加賀市,大聖寺大名竹町,イシカワケン,カガシ,ダイショウジダイミョウダケマチ,石川県加賀市大聖寺大名竹町
9220024,石川県,加賀市,大聖寺永町,イシカワケン,カガシ,ダイショウジナガマチ,石川県加賀市大聖寺永町
9220025,石川県,加賀市,大聖寺耳聞山仲町,イシカワケン,カガシ,ダイショウジミミキヤマナカチョウ,石川県加賀市大聖寺耳聞山仲町
9220026,石川県,加賀市,大聖寺亀町,イシカワケン,カガシ,ダイショウジガメチョウ,石川県加賀市大聖寺亀町
9220027,石川県,加賀市,大聖寺耳聞山町,イシカワケン,カガシ,ダイショウジミミキヤママチ,石川県加賀市大聖寺耳聞山町
9220028,石川県,加賀市,大聖寺麻畠町,イシカワケン,カガシ,ダイショウジアサバタケマチ,石川県加賀市大聖寺麻畠町
9220031,石川県,加賀市,大聖寺木呂場町,イシカワケン,カガシ,ダイショウジコロバマチ,石川県加賀市大聖寺木呂場町
9220032,石川県,加賀市,大聖寺金子町,イシカワケン,カガシ,ダイショウジカネコマチ,石川県加賀市大聖寺金子町
9220033,石川県,加賀市,大聖寺法華坊町,イシカワケン,カガシ,ダイショウジホッケボウマチ,石川県加賀市大聖寺法華坊町
9220034,石川県,加賀市,大聖寺荒町,イシカワケン,カガシ,ダイショウジアラマチ,石川県加賀市大聖寺荒町
9220035,石川県,加賀市,大聖寺鉄砲町,イシカワケン,カガシ,ダイショウジテッポウマチ,石川県加賀市大聖寺鉄砲町
9220036,石川県,加賀市,大聖寺一本橋町,イシカワケン,カガシ,ダイショウジイッポンバシマチ,石川県加賀市大聖寺一本橋町
9220037,石川県,加賀市,大聖寺鍛冶町,イシカワケン,カガシ,ダイショウジカジマチ,石川県加賀市大聖寺鍛冶町
9220038,石川県,加賀市,大聖寺山田町,イシカワケン,カガシ,ダイショウジヤマダマチ,石川県加賀市大聖寺山田町
9220041,石川県,加賀市,大聖寺本町,イシカワケン,カガシ,ダイショウジホンマチ,石川県加賀市大聖寺本町
9220042,石川県,加賀市,大聖寺魚町,イシカワケン,カガシ,ダイショウジウオマチ,石川県加賀市大聖寺魚町
9220043,石川県,加賀市,大聖寺五軒町,イシカワケン,カガシ,ダイショウジゴケンチョウ,石川県加賀市大聖寺五軒町
9220044,石川県,加賀市,大聖寺東横町,イシカワケン,カガシ,ダイショウジヒガシヨコマチ,石川県加賀市大聖寺東横町
9220045,石川県,加賀市,大聖寺十一町,イシカワケン,カガシ,ダイショウジジュウイチマチ,石川県加賀市大聖寺十一町
9220046,石川県,加賀市,大聖寺観音町,イシカワケン,カガシ,ダイショウジカンノンマチ,石川県加賀市大聖寺観音町
9220047,石川県,加賀市,大聖寺中町,イシカワケン,カガシ,ダイショウジナカマチ,石川県加賀市大聖寺中町
9220048,石川県,加賀市,大聖寺馬場町,イシカワケン,カガシ,ダイショウジババマチ,石川県加賀市大聖寺馬場町
9220051,石川県,加賀市,大聖寺仲町,イシカワケン,カガシ,ダイショウジナカチョウ,石川県加賀市大聖寺仲町
9220052,石川県,加賀市,大聖寺福田町,イシカワケン,カガシ,ダイショウジフクダマチ,石川県加賀市大聖寺福田町
9220053,石川県,加賀市,大聖寺鷹匠町,イシカワケン,カガシ,ダイショウジタカジョウマチ,石川県加賀市大聖寺鷹匠町
9220054,石川県,加賀市,大聖寺寺町,イシカワケン,カガシ,ダイショウジテラマチ,石川県加賀市大聖寺寺町
9220055,石川県,加賀市,大聖寺京町,イシカワケン,カガシ,ダイショウジキョウマチ,石川県加賀市大聖寺京町
9220056,石川県,加賀市,大聖寺片原町,イシカワケン,カガシ,ダイショウジカタハラマチ,石川県加賀市大聖寺片原町
9220057,石川県,加賀市,大聖寺八間道,イシカワケン,カガシ,ダイショウジハチケンミチ,石川県加賀市大聖寺八間道
9220061,石川県,加賀市,大聖寺相生町,イシカワケン,カガシ,ダイショウジアイオイチョウ,石川県加賀市大聖寺相生町
9220062,石川県,加賀市,大聖寺松ケ根町,イシカワケン,カガシ,ダイショウジマツガネチョウ,石川県加賀市大聖寺松ケ根町
9220063,石川県,加賀市,大聖寺新町,イシカワケン,カガシ,ダイショウジシンチョウ,石川県加賀市大聖寺新町
9220064,石川県,加賀市,大聖寺北片原町,イシカワケン,カガシ,ダイショウジキタカタハラマチ,石川県加賀市大聖寺北片原町
9220065,石川県,加賀市,大聖寺新旗陽町,イシカワケン,カガシ,ダイショウジシンキヨウマチ,石川県加賀市大聖寺新旗陽町
9220066,石川県,加賀市,大聖寺殿町,イシカワケン,カガシ,ダイショウジトノマチ,石川県加賀市大聖寺殿町
9220067,石川県,加賀市,大聖寺番場町,イシカワケン,カガシ,ダイショウジバンバチョウ,石川県加賀市大聖寺番場町
9220068,石川県,加賀市,大聖寺新組町,イシカワケン,カガシ,ダイショウジシンクミチョウ,石川県加賀市大聖寺新組町
9220101,石川県,加賀市,山中温泉中田町,イシカワケン,カガシ,ヤマナカオンセンナカダマチ,石川県加賀市山中温泉中田町
9220101,石川県,加賀市,山中温泉二天町,イシカワケン,カガシ,ヤマナカオンセンニテンマチ,石川県加賀市山中温泉二天町
9220102,石川県,加賀市,山中温泉長谷田町（日の出団地）,イシカワケン,カガシ,ヤマナカオンセンハセダマチ(ヒノデダンチ),石川県加賀市山中温泉長谷田町（日の出団地）
9220103,石川県,加賀市,山中温泉長谷田町（その他）,イシカワケン,カガシ,ヤマナカオンセンハセダマチ(ソノタ),石川県加賀市山中温泉長谷田町（その他）
9220104,石川県,加賀市,山中温泉旭町,イシカワケン,カガシ,ヤマナカオンセンアサヒマチ,石川県加賀市山中温泉旭町
9220105,石川県,加賀市,山中温泉泉町,イシカワケン,カガシ,ヤマナカオンセンイズミマチ,石川県加賀市山中温泉泉町
9220106,石川県,加賀市,山中温泉上原町（その他）,イシカワケン,カガシ,ヤマナカオンセンウワバラマチ(ソノタ),石川県加賀市山中温泉上原町（その他）
9220107,石川県,加賀市,山中温泉上原町（漆器団地）,イシカワケン,カガシ,ヤマナカオンセンウワバラマチ(シツキダンチ),石川県加賀市山中温泉上原町（漆器団地）
9220108,石川県,加賀市,山中温泉上原町（しらさぎ団地）,イシカワケン,カガシ,ヤマナカオンセンウワバラマチ(シラサギダンチ),石川県加賀市山中温泉上原町（しらさぎ団地）
9220109,石川県,加賀市,山中温泉宮の杜,イシカワケン,カガシ,ヤマナカオンセンミヤノモリ,石川県加賀市山中温泉宮の杜
9220111,石川県,加賀市,山中温泉塚谷町,イシカワケン,カガシ,ヤマナカオンセンツカタニマチ,石川県加賀市山中温泉塚谷町
9220112,石川県,加賀市,山中温泉西桂木町,イシカワケン,カガシ,ヤマナカオンセンニシカツラギマチ,石川県加賀市山中温泉西桂木町
9220113,石川県,加賀市,山中温泉東桂木町,イシカワケン,カガシ,ヤマナカオンセンヒガシカツラギマチ,石川県加賀市山中温泉東桂木町
9220114,石川県,加賀市,山中温泉東町,イシカワケン,カガシ,ヤマナカオンセンヒガシマチ,石川県加賀市山中温泉東町
9220115,石川県,加賀市,山中温泉本町,イシカワケン,カガシ,ヤマナカオンセンホンマチ,石川県加賀市山中温泉本町
9220116,石川県,加賀市,山中温泉白山町,イシカワケン,カガシ,ヤマナカオンセンハクサンマチ,石川県加賀市山中温泉白山町
9220117,石川県,加賀市,山中温泉上野町（その他）,イシカワケン,カガシ,ヤマナカオンセンウエノマチ(ソノタ),石川県加賀市山中温泉上野町（その他）
9220117,石川県,加賀市,山中温泉上野町（緑ケ丘）,イシカワケン,カガシ,ヤマナカオンセンウエノマチ(ミドリガオカ),石川県加賀市山中温泉上野町（緑ケ丘）
9220118,石川県,加賀市,山中温泉加美谷台,イシカワケン,カガシ,ヤマナカオンセンカミヤダイ,石川県加賀市山中温泉加美谷台
9220121,石川県,加賀市,山中温泉富士見町,イシカワケン,カガシ,ヤマナカオンセンフジミマチ,石川県加賀市山中温泉富士見町
9220122,石川県,加賀市,山中温泉湯の本町,イシカワケン,カガシ,ヤマナカオンセンユノホンマチ,石川県加賀市山中温泉湯の本町
9220123,石川県,加賀市,山中温泉薬師町,イシカワケン,カガシ,ヤマナカオンセンヤクシマチ,石川県加賀市山中温泉薬師町
9220124,石川県,加賀市,山中温泉湯の出町,イシカワケン,カガシ,ヤマナカオンセンユノデマチ,石川県加賀市山中温泉湯の出町
9220125,石川県,加賀市,山中温泉栄町,イシカワケン,カガシ,ヤマナカオンセンサカエマチ,石川県加賀市山中温泉栄町
9220126,石川県,加賀市,山中温泉河鹿町,イシカワケン,カガシ,ヤマナカオンセンカジカマチ,石川県加賀市山中温泉河鹿町
9220127,石川県,加賀市,山中温泉下谷町,イシカワケン,カガシ,ヤマナカオンセンシモタニマチ,石川県加賀市山中温泉下谷町
9220128,石川県,加賀市,山中温泉こおろぎ町,イシカワケン,カガシ,ヤマナカオンセンコオロギマチ,石川県加賀市山中温泉こおろぎ町
9220129,石川県,加賀市,山中温泉南町,イシカワケン,カガシ,ヤマナカオンセンミナミマチ,石川県加賀市山中温泉南町
9220131,石川県,加賀市,山中温泉四十九院町,イシカワケン,カガシ,ヤマナカオンセンシジュウクインマチ,石川県加賀市山中温泉四十九院町
9220132,石川県,加賀市,山中温泉中津原町,イシカワケン,カガシ,ヤマナカオンセンナカツハラマチ,石川県加賀市山中温泉中津原町
9220133,石川県,加賀市,山中温泉滝町,イシカワケン,カガシ,ヤマナカオンセンタキマチ,石川県加賀市山中温泉滝町
9220134,石川県,加賀市,山中温泉荒谷町,イシカワケン,カガシ,ヤマナカオンセンアラタニマチ,石川県加賀市山中温泉荒谷町
9220134,石川県,加賀市,山中温泉菅生谷町,イシカワケン,カガシ,ヤマナカオンセンスゴウダニマチ,石川県加賀市山中温泉菅生谷町
9220135,石川県,加賀市,山中温泉今立町,イシカワケン,カガシ,ヤマナカオンセンイマダチマチ,石川県加賀市山中温泉今立町
9220135,石川県,加賀市,山中温泉大土町,イシカワケン,カガシ,ヤマナカオンセンオオヅチマチ,石川県加賀市山中温泉大土町
9220136,石川県,加賀市,山中温泉九谷町,イシカワケン,カガシ,ヤマナカオンセンクタニマチ,石川県加賀市山中温泉九谷町
9220136,石川県,加賀市,山中温泉坂下町,イシカワケン,カガシ,ヤマナカオンセンサカノシモマチ,石川県加賀市山中温泉坂下町
9220136,石川県,加賀市,山中温泉杉水町,イシカワケン,カガシ,ヤマナカオンセンスギノミズマチ,石川県加賀市山中温泉杉水町
9220136,石川県,加賀市,山中温泉枯淵町,イシカワケン,カガシ,ヤマナカオンセンカレブチマチ,石川県加賀市山中温泉枯淵町
9220136,石川県,加賀市,山中温泉片谷町,イシカワケン,カガシ,ヤマナカオンセンヘキタニマチ,石川県加賀市山中温泉片谷町
9220136,石川県,加賀市,山中温泉真砂町,イシカワケン,カガシ,ヤマナカオンセンマナゴマチ,石川県加賀市山中温泉真砂町
9220137,石川県,加賀市,山中温泉我谷町,イシカワケン,カガシ,ヤマナカオンセンワガタニマチ,石川県加賀市山中温泉我谷町
9220137,石川県,加賀市,山中温泉風谷町,イシカワケン,カガシ,ヤマナカオンセンカゼタニマチ,石川県加賀市山中温泉風谷町
9220138,石川県,加賀市,山中温泉栢野町,イシカワケン,カガシ,ヤマナカオンセンカヤノマチ,石川県加賀市山中温泉栢野町
9220139,石川県,加賀市,山中温泉菅谷町,イシカワケン,カガシ,ヤマナカオンセンスガタニマチ,石川県加賀市山中温泉菅谷町
9220221,石川県,加賀市,丸山町,イシカワケン,カガシ,マルヤママチ,石川県加賀市丸山町
9220222,石川県,加賀市,上野町（丸山）,イシカワケン,カガシ,ウワノマチ(マルヤマ),石川県加賀市上野町（丸山）
9220241,石川県,加賀市,加茂町,イシカワケン,カガシ,カモマチ,石川県加賀市加茂町
9220242,石川県,加賀市,山代温泉,イシカワケン,カガシ,ヤマシロオンセン,石川県加賀市山代温泉
9220243,石川県,加賀市,山代温泉（北部）,イシカワケン,カガシ,ヤマシロオンセン(ホクブ),石川県加賀市山代温泉（北部）
9220244,石川県,加賀市,山代温泉（神明町）,イシカワケン,カガシ,ヤマシロオンセン(シンメイチョウ),石川県加賀市山代温泉（神明町）
9220245,石川県,加賀市,山代温泉（山背台）,イシカワケン,カガシ,ヤマシロオンセン(ヤマセダイ),石川県加賀市山代温泉（山背台）
9220246,石川県,加賀市,山代温泉（八幡）,イシカワケン,カガシ,ヤマシロオンセン(ハチマン),石川県加賀市山代温泉（八幡）
9220247,石川県,加賀市,山代温泉（上宮）,イシカワケン,カガシ,ヤマシロオンセン(ウワミヤ),石川県加賀市山代温泉（上宮）
9220250,石川県,加賀市,山代温泉桜町,イシカワケン,カガシ,ヤマシロオンセンサクラマチ,石川県加賀市山代温泉桜町
9220251,石川県,加賀市,山代温泉（大和町）,イシカワケン,カガシ,ヤマシロオンセン(ヤマトマチ),石川県加賀市山代温泉（大和町）
9220252,石川県,加賀市,山代温泉（九谷町）,イシカワケン,カガシ,ヤマシロオンセン(クタニマチ),石川県加賀市山代温泉（九谷町）
9220253,石川県,加賀市,山代温泉（東山町）,イシカワケン,カガシ,ヤマシロオンセン(ヒガシヤママチ),石川県加賀市山代温泉（東山町）
9220254,石川県,加賀市,山代温泉（温泉通り）,イシカワケン,カガシ,ヤマシロオンセン(オンセンドオリ),石川県加賀市山代温泉（温泉通り）
9220255,石川県,加賀市,山代温泉（幸町）,イシカワケン,カガシ,ヤマシロオンセン(サイワイチョウ),石川県加賀市山代温泉（幸町）
9220256,石川県,加賀市,山代温泉（万松園通）,イシカワケン,カガシ,ヤマシロオンセン(バンショウエンドオリ),石川県加賀市山代温泉（万松園通）
9220257,石川県,加賀市,山代温泉（桔梗丘）,イシカワケン,カガシ,ヤマシロオンセン(キキョウガオカ),石川県加賀市山代温泉（桔梗丘）
9220258,石川県,加賀市,山代温泉（南町）,イシカワケン,カガシ,ヤマシロオンセン(ミナミチョウ),石川県加賀市山代温泉（南町）
9220261,石川県,加賀市,横北町,イシカワケン,カガシ,ヨコギタマチ,石川県加賀市横北町
9220262,石川県,加賀市,柏野町,イシカワケン,カガシ,カシワノマチ,石川県加賀市柏野町
9220263,石川県,加賀市,塔尾町,イシカワケン,カガシ,トノオマチ,石川県加賀市塔尾町
9220264,石川県,加賀市,須谷町,イシカワケン,カガシ,スダニマチ,石川県加賀市須谷町
9220265,石川県,加賀市,水田丸町,イシカワケン,カガシ,ミズタマルマチ,石川県加賀市水田丸町
9220266,石川県,加賀市,小坂町,イシカワケン,カガシ,コサカマチ,石川県加賀市小坂町
9220267,石川県,加賀市,二ツ屋町,イシカワケン,カガシ,フタツヤマチ,石川県加賀市二ツ屋町
9220271,石川県,加賀市,尾俣町,イシカワケン,カガシ,オマタマチ,石川県加賀市尾俣町
9220273,石川県,加賀市,桂谷町,イシカワケン,カガシ,カツラタニマチ,石川県加賀市桂谷町
9220274,石川県,加賀市,別所町,イシカワケン,カガシ,ベッショマチ,石川県加賀市別所町
9220275,石川県,加賀市,別所町（富士見ケ丘）,イシカワケン,カガシ,ベッショマチ(フジミガオカ),石川県加賀市別所町（富士見ケ丘）
9220276,石川県,加賀市,河南町（淀町）,イシカワケン,カガシ,カワミナミマチ(ヨドマチ),石川県加賀市河南町（淀町）
9220277,石川県,加賀市,河南町,イシカワケン,カガシ,カワミナミマチ,石川県加賀市河南町
9220278,石川県,加賀市,荒木町,イシカワケン,カガシ,アラキマチ,石川県加賀市荒木町
9220301,石川県,加賀市,高塚町,イシカワケン,カガシ,タカツカマチ,石川県加賀市高塚町
9220302,石川県,加賀市,打越町,イシカワケン,カガシ,ウチコシマチ,石川県加賀市打越町
9220303,石川県,加賀市,箱宮町,イシカワケン,カガシ,ハコミヤマチ,石川県加賀市箱宮町
9220304,石川県,加賀市,分校町,イシカワケン,カガシ,ブンギョウマチ,石川県加賀市分校町
9220305,石川県,加賀市,梶井町,イシカワケン,カガシ,カジイマチ,石川県加賀市梶井町
9220306,石川県,加賀市,中島町,イシカワケン,カガシ,ナカジママチ,石川県加賀市中島町
9220307,石川県,加賀市,干拓町,イシカワケン,カガシ,カンタクチョウ,石川県加賀市干拓町
9220311,石川県,加賀市,栄谷町,イシカワケン,カガシ,サカエダニマチ,石川県加賀市栄谷町
9220312,石川県,加賀市,宇谷町,イシカワケン,カガシ,ウダニマチ,石川県加賀市宇谷町
9220313,石川県,加賀市,勅使町,イシカワケン,カガシ,チョクシマチ,石川県加賀市勅使町
9220314,石川県,加賀市,河原町,イシカワケン,カガシ,カワラマチ,石川県加賀市河原町
9220315,石川県,加賀市,清水町,イシカワケン,カガシ,シミズマチ,石川県加賀市清水町
9220316,石川県,加賀市,松山町,イシカワケン,カガシ,マツヤママチ,石川県加賀市松山町
9220321,石川県,加賀市,森町,イシカワケン,カガシ,モリマチ,石川県加賀市森町
9220322,石川県,加賀市,上野町（その他）,イシカワケン,カガシ,ウワノマチ(ソノタ),石川県加賀市上野町（その他）
9220323,石川県,加賀市,若葉台,イシカワケン,カガシ,ワカバダイ,石川県加賀市若葉台
9220324,石川県,加賀市,七日市新町,イシカワケン,カガシ,ナンカイチシンマチ,石川県加賀市七日市新町
9220325,石川県,加賀市,二子塚町,イシカワケン,カガシ,フタゴヅカマチ,石川県加賀市二子塚町
9220326,石川県,加賀市,桑原町,イシカワケン,カガシ,クワバラマチ,石川県加賀市桑原町
9220331,石川県,加賀市,動橋町,イシカワケン,カガシ,イブリハシマチ,石川県加賀市動橋町
9220332,石川県,加賀市,庄町,イシカワケン,カガシ,ショウマチ,石川県加賀市庄町
9220333,石川県,加賀市,津波倉町,イシカワケン,カガシ,ツバクラマチ,石川県加賀市津波倉町
9220334,石川県,加賀市,西島町,イシカワケン,カガシ,ニシジママチ,石川県加賀市西島町
9220335,石川県,加賀市,七日市町,イシカワケン,カガシ,ナンカイチマチ,石川県加賀市七日市町
9220336,石川県,加賀市,八日市町,イシカワケン,カガシ,ヨウカイチマチ,石川県加賀市八日市町
9220337,石川県,加賀市,合河町,イシカワケン,カガシ,アイカワマチ,石川県加賀市合河町
9220401,石川県,加賀市,新保町,イシカワケン,カガシ,シンボマチ,石川県加賀市新保町
9220402,石川県,加賀市,柴山町,イシカワケン,カガシ,シバヤママチ,石川県加賀市柴山町
9220403,石川県,加賀市,一白町,イシカワケン,カガシ,イッパクマチ,石川県加賀市一白町
9220404,石川県,加賀市,源平町,イシカワケン,カガシ,ゲンペイマチ,石川県加賀市源平町
9220405,石川県,加賀市,手塚町,イシカワケン,カガシ,テヅカマチ,石川県加賀市手塚町
9220406,石川県,加賀市,伊切町,イシカワケン,カガシ,イキリマチ,石川県加賀市伊切町
9220411,石川県,加賀市,潮津町,イシカワケン,カガシ,ウシオヅマチ,石川県加賀市潮津町
9220412,石川県,加賀市,片山津温泉,イシカワケン,カガシ,カタヤマヅオンセン,石川県加賀市片山津温泉
9220413,石川県,加賀市,湖城町,イシカワケン,カガシ,コジョウマチ,石川県加賀市湖城町
9220414,石川県,加賀市,片山津町,イシカワケン,カガシ,カタヤマヅマチ,石川県加賀市片山津町
9220421,石川県,加賀市,冨塚町,イシカワケン,カガシ,トミツカマチ,石川県加賀市冨塚町
9220422,石川県,加賀市,弓波町,イシカワケン,カガシ,ユミナミマチ,石川県加賀市弓波町
9220423,石川県,加賀市,作見町,イシカワケン,カガシ,サクミマチ,石川県加賀市作見町
9220424,石川県,加賀市,小菅波町,イシカワケン,カガシ,コスガナミマチ,石川県加賀市小菅波町
9220425,石川県,加賀市,大菅波町,イシカワケン,カガシ,オオスガナミマチ,石川県加賀市大菅波町
9220426,石川県,加賀市,天日町,イシカワケン,カガシ,テンニチマチ,石川県加賀市天日町
9220427,石川県,加賀市,ときわ台,イシカワケン,カガシ,トキワダイ,石川県加賀市ときわ台
9220428,石川県,加賀市,尾中町,イシカワケン,カガシ,オチュウマチ,石川県加賀市尾中町
9220431,石川県,加賀市,山田町,イシカワケン,カガシ,ヤマダマチ,石川県加賀市山田町
9220432,石川県,加賀市,東山田町,イシカワケン,カガシ,ヒガシヤマダマチ,石川県加賀市東山田町
9220433,石川県,加賀市,西山田町,イシカワケン,カガシ,ニシヤマダマチ,石川県加賀市西山田町
9220434,石川県,加賀市,北山田町,イシカワケン,カガシ,キタヤマダマチ,石川県加賀市北山田町
9220435,石川県,加賀市,希望が丘,イシカワケン,カガシ,キボウガオカ,石川県加賀市希望が丘
9220436,石川県,加賀市,松が丘,イシカワケン,カガシ,マツガオカ,石川県加賀市松が丘
9220437,石川県,加賀市,白山台,イシカワケン,カガシ,ハクサンダイ,石川県加賀市白山台
9220441,石川県,加賀市,篠原新町,イシカワケン,カガシ,シノハラシンマチ,石川県加賀市篠原新町
9220442,石川県,加賀市,篠原町,イシカワケン,カガシ,シノハラマチ,石川県加賀市篠原町
9220443,石川県,加賀市,野田町,イシカワケン,カガシ,ノダマチ,石川県加賀市野田町
9220444,石川県,加賀市,宮地町,イシカワケン,カガシ,ミヤジマチ,石川県加賀市宮地町
9220445,石川県,加賀市,小塩辻町,イシカワケン,カガシ,オシオツジマチ,石川県加賀市小塩辻町
9220446,石川県,加賀市,塩浜町,イシカワケン,カガシ,シオハママチ,石川県加賀市塩浜町
9220551,石川県,加賀市,美岬町,イシカワケン,カガシ,ミサキマチ,石川県加賀市美岬町
9220552,石川県,加賀市,田尻町,イシカワケン,カガシ,タジリマチ,石川県加賀市田尻町
9220553,石川県,加賀市,小塩町,イシカワケン,カガシ,オシオマチ,石川県加賀市小塩町
9220554,石川県,加賀市,橋立町,イシカワケン,カガシ,ハシタテマチ,石川県加賀市橋立町
9220561,石川県,加賀市,宮町,イシカワケン,カガシ,ミヤマチ,石川県加賀市宮町
9220562,石川県,加賀市,高尾町,イシカワケン,カガシ,タカオマチ,石川県加賀市高尾町
9220563,石川県,加賀市,豊町,イシカワケン,カガシ,ユタカマチ,石川県加賀市豊町
9220564,石川県,加賀市,片野町,イシカワケン,カガシ,カタノマチ,石川県加賀市片野町
9220565,石川県,加賀市,黒崎町,イシカワケン,カガシ,クロサキマチ,石川県加賀市黒崎町
9220566,石川県,加賀市,深田町,イシカワケン,カガシ,フカタマチ,石川県加賀市深田町
9220671,石川県,加賀市,大聖寺瀬越町,イシカワケン,カガシ,ダイショウジセゴエマチ,石川県加賀市大聖寺瀬越町
9220672,石川県,加賀市,吉崎町,イシカワケン,カガシ,ヨシザキマチ,石川県加賀市吉崎町
9220673,石川県,加賀市,塩屋町,イシカワケン,カガシ,シオヤマチ,石川県加賀市塩屋町
9220801,石川県,加賀市,大聖寺関町,イシカワケン,カガシ,ダイショウジセキマチ,石川県加賀市大聖寺関町
9220802,石川県,加賀市,大聖寺越前町,イシカワケン,カガシ,ダイショウジエチゼンマチ,石川県加賀市大聖寺越前町
9220803,石川県,加賀市,大聖寺三ツ屋町,イシカワケン,カガシ,ダイショウジミツヤマチ,石川県加賀市大聖寺三ツ屋町
9220803,石川県,加賀市,大聖寺越前三ツ屋町,イシカワケン,カガシ,ダイショウジエチゼンミツヤマチ,石川県加賀市大聖寺越前三ツ屋町
9220804,石川県,加賀市,大聖寺中新道,イシカワケン,カガシ,ダイショウジナカシンミチ,石川県加賀市大聖寺中新道
9220805,石川県,加賀市,大聖寺新屋敷町,イシカワケン,カガシ,ダイショウジシンヤシキマチ,石川県加賀市大聖寺新屋敷町
9220806,石川県,加賀市,大聖寺大新道,イシカワケン,カガシ,ダイショウジオオシンミチ,石川県加賀市大聖寺大新道
9220807,石川県,加賀市,大聖寺神明町,イシカワケン,カガシ,ダイショウジシンメイチョウ,石川県加賀市大聖寺神明町
9220811,石川県,加賀市,大聖寺南町,イシカワケン,カガシ,ダイショウジミナミチョウ,石川県加賀市大聖寺南町
9220812,石川県,加賀市,大聖寺田原町,イシカワケン,カガシ,ダイショウジタワラマチ,石川県加賀市大聖寺田原町
9220813,石川県,加賀市,大聖寺弓町,イシカワケン,カガシ,ダイショウジユミチョウ,石川県加賀市大聖寺弓町
9220814,石川県,加賀市,大聖寺菅生町,イシカワケン,カガシ,ダイショウジスゴウマチ,石川県加賀市大聖寺菅生町
9220815,石川県,加賀市,大聖寺菅生,イシカワケン,カガシ,ダイショウジスゴウ,石川県加賀市大聖寺菅生
9220816,石川県,加賀市,大聖寺東町,イシカワケン,カガシ,ダイショウジヒガシチョウ,石川県加賀市大聖寺東町
9220821,石川県,加賀市,南郷町,イシカワケン,カガシ,ナンゴウマチ,石川県加賀市南郷町
9220822,石川県,加賀市,吸坂町,イシカワケン,カガシ,スイサカマチ,石川県加賀市吸坂町
9220823,石川県,加賀市,黒瀬町,イシカワケン,カガシ,クロセマチ,石川県加賀市黒瀬町
9220824,石川県,加賀市,日谷町,イシカワケン,カガシ,ヒノヤマチ,石川県加賀市日谷町
9220825,石川県,加賀市,直下町,イシカワケン,カガシ,ソソリマチ,石川県加賀市直下町
9220831,石川県,加賀市,幸町,イシカワケン,カガシ,サイワイマチ,石川県加賀市幸町
9220832,石川県,加賀市,百々町,イシカワケン,カガシ,ドドマチ,石川県加賀市百々町
9220833,石川県,加賀市,曾宇町,イシカワケン,カガシ,ソウマチ,石川県加賀市曾宇町
9220834,石川県,加賀市,美谷が丘,イシカワケン,カガシ,ミタニガオカ,石川県加賀市美谷が丘
9220835,石川県,加賀市,細坪町,イシカワケン,カガシ,ホソツボマチ,石川県加賀市細坪町
9220836,石川県,加賀市,白鳥町,イシカワケン,カガシ,シラトリマチ,石川県加賀市白鳥町
9220841,石川県,加賀市,大聖寺下屋敷町,イシカワケン,カガシ,ダイショウジシタヤシキマチ,石川県加賀市大聖寺下屋敷町
9220842,石川県,加賀市,熊坂町,イシカワケン,カガシ,クマサカマチ,石川県加賀市熊坂町
9220843,石川県,加賀市,大同町,イシカワケン,カガシ,ダイドウマチ,石川県加賀市大同町
9220844,石川県,加賀市,白望台町,イシカワケン,カガシ,ハクボウダイマチ,石川県加賀市白望台町
9220851,石川県,加賀市,大聖寺錦城ケ丘,イシカワケン,カガシ,ダイショウジキンジョウガオカ,石川県加賀市大聖寺錦城ケ丘
9220852,石川県,加賀市,大聖寺緑ケ丘,イシカワケン,カガシ,ダイショウジミドリガオカ,石川県加賀市大聖寺緑ケ丘
9220853,石川県,加賀市,大聖寺三ツ町,イシカワケン,カガシ,ダイショウジミツマチ,石川県加賀市大聖寺三ツ町
9220854,石川県,加賀市,三木町,イシカワケン,カガシ,ミキマチ,石川県加賀市三木町
9220855,石川県,加賀市,橘町,イシカワケン,カガシ,タチバナマチ,石川県加賀市橘町
9220856,石川県,加賀市,奥谷町,イシカワケン,カガシ,オクノヤマチ,石川県加賀市奥谷町
9220857,石川県,加賀市,永井町,イシカワケン,カガシ,ナガイマチ,石川県加賀市永井町
9220861,石川県,加賀市,大聖寺地方町,イシカワケン,カガシ,ダイショウジジカタマチ,石川県加賀市大聖寺地方町
9220862,石川県,加賀市,大聖寺錦町,イシカワケン,カガシ,ダイショウジニシキチョウ,石川県加賀市大聖寺錦町
9220863,石川県,加賀市,大聖寺今出町,イシカワケン,カガシ,ダイショウジイマデマチ,石川県加賀市大聖寺今出町
9220864,石川県,加賀市,大聖寺西栄町,イシカワケン,カガシ,ダイショウジニシサカエマチ,石川県加賀市大聖寺西栄町
9220865,石川県,加賀市,大聖寺西町,イシカワケン,カガシ,ダイショウジニシチョウ,石川県加賀市大聖寺西町
9230000,石川県,小松市,,イシカワケン,コマツシ,,石川県小松市
9230001,石川県,小松市,大島町,イシカワケン,コマツシ,オオシママチ,石川県小松市大島町
9230002,石川県,小松市,小島町,イシカワケン,コマツシ,コジママチ,石川県小松市小島町
9230003,石川県,小松市,安宅町,イシカワケン,コマツシ,アタカマチ,石川県小松市安宅町
9230004,石川県,小松市,長崎町,イシカワケン,コマツシ,ナガサキマチ,石川県小松市長崎町
9230005,石川県,小松市,坊丸町,イシカワケン,コマツシ,ボウマルマチ,石川県小松市坊丸町
9230011,石川県,小松市,蛭川町,イシカワケン,コマツシ,ビルガワマチ,石川県小松市蛭川町
9230012,石川県,小松市,東蛭川町,イシカワケン,コマツシ,ヒガシヒルガワマチ,石川県小松市東蛭川町
9230013,石川県,小松市,城北町,イシカワケン,コマツシ,ジョウホクマチ,石川県小松市城北町
9230014,石川県,小松市,松梨町,イシカワケン,コマツシ,マツナシマチ,石川県小松市松梨町
9230015,石川県,小松市,犬丸町,イシカワケン,コマツシ,イヌマルマチ,石川県小松市犬丸町
9230016,石川県,小松市,御館町,イシカワケン,コマツシ,オタチマチ,石川県小松市御館町
9230021,石川県,小松市,島田町,イシカワケン,コマツシ,シマダマチ,石川県小松市島田町
9230022,石川県,小松市,美原町,イシカワケン,コマツシ,ミハラマチ,石川県小松市美原町
9230023,石川県,小松市,梅田町,イシカワケン,コマツシ,ウメダマチ,石川県小松市梅田町
9230024,石川県,小松市,茶屋町,イシカワケン,コマツシ,チャヤマチ,石川県小松市茶屋町
9230025,石川県,小松市,天神町,イシカワケン,コマツシ,テンジンマチ,石川県小松市天神町
9230026,石川県,小松市,下牧町,イシカワケン,コマツシ,シモマキマチ,石川県小松市下牧町
9230027,石川県,小松市,上牧町,イシカワケン,コマツシ,カミマキマチ,石川県小松市上牧町
9230028,石川県,小松市,梯町,イシカワケン,コマツシ,カケハシマチ,石川県小松市梯町
9230031,石川県,小松市,高堂町,イシカワケン,コマツシ,タカンドウマチ,石川県小松市高堂町
9230032,石川県,小松市,荒屋町,イシカワケン,コマツシ,アラヤマチ,石川県小松市荒屋町
9230033,石川県,小松市,野田町,イシカワケン,コマツシ,ノダマチ,石川県小松市野田町
9230034,石川県,小松市,長田町,イシカワケン,コマツシ,ナガダマチ,石川県小松市長田町
9230035,石川県,小松市,あけぼの町,イシカワケン,コマツシ,アケボノマチ,石川県小松市あけぼの町
9230036,石川県,小松市,平面町,イシカワケン,コマツシ,ヒラオモテマチ,石川県小松市平面町
9230037,石川県,小松市,問屋町,イシカワケン,コマツシ,トンヤマチ,石川県小松市問屋町
9230041,石川県,小松市,千代町,イシカワケン,コマツシ,センダイマチ,石川県小松市千代町
9230042,石川県,小松市,能美町,イシカワケン,コマツシ,ノミマチ,石川県小松市能美町
9230043,石川県,小松市,一針町,イシカワケン,コマツシ,ヒトツハリマチ,石川県小松市一針町
9230044,石川県,小松市,川辺町,イシカワケン,コマツシ,カワベマチ,石川県小松市川辺町
9230051,石川県,小松市,上八里町,イシカワケン,コマツシ,カミヤサトマチ,石川県小松市上八里町
9230052,石川県,小松市,下八里町,イシカワケン,コマツシ,シモヤサトマチ,石川県小松市下八里町
9230053,石川県,小松市,河田町,イシカワケン,コマツシ,コウダマチ,石川県小松市河田町
9230054,石川県,小松市,小野町,イシカワケン,コマツシ,オノマチ,石川県小松市小野町
9230055,石川県,小松市,古府町,イシカワケン,コマツシ,コフマチ,石川県小松市古府町
9230056,石川県,小松市,八里台,イシカワケン,コマツシ,ヤサトダイ,石川県小松市八里台
9230061,石川県,小松市,国府台,イシカワケン,コマツシ,コクフダイ,石川県小松市国府台
9230062,石川県,小松市,里川町,イシカワケン,コマツシ,サトカワマチ,石川県小松市里川町
9230063,石川県,小松市,鵜川町,イシカワケン,コマツシ,ウガワマチ,石川県小松市鵜川町
9230064,石川県,小松市,遊泉寺町,イシカワケン,コマツシ,ユウセンジマチ,石川県小松市遊泉寺町
9230065,石川県,小松市,立明寺町,イシカワケン,コマツシ,リュウミョウジマチ,石川県小松市立明寺町
9230066,石川県,小松市,埴田町,イシカワケン,コマツシ,ハネダマチ,石川県小松市埴田町
9230071,石川県,小松市,中海町,イシカワケン,コマツシ,ナカウミマチ,石川県小松市中海町
9230072,石川県,小松市,みどり町,イシカワケン,コマツシ,ミドリマチ,石川県小松市みどり町
9230073,石川県,小松市,岩渕町,イシカワケン,コマツシ,イワブチマチ,石川県小松市岩渕町
9230074,石川県,小松市,桂町,イシカワケン,コマツシ,カツラマチ,石川県小松市桂町
9230075,石川県,小松市,原町,イシカワケン,コマツシ,ハラマチ,石川県小松市原町
9230076,石川県,小松市,麦口町,イシカワケン,コマツシ,ムギクチマチ,石川県小松市麦口町
9230077,石川県,小松市,上麦口町,イシカワケン,コマツシ,カミムギクチマチ,石川県小松市上麦口町
9230078,石川県,小松市,中ノ峠町,イシカワケン,コマツシ,ナカノトウゲマチ,石川県小松市中ノ峠町
9230078,石川県,小松市,嵐町,イシカワケン,コマツシ,アラシマチ,石川県小松市嵐町
9230151,石川県,小松市,正蓮寺町,イシカワケン,コマツシ,ショウレンジマチ,石川県小松市正蓮寺町
9230152,石川県,小松市,五国寺町,イシカワケン,コマツシ,ゴコウジマチ,石川県小松市五国寺町
9230153,石川県,小松市,金平町,イシカワケン,コマツシ,カナヒラマチ,石川県小松市金平町
9230154,石川県,小松市,金野町,イシカワケン,コマツシ,カネノマチ,石川県小松市金野町
9230155,石川県,小松市,江指町,イシカワケン,コマツシ,エサシマチ,石川県小松市江指町
9230156,石川県,小松市,大野町,イシカワケン,コマツシ,オオノマチ,石川県小松市大野町
9230157,石川県,小松市,花坂町,イシカワケン,コマツシ,ハナサカマチ,石川県小松市花坂町
9230161,石川県,小松市,池城町,イシカワケン,コマツシ,イケノジョウマチ,石川県小松市池城町
9230162,石川県,小松市,波佐羅町,イシカワケン,コマツシ,ハサラマチ,石川県小松市波佐羅町
9230163,石川県,小松市,塩原町,イシカワケン,コマツシ,シオハラマチ,石川県小松市塩原町
9230164,石川県,小松市,布橋町,イシカワケン,コマツシ,ヌノハシマチ,石川県小松市布橋町
9230165,石川県,小松市,沢町,イシカワケン,コマツシ,サワマチ,石川県小松市沢町
9230166,石川県,小松市,松岡町,イシカワケン,コマツシ,マツオカマチ,石川県小松市松岡町
9230171,石川県,小松市,観音下町,イシカワケン,コマツシ,カナガソマチ,石川県小松市観音下町
9230172,石川県,小松市,尾小屋町,イシカワケン,コマツシ,オゴヤマチ,石川県小松市尾小屋町
9230173,石川県,小松市,丸山町,イシカワケン,コマツシ,マルヤママチ,石川県小松市丸山町
9230174,石川県,小松市,花立町,イシカワケン,コマツシ,ハナタテマチ,石川県小松市花立町
9230175,石川県,小松市,新保町,イシカワケン,コマツシ,シンボマチ,石川県小松市新保町
9230176,石川県,小松市,西俣町,イシカワケン,コマツシ,ニシマタマチ,石川県小松市西俣町
9230177,石川県,小松市,岩上町,イシカワケン,コマツシ,イワガミマチ,石川県小松市岩上町
9230181,石川県,小松市,長谷町,イシカワケン,コマツシ,ナガタニマチ,石川県小松市長谷町
9230182,石川県,小松市,波佐谷町,イシカワケン,コマツシ,ハサダニマチ,石川県小松市波佐谷町
9230183,石川県,小松市,瀬領町,イシカワケン,コマツシ,セイリョマチ,石川県小松市瀬領町
9230184,石川県,小松市,打木町,イシカワケン,コマツシ,ウツギマチ,石川県小松市打木町
9230185,石川県,小松市,赤瀬町,イシカワケン,コマツシ,アカゼマチ,石川県小松市赤瀬町
9230186,石川県,小松市,大杉町,イシカワケン,コマツシ,オオスギマチ,石川県小松市大杉町
9230187,石川県,小松市,上リ江町,イシカワケン,コマツシ,アガリエマチ,石川県小松市上リ江町
9230301,石川県,小松市,矢崎町,イシカワケン,コマツシ,ヤザキマチ,石川県小松市矢崎町
9230302,石川県,小松市,符津町,イシカワケン,コマツシ,フツマチ,石川県小松市符津町
9230303,石川県,小松市,島町,イシカワケン,コマツシ,シママチ,石川県小松市島町
9230304,石川県,小松市,下粟津町,イシカワケン,コマツシ,シモアワヅマチ,石川県小松市下粟津町
9230305,石川県,小松市,蓑輪町,イシカワケン,コマツシ,ミノワマチ,石川県小松市蓑輪町
9230306,石川県,小松市,松生町,イシカワケン,コマツシ,マツオイチョウ,石川県小松市松生町
9230311,石川県,小松市,木場町,イシカワケン,コマツシ,キバマチ,石川県小松市木場町
9230312,石川県,小松市,木場台,イシカワケン,コマツシ,キバダイ,石川県小松市木場台
9230313,石川県,小松市,津波倉町,イシカワケン,コマツシ,ツバクラマチ,石川県小松市津波倉町
9230314,石川県,小松市,おびし町,イシカワケン,コマツシ,オビシマチ,石川県小松市おびし町
9230315,石川県,小松市,小山田町,イシカワケン,コマツシ,コヤマダマチ,石川県小松市小山田町
9230316,石川県,小松市,井口町,イシカワケン,コマツシ,イノクチマチ,石川県小松市井口町
9230321,石川県,小松市,白山田町,イシカワケン,コマツシ,シラヤマダマチ,石川県小松市白山田町
9230322,石川県,小松市,牧口町,イシカワケン,コマツシ,マキグチマチ,石川県小松市牧口町
9230323,石川県,小松市,西荒谷町,イシカワケン,コマツシ,ニシアラタニマチ,石川県小松市西荒谷町
9230324,石川県,小松市,日用町,イシカワケン,コマツシ,ヒヨウマチ,石川県小松市日用町
9230325,石川県,小松市,西原町,イシカワケン,コマツシ,ニシハラマチ,石川県小松市西原町
9230326,石川県,小松市,粟津温泉,イシカワケン,コマツシ,アワヅオンセン,石川県小松市粟津温泉
9230326,石川県,小松市,粟津町,イシカワケン,コマツシ,アワヅマチ,石川県小松市粟津町
9230327,石川県,小松市,戸津町,イシカワケン,コマツシ,トヅマチ,石川県小松市戸津町
9230328,石川県,小松市,南陽町,イシカワケン,コマツシ,ナンヨウマチ,石川県小松市南陽町
9230331,石川県,小松市,上荒屋町,イシカワケン,コマツシ,カミアラヤマチ,石川県小松市上荒屋町
9230332,石川県,小松市,湯上町,イシカワケン,コマツシ,ユノカミマチ,石川県小松市湯上町
9230333,石川県,小松市,馬場町,イシカワケン,コマツシ,バンバマチ,石川県小松市馬場町
9230334,石川県,小松市,菩提町,イシカワケン,コマツシ,ボダイマチ,石川県小松市菩提町
9230335,石川県,小松市,滝ケ原町,イシカワケン,コマツシ,タキガハラマチ,石川県小松市滝ケ原町
9230336,石川県,小松市,那谷町,イシカワケン,コマツシ,ナタマチ,石川県小松市那谷町
9230341,石川県,小松市,春日町,イシカワケン,コマツシ,カスガチョウ,石川県小松市春日町
9230342,石川県,小松市,矢田野町,イシカワケン,コマツシ,ヤタノマチ,石川県小松市矢田野町
9230343,石川県,小松市,矢沢町,イシカワケン,コマツシ,ヤザワマチ,石川県小松市矢沢町
9230344,石川県,小松市,林町,イシカワケン,コマツシ,ハヤシマチ,石川県小松市林町
9230345,石川県,小松市,二ツ梨町,イシカワケン,コマツシ,フタツナシマチ,石川県小松市二ツ梨町
9230801,石川県,小松市,園町,イシカワケン,コマツシ,ソノマチ,石川県小松市園町
9230802,石川県,小松市,上小松町,イシカワケン,コマツシ,カミコマツマチ,石川県小松市上小松町
9230803,石川県,小松市,宝町,イシカワケン,コマツシ,タカラマチ,石川県小松市宝町
9230804,石川県,小松市,光町,イシカワケン,コマツシ,ヒカリマチ,石川県小松市光町
9230805,石川県,小松市,御宮町,イシカワケン,コマツシ,オミヤマチ,石川県小松市御宮町
9230806,石川県,小松市,小寺町,イシカワケン,コマツシ,コデラマチ,石川県小松市小寺町
9230811,石川県,小松市,白江町,イシカワケン,コマツシ,シラエマチ,石川県小松市白江町
9230812,石川県,小松市,漆町,イシカワケン,コマツシ,ウルシマチ,石川県小松市漆町
9230812,石川県,小松市,金屋町,イシカワケン,コマツシ,カナヤマチ,石川県小松市金屋町
9230813,石川県,小松市,糸町,イシカワケン,コマツシ,イトマチ,石川県小松市糸町
9230814,石川県,小松市,白松町,イシカワケン,コマツシ,シラマツマチ,石川県小松市白松町
9230821,石川県,小松市,佐々木町,イシカワケン,コマツシ,ササキマチ,石川県小松市佐々木町
9230822,石川県,小松市,光陽町,イシカワケン,コマツシ,コウヨウマチ,石川県小松市光陽町
9230823,石川県,小松市,荒木田町,イシカワケン,コマツシ,アラキダマチ,石川県小松市荒木田町
9230824,石川県,小松市,軽海町,イシカワケン,コマツシ,カルミマチ,石川県小松市軽海町
9230825,石川県,小松市,西軽海町,イシカワケン,コマツシ,ニシカルミマチ,石川県小松市西軽海町
9230826,石川県,小松市,希望丘,イシカワケン,コマツシ,キボウガオカ,石川県小松市希望丘
9230831,石川県,小松市,打越町,イシカワケン,コマツシ,ウチコシマチ,石川県小松市打越町
9230832,石川県,小松市,若杉町,イシカワケン,コマツシ,ワカスギマチ,石川県小松市若杉町
9230833,石川県,小松市,八幡（加賀八幡）,イシカワケン,コマツシ,ヤワタ(カガヤワタ),石川県小松市八幡（加賀八幡）
9230834,石川県,小松市,千木野町,イシカワケン,コマツシ,セギノマチ,石川県小松市千木野町
9230835,石川県,小松市,吉竹町,イシカワケン,コマツシ,ヨシタケマチ,石川県小松市吉竹町
9230836,石川県,小松市,鹿町,イシカワケン,コマツシ,シカマチ,石川県小松市鹿町
9230841,石川県,小松市,本江町,イシカワケン,コマツシ,ホンゴウマチ,石川県小松市本江町
9230842,石川県,小松市,東山町,イシカワケン,コマツシ,ヒガシヤママチ,石川県小松市東山町
9230843,石川県,小松市,蓮代寺町,イシカワケン,コマツシ,レンダイジマチ,石川県小松市蓮代寺町
9230844,石川県,小松市,三谷町,イシカワケン,コマツシ,サンダニマチ,石川県小松市三谷町
9230851,石川県,小松市,北浅井町,イシカワケン,コマツシ,キタアサイマチ,石川県小松市北浅井町
9230852,石川県,小松市,南浅井町,イシカワケン,コマツシ,ミナミアサイマチ,石川県小松市南浅井町
9230853,石川県,小松市,扇町,イシカワケン,コマツシ,オウギマチ,石川県小松市扇町
9230854,石川県,小松市,大領町,イシカワケン,コマツシ,ダイリョウマチ,石川県小松市大領町
9230861,石川県,小松市,沖町,イシカワケン,コマツシ,オキマチ,石川県小松市沖町
9230862,石川県,小松市,三田町,イシカワケン,コマツシ,ミタマチ,石川県小松市三田町
9230862,石川県,小松市,清六町,イシカワケン,コマツシ,セイロクマチ,石川県小松市清六町
9230863,石川県,小松市,不動島町,イシカワケン,コマツシ,フドウジママチ,石川県小松市不動島町
9230864,石川県,小松市,有明町,イシカワケン,コマツシ,アリアケマチ,石川県小松市有明町
9230865,石川県,小松市,福乃宮町,イシカワケン,コマツシ,フクノミヤマチ,石川県小松市福乃宮町
9230866,石川県,小松市,白嶺町,イシカワケン,コマツシ,シラネマチ,石川県小松市白嶺町
9230867,石川県,小松市,幸町,イシカワケン,コマツシ,サイワイチョウ,石川県小松市幸町
9230868,石川県,小松市,八日市町地方,イシカワケン,コマツシ,ヨウカイチマチジガタ,石川県小松市八日市町地方
9230868,石川県,小松市,日の出町,イシカワケン,コマツシ,ヒノデマチ,石川県小松市日の出町
9230869,石川県,小松市,こまつの杜,イシカワケン,コマツシ,コマツノモリ,石川県小松市こまつの杜
9230901,石川県,小松市,泉町,イシカワケン,コマツシ,イズミマチ,石川県小松市泉町
9230902,石川県,小松市,古城町,イシカワケン,コマツシ,コジョウマチ,石川県小松市古城町
9230903,石川県,小松市,丸の内公園町,イシカワケン,コマツシ,マルノウチコウエンマチ,石川県小松市丸の内公園町
9230903,石川県,小松市,丸の内町,イシカワケン,コマツシ,マルノウチマチ,石川県小松市丸の内町
9230903,石川県,小松市,丸内町,イシカワケン,コマツシ,マルノウチマチ,石川県小松市丸内町
9230904,石川県,小松市,小馬出町,イシカワケン,コマツシ,コンマデマチ,石川県小松市小馬出町
9230905,石川県,小松市,地子町,イシカワケン,コマツシ,ジシマチ,石川県小松市地子町
9230905,石川県,小松市,鷹匠町,イシカワケン,コマツシ,タカジョウマチ,石川県小松市鷹匠町
9230906,石川県,小松市,新大工町,イシカワケン,コマツシ,シンダイクチョウ,石川県小松市新大工町
9230907,石川県,小松市,浜田町,イシカワケン,コマツシ,ハマダマチ,石川県小松市浜田町
9230908,石川県,小松市,浮城町,イシカワケン,コマツシ,ウキシロマチ,石川県小松市浮城町
9230911,石川県,小松市,大川町,イシカワケン,コマツシ,オオカワマチ,石川県小松市大川町
9230912,石川県,小松市,新町,イシカワケン,コマツシ,シンマチ,石川県小松市新町
9230913,石川県,小松市,松任町,イシカワケン,コマツシ,マットウマチ,石川県小松市松任町
9230914,石川県,小松市,新鍛冶町,イシカワケン,コマツシ,シンカジマチ,石川県小松市新鍛冶町
9230915,石川県,小松市,細工町,イシカワケン,コマツシ,サイクチョウ,石川県小松市細工町
9230916,石川県,小松市,材木町,イシカワケン,コマツシ,ザイモクチョウ,石川県小松市材木町
9230917,石川県,小松市,中町,イシカワケン,コマツシ,ナカマチ,石川県小松市中町
9230918,石川県,小松市,京町,イシカワケン,コマツシ,キョウマチ,石川県小松市京町
9230919,石川県,小松市,殿町,イシカワケン,コマツシ,トノマチ,石川県小松市殿町
9230921,石川県,小松市,土居原町,イシカワケン,コマツシ,ドイハラマチ,石川県小松市土居原町
9230922,石川県,小松市,飴屋町,イシカワケン,コマツシ,アメヤマチ,石川県小松市飴屋町
9230923,石川県,小松市,東町,イシカワケン,コマツシ,ヒガシチョウ,石川県小松市東町
9230924,石川県,小松市,三日市町,イシカワケン,コマツシ,ミッカイチマチ,石川県小松市三日市町
9230925,石川県,小松市,八日市町,イシカワケン,コマツシ,ヨウカイチマチ,石川県小松市八日市町
9230926,石川県,小松市,龍助町,イシカワケン,コマツシ,リュウスケチョウ,石川県小松市龍助町
9230927,石川県,小松市,西町,イシカワケン,コマツシ,ニシチョウ,石川県小松市西町
9230931,石川県,小松市,大文字町,イシカワケン,コマツシ,ダイモンジチョウ,石川県小松市大文字町
9230932,石川県,小松市,寺町,イシカワケン,コマツシ,テラマチ,石川県小松市寺町
9230933,石川県,小松市,本鍛冶町,イシカワケン,コマツシ,ホンカジマチ,石川県小松市本鍛冶町
9230934,石川県,小松市,栄町,イシカワケン,コマツシ,サカエマチ,石川県小松市栄町
9230935,石川県,小松市,上寺町,イシカワケン,コマツシ,カミデラマチ,石川県小松市上寺町
9230936,石川県,小松市,本大工町,イシカワケン,コマツシ,ホンダイクチョウ,石川県小松市本大工町
9230937,石川県,小松市,本町,イシカワケン,コマツシ,ホンマチ,石川県小松市本町
9230938,石川県,小松市,芦田町,イシカワケン,コマツシ,アシダマチ,石川県小松市芦田町
9230941,石川県,小松市,城南町,イシカワケン,コマツシ,ジョウナンマチ,石川県小松市城南町
9230942,石川県,小松市,桜木町,イシカワケン,コマツシ,サクラギチョウ,石川県小松市桜木町
9230943,石川県,小松市,育成町,イシカワケン,コマツシ,イクセイマチ,石川県小松市育成町
9230944,石川県,小松市,古河町,イシカワケン,コマツシ,フルカワマチ,石川県小松市古河町
9230945,石川県,小松市,末広町,イシカワケン,コマツシ,スエヒロマチ,石川県小松市末広町
9230946,石川県,小松市,相生町,イシカワケン,コマツシ,アイオイマチ,石川県小松市相生町
9230947,石川県,小松市,日吉町,イシカワケン,コマツシ,ヒヨシマチ,石川県小松市日吉町
9230948,石川県,小松市,錦町,イシカワケン,コマツシ,ニシキマチ,石川県小松市錦町
9230951,石川県,小松市,白山町,イシカワケン,コマツシ,ハクサンマチ,石川県小松市白山町
9230952,石川県,小松市,大和町,イシカワケン,コマツシ,ヤマトマチ,石川県小松市大和町
9230953,石川県,小松市,旭町,イシカワケン,コマツシ,アサヒマチ,石川県小松市旭町
9230954,石川県,小松市,八幡町,イシカワケン,コマツシ,ヤワタマチ,石川県小松市八幡町
9230955,石川県,小松市,上本折町,イシカワケン,コマツシ,カミモトオリマチ,石川県小松市上本折町
9230956,石川県,小松市,西本折町,イシカワケン,コマツシ,ニシモトオリマチ,石川県小松市西本折町
9230957,石川県,小松市,本折町,イシカワケン,コマツシ,モトオリマチ,石川県小松市本折町
9230958,石川県,小松市,清水町,イシカワケン,コマツシ,シミズマチ,石川県小松市清水町
9230961,石川県,小松市,向本折町,イシカワケン,コマツシ,ムカイモトオリマチ,石川県小松市向本折町
9230962,石川県,小松市,大領中町,イシカワケン,コマツシ,ダイリョウナカマチ,石川県小松市大領中町
9230963,石川県,小松市,須天町,イシカワケン,コマツシ,スアママチ,石川県小松市須天町
9230964,石川県,小松市,今江町,イシカワケン,コマツシ,イマエマチ,石川県小松市今江町
9230965,石川県,小松市,串町,イシカワケン,コマツシ,クシマチ,石川県小松市串町
9230965,石川県,小松市,野立町,イシカワケン,コマツシ,ノダチマチ,石川県小松市野立町
9230966,石川県,小松市,串茶屋町,イシカワケン,コマツシ,クシチャヤマチ,石川県小松市串茶屋町
9230967,石川県,小松市,青路町,イシカワケン,コマツシ,アオジチョウ,石川県小松市青路町
9230968,石川県,小松市,村松町,イシカワケン,コマツシ,ムラマツマチ,石川県小松市村松町
9230971,石川県,小松市,四丁町,イシカワケン,コマツシ,シチョウマチ,石川県小松市四丁町
9230972,石川県,小松市,月津町,イシカワケン,コマツシ,ツキヅマチ,石川県小松市月津町
9230973,石川県,小松市,扇原町,イシカワケン,コマツシ,オウギハラマチ,石川県小松市扇原町
9230974,石川県,小松市,月美丘,イシカワケン,コマツシ,ツキミガオカ,石川県小松市月美丘
9230975,石川県,小松市,矢田町,イシカワケン,コマツシ,ヤタマチ,石川県小松市矢田町
9230976,石川県,小松市,矢田新町,イシカワケン,コマツシ,ヤタシンマチ,石川県小松市矢田新町
9230977,石川県,小松市,額見町,イシカワケン,コマツシ,ヌカミマチ,石川県小松市額見町
9230981,石川県,小松市,拓栄町,イシカワケン,コマツシ,タクエイマチ,石川県小松市拓栄町
9230982,石川県,小松市,松崎町,イシカワケン,コマツシ,マツザキマチ,石川県小松市松崎町
9230983,石川県,小松市,日末町,イシカワケン,コマツシ,ヒズエマチ,石川県小松市日末町
9230984,石川県,小松市,佐美町,イシカワケン,コマツシ,サミマチ,石川県小松市佐美町
9230985,石川県,小松市,浜佐美町,イシカワケン,コマツシ,ハマサミマチ,石川県小松市浜佐美町
9230991,石川県,小松市,木曽町,イシカワケン,コマツシ,キソマチ,石川県小松市木曽町
9230992,石川県,小松市,鶴ケ島町,イシカワケン,コマツシ,ツルガシママチ,石川県小松市鶴ケ島町
9230993,石川県,小松市,浮柳町,イシカワケン,コマツシ,ウキヤナギマチ,石川県小松市浮柳町
9230994,石川県,小松市,工業団地,イシカワケン,コマツシ,コウギョウダンチ,石川県小松市工業団地
9230995,石川県,小松市,安宅新町,イシカワケン,コマツシ,アタカシンマチ,石川県小松市安宅新町
9230996,石川県,小松市,草野町,イシカワケン,コマツシ,クサノマチ,石川県小松市草野町
9230997,石川県,小松市,浜佐美本町,イシカワケン,コマツシ,ハマサミホンマチ,石川県小松市浜佐美本町
9230998,石川県,小松市,義仲町,イシカワケン,コマツシ,ヨシナカチョウ,石川県小松市義仲町
9231100,石川県,能美市,,イシカワケン,ノミシ,,石川県能美市
9231101,石川県,能美市,粟生町,イシカワケン,ノミシ,アオマチ,石川県能美市粟生町
9231102,石川県,能美市,新保町,イシカワケン,ノミシ,シンボマチ,石川県能美市新保町
9231103,石川県,能美市,秋常町,イシカワケン,ノミシ,アキツネマチ,石川県能美市秋常町
9231104,石川県,能美市,湯谷町,イシカワケン,ノミシ,ユノタニマチ,石川県能美市湯谷町
9231105,石川県,能美市,石子町,イシカワケン,ノミシ,イシコマチ,石川県能美市石子町
9231106,石川県,能美市,和田町,イシカワケン,ノミシ,ワダマチ,石川県能美市和田町
9231107,石川県,能美市,末寺町,イシカワケン,ノミシ,マツジマチ,石川県能美市末寺町
9231111,石川県,能美市,泉台町,イシカワケン,ノミシ,イズミダイマチ,石川県能美市泉台町
9231112,石川県,能美市,佐野町,イシカワケン,ノミシ,サノマチ,石川県能美市佐野町
9231113,石川県,能美市,牛島町,イシカワケン,ノミシ,ウシジママチ,石川県能美市牛島町
9231114,石川県,能美市,小杉町,イシカワケン,ノミシ,コスギマチ,石川県能美市小杉町
9231115,石川県,能美市,大長野町,イシカワケン,ノミシ,オオナガノマチ,石川県能美市大長野町
9231116,石川県,能美市,小長野町,イシカワケン,ノミシ,コナガノマチ,石川県能美市小長野町
9231117,石川県,能美市,末信町,イシカワケン,ノミシ,スエノブマチ,石川県能美市末信町
9231121,石川県,能美市,寺井町,イシカワケン,ノミシ,テライマチ,石川県能美市寺井町
9231122,石川県,能美市,東任田町,イシカワケン,ノミシ,ヒガシトウダマチ,石川県能美市東任田町
9231123,石川県,能美市,吉光町,イシカワケン,ノミシ,ヨシミツマチ,石川県能美市吉光町
9231124,石川県,能美市,三道山町,イシカワケン,ノミシ,サンドウヤママチ,石川県能美市三道山町
9231200,石川県,能美郡川北町,,イシカワケン,ノミグンカワキタマチ,,石川県能美郡川北町
9231201,石川県,能美市,岩内町,イシカワケン,ノミシ,イワウチマチ,石川県能美市岩内町
9231202,石川県,能美市,莇生町,イシカワケン,ノミシ,アゾウマチ,石川県能美市莇生町
9231203,石川県,能美市,三ツ口町,イシカワケン,ノミシ,ミツクチマチ,石川県能美市三ツ口町
9231204,石川県,能美市,長滝町,イシカワケン,ノミシ,ナガタキマチ,石川県能美市長滝町
9231205,石川県,能美市,宮竹町,イシカワケン,ノミシ,ミヤタケマチ,石川県能美市宮竹町
9231206,石川県,能美市,灯台笹町,イシカワケン,ノミシ,トダシノマチ,石川県能美市灯台笹町
9231207,石川県,能美市,岩本町,イシカワケン,ノミシ,イワモトマチ,石川県能美市岩本町
9231208,石川県,能美市,和佐谷町,イシカワケン,ノミシ,ワサダニマチ,石川県能美市和佐谷町
9231211,石川県,能美市,旭台,イシカワケン,ノミシ,アサヒダイ,石川県能美市旭台
9231212,石川県,能美市,大口町,イシカワケン,ノミシ,オオクチマチ,石川県能美市大口町
9231213,石川県,能美市,坪野町,イシカワケン,ノミシ,ツボノマチ,石川県能美市坪野町
9231214,石川県,能美市,金剛寺町,イシカワケン,ノミシ,コンゴウジマチ,石川県能美市金剛寺町
9231215,石川県,能美市,舘町,イシカワケン,ノミシ,タチマチ,石川県能美市舘町
9231216,石川県,能美市,鍋谷町,イシカワケン,ノミシ,ナベタニマチ,石川県能美市鍋谷町
9231217,石川県,能美市,仏大寺町,イシカワケン,ノミシ,ブツタイジマチ,石川県能美市仏大寺町
9231221,石川県,能美市,湯屋町,イシカワケン,ノミシ,ユノヤマチ,石川県能美市湯屋町
9231222,石川県,能美市,徳山町,イシカワケン,ノミシ,トクサンマチ,石川県能美市徳山町
9231223,石川県,能美市,寺畠町,イシカワケン,ノミシ,テラバタケマチ,石川県能美市寺畠町
9231224,石川県,能美市,和気町,イシカワケン,ノミシ,ワケマチ,石川県能美市和気町
9231225,石川県,能美市,松が岡,イシカワケン,ノミシ,マツガオカ,石川県能美市松が岡
9231226,石川県,能美市,緑が丘,イシカワケン,ノミシ,ミドリガオカ,石川県能美市緑が丘
9231227,石川県,能美市,和光台,イシカワケン,ノミシ,ワコウダイ,石川県能美市和光台
9231231,石川県,能美市,上開発町,イシカワケン,ノミシ,カミカイハツマチ,石川県能美市上開発町
9231232,石川県,能美市,下開発町,イシカワケン,ノミシ,シモカイハツマチ,石川県能美市下開発町
9231233,石川県,能美市,荒屋町,イシカワケン,ノミシ,アラヤマチ,石川県能美市荒屋町
9231234,石川県,能美市,高座町,イシカワケン,ノミシ,コウザマチ,石川県能美市高座町
9231235,石川県,能美市,徳久町,イシカワケン,ノミシ,トクヒサマチ,石川県能美市徳久町
9231236,石川県,能美市,北市町,イシカワケン,ノミシ,キタイチマチ,石川県能美市北市町
9231237,石川県,能美市,上清水町,イシカワケン,ノミシ,カミシミズマチ,石川県能美市上清水町
9231238,石川県,能美市,下清水町,イシカワケン,ノミシ,シモシミズマチ,石川県能美市下清水町
9231241,石川県,能美市,山田町,イシカワケン,ノミシ,ヤマダマチ,石川県能美市山田町
9231242,石川県,能美市,火釜町,イシカワケン,ノミシ,ヒガママチ,石川県能美市火釜町
9231243,石川県,能美市,三ツ屋町,イシカワケン,ノミシ,ミツヤマチ,石川県能美市三ツ屋町
9231244,石川県,能美市,来丸町,イシカワケン,ノミシ,ライマルマチ,石川県能美市来丸町
9231245,石川県,能美市,辰口町,イシカワケン,ノミシ,タツノクチマチ,石川県能美市辰口町
9231246,石川県,能美市,倉重町,イシカワケン,ノミシ,クラシゲマチ,石川県能美市倉重町
9231247,石川県,能美市,出口町,イシカワケン,ノミシ,デグチマチ,石川県能美市出口町
9231251,石川県,能美郡川北町,藤蔵,イシカワケン,ノミグンカワキタマチ,トウゾウ,石川県能美郡川北町藤蔵
9231252,石川県,能美郡川北町,中島,イシカワケン,ノミグンカワキタマチ,ナカジマ,石川県能美郡川北町中島
9231253,石川県,能美郡川北町,三反田,イシカワケン,ノミグンカワキタマチ,サンタンダ,石川県能美郡川北町三反田
9231254,石川県,能美郡川北町,サンコーポラス,イシカワケン,ノミグンカワキタマチ,サンコーポラス,石川県能美郡川北町サンコーポラス
9231261,石川県,能美郡川北町,土室,イシカワケン,ノミグンカワキタマチ,ツチムロ,石川県能美郡川北町土室
9231262,石川県,能美郡川北町,草深,イシカワケン,ノミグンカワキタマチ,クサブカ,石川県能美郡川北町草深
9231263,石川県,能美郡川北町,下土室,イシカワケン,ノミグンカワキタマチ,シモツチムロ,石川県能美郡川北町下土室
9231264,石川県,能美郡川北町,山田先出,イシカワケン,ノミグンカワキタマチ,ヤマダセンデン,石川県能美郡川北町山田先出
9231265,石川県,能美郡川北町,上先出,イシカワケン,ノミグンカワキタマチ,カミセンデン,石川県能美郡川北町上先出
9231266,石川県,能美郡川北町,下先出,イシカワケン,ノミグンカワキタマチ,シモセンデン,石川県能美郡川北町下先出
9231267,石川県,能美郡川北町,壱ツ屋,イシカワケン,ノミグンカワキタマチ,ヒトツヤ,石川県能美郡川北町壱ツ屋
9231268,石川県,能美郡川北町,与九郎島,イシカワケン,ノミグンカワキタマチ,ヨクロウジマ,石川県能美郡川北町与九郎島
9231269,石川県,能美郡川北町,上田子島,イシカワケン,ノミグンカワキタマチ,カミダゴジマ,石川県能美郡川北町上田子島
9231271,石川県,能美郡川北町,田子島,イシカワケン,ノミグンカワキタマチ,ダゴジマ,石川県能美郡川北町田子島
9231272,石川県,能美郡川北町,下田子島,イシカワケン,ノミグンカワキタマチ,シモタゴジマ,石川県能美郡川北町下田子島
9231273,石川県,能美郡川北町,舟場島,イシカワケン,ノミグンカワキタマチ,フナバジマ,石川県能美郡川北町舟場島
9231274,石川県,能美郡川北町,木呂場,イシカワケン,ノミグンカワキタマチ,コロバ,石川県能美郡川北町木呂場
9231275,石川県,能美郡川北町,木呂場新,イシカワケン,ノミグンカワキタマチ,コロバシン,石川県能美郡川北町木呂場新
9231276,石川県,能美郡川北町,橘,イシカワケン,ノミグンカワキタマチ,タチバナ,石川県能美郡川北町橘
9231277,石川県,能美郡川北町,橘新,イシカワケン,ノミグンカワキタマチ,タチバナシン,石川県能美郡川北町橘新
9231278,石川県,能美郡川北町,朝日,イシカワケン,ノミグンカワキタマチ,アサヒ,石川県能美郡川北町朝日
9240000,石川県,白山市,,イシカワケン,ハクサンシ,,石川県白山市
9240001,石川県,白山市,八田町,イシカワケン,ハクサンシ,ハッタマチ,石川県白山市八田町
9240002,石川県,白山市,八田中町,イシカワケン,ハクサンシ,ハッタナカマチ,石川県白山市八田中町
9240003,石川県,白山市,中新保町,イシカワケン,ハクサンシ,ナカシンボマチ,石川県白山市中新保町
9240004,石川県,白山市,旭丘,イシカワケン,ハクサンシ,アサヒガオカ,石川県白山市旭丘
9240005,石川県,白山市,一塚町,イシカワケン,ハクサンシ,イチヅカマチ,石川県白山市一塚町
9240006,石川県,白山市,村井新町,イシカワケン,ハクサンシ,ムライシンマチ,石川県白山市村井新町
9240007,石川県,白山市,倉部町,イシカワケン,ハクサンシ,クラベマチ,石川県白山市倉部町
9240011,石川県,白山市,横江町,イシカワケン,ハクサンシ,ヨコエマチ,石川県白山市横江町
9240012,石川県,白山市,福増町,イシカワケン,ハクサンシ,フクマスマチ,石川県白山市福増町
9240013,石川県,白山市,番匠町,イシカワケン,ハクサンシ,バンジョウマチ,石川県白山市番匠町
9240014,石川県,白山市,五歩市町,イシカワケン,ハクサンシ,ゴボイチマチ,石川県白山市五歩市町
9240015,石川県,白山市,新田町,イシカワケン,ハクサンシ,シンデンマチ,石川県白山市新田町
9240016,石川県,白山市,宮永市町,イシカワケン,ハクサンシ,ミヤナガイチマチ,石川県白山市宮永市町
9240017,石川県,白山市,宮永町,イシカワケン,ハクサンシ,ミヤナガマチ,石川県白山市宮永町
9240018,石川県,白山市,宮永新町,イシカワケン,ハクサンシ,ミヤナガシンマチ,石川県白山市宮永新町
9240019,石川県,白山市,あさひ荘苑,イシカワケン,ハクサンシ,アサヒソウエン,石川県白山市あさひ荘苑
9240020,石川県,白山市,新成,イシカワケン,ハクサンシ,シンナリ,石川県白山市新成
9240021,石川県,白山市,竹松町,イシカワケン,ハクサンシ,タケマツマチ,石川県白山市竹松町
9240022,石川県,白山市,相木町,イシカワケン,ハクサンシ,アイノキマチ,石川県白山市相木町
9240023,石川県,白山市,成町,イシカワケン,ハクサンシ,ナリマチ,石川県白山市成町
9240024,石川県,白山市,北安田町,イシカワケン,ハクサンシ,キタヤスタマチ,石川県白山市北安田町
9240025,石川県,白山市,蕪城,イシカワケン,ハクサンシ,ブジョウ,石川県白山市蕪城
9240026,石川県,白山市,平木町,イシカワケン,ハクサンシ,ヒラギマチ,石川県白山市平木町
9240027,石川県,白山市,相川町,イシカワケン,ハクサンシ,ソウゴマチ,石川県白山市相川町
9240028,石川県,白山市,相川新町,イシカワケン,ハクサンシ,ソウゴシンマチ,石川県白山市相川新町
9240029,石川県,白山市,中成,イシカワケン,ハクサンシ,ナカナリ,石川県白山市中成
9240030,石川県,白山市,北成町,イシカワケン,ハクサンシ,キタナリマチ,石川県白山市北成町
9240031,石川県,白山市,村井東,イシカワケン,ハクサンシ,ムライヒガシ,石川県白山市村井東
9240032,石川県,白山市,村井町,イシカワケン,ハクサンシ,ムライマチ,石川県白山市村井町
9240033,石川県,白山市,宮丸町,イシカワケン,ハクサンシ,ミヤマルマチ,石川県白山市宮丸町
9240034,石川県,白山市,小上町,イシカワケン,ハクサンシ,コガミマチ,石川県白山市小上町
9240035,石川県,白山市,上柏野町,イシカワケン,ハクサンシ,カミカシワノマチ,石川県白山市上柏野町
9240036,石川県,白山市,中柏野町,イシカワケン,ハクサンシ,ナカカシワノマチ,石川県白山市中柏野町
9240037,石川県,白山市,荒屋柏野町,イシカワケン,ハクサンシ,アラヤカシワノマチ,石川県白山市荒屋柏野町
9240038,石川県,白山市,下柏野町,イシカワケン,ハクサンシ,シモカシワノマチ,石川県白山市下柏野町
9240039,石川県,白山市,北安田西,イシカワケン,ハクサンシ,キタヤスタニシ,石川県白山市北安田西
9240041,石川県,白山市,東美沢野町,イシカワケン,ハクサンシ,ヒガシミサワノマチ,石川県白山市東美沢野町
9240042,石川県,白山市,東柏町,イシカワケン,ハクサンシ,ヒガシカシワマチ,石川県白山市東柏町
9240043,石川県,白山市,柏町,イシカワケン,ハクサンシ,カシワマチ,石川県白山市柏町
9240044,石川県,白山市,西柏町,イシカワケン,ハクサンシ,ニシカシワマチ,石川県白山市西柏町
9240045,石川県,白山市,西柏,イシカワケン,ハクサンシ,ニシカシワ,石川県白山市西柏
9240046,石川県,白山市,西美沢野,イシカワケン,ハクサンシ,ニシミサワノ,石川県白山市西美沢野
9240047,石川県,白山市,西美沢野町,イシカワケン,ハクサンシ,ニシミサワノマチ,石川県白山市西美沢野町
9240048,石川県,白山市,美沢野町,イシカワケン,ハクサンシ,ミサワノマチ,石川県白山市美沢野町
9240051,石川県,白山市,福留町,イシカワケン,ハクサンシ,フクドメマチ,石川県白山市福留町
9240052,石川県,白山市,源兵島町,イシカワケン,ハクサンシ,ゲンペイジママチ,石川県白山市源兵島町
9240053,石川県,白山市,水澄町,イシカワケン,ハクサンシ,ミスミマチ,石川県白山市水澄町
9240054,石川県,白山市,米光町,イシカワケン,ハクサンシ,ヨネミツマチ,石川県白山市米光町
9240055,石川県,白山市,北島町,イシカワケン,ハクサンシ,キタジママチ,石川県白山市北島町
9240056,石川県,白山市,阿弥陀島町,イシカワケン,ハクサンシ,アミダジママチ,石川県白山市阿弥陀島町
9240057,石川県,白山市,松本町,イシカワケン,ハクサンシ,マツモトマチ,石川県白山市松本町
9240058,石川県,白山市,石立町,イシカワケン,ハクサンシ,イシタテマチ,石川県白山市石立町
9240059,石川県,白山市,福留南,イシカワケン,ハクサンシ,フクドメミナミ,石川県白山市福留南
9240061,石川県,白山市,宮保町,イシカワケン,ハクサンシ,ミヤボマチ,石川県白山市宮保町
9240062,石川県,白山市,笠間新,イシカワケン,ハクサンシ,カサマシン,石川県白山市笠間新
9240063,石川県,白山市,笠間町,イシカワケン,ハクサンシ,カサママチ,石川県白山市笠間町
9240064,石川県,白山市,黒瀬町,イシカワケン,ハクサンシ,クロセマチ,石川県白山市黒瀬町
9240065,石川県,白山市,七郎町,イシカワケン,ハクサンシ,シチロウマチ,石川県白山市七郎町
9240066,石川県,白山市,上小川町,イシカワケン,ハクサンシ,カミオガワマチ,石川県白山市上小川町
9240067,石川県,白山市,小川町,イシカワケン,ハクサンシ,オガワマチ,石川県白山市小川町
9240068,石川県,白山市,宮保新町,イシカワケン,ハクサンシ,ミヤボシンチョウ,石川県白山市宮保新町
9240069,石川県,白山市,宮原町,イシカワケン,ハクサンシ,ミヤハラマチ,石川県白山市宮原町
9240071,石川県,白山市,徳光町,イシカワケン,ハクサンシ,トクミツマチ,石川県白山市徳光町
9240072,石川県,白山市,千代野西,イシカワケン,ハクサンシ,チヨノニシ,石川県白山市千代野西
9240073,石川県,白山市,千代野東,イシカワケン,ハクサンシ,チヨノヒガシ,石川県白山市千代野東
9240074,石川県,白山市,千代野南,イシカワケン,ハクサンシ,チヨノミナミ,石川県白山市千代野南
9240075,石川県,白山市,米永町,イシカワケン,ハクサンシ,ヨネナガマチ,石川県白山市米永町
9240076,石川県,白山市,法仏町,イシカワケン,ハクサンシ,ホウブツマチ,石川県白山市法仏町
9240081,石川県,白山市,相木,イシカワケン,ハクサンシ,アイノキ,石川県白山市相木
9240801,石川県,白山市,田中町,イシカワケン,ハクサンシ,タナカマチ,石川県白山市田中町
9240802,石川県,白山市,専福寺町,イシカワケン,ハクサンシ,センプクジマチ,石川県白山市専福寺町
9240803,石川県,白山市,乾町,イシカワケン,ハクサンシ,イヌイマチ,石川県白山市乾町
9240804,石川県,白山市,徳丸町,イシカワケン,ハクサンシ,トクマルマチ,石川県白山市徳丸町
9240805,石川県,白山市,若宮,イシカワケン,ハクサンシ,ワカミヤ,石川県白山市若宮
9240806,石川県,白山市,石同新町,イシカワケン,ハクサンシ,イシドウシンマチ,石川県白山市石同新町
9240807,石川県,白山市,石同町,イシカワケン,ハクサンシ,イシドウマチ,石川県白山市石同町
9240808,石川県,白山市,布市,イシカワケン,ハクサンシ,ヌノイチ,石川県白山市布市
9240810,石川県,白山市,菜の花,イシカワケン,ハクサンシ,ナノハナ,石川県白山市菜の花
9240811,石川県,白山市,長竹町,イシカワケン,ハクサンシ,ナガタケマチ,石川県白山市長竹町
9240812,石川県,白山市,橋爪町,イシカワケン,ハクサンシ,ハシヅメマチ,石川県白山市橋爪町
9240813,石川県,白山市,福正寺町,イシカワケン,ハクサンシ,フクショウジマチ,石川県白山市福正寺町
9240814,石川県,白山市,橋爪新町,イシカワケン,ハクサンシ,ハシヅメシンマチ,石川県白山市橋爪新町
9240815,石川県,白山市,三浦町,イシカワケン,ハクサンシ,ミウラマチ,石川県白山市三浦町
9240816,石川県,白山市,三幸町,イシカワケン,ハクサンシ,ミユキマチ,石川県白山市三幸町
9240817,石川県,白山市,幸明町,イシカワケン,ハクサンシ,コウミョウマチ,石川県白山市幸明町
9240818,石川県,白山市,中奥町,イシカワケン,ハクサンシ,ナカオクマチ,石川県白山市中奥町
9240819,石川県,白山市,青葉台,イシカワケン,ハクサンシ,アオバダイ,石川県白山市青葉台
9240820,石川県,白山市,美里町,イシカワケン,ハクサンシ,ミサトマチ,石川県白山市美里町
9240821,石川県,白山市,木津町,イシカワケン,ハクサンシ,コウヅマチ,石川県白山市木津町
9240822,石川県,白山市,みずほ,イシカワケン,ハクサンシ,ミズホ,石川県白山市みずほ
9240823,石川県,白山市,坊丸町,イシカワケン,ハクサンシ,ボウマルマチ,石川県白山市坊丸町
9240824,石川県,白山市,田地町,イシカワケン,ハクサンシ,タチマチ,石川県白山市田地町
9240825,石川県,白山市,菅波町,イシカワケン,ハクサンシ,スガナミマチ,石川県白山市菅波町
9240826,石川県,白山市,乙丸町,イシカワケン,ハクサンシ,オトマルマチ,石川県白山市乙丸町
9240827,石川県,白山市,今平町,イシカワケン,ハクサンシ,イマヒラマチ,石川県白山市今平町
9240828,石川県,白山市,上二口町,イシカワケン,ハクサンシ,カミフタクチマチ,石川県白山市上二口町
9240831,石川県,白山市,藤波,イシカワケン,ハクサンシ,フジナミ,石川県白山市藤波
9240832,石川県,白山市,藤木町,イシカワケン,ハクサンシ,フジノキマチ,石川県白山市藤木町
9240833,石川県,白山市,向島町,イシカワケン,ハクサンシ,ムカイジママチ,石川県白山市向島町
9240834,石川県,白山市,矢頃島町,イシカワケン,ハクサンシ,ヤゴロジママチ,石川県白山市矢頃島町
9240835,石川県,白山市,漆島町,イシカワケン,ハクサンシ,ウルシジママチ,石川県白山市漆島町
9240836,石川県,白山市,山島台,イシカワケン,ハクサンシ,ヤマジマダイ,石川県白山市山島台
9240837,石川県,白山市,吉田町,イシカワケン,ハクサンシ,ヨシダマチ,石川県白山市吉田町
9240838,石川県,白山市,八束穂,イシカワケン,ハクサンシ,ヤツカホ,石川県白山市八束穂
9240841,石川県,白山市,平松町,イシカワケン,ハクサンシ,ヒラマツマチ,石川県白山市平松町
9240842,石川県,白山市,剣崎町,イシカワケン,ハクサンシ,ケンザキマチ,石川県白山市剣崎町
9240843,石川県,白山市,安吉町,イシカワケン,ハクサンシ,ヤスヨシマチ,石川県白山市安吉町
9240844,石川県,白山市,寄新保町,イシカワケン,ハクサンシ,ヨリシンボマチ,石川県白山市寄新保町
9240845,石川県,白山市,島田町,イシカワケン,ハクサンシ,シマダマチ,石川県白山市島田町
9240846,石川県,白山市,上島田町,イシカワケン,ハクサンシ,カミシマダマチ,石川県白山市上島田町
9240847,石川県,白山市,内方新保町,イシカワケン,ハクサンシ,ウチカタシンボマチ,石川県白山市内方新保町
9240848,石川県,白山市,長島町,イシカワケン,ハクサンシ,ナガシママチ,石川県白山市長島町
9240851,石川県,白山市,御影堂町,イシカワケン,ハクサンシ,ゴエドウマチ,石川県白山市御影堂町
9240852,石川県,白山市,四ツ屋町,イシカワケン,ハクサンシ,ヨツヤマチ,石川県白山市四ツ屋町
9240853,石川県,白山市,上安田町,イシカワケン,ハクサンシ,カミヤスタマチ,石川県白山市上安田町
9240854,石川県,白山市,出合島町,イシカワケン,ハクサンシ,デアイジママチ,石川県白山市出合島町
9240855,石川県,白山市,水島町,イシカワケン,ハクサンシ,ミズシママチ,石川県白山市水島町
9240856,石川県,白山市,番田町,イシカワケン,ハクサンシ,バンダマチ,石川県白山市番田町
9240857,石川県,白山市,福永町,イシカワケン,ハクサンシ,フクナガマチ,石川県白山市福永町
9240858,石川県,白山市,福新町,イシカワケン,ハクサンシ,フクシンマチ,石川県白山市福新町
9240861,石川県,白山市,横町,イシカワケン,ハクサンシ,ヨコマチ,石川県白山市横町
9240862,石川県,白山市,安田町,イシカワケン,ハクサンシ,ヤスタマチ,石川県白山市安田町
9240863,石川県,白山市,博労,イシカワケン,ハクサンシ,バクロ,石川県白山市博労
9240864,石川県,白山市,馬場,イシカワケン,ハクサンシ,ババ,石川県白山市馬場
9240865,石川県,白山市,倉光,イシカワケン,ハクサンシ,クラミツ,石川県白山市倉光
9240866,石川県,白山市,倉光西,イシカワケン,ハクサンシ,クラミツニシ,石川県白山市倉光西
9240867,石川県,白山市,茶屋,イシカワケン,ハクサンシ,チャヤ,石川県白山市茶屋
9240871,石川県,白山市,西新町,イシカワケン,ハクサンシ,ニシシンマチ,石川県白山市西新町
9240872,石川県,白山市,古城町,イシカワケン,ハクサンシ,フルシロマチ,石川県白山市古城町
9240873,石川県,白山市,八日市町,イシカワケン,ハクサンシ,ヨウカイチマチ,石川県白山市八日市町
9240874,石川県,白山市,四日市町,イシカワケン,ハクサンシ,ヨッカイチマチ,石川県白山市四日市町
9240875,石川県,白山市,辰巳町,イシカワケン,ハクサンシ,タツミチョウ,石川県白山市辰巳町
9240876,石川県,白山市,鍛治町,イシカワケン,ハクサンシ,カジマチ,石川県白山市鍛治町
9240877,石川県,白山市,中町,イシカワケン,ハクサンシ,ナカマチ,石川県白山市中町
9240878,石川県,白山市,末広,イシカワケン,ハクサンシ,スエヒロ,石川県白山市末広
9240881,石川県,白山市,八ツ矢新町,イシカワケン,ハクサンシ,ヤツヤシンチョウ,石川県白山市八ツ矢新町
9240882,石川県,白山市,八ツ矢町,イシカワケン,ハクサンシ,ヤツヤマチ,石川県白山市八ツ矢町
9240883,石川県,白山市,東一番町,イシカワケン,ハクサンシ,ヒガシイチバンチョウ,石川県白山市東一番町
9240884,石川県,白山市,東新町,イシカワケン,ハクサンシ,ヒガシシンマチ,石川県白山市東新町
9240885,石川県,白山市,殿町,イシカワケン,ハクサンシ,トノマチ,石川県白山市殿町
9240886,石川県,白山市,東二番町,イシカワケン,ハクサンシ,ヒガシニバンチョウ,石川県白山市東二番町
9240887,石川県,白山市,東三番町,イシカワケン,ハクサンシ,ヒガシサンバンチョウ,石川県白山市東三番町
9240888,石川県,白山市,旭町,イシカワケン,ハクサンシ,アサヒマチ,石川県白山市旭町
9250000,石川県,羽咋市,,イシカワケン,ハクイシ,,石川県羽咋市
9250001,石川県,羽咋市,柴垣町,イシカワケン,ハクイシ,シバガキマチ,石川県羽咋市柴垣町
9250002,石川県,羽咋市,滝谷町,イシカワケン,ハクイシ,タキダニマチ,石川県羽咋市滝谷町
9250003,石川県,羽咋市,寺家町,イシカワケン,ハクイシ,ジケマチ,石川県羽咋市寺家町
9250004,石川県,羽咋市,一ノ宮町,イシカワケン,ハクイシ,イチノミヤマチ,石川県羽咋市一ノ宮町
9250005,石川県,羽咋市,滝町,イシカワケン,ハクイシ,タキマチ,石川県羽咋市滝町
9250011,石川県,羽咋市,上中山町,イシカワケン,ハクイシ,カミナカヤママチ,石川県羽咋市上中山町
9250012,石川県,羽咋市,千路町,イシカワケン,ハクイシ,チジマチ,石川県羽咋市千路町
9250013,石川県,羽咋市,東釜屋町,イシカワケン,ハクイシ,ヒガシカマヤマチ,石川県羽咋市東釜屋町
9250014,石川県,羽咋市,釜屋町,イシカワケン,ハクイシ,カマヤマチ,石川県羽咋市釜屋町
9250015,石川県,羽咋市,大川町,イシカワケン,ハクイシ,オオカワマチ,石川県羽咋市大川町
9250016,石川県,羽咋市,羽咋町,イシカワケン,ハクイシ,ハクイマチ,石川県羽咋市羽咋町
9250017,石川県,羽咋市,西釜屋町,イシカワケン,ハクイシ,ニシカマヤマチ,石川県羽咋市西釜屋町
9250018,石川県,羽咋市,柳田町,イシカワケン,ハクイシ,ヤナイダマチ,石川県羽咋市柳田町
9250021,石川県,羽咋市,吉崎町,イシカワケン,ハクイシ,ヨシサキマチ,石川県羽咋市吉崎町
9250022,石川県,羽咋市,深江町,イシカワケン,ハクイシ,フカエマチ,石川県羽咋市深江町
9250023,石川県,羽咋市,若草町,イシカワケン,ハクイシ,ワカクサマチ,石川県羽咋市若草町
9250024,石川県,羽咋市,三ツ屋町,イシカワケン,ハクイシ,ミツヤマチ,石川県羽咋市三ツ屋町
9250025,石川県,羽咋市,太田町,イシカワケン,ハクイシ,オオタマチ,石川県羽咋市太田町
9250026,石川県,羽咋市,石野町,イシカワケン,ハクイシ,イシノマチ,石川県羽咋市石野町
9250027,石川県,羽咋市,鶴多町,イシカワケン,ハクイシ,ツルタマチ,石川県羽咋市鶴多町
9250028,石川県,羽咋市,次場町,イシカワケン,ハクイシ,スバマチ,石川県羽咋市次場町
9250031,石川県,羽咋市,東的場町,イシカワケン,ハクイシ,ヒガシマトバマチ,石川県羽咋市東的場町
9250032,石川県,羽咋市,東川原町,イシカワケン,ハクイシ,ヒガシカワラマチ,石川県羽咋市東川原町
9250033,石川県,羽咋市,川原町,イシカワケン,ハクイシ,カワラマチ,石川県羽咋市川原町
9250034,石川県,羽咋市,旭町,イシカワケン,ハクイシ,アサヒマチ,石川県羽咋市旭町
9250035,石川県,羽咋市,本町,イシカワケン,ハクイシ,ホンマチ,石川県羽咋市本町
9250036,石川県,羽咋市,的場町,イシカワケン,ハクイシ,マトバマチ,石川県羽咋市的場町
9250041,石川県,羽咋市,立開町,イシカワケン,ハクイシ,リュウガイマチ,石川県羽咋市立開町
9250042,石川県,羽咋市,土橋町,イシカワケン,ハクイシ,ツチハシマチ,石川県羽咋市土橋町
9250043,石川県,羽咋市,粟原町,イシカワケン,ハクイシ,アワラマチ,石川県羽咋市粟原町
9250044,石川県,羽咋市,新保町,イシカワケン,ハクイシ,シンボマチ,石川県羽咋市新保町
9250045,石川県,羽咋市,粟生町,イシカワケン,ハクイシ,アオマチ,石川県羽咋市粟生町
9250046,石川県,羽咋市,兵庫町,イシカワケン,ハクイシ,ヒョウゴマチ,石川県羽咋市兵庫町
9250047,石川県,羽咋市,御坊山町,イシカワケン,ハクイシ,ゴボウヤママチ,石川県羽咋市御坊山町
9250048,石川県,羽咋市,松ケ下町,イシカワケン,ハクイシ,マツガシタマチ,石川県羽咋市松ケ下町
9250049,石川県,羽咋市,柳橋町,イシカワケン,ハクイシ,ヤナギバシマチ,石川県羽咋市柳橋町
9250051,石川県,羽咋市,島出町,イシカワケン,ハクイシ,シマデマチ,石川県羽咋市島出町
9250052,石川県,羽咋市,中央町,イシカワケン,ハクイシ,チュウオウマチ,石川県羽咋市中央町
9250053,石川県,羽咋市,南中央町,イシカワケン,ハクイシ,ミナミチュウオウマチ,石川県羽咋市南中央町
9250054,石川県,羽咋市,千里浜町,イシカワケン,ハクイシ,チリハママチ,石川県羽咋市千里浜町
9250071,石川県,羽咋市,下曽祢町,イシカワケン,ハクイシ,シモソネマチ,石川県羽咋市下曽祢町
9250072,石川県,羽咋市,大町,イシカワケン,ハクイシ,オオマチ,石川県羽咋市大町
9250073,石川県,羽咋市,四柳町,イシカワケン,ハクイシ,ヨツヤナギマチ,石川県羽咋市四柳町
9250074,石川県,羽咋市,酒井町,イシカワケン,ハクイシ,サカイマチ,石川県羽咋市酒井町
9250075,石川県,羽咋市,金丸出町,イシカワケン,ハクイシ,カネマルデマチ,石川県羽咋市金丸出町
9250076,石川県,羽咋市,鹿島路町,イシカワケン,ハクイシ,カシマジマチ,石川県羽咋市鹿島路町
9250077,石川県,羽咋市,東潟町,イシカワケン,ハクイシ,ヒガシカタマチ,石川県羽咋市東潟町
9250100,石川県,羽咋郡志賀町,,イシカワケン,ハクイグンシカマチ,,石川県羽咋郡志賀町
9250121,石川県,羽咋郡志賀町,安津見,イシカワケン,ハクイグンシカマチ,アヅミ,石川県羽咋郡志賀町安津見
9250122,石川県,羽咋郡志賀町,倉垣,イシカワケン,ハクイグンシカマチ,クラカキ,石川県羽咋郡志賀町倉垣
9250123,石川県,羽咋郡志賀町,矢駄,イシカワケン,ハクイグンシカマチ,ヤダ,石川県羽咋郡志賀町矢駄
9250124,石川県,羽咋郡志賀町,西山,イシカワケン,ハクイグンシカマチ,ニシヤマ,石川県羽咋郡志賀町西山
9250125,石川県,羽咋郡志賀町,西山台,イシカワケン,ハクイグンシカマチ,ニシヤマダイ,石川県羽咋郡志賀町西山台
9250131,石川県,羽咋郡志賀町,米浜,イシカワケン,ハクイグンシカマチ,ヨネハマ,石川県羽咋郡志賀町米浜
9250132,石川県,羽咋郡志賀町,穴口,イシカワケン,ハクイグンシカマチ,アナグチ,石川県羽咋郡志賀町穴口
9250133,石川県,羽咋郡志賀町,大坂,イシカワケン,ハクイグンシカマチ,オオサカ,石川県羽咋郡志賀町大坂
9250134,石川県,羽咋郡志賀町,上棚,イシカワケン,ハクイグンシカマチ,ウワダナ,石川県羽咋郡志賀町上棚
9250135,石川県,羽咋郡志賀町,二所宮,イシカワケン,ハクイグンシカマチ,ニショノミヤ,石川県羽咋郡志賀町二所宮
9250136,石川県,羽咋郡志賀町,舘,イシカワケン,ハクイグンシカマチ,タチ,石川県羽咋郡志賀町舘
9250137,石川県,羽咋郡志賀町,福井,イシカワケン,ハクイグンシカマチ,フクイ,石川県羽咋郡志賀町福井
9250141,石川県,羽咋郡志賀町,高浜町,イシカワケン,ハクイグンシカマチ,タカハマチョウ,石川県羽咋郡志賀町高浜町
9250142,石川県,羽咋郡志賀町,福野,イシカワケン,ハクイグンシカマチ,フクノ,石川県羽咋郡志賀町福野
9250143,石川県,羽咋郡志賀町,宿女,イシカワケン,ハクイグンシカマチ,ヤドメ,石川県羽咋郡志賀町宿女
9250144,石川県,羽咋郡志賀町,坪野,イシカワケン,ハクイグンシカマチ,ツボノ,石川県羽咋郡志賀町坪野
9250145,石川県,羽咋郡志賀町,岩田,イシカワケン,ハクイグンシカマチ,イワタ,石川県羽咋郡志賀町岩田
9250146,石川県,羽咋郡志賀町,甘田,イシカワケン,ハクイグンシカマチ,アマダ,石川県羽咋郡志賀町甘田
9250147,石川県,羽咋郡志賀町,大島,イシカワケン,ハクイグンシカマチ,オシマ,石川県羽咋郡志賀町大島
9250148,石川県,羽咋郡志賀町,長沢,イシカワケン,ハクイグンシカマチ,ナガサワ,石川県羽咋郡志賀町長沢
9250151,石川県,羽咋郡志賀町,梨谷小山,イシカワケン,ハクイグンシカマチ,ナシタニコヤマ,石川県羽咋郡志賀町梨谷小山
9250152,石川県,羽咋郡志賀町,北吉田,イシカワケン,ハクイグンシカマチ,キタヨシダ,石川県羽咋郡志賀町北吉田
9250153,石川県,羽咋郡志賀町,清水今江,イシカワケン,ハクイグンシカマチ,シミズイマエ,石川県羽咋郡志賀町清水今江
9250154,石川県,羽咋郡志賀町,末吉,イシカワケン,ハクイグンシカマチ,スエヨシ,石川県羽咋郡志賀町末吉
9250155,石川県,羽咋郡志賀町,神代,イシカワケン,ハクイグンシカマチ,カクミ,石川県羽咋郡志賀町神代
9250156,石川県,羽咋郡志賀町,矢蔵谷,イシカワケン,ハクイグンシカマチ,ヤグラダニ,石川県羽咋郡志賀町矢蔵谷
9250157,石川県,羽咋郡志賀町,堀松,イシカワケン,ハクイグンシカマチ,ホリマツ,石川県羽咋郡志賀町堀松
9250161,石川県,羽咋郡志賀町,赤住,イシカワケン,ハクイグンシカマチ,アカスミ,石川県羽咋郡志賀町赤住
9250162,石川県,羽咋郡志賀町,百浦,イシカワケン,ハクイグンシカマチ,モモウラ,石川県羽咋郡志賀町百浦
9250163,石川県,羽咋郡志賀町,小浦,イシカワケン,ハクイグンシカマチ,オウラ,石川県羽咋郡志賀町小浦
9250164,石川県,羽咋郡志賀町,大津,イシカワケン,ハクイグンシカマチ,オオヅ,石川県羽咋郡志賀町大津
9250165,石川県,羽咋郡志賀町,上野,イシカワケン,ハクイグンシカマチ,ウワノ,石川県羽咋郡志賀町上野
9250166,石川県,羽咋郡志賀町,安部屋,イシカワケン,ハクイグンシカマチ,アブヤ,石川県羽咋郡志賀町安部屋
9250167,石川県,羽咋郡志賀町,町,イシカワケン,ハクイグンシカマチ,マチ,石川県羽咋郡志賀町町
9250168,石川県,羽咋郡志賀町,川尻,イシカワケン,ハクイグンシカマチ,カワシリ,石川県羽咋郡志賀町川尻
9250201,石川県,羽咋郡志賀町,印内,イシカワケン,ハクイグンシカマチ,インナイ,石川県羽咋郡志賀町印内
9250202,石川県,羽咋郡志賀町,代田,イシカワケン,ハクイグンシカマチ,シナンタ,石川県羽咋郡志賀町代田
9250203,石川県,羽咋郡志賀町,新林,イシカワケン,ハクイグンシカマチ,シンバヤシ,石川県羽咋郡志賀町新林
9250204,石川県,羽咋郡志賀町,牧山,イシカワケン,ハクイグンシカマチ,マキヤマ,石川県羽咋郡志賀町牧山
9250205,石川県,羽咋郡志賀町,仏木,イシカワケン,ハクイグンシカマチ,ホトギリ,石川県羽咋郡志賀町仏木
9250206,石川県,羽咋郡志賀町,谷屋,イシカワケン,ハクイグンシカマチ,タニヤ,石川県羽咋郡志賀町谷屋
9250207,石川県,羽咋郡志賀町,栗山,イシカワケン,ハクイグンシカマチ,クリヤマ,石川県羽咋郡志賀町栗山
9250211,石川県,羽咋郡志賀町,矢田,イシカワケン,ハクイグンシカマチ,ヤタ,石川県羽咋郡志賀町矢田
9250212,石川県,羽咋郡志賀町,徳田,イシカワケン,ハクイグンシカマチ,トクダ,石川県羽咋郡志賀町徳田
9250213,石川県,羽咋郡志賀町,舘開,イシカワケン,ハクイグンシカマチ,タチヒラキ,石川県羽咋郡志賀町舘開
9250214,石川県,羽咋郡志賀町,火打谷,イシカワケン,ハクイグンシカマチ,ヒウチダニ,石川県羽咋郡志賀町火打谷
9250215,石川県,羽咋郡志賀町,出雲,イシカワケン,ハクイグンシカマチ,イズモ,石川県羽咋郡志賀町出雲
9250301,石川県,羽咋郡志賀町,日用,イシカワケン,ハクイグンシカマチ,ヒヨウ,石川県羽咋郡志賀町日用
9250302,石川県,羽咋郡志賀町,町居,イシカワケン,ハクイグンシカマチ,マチイ,石川県羽咋郡志賀町町居
9250303,石川県,羽咋郡志賀町,日下田,イシカワケン,ハクイグンシカマチ,ヒゲタ,石川県羽咋郡志賀町日下田
9250304,石川県,羽咋郡志賀町,中山,イシカワケン,ハクイグンシカマチ,ナカヤマ,石川県羽咋郡志賀町中山
9250305,石川県,羽咋郡志賀町,豊後名,イシカワケン,ハクイグンシカマチ,ブンゴメ,石川県羽咋郡志賀町豊後名
9250306,石川県,羽咋郡志賀町,草木,イシカワケン,ハクイグンシカマチ,クサギ,石川県羽咋郡志賀町草木
9250307,石川県,羽咋郡志賀町,荒屋,イシカワケン,ハクイグンシカマチ,アラヤ,石川県羽咋郡志賀町荒屋
9250311,石川県,羽咋郡志賀町,谷神,イシカワケン,ハクイグンシカマチ,ヤチカミ,石川県羽咋郡志賀町谷神
9250312,石川県,羽咋郡志賀町,六実,イシカワケン,ハクイグンシカマチ,ムツミ,石川県羽咋郡志賀町六実
9250313,石川県,羽咋郡志賀町,三明,イシカワケン,ハクイグンシカマチ,サンミョウ,石川県羽咋郡志賀町三明
9250314,石川県,羽咋郡志賀町,中畠,イシカワケン,ハクイグンシカマチ,ナカバタ,石川県羽咋郡志賀町中畠
9250315,石川県,羽咋郡志賀町,福浦港,イシカワケン,ハクイグンシカマチ,フクラコウ,石川県羽咋郡志賀町福浦港
9250345,石川県,羽咋郡志賀町,富来牛下（巌門）,イシカワケン,ハクイグンシカマチ,トギウシオロシ(ガンモン),石川県羽咋郡志賀町富来牛下（巌門）
9250371,石川県,羽咋郡志賀町,釈迦堂,イシカワケン,ハクイグンシカマチ,シャカドウ,石川県羽咋郡志賀町釈迦堂
9250372,石川県,羽咋郡志賀町,直海,イシカワケン,ハクイグンシカマチ,ノウミ,石川県羽咋郡志賀町直海
9250373,石川県,羽咋郡志賀町,小室,イシカワケン,ハクイグンシカマチ,コモロ,石川県羽咋郡志賀町小室
9250374,石川県,羽咋郡志賀町,松木,イシカワケン,ハクイグンシカマチ,マツノキ,石川県羽咋郡志賀町松木
9250375,石川県,羽咋郡志賀町,若葉台,イシカワケン,ハクイグンシカマチ,ワカバダイ,石川県羽咋郡志賀町若葉台
9250376,石川県,羽咋郡志賀町,長田,イシカワケン,ハクイグンシカマチ,ナガタ,石川県羽咋郡志賀町長田
9250381,石川県,羽咋郡志賀町,田原,イシカワケン,ハクイグンシカマチ,タワラ,石川県羽咋郡志賀町田原
9250382,石川県,羽咋郡志賀町,米町,イシカワケン,ハクイグンシカマチ,コンマチ,石川県羽咋郡志賀町米町
9250383,石川県,羽咋郡志賀町,大笹,イシカワケン,ハクイグンシカマチ,オオザサ,石川県羽咋郡志賀町大笹
9250384,石川県,羽咋郡志賀町,五里峠,イシカワケン,ハクイグンシカマチ,ゴリトウゲ,石川県羽咋郡志賀町五里峠
9250385,石川県,羽咋郡志賀町,牛ケ首,イシカワケン,ハクイグンシカマチ,ウシガクビ,石川県羽咋郡志賀町牛ケ首
9250421,石川県,羽咋郡志賀町,切留,イシカワケン,ハクイグンシカマチ,キリドメ,石川県羽咋郡志賀町切留
9250422,石川県,羽咋郡志賀町,地保,イシカワケン,ハクイグンシカマチ,ジホ,石川県羽咋郡志賀町地保
9250423,石川県,羽咋郡志賀町,鵜野屋,イシカワケン,ハクイグンシカマチ,ウノヤ,石川県羽咋郡志賀町鵜野屋
9250424,石川県,羽咋郡志賀町,入釜,イシカワケン,ハクイグンシカマチ,イリガマ,石川県羽咋郡志賀町入釜
9250425,石川県,羽咋郡志賀町,灯,イシカワケン,ハクイグンシカマチ,トボシ,石川県羽咋郡志賀町灯
9250426,石川県,羽咋郡志賀町,阿川,イシカワケン,ハクイグンシカマチ,アコウ,石川県羽咋郡志賀町阿川
9250427,石川県,羽咋郡志賀町,楚和,イシカワケン,ハクイグンシカマチ,ソワ,石川県羽咋郡志賀町楚和
9250431,石川県,羽咋郡志賀町,尊保,イシカワケン,ハクイグンシカマチ,ソンボ,石川県羽咋郡志賀町尊保
9250432,石川県,羽咋郡志賀町,今田,イシカワケン,ハクイグンシカマチ,イマダ,石川県羽咋郡志賀町今田
9250433,石川県,羽咋郡志賀町,和田,イシカワケン,ハクイグンシカマチ,ワダ,石川県羽咋郡志賀町和田
9250434,石川県,羽咋郡志賀町,大西,イシカワケン,ハクイグンシカマチ,オオニシ,石川県羽咋郡志賀町大西
9250435,石川県,羽咋郡志賀町,江添,イシカワケン,ハクイグンシカマチ,エゾエ,石川県羽咋郡志賀町江添
9250436,石川県,羽咋郡志賀町,貝田,イシカワケン,ハクイグンシカマチ,カイダ,石川県羽咋郡志賀町貝田
9250437,石川県,羽咋郡志賀町,田中,イシカワケン,ハクイグンシカマチ,タナカ,石川県羽咋郡志賀町田中
9250438,石川県,羽咋郡志賀町,八千代,イシカワケン,ハクイグンシカマチ,ヤチヨ,石川県羽咋郡志賀町八千代
9250441,石川県,羽咋郡志賀町,広地,イシカワケン,ハクイグンシカマチ,ヒロヂ,石川県羽咋郡志賀町広地
9250442,石川県,羽咋郡志賀町,東小室,イシカワケン,ハクイグンシカマチ,ヒガシオモロ,石川県羽咋郡志賀町東小室
9250443,石川県,羽咋郡志賀町,富来七海,イシカワケン,ハクイグンシカマチ,トギシツミ,石川県羽咋郡志賀町富来七海
9250444,石川県,羽咋郡志賀町,富来生神,イシカワケン,ハクイグンシカマチ,トギウルカミ,石川県羽咋郡志賀町富来生神
9250445,石川県,羽咋郡志賀町,富来牛下（その他）,イシカワケン,ハクイグンシカマチ,トギウシオロシ(ソノタ),石川県羽咋郡志賀町富来牛下（その他）
9250446,石川県,羽咋郡志賀町,富来地頭町,イシカワケン,ハクイグンシカマチ,トギジトウマチ,石川県羽咋郡志賀町富来地頭町
9250447,石川県,羽咋郡志賀町,富来領家町,イシカワケン,ハクイグンシカマチ,トギリョウケマチ,石川県羽咋郡志賀町富来領家町
9250448,石川県,羽咋郡志賀町,富来高田,イシカワケン,ハクイグンシカマチ,トギタカタ,石川県羽咋郡志賀町富来高田
9250451,石川県,羽咋郡志賀町,八幡,イシカワケン,ハクイグンシカマチ,ヤワタ,石川県羽咋郡志賀町八幡
9250452,石川県,羽咋郡志賀町,中泉,イシカワケン,ハクイグンシカマチ,ナカイズミ,石川県羽咋郡志賀町中泉
9250452,石川県,羽咋郡志賀町,八幡座主,イシカワケン,ハクイグンシカマチ,ヤワタザス,石川県羽咋郡志賀町八幡座主
9250453,石川県,羽咋郡志賀町,里本江,イシカワケン,ハクイグンシカマチ,サトホンゴ,石川県羽咋郡志賀町里本江
9250454,石川県,羽咋郡志賀町,相神,イシカワケン,ハクイグンシカマチ,アイカミ,石川県羽咋郡志賀町相神
9250455,石川県,羽咋郡志賀町,中浜,イシカワケン,ハクイグンシカマチ,ナカハマ,石川県羽咋郡志賀町中浜
9250456,石川県,羽咋郡志賀町,草江,イシカワケン,ハクイグンシカマチ,ソウゴ,石川県羽咋郡志賀町草江
9250457,石川県,羽咋郡志賀町,給分,イシカワケン,ハクイグンシカマチ,キュウブン,石川県羽咋郡志賀町給分
9250561,石川県,羽咋郡志賀町,大福寺,イシカワケン,ハクイグンシカマチ,ダイフクジ,石川県羽咋郡志賀町大福寺
9250562,石川県,羽咋郡志賀町,栢木,イシカワケン,ハクイグンシカマチ,カイノキ,石川県羽咋郡志賀町栢木
9250563,石川県,羽咋郡志賀町,稲敷,イシカワケン,ハクイグンシカマチ,イナシキ,石川県羽咋郡志賀町稲敷
9250564,石川県,羽咋郡志賀町,酒見,イシカワケン,ハクイグンシカマチ,サカミ,石川県羽咋郡志賀町酒見
9250565,石川県,羽咋郡志賀町,香能,イシカワケン,ハクイグンシカマチ,カノウ,石川県羽咋郡志賀町香能
9250566,石川県,羽咋郡志賀町,西海風戸,イシカワケン,ハクイグンシカマチ,サイカイフト,石川県羽咋郡志賀町西海風戸
9250571,石川県,羽咋郡志賀町,西海風無,イシカワケン,ハクイグンシカマチ,サイカイカザナシ,石川県羽咋郡志賀町西海風無
9250572,石川県,羽咋郡志賀町,西海千ノ浦,イシカワケン,ハクイグンシカマチ,サイカイチノウラ,石川県羽咋郡志賀町西海千ノ浦
9250573,石川県,羽咋郡志賀町,西海久喜,イシカワケン,ハクイグンシカマチ,サイカイヒサキ,石川県羽咋郡志賀町西海久喜
9250574,石川県,羽咋郡志賀町,赤崎,イシカワケン,ハクイグンシカマチ,アカサキ,石川県羽咋郡志賀町赤崎
9250575,石川県,羽咋郡志賀町,小窪,イシカワケン,ハクイグンシカマチ,オクボ,石川県羽咋郡志賀町小窪
9250576,石川県,羽咋郡志賀町,鹿頭,イシカワケン,ハクイグンシカマチ,シシズ,石川県羽咋郡志賀町鹿頭
9250577,石川県,羽咋郡志賀町,笹波,イシカワケン,ハクイグンシカマチ,ササナミ,石川県羽咋郡志賀町笹波
9250578,石川県,羽咋郡志賀町,前浜,イシカワケン,ハクイグンシカマチ,マエハマ,石川県羽咋郡志賀町前浜
9250601,石川県,羽咋市,菅池町,イシカワケン,ハクイシ,スガイケマチ,石川県羽咋市菅池町
9250602,石川県,羽咋市,千石町,イシカワケン,ハクイシ,センゴクマチ,石川県羽咋市千石町
9250603,石川県,羽咋市,福水町,イシカワケン,ハクイシ,フクミズマチ,石川県羽咋市福水町
9250604,石川県,羽咋市,白石町,イシカワケン,ハクイシ,シロイシマチ,石川県羽咋市白石町
9250605,石川県,羽咋市,宇土野町,イシカワケン,ハクイシ,ウドノマチ,石川県羽咋市宇土野町
9250606,石川県,羽咋市,白瀬町,イシカワケン,ハクイシ,シロセマチ,石川県羽咋市白瀬町
9250607,石川県,羽咋市,上白瀬町,イシカワケン,ハクイシ,カミシロセマチ,石川県羽咋市上白瀬町
9250608,石川県,羽咋市,神子原町,イシカワケン,ハクイシ,ミコハラマチ,石川県羽咋市神子原町
9250611,石川県,羽咋市,上江町,イシカワケン,ハクイシ,ウワエマチ,石川県羽咋市上江町
9250612,石川県,羽咋市,垣内田町,イシカワケン,ハクイシ,カクッタマチ,石川県羽咋市垣内田町
9250613,石川県,羽咋市,飯山町,イシカワケン,ハクイシ,イノヤママチ,石川県羽咋市飯山町
9250614,石川県,羽咋市,中川町,イシカワケン,ハクイシ,ナカガワマチ,石川県羽咋市中川町
9250615,石川県,羽咋市,千代町,イシカワケン,ハクイシ,チヨマチ,石川県羽咋市千代町
9250616,石川県,羽咋市,四町,イシカワケン,ハクイシ,シチョウ,石川県羽咋市四町
9250617,石川県,羽咋市,円井町,イシカワケン,ハクイシ,ツムライマチ,石川県羽咋市円井町
9250621,石川県,羽咋市,菱分町,イシカワケン,ハクイシ,ヒシワケマチ,石川県羽咋市菱分町
9250622,石川県,羽咋市,堀替新町,イシカワケン,ハクイシ,ホリカエシンマチ,石川県羽咋市堀替新町
9250623,石川県,羽咋市,本江町,イシカワケン,ハクイシ,ホンゴウマチ,石川県羽咋市本江町
9250624,石川県,羽咋市,志々見町,イシカワケン,ハクイシ,シジミマチ,石川県羽咋市志々見町
9250625,石川県,羽咋市,尾長町,イシカワケン,ハクイシ,オナガマチ,石川県羽咋市尾長町
9250626,石川県,羽咋市,千田町,イシカワケン,ハクイシ,センダマチ,石川県羽咋市千田町
9260000,石川県,七尾市,,イシカワケン,ナナオシ,,石川県七尾市
9260001,石川県,七尾市,鵜浦町,イシカワケン,ナナオシ,ウノウラマチ,石川県七尾市鵜浦町
9260002,石川県,七尾市,湯川町,イシカワケン,ナナオシ,ユガワマチ,石川県七尾市湯川町
9260003,石川県,七尾市,沢野町,イシカワケン,ナナオシ,サワノマチ,石川県七尾市沢野町
9260004,石川県,七尾市,殿町,イシカワケン,ナナオシ,トノマチ,石川県七尾市殿町
9260005,石川県,七尾市,岡町,イシカワケン,ナナオシ,オカマチ,石川県七尾市岡町
9260006,石川県,七尾市,大田新町,イシカワケン,ナナオシ,オオタシンマチ,石川県七尾市大田新町
9260006,石川県,七尾市,大田町,イシカワケン,ナナオシ,オオタマチ,石川県七尾市大田町
9260007,石川県,七尾市,三室町,イシカワケン,ナナオシ,ミムロマチ,石川県七尾市三室町
9260011,石川県,七尾市,佐味町,イシカワケン,ナナオシ,サミマチ,石川県七尾市佐味町
9260012,石川県,七尾市,万行町,イシカワケン,ナナオシ,マンギョウマチ,石川県七尾市万行町
9260012,石川県,七尾市,報国町,イシカワケン,ナナオシ,ホウコクマチ,石川県七尾市報国町
9260013,石川県,七尾市,佐野町,イシカワケン,ナナオシ,サノマチ,石川県七尾市佐野町
9260014,石川県,七尾市,矢田町,イシカワケン,ナナオシ,ヤタマチ,石川県七尾市矢田町
9260014,石川県,七尾市,緑ケ丘町,イシカワケン,ナナオシ,ミドリガオカチョウ,石川県七尾市緑ケ丘町
9260015,石川県,七尾市,矢田新町,イシカワケン,ナナオシ,ヤタシンマチ,石川県七尾市矢田新町
9260016,石川県,七尾市,大和町,イシカワケン,ナナオシ,ヤマトマチ,石川県七尾市大和町
9260017,石川県,七尾市,万行,イシカワケン,ナナオシ,マンギョウ,石川県七尾市万行
9260021,石川県,七尾市,巴町,イシカワケン,ナナオシ,トモエマチ,石川県七尾市巴町
9260021,石川県,七尾市,本府中町,イシカワケン,ナナオシ,モトフチュウマチ,石川県七尾市本府中町
9260022,石川県,七尾市,天神川原町,イシカワケン,ナナオシ,テンジンカワラマチ,石川県七尾市天神川原町
9260023,石川県,七尾市,竹町,イシカワケン,ナナオシ,タケマチ,石川県七尾市竹町
9260024,石川県,七尾市,古屋敷町,イシカワケン,ナナオシ,フルヤシキマチ,石川県七尾市古屋敷町
9260025,石川県,七尾市,古城町,イシカワケン,ナナオシ,フルシロマチ,石川県七尾市古城町
9260026,石川県,七尾市,小池川原町,イシカワケン,ナナオシ,コイケガワラマチ,石川県七尾市小池川原町
9260027,石川県,七尾市,後畠町,イシカワケン,ナナオシ,ウシロバタケマチ,石川県七尾市後畠町
9260028,石川県,七尾市,藤野町,イシカワケン,ナナオシ,フジノマチ,石川県七尾市藤野町
9260031,石川県,七尾市,古府町,イシカワケン,ナナオシ,フルコマチ,石川県七尾市古府町
9260032,石川県,七尾市,南ケ丘町,イシカワケン,ナナオシ,ミナミガオカマチ,石川県七尾市南ケ丘町
9260033,石川県,七尾市,千野町,イシカワケン,ナナオシ,チノマチ,石川県七尾市千野町
9260034,石川県,七尾市,多根町,イシカワケン,ナナオシ,タネマチ,石川県七尾市多根町
9260035,石川県,七尾市,八田町,イシカワケン,ナナオシ,ハッタマチ,石川県七尾市八田町
9260036,石川県,七尾市,中挾町,イシカワケン,ナナオシ,ナカバサミマチ,石川県七尾市中挾町
9260037,石川県,七尾市,国下町,イシカワケン,ナナオシ,コクガマチ,石川県七尾市国下町
9260038,石川県,七尾市,八幡町,イシカワケン,ナナオシ,ヤワタマチ,石川県七尾市八幡町
9260041,石川県,七尾市,府中町,イシカワケン,ナナオシ,フチュウマチ,石川県七尾市府中町
9260042,石川県,七尾市,作事町,イシカワケン,ナナオシ,サクジマチ,石川県七尾市作事町
9260043,石川県,七尾市,橘町,イシカワケン,ナナオシ,タチバナチョウ,石川県七尾市橘町
9260044,石川県,七尾市,相生町,イシカワケン,ナナオシ,アイオイチョウ,石川県七尾市相生町
9260045,石川県,七尾市,袖ケ江町,イシカワケン,ナナオシ,ソデガエチョウ,石川県七尾市袖ケ江町
9260046,石川県,七尾市,神明町,イシカワケン,ナナオシ,シンメイチョウ,石川県七尾市神明町
9260047,石川県,七尾市,大手町,イシカワケン,ナナオシ,オオテマチ,石川県七尾市大手町
9260048,石川県,七尾市,桧物町,イシカワケン,ナナオシ,ヒモノマチ,石川県七尾市桧物町
9260051,石川県,七尾市,郡町,イシカワケン,ナナオシ,コオリマチ,石川県七尾市郡町
9260052,石川県,七尾市,山王町,イシカワケン,ナナオシ,サンノウマチ,石川県七尾市山王町
9260053,石川県,七尾市,上府中町,イシカワケン,ナナオシ,カミフチュウマチ,石川県七尾市上府中町
9260054,石川県,七尾市,川原町,イシカワケン,ナナオシ,カワラマチ,石川県七尾市川原町
9260055,石川県,七尾市,今町,イシカワケン,ナナオシ,イママチ,石川県七尾市今町
9260056,石川県,七尾市,塗師町,イシカワケン,ナナオシ,ヌシマチ,石川県七尾市塗師町
9260057,石川県,七尾市,鍛冶町,イシカワケン,ナナオシ,カジマチ,石川県七尾市鍛冶町
9260058,石川県,七尾市,湊町,イシカワケン,ナナオシ,ミナトチョウ,石川県七尾市湊町
9260171,石川県,七尾市,石崎町,イシカワケン,ナナオシ,イシザキマチ,石川県七尾市石崎町
9260172,石川県,七尾市,石崎町（東）,イシカワケン,ナナオシ,イシザキマチ(ヒガシ),石川県七尾市石崎町（東）
9260173,石川県,七尾市,石崎町（西）,イシカワケン,ナナオシ,イシザキマチ(ニシ),石川県七尾市石崎町（西）
9260174,石川県,七尾市,奥原町,イシカワケン,ナナオシ,オクハラマチ,石川県七尾市奥原町
9260175,石川県,七尾市,和倉町,イシカワケン,ナナオシ,ワクラマチ,石川県七尾市和倉町
9260176,石川県,七尾市,和倉町ひばり,イシカワケン,ナナオシ,ワクラマチヒバリ,石川県七尾市和倉町ひばり
9260177,石川県,七尾市,光陽台,イシカワケン,ナナオシ,コウヨウダイ,石川県七尾市光陽台
9260178,石川県,七尾市,石崎町（香島）,イシカワケン,ナナオシ,イシザキマチ(カシマ),石川県七尾市石崎町（香島）
9260179,石川県,七尾市,泉南台,イシカワケン,ナナオシ,センナンダイ,石川県七尾市泉南台
9260201,石川県,七尾市,能登島祖母ケ浦町,イシカワケン,ナナオシ,ノトジマバガウラマチ,石川県七尾市能登島祖母ケ浦町
9260202,石川県,七尾市,能登島八ケ崎町,イシカワケン,ナナオシ,ノトジマハチガサキマチ,石川県七尾市能登島八ケ崎町
9260203,石川県,七尾市,能登島えの目町,イシカワケン,ナナオシ,ノトジマエノメマチ,石川県七尾市能登島えの目町
9260204,石川県,七尾市,能登島長崎町,イシカワケン,ナナオシ,ノトジマナガサキマチ,石川県七尾市能登島長崎町
9260205,石川県,七尾市,能登島野崎町,イシカワケン,ナナオシ,ノトジマノザキマチ,石川県七尾市能登島野崎町
9260206,石川県,七尾市,能登島日出ケ島町,イシカワケン,ナナオシ,ノトジマヒデガシママチ,石川県七尾市能登島日出ケ島町
9260207,石川県,七尾市,能登島二穴町,イシカワケン,ナナオシ,ノトジマフタアナマチ,石川県七尾市能登島二穴町
9260208,石川県,七尾市,能登島小浦町,イシカワケン,ナナオシ,ノトジマオウラマチ,石川県七尾市能登島小浦町
9260211,石川県,七尾市,能登島向田町,イシカワケン,ナナオシ,ノトジマコウダマチ,石川県七尾市能登島向田町
9260212,石川県,七尾市,能登島佐波町,イシカワケン,ナナオシ,ノトジマサナミマチ,石川県七尾市能登島佐波町
9260213,石川県,七尾市,能登島須曽町,イシカワケン,ナナオシ,ノトジマスソマチ,石川県七尾市能登島須曽町
9260214,石川県,七尾市,能登島別所町,イシカワケン,ナナオシ,ノトジマベッショマチ,石川県七尾市能登島別所町
9260215,石川県,七尾市,能登島南町,イシカワケン,ナナオシ,ノトジマミナミマチ,石川県七尾市能登島南町
9260216,石川県,七尾市,能登島曲町,イシカワケン,ナナオシ,ノトジママガリマチ,石川県七尾市能登島曲町
9260221,石川県,七尾市,能登島無関町,イシカワケン,ナナオシ,ノトジマムセキマチ,石川県七尾市能登島無関町
9260222,石川県,七尾市,能登島閨町,イシカワケン,ナナオシ,ノトジマネヤマチ,石川県七尾市能登島閨町
9260223,石川県,七尾市,能登島半浦町,イシカワケン,ナナオシ,ノトジマハンノウラマチ,石川県七尾市能登島半浦町
9260224,石川県,七尾市,能登島百万石町,イシカワケン,ナナオシ,ノトジマヒャクマンゴクマチ,石川県七尾市能登島百万石町
9260225,石川県,七尾市,能登島通町,イシカワケン,ナナオシ,ノトジマトオリマチ,石川県七尾市能登島通町
9260226,石川県,七尾市,能登島田尻町,イシカワケン,ナナオシ,ノトジマタジリマチ,石川県七尾市能登島田尻町
9260227,石川県,七尾市,能登島久木町,イシカワケン,ナナオシ,ノトジマクキマチ,石川県七尾市能登島久木町
9260361,石川県,七尾市,江泊町（日室町）,イシカワケン,ナナオシ,エノトマリマチ(ヒムロマチ),石川県七尾市江泊町（日室町）
9260362,石川県,七尾市,大野木町,イシカワケン,ナナオシ,オオノギマチ,石川県七尾市大野木町
9260363,石川県,七尾市,江泊町,イシカワケン,ナナオシ,エノトマリマチ,石川県七尾市江泊町
9260364,石川県,七尾市,庵町（白鳥町）,イシカワケン,ナナオシ,イオリマチ(シラトリマチ),石川県七尾市庵町（白鳥町）
9260364,石川県,七尾市,江泊町（白鳥町）,イシカワケン,ナナオシ,エノトマリマチ(シラトマリマチ),石川県七尾市江泊町（白鳥町）
9260365,石川県,七尾市,庵町（百海町）,イシカワケン,ナナオシ,イオリマチ(ドウミマチ),石川県七尾市庵町（百海町）
9260366,石川県,七尾市,庵町,イシカワケン,ナナオシ,イオリマチ,石川県七尾市庵町
9260367,石川県,七尾市,庵町（虫崎町）,イシカワケン,ナナオシ,イオリマチ(ムシサキマチ),石川県七尾市庵町（虫崎町）
9260371,石川県,七尾市,佐々波町,イシカワケン,ナナオシ,サザナミマチ,石川県七尾市佐々波町
9260372,石川県,七尾市,麻生町,イシカワケン,ナナオシ,アソウマチ,石川県七尾市麻生町
9260373,石川県,七尾市,小栗町,イシカワケン,ナナオシ,オグリマチ,石川県七尾市小栗町
9260374,石川県,七尾市,清水平町,イシカワケン,ナナオシ,シミズダイラマチ,石川県七尾市清水平町
9260375,石川県,七尾市,柑子町,イシカワケン,ナナオシ,コウジマチ,石川県七尾市柑子町
9260376,石川県,七尾市,外林町,イシカワケン,ナナオシ,ソトバヤシマチ,石川県七尾市外林町
9260381,石川県,七尾市,黒崎町,イシカワケン,ナナオシ,クロサキマチ,石川県七尾市黒崎町
9260382,石川県,七尾市,花園町,イシカワケン,ナナオシ,ハナゾノマチ,石川県七尾市花園町
9260383,石川県,七尾市,東浜町,イシカワケン,ナナオシ,トウノハママチ,石川県七尾市東浜町
9260384,石川県,七尾市,大泊町,イシカワケン,ナナオシ,オオトマリマチ,石川県七尾市大泊町
9260385,石川県,七尾市,山崎町,イシカワケン,ナナオシ,ヤマザキマチ,石川県七尾市山崎町
9260386,石川県,七尾市,山崎町（小川内町）,イシカワケン,ナナオシ,ヤマザキマチ(コウチマチ),石川県七尾市山崎町（小川内町）
9260387,石川県,七尾市,熊淵町,イシカワケン,ナナオシ,クマブチマチ,石川県七尾市熊淵町
9260388,石川県,七尾市,熊淵町（水上町）,イシカワケン,ナナオシ,クマブチマチ(ミズカミマチ),石川県七尾市熊淵町（水上町）
9260389,石川県,七尾市,熊淵町（滝の尻町）,イシカワケン,ナナオシ,クマブチマチ(タキノシリマチ),石川県七尾市熊淵町（滝の尻町）
9260801,石川県,七尾市,昭和町,イシカワケン,ナナオシ,ショウワマチ,石川県七尾市昭和町
9260802,石川県,七尾市,三島町,イシカワケン,ナナオシ,ミシマチョウ,石川県七尾市三島町
9260803,石川県,七尾市,米町,イシカワケン,ナナオシ,コメマチ,石川県七尾市米町
9260804,石川県,七尾市,生駒町,イシカワケン,ナナオシ,イコマチョウ,石川県七尾市生駒町
9260805,石川県,七尾市,亀山町,イシカワケン,ナナオシ,カメヤマチョウ,石川県七尾市亀山町
9260806,石川県,七尾市,一本杉町,イシカワケン,ナナオシ,イッポンスギマチ,石川県七尾市一本杉町
9260807,石川県,七尾市,阿良町,イシカワケン,ナナオシ,アラマチ,石川県七尾市阿良町
9260808,石川県,七尾市,木町,イシカワケン,ナナオシ,キマチ,石川県七尾市木町
9260811,石川県,七尾市,御祓町,イシカワケン,ナナオシ,ミソギチョウ,石川県七尾市御祓町
9260812,石川県,七尾市,北藤橋町,イシカワケン,ナナオシ,キタフジハシマチ,石川県七尾市北藤橋町
9260813,石川県,七尾市,南藤橋町,イシカワケン,ナナオシ,ミナミフジハシマチ,石川県七尾市南藤橋町
9260814,石川県,七尾市,所口町,イシカワケン,ナナオシ,トコログチマチ,石川県七尾市所口町
9260815,石川県,七尾市,栄町,イシカワケン,ナナオシ,サカエマチ,石川県七尾市栄町
9260816,石川県,七尾市,岩屋町,イシカワケン,ナナオシ,イワヤマチ,石川県七尾市岩屋町
9260816,石川県,七尾市,藤橋町,イシカワケン,ナナオシ,フジハシマチ,石川県七尾市藤橋町
9260817,石川県,七尾市,西藤橋町,イシカワケン,ナナオシ,ニシフジハシマチ,石川県七尾市西藤橋町
9260818,石川県,七尾市,馬出町,イシカワケン,ナナオシ,ウマダシマチ,石川県七尾市馬出町
9260821,石川県,七尾市,国分町,イシカワケン,ナナオシ,コクブマチ,石川県七尾市国分町
9260822,石川県,七尾市,細口町,イシカワケン,ナナオシ,ホソグチマチ,石川県七尾市細口町
9260823,石川県,七尾市,青葉台町,イシカワケン,ナナオシ,アオバダイマチ,石川県七尾市青葉台町
9260824,石川県,七尾市,下町,イシカワケン,ナナオシ,シモマチ,石川県七尾市下町
9260824,石川県,七尾市,徳田町,イシカワケン,ナナオシ,トクダマチ,石川県七尾市徳田町
9260825,石川県,七尾市,江曽町,イシカワケン,ナナオシ,エソマチ,石川県七尾市江曽町
9260826,石川県,七尾市,飯川町,イシカワケン,ナナオシ,イガワマチ,石川県七尾市飯川町
9260827,石川県,七尾市,若林町,イシカワケン,ナナオシ,ワカバヤシマチ,石川県七尾市若林町
9260828,石川県,七尾市,白馬町,イシカワケン,ナナオシ,シロウママチ,石川県七尾市白馬町
9260829,石川県,七尾市,徳田新町,イシカワケン,ナナオシ,トクダシンマチ,石川県七尾市徳田新町
9260831,石川県,七尾市,池崎町,イシカワケン,ナナオシ,イケザキマチ,石川県七尾市池崎町
9260831,石川県,七尾市,青山町,イシカワケン,ナナオシ,アオヤママチ,石川県七尾市青山町
9260832,石川県,七尾市,盤若野町,イシカワケン,ナナオシ,ハンニャノマチ,石川県七尾市盤若野町
9260833,石川県,七尾市,旭町,イシカワケン,ナナオシ,アサヒマチ,石川県七尾市旭町
9260834,石川県,七尾市,東三階町,イシカワケン,ナナオシ,ヒガシミカイマチ,石川県七尾市東三階町
9260835,石川県,七尾市,西三階町,イシカワケン,ナナオシ,ニシミカイマチ,石川県七尾市西三階町
9260836,石川県,七尾市,町屋町,イシカワケン,ナナオシ,マチヤマチ,石川県七尾市町屋町
9260837,石川県,七尾市,温井町,イシカワケン,ナナオシ,ヌクイマチ,石川県七尾市温井町
9260838,石川県,七尾市,満仁町,イシカワケン,ナナオシ,マニマチ,石川県七尾市満仁町
9260841,石川県,七尾市,松百町,イシカワケン,ナナオシ,マットウマチ,石川県七尾市松百町
9260842,石川県,七尾市,松百新町,イシカワケン,ナナオシ,マットウシンマチ,石川県七尾市松百新町
9260843,石川県,七尾市,赤浦町,イシカワケン,ナナオシ,アカウラマチ,石川県七尾市赤浦町
9260844,石川県,七尾市,直津町,イシカワケン,ナナオシ,タダツマチ,石川県七尾市直津町
9260845,石川県,七尾市,新保町,イシカワケン,ナナオシ,シンボマチ,石川県七尾市新保町
9260846,石川県,七尾市,祖浜町,イシカワケン,ナナオシ,ソハママチ,石川県七尾市祖浜町
9260851,石川県,七尾市,つつじが浜,イシカワケン,ナナオシ,ツツジガハマ,石川県七尾市つつじが浜
9260852,石川県,七尾市,小島町,イシカワケン,ナナオシ,コジママチ,石川県七尾市小島町
9260853,石川県,七尾市,津向町,イシカワケン,ナナオシ,ツムギマチ,石川県七尾市津向町
9260854,石川県,七尾市,なぎの浦,イシカワケン,ナナオシ,ナギノウラ,石川県七尾市なぎの浦
9260855,石川県,七尾市,小丸山台,イシカワケン,ナナオシ,コマルヤマダイ,石川県七尾市小丸山台
9260861,石川県,七尾市,寿町,イシカワケン,ナナオシ,コトブキチョウ,石川県七尾市寿町
9260862,石川県,七尾市,常盤町,イシカワケン,ナナオシ,トキワマチ,石川県七尾市常盤町
9260863,石川県,七尾市,白銀町,イシカワケン,ナナオシ,シロガネチョウ,石川県七尾市白銀町
9260864,石川県,七尾市,魚町,イシカワケン,ナナオシ,ウオマチ,石川県七尾市魚町
9260865,石川県,七尾市,松本町,イシカワケン,ナナオシ,マツモトチョウ,石川県七尾市松本町
9260866,石川県,七尾市,富岡町,イシカワケン,ナナオシ,トミオカチョウ,石川県七尾市富岡町
9260867,石川県,七尾市,桜町,イシカワケン,ナナオシ,サクラマチ,石川県七尾市桜町
9270000,石川県,鳳珠郡穴水町,,イシカワケン,ホウスグンアナミズマチ,,石川県鳳珠郡穴水町
9270001,石川県,鳳珠郡穴水町,樟谷,イシカワケン,ホウスグンアナミズマチ,クノギタニ,石川県鳳珠郡穴水町樟谷
9270002,石川県,鳳珠郡穴水町,菅谷,イシカワケン,ホウスグンアナミズマチ,スゲンタニ,石川県鳳珠郡穴水町菅谷
9270003,石川県,鳳珠郡穴水町,伊久留,イシカワケン,ホウスグンアナミズマチ,イクロ,石川県鳳珠郡穴水町伊久留
9270004,石川県,鳳珠郡穴水町,曽山,イシカワケン,ホウスグンアナミズマチ,ソヤマ,石川県鳳珠郡穴水町曽山
9270005,石川県,鳳珠郡穴水町,東中谷,イシカワケン,ホウスグンアナミズマチ,ヒガシナカンタニ,石川県鳳珠郡穴水町東中谷
9270006,石川県,鳳珠郡穴水町,旭ケ丘,イシカワケン,ホウスグンアナミズマチ,アサヒガオカ,石川県鳳珠郡穴水町旭ケ丘
9270007,石川県,鳳珠郡穴水町,岩車,イシカワケン,ホウスグンアナミズマチ,イワグルマ,石川県鳳珠郡穴水町岩車
9270008,石川県,鳳珠郡穴水町,川尻,イシカワケン,ホウスグンアナミズマチ,カワシリ,石川県鳳珠郡穴水町川尻
9270009,石川県,鳳珠郡穴水町,比良,イシカワケン,ホウスグンアナミズマチ,ビラ,石川県鳳珠郡穴水町比良
9270011,石川県,鳳珠郡穴水町,木原,イシカワケン,ホウスグンアナミズマチ,キハラ,石川県鳳珠郡穴水町木原
9270012,石川県,鳳珠郡穴水町,藤巻,イシカワケン,ホウスグンアナミズマチ,フジマキ,石川県鳳珠郡穴水町藤巻
9270013,石川県,鳳珠郡穴水町,瑞鳳,イシカワケン,ホウスグンアナミズマチ,ズイホウ,石川県鳳珠郡穴水町瑞鳳
9270014,石川県,鳳珠郡穴水町,梶,イシカワケン,ホウスグンアナミズマチ,カジ,石川県鳳珠郡穴水町梶
9270015,石川県,鳳珠郡穴水町,中居,イシカワケン,ホウスグンアナミズマチ,ナカイ,石川県鳳珠郡穴水町中居
9270016,石川県,鳳珠郡穴水町,中居南,イシカワケン,ホウスグンアナミズマチ,ナカイミナミ,石川県鳳珠郡穴水町中居南
9270017,石川県,鳳珠郡穴水町,波志借,イシカワケン,ホウスグンアナミズマチ,ハジカシ,石川県鳳珠郡穴水町波志借
9270021,石川県,鳳珠郡穴水町,七海,イシカワケン,ホウスグンアナミズマチ,シツミ,石川県鳳珠郡穴水町七海
9270022,石川県,鳳珠郡穴水町,北七海,イシカワケン,ホウスグンアナミズマチ,キタシツミ,石川県鳳珠郡穴水町北七海
9270023,石川県,鳳珠郡穴水町,麦ケ浦,イシカワケン,ホウスグンアナミズマチ,ムキガウラ,石川県鳳珠郡穴水町麦ケ浦
9270024,石川県,鳳珠郡穴水町,由比ケ丘,イシカワケン,ホウスグンアナミズマチ,ユイガオカ,石川県鳳珠郡穴水町由比ケ丘
9270025,石川県,鳳珠郡穴水町,内浦,イシカワケン,ホウスグンアナミズマチ,ウチウラ,石川県鳳珠郡穴水町内浦
9270026,石川県,鳳珠郡穴水町,大町,イシカワケン,ホウスグンアナミズマチ,オオマチ,石川県鳳珠郡穴水町大町
9270027,石川県,鳳珠郡穴水町,川島,イシカワケン,ホウスグンアナミズマチ,カワジマ,石川県鳳珠郡穴水町川島
9270031,石川県,鳳珠郡穴水町,鵜島,イシカワケン,ホウスグンアナミズマチ,ウジマ,石川県鳳珠郡穴水町鵜島
9270032,石川県,鳳珠郡穴水町,乙ケ崎,イシカワケン,ホウスグンアナミズマチ,オトガサキ,石川県鳳珠郡穴水町乙ケ崎
9270033,石川県,鳳珠郡穴水町,緑ケ丘,イシカワケン,ホウスグンアナミズマチ,ミドリガオカ,石川県鳳珠郡穴水町緑ケ丘
9270034,石川県,鳳珠郡穴水町,新崎,イシカワケン,ホウスグンアナミズマチ,ニンザキ,石川県鳳珠郡穴水町新崎
9270035,石川県,鳳珠郡穴水町,志ケ浦,イシカワケン,ホウスグンアナミズマチ,シガウラ,石川県鳳珠郡穴水町志ケ浦
9270036,石川県,鳳珠郡穴水町,望洋台,イシカワケン,ホウスグンアナミズマチ,ボウヨウダイ,石川県鳳珠郡穴水町望洋台
9270037,石川県,鳳珠郡穴水町,根木,イシカワケン,ホウスグンアナミズマチ,ネキ,石川県鳳珠郡穴水町根木
9270038,石川県,鳳珠郡穴水町,鹿島,イシカワケン,ホウスグンアナミズマチ,カシマ,石川県鳳珠郡穴水町鹿島
9270039,石川県,鳳珠郡穴水町,曽福,イシカワケン,ホウスグンアナミズマチ,ソブク,石川県鳳珠郡穴水町曽福
9270041,石川県,鳳珠郡穴水町,天神谷,イシカワケン,ホウスグンアナミズマチ,テンジンダニ,石川県鳳珠郡穴水町天神谷
9270042,石川県,鳳珠郡穴水町,宇留地,イシカワケン,ホウスグンアナミズマチ,ウルチ,石川県鳳珠郡穴水町宇留地
9270043,石川県,鳳珠郡穴水町,越の原,イシカワケン,ホウスグンアナミズマチ,コシノハラ,石川県鳳珠郡穴水町越の原
9270044,石川県,鳳珠郡穴水町,鹿路,イシカワケン,ホウスグンアナミズマチ,ロクロ,石川県鳳珠郡穴水町鹿路
9270045,石川県,鳳珠郡穴水町,河内,イシカワケン,ホウスグンアナミズマチ,カワチ,石川県鳳珠郡穴水町河内
9270046,石川県,鳳珠郡穴水町,汁谷,イシカワケン,ホウスグンアナミズマチ,シルタニ,石川県鳳珠郡穴水町汁谷
9270046,石川県,鳳珠郡穴水町,越渡,イシカワケン,ホウスグンアナミズマチ,コエト,石川県鳳珠郡穴水町越渡
9270047,石川県,鳳珠郡穴水町,上中,イシカワケン,ホウスグンアナミズマチ,カミナカ,石川県鳳珠郡穴水町上中
9270048,石川県,鳳珠郡穴水町,大角間,イシカワケン,ホウスグンアナミズマチ,オオカクマ,石川県鳳珠郡穴水町大角間
9270049,石川県,鳳珠郡穴水町,桂谷,イシカワケン,ホウスグンアナミズマチ,カツラダニ,石川県鳳珠郡穴水町桂谷
9270051,石川県,鳳珠郡穴水町,小又,イシカワケン,ホウスグンアナミズマチ,オマタ,石川県鳳珠郡穴水町小又
9270052,石川県,鳳珠郡穴水町,平野,イシカワケン,ホウスグンアナミズマチ,ヒラノ,石川県鳳珠郡穴水町平野
9270053,石川県,鳳珠郡穴水町,此木,イシカワケン,ホウスグンアナミズマチ,クノギ,石川県鳳珠郡穴水町此木
9270054,石川県,鳳珠郡穴水町,上野,イシカワケン,ホウスグンアナミズマチ,ウワノ,石川県鳳珠郡穴水町上野
9270055,石川県,鳳珠郡穴水町,地蔵坊,イシカワケン,ホウスグンアナミズマチ,ジゾウボウ,石川県鳳珠郡穴水町地蔵坊
9270056,石川県,鳳珠郡穴水町,上唐川,イシカワケン,ホウスグンアナミズマチ,カミカラカワ,石川県鳳珠郡穴水町上唐川
9270057,石川県,鳳珠郡穴水町,下唐川,イシカワケン,ホウスグンアナミズマチ,シモカラカワ,石川県鳳珠郡穴水町下唐川
9270058,石川県,鳳珠郡穴水町,挾石,イシカワケン,ホウスグンアナミズマチ,ハサミシ,石川県鳳珠郡穴水町挾石
9270201,石川県,鳳珠郡穴水町,竹太,イシカワケン,ホウスグンアナミズマチ,タケダ,石川県鳳珠郡穴水町竹太
9270202,石川県,鳳珠郡穴水町,古君,イシカワケン,ホウスグンアナミズマチ,フルキミ,石川県鳳珠郡穴水町古君
9270203,石川県,鳳珠郡穴水町,花園,イシカワケン,ホウスグンアナミズマチ,ハナゾノ,石川県鳳珠郡穴水町花園
9270204,石川県,鳳珠郡穴水町,明千寺,イシカワケン,ホウスグンアナミズマチ,ミョウセンジ,石川県鳳珠郡穴水町明千寺
9270205,石川県,鳳珠郡穴水町,宇加川,イシカワケン,ホウスグンアナミズマチ,ウカガワ,石川県鳳珠郡穴水町宇加川
9270206,石川県,鳳珠郡穴水町,前波,イシカワケン,ホウスグンアナミズマチ,マエナミ,石川県鳳珠郡穴水町前波
9270207,石川県,鳳珠郡穴水町,沖波,イシカワケン,ホウスグンアナミズマチ,オキナミ,石川県鳳珠郡穴水町沖波
9270211,石川県,鳳珠郡穴水町,甲,イシカワケン,ホウスグンアナミズマチ,カブト,石川県鳳珠郡穴水町甲
9270212,石川県,鳳珠郡穴水町,黒崎,イシカワケン,ホウスグンアナミズマチ,クロサキ,石川県鳳珠郡穴水町黒崎
9270213,石川県,鳳珠郡穴水町,至誠,イシカワケン,ホウスグンアナミズマチ,シセイ,石川県鳳珠郡穴水町至誠
9270214,石川県,鳳珠郡穴水町,小甲,イシカワケン,ホウスグンアナミズマチ,コカブト,石川県鳳珠郡穴水町小甲
9270215,石川県,鳳珠郡穴水町,大甲,イシカワケン,ホウスグンアナミズマチ,オオカブト,石川県鳳珠郡穴水町大甲
9270221,石川県,鳳珠郡穴水町,曽良,イシカワケン,ホウスグンアナミズマチ,ソラ,石川県鳳珠郡穴水町曽良
9270222,石川県,鳳珠郡穴水町,大郷,イシカワケン,ホウスグンアナミズマチ,ダイゴウ,石川県鳳珠郡穴水町大郷
9270223,石川県,鳳珠郡穴水町,鹿波,イシカワケン,ホウスグンアナミズマチ,カナミ,石川県鳳珠郡穴水町鹿波
9270224,石川県,鳳珠郡穴水町,鹿上,イシカワケン,ホウスグンアナミズマチ,シカガミ,石川県鳳珠郡穴水町鹿上
9270225,石川県,鳳珠郡穴水町,野並,イシカワケン,ホウスグンアナミズマチ,ノナミ,石川県鳳珠郡穴水町野並
9270231,石川県,鳳珠郡穴水町,山中,イシカワケン,ホウスグンアナミズマチ,ヤマナカ,石川県鳳珠郡穴水町山中
9270232,石川県,鳳珠郡穴水町,東山,イシカワケン,ホウスグンアナミズマチ,ヒガシヤマ,石川県鳳珠郡穴水町東山
9270233,石川県,鳳珠郡穴水町,女良川,イシカワケン,ホウスグンアナミズマチ,メラガワ,石川県鳳珠郡穴水町女良川
9270234,石川県,鳳珠郡穴水町,小又（山中）,イシカワケン,ホウスグンアナミズマチ,コマタ(ヤマナカ),石川県鳳珠郡穴水町小又（山中）
9270235,石川県,鳳珠郡穴水町,市ノ坂,イシカワケン,ホウスグンアナミズマチ,イチノサカ,石川県鳳珠郡穴水町市ノ坂
9270301,石川県,鳳珠郡能登町,七見,イシカワケン,ホウスグンノトチョウ,シチミ,石川県鳳珠郡能登町七見
9270302,石川県,鳳珠郡能登町,鵜川,イシカワケン,ホウスグンノトチョウ,ウカワ,石川県鳳珠郡能登町鵜川
9270303,石川県,鳳珠郡能登町,小垣,イシカワケン,ホウスグンノトチョウ,オガキ,石川県鳳珠郡能登町小垣
9270304,石川県,鳳珠郡能登町,柿生,イシカワケン,ホウスグンノトチョウ,カキオ,石川県鳳珠郡能登町柿生
9270305,石川県,鳳珠郡能登町,武連,イシカワケン,ホウスグンノトチョウ,ムレ,石川県鳳珠郡能登町武連
9270311,石川県,鳳珠郡能登町,瑞穂,イシカワケン,ホウスグンノトチョウ,ミズホ,石川県鳳珠郡能登町瑞穂
9270312,石川県,鳳珠郡能登町,本木,イシカワケン,ホウスグンノトチョウ,ホンキ,石川県鳳珠郡能登町本木
9270313,石川県,鳳珠郡能登町,木住,イシカワケン,ホウスグンノトチョウ,キズミ,石川県鳳珠郡能登町木住
9270314,石川県,鳳珠郡能登町,山田,イシカワケン,ホウスグンノトチョウ,ヤマダ,石川県鳳珠郡能登町山田
9270315,石川県,鳳珠郡能登町,豊ケ丘,イシカワケン,ホウスグンノトチョウ,トヨガオカ,石川県鳳珠郡能登町豊ケ丘
9270321,石川県,鳳珠郡能登町,爼倉,イシカワケン,ホウスグンノトチョウ,マナイタグラ,石川県鳳珠郡能登町爼倉
9270322,石川県,鳳珠郡能登町,宮地,イシカワケン,ホウスグンノトチョウ,ミヤチ,石川県鳳珠郡能登町宮地
9270323,石川県,鳳珠郡能登町,鮭尾,イシカワケン,ホウスグンノトチョウ,サケオ,石川県鳳珠郡能登町鮭尾
9270324,石川県,鳳珠郡能登町,柏木,イシカワケン,ホウスグンノトチョウ,カシワギ,石川県鳳珠郡能登町柏木
9270325,石川県,鳳珠郡能登町,太田原,イシカワケン,ホウスグンノトチョウ,オオダワラ,石川県鳳珠郡能登町太田原
9270400,石川県,鳳珠郡能登町,,イシカワケン,ホウスグンノトチョウ,,石川県鳳珠郡能登町
9270431,石川県,鳳珠郡能登町,宇出津山分,イシカワケン,ホウスグンノトチョウ,ウシツヤマブン,石川県鳳珠郡能登町宇出津山分
9270432,石川県,鳳珠郡能登町,宇出津新,イシカワケン,ホウスグンノトチョウ,ウシツシン,石川県鳳珠郡能登町宇出津新
9270433,石川県,鳳珠郡能登町,宇出津,イシカワケン,ホウスグンノトチョウ,ウシツ,石川県鳳珠郡能登町宇出津
9270434,石川県,鳳珠郡能登町,崎山,イシカワケン,ホウスグンノトチョウ,サキヤマ,石川県鳳珠郡能登町崎山
9270435,石川県,鳳珠郡能登町,宇出津新港,イシカワケン,ホウスグンノトチョウ,ウシツシンコウ,石川県鳳珠郡能登町宇出津新港
9270441,石川県,鳳珠郡能登町,藤波,イシカワケン,ホウスグンノトチョウ,フジナミ,石川県鳳珠郡能登町藤波
9270442,石川県,鳳珠郡能登町,波並,イシカワケン,ホウスグンノトチョウ,ハナミ,石川県鳳珠郡能登町波並
9270443,石川県,鳳珠郡能登町,矢波,イシカワケン,ホウスグンノトチョウ,ヤナミ,石川県鳳珠郡能登町矢波
9270444,石川県,鳳珠郡能登町,猪平,イシカワケン,ホウスグンノトチョウ,イノヒラ,石川県鳳珠郡能登町猪平
9270451,石川県,鳳珠郡能登町,藤ノ瀬,イシカワケン,ホウスグンノトチョウ,フジノセ,石川県鳳珠郡能登町藤ノ瀬
9270452,石川県,鳳珠郡能登町,宇加塚,イシカワケン,ホウスグンノトチョウ,ウカヅカ,石川県鳳珠郡能登町宇加塚
9270453,石川県,鳳珠郡能登町,鶴町,イシカワケン,ホウスグンノトチョウ,ツルマチ,石川県鳳珠郡能登町鶴町
9270454,石川県,鳳珠郡能登町,曽又,イシカワケン,ホウスグンノトチョウ,ソマタ,石川県鳳珠郡能登町曽又
9270551,石川県,鳳珠郡能登町,明野,イシカワケン,ホウスグンノトチョウ,アケノ,石川県鳳珠郡能登町明野
9270552,石川県,鳳珠郡能登町,越坂,イシカワケン,ホウスグンノトチョウ,オッサカ,石川県鳳珠郡能登町越坂
9270553,石川県,鳳珠郡能登町,小木,イシカワケン,ホウスグンノトチョウ,オギ,石川県鳳珠郡能登町小木
9270554,石川県,鳳珠郡能登町,市之瀬,イシカワケン,ホウスグンノトチョウ,イチノセ,石川県鳳珠郡能登町市之瀬
9270555,石川県,鳳珠郡能登町,羽生（ろ）,イシカワケン,ホウスグンノトチョウ,ハニュウ(ロ),石川県鳳珠郡能登町羽生（ろ）
9270561,石川県,鳳珠郡能登町,羽生（い）,イシカワケン,ホウスグンノトチョウ,ハニュウ(イ),石川県鳳珠郡能登町羽生（い）
9270562,石川県,鳳珠郡能登町,真脇,イシカワケン,ホウスグンノトチョウ,マワキ,石川県鳳珠郡能登町真脇
9270563,石川県,鳳珠郡能登町,姫,イシカワケン,ホウスグンノトチョウ,ヒメ,石川県鳳珠郡能登町姫
9270564,石川県,鳳珠郡能登町,小浦,イシカワケン,ホウスグンノトチョウ,オウラ,石川県鳳珠郡能登町小浦
9270565,石川県,鳳珠郡能登町,羽根,イシカワケン,ホウスグンノトチョウ,ハネ,石川県鳳珠郡能登町羽根
9270601,石川県,鳳珠郡能登町,恋路,イシカワケン,ホウスグンノトチョウ,コイジ,石川県鳳珠郡能登町恋路
9270602,石川県,鳳珠郡能登町,明生,イシカワケン,ホウスグンノトチョウ,ミョウジョウ,石川県鳳珠郡能登町明生
9270602,石川県,鳳珠郡能登町,松波,イシカワケン,ホウスグンノトチョウ,マツナミ,石川県鳳珠郡能登町松波
9270603,石川県,鳳珠郡能登町,布浦,イシカワケン,ホウスグンノトチョウ,ヌノウラ,石川県鳳珠郡能登町布浦
9270604,石川県,鳳珠郡能登町,九里川尻,イシカワケン,ホウスグンノトチョウ,クリカワシリ,石川県鳳珠郡能登町九里川尻
9270605,石川県,鳳珠郡能登町,立壁,イシカワケン,ホウスグンノトチョウ,タテカベ,石川県鳳珠郡能登町立壁
9270606,石川県,鳳珠郡能登町,四方山,イシカワケン,ホウスグンノトチョウ,ヨモヤマ,石川県鳳珠郡能登町四方山
9270607,石川県,鳳珠郡能登町,白丸,イシカワケン,ホウスグンノトチョウ,シロマル,石川県鳳珠郡能登町白丸
9270608,石川県,鳳珠郡能登町,内浦長尾,イシカワケン,ホウスグンノトチョウ,ウチウラナゴ,石川県鳳珠郡能登町内浦長尾
9270609,石川県,鳳珠郡能登町,新保,イシカワケン,ホウスグンノトチョウ,シンボ,石川県鳳珠郡能登町新保
9270611,石川県,鳳珠郡能登町,清真,イシカワケン,ホウスグンノトチョウ,キヨザネ,石川県鳳珠郡能登町清真
9270612,石川県,鳳珠郡能登町,秋吉,イシカワケン,ホウスグンノトチョウ,アキヨシ,石川県鳳珠郡能登町秋吉
9270613,石川県,鳳珠郡能登町,河ケ谷,イシカワケン,ホウスグンノトチョウ,カガタニ,石川県鳳珠郡能登町河ケ谷
9270614,石川県,鳳珠郡能登町,山中,イシカワケン,ホウスグンノトチョウ,ヤマナカ,石川県鳳珠郡能登町山中
9270614,石川県,鳳珠郡能登町,満泉寺,イシカワケン,ホウスグンノトチョウ,マンセンジ,石川県鳳珠郡能登町満泉寺
9270615,石川県,鳳珠郡能登町,宮犬,イシカワケン,ホウスグンノトチョウ,ミヤイヌ,石川県鳳珠郡能登町宮犬
9270621,石川県,鳳珠郡能登町,上,イシカワケン,ホウスグンノトチョウ,カミ,石川県鳳珠郡能登町上
9270622,石川県,鳳珠郡能登町,不動寺,イシカワケン,ホウスグンノトチョウ,フドウジ,石川県鳳珠郡能登町不動寺
9270623,石川県,鳳珠郡能登町,行延,イシカワケン,ホウスグンノトチョウ,ユキノベ,石川県鳳珠郡能登町行延
9270624,石川県,鳳珠郡能登町,時長,イシカワケン,ホウスグンノトチョウ,トキナガ,石川県鳳珠郡能登町時長
9270625,石川県,鳳珠郡能登町,国重,イシカワケン,ホウスグンノトチョウ,クニシゲ,石川県鳳珠郡能登町国重
9270626,石川県,鳳珠郡能登町,泉,イシカワケン,ホウスグンノトチョウ,イズミ,石川県鳳珠郡能登町泉
9270626,石川県,鳳珠郡能登町,田代,イシカワケン,ホウスグンノトチョウ,タシロ,石川県鳳珠郡能登町田代
9270626,石川県,鳳珠郡能登町,駒渡,イシカワケン,ホウスグンノトチョウ,コマワタリ,石川県鳳珠郡能登町駒渡
9270627,石川県,鳳珠郡能登町,滝之坊,イシカワケン,ホウスグンノトチョウ,タキノボ,石川県鳳珠郡能登町滝之坊
9270627,石川県,鳳珠郡能登町,福光,イシカワケン,ホウスグンノトチョウ,フクミツ,石川県鳳珠郡能登町福光
9271200,石川県,珠洲市,,イシカワケン,スズシ,,石川県珠洲市
9271201,石川県,珠洲市,正院町岡田,イシカワケン,スズシ,ショウインマチオカタ,石川県珠洲市正院町岡田
9271202,石川県,珠洲市,正院町飯塚,イシカワケン,スズシ,ショウインマチイイヅカ,石川県珠洲市正院町飯塚
9271203,石川県,珠洲市,正院町平床,イシカワケン,スズシ,ショウインマチヒラトコ,石川県珠洲市正院町平床
9271204,石川県,珠洲市,蛸島町,イシカワケン,スズシ,タコジママチ,石川県珠洲市蛸島町
9271205,石川県,珠洲市,正院町川尻,イシカワケン,スズシ,ショウインマチカワシリ,石川県珠洲市正院町川尻
9271206,石川県,珠洲市,正院町正院,イシカワケン,スズシ,ショウインマチショウイン,石川県珠洲市正院町正院
9271207,石川県,珠洲市,正院町小路,イシカワケン,スズシ,ショウインマチコウジ,石川県珠洲市正院町小路
9271211,石川県,珠洲市,岩坂町,イシカワケン,スズシ,イワサカマチ,石川県珠洲市岩坂町
9271212,石川県,珠洲市,熊谷町,イシカワケン,スズシ,クマンタニマチ,石川県珠洲市熊谷町
9271213,石川県,珠洲市,野々江町,イシカワケン,スズシ,ノノエマチ,石川県珠洲市野々江町
9271214,石川県,珠洲市,飯田町,イシカワケン,スズシ,イイダマチ,石川県珠洲市飯田町
9271215,石川県,珠洲市,上戸町北方,イシカワケン,スズシ,ウエドマチキタガタ,石川県珠洲市上戸町北方
9271216,石川県,珠洲市,上戸町寺社,イシカワケン,スズシ,ウエドマチジシャ,石川県珠洲市上戸町寺社
9271217,石川県,珠洲市,上戸町南方,イシカワケン,スズシ,ウエドマチミナミガタ,石川県珠洲市上戸町南方
9271221,石川県,珠洲市,宝立町春日野,イシカワケン,スズシ,ホウリュウマチカスガノ,石川県珠洲市宝立町春日野
9271221,石川県,珠洲市,宝立町金峰寺,イシカワケン,スズシ,ホウリュウマチコンポウジ,石川県珠洲市宝立町金峰寺
9271222,石川県,珠洲市,宝立町鵜飼,イシカワケン,スズシ,ホウリュウマチウカイ,石川県珠洲市宝立町鵜飼
9271223,石川県,珠洲市,宝立町鵜島,イシカワケン,スズシ,ホウリュウマチウシマ,石川県珠洲市宝立町鵜島
9271224,石川県,珠洲市,宝立町南黒丸,イシカワケン,スズシ,ホウリュウマチミナミクロマル,石川県珠洲市宝立町南黒丸
9271225,石川県,珠洲市,宝立町宗玄,イシカワケン,スズシ,ホウリュウマチソウゲン,石川県珠洲市宝立町宗玄
9271226,石川県,珠洲市,宝立町馬渡,イシカワケン,スズシ,ホウリュウマチマワタリ,石川県珠洲市宝立町馬渡
9271227,石川県,珠洲市,宝立町二艘丹,イシカワケン,スズシ,ホウリュウマチニソウフネ,石川県珠洲市宝立町二艘丹
9271227,石川県,珠洲市,宝立町大町泥木,イシカワケン,スズシ,ホウリュウマチオオマチドロノキ,石川県珠洲市宝立町大町泥木
9271228,石川県,珠洲市,宝立町柏原,イシカワケン,スズシ,ホウリュウマチカシハラ,石川県珠洲市宝立町柏原
9271228,石川県,珠洲市,宝立町黒峰,イシカワケン,スズシ,ホウリュウマチクロミネ,石川県珠洲市宝立町黒峰
9271231,石川県,珠洲市,若山町鈴内,イシカワケン,スズシ,ワカヤママチスズナイ,石川県珠洲市若山町鈴内
9271232,石川県,珠洲市,若山町広栗,イシカワケン,スズシ,ワカヤママチヒログリ,石川県珠洲市若山町広栗
9271233,石川県,珠洲市,若山町出田,イシカワケン,スズシ,ワカヤママチスッタ,石川県珠洲市若山町出田
9271234,石川県,珠洲市,若山町経念,イシカワケン,スズシ,ワカヤママチキョウネン,石川県珠洲市若山町経念
9271235,石川県,珠洲市,若山町中田,イシカワケン,スズシ,ワカヤママチナカダ,石川県珠洲市若山町中田
9271235,石川県,珠洲市,若山町向,イシカワケン,スズシ,ワカヤママチムカイ,石川県珠洲市若山町向
9271236,石川県,珠洲市,若山町中,イシカワケン,スズシ,ワカヤママチナカ,石川県珠洲市若山町中
9271237,石川県,珠洲市,若山町大坊,イシカワケン,スズシ,ワカヤママチダイボウ,石川県珠洲市若山町大坊
9271237,石川県,珠洲市,若山町宇都山,イシカワケン,スズシ,ワカヤママチウツヤマ,石川県珠洲市若山町宇都山
9271238,石川県,珠洲市,若山町延武,イシカワケン,スズシ,ワカヤママチノブタケ,石川県珠洲市若山町延武
9271238,石川県,珠洲市,若山町火宮,イシカワケン,スズシ,ワカヤママチヒミヤ,石川県珠洲市若山町火宮
9271239,石川県,珠洲市,若山町古蔵,イシカワケン,スズシ,ワカヤママチフルクラ,石川県珠洲市若山町古蔵
9271301,石川県,珠洲市,高屋町,イシカワケン,スズシ,タカヤマチ,石川県珠洲市高屋町
9271302,石川県,珠洲市,笹波町,イシカワケン,スズシ,ササナミマチ,石川県珠洲市笹波町
9271303,石川県,珠洲市,石神町,イシカワケン,スズシ,イシガミマチ,石川県珠洲市石神町
9271304,石川県,珠洲市,馬緤町,イシカワケン,スズシ,マツナギマチ,石川県珠洲市馬緤町
9271311,石川県,珠洲市,若山町上正力,イシカワケン,スズシ,ワカヤママチカミショウリキ,石川県珠洲市若山町上正力
9271312,石川県,珠洲市,若山町二子,イシカワケン,スズシ,ワカヤママチフタゴ,石川県珠洲市若山町二子
9271313,石川県,珠洲市,若山町宗末,イシカワケン,スズシ,ワカヤママチムネスエ,石川県珠洲市若山町宗末
9271314,石川県,珠洲市,若山町上黒丸,イシカワケン,スズシ,ワカヤママチカミクロマル,石川県珠洲市若山町上黒丸
9271315,石川県,珠洲市,若山町南山,イシカワケン,スズシ,ワカヤママチミナミヤマ,石川県珠洲市若山町南山
9271315,石川県,珠洲市,若山町白滝,イシカワケン,スズシ,ワカヤママチシラタキ,石川県珠洲市若山町白滝
9271316,石川県,珠洲市,若山町洲巻,イシカワケン,スズシ,ワカヤママチスマキ,石川県珠洲市若山町洲巻
9271317,石川県,珠洲市,若山町上山,イシカワケン,スズシ,ワカヤママチカミヤマ,石川県珠洲市若山町上山
9271318,石川県,珠洲市,若山町北山,イシカワケン,スズシ,ワカヤママチキタヤマ,石川県珠洲市若山町北山
9271319,石川県,珠洲市,若山町吉ケ池,イシカワケン,スズシ,ワカヤママチヨシガイケ,石川県珠洲市若山町吉ケ池
9271321,石川県,珠洲市,大谷町,イシカワケン,スズシ,オオタニマチ,石川県珠洲市大谷町
9271322,石川県,珠洲市,長橋町,イシカワケン,スズシ,ナガハシマチ,石川県珠洲市長橋町
9271323,石川県,珠洲市,片岩町,イシカワケン,スズシ,カタイワマチ,石川県珠洲市片岩町
9271324,石川県,珠洲市,清水町,イシカワケン,スズシ,シミズマチ,石川県珠洲市清水町
9271325,石川県,珠洲市,仁江町,イシカワケン,スズシ,ニエマチ,石川県珠洲市仁江町
9271326,石川県,珠洲市,真浦町,イシカワケン,スズシ,マウラマチ,石川県珠洲市真浦町
9271441,石川県,珠洲市,狼煙町,イシカワケン,スズシ,ノロシマチ,石川県珠洲市狼煙町
9271442,石川県,珠洲市,狼煙新町,イシカワケン,スズシ,ノロシシンマチ,石川県珠洲市狼煙新町
9271443,石川県,珠洲市,東山中町,イシカワケン,スズシ,ヒガシヤマナカマチ,石川県珠洲市東山中町
9271444,石川県,珠洲市,唐笠町八ケ山,イシカワケン,スズシ,カラカサマチハッカヤマ,石川県珠洲市唐笠町八ケ山
9271445,石川県,珠洲市,唐笠町,イシカワケン,スズシ,カラカサマチ,石川県珠洲市唐笠町
9271446,石川県,珠洲市,折戸町,イシカワケン,スズシ,オリトマチ,石川県珠洲市折戸町
9271447,石川県,珠洲市,川浦町,イシカワケン,スズシ,カワウラマチ,石川県珠洲市川浦町
9271451,石川県,珠洲市,三崎町寺家,イシカワケン,スズシ,ミサキマチジケ,石川県珠洲市三崎町寺家
9271452,石川県,珠洲市,三崎町粟津,イシカワケン,スズシ,ミサキマチアワヅ,石川県珠洲市三崎町粟津
9271453,石川県,珠洲市,三崎町森腰,イシカワケン,スズシ,ミサキマチモリコシ,石川県珠洲市三崎町森腰
9271454,石川県,珠洲市,三崎町宇治,イシカワケン,スズシ,ミサキマチウジ,石川県珠洲市三崎町宇治
9271455,石川県,珠洲市,三崎町引砂,イシカワケン,スズシ,ミサキマチヒキスナ,石川県珠洲市三崎町引砂
9271456,石川県,珠洲市,三崎町高波,イシカワケン,スズシ,ミサキマチコウナミ,石川県珠洲市三崎町高波
9271457,石川県,珠洲市,三崎町大屋,イシカワケン,スズシ,ミサキマチオオヤ,石川県珠洲市三崎町大屋
9271461,石川県,珠洲市,三崎町伏見,イシカワケン,スズシ,ミサキマチフシミ,石川県珠洲市三崎町伏見
9271462,石川県,珠洲市,三崎町小泊,イシカワケン,スズシ,ミサキマチコドマリ,石川県珠洲市三崎町小泊
9271463,石川県,珠洲市,三崎町雲津,イシカワケン,スズシ,ミサキマチモヅ,石川県珠洲市三崎町雲津
9271464,石川県,珠洲市,三崎町細屋,イシカワケン,スズシ,ミサキマチホソヤ,石川県珠洲市三崎町細屋
9271465,石川県,珠洲市,三崎町二本松,イシカワケン,スズシ,ミサキマチニホンマツ,石川県珠洲市三崎町二本松
9271466,石川県,珠洲市,三崎町杉山,イシカワケン,スズシ,ミサキマチスギヤマ,石川県珠洲市三崎町杉山
9271467,石川県,珠洲市,三崎町本,イシカワケン,スズシ,ミサキマチホン,石川県珠洲市三崎町本
9271468,石川県,珠洲市,三崎町内方,イシカワケン,スズシ,ミサキマチナイホウ,石川県珠洲市三崎町内方
9272101,石川県,輪島市,門前町西円山,イシカワケン,ワジマシ,モンゼンマチニシマルヤマ,石川県輪島市門前町西円山
9272102,石川県,輪島市,門前町八幡,イシカワケン,ワジマシ,モンゼンマチヤワタ,石川県輪島市門前町八幡
9272102,石川県,輪島市,門前町浦上,イシカワケン,ワジマシ,モンゼンマチウラカミ,石川県輪島市門前町浦上
9272103,石川県,輪島市,門前町宮古場,イシカワケン,ワジマシ,モンゼンマチミヤコバ,石川県輪島市門前町宮古場
9272104,石川県,輪島市,門前町山辺,イシカワケン,ワジマシ,モンゼンマチヤマベ,石川県輪島市門前町山辺
9272105,石川県,輪島市,門前町田村,イシカワケン,ワジマシ,モンゼンマチタムラ,石川県輪島市門前町田村
9272106,石川県,輪島市,門前町浅生田,イシカワケン,ワジマシ,モンゼンマチアソダ,石川県輪島市門前町浅生田
9272107,石川県,輪島市,門前町安代原,イシカワケン,ワジマシ,モンゼンマチアンダイハラ,石川県輪島市門前町安代原
9272108,石川県,輪島市,門前町中野屋,イシカワケン,ワジマシ,モンゼンマチナカノヤ,石川県輪島市門前町中野屋
9272111,石川県,輪島市,門前町滝上,イシカワケン,ワジマシ,モンゼンマチタキノウエ,石川県輪島市門前町滝上
9272112,石川県,輪島市,門前町四位,イシカワケン,ワジマシ,モンゼンマチシイ,石川県輪島市門前町四位
9272113,石川県,輪島市,門前町俊兼,イシカワケン,ワジマシ,モンゼンマチトシカネ,石川県輪島市門前町俊兼
9272113,石川県,輪島市,門前町嶺,イシカワケン,ワジマシ,モンゼンマチミネ,石川県輪島市門前町嶺
9272114,石川県,輪島市,門前町谷口,イシカワケン,ワジマシ,モンゼンマチタニグチ,石川県輪島市門前町谷口
9272115,石川県,輪島市,門前町本内,イシカワケン,ワジマシ,モンゼンマチモトウチ,石川県輪島市門前町本内
9272121,石川県,輪島市,門前町貝吹,イシカワケン,ワジマシ,モンゼンマチカイフキ,石川県輪島市門前町貝吹
9272122,石川県,輪島市,門前町原,イシカワケン,ワジマシ,モンゼンマチハラ,石川県輪島市門前町原
9272123,石川県,輪島市,門前町荒屋,イシカワケン,ワジマシ,モンゼンマチアラヤ,石川県輪島市門前町荒屋
9272124,石川県,輪島市,門前町東大町,イシカワケン,ワジマシ,モンゼンマチヒガシオオマチ,石川県輪島市門前町東大町
9272125,石川県,輪島市,門前町別所,イシカワケン,ワジマシ,モンゼンマチベッショ,石川県輪島市門前町別所
9272126,石川県,輪島市,門前町能納屋,イシカワケン,ワジマシ,モンゼンマチノウノヤ,石川県輪島市門前町能納屋
9272127,石川県,輪島市,門前町二又川,イシカワケン,ワジマシ,モンゼンマチフタマタガワ,石川県輪島市門前町二又川
9272131,石川県,輪島市,門前町平,イシカワケン,ワジマシ,モンゼンマチタイラ,石川県輪島市門前町平
9272132,石川県,輪島市,門前町長井坂,イシカワケン,ワジマシ,モンゼンマチナガイザカ,石川県輪島市門前町長井坂
9272133,石川県,輪島市,門前町定広,イシカワケン,ワジマシ,モンゼンマチサダヒロ,石川県輪島市門前町定広
9272134,石川県,輪島市,門前町地原,イシカワケン,ワジマシ,モンゼンマチチハラ,石川県輪島市門前町地原
9272135,石川県,輪島市,門前町百成,イシカワケン,ワジマシ,モンゼンマチドウミキ,石川県輪島市門前町百成
9272136,石川県,輪島市,門前町鑓川,イシカワケン,ワジマシ,モンゼンマチヤリカワ,石川県輪島市門前町鑓川
9272137,石川県,輪島市,門前町内保,イシカワケン,ワジマシ,モンゼンマチウチボ,石川県輪島市門前町内保
9272138,石川県,輪島市,門前町堀腰,イシカワケン,ワジマシ,モンゼンマチホリコシ,石川県輪島市門前町堀腰
9272141,石川県,輪島市,門前町小石,イシカワケン,ワジマシ,モンゼンマチオイシ,石川県輪島市門前町小石
9272142,石川県,輪島市,門前町上河内,イシカワケン,ワジマシ,モンゼンマチカミガワチ,石川県輪島市門前町上河内
9272143,石川県,輪島市,門前町風原,イシカワケン,ワジマシ,モンゼンマチカザハラ,石川県輪島市門前町風原
9272144,石川県,輪島市,門前町猿橋,イシカワケン,ワジマシ,モンゼンマチサルハシ,石川県輪島市門前町猿橋
9272145,石川県,輪島市,門前町小滝,イシカワケン,ワジマシ,モンゼンマチコダキ,石川県輪島市門前町小滝
9272146,石川県,輪島市,門前町西中尾,イシカワケン,ワジマシ,モンゼンマチニシナカオ,石川県輪島市門前町西中尾
9272147,石川県,輪島市,門前町鬼屋,イシカワケン,ワジマシ,モンゼンマチオニヤ,石川県輪島市門前町鬼屋
9272151,石川県,輪島市,門前町走出,イシカワケン,ワジマシ,モンゼンマチハシリデ,石川県輪島市門前町走出
9272152,石川県,輪島市,門前町広瀬,イシカワケン,ワジマシ,モンゼンマチヒロセ,石川県輪島市門前町広瀬
9272153,石川県,輪島市,門前町深田,イシカワケン,ワジマシ,モンゼンマチフカダ,石川県輪島市門前町深田
9272154,石川県,輪島市,門前町栃木,イシカワケン,ワジマシ,モンゼンマチトチノキ,石川県輪島市門前町栃木
9272155,石川県,輪島市,門前町日野尾,イシカワケン,ワジマシ,モンゼンマチヒノオ,石川県輪島市門前町日野尾
9272156,石川県,輪島市,門前町門前,イシカワケン,ワジマシ,モンゼンマチモンゼン,石川県輪島市門前町門前
9272161,石川県,輪島市,門前町六郎木,イシカワケン,ワジマシ,モンゼンマチロクロギ,石川県輪島市門前町六郎木
9272162,石川県,輪島市,門前町勝田,イシカワケン,ワジマシ,モンゼンマチカツタ,石川県輪島市門前町勝田
9272163,石川県,輪島市,門前町大生,イシカワケン,ワジマシ,モンゼンマチオハエ,石川県輪島市門前町大生
9272164,石川県,輪島市,門前町道下,イシカワケン,ワジマシ,モンゼンマチトウゲ,石川県輪島市門前町道下
9272165,石川県,輪島市,門前町黒島町,イシカワケン,ワジマシ,モンゼンマチクロシママチ,石川県輪島市門前町黒島町
9272166,石川県,輪島市,門前町鹿磯,イシカワケン,ワジマシ,モンゼンマチカイソ,石川県輪島市門前町鹿磯
9272167,石川県,輪島市,門前町深見,イシカワケン,ワジマシ,モンゼンマチフカミ,石川県輪島市門前町深見
9272171,石川県,輪島市,門前町本市,イシカワケン,ワジマシ,モンゼンマチモトイチ,石川県輪島市門前町本市
9272172,石川県,輪島市,門前町高根尾,イシカワケン,ワジマシ,モンゼンマチタカネオ,石川県輪島市門前町高根尾
9272173,石川県,輪島市,門前町舘,イシカワケン,ワジマシ,モンゼンマチタチ,石川県輪島市門前町舘
9272174,石川県,輪島市,門前町広岡,イシカワケン,ワジマシ,モンゼンマチヒロオカ,石川県輪島市門前町広岡
9272175,石川県,輪島市,門前町清水,イシカワケン,ワジマシ,モンゼンマチシミズ,石川県輪島市門前町清水
9272176,石川県,輪島市,門前町和田,イシカワケン,ワジマシ,モンゼンマチワダ,石川県輪島市門前町和田
9272271,石川県,輪島市,門前町皆月,イシカワケン,ワジマシ,モンゼンマチミナヅキ,石川県輪島市門前町皆月
9272272,石川県,輪島市,門前町樽見,イシカワケン,ワジマシ,モンゼンマチタルミ,石川県輪島市門前町樽見
9272273,石川県,輪島市,門前町暮坂,イシカワケン,ワジマシ,モンゼンマチクレサカ,石川県輪島市門前町暮坂
9272274,石川県,輪島市,門前町井守上坂,イシカワケン,ワジマシ,モンゼンマチイモリアゲサカ,石川県輪島市門前町井守上坂
9272275,石川県,輪島市,門前町薄野,イシカワケン,ワジマシ,モンゼンマチススキノ,石川県輪島市門前町薄野
9272276,石川県,輪島市,門前町百成大角間,イシカワケン,ワジマシ,モンゼンマチドウミキオオカクマ,石川県輪島市門前町百成大角間
9272277,石川県,輪島市,門前町餅田,イシカワケン,ワジマシ,モンゼンマチモチダ,石川県輪島市門前町餅田
9272281,石川県,輪島市,門前町鵜山,イシカワケン,ワジマシ,モンゼンマチウヤマ,石川県輪島市門前町鵜山
9272282,石川県,輪島市,門前町大滝,イシカワケン,ワジマシ,モンゼンマチオオタキ,石川県輪島市門前町大滝
9272283,石川県,輪島市,門前町中谷内,イシカワケン,ワジマシ,モンゼンマチナカヤチ,石川県輪島市門前町中谷内
9272284,石川県,輪島市,門前町矢徳,イシカワケン,ワジマシ,モンゼンマチヤトク,石川県輪島市門前町矢徳
9272285,石川県,輪島市,門前町吉浦,イシカワケン,ワジマシ,モンゼンマチヨシウラ,石川県輪島市門前町吉浦
9272286,石川県,輪島市,門前町五十洲,イシカワケン,ワジマシ,モンゼンマチイギス,石川県輪島市門前町五十洲
9272301,石川県,輪島市,門前町二又,イシカワケン,ワジマシ,モンゼンマチフタマタ,石川県輪島市門前町二又
9272302,石川県,輪島市,門前町山是清,イシカワケン,ワジマシ,モンゼンマチヤマコレキヨ,石川県輪島市門前町山是清
9272303,石川県,輪島市,門前町江崎,イシカワケン,ワジマシ,モンゼンマチエサキ,石川県輪島市門前町江崎
9272304,石川県,輪島市,門前町白禿,イシカワケン,ワジマシ,モンゼンマチシラハゲ,石川県輪島市門前町白禿
9272305,石川県,輪島市,門前町大切,イシカワケン,ワジマシ,モンゼンマチオオギリ,石川県輪島市門前町大切
9272311,石川県,輪島市,門前町切狭,イシカワケン,ワジマシ,モンゼンマチキリバサミ,石川県輪島市門前町切狭
9272312,石川県,輪島市,門前町西中谷,イシカワケン,ワジマシ,モンゼンマチニシナカタニ,石川県輪島市門前町西中谷
9272313,石川県,輪島市,門前町清沢,イシカワケン,ワジマシ,モンゼンマチセイザワ,石川県輪島市門前町清沢
9272314,石川県,輪島市,門前町飯川谷,イシカワケン,ワジマシ,モンゼンマチイガワダニ,石川県輪島市門前町飯川谷
9272321,石川県,輪島市,門前町久川,イシカワケン,ワジマシ,モンゼンマチキュウカワ,石川県輪島市門前町久川
9272322,石川県,輪島市,門前町窕,イシカワケン,ワジマシ,モンゼンマチウツロ,石川県輪島市門前町窕
9272323,石川県,輪島市,門前町神明原,イシカワケン,ワジマシ,モンゼンマチシメハラ,石川県輪島市門前町神明原
9272324,石川県,輪島市,門前町馬渡,イシカワケン,ワジマシ,モンゼンマチマワタリ,石川県輪島市門前町馬渡
9272325,石川県,輪島市,門前町滝町,イシカワケン,ワジマシ,モンゼンマチタキマチ,石川県輪島市門前町滝町
9272331,石川県,輪島市,門前町渡瀬,イシカワケン,ワジマシ,モンゼンマチワタセ,石川県輪島市門前町渡瀬
9272332,石川県,輪島市,門前町木原月,イシカワケン,ワジマシ,モンゼンマチキハラヅキ,石川県輪島市門前町木原月
9272333,石川県,輪島市,門前町館分,イシカワケン,ワジマシ,モンゼンマチタチブン,石川県輪島市門前町館分
9272333,石川県,輪島市,門前町馬場,イシカワケン,ワジマシ,モンゼンマチバンバ,石川県輪島市門前町馬場
9272334,石川県,輪島市,門前町上代,イシカワケン,ワジマシ,モンゼンマチウワダイ,石川県輪島市門前町上代
9272335,石川県,輪島市,門前町黒岩,イシカワケン,ワジマシ,モンゼンマチクロイワ,石川県輪島市門前町黒岩
9272336,石川県,輪島市,門前町入山,イシカワケン,ワジマシ,モンゼンマチイリヤマ,石川県輪島市門前町入山
9272341,石川県,輪島市,門前町大釜,イシカワケン,ワジマシ,モンゼンマチオオガマ,石川県輪島市門前町大釜
9272342,石川県,輪島市,門前町剱地,イシカワケン,ワジマシ,モンゼンマチツルギヂ,石川県輪島市門前町剱地
9272343,石川県,輪島市,門前町大泊,イシカワケン,ワジマシ,モンゼンマチオオドマリ,石川県輪島市門前町大泊
9272344,石川県,輪島市,門前町腰細,イシカワケン,ワジマシ,モンゼンマチコシボソ,石川県輪島市門前町腰細
9272345,石川県,輪島市,門前町赤神,イシカワケン,ワジマシ,モンゼンマチアカカミ,石川県輪島市門前町赤神
9272351,石川県,輪島市,門前町千代,イシカワケン,ワジマシ,モンゼンマチセンダイ,石川県輪島市門前町千代
9272352,石川県,輪島市,門前町北川,イシカワケン,ワジマシ,モンゼンマチキタガワ,石川県輪島市門前町北川
9272353,石川県,輪島市,門前町是清,イシカワケン,ワジマシ,モンゼンマチコレキヨ,石川県輪島市門前町是清
9272354,石川県,輪島市,門前町池田,イシカワケン,ワジマシ,モンゼンマチイケダ,石川県輪島市門前町池田
9272355,石川県,輪島市,門前町藤浜,イシカワケン,ワジマシ,モンゼンマチフジノハマ,石川県輪島市門前町藤浜
9272361,石川県,輪島市,門前町小山,イシカワケン,ワジマシ,モンゼンマチコヤマ,石川県輪島市門前町小山
9272362,石川県,輪島市,門前町椎木,イシカワケン,ワジマシ,モンゼンマチシイノキ,石川県輪島市門前町椎木
9272363,石川県,輪島市,門前町新町分,イシカワケン,ワジマシ,モンゼンマチシンマチブン,石川県輪島市門前町新町分
9272364,石川県,輪島市,門前町鍛治屋,イシカワケン,ワジマシ,モンゼンマチカジヤ,石川県輪島市門前町鍛治屋
9272365,石川県,輪島市,門前町南,イシカワケン,ワジマシ,モンゼンマチミナミ,石川県輪島市門前町南
9272366,石川県,輪島市,門前町中田,イシカワケン,ワジマシ,モンゼンマチナカタ,石川県輪島市門前町中田
9280000,石川県,輪島市,,イシカワケン,ワジマシ,,石川県輪島市
9280001,石川県,輪島市,河井町,イシカワケン,ワジマシ,カワイマチ,石川県輪島市河井町
9280002,石川県,輪島市,久手川町,イシカワケン,ワジマシ,フテガワマチ,石川県輪島市久手川町
9280003,石川県,輪島市,塚田町,イシカワケン,ワジマシ,ツカダマチ,石川県輪島市塚田町
9280004,石川県,輪島市,稲舟町,イシカワケン,ワジマシ,イナブネマチ,石川県輪島市稲舟町
9280005,石川県,輪島市,大野町,イシカワケン,ワジマシ,オオノマチ,石川県輪島市大野町
9280006,石川県,輪島市,惣領町,イシカワケン,ワジマシ,ソウリョウマチ,石川県輪島市惣領町
9280007,石川県,輪島市,深見町,イシカワケン,ワジマシ,フカミマチ,石川県輪島市深見町
9280008,石川県,輪島市,マリンタウン,イシカワケン,ワジマシ,マリンタウン,石川県輪島市マリンタウン
9280011,石川県,輪島市,杉平町,イシカワケン,ワジマシ,スギヒラマチ,石川県輪島市杉平町
9280012,石川県,輪島市,横地町,イシカワケン,ワジマシ,ヨコジマチ,石川県輪島市横地町
9280013,石川県,輪島市,石休場町,イシカワケン,ワジマシ,イシヤスミバマチ,石川県輪島市石休場町
9280014,石川県,輪島市,山ノ上町,イシカワケン,ワジマシ,ヤマノウエマチ,石川県輪島市山ノ上町
9280015,石川県,輪島市,市ノ瀬町,イシカワケン,ワジマシ,イチノセマチ,石川県輪島市市ノ瀬町
9280016,石川県,輪島市,熊野町,イシカワケン,ワジマシ,クマノマチ,石川県輪島市熊野町
9280021,石川県,輪島市,二ツ屋町,イシカワケン,ワジマシ,フタツヤマチ,石川県輪島市二ツ屋町
9280022,石川県,輪島市,宅田町,イシカワケン,ワジマシ,タクダマチ,石川県輪島市宅田町
9280023,石川県,輪島市,気勝平町,イシカワケン,ワジマシ,ケカチダイラマチ,石川県輪島市気勝平町
9280024,石川県,輪島市,山岸町,イシカワケン,ワジマシ,ヤマギシマチ,石川県輪島市山岸町
9280025,石川県,輪島市,東中尾町,イシカワケン,ワジマシ,ヒガシナカオマチ,石川県輪島市東中尾町
9280026,石川県,輪島市,西脇町,イシカワケン,ワジマシ,ニシワキマチ,石川県輪島市西脇町
9280027,石川県,輪島市,北谷町,イシカワケン,ワジマシ,キタダニマチ,石川県輪島市北谷町
9280028,石川県,輪島市,打越町,イシカワケン,ワジマシ,ウチコシマチ,石川県輪島市打越町
9280031,石川県,輪島市,二勢町,イシカワケン,ワジマシ,フタセマチ,石川県輪島市二勢町
9280032,石川県,輪島市,小伊勢町,イシカワケン,ワジマシ,オイセマチ,石川県輪島市小伊勢町
9280033,石川県,輪島市,稲屋町,イシカワケン,ワジマシ,トウヤマチ,石川県輪島市稲屋町
9280034,石川県,輪島市,長井町,イシカワケン,ワジマシ,ナガイマチ,石川県輪島市長井町
9280035,石川県,輪島市,別所谷町,イシカワケン,ワジマシ,ベッショダニマチ,石川県輪島市別所谷町
9280036,石川県,輪島市,滝又町,イシカワケン,ワジマシ,タキマタマチ,石川県輪島市滝又町
9280037,石川県,輪島市,空熊町,イシカワケン,ワジマシ,ソラクママチ,石川県輪島市空熊町
9280041,石川県,輪島市,中段町,イシカワケン,ワジマシ,チュウダマチ,石川県輪島市中段町
9280042,石川県,輪島市,山本町,イシカワケン,ワジマシ,ヤマモトマチ,石川県輪島市山本町
9280043,石川県,輪島市,房田町,イシカワケン,ワジマシ,フサダマチ,石川県輪島市房田町
9280044,石川県,輪島市,下黒川町,イシカワケン,ワジマシ,シモクロガワマチ,石川県輪島市下黒川町
9280045,石川県,輪島市,上黒川町,イシカワケン,ワジマシ,カミクロガワマチ,石川県輪島市上黒川町
9280046,石川県,輪島市,二俣町,イシカワケン,ワジマシ,フタマタマチ,石川県輪島市二俣町
9280047,石川県,輪島市,繩又町,イシカワケン,ワジマシ,ナワマタマチ,石川県輪島市繩又町
9280051,石川県,輪島市,小池町,イシカワケン,ワジマシ,オイケマチ,石川県輪島市小池町
9280052,石川県,輪島市,下山町,イシカワケン,ワジマシ,シモヤママチ,石川県輪島市下山町
9280053,石川県,輪島市,赤崎町,イシカワケン,ワジマシ,アカサキマチ,石川県輪島市赤崎町
9280054,石川県,輪島市,大沢町,イシカワケン,ワジマシ,オオザワマチ,石川県輪島市大沢町
9280055,石川県,輪島市,上大沢町,イシカワケン,ワジマシ,カミオオザワマチ,石川県輪島市上大沢町
9280056,石川県,輪島市,西二又町,イシカワケン,ワジマシ,ニシフタマタマチ,石川県輪島市西二又町
9280057,石川県,輪島市,上山町,イシカワケン,ワジマシ,カミヤママチ,石川県輪島市上山町
9280061,石川県,輪島市,新橋通,イシカワケン,ワジマシ,シンバシドオリ,石川県輪島市新橋通
9280062,石川県,輪島市,南町,イシカワケン,ワジマシ,ミナミチョウ,石川県輪島市南町
9280062,石川県,輪島市,堀町,イシカワケン,ワジマシ,ホリマチ,石川県輪島市堀町
9280063,石川県,輪島市,水守町,イシカワケン,ワジマシ,ミトモリマチ,石川県輪島市水守町
9280064,石川県,輪島市,釜屋谷町,イシカワケン,ワジマシ,カマヤダニマチ,石川県輪島市釜屋谷町
9280065,石川県,輪島市,鵜入町,イシカワケン,ワジマシ,ウニュウマチ,石川県輪島市鵜入町
9280066,石川県,輪島市,美谷町,イシカワケン,ワジマシ,ミタニマチ,石川県輪島市美谷町
9280067,石川県,輪島市,光浦町,イシカワケン,ワジマシ,ヒカリウラマチ,石川県輪島市光浦町
9280068,石川県,輪島市,平成町,イシカワケン,ワジマシ,ヘイセイマチ,石川県輪島市平成町
9280071,石川県,輪島市,輪島崎町,イシカワケン,ワジマシ,ワジマザキマチ,石川県輪島市輪島崎町
9280072,石川県,輪島市,海士町,イシカワケン,ワジマシ,アママチ,石川県輪島市海士町
9280072,石川県,輪島市,海士町（舳倉島）,イシカワケン,ワジマシ,アママチ(ヘグラジマ),石川県輪島市海士町（舳倉島）
9280073,石川県,輪島市,鳳至町,イシカワケン,ワジマシ,フゲシマチ,石川県輪島市鳳至町
9280073,石川県,輪島市,鳳至町（袖ケ浜）,イシカワケン,ワジマシ,フゲシマチ(ソデガハマ),石川県輪島市鳳至町（袖ケ浜）
9280074,石川県,輪島市,鳳至町（鳳至丁）,イシカワケン,ワジマシ,フゲシマチ(ホウシチョウ),石川県輪島市鳳至町（鳳至丁）
9280075,石川県,輪島市,鳳至町（下町）,イシカワケン,ワジマシ,フゲシマチ(シモマチ),石川県輪島市鳳至町（下町）
9280076,石川県,輪島市,鳳至町（石浦町）,イシカワケン,ワジマシ,フゲシマチ(イシウラマチ),石川県輪島市鳳至町（石浦町）
9280077,石川県,輪島市,鳳至町（上町）,イシカワケン,ワジマシ,フゲシマチ(カミマチ),石川県輪島市鳳至町（上町）
9280077,石川県,輪島市,鳳至町（堂金田）,イシカワケン,ワジマシ,フゲシマチ(ドウキンダ),石川県輪島市鳳至町（堂金田）
9280078,石川県,輪島市,鳳至町（稲荷町）,イシカワケン,ワジマシ,フゲシマチ(イナリマチ),石川県輪島市鳳至町（稲荷町）
9280079,石川県,輪島市,鳳至町（畠田）,イシカワケン,ワジマシ,フゲシマチ(ハタケダ),石川県輪島市鳳至町（畠田）
9280201,石川県,輪島市,町野町広江,イシカワケン,ワジマシ,マチノマチヒロエ,石川県輪島市町野町広江
9280202,石川県,輪島市,町野町寺地,イシカワケン,ワジマシ,マチノマチテラジ,石川県輪島市町野町寺地
9280203,石川県,輪島市,町野町敷戸,イシカワケン,ワジマシ,マチノマチシキド,石川県輪島市町野町敷戸
9280204,石川県,輪島市,町野町南時国,イシカワケン,ワジマシ,マチノマチミナミトキクニ,石川県輪島市町野町南時国
9280205,石川県,輪島市,町野町西時国,イシカワケン,ワジマシ,マチノマチニシトキクニ,石川県輪島市町野町西時国
9280206,石川県,輪島市,町野町曽々木,イシカワケン,ワジマシ,マチノマチソソギ,石川県輪島市町野町曽々木
9280211,石川県,輪島市,町野町牛尾,イシカワケン,ワジマシ,マチノマチウシオ,石川県輪島市町野町牛尾
9280212,石川県,輪島市,町野町寺山,イシカワケン,ワジマシ,マチノマチテラヤマ,石川県輪島市町野町寺山
9280213,石川県,輪島市,町野町舞谷,イシカワケン,ワジマシ,マチノマチマイダニ,石川県輪島市町野町舞谷
9280214,石川県,輪島市,町野町佐野,イシカワケン,ワジマシ,マチノマチサノ,石川県輪島市町野町佐野
9280215,石川県,輪島市,町野町粟蔵,イシカワケン,ワジマシ,マチノマチアワグラ,石川県輪島市町野町粟蔵
9280216,石川県,輪島市,町野町桶戸,イシカワケン,ワジマシ,マチノマチオケド,石川県輪島市町野町桶戸
9280217,石川県,輪島市,町野町井面,イシカワケン,ワジマシ,マチノマチイノモテ,石川県輪島市町野町井面
9280218,石川県,輪島市,町野町鈴屋,イシカワケン,ワジマシ,マチノマチスズヤ,石川県輪島市町野町鈴屋
9280221,石川県,輪島市,町野町真久,イシカワケン,ワジマシ,マチノマチサンサ,石川県輪島市町野町真久
9280222,石川県,輪島市,町野町東,イシカワケン,ワジマシ,マチノマチヒガシ,石川県輪島市町野町東
9280223,石川県,輪島市,町野町北円山,イシカワケン,ワジマシ,マチノマチキタマルヤマ,石川県輪島市町野町北円山
9280224,石川県,輪島市,町野町麦生野,イシカワケン,ワジマシ,マチノマチムギュウノ,石川県輪島市町野町麦生野
9280225,石川県,輪島市,町野町徳成谷内,イシカワケン,ワジマシ,マチノマチトクナリヤチ,石川県輪島市町野町徳成谷内
9280226,石川県,輪島市,町野町徳成,イシカワケン,ワジマシ,マチノマチトクナリ,石川県輪島市町野町徳成
9280231,石川県,輪島市,町野町大川,イシカワケン,ワジマシ,マチノマチオオカワ,石川県輪島市町野町大川
9280232,石川県,輪島市,町野町伏戸,イシカワケン,ワジマシ,マチノマチフセド,石川県輪島市町野町伏戸
9280233,石川県,輪島市,町野町東大野,イシカワケン,ワジマシ,マチノマチヒガシオオノ,石川県輪島市町野町東大野
9280234,石川県,輪島市,町野町真喜野,イシカワケン,ワジマシ,マチノマチマキノ,石川県輪島市町野町真喜野
9280235,石川県,輪島市,町野町川西,イシカワケン,ワジマシ,マチノマチカワニシ,石川県輪島市町野町川西
9280236,石川県,輪島市,町野町金蔵,イシカワケン,ワジマシ,マチノマチカナクラ,石川県輪島市町野町金蔵
9280241,石川県,輪島市,渋田町,イシカワケン,ワジマシ,シブタマチ,石川県輪島市渋田町
9280242,石川県,輪島市,東印内町,イシカワケン,ワジマシ,ヒガシインナイマチ,石川県輪島市東印内町
9280243,石川県,輪島市,西山町,イシカワケン,ワジマシ,ニシヤママチ,石川県輪島市西山町
9280244,石川県,輪島市,西院内町,イシカワケン,ワジマシ,ニシインナイマチ,石川県輪島市西院内町
9280245,石川県,輪島市,東山町,イシカワケン,ワジマシ,ヒガシヤママチ,石川県輪島市東山町
9280246,石川県,輪島市,里町,イシカワケン,ワジマシ,サトマチ,石川県輪島市里町
9280251,石川県,輪島市,小田屋町,イシカワケン,ワジマシ,オダヤマチ,石川県輪島市小田屋町
9280252,石川県,輪島市,忍町,イシカワケン,ワジマシ,シノブマチ,石川県輪島市忍町
9280253,石川県,輪島市,尊利地町,イシカワケン,ワジマシ,ソリジマチ,石川県輪島市尊利地町
9280254,石川県,輪島市,名舟町,イシカワケン,ワジマシ,ナフネマチ,石川県輪島市名舟町
9280255,石川県,輪島市,野田町,イシカワケン,ワジマシ,ノダマチ,石川県輪島市野田町
9280256,石川県,輪島市,白米町,イシカワケン,ワジマシ,シロヨネマチ,石川県輪島市白米町
9280301,石川県,鳳珠郡能登町,上長尾,イシカワケン,ホウスグンノトチョウ,カミナガオ,石川県鳳珠郡能登町上長尾
9280302,石川県,鳳珠郡能登町,小間生,イシカワケン,ホウスグンノトチョウ,オモウ,石川県鳳珠郡能登町小間生
9280303,石川県,鳳珠郡能登町,桐畑,イシカワケン,ホウスグンノトチョウ,キリハタ,石川県鳳珠郡能登町桐畑
9280304,石川県,鳳珠郡能登町,鈴ケ嶺,イシカワケン,ホウスグンノトチョウ,スズガミネ,石川県鳳珠郡能登町鈴ケ嶺
9280305,石川県,鳳珠郡能登町,久田,イシカワケン,ホウスグンノトチョウ,キュウデン,石川県鳳珠郡能登町久田
9280306,石川県,鳳珠郡能登町,石井,イシカワケン,ホウスグンノトチョウ,イシイ,石川県鳳珠郡能登町石井
9280307,石川県,鳳珠郡能登町,国光,イシカワケン,ホウスグンノトチョウ,クニミツ,石川県鳳珠郡能登町国光
9280308,石川県,鳳珠郡能登町,鴨川,イシカワケン,ホウスグンノトチョウ,カモガワ,石川県鳳珠郡能登町鴨川
9280311,石川県,鳳珠郡能登町,合鹿,イシカワケン,ホウスグンノトチョウ,ゴウロク,石川県鳳珠郡能登町合鹿
9280312,石川県,鳳珠郡能登町,上町,イシカワケン,ホウスグンノトチョウ,カンマチ,石川県鳳珠郡能登町上町
9280313,石川県,鳳珠郡能登町,天坂,イシカワケン,ホウスグンノトチョウ,テンザカ,石川県鳳珠郡能登町天坂
9280314,石川県,鳳珠郡能登町,笹川,イシカワケン,ホウスグンノトチョウ,ササガワ,石川県鳳珠郡能登町笹川
9280321,石川県,鳳珠郡能登町,十郎原,イシカワケン,ホウスグンノトチョウ,ジュウロバラ,石川県鳳珠郡能登町十郎原
9280322,石川県,鳳珠郡能登町,寺分,イシカワケン,ホウスグンノトチョウ,テラブン,石川県鳳珠郡能登町寺分
9280323,石川県,鳳珠郡能登町,五郎左エ門分,イシカワケン,ホウスグンノトチョウ,ゴロザエモンブン,石川県鳳珠郡能登町五郎左エ門分
9280324,石川県,鳳珠郡能登町,中斉,イシカワケン,ホウスグンノトチョウ,ナカサイ,石川県鳳珠郡能登町中斉
9280325,石川県,鳳珠郡能登町,神和住,イシカワケン,ホウスグンノトチョウ,カミワスミ,石川県鳳珠郡能登町神和住
9280326,石川県,鳳珠郡能登町,斉和,イシカワケン,ホウスグンノトチョウ,サイワ,石川県鳳珠郡能登町斉和
9280331,石川県,鳳珠郡能登町,柳田,イシカワケン,ホウスグンノトチョウ,ヤナギダ,石川県鳳珠郡能登町柳田
9280332,石川県,鳳珠郡能登町,五十里,イシカワケン,ホウスグンノトチョウ,イカリ,石川県鳳珠郡能登町五十里
9280333,石川県,鳳珠郡能登町,黒川,イシカワケン,ホウスグンノトチョウ,クロカワ,石川県鳳珠郡能登町黒川
9280334,石川県,鳳珠郡能登町,当目,イシカワケン,ホウスグンノトチョウ,トウメ,石川県鳳珠郡能登町当目
9280335,石川県,鳳珠郡能登町,大箱,イシカワケン,ホウスグンノトチョウ,オオバコ,石川県鳳珠郡能登町大箱
9280336,石川県,鳳珠郡能登町,北河内,イシカワケン,ホウスグンノトチョウ,キタカワチ,石川県鳳珠郡能登町北河内
9290101,石川県,能美市,赤井町,イシカワケン,ノミシ,アカイマチ,石川県能美市赤井町
9290102,石川県,能美市,西任田町,イシカワケン,ノミシ,ニシトウダマチ,石川県能美市西任田町
9290103,石川県,能美市,五間堂町,イシカワケン,ノミシ,ゴケンドウマチ,石川県能美市五間堂町
9290104,石川県,能美市,中庄町,イシカワケン,ノミシ,ナカノショウマチ,石川県能美市中庄町
9290105,石川県,能美市,中ノ江町,イシカワケン,ノミシ,ナカノゴウマチ,石川県能美市中ノ江町
9290106,石川県,能美市,西二口町,イシカワケン,ノミシ,ニシフタクチマチ,石川県能美市西二口町
9290107,石川県,能美市,福岡町,イシカワケン,ノミシ,フクオカマチ,石川県能美市福岡町
9290108,石川県,能美市,能美,イシカワケン,ノミシ,ノミ,石川県能美市能美
9290111,石川県,能美市,吉原町,イシカワケン,ノミシ,ヨシハラマチ,石川県能美市吉原町
9290112,石川県,能美市,福島町,イシカワケン,ノミシ,フクシママチ,石川県能美市福島町
9290113,石川県,能美市,大成町,イシカワケン,ノミシ,タイセイマチ,石川県能美市大成町
9290114,石川県,能美市,浜開発町,イシカワケン,ノミシ,ハマカイハツマチ,石川県能美市浜開発町
9290115,石川県,能美市,下ノ江町,イシカワケン,ノミシ,シモノゴウマチ,石川県能美市下ノ江町
9290116,石川県,能美市,根上町,イシカワケン,ノミシ,ネアガリマチ,石川県能美市根上町
9290116,石川県,能美市,高坂町,イシカワケン,ノミシ,タカサカマチ,石川県能美市高坂町
9290121,石川県,能美市,吉原釜屋町,イシカワケン,ノミシ,ヨシハラガマヤマチ,石川県能美市吉原釜屋町
9290122,石川県,能美市,大浜町,イシカワケン,ノミシ,オオハママチ,石川県能美市大浜町
9290123,石川県,能美市,中町,イシカワケン,ノミシ,ナカマチ,石川県能美市中町
9290124,石川県,能美市,浜町,イシカワケン,ノミシ,ハママチ,石川県能美市浜町
9290125,石川県,能美市,道林町,イシカワケン,ノミシ,ドウリンマチ,石川県能美市道林町
9290126,石川県,能美市,山口町,イシカワケン,ノミシ,ヤマグチマチ,石川県能美市山口町
9290201,石川県,白山市,鹿島町,イシカワケン,ハクサンシ,カシママチ,石川県白山市鹿島町
9290202,石川県,白山市,西米光町,イシカワケン,ハクサンシ,ニシヨネミツマチ,石川県白山市西米光町
9290203,石川県,白山市,若草町,イシカワケン,ハクサンシ,ワカクサマチ,石川県白山市若草町
9290204,石川県,白山市,平加町,イシカワケン,ハクサンシ,ヒラカマチ,石川県白山市平加町
9290205,石川県,白山市,蓮池町,イシカワケン,ハクサンシ,ハスイケマチ,石川県白山市蓮池町
9290206,石川県,白山市,鹿島平,イシカワケン,ハクサンシ,カシマダイラ,石川県白山市鹿島平
9290211,石川県,白山市,井関町,イシカワケン,ハクサンシ,イセキマチ,石川県白山市井関町
9290212,石川県,白山市,手取町,イシカワケン,ハクサンシ,テドリマチ,石川県白山市手取町
9290213,石川県,白山市,末正町,イシカワケン,ハクサンシ,スエマサマチ,石川県白山市末正町
9290214,石川県,白山市,長屋町,イシカワケン,ハクサンシ,チョウヤマチ,石川県白山市長屋町
9290215,石川県,白山市,美川南町,イシカワケン,ハクサンシ,ミカワミナミマチ,石川県白山市美川南町
9290216,石川県,白山市,美川本吉町,イシカワケン,ハクサンシ,ミカワモトヨシマチ,石川県白山市美川本吉町
9290217,石川県,白山市,湊町,イシカワケン,ハクサンシ,ミナトマチ,石川県白山市湊町
9290221,石川県,白山市,美川今町,イシカワケン,ハクサンシ,ミカワイママチ,石川県白山市美川今町
9290222,石川県,白山市,美川新町,イシカワケン,ハクサンシ,ミカワシンマチ,石川県白山市美川新町
9290223,石川県,白山市,美川北町,イシカワケン,ハクサンシ,ミカワキタマチ,石川県白山市美川北町
9290224,石川県,白山市,美川中町,イシカワケン,ハクサンシ,ミカワナカマチ,石川県白山市美川中町
9290231,石川県,白山市,美川和波町,イシカワケン,ハクサンシ,ミカワワナミマチ,石川県白山市美川和波町
9290232,石川県,白山市,美川末広町,イシカワケン,ハクサンシ,ミカワスエヒロマチ,石川県白山市美川末広町
9290233,石川県,白山市,美川浜町,イシカワケン,ハクサンシ,ミカワハママチ,石川県白山市美川浜町
9290234,石川県,白山市,美川神幸町,イシカワケン,ハクサンシ,ミカワジンコウマチ,石川県白山市美川神幸町
9290235,石川県,白山市,美川永代町,イシカワケン,ハクサンシ,ミカワエイタイマチ,石川県白山市美川永代町
9290300,石川県,河北郡津幡町,,イシカワケン,カホクグンツバタマチ,,石川県河北郡津幡町
9290301,石川県,河北郡津幡町,瓜生,イシカワケン,カホクグンツバタマチ,ウリュウ,石川県河北郡津幡町瓜生
9290302,石川県,河北郡津幡町,木ノ窪,イシカワケン,カホクグンツバタマチ,キノクボ,石川県河北郡津幡町木ノ窪
9290303,石川県,河北郡津幡町,牛首,イシカワケン,カホクグンツバタマチ,ウシクビ,石川県河北郡津幡町牛首
9290304,石川県,河北郡津幡町,上河合,イシカワケン,カホクグンツバタマチ,カミカワイ,石川県河北郡津幡町上河合
9290305,石川県,河北郡津幡町,下河合,イシカワケン,カホクグンツバタマチ,シモカワイ,石川県河北郡津幡町下河合
9290306,石川県,河北郡津幡町,興津,イシカワケン,カホクグンツバタマチ,キョウヅ,石川県河北郡津幡町興津
9290307,石川県,河北郡津幡町,平野,イシカワケン,カホクグンツバタマチ,ヒラノ,石川県河北郡津幡町平野
9290307,石川県,河北郡津幡町,種,イシカワケン,カホクグンツバタマチ,タネ,石川県河北郡津幡町種
9290308,石川県,河北郡津幡町,菩提寺,イシカワケン,カホクグンツバタマチ,ボダイジ,石川県河北郡津幡町菩提寺
9290309,石川県,河北郡津幡町,上大田,イシカワケン,カホクグンツバタマチ,カミオオタ,石川県河北郡津幡町上大田
9290311,石川県,河北郡津幡町,池ケ原,イシカワケン,カホクグンツバタマチ,イケガハラ,石川県河北郡津幡町池ケ原
9290312,石川県,河北郡津幡町,小熊,イシカワケン,カホクグンツバタマチ,コンマ,石川県河北郡津幡町小熊
9290313,石川県,河北郡津幡町,中山,イシカワケン,カホクグンツバタマチ,ナカヤマ,石川県河北郡津幡町中山
9290314,石川県,河北郡津幡町,上矢田,イシカワケン,カホクグンツバタマチ,カミヤタ,石川県河北郡津幡町上矢田
9290315,石川県,河北郡津幡町,下矢田,イシカワケン,カホクグンツバタマチ,シモヤタ,石川県河北郡津幡町下矢田
9290316,石川県,河北郡津幡町,御門,イシカワケン,カホクグンツバタマチ,ミカド,石川県河北郡津幡町御門
9290317,石川県,河北郡津幡町,谷内,イシカワケン,カホクグンツバタマチ,ヤチ,石川県河北郡津幡町谷内
9290318,石川県,河北郡津幡町,領家,イシカワケン,カホクグンツバタマチ,リョウケ,石川県河北郡津幡町領家
9290319,石川県,河北郡津幡町,能瀬,イシカワケン,カホクグンツバタマチ,ノセ,石川県河北郡津幡町能瀬
9290321,石川県,河北郡津幡町,加茂,イシカワケン,カホクグンツバタマチ,カモ,石川県河北郡津幡町加茂
9290322,石川県,河北郡津幡町,緑が丘,イシカワケン,カホクグンツバタマチ,ミドリガオカ,石川県河北郡津幡町緑が丘
9290323,石川県,河北郡津幡町,津幡,イシカワケン,カホクグンツバタマチ,ツバタ,石川県河北郡津幡町津幡
9290324,石川県,河北郡津幡町,浅田,イシカワケン,カホクグンツバタマチ,アサダ,石川県河北郡津幡町浅田
9290325,石川県,河北郡津幡町,加賀爪,イシカワケン,カホクグンツバタマチ,カガツメ,石川県河北郡津幡町加賀爪
9290326,石川県,河北郡津幡町,清水,イシカワケン,カホクグンツバタマチ,シミズ,石川県河北郡津幡町清水
9290327,石川県,河北郡津幡町,庄,イシカワケン,カホクグンツバタマチ,ショウ,石川県河北郡津幡町庄
9290328,石川県,河北郡津幡町,湖東,イシカワケン,カホクグンツバタマチ,コトウ,石川県河北郡津幡町湖東
9290328,石川県,河北郡津幡町,舟橋,イシカワケン,カホクグンツバタマチ,フナバシ,石川県河北郡津幡町舟橋
9290331,石川県,河北郡津幡町,中橋,イシカワケン,カホクグンツバタマチ,ナカバシ,石川県河北郡津幡町中橋
9290332,石川県,河北郡津幡町,中須加,イシカワケン,カホクグンツバタマチ,ナカスカ,石川県河北郡津幡町中須加
9290333,石川県,河北郡津幡町,五反田,イシカワケン,カホクグンツバタマチ,ゴタンダ,石川県河北郡津幡町五反田
9290334,石川県,河北郡津幡町,川尻,イシカワケン,カホクグンツバタマチ,カワシリ,石川県河北郡津幡町川尻
9290335,石川県,河北郡津幡町,井上の荘,イシカワケン,カホクグンツバタマチ,イノウエノショウ,石川県河北郡津幡町井上の荘
9290341,石川県,河北郡津幡町,横浜,イシカワケン,カホクグンツバタマチ,ヨコハマ,石川県河北郡津幡町横浜
9290342,石川県,河北郡津幡町,北中条,イシカワケン,カホクグンツバタマチ,キタチュウジョウ,石川県河北郡津幡町北中条
9290343,石川県,河北郡津幡町,南中条,イシカワケン,カホクグンツバタマチ,ミナミチュウジョウ,石川県河北郡津幡町南中条
9290344,石川県,河北郡津幡町,浅谷,イシカワケン,カホクグンツバタマチ,アサンタニ,石川県河北郡津幡町浅谷
9290345,石川県,河北郡津幡町,太田,イシカワケン,カホクグンツバタマチ,オオタ,石川県河北郡津幡町太田
9290346,石川県,河北郡津幡町,潟端,イシカワケン,カホクグンツバタマチ,カタバタ,石川県河北郡津幡町潟端
9290401,石川県,河北郡津幡町,彦太郎畠,イシカワケン,カホクグンツバタマチ,ヒコタロウバタケ,石川県河北郡津幡町彦太郎畠
9290402,石川県,河北郡津幡町,笠池ケ原,イシカワケン,カホクグンツバタマチ,カサイケガハラ,石川県河北郡津幡町笠池ケ原
9290403,石川県,河北郡津幡町,莇谷,イシカワケン,カホクグンツバタマチ,アザミダニ,石川県河北郡津幡町莇谷
9290404,石川県,河北郡津幡町,大畠,イシカワケン,カホクグンツバタマチ,オオバタケ,石川県河北郡津幡町大畠
9290405,石川県,河北郡津幡町,上野,イシカワケン,カホクグンツバタマチ,ウワノ,石川県河北郡津幡町上野
9290406,石川県,河北郡津幡町,籠月,イシカワケン,カホクグンツバタマチ,コモツキ,石川県河北郡津幡町籠月
9290407,石川県,河北郡津幡町,鳥屋尾,イシカワケン,カホクグンツバタマチ,トリヤオ,石川県河北郡津幡町鳥屋尾
9290411,石川県,河北郡津幡町,河内,イシカワケン,カホクグンツバタマチ,カワチ,石川県河北郡津幡町河内
9290412,石川県,河北郡津幡町,九折,イシカワケン,カホクグンツバタマチ,ツヅラオリ,石川県河北郡津幡町九折
9290413,石川県,河北郡津幡町,倶利伽羅,イシカワケン,カホクグンツバタマチ,クリカラ,石川県河北郡津幡町倶利伽羅
9290414,石川県,河北郡津幡町,山森,イシカワケン,カホクグンツバタマチ,ヤマモリ,石川県河北郡津幡町山森
9290415,石川県,河北郡津幡町,越中坂,イシカワケン,カホクグンツバタマチ,エッチュウザカ,石川県河北郡津幡町越中坂
9290416,石川県,河北郡津幡町,刈安,イシカワケン,カホクグンツバタマチ,カリヤス,石川県河北郡津幡町刈安
9290417,石川県,河北郡津幡町,坂戸,イシカワケン,カホクグンツバタマチ,サカド,石川県河北郡津幡町坂戸
9290421,石川県,河北郡津幡町,原,イシカワケン,カホクグンツバタマチ,ハラ,石川県河北郡津幡町原
9290422,石川県,河北郡津幡町,上藤又,イシカワケン,カホクグンツバタマチ,カミフジマタ,石川県河北郡津幡町上藤又
9290423,石川県,河北郡津幡町,下中,イシカワケン,カホクグンツバタマチ,シモナカ,石川県河北郡津幡町下中
9290424,石川県,河北郡津幡町,下藤又,イシカワケン,カホクグンツバタマチ,シモフジマタ,石川県河北郡津幡町下藤又
9290425,石川県,河北郡津幡町,七野,イシカワケン,カホクグンツバタマチ,シチノ,石川県河北郡津幡町七野
9290426,石川県,河北郡津幡町,竹橋,イシカワケン,カホクグンツバタマチ,タケノハシ,石川県河北郡津幡町竹橋
9290427,石川県,河北郡津幡町,富田,イシカワケン,カホクグンツバタマチ,トミタ,石川県河北郡津幡町富田
9290431,石川県,河北郡津幡町,大窪,イシカワケン,カホクグンツバタマチ,オオクボ,石川県河北郡津幡町大窪
9290432,石川県,河北郡津幡町,北横根,イシカワケン,カホクグンツバタマチ,キタヨコネ,石川県河北郡津幡町北横根
9290433,石川県,河北郡津幡町,南横根,イシカワケン,カホクグンツバタマチ,ミナミヨコネ,石川県河北郡津幡町南横根
9290434,石川県,河北郡津幡町,常徳,イシカワケン,カホクグンツバタマチ,ジョウトク,石川県河北郡津幡町常徳
9290434,石川県,河北郡津幡町,舟尾,イシカワケン,カホクグンツバタマチ,フナオ,石川県河北郡津幡町舟尾
9290435,石川県,河北郡津幡町,材木,イシカワケン,カホクグンツバタマチ,ザイモク,石川県河北郡津幡町材木
9290436,石川県,河北郡津幡町,朝日畑,イシカワケン,カホクグンツバタマチ,アサヒバタ,石川県河北郡津幡町朝日畑
9290437,石川県,河北郡津幡町,相窪,イシカワケン,カホクグンツバタマチ,アイクボ,石川県河北郡津幡町相窪
9290441,石川県,河北郡津幡町,東荒屋,イシカワケン,カホクグンツバタマチ,ヒガシアラヤ,石川県河北郡津幡町東荒屋
9290442,石川県,河北郡津幡町,大坪,イシカワケン,カホクグンツバタマチ,オオツボ,石川県河北郡津幡町大坪
9290443,石川県,河北郡津幡町,別所,イシカワケン,カホクグンツバタマチ,ベッショ,石川県河北郡津幡町別所
9290444,石川県,河北郡津幡町,仮生,イシカワケン,カホクグンツバタマチ,ケショウ,石川県河北郡津幡町仮生
9290445,石川県,河北郡津幡町,井野河内,イシカワケン,カホクグンツバタマチ,イノカワチ,石川県河北郡津幡町井野河内
9290446,石川県,河北郡津幡町,明神,イシカワケン,カホクグンツバタマチ,ミョウジン,石川県河北郡津幡町明神
9290447,石川県,河北郡津幡町,旭山,イシカワケン,カホクグンツバタマチ,アサヒヤマ,石川県河北郡津幡町旭山
9290451,石川県,河北郡津幡町,宮田,イシカワケン,カホクグンツバタマチ,ミヤダ,石川県河北郡津幡町宮田
9290452,石川県,河北郡津幡町,田屋,イシカワケン,カホクグンツバタマチ,タヤ,石川県河北郡津幡町田屋
9290453,石川県,河北郡津幡町,岩崎,イシカワケン,カホクグンツバタマチ,イワサキ,石川県河北郡津幡町岩崎
9290454,石川県,河北郡津幡町,杉瀬,イシカワケン,カホクグンツバタマチ,スギノセ,石川県河北郡津幡町杉瀬
9290455,石川県,河北郡津幡町,倉見,イシカワケン,カホクグンツバタマチ,クラミ,石川県河北郡津幡町倉見
9290456,石川県,河北郡津幡町,七黒,イシカワケン,カホクグンツバタマチ,シチクロ,石川県河北郡津幡町七黒
9290461,石川県,河北郡津幡町,八ノ谷,イシカワケン,カホクグンツバタマチ,ハチノタニ,石川県河北郡津幡町八ノ谷
9290462,石川県,河北郡津幡町,市谷,イシカワケン,カホクグンツバタマチ,イチノタニ,石川県河北郡津幡町市谷
9290463,石川県,河北郡津幡町,蓮花寺,イシカワケン,カホクグンツバタマチ,レンゲジ,石川県河北郡津幡町蓮花寺
9290464,石川県,河北郡津幡町,山北,イシカワケン,カホクグンツバタマチ,ヤマキタ,石川県河北郡津幡町山北
9290465,石川県,河北郡津幡町,鳥越,イシカワケン,カホクグンツバタマチ,トリゴエ,石川県河北郡津幡町鳥越
9290466,石川県,河北郡津幡町,吉倉,イシカワケン,カホクグンツバタマチ,ヨシクラ,石川県河北郡津幡町吉倉
9290467,石川県,河北郡津幡町,大熊,イシカワケン,カホクグンツバタマチ,オンマ,石川県河北郡津幡町大熊
9291100,石川県,かほく市,,イシカワケン,カホクシ,,石川県かほく市
9291101,石川県,かほく市,余地,イシカワケン,カホクシ,ヨチ,石川県かほく市余地
9291102,石川県,かほく市,上田名,イシカワケン,カホクシ,ウワダナ,石川県かほく市上田名
9291103,石川県,かほく市,谷,イシカワケン,カホクシ,タニ,石川県かほく市谷
9291104,石川県,かほく市,笠島,イシカワケン,カホクシ,カサシマ,石川県かほく市笠島
9291105,石川県,かほく市,横山,イシカワケン,カホクシ,ヨコヤマ,石川県かほく市横山
9291111,石川県,かほく市,気屋,イシカワケン,カホクシ,キヤ,石川県かほく市気屋
9291112,石川県,かほく市,多田,イシカワケン,カホクシ,タダ,石川県かほく市多田
9291113,石川県,かほく市,指江,イシカワケン,カホクシ,サシエ,石川県かほく市指江
9291114,石川県,かほく市,狩鹿野,イシカワケン,カホクシ,カルガノ,石川県かほく市狩鹿野
9291115,石川県,かほく市,上山田,イシカワケン,カホクシ,カミヤマダ,石川県かほく市上山田
9291116,石川県,かほく市,下山田,イシカワケン,カホクシ,シモヤマダ,石川県かほく市下山田
9291117,石川県,かほく市,鉢伏,イシカワケン,カホクシ,ハチブセ,石川県かほく市鉢伏
9291121,石川県,かほく市,宇気,イシカワケン,カホクシ,ウケ,石川県かほく市宇気
9291122,石川県,かほく市,七窪,イシカワケン,カホクシ,ナナクボ,石川県かほく市七窪
9291123,石川県,かほく市,森,イシカワケン,カホクシ,モリ,石川県かほく市森
9291125,石川県,かほく市,宇野気,イシカワケン,カホクシ,ウノケ,石川県かほく市宇野気
9291126,石川県,かほく市,内日角,イシカワケン,カホクシ,ウチヒスミ,石川県かほく市内日角
9291127,石川県,かほく市,大崎,イシカワケン,カホクシ,オオサキ,石川県かほく市大崎
9291171,石川県,かほく市,木津,イシカワケン,カホクシ,キヅ,石川県かほく市木津
9291172,石川県,かほく市,松浜,イシカワケン,カホクシ,マツハマ,石川県かほく市松浜
9291173,石川県,かほく市,遠塚,イシカワケン,カホクシ,トオヅカ,石川県かほく市遠塚
9291174,石川県,かほく市,浜北,イシカワケン,カホクシ,ハマキタ,石川県かほく市浜北
9291175,石川県,かほく市,秋浜,イシカワケン,カホクシ,アキハマ,石川県かほく市秋浜
9291176,石川県,かほく市,外日角,イシカワケン,カホクシ,ソトヒスミ,石川県かほく市外日角
9291177,石川県,かほく市,白尾,イシカワケン,カホクシ,シロオ,石川県かほく市白尾
9291201,石川県,かほく市,野寺,イシカワケン,カホクシ,ノデラ,石川県かほく市野寺
9291202,石川県,かほく市,八野,イシカワケン,カホクシ,ハチノ,石川県かほく市八野
9291203,石川県,かほく市,黒川,イシカワケン,カホクシ,クロガワ,石川県かほく市黒川
9291204,石川県,かほく市,箕打,イシカワケン,カホクシ,ミウチ,石川県かほく市箕打
9291205,石川県,かほく市,若緑,イシカワケン,カホクシ,ワカミドリ,石川県かほく市若緑
9291206,石川県,かほく市,元女,イシカワケン,カホクシ,ガンニョ,石川県かほく市元女
9291207,石川県,かほく市,夏栗,イシカワケン,カホクシ,ナツグリ,石川県かほく市夏栗
9291208,石川県,かほく市,瀬戸町,イシカワケン,カホクシ,セトマチ,石川県かほく市瀬戸町
9291210,石川県,かほく市,学園台,イシカワケン,カホクシ,ガクエンダイ,石川県かほく市学園台
9291211,石川県,かほく市,二ツ屋,イシカワケン,カホクシ,フタツヤ,石川県かほく市二ツ屋
9291212,石川県,かほく市,中沼,イシカワケン,カホクシ,ナカヌマ,石川県かほく市中沼
9291213,石川県,かほく市,長柄町,イシカワケン,カホクシ,ナガラマチ,石川県かほく市長柄町
9291214,石川県,かほく市,内高松,イシカワケン,カホクシ,ウチタカマツ,石川県かほく市内高松
9291215,石川県,かほく市,高松,イシカワケン,カホクシ,タカマツ,石川県かほく市高松
9291300,石川県,羽咋郡宝達志水町,,イシカワケン,ハクイグンホウダツシミズチョウ,,石川県羽咋郡宝達志水町
9291301,石川県,羽咋郡宝達志水町,宝達,イシカワケン,ハクイグンホウダツシミズチョウ,ホウダツ,石川県羽咋郡宝達志水町宝達
9291302,石川県,羽咋郡宝達志水町,山崎,イシカワケン,ハクイグンホウダツシミズチョウ,ヤマザキ,石川県羽咋郡宝達志水町山崎
9291303,石川県,羽咋郡宝達志水町,河原,イシカワケン,ハクイグンホウダツシミズチョウ,カワラ,石川県羽咋郡宝達志水町河原
9291304,石川県,羽咋郡宝達志水町,南吉田,イシカワケン,ハクイグンホウダツシミズチョウ,ミナミヨシタ,石川県羽咋郡宝達志水町南吉田
9291305,石川県,羽咋郡宝達志水町,竹生野,イシカワケン,ハクイグンホウダツシミズチョウ,タコノ,石川県羽咋郡宝達志水町竹生野
9291311,石川県,羽咋郡宝達志水町,門前,イシカワケン,ハクイグンホウダツシミズチョウ,モンゼン,石川県羽咋郡宝達志水町門前
9291312,石川県,羽咋郡宝達志水町,上田,イシカワケン,ハクイグンホウダツシミズチョウ,ウワダ,石川県羽咋郡宝達志水町上田
9291313,石川県,羽咋郡宝達志水町,東間,イシカワケン,ハクイグンホウダツシミズチョウ,アズマ,石川県羽咋郡宝達志水町東間
9291314,石川県,羽咋郡宝達志水町,紺屋町,イシカワケン,ハクイグンホウダツシミズチョウ,コンヤマチ,石川県羽咋郡宝達志水町紺屋町
9291315,石川県,羽咋郡宝達志水町,東野,イシカワケン,ハクイグンホウダツシミズチョウ,ヒガシノ,石川県羽咋郡宝達志水町東野
9291316,石川県,羽咋郡宝達志水町,中野,イシカワケン,ハクイグンホウダツシミズチョウ,ナカノ,石川県羽咋郡宝達志水町中野
9291321,石川県,羽咋郡宝達志水町,上田出,イシカワケン,ハクイグンホウダツシミズチョウ,ウワダデ,石川県羽咋郡宝達志水町上田出
9291322,石川県,羽咋郡宝達志水町,三日町,イシカワケン,ハクイグンホウダツシミズチョウ,ミッカマチ,石川県羽咋郡宝達志水町三日町
9291323,石川県,羽咋郡宝達志水町,御舘,イシカワケン,ハクイグンホウダツシミズチョウ,オタチ,石川県羽咋郡宝達志水町御舘
9291324,石川県,羽咋郡宝達志水町,正友,イシカワケン,ハクイグンホウダツシミズチョウ,マサトモ,石川県羽咋郡宝達志水町正友
9291325,石川県,羽咋郡宝達志水町,坪山,イシカワケン,ハクイグンホウダツシミズチョウ,ツボヤマ,石川県羽咋郡宝達志水町坪山
9291326,石川県,羽咋郡宝達志水町,冬野,イシカワケン,ハクイグンホウダツシミズチョウ,フユノ,石川県羽咋郡宝達志水町冬野
9291327,石川県,羽咋郡宝達志水町,森本,イシカワケン,ハクイグンホウダツシミズチョウ,モリモト,石川県羽咋郡宝達志水町森本
9291331,石川県,羽咋郡宝達志水町,米出,イシカワケン,ハクイグンホウダツシミズチョウ,コメダシ,石川県羽咋郡宝達志水町米出
9291332,石川県,羽咋郡宝達志水町,北川尻,イシカワケン,ハクイグンホウダツシミズチョウ,キタカワシリ,石川県羽咋郡宝達志水町北川尻
9291333,石川県,羽咋郡宝達志水町,免田,イシカワケン,ハクイグンホウダツシミズチョウ,メンデン,石川県羽咋郡宝達志水町免田
9291341,石川県,羽咋郡宝達志水町,宿,イシカワケン,ハクイグンホウダツシミズチョウ,シュク,石川県羽咋郡宝達志水町宿
9291342,石川県,羽咋郡宝達志水町,麦生,イシカワケン,ハクイグンホウダツシミズチョウ,ムギウ,石川県羽咋郡宝達志水町麦生
9291343,石川県,羽咋郡宝達志水町,小川,イシカワケン,ハクイグンホウダツシミズチョウ,オガワ,石川県羽咋郡宝達志水町小川
9291344,石川県,羽咋郡宝達志水町,今浜,イシカワケン,ハクイグンホウダツシミズチョウ,イマハマ,石川県羽咋郡宝達志水町今浜
9291345,石川県,羽咋郡宝達志水町,今浜新,イシカワケン,ハクイグンホウダツシミズチョウ,イマハマシン,石川県羽咋郡宝達志水町今浜新
9291401,石川県,羽咋郡宝達志水町,向瀬,イシカワケン,ハクイグンホウダツシミズチョウ,ムコセ,石川県羽咋郡宝達志水町向瀬
9291402,石川県,羽咋郡宝達志水町,清水原,イシカワケン,ハクイグンホウダツシミズチョウ,シミズバラ,石川県羽咋郡宝達志水町清水原
9291402,石川県,羽咋郡宝達志水町,見砂,イシカワケン,ハクイグンホウダツシミズチョウ,ミサゴ,石川県羽咋郡宝達志水町見砂
9291402,石川県,羽咋郡宝達志水町,走入,イシカワケン,ハクイグンホウダツシミズチョウ,ハシリ,石川県羽咋郡宝達志水町走入
9291403,石川県,羽咋郡宝達志水町,所司原,イシカワケン,ハクイグンホウダツシミズチョウ,ショシハラ,石川県羽咋郡宝達志水町所司原
9291404,石川県,羽咋郡宝達志水町,原,イシカワケン,ハクイグンホウダツシミズチョウ,ハラ,石川県羽咋郡宝達志水町原
9291404,石川県,羽咋郡宝達志水町,当熊,イシカワケン,ハクイグンホウダツシミズチョウ,トウノクマ,石川県羽咋郡宝達志水町当熊
9291404,石川県,羽咋郡宝達志水町,新宮,イシカワケン,ハクイグンホウダツシミズチョウ,シングウ,石川県羽咋郡宝達志水町新宮
9291405,石川県,羽咋郡宝達志水町,平床,イシカワケン,ハクイグンホウダツシミズチョウ,ヒラトコ,石川県羽咋郡宝達志水町平床
9291405,石川県,羽咋郡宝達志水町,海老坂,イシカワケン,ハクイグンホウダツシミズチョウ,エビサカ,石川県羽咋郡宝達志水町海老坂
9291405,石川県,羽咋郡宝達志水町,聖川,イシカワケン,ハクイグンホウダツシミズチョウ,ヒジリカワ,石川県羽咋郡宝達志水町聖川
9291405,石川県,羽咋郡宝達志水町,針山,イシカワケン,ハクイグンホウダツシミズチョウ,ハリヤマ,石川県羽咋郡宝達志水町針山
9291406,石川県,羽咋郡宝達志水町,下石,イシカワケン,ハクイグンホウダツシミズチョウ,サガリシ,石川県羽咋郡宝達志水町下石
9291406,石川県,羽咋郡宝達志水町,散田,イシカワケン,ハクイグンホウダツシミズチョウ,サンデン,石川県羽咋郡宝達志水町散田
9291406,石川県,羽咋郡宝達志水町,石坂,イシカワケン,ハクイグンホウダツシミズチョウ,イシサカ,石川県羽咋郡宝達志水町石坂
9291411,石川県,羽咋郡宝達志水町,柳瀬,イシカワケン,ハクイグンホウダツシミズチョウ,ヤナセ,石川県羽咋郡宝達志水町柳瀬
9291412,石川県,羽咋郡宝達志水町,荻島,イシカワケン,ハクイグンホウダツシミズチョウ,オギノシマ,石川県羽咋郡宝達志水町荻島
9291413,石川県,羽咋郡宝達志水町,荻谷,イシカワケン,ハクイグンホウダツシミズチョウ,オギノヤチ,石川県羽咋郡宝達志水町荻谷
9291414,石川県,羽咋郡宝達志水町,敷波,イシカワケン,ハクイグンホウダツシミズチョウ,シキナミ,石川県羽咋郡宝達志水町敷波
9291415,石川県,羽咋郡宝達志水町,敷浪,イシカワケン,ハクイグンホウダツシミズチョウ,シキナミ,石川県羽咋郡宝達志水町敷浪
9291416,石川県,羽咋郡宝達志水町,出浜,イシカワケン,ハクイグンホウダツシミズチョウ,デハマ,石川県羽咋郡宝達志水町出浜
9291421,石川県,羽咋郡宝達志水町,二口,イシカワケン,ハクイグンホウダツシミズチョウ,フタクチ,石川県羽咋郡宝達志水町二口
9291422,石川県,羽咋郡宝達志水町,杉野屋,イシカワケン,ハクイグンホウダツシミズチョウ,スギノヤ,石川県羽咋郡宝達志水町杉野屋
9291423,石川県,羽咋郡宝達志水町,菅原,イシカワケン,ハクイグンホウダツシミズチョウ,スガハラ,石川県羽咋郡宝達志水町菅原
9291424,石川県,羽咋郡宝達志水町,吉野屋,イシカワケン,ハクイグンホウダツシミズチョウ,ヨシノヤ,石川県羽咋郡宝達志水町吉野屋
9291425,石川県,羽咋郡宝達志水町,子浦,イシカワケン,ハクイグンホウダツシミズチョウ,シオ,石川県羽咋郡宝達志水町子浦
9291426,石川県,羽咋郡宝達志水町,荻市,イシカワケン,ハクイグンホウダツシミズチョウ,オギチ,石川県羽咋郡宝達志水町荻市
9291601,石川県,鹿島郡中能登町,西馬場,イシカワケン,カシマグンナカノトマチ,ニシババ,石川県鹿島郡中能登町西馬場
9291602,石川県,鹿島郡中能登町,能登部上,イシカワケン,カシマグンナカノトマチ,ノトベカミ,石川県鹿島郡中能登町能登部上
9291603,石川県,鹿島郡中能登町,徳丸,イシカワケン,カシマグンナカノトマチ,トクマル,石川県鹿島郡中能登町徳丸
9291604,石川県,鹿島郡中能登町,能登部下,イシカワケン,カシマグンナカノトマチ,ノトベシモ,石川県鹿島郡中能登町能登部下
9291605,石川県,鹿島郡中能登町,下後山,イシカワケン,カシマグンナカノトマチ,シモウシロヤマ,石川県鹿島郡中能登町下後山
9291606,石川県,鹿島郡中能登町,上後山,イシカワケン,カシマグンナカノトマチ,カミウシロヤマ,石川県鹿島郡中能登町上後山
9291621,石川県,鹿島郡中能登町,金丸,イシカワケン,カシマグンナカノトマチ,カネマル,石川県鹿島郡中能登町金丸
9291631,石川県,鹿島郡中能登町,久江,イシカワケン,カシマグンナカノトマチ,クエ,石川県鹿島郡中能登町久江
9291632,石川県,鹿島郡中能登町,小田中,イシカワケン,カシマグンナカノトマチ,コダナカ,石川県鹿島郡中能登町小田中
9291633,石川県,鹿島郡中能登町,藤井,イシカワケン,カシマグンナカノトマチ,フジイ,石川県鹿島郡中能登町藤井
9291634,石川県,鹿島郡中能登町,福田,イシカワケン,カシマグンナカノトマチ,フクダ,石川県鹿島郡中能登町福田
9291635,石川県,鹿島郡中能登町,高畠,イシカワケン,カシマグンナカノトマチ,タカバタケ,石川県鹿島郡中能登町高畠
9291636,石川県,鹿島郡中能登町,小金森,イシカワケン,カシマグンナカノトマチ,コガネモリ,石川県鹿島郡中能登町小金森
9291637,石川県,鹿島郡中能登町,曽祢,イシカワケン,カシマグンナカノトマチ,ソネ,石川県鹿島郡中能登町曽祢
9291700,石川県,鹿島郡中能登町,,イシカワケン,カシマグンナカノトマチ,,石川県鹿島郡中能登町
9291701,石川県,鹿島郡中能登町,川田,イシカワケン,カシマグンナカノトマチ,カワダ,石川県鹿島郡中能登町川田
9291702,石川県,鹿島郡中能登町,大槻,イシカワケン,カシマグンナカノトマチ,オオヅキ,石川県鹿島郡中能登町大槻
9291703,石川県,鹿島郡中能登町,春木,イシカワケン,カシマグンナカノトマチ,ハルキ,石川県鹿島郡中能登町春木
9291704,石川県,鹿島郡中能登町,末坂,イシカワケン,カシマグンナカノトマチ,スエザカ,石川県鹿島郡中能登町末坂
9291705,石川県,鹿島郡中能登町,花見月,イシカワケン,カシマグンナカノトマチ,ハナミツキ,石川県鹿島郡中能登町花見月
9291706,石川県,鹿島郡中能登町,瀬戸,イシカワケン,カシマグンナカノトマチ,セト,石川県鹿島郡中能登町瀬戸
9291711,石川県,鹿島郡中能登町,廿九日,イシカワケン,カシマグンナカノトマチ,ヒズメ,石川県鹿島郡中能登町廿九日
9291712,石川県,鹿島郡中能登町,新庄,イシカワケン,カシマグンナカノトマチ,シンジョウ,石川県鹿島郡中能登町新庄
9291713,石川県,鹿島郡中能登町,今羽坂,イシカワケン,カシマグンナカノトマチ,イマハザカ,石川県鹿島郡中能登町今羽坂
9291714,石川県,鹿島郡中能登町,羽坂,イシカワケン,カシマグンナカノトマチ,ハザカ,石川県鹿島郡中能登町羽坂
9291715,石川県,鹿島郡中能登町,一青,イシカワケン,カシマグンナカノトマチ,ヒトト,石川県鹿島郡中能登町一青
9291716,石川県,鹿島郡中能登町,黒氏,イシカワケン,カシマグンナカノトマチ,クロジ,石川県鹿島郡中能登町黒氏
9291717,石川県,鹿島郡中能登町,良川,イシカワケン,カシマグンナカノトマチ,ヨシカワ,石川県鹿島郡中能登町良川
9291721,石川県,鹿島郡中能登町,井田,イシカワケン,カシマグンナカノトマチ,イダ,石川県鹿島郡中能登町井田
9291722,石川県,鹿島郡中能登町,小竹,イシカワケン,カシマグンナカノトマチ,オダケ,石川県鹿島郡中能登町小竹
9291723,石川県,鹿島郡中能登町,水白,イシカワケン,カシマグンナカノトマチ,ミジロ,石川県鹿島郡中能登町水白
9291724,石川県,鹿島郡中能登町,尾崎,イシカワケン,カシマグンナカノトマチ,オサキ,石川県鹿島郡中能登町尾崎
9291725,石川県,鹿島郡中能登町,東馬場,イシカワケン,カシマグンナカノトマチ,ヒガシババ,石川県鹿島郡中能登町東馬場
9291726,石川県,鹿島郡中能登町,最勝講,イシカワケン,カシマグンナカノトマチ,サイスコ,石川県鹿島郡中能登町最勝講
9291801,石川県,鹿島郡中能登町,久乃木,イシカワケン,カシマグンナカノトマチ,クノギ,石川県鹿島郡中能登町久乃木
9291802,石川県,鹿島郡中能登町,武部,イシカワケン,カシマグンナカノトマチ,タケベ,石川県鹿島郡中能登町武部
9291803,石川県,鹿島郡中能登町,西,イシカワケン,カシマグンナカノトマチ,ニシ,石川県鹿島郡中能登町西
9291804,石川県,鹿島郡中能登町,在江,イシカワケン,カシマグンナカノトマチ,アルエ,石川県鹿島郡中能登町在江
9291805,石川県,鹿島郡中能登町,坪川,イシカワケン,カシマグンナカノトマチ,ツボカワ,石川県鹿島郡中能登町坪川
9291811,石川県,鹿島郡中能登町,二宮,イシカワケン,カシマグンナカノトマチ,ニノミヤ,石川県鹿島郡中能登町二宮
9291812,石川県,鹿島郡中能登町,石動山,イシカワケン,カシマグンナカノトマチ,セキドウサン,石川県鹿島郡中能登町石動山
9291813,石川県,鹿島郡中能登町,蟻ケ原,イシカワケン,カシマグンナカノトマチ,アリガハラ,石川県鹿島郡中能登町蟻ケ原
9291814,石川県,鹿島郡中能登町,原山,イシカワケン,カシマグンナカノトマチ,ハラヤマ,石川県鹿島郡中能登町原山
9291815,石川県,鹿島郡中能登町,芹川,イシカワケン,カシマグンナカノトマチ,セリカワ,石川県鹿島郡中能登町芹川
9291816,石川県,鹿島郡中能登町,浅井,イシカワケン,カシマグンナカノトマチ,アサイ,石川県鹿島郡中能登町浅井
9291817,石川県,鹿島郡中能登町,徳前,イシカワケン,カシマグンナカノトマチ,トクゼン,石川県鹿島郡中能登町徳前
9291818,石川県,鹿島郡中能登町,二宮あおば台,イシカワケン,カシマグンナカノトマチ,ニノミヤアオバダイ,石川県鹿島郡中能登町二宮あおば台
9292101,石川県,七尾市,川尻町,イシカワケン,ナナオシ,カワシリマチ,石川県七尾市川尻町
9292102,石川県,七尾市,舟尾町,イシカワケン,ナナオシ,フノオマチ,石川県七尾市舟尾町
9292103,石川県,七尾市,東山町,イシカワケン,ナナオシ,ヒガシヤママチ,石川県七尾市東山町
9292104,石川県,七尾市,垣吉町,イシカワケン,ナナオシ,カキヨシマチ,石川県七尾市垣吉町
9292105,石川県,七尾市,新屋町,イシカワケン,ナナオシ,アラヤマチ,石川県七尾市新屋町
9292111,石川県,七尾市,高田町,イシカワケン,ナナオシ,タカタマチ,石川県七尾市高田町
9292112,石川県,七尾市,杉森町,イシカワケン,ナナオシ,スギモリマチ,石川県七尾市杉森町
9292113,石川県,七尾市,西下町,イシカワケン,ナナオシ,ニシシモマチ,石川県七尾市西下町
9292114,石川県,七尾市,伊久留町,イシカワケン,ナナオシ,イクロマチ,石川県七尾市伊久留町
9292115,石川県,七尾市,七原町,イシカワケン,ナナオシ,シツハラマチ,石川県七尾市七原町
9292116,石川県,七尾市,吉田町,イシカワケン,ナナオシ,ヨシタマチ,石川県七尾市吉田町
9292121,石川県,七尾市,田鶴浜町,イシカワケン,ナナオシ,タツルハママチ,石川県七尾市田鶴浜町
9292122,石川県,七尾市,上野ケ丘町,イシカワケン,ナナオシ,ウワノガオカマチ,石川県七尾市上野ケ丘町
9292123,石川県,七尾市,三引町,イシカワケン,ナナオシ,ミビキマチ,石川県七尾市三引町
9292124,石川県,七尾市,白浜町,イシカワケン,ナナオシ,シラハママチ,石川県七尾市白浜町
9292125,石川県,七尾市,深見町,イシカワケン,ナナオシ,フカミマチ,石川県七尾市深見町
9292126,石川県,七尾市,大津町,イシカワケン,ナナオシ,オオツマチ,石川県七尾市大津町
9292201,石川県,七尾市,中島町河内,イシカワケン,ナナオシ,ナカジママチカワチ,石川県七尾市中島町河内
9292202,石川県,七尾市,中島町別所,イシカワケン,ナナオシ,ナカジママチベッショ,石川県七尾市中島町別所
9292203,石川県,七尾市,中島町北免田,イシカワケン,ナナオシ,ナカジママチキタメンデン,石川県七尾市中島町北免田
9292204,石川県,七尾市,中島町上畠,イシカワケン,ナナオシ,ナカジママチウワバタケ,石川県七尾市中島町上畠
9292205,石川県,七尾市,中島町町屋,イシカワケン,ナナオシ,ナカジママチマチヤ,石川県七尾市中島町町屋
9292206,石川県,七尾市,中島町鳥越,イシカワケン,ナナオシ,ナカジママチトリゴエ,石川県七尾市中島町鳥越
9292207,石川県,七尾市,中島町大平,イシカワケン,ナナオシ,ナカジママチオオダイラ,石川県七尾市中島町大平
9292208,石川県,七尾市,中島町古江,イシカワケン,ナナオシ,ナカジママチフルエ,石川県七尾市中島町古江
9292209,石川県,七尾市,中島町西谷内,イシカワケン,ナナオシ,ナカジママチニシヤチ,石川県七尾市中島町西谷内
9292211,石川県,七尾市,中島町横見,イシカワケン,ナナオシ,ナカジママチヨコミ,石川県七尾市中島町横見
9292212,石川県,七尾市,中島町田岸,イシカワケン,ナナオシ,ナカジママチタギシ,石川県七尾市中島町田岸
9292213,石川県,七尾市,中島町外,イシカワケン,ナナオシ,ナカジママチソデ,石川県七尾市中島町外
9292214,石川県,七尾市,中島町小牧,イシカワケン,ナナオシ,ナカジママチオマキ,石川県七尾市中島町小牧
9292215,石川県,七尾市,中島町深浦,イシカワケン,ナナオシ,ナカジママチフカウラ,石川県七尾市中島町深浦
9292216,石川県,七尾市,中島町長浦,イシカワケン,ナナオシ,ナカジママチナガウラ,石川県七尾市中島町長浦
9292217,石川県,七尾市,中島町鹿島台,イシカワケン,ナナオシ,ナカジママチカシマダイ,石川県七尾市中島町鹿島台
9292218,石川県,七尾市,中島町瀬嵐,イシカワケン,ナナオシ,ナカジママチセアラシ,石川県七尾市中島町瀬嵐
9292221,石川県,七尾市,中島町谷内,イシカワケン,ナナオシ,ナカジママチヤチ,石川県七尾市中島町谷内
9292222,石川県,七尾市,中島町中島,イシカワケン,ナナオシ,ナカジママチナカジマ,石川県七尾市中島町中島
9292223,石川県,七尾市,中島町上町,イシカワケン,ナナオシ,ナカジママチカンマチ,石川県七尾市中島町上町
9292224,石川県,七尾市,中島町山戸田,イシカワケン,ナナオシ,ナカジママチヤマトダ,石川県七尾市中島町山戸田
9292225,石川県,七尾市,中島町宮前,イシカワケン,ナナオシ,ナカジママチミヤノマエ,石川県七尾市中島町宮前
9292226,石川県,七尾市,中島町横田,イシカワケン,ナナオシ,ナカジママチヨコタ,石川県七尾市中島町横田
9292227,石川県,七尾市,中島町藤瀬,イシカワケン,ナナオシ,ナカジママチフジノセ,石川県七尾市中島町藤瀬
9292231,石川県,七尾市,中島町奥吉田,イシカワケン,ナナオシ,ナカジママチオクヨシタ,石川県七尾市中島町奥吉田
9292232,石川県,七尾市,中島町筆染,イシカワケン,ナナオシ,ナカジママチフデソメ,石川県七尾市中島町筆染
9292233,石川県,七尾市,中島町笠師,イシカワケン,ナナオシ,ナカジママチカサシ,石川県七尾市中島町笠師
9292234,石川県,七尾市,中島町塩津,イシカワケン,ナナオシ,ナカジママチシオツ,石川県七尾市中島町塩津
9292241,石川県,七尾市,中島町浜田,イシカワケン,ナナオシ,ナカジママチハマダ,石川県七尾市中島町浜田
9292242,石川県,七尾市,中島町崎山,イシカワケン,ナナオシ,ナカジママチサキヤマ,石川県七尾市中島町崎山
9292243,石川県,七尾市,中島町河崎,イシカワケン,ナナオシ,ナカジママチカワザキ,石川県七尾市中島町河崎
9292244,石川県,七尾市,中島町豊田町,イシカワケン,ナナオシ,ナカジママチトヨタマチ,石川県七尾市中島町豊田町
9292245,石川県,七尾市,中島町豊田,イシカワケン,ナナオシ,ナカジママチトヨタ,石川県七尾市中島町豊田
9292246,石川県,七尾市,中島町土川,イシカワケン,ナナオシ,ナカジママチツチカワ,石川県七尾市中島町土川
9292247,石川県,七尾市,中島町外原,イシカワケン,ナナオシ,ナカジママチソドハラ,石川県七尾市中島町外原
9292361,石川県,輪島市,三井町与呂見,イシカワケン,ワジマシ,ミイマチヨロミ,石川県輪島市三井町与呂見
9292362,石川県,輪島市,三井町中,イシカワケン,ワジマシ,ミイマチナカ,石川県輪島市三井町中
9292363,石川県,輪島市,三井町興徳寺,イシカワケン,ワジマシ,ミイマチコウトクジ,石川県輪島市三井町興徳寺
9292364,石川県,輪島市,大和町,イシカワケン,ワジマシ,ヤマトマチ,石川県輪島市大和町
9292365,石川県,輪島市,三井町渡合,イシカワケン,ワジマシ,ミイマチドアイ,石川県輪島市三井町渡合
9292366,石川県,輪島市,三井町本江,イシカワケン,ワジマシ,ミイマチホンコウ,石川県輪島市三井町本江
9292367,石川県,輪島市,三井町仁行,イシカワケン,ワジマシ,ミイマチニギョウ,石川県輪島市三井町仁行
9292371,石川県,輪島市,三井町三洲穂,イシカワケン,ワジマシ,ミイマチミズホ,石川県輪島市三井町三洲穂
9292372,石川県,輪島市,三井町洲衛,イシカワケン,ワジマシ,ミイマチスエ,石川県輪島市三井町洲衛
9292373,石川県,輪島市,三井町市ノ坂,イシカワケン,ワジマシ,ミイマチイチノサカ,石川県輪島市三井町市ノ坂
9292374,石川県,輪島市,三井町内屋,イシカワケン,ワジマシ,ミイマチウチヤ,石川県輪島市三井町内屋
9292375,石川県,輪島市,三井町細屋,イシカワケン,ワジマシ,ミイマチホソヤ,石川県輪島市三井町細屋
9292376,石川県,輪島市,三井町新保,イシカワケン,ワジマシ,ミイマチシンボ,石川県輪島市三井町新保
9292377,石川県,輪島市,三井町漆原,イシカワケン,ワジマシ,ミイマチウルシハラ,石川県輪島市三井町漆原
9292378,石川県,輪島市,三井町小泉,イシカワケン,ワジマシ,ミイマチコイズミ,石川県輪島市三井町小泉
9292379,石川県,輪島市,三井町長沢,イシカワケン,ワジマシ,ミイマチナガサワ,石川県輪島市三井町長沢
9390171,石川県,羽咋郡宝達志水町,沢川,イシカワケン,ハクイグンホウダツシミズチョウ,ソウゴウ,石川県羽咋郡宝達志水町沢川
