zipcode,prefecture_name,city,town,prefecture_kana,city_kana,town_kana,normalized_address
9100001,福井県,福井市,大願寺,フクイケン,フクイシ,ダイガンジ,福井県福井市大願寺
9100002,福井県,福井市,町屋,フクイケン,フクイシ,マチヤ,福井県福井市町屋
9100003,福井県,福井市,松本,フクイケン,フクイシ,マツモト,福井県福井市松本
9100004,福井県,福井市,宝永,フクイケン,フクイシ,ホウエイ,福井県福井市宝永
9100005,福井県,福井市,大手,フクイケン,フクイシ,オオテ,福井県福井市大手
9100006,福井県,福井市,中央,フクイケン,フクイシ,チュウオウ,福井県福井市中央
9100011,福井県,福井市,経田,フクイケン,フクイシ,キョウデン,福井県福井市経田
9100012,福井県,福井市,経栄,フクイケン,フクイシ,キョウエイ,福井県福井市経栄
9100013,福井県,福井市,幾代,フクイケン,フクイシ,イクヨ,福井県福井市幾代
9100014,福井県,福井市,幾久町,フクイケン,フクイシ,イクヒサチョウ,福井県福井市幾久町
9100015,福井県,福井市,二の宮,フクイケン,フクイシ,ニノミヤ,福井県福井市二の宮
9100016,福井県,福井市,大宮,フクイケン,フクイシ,オオミヤ,福井県福井市大宮
9100017,福井県,福井市,文京,フクイケン,フクイシ,ブンキョウ,福井県福井市文京
9100018,福井県,福井市,田原,フクイケン,フクイシ,タワラ,福井県福井市田原
9100019,福井県,福井市,春山,フクイケン,フクイシ,ハルヤマ,福井県福井市春山
9100021,福井県,福井市,乾徳,フクイケン,フクイシ,ケントク,福井県福井市乾徳
9100022,福井県,福井市,花月,フクイケン,フクイシ,カゲツ,福井県福井市花月
9100023,福井県,福井市,順化,フクイケン,フクイシ,ジュンカ,福井県福井市順化
9100024,福井県,福井市,照手,フクイケン,フクイシ,テルテ,福井県福井市照手
9100025,福井県,福井市,照手町,フクイケン,フクイシ,テルテチョウ,福井県福井市照手町
9100026,福井県,福井市,光陽,フクイケン,フクイシ,コウヨウ,福井県福井市光陽
9100027,福井県,福井市,豊岡,フクイケン,フクイシ,トヨオカ,福井県福井市豊岡
9100028,福井県,福井市,学園,フクイケン,フクイシ,ガクエン,福井県福井市学園
9100029,福井県,福井市,日光,フクイケン,フクイシ,ニッコウ,福井県福井市日光
9100031,福井県,福井市,堀ノ宮町,フクイケン,フクイシ,ホリノミヤチョウ,福井県福井市堀ノ宮町
9100032,福井県,福井市,堀ノ宮,フクイケン,フクイシ,ホリノミヤ,福井県福井市堀ノ宮
9100033,福井県,福井市,三郎丸,フクイケン,フクイシ,サブロウマル,福井県福井市三郎丸
9100034,福井県,福井市,菅谷,フクイケン,フクイシ,スガヤ,福井県福井市菅谷
9100035,福井県,福井市,菅谷町,フクイケン,フクイシ,スガヤチョウ,福井県福井市菅谷町
9100036,福井県,福井市,三郎丸町,フクイケン,フクイシ,サブロウマルチョウ,福井県福井市三郎丸町
9100037,福井県,福井市,西堀町,フクイケン,フクイシ,ニシボリチョウ,福井県福井市西堀町
9100038,福井県,福井市,三ツ屋,フクイケン,フクイシ,ミツヤ,福井県福井市三ツ屋
9100039,福井県,福井市,三ツ屋町,フクイケン,フクイシ,ミツヤチョウ,福井県福井市三ツ屋町
9100041,福井県,福井市,天菅生町,フクイケン,フクイシ,アマスゴウチョウ,福井県福井市天菅生町
9100042,福井県,福井市,岸水町,フクイケン,フクイシ,キシミズチョウ,福井県福井市岸水町
9100043,福井県,福井市,四十谷町,フクイケン,フクイシ,シジュウタニチョウ,福井県福井市四十谷町
9100044,福井県,福井市,田ノ谷町,フクイケン,フクイシ,タノタニチョウ,福井県福井市田ノ谷町
9100045,福井県,福井市,北楢原町,フクイケン,フクイシ,キタナラハラチョウ,福井県福井市北楢原町
9100046,福井県,福井市,南楢原町,フクイケン,フクイシ,ミナミナラハラチョウ,福井県福井市南楢原町
9100047,福井県,福井市,海老助町,フクイケン,フクイシ,エビスケチョウ,福井県福井市海老助町
9100048,福井県,福井市,地蔵堂町,フクイケン,フクイシ,ジゾウドウチョウ,福井県福井市地蔵堂町
9100049,福井県,福井市,深谷町,フクイケン,フクイシ,フカタニチョウ,福井県福井市深谷町
9100051,福井県,福井市,郡町,フクイケン,フクイシ,コオリチョウ,福井県福井市郡町
9100052,福井県,福井市,黒丸町,フクイケン,フクイシ,クロマルチョウ,福井県福井市黒丸町
9100053,福井県,福井市,土橋町,フクイケン,フクイシ,ツチハシチョウ,福井県福井市土橋町
9100054,福井県,福井市,安竹町,フクイケン,フクイシ,ヤスタケチョウ,福井県福井市安竹町
9100055,福井県,福井市,上伏町,フクイケン,フクイシ,ウエブセチョウ,福井県福井市上伏町
9100056,福井県,福井市,里別所新町,フクイケン,フクイシ,サトベッショシンマチ,福井県福井市里別所新町
9100057,福井県,福井市,里別所町,フクイケン,フクイシ,サトベッショチョウ,福井県福井市里別所町
9100061,福井県,福井市,舟橋新町,フクイケン,フクイシ,フナバシシンマチ,福井県福井市舟橋新町
9100062,福井県,福井市,灯明寺町,フクイケン,フクイシ,トウミョウジチョウ,福井県福井市灯明寺町
9100063,福井県,福井市,灯明寺,フクイケン,フクイシ,トウミョウジ,福井県福井市灯明寺
9100064,福井県,福井市,新田塚町,フクイケン,フクイシ,ニツタヅカチョウ,福井県福井市新田塚町
9100065,福井県,福井市,八ツ島町,フクイケン,フクイシ,ヤツシマチョウ,福井県福井市八ツ島町
9100066,福井県,福井市,八ツ島,フクイケン,フクイシ,ヤツシマ,福井県福井市八ツ島
9100067,福井県,福井市,新田塚,フクイケン,フクイシ,ニッタヅカ,福井県福井市新田塚
9100068,福井県,福井市,舟橋新,フクイケン,フクイシ,フナバシシン,福井県福井市舟橋新
9100069,福井県,福井市,舟橋黒竜,フクイケン,フクイシ,フナバシクロタツ,福井県福井市舟橋黒竜
9100070,福井県,福井市,高木西,フクイケン,フクイシ,タカギニシ,福井県福井市高木西
9100101,福井県,福井市,つくし野,フクイケン,フクイシ,ツクシノ,福井県福井市つくし野
9100102,福井県,福井市,川合鷲塚町,フクイケン,フクイシ,カワイワシヅカチョウ,福井県福井市川合鷲塚町
9100103,福井県,福井市,中角町,フクイケン,フクイシ,ナカツノチョウ,福井県福井市中角町
9100104,福井県,福井市,網戸瀬町,フクイケン,フクイシ,アドセチョウ,福井県福井市網戸瀬町
9100105,福井県,福井市,河合勝見町,フクイケン,フクイシ,カワイカツミチョウ,福井県福井市河合勝見町
9100106,福井県,福井市,六日市町,フクイケン,フクイシ,ムイカイチチョウ,福井県福井市六日市町
9100107,福井県,福井市,高屋町,フクイケン,フクイシ,タカヤチョウ,福井県福井市高屋町
9100108,福井県,福井市,山室町,フクイケン,フクイシ,ヤマムロチョウ,福井県福井市山室町
9100109,福井県,福井市,二日市町,フクイケン,フクイシ,フツカイチチョウ,福井県福井市二日市町
9100121,福井県,福井市,定正町,フクイケン,フクイシ,サダマサチョウ,福井県福井市定正町
9100122,福井県,福井市,石盛町,フクイケン,フクイシ,イシモリチョウ,福井県福井市石盛町
9100123,福井県,福井市,八重巻町,フクイケン,フクイシ,ヤエマキチョウ,福井県福井市八重巻町
9100124,福井県,福井市,天池町,フクイケン,フクイシ,アマイケチョウ,福井県福井市天池町
9100125,福井県,福井市,石盛,フクイケン,フクイシ,イシモリ,福井県福井市石盛
9100126,福井県,福井市,定正,フクイケン,フクイシ,サダマサ,福井県福井市定正
9100132,福井県,福井市,河合寄安町,フクイケン,フクイシ,カワイヨリヤスチョウ,福井県福井市河合寄安町
9100134,福井県,福井市,上野本町,フクイケン,フクイシ,ウエノホンマチ,福井県福井市上野本町
9100135,福井県,福井市,上野本町新,フクイケン,フクイシ,ウエノホンマチシン,福井県福井市上野本町新
9100136,福井県,福井市,栗森町浜,フクイケン,フクイシ,クリモリチョウハマ,福井県福井市栗森町浜
9100137,福井県,福井市,栗森,フクイケン,フクイシ,クリモリ,福井県福井市栗森
9100138,福井県,福井市,東森田,フクイケン,フクイシ,ヒガシモリダ,福井県福井市東森田
9100141,福井県,福井市,上森田町,フクイケン,フクイシ,カミモリダチョウ,福井県福井市上森田町
9100142,福井県,福井市,上森田,フクイケン,フクイシ,カミモリダ,福井県福井市上森田
9100143,福井県,福井市,下森田新町,フクイケン,フクイシ,シモモリダシンマチ,福井県福井市下森田新町
9100144,福井県,福井市,下森田本町,フクイケン,フクイシ,シモモリダホンマチ,福井県福井市下森田本町
9100145,福井県,福井市,下森田藤巻町,フクイケン,フクイシ,シモモリダフジマキチョウ,福井県福井市下森田藤巻町
9100146,福井県,福井市,下森田桜町,フクイケン,フクイシ,シモモリダサクラマチ,福井県福井市下森田桜町
9100147,福井県,福井市,下森田町,フクイケン,フクイシ,シモモリダチョウ,福井県福井市下森田町
9100151,福井県,福井市,栄町,フクイケン,フクイシ,サカエチョウ,福井県福井市栄町
9100152,福井県,福井市,古市,フクイケン,フクイシ,フルイチ,福井県福井市古市
9100153,福井県,福井市,古市町,フクイケン,フクイシ,フルイチチョウ,福井県福井市古市町
9100154,福井県,福井市,稲多元町,フクイケン,フクイシ,イナダモトマチ,福井県福井市稲多元町
9100155,福井県,福井市,稲多浜町,フクイケン,フクイシ,イナダハママチ,福井県福井市稲多浜町
9100156,福井県,福井市,稲多新町,フクイケン,フクイシ,イナダシンマチ,福井県福井市稲多新町
9100157,福井県,福井市,八重巻東町,フクイケン,フクイシ,ヤエマキヒガシチョウ,福井県福井市八重巻東町
9100158,福井県,福井市,八重巻中町,フクイケン,フクイシ,ヤエマキナカチョウ,福井県福井市八重巻中町
9100200,福井県,坂井市,,フクイケン,サカイシ,,福井県坂井市
9100201,福井県,坂井市,丸岡町上竹田（曽谷）,フクイケン,サカイシ,マルオカチョウカミタケダ(ソタニ),福井県坂井市丸岡町上竹田（曽谷）
9100202,福井県,坂井市,丸岡町上竹田（岡）,フクイケン,サカイシ,マルオカチョウカミタケダ(オカ),福井県坂井市丸岡町上竹田（岡）
9100203,福井県,坂井市,丸岡町山口,フクイケン,サカイシ,マルオカチョウヤマグチ,福井県坂井市丸岡町山口
9100204,福井県,坂井市,丸岡町山竹田,フクイケン,サカイシ,マルオカチョウヤマタケダ,福井県坂井市丸岡町山竹田
9100205,福井県,坂井市,丸岡町上竹田（その他）,フクイケン,サカイシ,マルオカチョウカミタケダ(ソノタ),福井県坂井市丸岡町上竹田（その他）
9100206,福井県,坂井市,丸岡町川上,フクイケン,サカイシ,マルオカチョウカワカミ,福井県坂井市丸岡町川上
9100207,福井県,坂井市,丸岡町山久保,フクイケン,サカイシ,マルオカチョウヤマクボ,福井県坂井市丸岡町山久保
9100208,福井県,坂井市,丸岡町坪江,フクイケン,サカイシ,マルオカチョウツボエ,福井県坂井市丸岡町坪江
9100211,福井県,坂井市,丸岡町女形谷,フクイケン,サカイシ,マルオカチョウオナガタニ,福井県坂井市丸岡町女形谷
9100212,福井県,坂井市,丸岡町赤坂,フクイケン,サカイシ,マルオカチョウアカサカ,福井県坂井市丸岡町赤坂
9100213,福井県,坂井市,丸岡町田屋,フクイケン,サカイシ,マルオカチョウタヤ,福井県坂井市丸岡町田屋
9100214,福井県,坂井市,丸岡町畑中,フクイケン,サカイシ,マルオカチョウハタケナカ,福井県坂井市丸岡町畑中
9100215,福井県,坂井市,丸岡町与河,フクイケン,サカイシ,マルオカチョウヨカワ,福井県坂井市丸岡町与河
9100221,福井県,坂井市,丸岡町城北,フクイケン,サカイシ,マルオカチョウジョウホク,福井県坂井市丸岡町城北
9100222,福井県,坂井市,丸岡町伏屋,フクイケン,サカイシ,マルオカチョウフセヤ,福井県坂井市丸岡町伏屋
9100223,福井県,坂井市,丸岡町三本木,フクイケン,サカイシ,マルオカチョウサンボンギ,福井県坂井市丸岡町三本木
9100224,福井県,坂井市,丸岡町八ケ郷,フクイケン,サカイシ,マルオカチョウハッカゴウ,福井県坂井市丸岡町八ケ郷
9100225,福井県,坂井市,丸岡町松川,フクイケン,サカイシ,マルオカチョウマツカワ,福井県坂井市丸岡町松川
9100226,福井県,坂井市,丸岡町松川町,フクイケン,サカイシ,マルオカチョウマツカワチョウ,福井県坂井市丸岡町松川町
9100227,福井県,坂井市,丸岡町荒町,フクイケン,サカイシ,マルオカチョウアラマチ,福井県坂井市丸岡町荒町
9100231,福井県,坂井市,丸岡町霞町,フクイケン,サカイシ,マルオカチョウカスミチョウ,福井県坂井市丸岡町霞町
9100232,福井県,坂井市,丸岡町霞ケ丘,フクイケン,サカイシ,マルオカチョウカスミガオカ,福井県坂井市丸岡町霞ケ丘
9100233,福井県,坂井市,丸岡町東陽,フクイケン,サカイシ,マルオカチョウトウヨウ,福井県坂井市丸岡町東陽
9100234,福井県,坂井市,丸岡町今市,フクイケン,サカイシ,マルオカチョウイマイチ,福井県坂井市丸岡町今市
9100235,福井県,坂井市,丸岡町巽町,フクイケン,サカイシ,マルオカチョウタツミチョウ,福井県坂井市丸岡町巽町
9100236,福井県,坂井市,丸岡町本町,フクイケン,サカイシ,マルオカチョウホンマチ,福井県坂井市丸岡町本町
9100237,福井県,坂井市,丸岡町乾,フクイケン,サカイシ,マルオカチョウイヌイ,福井県坂井市丸岡町乾
9100241,福井県,坂井市,丸岡町柳町,フクイケン,サカイシ,マルオカチョウヤナギマチ,福井県坂井市丸岡町柳町
9100242,福井県,坂井市,丸岡町西里丸岡,フクイケン,サカイシ,マルオカチョウニシサトマルオカ,福井県坂井市丸岡町西里丸岡
9100243,福井県,坂井市,丸岡町石城戸町,フクイケン,サカイシ,マルオカチョウイシキドチョウ,福井県坂井市丸岡町石城戸町
9100244,福井県,坂井市,丸岡町富田町,フクイケン,サカイシ,マルオカチョウトミタマチ,福井県坂井市丸岡町富田町
9100245,福井県,坂井市,丸岡町谷町,フクイケン,サカイシ,マルオカチョウタニマチ,福井県坂井市丸岡町谷町
9100246,福井県,坂井市,丸岡町西瓜屋,フクイケン,サカイシ,マルオカチョウニシウリヤ,福井県坂井市丸岡町西瓜屋
9100251,福井県,坂井市,丸岡町一本田福所,フクイケン,サカイシ,マルオカチョウイッポンデンフクショ,福井県坂井市丸岡町一本田福所
9100252,福井県,坂井市,丸岡町御幸,フクイケン,サカイシ,マルオカチョウミユキ,福井県坂井市丸岡町御幸
9100253,福井県,坂井市,丸岡町一本田中,フクイケン,サカイシ,マルオカチョウイッポンデンナカ,福井県坂井市丸岡町一本田中
9100254,福井県,坂井市,丸岡町一本田,フクイケン,サカイシ,マルオカチョウイッポンデン,福井県坂井市丸岡町一本田
9100261,福井県,坂井市,丸岡町針ノ木,フクイケン,サカイシ,マルオカチョウハリノキ,福井県坂井市丸岡町針ノ木
9100262,福井県,坂井市,丸岡町栄,フクイケン,サカイシ,マルオカチョウサカエ,福井県坂井市丸岡町栄
9100263,福井県,坂井市,丸岡町上田町,フクイケン,サカイシ,マルオカチョウウエダマチ,福井県坂井市丸岡町上田町
9100264,福井県,坂井市,丸岡町乾下田,フクイケン,サカイシ,マルオカチョウイヌイシモダ,福井県坂井市丸岡町乾下田
9100265,福井県,坂井市,丸岡町朝陽,フクイケン,サカイシ,マルオカチョウアサヒ,福井県坂井市丸岡町朝陽
9100271,福井県,坂井市,丸岡町堀水,フクイケン,サカイシ,マルオカチョウホリミズ,福井県坂井市丸岡町堀水
9100272,福井県,坂井市,丸岡町乗兼,フクイケン,サカイシ,マルオカチョウノリカネ,福井県坂井市丸岡町乗兼
9100273,福井県,坂井市,丸岡町長畝,フクイケン,サカイシ,マルオカチョウノウネ,福井県坂井市丸岡町長畝
9100274,福井県,坂井市,丸岡町千田,フクイケン,サカイシ,マルオカチョウセンダ,福井県坂井市丸岡町千田
9100275,福井県,坂井市,丸岡町宇田,フクイケン,サカイシ,マルオカチョウウダ,福井県坂井市丸岡町宇田
9100276,福井県,坂井市,丸岡町玄女,フクイケン,サカイシ,マルオカチョウゲンニョ,福井県坂井市丸岡町玄女
9100277,福井県,坂井市,丸岡町里竹田,フクイケン,サカイシ,マルオカチョウサトタケダ,福井県坂井市丸岡町里竹田
9100301,福井県,坂井市,丸岡町愛宕,フクイケン,サカイシ,マルオカチョウアタゴ,福井県坂井市丸岡町愛宕
9100302,福井県,坂井市,丸岡町里丸岡,フクイケン,サカイシ,マルオカチョウサトマルオカ,福井県坂井市丸岡町里丸岡
9100303,福井県,坂井市,丸岡町猪爪,フクイケン,サカイシ,マルオカチョウイノツメ,福井県坂井市丸岡町猪爪
9100304,福井県,坂井市,丸岡町今福,フクイケン,サカイシ,マルオカチョウイマフク,福井県坂井市丸岡町今福
9100305,福井県,坂井市,丸岡町八幡町,フクイケン,サカイシ,マルオカチョウハチマンチョウ,福井県坂井市丸岡町八幡町
9100311,福井県,坂井市,丸岡町豊原,フクイケン,サカイシ,マルオカチョウトヨハラ,福井県坂井市丸岡町豊原
9100312,福井県,坂井市,丸岡町曽々木,フクイケン,サカイシ,マルオカチョウソソキ,福井県坂井市丸岡町曽々木
9100313,福井県,坂井市,丸岡町内田,フクイケン,サカイシ,マルオカチョウウチダ,福井県坂井市丸岡町内田
9100314,福井県,坂井市,丸岡町舛田,フクイケン,サカイシ,マルオカチョウマスタ,福井県坂井市丸岡町舛田
9100315,福井県,坂井市,丸岡町小黒,フクイケン,サカイシ,マルオカチョウオグロ,福井県坂井市丸岡町小黒
9100316,福井県,坂井市,丸岡町篠岡,フクイケン,サカイシ,マルオカチョウシノオカ,福井県坂井市丸岡町篠岡
9100317,福井県,坂井市,丸岡町石上,フクイケン,サカイシ,マルオカチョウイシガミ,福井県坂井市丸岡町石上
9100321,福井県,坂井市,丸岡町山崎三ケ,フクイケン,サカイシ,マルオカチョウヤマサキサンガ,福井県坂井市丸岡町山崎三ケ
9100322,福井県,坂井市,丸岡町大森,フクイケン,サカイシ,マルオカチョウオオモリ,福井県坂井市丸岡町大森
9100323,福井県,坂井市,丸岡町野中山王,フクイケン,サカイシ,マルオカチョウノナカサンノウ,福井県坂井市丸岡町野中山王
9100324,福井県,坂井市,丸岡町油為頭,フクイケン,サカイシ,マルオカチョウアブラタメトウ,福井県坂井市丸岡町油為頭
9100325,福井県,坂井市,丸岡町板倉,フクイケン,サカイシ,マルオカチョウイタクラ,福井県坂井市丸岡町板倉
9100326,福井県,坂井市,丸岡町末政,フクイケン,サカイシ,マルオカチョウスエマサ,福井県坂井市丸岡町末政
9100331,福井県,坂井市,丸岡町上久米田,フクイケン,サカイシ,マルオカチョウカミクメダ,福井県坂井市丸岡町上久米田
9100332,福井県,坂井市,丸岡町下久米田,フクイケン,サカイシ,マルオカチョウシモクメダ,福井県坂井市丸岡町下久米田
9100333,福井県,坂井市,丸岡町金元,フクイケン,サカイシ,マルオカチョウカネモト,福井県坂井市丸岡町金元
9100334,福井県,坂井市,丸岡町東二ツ屋,フクイケン,サカイシ,マルオカチョウヒガシフタツヤ,福井県坂井市丸岡町東二ツ屋
9100335,福井県,坂井市,丸岡町上金屋,フクイケン,サカイシ,マルオカチョウカミカナヤ,福井県坂井市丸岡町上金屋
9100336,福井県,坂井市,丸岡町楽間,フクイケン,サカイシ,マルオカチョウラクマ,福井県坂井市丸岡町楽間
9100337,福井県,坂井市,丸岡町新鳴鹿,フクイケン,サカイシ,マルオカチョウシンナルカ,福井県坂井市丸岡町新鳴鹿
9100338,福井県,坂井市,丸岡町為安,フクイケン,サカイシ,マルオカチョウタメヤス,福井県坂井市丸岡町為安
9100339,福井県,坂井市,丸岡町寄永,フクイケン,サカイシ,マルオカチョウヨリナガ,福井県坂井市丸岡町寄永
9100341,福井県,坂井市,丸岡町四ツ柳,フクイケン,サカイシ,マルオカチョウヨツヤナギ,福井県坂井市丸岡町四ツ柳
9100342,福井県,坂井市,丸岡町高田,フクイケン,サカイシ,マルオカチョウタカダ,福井県坂井市丸岡町高田
9100343,福井県,坂井市,丸岡町坪ノ内,フクイケン,サカイシ,マルオカチョウツボノウチ,福井県坂井市丸岡町坪ノ内
9100344,福井県,坂井市,丸岡町友末,フクイケン,サカイシ,マルオカチョウトモスエ,福井県坂井市丸岡町友末
9100345,福井県,坂井市,丸岡町四郎丸,フクイケン,サカイシ,マルオカチョウシロウマル,福井県坂井市丸岡町四郎丸
9100346,福井県,坂井市,丸岡町磯部島,フクイケン,サカイシ,マルオカチョウイソベシマ,福井県坂井市丸岡町磯部島
9100347,福井県,坂井市,丸岡町熊堂,フクイケン,サカイシ,マルオカチョウクマンドウ,福井県坂井市丸岡町熊堂
9100348,福井県,坂井市,丸岡町今町,フクイケン,サカイシ,マルオカチョウイママチ,福井県坂井市丸岡町今町
9100349,福井県,坂井市,丸岡町反保,フクイケン,サカイシ,マルオカチョウタンボ,福井県坂井市丸岡町反保
9100350,福井県,坂井市,丸岡町南今市,フクイケン,サカイシ,マルオカチョウミナミイマイチ,福井県坂井市丸岡町南今市
9100351,福井県,坂井市,丸岡町寅国,フクイケン,サカイシ,マルオカチョウトラクニ,福井県坂井市丸岡町寅国
9100352,福井県,坂井市,丸岡町新間,フクイケン,サカイシ,マルオカチョウシンマ,福井県坂井市丸岡町新間
9100353,福井県,坂井市,丸岡町筑後清水,フクイケン,サカイシ,マルオカチョウチクゴショウズ,福井県坂井市丸岡町筑後清水
9100354,福井県,坂井市,丸岡町豊原高瀬,フクイケン,サカイシ,マルオカチョウトヨハラタカセ,福井県坂井市丸岡町豊原高瀬
9100355,福井県,坂井市,丸岡町高瀬,フクイケン,サカイシ,マルオカチョウタカセ,福井県坂井市丸岡町高瀬
9100356,福井県,坂井市,丸岡町牛ケ島,フクイケン,サカイシ,マルオカチョウウシガシマ,福井県坂井市丸岡町牛ケ島
9100357,福井県,坂井市,丸岡町儀間,フクイケン,サカイシ,マルオカチョウギマ,福井県坂井市丸岡町儀間
9100361,福井県,坂井市,丸岡町安田新,フクイケン,サカイシ,マルオカチョウヤスタシン,福井県坂井市丸岡町安田新
9100362,福井県,坂井市,丸岡町上安田,フクイケン,サカイシ,マルオカチョウカミヤスタ,福井県坂井市丸岡町上安田
9100363,福井県,坂井市,丸岡町下安田,フクイケン,サカイシ,マルオカチョウシモヤスタ,福井県坂井市丸岡町下安田
9100364,福井県,坂井市,丸岡町八丁,フクイケン,サカイシ,マルオカチョウハッチョウ,福井県坂井市丸岡町八丁
9100365,福井県,坂井市,丸岡町磯部福庄,フクイケン,サカイシ,マルオカチョウイソベフクショ,福井県坂井市丸岡町磯部福庄
9100366,福井県,坂井市,丸岡町宇随,フクイケン,サカイシ,マルオカチョウウズイ,福井県坂井市丸岡町宇随
9100367,福井県,坂井市,丸岡町羽崎,フクイケン,サカイシ,マルオカチョウハサキ,福井県坂井市丸岡町羽崎
9100368,福井県,坂井市,丸岡町磯部新保,フクイケン,サカイシ,マルオカチョウイソベシンボ,福井県坂井市丸岡町磯部新保
9100369,福井県,坂井市,丸岡町新九頭竜,フクイケン,サカイシ,マルオカチョウシンクズリュウ,福井県坂井市丸岡町新九頭竜
9100371,福井県,坂井市,丸岡町八ツ口,フクイケン,サカイシ,マルオカチョウヤツクチ,福井県坂井市丸岡町八ツ口
9100372,福井県,坂井市,丸岡町吉政,フクイケン,サカイシ,マルオカチョウヨシマサ,福井県坂井市丸岡町吉政
9100373,福井県,坂井市,丸岡町高柳,フクイケン,サカイシ,マルオカチョウタカヤナギ,福井県坂井市丸岡町高柳
9100374,福井県,坂井市,丸岡町北横地,フクイケン,サカイシ,マルオカチョウキタヨコジ,福井県坂井市丸岡町北横地
9100375,福井県,坂井市,丸岡町南横地,フクイケン,サカイシ,マルオカチョウミナミヨコジ,福井県坂井市丸岡町南横地
9100381,福井県,坂井市,丸岡町舟寄,フクイケン,サカイシ,マルオカチョウフナヨセ,福井県坂井市丸岡町舟寄
9100382,福井県,坂井市,丸岡町笹和田,フクイケン,サカイシ,マルオカチョウササワダ,福井県坂井市丸岡町笹和田
9100383,福井県,坂井市,丸岡町長崎,フクイケン,サカイシ,マルオカチョウナガサキ,福井県坂井市丸岡町長崎
9100384,福井県,坂井市,丸岡町四ツ屋,フクイケン,サカイシ,マルオカチョウヨツヤ,福井県坂井市丸岡町四ツ屋
9100801,福井県,福井市,寺前町,フクイケン,フクイシ,テラマエチョウ,福井県福井市寺前町
9100802,福井県,福井市,大和田町,フクイケン,フクイシ,オオワダチョウ,福井県福井市大和田町
9100803,福井県,福井市,高柳町,フクイケン,フクイシ,タカヤナギチョウ,福井県福井市高柳町
9100804,福井県,福井市,高木中央,フクイケン,フクイシ,タカギチュウオウ,福井県福井市高木中央
9100805,福井県,福井市,高木,フクイケン,フクイシ,タカギ,福井県福井市高木
9100806,福井県,福井市,高木町,フクイケン,フクイシ,タカギチョウ,福井県福井市高木町
9100807,福井県,福井市,高木北,フクイケン,フクイシ,タカギキタ,福井県福井市高木北
9100808,福井県,福井市,舟橋,フクイケン,フクイシ,フナバシ,福井県福井市舟橋
9100809,福井県,福井市,舟橋町,フクイケン,フクイシ,フナバシチョウ,福井県福井市舟橋町
9100811,福井県,福井市,中藤新保町,フクイケン,フクイシ,ナカフジシンボチョウ,福井県福井市中藤新保町
9100812,福井県,福井市,新田本町,フクイケン,フクイシ,シンデンホンマチ,福井県福井市新田本町
9100813,福井県,福井市,中新田町,フクイケン,フクイシ,ナカシンデンチョウ,福井県福井市中新田町
9100814,福井県,福井市,北野下町,フクイケン,フクイシ,キタノシモチョウ,福井県福井市北野下町
9100815,福井県,福井市,北野上町,フクイケン,フクイシ,キタノカミチョウ,福井県福井市北野上町
9100816,福井県,福井市,中ノ郷町,フクイケン,フクイシ,ナカノゴウチョウ,福井県福井市中ノ郷町
9100817,福井県,福井市,泉田町,フクイケン,フクイシ,イズミダチョウ,福井県福井市泉田町
9100818,福井県,福井市,堂島町,フクイケン,フクイシ,ドウジマチョウ,福井県福井市堂島町
9100821,福井県,福井市,島橋町,フクイケン,フクイシ,シマバシチョウ,福井県福井市島橋町
9100822,福井県,福井市,玄正島町,フクイケン,フクイシ,ゲンショウジマチョウ,福井県福井市玄正島町
9100823,福井県,福井市,重立町,フクイケン,フクイシ,シゲタテチョウ,福井県福井市重立町
9100824,福井県,福井市,間山町,フクイケン,フクイシ,マヤマチョウ,福井県福井市間山町
9100825,福井県,福井市,原目町,フクイケン,フクイシ,ハラメチョウ,福井県福井市原目町
9100826,福井県,福井市,上中町,フクイケン,フクイシ,カミナカチョウ,福井県福井市上中町
9100827,福井県,福井市,藤島町,フクイケン,フクイシ,フジシマチョウ,福井県福井市藤島町
9100828,福井県,福井市,林町,フクイケン,フクイシ,ハヤシチョウ,福井県福井市林町
9100829,福井県,福井市,林藤島町,フクイケン,フクイシ,ハヤシフジシマチョウ,福井県福井市林藤島町
9100831,福井県,福井市,若栄町,フクイケン,フクイシ,ワカエチョウ,福井県福井市若栄町
9100832,福井県,福井市,新保町,フクイケン,フクイシ,シンボチョウ,福井県福井市新保町
9100833,福井県,福井市,新保,フクイケン,フクイシ,シンボ,福井県福井市新保
9100834,福井県,福井市,丸山,フクイケン,フクイシ,マルヤマ,福井県福井市丸山
9100835,福井県,福井市,丸山町,フクイケン,フクイシ,マルヤマチョウ,福井県福井市丸山町
9100836,福井県,福井市,大和田,フクイケン,フクイシ,オオワダ,福井県福井市大和田
9100837,福井県,福井市,高柳,フクイケン,フクイシ,タカヤナギ,福井県福井市高柳
9100838,福井県,福井市,新保北,フクイケン,フクイシ,シンボキタ,福井県福井市新保北
9100841,福井県,福井市,開発町,フクイケン,フクイシ,カイホツチョウ,福井県福井市開発町
9100842,福井県,福井市,開発,フクイケン,フクイシ,カイホツ,福井県福井市開発
9100843,福井県,福井市,西開発,フクイケン,フクイシ,ニシカイホツ,福井県福井市西開発
9100844,福井県,福井市,長本町,フクイケン,フクイシ,ナガモトチョウ,福井県福井市長本町
9100845,福井県,福井市,志比口,フクイケン,フクイシ,シヒグチ,福井県福井市志比口
9100846,福井県,福井市,四ツ井,フクイケン,フクイシ,ヨツイ,福井県福井市四ツ井
9100851,福井県,福井市,米松,フクイケン,フクイシ,ヨネマツ,福井県福井市米松
9100852,福井県,福井市,松城町,フクイケン,フクイシ,マツシロチョウ,福井県福井市松城町
9100853,福井県,福井市,城東,フクイケン,フクイシ,ジョウトウ,福井県福井市城東
9100854,福井県,福井市,御幸,フクイケン,フクイシ,ミユキ,福井県福井市御幸
9100855,福井県,福井市,西方,フクイケン,フクイシ,ニシカタ,福井県福井市西方
9100856,福井県,福井市,勝見,フクイケン,フクイシ,カツミ,福井県福井市勝見
9100857,福井県,福井市,豊島,フクイケン,フクイシ,トヨシマ,福井県福井市豊島
9100858,福井県,福井市,手寄,フクイケン,フクイシ,テヨセ,福井県福井市手寄
9100859,福井県,福井市,日之出,フクイケン,フクイシ,ヒノデ,福井県福井市日之出
9101100,福井県,吉田郡永平寺町,,フクイケン,ヨシダグンエイヘイジチョウ,,福井県吉田郡永平寺町
9101101,福井県,吉田郡永平寺町,松岡樋爪,フクイケン,ヨシダグンエイヘイジチョウ,マツオカヒヅメ,福井県吉田郡永平寺町松岡樋爪
9101102,福井県,吉田郡永平寺町,松岡学園,フクイケン,ヨシダグンエイヘイジチョウ,マツオカガクエン,福井県吉田郡永平寺町松岡学園
9101103,福井県,吉田郡永平寺町,松岡上合月,フクイケン,ヨシダグンエイヘイジチョウ,マツオカカミアイヅキ,福井県吉田郡永平寺町松岡上合月
9101104,福井県,吉田郡永平寺町,松岡下合月,フクイケン,ヨシダグンエイヘイジチョウ,マツオカシモアイヅキ,福井県吉田郡永平寺町松岡下合月
9101105,福井県,吉田郡永平寺町,松岡末政,フクイケン,ヨシダグンエイヘイジチョウ,マツオカスエマサ,福井県吉田郡永平寺町松岡末政
9101106,福井県,吉田郡永平寺町,松岡御公領,フクイケン,ヨシダグンエイヘイジチョウ,マツオカゴクリョウ,福井県吉田郡永平寺町松岡御公領
9101111,福井県,吉田郡永平寺町,松岡志比堺,フクイケン,ヨシダグンエイヘイジチョウ,マツオカシヒザカイ,福井県吉田郡永平寺町松岡志比堺
9101112,福井県,吉田郡永平寺町,松岡越坂,フクイケン,ヨシダグンエイヘイジチョウ,マツオカコイサカ,福井県吉田郡永平寺町松岡越坂
9101113,福井県,吉田郡永平寺町,松岡松ケ丘,フクイケン,ヨシダグンエイヘイジチョウ,マツオカマツガオカ,福井県吉田郡永平寺町松岡松ケ丘
9101114,福井県,吉田郡永平寺町,松岡城東,フクイケン,ヨシダグンエイヘイジチョウ,マツオカジョウトウ,福井県吉田郡永平寺町松岡城東
9101115,福井県,吉田郡永平寺町,松岡石舟,フクイケン,ヨシダグンエイヘイジチョウ,マツオカイシフネ,福井県吉田郡永平寺町松岡石舟
9101116,福井県,吉田郡永平寺町,松岡清水,フクイケン,ヨシダグンエイヘイジチョウ,マツオカシミズ,福井県吉田郡永平寺町松岡清水
9101117,福井県,吉田郡永平寺町,松岡神明,フクイケン,ヨシダグンエイヘイジチョウ,マツオカシンメイ,福井県吉田郡永平寺町松岡神明
9101118,福井県,吉田郡永平寺町,松岡薬師,フクイケン,ヨシダグンエイヘイジチョウ,マツオカヤクシ,福井県吉田郡永平寺町松岡薬師
9101121,福井県,吉田郡永平寺町,松岡吉野,フクイケン,ヨシダグンエイヘイジチョウ,マツオカヨシノ,福井県吉田郡永平寺町松岡吉野
9101122,福井県,吉田郡永平寺町,松岡宮重,フクイケン,ヨシダグンエイヘイジチョウ,マツオカミヤシゲ,福井県吉田郡永平寺町松岡宮重
9101123,福井県,吉田郡永平寺町,松岡湯谷,フクイケン,ヨシダグンエイヘイジチョウ,マツオカユダニ,福井県吉田郡永平寺町松岡湯谷
9101124,福井県,吉田郡永平寺町,松岡上吉野,フクイケン,ヨシダグンエイヘイジチョウ,マツオカカミヨシノ,福井県吉田郡永平寺町松岡上吉野
9101125,福井県,吉田郡永平寺町,松岡西野中,フクイケン,ヨシダグンエイヘイジチョウ,マツオカニシノナカ,福井県吉田郡永平寺町松岡西野中
9101126,福井県,吉田郡永平寺町,松岡小畑,フクイケン,ヨシダグンエイヘイジチョウ,マツオカオバタ,福井県吉田郡永平寺町松岡小畑
9101127,福井県,吉田郡永平寺町,松岡吉野堺,フクイケン,ヨシダグンエイヘイジチョウ,マツオカヨシノザカイ,福井県吉田郡永平寺町松岡吉野堺
9101131,福井県,吉田郡永平寺町,松岡椚,フクイケン,ヨシダグンエイヘイジチョウ,マツオカクヌギ,福井県吉田郡永平寺町松岡椚
9101132,福井県,吉田郡永平寺町,松岡葵,フクイケン,ヨシダグンエイヘイジチョウ,マツオカアオイ,福井県吉田郡永平寺町松岡葵
9101133,福井県,吉田郡永平寺町,松岡春日,フクイケン,ヨシダグンエイヘイジチョウ,マツオカカスガ,福井県吉田郡永平寺町松岡春日
9101134,福井県,吉田郡永平寺町,松岡芝原,フクイケン,ヨシダグンエイヘイジチョウ,マツオカシバハラ,福井県吉田郡永平寺町松岡芝原
9101135,福井県,吉田郡永平寺町,松岡室,フクイケン,ヨシダグンエイヘイジチョウ,マツオカムロ,福井県吉田郡永平寺町松岡室
9101136,福井県,吉田郡永平寺町,松岡窪,フクイケン,ヨシダグンエイヘイジチョウ,マツオカクボ,福井県吉田郡永平寺町松岡窪
9101137,福井県,吉田郡永平寺町,松岡観音,フクイケン,ヨシダグンエイヘイジチョウ,マツオカカンノン,福井県吉田郡永平寺町松岡観音
9101138,福井県,吉田郡永平寺町,松岡松ケ原,フクイケン,ヨシダグンエイヘイジチョウ,マツオカマツガハラ,福井県吉田郡永平寺町松岡松ケ原
9101139,福井県,吉田郡永平寺町,松岡木ノ下,フクイケン,ヨシダグンエイヘイジチョウ,マツオカコノシタ,福井県吉田郡永平寺町松岡木ノ下
9101141,福井県,吉田郡永平寺町,松岡領家,フクイケン,ヨシダグンエイヘイジチョウ,マツオカリョウケ,福井県吉田郡永平寺町松岡領家
9101142,福井県,吉田郡永平寺町,松岡兼定島,フクイケン,ヨシダグンエイヘイジチョウ,マツオカケンジョウジマ,福井県吉田郡永平寺町松岡兼定島
9101143,福井県,吉田郡永平寺町,松岡渡新田,フクイケン,ヨシダグンエイヘイジチョウ,マツオカワタリシンデン,福井県吉田郡永平寺町松岡渡新田
9101144,福井県,吉田郡永平寺町,松岡平成,フクイケン,ヨシダグンエイヘイジチョウ,マツオカヘイセイ,福井県吉田郡永平寺町松岡平成
9101201,福井県,吉田郡永平寺町,鳴鹿山鹿,フクイケン,ヨシダグンエイヘイジチョウ,ナルカサンガ,福井県吉田郡永平寺町鳴鹿山鹿
9101202,福井県,吉田郡永平寺町,下浄法寺,フクイケン,ヨシダグンエイヘイジチョウ,シモジョホウジ,福井県吉田郡永平寺町下浄法寺
9101203,福井県,吉田郡永平寺町,上浄法寺,フクイケン,ヨシダグンエイヘイジチョウ,カミジョホウジ,福井県吉田郡永平寺町上浄法寺
9101204,福井県,吉田郡永平寺町,岩野,フクイケン,ヨシダグンエイヘイジチョウ,イワノ,福井県吉田郡永平寺町岩野
9101205,福井県,吉田郡永平寺町,吉波,フクイケン,ヨシダグンエイヘイジチョウ,ヨシナミ,福井県吉田郡永平寺町吉波
9101206,福井県,吉田郡永平寺町,栃原,フクイケン,ヨシダグンエイヘイジチョウ,トチハラ,福井県吉田郡永平寺町栃原
9101211,福井県,吉田郡永平寺町,法寺岡,フクイケン,ヨシダグンエイヘイジチョウ,ホウジオカ,福井県吉田郡永平寺町法寺岡
9101212,福井県,吉田郡永平寺町,東古市,フクイケン,ヨシダグンエイヘイジチョウ,ヒガシフルイチ,福井県吉田郡永平寺町東古市
9101213,福井県,吉田郡永平寺町,高橋,フクイケン,ヨシダグンエイヘイジチョウ,タカハシ,福井県吉田郡永平寺町高橋
9101214,福井県,吉田郡永平寺町,谷口,フクイケン,ヨシダグンエイヘイジチョウ,タニグチ,福井県吉田郡永平寺町谷口
9101215,福井県,吉田郡永平寺町,花谷,フクイケン,ヨシダグンエイヘイジチョウ,ハナダニ,福井県吉田郡永平寺町花谷
9101216,福井県,吉田郡永平寺町,光明寺,フクイケン,ヨシダグンエイヘイジチョウ,コウミョウジ,福井県吉田郡永平寺町光明寺
9101217,福井県,吉田郡永平寺町,飯島,フクイケン,ヨシダグンエイヘイジチョウ,イイジマ,福井県吉田郡永平寺町飯島
9101218,福井県,吉田郡永平寺町,轟,フクイケン,ヨシダグンエイヘイジチョウ,ドメキ,福井県吉田郡永平寺町轟
9101221,福井県,吉田郡永平寺町,山,フクイケン,ヨシダグンエイヘイジチョウ,ヤマ,福井県吉田郡永平寺町山
9101222,福井県,吉田郡永平寺町,諏訪間,フクイケン,ヨシダグンエイヘイジチョウ,スワマ,福井県吉田郡永平寺町諏訪間
9101223,福井県,吉田郡永平寺町,けやき台,フクイケン,ヨシダグンエイヘイジチョウ,ケヤキダイ,福井県吉田郡永平寺町けやき台
9101224,福井県,吉田郡永平寺町,寺本,フクイケン,ヨシダグンエイヘイジチョウ,テラモト,福井県吉田郡永平寺町寺本
9101225,福井県,吉田郡永平寺町,京善,フクイケン,ヨシダグンエイヘイジチョウ,キョウゼン,福井県吉田郡永平寺町京善
9101226,福井県,吉田郡永平寺町,市野々,フクイケン,ヨシダグンエイヘイジチョウ,イチノノ,福井県吉田郡永平寺町市野々
9101227,福井県,吉田郡永平寺町,荒谷,フクイケン,ヨシダグンエイヘイジチョウ,アラタニ,福井県吉田郡永平寺町荒谷
9101228,福井県,吉田郡永平寺町,志比,フクイケン,ヨシダグンエイヘイジチョウ,シヒ,福井県吉田郡永平寺町志比
9101301,福井県,吉田郡永平寺町,中島,フクイケン,ヨシダグンエイヘイジチョウ,ナカジマ,福井県吉田郡永平寺町中島
9101302,福井県,吉田郡永平寺町,市荒川,フクイケン,ヨシダグンエイヘイジチョウ,イチアラカワ,福井県吉田郡永平寺町市荒川
9101303,福井県,吉田郡永平寺町,藤巻,フクイケン,ヨシダグンエイヘイジチョウ,フジマキ,福井県吉田郡永平寺町藤巻
9101304,福井県,吉田郡永平寺町,吉峰,フクイケン,ヨシダグンエイヘイジチョウ,ヨシミネ,福井県吉田郡永平寺町吉峰
9101305,福井県,吉田郡永平寺町,竹原,フクイケン,ヨシダグンエイヘイジチョウ,タケハラ,福井県吉田郡永平寺町竹原
9101311,福井県,吉田郡永平寺町,大野島,フクイケン,ヨシダグンエイヘイジチョウ,オオノジマ,福井県吉田郡永平寺町大野島
9101312,福井県,吉田郡永平寺町,清水,フクイケン,ヨシダグンエイヘイジチョウ,シミズ,福井県吉田郡永平寺町清水
9101313,福井県,吉田郡永平寺町,石上,フクイケン,ヨシダグンエイヘイジチョウ,イシガミ,福井県吉田郡永平寺町石上
9101314,福井県,吉田郡永平寺町,栗住波,フクイケン,ヨシダグンエイヘイジチョウ,クリスナミ,福井県吉田郡永平寺町栗住波
9101315,福井県,吉田郡永平寺町,せせらぎ,フクイケン,ヨシダグンエイヘイジチョウ,セセラギ,福井県吉田郡永平寺町せせらぎ
9101316,福井県,吉田郡永平寺町,市右エ門島,フクイケン,ヨシダグンエイヘイジチョウ,イチウエモンジマ,福井県吉田郡永平寺町市右エ門島
9101321,福井県,吉田郡永平寺町,山王,フクイケン,ヨシダグンエイヘイジチョウ,サンノウ,福井県吉田郡永平寺町山王
9101322,福井県,吉田郡永平寺町,大月,フクイケン,ヨシダグンエイヘイジチョウ,オオツキ,福井県吉田郡永平寺町大月
9101323,福井県,吉田郡永平寺町,浅見,フクイケン,ヨシダグンエイヘイジチョウ,アザミ,福井県吉田郡永平寺町浅見
9101324,福井県,吉田郡永平寺町,野中,フクイケン,ヨシダグンエイヘイジチョウ,ノナカ,福井県吉田郡永平寺町野中
9101325,福井県,吉田郡永平寺町,北島,フクイケン,ヨシダグンエイヘイジチョウ,キタジマ,福井県吉田郡永平寺町北島
9101326,福井県,吉田郡永平寺町,牧福島,フクイケン,ヨシダグンエイヘイジチョウ,マキフクシマ,福井県吉田郡永平寺町牧福島
9102141,福井県,福井市,高尾町,フクイケン,フクイシ,タカオチョウ,福井県福井市高尾町
9102142,福井県,福井市,前波町,フクイケン,フクイシ,マエバチョウ,福井県福井市前波町
9102143,福井県,福井市,宿布町,フクイケン,フクイシ,シクヌノチョウ,福井県福井市宿布町
9102144,福井県,福井市,上毘沙門町,フクイケン,フクイシ,カミビシャモンチョウ,福井県福井市上毘沙門町
9102145,福井県,福井市,中毘沙門町,フクイケン,フクイシ,ナカビシャモンチョウ,福井県福井市中毘沙門町
9102146,福井県,福井市,下毘沙門町,フクイケン,フクイシ,シモビシャモンチョウ,福井県福井市下毘沙門町
9102147,福井県,福井市,成願寺町,フクイケン,フクイシ,ジョウガンジチョウ,福井県福井市成願寺町
9102148,福井県,福井市,篠尾町,フクイケン,フクイシ,シノオチョウ,福井県福井市篠尾町
9102149,福井県,福井市,東郷美里町,フクイケン,フクイシ,トウゴウミサトチョウ,福井県福井市東郷美里町
9102151,福井県,福井市,安波賀中島町,フクイケン,フクイシ,アバカナカジマチョウ,福井県福井市安波賀中島町
9102152,福井県,福井市,安波賀町,フクイケン,フクイシ,アバカチョウ,福井県福井市安波賀町
9102153,福井県,福井市,城戸ノ内町,フクイケン,フクイシ,キドノウチチョウ,福井県福井市城戸ノ内町
9102154,福井県,福井市,東新町,フクイケン,フクイシ,ヒガシシンマチ,福井県福井市東新町
9102155,福井県,福井市,浄教寺町,フクイケン,フクイシ,ジョウキョウジチョウ,福井県福井市浄教寺町
9102156,福井県,福井市,鹿俣町,フクイケン,フクイシ,カナマタチョウ,福井県福井市鹿俣町
9102157,福井県,福井市,西新町,フクイケン,フクイシ,ニシシンマチ,福井県福井市西新町
9102161,福井県,福井市,脇三ケ町,フクイケン,フクイシ,ワキサンガチョウ,福井県福井市脇三ケ町
9102162,福井県,福井市,南山町,フクイケン,フクイシ,ミナミヤマチョウ,福井県福井市南山町
9102163,福井県,福井市,栃泉町,フクイケン,フクイシ,トチイズミチョウ,福井県福井市栃泉町
9102164,福井県,福井市,深見町,フクイケン,フクイシ,フカミチョウ,福井県福井市深見町
9102165,福井県,福井市,東郷二ケ町,フクイケン,フクイシ,トウゴウニカチョウ,福井県福井市東郷二ケ町
9102166,福井県,福井市,小路町,フクイケン,フクイシ,ショウジチョウ,福井県福井市小路町
9102167,福井県,福井市,安原町,フクイケン,フクイシ,ヤスハラチョウ,福井県福井市安原町
9102171,福井県,福井市,荒木町,フクイケン,フクイシ,アラキチョウ,福井県福井市荒木町
9102172,福井県,福井市,荒木新保町,フクイケン,フクイシ,アラキシンボチョウ,福井県福井市荒木新保町
9102173,福井県,福井市,下東郷町,フクイケン,フクイシ,シモトウゴウチョウ,福井県福井市下東郷町
9102174,福井県,福井市,上東郷町,フクイケン,フクイシ,カミトウゴウチョウ,福井県福井市上東郷町
9102175,福井県,福井市,円成寺町,フクイケン,フクイシ,エンジョウジチョウ,福井県福井市円成寺町
9102176,福井県,福井市,東郷中島町,フクイケン,フクイシ,トウゴウナカジマチョウ,福井県福井市東郷中島町
9102177,福井県,福井市,稲津町,フクイケン,フクイシ,イナヅチョウ,福井県福井市稲津町
9102178,福井県,福井市,栂野町,フクイケン,フクイシ,トガノチョウ,福井県福井市栂野町
9102201,福井県,福井市,皿谷町,フクイケン,フクイシ,サラダニチョウ,福井県福井市皿谷町
9102202,福井県,福井市,所谷町,フクイケン,フクイシ,トコロダニチョウ,福井県福井市所谷町
9102203,福井県,福井市,西中町,フクイケン,フクイシ,ニシナカチョウ,福井県福井市西中町
9102204,福井県,福井市,美山大谷町,フクイケン,フクイシ,ミヤマオオタニチョウ,福井県福井市美山大谷町
9102205,福井県,福井市,篭谷町,フクイケン,フクイシ,カゴヤチョウ,福井県福井市篭谷町
9102206,福井県,福井市,吉山町（上吉山）,フクイケン,フクイシ,ヨシヤマチョウ(カミヨシヤマ),福井県福井市吉山町（上吉山）
9102207,福井県,福井市,吉山町（下吉山）,フクイケン,フクイシ,ヨシヤマチョウ(シモヨシヤマ),福井県福井市吉山町（下吉山）
9102208,福井県,福井市,吉山町（その他）,フクイケン,フクイシ,ヨシヤマチョウ(ソノタ),福井県福井市吉山町（その他）
9102211,福井県,福井市,獺ケ口町,フクイケン,フクイシ,ウソガグチチョウ,福井県福井市獺ケ口町
9102212,福井県,福井市,小和清水町,フクイケン,フクイシ,コワショウズチョウ,福井県福井市小和清水町
9102213,福井県,福井市,大久保町,フクイケン,フクイシ,オオクボチョウ,福井県福井市大久保町
9102214,福井県,福井市,福島町,フクイケン,フクイシ,フクシマチョウ,福井県福井市福島町
9102221,福井県,福井市,奈良瀬町,フクイケン,フクイシ,ナラセチョウ,福井県福井市奈良瀬町
9102222,福井県,福井市,市波町,フクイケン,フクイシ,イチナミチョウ,福井県福井市市波町
9102223,福井県,福井市,宇坂別所町,フクイケン,フクイシ,ウサカベッショチョウ,福井県福井市宇坂別所町
9102224,福井県,福井市,三万谷町,フクイケン,フクイシ,サンマンダニチョウ,福井県福井市三万谷町
9102225,福井県,福井市,田尻町,フクイケン,フクイシ,タジリチョウ,福井県福井市田尻町
9102226,福井県,福井市,高田町,フクイケン,フクイシ,タカタチョウ,福井県福井市高田町
9102227,福井県,福井市,宇坂大谷町,フクイケン,フクイシ,ウサカオオタニチョウ,福井県福井市宇坂大谷町
9102331,福井県,福井市,計石町,フクイケン,フクイシ,ハカリイシチョウ,福井県福井市計石町
9102332,福井県,福井市,野波町（その他）,フクイケン,フクイシ,ノナミチョウ(ソノタ),福井県福井市野波町（その他）
9102333,福井県,福井市,野波町（追分）,フクイケン,フクイシ,ノナミチョウ(オイワケ),福井県福井市野波町（追分）
9102334,福井県,福井市,大宮町,フクイケン,フクイシ,オオミヤチョウ,福井県福井市大宮町
9102335,福井県,福井市,縫原町,フクイケン,フクイシ,ヌイバラチョウ,福井県福井市縫原町
9102336,福井県,福井市,仁位町,フクイケン,フクイシ,ニイチョウ,福井県福井市仁位町
9102337,福井県,福井市,薬師町（上薬師）,フクイケン,フクイシ,ヤクシチョウ(カミヤクシ),福井県福井市薬師町（上薬師）
9102338,福井県,福井市,薬師町（下薬師）,フクイケン,フクイシ,ヤクシチョウ(シモヤクシ),福井県福井市薬師町（下薬師）
9102339,福井県,福井市,薬師町（その他）,フクイケン,フクイシ,ヤクシチョウ(ソノタ),福井県福井市薬師町（その他）
9102341,福井県,福井市,東川上町,フクイケン,フクイシ,ヒガシカワカミチョウ,福井県福井市東川上町
9102342,福井県,福井市,東俣町,フクイケン,フクイシ,ヒガシマタチョウ,福井県福井市東俣町
9102343,福井県,福井市,南西俣町,フクイケン,フクイシ,ミナミニシマタチョウ,福井県福井市南西俣町
9102344,福井県,福井市,南宮地町,フクイケン,フクイシ,ミナミミヤジチョウ,福井県福井市南宮地町
9102345,福井県,福井市,間戸町,フクイケン,フクイシ,マトチョウ,福井県福井市間戸町
9102346,福井県,福井市,椙谷町,フクイケン,フクイシ,スイダニチョウ,福井県福井市椙谷町
9102347,福井県,福井市,境寺町,フクイケン,フクイシ,サカイデラチョウ,福井県福井市境寺町
9102348,福井県,福井市,品ケ瀬町,フクイケン,フクイシ,シナガセチョウ,福井県福井市品ケ瀬町
9102351,福井県,福井市,美山町,フクイケン,フクイシ,ミヤマチョウ,福井県福井市美山町
9102352,福井県,福井市,小宇坂町,フクイケン,フクイシ,コウサカチョウ,福井県福井市小宇坂町
9102353,福井県,福井市,小宇坂島町,フクイケン,フクイシ,コウサカジマチョウ,福井県福井市小宇坂島町
9102354,福井県,福井市,東天田町,フクイケン,フクイシ,ヒガシアマダチョウ,福井県福井市東天田町
9102355,福井県,福井市,西天田町,フクイケン,フクイシ,ニシアマダチョウ,福井県福井市西天田町
9102356,福井県,福井市,蔵作町,フクイケン,フクイシ,クラツクリチョウ,福井県福井市蔵作町
9102357,福井県,福井市,朝谷町,フクイケン,フクイシ,アサダニチョウ,福井県福井市朝谷町
9102461,福井県,福井市,南野津又町,フクイケン,フクイシ,ミナミノツマタチョウ,福井県福井市南野津又町
9102462,福井県,福井市,神当部町,フクイケン,フクイシ,カントベチョウ,福井県福井市神当部町
9102463,福井県,福井市,味見河内町,フクイケン,フクイシ,アジミコウチチョウ,福井県福井市味見河内町
9102464,福井県,福井市,中手町,フクイケン,フクイシ,ナカンテチョウ,福井県福井市中手町
9102465,福井県,福井市,小当見町,フクイケン,フクイシ,オトミチョウ,福井県福井市小当見町
9102466,福井県,福井市,西市布町,フクイケン,フクイシ,ニシイチヌノチョウ,福井県福井市西市布町
9102471,福井県,福井市,西河原町,フクイケン,フクイシ,ニシコウバラチョウ,福井県福井市西河原町
9102472,福井県,福井市,東河原町,フクイケン,フクイシ,ヒガシコウバラチョウ,福井県福井市東河原町
9102473,福井県,福井市,横越町,フクイケン,フクイシ,ヨコゴシチョウ,福井県福井市横越町
9102474,福井県,福井市,折立町,フクイケン,フクイシ,オリタテチョウ,福井県福井市折立町
9102475,福井県,福井市,赤谷町,フクイケン,フクイシ,アカダニチョウ,福井県福井市赤谷町
9102500,福井県,今立郡池田町,,フクイケン,イマダテグンイケダチョウ,,福井県今立郡池田町
9102501,福井県,今立郡池田町,持越,フクイケン,イマダテグンイケダチョウ,モチコシ,福井県今立郡池田町持越
9102502,福井県,今立郡池田町,野尻,フクイケン,イマダテグンイケダチョウ,ノジリ,福井県今立郡池田町野尻
9102503,福井県,今立郡池田町,谷口,フクイケン,イマダテグンイケダチョウ,タニグチ,福井県今立郡池田町谷口
9102504,福井県,今立郡池田町,安善寺,フクイケン,イマダテグンイケダチョウ,アンゼンジ,福井県今立郡池田町安善寺
9102505,福井県,今立郡池田町,水海,フクイケン,イマダテグンイケダチョウ,ミズウミ,福井県今立郡池田町水海
9102506,福井県,今立郡池田町,広瀬,フクイケン,イマダテグンイケダチョウ,ヒロセ,福井県今立郡池田町広瀬
9102507,福井県,今立郡池田町,清水谷,フクイケン,イマダテグンイケダチョウ,シミズタニ,福井県今立郡池田町清水谷
9102508,福井県,今立郡池田町,柿ケ原,フクイケン,イマダテグンイケダチョウ,カキガハラ,福井県今立郡池田町柿ケ原
9102511,福井県,今立郡池田町,薮田,フクイケン,イマダテグンイケダチョウ,ヤブタ,福井県今立郡池田町薮田
9102512,福井県,今立郡池田町,稲荷,フクイケン,イマダテグンイケダチョウ,イナリ,福井県今立郡池田町稲荷
9102513,福井県,今立郡池田町,寺島,フクイケン,イマダテグンイケダチョウ,テラジマ,福井県今立郡池田町寺島
9102514,福井県,今立郡池田町,学園,フクイケン,イマダテグンイケダチョウ,ガクエン,福井県今立郡池田町学園
9102515,福井県,今立郡池田町,池田,フクイケン,イマダテグンイケダチョウ,イケダ,福井県今立郡池田町池田
9102516,福井県,今立郡池田町,山田,フクイケン,イマダテグンイケダチョウ,ヤマダ,福井県今立郡池田町山田
9102517,福井県,今立郡池田町,寺谷,フクイケン,イマダテグンイケダチョウ,テラダニ,福井県今立郡池田町寺谷
9102521,福井県,今立郡池田町,常安,フクイケン,イマダテグンイケダチョウ,ツネヤス,福井県今立郡池田町常安
9102522,福井県,今立郡池田町,月ケ瀬,フクイケン,イマダテグンイケダチョウ,ツキガセ,福井県今立郡池田町月ケ瀬
9102523,福井県,今立郡池田町,志津原,フクイケン,イマダテグンイケダチョウ,シヅハラ,福井県今立郡池田町志津原
9102523,福井県,今立郡池田町,河内,フクイケン,イマダテグンイケダチョウ,コウチ,福井県今立郡池田町河内
9102524,福井県,今立郡池田町,土合皿尾,フクイケン,イマダテグンイケダチョウ,ドアイサラオ,福井県今立郡池田町土合皿尾
9102525,福井県,今立郡池田町,市,フクイケン,イマダテグンイケダチョウ,イチ,福井県今立郡池田町市
9102526,福井県,今立郡池田町,上荒谷,フクイケン,イマダテグンイケダチョウ,カミアラタニ,福井県今立郡池田町上荒谷
9102527,福井県,今立郡池田町,板垣,フクイケン,イマダテグンイケダチョウ,イタガキ,福井県今立郡池田町板垣
9102531,福井県,今立郡池田町,東角間,フクイケン,イマダテグンイケダチョウ,ヒガシカクマ,福井県今立郡池田町東角間
9102532,福井県,今立郡池田町,新保,フクイケン,イマダテグンイケダチョウ,シンボ,福井県今立郡池田町新保
9102533,福井県,今立郡池田町,東俣,フクイケン,イマダテグンイケダチョウ,ヒガシマタ,福井県今立郡池田町東俣
9102534,福井県,今立郡池田町,魚見,フクイケン,イマダテグンイケダチョウ,ウオミ,福井県今立郡池田町魚見
9102535,福井県,今立郡池田町,菅生,フクイケン,イマダテグンイケダチョウ,スゴウ,福井県今立郡池田町菅生
9102536,福井県,今立郡池田町,西角間,フクイケン,イマダテグンイケダチョウ,ニシカクマ,福井県今立郡池田町西角間
9102537,福井県,今立郡池田町,定方,フクイケン,イマダテグンイケダチョウ,サダカタ,福井県今立郡池田町定方
9102551,福井県,今立郡池田町,尾緩,フクイケン,イマダテグンイケダチョウ,オダルミ,福井県今立郡池田町尾緩
9102552,福井県,今立郡池田町,大本,フクイケン,イマダテグンイケダチョウ,オオモト,福井県今立郡池田町大本
9102553,福井県,今立郡池田町,籠掛,フクイケン,イマダテグンイケダチョウ,カゴカケ,福井県今立郡池田町籠掛
9102554,福井県,今立郡池田町,金見谷,フクイケン,イマダテグンイケダチョウ,カナミダニ,福井県今立郡池田町金見谷
9102555,福井県,今立郡池田町,千代谷,フクイケン,イマダテグンイケダチョウ,チヨダニ,福井県今立郡池田町千代谷
9102556,福井県,今立郡池田町,松ケ谷,フクイケン,イマダテグンイケダチョウ,マツガタニ,福井県今立郡池田町松ケ谷
9102556,福井県,今立郡池田町,白粟,フクイケン,イマダテグンイケダチョウ,シラワ,福井県今立郡池田町白粟
9102557,福井県,今立郡池田町,小畑,フクイケン,イマダテグンイケダチョウ,オバタケ,福井県今立郡池田町小畑
9103101,福井県,福井市,昭和新町,フクイケン,フクイシ,ショウワシンマチ,福井県福井市昭和新町
9103102,福井県,福井市,小尉町,フクイケン,フクイシ,コジョウチョウ,福井県福井市小尉町
9103103,福井県,福井市,三宅町,フクイケン,フクイシ,ミヤケチョウ,福井県福井市三宅町
9103104,福井県,福井市,布施田町,フクイケン,フクイシ,フセダチョウ,福井県福井市布施田町
9103105,福井県,福井市,西中野町,フクイケン,フクイシ,ニシナカノチョウ,福井県福井市西中野町
9103106,福井県,福井市,池尻町,フクイケン,フクイシ,イケノシリチョウ,福井県福井市池尻町
9103107,福井県,福井市,黒丸城町,フクイケン,フクイシ,クロマルジョウチョウ,福井県福井市黒丸城町
9103111,福井県,福井市,島山梨子町,フクイケン,フクイシ,シマヤマナシチョウ,福井県福井市島山梨子町
9103112,福井県,福井市,御所垣内町,フクイケン,フクイシ,ゴショガイチチョウ,福井県福井市御所垣内町
9103113,福井県,福井市,江上町,フクイケン,フクイシ,エガミチョウ,福井県福井市江上町
9103114,福井県,福井市,剣大谷町,フクイケン,フクイシ,ツルギオオタニチョウ,福井県福井市剣大谷町
9103115,福井県,福井市,仙町,フクイケン,フクイシ,センチョウ,福井県福井市仙町
9103116,福井県,福井市,内山梨子町,フクイケン,フクイシ,ウチヤマナシチョウ,福井県福井市内山梨子町
9103117,福井県,福井市,浄土寺町,フクイケン,フクイシ,ジョウドジチョウ,福井県福井市浄土寺町
9103118,福井県,福井市,上野町,フクイケン,フクイシ,ウエノチョウ,福井県福井市上野町
9103121,福井県,福井市,佐野町,フクイケン,フクイシ,サノチョウ,福井県福井市佐野町
9103122,福井県,福井市,小野町,フクイケン,フクイシ,コノチョウ,福井県福井市小野町
9103123,福井県,福井市,石畠町,フクイケン,フクイシ,イシバタケチョウ,福井県福井市石畠町
9103124,福井県,福井市,田ノ頭町,フクイケン,フクイシ,タノカシラチョウ,福井県福井市田ノ頭町
9103125,福井県,福井市,市ノ瀬町,フクイケン,フクイシ,イチノセチョウ,福井県福井市市ノ瀬町
9103126,福井県,福井市,深坂町,フクイケン,フクイシ,フカサカチョウ,福井県福井市深坂町
9103127,福井県,福井市,中山町,フクイケン,フクイシ,ナカヤマチョウ,福井県福井市中山町
9103128,福井県,福井市,為寄町,フクイケン,フクイシ,タメヨリチョウ,福井県福井市為寄町
9103131,福井県,福井市,白方町,フクイケン,フクイシ,シラカタチョウ,福井県福井市白方町
9103132,福井県,福井市,浜島町,フクイケン,フクイシ,ハマシマチョウ,福井県福井市浜島町
9103133,福井県,福井市,石新保町,フクイケン,フクイシ,イシシンボチョウ,福井県福井市石新保町
9103134,福井県,福井市,浜別所町,フクイケン,フクイシ,ハマベッショチョウ,福井県福井市浜別所町
9103135,福井県,福井市,両橋屋町,フクイケン,フクイシ,リョウハシヤチョウ,福井県福井市両橋屋町
9103136,福井県,福井市,川尻町,フクイケン,フクイシ,カワシリチョウ,福井県福井市川尻町
9103137,福井県,福井市,石橋町,フクイケン,フクイシ,イシバシチョウ,福井県福井市石橋町
9103138,福井県,福井市,テクノポート,フクイケン,フクイシ,テクノポート,福井県福井市テクノポート
9103141,福井県,福井市,砂子田町,フクイケン,フクイシ,スナゴダチョウ,福井県福井市砂子田町
9103142,福井県,福井市,波寄町,フクイケン,フクイシ,ナミヨセチョウ,福井県福井市波寄町
9103143,福井県,福井市,砂子坂町,フクイケン,フクイシ,スナゴサカチョウ,福井県福井市砂子坂町
9103144,福井県,福井市,水切町,フクイケン,フクイシ,ミズキリチョウ,福井県福井市水切町
9103145,福井県,福井市,串野町,フクイケン,フクイシ,クシノチョウ,福井県福井市串野町
9103146,福井県,福井市,小幡町,フクイケン,フクイシ,コワタチョウ,福井県福井市小幡町
9103147,福井県,福井市,木下町,フクイケン,フクイシ,キノシタチョウ,福井県福井市木下町
9103148,福井県,福井市,菖蒲谷町,フクイケン,フクイシ,ショウブダニチョウ,福井県福井市菖蒲谷町
9103251,福井県,福井市,荒谷町,フクイケン,フクイシ,アラタニチョウ,福井県福井市荒谷町
9103252,福井県,福井市,燈豊町,フクイケン,フクイシ,トウブチョウ,福井県福井市燈豊町
9103253,福井県,福井市,大谷町,フクイケン,フクイシ,オオタニチョウ,福井県福井市大谷町
9103254,福井県,福井市,八幡町,フクイケン,フクイシ,ヤワタチョウ,福井県福井市八幡町
9103255,福井県,福井市,大年町,フクイケン,フクイシ,オオトシチョウ,福井県福井市大年町
9103256,福井県,福井市,中町,フクイケン,フクイシ,ナカマチ,福井県福井市中町
9103261,福井県,福井市,西荒井町,フクイケン,フクイシ,ニシアライチョウ,福井県福井市西荒井町
9103262,福井県,福井市,一王寺町,フクイケン,フクイシ,イチオウジチョウ,福井県福井市一王寺町
9103263,福井県,福井市,中河内町,フクイケン,フクイシ,ナカコウチチョウ,福井県福井市中河内町
9103264,福井県,福井市,木米町,フクイケン,フクイシ,キヨネチョウ,福井県福井市木米町
9103265,福井県,福井市,柿谷町,フクイケン,フクイシ,カキダニチョウ,福井県福井市柿谷町
9103266,福井県,福井市,東平町,フクイケン,フクイシ,ヒガシダイラチョウ,福井県福井市東平町
9103266,福井県,福井市,猫瀬町,フクイケン,フクイシ,ネコセチョウ,福井県福井市猫瀬町
9103266,福井県,福井市,足谷町,フクイケン,フクイシ,アシタニチョウ,福井県福井市足谷町
9103267,福井県,福井市,河内町,フクイケン,フクイシ,コウチチョウ,福井県福井市河内町
9103268,福井県,福井市,中平町,フクイケン,フクイシ,ナカダイラチョウ,福井県福井市中平町
9103268,福井県,福井市,奥平町,フクイケン,フクイシ,オクダイラチョウ,福井県福井市奥平町
9103268,福井県,福井市,清水平町,フクイケン,フクイシ,シミズダイラチョウ,福井県福井市清水平町
9103371,福井県,福井市,大窪町,フクイケン,フクイシ,オオクボチョウ,福井県福井市大窪町
9103372,福井県,福井市,西二ツ屋町,フクイケン,フクイシ,ニシフタツヤチョウ,福井県福井市西二ツ屋町
9103373,福井県,福井市,西畑町,フクイケン,フクイシ,ニシハタチョウ,福井県福井市西畑町
9103374,福井県,福井市,高須町,フクイケン,フクイシ,タカスチョウ,福井県福井市高須町
9103375,福井県,福井市,宮郷町,フクイケン,フクイシ,ミヤゴウチョウ,福井県福井市宮郷町
9103376,福井県,福井市,和布町,フクイケン,フクイシ,メラチョウ,福井県福井市和布町
9103377,福井県,福井市,浜住町,フクイケン,フクイシ,ハマジュウチョウ,福井県福井市浜住町
9103378,福井県,福井市,免鳥町,フクイケン,フクイシ,メンドリチョウ,福井県福井市免鳥町
9103381,福井県,福井市,蓑町,フクイケン,フクイシ,ミノチョウ,福井県福井市蓑町
9103382,福井県,福井市,松蔭町,フクイケン,フクイシ,マツカゲチョウ,福井県福井市松蔭町
9103383,福井県,福井市,糸崎町,フクイケン,フクイシ,イトサキチョウ,福井県福井市糸崎町
9103384,福井県,福井市,長橋町,フクイケン,フクイシ,ナガハシチョウ,福井県福井市長橋町
9103385,福井県,福井市,北菅生町,フクイケン,フクイシ,キタスゴウチョウ,福井県福井市北菅生町
9103386,福井県,福井市,南菅生町,フクイケン,フクイシ,ミナミスゴウチョウ,福井県福井市南菅生町
9103401,福井県,福井市,国見町,フクイケン,フクイシ,クニミチョウ,福井県福井市国見町
9103402,福井県,福井市,鮎川町,フクイケン,フクイシ,アユカワチョウ,福井県福井市鮎川町
9103403,福井県,福井市,白浜町,フクイケン,フクイシ,シラハマチョウ,福井県福井市白浜町
9103404,福井県,福井市,大丹生町,フクイケン,フクイシ,オニュウチョウ,福井県福井市大丹生町
9103405,福井県,福井市,小丹生町,フクイケン,フクイシ,コニュウチョウ,福井県福井市小丹生町
9103511,福井県,福井市,白滝町,フクイケン,フクイシ,シラタキチョウ,福井県福井市白滝町
9103512,福井県,福井市,西別所町,フクイケン,フクイシ,ニシベッショチョウ,福井県福井市西別所町
9103513,福井県,福井市,宿堂町,フクイケン,フクイシ,シュクドウチョウ,福井県福井市宿堂町
9103514,福井県,福井市,水谷町,フクイケン,フクイシ,ミズタニチョウ,福井県福井市水谷町
9103515,福井県,福井市,大矢町,フクイケン,フクイシ,オオヤチョウ,福井県福井市大矢町
9103516,福井県,福井市,風尾町,フクイケン,フクイシ,カザオチョウ,福井県福井市風尾町
9103517,福井県,福井市,畠中町,フクイケン,フクイシ,ハタケナカチョウ,福井県福井市畠中町
9103518,福井県,福井市,国山町,フクイケン,フクイシ,クニヤマチョウ,福井県福井市国山町
9103521,福井県,福井市,千合町,フクイケン,フクイシ,チゴウチョウ,福井県福井市千合町
9103522,福井県,福井市,謡谷町,フクイケン,フクイシ,ウタイダニチョウ,福井県福井市謡谷町
9103523,福井県,福井市,武周町,フクイケン,フクイシ,ブシュウチョウ,福井県福井市武周町
9103524,福井県,福井市,別畑町,フクイケン,フクイシ,ベツバタチョウ,福井県福井市別畑町
9103525,福井県,福井市,尼ケ谷町,フクイケン,フクイシ,アマガタニチョウ,福井県福井市尼ケ谷町
9103526,福井県,福井市,二ツ屋町,フクイケン,フクイシ,フタツヤチョウ,福井県福井市二ツ屋町
9103551,福井県,福井市,大味町,フクイケン,フクイシ,オオミチョウ,福井県福井市大味町
9103552,福井県,福井市,茱崎町,フクイケン,フクイシ,グミザキチョウ,福井県福井市茱崎町
9103553,福井県,福井市,蒲生町,フクイケン,フクイシ,ガモウチョウ,福井県福井市蒲生町
9103554,福井県,福井市,浜北山町,フクイケン,フクイシ,ハマキタヤマチョウ,福井県福井市浜北山町
9103555,福井県,福井市,居倉町,フクイケン,フクイシ,イクラチョウ,福井県福井市居倉町
9103556,福井県,福井市,赤坂町,フクイケン,フクイシ,アカサカチョウ,福井県福井市赤坂町
9103557,福井県,福井市,城有町,フクイケン,フクイシ,シロアリチョウ,福井県福井市城有町
9103558,福井県,福井市,八ツ俣町,フクイケン,フクイシ,ヤツマタチョウ,福井県福井市八ツ俣町
9103601,福井県,福井市,清水町,フクイケン,フクイシ,シミズチョウ,福井県福井市清水町
9103602,福井県,福井市,竹生町,フクイケン,フクイシ,タコオチョウ,福井県福井市竹生町
9103603,福井県,福井市,片粕町,フクイケン,フクイシ,カタカスチョウ,福井県福井市片粕町
9103604,福井県,福井市,グリーンハイツ,フクイケン,フクイシ,グリーンハイツ,福井県福井市グリーンハイツ
9103605,福井県,福井市,朝宮町,フクイケン,フクイシ,アサミヤチョウ,福井県福井市朝宮町
9103606,福井県,福井市,田尻栃谷町,フクイケン,フクイシ,タジリトチタニチョウ,福井県福井市田尻栃谷町
9103607,福井県,福井市,清水杉谷町,フクイケン,フクイシ,シミズスギタニチョウ,福井県福井市清水杉谷町
9103608,福井県,福井市,三留町,フクイケン,フクイシ,ミトメチョウ,福井県福井市三留町
9103611,福井県,福井市,片山町,フクイケン,フクイシ,カタヤマチョウ,福井県福井市片山町
9103612,福井県,福井市,清水山町,フクイケン,フクイシ,シミズヤマチョウ,福井県福井市清水山町
9103613,福井県,福井市,甑谷町,フクイケン,フクイシ,コシキダニチョウ,福井県福井市甑谷町
9103614,福井県,福井市,在田町,フクイケン,フクイシ,アイダチョウ,福井県福井市在田町
9103615,福井県,福井市,坪谷町,フクイケン,フクイシ,ツボタニチョウ,福井県福井市坪谷町
9103616,福井県,福井市,真栗町,フクイケン,フクイシ,マクリチョウ,福井県福井市真栗町
9103617,福井県,福井市,御油町,フクイケン,フクイシ,ゴユチョウ,福井県福井市御油町
9103621,福井県,福井市,小羽町,フクイケン,フクイシ,オバチョウ,福井県福井市小羽町
9103622,福井県,福井市,風巻町,フクイケン,フクイシ,カザマキチョウ,福井県福井市風巻町
9103623,福井県,福井市,島寺町,フクイケン,フクイシ,シマデラチョウ,福井県福井市島寺町
9103631,福井県,福井市,和田町,フクイケン,フクイシ,ワダチョウ,福井県福井市和田町
9103632,福井県,福井市,下天下町,フクイケン,フクイシ,シモテガチョウ,福井県福井市下天下町
9103633,福井県,福井市,上天下町,フクイケン,フクイシ,カミテガチョウ,福井県福井市上天下町
9103634,福井県,福井市,大森町,フクイケン,フクイシ,オオモリチョウ,福井県福井市大森町
9103635,福井県,福井市,志津が丘,フクイケン,フクイシ,シヅガオカ,福井県福井市志津が丘
9103636,福井県,福井市,山内町,フクイケン,フクイシ,ヤマウチチョウ,福井県福井市山内町
9103641,福井県,福井市,平尾町,フクイケン,フクイシ,ヒラオチョウ,福井県福井市平尾町
9103642,福井県,福井市,本折町,フクイケン,フクイシ,モトオリチョウ,福井県福井市本折町
9103643,福井県,福井市,滝波町,フクイケン,フクイシ,タキナミチョウ,福井県福井市滝波町
9103644,福井県,福井市,加茂内町,フクイケン,フクイシ,カモウチチョウ,福井県福井市加茂内町
9103644,福井県,福井市,加茂町,フクイケン,フクイシ,カモチョウ,福井県福井市加茂町
9103645,福井県,福井市,笹谷町,フクイケン,フクイシ,ササダニチョウ,福井県福井市笹谷町
9103646,福井県,福井市,清水畑町,フクイケン,フクイシ,シミズバタチョウ,福井県福井市清水畑町
9104102,福井県,あわら市,芦鶴,フクイケン,アワラシ,アシヅル,福井県あわら市芦鶴
9104103,福井県,あわら市,二面,フクイケン,アワラシ,フタオモテ,福井県あわら市二面
9104104,福井県,あわら市,温泉,フクイケン,アワラシ,オンセン,福井県あわら市温泉
9104105,福井県,あわら市,舟津,フクイケン,アワラシ,フナツ,福井県あわら市舟津
9104111,福井県,あわら市,牛山,フクイケン,アワラシ,ウシヤマ,福井県あわら市牛山
9104112,福井県,あわら市,井江葭,フクイケン,アワラシ,イエヨシ,福井県あわら市井江葭
9104113,福井県,あわら市,横垣,フクイケン,アワラシ,ヨコガキ,福井県あわら市横垣
9104115,福井県,あわら市,国影,フクイケン,アワラシ,クニカゲ,福井県あわら市国影
9104121,福井県,あわら市,東温泉,フクイケン,アワラシ,ヒガシオンセン,福井県あわら市東温泉
9104122,福井県,あわら市,重義,フクイケン,アワラシ,シゲヨシ,福井県あわら市重義
9104123,福井県,あわら市,番田,フクイケン,アワラシ,バンデン,福井県あわら市番田
9104124,福井県,あわら市,田中々,フクイケン,アワラシ,タナカナカ,福井県あわら市田中々
9104125,福井県,あわら市,堀江十楽,フクイケン,アワラシ,ホリエジュウラク,福井県あわら市堀江十楽
9104126,福井県,あわら市,布目,フクイケン,アワラシ,ヌノメ,福井県あわら市布目
9104127,福井県,あわら市,西温泉,フクイケン,アワラシ,ニシオンセン,福井県あわら市西温泉
9104131,福井県,あわら市,東善寺,フクイケン,アワラシ,トウゼンジ,福井県あわら市東善寺
9104132,福井県,あわら市,谷畠,フクイケン,アワラシ,タンバク,福井県あわら市谷畠
9104133,福井県,あわら市,轟木,フクイケン,アワラシ,トドロキ,福井県あわら市轟木
9104134,福井県,あわら市,上番,フクイケン,アワラシ,カミバン,福井県あわら市上番
9104137,福井県,あわら市,中番,フクイケン,アワラシ,ナカバン,福井県あわら市中番
9104138,福井県,あわら市,下番,フクイケン,アワラシ,シモバン,福井県あわら市下番
9104141,福井県,あわら市,玉木,フクイケン,アワラシ,タマキ,福井県あわら市玉木
9104142,福井県,あわら市,河間,フクイケン,アワラシ,コウマ,福井県あわら市河間
9104144,福井県,あわら市,中浜,フクイケン,アワラシ,ナカノハマ,福井県あわら市中浜
9104145,福井県,あわら市,角屋,フクイケン,アワラシ,スミヤ,福井県あわら市角屋
9104146,福井県,あわら市,北本堂,フクイケン,アワラシ,キタホンドウ,福井県あわら市北本堂
9104147,福井県,あわら市,公文,フクイケン,アワラシ,クモン,福井県あわら市公文
9104147,福井県,あわら市,宮前,フクイケン,アワラシ,ミヤマエ,福井県あわら市宮前
9104271,福井県,あわら市,浜坂,フクイケン,アワラシ,ハマサカ,福井県あわら市浜坂
9104272,福井県,あわら市,北潟,フクイケン,アワラシ,キタガタ,福井県あわら市北潟
9104272,福井県,あわら市,富津（北潟）,フクイケン,アワラシ,トミツ(キタガタ),福井県あわら市富津（北潟）
9104273,福井県,あわら市,赤尾,フクイケン,アワラシ,アカオ,福井県あわら市赤尾
9104274,福井県,あわら市,番堂野,フクイケン,アワラシ,バンドノ,福井県あわら市番堂野
9104275,福井県,あわら市,城新田,フクイケン,アワラシ,ジョウシンデン,福井県あわら市城新田
9104276,福井県,あわら市,十三（城）,フクイケン,アワラシ,ジュウソウ(ジョウ),福井県あわら市十三（城）
9104276,福井県,あわら市,城,フクイケン,アワラシ,ジョウ,福井県あわら市城
9104277,福井県,あわら市,波松,フクイケン,アワラシ,ナミマツ,福井県あわら市波松
9110000,福井県,勝山市,,フクイケン,カツヤマシ,,福井県勝山市
9110001,福井県,勝山市,北谷町小原,フクイケン,カツヤマシ,キタダニチョウオハラ,福井県勝山市北谷町小原
9110002,福井県,勝山市,北谷町木根橋,フクイケン,カツヤマシ,キタダニチョウキネハシ,福井県勝山市北谷町木根橋
9110003,福井県,勝山市,北谷町河合,フクイケン,カツヤマシ,キタダニチョウコウゴ,福井県勝山市北谷町河合
9110004,福井県,勝山市,北谷町中尾,フクイケン,カツヤマシ,キタダニチョウナカオ,福井県勝山市北谷町中尾
9110004,福井県,勝山市,北谷町北六呂師,フクイケン,カツヤマシ,キタダニチョウキタロクロシ,福井県勝山市北谷町北六呂師
9110005,福井県,勝山市,北谷町杉山,フクイケン,カツヤマシ,キタダニチョウスギヤマ,福井県勝山市北谷町杉山
9110006,福井県,勝山市,北谷町谷,フクイケン,カツヤマシ,キタダニチョウタニ,福井県勝山市北谷町谷
9110011,福井県,勝山市,野向町牛ケ谷,フクイケン,カツヤマシ,ノムキチョウウシガタニ,福井県勝山市野向町牛ケ谷
9110012,福井県,勝山市,野向町薬師神谷,フクイケン,カツヤマシ,ノムキチョウヤクシガミヤ,福井県勝山市野向町薬師神谷
9110013,福井県,勝山市,野向町深谷,フクイケン,カツヤマシ,ノムキチョウフカダニ,福井県勝山市野向町深谷
9110014,福井県,勝山市,野向町聖丸,フクイケン,カツヤマシ,ノムキチョウヒジリマル,福井県勝山市野向町聖丸
9110015,福井県,勝山市,野向町竹林,フクイケン,カツヤマシ,ノムキチョウタケバヤシ,福井県勝山市野向町竹林
9110016,福井県,勝山市,野向町龍谷,フクイケン,カツヤマシ,ノムキチョウリュウダニ,福井県勝山市野向町龍谷
9110017,福井県,勝山市,野向町北野津又,フクイケン,カツヤマシ,ノムキチョウキタノツマタ,福井県勝山市野向町北野津又
9110017,福井県,勝山市,野向町横倉,フクイケン,カツヤマシ,ノムキチョウヨコクラ,福井県勝山市野向町横倉
9110021,福井県,勝山市,村岡町栃神谷,フクイケン,カツヤマシ,ムロコチョウトチガミヤ,福井県勝山市村岡町栃神谷
9110022,福井県,勝山市,村岡町暮見,フクイケン,カツヤマシ,ムロコチョウクレミ,福井県勝山市村岡町暮見
9110022,福井県,勝山市,芳野ケ原,フクイケン,カツヤマシ,ヨシノガハラ,福井県勝山市芳野ケ原
9110023,福井県,勝山市,村岡町寺尾,フクイケン,カツヤマシ,ムロコチョウテラオ,福井県勝山市村岡町寺尾
9110024,福井県,勝山市,村岡町浄土寺,フクイケン,カツヤマシ,ムロコチョウジョウドジ,福井県勝山市村岡町浄土寺
9110025,福井県,勝山市,村岡町五本寺,フクイケン,カツヤマシ,ムロコチョウゴホンジ,福井県勝山市村岡町五本寺
9110026,福井県,勝山市,村岡町黒原,フクイケン,カツヤマシ,ムロコチョウクロハラ,福井県勝山市村岡町黒原
9110031,福井県,勝山市,長山町,フクイケン,カツヤマシ,ナガヤマチョウ,福井県勝山市長山町
9110032,福井県,勝山市,芳野町,フクイケン,カツヤマシ,ヨシノチョウ,福井県勝山市芳野町
9110033,福井県,勝山市,栄町,フクイケン,カツヤマシ,サカエマチ,福井県勝山市栄町
9110034,福井県,勝山市,滝波町,フクイケン,カツヤマシ,タキナミチョウ,福井県勝山市滝波町
9110035,福井県,勝山市,郡町,フクイケン,カツヤマシ,コオリマチ,福井県勝山市郡町
9110041,福井県,勝山市,荒土町北新在家,フクイケン,カツヤマシ,アラドチョウキタシンザイケ,福井県勝山市荒土町北新在家
9110041,福井県,勝山市,荒土町布市,フクイケン,カツヤマシ,アラドチョウヌノイチ,福井県勝山市荒土町布市
9110041,福井県,勝山市,荒土町清水島,フクイケン,カツヤマシ,アラドチョウシミズシマ,福井県勝山市荒土町清水島
9110042,福井県,勝山市,荒土町松田,フクイケン,カツヤマシ,アラドチョウマツタ,福井県勝山市荒土町松田
9110042,福井県,勝山市,荒土町田名部,フクイケン,カツヤマシ,アラドチョウタナベ,福井県勝山市荒土町田名部
9110043,福井県,勝山市,荒土町新保,フクイケン,カツヤマシ,アラドチョウシンボ,福井県勝山市荒土町新保
9110044,福井県,勝山市,荒土町松ケ崎,フクイケン,カツヤマシ,アラドチョウマツガサキ,福井県勝山市荒土町松ケ崎
9110045,福井県,勝山市,荒土町伊波,フクイケン,カツヤマシ,アラドチョウイナミ,福井県勝山市荒土町伊波
9110045,福井県,勝山市,荒土町妙金島,フクイケン,カツヤマシ,アラドチョウミョウキンジマ,福井県勝山市荒土町妙金島
9110046,福井県,勝山市,荒土町中清水,フクイケン,カツヤマシ,アラドチョウナカシミズ,福井県勝山市荒土町中清水
9110046,福井県,勝山市,荒土町堀名,フクイケン,カツヤマシ,アラドチョウホリメ,福井県勝山市荒土町堀名
9110046,福井県,勝山市,荒土町堀名中清水,フクイケン,カツヤマシ,アラドチョウホリメナカシミズ,福井県勝山市荒土町堀名中清水
9110047,福井県,勝山市,荒土町北宮地,フクイケン,カツヤマシ,アラドチョウキタミヤジ,福井県勝山市荒土町北宮地
9110048,福井県,勝山市,荒土町別所,フクイケン,カツヤマシ,アラドチョウベッショ,福井県勝山市荒土町別所
9110048,福井県,勝山市,荒土町境,フクイケン,カツヤマシ,アラドチョウサカイ,福井県勝山市荒土町境
9110048,福井県,勝山市,荒土町戸倉,フクイケン,カツヤマシ,アラドチョウトクラ,福井県勝山市荒土町戸倉
9110048,福井県,勝山市,荒土町新道,フクイケン,カツヤマシ,アラドチョウシンドウ,福井県勝山市荒土町新道
9110048,福井県,勝山市,荒土町細野,フクイケン,カツヤマシ,アラドチョウホソノ,福井県勝山市荒土町細野
9110048,福井県,勝山市,荒土町細野口,フクイケン,カツヤマシ,アラドチョウホソノグチ,福井県勝山市荒土町細野口
9110048,福井県,勝山市,荒土町西ケ原,フクイケン,カツヤマシ,アラドチョウニシガハラ,福井県勝山市荒土町西ケ原
9110051,福井県,勝山市,北郷町志比原,フクイケン,カツヤマシ,キタゴウチョウシイワラ,福井県勝山市北郷町志比原
9110051,福井県,勝山市,北郷町新町,フクイケン,カツヤマシ,キタゴウチョウアラマチ,福井県勝山市北郷町新町
9110051,福井県,勝山市,北郷町檜曽谷,フクイケン,カツヤマシ,キタゴウチョウヒソダニ,福井県勝山市北郷町檜曽谷
9110052,福井県,勝山市,北郷町西妙金島,フクイケン,カツヤマシ,キタゴウチョウニシミョウキンジマ,福井県勝山市北郷町西妙金島
9110053,福井県,勝山市,北郷町上森川,フクイケン,カツヤマシ,キタゴウチョウカミモリカワ,福井県勝山市北郷町上森川
9110053,福井県,勝山市,北郷町下森川,フクイケン,カツヤマシ,キタゴウチョウシモモリカワ,福井県勝山市北郷町下森川
9110053,福井県,勝山市,北郷町森川,フクイケン,カツヤマシ,キタゴウチョウモリカワ,福井県勝山市北郷町森川
9110054,福井県,勝山市,北郷町東野,フクイケン,カツヤマシ,キタゴウチョウヒガシノ,福井県勝山市北郷町東野
9110055,福井県,勝山市,北郷町上野,フクイケン,カツヤマシ,キタゴウチョウウワノ,福井県勝山市北郷町上野
9110055,福井県,勝山市,北郷町伊知地,フクイケン,カツヤマシ,キタゴウチョウイジチ,福井県勝山市北郷町伊知地
9110055,福井県,勝山市,北郷町岩屋,フクイケン,カツヤマシ,キタゴウチョウイワヤ,福井県勝山市北郷町岩屋
9110056,福井県,勝山市,北郷町坂東島,フクイケン,カツヤマシ,キタゴウチョウバンドウジマ,福井県勝山市北郷町坂東島
9110801,福井県,勝山市,沢町,フクイケン,カツヤマシ,サワマチ,福井県勝山市沢町
9110802,福井県,勝山市,昭和町,フクイケン,カツヤマシ,ショウワマチ,福井県勝山市昭和町
9110803,福井県,勝山市,旭町,フクイケン,カツヤマシ,アサヒマチ,福井県勝山市旭町
9110804,福井県,勝山市,元町,フクイケン,カツヤマシ,モトマチ,福井県勝山市元町
9110805,福井県,勝山市,立川町,フクイケン,カツヤマシ,タテカワチョウ,福井県勝山市立川町
9110806,福井県,勝山市,本町,フクイケン,カツヤマシ,ホンマチ,福井県勝山市本町
9110811,福井県,勝山市,片瀬,フクイケン,カツヤマシ,カタセ,福井県勝山市片瀬
9110811,福井県,勝山市,片瀬町,フクイケン,カツヤマシ,カタセチョウ,福井県勝山市片瀬町
9110812,福井県,勝山市,猪野,フクイケン,カツヤマシ,イノ,福井県勝山市猪野
9110813,福井県,勝山市,猪野口,フクイケン,カツヤマシ,イノクチ,福井県勝山市猪野口
9110814,福井県,勝山市,若猪野,フクイケン,カツヤマシ,ワカイノ,福井県勝山市若猪野
9110815,福井県,勝山市,上高島,フクイケン,カツヤマシ,カミタカジマ,福井県勝山市上高島
9110815,福井県,勝山市,下高島,フクイケン,カツヤマシ,シモタカジマ,福井県勝山市下高島
9110815,福井県,勝山市,北市,フクイケン,カツヤマシ,キタイチ,福井県勝山市北市
9110815,福井県,勝山市,西高島,フクイケン,カツヤマシ,ニシタカジマ,福井県勝山市西高島
9110815,福井県,勝山市,高島,フクイケン,カツヤマシ,タカジマ,福井県勝山市高島
9110816,福井県,勝山市,下毛屋,フクイケン,カツヤマシ,シモケヤ,福井県勝山市下毛屋
9110816,福井県,勝山市,毛屋,フクイケン,カツヤマシ,ケヤ,福井県勝山市毛屋
9110816,福井県,勝山市,毛屋町,フクイケン,カツヤマシ,ケヤチョウ,福井県勝山市毛屋町
9110816,福井県,勝山市,猪野毛屋,フクイケン,カツヤマシ,イノケヤ,福井県勝山市猪野毛屋
9110817,福井県,勝山市,旭毛屋町,フクイケン,カツヤマシ,アサヒケヤチョウ,福井県勝山市旭毛屋町
9110821,福井県,勝山市,平泉寺町岡横江,フクイケン,カツヤマシ,ヘイセンジチョウオカヨコエ,福井県勝山市平泉寺町岡横江
9110822,福井県,勝山市,平泉寺町平泉寺,フクイケン,カツヤマシ,ヘイセンジチョウヘイセンジ,福井県勝山市平泉寺町平泉寺
9110822,福井県,勝山市,平泉寺町神野,フクイケン,カツヤマシ,ヘイセンジチョウシンノ,福井県勝山市平泉寺町神野
9110823,福井県,勝山市,平泉寺町赤尾,フクイケン,カツヤマシ,ヘイセンジチョウアカオ,福井県勝山市平泉寺町赤尾
9110824,福井県,勝山市,平泉寺町大矢谷,フクイケン,カツヤマシ,ヘイセンジチョウオオヤダニ,福井県勝山市平泉寺町大矢谷
9110824,福井県,勝山市,平泉寺町小矢谷,フクイケン,カツヤマシ,ヘイセンジチョウコヤダニ,福井県勝山市平泉寺町小矢谷
9110824,福井県,勝山市,平泉寺町池ケ原,フクイケン,カツヤマシ,ヘイセンジチョウイケガハラ,福井県勝山市平泉寺町池ケ原
9110825,福井県,勝山市,平泉寺町上野,フクイケン,カツヤマシ,ヘイセンジチョウウエノ,福井県勝山市平泉寺町上野
9110825,福井県,勝山市,平泉寺町岩ケ野,フクイケン,カツヤマシ,ヘイセンジチョウイワガノ,福井県勝山市平泉寺町岩ケ野
9110826,福井県,勝山市,平泉寺町壁倉,フクイケン,カツヤマシ,ヘイセンジチョウカベクラ,福井県勝山市平泉寺町壁倉
9110827,福井県,勝山市,平泉寺町笹尾,フクイケン,カツヤマシ,ヘイセンジチョウササオ,福井県勝山市平泉寺町笹尾
9110828,福井県,勝山市,平泉寺町大渡,フクイケン,カツヤマシ,ヘイセンジチョウオオワタリ,福井県勝山市平泉寺町大渡
9110828,福井県,勝山市,平泉寺町経塚,フクイケン,カツヤマシ,ヘイセンジチョウキョウヅカ,福井県勝山市平泉寺町経塚
9110831,福井県,勝山市,遅羽町中島,フクイケン,カツヤマシ,オソワチョウナカジマ,福井県勝山市遅羽町中島
9110831,福井県,勝山市,遅羽町千代田,フクイケン,カツヤマシ,オソワチョウチヨダ,福井県勝山市遅羽町千代田
9110831,福井県,勝山市,遅羽町比島,フクイケン,カツヤマシ,オソワチョウヒシマ,福井県勝山市遅羽町比島
9110832,福井県,勝山市,遅羽町蓬生,フクイケン,カツヤマシ,オソワチョウヨモギ,福井県勝山市遅羽町蓬生
9110833,福井県,勝山市,遅羽町北山,フクイケン,カツヤマシ,オソワチョウキタヤマ,福井県勝山市遅羽町北山
9110834,福井県,勝山市,遅羽町大袋,フクイケン,カツヤマシ,オソワチョウオオブクロ,福井県勝山市遅羽町大袋
9110834,福井県,勝山市,遅羽町新道,フクイケン,カツヤマシ,オソワチョウシンドウ,福井県勝山市遅羽町新道
9110835,福井県,勝山市,遅羽町ほう崎,フクイケン,カツヤマシ,オソワチョウホウキ,福井県勝山市遅羽町ほう崎
9110836,福井県,勝山市,遅羽町下荒井,フクイケン,カツヤマシ,オソワチョウシモアライ,福井県勝山市遅羽町下荒井
9110841,福井県,勝山市,鹿谷町発坂,フクイケン,カツヤマシ,シカダニチョウホッサカ,福井県勝山市鹿谷町発坂
9110842,福井県,勝山市,鹿谷町志田,フクイケン,カツヤマシ,シカダニチョウシダ,福井県勝山市鹿谷町志田
9110843,福井県,勝山市,鹿谷町本郷,フクイケン,カツヤマシ,シカダニチョウホンゴウ,福井県勝山市鹿谷町本郷
9110843,福井県,勝山市,鹿谷町杉俣,フクイケン,カツヤマシ,シカダニチョウスギマタ,福井県勝山市鹿谷町杉俣
9110844,福井県,勝山市,鹿谷町東遅羽口,フクイケン,カツヤマシ,シカダニチョウヒガシオソワグチ,福井県勝山市鹿谷町東遅羽口
9110844,福井県,勝山市,鹿谷町西遅羽口,フクイケン,カツヤマシ,シカダニチョウニシオソワグチ,福井県勝山市鹿谷町西遅羽口
9110845,福井県,勝山市,鹿谷町矢戸口,フクイケン,カツヤマシ,シカダニチョウヤトグチ,福井県勝山市鹿谷町矢戸口
9110846,福井県,勝山市,鹿谷町北西俣,フクイケン,カツヤマシ,シカダニチョウキタニシマタ,福井県勝山市鹿谷町北西俣
9110847,福井県,勝山市,鹿谷町西光寺,フクイケン,カツヤマシ,シカダニチョウサイコウジ,福井県勝山市鹿谷町西光寺
9110848,福井県,勝山市,鹿谷町保田,フクイケン,カツヤマシ,シカダニチョウホタ,福井県勝山市鹿谷町保田
9110848,福井県,勝山市,鹿谷町保田出村,フクイケン,カツヤマシ,シカダニチョウホタデムラ,福井県勝山市鹿谷町保田出村
9110848,福井県,勝山市,鹿谷町出村,フクイケン,カツヤマシ,シカダニチョウデムラ,福井県勝山市鹿谷町出村
9120000,福井県,大野市,,フクイケン,オオノシ,,福井県大野市
9120001,福井県,大野市,大矢戸,フクイケン,オオノシ,オオヤト,福井県大野市大矢戸
9120002,福井県,大野市,小矢戸,フクイケン,オオノシ,コヤト,福井県大野市小矢戸
9120003,福井県,大野市,東大月,フクイケン,オオノシ,ヒガシオオツキ,福井県大野市東大月
9120003,福井県,大野市,西大月,フクイケン,オオノシ,ニシオオツキ,福井県大野市西大月
9120004,福井県,大野市,中津川,フクイケン,オオノシ,ナカツガワ,福井県大野市中津川
9120005,福井県,大野市,太田,フクイケン,オオノシ,オオタ,福井県大野市太田
9120006,福井県,大野市,庄林,フクイケン,オオノシ,ショウバヤシ,福井県大野市庄林
9120007,福井県,大野市,西市,フクイケン,オオノシ,ニシイチ,福井県大野市西市
9120008,福井県,大野市,矢,フクイケン,オオノシ,ヤ,福井県大野市矢
9120011,福井県,大野市,南新在家,フクイケン,オオノシ,ミナミシンザイケ,福井県大野市南新在家
9120012,福井県,大野市,横枕,フクイケン,オオノシ,ヨコマクラ,福井県大野市横枕
9120013,福井県,大野市,堂本,フクイケン,オオノシ,ドウモト,福井県大野市堂本
9120014,福井県,大野市,中保,フクイケン,オオノシ,ナカホ,福井県大野市中保
9120015,福井県,大野市,中挾,フクイケン,オオノシ,ナカバサミ,福井県大野市中挾
9120016,福井県,大野市,友江,フクイケン,オオノシ,トモエ,福井県大野市友江
9120017,福井県,大野市,東中野,フクイケン,オオノシ,ヒガシナカノ,福井県大野市東中野
9120021,福井県,大野市,中野,フクイケン,オオノシ,ナカノ,福井県大野市中野
9120021,福井県,大野市,中野町,フクイケン,オオノシ,ナカノチョウ,福井県大野市中野町
9120022,福井県,大野市,陽明町,フクイケン,オオノシ,ヨウメイチョウ,福井県大野市陽明町
9120023,福井県,大野市,中荒井,フクイケン,オオノシ,ナカアライ,福井県大野市中荒井
9120023,福井県,大野市,中荒井町,フクイケン,オオノシ,ナカアライチョウ,福井県大野市中荒井町
9120024,福井県,大野市,錦町,フクイケン,オオノシ,ニシキチョウ,福井県大野市錦町
9120025,福井県,大野市,本町,フクイケン,オオノシ,ホンマチ,福井県大野市本町
9120026,福井県,大野市,要町,フクイケン,オオノシ,カナメチョウ,福井県大野市要町
9120027,福井県,大野市,新町,フクイケン,オオノシ,シンマチ,福井県大野市新町
9120031,福井県,大野市,月美町,フクイケン,オオノシ,ツキミチョウ,福井県大野市月美町
9120032,福井県,大野市,清和町,フクイケン,オオノシ,セイワチョウ,福井県大野市清和町
9120033,福井県,大野市,美里町,フクイケン,オオノシ,ミサトチョウ,福井県大野市美里町
9120034,福井県,大野市,吉野町,フクイケン,オオノシ,ヨシノチョウ,福井県大野市吉野町
9120035,福井県,大野市,有明町,フクイケン,オオノシ,アリアケチョウ,福井県大野市有明町
9120036,福井県,大野市,美川町,フクイケン,オオノシ,ミカワチョウ,福井県大野市美川町
9120041,福井県,大野市,菖蒲池,フクイケン,オオノシ,ショウブイケ,福井県大野市菖蒲池
9120042,福井県,大野市,東中,フクイケン,オオノシ,ヒガシナカ,福井県大野市東中
9120042,福井県,大野市,東中町,フクイケン,オオノシ,ヒガシナカチョウ,福井県大野市東中町
9120043,福井県,大野市,国時町,フクイケン,オオノシ,クニトキチョウ,福井県大野市国時町
9120044,福井県,大野市,桜塚町,フクイケン,オオノシ,サクラヅカチョウ,福井県大野市桜塚町
9120045,福井県,大野市,若杉町,フクイケン,オオノシ,ワカスギチョウ,福井県大野市若杉町
9120046,福井県,大野市,神明,フクイケン,オオノシ,シンメイ,福井県大野市神明
9120046,福井県,大野市,神明町,フクイケン,オオノシ,シンメイチョウ,福井県大野市神明町
9120047,福井県,大野市,幸町,フクイケン,オオノシ,サイワイチョウ,福井県大野市幸町
9120051,福井県,大野市,日吉町,フクイケン,オオノシ,ヒヨシチョウ,福井県大野市日吉町
9120052,福井県,大野市,弥生町,フクイケン,オオノシ,ヤヨイチョウ,福井県大野市弥生町
9120053,福井県,大野市,春日,フクイケン,オオノシ,カスガ,福井県大野市春日
9120054,福井県,大野市,糸魚町,フクイケン,オオノシ,イトヨチョウ,福井県大野市糸魚町
9120055,福井県,大野市,高砂町,フクイケン,オオノシ,タカサゴチョウ,福井県大野市高砂町
9120061,福井県,大野市,篠座,フクイケン,オオノシ,シノクラ,福井県大野市篠座
9120061,福井県,大野市,篠座町,フクイケン,オオノシ,シノクラチョウ,福井県大野市篠座町
9120062,福井県,大野市,千歳,フクイケン,オオノシ,チトセ,福井県大野市千歳
9120063,福井県,大野市,阿難祖地頭方,フクイケン,オオノシ,アドソジトウホウ,福井県大野市阿難祖地頭方
9120063,福井県,大野市,阿難祖領家,フクイケン,オオノシ,アドソリョウケ,福井県大野市阿難祖領家
9120064,福井県,大野市,上舌,フクイケン,オオノシ,カミシタ,福井県大野市上舌
9120065,福井県,大野市,下舌,フクイケン,オオノシ,シモシタ,福井県大野市下舌
9120066,福井県,大野市,南春日野,フクイケン,オオノシ,ミナミカスガノ,福井県大野市南春日野
9120067,福井県,大野市,右近次郎,フクイケン,オオノシ,ウコンジロウ,福井県大野市右近次郎
9120068,福井県,大野市,茜町,フクイケン,オオノシ,アカネチョウ,福井県大野市茜町
9120071,福井県,大野市,鍬掛,フクイケン,オオノシ,クワカケ,福井県大野市鍬掛
9120072,福井県,大野市,飯降,フクイケン,オオノシ,イフリ,福井県大野市飯降
9120073,福井県,大野市,深井,フクイケン,オオノシ,フカイ,福井県大野市深井
9120074,福井県,大野市,上荒井,フクイケン,オオノシ,カミアライ,福井県大野市上荒井
9120075,福井県,大野市,下黒谷,フクイケン,オオノシ,シモクロダニ,福井県大野市下黒谷
9120076,福井県,大野市,上黒谷,フクイケン,オオノシ,カミクロダニ,福井県大野市上黒谷
9120081,福井県,大野市,元町,フクイケン,オオノシ,モトマチ,福井県大野市元町
9120082,福井県,大野市,大和町,フクイケン,オオノシ,ヤマトチョウ,福井県大野市大和町
9120083,福井県,大野市,明倫町,フクイケン,オオノシ,メイリンチョウ,福井県大野市明倫町
9120084,福井県,大野市,天神町,フクイケン,オオノシ,テンジンチョウ,福井県大野市天神町
9120085,福井県,大野市,新庄,フクイケン,オオノシ,シンジョウ,福井県大野市新庄
9120086,福井県,大野市,泉町,フクイケン,オオノシ,イズミチョウ,福井県大野市泉町
9120086,福井県,大野市,清水,フクイケン,オオノシ,ショウズ,福井県大野市清水
9120087,福井県,大野市,亀山,フクイケン,オオノシ,カメヤマ,福井県大野市亀山
9120087,福井県,大野市,城町,フクイケン,オオノシ,シロマチ,福井県大野市城町
9120088,福井県,大野市,水落,フクイケン,オオノシ,ミズオトシ,福井県大野市水落
9120088,福井県,大野市,水落町,フクイケン,オオノシ,ミズオトシチョウ,福井県大野市水落町
9120091,福井県,大野市,牛ケ原,フクイケン,オオノシ,ウシガハラ,福井県大野市牛ケ原
9120091,福井県,大野市,犬山,フクイケン,オオノシ,イヌヤマ,福井県大野市犬山
9120092,福井県,大野市,清瀧,フクイケン,オオノシ,セイリュウ,福井県大野市清瀧
9120093,福井県,大野市,中丁,フクイケン,オオノシ,ナカヨウロ,福井県大野市中丁
9120094,福井県,大野市,上丁,フクイケン,オオノシ,カミヨウロ,福井県大野市上丁
9120095,福井県,大野市,下丁,フクイケン,オオノシ,シモヨウロ,福井県大野市下丁
9120131,福井県,大野市,南六呂師,フクイケン,オオノシ,ミナミロクロシ,福井県大野市南六呂師
9120132,福井県,大野市,大月,フクイケン,オオノシ,オオツキ,福井県大野市大月
9120133,福井県,大野市,御領,フクイケン,オオノシ,ゴリョウ,福井県大野市御領
9120134,福井県,大野市,石谷,フクイケン,オオノシ,イシタニ,福井県大野市石谷
9120135,福井県,大野市,森本,フクイケン,オオノシ,モリモト,福井県大野市森本
9120136,福井県,大野市,松丸,フクイケン,オオノシ,マツマル,福井県大野市松丸
9120137,福井県,大野市,萩ケ野,フクイケン,オオノシ,ハンガノ,福井県大野市萩ケ野
9120138,福井県,大野市,花房,フクイケン,オオノシ,ハナブサ,福井県大野市花房
9120139,福井県,大野市,不動堂,フクイケン,オオノシ,フドウドウ,福井県大野市不動堂
9120141,福井県,大野市,橋爪,フクイケン,オオノシ,ハシヅメ,福井県大野市橋爪
9120142,福井県,大野市,蓑道,フクイケン,オオノシ,ミノミチ,福井県大野市蓑道
9120143,福井県,大野市,金山,フクイケン,オオノシ,キンザン,福井県大野市金山
9120144,福井県,大野市,小黒見,フクイケン,オオノシ,オグロミ,福井県大野市小黒見
9120145,福井県,大野市,堂嶋,フクイケン,オオノシ,ドウジマ,福井県大野市堂嶋
9120146,福井県,大野市,落合,フクイケン,オオノシ,オチアイ,福井県大野市落合
9120147,福井県,大野市,柿ケ嶋,フクイケン,オオノシ,カキガシマ,福井県大野市柿ケ嶋
9120148,福井県,大野市,八町,フクイケン,オオノシ,ヤマチ,福井県大野市八町
9120149,福井県,大野市,伏石,フクイケン,オオノシ,ブクイシ,福井県大野市伏石
9120151,福井県,大野市,上打波,フクイケン,オオノシ,カミウチナミ,福井県大野市上打波
9120152,福井県,大野市,下打波,フクイケン,オオノシ,シモウチナミ,福井県大野市下打波
9120153,福井県,大野市,仏原,フクイケン,オオノシ,ホトケバラ,福井県大野市仏原
9120154,福井県,大野市,東勝原,フクイケン,オオノシ,ヒガシカドハラ,福井県大野市東勝原
9120155,福井県,大野市,西勝原,フクイケン,オオノシ,ニシカドハラ,福井県大野市西勝原
9120201,福井県,大野市,朝日前坂,フクイケン,オオノシ,アサヒマエサカ,福井県大野市朝日前坂
9120202,福井県,大野市,角野前坂,フクイケン,オオノシ,カクノマエサカ,福井県大野市角野前坂
9120203,福井県,大野市,後野,フクイケン,オオノシ,ノチノ,福井県大野市後野
9120204,福井県,大野市,貝皿,フクイケン,オオノシ,カイザラ,福井県大野市貝皿
9120205,福井県,大野市,朝日,フクイケン,オオノシ,アサヒ,福井県大野市朝日
9120206,福井県,大野市,板倉,フクイケン,オオノシ,イタクラ,福井県大野市板倉
9120207,福井県,大野市,下山,フクイケン,オオノシ,シモヤマ,福井県大野市下山
9120211,福井県,大野市,下半原,フクイケン,オオノシ,シモハンバラ,福井県大野市下半原
9120212,福井県,大野市,箱ケ瀬,フクイケン,オオノシ,ハコガセ,福井県大野市箱ケ瀬
9120213,福井県,大野市,野尻,フクイケン,オオノシ,ノジリ,福井県大野市野尻
9120214,福井県,大野市,長野,フクイケン,オオノシ,ナガノ,福井県大野市長野
9120215,福井県,大野市,下大納,フクイケン,オオノシ,シモオオノウ,福井県大野市下大納
9120216,福井県,大野市,上大納,フクイケン,オオノシ,カミオオノウ,福井県大野市上大納
9120217,福井県,大野市,角野,フクイケン,オオノシ,カクノ,福井県大野市角野
9120218,福井県,大野市,川合,フクイケン,オオノシ,カワイ,福井県大野市川合
9120221,福井県,大野市,上半原,フクイケン,オオノシ,カミハンバラ,福井県大野市上半原
9120222,福井県,大野市,東市布,フクイケン,オオノシ,ヒガシイチヌノ,福井県大野市東市布
9120401,福井県,大野市,吉,フクイケン,オオノシ,ヨシ,福井県大野市吉
9120402,福井県,大野市,北御門,フクイケン,オオノシ,キタミカド,福井県大野市北御門
9120403,福井県,大野市,森政領家,フクイケン,オオノシ,モリマサリョウケ,福井県大野市森政領家
9120404,福井県,大野市,猪島,フクイケン,オオノシ,イノシマ,福井県大野市猪島
9120405,福井県,大野市,森政地頭,フクイケン,オオノシ,モリマサジトウ,福井県大野市森政地頭
9120411,福井県,大野市,友兼,フクイケン,オオノシ,トモカネ,福井県大野市友兼
9120412,福井県,大野市,御給,フクイケン,オオノシ,ゴキュウ,福井県大野市御給
9120413,福井県,大野市,東山,フクイケン,オオノシ,ヒガシヤマ,福井県大野市東山
9120414,福井県,大野市,野中,フクイケン,オオノシ,ノナカ,福井県大野市野中
9120415,福井県,大野市,稲郷,フクイケン,オオノシ,トウゴウ,福井県大野市稲郷
9120416,福井県,大野市,開発,フクイケン,オオノシ,カイホツ,福井県大野市開発
9120421,福井県,大野市,五條方,フクイケン,オオノシ,ゴジョウホウ,福井県大野市五條方
9120422,福井県,大野市,佐開,フクイケン,オオノシ,サビラキ,福井県大野市佐開
9120423,福井県,大野市,下若生子,フクイケン,オオノシ,シモワカゴ,福井県大野市下若生子
9120424,福井県,大野市,今井,フクイケン,オオノシ,イマイ,福井県大野市今井
9120425,福井県,大野市,平沢,フクイケン,オオノシ,ヒラサワ,福井県大野市平沢
9120426,福井県,大野市,西山,フクイケン,オオノシ,ニシヤマ,福井県大野市西山
9120427,福井県,大野市,森山,フクイケン,オオノシ,モリヤマ,福井県大野市森山
9120431,福井県,大野市,下据,フクイケン,オオノシ,シモシガラミ,福井県大野市下据
9120431,福井県,大野市,西里,フクイケン,オオノシ,ニシサト,福井県大野市西里
9120432,福井県,大野市,下郷,フクイケン,オオノシ,シモゴウ,福井県大野市下郷
9120433,福井県,大野市,木本,フクイケン,オオノシ,コノモト,福井県大野市木本
9120434,福井県,大野市,宝慶寺,フクイケン,オオノシ,ホウキョウジ,福井県大野市宝慶寺
9120435,福井県,大野市,榎,フクイケン,オオノシ,エノキ,福井県大野市榎
9120436,福井県,大野市,西据,フクイケン,オオノシ,ニシシガラミ,福井県大野市西据
9120437,福井県,大野市,中据,フクイケン,オオノシ,ナカシガラミ,福井県大野市中据
9120801,福井県,大野市,新河原,フクイケン,オオノシ,シンカワラ,福井県大野市新河原
9120802,福井県,大野市,新田,フクイケン,オオノシ,シンデン,福井県大野市新田
9120803,福井県,大野市,富嶋,フクイケン,オオノシ,トビシマ,福井県大野市富嶋
9120804,福井県,大野市,森目,フクイケン,オオノシ,モリメ,福井県大野市森目
9120805,福井県,大野市,土布子,フクイケン,オオノシ,ツチフゴ,福井県大野市土布子
9120811,福井県,大野市,土打,フクイケン,オオノシ,ツチウチ,福井県大野市土打
9120812,福井県,大野市,富塚,フクイケン,オオノシ,トミヅカ,福井県大野市富塚
9120813,福井県,大野市,上野,フクイケン,オオノシ,ウワノ,福井県大野市上野
9120814,福井県,大野市,上麻生嶋,フクイケン,オオノシ,カミアソウジマ,福井県大野市上麻生嶋
9120814,福井県,大野市,川嶋,フクイケン,オオノシ,カワシマ,福井県大野市川嶋
9120815,福井県,大野市,下麻生嶋,フクイケン,オオノシ,シモアソウジマ,福井県大野市下麻生嶋
9120821,福井県,大野市,七板,フクイケン,オオノシ,ナナイタ,福井県大野市七板
9120822,福井県,大野市,下唯野,フクイケン,オオノシ,シモユイノ,福井県大野市下唯野
9120823,福井県,大野市,蕨生,フクイケン,オオノシ,ワラビョウ,福井県大野市蕨生
9120824,福井県,大野市,木落,フクイケン,オオノシ,キオトシ,福井県大野市木落
9120825,福井県,大野市,塚原,フクイケン,オオノシ,ツカバラ,福井県大野市塚原
9120825,福井県,大野市,新塚原,フクイケン,オオノシ,シンツカバラ,福井県大野市新塚原
9120826,福井県,大野市,井ノ口,フクイケン,オオノシ,イノクチ,福井県大野市井ノ口
9120827,福井県,大野市,田野,フクイケン,オオノシ,タノ,福井県大野市田野
9130001,福井県,坂井市,三国町池上,フクイケン,サカイシ,ミクニチョウイケガミ,福井県坂井市三国町池上
9130002,福井県,坂井市,三国町加戸,フクイケン,サカイシ,ミクニチョウカド,福井県坂井市三国町加戸
9130003,福井県,坂井市,三国町西谷,フクイケン,サカイシ,ミクニチョウニシタニ,福井県坂井市三国町西谷
9130004,福井県,坂井市,三国町平山,フクイケン,サカイシ,ミクニチョウヒラヤマ,福井県坂井市三国町平山
9130005,福井県,坂井市,三国町浜地,フクイケン,サカイシ,ミクニチョウハマジ,福井県坂井市三国町浜地
9130011,福井県,坂井市,三国町水居,フクイケン,サカイシ,ミクニチョウミズイ,福井県坂井市三国町水居
9130012,福井県,坂井市,三国町西今市,フクイケン,サカイシ,ミクニチョウニシイマイチ,福井県坂井市三国町西今市
9130013,福井県,坂井市,三国町藤沢,フクイケン,サカイシ,ミクニチョウフジサワ,福井県坂井市三国町藤沢
9130014,福井県,坂井市,三国町玉江,フクイケン,サカイシ,ミクニチョウトウノエ,福井県坂井市三国町玉江
9130015,福井県,坂井市,三国町野中,フクイケン,サカイシ,ミクニチョウノナカ,福井県坂井市三国町野中
9130016,福井県,坂井市,三国町三国東,フクイケン,サカイシ,ミクニチョウミクニヒガシ,福井県坂井市三国町三国東
9130017,福井県,坂井市,三国町竹松,フクイケン,サカイシ,ミクニチョウタケマツ,福井県坂井市三国町竹松
9130021,福井県,坂井市,三国町楽円,フクイケン,サカイシ,ミクニチョウラクエン,福井県坂井市三国町楽円
9130022,福井県,坂井市,三国町油屋,フクイケン,サカイシ,ミクニチョウアブラヤ,福井県坂井市三国町油屋
9130023,福井県,坂井市,三国町石丸,フクイケン,サカイシ,ミクニチョウイシマル,福井県坂井市三国町石丸
9130024,福井県,坂井市,三国町池見,フクイケン,サカイシ,ミクニチョウイケミ,福井県坂井市三国町池見
9130025,福井県,坂井市,三国町川崎,フクイケン,サカイシ,ミクニチョウカワサキ,福井県坂井市三国町川崎
9130026,福井県,坂井市,三国町殿島,フクイケン,サカイシ,ミクニチョウトノシマ,福井県坂井市三国町殿島
9130027,福井県,坂井市,三国町汐見,フクイケン,サカイシ,ミクニチョウシオミ,福井県坂井市三国町汐見
9130031,福井県,坂井市,三国町新保（その他）,フクイケン,サカイシ,ミクニチョウシンボ(ソノタ),福井県坂井市三国町新保（その他）
9130032,福井県,坂井市,三国町山岸（その他）,フクイケン,サカイシ,ミクニチョウヤマギシ(ソノタ),福井県坂井市三国町山岸（その他）
9130033,福井県,坂井市,三国町下野,フクイケン,サカイシ,ミクニチョウシモノ,福井県坂井市三国町下野
9130034,福井県,坂井市,三国町西野中,フクイケン,サカイシ,ミクニチョウニシノナカ,福井県坂井市三国町西野中
9130035,福井県,坂井市,三国町横越,フクイケン,サカイシ,ミクニチョウヨコゴシ,福井県坂井市三国町横越
9130035,福井県,坂井市,三国町沖野々,フクイケン,サカイシ,ミクニチョウオキノノ,福井県坂井市三国町沖野々
9130036,福井県,坂井市,三国町米納津（その他）,フクイケン,サカイシ,ミクニチョウヨノヅ(ソノタ),福井県坂井市三国町米納津（その他）
9130037,福井県,坂井市,三国町黒目（その他）,フクイケン,サカイシ,ミクニチョウクロメ(ソノタ),福井県坂井市三国町黒目（その他）
9130038,福井県,坂井市,三国町山岸（テクノポート）,フクイケン,サカイシ,ミクニチョウヤマギシ(テクノポート),福井県坂井市三国町山岸（テクノポート）
9130038,福井県,坂井市,三国町新保（テクノポート）,フクイケン,サカイシ,ミクニチョウシンボ(テクノポート),福井県坂井市三国町新保（テクノポート）
9130038,福井県,坂井市,三国町米納津（テクノポート）,フクイケン,サカイシ,ミクニチョウヨノヅ(テクノポート),福井県坂井市三国町米納津（テクノポート）
9130038,福井県,坂井市,三国町黒目（テクノポート）,フクイケン,サカイシ,ミクニチョウクロメ(テクノポート),福井県坂井市三国町黒目（テクノポート）
9130041,福井県,坂井市,三国町覚善,フクイケン,サカイシ,ミクニチョウカクゼン,福井県坂井市三国町覚善
9130042,福井県,坂井市,三国町中央,フクイケン,サカイシ,ミクニチョウチュウオウ,福井県坂井市三国町中央
9130043,福井県,坂井市,三国町錦,フクイケン,サカイシ,ミクニチョウニシキ,福井県坂井市三国町錦
9130044,福井県,坂井市,三国町山王,フクイケン,サカイシ,ミクニチョウサンノウ,福井県坂井市三国町山王
9130045,福井県,坂井市,三国町南本町,フクイケン,サカイシ,ミクニチョウミナミホンマチ,福井県坂井市三国町南本町
9130046,福井県,坂井市,三国町北本町,フクイケン,サカイシ,ミクニチョウキタホンマチ,福井県坂井市三国町北本町
9130047,福井県,坂井市,三国町神明,フクイケン,サカイシ,ミクニチョウシンメイ,福井県坂井市三国町神明
9130048,福井県,坂井市,三国町緑ケ丘,フクイケン,サカイシ,ミクニチョウミドリガオカ,福井県坂井市三国町緑ケ丘
9130051,福井県,坂井市,三国町嵩,フクイケン,サカイシ,ミクニチョウダケ,福井県坂井市三国町嵩
9130052,福井県,坂井市,三国町運動公園,フクイケン,サカイシ,ミクニチョウウンドウコウエン,福井県坂井市三国町運動公園
9130053,福井県,坂井市,三国町青葉台,フクイケン,サカイシ,ミクニチョウアオバダイ,福井県坂井市三国町青葉台
9130054,福井県,坂井市,三国町滝谷,フクイケン,サカイシ,ミクニチョウタキダニ,福井県坂井市三国町滝谷
9130055,福井県,坂井市,三国町つつじが丘,フクイケン,サカイシ,ミクニチョウツツジガオカ,福井県坂井市三国町つつじが丘
9130056,福井県,坂井市,三国町宿,フクイケン,サカイシ,ミクニチョウシュク,福井県坂井市三国町宿
9130057,福井県,坂井市,三国町米ケ脇,フクイケン,サカイシ,ミクニチョウコメガワキ,福井県坂井市三国町米ケ脇
9130058,福井県,坂井市,三国町新宿,フクイケン,サカイシ,ミクニチョウシンシュク,福井県坂井市三国町新宿
9130061,福井県,坂井市,三国町梶,フクイケン,サカイシ,ミクニチョウカジ,福井県坂井市三国町梶
9130062,福井県,坂井市,三国町陣ケ岡,フクイケン,サカイシ,ミクニチョウジンガオカ,福井県坂井市三国町陣ケ岡
9130063,福井県,坂井市,三国町安島（東尋坊）,フクイケン,サカイシ,ミクニチョウアントウ(トウジンボウ),福井県坂井市三国町安島（東尋坊）
9130064,福井県,坂井市,三国町安島（その他）,フクイケン,サカイシ,ミクニチョウアントウ(ソノタ),福井県坂井市三国町安島（その他）
9130065,福井県,坂井市,三国町崎,フクイケン,サカイシ,ミクニチョウサキ,福井県坂井市三国町崎
9140000,福井県,敦賀市,,フクイケン,ツルガシ,,福井県敦賀市
9140001,福井県,敦賀市,新保,フクイケン,ツルガシ,シンボ,福井県敦賀市新保
9140002,福井県,敦賀市,葉原,フクイケン,ツルガシ,ハバラ,福井県敦賀市葉原
9140003,福井県,敦賀市,獺河内,フクイケン,ツルガシ,ウソゴウチ,福井県敦賀市獺河内
9140004,福井県,敦賀市,池河内,フクイケン,ツルガシ,イケノコウチ,福井県敦賀市池河内
9140005,福井県,敦賀市,樫曲,フクイケン,ツルガシ,カシマガリ,福井県敦賀市樫曲
9140006,福井県,敦賀市,越坂,フクイケン,ツルガシ,オッサカ,福井県敦賀市越坂
9140007,福井県,敦賀市,田尻,フクイケン,ツルガシ,タジリ,福井県敦賀市田尻
9140011,福井県,敦賀市,深山寺,フクイケン,ツルガシ,ミヤマデラ,福井県敦賀市深山寺
9140012,福井県,敦賀市,川北,フクイケン,ツルガシ,カワキタ,福井県敦賀市川北
9140013,福井県,敦賀市,谷口,フクイケン,ツルガシ,タニグチ,福井県敦賀市谷口
9140014,福井県,敦賀市,井川,フクイケン,ツルガシ,イガワ,福井県敦賀市井川
9140015,福井県,敦賀市,河原町,フクイケン,ツルガシ,カワハラチョウ,福井県敦賀市河原町
9140016,福井県,敦賀市,余座,フクイケン,ツルガシ,ヨザ,福井県敦賀市余座
9140017,福井県,敦賀市,藤ケ丘町,フクイケン,ツルガシ,フジガオカチョウ,福井県敦賀市藤ケ丘町
9140018,福井県,敦賀市,大蔵,フクイケン,ツルガシ,オオクラ,福井県敦賀市大蔵
9140021,福井県,敦賀市,泉ケ丘町,フクイケン,ツルガシ,イズミガオカチョウ,福井県敦賀市泉ケ丘町
9140022,福井県,敦賀市,高野,フクイケン,ツルガシ,タカノ,福井県敦賀市高野
9140023,福井県,敦賀市,深川町,フクイケン,ツルガシ,フカガワチョウ,福井県敦賀市深川町
9140024,福井県,敦賀市,吉河,フクイケン,ツルガシ,ヨシコ,福井県敦賀市吉河
9140025,福井県,敦賀市,樋ノ水町,フクイケン,ツルガシ,ヒノミズチョウ,福井県敦賀市樋ノ水町
9140026,福井県,敦賀市,木ノ芽町,フクイケン,ツルガシ,キノメチョウ,福井県敦賀市木ノ芽町
9140027,福井県,敦賀市,若泉町,フクイケン,ツルガシ,ワカイズミチョウ,福井県敦賀市若泉町
9140028,福井県,敦賀市,中,フクイケン,ツルガシ,ナカ,福井県敦賀市中
9140031,福井県,敦賀市,谷,フクイケン,ツルガシ,タニ,福井県敦賀市谷
9140032,福井県,敦賀市,小河,フクイケン,ツルガシ,オゴ,福井県敦賀市小河
9140033,福井県,敦賀市,鳩原,フクイケン,ツルガシ,ハトハラ,福井県敦賀市鳩原
9140034,福井県,敦賀市,小河口,フクイケン,ツルガシ,オゴグチ,福井県敦賀市小河口
9140035,福井県,敦賀市,山泉,フクイケン,ツルガシ,ヤマシミズ,福井県敦賀市山泉
9140036,福井県,敦賀市,堂,フクイケン,ツルガシ,ドウ,福井県敦賀市堂
9140037,福井県,敦賀市,道口,フクイケン,ツルガシ,ミチノクチ,福井県敦賀市道口
9140038,福井県,敦賀市,坂下,フクイケン,ツルガシ,サカノシタ,福井県敦賀市坂下
9140039,福井県,敦賀市,羽織町,フクイケン,ツルガシ,ハオリチョウ,福井県敦賀市羽織町
9140039,福井県,敦賀市,観音町,フクイケン,ツルガシ,カンノンチョウ,福井県敦賀市観音町
9140041,福井県,敦賀市,布田町,フクイケン,ツルガシ,ヌノダチョウ,福井県敦賀市布田町
9140042,福井県,敦賀市,石ケ町,フクイケン,ツルガシ,イシガチョウ,福井県敦賀市石ケ町
9140043,福井県,敦賀市,衣掛町,フクイケン,ツルガシ,キヌカケチョウ,福井県敦賀市衣掛町
9140044,福井県,敦賀市,岡山町,フクイケン,ツルガシ,オカヤマチョウ,福井県敦賀市岡山町
9140045,福井県,敦賀市,古田刈,フクイケン,ツルガシ,コタカリ,福井県敦賀市古田刈
9140046,福井県,敦賀市,長沢,フクイケン,ツルガシ,ナガソ,福井県敦賀市長沢
9140047,福井県,敦賀市,東洋町,フクイケン,ツルガシ,トウヨウチョウ,福井県敦賀市東洋町
9140051,福井県,敦賀市,本町,フクイケン,ツルガシ,ホンマチ,福井県敦賀市本町
9140052,福井県,敦賀市,清水町,フクイケン,ツルガシ,キヨミズチョウ,福井県敦賀市清水町
9140053,福井県,敦賀市,舞崎町,フクイケン,ツルガシ,マイザキチョウ,福井県敦賀市舞崎町
9140054,福井県,敦賀市,白銀町,フクイケン,ツルガシ,シロガネチョウ,福井県敦賀市白銀町
9140055,福井県,敦賀市,鉄輪町,フクイケン,ツルガシ,カナワチョウ,福井県敦賀市鉄輪町
9140056,福井県,敦賀市,津内町,フクイケン,ツルガシ,ツナイチョウ,福井県敦賀市津内町
9140057,福井県,敦賀市,開町,フクイケン,ツルガシ,ヒラキチョウ,福井県敦賀市開町
9140058,福井県,敦賀市,三島町,フクイケン,ツルガシ,ミシマチョウ,福井県敦賀市三島町
9140059,福井県,敦賀市,国広町,フクイケン,ツルガシ,クニヒロチョウ,福井県敦賀市国広町
9140061,福井県,敦賀市,蓬莱町,フクイケン,ツルガシ,ホウライチョウ,福井県敦賀市蓬莱町
9140062,福井県,敦賀市,相生町,フクイケン,ツルガシ,アイオイチョウ,福井県敦賀市相生町
9140063,福井県,敦賀市,神楽町,フクイケン,ツルガシ,カグラチョウ,福井県敦賀市神楽町
9140064,福井県,敦賀市,結城町,フクイケン,ツルガシ,ユウキチョウ,福井県敦賀市結城町
9140065,福井県,敦賀市,松栄町,フクイケン,ツルガシ,マツエチョウ,福井県敦賀市松栄町
9140066,福井県,敦賀市,川崎町,フクイケン,ツルガシ,カワサキチョウ,福井県敦賀市川崎町
9140071,福井県,敦賀市,泉,フクイケン,ツルガシ,シミズ,福井県敦賀市泉
9140072,福井県,敦賀市,金ケ崎町,フクイケン,ツルガシ,カネガサキチョウ,福井県敦賀市金ケ崎町
9140073,福井県,敦賀市,天筒町,フクイケン,ツルガシ,テヅツチョウ,福井県敦賀市天筒町
9140074,福井県,敦賀市,角鹿町,フクイケン,ツルガシ,ツノガチョウ,福井県敦賀市角鹿町
9140075,福井県,敦賀市,曙町,フクイケン,ツルガシ,アケボノチョウ,福井県敦賀市曙町
9140076,福井県,敦賀市,元町,フクイケン,ツルガシ,モトマチ,福井県敦賀市元町
9140077,福井県,敦賀市,栄新町,フクイケン,ツルガシ,サカエシンマチ,福井県敦賀市栄新町
9140078,福井県,敦賀市,桜町,フクイケン,ツルガシ,サクラチョウ,福井県敦賀市桜町
9140079,福井県,敦賀市,港町,フクイケン,ツルガシ,ミナトマチ,福井県敦賀市港町
9140121,福井県,敦賀市,野神,フクイケン,ツルガシ,ノガミ,福井県敦賀市野神
9140122,福井県,敦賀市,新和町,フクイケン,ツルガシ,シンワチョウ,福井県敦賀市新和町
9140123,福井県,敦賀市,和久野,フクイケン,ツルガシ,ワクノ,福井県敦賀市和久野
9140124,福井県,敦賀市,市野々,フクイケン,ツルガシ,イチノノ,福井県敦賀市市野々
9140124,福井県,敦賀市,市野々町,フクイケン,ツルガシ,イチノノチョウ,福井県敦賀市市野々町
9140125,福井県,敦賀市,若葉町,フクイケン,ツルガシ,ワカバチョウ,福井県敦賀市若葉町
9140131,福井県,敦賀市,公文名,フクイケン,ツルガシ,クモンミョウ,福井県敦賀市公文名
9140132,福井県,敦賀市,御名,フクイケン,ツルガシ,ゴミョウ,福井県敦賀市御名
9140133,福井県,敦賀市,みどりケ丘町,フクイケン,ツルガシ,ミドリガオカチョウ,福井県敦賀市みどりケ丘町
9140134,福井県,敦賀市,山,フクイケン,ツルガシ,ヤマ,福井県敦賀市山
9140135,福井県,敦賀市,長谷,フクイケン,ツルガシ,ナガタニ,福井県敦賀市長谷
9140136,福井県,敦賀市,砂流,フクイケン,ツルガシ,スナガレ,福井県敦賀市砂流
9140137,福井県,敦賀市,ひばりケ丘町,フクイケン,ツルガシ,ヒバリガオカチョウ,福井県敦賀市ひばりケ丘町
9140138,福井県,敦賀市,櫛林,フクイケン,ツルガシ,クシバヤシ,福井県敦賀市櫛林
9140141,福井県,敦賀市,莇生野,フクイケン,ツルガシ,アゾノ,福井県敦賀市莇生野
9140142,福井県,敦賀市,萩野町,フクイケン,ツルガシ,ハギノチョウ,福井県敦賀市萩野町
9140143,福井県,敦賀市,沢,フクイケン,ツルガシ,サワ,福井県敦賀市沢
9140144,福井県,敦賀市,桜ケ丘町,フクイケン,ツルガシ,サクラガオカチョウ,福井県敦賀市桜ケ丘町
9140145,福井県,敦賀市,野坂,フクイケン,ツルガシ,ノサカ,福井県敦賀市野坂
9140146,福井県,敦賀市,金山,フクイケン,ツルガシ,カナヤマ,福井県敦賀市金山
9140147,福井県,敦賀市,関,フクイケン,ツルガシ,セキ,福井県敦賀市関
9140261,福井県,敦賀市,元比田,フクイケン,ツルガシ,モトヒダ,福井県敦賀市元比田
9140262,福井県,敦賀市,大比田,フクイケン,ツルガシ,オオヒダ,福井県敦賀市大比田
9140263,福井県,敦賀市,横浜,フクイケン,ツルガシ,ヨコハマ,福井県敦賀市横浜
9140264,福井県,敦賀市,杉津,フクイケン,ツルガシ,スイヅ,福井県敦賀市杉津
9140265,福井県,敦賀市,阿曽,フクイケン,ツルガシ,アゾ,福井県敦賀市阿曽
9140266,福井県,敦賀市,挙野,フクイケン,ツルガシ,アゲノ,福井県敦賀市挙野
9140267,福井県,敦賀市,五幡,フクイケン,ツルガシ,イツハタ,福井県敦賀市五幡
9140268,福井県,敦賀市,江良,フクイケン,ツルガシ,エラ,福井県敦賀市江良
9140271,福井県,敦賀市,泉（東浦）,フクイケン,ツルガシ,シミズ(ヒガシウラ),福井県敦賀市泉（東浦）
9140272,福井県,敦賀市,赤崎,フクイケン,ツルガシ,アカサキ,福井県敦賀市赤崎
9140273,福井県,敦賀市,田結,フクイケン,ツルガシ,タイ,福井県敦賀市田結
9140274,福井県,敦賀市,鞠山,フクイケン,ツルガシ,マルヤマ,福井県敦賀市鞠山
9140301,福井県,敦賀市,市橋,フクイケン,ツルガシ,イチハシ,福井県敦賀市市橋
9140302,福井県,敦賀市,疋田,フクイケン,ツルガシ,ヒキダ,福井県敦賀市疋田
9140303,福井県,敦賀市,追分,フクイケン,ツルガシ,オイワケ,福井県敦賀市追分
9140304,福井県,敦賀市,深坂,フクイケン,ツルガシ,フカサカ,福井県敦賀市深坂
9140305,福井県,敦賀市,駄口,フクイケン,ツルガシ,ダグチ,福井県敦賀市駄口
9140306,福井県,敦賀市,山中,フクイケン,ツルガシ,ヤマナカ,福井県敦賀市山中
9140311,福井県,敦賀市,奥野,フクイケン,ツルガシ,オクノ,福井県敦賀市奥野
9140312,福井県,敦賀市,曽々木,フクイケン,ツルガシ,ソソギ,福井県敦賀市曽々木
9140313,福井県,敦賀市,刀根,フクイケン,ツルガシ,トネ,福井県敦賀市刀根
9140314,福井県,敦賀市,杉箸,フクイケン,ツルガシ,スギハシ,福井県敦賀市杉箸
9140315,福井県,敦賀市,麻生口,フクイケン,ツルガシ,アソウグチ,福井県敦賀市麻生口
9140316,福井県,敦賀市,奥麻生,フクイケン,ツルガシ,オクアソウ,福井県敦賀市奥麻生
9140317,福井県,敦賀市,新道,フクイケン,ツルガシ,シンドウ,福井県敦賀市新道
9140801,福井県,敦賀市,松島町,フクイケン,ツルガシ,マツシマチョウ,福井県敦賀市松島町
9140802,福井県,敦賀市,呉竹町,フクイケン,ツルガシ,クレタケチョウ,福井県敦賀市呉竹町
9140803,福井県,敦賀市,新松島町,フクイケン,ツルガシ,シンマツシマチョウ,福井県敦賀市新松島町
9140805,福井県,敦賀市,鋳物師町,フクイケン,ツルガシ,イモジチョウ,福井県敦賀市鋳物師町
9140806,福井県,敦賀市,松原町,フクイケン,ツルガシ,マツバラチョウ,福井県敦賀市松原町
9140807,福井県,敦賀市,松葉町,フクイケン,ツルガシ,マツバチョウ,福井県敦賀市松葉町
9140811,福井県,敦賀市,中央町,フクイケン,ツルガシ,チュウオウチョウ,福井県敦賀市中央町
9140812,福井県,敦賀市,昭和町,フクイケン,ツルガシ,ショウワチョウ,福井県敦賀市昭和町
9140813,福井県,敦賀市,呉羽町,フクイケン,ツルガシ,クレハチョウ,福井県敦賀市呉羽町
9140814,福井県,敦賀市,木崎,フクイケン,ツルガシ,キザキ,福井県敦賀市木崎
9140815,福井県,敦賀市,平和町,フクイケン,ツルガシ,ヘイワチョウ,福井県敦賀市平和町
9140821,福井県,敦賀市,櫛川,フクイケン,ツルガシ,クシカワ,福井県敦賀市櫛川
9140822,福井県,敦賀市,櫛川町,フクイケン,ツルガシ,クシカワチョウ,福井県敦賀市櫛川町
9140823,福井県,敦賀市,沓見,フクイケン,ツルガシ,クツミ,福井県敦賀市沓見
9140824,福井県,敦賀市,原,フクイケン,ツルガシ,ハラ,福井県敦賀市原
9140825,福井県,敦賀市,永大町,フクイケン,ツルガシ,エイダイチョウ,福井県敦賀市永大町
9140831,福井県,敦賀市,沓,フクイケン,ツルガシ,クツ,福井県敦賀市沓
9140832,福井県,敦賀市,常宮,フクイケン,ツルガシ,ジョウグウ,福井県敦賀市常宮
9140833,福井県,敦賀市,縄間,フクイケン,ツルガシ,ノウマ,福井県敦賀市縄間
9140834,福井県,敦賀市,名子,フクイケン,ツルガシ,ナゴ,福井県敦賀市名子
9140835,福井県,敦賀市,二村,フクイケン,ツルガシ,フタムラ,福井県敦賀市二村
9140841,福井県,敦賀市,立石,フクイケン,ツルガシ,タテイシ,福井県敦賀市立石
9140842,福井県,敦賀市,明神町,フクイケン,ツルガシ,ミョウジンチョウ,福井県敦賀市明神町
9140843,福井県,敦賀市,浦底,フクイケン,ツルガシ,ウラソコ,福井県敦賀市浦底
9140844,福井県,敦賀市,色浜,フクイケン,ツルガシ,イロハマ,福井県敦賀市色浜
9140845,福井県,敦賀市,手,フクイケン,ツルガシ,テ,福井県敦賀市手
9150000,福井県,越前市,,フクイケン,エチゼンシ,,福井県越前市
9150001,福井県,越前市,中新庄町,フクイケン,エチゼンシ,ナカシンジョウチョウ,福井県越前市中新庄町
9150002,福井県,越前市,長尾町,フクイケン,エチゼンシ,ナガオチョウ,福井県越前市長尾町
9150003,福井県,越前市,戸谷町,フクイケン,エチゼンシ,トタニチョウ,福井県越前市戸谷町
9150004,福井県,越前市,北町,フクイケン,エチゼンシ,キタチョウ,福井県越前市北町
9150005,福井県,越前市,真柄町,フクイケン,エチゼンシ,マカラチョウ,福井県越前市真柄町
9150006,福井県,越前市,杉崎町,フクイケン,エチゼンシ,スギサキチョウ,福井県越前市杉崎町
9150007,福井県,越前市,三ツ屋町,フクイケン,エチゼンシ,ミツヤチョウ,福井県越前市三ツ屋町
9150011,福井県,越前市,上真柄町,フクイケン,エチゼンシ,カミマカラチョウ,福井県越前市上真柄町
9150011,福井県,越前市,金屋町,フクイケン,エチゼンシ,カナヤチョウ,福井県越前市金屋町
9150012,福井県,越前市,清水頭町,フクイケン,エチゼンシ,シミズガシラチョウ,福井県越前市清水頭町
9150013,福井県,越前市,上真柄宮谷入会地,フクイケン,エチゼンシ,カミマカラミヤダニイリアイチ,福井県越前市上真柄宮谷入会地
9150013,福井県,越前市,宮谷町,フクイケン,エチゼンシ,ミヤダニチョウ,福井県越前市宮谷町
9150014,福井県,越前市,西尾町,フクイケン,エチゼンシ,ニシオチョウ,福井県越前市西尾町
9150015,福井県,越前市,大手町,フクイケン,エチゼンシ,オオデチョウ,福井県越前市大手町
9150016,福井県,越前市,岩内町,フクイケン,エチゼンシ,イワウチチョウ,福井県越前市岩内町
9150021,福井県,越前市,北小山町,フクイケン,エチゼンシ,キタオヤマチョウ,福井県越前市北小山町
9150022,福井県,越前市,南小山町,フクイケン,エチゼンシ,ミナミオヤマチョウ,福井県越前市南小山町
9150023,福井県,越前市,池泉町,フクイケン,エチゼンシ,イケイズミチョウ,福井県越前市池泉町
9150024,福井県,越前市,上大坪町,フクイケン,エチゼンシ,カミオオツボチョウ,福井県越前市上大坪町
9150025,福井県,越前市,味真野町,フクイケン,エチゼンシ,アジマノチョウ,福井県越前市味真野町
9150026,福井県,越前市,五分市町,フクイケン,エチゼンシ,ゴブイチチョウ,福井県越前市五分市町
9150031,福井県,越前市,余川町,フクイケン,エチゼンシ,ヨカワチョウ,福井県越前市余川町
9150032,福井県,越前市,檜尾谷町,フクイケン,エチゼンシ,ヒオダニチョウ,福井県越前市檜尾谷町
9150033,福井県,越前市,蓑脇町,フクイケン,エチゼンシ,ミノワキチョウ,福井県越前市蓑脇町
9150034,福井県,越前市,中居町,フクイケン,エチゼンシ,ナカイチョウ,福井県越前市中居町
9150035,福井県,越前市,入谷町,フクイケン,エチゼンシ,イリタニチョウ,福井県越前市入谷町
9150036,福井県,越前市,文室町,フクイケン,エチゼンシ,フムロチョウ,福井県越前市文室町
9150037,福井県,越前市,萱谷町,フクイケン,エチゼンシ,カヤダニチョウ,福井県越前市萱谷町
9150041,福井県,越前市,葛岡町,フクイケン,エチゼンシ,クズオカチョウ,福井県越前市葛岡町
9150042,福井県,越前市,大屋町,フクイケン,エチゼンシ,オオヤチョウ,福井県越前市大屋町
9150043,福井県,越前市,庄田町,フクイケン,エチゼンシ,ショウデンチョウ,福井県越前市庄田町
9150044,福井県,越前市,平林町,フクイケン,エチゼンシ,ヒラバヤシチョウ,福井県越前市平林町
9150045,福井県,越前市,荒谷町,フクイケン,エチゼンシ,アラタニチョウ,福井県越前市荒谷町
9150046,福井県,越前市,西谷町,フクイケン,エチゼンシ,ニシタニチョウ,福井県越前市西谷町
9150051,福井県,越前市,帆山町,フクイケン,エチゼンシ,ホヤマチョウ,福井県越前市帆山町
9150052,福井県,越前市,矢放町,フクイケン,エチゼンシ,ヤハナシチョウ,福井県越前市矢放町
9150053,福井県,越前市,問屋町,フクイケン,エチゼンシ,トンヤマチ,福井県越前市問屋町
9150054,福井県,越前市,小野谷町,フクイケン,エチゼンシ,オノダニチョウ,福井県越前市小野谷町
9150055,福井県,越前市,畑町,フクイケン,エチゼンシ,ハタチョウ,福井県越前市畑町
9150056,福井県,越前市,向新保町,フクイケン,エチゼンシ,ムカイシンボチョウ,福井県越前市向新保町
9150057,福井県,越前市,矢船町,フクイケン,エチゼンシ,ヤフネチョウ,福井県越前市矢船町
9150061,福井県,越前市,堀川町,フクイケン,エチゼンシ,ホリカワチョウ,福井県越前市堀川町
9150062,福井県,越前市,姫川,フクイケン,エチゼンシ,ヒメカワ,福井県越前市姫川
9150063,福井県,越前市,若竹町,フクイケン,エチゼンシ,ワカタケチョウ,福井県越前市若竹町
9150064,福井県,越前市,あおば町,フクイケン,エチゼンシ,アオバチョウ,福井県越前市あおば町
9150065,福井県,越前市,豊町,フクイケン,エチゼンシ,ユタカチョウ,福井県越前市豊町
9150066,福井県,越前市,神明町,フクイケン,エチゼンシ,シンメイチョウ,福井県越前市神明町
9150067,福井県,越前市,住吉町,フクイケン,エチゼンシ,スミヨシチョウ,福井県越前市住吉町
9150068,福井県,越前市,天王町,フクイケン,エチゼンシ,テンノウチョウ,福井県越前市天王町
9150069,福井県,越前市,吾妻町,フクイケン,エチゼンシ,アヅマチョウ,福井県越前市吾妻町
9150071,福井県,越前市,府中,フクイケン,エチゼンシ,フチュウ,福井県越前市府中
9150072,福井県,越前市,万代町,フクイケン,エチゼンシ,バンダイチョウ,福井県越前市万代町
9150073,福井県,越前市,錦町,フクイケン,エチゼンシ,ニシキチョウ,福井県越前市錦町
9150074,福井県,越前市,蓬莱町,フクイケン,エチゼンシ,ホウライチョウ,福井県越前市蓬莱町
9150075,福井県,越前市,幸町,フクイケン,エチゼンシ,サイワイチョウ,福井県越前市幸町
9150076,福井県,越前市,国府,フクイケン,エチゼンシ,コクフ,福井県越前市国府
9150081,福井県,越前市,馬上免町,フクイケン,エチゼンシ,バジョウメチョウ,福井県越前市馬上免町
9150082,福井県,越前市,国高,フクイケン,エチゼンシ,クニタカ,福井県越前市国高
9150083,福井県,越前市,押田,フクイケン,エチゼンシ,オシダ,福井県越前市押田
9150084,福井県,越前市,村国,フクイケン,エチゼンシ,ムラクニ,福井県越前市村国
9150085,福井県,越前市,八幡,フクイケン,エチゼンシ,ハチマン,福井県越前市八幡
9150091,福井県,越前市,高木町,フクイケン,エチゼンシ,タカギチョウ,福井県越前市高木町
9150092,福井県,越前市,塚町,フクイケン,エチゼンシ,ツカチョウ,福井県越前市塚町
9150093,福井県,越前市,庄町,フクイケン,エチゼンシ,ショウチョウ,福井県越前市庄町
9150094,福井県,越前市,横市町,フクイケン,エチゼンシ,ヨコイチチョウ,福井県越前市横市町
9150095,福井県,越前市,稲寄町,フクイケン,エチゼンシ,イナヨセチョウ,福井県越前市稲寄町
9150096,福井県,越前市,瓜生町,フクイケン,エチゼンシ,ウリュウチョウ,福井県越前市瓜生町
9150097,福井県,越前市,長土呂町,フクイケン,エチゼンシ,ナガトロチョウ,福井県越前市長土呂町
9150201,福井県,越前市,西河内町,フクイケン,エチゼンシ,ニシコウチチョウ,福井県越前市西河内町
9150202,福井県,越前市,相木町,フクイケン,エチゼンシ,アイノキチョウ,福井県越前市相木町
9150203,福井県,越前市,横住町,フクイケン,エチゼンシ,ヨコズミチョウ,福井県越前市横住町
9150203,福井県,越前市,清根町,フクイケン,エチゼンシ,キヨネチョウ,福井県越前市清根町
9150204,福井県,越前市,寺地町,フクイケン,エチゼンシ,テラジチョウ,福井県越前市寺地町
9150205,福井県,越前市,波垣町,フクイケン,エチゼンシ,ナミガキチョウ,福井県越前市波垣町
9150206,福井県,越前市,春山町,フクイケン,エチゼンシ,ハルヤマチョウ,福井県越前市春山町
9150207,福井県,越前市,東樫尾町,フクイケン,エチゼンシ,ヒガシカシオチョウ,福井県越前市東樫尾町
9150208,福井県,越前市,領家町,フクイケン,エチゼンシ,リョウケチョウ,福井県越前市領家町
9150209,福井県,越前市,藤木町,フクイケン,エチゼンシ,フジノキチョウ,福井県越前市藤木町
9150211,福井県,越前市,室谷町,フクイケン,エチゼンシ,ムロタニチョウ,福井県越前市室谷町
9150212,福井県,越前市,長谷町,フクイケン,エチゼンシ,ナガタニチョウ,福井県越前市長谷町
9150213,福井県,越前市,南中町,フクイケン,エチゼンシ,ミナミナカチョウ,福井県越前市南中町
9150214,福井県,越前市,赤谷町,フクイケン,エチゼンシ,アカタニチョウ,福井県越前市赤谷町
9150215,福井県,越前市,柳元町,フクイケン,エチゼンシ,ヤナギモトマチ,福井県越前市柳元町
9150216,福井県,越前市,市野々町,フクイケン,エチゼンシ,イチノノチョウ,福井県越前市市野々町
9150217,福井県,越前市,水間町,フクイケン,エチゼンシ,ミズマチョウ,福井県越前市水間町
9150218,福井県,越前市,大谷町,フクイケン,エチゼンシ,オオタニチョウ,福井県越前市大谷町
9150219,福井県,越前市,北坂下町,フクイケン,エチゼンシ,キタサカシタチョウ,福井県越前市北坂下町
9150219,福井県,越前市,殿町,フクイケン,エチゼンシ,トノチョウ,福井県越前市殿町
9150221,福井県,越前市,杉尾町,フクイケン,エチゼンシ,スギオチョウ,福井県越前市杉尾町
9150222,福井県,越前市,轟井町,フクイケン,エチゼンシ,トドロイチョウ,福井県越前市轟井町
9150223,福井県,越前市,島町,フクイケン,エチゼンシ,シマチョウ,福井県越前市島町
9150223,福井県,越前市,長五町,フクイケン,エチゼンシ,チョウゴチョウ,福井県越前市長五町
9150224,福井県,越前市,八石町,フクイケン,エチゼンシ,ハチコクチョウ,福井県越前市八石町
9150225,福井県,越前市,別印町,フクイケン,エチゼンシ,ベツインチョウ,福井県越前市別印町
9150226,福井県,越前市,南坂下町,フクイケン,エチゼンシ,ミナミサカシタチョウ,福井県越前市南坂下町
9150227,福井県,越前市,中印町,フクイケン,エチゼンシ,ナカインチョウ,福井県越前市中印町
9150228,福井県,越前市,大平町,フクイケン,エチゼンシ,オオヒラチョウ,福井県越前市大平町
9150231,福井県,越前市,定友町,フクイケン,エチゼンシ,サダトモチョウ,福井県越前市定友町
9150232,福井県,越前市,新在家町,フクイケン,エチゼンシ,シンザイケチョウ,福井県越前市新在家町
9150233,福井県,越前市,岩本町,フクイケン,エチゼンシ,イワモトチョウ,福井県越前市岩本町
9150234,福井県,越前市,大滝町,フクイケン,エチゼンシ,オオタキチョウ,福井県越前市大滝町
9150235,福井県,越前市,不老町,フクイケン,エチゼンシ,オイズチョウ,福井県越前市不老町
9150241,福井県,越前市,粟田部町中央,フクイケン,エチゼンシ,アワタベチョウチュウオウ,福井県越前市粟田部町中央
9150242,福井県,越前市,粟田部町,フクイケン,エチゼンシ,アワタベチョウ,福井県越前市粟田部町
9150243,福井県,越前市,千原町,フクイケン,エチゼンシ,チハラチョウ,福井県越前市千原町
9150244,福井県,越前市,西樫尾町,フクイケン,エチゼンシ,ニシカシオチョウ,福井県越前市西樫尾町
9150251,福井県,越前市,東庄境町,フクイケン,エチゼンシ,ヒガシショウザカイチョウ,福井県越前市東庄境町
9150252,福井県,越前市,西庄境町,フクイケン,エチゼンシ,ニシショウザカイチョウ,福井県越前市西庄境町
9150253,福井県,越前市,中津山町,フクイケン,エチゼンシ,ナカツヤマチョウ,福井県越前市中津山町
9150254,福井県,越前市,国中町,フクイケン,エチゼンシ,クニナカチョウ,福井県越前市国中町
9150255,福井県,越前市,新堂町,フクイケン,エチゼンシ,シンドウチョウ,福井県越前市新堂町
9150256,福井県,越前市,赤坂町,フクイケン,エチゼンシ,アカサカチョウ,福井県越前市赤坂町
9150261,福井県,越前市,朽飯町,フクイケン,エチゼンシ,クダシチョウ,福井県越前市朽飯町
9150262,福井県,越前市,高岡町,フクイケン,エチゼンシ,タカオカチョウ,福井県越前市高岡町
9150263,福井県,越前市,山室町,フクイケン,エチゼンシ,ヤマムロチョウ,福井県越前市山室町
9150264,福井県,越前市,野岡町,フクイケン,エチゼンシ,ノオカチョウ,福井県越前市野岡町
9150265,福井県,越前市,仲山,フクイケン,エチゼンシ,ナカヤマ,福井県越前市仲山
9150801,福井県,越前市,家久町,フクイケン,エチゼンシ,イエヒサチョウ,福井県越前市家久町
9150802,福井県,越前市,北府,フクイケン,エチゼンシ,キタゴ,福井県越前市北府
9150802,福井県,越前市,北府本町,フクイケン,エチゼンシ,キタゴホンマチ,福井県越前市北府本町
9150803,福井県,越前市,平出,フクイケン,エチゼンシ,ヒライデ,福井県越前市平出
9150804,福井県,越前市,新保,フクイケン,エチゼンシ,シンボ,福井県越前市新保
9150804,福井県,越前市,新保町,フクイケン,エチゼンシ,シンボチョウ,福井県越前市新保町
9150805,福井県,越前市,芝原,フクイケン,エチゼンシ,シバハラ,福井県越前市芝原
9150806,福井県,越前市,本保町,フクイケン,エチゼンシ,ホンボチョウ,福井県越前市本保町
9150811,福井県,越前市,本多,フクイケン,エチゼンシ,ホンダ,福井県越前市本多
9150812,福井県,越前市,桂町,フクイケン,エチゼンシ,カツラチョウ,福井県越前市桂町
9150813,福井県,越前市,京町,フクイケン,エチゼンシ,キョウマチ,福井県越前市京町
9150814,福井県,越前市,中央,フクイケン,エチゼンシ,チュウオウ,福井県越前市中央
9150815,福井県,越前市,深草,フクイケン,エチゼンシ,フカクサ,福井県越前市深草
9150816,福井県,越前市,小松,フクイケン,エチゼンシ,コマツ,福井県越前市小松
9150821,福井県,越前市,若松町,フクイケン,エチゼンシ,ワカマツチョウ,福井県越前市若松町
9150822,福井県,越前市,元町,フクイケン,エチゼンシ,モトマチ,福井県越前市元町
9150823,福井県,越前市,本町,フクイケン,エチゼンシ,ホンマチ,福井県越前市本町
9150824,福井県,越前市,武生柳町,フクイケン,エチゼンシ,タケフヤナギチョウ,福井県越前市武生柳町
9150825,福井県,越前市,南,フクイケン,エチゼンシ,ミナミ,福井県越前市南
9150826,福井県,越前市,御幸町,フクイケン,エチゼンシ,ミユキチョウ,福井県越前市御幸町
9150827,福井県,越前市,平和町,フクイケン,エチゼンシ,ヘイワチョウ,福井県越前市平和町
9150831,福井県,越前市,日野美,フクイケン,エチゼンシ,ヒノミ,福井県越前市日野美
9150832,福井県,越前市,高瀬,フクイケン,エチゼンシ,タカセ,福井県越前市高瀬
9150833,福井県,越前市,沢町,フクイケン,エチゼンシ,サワチョウ,福井県越前市沢町
9150834,福井県,越前市,北千福町,フクイケン,エチゼンシ,キタセンプクチョウ,福井県越前市北千福町
9150835,福井県,越前市,岡本町,フクイケン,エチゼンシ,オカモトチョウ,福井県越前市岡本町
9150836,福井県,越前市,野上町,フクイケン,エチゼンシ,ノガミマチ,福井県越前市野上町
9150841,福井県,越前市,文京,フクイケン,エチゼンシ,ブンキョウ,福井県越前市文京
9150842,福井県,越前市,常久町,フクイケン,エチゼンシ,ツネヒサチョウ,福井県越前市常久町
9150843,福井県,越前市,月見町,フクイケン,エチゼンシ,ツキミチョウ,福井県越前市月見町
9150844,福井県,越前市,妙法寺町,フクイケン,エチゼンシ,ミョウホウジチョウ,福井県越前市妙法寺町
9150845,福井県,越前市,三ツ口町,フクイケン,エチゼンシ,ミツクチチョウ,福井県越前市三ツ口町
9150846,福井県,越前市,千福町,フクイケン,エチゼンシ,センプクチョウ,福井県越前市千福町
9150847,福井県,越前市,東千福町,フクイケン,エチゼンシ,ヒガシセンプクチョウ,福井県越前市東千福町
9150851,福井県,越前市,畷町,フクイケン,エチゼンシ,ナワテチョウ,福井県越前市畷町
9150852,福井県,越前市,松森町,フクイケン,エチゼンシ,マツモリチョウ,福井県越前市松森町
9150853,福井県,越前市,行松町,フクイケン,エチゼンシ,ユキマツチョウ,福井県越前市行松町
9150854,福井県,越前市,富士見が丘,フクイケン,エチゼンシ,フジミガオカ,福井県越前市富士見が丘
9150855,福井県,越前市,下平吹町,フクイケン,エチゼンシ,シモヒラブキチョウ,福井県越前市下平吹町
9150856,福井県,越前市,中平吹町,フクイケン,エチゼンシ,ナカヒラブキチョウ,福井県越前市中平吹町
9150857,福井県,越前市,四郎丸町,フクイケン,エチゼンシ,シロウマルチョウ,福井県越前市四郎丸町
9150861,福井県,越前市,今宿町,フクイケン,エチゼンシ,イマジュクチョウ,福井県越前市今宿町
9150862,福井県,越前市,国兼町,フクイケン,エチゼンシ,クニカネチョウ,福井県越前市国兼町
9150863,福井県,越前市,大塩町,フクイケン,エチゼンシ,オオシオチョウ,福井県越前市大塩町
9150864,福井県,越前市,上小松町,フクイケン,エチゼンシ,カミコマツチョウ,福井県越前市上小松町
9150865,福井県,越前市,森久町,フクイケン,エチゼンシ,モリヒサチョウ,福井県越前市森久町
9150865,福井県,越前市,瓜生野町,フクイケン,エチゼンシ,ウリュウノチョウ,福井県越前市瓜生野町
9150871,福井県,越前市,向が丘町,フクイケン,エチゼンシ,ムカイガオカチョウ,福井県越前市向が丘町
9150872,福井県,越前市,広瀬町,フクイケン,エチゼンシ,ヒロセチョウ,福井県越前市広瀬町
9150873,福井県,越前市,池ノ上町,フクイケン,エチゼンシ,イケノカミチョウ,福井県越前市池ノ上町
9150874,福井県,越前市,向陽町,フクイケン,エチゼンシ,コウヨウチョウ,福井県越前市向陽町
9150875,福井県,越前市,塚原町,フクイケン,エチゼンシ,ツカバラチョウ,福井県越前市塚原町
9150876,福井県,越前市,白崎町,フクイケン,エチゼンシ,シロサキチョウ,福井県越前市白崎町
9150877,福井県,越前市,春日野町,フクイケン,エチゼンシ,カスガノチョウ,福井県越前市春日野町
9150881,福井県,越前市,下太田町,フクイケン,エチゼンシ,シモオオダチョウ,福井県越前市下太田町
9150882,福井県,越前市,上太田町,フクイケン,エチゼンシ,カミオオダチョウ,福井県越前市上太田町
9150883,福井県,越前市,新町,フクイケン,エチゼンシ,シンチョウ,福井県越前市新町
9150884,福井県,越前市,大虫本町,フクイケン,エチゼンシ,オオムシホンチョウ,福井県越前市大虫本町
9150885,福井県,越前市,大虫町,フクイケン,エチゼンシ,オオムシチョウ,福井県越前市大虫町
9150886,福井県,越前市,上四目町,フクイケン,エチゼンシ,カミシメチョウ,福井県越前市上四目町
9150887,福井県,越前市,下四目町,フクイケン,エチゼンシ,シモシメチョウ,福井県越前市下四目町
9150888,福井県,越前市,高森町,フクイケン,エチゼンシ,タカモリチョウ,福井県越前市高森町
9150891,福井県,越前市,余田町,フクイケン,エチゼンシ,ハグリチョウ,福井県越前市余田町
9150892,福井県,越前市,氷坂町,フクイケン,エチゼンシ,ヒサカチョウ,福井県越前市氷坂町
9150893,福井県,越前市,片屋町,フクイケン,エチゼンシ,カタヤチョウ,福井県越前市片屋町
9150894,福井県,越前市,丹生郷町,フクイケン,エチゼンシ,ニュウノゴウチョウ,福井県越前市丹生郷町
9150895,福井県,越前市,三ツ俣町,フクイケン,エチゼンシ,ミツマタチョウ,福井県越前市三ツ俣町
9150896,福井県,越前市,横根町,フクイケン,エチゼンシ,ヨコネチョウ,福井県越前市横根町
9150897,福井県,越前市,北山町,フクイケン,エチゼンシ,キタヤマチョウ,福井県越前市北山町
9151101,福井県,南条郡南越前町,具谷,フクイケン,ナンジョウグンミナミエチゼンチョウ,グダニ,福井県南条郡南越前町具谷
9151102,福井県,南条郡南越前町,菅谷,フクイケン,ナンジョウグンミナミエチゼンチョウ,スゲノタニ,福井県南条郡南越前町菅谷
9151103,福井県,南条郡南越前町,大谷,フクイケン,ナンジョウグンミナミエチゼンチョウ,オオタニ,福井県南条郡南越前町大谷
9151104,福井県,南条郡南越前町,大良,フクイケン,ナンジョウグンミナミエチゼンチョウ,ダイラ,福井県南条郡南越前町大良
9151105,福井県,南条郡南越前町,赤萩,フクイケン,ナンジョウグンミナミエチゼンチョウ,アカハギ,福井県南条郡南越前町赤萩
9151106,福井県,南条郡南越前町,河内,フクイケン,ナンジョウグンミナミエチゼンチョウ,コウチ,福井県南条郡南越前町河内
9151111,福井県,南条郡南越前町,河野,フクイケン,ナンジョウグンミナミエチゼンチョウ,コウノ,福井県南条郡南越前町河野
9151112,福井県,南条郡南越前町,今泉,フクイケン,ナンジョウグンミナミエチゼンチョウ,イマイズミ,福井県南条郡南越前町今泉
9151113,福井県,南条郡南越前町,甲楽城,フクイケン,ナンジョウグンミナミエチゼンチョウ,カブラキ,福井県南条郡南越前町甲楽城
9151114,福井県,南条郡南越前町,八田,フクイケン,ナンジョウグンミナミエチゼンチョウ,ハッタ,福井県南条郡南越前町八田
9151114,福井県,南条郡南越前町,糠,フクイケン,ナンジョウグンミナミエチゼンチョウ,ヌカ,福井県南条郡南越前町糠
9151114,福井県,南条郡南越前町,糠（杉山）,フクイケン,ナンジョウグンミナミエチゼンチョウ,ヌカ(スギヤマ),福井県南条郡南越前町糠（杉山）
9151114,福井県,南条郡南越前町,糠（神土）,フクイケン,ナンジョウグンミナミエチゼンチョウ,ヌカ(ジンド),福井県南条郡南越前町糠（神土）
9151201,福井県,越前市,安養寺町,フクイケン,エチゼンシ,アンヨウジチョウ,福井県越前市安養寺町
9151202,福井県,越前市,黒川町,フクイケン,エチゼンシ,クロカワチョウ,福井県越前市黒川町
9151203,福井県,越前市,上杉本町,フクイケン,エチゼンシ,カミスギモトチョウ,福井県越前市上杉本町
9151204,福井県,越前市,都辺町,フクイケン,エチゼンシ,トベチョウ,福井県越前市都辺町
9151205,福井県,越前市,萩原町,フクイケン,エチゼンシ,ハギワラチョウ,福井県越前市萩原町
9151211,福井県,越前市,堀町,フクイケン,エチゼンシ,ホリチョウ,福井県越前市堀町
9151212,福井県,越前市,仏谷町,フクイケン,エチゼンシ,ホトケダニチョウ,福井県越前市仏谷町
9151212,福井県,越前市,米口町,フクイケン,エチゼンシ,コメグチチョウ,福井県越前市米口町
9151213,福井県,越前市,丸岡町,フクイケン,エチゼンシ,マルカチョウ,福井県越前市丸岡町
9151214,福井県,越前市,勝蓮花町,フクイケン,エチゼンシ,ショウレンゲチョウ,福井県越前市勝蓮花町
9151215,福井県,越前市,小野町,フクイケン,エチゼンシ,コノチョウ,福井県越前市小野町
9151221,福井県,越前市,勾当原町,フクイケン,エチゼンシ,コウトウガハラチョウ,福井県越前市勾当原町
9151222,福井県,越前市,下中津原町,フクイケン,エチゼンシ,シモナカツハラチョウ,福井県越前市下中津原町
9151223,福井県,越前市,中津原町,フクイケン,エチゼンシ,ナカツハラチョウ,福井県越前市中津原町
9151224,福井県,越前市,下別所町,フクイケン,エチゼンシ,シモベッシヨチョウ,福井県越前市下別所町
9151225,福井県,越前市,湯谷町,フクイケン,エチゼンシ,ユヤチョウ,福井県越前市湯谷町
9151226,福井県,越前市,中山町,フクイケン,エチゼンシ,ナカヤマチョウ,福井県越前市中山町
9151231,福井県,越前市,千合谷町,フクイケン,エチゼンシ,センゴウダニチョウ,福井県越前市千合谷町
9151232,福井県,越前市,二階堂町,フクイケン,エチゼンシ,ニカイドウチョウ,福井県越前市二階堂町
9151233,福井県,越前市,菖蒲谷町,フクイケン,エチゼンシ,ショウブダニチョウ,福井県越前市菖蒲谷町
9151234,福井県,越前市,土山町,フクイケン,エチゼンシ,ツチヤマチョウ,福井県越前市土山町
9151234,福井県,越前市,小谷町,フクイケン,エチゼンシ,コダニチョウ,福井県越前市小谷町
9151235,福井県,越前市,安戸町,フクイケン,エチゼンシ,ヤスドチョウ,福井県越前市安戸町
9151235,福井県,越前市,菅町,フクイケン,エチゼンシ,スゲチョウ,福井県越前市菅町
9151241,福井県,越前市,曽原町,フクイケン,エチゼンシ,ソハラチョウ,福井県越前市曽原町
9151242,福井県,越前市,粟野町,フクイケン,エチゼンシ,アワノチョウ,福井県越前市粟野町
9151243,福井県,越前市,小杉町,フクイケン,エチゼンシ,コスギチョウ,福井県越前市小杉町
9151244,福井県,越前市,牧町,フクイケン,エチゼンシ,マキチョウ,福井県越前市牧町
9151245,福井県,越前市,若須町,フクイケン,エチゼンシ,ワガスチョウ,福井県越前市若須町
9151246,福井県,越前市,中野町,フクイケン,エチゼンシ,ナカノチョウ,福井県越前市中野町
9160000,福井県,鯖江市,,フクイケン,サバエシ,,福井県鯖江市
9160001,福井県,鯖江市,吉江町,フクイケン,サバエシ,ヨシエチョウ,福井県鯖江市吉江町
9160002,福井県,鯖江市,米岡町,フクイケン,サバエシ,ヨネオカチョウ,福井県鯖江市米岡町
9160003,福井県,鯖江市,田所町,フクイケン,サバエシ,タドコロチョウ,福井県鯖江市田所町
9160004,福井県,鯖江市,糺町,フクイケン,サバエシ,タダスチョウ,福井県鯖江市糺町
9160005,福井県,鯖江市,杉本町,フクイケン,サバエシ,スギモトチョウ,福井県鯖江市杉本町
9160006,福井県,鯖江市,西番町,フクイケン,サバエシ,ニシバンチョウ,福井県鯖江市西番町
9160007,福井県,鯖江市,三尾野出作町,フクイケン,サバエシ,ミオノシュツサクチョウ,福井県鯖江市三尾野出作町
9160008,福井県,鯖江市,入町,フクイケン,サバエシ,イリチョウ,福井県鯖江市入町
9160011,福井県,鯖江市,つつじケ丘町,フクイケン,サバエシ,ツツジガオカチョウ,福井県鯖江市つつじケ丘町
9160012,福井県,鯖江市,東米岡,フクイケン,サバエシ,ヒガシヨネオカ,福井県鯖江市東米岡
9160013,福井県,鯖江市,鳥羽,フクイケン,サバエシ,トバ,福井県鯖江市鳥羽
9160014,福井県,鯖江市,鳥羽町,フクイケン,サバエシ,トバチョウ,福井県鯖江市鳥羽町
9160015,福井県,鯖江市,御幸町,フクイケン,サバエシ,ミユキチョウ,福井県鯖江市御幸町
9160016,福井県,鯖江市,神中町,フクイケン,サバエシ,カミナカチョウ,福井県鯖江市神中町
9160017,福井県,鯖江市,神明町,フクイケン,サバエシ,シンメイチョウ,福井県鯖江市神明町
9160018,福井県,鯖江市,幸町,フクイケン,サバエシ,サイワイチョウ,福井県鯖江市幸町
9160019,福井県,鯖江市,丸山町,フクイケン,サバエシ,マルヤマチョウ,福井県鯖江市丸山町
9160021,福井県,鯖江市,三六町,フクイケン,サバエシ,サンロクチョウ,福井県鯖江市三六町
9160022,福井県,鯖江市,水落町,フクイケン,サバエシ,ミズオチチョウ,福井県鯖江市水落町
9160023,福井県,鯖江市,西山町,フクイケン,サバエシ,ニシヤマチョウ,福井県鯖江市西山町
9160024,福井県,鯖江市,長泉寺町,フクイケン,サバエシ,チョウセンジチョウ,福井県鯖江市長泉寺町
9160025,福井県,鯖江市,旭町,フクイケン,サバエシ,アサヒマチ,福井県鯖江市旭町
9160026,福井県,鯖江市,本町,フクイケン,サバエシ,ホンマチ,福井県鯖江市本町
9160027,福井県,鯖江市,桜町,フクイケン,サバエシ,サクラマチ,福井県鯖江市桜町
9160028,福井県,鯖江市,小黒町,フクイケン,サバエシ,コグロマチ,福井県鯖江市小黒町
9160029,福井県,鯖江市,北野町,フクイケン,サバエシ,キタノチョウ,福井県鯖江市北野町
9160031,福井県,鯖江市,橋立町,フクイケン,サバエシ,ハシタテチョウ,福井県鯖江市橋立町
9160032,福井県,鯖江市,舟枝町,フクイケン,サバエシ,フナエダチョウ,福井県鯖江市舟枝町
9160033,福井県,鯖江市,中野町,フクイケン,サバエシ,ナカノチョウ,福井県鯖江市中野町
9160034,福井県,鯖江市,下新庄町,フクイケン,サバエシ,シモシンジョウチョウ,福井県鯖江市下新庄町
9160035,福井県,鯖江市,新町,フクイケン,サバエシ,シンマチ,福井県鯖江市新町
9160036,福井県,鯖江市,横越町,フクイケン,サバエシ,ヨコゴシチョウ,福井県鯖江市横越町
9160037,福井県,鯖江市,上河端町,フクイケン,サバエシ,カミコウバタチョウ,福井県鯖江市上河端町
9160038,福井県,鯖江市,下河端町,フクイケン,サバエシ,シモコウバタチョウ,福井県鯖江市下河端町
9160041,福井県,鯖江市,東鯖江,フクイケン,サバエシ,ヒガシサバエ,福井県鯖江市東鯖江
9160042,福井県,鯖江市,新横江,フクイケン,サバエシ,シンヨコエ,福井県鯖江市新横江
9160043,福井県,鯖江市,定次町,フクイケン,サバエシ,サダツギチョウ,福井県鯖江市定次町
9160044,福井県,鯖江市,五郎丸町,フクイケン,サバエシ,ゴロウマルチョウ,福井県鯖江市五郎丸町
9160045,福井県,鯖江市,宮前,フクイケン,サバエシ,ミヤマエ,福井県鯖江市宮前
9160046,福井県,鯖江市,横江町,フクイケン,サバエシ,ヨコエチョウ,福井県鯖江市横江町
9160047,福井県,鯖江市,柳町,フクイケン,サバエシ,ヤナギマチ,福井県鯖江市柳町
9160051,福井県,鯖江市,屋形町,フクイケン,サバエシ,ヤカタチョウ,福井県鯖江市屋形町
9160052,福井県,鯖江市,深江町,フクイケン,サバエシ,フカエチョウ,福井県鯖江市深江町
9160053,福井県,鯖江市,日の出町,フクイケン,サバエシ,ヒノデチョウ,福井県鯖江市日の出町
9160054,福井県,鯖江市,舟津町,フクイケン,サバエシ,フナツチョウ,福井県鯖江市舟津町
9160055,福井県,鯖江市,上鯖江,フクイケン,サバエシ,カミサバエ,福井県鯖江市上鯖江
9160055,福井県,鯖江市,上鯖江町,フクイケン,サバエシ,カミサバエチョウ,福井県鯖江市上鯖江町
9160056,福井県,鯖江市,住吉町,フクイケン,サバエシ,スミヨシチョウ,福井県鯖江市住吉町
9160057,福井県,鯖江市,有定町,フクイケン,サバエシ,アリサダチョウ,福井県鯖江市有定町
9160061,福井県,鯖江市,平井町,フクイケン,サバエシ,ヒライチョウ,福井県鯖江市平井町
9160062,福井県,鯖江市,熊田町,フクイケン,サバエシ,クマダチョウ,福井県鯖江市熊田町
9160063,福井県,鯖江市,鳥井町,フクイケン,サバエシ,トリイチョウ,福井県鯖江市鳥井町
9160064,福井県,鯖江市,下司町,フクイケン,サバエシ,ゲシチョウ,福井県鯖江市下司町
9160065,福井県,鯖江市,当田町,フクイケン,サバエシ,トウデチョウ,福井県鯖江市当田町
9160066,福井県,鯖江市,上氏家町,フクイケン,サバエシ,カミウズエチョウ,福井県鯖江市上氏家町
9160067,福井県,鯖江市,下氏家町,フクイケン,サバエシ,シモウズエチョウ,福井県鯖江市下氏家町
9160068,福井県,鯖江市,二丁掛町,フクイケン,サバエシ,ニチョガケチョウ,福井県鯖江市二丁掛町
9160071,福井県,鯖江市,持明寺町,フクイケン,サバエシ,ジミョウジチョウ,福井県鯖江市持明寺町
9160072,福井県,鯖江市,冬島町,フクイケン,サバエシ,フジマチョウ,福井県鯖江市冬島町
9160073,福井県,鯖江市,下野田町,フクイケン,サバエシ,シモノダチョウ,福井県鯖江市下野田町
9160074,福井県,鯖江市,上野田町,フクイケン,サバエシ,カミノダチョウ,福井県鯖江市上野田町
9160075,福井県,鯖江市,漆原町,フクイケン,サバエシ,ウルシハラチョウ,福井県鯖江市漆原町
9160076,福井県,鯖江市,石生谷町,フクイケン,サバエシ,イショウダニチョウ,福井県鯖江市石生谷町
9160077,福井県,鯖江市,和田町,フクイケン,サバエシ,ワダチョウ,福井県鯖江市和田町
9160078,福井県,鯖江市,西大井町,フクイケン,サバエシ,ニシオオイチョウ,福井県鯖江市西大井町
9160081,福井県,鯖江市,石田下町,フクイケン,サバエシ,イシダシモチョウ,福井県鯖江市石田下町
9160082,福井県,鯖江市,石田中町,フクイケン,サバエシ,イシダナカチョウ,福井県鯖江市石田中町
9160083,福井県,鯖江市,石田上町,フクイケン,サバエシ,イシダカミチョウ,福井県鯖江市石田上町
9160084,福井県,鯖江市,小泉町,フクイケン,サバエシ,コイズミチョウ,福井県鯖江市小泉町
9160085,福井県,鯖江市,大倉町,フクイケン,サバエシ,オオクラチョウ,福井県鯖江市大倉町
9160086,福井県,鯖江市,吉田町,フクイケン,サバエシ,ヨシダチョウ,福井県鯖江市吉田町
9160087,福井県,鯖江市,田村町,フクイケン,サバエシ,タムラチョウ,福井県鯖江市田村町
9160088,福井県,鯖江市,川去町,フクイケン,サバエシ,カワサリチョウ,福井県鯖江市川去町
9160101,福井県,丹生郡越前町,天谷,フクイケン,ニュウグンエチゼンチョウ,アマダニ,福井県丹生郡越前町天谷
9160102,福井県,丹生郡越前町,真木,フクイケン,ニュウグンエチゼンチョウ,マキ,福井県丹生郡越前町真木
9160103,福井県,丹生郡越前町,杖立,フクイケン,ニュウグンエチゼンチョウ,ツエタテ,福井県丹生郡越前町杖立
9160104,福井県,丹生郡越前町,森,フクイケン,ニュウグンエチゼンチョウ,モリ,福井県丹生郡越前町森
9160105,福井県,丹生郡越前町,清水,フクイケン,ニュウグンエチゼンチョウ,ショウズ,福井県丹生郡越前町清水
9160106,福井県,丹生郡越前町,大玉,フクイケン,ニュウグンエチゼンチョウ,イカダマ,福井県丹生郡越前町大玉
9160107,福井県,丹生郡越前町,上糸生,フクイケン,ニュウグンエチゼンチョウ,カミイトウ,福井県丹生郡越前町上糸生
9160108,福井県,丹生郡越前町,小川,フクイケン,ニュウグンエチゼンチョウ,オガワ,福井県丹生郡越前町小川
9160111,福井県,丹生郡越前町,小倉,フクイケン,ニュウグンエチゼンチョウ,オグラ,福井県丹生郡越前町小倉
9160112,福井県,丹生郡越前町,葛野,フクイケン,ニュウグンエチゼンチョウ,カズラノ,福井県丹生郡越前町葛野
9160113,福井県,丹生郡越前町,野田,フクイケン,ニュウグンエチゼンチョウ,ノダ,福井県丹生郡越前町野田
9160114,福井県,丹生郡越前町,下糸生,フクイケン,ニュウグンエチゼンチョウ,シモイトウ,福井県丹生郡越前町下糸生
9160115,福井県,丹生郡越前町,脇,フクイケン,ニュウグンエチゼンチョウ,ワキ,福井県丹生郡越前町脇
9160116,福井県,丹生郡越前町,中野,フクイケン,ニュウグンエチゼンチョウ,ナカノ,福井県丹生郡越前町中野
9160117,福井県,丹生郡越前町,大谷寺,フクイケン,ニュウグンエチゼンチョウ,オオタンジ,福井県丹生郡越前町大谷寺
9160121,福井県,丹生郡越前町,大畑,フクイケン,ニュウグンエチゼンチョウ,オオバタ,福井県丹生郡越前町大畑
9160122,福井県,丹生郡越前町,天王,フクイケン,ニュウグンエチゼンチョウ,テンノウ,福井県丹生郡越前町天王
9160123,福井県,丹生郡越前町,天宝,フクイケン,ニュウグンエチゼンチョウ,テンポウ,福井県丹生郡越前町天宝
9160124,福井県,丹生郡越前町,宝泉寺,フクイケン,ニュウグンエチゼンチョウ,ホウセンジ,福井県丹生郡越前町宝泉寺
9160125,福井県,丹生郡越前町,横山,フクイケン,ニュウグンエチゼンチョウ,ヨコヤマ,福井県丹生郡越前町横山
9160126,福井県,丹生郡越前町,牛越,フクイケン,ニュウグンエチゼンチョウ,ウシゴエ,福井県丹生郡越前町牛越
9160127,福井県,丹生郡越前町,野末,フクイケン,ニュウグンエチゼンチョウ,ノズエ,福井県丹生郡越前町野末
9160131,福井県,丹生郡越前町,乙坂,フクイケン,ニュウグンエチゼンチョウ,オツサカ,福井県丹生郡越前町乙坂
9160132,福井県,丹生郡越前町,田中,フクイケン,ニュウグンエチゼンチョウ,タナカ,福井県丹生郡越前町田中
9160133,福井県,丹生郡越前町,気比庄,フクイケン,ニュウグンエチゼンチョウ,キヒショウ,福井県丹生郡越前町気比庄
9160134,福井県,丹生郡越前町,新庄,フクイケン,ニュウグンエチゼンチョウ,シンショウ,福井県丹生郡越前町新庄
9160135,福井県,丹生郡越前町,市,フクイケン,ニュウグンエチゼンチョウ,イチ,福井県丹生郡越前町市
9160136,福井県,丹生郡越前町,栃川,フクイケン,ニュウグンエチゼンチョウ,トチカワ,福井県丹生郡越前町栃川
9160137,福井県,丹生郡越前町,宮の西団地,フクイケン,ニュウグンエチゼンチョウ,ミヤノニシダンチ,福井県丹生郡越前町宮の西団地
9160141,福井県,丹生郡越前町,西田中,フクイケン,ニュウグンエチゼンチョウ,ニシタナカ,福井県丹生郡越前町西田中
9160142,福井県,丹生郡越前町,上川去,フクイケン,ニュウグンエチゼンチョウ,カミカワサリ,福井県丹生郡越前町上川去
9160143,福井県,丹生郡越前町,宇田,フクイケン,ニュウグンエチゼンチョウ,ウダ,福井県丹生郡越前町宇田
9160143,福井県,丹生郡越前町,漆本,フクイケン,ニュウグンエチゼンチョウ,ウルシモト,福井県丹生郡越前町漆本
9160144,福井県,丹生郡越前町,佐々生,フクイケン,ニュウグンエチゼンチョウ,サソウ,福井県丹生郡越前町佐々生
9160145,福井県,丹生郡越前町,岩開,フクイケン,ニュウグンエチゼンチョウ,イワカイ,福井県丹生郡越前町岩開
9160146,福井県,丹生郡越前町,朝日,フクイケン,ニュウグンエチゼンチョウ,アサヒ,福井県丹生郡越前町朝日
9160147,福井県,丹生郡越前町,内郡,フクイケン,ニュウグンエチゼンチョウ,ウチゴオリ,福井県丹生郡越前町内郡
9160151,福井県,丹生郡越前町,金谷,フクイケン,ニュウグンエチゼンチョウ,カナヤ,福井県丹生郡越前町金谷
9160152,福井県,丹生郡越前町,青野,フクイケン,ニュウグンエチゼンチョウ,アオノ,福井県丹生郡越前町青野
9160153,福井県,丹生郡越前町,頭谷,フクイケン,ニュウグンエチゼンチョウ,カシラダニ,福井県丹生郡越前町頭谷
9160154,福井県,丹生郡越前町,境野,フクイケン,ニュウグンエチゼンチョウ,サカイノ,福井県丹生郡越前町境野
9160155,福井県,丹生郡越前町,茱原,フクイケン,ニュウグンエチゼンチョウ,グミワラ,福井県丹生郡越前町茱原
9160156,福井県,丹生郡越前町,東内郡,フクイケン,ニュウグンエチゼンチョウ,ヒガシウチゴオリ,福井県丹生郡越前町東内郡
9160200,福井県,丹生郡越前町,,フクイケン,ニュウグンエチゼンチョウ,,福井県丹生郡越前町
9160201,福井県,丹生郡越前町,入尾,フクイケン,ニュウグンエチゼンチョウ,イリオ,福井県丹生郡越前町入尾
9160202,福井県,丹生郡越前町,細野,フクイケン,ニュウグンエチゼンチョウ,ホソノ,福井県丹生郡越前町細野
9160203,福井県,丹生郡越前町,山田,フクイケン,ニュウグンエチゼンチョウ,ヤマダ,福井県丹生郡越前町山田
9160204,福井県,丹生郡越前町,中,フクイケン,ニュウグンエチゼンチョウ,ナカ,福井県丹生郡越前町中
9160205,福井県,丹生郡越前町,赤井谷,フクイケン,ニュウグンエチゼンチョウ,アカイダニ,福井県丹生郡越前町赤井谷
9160206,福井県,丹生郡越前町,笈松,フクイケン,ニュウグンエチゼンチョウ,オイマツ,福井県丹生郡越前町笈松
9160211,福井県,丹生郡越前町,笹川,フクイケン,ニュウグンエチゼンチョウ,ササガワ,福井県丹生郡越前町笹川
9160212,福井県,丹生郡越前町,岩倉,フクイケン,ニュウグンエチゼンチョウ,イワクラ,福井県丹生郡越前町岩倉
9160213,福井県,丹生郡越前町,桜谷,フクイケン,ニュウグンエチゼンチョウ,サクラダニ,福井県丹生郡越前町桜谷
9160214,福井県,丹生郡越前町,上戸,フクイケン,ニュウグンエチゼンチョウ,ウワド,福井県丹生郡越前町上戸
9160215,福井県,丹生郡越前町,織田,フクイケン,ニュウグンエチゼンチョウ,オタ,福井県丹生郡越前町織田
9160216,福井県,丹生郡越前町,打越,フクイケン,ニュウグンエチゼンチョウ,ウチコシ,福井県丹生郡越前町打越
9160217,福井県,丹生郡越前町,丸山,フクイケン,ニュウグンエチゼンチョウ,マルヤマ,福井県丹生郡越前町丸山
9160218,福井県,丹生郡越前町,萩野,フクイケン,ニュウグンエチゼンチョウ,ハギノ,福井県丹生郡越前町萩野
9160219,福井県,丹生郡越前町,西ケ丘,フクイケン,ニュウグンエチゼンチョウ,ニシガオカ,福井県丹生郡越前町西ケ丘
9160221,福井県,丹生郡越前町,三崎,フクイケン,ニュウグンエチゼンチョウ,ミサキ,福井県丹生郡越前町三崎
9160222,福井県,丹生郡越前町,大王丸,フクイケン,ニュウグンエチゼンチョウ,ダイオウマル,福井県丹生郡越前町大王丸
9160223,福井県,丹生郡越前町,下河原,フクイケン,ニュウグンエチゼンチョウ,シモガワラ,福井県丹生郡越前町下河原
9160224,福井県,丹生郡越前町,平等,フクイケン,ニュウグンエチゼンチョウ,タイラ,福井県丹生郡越前町平等
9160225,福井県,丹生郡越前町,上山中,フクイケン,ニュウグンエチゼンチョウ,カミヤマナカ,福井県丹生郡越前町上山中
9160226,福井県,丹生郡越前町,下山中,フクイケン,ニュウグンエチゼンチョウ,シモヤマナカ,福井県丹生郡越前町下山中
9160227,福井県,丹生郡越前町,四ツ杉,フクイケン,ニュウグンエチゼンチョウ,ヨツスギ,福井県丹生郡越前町四ツ杉
9160251,福井県,丹生郡越前町,大谷,フクイケン,ニュウグンエチゼンチョウ,オオタニ,福井県丹生郡越前町大谷
9160252,福井県,丹生郡越前町,蝉口,フクイケン,ニュウグンエチゼンチョウ,セミグチ,福井県丹生郡越前町蝉口
9160253,福井県,丹生郡越前町,蚊谷寺,フクイケン,ニュウグンエチゼンチョウ,カダンジ,福井県丹生郡越前町蚊谷寺
9160254,福井県,丹生郡越前町,広野,フクイケン,ニュウグンエチゼンチョウ,ヒロノ,福井県丹生郡越前町広野
9160255,福井県,丹生郡越前町,江波,フクイケン,ニュウグンエチゼンチョウ,エナミ,福井県丹生郡越前町江波
9160261,福井県,丹生郡越前町,野,フクイケン,ニュウグンエチゼンチョウ,ノ,福井県丹生郡越前町野
9160262,福井県,丹生郡越前町,宇須尾,フクイケン,ニュウグンエチゼンチョウ,ウスオ,福井県丹生郡越前町宇須尾
9160263,福井県,丹生郡越前町,円満,フクイケン,ニュウグンエチゼンチョウ,エンマ,福井県丹生郡越前町円満
9160264,福井県,丹生郡越前町,八田,フクイケン,ニュウグンエチゼンチョウ,ハッタ,福井県丹生郡越前町八田
9160265,福井県,丹生郡越前町,八田新保,フクイケン,ニュウグンエチゼンチョウ,ハッタシンボ,福井県丹生郡越前町八田新保
9160266,福井県,丹生郡越前町,寺,フクイケン,ニュウグンエチゼンチョウ,テラ,福井県丹生郡越前町寺
9160267,福井県,丹生郡越前町,上野,フクイケン,ニュウグンエチゼンチョウ,ウワノ,福井県丹生郡越前町上野
9160268,福井県,丹生郡越前町,陶の谷,フクイケン,ニュウグンエチゼンチョウ,スエノタニ,福井県丹生郡越前町陶の谷
9160271,福井県,丹生郡越前町,舟場,フクイケン,ニュウグンエチゼンチョウ,フナバ,福井県丹生郡越前町舟場
9160272,福井県,丹生郡越前町,樫津,フクイケン,ニュウグンエチゼンチョウ,カシヅ,福井県丹生郡越前町樫津
9160273,福井県,丹生郡越前町,小曽原,フクイケン,ニュウグンエチゼンチョウ,オゾワラ,福井県丹生郡越前町小曽原
9160274,福井県,丹生郡越前町,増谷,フクイケン,ニュウグンエチゼンチョウ,マスタニ,福井県丹生郡越前町増谷
9160275,福井県,丹生郡越前町,熊谷,フクイケン,ニュウグンエチゼンチョウ,クマダニ,福井県丹生郡越前町熊谷
9160276,福井県,丹生郡越前町,古屋,フクイケン,ニュウグンエチゼンチョウ,フルヤ,福井県丹生郡越前町古屋
9160301,福井県,丹生郡越前町,梨子ヶ平,フクイケン,ニュウグンエチゼンチョウ,ナシガダイラ,福井県丹生郡越前町梨子ヶ平
9160302,福井県,丹生郡越前町,左右,フクイケン,ニュウグンエチゼンチョウ,ソウ,福井県丹生郡越前町左右
9160303,福井県,丹生郡越前町,血ケ平,フクイケン,ニュウグンエチゼンチョウ,チガダイラ,福井県丹生郡越前町血ケ平
9160304,福井県,丹生郡越前町,玉川,フクイケン,ニュウグンエチゼンチョウ,タマガワ,福井県丹生郡越前町玉川
9160311,福井県,丹生郡越前町,梅浦,フクイケン,ニュウグンエチゼンチョウ,ウメウラ,福井県丹生郡越前町梅浦
9160312,福井県,丹生郡越前町,宿,フクイケン,ニュウグンエチゼンチョウ,シュク,福井県丹生郡越前町宿
9160313,福井県,丹生郡越前町,新保,フクイケン,ニュウグンエチゼンチョウ,シンボ,福井県丹生郡越前町新保
9160314,福井県,丹生郡越前町,城ケ谷,フクイケン,ニュウグンエチゼンチョウ,ジョウガタニ,福井県丹生郡越前町城ケ谷
9160315,福井県,丹生郡越前町,小樟,フクイケン,ニュウグンエチゼンチョウ,ココノギ,福井県丹生郡越前町小樟
9160316,福井県,丹生郡越前町,大樟,フクイケン,ニュウグンエチゼンチョウ,オコノギ,福井県丹生郡越前町大樟
9160421,福井県,丹生郡越前町,道口,フクイケン,ニュウグンエチゼンチョウ,ミチグチ,福井県丹生郡越前町道口
9160422,福井県,丹生郡越前町,厨,フクイケン,ニュウグンエチゼンチョウ,クリヤ,福井県丹生郡越前町厨
9160423,福井県,丹生郡越前町,茂原,フクイケン,ニュウグンエチゼンチョウ,モハラ,福井県丹生郡越前町茂原
9160424,福井県,丹生郡越前町,白浜,フクイケン,ニュウグンエチゼンチョウ,シラハマ,福井県丹生郡越前町白浜
9160425,福井県,丹生郡越前町,高佐,フクイケン,ニュウグンエチゼンチョウ,タカサ,福井県丹生郡越前町高佐
9160426,福井県,丹生郡越前町,米ノ,フクイケン,ニュウグンエチゼンチョウ,コメノ,福井県丹生郡越前町米ノ
9160427,福井県,丹生郡越前町,六呂師,フクイケン,ニュウグンエチゼンチョウ,ロクロシ,福井県丹生郡越前町六呂師
9160428,福井県,丹生郡越前町,午房ケ平,フクイケン,ニュウグンエチゼンチョウ,ゴボウガダイラ,福井県丹生郡越前町午房ケ平
9161101,福井県,鯖江市,大正寺町,フクイケン,サバエシ,ダイショウジチョウ,福井県鯖江市大正寺町
9161102,福井県,鯖江市,大野町,フクイケン,サバエシ,オオノチョウ,福井県鯖江市大野町
9161103,福井県,鯖江市,別所町,フクイケン,サバエシ,ベッショチョウ,福井県鯖江市別所町
9161104,福井県,鯖江市,乙坂今北町,フクイケン,サバエシ,オツサカコンボクチョウ,福井県鯖江市乙坂今北町
9161105,福井県,鯖江市,吉谷町,フクイケン,サバエシ,ヨシタニチョウ,福井県鯖江市吉谷町
9161106,福井県,鯖江市,四方谷町,フクイケン,サバエシ,シホウダニチョウ,福井県鯖江市四方谷町
9161107,福井県,鯖江市,南井町,フクイケン,サバエシ,ナオイチョウ,福井県鯖江市南井町
9161111,福井県,鯖江市,上戸口町,フクイケン,サバエシ,カミトノクチチョウ,福井県鯖江市上戸口町
9161112,福井県,鯖江市,中戸口町,フクイケン,サバエシ,ナカトノクチチョウ,福井県鯖江市中戸口町
9161113,福井県,鯖江市,戸口町,フクイケン,サバエシ,トノクチチョウ,福井県鯖江市戸口町
9161114,福井県,鯖江市,磯部町,フクイケン,サバエシ,イソベチョウ,福井県鯖江市磯部町
9161115,福井県,鯖江市,落井町,フクイケン,サバエシ,オチイチョウ,福井県鯖江市落井町
9161116,福井県,鯖江市,川島町,フクイケン,サバエシ,カワシマチョウ,福井県鯖江市川島町
9161118,福井県,鯖江市,松成町,フクイケン,サバエシ,マツナリチョウ,福井県鯖江市松成町
9161133,福井県,鯖江市,中野松成,フクイケン,サバエシ,ナカノマツナリ,福井県鯖江市中野松成
9161221,福井県,鯖江市,西袋町,フクイケン,サバエシ,ニシブクロチョウ,福井県鯖江市西袋町
9161222,福井県,鯖江市,河和田町,フクイケン,サバエシ,カワダチョウ,福井県鯖江市河和田町
9161223,福井県,鯖江市,片山町,フクイケン,サバエシ,カタヤマチョウ,福井県鯖江市片山町
9161224,福井県,鯖江市,莇生田町,フクイケン,サバエシ,アゾウダチョウ,福井県鯖江市莇生田町
9161225,福井県,鯖江市,別司町,フクイケン,サバエシ,ベッシチョウ,福井県鯖江市別司町
9161231,福井県,鯖江市,金谷町,フクイケン,サバエシ,カナダニチョウ,福井県鯖江市金谷町
9161232,福井県,鯖江市,寺中町,フクイケン,サバエシ,ジチュウチョウ,福井県鯖江市寺中町
9161233,福井県,鯖江市,尾花町,フクイケン,サバエシ,オバナチョウ,福井県鯖江市尾花町
9161234,福井県,鯖江市,沢町,フクイケン,サバエシ,サワチョウ,福井県鯖江市沢町
9161235,福井県,鯖江市,上河内町,フクイケン,サバエシ,カミコウチチョウ,福井県鯖江市上河内町
9161236,福井県,鯖江市,東清水町,フクイケン,サバエシ,ヒガシシミズチョウ,福井県鯖江市東清水町
9161237,福井県,鯖江市,北中町,フクイケン,サバエシ,キタナカチョウ,福井県鯖江市北中町
9170000,福井県,小浜市,,フクイケン,オバマシ,,福井県小浜市
9170001,福井県,小浜市,福谷,フクイケン,オバマシ,フクタニ,福井県小浜市福谷
9170002,福井県,小浜市,北塩屋,フクイケン,オバマシ,キタシオヤ,福井県小浜市北塩屋
9170002,福井県,小浜市,北長町,フクイケン,オバマシ,キタナガマチ,福井県小浜市北長町
9170003,福井県,小浜市,学園町,フクイケン,オバマシ,ガクエンチョウ,福井県小浜市学園町
9170004,福井県,小浜市,大湊,フクイケン,オバマシ,オオミナト,福井県小浜市大湊
9170004,福井県,小浜市,小湊,フクイケン,オバマシ,コミナト,福井県小浜市小湊
9170004,福井県,小浜市,湊,フクイケン,オバマシ,ミナト,福井県小浜市湊
9170005,福井県,小浜市,板屋町,フクイケン,オバマシ,イタヤマチ,福井県小浜市板屋町
9170006,福井県,小浜市,小松原,フクイケン,オバマシ,コマツバラ,福井県小浜市小松原
9170007,福井県,小浜市,下竹原,フクイケン,オバマシ,シモダワラ,福井県小浜市下竹原
9170007,福井県,小浜市,西長町,フクイケン,オバマシ,ニシナガマチ,福井県小浜市西長町
9170008,福井県,小浜市,新小松原,フクイケン,オバマシ,シンコマツバラ,福井県小浜市新小松原
9170011,福井県,小浜市,奈胡,フクイケン,オバマシ,ナゴ,福井県小浜市奈胡
9170012,福井県,小浜市,熊野,フクイケン,オバマシ,クマノ,福井県小浜市熊野
9170013,福井県,小浜市,太良庄,フクイケン,オバマシ,タラノショウ,福井県小浜市太良庄
9170014,福井県,小浜市,北川,フクイケン,オバマシ,キタガワ,福井県小浜市北川
9170014,福井県,小浜市,高塚,フクイケン,オバマシ,タカツカ,福井県小浜市高塚
9170015,福井県,小浜市,栗田,フクイケン,オバマシ,クリタ,福井県小浜市栗田
9170016,福井県,小浜市,次吉,フクイケン,オバマシ,ツギヨシ,福井県小浜市次吉
9170017,福井県,小浜市,江古川,フクイケン,オバマシ,エゴガワ,福井県小浜市江古川
9170017,福井県,小浜市,羽賀,フクイケン,オバマシ,ハガ,福井県小浜市羽賀
9170018,福井県,小浜市,松ケ崎,フクイケン,オバマシ,マツガサキ,福井県小浜市松ケ崎
9170019,福井県,小浜市,山王前,フクイケン,オバマシ,サンノウマエ,福井県小浜市山王前
9170021,福井県,小浜市,竹原,フクイケン,オバマシ,タワラ,福井県小浜市竹原
9170021,福井県,小浜市,関,フクイケン,オバマシ,セキ,福井県小浜市関
9170022,福井県,小浜市,上竹原,フクイケン,オバマシ,カミタワラ,福井県小浜市上竹原
9170023,福井県,小浜市,府中,フクイケン,オバマシ,フチュウ,福井県小浜市府中
9170024,福井県,小浜市,和久里,フクイケン,オバマシ,ワクリ,福井県小浜市和久里
9170025,福井県,小浜市,木崎,フクイケン,オバマシ,キザキ,福井県小浜市木崎
9170026,福井県,小浜市,多田,フクイケン,オバマシ,タダ,福井県小浜市多田
9170027,福井県,小浜市,生守,フクイケン,オバマシ,イゴモリ,福井県小浜市生守
9170027,福井県,小浜市,生守団地,フクイケン,オバマシ,イゴモリダンチ,福井県小浜市生守団地
9170028,福井県,小浜市,野代,フクイケン,オバマシ,ノダイ,福井県小浜市野代
9170031,福井県,小浜市,谷田部,フクイケン,オバマシ,ヤタベ,福井県小浜市谷田部
9170032,福井県,小浜市,尾崎,フクイケン,オバマシ,オザキ,福井県小浜市尾崎
9170033,福井県,小浜市,須縄,フクイケン,オバマシ,スノ,福井県小浜市須縄
9170034,福井県,小浜市,奥田縄,フクイケン,オバマシ,オクダノ,福井県小浜市奥田縄
9170035,福井県,小浜市,口田縄,フクイケン,オバマシ,クチダノ,福井県小浜市口田縄
9170036,福井県,小浜市,上中井,フクイケン,オバマシ,カミナカイ,福井県小浜市上中井
9170036,福井県,小浜市,下中井,フクイケン,オバマシ,シモナカイ,福井県小浜市下中井
9170036,福井県,小浜市,中井,フクイケン,オバマシ,ナカイ,福井県小浜市中井
9170036,福井県,小浜市,新滝,フクイケン,オバマシ,シンタキ,福井県小浜市新滝
9170036,福井県,小浜市,滝谷,フクイケン,オバマシ,タキダニ,福井県小浜市滝谷
9170037,福井県,小浜市,東相生,フクイケン,オバマシ,ヒガシアイオイ,福井県小浜市東相生
9170037,福井県,小浜市,相生,フクイケン,オバマシ,アイオイ,福井県小浜市相生
9170037,福井県,小浜市,西相生,フクイケン,オバマシ,ニシアイオイ,福井県小浜市西相生
9170041,福井県,小浜市,青井,フクイケン,オバマシ,アオイ,福井県小浜市青井
9170042,福井県,小浜市,東勢,フクイケン,オバマシ,ヒガシセイ,福井県小浜市東勢
9170043,福井県,小浜市,西勢,フクイケン,オバマシ,ニシセイ,福井県小浜市西勢
9170044,福井県,小浜市,法海,フクイケン,オバマシ,ノリカイ,福井県小浜市法海
9170044,福井県,小浜市,荒木,フクイケン,オバマシ,アラキ,福井県小浜市荒木
9170044,福井県,小浜市,飯盛,フクイケン,オバマシ,ハンセイ,福井県小浜市飯盛
9170044,福井県,小浜市,黒駒,フクイケン,オバマシ,クロコマ,福井県小浜市黒駒
9170045,福井県,小浜市,上加斗,フクイケン,オバマシ,カミカド,福井県小浜市上加斗
9170045,福井県,小浜市,下加斗,フクイケン,オバマシ,シモカド,福井県小浜市下加斗
9170045,福井県,小浜市,加斗,フクイケン,オバマシ,カド,福井県小浜市加斗
9170046,福井県,小浜市,岡津,フクイケン,オバマシ,オコヅ,福井県小浜市岡津
9170047,福井県,小浜市,鯉川,フクイケン,オバマシ,コイガワ,福井県小浜市鯉川
9170051,福井県,小浜市,小浜白鳥,フクイケン,オバマシ,オバマシラトリ,福井県小浜市小浜白鳥
9170052,福井県,小浜市,小浜男山,フクイケン,オバマシ,オバマオトコヤマ,福井県小浜市小浜男山
9170053,福井県,小浜市,小浜大宮,フクイケン,オバマシ,オバマオオミヤ,福井県小浜市小浜大宮
9170054,福井県,小浜市,伏原,フクイケン,オバマシ,フシワラ,福井県小浜市伏原
9170055,福井県,小浜市,小浜浅間,フクイケン,オバマシ,オバマアサマ,福井県小浜市小浜浅間
9170056,福井県,小浜市,小浜大原,フクイケン,オバマシ,オバマオオハラ,福井県小浜市小浜大原
9170057,福井県,小浜市,小浜飛鳥,フクイケン,オバマシ,オバマアスカ,福井県小浜市小浜飛鳥
9170058,福井県,小浜市,小浜香取,フクイケン,オバマシ,オバマカトリ,福井県小浜市小浜香取
9170059,福井県,小浜市,小浜貴船,フクイケン,オバマシ,オバマキフネ,福井県小浜市小浜貴船
9170061,福井県,小浜市,小浜玉前,フクイケン,オバマシ,オバマタママエ,福井県小浜市小浜玉前
9170062,福井県,小浜市,小浜今宮,フクイケン,オバマシ,オバマイマミヤ,福井県小浜市小浜今宮
9170063,福井県,小浜市,小浜酒井,フクイケン,オバマシ,オバマサカイ,福井県小浜市小浜酒井
9170064,福井県,小浜市,小浜竜田,フクイケン,オバマシ,オバマタツタ,福井県小浜市小浜竜田
9170065,福井県,小浜市,小浜住吉,フクイケン,オバマシ,オバマスミヨシ,福井県小浜市小浜住吉
9170066,福井県,小浜市,小浜神田,フクイケン,オバマシ,オバマカンダ,福井県小浜市小浜神田
9170067,福井県,小浜市,小浜鹿島,フクイケン,オバマシ,オバマカシマ,福井県小浜市小浜鹿島
9170068,福井県,小浜市,小浜日吉,フクイケン,オバマシ,オバマヒヨシ,福井県小浜市小浜日吉
9170069,福井県,小浜市,小浜白鬚,フクイケン,オバマシ,オバマシラヒゲ,福井県小浜市小浜白鬚
9170071,福井県,小浜市,一番町,フクイケン,オバマシ,イチバンチョウ,福井県小浜市一番町
9170072,福井県,小浜市,千種,フクイケン,オバマシ,チグサ,福井県小浜市千種
9170073,福井県,小浜市,四谷町,フクイケン,オバマシ,ヨツヤチョウ,福井県小浜市四谷町
9170074,福井県,小浜市,後瀬町,フクイケン,オバマシ,ノチセチョウ,福井県小浜市後瀬町
9170075,福井県,小浜市,南川町,フクイケン,オバマシ,ミナミガワチョウ,福井県小浜市南川町
9170076,福井県,小浜市,湯岡,フクイケン,オバマシ,ユノオカ,福井県小浜市湯岡
9170077,福井県,小浜市,駅前町,フクイケン,オバマシ,エキマエチョウ,福井県小浜市駅前町
9170078,福井県,小浜市,大手町,フクイケン,オバマシ,オオテチョウ,福井県小浜市大手町
9170081,福井県,小浜市,川崎,フクイケン,オバマシ,カワサキ,福井県小浜市川崎
9170082,福井県,小浜市,小浜津島,フクイケン,オバマシ,オバマツシマ,福井県小浜市小浜津島
9170083,福井県,小浜市,小浜清滝,フクイケン,オバマシ,オバマキヨタキ,福井県小浜市小浜清滝
9170084,福井県,小浜市,小浜広峰,フクイケン,オバマシ,オバマヒロミネ,福井県小浜市小浜広峰
9170085,福井県,小浜市,小浜生玉,フクイケン,オバマシ,オバマイクダマ,福井県小浜市小浜生玉
9170086,福井県,小浜市,小浜塩竈,フクイケン,オバマシ,オバマシオガマ,福井県小浜市小浜塩竈
9170087,福井県,小浜市,小浜鈴鹿,フクイケン,オバマシ,オバマスズカ,福井県小浜市小浜鈴鹿
9170088,福井県,小浜市,小浜多賀,フクイケン,オバマシ,オバマタガ,福井県小浜市小浜多賀
9170091,福井県,小浜市,西津,フクイケン,オバマシ,ニシヅ,福井県小浜市西津
9170092,福井県,小浜市,山手,フクイケン,オバマシ,ヤマテ,福井県小浜市山手
9170093,福井県,小浜市,水取,フクイケン,オバマシ,ミズトリ,福井県小浜市水取
9170094,福井県,小浜市,丸山,フクイケン,オバマシ,マルヤマ,福井県小浜市丸山
9170095,福井県,小浜市,城内,フクイケン,オバマシ,ジョウナイ,福井県小浜市城内
9170096,福井県,小浜市,雲浜,フクイケン,オバマシ,ウンピン,福井県小浜市雲浜
9170097,福井県,小浜市,堀屋敷,フクイケン,オバマシ,ホリヤシキ,福井県小浜市堀屋敷
9170101,福井県,小浜市,田烏,フクイケン,オバマシ,タガラス,福井県小浜市田烏
9170102,福井県,小浜市,矢代,フクイケン,オバマシ,ヤシロ,福井県小浜市矢代
9170103,福井県,小浜市,志積,フクイケン,オバマシ,シツミ,福井県小浜市志積
9170104,福井県,小浜市,犬熊,フクイケン,オバマシ,イノクマ,福井県小浜市犬熊
9170105,福井県,小浜市,阿納,フクイケン,オバマシ,アノ,福井県小浜市阿納
9170106,福井県,小浜市,阿納尻,フクイケン,オバマシ,アノジリ,福井県小浜市阿納尻
9170107,福井県,小浜市,甲ケ崎,フクイケン,オバマシ,コガサキ,福井県小浜市甲ケ崎
9170111,福井県,小浜市,西小川,フクイケン,オバマシ,ニシオガワ,福井県小浜市西小川
9170112,福井県,小浜市,加尾,フクイケン,オバマシ,カオ,福井県小浜市加尾
9170113,福井県,小浜市,宇久,フクイケン,オバマシ,ウグ,福井県小浜市宇久
9170114,福井県,小浜市,若狭,フクイケン,オバマシ,ワカサ,福井県小浜市若狭
9170115,福井県,小浜市,仏谷,フクイケン,オバマシ,ホトケダニ,福井県小浜市仏谷
9170116,福井県,小浜市,堅海,フクイケン,オバマシ,カツミ,福井県小浜市堅海
9170117,福井県,小浜市,泊,フクイケン,オバマシ,トマリ,福井県小浜市泊
9170221,福井県,小浜市,大谷,フクイケン,オバマシ,オオタニ,福井県小浜市大谷
9170222,福井県,小浜市,新保,フクイケン,オバマシ,シンボ,福井県小浜市新保
9170223,福井県,小浜市,加茂,フクイケン,オバマシ,カモ,福井県小浜市加茂
9170223,福井県,小浜市,大戸,フクイケン,オバマシ,オオド,福井県小浜市大戸
9170224,福井県,小浜市,竹長,フクイケン,オバマシ,タケナガ,福井県小浜市竹長
9170225,福井県,小浜市,本保,フクイケン,オバマシ,ホンボ,福井県小浜市本保
9170226,福井県,小浜市,平野,フクイケン,オバマシ,ヒラノ,福井県小浜市平野
9170231,福井県,小浜市,国分,フクイケン,オバマシ,コクブ,福井県小浜市国分
9170232,福井県,小浜市,東市場,フクイケン,オバマシ,トイチバ,福井県小浜市東市場
9170233,福井県,小浜市,太興寺,フクイケン,オバマシ,タイコウジ,福井県小浜市太興寺
9170234,福井県,小浜市,上野,フクイケン,オバマシ,ウエノ,福井県小浜市上野
9170235,福井県,小浜市,四分一,フクイケン,オバマシ,シブイチ,福井県小浜市四分一
9170236,福井県,小浜市,三分一,フクイケン,オバマシ,サンブイチ,福井県小浜市三分一
9170237,福井県,小浜市,門前,フクイケン,オバマシ,モンゼン,福井県小浜市門前
9170238,福井県,小浜市,池河内,フクイケン,オバマシ,イケノコウチ,福井県小浜市池河内
9170241,福井県,小浜市,中村,フクイケン,オバマシ,ナカムラ,福井県小浜市中村
9170241,福井県,小浜市,島,フクイケン,オバマシ,シマ,福井県小浜市島
9170241,福井県,小浜市,市場,フクイケン,オバマシ,イチバ,福井県小浜市市場
9170241,福井県,小浜市,検見坂,フクイケン,オバマシ,ケンミザカ,福井県小浜市検見坂
9170241,福井県,小浜市,池田,フクイケン,オバマシ,イケダ,福井県小浜市池田
9170241,福井県,小浜市,遠敷,フクイケン,オバマシ,オニュウ,福井県小浜市遠敷
9170242,福井県,小浜市,中の宮,フクイケン,オバマシ,ナカノミヤ,福井県小浜市中の宮
9170242,福井県,小浜市,金屋,フクイケン,オバマシ,カナヤ,福井県小浜市金屋
9170243,福井県,小浜市,竜前,フクイケン,オバマシ,リュウゼン,福井県小浜市竜前
9170244,福井県,小浜市,神宮寺,フクイケン,オバマシ,ジングウジ,福井県小浜市神宮寺
9170245,福井県,小浜市,忠野,フクイケン,オバマシ,チュウノ,福井県小浜市忠野
9170246,福井県,小浜市,下根来,フクイケン,オバマシ,シモネゴリ,福井県小浜市下根来
9170247,福井県,小浜市,中ノ畑,フクイケン,オバマシ,ナカノハタ,福井県小浜市中ノ畑
9170248,福井県,小浜市,上根来,フクイケン,オバマシ,カミネゴリ,福井県小浜市上根来
9170249,福井県,小浜市,宮の前,フクイケン,オバマシ,ミヤノマエ,福井県小浜市宮の前
9170351,福井県,小浜市,田茂谷,フクイケン,オバマシ,タモタニ,福井県小浜市田茂谷
9170352,福井県,小浜市,深谷,フクイケン,オバマシ,フカタニ,福井県小浜市深谷
9170353,福井県,小浜市,深野,フクイケン,オバマシ,フカノ,福井県小浜市深野
9170354,福井県,小浜市,和多田,フクイケン,オバマシ,ワダタ,福井県小浜市和多田
9170355,福井県,小浜市,下田,フクイケン,オバマシ,シモタ,福井県小浜市下田
9170356,福井県,小浜市,上田,フクイケン,オバマシ,カミタ,福井県小浜市上田
9170357,福井県,小浜市,小屋,フクイケン,オバマシ,オヤ,福井県小浜市小屋
9170361,福井県,大飯郡おおい町,名田庄出合,フクイケン,オオイグンオオイチョウ,ナタショウデアイ,福井県大飯郡おおい町名田庄出合
9170361,福井県,大飯郡おおい町,名田庄挙原,フクイケン,オオイグンオオイチョウ,ナタショウアゲハラ,福井県大飯郡おおい町名田庄挙原
9170361,福井県,大飯郡おおい町,名田庄木谷,フクイケン,オオイグンオオイチョウ,ナタショウキダニ,福井県大飯郡おおい町名田庄木谷
9170361,福井県,大飯郡おおい町,名田庄虫谷,フクイケン,オオイグンオオイチョウ,ナタショウムシダニ,福井県大飯郡おおい町名田庄虫谷
9170362,福井県,大飯郡おおい町,名田庄永谷,フクイケン,オオイグンオオイチョウ,ナタショウナガタニ,福井県大飯郡おおい町名田庄永谷
9170363,福井県,大飯郡おおい町,名田庄挙野,フクイケン,オオイグンオオイチョウ,ナタショウアゲノ,福井県大飯郡おおい町名田庄挙野
9170364,福井県,大飯郡おおい町,名田庄虫鹿野,フクイケン,オオイグンオオイチョウ,ナタショウムシガノ,福井県大飯郡おおい町名田庄虫鹿野
9170365,福井県,大飯郡おおい町,名田庄小倉畑,フクイケン,オオイグンオオイチョウ,ナタショウオグラハタ,福井県大飯郡おおい町名田庄小倉畑
9170371,福井県,大飯郡おおい町,名田庄小倉,フクイケン,オオイグンオオイチョウ,ナタショウオグラ,福井県大飯郡おおい町名田庄小倉
9170372,福井県,大飯郡おおい町,名田庄堂本,フクイケン,オオイグンオオイチョウ,ナタショウドウモト,福井県大飯郡おおい町名田庄堂本
9170373,福井県,大飯郡おおい町,名田庄染ケ谷,フクイケン,オオイグンオオイチョウ,ナタショウソメガタニ,福井県大飯郡おおい町名田庄染ケ谷
9170373,福井県,大飯郡おおい町,名田庄槇谷,フクイケン,オオイグンオオイチョウ,ナタショウマキダニ,福井県大飯郡おおい町名田庄槇谷
9170374,福井県,大飯郡おおい町,名田庄中,フクイケン,オオイグンオオイチョウ,ナタショウナカ,福井県大飯郡おおい町名田庄中
9170375,福井県,大飯郡おおい町,名田庄納田終,フクイケン,オオイグンオオイチョウ,ナタショウノタオイ,福井県大飯郡おおい町名田庄納田終
9170381,福井県,大飯郡おおい町,名田庄三重,フクイケン,オオイグンオオイチョウ,ナタショウミエ,福井県大飯郡おおい町名田庄三重
9170382,福井県,大飯郡おおい町,名田庄久坂,フクイケン,オオイグンオオイチョウ,ナタショウヒササカ,福井県大飯郡おおい町名田庄久坂
9170383,福井県,大飯郡おおい町,名田庄下,フクイケン,オオイグンオオイチョウ,ナタショウシモ,福井県大飯郡おおい町名田庄下
9170384,福井県,大飯郡おおい町,名田庄西谷,フクイケン,オオイグンオオイチョウ,ナタショウニシダニ,福井県大飯郡おおい町名田庄西谷
9170385,福井県,大飯郡おおい町,名田庄井上,フクイケン,オオイグンオオイチョウ,ナタショウイガミ,福井県大飯郡おおい町名田庄井上
9170386,福井県,大飯郡おおい町,名田庄口坂本,フクイケン,オオイグンオオイチョウ,ナタショウクチサカモト,福井県大飯郡おおい町名田庄口坂本
9170387,福井県,大飯郡おおい町,名田庄奥坂本,フクイケン,オオイグンオオイチョウ,ナタショウオクサカモト,福井県大飯郡おおい町名田庄奥坂本
9180000,福井県,福井市,,フクイケン,フクイシ,,福井県福井市
9188001,福井県,福井市,つくも,フクイケン,フクイシ,ツクモ,福井県福井市つくも
9188002,福井県,福井市,左内町,フクイケン,フクイシ,サナイチョウ,福井県福井市左内町
9188003,福井県,福井市,毛矢,フクイケン,フクイシ,ケヤ,福井県福井市毛矢
9188004,福井県,福井市,西木田,フクイケン,フクイシ,ニシキダ,福井県福井市西木田
9188005,福井県,福井市,みのり,フクイケン,フクイシ,ミノリ,福井県福井市みのり
9188006,福井県,福井市,足羽上町,フクイケン,フクイシ,アスワカミチョウ,福井県福井市足羽上町
9188007,福井県,福井市,足羽,フクイケン,フクイシ,アスワ,福井県福井市足羽
9188008,福井県,福井市,有楽町,フクイケン,フクイシ,ユウラクチョウ,福井県福井市有楽町
9188009,福井県,福井市,山奥町,フクイケン,フクイシ,ヤマオクチョウ,福井県福井市山奥町
9188011,福井県,福井市,月見,フクイケン,フクイシ,ツキミ,福井県福井市月見
9188012,福井県,福井市,花堂北,フクイケン,フクイシ,ハナンドウキタ,福井県福井市花堂北
9188013,福井県,福井市,花堂東,フクイケン,フクイシ,ハナンドウヒガシ,福井県福井市花堂東
9188014,福井県,福井市,花堂中,フクイケン,フクイシ,ハナンドウナカ,福井県福井市花堂中
9188015,福井県,福井市,花堂南,フクイケン,フクイシ,ハナンドウミナミ,福井県福井市花堂南
9188016,福井県,福井市,江端町,フクイケン,フクイシ,エバタチョウ,福井県福井市江端町
9188017,福井県,福井市,下荒井町,フクイケン,フクイシ,シモアライチョウ,福井県福井市下荒井町
9188018,福井県,福井市,大島町,フクイケン,フクイシ,オオシマチョウ,福井県福井市大島町
9188021,福井県,福井市,門前,フクイケン,フクイシ,モンゼン,福井県福井市門前
9188021,福井県,福井市,門前町,フクイケン,フクイシ,モンゼンチョウ,福井県福井市門前町
9188022,福井県,福井市,西谷町,フクイケン,フクイシ,ニシタニチョウ,福井県福井市西谷町
9188023,福井県,福井市,西谷,フクイケン,フクイシ,ニシタニ,福井県福井市西谷
9188024,福井県,福井市,舞屋町,フクイケン,フクイシ,マイヤチョウ,福井県福井市舞屋町
9188025,福井県,福井市,江守中,フクイケン,フクイシ,エモリナカ,福井県福井市江守中
9188025,福井県,福井市,江守中町,フクイケン,フクイシ,エモリナカチョウ,福井県福井市江守中町
9188026,福井県,福井市,渕,フクイケン,フクイシ,フチ,福井県福井市渕
9188026,福井県,福井市,渕町,フクイケン,フクイシ,フチマチ,福井県福井市渕町
9188027,福井県,福井市,福,フクイケン,フクイシ,フク,福井県福井市福
9188027,福井県,福井市,福町,フクイケン,フクイシ,フクマチ,福井県福井市福町
9188031,福井県,福井市,種池,フクイケン,フクイシ,タナイケ,福井県福井市種池
9188031,福井県,福井市,種池町,フクイケン,フクイシ,タナイケチョウ,福井県福井市種池町
9188032,福井県,福井市,南江守町,フクイケン,フクイシ,ミナミエモリチョウ,福井県福井市南江守町
9188033,福井県,福井市,合谷町,フクイケン,フクイシ,ゴウダニチョウ,福井県福井市合谷町
9188034,福井県,福井市,南居町,フクイケン,フクイシ,ナゴチョウ,福井県福井市南居町
9188035,福井県,福井市,江守の里,フクイケン,フクイシ,エモリノサト,福井県福井市江守の里
9188036,福井県,福井市,新下江守町,フクイケン,フクイシ,シンシモエモリチョウ,福井県福井市新下江守町
9188037,福井県,福井市,下江守町,フクイケン,フクイシ,シモエモリチョウ,福井県福井市下江守町
9188041,福井県,福井市,西下野町,フクイケン,フクイシ,ニシシモノチョウ,福井県福井市西下野町
9188042,福井県,福井市,東下野町,フクイケン,フクイシ,ヒガシシモノチョウ,福井県福井市東下野町
9188043,福井県,福井市,狐橋,フクイケン,フクイシ,キツネバシ,福井県福井市狐橋
9188044,福井県,福井市,高塚町,フクイケン,フクイシ,タカツカチョウ,福井県福井市高塚町
9188045,福井県,福井市,福新町,フクイケン,フクイシ,フクシンマチ,福井県福井市福新町
9188046,福井県,福井市,運動公園,フクイケン,フクイシ,ウンドウコウエン,福井県福井市運動公園
9188047,福井県,福井市,久喜津町,フクイケン,フクイシ,クキヅチョウ,福井県福井市久喜津町
9188051,福井県,福井市,桃園,フクイケン,フクイシ,モモゾノ,福井県福井市桃園
9188052,福井県,福井市,明里町,フクイケン,フクイシ,アカリチョウ,福井県福井市明里町
9188053,福井県,福井市,小山谷町,フクイケン,フクイシ,オヤマダニチョウ,福井県福井市小山谷町
9188054,福井県,福井市,加茂河原町,フクイケン,フクイシ,カモガワラチョウ,福井県福井市加茂河原町
9188055,福井県,福井市,若杉,フクイケン,フクイシ,ワカスギ,福井県福井市若杉
9188055,福井県,福井市,若杉町,フクイケン,フクイシ,ワカスギチョウ,福井県福井市若杉町
9188056,福井県,福井市,若杉浜,フクイケン,フクイシ,ワカスギハマ,福井県福井市若杉浜
9188057,福井県,福井市,加茂河原,フクイケン,フクイシ,カモガワラ,福井県福井市加茂河原
9188058,福井県,福井市,加茂緑苑町,フクイケン,フクイシ,カモリョクエンチョウ,福井県福井市加茂緑苑町
9188061,福井県,福井市,金屋町,フクイケン,フクイシ,カナヤチョウ,福井県福井市金屋町
9188062,福井県,福井市,下市町,フクイケン,フクイシ,シモイチチョウ,福井県福井市下市町
9188063,福井県,福井市,大瀬町,フクイケン,フクイシ,オオセチョウ,福井県福井市大瀬町
9188064,福井県,福井市,西学園,フクイケン,フクイシ,ニシガクエン,福井県福井市西学園
9188065,福井県,福井市,水越,フクイケン,フクイシ,ミズコシ,福井県福井市水越
9188066,福井県,福井市,渡町,フクイケン,フクイシ,ワタリチョウ,福井県福井市渡町
9188067,福井県,福井市,飯塚町,フクイケン,フクイシ,イイヅカチョウ,福井県福井市飯塚町
9188068,福井県,福井市,角折町,フクイケン,フクイシ,ツノオリチョウ,福井県福井市角折町
9188071,福井県,福井市,恐神町,フクイケン,フクイシ,オソガミチョウ,福井県福井市恐神町
9188072,福井県,福井市,北堀町,フクイケン,フクイシ,キタホリチョウ,福井県福井市北堀町
9188073,福井県,福井市,安田町,フクイケン,フクイシ,ヤスダチョウ,福井県福井市安田町
9188074,福井県,福井市,細坂町,フクイケン,フクイシ,ホソサカチョウ,福井県福井市細坂町
9188075,福井県,福井市,羽坂町,フクイケン,フクイシ,ハザカチョウ,福井県福井市羽坂町
9188076,福井県,福井市,本堂町,フクイケン,フクイシ,ホンドウチョウ,福井県福井市本堂町
9188077,福井県,福井市,末町,フクイケン,フクイシ,スエマチ,福井県福井市末町
9188078,福井県,福井市,更毛町,フクイケン,フクイシ,サラゲチョウ,福井県福井市更毛町
9188081,福井県,福井市,上一光町,フクイケン,フクイシ,カミイカリチョウ,福井県福井市上一光町
9188082,福井県,福井市,下一光町,フクイケン,フクイシ,シモイカリチョウ,福井県福井市下一光町
9188083,福井県,福井市,五太子町,フクイケン,フクイシ,ゴタイシチョウ,福井県福井市五太子町
9188101,福井県,福井市,一本木町,フクイケン,フクイシ,イッポンギチョウ,福井県福井市一本木町
9188102,福井県,福井市,西板垣町,フクイケン,フクイシ,ニシイタガキチョウ,福井県福井市西板垣町
9188103,福井県,福井市,板垣町,フクイケン,フクイシ,イタガキチョウ,福井県福井市板垣町
9188104,福井県,福井市,板垣,フクイケン,フクイシ,イタガキ,福井県福井市板垣
9188105,福井県,福井市,木田,フクイケン,フクイシ,キダ,福井県福井市木田
9188106,福井県,福井市,木田町,フクイケン,フクイシ,キダチョウ,福井県福井市木田町
9188107,福井県,福井市,春日町,フクイケン,フクイシ,カスガチョウ,福井県福井市春日町
9188108,福井県,福井市,春日,フクイケン,フクイシ,カスガ,福井県福井市春日
9188111,福井県,福井市,馬垣町,フクイケン,フクイシ,ウマガキチョウ,福井県福井市馬垣町
9188112,福井県,福井市,下馬,フクイケン,フクイシ,ゲバ,福井県福井市下馬
9188113,福井県,福井市,下馬町,フクイケン,フクイシ,ゲバチョウ,福井県福井市下馬町
9188114,福井県,福井市,羽水,フクイケン,フクイシ,ウスイ,福井県福井市羽水
9188115,福井県,福井市,別所町,フクイケン,フクイシ,ベッショチョウ,福井県福井市別所町
9188116,福井県,福井市,大町,フクイケン,フクイシ,オオマチ,福井県福井市大町
9188131,福井県,福井市,小稲津町,フクイケン,フクイシ,コイナヅチョウ,福井県福井市小稲津町
9188132,福井県,福井市,上六条町,フクイケン,フクイシ,カミロクジョウチョウ,福井県福井市上六条町
9188133,福井県,福井市,上莇生田町,フクイケン,フクイシ,カミアゾウダチョウ,福井県福井市上莇生田町
9188134,福井県,福井市,下莇生田町,フクイケン,フクイシ,シモアゾウダチョウ,福井県福井市下莇生田町
9188135,福井県,福井市,下六条町,フクイケン,フクイシ,シモロクジョウチョウ,福井県福井市下六条町
9188136,福井県,福井市,天王町,フクイケン,フクイシ,テンノウチョウ,福井県福井市天王町
9188151,福井県,福井市,中荒井町,フクイケン,フクイシ,ナカアライマチ,福井県福井市中荒井町
9188152,福井県,福井市,今市町,フクイケン,フクイシ,イマイチチョウ,福井県福井市今市町
9188153,福井県,福井市,安保町,フクイケン,フクイシ,アボチョウ,福井県福井市安保町
9188154,福井県,福井市,冬野町,フクイケン,フクイシ,フユノチョウ,福井県福井市冬野町
9188155,福井県,福井市,杉谷町,フクイケン,フクイシ,スギタニチョウ,福井県福井市杉谷町
9188156,福井県,福井市,引目町,フクイケン,フクイシ,ヒキメチョウ,福井県福井市引目町
9188161,福井県,福井市,鉾ケ崎町,フクイケン,フクイシ,ホコガサキチョウ,福井県福井市鉾ケ崎町
9188162,福井県,福井市,角原町,フクイケン,フクイシ,ツノハラチョウ,福井県福井市角原町
9188163,福井県,福井市,生野町,フクイケン,フクイシ,ショウノチョウ,福井県福井市生野町
9188164,福井県,福井市,三本木町,フクイケン,フクイシ,サンボンギチョウ,福井県福井市三本木町
9188165,福井県,福井市,徳尾町,フクイケン,フクイシ,トクオチョウ,福井県福井市徳尾町
9188166,福井県,福井市,主計中町,フクイケン,フクイシ,カズエナカチョウ,福井県福井市主計中町
9188171,福井県,福井市,森行町,フクイケン,フクイシ,モリユキチョウ,福井県福井市森行町
9188172,福井県,福井市,末広町,フクイケン,フクイシ,スエヒロマチ,福井県福井市末広町
9188173,福井県,福井市,下江尻町,フクイケン,フクイシ,シモエジリチョウ,福井県福井市下江尻町
9188174,福井県,福井市,上江尻町,フクイケン,フクイシ,カミエジリチョウ,福井県福井市上江尻町
9188175,福井県,福井市,江尻ケ丘町,フクイケン,フクイシ,エジリガオカチョウ,福井県福井市江尻ケ丘町
9188176,福井県,福井市,三十八社町,フクイケン,フクイシ,サンジュウハッシャチョウ,福井県福井市三十八社町
9188181,福井県,福井市,浅水町,フクイケン,フクイシ,アソウズチョウ,福井県福井市浅水町
9188182,福井県,福井市,浅水二日町,フクイケン,フクイシ,アソウズフツカマチ,福井県福井市浅水二日町
9188183,福井県,福井市,浅水三ケ町,フクイケン,フクイシ,アソウズサンガチョウ,福井県福井市浅水三ケ町
9188184,福井県,福井市,真木町,フクイケン,フクイシ,マキチョウ,福井県福井市真木町
9188185,福井県,福井市,中野町,フクイケン,フクイシ,ナカノチョウ,福井県福井市中野町
9188186,福井県,福井市,中野,フクイケン,フクイシ,ナカノ,福井県福井市中野
9188187,福井県,福井市,花守町,フクイケン,フクイシ,ハナモリチョウ,福井県福井市花守町
9188188,福井県,福井市,三尾野町,フクイケン,フクイシ,ミオノチョウ,福井県福井市三尾野町
9188201,福井県,福井市,南四ツ居町,フクイケン,フクイシ,ミナミヨツイチョウ,福井県福井市南四ツ居町
9188202,福井県,福井市,大東,フクイケン,フクイシ,ダイトウ,福井県福井市大東
9188203,福井県,福井市,上北野,フクイケン,フクイシ,カミキタノ,福井県福井市上北野
9188204,福井県,福井市,南四ツ居,フクイケン,フクイシ,ミナミヨツイ,福井県福井市南四ツ居
9188205,福井県,福井市,北四ツ居,フクイケン,フクイシ,キタヨツイ,福井県福井市北四ツ居
9188206,福井県,福井市,北四ツ居町,フクイケン,フクイシ,キタヨツイチョウ,福井県福井市北四ツ居町
9188207,福井県,福井市,円山,フクイケン,フクイシ,エンザン,福井県福井市円山
9188211,福井県,福井市,下中町,フクイケン,フクイシ,シモナカチョウ,福井県福井市下中町
9188212,福井県,福井市,北今泉町,フクイケン,フクイシ,キタイマイズミチョウ,福井県福井市北今泉町
9188213,福井県,福井市,今泉町,フクイケン,フクイシ,イマイズミチョウ,福井県福井市今泉町
9188214,福井県,福井市,東今泉町,フクイケン,フクイシ,ヒガシイマイズミチョウ,福井県福井市東今泉町
9188215,福井県,福井市,寮町,フクイケン,フクイシ,リョウマチ,福井県福井市寮町
9188216,福井県,福井市,殿下町,フクイケン,フクイシ,テンガチョウ,福井県福井市殿下町
9188217,福井県,福井市,印田町,フクイケン,フクイシ,インデンチョウ,福井県福井市印田町
9188218,福井県,福井市,河増町,フクイケン,フクイシ,コウマスチョウ,福井県福井市河増町
9188221,福井県,福井市,堅達町,フクイケン,フクイシ,ゲンダツチョウ,福井県福井市堅達町
9188222,福井県,福井市,坂下町,フクイケン,フクイシ,サカシタチョウ,福井県福井市坂下町
9188223,福井県,福井市,河水町,フクイケン,フクイシ,コウスイチョウ,福井県福井市河水町
9188224,福井県,福井市,花野谷町,フクイケン,フクイシ,ハナノタニチョウ,福井県福井市花野谷町
9188225,福井県,福井市,宮地町,フクイケン,フクイシ,ミヤジチョウ,福井県福井市宮地町
9188226,福井県,福井市,大畑町,フクイケン,フクイシ,オバタケチョウ,福井県福井市大畑町
9188227,福井県,福井市,次郎丸町,フクイケン,フクイシ,ジロウマルチョウ,福井県福井市次郎丸町
9188228,福井県,福井市,岡西谷町,フクイケン,フクイシ,オカニシタニチョウ,福井県福井市岡西谷町
9188231,福井県,福井市,問屋町,フクイケン,フクイシ,トイヤチョウ,福井県福井市問屋町
9188232,福井県,福井市,荒木別所町,フクイケン,フクイシ,アラキベッシヨチョウ,福井県福井市荒木別所町
9188233,福井県,福井市,合島町,フクイケン,フクイシ,ゴウシマチョウ,福井県福井市合島町
9188234,福井県,福井市,曽万布町,フクイケン,フクイシ,ソンボチョウ,福井県福井市曽万布町
9188235,福井県,福井市,和田中町,フクイケン,フクイシ,ワダナカチョウ,福井県福井市和田中町
9188236,福井県,福井市,和田中,フクイケン,フクイシ,ワダナカ,福井県福井市和田中
9188237,福井県,福井市,和田東,フクイケン,フクイシ,ワダヒガシ,福井県福井市和田東
9188238,福井県,福井市,和田,フクイケン,フクイシ,ワダ,福井県福井市和田
9188239,福井県,福井市,成和,フクイケン,フクイシ,セイワ,福井県福井市成和
9190101,福井県,南条郡南越前町,湯尾,フクイケン,ナンジョウグンミナミエチゼンチョウ,ユノオ,福井県南条郡南越前町湯尾
9190102,福井県,南条郡南越前町,八乙女,フクイケン,ナンジョウグンミナミエチゼンチョウ,ヤオトメ,福井県南条郡南越前町八乙女
9190103,福井県,南条郡南越前町,社谷,フクイケン,ナンジョウグンミナミエチゼンチョウ,ヤシロダニ,福井県南条郡南越前町社谷
9190104,福井県,南条郡南越前町,燧,フクイケン,ナンジョウグンミナミエチゼンチョウ,ヒウチ,福井県南条郡南越前町燧
9190111,福井県,南条郡南越前町,杉谷,フクイケン,ナンジョウグンミナミエチゼンチョウ,スギタニ,福井県南条郡南越前町杉谷
9190112,福井県,南条郡南越前町,杣木俣,フクイケン,ナンジョウグンミナミエチゼンチョウ,ソマキマタ,福井県南条郡南越前町杣木俣
9190113,福井県,南条郡南越前町,瀬戸,フクイケン,ナンジョウグンミナミエチゼンチョウ,セト,福井県南条郡南越前町瀬戸
9190114,福井県,南条郡南越前町,小倉谷,フクイケン,ナンジョウグンミナミエチゼンチョウ,オグラタニ,福井県南条郡南越前町小倉谷
9190115,福井県,南条郡南越前町,上温谷,フクイケン,ナンジョウグンミナミエチゼンチョウ,カミヌクダニ,福井県南条郡南越前町上温谷
9190116,福井県,南条郡南越前町,古木,フクイケン,ナンジョウグンミナミエチゼンチョウ,フルキ,福井県南条郡南越前町古木
9190117,福井県,南条郡南越前町,馬上免,フクイケン,ナンジョウグンミナミエチゼンチョウ,バジョウメン,福井県南条郡南越前町馬上免
9190118,福井県,南条郡南越前町,長沢,フクイケン,ナンジョウグンミナミエチゼンチョウ,ナガサワ,福井県南条郡南越前町長沢
9190119,福井県,南条郡南越前町,久喜,フクイケン,ナンジョウグンミナミエチゼンチョウ,クキ,福井県南条郡南越前町久喜
9190121,福井県,南条郡南越前町,合波,フクイケン,ナンジョウグンミナミエチゼンチョウ,アイバ,福井県南条郡南越前町合波
9190122,福井県,南条郡南越前町,大門,フクイケン,ナンジョウグンミナミエチゼンチョウ,ダイモン,福井県南条郡南越前町大門
9190123,福井県,南条郡南越前町,荒井,フクイケン,ナンジョウグンミナミエチゼンチョウ,アライ,福井県南条郡南越前町荒井
9190124,福井県,南条郡南越前町,八飯,フクイケン,ナンジョウグンミナミエチゼンチョウ,ヤイ,福井県南条郡南越前町八飯
9190125,福井県,南条郡南越前町,宇津尾,フクイケン,ナンジョウグンミナミエチゼンチョウ,ウツオ,福井県南条郡南越前町宇津尾
9190126,福井県,南条郡南越前町,橋立,フクイケン,ナンジョウグンミナミエチゼンチョウ,ハシタテ,福井県南条郡南越前町橋立
9190127,福井県,南条郡南越前町,広野,フクイケン,ナンジョウグンミナミエチゼンチョウ,ヒロノ,福井県南条郡南越前町広野
9190128,福井県,南条郡南越前町,板取,フクイケン,ナンジョウグンミナミエチゼンチョウ,イタドリ,福井県南条郡南越前町板取
9190129,福井県,南条郡南越前町,孫谷,フクイケン,ナンジョウグンミナミエチゼンチョウ,マゴタニ,福井県南条郡南越前町孫谷
9190131,福井県,南条郡南越前町,今庄,フクイケン,ナンジョウグンミナミエチゼンチョウ,イマジョウ,福井県南条郡南越前町今庄
9190132,福井県,南条郡南越前町,南今庄,フクイケン,ナンジョウグンミナミエチゼンチョウ,ミナミイマジョウ,福井県南条郡南越前町南今庄
9190133,福井県,南条郡南越前町,新道,フクイケン,ナンジョウグンミナミエチゼンチョウ,シンドウ,福井県南条郡南越前町新道
9190135,福井県,南条郡南越前町,二ツ屋,フクイケン,ナンジョウグンミナミエチゼンチョウ,フタツヤ,福井県南条郡南越前町二ツ屋
9190136,福井県,南条郡南越前町,大桐,フクイケン,ナンジョウグンミナミエチゼンチョウ,オオギリ,福井県南条郡南越前町大桐
9190200,福井県,南条郡南越前町,,フクイケン,ナンジョウグンミナミエチゼンチョウ,,福井県南条郡南越前町
9190201,福井県,南条郡南越前町,上平吹,フクイケン,ナンジョウグンミナミエチゼンチョウ,カミヒラブキ,福井県南条郡南越前町上平吹
9190202,福井県,南条郡南越前町,鋳物師,フクイケン,ナンジョウグンミナミエチゼンチョウ,イモノシ,福井県南条郡南越前町鋳物師
9190203,福井県,南条郡南越前町,牧谷,フクイケン,ナンジョウグンミナミエチゼンチョウ,マキダニ,福井県南条郡南越前町牧谷
9190204,福井県,南条郡南越前町,上野,フクイケン,ナンジョウグンミナミエチゼンチョウ,ウエノ,福井県南条郡南越前町上野
9190205,福井県,南条郡南越前町,堂宮,フクイケン,ナンジョウグンミナミエチゼンチョウ,ドウミヤ,福井県南条郡南越前町堂宮
9190206,福井県,南条郡南越前町,金粕,フクイケン,ナンジョウグンミナミエチゼンチョウ,カネガス,福井県南条郡南越前町金粕
9190211,福井県,南条郡南越前町,関ケ鼻,フクイケン,ナンジョウグンミナミエチゼンチョウ,セキガハナ,福井県南条郡南越前町関ケ鼻
9190212,福井県,南条郡南越前町,鯖波,フクイケン,ナンジョウグンミナミエチゼンチョウ,サバナミ,福井県南条郡南越前町鯖波
9190213,福井県,南条郡南越前町,阿久和,フクイケン,ナンジョウグンミナミエチゼンチョウ,アクワ,福井県南条郡南越前町阿久和
9190214,福井県,南条郡南越前町,中小屋,フクイケン,ナンジョウグンミナミエチゼンチョウ,ナカゴヤ,福井県南条郡南越前町中小屋
9190215,福井県,南条郡南越前町,奥野々,フクイケン,ナンジョウグンミナミエチゼンチョウ,オクノノ,福井県南条郡南越前町奥野々
9190216,福井県,南条郡南越前町,上別所,フクイケン,ナンジョウグンミナミエチゼンチョウ,カミベッショ,福井県南条郡南越前町上別所
9190217,福井県,南条郡南越前町,杣山,フクイケン,ナンジョウグンミナミエチゼンチョウ,ソマヤマ,福井県南条郡南越前町杣山
9190221,福井県,南条郡南越前町,島,フクイケン,ナンジョウグンミナミエチゼンチョウ,シマ,福井県南条郡南越前町島
9190222,福井県,南条郡南越前町,日野,フクイケン,ナンジョウグンミナミエチゼンチョウ,ヒノ,福井県南条郡南越前町日野
9190223,福井県,南条郡南越前町,東大道,フクイケン,ナンジョウグンミナミエチゼンチョウ,ヒガシダイドウ,福井県南条郡南越前町東大道
9190224,福井県,南条郡南越前町,西大道,フクイケン,ナンジョウグンミナミエチゼンチョウ,ニシダイドウ,福井県南条郡南越前町西大道
9190225,福井県,南条郡南越前町,東谷,フクイケン,ナンジョウグンミナミエチゼンチョウ,ヒガシダニ,福井県南条郡南越前町東谷
9190226,福井県,南条郡南越前町,清水,フクイケン,ナンジョウグンミナミエチゼンチョウ,シミズ,福井県南条郡南越前町清水
9190227,福井県,南条郡南越前町,脇本,フクイケン,ナンジョウグンミナミエチゼンチョウ,ワキモト,福井県南条郡南越前町脇本
9190301,福井県,福井市,下細江町,フクイケン,フクイシ,シモホソエチョウ,福井県福井市下細江町
9190302,福井県,福井市,上細江町,フクイケン,フクイシ,カミホソエチョウ,福井県福井市上細江町
9190303,福井県,福井市,岩倉町,フクイケン,フクイシ,イワクラチョウ,福井県福井市岩倉町
9190304,福井県,福井市,田中町,フクイケン,フクイシ,タナカチョウ,福井県福井市田中町
9190305,福井県,福井市,徳光町,フクイケン,フクイシ,トクミツチョウ,福井県福井市徳光町
9190311,福井県,福井市,田治島町,フクイケン,フクイシ,タジシマチョウ,福井県福井市田治島町
9190312,福井県,福井市,東大味町,フクイケン,フクイシ,ヒガシオオミチョウ,福井県福井市東大味町
9190313,福井県,福井市,西大味町,フクイケン,フクイシ,ニシオオミチョウ,福井県福井市西大味町
9190314,福井県,福井市,生部町,フクイケン,フクイシ,イケブチョウ,福井県福井市生部町
9190315,福井県,福井市,西袋町,フクイケン,フクイシ,ニシブクロチョウ,福井県福井市西袋町
9190316,福井県,福井市,大村町,フクイケン,フクイシ,オオムラチョウ,福井県福井市大村町
9190317,福井県,福井市,北山町,フクイケン,フクイシ,キタヤマチョウ,福井県福井市北山町
9190318,福井県,福井市,北山新保町,フクイケン,フクイシ,キタヤマシンボチョウ,福井県福井市北山新保町
9190321,福井県,福井市,下河北町,フクイケン,フクイシ,シモコギタチョウ,福井県福井市下河北町
9190322,福井県,福井市,上河北町,フクイケン,フクイシ,カミコギタチョウ,福井県福井市上河北町
9190323,福井県,福井市,太田町,フクイケン,フクイシ,オオタチョウ,福井県福井市太田町
9190324,福井県,福井市,帆谷町,フクイケン,フクイシ,ホダニチョウ,福井県福井市帆谷町
9190325,福井県,福井市,二上町,フクイケン,フクイシ,フタガミチョウ,福井県福井市二上町
9190326,福井県,福井市,半田町,フクイケン,フクイシ,ハンダチョウ,福井県福井市半田町
9190327,福井県,福井市,大土呂町,フクイケン,フクイシ,オオドロチョウ,福井県福井市大土呂町
9190328,福井県,福井市,新開町,フクイケン,フクイシ,シンビラキチョウ,福井県福井市新開町
9190373,福井県,福井市,下東郷町（新村）,フクイケン,フクイシ,シモトウゴウチョウ(シンムラ),福井県福井市下東郷町（新村）
9190401,福井県,坂井市,春江町堀越,フクイケン,サカイシ,ハルエチョウホリコシ,福井県坂井市春江町堀越
9190402,福井県,坂井市,春江町大牧,フクイケン,サカイシ,ハルエチョウオオマキ,福井県坂井市春江町大牧
9190403,福井県,坂井市,春江町井向,フクイケン,サカイシ,ハルエチョウイノムカイ,福井県坂井市春江町井向
9190404,福井県,坂井市,春江町西長田,フクイケン,サカイシ,ハルエチョウニシナガタ,福井県坂井市春江町西長田
9190405,福井県,坂井市,春江町上小森,フクイケン,サカイシ,ハルエチョウカミコモリ,福井県坂井市春江町上小森
9190406,福井県,坂井市,春江町下小森,フクイケン,サカイシ,ハルエチョウシモコモリ,福井県坂井市春江町下小森
9190407,福井県,坂井市,春江町辻,フクイケン,サカイシ,ハルエチョウツジ,福井県坂井市春江町辻
9190408,福井県,坂井市,春江町木部西方寺,フクイケン,サカイシ,ハルエチョウキベサイホウジ,福井県坂井市春江町木部西方寺
9190409,福井県,坂井市,春江町定広,フクイケン,サカイシ,ハルエチョウサダヒロ,福井県坂井市春江町定広
9190411,福井県,坂井市,春江町藤鷲塚,フクイケン,サカイシ,ハルエチョウフジワシヅカ,福井県坂井市春江町藤鷲塚
9190412,福井県,坂井市,春江町江留中,フクイケン,サカイシ,ハルエチョウエドメナカ,福井県坂井市春江町江留中
9190413,福井県,坂井市,春江町随応寺,フクイケン,サカイシ,ハルエチョウズイオウジ,福井県坂井市春江町随応寺
9190414,福井県,坂井市,春江町江留下屋敷,フクイケン,サカイシ,ハルエチョウエドメシモヤシキ,福井県坂井市春江町江留下屋敷
9190415,福井県,坂井市,春江町江留下,フクイケン,サカイシ,ハルエチョウエドメシモ,福井県坂井市春江町江留下
9190416,福井県,坂井市,春江町江留下宇和江,フクイケン,サカイシ,ハルエチョウエドメシモウワエ,福井県坂井市春江町江留下宇和江
9190417,福井県,坂井市,春江町江留下相田,フクイケン,サカイシ,ハルエチョウエドメシモアイデン,福井県坂井市春江町江留下相田
9190418,福井県,坂井市,春江町江留下高道,フクイケン,サカイシ,ハルエチョウエドメシモタカミチ,福井県坂井市春江町江留下高道
9190419,福井県,坂井市,春江町随応寺東,フクイケン,サカイシ,ハルエチョウズイオウジヒガシ,福井県坂井市春江町随応寺東
9190421,福井県,坂井市,春江町大針,フクイケン,サカイシ,ハルエチョウオオバリ,福井県坂井市春江町大針
9190422,福井県,坂井市,春江町沖布目,フクイケン,サカイシ,ハルエチョウオキヌノメ,福井県坂井市春江町沖布目
9190423,福井県,坂井市,春江町石仏,フクイケン,サカイシ,ハルエチョウイシボトケ,福井県坂井市春江町石仏
9190424,福井県,坂井市,春江町いちい野,フクイケン,サカイシ,ハルエチョウイチイノ,福井県坂井市春江町いちい野
9190425,福井県,坂井市,春江町いちい野北,フクイケン,サカイシ,ハルエチョウイチイノキタ,福井県坂井市春江町いちい野北
9190426,福井県,坂井市,春江町いちい野中央,フクイケン,サカイシ,ハルエチョウイチイノチュウオウ,福井県坂井市春江町いちい野中央
9190431,福井県,坂井市,春江町為国,フクイケン,サカイシ,ハルエチョウタメクニ,福井県坂井市春江町為国
9190432,福井県,坂井市,春江町為国亀ケ久保,フクイケン,サカイシ,ハルエチョウタメクニカメガクボ,福井県坂井市春江町為国亀ケ久保
9190433,福井県,坂井市,春江町為国平成,フクイケン,サカイシ,ハルエチョウタメクニヘイセイ,福井県坂井市春江町為国平成
9190434,福井県,坂井市,春江町境,フクイケン,サカイシ,ハルエチョウサカイ,福井県坂井市春江町境
9190434,福井県,坂井市,春江町境上町,フクイケン,サカイシ,ハルエチョウサカイカミチョウ,福井県坂井市春江町境上町
9190434,福井県,坂井市,春江町境元町,フクイケン,サカイシ,ハルエチョウサカイモトマチ,福井県坂井市春江町境元町
9190435,福井県,坂井市,春江町為国幸,フクイケン,サカイシ,ハルエチョウタメクニサイワイ,福井県坂井市春江町為国幸
9190436,福井県,坂井市,春江町為国中区,フクイケン,サカイシ,ハルエチョウタメクニナカク,福井県坂井市春江町為国中区
9190437,福井県,坂井市,春江町為国西の宮,フクイケン,サカイシ,ハルエチョウタメクニニシノミヤ,福井県坂井市春江町為国西の宮
9190441,福井県,坂井市,春江町定重,フクイケン,サカイシ,ハルエチョウサダシゲ,福井県坂井市春江町定重
9190442,福井県,坂井市,春江町寄安,フクイケン,サカイシ,ハルエチョウヨリヤス,福井県坂井市春江町寄安
9190443,福井県,坂井市,春江町正蓮花,フクイケン,サカイシ,ハルエチョウショウレンゲ,福井県坂井市春江町正蓮花
9190444,福井県,坂井市,春江町中筋三ツ屋,フクイケン,サカイシ,ハルエチョウナカスジミツヤ,福井県坂井市春江町中筋三ツ屋
9190445,福井県,坂井市,春江町中筋高田,フクイケン,サカイシ,ハルエチョウナカスジタカダ,福井県坂井市春江町中筋高田
9190446,福井県,坂井市,春江町中筋春日,フクイケン,サカイシ,ハルエチョウナカスジカスガ,福井県坂井市春江町中筋春日
9190447,福井県,坂井市,春江町中筋大手,フクイケン,サカイシ,ハルエチョウナカスジオオテ,福井県坂井市春江町中筋大手
9190448,福井県,坂井市,春江町中筋北浦,フクイケン,サカイシ,ハルエチョウナカスジキタウラ,福井県坂井市春江町中筋北浦
9190449,福井県,坂井市,春江町中筋,フクイケン,サカイシ,ハルエチョウナカスジ,福井県坂井市春江町中筋
9190451,福井県,坂井市,春江町江留上旭,フクイケン,サカイシ,ハルエチョウエドメカミアサヒ,福井県坂井市春江町江留上旭
9190452,福井県,坂井市,春江町江留上本町,フクイケン,サカイシ,ハルエチョウエドメカミホンマチ,福井県坂井市春江町江留上本町
9190453,福井県,坂井市,春江町江留上中央,フクイケン,サカイシ,ハルエチョウエドメカミチュウオウ,福井県坂井市春江町江留上中央
9190454,福井県,坂井市,春江町江留上日の出,フクイケン,サカイシ,ハルエチョウエドメカミヒノデ,福井県坂井市春江町江留上日の出
9190455,福井県,坂井市,春江町江留上,フクイケン,サカイシ,ハルエチョウエドメカミ,福井県坂井市春江町江留上
9190461,福井県,坂井市,春江町江留上緑,フクイケン,サカイシ,ハルエチョウエドメカミミドリ,福井県坂井市春江町江留上緑
9190462,福井県,坂井市,春江町江留上大和,フクイケン,サカイシ,ハルエチョウエドメカミヤマト,福井県坂井市春江町江留上大和
9190463,福井県,坂井市,春江町江留上昭和,フクイケン,サカイシ,ハルエチョウエドメカミショウワ,福井県坂井市春江町江留上昭和
9190464,福井県,坂井市,春江町江留上錦,フクイケン,サカイシ,ハルエチョウエドメカミニシキ,福井県坂井市春江町江留上錦
9190465,福井県,坂井市,春江町江留上新町,フクイケン,サカイシ,ハルエチョウエドメカミシンマチ,福井県坂井市春江町江留上新町
9190471,福井県,坂井市,春江町金剛寺,フクイケン,サカイシ,ハルエチョウコンゴウジ,福井県坂井市春江町金剛寺
9190472,福井県,坂井市,春江町松木,フクイケン,サカイシ,ハルエチョウマツキ,福井県坂井市春江町松木
9190473,福井県,坂井市,春江町本堂,フクイケン,サカイシ,ハルエチョウホンドウ,福井県坂井市春江町本堂
9190474,福井県,坂井市,春江町西太郎丸,フクイケン,サカイシ,ハルエチョウニシタロウマル,福井県坂井市春江町西太郎丸
9190475,福井県,坂井市,春江町東太郎丸,フクイケン,サカイシ,ハルエチョウヒガシタロウマル,福井県坂井市春江町東太郎丸
9190476,福井県,坂井市,春江町針原,フクイケン,サカイシ,ハルエチョウハリバラ,福井県坂井市春江町針原
9190477,福井県,坂井市,春江町田端,フクイケン,サカイシ,ハルエチョウタバタ,福井県坂井市春江町田端
9190479,福井県,坂井市,春江町高江,フクイケン,サカイシ,ハルエチョウタカエ,福井県坂井市春江町高江
9190481,福井県,坂井市,春江町千歩寺,フクイケン,サカイシ,ハルエチョウセンボウジ,福井県坂井市春江町千歩寺
9190482,福井県,坂井市,春江町中庄,フクイケン,サカイシ,ハルエチョウナカノショウ,福井県坂井市春江町中庄
9190483,福井県,坂井市,春江町石塚,フクイケン,サカイシ,ハルエチョウイシヅカ,福井県坂井市春江町石塚
9190484,福井県,坂井市,春江町安沢,フクイケン,サカイシ,ハルエチョウヤスザワ,福井県坂井市春江町安沢
9190485,福井県,坂井市,春江町取次,フクイケン,サカイシ,ハルエチョウトリツギ,福井県坂井市春江町取次
9190486,福井県,坂井市,春江町布施田新,フクイケン,サカイシ,ハルエチョウフセダシン,福井県坂井市春江町布施田新
9190487,福井県,坂井市,春江町正善,フクイケン,サカイシ,ハルエチョウショウゼン,福井県坂井市春江町正善
9190488,福井県,坂井市,春江町姫王,フクイケン,サカイシ,ハルエチョウヒメオウ,福井県坂井市春江町姫王
9190501,福井県,坂井市,坂井町下関,フクイケン,サカイシ,サカイチョウシモゼキ,福井県坂井市坂井町下関
9190502,福井県,坂井市,坂井町上関,フクイケン,サカイシ,サカイチョウカミゼキ,福井県坂井市坂井町上関
9190503,福井県,坂井市,坂井町長屋,フクイケン,サカイシ,サカイチョウナガヤ,福井県坂井市坂井町長屋
9190504,福井県,坂井市,坂井町御油田,フクイケン,サカイシ,サカイチョウゴユウデン,福井県坂井市坂井町御油田
9190505,福井県,坂井市,坂井町河和田,フクイケン,サカイシ,サカイチョウカワダ,福井県坂井市坂井町河和田
9190506,福井県,坂井市,坂井町定旨,フクイケン,サカイシ,サカイチョウサダムネ,福井県坂井市坂井町定旨
9190507,福井県,坂井市,坂井町五本,フクイケン,サカイシ,サカイチョウゴホン,福井県坂井市坂井町五本
9190511,福井県,坂井市,坂井町長畑,フクイケン,サカイシ,サカイチョウナガバタケ,福井県坂井市坂井町長畑
9190512,福井県,坂井市,坂井町宮領,フクイケン,サカイシ,サカイチョウミヤリョウ,福井県坂井市坂井町宮領
9190513,福井県,坂井市,坂井町田島,フクイケン,サカイシ,サカイチョウタジマ,福井県坂井市坂井町田島
9190514,福井県,坂井市,坂井町田島窪,フクイケン,サカイシ,サカイチョウタジマクボ,福井県坂井市坂井町田島窪
9190515,福井県,坂井市,坂井町若宮,フクイケン,サカイシ,サカイチョウワカミヤ,福井県坂井市坂井町若宮
9190516,福井県,坂井市,坂井町福島,フクイケン,サカイシ,サカイチョウフクシマ,福井県坂井市坂井町福島
9190517,福井県,坂井市,坂井町朝日,フクイケン,サカイシ,サカイチョウアサヒ,福井県坂井市坂井町朝日
9190521,福井県,坂井市,坂井町下新庄,フクイケン,サカイシ,サカイチョウシモシンジョウ,福井県坂井市坂井町下新庄
9190522,福井県,坂井市,坂井町上新庄,フクイケン,サカイシ,サカイチョウカミシンジョウ,福井県坂井市坂井町上新庄
9190523,福井県,坂井市,坂井町新庄,フクイケン,サカイシ,サカイチョウシンジョウ,福井県坂井市坂井町新庄
9190524,福井県,坂井市,坂井町東長田,フクイケン,サカイシ,サカイチョウヒガシナガタ,福井県坂井市坂井町東長田
9190525,福井県,坂井市,坂井町徳分田,フクイケン,サカイシ,サカイチョウトクブンデン,福井県坂井市坂井町徳分田
9190526,福井県,坂井市,坂井町上兵庫,フクイケン,サカイシ,サカイチョウカミヒョウゴ,福井県坂井市坂井町上兵庫
9190527,福井県,坂井市,坂井町下兵庫,フクイケン,サカイシ,サカイチョウシモヒョウゴ,福井県坂井市坂井町下兵庫
9190531,福井県,坂井市,坂井町今井,フクイケン,サカイシ,サカイチョウイマイ,福井県坂井市坂井町今井
9190532,福井県,坂井市,坂井町高柳,フクイケン,サカイシ,サカイチョウタカヤナギ,福井県坂井市坂井町高柳
9190533,福井県,坂井市,坂井町木部東,フクイケン,サカイシ,サカイチョウキベヒガシ,福井県坂井市坂井町木部東
9190534,福井県,坂井市,坂井町清永,フクイケン,サカイシ,サカイチョウキヨナガ,福井県坂井市坂井町清永
9190535,福井県,坂井市,坂井町島,フクイケン,サカイシ,サカイチョウシマ,福井県坂井市坂井町島
9190536,福井県,坂井市,坂井町木部新保,フクイケン,サカイシ,サカイチョウキベシンボ,福井県坂井市坂井町木部新保
9190537,福井県,坂井市,坂井町折戸,フクイケン,サカイシ,サカイチョウオリト,福井県坂井市坂井町折戸
9190541,福井県,坂井市,坂井町東,フクイケン,サカイシ,サカイチョウヒガシ,福井県坂井市坂井町東
9190542,福井県,坂井市,坂井町蔵垣内,フクイケン,サカイシ,サカイチョウクラガイチ,福井県坂井市坂井町蔵垣内
9190543,福井県,坂井市,坂井町西,フクイケン,サカイシ,サカイチョウニシ,福井県坂井市坂井町西
9190544,福井県,坂井市,坂井町東中野,フクイケン,サカイシ,サカイチョウヒガシナカノ,福井県坂井市坂井町東中野
9190545,福井県,坂井市,坂井町東荒井,フクイケン,サカイシ,サカイチョウヒガシアライ,福井県坂井市坂井町東荒井
9190546,福井県,坂井市,坂井町蛸,フクイケン,サカイシ,サカイチョウタコ,福井県坂井市坂井町蛸
9190547,福井県,坂井市,坂井町大味,フクイケン,サカイシ,サカイチョウオオミ,福井県坂井市坂井町大味
9190600,福井県,あわら市,,フクイケン,アワラシ,,福井県あわら市
9190601,福井県,あわら市,山室,フクイケン,アワラシ,ヤマムロ,福井県あわら市山室
9190602,福井県,あわら市,菅野,フクイケン,アワラシ,スガノ,福井県あわら市菅野
9190603,福井県,あわら市,矢地,フクイケン,アワラシ,ヤチ,福井県あわら市矢地
9190604,福井県,あわら市,自由ケ丘,フクイケン,アワラシ,ジユウガオカ,福井県あわら市自由ケ丘
9190611,福井県,あわら市,清間,フクイケン,アワラシ,セイマ,福井県あわら市清間
9190612,福井県,あわら市,桑原,フクイケン,アワラシ,クワバラ,福井県あわら市桑原
9190613,福井県,あわら市,古屋石塚,フクイケン,アワラシ,フルヤイシヅカ,福井県あわら市古屋石塚
9190614,福井県,あわら市,伊井,フクイケン,アワラシ,イイ,福井県あわら市伊井
9190615,福井県,あわら市,池口,フクイケン,アワラシ,イケグチ,福井県あわら市池口
9190616,福井県,あわら市,河原井手,フクイケン,アワラシ,カワライデ,福井県あわら市河原井手
9190621,福井県,あわら市,市姫,フクイケン,アワラシ,イチヒメ,福井県あわら市市姫
9190623,福井県,あわら市,稲越,フクイケン,アワラシ,イナゴエ,福井県あわら市稲越
9190628,福井県,あわら市,大溝,フクイケン,アワラシ,オオミゾ,福井県あわら市大溝
9190631,福井県,あわら市,高塚,フクイケン,アワラシ,タカツカ,福井県あわら市高塚
9190632,福井県,あわら市,春宮,フクイケン,アワラシ,ハルミヤ,福井県あわら市春宮
9190633,福井県,あわら市,花乃杜,フクイケン,アワラシ,ハナノモリ,福井県あわら市花乃杜
9190634,福井県,あわら市,北金津,フクイケン,アワラシ,キタカナヅ,福井県あわら市北金津
9190721,福井県,あわら市,牛ノ谷,フクイケン,アワラシ,ウシノヤ,福井県あわら市牛ノ谷
9190722,福井県,あわら市,畝市野々,フクイケン,アワラシ,ウネイチノノ,福井県あわら市畝市野々
9190723,福井県,あわら市,熊坂,フクイケン,アワラシ,クマサカ,福井県あわら市熊坂
9190724,福井県,あわら市,上野,フクイケン,アワラシ,ウワノ,福井県あわら市上野
9190725,福井県,あわら市,前谷,フクイケン,アワラシ,マエダニ,福井県あわら市前谷
9190726,福井県,あわら市,笹岡,フクイケン,アワラシ,ササオカ,福井県あわら市笹岡
9190727,福井県,あわら市,下金屋,フクイケン,アワラシ,シモカナヤ,福井県あわら市下金屋
9190731,福井県,あわら市,権世市野々,フクイケン,アワラシ,ゴンゼイチノノ,福井県あわら市権世市野々
9190732,福井県,あわら市,鎌谷,フクイケン,アワラシ,カマダニ,福井県あわら市鎌谷
9190733,福井県,あわら市,清滝,フクイケン,アワラシ,キヨタキ,福井県あわら市清滝
9190734,福井県,あわら市,東山,フクイケン,アワラシ,ヒガシヤマ,福井県あわら市東山
9190735,福井県,あわら市,後山,フクイケン,アワラシ,ウシロヤマ,福井県あわら市後山
9190736,福井県,あわら市,椚,フクイケン,アワラシ,クヌギ,福井県あわら市椚
9190737,福井県,あわら市,権世,フクイケン,アワラシ,ゴンゼ,福井県あわら市権世
9190741,福井県,あわら市,中川,フクイケン,アワラシ,ナカガワ,福井県あわら市中川
9190742,福井県,あわら市,瓜生,フクイケン,アワラシ,ウリュウ,福井県あわら市瓜生
9190743,福井県,あわら市,南疋田,フクイケン,アワラシ,ミナミヒキダ,福井県あわら市南疋田
9190744,福井県,あわら市,北疋田,フクイケン,アワラシ,キタヒキダ,福井県あわら市北疋田
9190745,福井県,あわら市,次郎丸,フクイケン,アワラシ,ジロウマル,福井県あわら市次郎丸
9190746,福井県,あわら市,東田中,フクイケン,アワラシ,ヒガシタナカ,福井県あわら市東田中
9190747,福井県,あわら市,御簾尾,フクイケン,アワラシ,ミスノオ,福井県あわら市御簾尾
9190748,福井県,あわら市,北野,フクイケン,アワラシ,キタノ,福井県あわら市北野
9190749,福井県,あわら市,北,フクイケン,アワラシ,キタ,福井県あわら市北
9190801,福井県,あわら市,細呂木,フクイケン,アワラシ,ホソロギ,福井県あわら市細呂木
9190802,福井県,あわら市,橋屋,フクイケン,アワラシ,ハシヤ,福井県あわら市橋屋
9190803,福井県,あわら市,樋山,フクイケン,アワラシ,ヒヤマ,福井県あわら市樋山
9190804,福井県,あわら市,沢,フクイケン,アワラシ,サワ,福井県あわら市沢
9190805,福井県,あわら市,滝,フクイケン,アワラシ,タキ,福井県あわら市滝
9190806,福井県,あわら市,宮谷,フクイケン,アワラシ,ミヤダニ,福井県あわら市宮谷
9190807,福井県,あわら市,指中,フクイケン,アワラシ,ユビナカ,福井県あわら市指中
9190811,福井県,あわら市,蓮ケ浦,フクイケン,アワラシ,ハスガウラ,福井県あわら市蓮ケ浦
9190812,福井県,あわら市,柿原,フクイケン,アワラシ,カキバラ,福井県あわら市柿原
9190813,福井県,あわら市,山西方寺,フクイケン,アワラシ,ヤマサイホウジ,福井県あわら市山西方寺
9190814,福井県,あわら市,青ノ木,フクイケン,アワラシ,アオノキ,福井県あわら市青ノ木
9190815,福井県,あわら市,清王,フクイケン,アワラシ,セイオウ,福井県あわら市清王
9190816,福井県,あわら市,山十楽,フクイケン,アワラシ,ヤマジュウラク,福井県あわら市山十楽
9190817,福井県,あわら市,坂口,フクイケン,アワラシ,サカグチ,福井県あわら市坂口
9191100,福井県,三方郡美浜町,,フクイケン,ミカタグンミハマチョウ,,福井県三方郡美浜町
9191121,福井県,三方郡美浜町,和田,フクイケン,ミカタグンミハマチョウ,ワダ,福井県三方郡美浜町和田
9191122,福井県,三方郡美浜町,松原,フクイケン,ミカタグンミハマチョウ,マツバラ,福井県三方郡美浜町松原
9191123,福井県,三方郡美浜町,久々子,フクイケン,ミカタグンミハマチョウ,クグシ,福井県三方郡美浜町久々子
9191124,福井県,三方郡美浜町,早瀬,フクイケン,ミカタグンミハマチョウ,ハヤセ,福井県三方郡美浜町早瀬
9191125,福井県,三方郡美浜町,笹田,フクイケン,ミカタグンミハマチョウ,ササダ,福井県三方郡美浜町笹田
9191126,福井県,三方郡美浜町,日向,フクイケン,ミカタグンミハマチョウ,ヒルガ,福井県三方郡美浜町日向
9191131,福井県,三方郡美浜町,木野,フクイケン,ミカタグンミハマチョウ,キノ,福井県三方郡美浜町木野
9191132,福井県,三方郡美浜町,佐柿,フクイケン,ミカタグンミハマチョウ,サガキ,福井県三方郡美浜町佐柿
9191133,福井県,三方郡美浜町,麻生,フクイケン,ミカタグンミハマチョウ,アソ,福井県三方郡美浜町麻生
9191134,福井県,三方郡美浜町,宮代,フクイケン,ミカタグンミハマチョウ,ミヤシロ,福井県三方郡美浜町宮代
9191135,福井県,三方郡美浜町,五十谷,フクイケン,ミカタグンミハマチョウ,イサダニ,福井県三方郡美浜町五十谷
9191135,福井県,三方郡美浜町,安江,フクイケン,ミカタグンミハマチョウ,ヤスエ,福井県三方郡美浜町安江
9191135,福井県,三方郡美浜町,寄戸,フクイケン,ミカタグンミハマチョウ,ヨリト,福井県三方郡美浜町寄戸
9191136,福井県,三方郡美浜町,中寺,フクイケン,ミカタグンミハマチョウ,ナカデラ,福井県三方郡美浜町中寺
9191137,福井県,三方郡美浜町,南市,フクイケン,ミカタグンミハマチョウ,ミナミイチ,福井県三方郡美浜町南市
9191138,福井県,三方郡美浜町,河原市,フクイケン,ミカタグンミハマチョウ,カワライチ,福井県三方郡美浜町河原市
9191141,福井県,三方郡美浜町,郷市,フクイケン,ミカタグンミハマチョウ,ゴイチ,福井県三方郡美浜町郷市
9191142,福井県,三方郡美浜町,興道寺,フクイケン,ミカタグンミハマチョウ,コウドウジ,福井県三方郡美浜町興道寺
9191143,福井県,三方郡美浜町,佐野,フクイケン,ミカタグンミハマチョウ,サノ,福井県三方郡美浜町佐野
9191144,福井県,三方郡美浜町,新庄,フクイケン,ミカタグンミハマチョウ,シンジョウ,福井県三方郡美浜町新庄
9191145,福井県,三方郡美浜町,金山,フクイケン,ミカタグンミハマチョウ,カナヤマ,福井県三方郡美浜町金山
9191146,福井県,三方郡美浜町,大薮,フクイケン,ミカタグンミハマチョウ,オオヤブ,福井県三方郡美浜町大薮
9191147,福井県,三方郡美浜町,気山,フクイケン,ミカタグンミハマチョウ,キヤマ,福井県三方郡美浜町気山
9191201,福井県,三方郡美浜町,丹生,フクイケン,ミカタグンミハマチョウ,ニュウ,福井県三方郡美浜町丹生
9191202,福井県,三方郡美浜町,竹波,フクイケン,ミカタグンミハマチョウ,タケナミ,福井県三方郡美浜町竹波
9191203,福井県,三方郡美浜町,菅浜,フクイケン,ミカタグンミハマチョウ,スガハマ,福井県三方郡美浜町菅浜
9191204,福井県,三方郡美浜町,北田,フクイケン,ミカタグンミハマチョウ,キタダ,福井県三方郡美浜町北田
9191205,福井県,三方郡美浜町,佐田,フクイケン,ミカタグンミハマチョウ,サタ,福井県三方郡美浜町佐田
9191206,福井県,三方郡美浜町,太田,フクイケン,ミカタグンミハマチョウ,オオタ,福井県三方郡美浜町太田
9191207,福井県,三方郡美浜町,山上,フクイケン,ミカタグンミハマチョウ,ヤマガミ,福井県三方郡美浜町山上
9191208,福井県,三方郡美浜町,坂尻,フクイケン,ミカタグンミハマチョウ,サカジリ,福井県三方郡美浜町坂尻
9191279,福井県,敦賀市,白木,フクイケン,ツルガシ,シラキ,福井県敦賀市白木
9191300,福井県,三方上中郡若狭町,,フクイケン,ミカタカミナカグンワカサチョウ,,福井県三方上中郡若狭町
9191301,福井県,三方上中郡若狭町,気山,フクイケン,ミカタカミナカグンワカサチョウ,キヤマ,福井県三方上中郡若狭町気山
9191302,福井県,三方上中郡若狭町,上瀬,フクイケン,ミカタカミナカグンワカサチョウ,ウワセ,福井県三方上中郡若狭町上瀬
9191303,福井県,三方上中郡若狭町,三方,フクイケン,ミカタカミナカグンワカサチョウ,ミカタ,福井県三方上中郡若狭町三方
9191304,福井県,三方上中郡若狭町,生倉,フクイケン,ミカタカミナカグンワカサチョウ,イクラ,福井県三方上中郡若狭町生倉
9191305,福井県,三方上中郡若狭町,北前川,フクイケン,ミカタカミナカグンワカサチョウ,キタマエガワ,福井県三方上中郡若狭町北前川
9191306,福井県,三方上中郡若狭町,南前川,フクイケン,ミカタカミナカグンワカサチョウ,ミナミマエガワ,福井県三方上中郡若狭町南前川
9191311,福井県,三方上中郡若狭町,藤井,フクイケン,ミカタカミナカグンワカサチョウ,フジイ,福井県三方上中郡若狭町藤井
9191312,福井県,三方上中郡若狭町,相田,フクイケン,ミカタカミナカグンワカサチョウ,アイダ,福井県三方上中郡若狭町相田
9191313,福井県,三方上中郡若狭町,横渡,フクイケン,ミカタカミナカグンワカサチョウ,ヨコワタリ,福井県三方上中郡若狭町横渡
9191314,福井県,三方上中郡若狭町,能登野,フクイケン,ミカタカミナカグンワカサチョウ,ノトノ,福井県三方上中郡若狭町能登野
9191315,福井県,三方上中郡若狭町,高岸,フクイケン,ミカタカミナカグンワカサチョウ,タカギシ,福井県三方上中郡若狭町高岸
9191316,福井県,三方上中郡若狭町,井崎,フクイケン,ミカタカミナカグンワカサチョウ,イザキ,福井県三方上中郡若狭町井崎
9191321,福井県,三方上中郡若狭町,上野,フクイケン,ミカタカミナカグンワカサチョウ,ウエノ,福井県三方上中郡若狭町上野
9191322,福井県,三方上中郡若狭町,成願寺,フクイケン,ミカタカミナカグンワカサチョウ,ジョウガンジ,福井県三方上中郡若狭町成願寺
9191323,福井県,三方上中郡若狭町,倉見,フクイケン,ミカタカミナカグンワカサチョウ,クラミ,福井県三方上中郡若狭町倉見
9191324,福井県,三方上中郡若狭町,白屋,フクイケン,ミカタカミナカグンワカサチョウ,シロヤ,福井県三方上中郡若狭町白屋
9191325,福井県,三方上中郡若狭町,岩屋,フクイケン,ミカタカミナカグンワカサチョウ,イワヤ,福井県三方上中郡若狭町岩屋
9191326,福井県,三方上中郡若狭町,田上,フクイケン,ミカタカミナカグンワカサチョウ,タガミ,福井県三方上中郡若狭町田上
9191327,福井県,三方上中郡若狭町,東黒田,フクイケン,ミカタカミナカグンワカサチョウ,ヒガシクロタ,福井県三方上中郡若狭町東黒田
9191328,福井県,三方上中郡若狭町,三十三団地,フクイケン,ミカタカミナカグンワカサチョウ,ミソミダンチ,福井県三方上中郡若狭町三十三団地
9191331,福井県,三方上中郡若狭町,鳥浜,フクイケン,ミカタカミナカグンワカサチョウ,トリハマ,福井県三方上中郡若狭町鳥浜
9191332,福井県,三方上中郡若狭町,館川,フクイケン,ミカタカミナカグンワカサチョウ,タチカワ,福井県三方上中郡若狭町館川
9191333,福井県,三方上中郡若狭町,中央,フクイケン,ミカタカミナカグンワカサチョウ,チュウオウ,福井県三方上中郡若狭町中央
9191334,福井県,三方上中郡若狭町,田名,フクイケン,ミカタカミナカグンワカサチョウ,タナ,福井県三方上中郡若狭町田名
9191335,福井県,三方上中郡若狭町,佐古,フクイケン,ミカタカミナカグンワカサチョウ,サコ,福井県三方上中郡若狭町佐古
9191336,福井県,三方上中郡若狭町,向笠,フクイケン,ミカタカミナカグンワカサチョウ,ムカサ,福井県三方上中郡若狭町向笠
9191451,福井県,三方上中郡若狭町,常神,フクイケン,ミカタカミナカグンワカサチョウ,ツネカミ,福井県三方上中郡若狭町常神
9191452,福井県,三方上中郡若狭町,神子,フクイケン,ミカタカミナカグンワカサチョウ,ミコ,福井県三方上中郡若狭町神子
9191453,福井県,三方上中郡若狭町,小川,フクイケン,ミカタカミナカグンワカサチョウ,オガワ,福井県三方上中郡若狭町小川
9191454,福井県,三方上中郡若狭町,遊子,フクイケン,ミカタカミナカグンワカサチョウ,ユウシ,福井県三方上中郡若狭町遊子
9191455,福井県,三方上中郡若狭町,塩坂越,フクイケン,ミカタカミナカグンワカサチョウ,シャクシ,福井県三方上中郡若狭町塩坂越
9191461,福井県,三方上中郡若狭町,海山,フクイケン,ミカタカミナカグンワカサチョウ,ウミヤマ,福井県三方上中郡若狭町海山
9191462,福井県,三方上中郡若狭町,島の内,フクイケン,ミカタカミナカグンワカサチョウ,シマノウチ,福井県三方上中郡若狭町島の内
9191462,福井県,三方上中郡若狭町,田井,フクイケン,ミカタカミナカグンワカサチョウ,タイ,福井県三方上中郡若狭町田井
9191463,福井県,三方上中郡若狭町,成出,フクイケン,ミカタカミナカグンワカサチョウ,ナルデ,福井県三方上中郡若狭町成出
9191464,福井県,三方上中郡若狭町,世久見,フクイケン,ミカタカミナカグンワカサチョウ,セクミ,福井県三方上中郡若狭町世久見
9191501,福井県,三方上中郡若狭町,海士坂,フクイケン,ミカタカミナカグンワカサチョウ,アマサカ,福井県三方上中郡若狭町海士坂
9191502,福井県,三方上中郡若狭町,麻生野,フクイケン,ミカタカミナカグンワカサチョウ,アソノ,福井県三方上中郡若狭町麻生野
9191503,福井県,三方上中郡若狭町,上黒田,フクイケン,ミカタカミナカグンワカサチョウ,カミクロダ,福井県三方上中郡若狭町上黒田
9191504,福井県,三方上中郡若狭町,大鳥羽,フクイケン,ミカタカミナカグンワカサチョウ,オオトバ,福井県三方上中郡若狭町大鳥羽
9191505,福井県,三方上中郡若狭町,長江,フクイケン,ミカタカミナカグンワカサチョウ,ナガエ,福井県三方上中郡若狭町長江
9191506,福井県,三方上中郡若狭町,持田,フクイケン,ミカタカミナカグンワカサチョウ,モチダ,福井県三方上中郡若狭町持田
9191507,福井県,三方上中郡若狭町,有田,フクイケン,ミカタカミナカグンワカサチョウ,アリダ,福井県三方上中郡若狭町有田
9191511,福井県,三方上中郡若狭町,三生野,フクイケン,ミカタカミナカグンワカサチョウ,ミショウノ,福井県三方上中郡若狭町三生野
9191512,福井県,三方上中郡若狭町,無悪,フクイケン,ミカタカミナカグンワカサチョウ,サカナシ,福井県三方上中郡若狭町無悪
9191513,福井県,三方上中郡若狭町,三田,フクイケン,ミカタカミナカグンワカサチョウ,ミタ,福井県三方上中郡若狭町三田
9191514,福井県,三方上中郡若狭町,小原,フクイケン,ミカタカミナカグンワカサチョウ,オハラ,福井県三方上中郡若狭町小原
9191515,福井県,三方上中郡若狭町,南,フクイケン,ミカタカミナカグンワカサチョウ,ミナミ,福井県三方上中郡若狭町南
9191516,福井県,三方上中郡若狭町,山内,フクイケン,ミカタカミナカグンワカサチョウ,ヤマウチ,福井県三方上中郡若狭町山内
9191521,福井県,三方上中郡若狭町,下タ中,フクイケン,ミカタカミナカグンワカサチョウ,シタナカ,福井県三方上中郡若狭町下タ中
9191522,福井県,三方上中郡若狭町,末野,フクイケン,ミカタカミナカグンワカサチョウ,スエノ,福井県三方上中郡若狭町末野
9191523,福井県,三方上中郡若狭町,安賀里,フクイケン,ミカタカミナカグンワカサチョウ,アガリ,福井県三方上中郡若狭町安賀里
9191524,福井県,三方上中郡若狭町,脇袋,フクイケン,ミカタカミナカグンワカサチョウ,ワキブクロ,福井県三方上中郡若狭町脇袋
9191525,福井県,三方上中郡若狭町,瓜生,フクイケン,ミカタカミナカグンワカサチョウ,ウリュウ,福井県三方上中郡若狭町瓜生
9191526,福井県,三方上中郡若狭町,関,フクイケン,ミカタカミナカグンワカサチョウ,セキ,福井県三方上中郡若狭町関
9191527,福井県,三方上中郡若狭町,上吉田,フクイケン,ミカタカミナカグンワカサチョウ,カミヨシダ,福井県三方上中郡若狭町上吉田
9191528,福井県,三方上中郡若狭町,下吉田,フクイケン,ミカタカミナカグンワカサチョウ,シモヨシダ,福井県三方上中郡若狭町下吉田
9191531,福井県,三方上中郡若狭町,新道,フクイケン,ミカタカミナカグンワカサチョウ,シンドウ,福井県三方上中郡若狭町新道
9191532,福井県,三方上中郡若狭町,熊川,フクイケン,ミカタカミナカグンワカサチョウ,クマガワ,福井県三方上中郡若狭町熊川
9191533,福井県,三方上中郡若狭町,河内,フクイケン,ミカタカミナカグンワカサチョウ,コウチ,福井県三方上中郡若狭町河内
9191534,福井県,三方上中郡若狭町,仮屋,フクイケン,ミカタカミナカグンワカサチョウ,カリヤ,福井県三方上中郡若狭町仮屋
9191535,福井県,三方上中郡若狭町,若王子,フクイケン,ミカタカミナカグンワカサチョウ,ワカオウジ,福井県三方上中郡若狭町若王子
9191536,福井県,三方上中郡若狭町,三宅,フクイケン,ミカタカミナカグンワカサチョウ,ミヤケ,福井県三方上中郡若狭町三宅
9191541,福井県,三方上中郡若狭町,市場,フクイケン,ミカタカミナカグンワカサチョウ,イチバ,福井県三方上中郡若狭町市場
9191542,福井県,三方上中郡若狭町,井ノ口,フクイケン,ミカタカミナカグンワカサチョウ,イノクチ,福井県三方上中郡若狭町井ノ口
9191543,福井県,三方上中郡若狭町,天徳寺,フクイケン,ミカタカミナカグンワカサチョウ,テントクジ,福井県三方上中郡若狭町天徳寺
9191544,福井県,三方上中郡若狭町,神谷,フクイケン,ミカタカミナカグンワカサチョウ,コウダニ,福井県三方上中郡若狭町神谷
9191545,福井県,三方上中郡若狭町,日笠,フクイケン,ミカタカミナカグンワカサチョウ,ヒカサ,福井県三方上中郡若狭町日笠
9191551,福井県,三方上中郡若狭町,杉山,フクイケン,ミカタカミナカグンワカサチョウ,スギヤマ,福井県三方上中郡若狭町杉山
9191552,福井県,三方上中郡若狭町,若狭テクノバレー,フクイケン,ミカタカミナカグンワカサチョウ,ワカサテクノバレー,福井県三方上中郡若狭町若狭テクノバレー
9191553,福井県,三方上中郡若狭町,堤,フクイケン,ミカタカミナカグンワカサチョウ,ツツミ,福井県三方上中郡若狭町堤
9191554,福井県,三方上中郡若狭町,兼田,フクイケン,ミカタカミナカグンワカサチョウ,カネダ,福井県三方上中郡若狭町兼田
9191555,福井県,三方上中郡若狭町,武生,フクイケン,ミカタカミナカグンワカサチョウ,ムシュウ,福井県三方上中郡若狭町武生
9191556,福井県,三方上中郡若狭町,玉置,フクイケン,ミカタカミナカグンワカサチョウ,タマキ,福井県三方上中郡若狭町玉置
9191557,福井県,三方上中郡若狭町,上野木,フクイケン,ミカタカミナカグンワカサチョウ,カミノギ,福井県三方上中郡若狭町上野木
9191558,福井県,三方上中郡若狭町,中野木,フクイケン,ミカタカミナカグンワカサチョウ,ナカノギ,福井県三方上中郡若狭町中野木
9191559,福井県,三方上中郡若狭町,下野木,フクイケン,ミカタカミナカグンワカサチョウ,シモノギ,福井県三方上中郡若狭町下野木
9192100,福井県,大飯郡おおい町,,フクイケン,オオイグンオオイチョウ,,福井県大飯郡おおい町
9192101,福井県,大飯郡おおい町,大島,フクイケン,オオイグンオオイチョウ,オオシマ,福井県大飯郡おおい町大島
9192102,福井県,大飯郡おおい町,長井,フクイケン,オオイグンオオイチョウ,ナガイ,福井県大飯郡おおい町長井
9192103,福井県,大飯郡おおい町,尾内,フクイケン,オオイグンオオイチョウ,オナイ,福井県大飯郡おおい町尾内
9192104,福井県,大飯郡おおい町,成和,フクイケン,オオイグンオオイチョウ,セイワ,福井県大飯郡おおい町成和
9192105,福井県,大飯郡おおい町,小堀,フクイケン,オオイグンオオイチョウ,コホリ,福井県大飯郡おおい町小堀
9192106,福井県,大飯郡おおい町,犬見,フクイケン,オオイグンオオイチョウ,イヌミ,福井県大飯郡おおい町犬見
9192107,福井県,大飯郡おおい町,成海,フクイケン,オオイグンオオイチョウ,ナルミ,福井県大飯郡おおい町成海
9192111,福井県,大飯郡おおい町,本郷,フクイケン,オオイグンオオイチョウ,ホンゴウ,福井県大飯郡おおい町本郷
9192112,福井県,大飯郡おおい町,山田,フクイケン,オオイグンオオイチョウ,ヤマダ,福井県大飯郡おおい町山田
9192113,福井県,大飯郡おおい町,芝崎,フクイケン,オオイグンオオイチョウ,シバサキ,福井県大飯郡おおい町芝崎
9192114,福井県,大飯郡おおい町,野尻,フクイケン,オオイグンオオイチョウ,ノジリ,福井県大飯郡おおい町野尻
9192115,福井県,大飯郡おおい町,父子,フクイケン,オオイグンオオイチョウ,チチシ,福井県大飯郡おおい町父子
9192116,福井県,大飯郡おおい町,岡田,フクイケン,オオイグンオオイチョウ,オカタ,福井県大飯郡おおい町岡田
9192121,福井県,大飯郡おおい町,万願寺,フクイケン,オオイグンオオイチョウ,マンガンジ,福井県大飯郡おおい町万願寺
9192122,福井県,大飯郡おおい町,神崎,フクイケン,オオイグンオオイチョウ,コウザキ,福井県大飯郡おおい町神崎
9192123,福井県,大飯郡おおい町,鹿野,フクイケン,オオイグンオオイチョウ,シカノ,福井県大飯郡おおい町鹿野
9192124,福井県,大飯郡おおい町,小車田,フクイケン,オオイグンオオイチョウ,コシヤタ,福井県大飯郡おおい町小車田
9192125,福井県,大飯郡おおい町,石山,フクイケン,オオイグンオオイチョウ,イシヤマ,福井県大飯郡おおい町石山
9192126,福井県,大飯郡おおい町,佐畑,フクイケン,オオイグンオオイチョウ,サバタ,福井県大飯郡おおい町佐畑
9192127,福井県,大飯郡おおい町,笹谷,フクイケン,オオイグンオオイチョウ,ササダニ,福井県大飯郡おおい町笹谷
9192128,福井県,大飯郡おおい町,岡安,フクイケン,オオイグンオオイチョウ,オカヤス,福井県大飯郡おおい町岡安
9192129,福井県,大飯郡おおい町,広岡,フクイケン,オオイグンオオイチョウ,ヒロオカ,福井県大飯郡おおい町広岡
9192131,福井県,大飯郡おおい町,福谷,フクイケン,オオイグンオオイチョウ,フクタニ,福井県大飯郡おおい町福谷
9192132,福井県,大飯郡おおい町,安川,フクイケン,オオイグンオオイチョウ,ヤスカワ,福井県大飯郡おおい町安川
9192133,福井県,大飯郡おおい町,久保,フクイケン,オオイグンオオイチョウ,クボ,福井県大飯郡おおい町久保
9192134,福井県,大飯郡おおい町,川上,フクイケン,オオイグンオオイチョウ,カワカミ,福井県大飯郡おおい町川上
9192135,福井県,大飯郡おおい町,三森,フクイケン,オオイグンオオイチョウ,ミツモリ,福井県大飯郡おおい町三森
9192200,福井県,大飯郡高浜町,,フクイケン,オオイグンタカハマチョウ,,福井県大飯郡高浜町
9192201,福井県,大飯郡高浜町,和田,フクイケン,オオイグンタカハマチョウ,ワダ,福井県大飯郡高浜町和田
9192202,福井県,大飯郡高浜町,安土,フクイケン,オオイグンタカハマチョウ,アヅチ,福井県大飯郡高浜町安土
9192203,福井県,大飯郡高浜町,水明,フクイケン,オオイグンタカハマチョウ,スイメイ,福井県大飯郡高浜町水明
9192204,福井県,大飯郡高浜町,青戸,フクイケン,オオイグンタカハマチョウ,アオト,福井県大飯郡高浜町青戸
9192205,福井県,大飯郡高浜町,下車持,フクイケン,オオイグンタカハマチョウ,シモクラモチ,福井県大飯郡高浜町下車持
9192206,福井県,大飯郡高浜町,上車持,フクイケン,オオイグンタカハマチョウ,カミクラモチ,福井県大飯郡高浜町上車持
9192207,福井県,大飯郡高浜町,馬居寺,フクイケン,オオイグンタカハマチョウ,マゴジ,福井県大飯郡高浜町馬居寺
9192211,福井県,大飯郡高浜町,中津海,フクイケン,オオイグンタカハマチョウ,ナカツミ,福井県大飯郡高浜町中津海
9192212,福井県,大飯郡高浜町,鐘寄,フクイケン,オオイグンタカハマチョウ,カネヨリ,福井県大飯郡高浜町鐘寄
9192213,福井県,大飯郡高浜町,畑,フクイケン,オオイグンタカハマチョウ,ハタ,福井県大飯郡高浜町畑
9192214,福井県,大飯郡高浜町,湯谷,フクイケン,オオイグンタカハマチョウ,ユタニ,福井県大飯郡高浜町湯谷
9192215,福井県,大飯郡高浜町,南団地,フクイケン,オオイグンタカハマチョウ,ミナミダンチ,福井県大飯郡高浜町南団地
9192216,福井県,大飯郡高浜町,坂田,フクイケン,オオイグンタカハマチョウ,サカタ,福井県大飯郡高浜町坂田
9192216,福井県,大飯郡高浜町,子生,フクイケン,オオイグンタカハマチョウ,コビ,福井県大飯郡高浜町子生
9192216,福井県,大飯郡高浜町,笠原,フクイケン,オオイグンタカハマチョウ,カサハラ,福井県大飯郡高浜町笠原
9192221,福井県,大飯郡高浜町,事代,フクイケン,オオイグンタカハマチョウ,コトシロ,福井県大飯郡高浜町事代
9192222,福井県,大飯郡高浜町,岩神,フクイケン,オオイグンタカハマチョウ,イワガミ,福井県大飯郡高浜町岩神
9192223,福井県,大飯郡高浜町,紫水ケ丘,フクイケン,オオイグンタカハマチョウ,シスイガオカ,福井県大飯郡高浜町紫水ケ丘
9192224,福井県,大飯郡高浜町,薗部,フクイケン,オオイグンタカハマチョウ,ソノベ,福井県大飯郡高浜町薗部
9192225,福井県,大飯郡高浜町,宮崎,フクイケン,オオイグンタカハマチョウ,ミヤザキ,福井県大飯郡高浜町宮崎
9192226,福井県,大飯郡高浜町,立石,フクイケン,オオイグンタカハマチョウ,タテイシ,福井県大飯郡高浜町立石
9192227,福井県,大飯郡高浜町,若宮,フクイケン,オオイグンタカハマチョウ,ワカミヤ,福井県大飯郡高浜町若宮
9192228,福井県,大飯郡高浜町,塩土,フクイケン,オオイグンタカハマチョウ,シオド,福井県大飯郡高浜町塩土
9192229,福井県,大飯郡高浜町,三明,フクイケン,オオイグンタカハマチョウ,サンメイ,福井県大飯郡高浜町三明
9192351,福井県,大飯郡高浜町,山中,フクイケン,オオイグンタカハマチョウ,ヤマナカ,福井県大飯郡高浜町山中
9192352,福井県,大飯郡高浜町,鎌倉,フクイケン,オオイグンタカハマチョウ,カマクラ,福井県大飯郡高浜町鎌倉
9192353,福井県,大飯郡高浜町,下,フクイケン,オオイグンタカハマチョウ,シモ,福井県大飯郡高浜町下
9192354,福井県,大飯郡高浜町,宮尾,フクイケン,オオイグンタカハマチョウ,ミヤオ,福井県大飯郡高浜町宮尾
9192355,福井県,大飯郡高浜町,日引,フクイケン,オオイグンタカハマチョウ,ヒビキ,福井県大飯郡高浜町日引
9192356,福井県,大飯郡高浜町,上瀬,フクイケン,オオイグンタカハマチョウ,ウワセ,福井県大飯郡高浜町上瀬
9192361,福井県,大飯郡高浜町,音海,フクイケン,オオイグンタカハマチョウ,オトミ,福井県大飯郡高浜町音海
9192362,福井県,大飯郡高浜町,田ノ浦,フクイケン,オオイグンタカハマチョウ,タノウラ,福井県大飯郡高浜町田ノ浦
9192363,福井県,大飯郡高浜町,小黒飯,フクイケン,オオイグンタカハマチョウ,オグルイ,福井県大飯郡高浜町小黒飯
9192364,福井県,大飯郡高浜町,難波江,フクイケン,オオイグンタカハマチョウ,ナバエ,福井県大飯郡高浜町難波江
9192365,福井県,大飯郡高浜町,神野,フクイケン,オオイグンタカハマチョウ,コウノ,福井県大飯郡高浜町神野
9192366,福井県,大飯郡高浜町,神野浦,フクイケン,オオイグンタカハマチョウ,コウノウラ,福井県大飯郡高浜町神野浦
9192371,福井県,大飯郡高浜町,中山,フクイケン,オオイグンタカハマチョウ,ナカヤマ,福井県大飯郡高浜町中山
9192372,福井県,大飯郡高浜町,緑ケ丘,フクイケン,オオイグンタカハマチョウ,ミドリガオカ,福井県大飯郡高浜町緑ケ丘
9192372,福井県,大飯郡高浜町,高屋,フクイケン,オオイグンタカハマチョウ,タカヤ,福井県大飯郡高浜町高屋
9192373,福井県,大飯郡高浜町,小和田,フクイケン,オオイグンタカハマチョウ,コワダ,福井県大飯郡高浜町小和田
9192374,福井県,大飯郡高浜町,高野,フクイケン,オオイグンタカハマチョウ,タカノ,福井県大飯郡高浜町高野
9192375,福井県,大飯郡高浜町,旭ケ丘,フクイケン,オオイグンタカハマチョウ,アサヒガオカ,福井県大飯郡高浜町旭ケ丘
9192375,福井県,大飯郡高浜町,蒜畠,フクイケン,オオイグンタカハマチョウ,ヒルバタケ,福井県大飯郡高浜町蒜畠
9192376,福井県,大飯郡高浜町,今寺,フクイケン,オオイグンタカハマチョウ,イマデラ,福井県大飯郡高浜町今寺
9192381,福井県,大飯郡高浜町,西三松,フクイケン,オオイグンタカハマチョウ,ニシミツマツ,福井県大飯郡高浜町西三松
9192382,福井県,大飯郡高浜町,東三松,フクイケン,オオイグンタカハマチョウ,ヒガシミツマツ,福井県大飯郡高浜町東三松
9192383,福井県,大飯郡高浜町,日置,フクイケン,オオイグンタカハマチョウ,ヒキ,福井県大飯郡高浜町日置
9192384,福井県,大飯郡高浜町,青,フクイケン,オオイグンタカハマチョウ,アオ,福井県大飯郡高浜町青
9192385,福井県,大飯郡高浜町,横津海,フクイケン,オオイグンタカハマチョウ,ヨコツミ,福井県大飯郡高浜町横津海
9192386,福井県,大飯郡高浜町,関屋,フクイケン,オオイグンタカハマチョウ,セキヤ,福井県大飯郡高浜町関屋
9192387,福井県,大飯郡高浜町,六路谷,フクイケン,オオイグンタカハマチョウ,ロクロダニ,福井県大飯郡高浜町六路谷
9220679,福井県,あわら市,吉崎,フクイケン,アワラシ,ヨシザキ,福井県あわら市吉崎
