zipcode,prefecture_name,city,town,prefecture_kana,city_kana,town_kana,normalized_address
4000000,山梨県,甲府市,,ヤマナシケン,コウフシ,,山梨県甲府市
4000001,山梨県,甲府市,和田町,ヤマナシケン,コウフシ,ワダマチ,山梨県甲府市和田町
4000002,山梨県,甲府市,小松町,ヤマナシケン,コウフシ,コマツマチ,山梨県甲府市小松町
4000003,山梨県,甲府市,塚原町,ヤマナシケン,コウフシ,ツカハラチョウ,山梨県甲府市塚原町
4000004,山梨県,甲府市,西田町,ヤマナシケン,コウフシ,ニシダチョウ,山梨県甲府市西田町
4000005,山梨県,甲府市,北新,ヤマナシケン,コウフシ,キタシン,山梨県甲府市北新
4000006,山梨県,甲府市,天神町,ヤマナシケン,コウフシ,テンジンチョウ,山梨県甲府市天神町
4000007,山梨県,甲府市,美咲,ヤマナシケン,コウフシ,ミサキ,山梨県甲府市美咲
4000008,山梨県,甲府市,緑が丘,ヤマナシケン,コウフシ,ミドリガオカ,山梨県甲府市緑が丘
4000011,山梨県,甲府市,上積翠寺町,ヤマナシケン,コウフシ,カミセキスイジマチ,山梨県甲府市上積翠寺町
4000012,山梨県,甲府市,下積翠寺町,ヤマナシケン,コウフシ,シモセキスイジマチ,山梨県甲府市下積翠寺町
4000013,山梨県,甲府市,岩窪町,ヤマナシケン,コウフシ,イワクボチョウ,山梨県甲府市岩窪町
4000014,山梨県,甲府市,古府中町,ヤマナシケン,コウフシ,コフチュウマチ,山梨県甲府市古府中町
4000015,山梨県,甲府市,大手,ヤマナシケン,コウフシ,オオテ,山梨県甲府市大手
4000016,山梨県,甲府市,武田,ヤマナシケン,コウフシ,タケダ,山梨県甲府市武田
4000017,山梨県,甲府市,屋形,ヤマナシケン,コウフシ,ヤカタ,山梨県甲府市屋形
4000021,山梨県,甲府市,宮前町,ヤマナシケン,コウフシ,ミヤマエチョウ,山梨県甲府市宮前町
4000022,山梨県,甲府市,元紺屋町,ヤマナシケン,コウフシ,モトコンヤマチ,山梨県甲府市元紺屋町
4000023,山梨県,甲府市,愛宕町,ヤマナシケン,コウフシ,アタゴマチ,山梨県甲府市愛宕町
4000024,山梨県,甲府市,北口,ヤマナシケン,コウフシ,キタグチ,山梨県甲府市北口
4000025,山梨県,甲府市,朝日,ヤマナシケン,コウフシ,アサヒ,山梨県甲府市朝日
4000026,山梨県,甲府市,塩部,ヤマナシケン,コウフシ,シオベ,山梨県甲府市塩部
4000027,山梨県,甲府市,富士見,ヤマナシケン,コウフシ,フジミ,山梨県甲府市富士見
4000028,山梨県,甲府市,音羽町,ヤマナシケン,コウフシ,オトワチョウ,山梨県甲府市音羽町
4000031,山梨県,甲府市,丸の内,ヤマナシケン,コウフシ,マルノウチ,山梨県甲府市丸の内
4000032,山梨県,甲府市,中央,ヤマナシケン,コウフシ,チュウオウ,山梨県甲府市中央
4000033,山梨県,甲府市,寿町,ヤマナシケン,コウフシ,コトブキチョウ,山梨県甲府市寿町
4000034,山梨県,甲府市,宝,ヤマナシケン,コウフシ,タカラ,山梨県甲府市宝
4000035,山梨県,甲府市,飯田,ヤマナシケン,コウフシ,イイダ,山梨県甲府市飯田
4000041,山梨県,甲府市,上石田,ヤマナシケン,コウフシ,カミイシダ,山梨県甲府市上石田
4000042,山梨県,甲府市,高畑,ヤマナシケン,コウフシ,タカバタケ,山梨県甲府市高畑
4000043,山梨県,甲府市,国母,ヤマナシケン,コウフシ,コクボ,山梨県甲府市国母
4000044,山梨県,甲府市,上小河原町,ヤマナシケン,コウフシ,カミコガワラチョウ,山梨県甲府市上小河原町
4000045,山梨県,甲府市,後屋町,ヤマナシケン,コウフシ,ウシロヤチョウ,山梨県甲府市後屋町
4000046,山梨県,甲府市,下石田,ヤマナシケン,コウフシ,シモイシダ,山梨県甲府市下石田
4000047,山梨県,甲府市,徳行,ヤマナシケン,コウフシ,トクギョウ,山梨県甲府市徳行
4000048,山梨県,甲府市,貢川本町,ヤマナシケン,コウフシ,クガワホンチョウ,山梨県甲府市貢川本町
4000049,山梨県,甲府市,富竹,ヤマナシケン,コウフシ,トミタケ,山梨県甲府市富竹
4000051,山梨県,甲府市,古上条町,ヤマナシケン,コウフシ,フルカミジョウマチ,山梨県甲府市古上条町
4000052,山梨県,甲府市,上条新居町,ヤマナシケン,コウフシ,カミジョウアライマチ,山梨県甲府市上条新居町
4000053,山梨県,甲府市,大里町,ヤマナシケン,コウフシ,オオサトチョウ,山梨県甲府市大里町
4000054,山梨県,甲府市,西下条町,ヤマナシケン,コウフシ,ニシシモジョウマチ,山梨県甲府市西下条町
4000055,山梨県,甲府市,大津町,ヤマナシケン,コウフシ,オオツマチ,山梨県甲府市大津町
4000056,山梨県,甲府市,堀之内町,ヤマナシケン,コウフシ,ホリノウチチョウ,山梨県甲府市堀之内町
4000057,山梨県,甲府市,高室町,ヤマナシケン,コウフシ,タカムロチョウ,山梨県甲府市高室町
4000058,山梨県,甲府市,宮原町,ヤマナシケン,コウフシ,ミヤバラチョウ,山梨県甲府市宮原町
4000061,山梨県,甲府市,荒川,ヤマナシケン,コウフシ,アラカワ,山梨県甲府市荒川
4000062,山梨県,甲府市,池田,ヤマナシケン,コウフシ,イケダ,山梨県甲府市池田
4000063,山梨県,甲府市,金竹町,ヤマナシケン,コウフシ,カネタケチョウ,山梨県甲府市金竹町
4000064,山梨県,甲府市,下飯田,ヤマナシケン,コウフシ,シモイイダ,山梨県甲府市下飯田
4000065,山梨県,甲府市,貢川,ヤマナシケン,コウフシ,クガワ,山梨県甲府市貢川
4000066,山梨県,甲府市,新田町,ヤマナシケン,コウフシ,シンデンチョウ,山梨県甲府市新田町
4000067,山梨県,甲府市,長松寺町,ヤマナシケン,コウフシ,チョウショウジチョウ,山梨県甲府市長松寺町
4000068,山梨県,甲府市,下河原町,ヤマナシケン,コウフシ,シモガワラチョウ,山梨県甲府市下河原町
4000069,山梨県,甲府市,中村町,ヤマナシケン,コウフシ,ナカムラチョウ,山梨県甲府市中村町
4000071,山梨県,甲府市,羽黒町,ヤマナシケン,コウフシ,ハグロチョウ,山梨県甲府市羽黒町
4000072,山梨県,甲府市,大和町,ヤマナシケン,コウフシ,ダイワチョウ,山梨県甲府市大和町
4000073,山梨県,甲府市,湯村,ヤマナシケン,コウフシ,ユムラ,山梨県甲府市湯村
4000074,山梨県,甲府市,千塚,ヤマナシケン,コウフシ,チヅカ,山梨県甲府市千塚
4000075,山梨県,甲府市,山宮町,ヤマナシケン,コウフシ,ヤマミヤチョウ,山梨県甲府市山宮町
4000081,山梨県,甲府市,上帯那町,ヤマナシケン,コウフシ,カミオビナチョウ,山梨県甲府市上帯那町
4000082,山梨県,甲府市,下帯那町,ヤマナシケン,コウフシ,シモオビナチョウ,山梨県甲府市下帯那町
4000083,山梨県,甲府市,平瀬町,ヤマナシケン,コウフシ,ヒラセマチ,山梨県甲府市平瀬町
4000100,山梨県,甲斐市,,ヤマナシケン,カイシ,,山梨県甲斐市
4000101,山梨県,甲斐市,菖蒲沢,ヤマナシケン,カイシ,ショウブザワ,山梨県甲斐市菖蒲沢
4000102,山梨県,甲斐市,団子新居,ヤマナシケン,カイシ,ダンゴアライ,山梨県甲斐市団子新居
4000103,山梨県,甲斐市,大垈,ヤマナシケン,カイシ,オオヌタ,山梨県甲斐市大垈
4000104,山梨県,甲斐市,龍地,ヤマナシケン,カイシ,リュウジ,山梨県甲斐市龍地
4000105,山梨県,甲斐市,下今井,ヤマナシケン,カイシ,シモイマイ,山梨県甲斐市下今井
4000106,山梨県,甲斐市,岩森,ヤマナシケン,カイシ,イワモリ,山梨県甲斐市岩森
4000107,山梨県,甲斐市,志田,ヤマナシケン,カイシ,シダ,山梨県甲斐市志田
4000108,山梨県,甲斐市,宇津谷,ヤマナシケン,カイシ,ウツヤ,山梨県甲斐市宇津谷
4000111,山梨県,甲斐市,竜王新町,ヤマナシケン,カイシ,リュウオウシンマチ,山梨県甲斐市竜王新町
4000112,山梨県,甲斐市,名取,ヤマナシケン,カイシ,ナトリ,山梨県甲斐市名取
4000113,山梨県,甲斐市,富竹新田,ヤマナシケン,カイシ,トミタケシンデン,山梨県甲斐市富竹新田
4000114,山梨県,甲斐市,万才,ヤマナシケン,カイシ,マンザイ,山梨県甲斐市万才
4000115,山梨県,甲斐市,篠原,ヤマナシケン,カイシ,シノハラ,山梨県甲斐市篠原
4000116,山梨県,甲斐市,玉川,ヤマナシケン,カイシ,タマガワ,山梨県甲斐市玉川
4000117,山梨県,甲斐市,西八幡,ヤマナシケン,カイシ,ニシヤハタ,山梨県甲斐市西八幡
4000118,山梨県,甲斐市,竜王,ヤマナシケン,カイシ,リュウオウ,山梨県甲斐市竜王
4000121,山梨県,甲斐市,牛句,ヤマナシケン,カイシ,ウシク,山梨県甲斐市牛句
4000122,山梨県,甲斐市,境,ヤマナシケン,カイシ,サカイ,山梨県甲斐市境
4000123,山梨県,甲斐市,島上条,ヤマナシケン,カイシ,シマカミジョウ,山梨県甲斐市島上条
4000124,山梨県,甲斐市,中下条,ヤマナシケン,カイシ,ナカシモジョウ,山梨県甲斐市中下条
4000125,山梨県,甲斐市,長塚,ヤマナシケン,カイシ,ナガヅカ,山梨県甲斐市長塚
4000126,山梨県,甲斐市,大下条,ヤマナシケン,カイシ,オオシモジョウ,山梨県甲斐市大下条
4000127,山梨県,甲斐市,天狗沢,ヤマナシケン,カイシ,テングサワ,山梨県甲斐市天狗沢
4000128,山梨県,甲斐市,大久保,ヤマナシケン,カイシ,オオクボ,山梨県甲斐市大久保
4000201,山梨県,南アルプス市,上高砂,ヤマナシケン,ミナミアルプスシ,カミタカスナ,山梨県南アルプス市上高砂
4000202,山梨県,南アルプス市,下高砂,ヤマナシケン,ミナミアルプスシ,シモタカスナ,山梨県南アルプス市下高砂
4000203,山梨県,南アルプス市,徳永,ヤマナシケン,ミナミアルプスシ,トクナガ,山梨県南アルプス市徳永
4000204,山梨県,南アルプス市,榎原,ヤマナシケン,ミナミアルプスシ,エノキハラ,山梨県南アルプス市榎原
4000205,山梨県,南アルプス市,野牛島,ヤマナシケン,ミナミアルプスシ,ヤゴシマ,山梨県南アルプス市野牛島
4000206,山梨県,南アルプス市,六科,ヤマナシケン,ミナミアルプスシ,ムジナ,山梨県南アルプス市六科
4000211,山梨県,南アルプス市,上今諏訪,ヤマナシケン,ミナミアルプスシ,カミイマスワ,山梨県南アルプス市上今諏訪
4000212,山梨県,南アルプス市,下今諏訪,ヤマナシケン,ミナミアルプスシ,シモイマスワ,山梨県南アルプス市下今諏訪
4000213,山梨県,南アルプス市,西野,ヤマナシケン,ミナミアルプスシ,ニシノ,山梨県南アルプス市西野
4000214,山梨県,南アルプス市,百々,ヤマナシケン,ミナミアルプスシ,ドウドウ,山梨県南アルプス市百々
4000215,山梨県,南アルプス市,上八田,ヤマナシケン,ミナミアルプスシ,ウエハッタ,山梨県南アルプス市上八田
4000221,山梨県,南アルプス市,在家塚,ヤマナシケン,ミナミアルプスシ,ザイケツカ,山梨県南アルプス市在家塚
4000222,山梨県,南アルプス市,飯野,ヤマナシケン,ミナミアルプスシ,イイノ,山梨県南アルプス市飯野
4000223,山梨県,南アルプス市,曲輪田新田,ヤマナシケン,ミナミアルプスシ,クルワダシンデン,山梨県南アルプス市曲輪田新田
4000224,山梨県,南アルプス市,飯野新田,ヤマナシケン,ミナミアルプスシ,イイノシンデン,山梨県南アルプス市飯野新田
4000225,山梨県,南アルプス市,築山,ヤマナシケン,ミナミアルプスシ,ツクヤマ,山梨県南アルプス市築山
4000226,山梨県,南アルプス市,有野,ヤマナシケン,ミナミアルプスシ,アリノ,山梨県南アルプス市有野
4000231,山梨県,南アルプス市,塩前,ヤマナシケン,ミナミアルプスシ,シオノマエ,山梨県南アルプス市塩前
4000232,山梨県,南アルプス市,駒場,ヤマナシケン,ミナミアルプスシ,コマバ,山梨県南アルプス市駒場
4000233,山梨県,南アルプス市,須沢,ヤマナシケン,ミナミアルプスシ,スサワ,山梨県南アルプス市須沢
4000234,山梨県,南アルプス市,大嵐,ヤマナシケン,ミナミアルプスシ,オオアラシ,山梨県南アルプス市大嵐
4000241,山梨県,南アルプス市,芦安芦倉,ヤマナシケン,ミナミアルプスシ,アシヤスアシクラ,山梨県南アルプス市芦安芦倉
4000242,山梨県,南アルプス市,芦安安通,ヤマナシケン,ミナミアルプスシ,アシヤスアンツウ,山梨県南アルプス市芦安安通
4000301,山梨県,南アルプス市,桃園,ヤマナシケン,ミナミアルプスシ,モモソノ,山梨県南アルプス市桃園
4000302,山梨県,南アルプス市,沢登,ヤマナシケン,ミナミアルプスシ,サワノボリ,山梨県南アルプス市沢登
4000303,山梨県,南アルプス市,上今井,ヤマナシケン,ミナミアルプスシ,カミイマイ,山梨県南アルプス市上今井
4000304,山梨県,南アルプス市,吉田,ヤマナシケン,ミナミアルプスシ,ヨシダ,山梨県南アルプス市吉田
4000305,山梨県,南アルプス市,十五所,ヤマナシケン,ミナミアルプスシ,ジュウゴショ,山梨県南アルプス市十五所
4000306,山梨県,南アルプス市,小笠原,ヤマナシケン,ミナミアルプスシ,オガサハラ,山梨県南アルプス市小笠原
4000308,山梨県,南アルプス市,山寺,ヤマナシケン,ミナミアルプスシ,ヤマデラ,山梨県南アルプス市山寺
4000311,山梨県,南アルプス市,曲輪田,ヤマナシケン,ミナミアルプスシ,クルワダ,山梨県南アルプス市曲輪田
4000312,山梨県,南アルプス市,上宮地,ヤマナシケン,ミナミアルプスシ,カミミヤジ,山梨県南アルプス市上宮地
4000313,山梨県,南アルプス市,平岡,ヤマナシケン,ミナミアルプスシ,ヒラオカ,山梨県南アルプス市平岡
4000314,山梨県,南アルプス市,下市之瀬,ヤマナシケン,ミナミアルプスシ,シモイチノセ,山梨県南アルプス市下市之瀬
4000315,山梨県,南アルプス市,上野,ヤマナシケン,ミナミアルプスシ,ウエノ,山梨県南アルプス市上野
4000316,山梨県,南アルプス市,中野,ヤマナシケン,ミナミアルプスシ,ナカノ,山梨県南アルプス市中野
4000317,山梨県,南アルプス市,上市之瀬,ヤマナシケン,ミナミアルプスシ,カミイチノセ,山梨県南アルプス市上市之瀬
4000318,山梨県,南アルプス市,高尾,ヤマナシケン,ミナミアルプスシ,タカオ,山梨県南アルプス市高尾
4000319,山梨県,南アルプス市,あやめが丘,ヤマナシケン,ミナミアルプスシ,アヤメガオカ,山梨県南アルプス市あやめが丘
4000331,山梨県,南アルプス市,下今井,ヤマナシケン,ミナミアルプスシ,シモイマイ,山梨県南アルプス市下今井
4000332,山梨県,南アルプス市,鏡中條,ヤマナシケン,ミナミアルプスシ,カガミナカジョウ,山梨県南アルプス市鏡中條
4000333,山梨県,南アルプス市,浅原,ヤマナシケン,ミナミアルプスシ,アサバラ,山梨県南アルプス市浅原
4000334,山梨県,南アルプス市,藤田,ヤマナシケン,ミナミアルプスシ,トウダ,山梨県南アルプス市藤田
4000335,山梨県,南アルプス市,加賀美,ヤマナシケン,ミナミアルプスシ,カガミ,山梨県南アルプス市加賀美
4000336,山梨県,南アルプス市,十日市場,ヤマナシケン,ミナミアルプスシ,トウカイチバ,山梨県南アルプス市十日市場
4000337,山梨県,南アルプス市,寺部,ヤマナシケン,ミナミアルプスシ,テラベ,山梨県南アルプス市寺部
4000400,山梨県,南アルプス市,,ヤマナシケン,ミナミアルプスシ,,山梨県南アルプス市
4000401,山梨県,南アルプス市,江原,ヤマナシケン,ミナミアルプスシ,エバラ,山梨県南アルプス市江原
4000402,山梨県,南アルプス市,田島,ヤマナシケン,ミナミアルプスシ,タジマ,山梨県南アルプス市田島
4000403,山梨県,南アルプス市,鮎沢,ヤマナシケン,ミナミアルプスシ,アユザワ,山梨県南アルプス市鮎沢
4000404,山梨県,南アルプス市,古市場,ヤマナシケン,ミナミアルプスシ,フルイチバ,山梨県南アルプス市古市場
4000405,山梨県,南アルプス市,下宮地,ヤマナシケン,ミナミアルプスシ,シモミヤジ,山梨県南アルプス市下宮地
4000411,山梨県,南アルプス市,西南湖,ヤマナシケン,ミナミアルプスシ,ニシナンゴ,山梨県南アルプス市西南湖
4000412,山梨県,南アルプス市,東南湖,ヤマナシケン,ミナミアルプスシ,ヒガシナンゴ,山梨県南アルプス市東南湖
4000413,山梨県,南アルプス市,和泉,ヤマナシケン,ミナミアルプスシ,イズミ,山梨県南アルプス市和泉
4000414,山梨県,南アルプス市,戸田,ヤマナシケン,ミナミアルプスシ,トダ,山梨県南アルプス市戸田
4000415,山梨県,南アルプス市,宮沢,ヤマナシケン,ミナミアルプスシ,ミヤザワ,山梨県南アルプス市宮沢
4000416,山梨県,南アルプス市,大師,ヤマナシケン,ミナミアルプスシ,ダイシ,山梨県南アルプス市大師
4000417,山梨県,南アルプス市,清水,ヤマナシケン,ミナミアルプスシ,シミズ,山梨県南アルプス市清水
4000421,山梨県,南アルプス市,川上,ヤマナシケン,ミナミアルプスシ,カワカミ,山梨県南アルプス市川上
4000422,山梨県,南アルプス市,荊沢,ヤマナシケン,ミナミアルプスシ,バラザワ,山梨県南アルプス市荊沢
4000423,山梨県,南アルプス市,落合,ヤマナシケン,ミナミアルプスシ,オチアイ,山梨県南アルプス市落合
4000424,山梨県,南アルプス市,秋山,ヤマナシケン,ミナミアルプスシ,アキヤマ,山梨県南アルプス市秋山
4000425,山梨県,南アルプス市,湯沢,ヤマナシケン,ミナミアルプスシ,ユザワ,山梨県南アルプス市湯沢
4000426,山梨県,南アルプス市,塚原,ヤマナシケン,ミナミアルプスシ,ツカハラ,山梨県南アルプス市塚原
4000500,山梨県,南巨摩郡富士川町,,ヤマナシケン,ミナミコマグンフジカワチョウ,,山梨県南巨摩郡富士川町
4000501,山梨県,南巨摩郡富士川町,青柳町,ヤマナシケン,ミナミコマグンフジカワチョウ,アオヤギマチ,山梨県南巨摩郡富士川町青柳町
4000502,山梨県,南巨摩郡富士川町,最勝寺,ヤマナシケン,ミナミコマグンフジカワチョウ,サイショウジ,山梨県南巨摩郡富士川町最勝寺
4000503,山梨県,南巨摩郡富士川町,天神中條,ヤマナシケン,ミナミコマグンフジカワチョウ,テンジンナカジョウ,山梨県南巨摩郡富士川町天神中條
4000504,山梨県,南巨摩郡富士川町,小林,ヤマナシケン,ミナミコマグンフジカワチョウ,コバヤシ,山梨県南巨摩郡富士川町小林
4000505,山梨県,南巨摩郡富士川町,長澤,ヤマナシケン,ミナミコマグンフジカワチョウ,ナガサワ,山梨県南巨摩郡富士川町長澤
4000506,山梨県,南巨摩郡富士川町,大椚,ヤマナシケン,ミナミコマグンフジカワチョウ,オオクヌギ,山梨県南巨摩郡富士川町大椚
4000511,山梨県,南巨摩郡富士川町,大久保,ヤマナシケン,ミナミコマグンフジカワチョウ,オオクボ,山梨県南巨摩郡富士川町大久保
4000512,山梨県,南巨摩郡富士川町,小室,ヤマナシケン,ミナミコマグンフジカワチョウ,コムロ,山梨県南巨摩郡富士川町小室
4000513,山梨県,南巨摩郡富士川町,高下,ヤマナシケン,ミナミコマグンフジカワチョウ,タカオリ,山梨県南巨摩郡富士川町高下
4000514,山梨県,南巨摩郡富士川町,平林,ヤマナシケン,ミナミコマグンフジカワチョウ,ヒラバヤシ,山梨県南巨摩郡富士川町平林
4000515,山梨県,南巨摩郡富士川町,舂米,ヤマナシケン,ミナミコマグンフジカワチョウ,ツキヨネ,山梨県南巨摩郡富士川町舂米
4000601,山梨県,南巨摩郡富士川町,鰍沢,ヤマナシケン,ミナミコマグンフジカワチョウ,カジカザワ,山梨県南巨摩郡富士川町鰍沢
4000602,山梨県,南巨摩郡富士川町,駅前通,ヤマナシケン,ミナミコマグンフジカワチョウ,エキマエドオリ,山梨県南巨摩郡富士川町駅前通
4000603,山梨県,南巨摩郡富士川町,鹿島,ヤマナシケン,ミナミコマグンフジカワチョウ,カシマ,山梨県南巨摩郡富士川町鹿島
4000604,山梨県,南巨摩郡富士川町,箱原,ヤマナシケン,ミナミコマグンフジカワチョウ,ハコバラ,山梨県南巨摩郡富士川町箱原
4000605,山梨県,南巨摩郡富士川町,柳川,ヤマナシケン,ミナミコマグンフジカワチョウ,ヤナガワ,山梨県南巨摩郡富士川町柳川
4000606,山梨県,南巨摩郡富士川町,十谷,ヤマナシケン,ミナミコマグンフジカワチョウ,ジッコク,山梨県南巨摩郡富士川町十谷
4000607,山梨県,南巨摩郡富士川町,鳥屋,ヤマナシケン,ミナミコマグンフジカワチョウ,トヤ,山梨県南巨摩郡富士川町鳥屋
4000608,山梨県,南巨摩郡富士川町,長知沢,ヤマナシケン,ミナミコマグンフジカワチョウ,チョウチザワ,山梨県南巨摩郡富士川町長知沢
4000801,山梨県,甲府市,善光寺町,ヤマナシケン,コウフシ,ゼンコウジマチ,山梨県甲府市善光寺町
4000802,山梨県,甲府市,横根町,ヤマナシケン,コウフシ,ヨコネマチ,山梨県甲府市横根町
4000803,山梨県,甲府市,桜井町,ヤマナシケン,コウフシ,サクライチョウ,山梨県甲府市桜井町
4000804,山梨県,甲府市,酒折町,ヤマナシケン,コウフシ,サカオリチョウ,山梨県甲府市酒折町
4000805,山梨県,甲府市,酒折,ヤマナシケン,コウフシ,サカオリ,山梨県甲府市酒折
4000806,山梨県,甲府市,善光寺,ヤマナシケン,コウフシ,ゼンコウジ,山梨県甲府市善光寺
4000807,山梨県,甲府市,東光寺,ヤマナシケン,コウフシ,トウコウジ,山梨県甲府市東光寺
4000808,山梨県,甲府市,東光寺町,ヤマナシケン,コウフシ,トウコウジマチ,山梨県甲府市東光寺町
4000811,山梨県,甲府市,川田町,ヤマナシケン,コウフシ,カワダマチ,山梨県甲府市川田町
4000812,山梨県,甲府市,和戸町,ヤマナシケン,コウフシ,ワドマチ,山梨県甲府市和戸町
4000813,山梨県,甲府市,向町,ヤマナシケン,コウフシ,ムコウマチ,山梨県甲府市向町
4000814,山梨県,甲府市,上阿原町,ヤマナシケン,コウフシ,カミアハラマチ,山梨県甲府市上阿原町
4000815,山梨県,甲府市,国玉町,ヤマナシケン,コウフシ,クダマチョウ,山梨県甲府市国玉町
4000821,山梨県,甲府市,砂田町,ヤマナシケン,コウフシ,スナダチョウ,山梨県甲府市砂田町
4000822,山梨県,甲府市,里吉,ヤマナシケン,コウフシ,サトヨシ,山梨県甲府市里吉
4000823,山梨県,甲府市,里吉町,ヤマナシケン,コウフシ,サトヨシチョウ,山梨県甲府市里吉町
4000824,山梨県,甲府市,蓬沢町,ヤマナシケン,コウフシ,ヨモギサワマチ,山梨県甲府市蓬沢町
4000825,山梨県,甲府市,七沢町,ヤマナシケン,コウフシ,ナナサワチョウ,山梨県甲府市七沢町
4000826,山梨県,甲府市,西高橋町,ヤマナシケン,コウフシ,ニシタカハシチョウ,山梨県甲府市西高橋町
4000827,山梨県,甲府市,蓬沢,ヤマナシケン,コウフシ,ヨモギサワ,山梨県甲府市蓬沢
4000828,山梨県,甲府市,青葉町,ヤマナシケン,コウフシ,アオバチョウ,山梨県甲府市青葉町
4000831,山梨県,甲府市,上町,ヤマナシケン,コウフシ,カミチョウ,山梨県甲府市上町
4000832,山梨県,甲府市,増坪町,ヤマナシケン,コウフシ,マスツボチョウ,山梨県甲府市増坪町
4000833,山梨県,甲府市,西油川町,ヤマナシケン,コウフシ,ニシアブラカワチョウ,山梨県甲府市西油川町
4000834,山梨県,甲府市,落合町,ヤマナシケン,コウフシ,オチアイチョウ,山梨県甲府市落合町
4000835,山梨県,甲府市,下鍛冶屋町,ヤマナシケン,コウフシ,シモカジヤマチ,山梨県甲府市下鍛冶屋町
4000836,山梨県,甲府市,小瀬町,ヤマナシケン,コウフシ,コセマチ,山梨県甲府市小瀬町
4000841,山梨県,甲府市,小曲町,ヤマナシケン,コウフシ,オマガリチョウ,山梨県甲府市小曲町
4000842,山梨県,甲府市,下今井町,ヤマナシケン,コウフシ,シモイマイチョウ,山梨県甲府市下今井町
4000843,山梨県,甲府市,東下条町,ヤマナシケン,コウフシ,ヒガシシモジョウマチ,山梨県甲府市東下条町
4000844,山梨県,甲府市,中町,ヤマナシケン,コウフシ,ナカチョウ,山梨県甲府市中町
4000845,山梨県,甲府市,上今井町,ヤマナシケン,コウフシ,カミイマイチョウ,山梨県甲府市上今井町
4000851,山梨県,甲府市,住吉,ヤマナシケン,コウフシ,スミヨシ,山梨県甲府市住吉
4000852,山梨県,甲府市,住吉本町,ヤマナシケン,コウフシ,スミヨシホンチョウ,山梨県甲府市住吉本町
4000853,山梨県,甲府市,下小河原町,ヤマナシケン,コウフシ,シモコガワラチョウ,山梨県甲府市下小河原町
4000854,山梨県,甲府市,中小河原町,ヤマナシケン,コウフシ,ナカコガワラチョウ,山梨県甲府市中小河原町
4000855,山梨県,甲府市,中小河原,ヤマナシケン,コウフシ,ナカコガワラ,山梨県甲府市中小河原
4000856,山梨県,甲府市,伊勢,ヤマナシケン,コウフシ,イセ,山梨県甲府市伊勢
4000857,山梨県,甲府市,幸町,ヤマナシケン,コウフシ,サイワイチョウ,山梨県甲府市幸町
4000858,山梨県,甲府市,相生,ヤマナシケン,コウフシ,アイオイ,山梨県甲府市相生
4000861,山梨県,甲府市,城東,ヤマナシケン,コウフシ,ジョウトウ,山梨県甲府市城東
4000862,山梨県,甲府市,朝気,ヤマナシケン,コウフシ,アサケ,山梨県甲府市朝気
4000863,山梨県,甲府市,南口町,ヤマナシケン,コウフシ,ミナミグチチョウ,山梨県甲府市南口町
4000864,山梨県,甲府市,湯田,ヤマナシケン,コウフシ,ユダ,山梨県甲府市湯田
4000865,山梨県,甲府市,太田町,ヤマナシケン,コウフシ,オオタマチ,山梨県甲府市太田町
4000866,山梨県,甲府市,若松町,ヤマナシケン,コウフシ,ワカマツチョウ,山梨県甲府市若松町
4000867,山梨県,甲府市,青沼,ヤマナシケン,コウフシ,アオヌマ,山梨県甲府市青沼
4001111,山梨県,甲斐市,千田,ヤマナシケン,カイシ,センダ,山梨県甲斐市千田
4001112,山梨県,甲斐市,吉沢,ヤマナシケン,カイシ,キッサワ,山梨県甲斐市吉沢
4001113,山梨県,甲斐市,亀沢（その他）,ヤマナシケン,カイシ,カメザワ(ソノタ),山梨県甲斐市亀沢（その他）
4001114,山梨県,甲斐市,打返,ヤマナシケン,カイシ,ウチガエシ,山梨県甲斐市打返
4001115,山梨県,甲斐市,漆戸,ヤマナシケン,カイシ,ウルシド,山梨県甲斐市漆戸
4001116,山梨県,甲斐市,獅子平,ヤマナシケン,カイシ,シシダイラ,山梨県甲斐市獅子平
4001117,山梨県,甲斐市,上菅口,ヤマナシケン,カイシ,カミスゲクチ,山梨県甲斐市上菅口
4001121,山梨県,甲斐市,上芦沢,ヤマナシケン,カイシ,カミアシザワ,山梨県甲斐市上芦沢
4001122,山梨県,甲斐市,下芦沢,ヤマナシケン,カイシ,シモアシザワ,山梨県甲斐市下芦沢
4001123,山梨県,甲斐市,上福沢,ヤマナシケン,カイシ,カミフクザワ,山梨県甲斐市上福沢
4001124,山梨県,甲斐市,下福沢,ヤマナシケン,カイシ,シモフクザワ,山梨県甲斐市下福沢
4001125,山梨県,甲斐市,下菅口,ヤマナシケン,カイシ,シモスゲグチ,山梨県甲斐市下菅口
4001126,山梨県,甲斐市,安寺,ヤマナシケン,カイシ,アテラ,山梨県甲斐市安寺
4001127,山梨県,甲斐市,神戸,ヤマナシケン,カイシ,ゴウド,山梨県甲斐市神戸
4001131,山梨県,甲斐市,亀沢（大明神、６９４９番地）,ヤマナシケン,カイシ,カメザワ(ダイミョウジン、6949バンチ),山梨県甲斐市亀沢（大明神、6949-）
4001211,山梨県,甲府市,黒平町,ヤマナシケン,コウフシ,クロベラチョウ,山梨県甲府市黒平町
4001212,山梨県,甲府市,高町,ヤマナシケン,コウフシ,タカマチ,山梨県甲府市高町
4001213,山梨県,甲府市,川窪町,ヤマナシケン,コウフシ,カワクボチョウ,山梨県甲府市川窪町
4001214,山梨県,甲府市,高成町,ヤマナシケン,コウフシ,タカナリチョウ,山梨県甲府市高成町
4001215,山梨県,甲府市,竹日向町,ヤマナシケン,コウフシ,タケヒナタマチ,山梨県甲府市竹日向町
4001216,山梨県,甲府市,塔岩町,ヤマナシケン,コウフシ,トウイワチョウ,山梨県甲府市塔岩町
4001217,山梨県,甲府市,猪狩町,ヤマナシケン,コウフシ,イカリチョウ,山梨県甲府市猪狩町
4001218,山梨県,甲府市,御岳町,ヤマナシケン,コウフシ,ミタケチョウ,山梨県甲府市御岳町
4001219,山梨県,甲府市,草鹿沢町,ヤマナシケン,コウフシ,ソウカザワチョウ,山梨県甲府市草鹿沢町
4001501,山梨県,甲府市,上曽根町,ヤマナシケン,コウフシ,カミソネチョウ,山梨県甲府市上曽根町
4001502,山梨県,甲府市,白井町,ヤマナシケン,コウフシ,シライチョウ,山梨県甲府市白井町
4001503,山梨県,甲府市,心経寺町,ヤマナシケン,コウフシ,シンギョウジチョウ,山梨県甲府市心経寺町
4001504,山梨県,甲府市,右左口町,ヤマナシケン,コウフシ,ウバグチチョウ,山梨県甲府市右左口町
4001505,山梨県,甲府市,中畑町,ヤマナシケン,コウフシ,ナカバタケチョウ,山梨県甲府市中畑町
4001506,山梨県,甲府市,上向山町,ヤマナシケン,コウフシ,カミムコウヤマチョウ,山梨県甲府市上向山町
4001507,山梨県,甲府市,下向山町,ヤマナシケン,コウフシ,シモムコウヤマチョウ,山梨県甲府市下向山町
4001508,山梨県,甲府市,下曽根町,ヤマナシケン,コウフシ,シモソネチョウ,山梨県甲府市下曽根町
4001511,山梨県,中央市,木原,ヤマナシケン,チュウオウシ,キハラ,山梨県中央市木原
4001512,山梨県,中央市,関原,ヤマナシケン,チュウオウシ,セキハラ,山梨県中央市関原
4001513,山梨県,中央市,大鳥居,ヤマナシケン,チュウオウシ,オオトリイ,山梨県中央市大鳥居
4001514,山梨県,中央市,浅利,ヤマナシケン,チュウオウシ,アサリ,山梨県中央市浅利
4001515,山梨県,中央市,高部,ヤマナシケン,チュウオウシ,タカベ,山梨県中央市高部
4010000,山梨県,大月市,,ヤマナシケン,オオツキシ,,山梨県大月市
4010001,山梨県,大月市,賑岡町畑倉,ヤマナシケン,オオツキシ,ニギオカマチハタグラ,山梨県大月市賑岡町畑倉
4010002,山梨県,大月市,賑岡町岩殿,ヤマナシケン,オオツキシ,ニギオカマチイワドノ,山梨県大月市賑岡町岩殿
4010003,山梨県,大月市,賑岡町ゆりケ丘,ヤマナシケン,オオツキシ,ニギオカマチユリガオカ,山梨県大月市賑岡町ゆりケ丘
4010004,山梨県,大月市,賑岡町強瀬,ヤマナシケン,オオツキシ,ニギオカマチコワゼ,山梨県大月市賑岡町強瀬
4010005,山梨県,大月市,賑岡町浅利,ヤマナシケン,オオツキシ,ニギオカマチアサリ,山梨県大月市賑岡町浅利
4010006,山梨県,大月市,賑岡町奥山,ヤマナシケン,オオツキシ,ニギオカマチオクヤマ,山梨県大月市賑岡町奥山
4010011,山梨県,大月市,駒橋,ヤマナシケン,オオツキシ,コマハシ,山梨県大月市駒橋
4010012,山梨県,大月市,御太刀,ヤマナシケン,オオツキシ,ミタチ,山梨県大月市御太刀
4010013,山梨県,大月市,大月（１〜３丁目）,ヤマナシケン,オオツキシ,オオツキ(1-3チョウメ),山梨県大月市大月（1〜3-）
4010014,山梨県,大月市,大月町大月,ヤマナシケン,オオツキシ,オオツキマチオオツキ,山梨県大月市大月町大月
4010015,山梨県,大月市,大月町花咲,ヤマナシケン,オオツキシ,オオツキマチハナサキ,山梨県大月市大月町花咲
4010016,山梨県,大月市,大月町真木,ヤマナシケン,オオツキシ,オオツキマチマギ,山梨県大月市大月町真木
4010021,山梨県,大月市,初狩町下初狩,ヤマナシケン,オオツキシ,ハツカリマチシモハツカリ,山梨県大月市初狩町下初狩
4010022,山梨県,大月市,初狩町中初狩,ヤマナシケン,オオツキシ,ハツカリマチナカハツカリ,山梨県大月市初狩町中初狩
4010023,山梨県,大月市,笹子町白野,ヤマナシケン,オオツキシ,ササゴマチシラノ,山梨県大月市笹子町白野
4010024,山梨県,大月市,笹子町吉久保,ヤマナシケン,オオツキシ,ササゴマチヨシクボ,山梨県大月市笹子町吉久保
4010025,山梨県,大月市,笹子町黒野田,ヤマナシケン,オオツキシ,ササゴマチクロノダ,山梨県大月市笹子町黒野田
4010201,山梨県,上野原市,秋山,ヤマナシケン,ウエノハラシ,アキヤマ,山梨県上野原市秋山
4010300,山梨県,南都留郡富士河口湖町,,ヤマナシケン,ミナミツルグンフジカワグチコマチ,,山梨県南都留郡富士河口湖町
4010301,山梨県,南都留郡富士河口湖町,船津,ヤマナシケン,ミナミツルグンフジカワグチコマチ,フナツ,山梨県南都留郡富士河口湖町船津
4010302,山梨県,南都留郡富士河口湖町,小立,ヤマナシケン,ミナミツルグンフジカワグチコマチ,コダチ,山梨県南都留郡富士河口湖町小立
4010303,山梨県,南都留郡富士河口湖町,浅川,ヤマナシケン,ミナミツルグンフジカワグチコマチ,アザガワ,山梨県南都留郡富士河口湖町浅川
4010304,山梨県,南都留郡富士河口湖町,河口,ヤマナシケン,ミナミツルグンフジカワグチコマチ,カワグチ,山梨県南都留郡富士河口湖町河口
4010305,山梨県,南都留郡富士河口湖町,大石,ヤマナシケン,ミナミツルグンフジカワグチコマチ,オオイシ,山梨県南都留郡富士河口湖町大石
4010310,山梨県,南都留郡富士河口湖町,勝山,ヤマナシケン,ミナミツルグンフジカワグチコマチ,カツヤマ,山梨県南都留郡富士河口湖町勝山
4010320,山梨県,南都留郡鳴沢村,,ヤマナシケン,ミナミツルグンナルサワムラ,,山梨県南都留郡鳴沢村
4010331,山梨県,南都留郡富士河口湖町,長浜,ヤマナシケン,ミナミツルグンフジカワグチコマチ,ナガハマ,山梨県南都留郡富士河口湖町長浜
4010332,山梨県,南都留郡富士河口湖町,西湖,ヤマナシケン,ミナミツルグンフジカワグチコマチ,サイコ,山梨県南都留郡富士河口湖町西湖
4010333,山梨県,南都留郡富士河口湖町,西湖西,ヤマナシケン,ミナミツルグンフジカワグチコマチ,サイコニシ,山梨県南都留郡富士河口湖町西湖西
4010334,山梨県,南都留郡富士河口湖町,西湖南,ヤマナシケン,ミナミツルグンフジカワグチコマチ,サイコミナミ,山梨県南都留郡富士河口湖町西湖南
4010335,山梨県,南都留郡富士河口湖町,大嵐,ヤマナシケン,ミナミツルグンフジカワグチコマチ,オオアラシ,山梨県南都留郡富士河口湖町大嵐
4010336,山梨県,南都留郡富士河口湖町,精進,ヤマナシケン,ミナミツルグンフジカワグチコマチ,ショウジ,山梨県南都留郡富士河口湖町精進
4010337,山梨県,南都留郡富士河口湖町,本栖,ヤマナシケン,ミナミツルグンフジカワグチコマチ,モトス,山梨県南都留郡富士河口湖町本栖
4010338,山梨県,南都留郡富士河口湖町,富士ケ嶺,ヤマナシケン,ミナミツルグンフジカワグチコマチ,フジガネ,山梨県南都留郡富士河口湖町富士ケ嶺
4010500,山梨県,南都留郡山中湖村,,ヤマナシケン,ミナミツルグンヤマナカコムラ,,山梨県南都留郡山中湖村
4010500,山梨県,南都留郡忍野村,,ヤマナシケン,ミナミツルグンオシノムラ,,山梨県南都留郡忍野村
4010501,山梨県,南都留郡山中湖村,山中,ヤマナシケン,ミナミツルグンヤマナカコムラ,ヤマナカ,山梨県南都留郡山中湖村山中
4010502,山梨県,南都留郡山中湖村,平野,ヤマナシケン,ミナミツルグンヤマナカコムラ,ヒラノ,山梨県南都留郡山中湖村平野
4010511,山梨県,南都留郡忍野村,忍草,ヤマナシケン,ミナミツルグンオシノムラ,シボクサ,山梨県南都留郡忍野村忍草
4010512,山梨県,南都留郡忍野村,内野,ヤマナシケン,ミナミツルグンオシノムラ,ウチノ,山梨県南都留郡忍野村内野
4020000,山梨県,都留市,,ヤマナシケン,ツルシ,,山梨県都留市
4020001,山梨県,都留市,田野倉,ヤマナシケン,ツルシ,タノクラ,山梨県都留市田野倉
4020002,山梨県,都留市,大原,ヤマナシケン,ツルシ,オオハラ,山梨県都留市大原
4020003,山梨県,都留市,川茂,ヤマナシケン,ツルシ,カワモ,山梨県都留市川茂
4020004,山梨県,都留市,古川渡,ヤマナシケン,ツルシ,フルカワド,山梨県都留市古川渡
4020005,山梨県,都留市,四日市場,ヤマナシケン,ツルシ,ヨッカイチバ,山梨県都留市四日市場
4020006,山梨県,都留市,小形山,ヤマナシケン,ツルシ,オガタヤマ,山梨県都留市小形山
4020011,山梨県,都留市,井倉,ヤマナシケン,ツルシ,イグラ,山梨県都留市井倉
4020012,山梨県,都留市,与縄,ヤマナシケン,ツルシ,ヨナワ,山梨県都留市与縄
4020013,山梨県,都留市,盛里,ヤマナシケン,ツルシ,モリサト,山梨県都留市盛里
4020014,山梨県,都留市,朝日馬場,ヤマナシケン,ツルシ,アサヒババ,山梨県都留市朝日馬場
4020015,山梨県,都留市,朝日曽雌,ヤマナシケン,ツルシ,アサヒソシ,山梨県都留市朝日曽雌
4020021,山梨県,都留市,玉川,ヤマナシケン,ツルシ,タマガワ,山梨県都留市玉川
4020022,山梨県,都留市,戸沢,ヤマナシケン,ツルシ,トザワ,山梨県都留市戸沢
4020023,山梨県,都留市,大野,ヤマナシケン,ツルシ,オオノ,山梨県都留市大野
4020024,山梨県,都留市,小野,ヤマナシケン,ツルシ,オノ,山梨県都留市小野
4020025,山梨県,都留市,法能,ヤマナシケン,ツルシ,ホウノウ,山梨県都留市法能
4020031,山梨県,都留市,十日市場,ヤマナシケン,ツルシ,トオカイチバ,山梨県都留市十日市場
4020032,山梨県,都留市,鹿留,ヤマナシケン,ツルシ,シシドメ,山梨県都留市鹿留
4020033,山梨県,都留市,境,ヤマナシケン,ツルシ,サカイ,山梨県都留市境
4020034,山梨県,都留市,桂町,ヤマナシケン,ツルシ,カツラマチ,山梨県都留市桂町
4020035,山梨県,都留市,夏狩,ヤマナシケン,ツルシ,ナツガリ,山梨県都留市夏狩
4020041,山梨県,都留市,金井,ヤマナシケン,ツルシ,カナイ,山梨県都留市金井
4020042,山梨県,都留市,厚原,ヤマナシケン,ツルシ,アツハラ,山梨県都留市厚原
4020043,山梨県,都留市,平栗,ヤマナシケン,ツルシ,ヒラグリ,山梨県都留市平栗
4020044,山梨県,都留市,加畑,ヤマナシケン,ツルシ,カハタ,山梨県都留市加畑
4020045,山梨県,都留市,大幡,ヤマナシケン,ツルシ,オオハタ,山梨県都留市大幡
4020046,山梨県,都留市,中津森,ヤマナシケン,ツルシ,ナカツモリ,山梨県都留市中津森
4020051,山梨県,都留市,下谷,ヤマナシケン,ツルシ,シモヤ,山梨県都留市下谷
4020052,山梨県,都留市,中央,ヤマナシケン,ツルシ,チュウオウ,山梨県都留市中央
4020053,山梨県,都留市,上谷,ヤマナシケン,ツルシ,カミヤ,山梨県都留市上谷
4020054,山梨県,都留市,田原,ヤマナシケン,ツルシ,タハラ,山梨県都留市田原
4020055,山梨県,都留市,川棚,ヤマナシケン,ツルシ,カワダナ,山梨県都留市川棚
4020056,山梨県,都留市,つる,ヤマナシケン,ツルシ,ツル,山梨県都留市つる
4020200,山梨県,南都留郡道志村,,ヤマナシケン,ミナミツルグンドウシムラ,,山梨県南都留郡道志村
4020201,山梨県,南都留郡道志村,月夜野,ヤマナシケン,ミナミツルグンドウシムラ,ツキヨノ,山梨県南都留郡道志村月夜野
4020202,山梨県,南都留郡道志村,大野,ヤマナシケン,ミナミツルグンドウシムラ,オオノ,山梨県南都留郡道志村大野
4020203,山梨県,南都留郡道志村,久保,ヤマナシケン,ミナミツルグンドウシムラ,クボ,山梨県南都留郡道志村久保
4020204,山梨県,南都留郡道志村,大室指,ヤマナシケン,ミナミツルグンドウシムラ,オオムロザス,山梨県南都留郡道志村大室指
4020205,山梨県,南都留郡道志村,椿,ヤマナシケン,ミナミツルグンドウシムラ,ツバキ,山梨県南都留郡道志村椿
4020206,山梨県,南都留郡道志村,小善地,ヤマナシケン,ミナミツルグンドウシムラ,コゼンジ,山梨県南都留郡道志村小善地
4020207,山梨県,南都留郡道志村,大栗,ヤマナシケン,ミナミツルグンドウシムラ,オオグリ,山梨県南都留郡道志村大栗
4020208,山梨県,南都留郡道志村,馬場,ヤマナシケン,ミナミツルグンドウシムラ,バンバ,山梨県南都留郡道志村馬場
4020209,山梨県,南都留郡道志村,竹之本,ヤマナシケン,ミナミツルグンドウシムラ,タケノモト,山梨県南都留郡道志村竹之本
4020211,山梨県,南都留郡道志村,東和出村,ヤマナシケン,ミナミツルグンドウシムラ,ヒガシワデムラ,山梨県南都留郡道志村東和出村
4020212,山梨県,南都留郡道志村,西和出村,ヤマナシケン,ミナミツルグンドウシムラ,ニシワデムラ,山梨県南都留郡道志村西和出村
4020213,山梨県,南都留郡道志村,谷相,ヤマナシケン,ミナミツルグンドウシムラ,ヤソウ,山梨県南都留郡道志村谷相
4020214,山梨県,南都留郡道志村,川原畑,ヤマナシケン,ミナミツルグンドウシムラ,カワラハタ,山梨県南都留郡道志村川原畑
4020215,山梨県,南都留郡道志村,大指,ヤマナシケン,ミナミツルグンドウシムラ,オオザス,山梨県南都留郡道志村大指
4020216,山梨県,南都留郡道志村,釜之前,ヤマナシケン,ミナミツルグンドウシムラ,カマノマエ,山梨県南都留郡道志村釜之前
4020217,山梨県,南都留郡道志村,東神地,ヤマナシケン,ミナミツルグンドウシムラ,ヒガシカンジ,山梨県南都留郡道志村東神地
4020218,山梨県,南都留郡道志村,中神地,ヤマナシケン,ミナミツルグンドウシムラ,ナカカンジ,山梨県南都留郡道志村中神地
4020219,山梨県,南都留郡道志村,下中山,ヤマナシケン,ミナミツルグンドウシムラ,シモナカヤマ,山梨県南都留郡道志村下中山
4020221,山梨県,南都留郡道志村,上中山,ヤマナシケン,ミナミツルグンドウシムラ,カミナカヤマ,山梨県南都留郡道志村上中山
4020222,山梨県,南都留郡道志村,下善之木,ヤマナシケン,ミナミツルグンドウシムラ,シモゼンノキ,山梨県南都留郡道志村下善之木
4020223,山梨県,南都留郡道志村,上善之木,ヤマナシケン,ミナミツルグンドウシムラ,カミゼンノキ,山梨県南都留郡道志村上善之木
4020224,山梨県,南都留郡道志村,川村,ヤマナシケン,ミナミツルグンドウシムラ,カワムラ,山梨県南都留郡道志村川村
4020225,山梨県,南都留郡道志村,板橋,ヤマナシケン,ミナミツルグンドウシムラ,イタバシ,山梨県南都留郡道志村板橋
4020226,山梨県,南都留郡道志村,下白井平,ヤマナシケン,ミナミツルグンドウシムラ,シモシロイタイラ,山梨県南都留郡道志村下白井平
4020227,山梨県,南都留郡道志村,上白井平,ヤマナシケン,ミナミツルグンドウシムラ,カミシロイタイラ,山梨県南都留郡道志村上白井平
4020228,山梨県,南都留郡道志村,長又,ヤマナシケン,ミナミツルグンドウシムラ,ナガマタ,山梨県南都留郡道志村長又
4030000,山梨県,南都留郡西桂町,,ヤマナシケン,ミナミツルグンニシカツラチョウ,,山梨県南都留郡西桂町
4030000,山梨県,富士吉田市,,ヤマナシケン,フジヨシダシ,,山梨県富士吉田市
4030001,山梨県,富士吉田市,上暮地,ヤマナシケン,フジヨシダシ,カミクレチ,山梨県富士吉田市上暮地
4030002,山梨県,富士吉田市,小明見,ヤマナシケン,フジヨシダシ,コアスミ,山梨県富士吉田市小明見
4030003,山梨県,富士吉田市,大明見,ヤマナシケン,フジヨシダシ,オオアスミ,山梨県富士吉田市大明見
4030004,山梨県,富士吉田市,下吉田,ヤマナシケン,フジヨシダシ,シモヨシダ,山梨県富士吉田市下吉田
4030005,山梨県,富士吉田市,上吉田,ヤマナシケン,フジヨシダシ,カミヨシダ,山梨県富士吉田市上吉田
4030006,山梨県,富士吉田市,新屋,ヤマナシケン,フジヨシダシ,アラヤ,山梨県富士吉田市新屋
4030007,山梨県,富士吉田市,中曽根,ヤマナシケン,フジヨシダシ,ナカゾネ,山梨県富士吉田市中曽根
4030008,山梨県,富士吉田市,下吉田東,ヤマナシケン,フジヨシダシ,シモヨシダヒガシ,山梨県富士吉田市下吉田東
4030009,山梨県,富士吉田市,富士見,ヤマナシケン,フジヨシダシ,フジミ,山梨県富士吉田市富士見
4030011,山梨県,富士吉田市,新倉,ヤマナシケン,フジヨシダシ,アラクラ,山梨県富士吉田市新倉
4030012,山梨県,富士吉田市,旭,ヤマナシケン,フジヨシダシ,アサヒ,山梨県富士吉田市旭
4030013,山梨県,富士吉田市,緑ケ丘,ヤマナシケン,フジヨシダシ,ミドリガオカ,山梨県富士吉田市緑ケ丘
4030014,山梨県,富士吉田市,竜ケ丘,ヤマナシケン,フジヨシダシ,タツガオカ,山梨県富士吉田市竜ケ丘
4030015,山梨県,富士吉田市,ときわ台,ヤマナシケン,フジヨシダシ,トキワダイ,山梨県富士吉田市ときわ台
4030016,山梨県,富士吉田市,松山,ヤマナシケン,フジヨシダシ,マツヤマ,山梨県富士吉田市松山
4030017,山梨県,富士吉田市,新西原,ヤマナシケン,フジヨシダシ,シンニシハラ,山梨県富士吉田市新西原
4030018,山梨県,富士吉田市,向原,ヤマナシケン,フジヨシダシ,ムカイバラ,山梨県富士吉田市向原
4030019,山梨県,富士吉田市,新町,ヤマナシケン,フジヨシダシ,シンマチ,山梨県富士吉田市新町
4030021,山梨県,南都留郡西桂町,下暮地,ヤマナシケン,ミナミツルグンニシカツラチョウ,シモクレチ,山梨県南都留郡西桂町下暮地
4030022,山梨県,南都留郡西桂町,小沼,ヤマナシケン,ミナミツルグンニシカツラチョウ,オヌマ,山梨県南都留郡西桂町小沼
4030023,山梨県,南都留郡西桂町,倉見,ヤマナシケン,ミナミツルグンニシカツラチョウ,クラミ,山梨県南都留郡西桂町倉見
4030031,山梨県,富士吉田市,浅間,ヤマナシケン,フジヨシダシ,アサマ,山梨県富士吉田市浅間
4030032,山梨県,富士吉田市,上吉田東,ヤマナシケン,フジヨシダシ,カミヨシダヒガシ,山梨県富士吉田市上吉田東
4040000,山梨県,甲州市,,ヤマナシケン,コウシュウシ,,山梨県甲州市
4040001,山梨県,山梨市,牧丘町柳平,ヤマナシケン,ヤマナシシ,マキオカチョウヤナギダイラ,山梨県山梨市牧丘町柳平
4040002,山梨県,山梨市,牧丘町杣口,ヤマナシケン,ヤマナシシ,マキオカチョウソマグチ,山梨県山梨市牧丘町杣口
4040003,山梨県,山梨市,牧丘町倉科,ヤマナシケン,ヤマナシシ,マキオカチョウクラシナ,山梨県山梨市牧丘町倉科
4040004,山梨県,山梨市,牧丘町西保下,ヤマナシケン,ヤマナシシ,マキオカチョウニシホシモ,山梨県山梨市牧丘町西保下
4040005,山梨県,山梨市,牧丘町西保中,ヤマナシケン,ヤマナシシ,マキオカチョウニシホナカ,山梨県山梨市牧丘町西保中
4040006,山梨県,山梨市,牧丘町牧平,ヤマナシケン,ヤマナシシ,マキオカチョウマキダイラ,山梨県山梨市牧丘町牧平
4040007,山梨県,山梨市,牧丘町北原,ヤマナシケン,ヤマナシシ,マキオカチョウキタバラ,山梨県山梨市牧丘町北原
4040011,山梨県,山梨市,牧丘町成沢,ヤマナシケン,ヤマナシシ,マキオカチョウナルサワ,山梨県山梨市牧丘町成沢
4040012,山梨県,山梨市,牧丘町室伏,ヤマナシケン,ヤマナシシ,マキオカチョウムロフシ,山梨県山梨市牧丘町室伏
4040013,山梨県,山梨市,牧丘町窪平,ヤマナシケン,ヤマナシシ,マキオカチョウクボダイラ,山梨県山梨市牧丘町窪平
4040014,山梨県,山梨市,牧丘町隼,ヤマナシケン,ヤマナシシ,マキオカチョウハヤブサ,山梨県山梨市牧丘町隼
4040015,山梨県,山梨市,牧丘町城古寺,ヤマナシケン,ヤマナシシ,マキオカチョウジョウコジ,山梨県山梨市牧丘町城古寺
4040016,山梨県,山梨市,牧丘町千野々宮,ヤマナシケン,ヤマナシシ,マキオカチョウチノノミヤ,山梨県山梨市牧丘町千野々宮
4040021,山梨県,甲州市,塩山一之瀬高橋,ヤマナシケン,コウシュウシ,エンザンイチノセタカハシ,山梨県甲州市塩山一之瀬高橋
4040022,山梨県,甲州市,塩山上萩原（その他）,ヤマナシケン,コウシュウシ,エンザンカミハギハラ(ソノタ),山梨県甲州市塩山上萩原（その他）
4040023,山梨県,甲州市,塩山中萩原（その他）,ヤマナシケン,コウシュウシ,エンザンナカハギハラ(ソノタ),山梨県甲州市塩山中萩原（その他）
4040024,山梨県,甲州市,塩山下萩原,ヤマナシケン,コウシュウシ,エンザンシモハギハラ,山梨県甲州市塩山下萩原
4040025,山梨県,甲州市,塩山下小田原,ヤマナシケン,コウシュウシ,エンザンシモオダワラ,山梨県甲州市塩山下小田原
4040026,山梨県,甲州市,塩山上小田原,ヤマナシケン,コウシュウシ,エンザンカミオダワラ,山梨県甲州市塩山上小田原
4040031,山梨県,甲州市,塩山上粟生野,ヤマナシケン,コウシュウシ,エンザンカミアオノ,山梨県甲州市塩山上粟生野
4040032,山梨県,甲州市,塩山下粟生野,ヤマナシケン,コウシュウシ,エンザンシモアオノ,山梨県甲州市塩山下粟生野
4040033,山梨県,甲州市,塩山赤尾,ヤマナシケン,コウシュウシ,エンザンアカオ,山梨県甲州市塩山赤尾
4040034,山梨県,甲州市,塩山牛奥（その他）,ヤマナシケン,コウシュウシ,エンザンウシオク(ソノタ),山梨県甲州市塩山牛奥（その他）
4040035,山梨県,甲州市,塩山西野原,ヤマナシケン,コウシュウシ,エンザンニシノハラ,山梨県甲州市塩山西野原
4040036,山梨県,甲州市,塩山熊野,ヤマナシケン,コウシュウシ,エンザンクマノ,山梨県甲州市塩山熊野
4040037,山梨県,甲州市,塩山西広門田,ヤマナシケン,コウシュウシ,エンザンカワダ,山梨県甲州市塩山西広門田
4040041,山梨県,甲州市,塩山千野,ヤマナシケン,コウシュウシ,エンザンチノ,山梨県甲州市塩山千野
4040042,山梨県,甲州市,塩山上於曽,ヤマナシケン,コウシュウシ,エンザンカミオゾ,山梨県甲州市塩山上於曽
4040043,山梨県,甲州市,塩山下於曽,ヤマナシケン,コウシュウシ,エンザンシモオゾ,山梨県甲州市塩山下於曽
4040044,山梨県,甲州市,塩山下塩後,ヤマナシケン,コウシュウシ,エンザンシモシオゴ,山梨県甲州市塩山下塩後
4040045,山梨県,甲州市,塩山上塩後,ヤマナシケン,コウシュウシ,エンザンカミシオゴ,山梨県甲州市塩山上塩後
4040046,山梨県,甲州市,塩山上井尻,ヤマナシケン,コウシュウシ,エンザンカミイジリ,山梨県甲州市塩山上井尻
4040047,山梨県,甲州市,塩山三日市場,ヤマナシケン,コウシュウシ,エンザンミッカイチバ,山梨県甲州市塩山三日市場
4040051,山梨県,甲州市,塩山竹森,ヤマナシケン,コウシュウシ,エンザンタケモリ,山梨県甲州市塩山竹森
4040052,山梨県,甲州市,塩山平沢,ヤマナシケン,コウシュウシ,エンザンヒラサワ,山梨県甲州市塩山平沢
4040053,山梨県,甲州市,塩山小屋敷（その他）,ヤマナシケン,コウシュウシ,エンザンオヤシキ(ソノタ),山梨県甲州市塩山小屋敷（その他）
4040054,山梨県,甲州市,塩山藤木,ヤマナシケン,コウシュウシ,エンザンフジキ,山梨県甲州市塩山藤木
4040055,山梨県,甲州市,塩山下柚木,ヤマナシケン,コウシュウシ,エンザンシモユノキ,山梨県甲州市塩山下柚木
4040056,山梨県,甲州市,塩山福生里,ヤマナシケン,コウシュウシ,エンザンフクオリ,山梨県甲州市塩山福生里
4040201,山梨県,山梨市,三富川浦,ヤマナシケン,ヤマナシシ,ミトミカワウラ,山梨県山梨市三富川浦
4040202,山梨県,山梨市,三富上柚木,ヤマナシケン,ヤマナシシ,ミトミカミユノキ,山梨県山梨市三富上柚木
4040203,山梨県,山梨市,三富下荻原,ヤマナシケン,ヤマナシシ,ミトミシモオギハラ,山梨県山梨市三富下荻原
4040204,山梨県,山梨市,三富下釜口,ヤマナシケン,ヤマナシシ,ミトミシモカマクチ,山梨県山梨市三富下釜口
4040205,山梨県,山梨市,三富徳和,ヤマナシケン,ヤマナシシ,ミトミトクワ,山梨県山梨市三富徳和
4040206,山梨県,山梨市,三富上釜口,ヤマナシケン,ヤマナシシ,ミトミカミカマクチ,山梨県山梨市三富上釜口
4040211,山梨県,甲州市,塩山小屋敷（滑沢）,ヤマナシケン,コウシュウシ,エンザンオヤシキ(ナメザワ),山梨県甲州市塩山小屋敷（滑沢）
4050000,山梨県,山梨市,,ヤマナシケン,ヤマナシシ,,山梨県山梨市
4050001,山梨県,山梨市,西,ヤマナシケン,ヤマナシシ,ニシ,山梨県山梨市西
4050002,山梨県,山梨市,東,ヤマナシケン,ヤマナシシ,ヒガシ,山梨県山梨市東
4050003,山梨県,山梨市,下井尻,ヤマナシケン,ヤマナシシ,シモイジリ,山梨県山梨市下井尻
4050004,山梨県,山梨市,上之割,ヤマナシケン,ヤマナシシ,カミノワリ,山梨県山梨市上之割
4050005,山梨県,山梨市,小原東,ヤマナシケン,ヤマナシシ,コバラヒガシ,山梨県山梨市小原東
4050006,山梨県,山梨市,小原西,ヤマナシケン,ヤマナシシ,コバラニシ,山梨県山梨市小原西
4050007,山梨県,山梨市,七日市場,ヤマナシケン,ヤマナシシ,ナノカイチバ,山梨県山梨市七日市場
4050011,山梨県,山梨市,三ケ所,ヤマナシケン,ヤマナシシ,サンガショ,山梨県山梨市三ケ所
4050012,山梨県,山梨市,東後屋敷,ヤマナシケン,ヤマナシシ,ヒガシゴヤシキ,山梨県山梨市東後屋敷
4050013,山梨県,山梨市,鴨居寺,ヤマナシケン,ヤマナシシ,カモイデラ,山梨県山梨市鴨居寺
4050014,山梨県,山梨市,上石森,ヤマナシケン,ヤマナシシ,カミイシモリ,山梨県山梨市上石森
4050015,山梨県,山梨市,下石森,ヤマナシケン,ヤマナシシ,シモイシモリ,山梨県山梨市下石森
4050016,山梨県,山梨市,大野,ヤマナシケン,ヤマナシシ,オオノ,山梨県山梨市大野
4050017,山梨県,山梨市,下神内川,ヤマナシケン,ヤマナシシ,シモカノガワ,山梨県山梨市下神内川
4050018,山梨県,山梨市,上神内川,ヤマナシケン,ヤマナシシ,カミカノガワ,山梨県山梨市上神内川
4050021,山梨県,山梨市,中村,ヤマナシケン,ヤマナシシ,ナカムラ,山梨県山梨市中村
4050022,山梨県,山梨市,上栗原,ヤマナシケン,ヤマナシシ,カミクリバラ,山梨県山梨市上栗原
4050023,山梨県,山梨市,下栗原,ヤマナシケン,ヤマナシシ,シモクリバラ,山梨県山梨市下栗原
4050024,山梨県,山梨市,歌田,ヤマナシケン,ヤマナシシ,ウタダ,山梨県山梨市歌田
4050025,山梨県,山梨市,一町田中,ヤマナシケン,ヤマナシシ,イッチョウタナカ,山梨県山梨市一町田中
4050031,山梨県,山梨市,万力,ヤマナシケン,ヤマナシシ,マンリキ,山梨県山梨市万力
4050032,山梨県,山梨市,正徳寺,ヤマナシケン,ヤマナシシ,ショウトクジ,山梨県山梨市正徳寺
4050033,山梨県,山梨市,落合,ヤマナシケン,ヤマナシシ,オチアイ,山梨県山梨市落合
4050034,山梨県,山梨市,上岩下,ヤマナシケン,ヤマナシシ,カミイワシタ,山梨県山梨市上岩下
4050035,山梨県,山梨市,山根,ヤマナシケン,ヤマナシシ,ヤマネ,山梨県山梨市山根
4050036,山梨県,山梨市,矢坪,ヤマナシケン,ヤマナシシ,ヤツボ,山梨県山梨市矢坪
4050041,山梨県,山梨市,北,ヤマナシケン,ヤマナシシ,キタ,山梨県山梨市北
4050042,山梨県,山梨市,南,ヤマナシケン,ヤマナシシ,ミナミ,山梨県山梨市南
4050043,山梨県,山梨市,江曽原,ヤマナシケン,ヤマナシシ,エゾハラ,山梨県山梨市江曽原
4050044,山梨県,山梨市,市川,ヤマナシケン,ヤマナシシ,イチガワ,山梨県山梨市市川
4050045,山梨県,山梨市,大工,ヤマナシケン,ヤマナシシ,ダイク,山梨県山梨市大工
4050046,山梨県,山梨市,堀内,ヤマナシケン,ヤマナシシ,ホリノウチ,山梨県山梨市堀内
4050047,山梨県,山梨市,水口,ヤマナシケン,ヤマナシシ,ミズクチ,山梨県山梨市水口
4050048,山梨県,山梨市,切差,ヤマナシケン,ヤマナシシ,キッサツ,山梨県山梨市切差
4050051,山梨県,笛吹市,一宮町北野呂,ヤマナシケン,フエフキシ,イチノミヤチョウキタノロ,山梨県笛吹市一宮町北野呂
4050052,山梨県,笛吹市,一宮町南野呂,ヤマナシケン,フエフキシ,イチノミヤチョウミナミノロ,山梨県笛吹市一宮町南野呂
4050053,山梨県,笛吹市,一宮町中尾,ヤマナシケン,フエフキシ,イチノミヤチョウナカオ,山梨県笛吹市一宮町中尾
4050054,山梨県,笛吹市,一宮町千米寺,ヤマナシケン,フエフキシ,イチノミヤチョウセンベイジ,山梨県笛吹市一宮町千米寺
4050055,山梨県,笛吹市,一宮町地蔵堂,ヤマナシケン,フエフキシ,イチノミヤチョウジゾウドウ,山梨県笛吹市一宮町地蔵堂
4050056,山梨県,笛吹市,一宮町一ノ宮,ヤマナシケン,フエフキシ,イチノミヤチョウイチノミヤ,山梨県笛吹市一宮町一ノ宮
4050057,山梨県,笛吹市,一宮町下矢作,ヤマナシケン,フエフキシ,イチノミヤチョウシモヤハギ,山梨県笛吹市一宮町下矢作
4050058,山梨県,笛吹市,一宮町小城,ヤマナシケン,フエフキシ,イチノミヤチョウコジョウ,山梨県笛吹市一宮町小城
4050059,山梨県,笛吹市,一宮町上矢作,ヤマナシケン,フエフキシ,イチノミヤチョウカミヤハギ,山梨県笛吹市一宮町上矢作
4050061,山梨県,笛吹市,一宮町石,ヤマナシケン,フエフキシ,イチノミヤチョウイシ,山梨県笛吹市一宮町石
4050062,山梨県,笛吹市,一宮町金沢,ヤマナシケン,フエフキシ,イチノミヤチョウカナザワ,山梨県笛吹市一宮町金沢
4050063,山梨県,笛吹市,一宮町市之蔵,ヤマナシケン,フエフキシ,イチノミヤチョウイチノクラ,山梨県笛吹市一宮町市之蔵
4050064,山梨県,笛吹市,一宮町塩田,ヤマナシケン,フエフキシ,イチノミヤチョウシオダ,山梨県笛吹市一宮町塩田
4050065,山梨県,笛吹市,一宮町新巻,ヤマナシケン,フエフキシ,イチノミヤチョウアラマキ,山梨県笛吹市一宮町新巻
4050066,山梨県,笛吹市,一宮町神沢,ヤマナシケン,フエフキシ,イチノミヤチョウカンザワ,山梨県笛吹市一宮町神沢
4050067,山梨県,笛吹市,一宮町土塚,ヤマナシケン,フエフキシ,イチノミヤチョウツチヅカ,山梨県笛吹市一宮町土塚
4050068,山梨県,笛吹市,一宮町狐新居,ヤマナシケン,フエフキシ,イチノミヤチョウキツネアライ,山梨県笛吹市一宮町狐新居
4050069,山梨県,笛吹市,一宮町東新居,ヤマナシケン,フエフキシ,イチノミヤチョウヒガシアライ,山梨県笛吹市一宮町東新居
4050071,山梨県,笛吹市,一宮町北都塚,ヤマナシケン,フエフキシ,イチノミヤチョウキタミヤコヅカ,山梨県笛吹市一宮町北都塚
4050072,山梨県,笛吹市,一宮町本都塚,ヤマナシケン,フエフキシ,イチノミヤチョウモトミヤコヅカ,山梨県笛吹市一宮町本都塚
4050073,山梨県,笛吹市,一宮町末木,ヤマナシケン,フエフキシ,イチノミヤチョウスエキ,山梨県笛吹市一宮町末木
4050074,山梨県,笛吹市,一宮町国分,ヤマナシケン,フエフキシ,イチノミヤチョウコクブ,山梨県笛吹市一宮町国分
4050075,山梨県,笛吹市,一宮町東原,ヤマナシケン,フエフキシ,イチノミヤチョウヒガシバラ,山梨県笛吹市一宮町東原
4050075,山梨県,笛吹市,一宮町橋立,ヤマナシケン,フエフキシ,イチノミヤチョウハシタテ,山梨県笛吹市一宮町橋立
4050076,山梨県,笛吹市,一宮町竹原田,ヤマナシケン,フエフキシ,イチノミヤチョウタケハラダ,山梨県笛吹市一宮町竹原田
4050077,山梨県,笛吹市,一宮町坪井,ヤマナシケン,フエフキシ,イチノミヤチョウツボイ,山梨県笛吹市一宮町坪井
4050078,山梨県,笛吹市,一宮町田中,ヤマナシケン,フエフキシ,イチノミヤチョウタナカ,山梨県笛吹市一宮町田中
4050079,山梨県,笛吹市,一宮町金田,ヤマナシケン,フエフキシ,イチノミヤチョウカネタ,山梨県笛吹市一宮町金田
4060000,山梨県,笛吹市,,ヤマナシケン,フエフキシ,,山梨県笛吹市
4060001,山梨県,笛吹市,春日居町下岩下,ヤマナシケン,フエフキシ,カスガイチョウシモイワシタ,山梨県笛吹市春日居町下岩下
4060002,山梨県,笛吹市,春日居町別田,ヤマナシケン,フエフキシ,カスガイチョウベツデン,山梨県笛吹市春日居町別田
4060003,山梨県,笛吹市,春日居町桑戸,ヤマナシケン,フエフキシ,カスガイチョウクワド,山梨県笛吹市春日居町桑戸
4060004,山梨県,笛吹市,春日居町小松,ヤマナシケン,フエフキシ,カスガイチョウコマツ,山梨県笛吹市春日居町小松
4060005,山梨県,笛吹市,春日居町加茂,ヤマナシケン,フエフキシ,カスガイチョウカモ,山梨県笛吹市春日居町加茂
4060011,山梨県,笛吹市,春日居町徳条,ヤマナシケン,フエフキシ,カスガイチョウトクジョウ,山梨県笛吹市春日居町徳条
4060012,山梨県,笛吹市,春日居町熊野堂,ヤマナシケン,フエフキシ,カスガイチョウクマノドウ,山梨県笛吹市春日居町熊野堂
4060013,山梨県,笛吹市,春日居町寺本,ヤマナシケン,フエフキシ,カスガイチョウテラモト,山梨県笛吹市春日居町寺本
4060014,山梨県,笛吹市,春日居町国府,ヤマナシケン,フエフキシ,カスガイチョウコクフ,山梨県笛吹市春日居町国府
4060015,山梨県,笛吹市,春日居町鎮目,ヤマナシケン,フエフキシ,カスガイチョウシズメ,山梨県笛吹市春日居町鎮目
4060021,山梨県,笛吹市,石和町松本,ヤマナシケン,フエフキシ,イサワチョウマツモト,山梨県笛吹市石和町松本
4060022,山梨県,笛吹市,石和町山崎,ヤマナシケン,フエフキシ,イサワチョウヤマサキ,山梨県笛吹市石和町山崎
4060023,山梨県,笛吹市,石和町八田,ヤマナシケン,フエフキシ,イサワチョウハツタ,山梨県笛吹市石和町八田
4060024,山梨県,笛吹市,石和町川中島,ヤマナシケン,フエフキシ,イサワチョウカワナカジマ,山梨県笛吹市石和町川中島
4060025,山梨県,笛吹市,石和町上平井,ヤマナシケン,フエフキシ,イサワチョウカミヒライ,山梨県笛吹市石和町上平井
4060026,山梨県,笛吹市,石和町中川,ヤマナシケン,フエフキシ,イサワチョウナカガワ,山梨県笛吹市石和町中川
4060027,山梨県,笛吹市,石和町下平井,ヤマナシケン,フエフキシ,イサワチョウシモヒライ,山梨県笛吹市石和町下平井
4060028,山梨県,笛吹市,石和町駅前,ヤマナシケン,フエフキシ,イサワチョウエキマエ,山梨県笛吹市石和町駅前
4060031,山梨県,笛吹市,石和町市部,ヤマナシケン,フエフキシ,イサワチョウイチベ,山梨県笛吹市石和町市部
4060032,山梨県,笛吹市,石和町四日市場,ヤマナシケン,フエフキシ,イサワチョウヨッカイチバ,山梨県笛吹市石和町四日市場
4060033,山梨県,笛吹市,石和町小石和,ヤマナシケン,フエフキシ,イサワチョウコイサワ,山梨県笛吹市石和町小石和
4060034,山梨県,笛吹市,石和町唐柏,ヤマナシケン,フエフキシ,イサワチョウカラカシワ,山梨県笛吹市石和町唐柏
4060035,山梨県,笛吹市,石和町広瀬,ヤマナシケン,フエフキシ,イサワチョウヒロセ,山梨県笛吹市石和町広瀬
4060036,山梨県,笛吹市,石和町窪中島,ヤマナシケン,フエフキシ,イサワチョウクボナカジマ,山梨県笛吹市石和町窪中島
4060041,山梨県,笛吹市,石和町東高橋,ヤマナシケン,フエフキシ,イサワチョウヒガシタカハシ,山梨県笛吹市石和町東高橋
4060042,山梨県,笛吹市,石和町今井,ヤマナシケン,フエフキシ,イサワチョウイマイ,山梨県笛吹市石和町今井
4060043,山梨県,笛吹市,石和町河内,ヤマナシケン,フエフキシ,イサワチョウコウチ,山梨県笛吹市石和町河内
4060044,山梨県,笛吹市,石和町砂原,ヤマナシケン,フエフキシ,イサワチョウスナハラ,山梨県笛吹市石和町砂原
4060045,山梨県,笛吹市,石和町井戸,ヤマナシケン,フエフキシ,イサワチョウイド,山梨県笛吹市石和町井戸
4060046,山梨県,笛吹市,石和町東油川,ヤマナシケン,フエフキシ,イサワチョウヒガシアブラカワ,山梨県笛吹市石和町東油川
4060801,山梨県,笛吹市,御坂町成田,ヤマナシケン,フエフキシ,ミサカチョウナリタ,山梨県笛吹市御坂町成田
4060802,山梨県,笛吹市,御坂町金川原,ヤマナシケン,フエフキシ,ミサカチョウカネガワバラ,山梨県笛吹市御坂町金川原
4060803,山梨県,笛吹市,御坂町井之上,ヤマナシケン,フエフキシ,ミサカチョウイノウエ,山梨県笛吹市御坂町井之上
4060804,山梨県,笛吹市,御坂町夏目原,ヤマナシケン,フエフキシ,ミサカチョウナツメハラ,山梨県笛吹市御坂町夏目原
4060805,山梨県,笛吹市,御坂町栗合,ヤマナシケン,フエフキシ,ミサカチョウクリアイ,山梨県笛吹市御坂町栗合
4060806,山梨県,笛吹市,御坂町八千蔵,ヤマナシケン,フエフキシ,ミサカチョウヤチクラ,山梨県笛吹市御坂町八千蔵
4060807,山梨県,笛吹市,御坂町二之宮,ヤマナシケン,フエフキシ,ミサカチョウニノミヤ,山梨県笛吹市御坂町二之宮
4060808,山梨県,笛吹市,御坂町国衙,ヤマナシケン,フエフキシ,ミサカチョウコクガ,山梨県笛吹市御坂町国衙
4060811,山梨県,笛吹市,御坂町下野原,ヤマナシケン,フエフキシ,ミサカチョウシモノハラ,山梨県笛吹市御坂町下野原
4060812,山梨県,笛吹市,御坂町下黒駒,ヤマナシケン,フエフキシ,ミサカチョウシモクロコマ,山梨県笛吹市御坂町下黒駒
4060813,山梨県,笛吹市,御坂町上黒駒,ヤマナシケン,フエフキシ,ミサカチョウカミクロコマ,山梨県笛吹市御坂町上黒駒
4060814,山梨県,笛吹市,御坂町藤野木,ヤマナシケン,フエフキシ,ミサカチョウトウノキ,山梨県笛吹市御坂町藤野木
4060815,山梨県,笛吹市,御坂町尾山,ヤマナシケン,フエフキシ,ミサカチョウオヤマ,山梨県笛吹市御坂町尾山
4060816,山梨県,笛吹市,御坂町竹居,ヤマナシケン,フエフキシ,ミサカチョウタケイ,山梨県笛吹市御坂町竹居
4060817,山梨県,笛吹市,御坂町大野寺,ヤマナシケン,フエフキシ,ミサカチョウオオノジ,山梨県笛吹市御坂町大野寺
4060818,山梨県,笛吹市,御坂町蕎麦塚,ヤマナシケン,フエフキシ,ミサカチョウソバツカ,山梨県笛吹市御坂町蕎麦塚
4060821,山梨県,笛吹市,八代町北,ヤマナシケン,フエフキシ,ヤツシロチョウキタ,山梨県笛吹市八代町北
4060822,山梨県,笛吹市,八代町南,ヤマナシケン,フエフキシ,ヤツシロチョウミナミ,山梨県笛吹市八代町南
4060823,山梨県,笛吹市,八代町永井,ヤマナシケン,フエフキシ,ヤツシロチョウナガイ,山梨県笛吹市八代町永井
4060824,山梨県,笛吹市,八代町増利,ヤマナシケン,フエフキシ,ヤツシロチョウマサリ,山梨県笛吹市八代町増利
4060825,山梨県,笛吹市,八代町大間田,ヤマナシケン,フエフキシ,ヤツシロチョウオオマダ,山梨県笛吹市八代町大間田
4060831,山梨県,笛吹市,八代町高家,ヤマナシケン,フエフキシ,ヤツシロチョウコウカ,山梨県笛吹市八代町高家
4060832,山梨県,笛吹市,八代町竹居,ヤマナシケン,フエフキシ,ヤツシロチョウタケイ,山梨県笛吹市八代町竹居
4060833,山梨県,笛吹市,八代町奈良原,ヤマナシケン,フエフキシ,ヤツシロチョウナラバラ,山梨県笛吹市八代町奈良原
4060834,山梨県,笛吹市,八代町岡,ヤマナシケン,フエフキシ,ヤツシロチョウオカ,山梨県笛吹市八代町岡
4060835,山梨県,笛吹市,八代町米倉,ヤマナシケン,フエフキシ,ヤツシロチョウヨネクラ,山梨県笛吹市八代町米倉
4060841,山梨県,笛吹市,境川町大坪,ヤマナシケン,フエフキシ,サカイガワチョウオオツボ,山梨県笛吹市境川町大坪
4060842,山梨県,笛吹市,境川町石橋,ヤマナシケン,フエフキシ,サカイガワチョウイシバシ,山梨県笛吹市境川町石橋
4060843,山梨県,笛吹市,境川町前間田,ヤマナシケン,フエフキシ,サカイガワチョウマエマダ,山梨県笛吹市境川町前間田
4060844,山梨県,笛吹市,境川町小山,ヤマナシケン,フエフキシ,サカイガワチョウコヤマ,山梨県笛吹市境川町小山
4060845,山梨県,笛吹市,境川町坊ケ峰,ヤマナシケン,フエフキシ,サカイガワチョウボウガミネ,山梨県笛吹市境川町坊ケ峰
4060846,山梨県,笛吹市,境川町三椚,ヤマナシケン,フエフキシ,サカイガワチョウミツクヌギ,山梨県笛吹市境川町三椚
4060851,山梨県,笛吹市,境川町小黒坂,ヤマナシケン,フエフキシ,サカイガワチョウコグロサカ,山梨県笛吹市境川町小黒坂
4060852,山梨県,笛吹市,境川町大黒坂,ヤマナシケン,フエフキシ,サカイガワチョウオオグロサカ,山梨県笛吹市境川町大黒坂
4060853,山梨県,笛吹市,境川町藤垈,ヤマナシケン,フエフキシ,サカイガワチョウフジヌタ,山梨県笛吹市境川町藤垈
4060854,山梨県,笛吹市,境川町寺尾,ヤマナシケン,フエフキシ,サカイガワチョウテラオ,山梨県笛吹市境川町寺尾
4060855,山梨県,笛吹市,境川町大窪,ヤマナシケン,フエフキシ,サカイガワチョウオオクボ,山梨県笛吹市境川町大窪
4070000,山梨県,韮崎市,,ヤマナシケン,ニラサキシ,,山梨県韮崎市
4070001,山梨県,韮崎市,藤井町駒井,ヤマナシケン,ニラサキシ,フジイマチコマイ,山梨県韮崎市藤井町駒井
4070002,山梨県,韮崎市,藤井町坂井,ヤマナシケン,ニラサキシ,フジイマチサカイ,山梨県韮崎市藤井町坂井
4070003,山梨県,韮崎市,藤井町北下條,ヤマナシケン,ニラサキシ,フジイマチキタゲジョウ,山梨県韮崎市藤井町北下條
4070004,山梨県,韮崎市,藤井町南下條,ヤマナシケン,ニラサキシ,フジイマチミナミゲジョウ,山梨県韮崎市藤井町南下條
4070005,山梨県,韮崎市,一ツ谷,ヤマナシケン,ニラサキシ,ヒトツヤ,山梨県韮崎市一ツ谷
4070006,山梨県,韮崎市,下祖母石,ヤマナシケン,ニラサキシ,シモウバイシ,山梨県韮崎市下祖母石
4070007,山梨県,韮崎市,上祖母石,ヤマナシケン,ニラサキシ,カミウバイシ,山梨県韮崎市上祖母石
4070011,山梨県,韮崎市,上ノ山,ヤマナシケン,ニラサキシ,ウエノヤマ,山梨県韮崎市上ノ山
4070012,山梨県,韮崎市,岩下,ヤマナシケン,ニラサキシ,イワシタ,山梨県韮崎市岩下
4070013,山梨県,韮崎市,中島,ヤマナシケン,ニラサキシ,ナカジマ,山梨県韮崎市中島
4070014,山梨県,韮崎市,富士見,ヤマナシケン,ニラサキシ,フジミ,山梨県韮崎市富士見
4070015,山梨県,韮崎市,若宮,ヤマナシケン,ニラサキシ,ワカミヤ,山梨県韮崎市若宮
4070021,山梨県,韮崎市,富士見ケ丘,ヤマナシケン,ニラサキシ,フジミガオカ,山梨県韮崎市富士見ケ丘
4070022,山梨県,韮崎市,水神,ヤマナシケン,ニラサキシ,スイジン,山梨県韮崎市水神
4070023,山梨県,韮崎市,中央町,ヤマナシケン,ニラサキシ,チュウオウチョウ,山梨県韮崎市中央町
4070024,山梨県,韮崎市,本町,ヤマナシケン,ニラサキシ,ホンチョウ,山梨県韮崎市本町
4070025,山梨県,韮崎市,栄,ヤマナシケン,ニラサキシ,サカエ,山梨県韮崎市栄
4070031,山梨県,韮崎市,龍岡町若尾新田,ヤマナシケン,ニラサキシ,タツオカマチワカオシンデン,山梨県韮崎市龍岡町若尾新田
4070032,山梨県,韮崎市,龍岡町下條東割,ヤマナシケン,ニラサキシ,タツオカマチシモジョウヒガシワリ,山梨県韮崎市龍岡町下條東割
4070033,山梨県,韮崎市,龍岡町下條南割,ヤマナシケン,ニラサキシ,タツオカマチシモジョウミナミワリ,山梨県韮崎市龍岡町下條南割
4070034,山梨県,韮崎市,大草町下條中割,ヤマナシケン,ニラサキシ,オオクサマチシモジョウナカワリ,山梨県韮崎市大草町下條中割
4070035,山梨県,韮崎市,大草町下條西割,ヤマナシケン,ニラサキシ,オオクサマチシモジョウニシワリ,山梨県韮崎市大草町下條西割
4070036,山梨県,韮崎市,大草町上條東割,ヤマナシケン,ニラサキシ,オオクサマチカミジョウヒガシワリ,山梨県韮崎市大草町上條東割
4070037,山梨県,韮崎市,大草町若尾,ヤマナシケン,ニラサキシ,オオクサマチワカオ,山梨県韮崎市大草町若尾
4070041,山梨県,韮崎市,神山町武田,ヤマナシケン,ニラサキシ,カミヤママチタケタ,山梨県韮崎市神山町武田
4070042,山梨県,韮崎市,神山町北宮地,ヤマナシケン,ニラサキシ,カミヤママチキタミヤジ,山梨県韮崎市神山町北宮地
4070043,山梨県,韮崎市,神山町鍋山,ヤマナシケン,ニラサキシ,カミヤママチナベヤマ,山梨県韮崎市神山町鍋山
4070044,山梨県,韮崎市,旭町上條北割,ヤマナシケン,ニラサキシ,アサヒマチカミジョウキタワリ,山梨県韮崎市旭町上條北割
4070045,山梨県,韮崎市,旭町上條中割,ヤマナシケン,ニラサキシ,アサヒマチカミジョウナカワリ,山梨県韮崎市旭町上條中割
4070046,山梨県,韮崎市,旭町上條南割,ヤマナシケン,ニラサキシ,アサヒマチカミジョウミナミワリ,山梨県韮崎市旭町上條南割
4070051,山梨県,韮崎市,円野町上円井,ヤマナシケン,ニラサキシ,マルノマチカミツブライ,山梨県韮崎市円野町上円井
4070052,山梨県,韮崎市,円野町下円井,ヤマナシケン,ニラサキシ,マルノマチシモツブライ,山梨県韮崎市円野町下円井
4070053,山梨県,韮崎市,円野町入戸野,ヤマナシケン,ニラサキシ,マルノマチニットノ,山梨県韮崎市円野町入戸野
4070054,山梨県,韮崎市,清哲町折居,ヤマナシケン,ニラサキシ,セイテツマチオリイ,山梨県韮崎市清哲町折居
4070055,山梨県,韮崎市,清哲町青木,ヤマナシケン,ニラサキシ,セイテツマチアオキ,山梨県韮崎市清哲町青木
4070057,山梨県,韮崎市,清哲町樋口,ヤマナシケン,ニラサキシ,セイテツマチヒノグチ,山梨県韮崎市清哲町樋口
4070058,山梨県,韮崎市,清哲町水上,ヤマナシケン,ニラサキシ,セイテツマチミズカミ,山梨県韮崎市清哲町水上
4070171,山梨県,韮崎市,穂坂町柳平,ヤマナシケン,ニラサキシ,ホサカマチヤナギダイラ,山梨県韮崎市穂坂町柳平
4070172,山梨県,韮崎市,穂坂町上今井,ヤマナシケン,ニラサキシ,ホサカマチカミイマイ,山梨県韮崎市穂坂町上今井
4070173,山梨県,韮崎市,穂坂町長久保,ヤマナシケン,ニラサキシ,ホサカマチナガクボ,山梨県韮崎市穂坂町長久保
4070174,山梨県,韮崎市,穂坂町三ツ沢,ヤマナシケン,ニラサキシ,ホサカマチミツサワ,山梨県韮崎市穂坂町三ツ沢
4070175,山梨県,韮崎市,穂坂町宮久保,ヤマナシケン,ニラサキシ,ホサカマチミヤクボ,山梨県韮崎市穂坂町宮久保
4070176,山梨県,韮崎市,穂坂町三之蔵,ヤマナシケン,ニラサキシ,ホサカマチサンノクラ,山梨県韮崎市穂坂町三之蔵
4070261,山梨県,韮崎市,中田町小田川,ヤマナシケン,ニラサキシ,ナカダマチコタガワ,山梨県韮崎市中田町小田川
4070262,山梨県,韮崎市,中田町中條,ヤマナシケン,ニラサキシ,ナカダマチナカジョウ,山梨県韮崎市中田町中條
4070263,山梨県,韮崎市,穴山町,ヤマナシケン,ニラサキシ,アナヤママチ,山梨県韮崎市穴山町
4070301,山梨県,北杜市,高根町清里,ヤマナシケン,ホクトシ,タカネチョウキヨサト,山梨県北杜市高根町清里
4070302,山梨県,北杜市,高根町浅川,ヤマナシケン,ホクトシ,タカネチョウアサカワ,山梨県北杜市高根町浅川
4070311,山梨県,北杜市,大泉町西井出８２４０−１（美森、たかね荘、清泉寮、サンメドウズスキー場）,ヤマナシケン,ホクトシ,オオイズミチョウニシイデ8240-1(ウツクシモリ、タカネソウ、セイセンリョウ、サンメドウズスキージョウ),山梨県北杜市大泉町西井出8240-1（美森、たかね荘、清泉寮、サンメドウズスキー場）
4070321,山梨県,北杜市,須玉町上津金,ヤマナシケン,ホクトシ,スタマチョウカミツガネ,山梨県北杜市須玉町上津金
4070322,山梨県,北杜市,須玉町下津金,ヤマナシケン,ホクトシ,スタマチョウシモツガネ,山梨県北杜市須玉町下津金
4080000,山梨県,北杜市,,ヤマナシケン,ホクトシ,,山梨県北杜市
4080001,山梨県,北杜市,高根町長沢,ヤマナシケン,ホクトシ,タカネチョウナガサワ,山梨県北杜市高根町長沢
4080002,山梨県,北杜市,高根町村山北割,ヤマナシケン,ホクトシ,タカネチョウムラヤマキタワリ,山梨県北杜市高根町村山北割
4080003,山梨県,北杜市,高根町東井出,ヤマナシケン,ホクトシ,タカネチョウヒガシイデ,山梨県北杜市高根町東井出
4080004,山梨県,北杜市,高根町堤,ヤマナシケン,ホクトシ,タカネチョウツツミ,山梨県北杜市高根町堤
4080011,山梨県,北杜市,高根町箕輪新町,ヤマナシケン,ホクトシ,タカネチョウミノワシンマチ,山梨県北杜市高根町箕輪新町
4080012,山梨県,北杜市,高根町箕輪,ヤマナシケン,ホクトシ,タカネチョウミノワ,山梨県北杜市高根町箕輪
4080013,山梨県,北杜市,高根町蔵原,ヤマナシケン,ホクトシ,タカネチョウクラバラ,山梨県北杜市高根町蔵原
4080014,山梨県,北杜市,高根町小池,ヤマナシケン,ホクトシ,タカネチョウコイケ,山梨県北杜市高根町小池
4080015,山梨県,北杜市,高根町下黒澤,ヤマナシケン,ホクトシ,タカネチョウシモクロザワ,山梨県北杜市高根町下黒澤
4080016,山梨県,北杜市,高根町上黒澤,ヤマナシケン,ホクトシ,タカネチョウカミクロザワ,山梨県北杜市高根町上黒澤
4080017,山梨県,北杜市,高根町五町田,ヤマナシケン,ホクトシ,タカネチョウゴチョウダ,山梨県北杜市高根町五町田
4080018,山梨県,北杜市,高根町村山西割,ヤマナシケン,ホクトシ,タカネチョウムラヤマニシワリ,山梨県北杜市高根町村山西割
4080019,山梨県,北杜市,高根町村山東割,ヤマナシケン,ホクトシ,タカネチョウムラヤマヒガシワリ,山梨県北杜市高根町村山東割
4080021,山梨県,北杜市,長坂町長坂上条,ヤマナシケン,ホクトシ,ナガサカチョウナガサカカミジョウ,山梨県北杜市長坂町長坂上条
4080022,山梨県,北杜市,長坂町塚川,ヤマナシケン,ホクトシ,ナガサカチョウツカカワ,山梨県北杜市長坂町塚川
4080023,山梨県,北杜市,長坂町渋沢,ヤマナシケン,ホクトシ,ナガサカチョウシブサワ,山梨県北杜市長坂町渋沢
4080024,山梨県,北杜市,長坂町富岡,ヤマナシケン,ホクトシ,ナガサカチョウトミオカ,山梨県北杜市長坂町富岡
4080025,山梨県,北杜市,長坂町長坂下条,ヤマナシケン,ホクトシ,ナガサカチョウナガサカシモジョウ,山梨県北杜市長坂町長坂下条
4080026,山梨県,北杜市,長坂町日野,ヤマナシケン,ホクトシ,ナガサカチョウヒノ,山梨県北杜市長坂町日野
4080031,山梨県,北杜市,長坂町小荒間,ヤマナシケン,ホクトシ,ナガサカチョウコアラマ,山梨県北杜市長坂町小荒間
4080032,山梨県,北杜市,長坂町大井ケ森,ヤマナシケン,ホクトシ,ナガサカチョウオイガモリ,山梨県北杜市長坂町大井ケ森
4080033,山梨県,北杜市,長坂町白井沢,ヤマナシケン,ホクトシ,ナガサカチョウシロイザワ,山梨県北杜市長坂町白井沢
4080034,山梨県,北杜市,長坂町大八田,ヤマナシケン,ホクトシ,ナガサカチョウオオバッタ,山梨県北杜市長坂町大八田
4080035,山梨県,北杜市,長坂町夏秋,ヤマナシケン,ホクトシ,ナガサカチョウナツアキ,山梨県北杜市長坂町夏秋
4080036,山梨県,北杜市,長坂町中丸,ヤマナシケン,ホクトシ,ナガサカチョウナカマル,山梨県北杜市長坂町中丸
4080037,山梨県,北杜市,長坂町中島,ヤマナシケン,ホクトシ,ナガサカチョウナカジマ,山梨県北杜市長坂町中島
4080041,山梨県,北杜市,小淵沢町上笹尾,ヤマナシケン,ホクトシ,コブチサワチョウカミササオ,山梨県北杜市小淵沢町上笹尾
4080042,山梨県,北杜市,小淵沢町松向,ヤマナシケン,ホクトシ,コブチサワチョウショウコウ,山梨県北杜市小淵沢町松向
4080043,山梨県,北杜市,小淵沢町下笹尾,ヤマナシケン,ホクトシ,コブチサワチョウシモササオ,山梨県北杜市小淵沢町下笹尾
4080044,山梨県,北杜市,小淵沢町,ヤマナシケン,ホクトシ,コブチサワチョウ,山梨県北杜市小淵沢町
4080101,山梨県,北杜市,須玉町小尾,ヤマナシケン,ホクトシ,スタマチョウオビ,山梨県北杜市須玉町小尾
4080102,山梨県,北杜市,須玉町比志,ヤマナシケン,ホクトシ,スタマチョウヒシ,山梨県北杜市須玉町比志
4080103,山梨県,北杜市,須玉町江草,ヤマナシケン,ホクトシ,スタマチョウエグサ,山梨県北杜市須玉町江草
4080104,山梨県,北杜市,須玉町小倉,ヤマナシケン,ホクトシ,スタマチョウコゴエ,山梨県北杜市須玉町小倉
4080105,山梨県,北杜市,須玉町東向,ヤマナシケン,ホクトシ,スタマチョウヒガシムキ,山梨県北杜市須玉町東向
4080111,山梨県,北杜市,須玉町穴平,ヤマナシケン,ホクトシ,スタマチョウアナダイラ,山梨県北杜市須玉町穴平
4080112,山梨県,北杜市,須玉町若神子,ヤマナシケン,ホクトシ,スタマチョウワカミコ,山梨県北杜市須玉町若神子
4080113,山梨県,北杜市,須玉町大蔵,ヤマナシケン,ホクトシ,スタマチョウオオクラ,山梨県北杜市須玉町大蔵
4080114,山梨県,北杜市,須玉町藤田,ヤマナシケン,ホクトシ,スタマチョウトウダ,山梨県北杜市須玉町藤田
4080115,山梨県,北杜市,須玉町大豆生田,ヤマナシケン,ホクトシ,スタマチョウマミョウダ,山梨県北杜市須玉町大豆生田
4080116,山梨県,北杜市,須玉町境之澤,ヤマナシケン,ホクトシ,スタマチョウサカイノサワ,山梨県北杜市須玉町境之澤
4080117,山梨県,北杜市,須玉町若神子新町,ヤマナシケン,ホクトシ,スタマチョウワカミコシンマチ,山梨県北杜市須玉町若神子新町
4080201,山梨県,北杜市,明野町浅尾,ヤマナシケン,ホクトシ,アケノチョウアサオ,山梨県北杜市明野町浅尾
4080202,山梨県,北杜市,明野町小笠原,ヤマナシケン,ホクトシ,アケノチョウオガサハラ,山梨県北杜市明野町小笠原
4080203,山梨県,北杜市,明野町三之蔵,ヤマナシケン,ホクトシ,アケノチョウサンノクラ,山梨県北杜市明野町三之蔵
4080204,山梨県,北杜市,明野町上手,ヤマナシケン,ホクトシ,アケノチョウウエデ,山梨県北杜市明野町上手
4080205,山梨県,北杜市,明野町浅尾新田,ヤマナシケン,ホクトシ,アケノチョウアサオシンデン,山梨県北杜市明野町浅尾新田
4080206,山梨県,北杜市,明野町下神取,ヤマナシケン,ホクトシ,アケノチョウシモカンドリ,山梨県北杜市明野町下神取
4080207,山梨県,北杜市,明野町上神取,ヤマナシケン,ホクトシ,アケノチョウカミカンドリ,山梨県北杜市明野町上神取
4080301,山梨県,北杜市,武川町三吹,ヤマナシケン,ホクトシ,ムカワチョウミフキ,山梨県北杜市武川町三吹
4080302,山梨県,北杜市,武川町牧原,ヤマナシケン,ホクトシ,ムカワチョウマギノハラ,山梨県北杜市武川町牧原
4080303,山梨県,北杜市,武川町宮脇,ヤマナシケン,ホクトシ,ムカワチョウミヤノワキ,山梨県北杜市武川町宮脇
4080304,山梨県,北杜市,武川町新奥,ヤマナシケン,ホクトシ,ムカワチョウシンオク,山梨県北杜市武川町新奥
4080305,山梨県,北杜市,武川町黒澤,ヤマナシケン,ホクトシ,ムカワチョウクロサワ,山梨県北杜市武川町黒澤
4080306,山梨県,北杜市,武川町山高,ヤマナシケン,ホクトシ,ムカワチョウヤマタカ,山梨県北杜市武川町山高
4080307,山梨県,北杜市,武川町柳澤,ヤマナシケン,ホクトシ,ムカワチョウヤナギサワ,山梨県北杜市武川町柳澤
4080311,山梨県,北杜市,白州町花水,ヤマナシケン,ホクトシ,ハクシュウチョウハナミズ,山梨県北杜市白州町花水
4080312,山梨県,北杜市,白州町台ケ原,ヤマナシケン,ホクトシ,ハクシュウチョウダイガハラ,山梨県北杜市白州町台ケ原
4080313,山梨県,北杜市,白州町横手,ヤマナシケン,ホクトシ,ハクシュウチョウヨコテ,山梨県北杜市白州町横手
4080314,山梨県,北杜市,白州町大坊,ヤマナシケン,ホクトシ,ハクシュウチョウダイボウ,山梨県北杜市白州町大坊
4080315,山梨県,北杜市,白州町白須,ヤマナシケン,ホクトシ,ハクシュウチョウシラス,山梨県北杜市白州町白須
4080316,山梨県,北杜市,白州町鳥原,ヤマナシケン,ホクトシ,ハクシュウチョウトリハラ,山梨県北杜市白州町鳥原
4080317,山梨県,北杜市,白州町下教来石,ヤマナシケン,ホクトシ,ハクシュウチョウシモキョウライシ,山梨県北杜市白州町下教来石
4080318,山梨県,北杜市,白州町上教来石,ヤマナシケン,ホクトシ,ハクシュウチョウカミキョウライシ,山梨県北杜市白州町上教来石
4080319,山梨県,北杜市,白州町大武川,ヤマナシケン,ホクトシ,ハクシュウチョウオオムカワ,山梨県北杜市白州町大武川
4090100,山梨県,上野原市,,ヤマナシケン,ウエノハラシ,,山梨県上野原市
4090111,山梨県,上野原市,棡原,ヤマナシケン,ウエノハラシ,ユズリハラ,山梨県上野原市棡原
4090112,山梨県,上野原市,上野原,ヤマナシケン,ウエノハラシ,ウエノハラ,山梨県上野原市上野原
4090113,山梨県,上野原市,新田,ヤマナシケン,ウエノハラシ,アラタ,山梨県上野原市新田
4090114,山梨県,上野原市,鶴島,ヤマナシケン,ウエノハラシ,ツルシマ,山梨県上野原市鶴島
4090115,山梨県,上野原市,松留,ヤマナシケン,ウエノハラシ,マツドメ,山梨県上野原市松留
4090121,山梨県,上野原市,四方津,ヤマナシケン,ウエノハラシ,シオツ,山梨県上野原市四方津
4090122,山梨県,上野原市,川合,ヤマナシケン,ウエノハラシ,カワイ,山梨県上野原市川合
4090123,山梨県,上野原市,大野,ヤマナシケン,ウエノハラシ,オオノ,山梨県上野原市大野
4090124,山梨県,上野原市,犬目,ヤマナシケン,ウエノハラシ,イヌメ,山梨県上野原市犬目
4090125,山梨県,上野原市,野田尻,ヤマナシケン,ウエノハラシ,ノタジリ,山梨県上野原市野田尻
4090126,山梨県,上野原市,コモアしおつ,ヤマナシケン,ウエノハラシ,コモアシオツ,山梨県上野原市コモアしおつ
4090131,山梨県,上野原市,大曽根,ヤマナシケン,ウエノハラシ,オオゾネ,山梨県上野原市大曽根
4090132,山梨県,上野原市,鶴川,ヤマナシケン,ウエノハラシ,ツルガワ,山梨県上野原市鶴川
4090133,山梨県,上野原市,八ツ沢,ヤマナシケン,ウエノハラシ,ヤツサワ,山梨県上野原市八ツ沢
4090134,山梨県,上野原市,大椚,ヤマナシケン,ウエノハラシ,オオクヌギ,山梨県上野原市大椚
4090135,山梨県,上野原市,芦垣,ヤマナシケン,ウエノハラシ,アシガキ,山梨県上野原市芦垣
4090136,山梨県,上野原市,桑久保,ヤマナシケン,ウエノハラシ,クワクボ,山梨県上野原市桑久保
4090137,山梨県,上野原市,和見,ヤマナシケン,ウエノハラシ,ワミ,山梨県上野原市和見
4090138,山梨県,上野原市,大倉,ヤマナシケン,ウエノハラシ,オオクラ,山梨県上野原市大倉
4090141,山梨県,上野原市,西原,ヤマナシケン,ウエノハラシ,サイハラ,山梨県上野原市西原
4090142,山梨県,北都留郡小菅村,小菅村の次に１〜６６３番地がくる場合,ヤマナシケン,キタツルグンコスゲムラ,コスゲムラノツギニ1-663バンチガクルバアイ,山梨県北都留郡小菅村小菅村の次に1〜663-がくる場合
4090200,山梨県,北都留郡小菅村,,ヤマナシケン,キタツルグンコスゲムラ,,山梨県北都留郡小菅村
4090211,山梨県,北都留郡小菅村,小菅村の次に６６４番地以降がくる場合,ヤマナシケン,キタツルグンコスゲムラ,コスゲムラノツギニ664バンチイコウガクルバアイ,山梨県北都留郡小菅村小菅村の次に664-以降がくる場合
4090300,山梨県,北都留郡丹波山村,,ヤマナシケン,キタツルグンタバヤマムラ,,山梨県北都留郡丹波山村
4090301,山梨県,北都留郡丹波山村,奥秋,ヤマナシケン,キタツルグンタバヤマムラ,オクアキ,山梨県北都留郡丹波山村奥秋
4090302,山梨県,北都留郡丹波山村,上組,ヤマナシケン,キタツルグンタバヤマムラ,カミグミ,山梨県北都留郡丹波山村上組
4090303,山梨県,北都留郡丹波山村,中組,ヤマナシケン,キタツルグンタバヤマムラ,ナカグミ,山梨県北都留郡丹波山村中組
4090304,山梨県,北都留郡丹波山村,下組,ヤマナシケン,キタツルグンタバヤマムラ,シモグミ,山梨県北都留郡丹波山村下組
4090305,山梨県,北都留郡丹波山村,高尾,ヤマナシケン,キタツルグンタバヤマムラ,タカオ,山梨県北都留郡丹波山村高尾
4090306,山梨県,北都留郡丹波山村,押垣外,ヤマナシケン,キタツルグンタバヤマムラ,オシガイト,山梨県北都留郡丹波山村押垣外
4090311,山梨県,北都留郡丹波山村,保之瀬,ヤマナシケン,キタツルグンタバヤマムラ,ホノセ,山梨県北都留郡丹波山村保之瀬
4090312,山梨県,北都留郡丹波山村,高畑,ヤマナシケン,キタツルグンタバヤマムラ,タカハタ,山梨県北都留郡丹波山村高畑
4090313,山梨県,北都留郡丹波山村,親川,ヤマナシケン,キタツルグンタバヤマムラ,オヤガワ,山梨県北都留郡丹波山村親川
4090314,山梨県,北都留郡丹波山村,御祭,ヤマナシケン,キタツルグンタバヤマムラ,オマツリ,山梨県北都留郡丹波山村御祭
4090315,山梨県,北都留郡丹波山村,杉奈久保,ヤマナシケン,キタツルグンタバヤマムラ,スギナクボ,山梨県北都留郡丹波山村杉奈久保
4090316,山梨県,北都留郡丹波山村,所畑,ヤマナシケン,キタツルグンタバヤマムラ,トコロハタ,山梨県北都留郡丹波山村所畑
4090317,山梨県,北都留郡丹波山村,小袖,ヤマナシケン,キタツルグンタバヤマムラ,コソデ,山梨県北都留郡丹波山村小袖
4090318,山梨県,北都留郡丹波山村,鴨沢,ヤマナシケン,キタツルグンタバヤマムラ,カモサワ,山梨県北都留郡丹波山村鴨沢
4090501,山梨県,大月市,富浜町宮谷,ヤマナシケン,オオツキシ,トミハママチミヤタニ,山梨県大月市富浜町宮谷
4090502,山梨県,大月市,富浜町鳥沢,ヤマナシケン,オオツキシ,トミハママチトリサワ,山梨県大月市富浜町鳥沢
4090503,山梨県,大月市,梁川町綱の上,ヤマナシケン,オオツキシ,ヤナガワマチツナノウエ,山梨県大月市梁川町綱の上
4090504,山梨県,大月市,梁川町新倉,ヤマナシケン,オオツキシ,ヤナガワマチアラクラ,山梨県大月市梁川町新倉
4090505,山梨県,大月市,梁川町塩瀬,ヤマナシケン,オオツキシ,ヤナガワマチシオゼ,山梨県大月市梁川町塩瀬
4090506,山梨県,大月市,梁川町立野,ヤマナシケン,オオツキシ,ヤナガワマチタチノ,山梨県大月市梁川町立野
4090611,山梨県,大月市,猿橋町小篠,ヤマナシケン,オオツキシ,サルハシマチオシノ,山梨県大月市猿橋町小篠
4090612,山梨県,大月市,猿橋町藤崎,ヤマナシケン,オオツキシ,サルハシマチフジサキ,山梨県大月市猿橋町藤崎
4090613,山梨県,大月市,猿橋町伊良原,ヤマナシケン,オオツキシ,サルハシマチイラバラ,山梨県大月市猿橋町伊良原
4090614,山梨県,大月市,猿橋町猿橋,ヤマナシケン,オオツキシ,サルハシマチサルハシ,山梨県大月市猿橋町猿橋
4090615,山梨県,大月市,猿橋町朝日小沢,ヤマナシケン,オオツキシ,サルハシマチアサヒオザワ,山梨県大月市猿橋町朝日小沢
4090616,山梨県,大月市,猿橋町小沢,ヤマナシケン,オオツキシ,サルハシマチオザワ,山梨県大月市猿橋町小沢
4090617,山梨県,大月市,猿橋町殿上,ヤマナシケン,オオツキシ,サルハシマチトノウエ,山梨県大月市猿橋町殿上
4090618,山梨県,大月市,猿橋町桂台,ヤマナシケン,オオツキシ,サルハシマチカツラダイ,山梨県大月市猿橋町桂台
4090621,山梨県,大月市,七保町浅川,ヤマナシケン,オオツキシ,ナナホマチアサカワ,山梨県大月市七保町浅川
4090622,山梨県,大月市,七保町下和田,ヤマナシケン,オオツキシ,ナナホマチシモワダ,山梨県大月市七保町下和田
4090623,山梨県,大月市,七保町葛野,ヤマナシケン,オオツキシ,ナナホマチカズノ,山梨県大月市七保町葛野
4090624,山梨県,大月市,七保町林,ヤマナシケン,オオツキシ,ナナホマチハヤシ,山梨県大月市七保町林
4090625,山梨県,大月市,七保町奈良子,ヤマナシケン,オオツキシ,ナナホマチナラゴ,山梨県大月市七保町奈良子
4090626,山梨県,大月市,七保町瀬戸,ヤマナシケン,オオツキシ,ナナホマチセト,山梨県大月市七保町瀬戸
4090627,山梨県,大月市,七保町駒宮,ヤマナシケン,オオツキシ,ナナホマチコマミヤ,山梨県大月市七保町駒宮
4091201,山梨県,甲州市,大和町木賊,ヤマナシケン,コウシュウシ,ヤマトチョウトクサ,山梨県甲州市大和町木賊
4091202,山梨県,甲州市,大和町田野,ヤマナシケン,コウシュウシ,ヤマトチョウタノ,山梨県甲州市大和町田野
4091203,山梨県,甲州市,大和町初鹿野,ヤマナシケン,コウシュウシ,ヤマトチョウハジカノ,山梨県甲州市大和町初鹿野
4091204,山梨県,甲州市,大和町日影,ヤマナシケン,コウシュウシ,ヤマトチョウヒカゲ,山梨県甲州市大和町日影
4091205,山梨県,甲州市,大和町鶴瀬,ヤマナシケン,コウシュウシ,ヤマトチョウツルセ,山梨県甲州市大和町鶴瀬
4091211,山梨県,甲州市,塩山上萩原（４０５１、４７８３、４７８４、すずらん荘、東電上部ダム）,ヤマナシケン,コウシュウシ,エンザンカミハギハラ(4051、4783、4784、スズランソウ、トウデンジョウブダム),山梨県甲州市塩山上萩原（4051、4783、4784、すずらん荘、東電上部ダム）
4091212,山梨県,甲州市,塩山中萩原（日川小屋）,ヤマナシケン,コウシュウシ,エンザンナカハギハラ(ヒカワコヤ),山梨県甲州市塩山中萩原（日川小屋）
4091213,山梨県,甲州市,塩山牛奥（５５３２〜５５５０、奥野田開拓、嵯峨塩開拓、嵯峨塩温泉）,ヤマナシケン,コウシュウシ,エンザンウシオク(5532-5550、オクノタカイタク、サガシオカイタク、サガシオオンセン),山梨県甲州市塩山牛奥（5532〜5550、奥野田開拓、嵯峨塩開拓、嵯峨塩温泉）
4091301,山梨県,甲州市,勝沼町中原,ヤマナシケン,コウシュウシ,カツヌマチョウナカハラ,山梨県甲州市勝沼町中原
4091302,山梨県,甲州市,勝沼町菱山,ヤマナシケン,コウシュウシ,カツヌマチョウヒシヤマ,山梨県甲州市勝沼町菱山
4091303,山梨県,甲州市,勝沼町小佐手,ヤマナシケン,コウシュウシ,カツヌマチョウオサデ,山梨県甲州市勝沼町小佐手
4091304,山梨県,甲州市,勝沼町休息,ヤマナシケン,コウシュウシ,カツヌマチョウキュウソク,山梨県甲州市勝沼町休息
4091305,山梨県,甲州市,勝沼町綿塚,ヤマナシケン,コウシュウシ,カツヌマチョウワタヅカ,山梨県甲州市勝沼町綿塚
4091306,山梨県,甲州市,勝沼町山,ヤマナシケン,コウシュウシ,カツヌマチョウヤマ,山梨県甲州市勝沼町山
4091311,山梨県,甲州市,勝沼町深沢,ヤマナシケン,コウシュウシ,カツヌマチョウフカサワ,山梨県甲州市勝沼町深沢
4091312,山梨県,甲州市,勝沼町上岩崎,ヤマナシケン,コウシュウシ,カツヌマチョウカミイワサキ,山梨県甲州市勝沼町上岩崎
4091313,山梨県,甲州市,勝沼町下岩崎,ヤマナシケン,コウシュウシ,カツヌマチョウシモイワサキ,山梨県甲州市勝沼町下岩崎
4091314,山梨県,甲州市,勝沼町藤井,ヤマナシケン,コウシュウシ,カツヌマチョウフジイ,山梨県甲州市勝沼町藤井
4091315,山梨県,甲州市,勝沼町等々力,ヤマナシケン,コウシュウシ,カツヌマチョウトドロキ,山梨県甲州市勝沼町等々力
4091316,山梨県,甲州市,勝沼町勝沼,ヤマナシケン,コウシュウシ,カツヌマチョウカツヌマ,山梨県甲州市勝沼町勝沼
4091321,山梨県,甲州市,塩山牛奥（５２８８、５２８８−１、５２８８−３、５２８９、５２８９,ヤマナシケン,コウシュウシ,エンザンウシオク(5288、5288-1、5288-3、5289、5289,山梨県甲州市塩山牛奥（5288、5288-1、5288-3、5289、5289
4091501,山梨県,北杜市,大泉町西井出（その他）,ヤマナシケン,ホクトシ,オオイズミチョウニシイデ(ソノタ),山梨県北杜市大泉町西井出（その他）
4091502,山梨県,北杜市,大泉町谷戸,ヤマナシケン,ホクトシ,オオイズミチョウヤト,山梨県北杜市大泉町谷戸
4092100,山梨県,南巨摩郡南部町,,ヤマナシケン,ミナミコマグンナンブチョウ,,山梨県南巨摩郡南部町
4092101,山梨県,南巨摩郡南部町,楮根,ヤマナシケン,ミナミコマグンナンブチョウ,カゾネ,山梨県南巨摩郡南部町楮根
4092102,山梨県,南巨摩郡南部町,福士,ヤマナシケン,ミナミコマグンナンブチョウ,フクシ,山梨県南巨摩郡南部町福士
4092103,山梨県,南巨摩郡南部町,万沢,ヤマナシケン,ミナミコマグンナンブチョウ,マンザワ,山梨県南巨摩郡南部町万沢
4092211,山梨県,南巨摩郡南部町,中野,ヤマナシケン,ミナミコマグンナンブチョウ,ナカノ,山梨県南巨摩郡南部町中野
4092212,山梨県,南巨摩郡南部町,南部,ヤマナシケン,ミナミコマグンナンブチョウ,ナンブ,山梨県南巨摩郡南部町南部
4092213,山梨県,南巨摩郡南部町,大和,ヤマナシケン,ミナミコマグンナンブチョウ,オオワ,山梨県南巨摩郡南部町大和
4092214,山梨県,南巨摩郡南部町,塩沢,ヤマナシケン,ミナミコマグンナンブチョウ,シオザワ,山梨県南巨摩郡南部町塩沢
4092215,山梨県,南巨摩郡南部町,柳島,ヤマナシケン,ミナミコマグンナンブチョウ,ヤナギシマ,山梨県南巨摩郡南部町柳島
4092216,山梨県,南巨摩郡南部町,成島,ヤマナシケン,ミナミコマグンナンブチョウ,ナルシマ,山梨県南巨摩郡南部町成島
4092217,山梨県,南巨摩郡南部町,本郷,ヤマナシケン,ミナミコマグンナンブチョウ,ホンゴウ,山梨県南巨摩郡南部町本郷
4092301,山梨県,南巨摩郡南部町,上佐野,ヤマナシケン,ミナミコマグンナンブチョウ,カミサノ,山梨県南巨摩郡南部町上佐野
4092302,山梨県,南巨摩郡南部町,下佐野,ヤマナシケン,ミナミコマグンナンブチョウ,シモサノ,山梨県南巨摩郡南部町下佐野
4092303,山梨県,南巨摩郡南部町,十島,ヤマナシケン,ミナミコマグンナンブチョウ,トオシマ,山梨県南巨摩郡南部町十島
4092304,山梨県,南巨摩郡南部町,井出,ヤマナシケン,ミナミコマグンナンブチョウ,イデ,山梨県南巨摩郡南部町井出
4092305,山梨県,南巨摩郡南部町,内船,ヤマナシケン,ミナミコマグンナンブチョウ,ウツブナ,山梨県南巨摩郡南部町内船
4092401,山梨県,南巨摩郡身延町,上八木沢,ヤマナシケン,ミナミコマグンミノブチョウ,カミヤギサワ,山梨県南巨摩郡身延町上八木沢
4092402,山梨県,南巨摩郡身延町,下八木沢,ヤマナシケン,ミナミコマグンミノブチョウ,シモヤギサワ,山梨県南巨摩郡身延町下八木沢
4092403,山梨県,南巨摩郡身延町,帯金,ヤマナシケン,ミナミコマグンミノブチョウ,オビカネ,山梨県南巨摩郡身延町帯金
4092404,山梨県,南巨摩郡身延町,大垈,ヤマナシケン,ミナミコマグンミノブチョウ,オオヌタ,山梨県南巨摩郡身延町大垈
4092405,山梨県,南巨摩郡身延町,椿草里,ヤマナシケン,ミナミコマグンミノブチョウ,ツバキゾウリ,山梨県南巨摩郡身延町椿草里
4092406,山梨県,南巨摩郡身延町,大崩,ヤマナシケン,ミナミコマグンミノブチョウ,オオクズレ,山梨県南巨摩郡身延町大崩
4092411,山梨県,南巨摩郡身延町,丸滝,ヤマナシケン,ミナミコマグンミノブチョウ,マルタキ,山梨県南巨摩郡身延町丸滝
4092412,山梨県,南巨摩郡身延町,角打,ヤマナシケン,ミナミコマグンミノブチョウ,ツノウチ,山梨県南巨摩郡身延町角打
4092413,山梨県,南巨摩郡身延町,和田,ヤマナシケン,ミナミコマグンミノブチョウ,ワダ,山梨県南巨摩郡身延町和田
4092414,山梨県,南巨摩郡身延町,樋之上,ヤマナシケン,ミナミコマグンミノブチョウ,ヒノウエ,山梨県南巨摩郡身延町樋之上
4092415,山梨県,南巨摩郡身延町,大島,ヤマナシケン,ミナミコマグンミノブチョウ,オオシマ,山梨県南巨摩郡身延町大島
4092500,山梨県,南巨摩郡身延町,,ヤマナシケン,ミナミコマグンミノブチョウ,,山梨県南巨摩郡身延町
4092521,山梨県,南巨摩郡身延町,粟倉,ヤマナシケン,ミナミコマグンミノブチョウ,アワグラ,山梨県南巨摩郡身延町粟倉
4092522,山梨県,南巨摩郡身延町,下山,ヤマナシケン,ミナミコマグンミノブチョウ,シモヤマ,山梨県南巨摩郡身延町下山
4092523,山梨県,南巨摩郡身延町,波木井,ヤマナシケン,ミナミコマグンミノブチョウ,ハキイ,山梨県南巨摩郡身延町波木井
4092524,山梨県,南巨摩郡身延町,身延,ヤマナシケン,ミナミコマグンミノブチョウ,ミノブ,山梨県南巨摩郡身延町身延
4092531,山梨県,南巨摩郡身延町,梅平,ヤマナシケン,ミナミコマグンミノブチョウ,ウメダイラ,山梨県南巨摩郡身延町梅平
4092532,山梨県,南巨摩郡身延町,大野,ヤマナシケン,ミナミコマグンミノブチョウ,オオノ,山梨県南巨摩郡身延町大野
4092533,山梨県,南巨摩郡身延町,清子,ヤマナシケン,ミナミコマグンミノブチョウ,セイゴ,山梨県南巨摩郡身延町清子
4092534,山梨県,南巨摩郡身延町,光子沢,ヤマナシケン,ミナミコマグンミノブチョウ,ミツゴザワ,山梨県南巨摩郡身延町光子沢
4092535,山梨県,南巨摩郡身延町,横根中,ヤマナシケン,ミナミコマグンミノブチョウ,ヨコネナカ,山梨県南巨摩郡身延町横根中
4092536,山梨県,南巨摩郡身延町,相又,ヤマナシケン,ミナミコマグンミノブチョウ,アイマタ,山梨県南巨摩郡身延町相又
4092537,山梨県,南巨摩郡身延町,大城,ヤマナシケン,ミナミコマグンミノブチョウ,オオジロ,山梨県南巨摩郡身延町大城
4092538,山梨県,南巨摩郡身延町,門野,ヤマナシケン,ミナミコマグンミノブチョウ,カドノ,山梨県南巨摩郡身延町門野
4092539,山梨県,南巨摩郡身延町,小田船原,ヤマナシケン,ミナミコマグンミノブチョウ,オダフナハラ,山梨県南巨摩郡身延町小田船原
4092700,山梨県,南巨摩郡早川町,,ヤマナシケン,ミナミコマグンハヤカワチョウ,,山梨県南巨摩郡早川町
4092701,山梨県,南巨摩郡早川町,奈良田,ヤマナシケン,ミナミコマグンハヤカワチョウ,ナラダ,山梨県南巨摩郡早川町奈良田
4092702,山梨県,南巨摩郡早川町,湯島,ヤマナシケン,ミナミコマグンハヤカワチョウ,ユジマ,山梨県南巨摩郡早川町湯島
4092703,山梨県,南巨摩郡早川町,新倉,ヤマナシケン,ミナミコマグンハヤカワチョウ,アラクラ,山梨県南巨摩郡早川町新倉
4092704,山梨県,南巨摩郡早川町,大原野,ヤマナシケン,ミナミコマグンハヤカワチョウ,オオハラノ,山梨県南巨摩郡早川町大原野
4092705,山梨県,南巨摩郡早川町,早川,ヤマナシケン,ミナミコマグンハヤカワチョウ,ハヤカワ,山梨県南巨摩郡早川町早川
4092711,山梨県,南巨摩郡早川町,黒桂,ヤマナシケン,ミナミコマグンハヤカワチョウ,ツヅラ,山梨県南巨摩郡早川町黒桂
4092712,山梨県,南巨摩郡早川町,西之宮,ヤマナシケン,ミナミコマグンハヤカワチョウ,ニシノミヤ,山梨県南巨摩郡早川町西之宮
4092713,山梨県,南巨摩郡早川町,保,ヤマナシケン,ミナミコマグンハヤカワチョウ,ホ,山梨県南巨摩郡早川町保
4092714,山梨県,南巨摩郡早川町,草塩,ヤマナシケン,ミナミコマグンハヤカワチョウ,クサシオ,山梨県南巨摩郡早川町草塩
4092715,山梨県,南巨摩郡早川町,京ケ島,ヤマナシケン,ミナミコマグンハヤカワチョウ,キョウガシマ,山梨県南巨摩郡早川町京ケ島
4092721,山梨県,南巨摩郡早川町,塩之上,ヤマナシケン,ミナミコマグンハヤカワチョウ,シオノウエ,山梨県南巨摩郡早川町塩之上
4092722,山梨県,南巨摩郡早川町,笹走,ヤマナシケン,ミナミコマグンハヤカワチョウ,ササバシリ,山梨県南巨摩郡早川町笹走
4092723,山梨県,南巨摩郡早川町,榑坪,ヤマナシケン,ミナミコマグンハヤカワチョウ,クレツボ,山梨県南巨摩郡早川町榑坪
4092724,山梨県,南巨摩郡早川町,初鹿島,ヤマナシケン,ミナミコマグンハヤカワチョウ,ハジカジマ,山梨県南巨摩郡早川町初鹿島
4092725,山梨県,南巨摩郡早川町,小縄,ヤマナシケン,ミナミコマグンハヤカワチョウ,コナワ,山梨県南巨摩郡早川町小縄
4092726,山梨県,南巨摩郡早川町,千須和,ヤマナシケン,ミナミコマグンハヤカワチョウ,センズワ,山梨県南巨摩郡早川町千須和
4092727,山梨県,南巨摩郡早川町,薬袋,ヤマナシケン,ミナミコマグンハヤカワチョウ,ミナイ,山梨県南巨摩郡早川町薬袋
4092731,山梨県,南巨摩郡早川町,大島,ヤマナシケン,ミナミコマグンハヤカワチョウ,オオシマ,山梨県南巨摩郡早川町大島
4092732,山梨県,南巨摩郡早川町,高住,ヤマナシケン,ミナミコマグンハヤカワチョウ,コウジュウ,山梨県南巨摩郡早川町高住
4092733,山梨県,南巨摩郡早川町,赤沢,ヤマナシケン,ミナミコマグンハヤカワチョウ,アカサワ,山梨県南巨摩郡早川町赤沢
4092734,山梨県,南巨摩郡早川町,雨畑,ヤマナシケン,ミナミコマグンハヤカワチョウ,アメハタ,山梨県南巨摩郡早川町雨畑
4092931,山梨県,南巨摩郡身延町,北川,ヤマナシケン,ミナミコマグンミノブチョウ,キタガワ,山梨県南巨摩郡身延町北川
4092932,山梨県,南巨摩郡身延町,杉山,ヤマナシケン,ミナミコマグンミノブチョウ,スギヤマ,山梨県南巨摩郡身延町杉山
4092933,山梨県,南巨摩郡身延町,岩欠,ヤマナシケン,ミナミコマグンミノブチョウ,イワカケ,山梨県南巨摩郡身延町岩欠
4092934,山梨県,南巨摩郡身延町,大炊平,ヤマナシケン,ミナミコマグンミノブチョウ,オイダイラ,山梨県南巨摩郡身延町大炊平
4092935,山梨県,南巨摩郡身延町,清沢,ヤマナシケン,ミナミコマグンミノブチョウ,キヨザワ,山梨県南巨摩郡身延町清沢
4092936,山梨県,南巨摩郡身延町,常葉,ヤマナシケン,ミナミコマグンミノブチョウ,トキワ,山梨県南巨摩郡身延町常葉
4092937,山梨県,南巨摩郡身延町,一色,ヤマナシケン,ミナミコマグンミノブチョウ,イッシキ,山梨県南巨摩郡身延町一色
4092938,山梨県,南巨摩郡身延町,市之瀬,ヤマナシケン,ミナミコマグンミノブチョウ,イチノセ,山梨県南巨摩郡身延町市之瀬
4092941,山梨県,南巨摩郡身延町,湯之奥,ヤマナシケン,ミナミコマグンミノブチョウ,ユノオク,山梨県南巨摩郡身延町湯之奥
4092942,山梨県,南巨摩郡身延町,下部,ヤマナシケン,ミナミコマグンミノブチョウ,シモベ,山梨県南巨摩郡身延町下部
4092943,山梨県,南巨摩郡身延町,川向,ヤマナシケン,ミナミコマグンミノブチョウ,カワムキ,山梨県南巨摩郡身延町川向
4092944,山梨県,南巨摩郡身延町,桃ケ窪,ヤマナシケン,ミナミコマグンミノブチョウ,モモガクボ,山梨県南巨摩郡身延町桃ケ窪
4092945,山梨県,南巨摩郡身延町,波高島,ヤマナシケン,ミナミコマグンミノブチョウ,ハダカジマ,山梨県南巨摩郡身延町波高島
4092946,山梨県,南巨摩郡身延町,大子,ヤマナシケン,ミナミコマグンミノブチョウ,ダイゴ,山梨県南巨摩郡身延町大子
4092947,山梨県,南巨摩郡身延町,上之平,ヤマナシケン,ミナミコマグンミノブチョウ,ウエノタイラ,山梨県南巨摩郡身延町上之平
4093101,山梨県,南巨摩郡身延町,折門,ヤマナシケン,ミナミコマグンミノブチョウ,オリカド,山梨県南巨摩郡身延町折門
4093102,山梨県,南巨摩郡身延町,八坂,ヤマナシケン,ミナミコマグンミノブチョウ,ハッサカ,山梨県南巨摩郡身延町八坂
4093103,山梨県,南巨摩郡身延町,根子,ヤマナシケン,ミナミコマグンミノブチョウ,ネッコ,山梨県南巨摩郡身延町根子
4093104,山梨県,南巨摩郡身延町,中之倉,ヤマナシケン,ミナミコマグンミノブチョウ,ナカノクラ,山梨県南巨摩郡身延町中之倉
4093105,山梨県,南巨摩郡身延町,釜額,ヤマナシケン,ミナミコマグンミノブチョウ,カマヒタイ,山梨県南巨摩郡身延町釜額
4093106,山梨県,南巨摩郡身延町,古関,ヤマナシケン,ミナミコマグンミノブチョウ,フルセキ,山梨県南巨摩郡身延町古関
4093107,山梨県,南巨摩郡身延町,瀬戸,ヤマナシケン,ミナミコマグンミノブチョウ,セト,山梨県南巨摩郡身延町瀬戸
4093111,山梨県,南巨摩郡身延町,大磯小磯,ヤマナシケン,ミナミコマグンミノブチョウ,オオイソコイソ,山梨県南巨摩郡身延町大磯小磯
4093112,山梨県,南巨摩郡身延町,芝草,ヤマナシケン,ミナミコマグンミノブチョウ,シバクサ,山梨県南巨摩郡身延町芝草
4093113,山梨県,南巨摩郡身延町,水船,ヤマナシケン,ミナミコマグンミノブチョウ,ミズフネ,山梨県南巨摩郡身延町水船
4093114,山梨県,南巨摩郡身延町,道,ヤマナシケン,ミナミコマグンミノブチョウ,ミチ,山梨県南巨摩郡身延町道
4093115,山梨県,南巨摩郡身延町,切房木,ヤマナシケン,ミナミコマグンミノブチョウ,キリフサギ,山梨県南巨摩郡身延町切房木
4093116,山梨県,南巨摩郡身延町,車田,ヤマナシケン,ミナミコマグンミノブチョウ,クルマダ,山梨県南巨摩郡身延町車田
4093117,山梨県,南巨摩郡身延町,三沢,ヤマナシケン,ミナミコマグンミノブチョウ,ミサワ,山梨県南巨摩郡身延町三沢
4093118,山梨県,南巨摩郡身延町,上田原,ヤマナシケン,ミナミコマグンミノブチョウ,カミタンバラ,山梨県南巨摩郡身延町上田原
4093121,山梨県,南巨摩郡身延町,大山,ヤマナシケン,ミナミコマグンミノブチョウ,オオヤマ,山梨県南巨摩郡身延町大山
4093122,山梨県,南巨摩郡身延町,久保,ヤマナシケン,ミナミコマグンミノブチョウ,クボ,山梨県南巨摩郡身延町久保
4093123,山梨県,南巨摩郡身延町,熊沢,ヤマナシケン,ミナミコマグンミノブチョウ,クマザワ,山梨県南巨摩郡身延町熊沢
4093124,山梨県,南巨摩郡身延町,樋田,ヤマナシケン,ミナミコマグンミノブチョウ,トイダ,山梨県南巨摩郡身延町樋田
4093125,山梨県,南巨摩郡身延町,嶺,ヤマナシケン,ミナミコマグンミノブチョウ,ミネ,山梨県南巨摩郡身延町嶺
4093126,山梨県,南巨摩郡身延町,山家,ヤマナシケン,ミナミコマグンミノブチョウ,ヤマガ,山梨県南巨摩郡身延町山家
4093231,山梨県,西八代郡市川三郷町,落居,ヤマナシケン,ニシヤツシログンイチカワミサトチョウ,オチイ,山梨県西八代郡市川三郷町落居
4093232,山梨県,西八代郡市川三郷町,寺所,ヤマナシケン,ニシヤツシログンイチカワミサトチョウ,テラドコ,山梨県西八代郡市川三郷町寺所
4093233,山梨県,西八代郡市川三郷町,五八,ヤマナシケン,ニシヤツシログンイチカワミサトチョウ,ゴハチ,山梨県西八代郡市川三郷町五八
4093234,山梨県,西八代郡市川三郷町,岩下,ヤマナシケン,ニシヤツシログンイチカワミサトチョウ,イワシタ,山梨県西八代郡市川三郷町岩下
4093241,山梨県,西八代郡市川三郷町,葛籠沢,ヤマナシケン,ニシヤツシログンイチカワミサトチョウ,ツヅラサワ,山梨県西八代郡市川三郷町葛籠沢
4093242,山梨県,西八代郡市川三郷町,宮原,ヤマナシケン,ニシヤツシログンイチカワミサトチョウ,ミヤバラ,山梨県西八代郡市川三郷町宮原
4093243,山梨県,西八代郡市川三郷町,鴨狩津向,ヤマナシケン,ニシヤツシログンイチカワミサトチョウ,カモガリツムギ,山梨県西八代郡市川三郷町鴨狩津向
4093244,山梨県,西八代郡市川三郷町,岩間,ヤマナシケン,ニシヤツシログンイチカワミサトチョウ,イワマ,山梨県西八代郡市川三郷町岩間
4093245,山梨県,西八代郡市川三郷町,楠甫,ヤマナシケン,ニシヤツシログンイチカワミサトチョウ,クスホ,山梨県西八代郡市川三郷町楠甫
4093301,山梨県,南巨摩郡身延町,西嶋,ヤマナシケン,ミナミコマグンミノブチョウ,ニシジマ,山梨県南巨摩郡身延町西嶋
4093302,山梨県,南巨摩郡身延町,手打沢,ヤマナシケン,ミナミコマグンミノブチョウ,テウチザワ,山梨県南巨摩郡身延町手打沢
4093303,山梨県,南巨摩郡身延町,寺沢,ヤマナシケン,ミナミコマグンミノブチョウ,テラサワ,山梨県南巨摩郡身延町寺沢
4093304,山梨県,南巨摩郡身延町,切石,ヤマナシケン,ミナミコマグンミノブチョウ,キリイシ,山梨県南巨摩郡身延町切石
4093305,山梨県,南巨摩郡身延町,下田原,ヤマナシケン,ミナミコマグンミノブチョウ,シモタンバラ,山梨県南巨摩郡身延町下田原
4093306,山梨県,南巨摩郡身延町,夜子沢,ヤマナシケン,ミナミコマグンミノブチョウ,ヨゴサワ,山梨県南巨摩郡身延町夜子沢
4093307,山梨県,南巨摩郡身延町,日向南沢,ヤマナシケン,ミナミコマグンミノブチョウ,ヒナタミナミザワ,山梨県南巨摩郡身延町日向南沢
4093311,山梨県,南巨摩郡身延町,大塩,ヤマナシケン,ミナミコマグンミノブチョウ,オオシオ,山梨県南巨摩郡身延町大塩
4093312,山梨県,南巨摩郡身延町,久成,ヤマナシケン,ミナミコマグンミノブチョウ,クナリ,山梨県南巨摩郡身延町久成
4093313,山梨県,南巨摩郡身延町,平須,ヤマナシケン,ミナミコマグンミノブチョウ,ヒラス,山梨県南巨摩郡身延町平須
4093421,山梨県,南巨摩郡身延町,八日市場,ヤマナシケン,ミナミコマグンミノブチョウ,ヨウカイチバ,山梨県南巨摩郡身延町八日市場
4093422,山梨県,南巨摩郡身延町,宮木,ヤマナシケン,ミナミコマグンミノブチョウ,ミヤキ,山梨県南巨摩郡身延町宮木
4093423,山梨県,南巨摩郡身延町,飯富,ヤマナシケン,ミナミコマグンミノブチョウ,イイトミ,山梨県南巨摩郡身延町飯富
4093424,山梨県,南巨摩郡身延町,伊沼,ヤマナシケン,ミナミコマグンミノブチョウ,イヌマ,山梨県南巨摩郡身延町伊沼
4093431,山梨県,南巨摩郡身延町,矢細工,ヤマナシケン,ミナミコマグンミノブチョウ,ヤサイク,山梨県南巨摩郡身延町矢細工
4093432,山梨県,南巨摩郡身延町,中山,ヤマナシケン,ミナミコマグンミノブチョウ,ナカヤマ,山梨県南巨摩郡身延町中山
4093433,山梨県,南巨摩郡身延町,遅沢,ヤマナシケン,ミナミコマグンミノブチョウ,オソザワ,山梨県南巨摩郡身延町遅沢
4093434,山梨県,南巨摩郡身延町,江尻窪,ヤマナシケン,ミナミコマグンミノブチョウ,エジリクボ,山梨県南巨摩郡身延町江尻窪
4093435,山梨県,南巨摩郡身延町,梨子,ヤマナシケン,ミナミコマグンミノブチョウ,ナシゴ,山梨県南巨摩郡身延町梨子
4093436,山梨県,南巨摩郡身延町,福原,ヤマナシケン,ミナミコマグンミノブチョウ,フクハラ,山梨県南巨摩郡身延町福原
4093437,山梨県,南巨摩郡身延町,古長谷,ヤマナシケン,ミナミコマグンミノブチョウ,フルハセ,山梨県南巨摩郡身延町古長谷
4093600,山梨県,西八代郡市川三郷町,,ヤマナシケン,ニシヤツシログンイチカワミサトチョウ,,山梨県西八代郡市川三郷町
4093601,山梨県,西八代郡市川三郷町,市川大門,ヤマナシケン,ニシヤツシログンイチカワミサトチョウ,イチカワダイモン,山梨県西八代郡市川三郷町市川大門
4093602,山梨県,西八代郡市川三郷町,山保,ヤマナシケン,ニシヤツシログンイチカワミサトチョウ,ヤマホ,山梨県西八代郡市川三郷町山保
4093603,山梨県,西八代郡市川三郷町,黒沢,ヤマナシケン,ニシヤツシログンイチカワミサトチョウ,クロザワ,山梨県西八代郡市川三郷町黒沢
4093604,山梨県,西八代郡市川三郷町,八之尻,ヤマナシケン,ニシヤツシログンイチカワミサトチョウ,ハチノシリ,山梨県西八代郡市川三郷町八之尻
4093605,山梨県,西八代郡市川三郷町,下大鳥居,ヤマナシケン,ニシヤツシログンイチカワミサトチョウ,シモオオドリイ,山梨県西八代郡市川三郷町下大鳥居
4093606,山梨県,西八代郡市川三郷町,高田,ヤマナシケン,ニシヤツシログンイチカワミサトチョウ,タカタ,山梨県西八代郡市川三郷町高田
4093607,山梨県,西八代郡市川三郷町,印沢,ヤマナシケン,ニシヤツシログンイチカワミサトチョウ,インザワ,山梨県西八代郡市川三郷町印沢
4093611,山梨県,西八代郡市川三郷町,大塚,ヤマナシケン,ニシヤツシログンイチカワミサトチョウ,オオツカ,山梨県西八代郡市川三郷町大塚
4093612,山梨県,西八代郡市川三郷町,上野,ヤマナシケン,ニシヤツシログンイチカワミサトチョウ,ウエノ,山梨県西八代郡市川三郷町上野
4093621,山梨県,西八代郡市川三郷町,下芦川,ヤマナシケン,ニシヤツシログンイチカワミサトチョウ,シモアシガワ,山梨県西八代郡市川三郷町下芦川
4093622,山梨県,西八代郡市川三郷町,三帳,ヤマナシケン,ニシヤツシログンイチカワミサトチョウ,サンチョウ,山梨県西八代郡市川三郷町三帳
4093623,山梨県,西八代郡市川三郷町,高萩,ヤマナシケン,ニシヤツシログンイチカワミサトチョウ,タカハギ,山梨県西八代郡市川三郷町高萩
4093624,山梨県,西八代郡市川三郷町,垈,ヤマナシケン,ニシヤツシログンイチカワミサトチョウ,ヌタ,山梨県西八代郡市川三郷町垈
4093625,山梨県,西八代郡市川三郷町,中山,ヤマナシケン,ニシヤツシログンイチカワミサトチョウ,ナカヤマ,山梨県西八代郡市川三郷町中山
4093626,山梨県,西八代郡市川三郷町,畑熊,ヤマナシケン,ニシヤツシログンイチカワミサトチョウ,ハタクマ,山梨県西八代郡市川三郷町畑熊
4093701,山梨県,笛吹市,芦川町上芦川,ヤマナシケン,フエフキシ,アシガワチョウカミアシガワ,山梨県笛吹市芦川町上芦川
4093702,山梨県,笛吹市,芦川町新井原,ヤマナシケン,フエフキシ,アシガワチョウアライバラ,山梨県笛吹市芦川町新井原
4093703,山梨県,笛吹市,芦川町中芦川,ヤマナシケン,フエフキシ,アシガワチョウナカアシガワ,山梨県笛吹市芦川町中芦川
4093704,山梨県,笛吹市,芦川町鶯宿,ヤマナシケン,フエフキシ,アシガワチョウオウシュク,山梨県笛吹市芦川町鶯宿
4093711,山梨県,甲府市,梯町,ヤマナシケン,コウフシ,カケハシマチ,山梨県甲府市梯町
4093712,山梨県,甲府市,古関町,ヤマナシケン,コウフシ,フルセキマチ,山梨県甲府市古関町
4093800,山梨県,中央市,,ヤマナシケン,チュウオウシ,,山梨県中央市
4093800,山梨県,中巨摩郡昭和町,,ヤマナシケン,ナカコマグンショウワチョウ,,山梨県中巨摩郡昭和町
4093801,山梨県,中央市,中楯,ヤマナシケン,チュウオウシ,ナカダテ,山梨県中央市中楯
4093802,山梨県,中央市,西新居,ヤマナシケン,チュウオウシ,ニシアライ,山梨県中央市西新居
4093803,山梨県,中央市,若宮,ヤマナシケン,チュウオウシ,ワカミヤ,山梨県中央市若宮
4093804,山梨県,中央市,井之口,ヤマナシケン,チュウオウシ,イノクチ,山梨県中央市井之口
4093811,山梨県,中央市,極楽寺,ヤマナシケン,チュウオウシ,ゴクラクジ,山梨県中央市極楽寺
4093812,山梨県,中央市,乙黒,ヤマナシケン,チュウオウシ,オトグロ,山梨県中央市乙黒
4093813,山梨県,中央市,一町畑,ヤマナシケン,チュウオウシ,イッチョウハタ,山梨県中央市一町畑
4093814,山梨県,中央市,町之田,ヤマナシケン,チュウオウシ,マチノタ,山梨県中央市町之田
4093815,山梨県,中央市,成島,ヤマナシケン,チュウオウシ,ナルシマ,山梨県中央市成島
4093821,山梨県,中央市,下河東,ヤマナシケン,チュウオウシ,シモカトウ,山梨県中央市下河東
4093822,山梨県,中央市,下三條,ヤマナシケン,チュウオウシ,シモサンジョウ,山梨県中央市下三條
4093823,山梨県,中央市,上三條,ヤマナシケン,チュウオウシ,カミサンジョウ,山梨県中央市上三條
4093831,山梨県,中央市,大田和,ヤマナシケン,チュウオウシ,オオダワ,山梨県中央市大田和
4093832,山梨県,中央市,馬籠,ヤマナシケン,チュウオウシ,マゴメ,山梨県中央市馬籠
4093833,山梨県,中央市,藤巻,ヤマナシケン,チュウオウシ,フジマキ,山梨県中央市藤巻
4093834,山梨県,中央市,今福,ヤマナシケン,チュウオウシ,イマフク,山梨県中央市今福
4093835,山梨県,中央市,今福新田,ヤマナシケン,チュウオウシ,イマフクシンデン,山梨県中央市今福新田
4093841,山梨県,中央市,布施,ヤマナシケン,チュウオウシ,フセ,山梨県中央市布施
4093842,山梨県,中央市,東花輪,ヤマナシケン,チュウオウシ,ヒガシハナワ,山梨県中央市東花輪
4093843,山梨県,中央市,西花輪,ヤマナシケン,チュウオウシ,ニシハナワ,山梨県中央市西花輪
4093844,山梨県,中央市,臼井阿原,ヤマナシケン,チュウオウシ,ウスイアワラ,山梨県中央市臼井阿原
4093845,山梨県,中央市,山之神,ヤマナシケン,チュウオウシ,ヤマノカミ,山梨県中央市山之神
4093851,山梨県,中巨摩郡昭和町,河西,ヤマナシケン,ナカコマグンショウワチョウ,カサイ,山梨県中巨摩郡昭和町河西
4093852,山梨県,中巨摩郡昭和町,飯喰,ヤマナシケン,ナカコマグンショウワチョウ,イックイ,山梨県中巨摩郡昭和町飯喰
4093853,山梨県,中巨摩郡昭和町,築地新居,ヤマナシケン,ナカコマグンショウワチョウ,ツイジアライ,山梨県中巨摩郡昭和町築地新居
4093854,山梨県,中巨摩郡昭和町,築地新田,ヤマナシケン,ナカコマグンショウワチョウ,ツイジシンデン,山梨県中巨摩郡昭和町築地新田
4093861,山梨県,中巨摩郡昭和町,紙漉阿原,ヤマナシケン,ナカコマグンショウワチョウ,カミスキアワラ,山梨県中巨摩郡昭和町紙漉阿原
4093862,山梨県,中巨摩郡昭和町,上河東,ヤマナシケン,ナカコマグンショウワチョウ,カミガトウ,山梨県中巨摩郡昭和町上河東
4093863,山梨県,中巨摩郡昭和町,河東中島,ヤマナシケン,ナカコマグンショウワチョウ,カトウナカジマ,山梨県中巨摩郡昭和町河東中島
4093864,山梨県,中巨摩郡昭和町,押越,ヤマナシケン,ナカコマグンショウワチョウ,オシコシ,山梨県中巨摩郡昭和町押越
4093865,山梨県,中巨摩郡昭和町,西条新田,ヤマナシケン,ナカコマグンショウワチョウ,サイジョウシンデン,山梨県中巨摩郡昭和町西条新田
4093866,山梨県,中巨摩郡昭和町,西条,ヤマナシケン,ナカコマグンショウワチョウ,サイジョウ,山梨県中巨摩郡昭和町西条
4093867,山梨県,中巨摩郡昭和町,清水新居,ヤマナシケン,ナカコマグンショウワチョウ,シミズアライ,山梨県中巨摩郡昭和町清水新居
