zipcode,prefecture_name,city,town,prefecture_kana,city_kana,town_kana,normalized_address
0185501,青森県,十和田市,奥瀬（青撫、小畳石、十和田、十和田湖畔宇樽部、十和田湖畔子ノ口、,アオモリケン,トワダシ,オクセ(アオブナ、コタタミイシ、トワダ、トワダコハンウタルベ、トワダコハンネノクチ、,青森県十和田市奥瀬（青撫、小畳石、十和田、十和田湖畔宇樽部、十和田湖畔子ノ口、
0300111,青森県,青森市,荒川,アオモリケン,アオモリシ,アラカワ,青森県青森市荒川
0300112,青森県,青森市,八ツ役,アオモリケン,アオモリシ,ヤツヤク,青森県青森市八ツ役
0300113,青森県,青森市,第二問屋町,アオモリケン,アオモリシ,ダイニトンヤマチ,青森県青森市第二問屋町
0300121,青森県,青森市,妙見,アオモリケン,アオモリシ,ミョウケン,青森県青森市妙見
0300122,青森県,青森市,野尻,アオモリケン,アオモリシ,ノジリ,青森県青森市野尻
0300123,青森県,青森市,大矢沢,アオモリケン,アオモリシ,オオヤサワ,青森県青森市大矢沢
0300124,青森県,青森市,田茂木野,アオモリケン,アオモリシ,タモギノ,青森県青森市田茂木野
0300125,青森県,青森市,四ツ石,アオモリケン,アオモリシ,ヨツイシ,青森県青森市四ツ石
0300131,青森県,青森市,問屋町,アオモリケン,アオモリシ,トンヤマチ,青森県青森市問屋町
0300132,青森県,青森市,横内,アオモリケン,アオモリシ,ヨコウチ,青森県青森市横内
0300133,青森県,青森市,雲谷,アオモリケン,アオモリシ,モヤ,青森県青森市雲谷
0300134,青森県,青森市,合子沢,アオモリケン,アオモリシ,ゴウシザワ,青森県青森市合子沢
0300135,青森県,青森市,新町野,アオモリケン,アオモリシ,シンマチノ,青森県青森市新町野
0300136,青森県,青森市,牛館,アオモリケン,アオモリシ,ウシタテ,青森県青森市牛館
0300137,青森県,青森市,卸町,アオモリケン,アオモリシ,オロシマチ,青森県青森市卸町
0300141,青森県,青森市,上野,アオモリケン,アオモリシ,ウワノ,青森県青森市上野
0300142,青森県,青森市,野木,アオモリケン,アオモリシ,ノギ,青森県青森市野木
0300143,青森県,青森市,小畑沢,アオモリケン,アオモリシ,オバタケザワ,青森県青森市小畑沢
0300144,青森県,青森市,大別内,アオモリケン,アオモリシ,オオベツナイ,青森県青森市大別内
0300145,青森県,青森市,金浜,アオモリケン,アオモリシ,カネハマ,青森県青森市金浜
0300151,青森県,青森市,高田,アオモリケン,アオモリシ,タカダ,青森県青森市高田
0300152,青森県,青森市,野沢,アオモリケン,アオモリシ,ノザワ,青森県青森市野沢
0300153,青森県,青森市,小館,アオモリケン,アオモリシ,コダテ,青森県青森市小館
0300154,青森県,青森市,入内,アオモリケン,アオモリシ,ニュウナイ,青森県青森市入内
0300155,青森県,青森市,大谷,アオモリケン,アオモリシ,オオタニ,青森県青森市大谷
0300801,青森県,青森市,新町,アオモリケン,アオモリシ,シンマチ,青森県青森市新町
0300802,青森県,青森市,本町,アオモリケン,アオモリシ,ホンチョウ,青森県青森市本町
0300803,青森県,青森市,安方,アオモリケン,アオモリシ,ヤスカタ,青森県青森市安方
0300811,青森県,青森市,青柳,アオモリケン,アオモリシ,アオヤギ,青森県青森市青柳
0300812,青森県,青森市,堤町,アオモリケン,アオモリシ,ツツミマチ,青森県青森市堤町
0300813,青森県,青森市,松原,アオモリケン,アオモリシ,マツバラ,青森県青森市松原
0300821,青森県,青森市,勝田,アオモリケン,アオモリシ,カッタ,青森県青森市勝田
0300822,青森県,青森市,中央,アオモリケン,アオモリシ,チュウオウ,青森県青森市中央
0300823,青森県,青森市,橋本,アオモリケン,アオモリシ,ハシモト,青森県青森市橋本
0300841,青森県,青森市,奥野,アオモリケン,アオモリシ,オクノ,青森県青森市奥野
0300842,青森県,青森市,浦町,アオモリケン,アオモリシ,ウラマチ,青森県青森市浦町
0300843,青森県,青森市,浜田,アオモリケン,アオモリシ,ハマダ,青森県青森市浜田
0300844,青森県,青森市,桂木,アオモリケン,アオモリシ,カツラギ,青森県青森市桂木
0300845,青森県,青森市,緑,アオモリケン,アオモリシ,ミドリ,青森県青森市緑
0300846,青森県,青森市,青葉,アオモリケン,アオモリシ,アオバ,青森県青森市青葉
0300847,青森県,青森市,東大野,アオモリケン,アオモリシ,ヒガシオオノ,青森県青森市東大野
0300851,青森県,青森市,旭町,アオモリケン,アオモリシ,アサヒチョウ,青森県青森市旭町
0300852,青森県,青森市,大野,アオモリケン,アオモリシ,オオノ,青森県青森市大野
0300853,青森県,青森市,金沢,アオモリケン,アオモリシ,カナザワ,青森県青森市金沢
0300854,青森県,青森市,千富町,アオモリケン,アオモリシ,セントミチョウ,青森県青森市千富町
0300855,青森県,青森市,北金沢,アオモリケン,アオモリシ,キタカナザワ,青森県青森市北金沢
0300856,青森県,青森市,西大野,アオモリケン,アオモリシ,ニシオオノ,青森県青森市西大野
0300861,青森県,青森市,長島,アオモリケン,アオモリシ,ナガシマ,青森県青森市長島
0300862,青森県,青森市,古川,アオモリケン,アオモリシ,フルカワ,青森県青森市古川
0300901,青森県,青森市,港町,アオモリケン,アオモリシ,ミナトマチ,青森県青森市港町
0300902,青森県,青森市,合浦,アオモリケン,アオモリシ,ガッポ,青森県青森市合浦
0300903,青森県,青森市,栄町,アオモリケン,アオモリシ,サカエマチ,青森県青森市栄町
0300904,青森県,青森市,茶屋町,アオモリケン,アオモリシ,チャヤマチ,青森県青森市茶屋町
0300911,青森県,青森市,造道,アオモリケン,アオモリシ,ツクリミチ,青森県青森市造道
0300912,青森県,青森市,八重田,アオモリケン,アオモリシ,ヤエダ,青森県青森市八重田
0300913,青森県,青森市,東造道,アオモリケン,アオモリシ,ヒガシツクリミチ,青森県青森市東造道
0300914,青森県,青森市,岡造道,アオモリケン,アオモリシ,オカツクリミチ,青森県青森市岡造道
0300915,青森県,青森市,小柳,アオモリケン,アオモリシ,コヤナギ,青森県青森市小柳
0300916,青森県,青森市,田屋敷,アオモリケン,アオモリシ,タヤシキ,青森県青森市田屋敷
0300917,青森県,青森市,矢作,アオモリケン,アオモリシ,ヤサク,青森県青森市矢作
0300918,青森県,青森市,けやき,アオモリケン,アオモリシ,ケヤキ,青森県青森市けやき
0300919,青森県,青森市,はまなす,アオモリケン,アオモリシ,ハマナス,青森県青森市はまなす
0300921,青森県,青森市,原別,アオモリケン,アオモリシ,ハラベツ,青森県青森市原別
0300922,青森県,青森市,泉野,アオモリケン,アオモリシ,イズミノ,青森県青森市泉野
0300923,青森県,青森市,八幡林,アオモリケン,アオモリシ,ヤハタバヤシ,青森県青森市八幡林
0300924,青森県,青森市,滝沢（下川原１９０−１）,アオモリケン,アオモリシ,タキサワ(シモカワラ190-1),青森県青森市滝沢（下川原190-1）
0300925,青森県,青森市,築木館,アオモリケン,アオモリシ,ツキノキダテ,青森県青森市築木館
0300931,青森県,青森市,平新田,アオモリケン,アオモリシ,タイラシンデン,青森県青森市平新田
0300932,青森県,青森市,後萢,アオモリケン,アオモリシ,ウシロヤチ,青森県青森市後萢
0300933,青森県,青森市,諏訪沢,アオモリケン,アオモリシ,スワノサワ,青森県青森市諏訪沢
0300934,青森県,青森市,戸崎,アオモリケン,アオモリシ,トザキ,青森県青森市戸崎
0300935,青森県,青森市,桑原,アオモリケン,アオモリシ,クワバラ,青森県青森市桑原
0300936,青森県,青森市,矢田前,アオモリケン,アオモリシ,ヤダマエ,青森県青森市矢田前
0300937,青森県,青森市,本泉,アオモリケン,アオモリシ,モトイズミ,青森県青森市本泉
0300941,青森県,青森市,自由ケ丘,アオモリケン,アオモリシ,ジユウガオカ,青森県青森市自由ケ丘
0300942,青森県,青森市,沢山,アオモリケン,アオモリシ,サワヤマ,青森県青森市沢山
0300943,青森県,青森市,幸畑,アオモリケン,アオモリシ,コウバタ,青森県青森市幸畑
0300944,青森県,青森市,筒井,アオモリケン,アオモリシ,ツツイ,青森県青森市筒井
0300945,青森県,青森市,桜川,アオモリケン,アオモリシ,サクラガワ,青森県青森市桜川
0300946,青森県,青森市,古館,アオモリケン,アオモリシ,フルダテ,青森県青森市古館
0300947,青森県,青森市,浜館,アオモリケン,アオモリシ,ハマダテ,青森県青森市浜館
0300948,青森県,青森市,虹ケ丘,アオモリケン,アオモリシ,ニジガオカ,青森県青森市虹ケ丘
0300951,青森県,青森市,戸山（その他）,アオモリケン,アオモリシ,トヤマ(ソノタ),青森県青森市戸山（その他）
0300952,青森県,青森市,戸山（赤坂）,アオモリケン,アオモリシ,トヤマ(アカサカ),青森県青森市戸山（赤坂）
0300953,青森県,青森市,駒込（蛍沢）,アオモリケン,アオモリシ,コマゴメ(ホタルザワ),青森県青森市駒込（蛍沢）
0300954,青森県,青森市,駒込（月見野）,アオモリケン,アオモリシ,コマゴメ(ツキミノ),青森県青森市駒込（月見野）
0300955,青森県,青森市,駒込（その他）,アオモリケン,アオモリシ,コマゴメ(ソノタ),青森県青森市駒込（その他）
0300956,青森県,青森市,赤坂,アオモリケン,アオモリシ,アカサカ,青森県青森市赤坂
0300957,青森県,青森市,蛍沢,アオモリケン,アオモリシ,ホタルザワ,青森県青森市蛍沢
0300958,青森県,青森市,月見野,アオモリケン,アオモリシ,ツキミノ,青森県青森市月見野
0300961,青森県,青森市,浪打,アオモリケン,アオモリシ,ナミウチ,青森県青森市浪打
0300962,青森県,青森市,佃,アオモリケン,アオモリシ,ツクダ,青森県青森市佃
0300963,青森県,青森市,中佃,アオモリケン,アオモリシ,ナカツクダ,青森県青森市中佃
0300964,青森県,青森市,南佃,アオモリケン,アオモリシ,ミナミツクダ,青森県青森市南佃
0300965,青森県,青森市,松森,アオモリケン,アオモリシ,マツモリ,青森県青森市松森
0300966,青森県,青森市,花園,アオモリケン,アオモリシ,ハナゾノ,青森県青森市花園
0301200,青森県,東津軽郡蓬田村,,アオモリケン,ヒガシツガルグンヨモギタムラ,,青森県東津軽郡蓬田村
0301201,青森県,東津軽郡蓬田村,広瀬,アオモリケン,ヒガシツガルグンヨモギタムラ,ヒロセ,青森県東津軽郡蓬田村広瀬
0301202,青森県,東津軽郡蓬田村,瀬辺地,アオモリケン,ヒガシツガルグンヨモギタムラ,セヘジ,青森県東津軽郡蓬田村瀬辺地
0301203,青森県,東津軽郡蓬田村,郷沢,アオモリケン,ヒガシツガルグンヨモギタムラ,ゴウサワ,青森県東津軽郡蓬田村郷沢
0301211,青森県,東津軽郡蓬田村,蓬田,アオモリケン,ヒガシツガルグンヨモギタムラ,ヨモギダ,青森県東津軽郡蓬田村蓬田
0301212,青森県,東津軽郡蓬田村,阿弥陀川,アオモリケン,ヒガシツガルグンヨモギタムラ,アミダガワ,青森県東津軽郡蓬田村阿弥陀川
0301213,青森県,東津軽郡蓬田村,長科,アオモリケン,ヒガシツガルグンヨモギタムラ,ナガシナ,青森県東津軽郡蓬田村長科
0301214,青森県,東津軽郡蓬田村,中沢,アオモリケン,ヒガシツガルグンヨモギタムラ,ナカザワ,青森県東津軽郡蓬田村中沢
0301261,青森県,青森市,四戸橋,アオモリケン,アオモリシ,シトバシ,青森県青森市四戸橋
0301262,青森県,青森市,後潟,アオモリケン,アオモリシ,ウシロガタ,青森県青森市後潟
0301271,青森県,青森市,六枚橋,アオモリケン,アオモリシ,ロクマエバシ,青森県青森市六枚橋
0301272,青森県,青森市,小橋,アオモリケン,アオモリシ,コバシ,青森県青森市小橋
0301273,青森県,青森市,左堰,アオモリケン,アオモリシ,ヒダリゼキ,青森県青森市左堰
0301301,青森県,東津軽郡外ヶ浜町,蟹田石浜,アオモリケン,ヒガシツガルグンソトガハママチ,カニタイシハマ,青森県東津軽郡外ヶ浜町蟹田石浜
0301302,青森県,東津軽郡外ヶ浜町,蟹田中師,アオモリケン,ヒガシツガルグンソトガハママチ,カニタチュウシ,青森県東津軽郡外ヶ浜町蟹田中師
0301303,青森県,東津軽郡外ヶ浜町,蟹田,アオモリケン,ヒガシツガルグンソトガハママチ,カニタ,青森県東津軽郡外ヶ浜町蟹田
0301304,青森県,東津軽郡外ヶ浜町,蟹田南沢,アオモリケン,ヒガシツガルグンソトガハママチ,カニタミナミザワ,青森県東津軽郡外ヶ浜町蟹田南沢
0301305,青森県,東津軽郡外ヶ浜町,蟹田小国,アオモリケン,ヒガシツガルグンソトガハママチ,カニタオグニ,青森県東津軽郡外ヶ浜町蟹田小国
0301306,青森県,東津軽郡外ヶ浜町,蟹田山本,アオモリケン,ヒガシツガルグンソトガハママチ,カニタヤマモト,青森県東津軽郡外ヶ浜町蟹田山本
0301307,青森県,東津軽郡外ヶ浜町,蟹田大平,アオモリケン,ヒガシツガルグンソトガハママチ,カニタオオダイ,青森県東津軽郡外ヶ浜町蟹田大平
0301308,青森県,東津軽郡外ヶ浜町,下蟹田,アオモリケン,ヒガシツガルグンソトガハママチ,シタカニタ,青森県東津軽郡外ヶ浜町下蟹田
0301309,青森県,東津軽郡外ヶ浜町,上蟹田,アオモリケン,ヒガシツガルグンソトガハママチ,ウエカニタ,青森県東津軽郡外ヶ浜町上蟹田
0301311,青森県,東津軽郡外ヶ浜町,蟹田塩越,アオモリケン,ヒガシツガルグンソトガハママチ,カニタシオコシ,青森県東津軽郡外ヶ浜町蟹田塩越
0301400,青森県,東津軽郡外ヶ浜町,,アオモリケン,ヒガシツガルグンソトガハママチ,,青森県東津軽郡外ヶ浜町
0301402,青森県,東津軽郡外ヶ浜町,平舘,アオモリケン,ヒガシツガルグンソトガハママチ,タイラダテ,青森県東津軽郡外ヶ浜町平舘
0301403,青森県,東津軽郡外ヶ浜町,平舘元宇田,アオモリケン,ヒガシツガルグンソトガハママチ,タイラダテモトウダ,青森県東津軽郡外ヶ浜町平舘元宇田
0301404,青森県,東津軽郡外ヶ浜町,平舘弥蔵釜,アオモリケン,ヒガシツガルグンソトガハママチ,タイラダテヤゾウカマ,青森県東津軽郡外ヶ浜町平舘弥蔵釜
0301405,青森県,東津軽郡外ヶ浜町,平舘石崎沢,アオモリケン,ヒガシツガルグンソトガハママチ,タイラダテイシザキサワ,青森県東津軽郡外ヶ浜町平舘石崎沢
0301411,青森県,東津軽郡外ヶ浜町,平舘根岸,アオモリケン,ヒガシツガルグンソトガハママチ,タイラダテネギシ,青森県東津軽郡外ヶ浜町平舘根岸
0301412,青森県,東津軽郡外ヶ浜町,平舘野田,アオモリケン,ヒガシツガルグンソトガハママチ,タイラダテノダ,青森県東津軽郡外ヶ浜町平舘野田
0301413,青森県,東津軽郡外ヶ浜町,平舘今津,アオモリケン,ヒガシツガルグンソトガハママチ,タイラダテイマヅ,青森県東津軽郡外ヶ浜町平舘今津
0301415,青森県,東津軽郡外ヶ浜町,平舘舟岡,アオモリケン,ヒガシツガルグンソトガハママチ,タイラダテフナオカ,青森県東津軽郡外ヶ浜町平舘舟岡
0301416,青森県,東津軽郡外ヶ浜町,平舘磯山,アオモリケン,ヒガシツガルグンソトガハママチ,タイラダテイソヤマ,青森県東津軽郡外ヶ浜町平舘磯山
0301500,青森県,東津軽郡今別町,,アオモリケン,ヒガシツガルグンイマベツマチ,,青森県東津軽郡今別町
0301501,青森県,東津軽郡今別町,浜名,アオモリケン,ヒガシツガルグンイマベツマチ,ハマナ,青森県東津軽郡今別町浜名
0301502,青森県,東津軽郡今別町,今別,アオモリケン,ヒガシツガルグンイマベツマチ,イマベツ,青森県東津軽郡今別町今別
0301503,青森県,東津軽郡今別町,村元,アオモリケン,ヒガシツガルグンイマベツマチ,ムラモト,青森県東津軽郡今別町村元
0301504,青森県,東津軽郡今別町,鍋田,アオモリケン,ヒガシツガルグンイマベツマチ,ナベタ,青森県東津軽郡今別町鍋田
0301505,青森県,東津軽郡今別町,大川平,アオモリケン,ヒガシツガルグンイマベツマチ,オオカワダイ,青森県東津軽郡今別町大川平
0301511,青森県,東津軽郡今別町,山崎,アオモリケン,ヒガシツガルグンイマベツマチ,ヤマザキ,青森県東津軽郡今別町山崎
0301512,青森県,東津軽郡今別町,大泊,アオモリケン,ヒガシツガルグンイマベツマチ,オオドマリ,青森県東津軽郡今別町大泊
0301513,青森県,東津軽郡今別町,袰月,アオモリケン,ヒガシツガルグンイマベツマチ,ホロヅキ,青森県東津軽郡今別町袰月
0301514,青森県,東津軽郡今別町,砂ケ森,アオモリケン,ヒガシツガルグンイマベツマチ,スナガモリ,青森県東津軽郡今別町砂ケ森
0301515,青森県,東津軽郡今別町,奥平部,アオモリケン,ヒガシツガルグンイマベツマチ,オクタイラヘ,青森県東津軽郡今別町奥平部
0301701,青森県,北津軽郡中泊町,小泊袰内,アオモリケン,キタツガルグンナカドマリマチ,コドマリホロナイ,青森県北津軽郡中泊町小泊袰内
0301711,青森県,東津軽郡外ヶ浜町,三厩源兵衛間,アオモリケン,ヒガシツガルグンソトガハママチ,ミンマヤゲンベイマ,青森県東津軽郡外ヶ浜町三厩源兵衛間
0301711,青森県,東津軽郡外ヶ浜町,三厩龍浜,アオモリケン,ヒガシツガルグンソトガハママチ,ミンマヤタツハマ,青森県東津軽郡外ヶ浜町三厩龍浜
0301712,青森県,東津軽郡外ヶ浜町,三厩木落,アオモリケン,ヒガシツガルグンソトガハママチ,ミンマヤキオトシ,青森県東津軽郡外ヶ浜町三厩木落
0301713,青森県,東津軽郡外ヶ浜町,三厩鎧嶋,アオモリケン,ヒガシツガルグンソトガハママチ,ミンマヤヨロイジマ,青森県東津軽郡外ヶ浜町三厩鎧嶋
0301714,青森県,東津軽郡外ヶ浜町,三厩梹榔,アオモリケン,ヒガシツガルグンソトガハママチ,ミンマヤヒョウロウ,青森県東津軽郡外ヶ浜町三厩梹榔
0301715,青森県,東津軽郡外ヶ浜町,三厩鳴神,アオモリケン,ヒガシツガルグンソトガハママチ,ミンマヤナルカミ,青森県東津軽郡外ヶ浜町三厩鳴神
0301716,青森県,東津軽郡外ヶ浜町,三厩尻神,アオモリケン,ヒガシツガルグンソトガハママチ,ミンマヤシリカミ,青森県東津軽郡外ヶ浜町三厩尻神
0301717,青森県,東津軽郡外ヶ浜町,三厩川柱,アオモリケン,ヒガシツガルグンソトガハママチ,ミンマヤカワシラ,青森県東津軽郡外ヶ浜町三厩川柱
0301718,青森県,東津軽郡外ヶ浜町,三厩梨ノ木間,アオモリケン,ヒガシツガルグンソトガハママチ,ミンマヤナシノキマ,青森県東津軽郡外ヶ浜町三厩梨ノ木間
0301719,青森県,東津軽郡外ヶ浜町,三厩宇鉄山,アオモリケン,ヒガシツガルグンソトガハママチ,ミンマヤウテツヤマ,青森県東津軽郡外ヶ浜町三厩宇鉄山
0301720,青森県,東津軽郡外ヶ浜町,三厩四枚橋,アオモリケン,ヒガシツガルグンソトガハママチ,ミンマヤシマイバシ,青森県東津軽郡外ヶ浜町三厩四枚橋
0301721,青森県,東津軽郡外ヶ浜町,三厩鐇泊,アオモリケン,ヒガシツガルグンソトガハママチ,ミンマヤマサカリドマリ,青森県東津軽郡外ヶ浜町三厩鐇泊
0301722,青森県,東津軽郡外ヶ浜町,三厩上宇鉄,アオモリケン,ヒガシツガルグンソトガハママチ,ミンマヤカミウテツ,青森県東津軽郡外ヶ浜町三厩上宇鉄
0301723,青森県,東津軽郡外ヶ浜町,三厩元宇鉄,アオモリケン,ヒガシツガルグンソトガハママチ,ミンマヤモトウテツ,青森県東津軽郡外ヶ浜町三厩元宇鉄
0301724,青森県,東津軽郡外ヶ浜町,三厩釜野澤,アオモリケン,ヒガシツガルグンソトガハママチ,ミンマヤカマノサワ,青森県東津軽郡外ヶ浜町三厩釜野澤
0301725,青森県,東津軽郡外ヶ浜町,三厩藤嶋,アオモリケン,ヒガシツガルグンソトガハママチ,ミンマヤフジシマ,青森県東津軽郡外ヶ浜町三厩藤嶋
0301726,青森県,東津軽郡外ヶ浜町,三厩六條間,アオモリケン,ヒガシツガルグンソトガハママチ,ミンマヤロクジョウマ,青森県東津軽郡外ヶ浜町三厩六條間
0301727,青森県,東津軽郡外ヶ浜町,三厩算用師,アオモリケン,ヒガシツガルグンソトガハママチ,ミンマヤサンヨウシ,青森県東津軽郡外ヶ浜町三厩算用師
0301728,青森県,東津軽郡外ヶ浜町,三厩中浜,アオモリケン,ヒガシツガルグンソトガハママチ,ミンマヤナカハマ,青森県東津軽郡外ヶ浜町三厩中浜
0301729,青森県,東津軽郡外ヶ浜町,三厩下平,アオモリケン,ヒガシツガルグンソトガハママチ,ミンマヤシモタイラ,青森県東津軽郡外ヶ浜町三厩下平
0301731,青森県,東津軽郡外ヶ浜町,三厩本町,アオモリケン,ヒガシツガルグンソトガハママチ,ミンマヤホンチョウ,青森県東津軽郡外ヶ浜町三厩本町
0301732,青森県,東津軽郡外ヶ浜町,三厩家ノ上,アオモリケン,ヒガシツガルグンソトガハママチ,ミンマヤイエノウエ,青森県東津軽郡外ヶ浜町三厩家ノ上
0301733,青森県,東津軽郡外ヶ浜町,三厩新町,アオモリケン,ヒガシツガルグンソトガハママチ,ミンマヤシンチョウ,青森県東津軽郡外ヶ浜町三厩新町
0301734,青森県,東津軽郡外ヶ浜町,三厩増川,アオモリケン,ヒガシツガルグンソトガハママチ,ミンマヤマスカワ,青森県東津軽郡外ヶ浜町三厩増川
0301735,青森県,東津軽郡外ヶ浜町,三厩緑ケ丘,アオモリケン,ヒガシツガルグンソトガハママチ,ミンマヤミドリガオカ,青森県東津軽郡外ヶ浜町三厩緑ケ丘
0301736,青森県,東津軽郡外ヶ浜町,三厩桃ケ丘,アオモリケン,ヒガシツガルグンソトガハママチ,ミンマヤモモガオカ,青森県東津軽郡外ヶ浜町三厩桃ケ丘
0301737,青森県,東津軽郡外ヶ浜町,三厩東町,アオモリケン,ヒガシツガルグンソトガハママチ,ミンマヤヒガシマチ,青森県東津軽郡外ヶ浜町三厩東町
0310000,青森県,八戸市,,アオモリケン,ハチノヘシ,,青森県八戸市
0310001,青森県,八戸市,類家,アオモリケン,ハチノヘシ,ルイケ,青森県八戸市類家
0310002,青森県,八戸市,中居林,アオモリケン,ハチノヘシ,ナカイバヤシ,青森県八戸市中居林
0310003,青森県,八戸市,吹上,アオモリケン,ハチノヘシ,フキアゲ,青森県八戸市吹上
0310004,青森県,八戸市,南類家,アオモリケン,ハチノヘシ,ミナミルイケ,青森県八戸市南類家
0310007,青森県,八戸市,櫛引（土橋）,アオモリケン,ハチノヘシ,クシビキ(ツチハシ),青森県八戸市櫛引（土橋）
0310011,青森県,八戸市,田向,アオモリケン,ハチノヘシ,タムカイ,青森県八戸市田向
0310012,青森県,八戸市,十日市,アオモリケン,ハチノヘシ,トオカイチ,青森県八戸市十日市
0310013,青森県,八戸市,石手洗,アオモリケン,ハチノヘシ,イシテアライ,青森県八戸市石手洗
0310021,青森県,八戸市,長者,アオモリケン,ハチノヘシ,チョウジャ,青森県八戸市長者
0310022,青森県,八戸市,糠塚,アオモリケン,ハチノヘシ,ヌカヅカ,青森県八戸市糠塚
0310023,青森県,八戸市,是川,アオモリケン,ハチノヘシ,コレカワ,青森県八戸市是川
0310031,青森県,八戸市,番町,アオモリケン,ハチノヘシ,バンチョウ,青森県八戸市番町
0310032,青森県,八戸市,三日町,アオモリケン,ハチノヘシ,ミッカマチ,青森県八戸市三日町
0310033,青森県,八戸市,六日町,アオモリケン,ハチノヘシ,ムイカマチ,青森県八戸市六日町
0310034,青森県,八戸市,鷹匠小路,アオモリケン,ハチノヘシ,タカショウコウジ,青森県八戸市鷹匠小路
0310035,青森県,八戸市,寺横町,アオモリケン,ハチノヘシ,テラヨコチョウ,青森県八戸市寺横町
0310036,青森県,八戸市,大工町,アオモリケン,ハチノヘシ,ダイクマチ,青森県八戸市大工町
0310037,青森県,八戸市,鍛冶町,アオモリケン,ハチノヘシ,カジチョウ,青森県八戸市鍛冶町
0310038,青森県,八戸市,山伏小路,アオモリケン,ハチノヘシ,ヤマブシコウジ,青森県八戸市山伏小路
0310039,青森県,八戸市,鳥屋部町,アオモリケン,ハチノヘシ,トヤベチョウ,青森県八戸市鳥屋部町
0310041,青森県,八戸市,廿三日町,アオモリケン,ハチノヘシ,ニジュウサンニチマチ,青森県八戸市廿三日町
0310042,青森県,八戸市,十三日町,アオモリケン,ハチノヘシ,ジュウサンニチマチ,青森県八戸市十三日町
0310043,青森県,八戸市,十六日町,アオモリケン,ハチノヘシ,ジュウロクニチマチ,青森県八戸市十六日町
0310044,青森県,八戸市,廿六日町,アオモリケン,ハチノヘシ,ニジュウロクニチマチ,青森県八戸市廿六日町
0310045,青森県,八戸市,本鍛冶町,アオモリケン,ハチノヘシ,モトカジチョウ,青森県八戸市本鍛冶町
0310046,青森県,八戸市,町組町,アオモリケン,ハチノヘシ,マチクミチョウ,青森県八戸市町組町
0310047,青森県,八戸市,常番町,アオモリケン,ハチノヘシ,ジョウバンチョウ,青森県八戸市常番町
0310051,青森県,八戸市,堤町,アオモリケン,ハチノヘシ,ツツミチョウ,青森県八戸市堤町
0310052,青森県,八戸市,本徒士町,アオモリケン,ハチノヘシ,モトカジシチョウ,青森県八戸市本徒士町
0310053,青森県,八戸市,徒士町,アオモリケン,ハチノヘシ,カジシチョウ,青森県八戸市徒士町
0310054,青森県,八戸市,稲荷町,アオモリケン,ハチノヘシ,イナリチョウ,青森県八戸市稲荷町
0310055,青森県,八戸市,荒町,アオモリケン,ハチノヘシ,アラマチ,青森県八戸市荒町
0310056,青森県,八戸市,新荒町,アオモリケン,ハチノヘシ,シンアラマチ,青森県八戸市新荒町
0310057,青森県,八戸市,上徒士町,アオモリケン,ハチノヘシ,カミカジシチョウ,青森県八戸市上徒士町
0310058,青森県,八戸市,上組町,アオモリケン,ハチノヘシ,カミクミチョウ,青森県八戸市上組町
0310071,青森県,八戸市,沼館,アオモリケン,ハチノヘシ,ヌマダテ,青森県八戸市沼館
0310072,青森県,八戸市,城下,アオモリケン,ハチノヘシ,シロシタ,青森県八戸市城下
0310073,青森県,八戸市,売市,アオモリケン,ハチノヘシ,ウルイチ,青森県八戸市売市
0310074,青森県,八戸市,馬場町,アオモリケン,ハチノヘシ,ババチョウ,青森県八戸市馬場町
0310075,青森県,八戸市,内丸,アオモリケン,ハチノヘシ,ウチマル,青森県八戸市内丸
0310076,青森県,八戸市,堀端町,アオモリケン,ハチノヘシ,ホリバタチョウ,青森県八戸市堀端町
0310077,青森県,八戸市,長根,アオモリケン,ハチノヘシ,ナガネ,青森県八戸市長根
0310081,青森県,八戸市,柏崎,アオモリケン,ハチノヘシ,カシワザキ,青森県八戸市柏崎
0310082,青森県,八戸市,常海町,アオモリケン,ハチノヘシ,ジョウカイチョウ,青森県八戸市常海町
0310083,青森県,八戸市,窪町,アオモリケン,ハチノヘシ,クボチョウ,青森県八戸市窪町
0310084,青森県,八戸市,十八日町,アオモリケン,ハチノヘシ,ジュウハチニチマチ,青森県八戸市十八日町
0310085,青森県,八戸市,十一日町,アオモリケン,ハチノヘシ,ジュウイチニチマチ,青森県八戸市十一日町
0310086,青森県,八戸市,八日町,アオモリケン,ハチノヘシ,ヨウカマチ,青森県八戸市八日町
0310087,青森県,八戸市,朔日町,アオモリケン,ハチノヘシ,ツイタチマチ,青森県八戸市朔日町
0310088,青森県,八戸市,岩泉町,アオモリケン,ハチノヘシ,イワイズミチョウ,青森県八戸市岩泉町
0310089,青森県,八戸市,長横町,アオモリケン,ハチノヘシ,ナガヨコチョウ,青森県八戸市長横町
0310111,青森県,八戸市,南郷市野沢,アオモリケン,ハチノヘシ,ナンゴウイチノサワ,青森県八戸市南郷市野沢
0310112,青森県,八戸市,南郷大森,アオモリケン,ハチノヘシ,ナンゴウオオモリ,青森県八戸市南郷大森
0310113,青森県,八戸市,南郷泉清水,アオモリケン,ハチノヘシ,ナンゴウイズミシミズ,青森県八戸市南郷泉清水
0310114,青森県,八戸市,南郷中野,アオモリケン,ハチノヘシ,ナンゴウナカノ,青森県八戸市南郷中野
0310115,青森県,八戸市,南郷泥障作,アオモリケン,ハチノヘシ,ナンゴウアオヅクリ,青森県八戸市南郷泥障作
0310201,青森県,八戸市,南郷頃巻沢,アオモリケン,ハチノヘシ,ナンゴウコロマキサワ,青森県八戸市南郷頃巻沢
0310202,青森県,八戸市,南郷島守,アオモリケン,ハチノヘシ,ナンゴウシマモリ,青森県八戸市南郷島守
0310801,青森県,八戸市,江陽,アオモリケン,ハチノヘシ,コウヨウ,青森県八戸市江陽
0310802,青森県,八戸市,小中野,アオモリケン,ハチノヘシ,コナカノ,青森県八戸市小中野
0310803,青森県,八戸市,諏訪,アオモリケン,ハチノヘシ,スワ,青森県八戸市諏訪
0310804,青森県,八戸市,青葉,アオモリケン,ハチノヘシ,アオバ,青森県八戸市青葉
0310811,青森県,八戸市,新湊,アオモリケン,ハチノヘシ,シンミナト,青森県八戸市新湊
0310812,青森県,八戸市,湊町,アオモリケン,ハチノヘシ,ミナトマチ,青森県八戸市湊町
0310813,青森県,八戸市,新井田,アオモリケン,ハチノヘシ,ニイダ,青森県八戸市新井田
0310814,青森県,八戸市,妙,アオモリケン,ハチノヘシ,ミョウ,青森県八戸市妙
0310815,青森県,八戸市,松館,アオモリケン,ハチノヘシ,マツダテ,青森県八戸市松館
0310816,青森県,八戸市,新井田西,アオモリケン,ハチノヘシ,ニイダニシ,青森県八戸市新井田西
0310821,青森県,八戸市,白銀,アオモリケン,ハチノヘシ,シロガネ,青森県八戸市白銀
0310822,青森県,八戸市,白銀町,アオモリケン,ハチノヘシ,シロガネマチ,青森県八戸市白銀町
0310823,青森県,八戸市,湊高台,アオモリケン,ハチノヘシ,ミナトタカダイ,青森県八戸市湊高台
0310824,青森県,八戸市,旭ケ丘,アオモリケン,ハチノヘシ,アサヒガオカ,青森県八戸市旭ケ丘
0310831,青森県,八戸市,築港街,アオモリケン,ハチノヘシ,チッコウガイ,青森県八戸市築港街
0310832,青森県,八戸市,白銀台,アオモリケン,ハチノヘシ,シロガネダイ,青森県八戸市白銀台
0310833,青森県,八戸市,大久保,アオモリケン,ハチノヘシ,オオクボ,青森県八戸市大久保
0310834,青森県,八戸市,桜ケ丘,アオモリケン,ハチノヘシ,サクラガオカ,青森県八戸市桜ケ丘
0310841,青森県,八戸市,鮫町,アオモリケン,ハチノヘシ,サメマチ,青森県八戸市鮫町
0310842,青森県,八戸市,岬台,アオモリケン,ハチノヘシ,ミサキダイ,青森県八戸市岬台
0310843,青森県,八戸市,金浜,アオモリケン,ハチノヘシ,カネハマ,青森県八戸市金浜
0310844,青森県,八戸市,美保野,アオモリケン,ハチノヘシ,ミホノ,青森県八戸市美保野
0330000,青森県,三沢市,,アオモリケン,ミサワシ,,青森県三沢市
0330001,青森県,三沢市,中央町,アオモリケン,ミサワシ,チュウオウチョウ,青森県三沢市中央町
0330011,青森県,三沢市,幸町,アオモリケン,ミサワシ,サイワイチョウ,青森県三沢市幸町
0330012,青森県,三沢市,平畑,アオモリケン,ミサワシ,ヒラハタ,青森県三沢市平畑
0330021,青森県,三沢市,岡三沢,アオモリケン,ミサワシ,オカミサワ,青森県三沢市岡三沢
0330022,青森県,三沢市,三沢,アオモリケン,ミサワシ,ミサワ,青森県三沢市三沢
0330023,青森県,三沢市,下久保,アオモリケン,ミサワシ,シモクボ,青森県三沢市下久保
0330024,青森県,三沢市,東岡三沢,アオモリケン,ミサワシ,ヒガシオカミサワ,青森県三沢市東岡三沢
0330031,青森県,三沢市,桜町,アオモリケン,ミサワシ,サクラチョウ,青森県三沢市桜町
0330032,青森県,三沢市,緑町,アオモリケン,ミサワシ,ミドリチョウ,青森県三沢市緑町
0330033,青森県,三沢市,美野原,アオモリケン,ミサワシ,ミノハラ,青森県三沢市美野原
0330034,青森県,三沢市,東町,アオモリケン,ミサワシ,ヒガシチョウ,青森県三沢市東町
0330035,青森県,三沢市,松原町,アオモリケン,ミサワシ,マツバラチョウ,青森県三沢市松原町
0330036,青森県,三沢市,南町,アオモリケン,ミサワシ,ミナミチョウ,青森県三沢市南町
0330037,青森県,三沢市,松園町,アオモリケン,ミサワシ,マツゾノチョウ,青森県三沢市松園町
0330041,青森県,三沢市,大町,アオモリケン,ミサワシ,オオマチ,青森県三沢市大町
0330042,青森県,三沢市,栄町,アオモリケン,ミサワシ,サカエチョウ,青森県三沢市栄町
0330043,青森県,三沢市,千代田町,アオモリケン,ミサワシ,チヨダチョウ,青森県三沢市千代田町
0330044,青森県,三沢市,古間木山,アオモリケン,ミサワシ,フルマキヤマ,青森県三沢市古間木山
0330045,青森県,三沢市,薬師町,アオモリケン,ミサワシ,ヤクシチョウ,青森県三沢市薬師町
0330051,青森県,三沢市,古間木,アオモリケン,ミサワシ,フルマキ,青森県三沢市古間木
0330052,青森県,三沢市,本町,アオモリケン,ミサワシ,ホンチョウ,青森県三沢市本町
0330053,青森県,三沢市,春日台,アオモリケン,ミサワシ,カスガダイ,青森県三沢市春日台
0330061,青森県,三沢市,花園町,アオモリケン,ミサワシ,ハナゾノチョウ,青森県三沢市花園町
0330062,青森県,三沢市,新町,アオモリケン,ミサワシ,シンチョウ,青森県三沢市新町
0330063,青森県,三沢市,上久保,アオモリケン,ミサワシ,カミクボ,青森県三沢市上久保
0330071,青森県,上北郡六戸町,犬落瀬（内金矢、内山、岡沼、金沢、金矢、上淋代、木越、権現沢、,アオモリケン,カミキタグンロクノヘマチ,イヌオトセ(ウチカナヤ、ウチヤマ、オカヌマ、カナザワ、カナヤ、カミサビシロ、キコシ、ゴンゲンサワ、,青森県上北郡六戸町犬落瀬（内金矢、内山、岡沼、金沢、金矢、上淋代、木越、権現沢、
0330072,青森県,上北郡六戸町,折茂（今熊「２１３〜２３４、２４０、２４７、２６２、２６６、２７,アオモリケン,カミキタグンロクノヘマチ,オリモ(イマクマ<213-234、240、247、262、266、27,青森県上北郡六戸町折茂（今熊「213〜234、240、247、262、266、27
0330073,青森県,上北郡六戸町,金矢,アオモリケン,カミキタグンロクノヘマチ,カナヤ,青森県上北郡六戸町金矢
0330074,青森県,上北郡六戸町,小松ケ丘,アオモリケン,カミキタグンロクノヘマチ,コマツガオカ,青森県上北郡六戸町小松ケ丘
0330101,青森県,三沢市,天ケ森,アオモリケン,ミサワシ,アマガモリ,青森県三沢市天ケ森
0330102,青森県,三沢市,砂森,アオモリケン,ミサワシ,スナモリ,青森県三沢市砂森
0330103,青森県,三沢市,塩釜,アオモリケン,ミサワシ,シオガマ,青森県三沢市塩釜
0330104,青森県,三沢市,織笠,アオモリケン,ミサワシ,オリカサ,青森県三沢市織笠
0330105,青森県,三沢市,新森,アオモリケン,ミサワシ,シンモリ,青森県三沢市新森
0330111,青森県,三沢市,六川目,アオモリケン,ミサワシ,ムカワメ,青森県三沢市六川目
0330112,青森県,三沢市,細谷,アオモリケン,ミサワシ,ホソヤ,青森県三沢市細谷
0330113,青森県,三沢市,淋代,アオモリケン,ミサワシ,サビシロ,青森県三沢市淋代
0330123,青森県,三沢市,堀口,アオモリケン,ミサワシ,ホリグチ,青森県三沢市堀口
0330131,青森県,三沢市,五川目,アオモリケン,ミサワシ,イツカワメ,青森県三沢市五川目
0330132,青森県,三沢市,四川目,アオモリケン,ミサワシ,ヨカワメ,青森県三沢市四川目
0330133,青森県,三沢市,鹿中,アオモリケン,ミサワシ,シカナカ,青森県三沢市鹿中
0330134,青森県,三沢市,大津,アオモリケン,ミサワシ,オオツ,青森県三沢市大津
0330141,青森県,三沢市,港町,アオモリケン,ミサワシ,ミナトマチ,青森県三沢市港町
0330142,青森県,三沢市,三川目,アオモリケン,ミサワシ,ミカワメ,青森県三沢市三川目
0330143,青森県,三沢市,前平,アオモリケン,ミサワシ,マエタイ,青森県三沢市前平
0330151,青森県,三沢市,南山,アオモリケン,ミサワシ,ミナミヤマ,青森県三沢市南山
0330152,青森県,三沢市,深谷,アオモリケン,ミサワシ,フカヤ,青森県三沢市深谷
0330153,青森県,三沢市,泉町,アオモリケン,ミサワシ,イズミチョウ,青森県三沢市泉町
0330154,青森県,三沢市,日の出,アオモリケン,ミサワシ,ヒノデ,青森県三沢市日の出
0330155,青森県,三沢市,さつきヶ丘,アオモリケン,ミサワシ,サツキガオカ,青森県三沢市さつきヶ丘
0330161,青森県,三沢市,八幡,アオモリケン,ミサワシ,ヤワタ,青森県三沢市八幡
0330162,青森県,三沢市,越下,アオモリケン,ミサワシ,コシシタ,青森県三沢市越下
0330163,青森県,三沢市,富崎,アオモリケン,ミサワシ,トミサキ,青森県三沢市富崎
0330164,青森県,三沢市,谷地頭,アオモリケン,ミサワシ,ヤチガシラ,青森県三沢市谷地頭
0330165,青森県,三沢市,高野沢,アオモリケン,ミサワシ,タカノサワ,青森県三沢市高野沢
0330166,青森県,三沢市,朝日,アオモリケン,ミサワシ,アサヒ,青森県三沢市朝日
0330167,青森県,三沢市,根井,アオモリケン,ミサワシ,ネイ,青森県三沢市根井
0340000,青森県,十和田市,,アオモリケン,トワダシ,,青森県十和田市
0340001,青森県,十和田市,三本木,アオモリケン,トワダシ,サンボンギ,青森県十和田市三本木
0340002,青森県,十和田市,元町西,アオモリケン,トワダシ,モトマチニシ,青森県十和田市元町西
0340003,青森県,十和田市,元町東,アオモリケン,トワダシ,モトマチヒガシ,青森県十和田市元町東
0340004,青森県,十和田市,ひがしの,アオモリケン,トワダシ,ヒガシノ,青森県十和田市ひがしの
0340005,青森県,十和田市,一本木沢,アオモリケン,トワダシ,イッポンギサワ,青森県十和田市一本木沢
0340011,青森県,十和田市,稲生町,アオモリケン,トワダシ,イナオイチョウ,青森県十和田市稲生町
0340012,青森県,十和田市,東一番町,アオモリケン,トワダシ,ヒガシ1バンチョウ,青森県十和田市東一番町
0340013,青森県,十和田市,東十一番町,アオモリケン,トワダシ,ヒガシ11バンチョウ,青森県十和田市東十一番町
0340014,青森県,十和田市,東二十一番町,アオモリケン,トワダシ,ヒガシ21バンチョウ,青森県十和田市東二十一番町
0340015,青森県,十和田市,東二十二番町,アオモリケン,トワダシ,ヒガシ22バンチョウ,青森県十和田市東二十二番町
0340016,青森県,十和田市,東十二番町,アオモリケン,トワダシ,ヒガシ12バンチョウ,青森県十和田市東十二番町
0340017,青森県,十和田市,東二番町,アオモリケン,トワダシ,ヒガシ2バンチョウ,青森県十和田市東二番町
0340021,青森県,十和田市,東二十三番町,アオモリケン,トワダシ,ヒガシ23バンチョウ,青森県十和田市東二十三番町
0340022,青森県,十和田市,東二十四番町,アオモリケン,トワダシ,ヒガシ24バンチョウ,青森県十和田市東二十四番町
0340023,青森県,十和田市,東十三番町,アオモリケン,トワダシ,ヒガシ13バンチョウ,青森県十和田市東十三番町
0340024,青森県,十和田市,東十四番町,アオモリケン,トワダシ,ヒガシ14バンチョウ,青森県十和田市東十四番町
0340031,青森県,十和田市,東三番町,アオモリケン,トワダシ,ヒガシ3バンチョウ,青森県十和田市東三番町
0340032,青森県,十和田市,東四番町,アオモリケン,トワダシ,ヒガシ4バンチョウ,青森県十和田市東四番町
0340033,青森県,十和田市,東五番町,アオモリケン,トワダシ,ヒガシ5バンチョウ,青森県十和田市東五番町
0340034,青森県,十和田市,東十五番町,アオモリケン,トワダシ,ヒガシ15バンチョウ,青森県十和田市東十五番町
0340035,青森県,十和田市,東十六番町,アオモリケン,トワダシ,ヒガシ16バンチョウ,青森県十和田市東十六番町
0340036,青森県,十和田市,東六番町,アオモリケン,トワダシ,ヒガシ6バンチョウ,青森県十和田市東六番町
0340037,青森県,十和田市,穂並町,アオモリケン,トワダシ,ホナミチョウ,青森県十和田市穂並町
0340038,青森県,十和田市,西六番町,アオモリケン,トワダシ,ニシ6バンチョウ,青森県十和田市西六番町
0340041,青森県,十和田市,相坂,アオモリケン,トワダシ,オウサカ,青森県十和田市相坂
0340051,青森県,十和田市,伝法寺,アオモリケン,トワダシ,デンポウジ,青森県十和田市伝法寺
0340052,青森県,十和田市,藤島,アオモリケン,トワダシ,フジシマ,青森県十和田市藤島
0340061,青森県,十和田市,切田,アオモリケン,トワダシ,キリダ,青森県十和田市切田
0340071,青森県,十和田市,赤沼,アオモリケン,トワダシ,アカヌマ,青森県十和田市赤沼
0340081,青森県,十和田市,西十三番町,アオモリケン,トワダシ,ニシ13バンチョウ,青森県十和田市西十三番町
0340082,青森県,十和田市,西二番町,アオモリケン,トワダシ,ニシ2バンチョウ,青森県十和田市西二番町
0340083,青森県,十和田市,西三番町,アオモリケン,トワダシ,ニシ3バンチョウ,青森県十和田市西三番町
0340084,青森県,十和田市,西四番町,アオモリケン,トワダシ,ニシ4バンチョウ,青森県十和田市西四番町
0340085,青森県,十和田市,西五番町,アオモリケン,トワダシ,ニシ5バンチョウ,青森県十和田市西五番町
0340086,青森県,十和田市,西十六番町,アオモリケン,トワダシ,ニシ16バンチョウ,青森県十和田市西十六番町
0340087,青森県,十和田市,西十五番町,アオモリケン,トワダシ,ニシ15バンチョウ,青森県十和田市西十五番町
0340088,青森県,十和田市,西十四番町,アオモリケン,トワダシ,ニシ14バンチョウ,青森県十和田市西十四番町
0340089,青森県,十和田市,西二十三番町,アオモリケン,トワダシ,ニシ23バンチョウ,青森県十和田市西二十三番町
0340091,青森県,十和田市,西十一番町,アオモリケン,トワダシ,ニシ11バンチョウ,青森県十和田市西十一番町
0340092,青森県,十和田市,西一番町,アオモリケン,トワダシ,ニシ1バンチョウ,青森県十和田市西一番町
0340093,青森県,十和田市,西十二番町,アオモリケン,トワダシ,ニシ12バンチョウ,青森県十和田市西十二番町
0340094,青森県,十和田市,西二十二番町,アオモリケン,トワダシ,ニシ22バンチョウ,青森県十和田市西二十二番町
0340095,青森県,十和田市,西二十一番町,アオモリケン,トワダシ,ニシ21バンチョウ,青森県十和田市西二十一番町
0340101,青森県,十和田市,馬洗場,アオモリケン,トワダシ,ウマアライバ,青森県十和田市馬洗場
0340102,青森県,十和田市,大沢田,アオモリケン,トワダシ,オオサワダ,青森県十和田市大沢田
0340103,青森県,十和田市,立崎,アオモリケン,トワダシ,タチザキ,青森県十和田市立崎
0340104,青森県,十和田市,豊ケ岡,アオモリケン,トワダシ,トヨガオカ,青森県十和田市豊ケ岡
0340105,青森県,十和田市,八斗沢,アオモリケン,トワダシ,ハットザワ,青森県十和田市八斗沢
0340106,青森県,十和田市,深持,アオモリケン,トワダシ,フカモチ,青森県十和田市深持
0340107,青森県,十和田市,洞内,アオモリケン,トワダシ,ホラナイ,青森県十和田市洞内
0340211,青森県,十和田市,大不動,アオモリケン,トワダシ,オオフドウ,青森県十和田市大不動
0340212,青森県,十和田市,米田,アオモリケン,トワダシ,マイタ,青森県十和田市米田
0340213,青森県,十和田市,滝沢,アオモリケン,トワダシ,タキサワ,青森県十和田市滝沢
0340301,青森県,十和田市,奥瀬（その他）,アオモリケン,トワダシ,オクセ(ソノタ),青森県十和田市奥瀬（その他）
0340302,青森県,十和田市,沢田,アオモリケン,トワダシ,サワダ,青森県十和田市沢田
0340303,青森県,十和田市,法量,アオモリケン,トワダシ,ホウリョウ,青森県十和田市法量
0350000,青森県,むつ市,,アオモリケン,ムツシ,,青森県むつ市
0350000,青森県,下北郡東通村,,アオモリケン,シモキタグンヒガシドオリムラ,,青森県下北郡東通村
0350001,青森県,下北郡東通村,大利,アオモリケン,シモキタグンヒガシドオリムラ,オオリ,青森県下北郡東通村大利
0350002,青森県,下北郡東通村,目名,アオモリケン,シモキタグンヒガシドオリムラ,メナ,青森県下北郡東通村目名
0350003,青森県,下北郡東通村,野牛（稲崎平３０２番地・３１５番地、トクサ沢）,アオモリケン,シモキタグンヒガシドオリムラ,ノウシ(イナサキダイラ302バンチ・315バンチ、トクサザワ),青森県下北郡東通村野牛（稲崎平302-・315-、トクサ沢）
0350004,青森県,下北郡東通村,蒲野沢（その他）,アオモリケン,シモキタグンヒガシドオリムラ,ガマノサワ(ソノタ),青森県下北郡東通村蒲野沢（その他）
0350005,青森県,下北郡東通村,田屋,アオモリケン,シモキタグンヒガシドオリムラ,タヤ,青森県下北郡東通村田屋
0350011,青森県,むつ市,奥内,アオモリケン,ムツシ,オクナイ,青森県むつ市奥内
0350012,青森県,むつ市,中野沢,アオモリケン,ムツシ,ナカノサワ,青森県むつ市中野沢
0350021,青森県,むつ市,田名部,アオモリケン,ムツシ,タナブ,青森県むつ市田名部
0350022,青森県,むつ市,関根,アオモリケン,ムツシ,セキネ,青森県むつ市関根
0350031,青森県,むつ市,柳町,アオモリケン,ムツシ,ヤナギマチ,青森県むつ市柳町
0350032,青森県,むつ市,上川町,アオモリケン,ムツシ,カミカワチョウ,青森県むつ市上川町
0350033,青森県,むつ市,横迎町,アオモリケン,ムツシ,ヨコムカイマチ,青森県むつ市横迎町
0350034,青森県,むつ市,田名部町,アオモリケン,ムツシ,タナブチョウ,青森県むつ市田名部町
0350035,青森県,むつ市,本町,アオモリケン,ムツシ,ホンマチ,青森県むつ市本町
0350036,青森県,むつ市,栗山町,アオモリケン,ムツシ,クリヤマチョウ,青森県むつ市栗山町
0350041,青森県,むつ市,金曲,アオモリケン,ムツシ,カナマガリ,青森県むつ市金曲
0350042,青森県,むつ市,大曲,アオモリケン,ムツシ,オオマガリ,青森県むつ市大曲
0350043,青森県,むつ市,南赤川町,アオモリケン,ムツシ,ミナミアカガワチョウ,青森県むつ市南赤川町
0350044,青森県,むつ市,赤川町,アオモリケン,ムツシ,アカガワチョウ,青森県むつ市赤川町
0350045,青森県,むつ市,松原町,アオモリケン,ムツシ,マツバラチョウ,青森県むつ市松原町
0350046,青森県,むつ市,南町,アオモリケン,ムツシ,ミナミマチ,青森県むつ市南町
0350051,青森県,むつ市,新町,アオモリケン,ムツシ,シンマチ,青森県むつ市新町
0350052,青森県,むつ市,昭和町,アオモリケン,ムツシ,ショウワチョウ,青森県むつ市昭和町
0350053,青森県,むつ市,緑町,アオモリケン,ムツシ,ミドリチョウ,青森県むつ市緑町
0350054,青森県,むつ市,海老川町,アオモリケン,ムツシ,エビカワチョウ,青森県むつ市海老川町
0350055,青森県,むつ市,苫生町,アオモリケン,ムツシ,トマブチョウ,青森県むつ市苫生町
0350061,青森県,むつ市,下北町,アオモリケン,ムツシ,シモキタチョウ,青森県むつ市下北町
0350062,青森県,むつ市,仲町,アオモリケン,ムツシ,ナカマチ,青森県むつ市仲町
0350063,青森県,むつ市,若松町,アオモリケン,ムツシ,ワカマツチョウ,青森県むつ市若松町
0350064,青森県,むつ市,港町,アオモリケン,ムツシ,ミナトマチ,青森県むつ市港町
0350065,青森県,むつ市,松山町,アオモリケン,ムツシ,マツヤマチョウ,青森県むつ市松山町
0350066,青森県,むつ市,緑ヶ丘,アオモリケン,ムツシ,ミドリガオカ,青森県むつ市緑ヶ丘
0350067,青森県,むつ市,十二林,アオモリケン,ムツシ,ジュウニバヤシ,青森県むつ市十二林
0350068,青森県,むつ市,美里町,アオモリケン,ムツシ,ミサトチョウ,青森県むつ市美里町
0350071,青森県,むつ市,小川町,アオモリケン,ムツシ,コガワマチ,青森県むつ市小川町
0350072,青森県,むつ市,金谷,アオモリケン,ムツシ,カナヤ,青森県むつ市金谷
0350073,青森県,むつ市,中央,アオモリケン,ムツシ,チュウオウ,青森県むつ市中央
0350074,青森県,むつ市,大平,アオモリケン,ムツシ,オオダイラ,青森県むつ市大平
0350075,青森県,むつ市,真砂町,アオモリケン,ムツシ,マサゴチョウ,青森県むつ市真砂町
0350076,青森県,むつ市,旭町,アオモリケン,ムツシ,アサヒチョウ,青森県むつ市旭町
0350077,青森県,むつ市,山田町,アオモリケン,ムツシ,ヤマダチョウ,青森県むつ市山田町
0350078,青森県,むつ市,松森町,アオモリケン,ムツシ,マツモリチョウ,青森県むつ市松森町
0350079,青森県,むつ市,荒川町,アオモリケン,ムツシ,アラカワチョウ,青森県むつ市荒川町
0350081,青森県,むつ市,並川町,アオモリケン,ムツシ,ナミカワチョウ,青森県むつ市並川町
0350082,青森県,むつ市,文京町,アオモリケン,ムツシ,ブンキョウチョウ,青森県むつ市文京町
0350083,青森県,むつ市,大平町,アオモリケン,ムツシ,オオダイラチョウ,青森県むつ市大平町
0350084,青森県,むつ市,大湊新町,アオモリケン,ムツシ,オオミナトシンチョウ,青森県むつ市大湊新町
0350085,青森県,むつ市,大湊浜町,アオモリケン,ムツシ,オオミナトハマチョウ,青森県むつ市大湊浜町
0350086,青森県,むつ市,大湊上町,アオモリケン,ムツシ,オオミナトカミマチ,青森県むつ市大湊上町
0350091,青森県,むつ市,川守町,アオモリケン,ムツシ,カワモリチョウ,青森県むつ市川守町
0350092,青森県,むつ市,宇田町,アオモリケン,ムツシ,ウダチョウ,青森県むつ市宇田町
0350093,青森県,むつ市,大湊町,アオモリケン,ムツシ,オオミナトチョウ,青森県むつ市大湊町
0350094,青森県,むつ市,桜木町,アオモリケン,ムツシ,サクラギチョウ,青森県むつ市桜木町
0350095,青森県,むつ市,城ケ沢,アオモリケン,ムツシ,ジョウガサワ,青森県むつ市城ケ沢
0350096,青森県,むつ市,大湊,アオモリケン,ムツシ,オオミナト,青森県むつ市大湊
0350103,青森県,下北郡東通村,野牛（その他）,アオモリケン,シモキタグンヒガシドオリムラ,ノウシ(ソノタ),青森県下北郡東通村野牛（その他）
0350104,青森県,下北郡東通村,蒲野沢（稲崎、浜の平）,アオモリケン,シモキタグンヒガシドオリムラ,ガマノサワ(イナザキ、ハマノタイ),青森県下北郡東通村蒲野沢（稲崎、浜の平）
0350111,青森県,下北郡東通村,尻屋,アオモリケン,シモキタグンヒガシドオリムラ,シリヤ,青森県下北郡東通村尻屋
0350112,青森県,下北郡東通村,尻労,アオモリケン,シモキタグンヒガシドオリムラ,シツカリ,青森県下北郡東通村尻労
0350113,青森県,下北郡東通村,岩屋,アオモリケン,シモキタグンヒガシドオリムラ,イワヤ,青森県下北郡東通村岩屋
0360000,青森県,弘前市,,アオモリケン,ヒロサキシ,,青森県弘前市
0360100,青森県,平川市,,アオモリケン,ヒラカワシ,,青森県平川市
0360101,青森県,平川市,大光寺一早稲田,アオモリケン,ヒラカワシ,ダイコウジイチワセダ,青森県平川市大光寺一早稲田
0360101,青森県,平川市,大光寺一村井,アオモリケン,ヒラカワシ,ダイコウジイチムライ,青森県平川市大光寺一村井
0360101,青森県,平川市,大光寺一滝本,アオモリケン,ヒラカワシ,ダイコウジイチタキモト,青森県平川市大光寺一滝本
0360101,青森県,平川市,大光寺三早稲田,アオモリケン,ヒラカワシ,ダイコウジサンワセダ,青森県平川市大光寺三早稲田
0360101,青森県,平川市,大光寺三村井,アオモリケン,ヒラカワシ,ダイコウジサンムライ,青森県平川市大光寺三村井
0360101,青森県,平川市,大光寺三滝本,アオモリケン,ヒラカワシ,ダイコウジサンタキモト,青森県平川市大光寺三滝本
0360101,青森県,平川市,大光寺二早稲田,アオモリケン,ヒラカワシ,ダイコウジニワセダ,青森県平川市大光寺二早稲田
0360101,青森県,平川市,大光寺二村井,アオモリケン,ヒラカワシ,ダイコウジニムライ,青森県平川市大光寺二村井
0360101,青森県,平川市,大光寺二滝本,アオモリケン,ヒラカワシ,ダイコウジニタキモト,青森県平川市大光寺二滝本
0360101,青森県,平川市,大光寺四滝本,アオモリケン,ヒラカワシ,ダイコウジヨンタキモト,青森県平川市大光寺四滝本
0360101,青森県,平川市,大光寺川原田,アオモリケン,ヒラカワシ,ダイコウジカワラダ,青森県平川市大光寺川原田
0360101,青森県,平川市,大光寺白山,アオモリケン,ヒラカワシ,ダイコウジシロヤマ,青森県平川市大光寺白山
0360101,青森県,平川市,大光寺種元,アオモリケン,ヒラカワシ,ダイコウジタネモト,青森県平川市大光寺種元
0360101,青森県,平川市,大光寺稲村,アオモリケン,ヒラカワシ,ダイコウジイナムラ,青森県平川市大光寺稲村
0360101,青森県,平川市,大光寺稲田,アオモリケン,ヒラカワシ,ダイコウジイナダ,青森県平川市大光寺稲田
0360101,青森県,平川市,大光寺西稲村,アオモリケン,ヒラカワシ,ダイコウジニシイナムラ,青森県平川市大光寺西稲村
0360101,青森県,平川市,大光寺釈迦口,アオモリケン,ヒラカワシ,ダイコウジシャカグチ,青森県平川市大光寺釈迦口
0360102,青森県,平川市,光城,アオモリケン,ヒラカワシ,コウジョウ,青森県平川市光城
0360103,青森県,平川市,本町北柳田,アオモリケン,ヒラカワシ,モトマチキタヤナギダ,青森県平川市本町北柳田
0360103,青森県,平川市,本町南柳田,アオモリケン,ヒラカワシ,モトマチミナミヤナギダ,青森県平川市本町南柳田
0360103,青森県,平川市,本町富岡,アオモリケン,ヒラカワシ,モトマチトミオカ,青森県平川市本町富岡
0360103,青森県,平川市,本町平野,アオモリケン,ヒラカワシ,モトマチヒラノ,青森県平川市本町平野
0360103,青森県,平川市,本町村元,アオモリケン,ヒラカワシ,モトマチムラモト,青森県平川市本町村元
0360103,青森県,平川市,本町西宮,アオモリケン,ヒラカワシ,モトマチニシノミヤ,青森県平川市本町西宮
0360104,青森県,平川市,柏木町広田,アオモリケン,ヒラカワシ,カシワギマチヒロダ,青森県平川市柏木町広田
0360104,青森県,平川市,柏木町東田,アオモリケン,ヒラカワシ,カシワギマチヒガシダ,青森県平川市柏木町東田
0360104,青森県,平川市,柏木町柳田,アオモリケン,ヒラカワシ,カシワギマチヤナギダ,青森県平川市柏木町柳田
0360104,青森県,平川市,柏木町藤山,アオモリケン,ヒラカワシ,カシワギマチフジヤマ,青森県平川市柏木町藤山
0360111,青森県,平川市,小和森上平田,アオモリケン,ヒラカワシ,コワモリカミヒラタ,青森県平川市小和森上平田
0360111,青森県,平川市,小和森上松岡,アオモリケン,ヒラカワシ,コワモリカミマツオカ,青森県平川市小和森上松岡
0360111,青森県,平川市,小和森上田川,アオモリケン,ヒラカワシ,コワモリカミタガワ,青森県平川市小和森上田川
0360111,青森県,平川市,小和森下平田,アオモリケン,ヒラカワシ,コワモリシモヒラタ,青森県平川市小和森下平田
0360111,青森県,平川市,小和森下松岡,アオモリケン,ヒラカワシ,コワモリシモマツオカ,青森県平川市小和森下松岡
0360111,青森県,平川市,小和森下田川,アオモリケン,ヒラカワシ,コワモリシモタガワ,青森県平川市小和森下田川
0360111,青森県,平川市,小和森中松岡,アオモリケン,ヒラカワシ,コワモリナカマツオカ,青森県平川市小和森中松岡
0360111,青森県,平川市,小和森松川,アオモリケン,ヒラカワシ,コワモリマツカワ,青森県平川市小和森松川
0360111,青森県,平川市,小和森松村,アオモリケン,ヒラカワシ,コワモリマツムラ,青森県平川市小和森松村
0360111,青森県,平川市,小和森福田,アオモリケン,ヒラカワシ,コワモリフクダ,青森県平川市小和森福田
0360111,青森県,平川市,小和森種取,アオモリケン,ヒラカワシ,コワモリタネトリ,青森県平川市小和森種取
0360112,青森県,平川市,荒田上駒田,アオモリケン,ヒラカワシ,アラタカミコマタ,青森県平川市荒田上駒田
0360112,青森県,平川市,荒田下駒田,アオモリケン,ヒラカワシ,アラタシモコマタ,青森県平川市荒田下駒田
0360112,青森県,平川市,荒田北岡部,アオモリケン,ヒラカワシ,アラタキタオカベ,青森県平川市荒田北岡部
0360112,青森県,平川市,荒田北稲村,アオモリケン,ヒラカワシ,アラタキタイナムラ,青森県平川市荒田北稲村
0360112,青森県,平川市,荒田南岡部,アオモリケン,ヒラカワシ,アラタミナミオカベ,青森県平川市荒田南岡部
0360112,青森県,平川市,荒田南稲村,アオモリケン,ヒラカワシ,アラタミナミイナムラ,青森県平川市荒田南稲村
0360113,青森県,平川市,平田森上宮本,アオモリケン,ヒラカワシ,ヒラタモリカミミヤモト,青森県平川市平田森上宮本
0360113,青森県,平川市,平田森下宮本,アオモリケン,ヒラカワシ,ヒラタモリシモミヤモト,青森県平川市平田森下宮本
0360113,青森県,平川市,平田森前田,アオモリケン,ヒラカワシ,ヒラタモリマエダ,青森県平川市平田森前田
0360113,青森県,平川市,平田森稲村,アオモリケン,ヒラカワシ,ヒラタモリイナムラ,青森県平川市平田森稲村
0360113,青森県,平川市,平田森若松,アオモリケン,ヒラカワシ,ヒラタモリワカマツ,青森県平川市平田森若松
0360114,青森県,平川市,町居南田,アオモリケン,ヒラカワシ,マチイミナミタ,青森県平川市町居南田
0360114,青森県,平川市,町居山下,アオモリケン,ヒラカワシ,マチイヤマシタ,青森県平川市町居山下
0360114,青森県,平川市,町居山元,アオモリケン,ヒラカワシ,マチイヤマモト,青森県平川市町居山元
0360114,青森県,平川市,町居横山,アオモリケン,ヒラカワシ,マチイヨコヤマ,青森県平川市町居横山
0360114,青森県,平川市,町居稲元,アオモリケン,ヒラカワシ,マチイイナモト,青森県平川市町居稲元
0360114,青森県,平川市,町居稲村,アオモリケン,ヒラカワシ,マチイイナムラ,青森県平川市町居稲村
0360114,青森県,平川市,町居西田,アオモリケン,ヒラカワシ,マチイニシタ,青森県平川市町居西田
0360115,青森県,平川市,新館島村,アオモリケン,ヒラカワシ,ニイダテシマムラ,青森県平川市新館島村
0360115,青森県,平川市,新館後野,アオモリケン,ヒラカワシ,ニイダテウシロノ,青森県平川市新館後野
0360115,青森県,平川市,新館東山,アオモリケン,ヒラカワシ,ニイダテヒガシヤマ,青森県平川市新館東山
0360115,青森県,平川市,新館柏崎,アオモリケン,ヒラカワシ,ニイダテカシワザキ,青森県平川市新館柏崎
0360115,青森県,平川市,新館藤山,アオモリケン,ヒラカワシ,ニイダテフジヤマ,青森県平川市新館藤山
0360115,青森県,平川市,新館藤巻,アオモリケン,ヒラカワシ,ニイダテフジマキ,青森県平川市新館藤巻
0360115,青森県,平川市,新館野木和,アオモリケン,ヒラカワシ,ニイダテノギワ,青森県平川市新館野木和
0360115,青森県,平川市,新館駒泊,アオモリケン,ヒラカワシ,ニイダテコマドマリ,青森県平川市新館駒泊
0360121,青森県,平川市,新屋富山,アオモリケン,ヒラカワシ,アラヤトミヤマ,青森県平川市新屋富山
0360121,青森県,平川市,新屋山下,アオモリケン,ヒラカワシ,アラヤヤマシタ,青森県平川市新屋山下
0360121,青森県,平川市,新屋平岡,アオモリケン,ヒラカワシ,アラヤヒラオカ,青森県平川市新屋平岡
0360121,青森県,平川市,新屋平野,アオモリケン,ヒラカワシ,アラヤヒラノ,青森県平川市新屋平野
0360121,青森県,平川市,新屋栄館,アオモリケン,ヒラカワシ,アラヤサカエダテ,青森県平川市新屋栄館
0360121,青森県,平川市,新屋滝の沢,アオモリケン,ヒラカワシ,アラヤタキノサワ,青森県平川市新屋滝の沢
0360121,青森県,平川市,新屋福嶋,アオモリケン,ヒラカワシ,アラヤフクシマ,青森県平川市新屋福嶋
0360121,青森県,平川市,新屋稲村,アオモリケン,ヒラカワシ,アラヤイナムラ,青森県平川市新屋稲村
0360121,青森県,平川市,新屋長田,アオモリケン,ヒラカワシ,アラヤオサダ,青森県平川市新屋長田
0360122,青森県,平川市,尾崎安田,アオモリケン,ヒラカワシ,オサキヤスタ,青森県平川市尾崎安田
0360122,青森県,平川市,尾崎岡田,アオモリケン,ヒラカワシ,オサキオカダ,青森県平川市尾崎岡田
0360122,青森県,平川市,尾崎川合,アオモリケン,ヒラカワシ,オサキカワイ,青森県平川市尾崎川合
0360122,青森県,平川市,尾崎平山,アオモリケン,ヒラカワシ,オサキヒラヤマ,青森県平川市尾崎平山
0360122,青森県,平川市,尾崎木戸口,アオモリケン,ヒラカワシ,オサキキドグチ,青森県平川市尾崎木戸口
0360122,青森県,平川市,尾崎沢部,アオモリケン,ヒラカワシ,オサキサワベ,青森県平川市尾崎沢部
0360122,青森県,平川市,尾崎浅井,アオモリケン,ヒラカワシ,オサキアサイ,青森県平川市尾崎浅井
0360122,青森県,平川市,尾崎稲元,アオモリケン,ヒラカワシ,オサキイナモト,青森県平川市尾崎稲元
0360122,青森県,平川市,尾崎里見,アオモリケン,ヒラカワシ,オサキサトミ,青森県平川市尾崎里見
0360131,青森県,平川市,広船山下,アオモリケン,ヒラカワシ,ヒロフネヤマシタ,青森県平川市広船山下
0360131,青森県,平川市,広船広沢,アオモリケン,ヒラカワシ,ヒロフネヒロサワ,青森県平川市広船広沢
0360131,青森県,平川市,広船福田,アオモリケン,ヒラカワシ,ヒロフネフクダ,青森県平川市広船福田
0360132,青森県,平川市,唐竹井沢,アオモリケン,ヒラカワシ,カラタケイザワ,青森県平川市唐竹井沢
0360132,青森県,平川市,唐竹向川原田,アオモリケン,ヒラカワシ,カラタケムカイカワラダ,青森県平川市唐竹向川原田
0360132,青森県,平川市,唐竹堀合,アオモリケン,ヒラカワシ,カラタケホリアイ,青森県平川市唐竹堀合
0360132,青森県,平川市,唐竹小松原,アオモリケン,ヒラカワシ,カラタケコマツハラ,青森県平川市唐竹小松原
0360132,青森県,平川市,唐竹小金森,アオモリケン,ヒラカワシ,カラタケコガネモリ,青森県平川市唐竹小金森
0360132,青森県,平川市,唐竹川原田,アオモリケン,ヒラカワシ,カラタケカワラダ,青森県平川市唐竹川原田
0360132,青森県,平川市,唐竹平山,アオモリケン,ヒラカワシ,カラタケヒラヤマ,青森県平川市唐竹平山
0360132,青森県,平川市,唐竹水上,アオモリケン,ヒラカワシ,カラタケミズカミ,青森県平川市唐竹水上
0360132,青森県,平川市,唐竹芦毛沢,アオモリケン,ヒラカワシ,カラタケアシゲサワ,青森県平川市唐竹芦毛沢
0360132,青森県,平川市,唐竹苺原,アオモリケン,ヒラカワシ,カラタケイチゴハラ,青森県平川市唐竹苺原
0360132,青森県,平川市,唐竹薬師沢,アオモリケン,ヒラカワシ,カラタケヤクシザワ,青森県平川市唐竹薬師沢
0360132,青森県,平川市,唐竹阿蘇獄,アオモリケン,ヒラカワシ,カラタケアソダケ,青森県平川市唐竹阿蘇獄
0360132,青森県,平川市,唐竹高田,アオモリケン,ヒラカワシ,カラタケタカダ,青森県平川市唐竹高田
0360141,青森県,平川市,沖館向野,アオモリケン,ヒラカワシ,オキダテムカイノ,青森県平川市沖館向野
0360141,青森県,平川市,沖館和田,アオモリケン,ヒラカワシ,オキダテワダ,青森県平川市沖館和田
0360141,青森県,平川市,沖館宮崎,アオモリケン,ヒラカワシ,オキダテミヤザキ,青森県平川市沖館宮崎
0360141,青森県,平川市,沖館比山館,アオモリケン,ヒラカワシ,オキダテヒヤマダテ,青森県平川市沖館比山館
0360141,青森県,平川市,沖館永田,アオモリケン,ヒラカワシ,オキダテナガタ,青森県平川市沖館永田
0360141,青森県,平川市,沖館沢田,アオモリケン,ヒラカワシ,オキダテサワタ,青森県平川市沖館沢田
0360141,青森県,平川市,沖館西田,アオモリケン,ヒラカワシ,オキダテニシタ,青森県平川市沖館西田
0360141,青森県,平川市,沖館長田,アオモリケン,ヒラカワシ,オキダテオサダ,青森県平川市沖館長田
0360141,青森県,平川市,沖館高田,アオモリケン,ヒラカワシ,オキダテタカダ,青森県平川市沖館高田
0360142,青森県,平川市,高畑前田,アオモリケン,ヒラカワシ,タカハタケマエダ,青森県平川市高畑前田
0360142,青森県,平川市,高畑熊沢,アオモリケン,ヒラカワシ,タカハタケクマザワ,青森県平川市高畑熊沢
0360142,青森県,平川市,高畑高田,アオモリケン,ヒラカワシ,タカハタケタカダ,青森県平川市高畑高田
0360143,青森県,平川市,吹上安田,アオモリケン,ヒラカワシ,フキアゲヤスタ,青森県平川市吹上安田
0360143,青森県,平川市,吹上平岡,アオモリケン,ヒラカワシ,フキアゲヒラオカ,青森県平川市吹上平岡
0360143,青森県,平川市,吹上高田,アオモリケン,ヒラカワシ,フキアゲタカダ,青森県平川市吹上高田
0360144,青森県,平川市,原田今井,アオモリケン,ヒラカワシ,ハラタイマイ,青森県平川市原田今井
0360144,青森県,平川市,原田村元,アオモリケン,ヒラカワシ,ハラタムラモト,青森県平川市原田村元
0360144,青森県,平川市,原田沢田,アオモリケン,ヒラカワシ,ハラタサワタ,青森県平川市原田沢田
0360144,青森県,平川市,原田稲元,アオモリケン,ヒラカワシ,ハラタイナモト,青森県平川市原田稲元
0360145,青森県,平川市,岩館下り松,アオモリケン,ヒラカワシ,イワダテサガリマツ,青森県平川市岩館下り松
0360145,青森県,平川市,岩館山の井,アオモリケン,ヒラカワシ,イワダテヤマノイ,青森県平川市岩館山の井
0360145,青森県,平川市,岩館村元,アオモリケン,ヒラカワシ,イワダテムラモト,青森県平川市岩館村元
0360145,青森県,平川市,岩館藤巻,アオモリケン,ヒラカワシ,イワダテフジマキ,青森県平川市岩館藤巻
0360145,青森県,平川市,岩館長田,アオモリケン,ヒラカワシ,イワダテオサダ,青森県平川市岩館長田
0360146,青森県,平川市,大坊前田,アオモリケン,ヒラカワシ,ダイボウマエダ,青森県平川市大坊前田
0360146,青森県,平川市,大坊福田,アオモリケン,ヒラカワシ,ダイボウフクダ,青森県平川市大坊福田
0360146,青森県,平川市,大坊竹内,アオモリケン,ヒラカワシ,ダイボウタケウチ,青森県平川市大坊竹内
0360146,青森県,平川市,大坊竹原,アオモリケン,ヒラカワシ,ダイボウタケハラ,青森県平川市大坊竹原
0360151,青森県,平川市,石郷村元,アオモリケン,ヒラカワシ,イシゴウムラモト,青森県平川市石郷村元
0360151,青森県,平川市,石郷柳田,アオモリケン,ヒラカワシ,イシゴウヤナギダ,青森県平川市石郷柳田
0360151,青森県,平川市,石郷沖中,アオモリケン,ヒラカワシ,イシゴウオキナカ,青森県平川市石郷沖中
0360152,青森県,平川市,石畑岡元,アオモリケン,ヒラカワシ,イシハタケオカモト,青森県平川市石畑岡元
0360153,青森県,平川市,小杉川崎,アオモリケン,ヒラカワシ,コスギカワサキ,青森県平川市小杉川崎
0360153,青森県,平川市,小杉扇田,アオモリケン,ヒラカワシ,コスギオウギダ,青森県平川市小杉扇田
0360153,青森県,平川市,小杉稲村,アオモリケン,ヒラカワシ,コスギイナムラ,青森県平川市小杉稲村
0360153,青森県,平川市,小杉竹内,アオモリケン,ヒラカワシ,コスギタケウチ,青森県平川市小杉竹内
0360153,青森県,平川市,小杉西田,アオモリケン,ヒラカワシ,コスギニシタ,青森県平川市小杉西田
0360154,青森県,平川市,四ツ屋亀田,アオモリケン,ヒラカワシ,ヨツヤカメタ,青森県平川市四ツ屋亀田
0360155,青森県,平川市,館田中前田,アオモリケン,ヒラカワシ,タチタナカマエダ,青森県平川市館田中前田
0360155,青森県,平川市,館田元川原田,アオモリケン,ヒラカワシ,タチタモトカワラダ,青森県平川市館田元川原田
0360155,青森県,平川市,館田前田,アオモリケン,ヒラカワシ,タチタマエダ,青森県平川市館田前田
0360155,青森県,平川市,館田南川原田,アオモリケン,ヒラカワシ,タチタミナミカワラダ,青森県平川市館田南川原田
0360155,青森県,平川市,館田東前田,アオモリケン,ヒラカワシ,タチタヒガシマエダ,青森県平川市館田東前田
0360155,青森県,平川市,館田東和田,アオモリケン,ヒラカワシ,タチタヒガシワダ,青森県平川市館田東和田
0360155,青森県,平川市,館田東稲村,アオモリケン,ヒラカワシ,タチタヒガシイナムラ,青森県平川市館田東稲村
0360155,青森県,平川市,館田柳原,アオモリケン,ヒラカワシ,タチタヤナギハラ,青森県平川市館田柳原
0360155,青森県,平川市,館田稲村,アオモリケン,ヒラカワシ,タチタイナムラ,青森県平川市館田稲村
0360155,青森県,平川市,館田西和田,アオモリケン,ヒラカワシ,タチタニシワダ,青森県平川市館田西和田
0360155,青森県,平川市,館田西川原田,アオモリケン,ヒラカワシ,タチタニシカワラダ,青森県平川市館田西川原田
0360161,青森県,平川市,杉館宮元,アオモリケン,ヒラカワシ,スギダテミヤモト,青森県平川市杉館宮元
0360161,青森県,平川市,杉館松橋,アオモリケン,ヒラカワシ,スギダテマツハシ,青森県平川市杉館松橋
0360161,青森県,平川市,杉館滝元,アオモリケン,ヒラカワシ,スギダテタキモト,青森県平川市杉館滝元
0360162,青森県,平川市,館山上亀岡,アオモリケン,ヒラカワシ,タテヤマカミカメオカ,青森県平川市館山上亀岡
0360162,青森県,平川市,館山上扇田,アオモリケン,ヒラカワシ,タテヤマカミオウギダ,青森県平川市館山上扇田
0360162,青森県,平川市,館山下亀岡,アオモリケン,ヒラカワシ,タテヤマシモカメオカ,青森県平川市館山下亀岡
0360162,青森県,平川市,館山下扇田,アオモリケン,ヒラカワシ,タテヤマシモオウギダ,青森県平川市館山下扇田
0360162,青森県,平川市,館山前田,アオモリケン,ヒラカワシ,タテヤママエダ,青森県平川市館山前田
0360162,青森県,平川市,館山川合,アオモリケン,ヒラカワシ,タテヤマカワイ,青森県平川市館山川合
0360162,青森県,平川市,館山板橋,アオモリケン,ヒラカワシ,タテヤマイタバシ,青森県平川市館山板橋
0360163,青森県,平川市,苗生松一本柳,アオモリケン,ヒラカワシ,ナンバイマツイッポンヤナギ,青森県平川市苗生松一本柳
0360163,青森県,平川市,苗生松上東田,アオモリケン,ヒラカワシ,ナンバイマツカミヒガシダ,青森県平川市苗生松上東田
0360163,青森県,平川市,苗生松下東田,アオモリケン,ヒラカワシ,ナンバイマツシモヒガシダ,青森県平川市苗生松下東田
0360163,青森県,平川市,苗生松元東田,アオモリケン,ヒラカワシ,ナンバイマツモトヒガシダ,青森県平川市苗生松元東田
0360163,青森県,平川市,苗生松川原田,アオモリケン,ヒラカワシ,ナンバイマツカワラダ,青森県平川市苗生松川原田
0360163,青森県,平川市,苗生松川崎,アオモリケン,ヒラカワシ,ナンバイマツカワサキ,青森県平川市苗生松川崎
0360164,青森県,平川市,松崎亀井,アオモリケン,ヒラカワシ,マツザキカメイ,青森県平川市松崎亀井
0360164,青森県,平川市,松崎西田,アオモリケン,ヒラカワシ,マツザキニシダ,青森県平川市松崎西田
0360165,青森県,平川市,松館井ノ上,アオモリケン,ヒラカワシ,マツダテイノウエ,青森県平川市松館井ノ上
0360165,青森県,平川市,松館東川原田,アオモリケン,ヒラカワシ,マツダテヒガシカワラダ,青森県平川市松館東川原田
0360165,青森県,平川市,松館東稲村,アオモリケン,ヒラカワシ,マツダテヒガシイナムラ,青森県平川市松館東稲村
0360165,青森県,平川市,松館松元,アオモリケン,ヒラカワシ,マツダテマツモト,青森県平川市松館松元
0360165,青森県,平川市,松館浅井,アオモリケン,ヒラカワシ,マツダテアサイ,青森県平川市松館浅井
0360165,青森県,平川市,松館西川原田,アオモリケン,ヒラカワシ,マツダテニシカワラダ,青森県平川市松館西川原田
0360165,青森県,平川市,松館西稲村,アオモリケン,ヒラカワシ,マツダテニシイナムラ,青森県平川市松館西稲村
0360171,青森県,平川市,小国山下,アオモリケン,ヒラカワシ,オグニヤマシタ,青森県平川市小国山下
0360171,青森県,平川市,小国川原田,アオモリケン,ヒラカワシ,オグニカワラダ,青森県平川市小国川原田
0360171,青森県,平川市,小国川辺,アオモリケン,ヒラカワシ,オグニカワベ,青森県平川市小国川辺
0360171,青森県,平川市,小国浅瀬石山,アオモリケン,ヒラカワシ,オグニアセイシヤマ,青森県平川市小国浅瀬石山
0360171,青森県,平川市,小国深沢,アオモリケン,ヒラカワシ,オグニフカサワ,青森県平川市小国深沢
0360172,青森県,平川市,葛川一本木平,アオモリケン,ヒラカワシ,クズカワイッポンギタイラ,青森県平川市葛川一本木平
0360172,青森県,平川市,葛川上の平,アオモリケン,ヒラカワシ,クズカワカミノタイラ,青森県平川市葛川上の平
0360172,青森県,平川市,葛川唐川平,アオモリケン,ヒラカワシ,クズカワカラカワタイラ,青森県平川市葛川唐川平
0360172,青森県,平川市,葛川大川添,アオモリケン,ヒラカワシ,クズカワオオカワゾエ,青森県平川市葛川大川添
0360172,青森県,平川市,葛川家岸,アオモリケン,ヒラカワシ,クズカワヤギシ,青森県平川市葛川家岸
0360172,青森県,平川市,葛川平六村下,アオモリケン,ヒラカワシ,クズカワヘイロクムラシタ,青森県平川市葛川平六村下
0360172,青森県,平川市,葛川平六沢上,アオモリケン,ヒラカワシ,クズカワヘイロクサワカミ,青森県平川市葛川平六沢上
0360172,青森県,平川市,葛川折戸,アオモリケン,ヒラカワシ,クズカワオリト,青森県平川市葛川折戸
0360172,青森県,平川市,葛川毛無森,アオモリケン,ヒラカワシ,クズカワケナシモリ,青森県平川市葛川毛無森
0360172,青森県,平川市,葛川浅瀬石山,アオモリケン,ヒラカワシ,クズカワアセイシヤマ,青森県平川市葛川浅瀬石山
0360172,青森県,平川市,葛川田の沢口,アオモリケン,ヒラカワシ,クズカワタノサワグチ,青森県平川市葛川田の沢口
0360172,青森県,平川市,葛川砂子沢,アオモリケン,ヒラカワシ,クズカワスナコザワ,青森県平川市葛川砂子沢
0360172,青森県,平川市,葛川葛川出口,アオモリケン,ヒラカワシ,クズカワクズカワデグチ,青森県平川市葛川葛川出口
0360172,青森県,平川市,葛川葛川平,アオモリケン,ヒラカワシ,クズカワクズカワタイラ,青森県平川市葛川葛川平
0360172,青森県,平川市,葛川葛川沢,アオモリケン,ヒラカワシ,クズカワクズカワサワ,青森県平川市葛川葛川沢
0360172,青森県,平川市,葛川長小股,アオモリケン,ヒラカワシ,クズカワナガコマタ,青森県平川市葛川長小股
0360173,青森県,平川市,切明上井戸,アオモリケン,ヒラカワシ,キリアケカミイド,青森県平川市切明上井戸
0360173,青森県,平川市,切明坂本,アオモリケン,ヒラカワシ,キリアケサカモト,青森県平川市切明坂本
0360173,青森県,平川市,切明山下,アオモリケン,ヒラカワシ,キリアケヤマシタ,青森県平川市切明山下
0360173,青森県,平川市,切明津根川森,アオモリケン,ヒラカワシ,キリアケツネカワモリ,青森県平川市切明津根川森
0360173,青森県,平川市,切明浅瀬石山,アオモリケン,ヒラカワシ,キリアケアセイシヤマ,青森県平川市切明浅瀬石山
0360173,青森県,平川市,切明温川森,アオモリケン,ヒラカワシ,キリアケヌルカワモリ,青森県平川市切明温川森
0360173,青森県,平川市,切明温川沢,アオモリケン,ヒラカワシ,キリアケヌルカワサワ,青森県平川市切明温川沢
0360173,青森県,平川市,切明滝の森,アオモリケン,ヒラカワシ,キリアケタキノモリ,青森県平川市切明滝の森
0360173,青森県,平川市,切明滝候沢,アオモリケン,ヒラカワシ,キリアケタッコウサワ,青森県平川市切明滝候沢
0360173,青森県,平川市,切明螢沢,アオモリケン,ヒラカワシ,キリアケホタルサワ,青森県平川市切明螢沢
0360173,青森県,平川市,切明誉田邸,アオモリケン,ヒラカワシ,キリアケコンタヤシキ,青森県平川市切明誉田邸
0360201,青森県,平川市,李平上安原,アオモリケン,ヒラカワシ,スモモダイカミヤスハラ,青森県平川市李平上安原
0360201,青森県,平川市,李平上山崎,アオモリケン,ヒラカワシ,スモモダイカミヤマザキ,青森県平川市李平上山崎
0360201,青森県,平川市,李平下安原,アオモリケン,ヒラカワシ,スモモダイシモヤスハラ,青森県平川市李平下安原
0360201,青森県,平川市,李平北豊田,アオモリケン,ヒラカワシ,スモモダイキタトヨダ,青森県平川市李平北豊田
0360201,青森県,平川市,李平南豊田,アオモリケン,ヒラカワシ,スモモダイミナミトヨダ,青森県平川市李平南豊田
0360201,青森県,平川市,李平東和田,アオモリケン,ヒラカワシ,スモモダイヒガシワダ,青森県平川市李平東和田
0360201,青森県,平川市,李平東豊田,アオモリケン,ヒラカワシ,スモモダイヒガシトヨダ,青森県平川市李平東豊田
0360201,青森県,平川市,李平西和田,アオモリケン,ヒラカワシ,スモモダイニシワダ,青森県平川市李平西和田
0360201,青森県,平川市,李平西山崎,アオモリケン,ヒラカワシ,スモモダイニシヤマザキ,青森県平川市李平西山崎
0360201,青森県,平川市,李平西豊田,アオモリケン,ヒラカワシ,スモモダイニシトヨダ,青森県平川市李平西豊田
0360202,青森県,平川市,金屋上早稲田,アオモリケン,ヒラカワシ,カナヤカミワセダ,青森県平川市金屋上早稲田
0360202,青森県,平川市,金屋上松元,アオモリケン,ヒラカワシ,カナヤカミマツモト,青森県平川市金屋上松元
0360202,青森県,平川市,金屋下早稲田,アオモリケン,ヒラカワシ,カナヤシモワセダ,青森県平川市金屋下早稲田
0360202,青森県,平川市,金屋下松元,アオモリケン,ヒラカワシ,カナヤシモマツモト,青森県平川市金屋下松元
0360202,青森県,平川市,金屋中早稲田,アオモリケン,ヒラカワシ,カナヤナカワセダ,青森県平川市金屋中早稲田
0360202,青森県,平川市,金屋中松元,アオモリケン,ヒラカワシ,カナヤナカマツモト,青森県平川市金屋中松元
0360202,青森県,平川市,金屋西松元,アオモリケン,ヒラカワシ,カナヤニシマツモト,青森県平川市金屋西松元
0360203,青森県,平川市,南田中中村井,アオモリケン,ヒラカワシ,ミナミタナカナカムライ,青森県平川市南田中中村井
0360203,青森県,平川市,南田中北原,アオモリケン,ヒラカワシ,ミナミタナカキタハラ,青森県平川市南田中北原
0360203,青森県,平川市,南田中北村井,アオモリケン,ヒラカワシ,ミナミタナカキタムライ,青森県平川市南田中北村井
0360203,青森県,平川市,南田中北林元,アオモリケン,ヒラカワシ,ミナミタナカキタハヤシモト,青森県平川市南田中北林元
0360203,青森県,平川市,南田中北細田,アオモリケン,ヒラカワシ,ミナミタナカキタホソダ,青森県平川市南田中北細田
0360203,青森県,平川市,南田中南林元,アオモリケン,ヒラカワシ,ミナミタナカミナミハヤシモト,青森県平川市南田中南林元
0360203,青森県,平川市,南田中村内,アオモリケン,ヒラカワシ,ミナミタナカムラウチ,青森県平川市南田中村内
0360203,青森県,平川市,南田中東林元,アオモリケン,ヒラカワシ,ミナミタナカヒガシハヤシモト,青森県平川市南田中東林元
0360203,青森県,平川市,南田中西原,アオモリケン,ヒラカワシ,ミナミタナカニシハラ,青森県平川市南田中西原
0360203,青森県,平川市,南田中西林元,アオモリケン,ヒラカワシ,ミナミタナカニシハヤシモト,青森県平川市南田中西林元
0360211,青森県,平川市,高木原富,アオモリケン,ヒラカワシ,タカキハラトミ,青森県平川市高木原富
0360211,青森県,平川市,高木原田,アオモリケン,ヒラカワシ,タカキハラタ,青森県平川市高木原田
0360211,青森県,平川市,高木岡崎,アオモリケン,ヒラカワシ,タカキオカザキ,青森県平川市高木岡崎
0360211,青森県,平川市,高木岡田,アオモリケン,ヒラカワシ,タカキオカダ,青森県平川市高木岡田
0360211,青森県,平川市,高木岡部,アオモリケン,ヒラカワシ,タカキオカベ,青森県平川市高木岡部
0360211,青森県,平川市,高木松元,アオモリケン,ヒラカワシ,タカキマツモト,青森県平川市高木松元
0360211,青森県,平川市,高木豊岡,アオモリケン,ヒラカワシ,タカキトヨオカ,青森県平川市高木豊岡
0360211,青森県,平川市,高木豊田,アオモリケン,ヒラカワシ,タカキトヨダ,青森県平川市高木豊田
0360212,青森県,平川市,尾上栄松,アオモリケン,ヒラカワシ,オノエサカエマツ,青森県平川市尾上栄松
0360213,青森県,平川市,新屋町上沢田,アオモリケン,ヒラカワシ,アラヤマチカミサワダ,青森県平川市新屋町上沢田
0360213,青森県,平川市,新屋町下沢田,アオモリケン,ヒラカワシ,アラヤマチシモサワダ,青森県平川市新屋町下沢田
0360213,青森県,平川市,新屋町北鶉野,アオモリケン,ヒラカワシ,アラヤマチキタウズラノ,青森県平川市新屋町北鶉野
0360213,青森県,平川市,新屋町南鶉野,アオモリケン,ヒラカワシ,アラヤマチミナミウズラノ,青森県平川市新屋町南鶉野
0360213,青森県,平川市,新屋町村元,アオモリケン,ヒラカワシ,アラヤマチムラモト,青森県平川市新屋町村元
0360213,青森県,平川市,新屋町松下,アオモリケン,ヒラカワシ,アラヤマチマツシタ,青森県平川市新屋町松下
0360213,青森県,平川市,新屋町松久,アオモリケン,ヒラカワシ,アラヤマチマツヒサ,青森県平川市新屋町松久
0360213,青森県,平川市,新屋町松居,アオモリケン,ヒラカワシ,アラヤマチマツイ,青森県平川市新屋町松居
0360213,青森県,平川市,新屋町田川,アオモリケン,ヒラカワシ,アラヤマチタガワ,青森県平川市新屋町田川
0360213,青森県,平川市,新屋町道ノ下,アオモリケン,ヒラカワシ,アラヤマチミチノシタ,青森県平川市新屋町道ノ下
0360221,青森県,平川市,中佐渡前田,アオモリケン,ヒラカワシ,ナカサドマエダ,青森県平川市中佐渡前田
0360221,青森県,平川市,中佐渡南田,アオモリケン,ヒラカワシ,ナカサドミナミダ,青森県平川市中佐渡南田
0360221,青森県,平川市,中佐渡村元,アオモリケン,ヒラカワシ,ナカサドムラモト,青森県平川市中佐渡村元
0360221,青森県,平川市,中佐渡石田,アオモリケン,ヒラカワシ,ナカサドイシタ,青森県平川市中佐渡石田
0360221,青森県,平川市,中佐渡鎌田,アオモリケン,ヒラカワシ,ナカサドカマダ,青森県平川市中佐渡鎌田
0360222,青森県,平川市,長田元村,アオモリケン,ヒラカワシ,オサダモトムラ,青森県平川市長田元村
0360222,青森県,平川市,長田村下,アオモリケン,ヒラカワシ,オサダムラシタ,青森県平川市長田村下
0360222,青森県,平川市,長田沼田,アオモリケン,ヒラカワシ,オサダヌマタ,青森県平川市長田沼田
0360222,青森県,平川市,長田野田,アオモリケン,ヒラカワシ,オサダノダ,青森県平川市長田野田
0360223,青森県,平川市,西野曽江川崎,アオモリケン,ヒラカワシ,ニシノゾエカワサキ,青森県平川市西野曽江川崎
0360223,青森県,平川市,西野曽江広田,アオモリケン,ヒラカワシ,ニシノゾエヒロタ,青森県平川市西野曽江広田
0360223,青森県,平川市,西野曽江橋元,アオモリケン,ヒラカワシ,ニシノゾエハシモト,青森県平川市西野曽江橋元
0360231,青森県,平川市,新山岡部,アオモリケン,ヒラカワシ,ニイヤマオカベ,青森県平川市新山岡部
0360231,青森県,平川市,新山早稲田,アオモリケン,ヒラカワシ,ニイヤマワセダ,青森県平川市新山早稲田
0360231,青森県,平川市,新山村元,アオモリケン,ヒラカワシ,ニイヤマムラモト,青森県平川市新山村元
0360231,青森県,平川市,新山松橋,アオモリケン,ヒラカワシ,ニイヤママツハシ,青森県平川市新山松橋
0360231,青森県,平川市,新山柳田,アオモリケン,ヒラカワシ,ニイヤマヤナギダ,青森県平川市新山柳田
0360232,青森県,平川市,蒲田一本松,アオモリケン,ヒラカワシ,ガマタイッポンマツ,青森県平川市蒲田一本松
0360232,青森県,平川市,蒲田三原,アオモリケン,ヒラカワシ,ガマタミハラ,青森県平川市蒲田三原
0360232,青森県,平川市,蒲田元宮,アオモリケン,ヒラカワシ,ガマタモトミヤ,青森県平川市蒲田元宮
0360232,青森県,平川市,蒲田玉田,アオモリケン,ヒラカワシ,ガマタタマダ,青森県平川市蒲田玉田
0360232,青森県,平川市,蒲田豊富,アオモリケン,ヒラカワシ,ガマタトヨトミ,青森県平川市蒲田豊富
0360232,青森県,平川市,蒲田豊田,アオモリケン,ヒラカワシ,ガマタトヨタ,青森県平川市蒲田豊田
0360233,青森県,平川市,日沼一本柳,アオモリケン,ヒラカワシ,ヒヌマイッポンヤナギ,青森県平川市日沼一本柳
0360233,青森県,平川市,日沼下川原,アオモリケン,ヒラカワシ,ヒヌマシモカワラ,青森県平川市日沼下川原
0360233,青森県,平川市,日沼下袋,アオモリケン,ヒラカワシ,ヒヌマシモフクロ,青森県平川市日沼下袋
0360233,青森県,平川市,日沼塚越,アオモリケン,ヒラカワシ,ヒヌマツカゴシ,青森県平川市日沼塚越
0360233,青森県,平川市,日沼富岳,アオモリケン,ヒラカワシ,ヒヌマトミタケ,青森県平川市日沼富岳
0360233,青森県,平川市,日沼富田,アオモリケン,ヒラカワシ,ヒヌマトミタ,青森県平川市日沼富田
0360233,青森県,平川市,日沼李田,アオモリケン,ヒラカワシ,ヒヌマスモモダ,青森県平川市日沼李田
0360233,青森県,平川市,日沼樋田,アオモリケン,ヒラカワシ,ヒヌマトイダ,青森県平川市日沼樋田
0360233,青森県,平川市,日沼河原田,アオモリケン,ヒラカワシ,ヒヌマカワラダ,青森県平川市日沼河原田
0360233,青森県,平川市,日沼高田,アオモリケン,ヒラカワシ,ヒヌマタカダ,青森県平川市日沼高田
0360241,青森県,平川市,八幡崎宮本,アオモリケン,ヒラカワシ,ヤワタサキミヤモト,青森県平川市八幡崎宮本
0360241,青森県,平川市,八幡崎宮田,アオモリケン,ヒラカワシ,ヤワタサキミヤタ,青森県平川市八幡崎宮田
0360241,青森県,平川市,八幡崎本宮,アオモリケン,ヒラカワシ,ヤワタサキモトミヤ,青森県平川市八幡崎本宮
0360241,青森県,平川市,八幡崎本林,アオモリケン,ヒラカワシ,ヤワタサキホンバヤシ,青森県平川市八幡崎本林
0360241,青森県,平川市,八幡崎松枝,アオモリケン,ヒラカワシ,ヤワタサキマツエダ,青森県平川市八幡崎松枝
0360241,青森県,平川市,八幡崎松橋,アオモリケン,ヒラカワシ,ヤワタサキマツハシ,青森県平川市八幡崎松橋
0360241,青森県,平川市,八幡崎高原,アオモリケン,ヒラカワシ,ヤワタサキタカハラ,青森県平川市八幡崎高原
0360241,青森県,平川市,八幡崎高野,アオモリケン,ヒラカワシ,ヤワタサキタカノ,青森県平川市八幡崎高野
0360242,青森県,平川市,猿賀上岡,アオモリケン,ヒラカワシ,サルカカミオカ,青森県平川市猿賀上岡
0360242,青森県,平川市,猿賀上川,アオモリケン,ヒラカワシ,サルカカミカワ,青森県平川市猿賀上川
0360242,青森県,平川市,猿賀下岡,アオモリケン,ヒラカワシ,サルカシモオカ,青森県平川市猿賀下岡
0360242,青森県,平川市,猿賀下川,アオモリケン,ヒラカワシ,サルカシモカワ,青森県平川市猿賀下川
0360242,青森県,平川市,猿賀下野,アオモリケン,ヒラカワシ,サルカシモノ,青森県平川市猿賀下野
0360242,青森県,平川市,猿賀南田,アオモリケン,ヒラカワシ,サルカミナミタ,青森県平川市猿賀南田
0360242,青森県,平川市,猿賀南野,アオモリケン,ヒラカワシ,サルカミナミノ,青森県平川市猿賀南野
0360242,青森県,平川市,猿賀安岡,アオモリケン,ヒラカワシ,サルカヤスオカ,青森県平川市猿賀安岡
0360242,青森県,平川市,猿賀安田,アオモリケン,ヒラカワシ,サルカヤスタ,青森県平川市猿賀安田
0360242,青森県,平川市,猿賀富岡,アオモリケン,ヒラカワシ,サルカトミオカ,青森県平川市猿賀富岡
0360242,青森県,平川市,猿賀平塚,アオモリケン,ヒラカワシ,サルカヒラツカ,青森県平川市猿賀平塚
0360242,青森県,平川市,猿賀明堂,アオモリケン,ヒラカワシ,サルカミョウドウ,青森県平川市猿賀明堂
0360242,青森県,平川市,猿賀松枝,アオモリケン,ヒラカワシ,サルカマツエダ,青森県平川市猿賀松枝
0360242,青森県,平川市,猿賀池上,アオモリケン,ヒラカワシ,サルカイケガミ,青森県平川市猿賀池上
0360242,青森県,平川市,猿賀池田,アオモリケン,ヒラカワシ,サルカイケダ,青森県平川市猿賀池田
0360242,青森県,平川市,猿賀浅井,アオモリケン,ヒラカワシ,サルカアサイ,青森県平川市猿賀浅井
0360242,青森県,平川市,猿賀浅田,アオモリケン,ヒラカワシ,サルカアサダ,青森県平川市猿賀浅田
0360242,青森県,平川市,猿賀石林,アオモリケン,ヒラカワシ,サルカイシバヤシ,青森県平川市猿賀石林
0360242,青森県,平川市,猿賀遠林,アオモリケン,ヒラカワシ,サルカトオバヤシ,青森県平川市猿賀遠林
0360243,青森県,平川市,原上原,アオモリケン,ヒラカワシ,ハラカミハラ,青森県平川市原上原
0360243,青森県,平川市,原北原,アオモリケン,ヒラカワシ,ハラキタハラ,青森県平川市原北原
0360243,青森県,平川市,原大野,アオモリケン,ヒラカワシ,ハラオオノ,青森県平川市原大野
0360300,青森県,黒石市,,アオモリケン,クロイシシ,,青森県黒石市
0360301,青森県,黒石市,一番町,アオモリケン,クロイシシ,イチバンチョウ,青森県黒石市一番町
0360302,青森県,黒石市,油横丁,アオモリケン,クロイシシ,アブラヨコチョウ,青森県黒石市油横丁
0360303,青森県,黒石市,株梗木横丁,アオモリケン,クロイシシ,グミノキヨコチョウ,青森県黒石市株梗木横丁
0360304,青森県,黒石市,甲徳兵衛町,アオモリケン,クロイシシ,コウトクベエマチ,青森県黒石市甲徳兵衛町
0360305,青森県,黒石市,乙徳兵衛町,アオモリケン,クロイシシ,オツトクベエマチ,青森県黒石市乙徳兵衛町
0360306,青森県,黒石市,内町,アオモリケン,クロイシシ,ウチマチ,青森県黒石市内町
0360307,青森県,黒石市,市ノ町,アオモリケン,クロイシシ,イチノマチ,青森県黒石市市ノ町
0360308,青森県,黒石市,寺小路,アオモリケン,クロイシシ,テラコウジ,青森県黒石市寺小路
0360311,青森県,黒石市,吉乃町,アオモリケン,クロイシシ,ヨシノチョウ,青森県黒石市吉乃町
0360312,青森県,黒石市,昭和町,アオモリケン,クロイシシ,ショウワチョウ,青森県黒石市昭和町
0360313,青森県,黒石市,松葉町,アオモリケン,クロイシシ,マツバチョウ,青森県黒石市松葉町
0360314,青森県,黒石市,道北町,アオモリケン,クロイシシ,ミチキタチョウ,青森県黒石市道北町
0360315,青森県,黒石市,寿町,アオモリケン,クロイシシ,コトブキチョウ,青森県黒石市寿町
0360316,青森県,黒石市,ぐみの木,アオモリケン,クロイシシ,グミノキ,青森県黒石市ぐみの木
0360317,青森県,黒石市,住吉町,アオモリケン,クロイシシ,スミヨシチョウ,青森県黒石市住吉町
0360318,青森県,黒石市,岩木町,アオモリケン,クロイシシ,イワキチョウ,青森県黒石市岩木町
0360321,青森県,黒石市,あけぼの町,アオモリケン,クロイシシ,アケボノチョウ,青森県黒石市あけぼの町
0360322,青森県,黒石市,竹田町,アオモリケン,クロイシシ,タケダチョウ,青森県黒石市竹田町
0360323,青森県,黒石市,上十川,アオモリケン,クロイシシ,カミトガワ,青森県黒石市上十川
0360324,青森県,黒石市,東野添,アオモリケン,クロイシシ,ヒガシノゾエ,青森県黒石市東野添
0360325,青森県,黒石市,青山,アオモリケン,クロイシシ,アオヤマ,青森県黒石市青山
0360326,青森県,黒石市,野添町,アオモリケン,クロイシシ,ノゾエチョウ,青森県黒石市野添町
0360331,青森県,黒石市,八甲,アオモリケン,クロイシシ,ハッコウ,青森県黒石市八甲
0360332,青森県,黒石市,牡丹平,アオモリケン,クロイシシ,ボタンダイラ,青森県黒石市牡丹平
0360333,青森県,黒石市,柵ノ木,アオモリケン,クロイシシ,サクノキ,青森県黒石市柵ノ木
0360334,青森県,黒石市,東新町,アオモリケン,クロイシシ,ヒガシシンチョウ,青森県黒石市東新町
0360335,青森県,黒石市,幸町,アオモリケン,クロイシシ,サイワイチョウ,青森県黒石市幸町
0360336,青森県,黒石市,桜木町,アオモリケン,クロイシシ,サクラギチョウ,青森県黒石市桜木町
0360337,青森県,黒石市,角田,アオモリケン,クロイシシ,カクタ,青森県黒石市角田
0360338,青森県,黒石市,春日町,アオモリケン,クロイシシ,カスガチョウ,青森県黒石市春日町
0360339,青森県,黒石市,美原町,アオモリケン,クロイシシ,ミハラチョウ,青森県黒石市美原町
0360341,青森県,黒石市,豊岡,アオモリケン,クロイシシ,トヨオカ,青森県黒石市豊岡
0360342,青森県,黒石市,石名坂,アオモリケン,クロイシシ,イシナザカ,青森県黒石市石名坂
0360343,青森県,黒石市,浅瀬石,アオモリケン,クロイシシ,アセイシ,青森県黒石市浅瀬石
0360344,青森県,黒石市,高賀野,アオモリケン,クロイシシ,コガノ,青森県黒石市高賀野
0360345,青森県,黒石市,中川,アオモリケン,クロイシシ,ナカガワ,青森県黒石市中川
0360351,青森県,黒石市,黒石,アオモリケン,クロイシシ,クロイシ,青森県黒石市黒石
0360352,青森県,黒石市,甲大工町,アオモリケン,クロイシシ,コウダイクマチ,青森県黒石市甲大工町
0360353,青森県,黒石市,乙大工町,アオモリケン,クロイシシ,オツダイクマチ,青森県黒石市乙大工町
0360354,青森県,黒石市,後大工町,アオモリケン,クロイシシ,ウシロダイクマチ,青森県黒石市後大工町
0360355,青森県,黒石市,袋井,アオモリケン,クロイシシ,フクロイ,青森県黒石市袋井
0360356,青森県,黒石市,ちとせ,アオモリケン,クロイシシ,チトセ,青森県黒石市ちとせ
0360357,青森県,黒石市,追子野木,アオモリケン,クロイシシ,オッコノキ,青森県黒石市追子野木
0360361,青森県,黒石市,弥生町,アオモリケン,クロイシシ,ヤヨイチョウ,青森県黒石市弥生町
0360362,青森県,黒石市,京町,アオモリケン,クロイシシ,キョウマチ,青森県黒石市京町
0360363,青森県,黒石市,鍛治町,アオモリケン,クロイシシ,カジマチ,青森県黒石市鍛治町
0360364,青森県,黒石市,山形町,アオモリケン,クロイシシ,ヤマガタマチ,青森県黒石市山形町
0360365,青森県,黒石市,長崎,アオモリケン,クロイシシ,ナガサキ,青森県黒石市長崎
0360366,青森県,黒石市,浦町,アオモリケン,クロイシシ,ウラマチ,青森県黒石市浦町
0360367,青森県,黒石市,前町,アオモリケン,クロイシシ,マエマチ,青森県黒石市前町
0360368,青森県,黒石市,横町,アオモリケン,クロイシシ,ヨコマチ,青森県黒石市横町
0360371,青森県,黒石市,花園町,アオモリケン,クロイシシ,ハナゾノチョウ,青森県黒石市花園町
0360372,青森県,黒石市,錦町,アオモリケン,クロイシシ,ニシキチョウ,青森県黒石市錦町
0360373,青森県,黒石市,東町,アオモリケン,クロイシシ,アズマチョウ,青森県黒石市東町
0360374,青森県,黒石市,泉町,アオモリケン,クロイシシ,イズミチョウ,青森県黒石市泉町
0360375,青森県,黒石市,若葉町,アオモリケン,クロイシシ,ワカバチョウ,青森県黒石市若葉町
0360376,青森県,黒石市,旭町,アオモリケン,クロイシシ,アサヒチョウ,青森県黒石市旭町
0360377,青森県,黒石市,中町,アオモリケン,クロイシシ,ナカマチ,青森県黒石市中町
0360378,青森県,黒石市,浜町,アオモリケン,クロイシシ,ハママチ,青森県黒石市浜町
0360381,青森県,黒石市,株梗木,アオモリケン,クロイシシ,グミノキ,青森県黒石市株梗木
0360382,青森県,黒石市,作場町,アオモリケン,クロイシシ,サクバチョウ,青森県黒石市作場町
0360383,青森県,黒石市,緑町,アオモリケン,クロイシシ,ミドリチョウ,青森県黒石市緑町
0360384,青森県,黒石市,大町,アオモリケン,クロイシシ,オオマチ,青森県黒石市大町
0360385,青森県,黒石市,大板町,アオモリケン,クロイシシ,オオイタマチ,青森県黒石市大板町
0360386,青森県,黒石市,上町,アオモリケン,クロイシシ,カンマチ,青森県黒石市上町
0360387,青森県,黒石市,元町,アオモリケン,クロイシシ,モトマチ,青森県黒石市元町
0360388,青森県,黒石市,西ケ丘,アオモリケン,クロイシシ,ニシガオカ,青森県黒石市西ケ丘
0360389,青森県,黒石市,境松,アオモリケン,クロイシシ,サカイマツ,青森県黒石市境松
0360401,青森県,黒石市,大川原,アオモリケン,クロイシシ,オオカワラ,青森県黒石市大川原
0360402,青森県,黒石市,沖浦,アオモリケン,クロイシシ,オキウラ,青森県黒石市沖浦
0360403,青森県,黒石市,二庄内,アオモリケン,クロイシシ,ニショウナイ,青森県黒石市二庄内
0360404,青森県,黒石市,板留,アオモリケン,クロイシシ,イタドメ,青森県黒石市板留
0360405,青森県,黒石市,南中野,アオモリケン,クロイシシ,ミナミナカノ,青森県黒石市南中野
0360411,青森県,黒石市,温湯,アオモリケン,クロイシシ,ヌルユ,青森県黒石市温湯
0360412,青森県,黒石市,袋,アオモリケン,クロイシシ,フクロ,青森県黒石市袋
0360413,青森県,黒石市,花巻,アオモリケン,クロイシシ,ハナマキ,青森県黒石市花巻
0360414,青森県,黒石市,下山形,アオモリケン,クロイシシ,シモヤマガタ,青森県黒石市下山形
0360415,青森県,黒石市,上山形,アオモリケン,クロイシシ,カミヤマガタ,青森県黒石市上山形
0360501,青森県,黒石市,東馬場尻,アオモリケン,クロイシシ,ヒガシババシリ,青森県黒石市東馬場尻
0360502,青森県,黒石市,馬場尻北,アオモリケン,クロイシシ,ババシリキタ,青森県黒石市馬場尻北
0360503,青森県,黒石市,馬場尻下,アオモリケン,クロイシシ,ババシリシモ,青森県黒石市馬場尻下
0360504,青森県,黒石市,馬場尻東,アオモリケン,クロイシシ,ババシリヒガシ,青森県黒石市馬場尻東
0360505,青森県,黒石市,馬場尻南,アオモリケン,クロイシシ,ババシリミナミ,青森県黒石市馬場尻南
0360506,青森県,黒石市,馬場尻西,アオモリケン,クロイシシ,ババシリニシ,青森県黒石市馬場尻西
0360507,青森県,黒石市,西馬場尻,アオモリケン,クロイシシ,ニシババシリ,青森県黒石市西馬場尻
0360511,青森県,黒石市,小屋敷,アオモリケン,クロイシシ,コヤシキ,青森県黒石市小屋敷
0360512,青森県,黒石市,小屋敷南,アオモリケン,クロイシシ,コヤシキミナミ,青森県黒石市小屋敷南
0360513,青森県,黒石市,小屋敷西,アオモリケン,クロイシシ,コヤシキニシ,青森県黒石市小屋敷西
0360514,青森県,黒石市,富田,アオモリケン,クロイシシ,トミタ,青森県黒石市富田
0360515,青森県,黒石市,富士見,アオモリケン,クロイシシ,フジミ,青森県黒石市富士見
0360516,青森県,黒石市,相野,アオモリケン,クロイシシ,アイノ,青森県黒石市相野
0360517,青森県,黒石市,松原,アオモリケン,クロイシシ,マツバラ,青森県黒石市松原
0360521,青森県,黒石市,末広,アオモリケン,クロイシシ,スエヒロ,青森県黒石市末広
0360522,青森県,黒石市,田中,アオモリケン,クロイシシ,タナカ,青森県黒石市田中
0360523,青森県,黒石市,北田中,アオモリケン,クロイシシ,キタタナカ,青森県黒石市北田中
0360524,青森県,黒石市,緑ケ丘,アオモリケン,クロイシシ,ミドリガオカ,青森県黒石市緑ケ丘
0360531,青森県,黒石市,飛内,アオモリケン,クロイシシ,トビナイ,青森県黒石市飛内
0360532,青森県,黒石市,飛内北,アオモリケン,クロイシシ,トビナイキタ,青森県黒石市飛内北
0360533,青森県,黒石市,二双子,アオモリケン,クロイシシ,ニソウシ,青森県黒石市二双子
0360534,青森県,黒石市,竹鼻,アオモリケン,クロイシシ,タケハナ,青森県黒石市竹鼻
0360535,青森県,黒石市,高舘,アオモリケン,クロイシシ,タカダテ,青森県黒石市高舘
0360536,青森県,黒石市,三島,アオモリケン,クロイシシ,ミシマ,青森県黒石市三島
0360537,青森県,黒石市,赤坂,アオモリケン,クロイシシ,アカサカ,青森県黒石市赤坂
0360538,青森県,黒石市,上目内澤,アオモリケン,クロイシシ,カミメナイサワ,青森県黒石市上目内澤
0360539,青森県,黒石市,下目内澤,アオモリケン,クロイシシ,シモメナイサワ,青森県黒石市下目内澤
0360541,青森県,黒石市,北美町,アオモリケン,クロイシシ,キタミチョウ,青森県黒石市北美町
0360542,青森県,黒石市,野際,アオモリケン,クロイシシ,ノギワ,青森県黒石市野際
0361201,青森県,弘前市,十腰内,アオモリケン,ヒロサキシ,トコシナイ,青森県弘前市十腰内
0361202,青森県,弘前市,十面沢,アオモリケン,ヒロサキシ,トツラザワ,青森県弘前市十面沢
0361203,青森県,弘前市,大森,アオモリケン,ヒロサキシ,オオモリ,青森県弘前市大森
0361204,青森県,弘前市,貝沢,アオモリケン,ヒロサキシ,カイザワ,青森県弘前市貝沢
0361205,青森県,弘前市,鬼沢,アオモリケン,ヒロサキシ,オニザワ,青森県弘前市鬼沢
0361206,青森県,弘前市,楢木,アオモリケン,ヒロサキシ,ナラノキ,青森県弘前市楢木
0361301,青森県,弘前市,鼻和,アオモリケン,ヒロサキシ,ハナワ,青森県弘前市鼻和
0361302,青森県,弘前市,愛宕,アオモリケン,ヒロサキシ,アタゴ,青森県弘前市愛宕
0361303,青森県,弘前市,葛原,アオモリケン,ヒロサキシ,クズハラ,青森県弘前市葛原
0361304,青森県,弘前市,新岡,アオモリケン,ヒロサキシ,ニイオカ,青森県弘前市新岡
0361311,青森県,弘前市,横町,アオモリケン,ヒロサキシ,ヨコマチ,青森県弘前市横町
0361312,青森県,弘前市,高屋,アオモリケン,ヒロサキシ,タカヤ,青森県弘前市高屋
0361313,青森県,弘前市,賀田,アオモリケン,ヒロサキシ,ヨシタ,青森県弘前市賀田
0361314,青森県,弘前市,八幡,アオモリケン,ヒロサキシ,ヤワタ,青森県弘前市八幡
0361321,青森県,弘前市,熊嶋,アオモリケン,ヒロサキシ,クマジマ,青森県弘前市熊嶋
0361322,青森県,弘前市,駒越,アオモリケン,ヒロサキシ,コマゴシ,青森県弘前市駒越
0361323,青森県,弘前市,真土,アオモリケン,ヒロサキシ,マツチ,青森県弘前市真土
0361324,青森県,弘前市,龍ノ口,アオモリケン,ヒロサキシ,タツノクチ,青森県弘前市龍ノ口
0361325,青森県,弘前市,一町田,アオモリケン,ヒロサキシ,イッチョウダ,青森県弘前市一町田
0361331,青森県,弘前市,五代,アオモリケン,ヒロサキシ,ゴダイ,青森県弘前市五代
0361332,青森県,弘前市,兼平,アオモリケン,ヒロサキシ,カネヒラ,青森県弘前市兼平
0361333,青森県,弘前市,鳥井野,アオモリケン,ヒロサキシ,トリイノ,青森県弘前市鳥井野
0361334,青森県,弘前市,如来瀬,アオモリケン,ヒロサキシ,ニョライセ,青森県弘前市如来瀬
0361341,青森県,弘前市,宮地,アオモリケン,ヒロサキシ,ミヤジ,青森県弘前市宮地
0361342,青森県,弘前市,新法師,アオモリケン,ヒロサキシ,シンボウシ,青森県弘前市新法師
0361343,青森県,弘前市,百沢,アオモリケン,ヒロサキシ,ヒャクザワ,青森県弘前市百沢
0361344,青森県,弘前市,高岡,アオモリケン,ヒロサキシ,タカオカ,青森県弘前市高岡
0361345,青森県,弘前市,常盤野,アオモリケン,ヒロサキシ,トキワノ,青森県弘前市常盤野
0361361,青森県,弘前市,弥生,アオモリケン,ヒロサキシ,ヤヨイ,青森県弘前市弥生
0361400,青森県,中津軽郡西目屋村,,アオモリケン,ナカツガルグンニシメヤムラ,,青森県中津軽郡西目屋村
0361411,青森県,中津軽郡西目屋村,田代,アオモリケン,ナカツガルグンニシメヤムラ,タシロ,青森県中津軽郡西目屋村田代
0361412,青森県,中津軽郡西目屋村,杉ケ沢,アオモリケン,ナカツガルグンニシメヤムラ,スギガサワ,青森県中津軽郡西目屋村杉ケ沢
0361413,青森県,中津軽郡西目屋村,大秋,アオモリケン,ナカツガルグンニシメヤムラ,タイアキ,青森県中津軽郡西目屋村大秋
0361414,青森県,中津軽郡西目屋村,白沢,アオモリケン,ナカツガルグンニシメヤムラ,シラサワ,青森県中津軽郡西目屋村白沢
0361415,青森県,中津軽郡西目屋村,村市,アオモリケン,ナカツガルグンニシメヤムラ,ムライチ,青森県中津軽郡西目屋村村市
0361421,青森県,中津軽郡西目屋村,藤川,アオモリケン,ナカツガルグンニシメヤムラ,フジカワ,青森県中津軽郡西目屋村藤川
0361422,青森県,中津軽郡西目屋村,居森平,アオモリケン,ナカツガルグンニシメヤムラ,イモリタイ,青森県中津軽郡西目屋村居森平
0361423,青森県,中津軽郡西目屋村,砂子瀬,アオモリケン,ナカツガルグンニシメヤムラ,スナコセ,青森県中津軽郡西目屋村砂子瀬
0361424,青森県,中津軽郡西目屋村,川原平,アオモリケン,ナカツガルグンニシメヤムラ,カワラタイ,青森県中津軽郡西目屋村川原平
0361431,青森県,弘前市,高野,アオモリケン,ヒロサキシ,コウヤ,青森県弘前市高野
0361432,青森県,弘前市,館後,アオモリケン,ヒロサキシ,タテウシロ,青森県弘前市館後
0361433,青森県,弘前市,国吉,アオモリケン,ヒロサキシ,クニヨシ,青森県弘前市国吉
0361434,青森県,弘前市,黒土,アオモリケン,ヒロサキシ,クロツチ,青森県弘前市黒土
0361435,青森県,弘前市,吉川,アオモリケン,ヒロサキシ,ヨシカワ,青森県弘前市吉川
0361441,青森県,弘前市,桜庭,アオモリケン,ヒロサキシ,サクラバ,青森県弘前市桜庭
0361442,青森県,弘前市,平山,アオモリケン,ヒロサキシ,ヒラヤマ,青森県弘前市平山
0361443,青森県,弘前市,米ケ袋,アオモリケン,ヒロサキシ,ヨネガフクロ,青森県弘前市米ケ袋
0361451,青森県,弘前市,中野（その他）,アオモリケン,ヒロサキシ,ナカノ(ソノタ),青森県弘前市中野（その他）
0361452,青森県,弘前市,中畑,アオモリケン,ヒロサキシ,ナカハタ,青森県弘前市中畑
0361453,青森県,弘前市,番館,アオモリケン,ヒロサキシ,バンダテ,青森県弘前市番館
0361501,青森県,弘前市,湯口,アオモリケン,ヒロサキシ,ユグチ,青森県弘前市湯口
0361502,青森県,弘前市,黒滝,アオモリケン,ヒロサキシ,クロタキ,青森県弘前市黒滝
0361503,青森県,弘前市,五所,アオモリケン,ヒロサキシ,ゴショ,青森県弘前市五所
0361504,青森県,弘前市,紙漉沢,アオモリケン,ヒロサキシ,カミスキサワ,青森県弘前市紙漉沢
0361505,青森県,弘前市,水木在家,アオモリケン,ヒロサキシ,ミズキザイケ,青森県弘前市水木在家
0361506,青森県,弘前市,昴,アオモリケン,ヒロサキシ,スバル,青森県弘前市昴
0361511,青森県,弘前市,坂市,アオモリケン,ヒロサキシ,サカイチ,青森県弘前市坂市
0361512,青森県,弘前市,藤沢,アオモリケン,ヒロサキシ,フジサワ,青森県弘前市藤沢
0361513,青森県,弘前市,大助,アオモリケン,ヒロサキシ,オオスケ,青森県弘前市大助
0361514,青森県,弘前市,沢田,アオモリケン,ヒロサキシ,サワダ,青森県弘前市沢田
0361515,青森県,弘前市,相馬,アオモリケン,ヒロサキシ,ソウマ,青森県弘前市相馬
0361516,青森県,弘前市,藍内,アオモリケン,ヒロサキシ,アイナイ,青森県弘前市藍内
0368001,青森県,弘前市,代官町,アオモリケン,ヒロサキシ,ダイカンチョウ,青森県弘前市代官町
0368002,青森県,弘前市,駅前,アオモリケン,ヒロサキシ,エキマエ,青森県弘前市駅前
0368003,青森県,弘前市,駅前町,アオモリケン,ヒロサキシ,エキマエチョウ,青森県弘前市駅前町
0368004,青森県,弘前市,大町,アオモリケン,ヒロサキシ,オオマチ,青森県弘前市大町
0368005,青森県,弘前市,楮町,アオモリケン,ヒロサキシ,コウジマチ,青森県弘前市楮町
0368006,青森県,弘前市,南大町,アオモリケン,ヒロサキシ,ミナミオオマチ,青森県弘前市南大町
0368011,青森県,弘前市,山下町,アオモリケン,ヒロサキシ,ヤマシタチョウ,青森県弘前市山下町
0368012,青森県,弘前市,北瓦ケ町,アオモリケン,ヒロサキシ,キタカワラケチョウ,青森県弘前市北瓦ケ町
0368013,青森県,弘前市,上瓦ケ町,アオモリケン,ヒロサキシ,カミカワラケチョウ,青森県弘前市上瓦ケ町
0368014,青森県,弘前市,南瓦ケ町,アオモリケン,ヒロサキシ,ミナミカワラケチョウ,青森県弘前市南瓦ケ町
0368015,青森県,弘前市,中瓦ケ町,アオモリケン,ヒロサキシ,ナカカワラケチョウ,青森県弘前市中瓦ケ町
0368016,青森県,弘前市,坂本町,アオモリケン,ヒロサキシ,サカモトチョウ,青森県弘前市坂本町
0368017,青森県,弘前市,西川岸町,アオモリケン,ヒロサキシ,ニシカワギシチョウ,青森県弘前市西川岸町
0368018,青森県,弘前市,田代町,アオモリケン,ヒロサキシ,タシロチョウ,青森県弘前市田代町
0368021,青森県,弘前市,和徳町,アオモリケン,ヒロサキシ,ワトクマチ,青森県弘前市和徳町
0368022,青森県,弘前市,萱町,アオモリケン,ヒロサキシ,カヤチョウ,青森県弘前市萱町
0368023,青森県,弘前市,植田町,アオモリケン,ヒロサキシ,ウエダチョウ,青森県弘前市植田町
0368024,青森県,弘前市,緑町,アオモリケン,ヒロサキシ,ミドリチョウ,青森県弘前市緑町
0368025,青森県,弘前市,南柳町,アオモリケン,ヒロサキシ,ミナミヤナギチョウ,青森県弘前市南柳町
0368026,青森県,弘前市,南横町,アオモリケン,ヒロサキシ,ミナミヨコチョウ,青森県弘前市南横町
0368031,青森県,弘前市,北柳町,アオモリケン,ヒロサキシ,キタヤナギチョウ,青森県弘前市北柳町
0368032,青森県,弘前市,徳田町,アオモリケン,ヒロサキシ,トクダチョウ,青森県弘前市徳田町
0368033,青森県,弘前市,徒町川端町,アオモリケン,ヒロサキシ,オカチマチカワバタチョウ,青森県弘前市徒町川端町
0368034,青森県,弘前市,徒町,アオモリケン,ヒロサキシ,オカチマチ,青森県弘前市徒町
0368035,青森県,弘前市,百石町,アオモリケン,ヒロサキシ,ヒャッコクマチ,青森県弘前市百石町
0368036,青森県,弘前市,鉄砲町,アオモリケン,ヒロサキシ,テッポウマチ,青森県弘前市鉄砲町
0368041,青森県,弘前市,俵元,アオモリケン,ヒロサキシ,タワラモト,青森県弘前市俵元
0368042,青森県,弘前市,松ケ枝,アオモリケン,ヒロサキシ,マツガエ,青森県弘前市松ケ枝
0368043,青森県,弘前市,東和徳町,アオモリケン,ヒロサキシ,ヒガシワトクマチ,青森県弘前市東和徳町
0368044,青森県,弘前市,茶畑町,アオモリケン,ヒロサキシ,チャバタケチョウ,青森県弘前市茶畑町
0368045,青森県,弘前市,野田,アオモリケン,ヒロサキシ,ノダ,青森県弘前市野田
0368046,青森県,弘前市,北横町,アオモリケン,ヒロサキシ,キタヨコチョウ,青森県弘前市北横町
0368051,青森県,弘前市,宮川,アオモリケン,ヒロサキシ,ミヤカワ,青森県弘前市宮川
0368052,青森県,弘前市,堅田,アオモリケン,ヒロサキシ,カタダ,青森県弘前市堅田
0368053,青森県,弘前市,和泉,アオモリケン,ヒロサキシ,ワイズミ,青森県弘前市和泉
0368054,青森県,弘前市,田町,アオモリケン,ヒロサキシ,タマチ,青森県弘前市田町
0368055,青森県,弘前市,田茂木町,アオモリケン,ヒロサキシ,タモギマチ,青森県弘前市田茂木町
0368056,青森県,弘前市,禰宜町,アオモリケン,ヒロサキシ,ネギマチ,青森県弘前市禰宜町
0368057,青森県,弘前市,八幡町,アオモリケン,ヒロサキシ,ハチマンチョウ,青森県弘前市八幡町
0368061,青森県,弘前市,神田,アオモリケン,ヒロサキシ,カンダ,青森県弘前市神田
0368062,青森県,弘前市,青山,アオモリケン,ヒロサキシ,アオヤマ,青森県弘前市青山
0368063,青森県,弘前市,宮園,アオモリケン,ヒロサキシ,ミヤゾノ,青森県弘前市宮園
0368064,青森県,弘前市,東城北,アオモリケン,ヒロサキシ,ヒガシジョウホク,青森県弘前市東城北
0368065,青森県,弘前市,西城北,アオモリケン,ヒロサキシ,ニシジョウホク,青森県弘前市西城北
0368066,青森県,弘前市,向外瀬,アオモリケン,ヒロサキシ,ムカイトノセ,青森県弘前市向外瀬
0368071,青森県,弘前市,大久保,アオモリケン,ヒロサキシ,オオクボ,青森県弘前市大久保
0368072,青森県,弘前市,清野袋,アオモリケン,ヒロサキシ,セイノフクロ,青森県弘前市清野袋
0368073,青森県,弘前市,岩賀,アオモリケン,ヒロサキシ,イワカ,青森県弘前市岩賀
0368074,青森県,弘前市,津賀野（瀬ノ上）,アオモリケン,ヒロサキシ,ツカノ(セノウエ),青森県弘前市津賀野（瀬ノ上）
0368075,青森県,弘前市,撫牛子,アオモリケン,ヒロサキシ,ナイジョウシ,青森県弘前市撫牛子
0368076,青森県,弘前市,境関,アオモリケン,ヒロサキシ,サカイゼキ,青森県弘前市境関
0368081,青森県,弘前市,福田,アオモリケン,ヒロサキシ,フクダ,青森県弘前市福田
0368082,青森県,弘前市,福村,アオモリケン,ヒロサキシ,フクムラ,青森県弘前市福村
0368083,青森県,弘前市,新里,アオモリケン,ヒロサキシ,ニサト,青森県弘前市新里
0368084,青森県,弘前市,高田,アオモリケン,ヒロサキシ,タカダ,青森県弘前市高田
0368085,青森県,弘前市,末広,アオモリケン,ヒロサキシ,スエヒロ,青森県弘前市末広
0368086,青森県,弘前市,田園,アオモリケン,ヒロサキシ,デンエン,青森県弘前市田園
0368087,青森県,弘前市,早稲田,アオモリケン,ヒロサキシ,ワセダ,青森県弘前市早稲田
0368091,青森県,弘前市,高崎,アオモリケン,ヒロサキシ,タカサキ,青森県弘前市高崎
0368092,青森県,弘前市,城東北,アオモリケン,ヒロサキシ,ジョウトウキタ,青森県弘前市城東北
0368093,青森県,弘前市,城東中央,アオモリケン,ヒロサキシ,ジョウトウチュウオウ,青森県弘前市城東中央
0368094,青森県,弘前市,外崎,アオモリケン,ヒロサキシ,トノサキ,青森県弘前市外崎
0368095,青森県,弘前市,城東,アオモリケン,ヒロサキシ,ジョウトウ,青森県弘前市城東
0368096,青森県,弘前市,表町,アオモリケン,ヒロサキシ,オモテマチ,青森県弘前市表町
0368097,青森県,弘前市,稲田,アオモリケン,ヒロサキシ,イナダ,青森県弘前市稲田
0368101,青森県,弘前市,豊田,アオモリケン,ヒロサキシ,トヨダ,青森県弘前市豊田
0368102,青森県,弘前市,小比内,アオモリケン,ヒロサキシ,サンピナイ,青森県弘前市小比内
0368103,青森県,弘前市,川先,アオモリケン,ヒロサキシ,カワサキ,青森県弘前市川先
0368104,青森県,弘前市,扇町,アオモリケン,ヒロサキシ,オウギマチ,青森県弘前市扇町
0368111,青森県,弘前市,門外,アオモリケン,ヒロサキシ,カドケ,青森県弘前市門外
0368112,青森県,弘前市,堀越,アオモリケン,ヒロサキシ,ホリコシ,青森県弘前市堀越
0368113,青森県,弘前市,清水森,アオモリケン,ヒロサキシ,シミズモリ,青森県弘前市清水森
0368114,青森県,弘前市,川合,アオモリケン,ヒロサキシ,カワイ,青森県弘前市川合
0368115,青森県,弘前市,広野,アオモリケン,ヒロサキシ,ヒロノ,青森県弘前市広野
0368121,青森県,弘前市,薬師堂,アオモリケン,ヒロサキシ,ヤクシドウ,青森県弘前市薬師堂
0368122,青森県,弘前市,乳井,アオモリケン,ヒロサキシ,ニュウイ,青森県弘前市乳井
0368123,青森県,弘前市,小金崎,アオモリケン,ヒロサキシ,コガネザキ,青森県弘前市小金崎
0368124,青森県,弘前市,石川,アオモリケン,ヒロサキシ,イシカワ,青森県弘前市石川
0368125,青森県,弘前市,大沢,アオモリケン,ヒロサキシ,オオサワ,青森県弘前市大沢
0368126,青森県,弘前市,松木平,アオモリケン,ヒロサキシ,マツキタイ,青森県弘前市松木平
0368127,青森県,弘前市,小栗山,アオモリケン,ヒロサキシ,コグリヤマ,青森県弘前市小栗山
0368131,青森県,弘前市,千年,アオモリケン,ヒロサキシ,チトセ,青森県弘前市千年
0368132,青森県,弘前市,狼森,アオモリケン,ヒロサキシ,オイノモリ,青森県弘前市狼森
0368133,青森県,弘前市,大和沢,アオモリケン,ヒロサキシ,オオワサワ,青森県弘前市大和沢
0368134,青森県,弘前市,一野渡,アオモリケン,ヒロサキシ,イチノワタリ,青森県弘前市一野渡
0368141,青森県,弘前市,松原東,アオモリケン,ヒロサキシ,マツバラヒガシ,青森県弘前市松原東
0368142,青森県,弘前市,松原西,アオモリケン,ヒロサキシ,マツバラニシ,青森県弘前市松原西
0368143,青森県,弘前市,富士見台,アオモリケン,ヒロサキシ,フジミダイ,青森県弘前市富士見台
0368144,青森県,弘前市,原ケ平,アオモリケン,ヒロサキシ,ハラガタイ,青森県弘前市原ケ平
0368151,青森県,弘前市,北園,アオモリケン,ヒロサキシ,キタゾノ,青森県弘前市北園
0368152,青森県,弘前市,学園町,アオモリケン,ヒロサキシ,ガクエンチョウ,青森県弘前市学園町
0368153,青森県,弘前市,三岳町,アオモリケン,ヒロサキシ,ミタケチョウ,青森県弘前市三岳町
0368154,青森県,弘前市,豊原,アオモリケン,ヒロサキシ,トヨハラ,青森県弘前市豊原
0368155,青森県,弘前市,中野（丁目）,アオモリケン,ヒロサキシ,ナカノ(チョウメ),青森県弘前市中野（丁目）
0368161,青森県,弘前市,大清水,アオモリケン,ヒロサキシ,オオシミズ,青森県弘前市大清水
0368162,青森県,弘前市,安原,アオモリケン,ヒロサキシ,ヤスハラ,青森県弘前市安原
0368163,青森県,弘前市,清原,アオモリケン,ヒロサキシ,キヨハラ,青森県弘前市清原
0368164,青森県,弘前市,泉野,アオモリケン,ヒロサキシ,イズミノ,青森県弘前市泉野
0368171,青森県,弘前市,取上,アオモリケン,ヒロサキシ,トリアゲ,青森県弘前市取上
0368172,青森県,弘前市,南富田町,アオモリケン,ヒロサキシ,ミナミトミタマチ,青森県弘前市南富田町
0368173,青森県,弘前市,富田町,アオモリケン,ヒロサキシ,トミタマチ,青森県弘前市富田町
0368174,青森県,弘前市,富野町,アオモリケン,ヒロサキシ,トミノチョウ,青森県弘前市富野町
0368175,青森県,弘前市,大富町,アオモリケン,ヒロサキシ,オオトミチョウ,青森県弘前市大富町
0368181,青森県,弘前市,山道町,アオモリケン,ヒロサキシ,ヤマミチチョウ,青森県弘前市山道町
0368182,青森県,弘前市,土手町,アオモリケン,ヒロサキシ,ドテマチ,青森県弘前市土手町
0368183,青森県,弘前市,品川町,アオモリケン,ヒロサキシ,シナカワマチ,青森県弘前市品川町
0368184,青森県,弘前市,松森町,アオモリケン,ヒロサキシ,マツモリマチ,青森県弘前市松森町
0368185,青森県,弘前市,御幸町,アオモリケン,ヒロサキシ,ミユキチョウ,青森県弘前市御幸町
0368186,青森県,弘前市,富田,アオモリケン,ヒロサキシ,トミタ,青森県弘前市富田
0368187,青森県,弘前市,住吉町,アオモリケン,ヒロサキシ,スミヨシチョウ,青森県弘前市住吉町
0368188,青森県,弘前市,吉野町,アオモリケン,ヒロサキシ,ヨシノチョウ,青森県弘前市吉野町
0368191,青森県,弘前市,親方町,アオモリケン,ヒロサキシ,オヤカタマチ,青森県弘前市親方町
0368192,青森県,弘前市,鍛冶町,アオモリケン,ヒロサキシ,カジマチ,青森県弘前市鍛冶町
0368193,青森県,弘前市,新鍛冶町,アオモリケン,ヒロサキシ,シンカジマチ,青森県弘前市新鍛冶町
0368194,青森県,弘前市,北川端町,アオモリケン,ヒロサキシ,キタカワバタチョウ,青森県弘前市北川端町
0368195,青森県,弘前市,南川端町,アオモリケン,ヒロサキシ,ミナミカワバタチョウ,青森県弘前市南川端町
0368196,青森県,弘前市,銅屋町,アオモリケン,ヒロサキシ,ドウヤマチ,青森県弘前市銅屋町
0368197,青森県,弘前市,桶屋町,アオモリケン,ヒロサキシ,オケヤマチ,青森県弘前市桶屋町
0368198,青森県,弘前市,元長町,アオモリケン,ヒロサキシ,モトナガマチ,青森県弘前市元長町
0368201,青森県,弘前市,一番町,アオモリケン,ヒロサキシ,イチバンチョウ,青森県弘前市一番町
0368202,青森県,弘前市,元大工町,アオモリケン,ヒロサキシ,モトダイクマチ,青森県弘前市元大工町
0368203,青森県,弘前市,本町,アオモリケン,ヒロサキシ,ホンチョウ,青森県弘前市本町
0368204,青森県,弘前市,覚仙町,アオモリケン,ヒロサキシ,カクセンチョウ,青森県弘前市覚仙町
0368205,青森県,弘前市,森町,アオモリケン,ヒロサキシ,モリチョウ,青森県弘前市森町
0368206,青森県,弘前市,塩分町,アオモリケン,ヒロサキシ,シオワケマチ,青森県弘前市塩分町
0368207,青森県,弘前市,上白銀町,アオモリケン,ヒロサキシ,カミシロガネチョウ,青森県弘前市上白銀町
0368211,青森県,弘前市,相良町,アオモリケン,ヒロサキシ,サガラチョウ,青森県弘前市相良町
0368212,青森県,弘前市,南塘町,アオモリケン,ヒロサキシ,ナントウチョウ,青森県弘前市南塘町
0368213,青森県,弘前市,北新寺町,アオモリケン,ヒロサキシ,キタシンテラマチ,青森県弘前市北新寺町
0368214,青森県,弘前市,新寺町,アオモリケン,ヒロサキシ,シンテラマチ,青森県弘前市新寺町
0368215,青森県,弘前市,新寺町新割町,アオモリケン,ヒロサキシ,シンテラマチシンワリチョウ,青森県弘前市新寺町新割町
0368216,青森県,弘前市,在府町,アオモリケン,ヒロサキシ,ザイフチョウ,青森県弘前市在府町
0368217,青森県,弘前市,茂森町,アオモリケン,ヒロサキシ,シゲモリマチ,青森県弘前市茂森町
0368221,青森県,弘前市,紙漉町,アオモリケン,ヒロサキシ,カミスキマチ,青森県弘前市紙漉町
0368222,青森県,弘前市,桜林町,アオモリケン,ヒロサキシ,サクラバヤシチョウ,青森県弘前市桜林町
0368223,青森県,弘前市,富士見町,アオモリケン,ヒロサキシ,フジミチョウ,青森県弘前市富士見町
0368224,青森県,弘前市,文京町,アオモリケン,ヒロサキシ,ブンキョウチョウ,青森県弘前市文京町
0368225,青森県,弘前市,西ケ丘町,アオモリケン,ヒロサキシ,ニシガオカチョウ,青森県弘前市西ケ丘町
0368226,青森県,弘前市,寒沢町,アオモリケン,ヒロサキシ,カンザワチョウ,青森県弘前市寒沢町
0368227,青森県,弘前市,桔梗野,アオモリケン,ヒロサキシ,キキョウノ,青森県弘前市桔梗野
0368228,青森県,弘前市,樹木,アオモリケン,ヒロサキシ,ジュモク,青森県弘前市樹木
0368231,青森県,弘前市,稔町,アオモリケン,ヒロサキシ,ミノリチョウ,青森県弘前市稔町
0368232,青森県,弘前市,城南,アオモリケン,ヒロサキシ,ジョウナン,青森県弘前市城南
0368233,青森県,弘前市,山崎,アオモリケン,ヒロサキシ,ヤマザキ,青森県弘前市山崎
0368234,青森県,弘前市,館野,アオモリケン,ヒロサキシ,タテノ,青森県弘前市館野
0368241,青森県,弘前市,桜ケ丘,アオモリケン,ヒロサキシ,サクラガオカ,青森県弘前市桜ケ丘
0368242,青森県,弘前市,大原,アオモリケン,ヒロサキシ,オオハラ,青森県弘前市大原
0368243,青森県,弘前市,小沢,アオモリケン,ヒロサキシ,コザワ,青森県弘前市小沢
0368244,青森県,弘前市,坂元,アオモリケン,ヒロサキシ,サカモト,青森県弘前市坂元
0368245,青森県,弘前市,金属町,アオモリケン,ヒロサキシ,キンゾクチョウ,青森県弘前市金属町
0368246,青森県,弘前市,青樹町,アオモリケン,ヒロサキシ,アオキチョウ,青森県弘前市青樹町
0368247,青森県,弘前市,大開,アオモリケン,ヒロサキシ,オオビラキ,青森県弘前市大開
0368251,青森県,弘前市,清富町,アオモリケン,ヒロサキシ,キヨトミチョウ,青森県弘前市清富町
0368252,青森県,弘前市,旭ケ丘,アオモリケン,ヒロサキシ,アサヒガオカ,青森県弘前市旭ケ丘
0368253,青森県,弘前市,緑ケ丘,アオモリケン,ヒロサキシ,ミドリガオカ,青森県弘前市緑ケ丘
0368254,青森県,弘前市,清水,アオモリケン,ヒロサキシ,シミズ,青森県弘前市清水
0368255,青森県,弘前市,若葉,アオモリケン,ヒロサキシ,ワカバ,青森県弘前市若葉
0368261,青森県,弘前市,茂森新町,アオモリケン,ヒロサキシ,シゲモリシンチョウ,青森県弘前市茂森新町
0368262,青森県,弘前市,清水富田,アオモリケン,ヒロサキシ,シミズトミタ,青森県弘前市清水富田
0368263,青森県,弘前市,常盤坂,アオモリケン,ヒロサキシ,トキワザカ,青森県弘前市常盤坂
0368264,青森県,弘前市,悪戸,アオモリケン,ヒロサキシ,アクド,青森県弘前市悪戸
0368265,青森県,弘前市,下湯口,アオモリケン,ヒロサキシ,シモユグチ,青森県弘前市下湯口
0368266,青森県,弘前市,自由ケ丘,アオモリケン,ヒロサキシ,ジユウガオカ,青森県弘前市自由ケ丘
0368271,青森県,弘前市,鷹匠町,アオモリケン,ヒロサキシ,タカジョウマチ,青森県弘前市鷹匠町
0368272,青森県,弘前市,南袋町,アオモリケン,ヒロサキシ,ミナミフクロマチ,青森県弘前市南袋町
0368273,青森県,弘前市,西茂森,アオモリケン,ヒロサキシ,ニシシゲモリ,青森県弘前市西茂森
0368274,青森県,弘前市,南城西,アオモリケン,ヒロサキシ,ミナミジョウセイ,青森県弘前市南城西
0368275,青森県,弘前市,城西,アオモリケン,ヒロサキシ,ジョウセイ,青森県弘前市城西
0368276,青森県,弘前市,樋の口町,アオモリケン,ヒロサキシ,ヒノクチマチ,青森県弘前市樋の口町
0368277,青森県,弘前市,河原町,アオモリケン,ヒロサキシ,カワハラチョウ,青森県弘前市河原町
0368278,青森県,弘前市,樋の口,アオモリケン,ヒロサキシ,ヒノクチ,青森県弘前市樋の口
0368279,青森県,弘前市,茜町,アオモリケン,ヒロサキシ,アカネチョウ,青森県弘前市茜町
0368301,青森県,弘前市,糠坪,アオモリケン,ヒロサキシ,ヌカツボ,青森県弘前市糠坪
0368302,青森県,弘前市,高杉,アオモリケン,ヒロサキシ,タカスギ,青森県弘前市高杉
0368303,青森県,弘前市,前坂,アオモリケン,ヒロサキシ,マエザカ,青森県弘前市前坂
0368311,青森県,弘前市,大川,アオモリケン,ヒロサキシ,オオカワ,青森県弘前市大川
0368312,青森県,弘前市,三世寺,アオモリケン,ヒロサキシ,サンゼジ,青森県弘前市三世寺
0368313,青森県,弘前市,中崎,アオモリケン,ヒロサキシ,ナカザキ,青森県弘前市中崎
0368314,青森県,弘前市,町田,アオモリケン,ヒロサキシ,マチダ,青森県弘前市町田
0368315,青森県,弘前市,船水,アオモリケン,ヒロサキシ,フナミズ,青森県弘前市船水
0368316,青森県,弘前市,石渡,アオモリケン,ヒロサキシ,イシワタリ,青森県弘前市石渡
0368317,青森県,弘前市,外瀬,アオモリケン,ヒロサキシ,トノセ,青森県弘前市外瀬
0368318,青森県,弘前市,八代町,アオモリケン,ヒロサキシ,ヤシロマチ,青森県弘前市八代町
0368319,青森県,弘前市,藤内町,アオモリケン,ヒロサキシ,トウナイマチ,青森県弘前市藤内町
0368321,青森県,弘前市,萢中,アオモリケン,ヒロサキシ,ヤチナカ,青森県弘前市萢中
0368323,青森県,弘前市,浜の町東,アオモリケン,ヒロサキシ,ハマノマチヒガシ,青森県弘前市浜の町東
0368324,青森県,弘前市,浜の町西,アオモリケン,ヒロサキシ,ハマノマチニシ,青森県弘前市浜の町西
0368325,青森県,弘前市,浜の町北,アオモリケン,ヒロサキシ,ハマノマチキタ,青森県弘前市浜の町北
0368326,青森県,弘前市,藤野,アオモリケン,ヒロサキシ,フジノ,青森県弘前市藤野
0368331,青森県,弘前市,小人町,アオモリケン,ヒロサキシ,コビトチョウ,青森県弘前市小人町
0368332,青森県,弘前市,亀甲町,アオモリケン,ヒロサキシ,カメノコウマチ,青森県弘前市亀甲町
0368333,青森県,弘前市,若党町,アオモリケン,ヒロサキシ,ワカドウチョウ,青森県弘前市若党町
0368334,青森県,弘前市,馬喰町,アオモリケン,ヒロサキシ,バクロチョウ,青森県弘前市馬喰町
0368335,青森県,弘前市,春日町,アオモリケン,ヒロサキシ,カスガチョウ,青森県弘前市春日町
0368336,青森県,弘前市,栄町,アオモリケン,ヒロサキシ,サカエマチ,青森県弘前市栄町
0368341,青森県,弘前市,山王町,アオモリケン,ヒロサキシ,サンノウチョウ,青森県弘前市山王町
0368342,青森県,弘前市,笹森町,アオモリケン,ヒロサキシ,ササモリチョウ,青森県弘前市笹森町
0368343,青森県,弘前市,東長町,アオモリケン,ヒロサキシ,ヒガシナガマチ,青森県弘前市東長町
0368344,青森県,弘前市,長坂町,アオモリケン,ヒロサキシ,ナガサカチョウ,青森県弘前市長坂町
0368345,青森県,弘前市,蔵主町,アオモリケン,ヒロサキシ,クラヌシチョウ,青森県弘前市蔵主町
0368346,青森県,弘前市,大浦町,アオモリケン,ヒロサキシ,オオウラマチ,青森県弘前市大浦町
0368351,青森県,弘前市,百石町小路,アオモリケン,ヒロサキシ,ヒャッコクマチコウジ,青森県弘前市百石町小路
0368352,青森県,弘前市,元寺町小路,アオモリケン,ヒロサキシ,モトテラマチコウジ,青森県弘前市元寺町小路
0368353,青森県,弘前市,下鞘師町,アオモリケン,ヒロサキシ,シモサヤシマチ,青森県弘前市下鞘師町
0368354,青森県,弘前市,上鞘師町,アオモリケン,ヒロサキシ,カミサヤシマチ,青森県弘前市上鞘師町
0368355,青森県,弘前市,元寺町,アオモリケン,ヒロサキシ,モトテラマチ,青森県弘前市元寺町
0368356,青森県,弘前市,下白銀町,アオモリケン,ヒロサキシ,シモシロガネチョウ,青森県弘前市下白銀町
0368357,青森県,弘前市,馬屋町,アオモリケン,ヒロサキシ,マヤチョウ,青森県弘前市馬屋町
0368361,青森県,弘前市,紺屋町,アオモリケン,ヒロサキシ,コンヤマチ,青森県弘前市紺屋町
0368362,青森県,弘前市,五十石町,アオモリケン,ヒロサキシ,ゴジツコクマチ,青森県弘前市五十石町
0368363,青森県,弘前市,袋町,アオモリケン,ヒロサキシ,フクロマチ,青森県弘前市袋町
0368364,青森県,弘前市,新町,アオモリケン,ヒロサキシ,アラマチ,青森県弘前市新町
0368365,青森県,弘前市,西大工町,アオモリケン,ヒロサキシ,ニシダイクマチ,青森県弘前市西大工町
0368366,青森県,弘前市,駒越町,アオモリケン,ヒロサキシ,コマゴシマチ,青森県弘前市駒越町
0368367,青森県,弘前市,平岡町,アオモリケン,ヒロサキシ,ヒラオカマチ,青森県弘前市平岡町
0368368,青森県,弘前市,和田町,アオモリケン,ヒロサキシ,ワダチョウ,青森県弘前市和田町
0368371,青森県,弘前市,蒔苗,アオモリケン,ヒロサキシ,マカナエ,青森県弘前市蒔苗
0368372,青森県,弘前市,元薬師堂,アオモリケン,ヒロサキシ,モトヤクシドウ,青森県弘前市元薬師堂
0368373,青森県,弘前市,藤代,アオモリケン,ヒロサキシ,フジシロ,青森県弘前市藤代
0368374,青森県,弘前市,土堂,アオモリケン,ヒロサキシ,ツチドウ,青森県弘前市土堂
0368375,青森県,弘前市,細越,アオモリケン,ヒロサキシ,ホソゴエ,青森県弘前市細越
0368381,青森県,弘前市,独狐,アオモリケン,ヒロサキシ,トッコ,青森県弘前市独狐
0368382,青森県,弘前市,富栄,アオモリケン,ヒロサキシ,トミサカエ,青森県弘前市富栄
0368383,青森県,弘前市,折笠,アオモリケン,ヒロサキシ,オリカサ,青森県弘前市折笠
0368384,青森県,弘前市,宮舘,アオモリケン,ヒロサキシ,ミヤダテ,青森県弘前市宮舘
0368385,青森県,弘前市,中別所,アオモリケン,ヒロサキシ,ナカベッショ,青森県弘前市中別所
0370000,青森県,五所川原市,,アオモリケン,ゴショガワラシ,,青森県五所川原市
0370001,青森県,五所川原市,下岩崎,アオモリケン,ゴショガワラシ,シモイワサキ,青森県五所川原市下岩崎
0370002,青森県,五所川原市,飯詰,アオモリケン,ゴショガワラシ,イイヅメ,青森県五所川原市飯詰
0370003,青森県,五所川原市,吹畑,アオモリケン,ゴショガワラシ,フキハタ,青森県五所川原市吹畑
0370004,青森県,五所川原市,唐笠柳,アオモリケン,ゴショガワラシ,カラカサヤナギ,青森県五所川原市唐笠柳
0370005,青森県,五所川原市,石岡,アオモリケン,ゴショガワラシ,イシオカ,青森県五所川原市石岡
0370006,青森県,五所川原市,松島町,アオモリケン,ゴショガワラシ,マツシマチョウ,青森県五所川原市松島町
0370011,青森県,五所川原市,金山,アオモリケン,ゴショガワラシ,カネヤマ,青森県五所川原市金山
0370012,青森県,五所川原市,水野尾,アオモリケン,ゴショガワラシ,ミズノオ,青森県五所川原市水野尾
0370013,青森県,五所川原市,米田,アオモリケン,ゴショガワラシ,ヨネタ,青森県五所川原市米田
0370014,青森県,五所川原市,稲実,アオモリケン,ゴショガワラシ,イナミ,青森県五所川原市稲実
0370015,青森県,五所川原市,姥萢,アオモリケン,ゴショガワラシ,ウバヤチ,青森県五所川原市姥萢
0370016,青森県,五所川原市,一ツ谷,アオモリケン,ゴショガワラシ,ヒトツヤ,青森県五所川原市一ツ谷
0370017,青森県,五所川原市,漆川,アオモリケン,ゴショガワラシ,ウルシカワ,青森県五所川原市漆川
0370021,青森県,五所川原市,中泉,アオモリケン,ゴショガワラシ,ナカイズミ,青森県五所川原市中泉
0370022,青森県,五所川原市,梅田,アオモリケン,ゴショガワラシ,ウメタ,青森県五所川原市梅田
0370023,青森県,五所川原市,広田,アオモリケン,ゴショガワラシ,ヒロタ,青森県五所川原市広田
0370024,青森県,五所川原市,みどり町,アオモリケン,ゴショガワラシ,ミドリチョウ,青森県五所川原市みどり町
0370025,青森県,五所川原市,七ツ館,アオモリケン,ゴショガワラシ,ナナツダテ,青森県五所川原市七ツ館
0370032,青森県,五所川原市,烏森,アオモリケン,ゴショガワラシ,カラスモリ,青森県五所川原市烏森
0370033,青森県,五所川原市,鎌谷町,アオモリケン,ゴショガワラシ,カマヤチョウ,青森県五所川原市鎌谷町
0370034,青森県,五所川原市,八重菊,アオモリケン,ゴショガワラシ,ヤエギク,青森県五所川原市八重菊
0370035,青森県,五所川原市,湊,アオモリケン,ゴショガワラシ,ミナト,青森県五所川原市湊
0370036,青森県,五所川原市,中央,アオモリケン,ゴショガワラシ,チュウオウ,青森県五所川原市中央
0370041,青森県,五所川原市,田町,アオモリケン,ゴショガワラシ,タマチ,青森県五所川原市田町
0370042,青森県,五所川原市,不魚住,アオモリケン,ゴショガワラシ,ウオスマズ,青森県五所川原市不魚住
0370043,青森県,五所川原市,蓮沼,アオモリケン,ゴショガワラシ,ハスヌマ,青森県五所川原市蓮沼
0370044,青森県,五所川原市,元町,アオモリケン,ゴショガワラシ,モトマチ,青森県五所川原市元町
0370045,青森県,五所川原市,新町,アオモリケン,ゴショガワラシ,シンマチ,青森県五所川原市新町
0370046,青森県,五所川原市,栄町,アオモリケン,ゴショガワラシ,サカエマチ,青森県五所川原市栄町
0370051,青森県,五所川原市,弥生町,アオモリケン,ゴショガワラシ,ヤヨイチョウ,青森県五所川原市弥生町
0370052,青森県,五所川原市,東町,アオモリケン,ゴショガワラシ,アズマチョウ,青森県五所川原市東町
0370053,青森県,五所川原市,布屋町,アオモリケン,ゴショガワラシ,ヌノヤチョウ,青森県五所川原市布屋町
0370054,青森県,五所川原市,上平井町,アオモリケン,ゴショガワラシ,カミヒライマチ,青森県五所川原市上平井町
0370055,青森県,五所川原市,柏原町,アオモリケン,ゴショガワラシ,カシワバラチョウ,青森県五所川原市柏原町
0370056,青森県,五所川原市,末広町,アオモリケン,ゴショガワラシ,スエヒロチョウ,青森県五所川原市末広町
0370057,青森県,五所川原市,幾島町,アオモリケン,ゴショガワラシ,イクシマチョウ,青森県五所川原市幾島町
0370058,青森県,五所川原市,錦町,アオモリケン,ゴショガワラシ,ニシキチョウ,青森県五所川原市錦町
0370061,青森県,五所川原市,雛田,アオモリケン,ゴショガワラシ,ヒナタ,青森県五所川原市雛田
0370062,青森県,五所川原市,旭町,アオモリケン,ゴショガワラシ,アサヒチョウ,青森県五所川原市旭町
0370063,青森県,五所川原市,大町,アオモリケン,ゴショガワラシ,オオマチ,青森県五所川原市大町
0370064,青森県,五所川原市,下平井町,アオモリケン,ゴショガワラシ,シモヒライマチ,青森県五所川原市下平井町
0370065,青森県,五所川原市,幾世森,アオモリケン,ゴショガワラシ,イクセモリ,青森県五所川原市幾世森
0370066,青森県,五所川原市,中平井町,アオモリケン,ゴショガワラシ,ナカヒライマチ,青森県五所川原市中平井町
0370067,青森県,五所川原市,敷島町,アオモリケン,ゴショガワラシ,シキシマチョウ,青森県五所川原市敷島町
0370068,青森県,五所川原市,長橋,アオモリケン,ゴショガワラシ,ナガハシ,青森県五所川原市長橋
0370069,青森県,五所川原市,若葉,アオモリケン,ゴショガワラシ,ワカバ,青森県五所川原市若葉
0370071,青森県,五所川原市,本町,アオモリケン,ゴショガワラシ,ホンチョウ,青森県五所川原市本町
0370072,青森県,五所川原市,川端町,アオモリケン,ゴショガワラシ,カワバタチョウ,青森県五所川原市川端町
0370073,青森県,五所川原市,柳町,アオモリケン,ゴショガワラシ,ヤナギマチ,青森県五所川原市柳町
0370074,青森県,五所川原市,岩木町,アオモリケン,ゴショガワラシ,イワキチョウ,青森県五所川原市岩木町
0370075,青森県,五所川原市,寺町,アオモリケン,ゴショガワラシ,テラマチ,青森県五所川原市寺町
0370076,青森県,五所川原市,小曲,アオモリケン,ゴショガワラシ,コマガリ,青森県五所川原市小曲
0370081,青森県,五所川原市,新宮,アオモリケン,ゴショガワラシ,シンミヤ,青森県五所川原市新宮
0370082,青森県,五所川原市,種井,アオモリケン,ゴショガワラシ,タネイ,青森県五所川原市種井
0370083,青森県,五所川原市,新宮町,アオモリケン,ゴショガワラシ,シンミヤチョウ,青森県五所川原市新宮町
0370084,青森県,五所川原市,蘇鉄,アオモリケン,ゴショガワラシ,ソテツ,青森県五所川原市蘇鉄
0370085,青森県,五所川原市,芭蕉,アオモリケン,ゴショガワラシ,バショウ,青森県五所川原市芭蕉
0370086,青森県,五所川原市,田川,アオモリケン,ゴショガワラシ,タガワ,青森県五所川原市田川
0370087,青森県,五所川原市,高瀬,アオモリケン,ゴショガワラシ,タカセ,青森県五所川原市高瀬
0370088,青森県,五所川原市,鶴ケ岡,アオモリケン,ゴショガワラシ,ツルガオカ,青森県五所川原市鶴ケ岡
0370089,青森県,五所川原市,藻川,アオモリケン,ゴショガワラシ,モガワ,青森県五所川原市藻川
0370091,青森県,五所川原市,太刀打,アオモリケン,ゴショガワラシ,タチウチ,青森県五所川原市太刀打
0370092,青森県,五所川原市,沖飯詰,アオモリケン,ゴショガワラシ,オキイイヅメ,青森県五所川原市沖飯詰
0370093,青森県,五所川原市,一野坪,アオモリケン,ゴショガワラシ,イチノツボ,青森県五所川原市一野坪
0370094,青森県,五所川原市,川山,アオモリケン,ゴショガワラシ,カワヤマ,青森県五所川原市川山
0370095,青森県,五所川原市,桜田,アオモリケン,ゴショガワラシ,サクラダ,青森県五所川原市桜田
0370096,青森県,五所川原市,毘沙門,アオモリケン,ゴショガワラシ,ビシャモン,青森県五所川原市毘沙門
0370097,青森県,五所川原市,長富,アオモリケン,ゴショガワラシ,ナガトミ,青森県五所川原市長富
0370101,青森県,つがる市,稲垣町下繁田,アオモリケン,ツガルシ,イナガキチョウシモシゲタ,青森県つがる市稲垣町下繁田
0370102,青森県,つがる市,稲垣町繁田,アオモリケン,ツガルシ,イナガキチョウシゲタ,青森県つがる市稲垣町繁田
0370103,青森県,つがる市,稲垣町穂積,アオモリケン,ツガルシ,イナガキチョウホヅミ,青森県つがる市稲垣町穂積
0370104,青森県,つがる市,稲垣町豊川,アオモリケン,ツガルシ,イナガキチョウトヨカワ,青森県つがる市稲垣町豊川
0370105,青森県,つがる市,稲垣町福富,アオモリケン,ツガルシ,イナガキチョウフクトミ,青森県つがる市稲垣町福富
0370106,青森県,つがる市,稲垣町沼崎,アオモリケン,ツガルシ,イナガキチョウヌマザキ,青森県つがる市稲垣町沼崎
0370107,青森県,つがる市,稲垣町沼舘,アオモリケン,ツガルシ,イナガキチョウヌマダテ,青森県つがる市稲垣町沼舘
0370108,青森県,つがる市,稲垣町吉出,アオモリケン,ツガルシ,イナガキチョウヨシデ,青森県つがる市稲垣町吉出
0370109,青森県,つがる市,稲垣町千年,アオモリケン,ツガルシ,イナガキチョウチトセ,青森県つがる市稲垣町千年
0370201,青森県,五所川原市,金木町川倉,アオモリケン,ゴショガワラシ,カナギチョウカワクラ,青森県五所川原市金木町川倉
0370202,青森県,五所川原市,金木町,アオモリケン,ゴショガワラシ,カナギチョウ,青森県五所川原市金木町
0370203,青森県,五所川原市,金木町喜良市,アオモリケン,ゴショガワラシ,カナギチョウキライチ,青森県五所川原市金木町喜良市
0370204,青森県,五所川原市,金木町嘉瀬,アオモリケン,ゴショガワラシ,カナギチョウカセ,青森県五所川原市金木町嘉瀬
0370205,青森県,五所川原市,金木町中柏木,アオモリケン,ゴショガワラシ,カナギチョウナカカシワギ,青森県五所川原市金木町中柏木
0370206,青森県,五所川原市,金木町神原,アオモリケン,ゴショガワラシ,カナギチョウカンバラ,青森県五所川原市金木町神原
0370207,青森県,五所川原市,金木町蒔田,アオモリケン,ゴショガワラシ,カナギチョウマキタ,青森県五所川原市金木町蒔田
0370208,青森県,五所川原市,金木町藤枝,アオモリケン,ゴショガワラシ,カナギチョウフジエダ,青森県五所川原市金木町藤枝
0370300,青森県,北津軽郡中泊町,,アオモリケン,キタツガルグンナカドマリマチ,,青森県北津軽郡中泊町
0370301,青森県,北津軽郡中泊町,今泉,アオモリケン,キタツガルグンナカドマリマチ,イマイズミ,青森県北津軽郡中泊町今泉
0370302,青森県,北津軽郡中泊町,薄市,アオモリケン,キタツガルグンナカドマリマチ,ウスイチ,青森県北津軽郡中泊町薄市
0370303,青森県,北津軽郡中泊町,高根,アオモリケン,キタツガルグンナカドマリマチ,タカネ,青森県北津軽郡中泊町高根
0370304,青森県,北津軽郡中泊町,尾別,アオモリケン,キタツガルグンナカドマリマチ,オッペツ,青森県北津軽郡中泊町尾別
0370305,青森県,北津軽郡中泊町,中里,アオモリケン,キタツガルグンナカドマリマチ,ナカサト,青森県北津軽郡中泊町中里
0370306,青森県,北津軽郡中泊町,宮川,アオモリケン,キタツガルグンナカドマリマチ,ミヤカワ,青森県北津軽郡中泊町宮川
0370307,青森県,北津軽郡中泊町,宮野沢,アオモリケン,キタツガルグンナカドマリマチ,ミヤノサワ,青森県北津軽郡中泊町宮野沢
0370308,青森県,北津軽郡中泊町,深郷田,アオモリケン,キタツガルグンナカドマリマチ,フコウダ,青森県北津軽郡中泊町深郷田
0370309,青森県,北津軽郡中泊町,八幡,アオモリケン,キタツガルグンナカドマリマチ,ハチマン,青森県北津軽郡中泊町八幡
0370311,青森県,北津軽郡中泊町,大沢内,アオモリケン,キタツガルグンナカドマリマチ,オオサワナイ,青森県北津軽郡中泊町大沢内
0370312,青森県,北津軽郡中泊町,豊島,アオモリケン,キタツガルグンナカドマリマチ,トヨシマ,青森県北津軽郡中泊町豊島
0370313,青森県,北津軽郡中泊町,富野,アオモリケン,キタツガルグンナカドマリマチ,トミノ,青森県北津軽郡中泊町富野
0370314,青森県,北津軽郡中泊町,福浦,アオモリケン,キタツガルグンナカドマリマチ,フクウラ,青森県北津軽郡中泊町福浦
0370315,青森県,北津軽郡中泊町,豊岡,アオモリケン,キタツガルグンナカドマリマチ,トヨオカ,青森県北津軽郡中泊町豊岡
0370316,青森県,北津軽郡中泊町,芦野,アオモリケン,キタツガルグンナカドマリマチ,アシノ,青森県北津軽郡中泊町芦野
0370317,青森県,北津軽郡中泊町,長泥,アオモリケン,キタツガルグンナカドマリマチ,ナガドロ,青森県北津軽郡中泊町長泥
0370318,青森県,北津軽郡中泊町,田茂木,アオモリケン,キタツガルグンナカドマリマチ,タモギ,青森県北津軽郡中泊町田茂木
0370401,青森県,五所川原市,相内,アオモリケン,ゴショガワラシ,アイウチ,青森県五所川原市相内
0370402,青森県,五所川原市,太田,アオモリケン,ゴショガワラシ,オオタ,青森県五所川原市太田
0370403,青森県,五所川原市,十三,アオモリケン,ゴショガワラシ,ジュウサン,青森県五所川原市十三
0370404,青森県,五所川原市,磯松,アオモリケン,ゴショガワラシ,イソマツ,青森県五所川原市磯松
0370405,青森県,五所川原市,脇元,アオモリケン,ゴショガワラシ,ワキモト,青森県五所川原市脇元
0370511,青森県,北津軽郡中泊町,小泊砂山,アオモリケン,キタツガルグンナカドマリマチ,コドマリスナヤマ,青森県北津軽郡中泊町小泊砂山
0370512,青森県,北津軽郡中泊町,小泊朝間,アオモリケン,キタツガルグンナカドマリマチ,コドマリアサマ,青森県北津軽郡中泊町小泊朝間
0370513,青森県,北津軽郡中泊町,小泊割長根,アオモリケン,キタツガルグンナカドマリマチ,コドマリワリナガネ,青森県北津軽郡中泊町小泊割長根
0370514,青森県,北津軽郡中泊町,小泊浜野,アオモリケン,キタツガルグンナカドマリマチ,コドマリハマノ,青森県北津軽郡中泊町小泊浜野
0370521,青森県,北津軽郡中泊町,小泊折戸,アオモリケン,キタツガルグンナカドマリマチ,コドマリオリト,青森県北津軽郡中泊町小泊折戸
0370522,青森県,北津軽郡中泊町,小泊小泊,アオモリケン,キタツガルグンナカドマリマチ,コドマリコドマリ,青森県北津軽郡中泊町小泊小泊
0370523,青森県,北津軽郡中泊町,小泊稲荷,アオモリケン,キタツガルグンナカドマリマチ,コドマリイナリ,青森県北津軽郡中泊町小泊稲荷
0370524,青森県,北津軽郡中泊町,小泊水澗,アオモリケン,キタツガルグンナカドマリマチ,コドマリミズノマ,青森県北津軽郡中泊町小泊水澗
0370525,青森県,北津軽郡中泊町,小泊鮫貝,アオモリケン,キタツガルグンナカドマリマチ,コドマリサメガイ,青森県北津軽郡中泊町小泊鮫貝
0370531,青森県,北津軽郡中泊町,小泊長坂,アオモリケン,キタツガルグンナカドマリマチ,コドマリナガサカ,青森県北津軽郡中泊町小泊長坂
0370532,青森県,北津軽郡中泊町,小泊梨子木平,アオモリケン,キタツガルグンナカドマリマチ,コドマリナシキタイラ,青森県北津軽郡中泊町小泊梨子木平
0370533,青森県,北津軽郡中泊町,小泊白倉,アオモリケン,キタツガルグンナカドマリマチ,コドマリシロクラ,青森県北津軽郡中泊町小泊白倉
0370534,青森県,北津軽郡中泊町,小泊漆流,アオモリケン,キタツガルグンナカドマリマチ,コドマリウルシナガレ,青森県北津軽郡中泊町小泊漆流
0370535,青森県,北津軽郡中泊町,小泊尾崎道,アオモリケン,キタツガルグンナカドマリマチ,コドマリオサキミチ,青森県北津軽郡中泊町小泊尾崎道
0370536,青森県,北津軽郡中泊町,小泊中間,アオモリケン,キタツガルグンナカドマリマチ,コドマリナカマ,青森県北津軽郡中泊町小泊中間
0370537,青森県,北津軽郡中泊町,小泊渕岩,アオモリケン,キタツガルグンナカドマリマチ,コドマリフチイワ,青森県北津軽郡中泊町小泊渕岩
0370538,青森県,北津軽郡中泊町,小泊下前,アオモリケン,キタツガルグンナカドマリマチ,コドマリシタマエ,青森県北津軽郡中泊町小泊下前
0370541,青森県,北津軽郡中泊町,小泊嗽沢,アオモリケン,キタツガルグンナカドマリマチ,コドマリウガイサワ,青森県北津軽郡中泊町小泊嗽沢
0370542,青森県,北津軽郡中泊町,小泊大山長根,アオモリケン,キタツガルグンナカドマリマチ,コドマリオオヤマナガネ,青森県北津軽郡中泊町小泊大山長根
0370543,青森県,北津軽郡中泊町,小泊坊主沢,アオモリケン,キタツガルグンナカドマリマチ,コドマリボウズサワ,青森県北津軽郡中泊町小泊坊主沢
0370601,青森県,五所川原市,戸沢,アオモリケン,ゴショガワラシ,トザワ,青森県五所川原市戸沢
0370602,青森県,五所川原市,松野木,アオモリケン,ゴショガワラシ,マツノキ,青森県五所川原市松野木
0370611,青森県,五所川原市,神山,アオモリケン,ゴショガワラシ,カミヤマ,青森県五所川原市神山
0370612,青森県,五所川原市,福山,アオモリケン,ゴショガワラシ,フクヤマ,青森県五所川原市福山
0370613,青森県,五所川原市,浅井,アオモリケン,ゴショガワラシ,アサイ,青森県五所川原市浅井
0370614,青森県,五所川原市,野里,アオモリケン,ゴショガワラシ,ノザト,青森県五所川原市野里
0370621,青森県,五所川原市,豊成,アオモリケン,ゴショガワラシ,トヨナリ,青森県五所川原市豊成
0370622,青森県,五所川原市,原子,アオモリケン,ゴショガワラシ,ハラコ,青森県五所川原市原子
0370623,青森県,五所川原市,俵元,アオモリケン,ゴショガワラシ,タワラモト,青森県五所川原市俵元
0370631,青森県,五所川原市,前田野目,アオモリケン,ゴショガワラシ,マエダノメ,青森県五所川原市前田野目
0370632,青森県,五所川原市,高野,アオモリケン,ゴショガワラシ,コウヤ,青森県五所川原市高野
0370641,青森県,五所川原市,羽野木沢,アオモリケン,ゴショガワラシ,ハノキザワ,青森県五所川原市羽野木沢
0370642,青森県,五所川原市,持子沢,アオモリケン,ゴショガワラシ,モッコザワ,青森県五所川原市持子沢
0380000,青森県,青森市,,アオモリケン,アオモリシ,,青森県青森市
0380001,青森県,青森市,新田,アオモリケン,アオモリシ,ニッタ,青森県青森市新田
0380002,青森県,青森市,沖館,アオモリケン,アオモリシ,オキダテ,青森県青森市沖館
0380003,青森県,青森市,石江,アオモリケン,アオモリシ,イシエ,青森県青森市石江
0380004,青森県,青森市,富田,アオモリケン,アオモリシ,トミタ,青森県青森市富田
0380006,青森県,青森市,三好,アオモリケン,アオモリシ,ミヨシ,青森県青森市三好
0380011,青森県,青森市,篠田,アオモリケン,アオモリシ,シノダ,青森県青森市篠田
0380012,青森県,青森市,柳川,アオモリケン,アオモリシ,ヤナカワ,青森県青森市柳川
0380013,青森県,青森市,久須志,アオモリケン,アオモリシ,クスシ,青森県青森市久須志
0380014,青森県,青森市,西滝,アオモリケン,アオモリシ,ニシタキ,青森県青森市西滝
0380015,青森県,青森市,千刈,アオモリケン,アオモリシ,センガリ,青森県青森市千刈
0380021,青森県,青森市,安田,アオモリケン,アオモリシ,ヤスタ,青森県青森市安田
0380022,青森県,青森市,浪館,アオモリケン,アオモリシ,ナミダテ,青森県青森市浪館
0380023,青森県,青森市,細越,アオモリケン,アオモリシ,ホソゴエ,青森県青森市細越
0380024,青森県,青森市,浪館前田,アオモリケン,アオモリシ,ナミダテマエダ,青森県青森市浪館前田
0380031,青森県,青森市,三内,アオモリケン,アオモリシ,サンナイ,青森県青森市三内
0380032,青森県,青森市,里見,アオモリケン,アオモリシ,サトミ,青森県青森市里見
0380041,青森県,青森市,岡町,アオモリケン,アオモリシ,オカマチ,青森県青森市岡町
0380042,青森県,青森市,新城,アオモリケン,アオモリシ,シンジョウ,青森県青森市新城
0380043,青森県,青森市,岩渡,アオモリケン,アオモリシ,イワタリ,青森県青森市岩渡
0380044,青森県,青森市,孫内,アオモリケン,アオモリシ,マゴナイ,青森県青森市孫内
0380045,青森県,青森市,鶴ケ坂,アオモリケン,アオモリシ,ツルガサカ,青森県青森市鶴ケ坂
0380046,青森県,青森市,戸門,アオモリケン,アオモリシ,トカド,青森県青森市戸門
0380051,青森県,青森市,内真部,アオモリケン,アオモリシ,ウチマンペ,青森県青森市内真部
0380052,青森県,青森市,清水,アオモリケン,アオモリシ,シミズ,青森県青森市清水
0380053,青森県,青森市,前田,アオモリケン,アオモリシ,マエダ,青森県青森市前田
0380054,青森県,青森市,奥内,アオモリケン,アオモリシ,オクナイ,青森県青森市奥内
0380055,青森県,青森市,瀬戸子,アオモリケン,アオモリシ,セトシ,青森県青森市瀬戸子
0380056,青森県,青森市,飛鳥,アオモリケン,アオモリシ,アスカ,青森県青森市飛鳥
0380057,青森県,青森市,西田沢,アオモリケン,アオモリシ,ニシタザワ,青森県青森市西田沢
0380058,青森県,青森市,羽白,アオモリケン,アオモリシ,ハジロ,青森県青森市羽白
0380059,青森県,青森市,油川,アオモリケン,アオモリシ,アブラカワ,青森県青森市油川
0380101,青森県,平川市,碇ケ関,アオモリケン,ヒラカワシ,イカリガセキ,青森県平川市碇ケ関
0380101,青森県,平川市,碇ケ関三笠山,アオモリケン,ヒラカワシ,イカリガセキミカサヤマ,青森県平川市碇ケ関三笠山
0380101,青森県,平川市,碇ケ関外白沢,アオモリケン,ヒラカワシ,イカリガセキソトシラサワ,青森県平川市碇ケ関外白沢
0380101,青森県,平川市,碇ケ関大落前,アオモリケン,ヒラカワシ,イカリガセキオオラクマエ,青森県平川市碇ケ関大落前
0380101,青森県,平川市,碇ケ関大葉平,アオモリケン,ヒラカワシ,イカリガセキオオバダイラ,青森県平川市碇ケ関大葉平
0380101,青森県,平川市,碇ケ関小落前,アオモリケン,ヒラカワシ,イカリガセキコラクマエ,青森県平川市碇ケ関小落前
0380101,青森県,平川市,碇ケ関山神堂,アオモリケン,ヒラカワシ,イカリガセキサンジンドウ,青森県平川市碇ケ関山神堂
0380101,青森県,平川市,碇ケ関岩井,アオモリケン,ヒラカワシ,イカリガセキイワイ,青森県平川市碇ケ関岩井
0380101,青森県,平川市,碇ケ関折橋,アオモリケン,ヒラカワシ,イカリガセキオリハシ,青森県平川市碇ケ関折橋
0380101,青森県,平川市,碇ケ関東碇ケ関山,アオモリケン,ヒラカワシ,イカリガセキヒガシイカリガセキヤマ,青森県平川市碇ケ関東碇ケ関山
0380101,青森県,平川市,碇ケ関樋ケ沢,アオモリケン,ヒラカワシ,イカリガセキトイガサワ,青森県平川市碇ケ関樋ケ沢
0380101,青森県,平川市,碇ケ関樋ノ口,アオモリケン,ヒラカワシ,イカリガセキヒノクチ,青森県平川市碇ケ関樋ノ口
0380101,青森県,平川市,碇ケ関横町,アオモリケン,ヒラカワシ,イカリガセキヨコマチ,青森県平川市碇ケ関横町
0380101,青森県,平川市,碇ケ関水溜,アオモリケン,ヒラカワシ,イカリガセキミズタメ,青森県平川市碇ケ関水溜
0380101,青森県,平川市,碇ケ関湯向川添,アオモリケン,ヒラカワシ,イカリガセキユムカイカワゾエ,青森県平川市碇ケ関湯向川添
0380101,青森県,平川市,碇ケ関白沢,アオモリケン,ヒラカワシ,イカリガセキシラサワ,青森県平川市碇ケ関白沢
0380101,青森県,平川市,碇ケ関相沢,アオモリケン,ヒラカワシ,イカリガセキアイザワ,青森県平川市碇ケ関相沢
0380101,青森県,平川市,碇ケ関碇石,アオモリケン,ヒラカワシ,イカリガセキイカリイシ,青森県平川市碇ケ関碇石
0380101,青森県,平川市,碇ケ関船岡,アオモリケン,ヒラカワシ,イカリガセキフナオカ,青森県平川市碇ケ関船岡
0380101,青森県,平川市,碇ケ関西碇ケ関山,アオモリケン,ヒラカワシ,イカリガセキニシイカリガセキヤマ,青森県平川市碇ケ関西碇ケ関山
0380101,青森県,平川市,碇ケ関諏訪平,アオモリケン,ヒラカワシ,イカリガセキスワダイラ,青森県平川市碇ケ関諏訪平
0380101,青森県,平川市,碇ケ関踏田切,アオモリケン,ヒラカワシ,イカリガセキフミタギリ,青森県平川市碇ケ関踏田切
0380101,青森県,平川市,碇ケ関阿原,アオモリケン,ヒラカワシ,イカリガセキアバラ,青森県平川市碇ケ関阿原
0380101,青森県,平川市,碇ケ関雷林,アオモリケン,ヒラカワシ,イカリガセキイカズチバヤシ,青森県平川市碇ケ関雷林
0380101,青森県,平川市,碇ケ関高田,アオモリケン,ヒラカワシ,イカリガセキタカダ,青森県平川市碇ケ関高田
0380101,青森県,平川市,碇ケ関鯨森,アオモリケン,ヒラカワシ,イカリガセキクジラモリ,青森県平川市碇ケ関鯨森
0380102,青森県,平川市,碇ケ関古懸上程森,アオモリケン,ヒラカワシ,イカリガセキコガケカミホドモリ,青森県平川市碇ケ関古懸上程森
0380102,青森県,平川市,碇ケ関古懸不動沢大石,アオモリケン,ヒラカワシ,イカリガセキコガケフドウサワオオイシ,青森県平川市碇ケ関古懸不動沢大石
0380102,青森県,平川市,碇ケ関古懸不動野,アオモリケン,ヒラカワシ,イカリガセキコガケフドウノ,青森県平川市碇ケ関古懸不動野
0380102,青森県,平川市,碇ケ関古懸南不動野,アオモリケン,ヒラカワシ,イカリガセキコガケミナミフドウノ,青森県平川市碇ケ関古懸南不動野
0380102,青森県,平川市,碇ケ関古懸向安田,アオモリケン,ヒラカワシ,イカリガセキコガケムカイヤスダ,青森県平川市碇ケ関古懸向安田
0380102,青森県,平川市,碇ケ関古懸堂ノ上,アオモリケン,ヒラカワシ,イカリガセキコガケドウノウエ,青森県平川市碇ケ関古懸堂ノ上
0380102,青森県,平川市,碇ケ関古懸安田,アオモリケン,ヒラカワシ,イカリガセキコガケヤスタ,青森県平川市碇ケ関古懸安田
0380102,青森県,平川市,碇ケ関古懸東不動野,アオモリケン,ヒラカワシ,イカリガセキコガケヒガシフドウノ,青森県平川市碇ケ関古懸東不動野
0380102,青森県,平川市,碇ケ関古懸樋ケ沢,アオモリケン,ヒラカワシ,イカリガセキコガケトイガサワ,青森県平川市碇ケ関古懸樋ケ沢
0380102,青森県,平川市,碇ケ関古懸沢田,アオモリケン,ヒラカワシ,イカリガセキコガケサワダ,青森県平川市碇ケ関古懸沢田
0380102,青森県,平川市,碇ケ関古懸西不動野,アオモリケン,ヒラカワシ,イカリガセキコガケニシフドウノ,青森県平川市碇ケ関古懸西不動野
0380102,青森県,平川市,碇ケ関古懸門前,アオモリケン,ヒラカワシ,イカリガセキコガケモンゼン,青森県平川市碇ケ関古懸門前
0380102,青森県,平川市,碇ケ関古懸門前屋岸,アオモリケン,ヒラカワシ,イカリガセキコガケモンゼンヤギシ,青森県平川市碇ケ関古懸門前屋岸
0380102,青森県,平川市,碇ケ関古懸鳥井,アオモリケン,ヒラカワシ,イカリガセキコガケトリイ,青森県平川市碇ケ関古懸鳥井
0380103,青森県,平川市,碇ケ関久吉二ノ渡,アオモリケン,ヒラカワシ,イカリガセキヒサヨシニノワタリ,青森県平川市碇ケ関久吉二ノ渡
0380103,青森県,平川市,碇ケ関久吉山岸,アオモリケン,ヒラカワシ,イカリガセキヒサヨシヤマギシ,青森県平川市碇ケ関久吉山岸
0380103,青森県,平川市,碇ケ関久吉蕷ケ平,アオモリケン,ヒラカワシ,イカリガセキヒサヨシイモガタイラ,青森県平川市碇ケ関久吉蕷ケ平
0380200,青森県,南津軽郡大鰐町,,アオモリケン,ミナミツガルグンオオワニマチ,,青森県南津軽郡大鰐町
0380201,青森県,南津軽郡大鰐町,苦木,アオモリケン,ミナミツガルグンオオワニマチ,ニガキ,青森県南津軽郡大鰐町苦木
0380202,青森県,南津軽郡大鰐町,長峰,アオモリケン,ミナミツガルグンオオワニマチ,ナガミネ,青森県南津軽郡大鰐町長峰
0380203,青森県,南津軽郡大鰐町,駒木,アオモリケン,ミナミツガルグンオオワニマチ,コマキ,青森県南津軽郡大鰐町駒木
0380204,青森県,南津軽郡大鰐町,唐牛,アオモリケン,ミナミツガルグンオオワニマチ,カロウジ,青森県南津軽郡大鰐町唐牛
0380211,青森県,南津軽郡大鰐町,大鰐,アオモリケン,ミナミツガルグンオオワニマチ,オオワニ,青森県南津軽郡大鰐町大鰐
0380212,青森県,南津軽郡大鰐町,蔵館,アオモリケン,ミナミツガルグンオオワニマチ,クラダテ,青森県南津軽郡大鰐町蔵館
0380221,青森県,南津軽郡大鰐町,虹貝,アオモリケン,ミナミツガルグンオオワニマチ,ニジカイ,青森県南津軽郡大鰐町虹貝
0380222,青森県,南津軽郡大鰐町,早瀬野,アオモリケン,ミナミツガルグンオオワニマチ,ハヤセノ,青森県南津軽郡大鰐町早瀬野
0380223,青森県,南津軽郡大鰐町,島田,アオモリケン,ミナミツガルグンオオワニマチ,シマダ,青森県南津軽郡大鰐町島田
0380231,青森県,南津軽郡大鰐町,宿川原,アオモリケン,ミナミツガルグンオオワニマチ,シュクガワラ,青森県南津軽郡大鰐町宿川原
0380232,青森県,南津軽郡大鰐町,三ツ目内,アオモリケン,ミナミツガルグンオオワニマチ,ミツメナイ,青森県南津軽郡大鰐町三ツ目内
0380233,青森県,南津軽郡大鰐町,居土,アオモリケン,ミナミツガルグンオオワニマチ,イヅチ,青森県南津軽郡大鰐町居土
0380241,青森県,南津軽郡大鰐町,鯖石,アオモリケン,ミナミツガルグンオオワニマチ,サバイシ,青森県南津軽郡大鰐町鯖石
0380242,青森県,南津軽郡大鰐町,森山,アオモリケン,ミナミツガルグンオオワニマチ,モリヤマ,青森県南津軽郡大鰐町森山
0380243,青森県,南津軽郡大鰐町,八幡館,アオモリケン,ミナミツガルグンオオワニマチ,ハチマンダテ,青森県南津軽郡大鰐町八幡館
0381100,青森県,南津軽郡田舎館村,,アオモリケン,ミナミツガルグンイナカダテムラ,,青森県南津軽郡田舎館村
0381101,青森県,南津軽郡田舎館村,東光寺,アオモリケン,ミナミツガルグンイナカダテムラ,トウコウジ,青森県南津軽郡田舎館村東光寺
0381102,青森県,南津軽郡田舎館村,堂野前,アオモリケン,ミナミツガルグンイナカダテムラ,ドウノマエ,青森県南津軽郡田舎館村堂野前
0381103,青森県,南津軽郡田舎館村,十二川原,アオモリケン,ミナミツガルグンイナカダテムラ,ジュウニカワラ,青森県南津軽郡田舎館村十二川原
0381104,青森県,南津軽郡田舎館村,枝川,アオモリケン,ミナミツガルグンイナカダテムラ,エダガワ,青森県南津軽郡田舎館村枝川
0381111,青森県,南津軽郡田舎館村,高樋,アオモリケン,ミナミツガルグンイナカダテムラ,タカヒ,青森県南津軽郡田舎館村高樋
0381112,青森県,南津軽郡田舎館村,垂柳,アオモリケン,ミナミツガルグンイナカダテムラ,タレヤナギ,青森県南津軽郡田舎館村垂柳
0381113,青森県,南津軽郡田舎館村,田舎舘,アオモリケン,ミナミツガルグンイナカダテムラ,イナカダテ,青森県南津軽郡田舎館村田舎舘
0381121,青森県,南津軽郡田舎館村,畑中,アオモリケン,ミナミツガルグンイナカダテムラ,ハタケナカ,青森県南津軽郡田舎館村畑中
0381122,青森県,南津軽郡田舎館村,八反田,アオモリケン,ミナミツガルグンイナカダテムラ,ハッタンダ,青森県南津軽郡田舎館村八反田
0381123,青森県,南津軽郡田舎館村,大曲,アオモリケン,ミナミツガルグンイナカダテムラ,オオマガリ,青森県南津軽郡田舎館村大曲
0381131,青森県,南津軽郡田舎館村,大袋,アオモリケン,ミナミツガルグンイナカダテムラ,オオフクロ,青森県南津軽郡田舎館村大袋
0381132,青森県,南津軽郡田舎館村,諏訪堂,アオモリケン,ミナミツガルグンイナカダテムラ,スワドウ,青森県南津軽郡田舎館村諏訪堂
0381133,青森県,南津軽郡田舎館村,大根子,アオモリケン,ミナミツガルグンイナカダテムラ,オオネコ,青森県南津軽郡田舎館村大根子
0381134,青森県,南津軽郡田舎館村,豊蒔,アオモリケン,ミナミツガルグンイナカダテムラ,トヨマキ,青森県南津軽郡田舎館村豊蒔
0381141,青森県,南津軽郡田舎館村,川部,アオモリケン,ミナミツガルグンイナカダテムラ,カワベ,青森県南津軽郡田舎館村川部
0381142,青森県,南津軽郡田舎館村,和泉,アオモリケン,ミナミツガルグンイナカダテムラ,イズミ,青森県南津軽郡田舎館村和泉
0381143,青森県,南津軽郡田舎館村,境森,アオモリケン,ミナミツガルグンイナカダテムラ,サカイモリ,青森県南津軽郡田舎館村境森
0381144,青森県,南津軽郡田舎館村,前田屋敷,アオモリケン,ミナミツガルグンイナカダテムラ,マエタヤシキ,青森県南津軽郡田舎館村前田屋敷
0381145,青森県,南津軽郡田舎館村,土矢倉,アオモリケン,ミナミツガルグンイナカダテムラ,ツチヤグラ,青森県南津軽郡田舎館村土矢倉
0381201,青森県,南津軽郡藤崎町,福舘,アオモリケン,ミナミツガルグンフジサキマチ,フクダテ,青森県南津軽郡藤崎町福舘
0381202,青森県,南津軽郡藤崎町,富柳,アオモリケン,ミナミツガルグンフジサキマチ,トミヤナギ,青森県南津軽郡藤崎町富柳
0381203,青森県,南津軽郡藤崎町,久井名舘,アオモリケン,ミナミツガルグンフジサキマチ,グイナダテ,青森県南津軽郡藤崎町久井名舘
0381204,青森県,南津軽郡藤崎町,水木,アオモリケン,ミナミツガルグンフジサキマチ,ミズキ,青森県南津軽郡藤崎町水木
0381205,青森県,南津軽郡藤崎町,吉野田,アオモリケン,ミナミツガルグンフジサキマチ,ヨシノダ,青森県南津軽郡藤崎町吉野田
0381206,青森県,南津軽郡藤崎町,郷山前,アオモリケン,ミナミツガルグンフジサキマチ,ゴウサンマエ,青森県南津軽郡藤崎町郷山前
0381207,青森県,南津軽郡藤崎町,増館,アオモリケン,ミナミツガルグンフジサキマチ,マスダテ,青森県南津軽郡藤崎町増館
0381211,青森県,南津軽郡藤崎町,福島,アオモリケン,ミナミツガルグンフジサキマチ,フクシマ,青森県南津軽郡藤崎町福島
0381212,青森県,南津軽郡藤崎町,三ツ屋,アオモリケン,ミナミツガルグンフジサキマチ,ミツヤ,青森県南津軽郡藤崎町三ツ屋
0381213,青森県,南津軽郡藤崎町,徳下,アオモリケン,ミナミツガルグンフジサキマチ,トクゲ,青森県南津軽郡藤崎町徳下
0381214,青森県,南津軽郡藤崎町,常盤,アオモリケン,ミナミツガルグンフジサキマチ,トキワ,青森県南津軽郡藤崎町常盤
0381215,青森県,南津軽郡藤崎町,若松,アオモリケン,ミナミツガルグンフジサキマチ,ワカマツ,青森県南津軽郡藤崎町若松
0381216,青森県,南津軽郡藤崎町,榊,アオモリケン,ミナミツガルグンフジサキマチ,サカキ,青森県南津軽郡藤崎町榊
0381301,青森県,青森市,浪岡大釈迦,アオモリケン,アオモリシ,ナミオカダイシャカ,青森県青森市浪岡大釈迦
0381302,青森県,青森市,浪岡長沼,アオモリケン,アオモリシ,ナミオカナガヌマ,青森県青森市浪岡長沼
0381303,青森県,青森市,浪岡徳才子,アオモリケン,アオモリシ,ナミオカトクサイシ,青森県青森市浪岡徳才子
0381304,青森県,青森市,浪岡高屋敷,アオモリケン,アオモリシ,ナミオカタカヤシキ,青森県青森市浪岡高屋敷
0381305,青森県,青森市,浪岡杉沢,アオモリケン,アオモリシ,ナミオカスギサワ,青森県青森市浪岡杉沢
0381306,青森県,青森市,浪岡福田,アオモリケン,アオモリシ,ナミオカフクダ,青森県青森市浪岡福田
0381311,青森県,青森市,浪岡浪岡,アオモリケン,アオモリシ,ナミオカナミオカ,青森県青森市浪岡浪岡
0381312,青森県,青森市,浪岡五本松,アオモリケン,アオモリシ,ナミオカゴホンマツ,青森県青森市浪岡五本松
0381313,青森県,青森市,浪岡王余魚沢,アオモリケン,アオモリシ,ナミオカカレイザワ,青森県青森市浪岡王余魚沢
0381321,青森県,青森市,浪岡相沢,アオモリケン,アオモリシ,ナミオカアイザワ,青森県青森市浪岡相沢
0381322,青森県,青森市,浪岡細野,アオモリケン,アオモリシ,ナミオカホソノ,青森県青森市浪岡細野
0381323,青森県,青森市,浪岡本郷,アオモリケン,アオモリシ,ナミオカホンゴウ,青森県青森市浪岡本郷
0381324,青森県,青森市,浪岡吉内,アオモリケン,アオモリシ,ナミオカキチナイ,青森県青森市浪岡吉内
0381325,青森県,青森市,浪岡北中野,アオモリケン,アオモリシ,ナミオカキタナカノ,青森県青森市浪岡北中野
0381331,青森県,青森市,浪岡女鹿沢,アオモリケン,アオモリシ,ナミオカメガサワ,青森県青森市浪岡女鹿沢
0381332,青森県,青森市,浪岡下十川,アオモリケン,アオモリシ,ナミオカシモトガワ,青森県青森市浪岡下十川
0381333,青森県,青森市,浪岡増館,アオモリケン,アオモリシ,ナミオカマスダテ,青森県青森市浪岡増館
0381341,青森県,青森市,浪岡銀,アオモリケン,アオモリシ,ナミオカシロガネ,青森県青森市浪岡銀
0381342,青森県,青森市,浪岡樽沢,アオモリケン,アオモリシ,ナミオカタルサワ,青森県青森市浪岡樽沢
0381343,青森県,青森市,浪岡郷山前,アオモリケン,アオモリシ,ナミオカゴウサンマエ,青森県青森市浪岡郷山前
0381344,青森県,青森市,浪岡吉野田,アオモリケン,アオモリシ,ナミオカヨシノダ,青森県青森市浪岡吉野田
0381345,青森県,青森市,浪岡下石川,アオモリケン,アオモリシ,ナミオカシモイシカワ,青森県青森市浪岡下石川
0382201,青森県,西津軽郡深浦町,沢辺,アオモリケン,ニシツガルグンフカウラマチ,サワベ,青森県西津軽郡深浦町沢辺
0382202,青森県,西津軽郡深浦町,岩崎,アオモリケン,ニシツガルグンフカウラマチ,イワサキ,青森県西津軽郡深浦町岩崎
0382203,青森県,西津軽郡深浦町,正道尻,アオモリケン,ニシツガルグンフカウラマチ,ショウドウジリ,青森県西津軽郡深浦町正道尻
0382204,青森県,西津軽郡深浦町,久田,アオモリケン,ニシツガルグンフカウラマチ,ヒサダ,青森県西津軽郡深浦町久田
0382205,青森県,西津軽郡深浦町,森山,アオモリケン,ニシツガルグンフカウラマチ,モリヤマ,青森県西津軽郡深浦町森山
0382206,青森県,西津軽郡深浦町,松神,アオモリケン,ニシツガルグンフカウラマチ,マツカミ,青森県西津軽郡深浦町松神
0382207,青森県,西津軽郡深浦町,黒崎,アオモリケン,ニシツガルグンフカウラマチ,クロサキ,青森県西津軽郡深浦町黒崎
0382208,青森県,西津軽郡深浦町,大間越,アオモリケン,ニシツガルグンフカウラマチ,オオマゴシ,青森県西津軽郡深浦町大間越
0382300,青森県,西津軽郡深浦町,,アオモリケン,ニシツガルグンフカウラマチ,,青森県西津軽郡深浦町
0382321,青森県,西津軽郡深浦町,広戸,アオモリケン,ニシツガルグンフカウラマチ,ヒロト,青森県西津軽郡深浦町広戸
0382322,青森県,西津軽郡深浦町,長慶平,アオモリケン,ニシツガルグンフカウラマチ,チョウケイダイラ,青森県西津軽郡深浦町長慶平
0382323,青森県,西津軽郡深浦町,上長慶平,アオモリケン,ニシツガルグンフカウラマチ,カミチョウケイダイラ,青森県西津軽郡深浦町上長慶平
0382324,青森県,西津軽郡深浦町,深浦,アオモリケン,ニシツガルグンフカウラマチ,フカウラ,青森県西津軽郡深浦町深浦
0382325,青森県,西津軽郡深浦町,横磯,アオモリケン,ニシツガルグンフカウラマチ,ヨコイソ,青森県西津軽郡深浦町横磯
0382326,青森県,西津軽郡深浦町,月屋,アオモリケン,ニシツガルグンフカウラマチ,ツキヤ,青森県西津軽郡深浦町月屋
0382327,青森県,西津軽郡深浦町,舮作,アオモリケン,ニシツガルグンフカウラマチ,ヘナシ,青森県西津軽郡深浦町舮作
0382411,青森県,西津軽郡深浦町,風合瀬,アオモリケン,ニシツガルグンフカウラマチ,カソセ,青森県西津軽郡深浦町風合瀬
0382412,青森県,西津軽郡深浦町,驫木,アオモリケン,ニシツガルグンフカウラマチ,トドロキ,青森県西津軽郡深浦町驫木
0382413,青森県,西津軽郡深浦町,追良瀬,アオモリケン,ニシツガルグンフカウラマチ,オイラセ,青森県西津軽郡深浦町追良瀬
0382501,青森県,西津軽郡深浦町,柳田,アオモリケン,ニシツガルグンフカウラマチ,ヤナギタ,青森県西津軽郡深浦町柳田
0382502,青森県,西津軽郡深浦町,岩坂,アオモリケン,ニシツガルグンフカウラマチ,イワサカ,青森県西津軽郡深浦町岩坂
0382503,青森県,西津軽郡深浦町,関,アオモリケン,ニシツガルグンフカウラマチ,セキ,青森県西津軽郡深浦町関
0382504,青森県,西津軽郡深浦町,北金ケ沢,アオモリケン,ニシツガルグンフカウラマチ,キタカネガサワ,青森県西津軽郡深浦町北金ケ沢
0382505,青森県,西津軽郡深浦町,田野沢,アオモリケン,ニシツガルグンフカウラマチ,タノサワ,青森県西津軽郡深浦町田野沢
0382700,青森県,西津軽郡鰺ヶ沢町,,アオモリケン,ニシツガルグンアジガサワマチ,,青森県西津軽郡鰺ヶ沢町
0382701,青森県,西津軽郡鰺ヶ沢町,北浮田町,アオモリケン,ニシツガルグンアジガサワマチ,キタウキタマチ,青森県西津軽郡鰺ヶ沢町北浮田町
0382702,青森県,西津軽郡鰺ヶ沢町,建石町,アオモリケン,ニシツガルグンアジガサワマチ,タテイシマチ,青森県西津軽郡鰺ヶ沢町建石町
0382703,青森県,西津軽郡鰺ヶ沢町,小屋敷町,アオモリケン,ニシツガルグンアジガサワマチ,コヤシキマチ,青森県西津軽郡鰺ヶ沢町小屋敷町
0382704,青森県,西津軽郡鰺ヶ沢町,湯舟町,アオモリケン,ニシツガルグンアジガサワマチ,ユブネマチ,青森県西津軽郡鰺ヶ沢町湯舟町
0382705,青森県,西津軽郡鰺ヶ沢町,南浮田町,アオモリケン,ニシツガルグンアジガサワマチ,ミナミウキタマチ,青森県西津軽郡鰺ヶ沢町南浮田町
0382711,青森県,西津軽郡鰺ヶ沢町,中村町,アオモリケン,ニシツガルグンアジガサワマチ,ナカムラマチ,青森県西津軽郡鰺ヶ沢町中村町
0382712,青森県,西津軽郡鰺ヶ沢町,長平町,アオモリケン,ニシツガルグンアジガサワマチ,ナガダイマチ,青森県西津軽郡鰺ヶ沢町長平町
0382713,青森県,西津軽郡鰺ヶ沢町,松代町,アオモリケン,ニシツガルグンアジガサワマチ,マツダイマチ,青森県西津軽郡鰺ヶ沢町松代町
0382714,青森県,西津軽郡鰺ヶ沢町,芦萢町,アオモリケン,ニシツガルグンアジガサワマチ,アシヤチマチ,青森県西津軽郡鰺ヶ沢町芦萢町
0382715,青森県,西津軽郡鰺ヶ沢町,浜横沢町,アオモリケン,ニシツガルグンアジガサワマチ,ハマヨコサワマチ,青森県西津軽郡鰺ヶ沢町浜横沢町
0382721,青森県,西津軽郡鰺ヶ沢町,深谷町,アオモリケン,ニシツガルグンアジガサワマチ,フカヤマチ,青森県西津軽郡鰺ヶ沢町深谷町
0382722,青森県,西津軽郡鰺ヶ沢町,小森町,アオモリケン,ニシツガルグンアジガサワマチ,コモリマチ,青森県西津軽郡鰺ヶ沢町小森町
0382723,青森県,西津軽郡鰺ヶ沢町,一ツ森町,アオモリケン,ニシツガルグンアジガサワマチ,ヒトツモリマチ,青森県西津軽郡鰺ヶ沢町一ツ森町
0382724,青森県,西津軽郡鰺ヶ沢町,鬼袋町,アオモリケン,ニシツガルグンアジガサワマチ,オニフクロマチ,青森県西津軽郡鰺ヶ沢町鬼袋町
0382725,青森県,西津軽郡鰺ヶ沢町,種里町,アオモリケン,ニシツガルグンアジガサワマチ,タネサトマチ,青森県西津軽郡鰺ヶ沢町種里町
0382731,青森県,西津軽郡鰺ヶ沢町,赤石町,アオモリケン,ニシツガルグンアジガサワマチ,アカイシマチ,青森県西津軽郡鰺ヶ沢町赤石町
0382732,青森県,西津軽郡鰺ヶ沢町,日照田町,アオモリケン,ニシツガルグンアジガサワマチ,ヒデリタマチ,青森県西津軽郡鰺ヶ沢町日照田町
0382733,青森県,西津軽郡鰺ヶ沢町,館前町,アオモリケン,ニシツガルグンアジガサワマチ,タテマエマチ,青森県西津軽郡鰺ヶ沢町館前町
0382734,青森県,西津軽郡鰺ヶ沢町,南金沢町,アオモリケン,ニシツガルグンアジガサワマチ,ミナミカナザワマチ,青森県西津軽郡鰺ヶ沢町南金沢町
0382735,青森県,西津軽郡鰺ヶ沢町,姥袋町,アオモリケン,ニシツガルグンアジガサワマチ,ウバフクロマチ,青森県西津軽郡鰺ヶ沢町姥袋町
0382741,青森県,西津軽郡鰺ヶ沢町,浜町,アオモリケン,ニシツガルグンアジガサワマチ,ハママチ,青森県西津軽郡鰺ヶ沢町浜町
0382742,青森県,西津軽郡鰺ヶ沢町,新町,アオモリケン,ニシツガルグンアジガサワマチ,アラマチ,青森県西津軽郡鰺ヶ沢町新町
0382743,青森県,西津軽郡鰺ヶ沢町,釣町,アオモリケン,ニシツガルグンアジガサワマチ,ツリマチ,青森県西津軽郡鰺ヶ沢町釣町
0382744,青森県,西津軽郡鰺ヶ沢町,漁師町,アオモリケン,ニシツガルグンアジガサワマチ,リョウシマチ,青森県西津軽郡鰺ヶ沢町漁師町
0382745,青森県,西津軽郡鰺ヶ沢町,新地町,アオモリケン,ニシツガルグンアジガサワマチ,シンチマチ,青森県西津軽郡鰺ヶ沢町新地町
0382746,青森県,西津軽郡鰺ヶ沢町,富根町,アオモリケン,ニシツガルグンアジガサワマチ,フネチョウ,青森県西津軽郡鰺ヶ沢町富根町
0382747,青森県,西津軽郡鰺ヶ沢町,淀町,アオモリケン,ニシツガルグンアジガサワマチ,ヨドマチ,青森県西津軽郡鰺ヶ沢町淀町
0382751,青森県,西津軽郡鰺ヶ沢町,田中町,アオモリケン,ニシツガルグンアジガサワマチ,タナカマチ,青森県西津軽郡鰺ヶ沢町田中町
0382752,青森県,西津軽郡鰺ヶ沢町,七ツ石町,アオモリケン,ニシツガルグンアジガサワマチ,ナナツイシマチ,青森県西津軽郡鰺ヶ沢町七ツ石町
0382753,青森県,西津軽郡鰺ヶ沢町,本町,アオモリケン,ニシツガルグンアジガサワマチ,ホンチョウ,青森県西津軽郡鰺ヶ沢町本町
0382754,青森県,西津軽郡鰺ヶ沢町,米町,アオモリケン,ニシツガルグンアジガサワマチ,コメマチ,青森県西津軽郡鰺ヶ沢町米町
0382761,青森県,西津軽郡鰺ヶ沢町,舞戸町,アオモリケン,ニシツガルグンアジガサワマチ,マイトマチ,青森県西津軽郡鰺ヶ沢町舞戸町
0382801,青森県,つがる市,木造丸山,アオモリケン,ツガルシ,キヅクリマルヤマ,青森県つがる市木造丸山
0382803,青森県,つがる市,木造下福原,アオモリケン,ツガルシ,キヅクリシモフクハラ,青森県つがる市木造下福原
0382804,青森県,つがる市,木造三ツ館,アオモリケン,ツガルシ,キヅクリミツタテ,青森県つがる市木造三ツ館
0382806,青森県,つがる市,木造越水,アオモリケン,ツガルシ,キヅクリコシミズ,青森県つがる市木造越水
0382808,青森県,つがる市,木造吹原,アオモリケン,ツガルシ,キヅクリフキハラ,青森県つがる市木造吹原
0382811,青森県,つがる市,森田町上相野,アオモリケン,ツガルシ,モリタチョウカミアイノ,青森県つがる市森田町上相野
0382812,青森県,つがる市,森田町下相野,アオモリケン,ツガルシ,モリタチョウシモアイノ,青森県つがる市森田町下相野
0382813,青森県,つがる市,森田町妙堂崎,アオモリケン,ツガルシ,モリタチョウミョウドウザキ,青森県つがる市森田町妙堂崎
0382814,青森県,つがる市,森田町中田,アオモリケン,ツガルシ,モリタチョウナカタ,青森県つがる市森田町中田
0382815,青森県,つがる市,森田町山田,アオモリケン,ツガルシ,モリタチョウヤマダ,青森県つがる市森田町山田
0382816,青森県,つがる市,森田町森田,アオモリケン,ツガルシ,モリタチョウモリタ,青森県つがる市森田町森田
0382817,青森県,つがる市,森田町床舞,アオモリケン,ツガルシ,モリタチョウトコマイ,青森県つがる市森田町床舞
0382818,青森県,つがる市,森田町大館,アオモリケン,ツガルシ,モリタチョウオオダテ,青森県つがる市森田町大館
0383100,青森県,つがる市,,アオモリケン,ツガルシ,,青森県つがる市
0383101,青森県,つがる市,柏鷺坂,アオモリケン,ツガルシ,カシワサギサカ,青森県つがる市柏鷺坂
0383102,青森県,つがる市,柏下古川,アオモリケン,ツガルシ,カシワシモコガワ,青森県つがる市柏下古川
0383103,青森県,つがる市,柏上古川,アオモリケン,ツガルシ,カシワカミコガワ,青森県つがる市柏上古川
0383104,青森県,つがる市,柏桑野木田,アオモリケン,ツガルシ,カシワクワノキダ,青森県つがる市柏桑野木田
0383105,青森県,つがる市,柏広須,アオモリケン,ツガルシ,カシワヒロス,青森県つがる市柏広須
0383106,青森県,つがる市,柏玉水,アオモリケン,ツガルシ,カシワタマミズ,青森県つがる市柏玉水
0383107,青森県,つがる市,柏稲盛,アオモリケン,ツガルシ,カシワイセ,青森県つがる市柏稲盛
0383111,青森県,つがる市,木造豊田,アオモリケン,ツガルシ,キヅクリトヨダ,青森県つがる市木造豊田
0383112,青森県,つがる市,木造川除,アオモリケン,ツガルシ,キヅクリカワヨケ,青森県つがる市木造川除
0383113,青森県,つがる市,木造芦沼,アオモリケン,ツガルシ,キヅクリアシヌマ,青森県つがる市木造芦沼
0383114,青森県,つがる市,木造成田,アオモリケン,ツガルシ,キヅクリナリタ,青森県つがる市木造成田
0383115,青森県,つがる市,木造蓮川,アオモリケン,ツガルシ,キヅクリハスカワ,青森県つがる市木造蓮川
0383121,青森県,つがる市,木造早田,アオモリケン,ツガルシ,キヅクリハヤタ,青森県つがる市木造早田
0383122,青森県,つがる市,木造追広,アオモリケン,ツガルシ,キヅクリオイヒロ,青森県つがる市木造追広
0383123,青森県,つがる市,木造藤田,アオモリケン,ツガルシ,キヅクリフジタ,青森県つがる市木造藤田
0383124,青森県,つがる市,木造朝日,アオモリケン,ツガルシ,キヅクリアサヒ,青森県つがる市木造朝日
0383125,青森県,つがる市,木造鶴泊,アオモリケン,ツガルシ,キヅクリツルドマリ,青森県つがる市木造鶴泊
0383126,青森県,つがる市,木造森内,アオモリケン,ツガルシ,キヅクリモリウチ,青森県つがる市木造森内
0383127,青森県,つがる市,木造森山,アオモリケン,ツガルシ,キヅクリモリヤマ,青森県つがる市木造森山
0383128,青森県,つがる市,木造森本,アオモリケン,ツガルシ,キヅクリモリモト,青森県つがる市木造森本
0383131,青森県,つがる市,木造千年,アオモリケン,ツガルシ,キヅクリチトセ,青森県つがる市木造千年
0383132,青森県,つがる市,木造清水,アオモリケン,ツガルシ,キヅクリシミズ,青森県つがる市木造清水
0383133,青森県,つがる市,木造末広,アオモリケン,ツガルシ,キヅクリスエヒロ,青森県つがる市木造末広
0383134,青森県,つがる市,木造種取,アオモリケン,ツガルシ,キヅクリタネトリ,青森県つがる市木造種取
0383135,青森県,つがる市,木造有楽町,アオモリケン,ツガルシ,キヅクリウラクマチ,青森県つがる市木造有楽町
0383136,青森県,つがる市,木造萩野,アオモリケン,ツガルシ,キヅクリハギノ,青森県つがる市木造萩野
0383137,青森県,つがる市,木造若宮,アオモリケン,ツガルシ,キヅクリワカミヤ,青森県つがる市木造若宮
0383138,青森県,つがる市,木造若緑,アオモリケン,ツガルシ,キヅクリワカミドリ,青森県つがる市木造若緑
0383139,青森県,つがる市,木造萩流,アオモリケン,ツガルシ,キヅクリハギナガレ,青森県つがる市木造萩流
0383141,青森県,つがる市,木造浮巣,アオモリケン,ツガルシ,キヅクリウキス,青森県つがる市木造浮巣
0383142,青森県,つがる市,木造赤根,アオモリケン,ツガルシ,キヅクリアカネ,青森県つがる市木造赤根
0383143,青森県,つがる市,木造日向,アオモリケン,ツガルシ,キヅクリヒナタ,青森県つがる市木造日向
0383144,青森県,つがる市,木造曙,アオモリケン,ツガルシ,キヅクリアケボノ,青森県つがる市木造曙
0383145,青森県,つがる市,木造千代町,アオモリケン,ツガルシ,キヅクリチヨマチ,青森県つがる市木造千代町
0383146,青森県,つがる市,木造桜木,アオモリケン,ツガルシ,キヅクリサクラギ,青森県つがる市木造桜木
0383151,青森県,つがる市,木造若竹,アオモリケン,ツガルシ,キヅクリワカタケ,青森県つがる市木造若竹
0383152,青森県,つがる市,木造藤岡,アオモリケン,ツガルシ,キヅクリフジオカ,青森県つがる市木造藤岡
0383153,青森県,つがる市,木造野宮,アオモリケン,ツガルシ,キヅクリノミヤ,青森県つがる市木造野宮
0383154,青森県,つがる市,木造照日,アオモリケン,ツガルシ,キヅクリテルヒ,青森県つがる市木造照日
0383155,青森県,つがる市,木造増田,アオモリケン,ツガルシ,キヅクリマスタ,青森県つがる市木造増田
0383156,青森県,つがる市,木造宮井,アオモリケン,ツガルシ,キヅクリミヤイ,青森県つがる市木造宮井
0383157,青森県,つがる市,木造宮崎,アオモリケン,ツガルシ,キヅクリミヤザキ,青森県つがる市木造宮崎
0383158,青森県,つがる市,木造房松,アオモリケン,ツガルシ,キヅクリフサマツ,青森県つがる市木造房松
0383159,青森県,つがる市,木造桜川,アオモリケン,ツガルシ,キヅクリサクラガワ,青森県つがる市木造桜川
0383161,青森県,つがる市,木造濁川,アオモリケン,ツガルシ,キヅクリニゴリガワ,青森県つがる市木造濁川
0383162,青森県,つがる市,木造浦船,アオモリケン,ツガルシ,キヅクリウラフネ,青森県つがる市木造浦船
0383163,青森県,つがる市,木造中館,アオモリケン,ツガルシ,キヅクリナカダテ,青森県つがる市木造中館
0383164,青森県,つがる市,木造柴田,アオモリケン,ツガルシ,キヅクリシバタ,青森県つがる市木造柴田
0383165,青森県,つがる市,木造菊川,アオモリケン,ツガルシ,キヅクリキクカワ,青森県つがる市木造菊川
0383166,青森県,つがる市,木造福原,アオモリケン,ツガルシ,キヅクリフクハラ,青森県つがる市木造福原
0383167,青森県,つがる市,木造千代田,アオモリケン,ツガルシ,キヅクリチヨダ,青森県つがる市木造千代田
0383271,青森県,つがる市,木造善積,アオモリケン,ツガルシ,キヅクリヨシヅミ,青森県つがる市木造善積
0383272,青森県,つがる市,木造兼館,アオモリケン,ツガルシ,キヅクリカネダテ,青森県つがる市木造兼館
0383273,青森県,つがる市,木造出野里,アオモリケン,ツガルシ,キヅクリイデノサト,青森県つがる市木造出野里
0383274,青森県,つがる市,木造蓮花田,アオモリケン,ツガルシ,キヅクリレンゲタ,青森県つがる市木造蓮花田
0383275,青森県,つがる市,木造永田,アオモリケン,ツガルシ,キヅクリナガタ,青森県つがる市木造永田
0383276,青森県,つがる市,木造林,アオモリケン,ツガルシ,キヅクリハヤシ,青森県つがる市木造林
0383277,青森県,つがる市,木造大畑,アオモリケン,ツガルシ,キヅクリオオバタ,青森県つがる市木造大畑
0383278,青森県,つがる市,木造土滝,アオモリケン,ツガルシ,キヅクリツチタキ,青森県つがる市木造土滝
0383281,青森県,つがる市,木造平滝,アオモリケン,ツガルシ,キヅクリヒラタキ,青森県つがる市木造平滝
0383282,青森県,つがる市,木造筒木坂,アオモリケン,ツガルシ,キヅクリドウキザカ,青森県つがる市木造筒木坂
0383283,青森県,つがる市,木造館岡,アオモリケン,ツガルシ,キヅクリタテオカ,青森県つがる市木造館岡
0383284,青森県,つがる市,木造亀ケ岡,アオモリケン,ツガルシ,キヅクリカメガオカ,青森県つがる市木造亀ケ岡
0383285,青森県,つがる市,木造大湯町,アオモリケン,ツガルシ,キヅクリオオユマチ,青森県つがる市木造大湯町
0383286,青森県,つがる市,木造菰槌,アオモリケン,ツガルシ,キヅクリコモツチ,青森県つがる市木造菰槌
0383287,青森県,つがる市,木造下遠山里,アオモリケン,ツガルシ,キヅクリシモトオヤマサト,青森県つがる市木造下遠山里
0383288,青森県,つがる市,木造出来島,アオモリケン,ツガルシ,キヅクリデキシマ,青森県つがる市木造出来島
0383301,青森県,つがる市,富萢町,アオモリケン,ツガルシ,トミヤチチョウ,青森県つがる市富萢町
0383302,青森県,つがる市,豊富町,アオモリケン,ツガルシ,トヨトミチョウ,青森県つがる市豊富町
0383303,青森県,つがる市,車力町,アオモリケン,ツガルシ,シャリキチョウ,青森県つがる市車力町
0383304,青森県,つがる市,下車力町,アオモリケン,ツガルシ,シタシャリキチョウ,青森県つがる市下車力町
0383305,青森県,つがる市,牛潟町,アオモリケン,ツガルシ,ウシガタチョウ,青森県つがる市牛潟町
0383306,青森県,つがる市,下牛潟町,アオモリケン,ツガルシ,シモウシガタチョウ,青森県つがる市下牛潟町
0383500,青森県,北津軽郡鶴田町,,アオモリケン,キタツガルグンツルタマチ,,青森県北津軽郡鶴田町
0383501,青森県,北津軽郡鶴田町,大巻,アオモリケン,キタツガルグンツルタマチ,オオマキ,青森県北津軽郡鶴田町大巻
0383502,青森県,北津軽郡鶴田町,強巻,アオモリケン,キタツガルグンツルタマチ,コワマキ,青森県北津軽郡鶴田町強巻
0383503,青森県,北津軽郡鶴田町,鶴田,アオモリケン,キタツガルグンツルタマチ,ツルタ,青森県北津軽郡鶴田町鶴田
0383511,青森県,北津軽郡鶴田町,横萢,アオモリケン,キタツガルグンツルタマチ,ヨコヤチ,青森県北津軽郡鶴田町横萢
0383512,青森県,北津軽郡鶴田町,瀬良沢,アオモリケン,キタツガルグンツルタマチ,セラザワ,青森県北津軽郡鶴田町瀬良沢
0383513,青森県,北津軽郡鶴田町,沖,アオモリケン,キタツガルグンツルタマチ,オキ,青森県北津軽郡鶴田町沖
0383514,青森県,北津軽郡鶴田町,中野,アオモリケン,キタツガルグンツルタマチ,ナカノ,青森県北津軽郡鶴田町中野
0383515,青森県,北津軽郡鶴田町,山道,アオモリケン,キタツガルグンツルタマチ,ヤマミチ,青森県北津軽郡鶴田町山道
0383521,青森県,北津軽郡鶴田町,菖蒲川,アオモリケン,キタツガルグンツルタマチ,ショウブカワ,青森県北津軽郡鶴田町菖蒲川
0383522,青森県,北津軽郡鶴田町,鶴泊,アオモリケン,キタツガルグンツルタマチ,ツルドマリ,青森県北津軽郡鶴田町鶴泊
0383523,青森県,北津軽郡鶴田町,胡桃舘,アオモリケン,キタツガルグンツルタマチ,クルミダテ,青森県北津軽郡鶴田町胡桃舘
0383524,青森県,北津軽郡鶴田町,境,アオモリケン,キタツガルグンツルタマチ,サカイ,青森県北津軽郡鶴田町境
0383525,青森県,北津軽郡鶴田町,大性,アオモリケン,キタツガルグンツルタマチ,ダイショウ,青森県北津軽郡鶴田町大性
0383531,青森県,北津軽郡鶴田町,木筒,アオモリケン,キタツガルグンツルタマチ,キヅツ,青森県北津軽郡鶴田町木筒
0383532,青森県,北津軽郡鶴田町,野木,アオモリケン,キタツガルグンツルタマチ,ノギ,青森県北津軽郡鶴田町野木
0383541,青森県,北津軽郡鶴田町,尾原,アオモリケン,キタツガルグンツルタマチ,オハラ,青森県北津軽郡鶴田町尾原
0383542,青森県,北津軽郡鶴田町,廻堰,アオモリケン,キタツガルグンツルタマチ,マワリゼキ,青森県北津軽郡鶴田町廻堰
0383543,青森県,北津軽郡鶴田町,妙堂崎,アオモリケン,キタツガルグンツルタマチ,ミョウドウザキ,青森県北津軽郡鶴田町妙堂崎
0383600,青森県,北津軽郡板柳町,,アオモリケン,キタツガルグンイタヤナギマチ,,青森県北津軽郡板柳町
0383611,青森県,弘前市,三和,アオモリケン,ヒロサキシ,ミワ,青森県弘前市三和
0383612,青森県,弘前市,笹舘,アオモリケン,ヒロサキシ,ササダテ,青森県弘前市笹舘
0383613,青森県,弘前市,小友,アオモリケン,ヒロサキシ,オトモ,青森県弘前市小友
0383614,青森県,弘前市,種市,アオモリケン,ヒロサキシ,タネイチ,青森県弘前市種市
0383615,青森県,弘前市,青女子,アオモリケン,ヒロサキシ,アオナゴ,青森県弘前市青女子
0383621,青森県,北津軽郡板柳町,五林平,アオモリケン,キタツガルグンイタヤナギマチ,ゴリンタイ,青森県北津軽郡板柳町五林平
0383622,青森県,北津軽郡板柳町,夕顔関,アオモリケン,キタツガルグンイタヤナギマチ,ユウガオゼキ,青森県北津軽郡板柳町夕顔関
0383623,青森県,北津軽郡板柳町,常海橋,アオモリケン,キタツガルグンイタヤナギマチ,ジョウカイバシ,青森県北津軽郡板柳町常海橋
0383624,青森県,北津軽郡板柳町,滝井,アオモリケン,キタツガルグンイタヤナギマチ,タキイ,青森県北津軽郡板柳町滝井
0383625,青森県,北津軽郡板柳町,舘野越,アオモリケン,キタツガルグンイタヤナギマチ,タテノコシ,青森県北津軽郡板柳町舘野越
0383631,青森県,北津軽郡板柳町,牡丹森,アオモリケン,キタツガルグンイタヤナギマチ,ボタンモリ,青森県北津軽郡板柳町牡丹森
0383632,青森県,北津軽郡板柳町,柏木,アオモリケン,キタツガルグンイタヤナギマチ,カシワギ,青森県北津軽郡板柳町柏木
0383633,青森県,北津軽郡板柳町,狐森,アオモリケン,キタツガルグンイタヤナギマチ,キツネモリ,青森県北津軽郡板柳町狐森
0383634,青森県,北津軽郡板柳町,高増,アオモリケン,キタツガルグンイタヤナギマチ,タカマス,青森県北津軽郡板柳町高増
0383635,青森県,北津軽郡板柳町,大俵,アオモリケン,キタツガルグンイタヤナギマチ,オオタワラ,青森県北津軽郡板柳町大俵
0383636,青森県,北津軽郡板柳町,五幾形,アオモリケン,キタツガルグンイタヤナギマチ,ゴキガタ,青森県北津軽郡板柳町五幾形
0383641,青森県,北津軽郡板柳町,深味,アオモリケン,キタツガルグンイタヤナギマチ,フカミ,青森県北津軽郡板柳町深味
0383642,青森県,北津軽郡板柳町,太田,アオモリケン,キタツガルグンイタヤナギマチ,オオタ,青森県北津軽郡板柳町太田
0383643,青森県,北津軽郡板柳町,長野,アオモリケン,キタツガルグンイタヤナギマチ,ナガノ,青森県北津軽郡板柳町長野
0383644,青森県,北津軽郡板柳町,横沢,アオモリケン,キタツガルグンイタヤナギマチ,ヨコサワ,青森県北津軽郡板柳町横沢
0383645,青森県,北津軽郡板柳町,辻,アオモリケン,キタツガルグンイタヤナギマチ,ツジ,青森県北津軽郡板柳町辻
0383651,青森県,北津軽郡板柳町,飯田,アオモリケン,キタツガルグンイタヤナギマチ,イイダ,青森県北津軽郡板柳町飯田
0383661,青森県,北津軽郡板柳町,福野田,アオモリケン,キタツガルグンイタヤナギマチ,フクノダ,青森県北津軽郡板柳町福野田
0383662,青森県,北津軽郡板柳町,板柳,アオモリケン,キタツガルグンイタヤナギマチ,イタヤナギ,青森県北津軽郡板柳町板柳
0383671,青森県,北津軽郡板柳町,掛落林,アオモリケン,キタツガルグンイタヤナギマチ,カケオチバヤシ,青森県北津軽郡板柳町掛落林
0383672,青森県,北津軽郡板柳町,灰沼,アオモリケン,キタツガルグンイタヤナギマチ,ハイヌマ,青森県北津軽郡板柳町灰沼
0383673,青森県,北津軽郡板柳町,小幡,アオモリケン,キタツガルグンイタヤナギマチ,コハタ,青森県北津軽郡板柳町小幡
0383681,青森県,北津軽郡板柳町,野中,アオモリケン,キタツガルグンイタヤナギマチ,ノナカ,青森県北津軽郡板柳町野中
0383682,青森県,北津軽郡板柳町,石野,アオモリケン,キタツガルグンイタヤナギマチ,イシノ,青森県北津軽郡板柳町石野
0383683,青森県,北津軽郡板柳町,赤田,アオモリケン,キタツガルグンイタヤナギマチ,アカダ,青森県北津軽郡板柳町赤田
0383684,青森県,北津軽郡板柳町,三千石,アオモリケン,キタツガルグンイタヤナギマチ,サンゼンゴク,青森県北津軽郡板柳町三千石
0383685,青森県,北津軽郡板柳町,いたや町,アオモリケン,キタツガルグンイタヤナギマチ,イタヤチョウ,青森県北津軽郡板柳町いたや町
0383800,青森県,南津軽郡藤崎町,,アオモリケン,ミナミツガルグンフジサキマチ,,青森県南津軽郡藤崎町
0383801,青森県,南津軽郡藤崎町,藤越,アオモリケン,ミナミツガルグンフジサキマチ,フジコシ,青森県南津軽郡藤崎町藤越
0383802,青森県,南津軽郡藤崎町,藤崎,アオモリケン,ミナミツガルグンフジサキマチ,フジサキ,青森県南津軽郡藤崎町藤崎
0383803,青森県,南津軽郡藤崎町,西豊田,アオモリケン,ミナミツガルグンフジサキマチ,ニシトヨダ,青森県南津軽郡藤崎町西豊田
0383804,青森県,南津軽郡藤崎町,葛野,アオモリケン,ミナミツガルグンフジサキマチ,クズノ,青森県南津軽郡藤崎町葛野
0383805,青森県,南津軽郡藤崎町,五林,アオモリケン,ミナミツガルグンフジサキマチ,ゴリン,青森県南津軽郡藤崎町五林
0383806,青森県,南津軽郡藤崎町,林崎,アオモリケン,ミナミツガルグンフジサキマチ,ハヤシザキ,青森県南津軽郡藤崎町林崎
0383811,青森県,南津軽郡藤崎町,中島,アオモリケン,ミナミツガルグンフジサキマチ,ナカジマ,青森県南津軽郡藤崎町中島
0383812,青森県,南津軽郡藤崎町,小畑,アオモリケン,ミナミツガルグンフジサキマチ,コバタ,青森県南津軽郡藤崎町小畑
0383813,青森県,南津軽郡藤崎町,矢沢,アオモリケン,ミナミツガルグンフジサキマチ,ヤザワ,青森県南津軽郡藤崎町矢沢
0383814,青森県,南津軽郡藤崎町,水沼,アオモリケン,ミナミツガルグンフジサキマチ,ミズヌマ,青森県南津軽郡藤崎町水沼
0383821,青森県,弘前市,百田,アオモリケン,ヒロサキシ,モモタ,青森県弘前市百田
0383831,青森県,南津軽郡藤崎町,中野目,アオモリケン,ミナミツガルグンフジサキマチ,ナカノメ,青森県南津軽郡藤崎町中野目
0383832,青森県,南津軽郡藤崎町,吉向,アオモリケン,ミナミツガルグンフジサキマチ,ヨシムカイ,青森県南津軽郡藤崎町吉向
0383833,青森県,南津軽郡藤崎町,亀岡,アオモリケン,ミナミツガルグンフジサキマチ,カメオカ,青森県南津軽郡藤崎町亀岡
0383834,青森県,南津軽郡藤崎町,西中野目,アオモリケン,ミナミツガルグンフジサキマチ,ニシナカノメ,青森県南津軽郡藤崎町西中野目
0383835,青森県,南津軽郡藤崎町,俵舛,アオモリケン,ミナミツガルグンフジサキマチ,タワラマス,青森県南津軽郡藤崎町俵舛
0383836,青森県,南津軽郡藤崎町,下俵舛,アオモリケン,ミナミツガルグンフジサキマチ,シモタワラマス,青森県南津軽郡藤崎町下俵舛
0383837,青森県,南津軽郡藤崎町,柏木堰,アオモリケン,ミナミツガルグンフジサキマチ,カシワギゼキ,青森県南津軽郡藤崎町柏木堰
0383874,青森県,弘前市,津賀野（その他）,アオモリケン,ヒロサキシ,ツカノ(ソノタ),青森県弘前市津賀野（その他）
0390100,青森県,三戸郡三戸町,,アオモリケン,サンノヘグンサンノヘマチ,,青森県三戸郡三戸町
0390100,青森県,三戸郡南部町,,アオモリケン,サンノヘグンナンブチョウ,,青森県三戸郡南部町
0390101,青森県,三戸郡南部町,玉掛,アオモリケン,サンノヘグンナンブチョウ,タマカケ,青森県三戸郡南部町玉掛
0390102,青森県,三戸郡南部町,赤石,アオモリケン,サンノヘグンナンブチョウ,アカイシ,青森県三戸郡南部町赤石
0390103,青森県,三戸郡南部町,大向,アオモリケン,サンノヘグンナンブチョウ,オオムカイ,青森県三戸郡南部町大向
0390104,青森県,三戸郡南部町,小向,アオモリケン,サンノヘグンナンブチョウ,コムカイ,青森県三戸郡南部町小向
0390105,青森県,三戸郡南部町,沖田面,アオモリケン,サンノヘグンナンブチョウ,オキタオモテ,青森県三戸郡南部町沖田面
0390106,青森県,三戸郡南部町,相内（その他）,アオモリケン,サンノヘグンナンブチョウ,アイナイ(ソノタ),青森県三戸郡南部町相内（その他）
0390111,青森県,三戸郡三戸町,泉山,アオモリケン,サンノヘグンサンノヘマチ,イズミヤマ,青森県三戸郡三戸町泉山
0390112,青森県,三戸郡三戸町,梅内,アオモリケン,サンノヘグンサンノヘマチ,ウメナイ,青森県三戸郡三戸町梅内
0390113,青森県,三戸郡三戸町,目時,アオモリケン,サンノヘグンサンノヘマチ,メトキ,青森県三戸郡三戸町目時
0390121,青森県,三戸郡三戸町,豊川,アオモリケン,サンノヘグンサンノヘマチ,トヨカワ,青森県三戸郡三戸町豊川
0390122,青森県,三戸郡三戸町,斗内,アオモリケン,サンノヘグンサンノヘマチ,トナイ,青森県三戸郡三戸町斗内
0390131,青森県,三戸郡三戸町,二日町,アオモリケン,サンノヘグンサンノヘマチ,フツカマチ,青森県三戸郡三戸町二日町
0390132,青森県,三戸郡三戸町,在府小路町,アオモリケン,サンノヘグンサンノヘマチ,ザイフコウジマチ,青森県三戸郡三戸町在府小路町
0390133,青森県,三戸郡三戸町,馬喰町,アオモリケン,サンノヘグンサンノヘマチ,バクロマチ,青森県三戸郡三戸町馬喰町
0390134,青森県,三戸郡三戸町,同心町,アオモリケン,サンノヘグンサンノヘマチ,ドウシンチョウ,青森県三戸郡三戸町同心町
0390135,青森県,三戸郡三戸町,八日町,アオモリケン,サンノヘグンサンノヘマチ,ヨウカマチ,青森県三戸郡三戸町八日町
0390141,青森県,三戸郡三戸町,川守田,アオモリケン,サンノヘグンサンノヘマチ,カワモリタ,青森県三戸郡三戸町川守田
0390142,青森県,三戸郡三戸町,久慈町,アオモリケン,サンノヘグンサンノヘマチ,クジマチ,青森県三戸郡三戸町久慈町
0390143,青森県,三戸郡三戸町,川守田町,アオモリケン,サンノヘグンサンノヘマチ,カワモリタマチ,青森県三戸郡三戸町川守田町
0390144,青森県,三戸郡三戸町,六日町,アオモリケン,サンノヘグンサンノヘマチ,ムイカマチ,青森県三戸郡三戸町六日町
0390200,青森県,三戸郡田子町,,アオモリケン,サンノヘグンタッコマチ,,青森県三戸郡田子町
0390201,青森県,三戸郡田子町,田子,アオモリケン,サンノヘグンタッコマチ,タッコ,青森県三戸郡田子町田子
0390202,青森県,三戸郡田子町,相米,アオモリケン,サンノヘグンタッコマチ,ソウマイ,青森県三戸郡田子町相米
0390311,青森県,三戸郡田子町,原,アオモリケン,サンノヘグンタッコマチ,ハラ,青森県三戸郡田子町原
0390312,青森県,三戸郡田子町,石亀,アオモリケン,サンノヘグンタッコマチ,イシガメ,青森県三戸郡田子町石亀
0390313,青森県,三戸郡田子町,茂市,アオモリケン,サンノヘグンタッコマチ,モイチ,青森県三戸郡田子町茂市
0390314,青森県,三戸郡田子町,遠瀬,アオモリケン,サンノヘグンタッコマチ,トウセ,青森県三戸郡田子町遠瀬
0390315,青森県,三戸郡田子町,夏坂,アオモリケン,サンノヘグンタッコマチ,ナツサカ,青森県三戸郡田子町夏坂
0390316,青森県,三戸郡田子町,関,アオモリケン,サンノヘグンタッコマチ,セキ,青森県三戸郡田子町関
0390317,青森県,三戸郡田子町,山口,アオモリケン,サンノヘグンタッコマチ,ヤマグチ,青森県三戸郡田子町山口
0390451,青森県,三戸郡三戸町,蛇沼,アオモリケン,サンノヘグンサンノヘマチ,ジャヌマ,青森県三戸郡三戸町蛇沼
0390452,青森県,三戸郡三戸町,袴田,アオモリケン,サンノヘグンサンノヘマチ,ハカマダ,青森県三戸郡三戸町袴田
0390453,青森県,三戸郡三戸町,貝守,アオモリケン,サンノヘグンサンノヘマチ,カイモリ,青森県三戸郡三戸町貝守
0390501,青森県,三戸郡南部町,上名久井,アオモリケン,サンノヘグンナンブチョウ,カミナクイ,青森県三戸郡南部町上名久井
0390502,青森県,三戸郡南部町,下名久井,アオモリケン,サンノヘグンナンブチョウ,シモナクイ,青森県三戸郡南部町下名久井
0390503,青森県,三戸郡南部町,平,アオモリケン,サンノヘグンナンブチョウ,タイラ,青森県三戸郡南部町平
0390504,青森県,三戸郡南部町,鳥舌内,アオモリケン,サンノヘグンナンブチョウ,チョウシタナイ,青森県三戸郡南部町鳥舌内
0390505,青森県,三戸郡南部町,鳥谷,アオモリケン,サンノヘグンナンブチョウ,トヤ,青森県三戸郡南部町鳥谷
0390506,青森県,三戸郡南部町,法光寺,アオモリケン,サンノヘグンナンブチョウ,ホウコウジ,青森県三戸郡南部町法光寺
0390507,青森県,三戸郡南部町,高瀬,アオモリケン,サンノヘグンナンブチョウ,タカセ,青森県三戸郡南部町高瀬
0390606,青森県,三戸郡南部町,相内（柏木久保、鴨ノ首、留ノ沢、沼久保、屋敷久保）,アオモリケン,サンノヘグンナンブチョウ,アイナイ(カシワギクボ、カモノクビ、トメノサワ、ヌマクボ、ヤシキクボ),青森県三戸郡南部町相内（柏木久保、鴨ノ首、留ノ沢、沼久保、屋敷久保）
0390611,青森県,三戸郡南部町,斗賀,アオモリケン,サンノヘグンナンブチョウ,トガ,青森県三戸郡南部町斗賀
0390612,青森県,三戸郡南部町,剣吉,アオモリケン,サンノヘグンナンブチョウ,ケンヨシ,青森県三戸郡南部町剣吉
0390613,青森県,三戸郡南部町,森越,アオモリケン,サンノヘグンナンブチョウ,モリコシ,青森県三戸郡南部町森越
0390614,青森県,三戸郡南部町,虎渡,アオモリケン,サンノヘグンナンブチョウ,トラト,青森県三戸郡南部町虎渡
0390801,青森県,三戸郡南部町,片岸,アオモリケン,サンノヘグンナンブチョウ,カタギシ,青森県三戸郡南部町片岸
0390802,青森県,三戸郡南部町,苫米地,アオモリケン,サンノヘグンナンブチョウ,トマベチ,青森県三戸郡南部町苫米地
0390803,青森県,三戸郡南部町,麦沢,アオモリケン,サンノヘグンナンブチョウ,ムギサワ,青森県三戸郡南部町麦沢
0390804,青森県,三戸郡南部町,高橋,アオモリケン,サンノヘグンナンブチョウ,タカハシ,青森県三戸郡南部町高橋
0390805,青森県,三戸郡南部町,小泉,アオモリケン,サンノヘグンナンブチョウ,コイズミ,青森県三戸郡南部町小泉
0390811,青森県,三戸郡南部町,法師岡,アオモリケン,サンノヘグンナンブチョウ,ホウシオカ,青森県三戸郡南部町法師岡
0390812,青森県,三戸郡南部町,椛木,アオモリケン,サンノヘグンナンブチョウ,カバキ,青森県三戸郡南部町椛木
0390813,青森県,三戸郡南部町,杉沢,アオモリケン,サンノヘグンナンブチョウ,スギサワ,青森県三戸郡南部町杉沢
0390814,青森県,三戸郡南部町,埖渡,アオモリケン,サンノヘグンナンブチョウ,ゴミワタリ,青森県三戸郡南部町埖渡
0390815,青森県,三戸郡南部町,福田,アオモリケン,サンノヘグンナンブチョウ,フクダ,青森県三戸郡南部町福田
0391101,青森県,八戸市,尻内町,アオモリケン,ハチノヘシ,シリウチマチ,青森県八戸市尻内町
0391102,青森県,八戸市,一番町,アオモリケン,ハチノヘシ,イチバンチョウ,青森県八戸市一番町
0391103,青森県,八戸市,長苗代,アオモリケン,ハチノヘシ,ナガナワシロ,青森県八戸市長苗代
0391104,青森県,八戸市,田面木,アオモリケン,ハチノヘシ,タモノキ,青森県八戸市田面木
0391105,青森県,八戸市,八幡,アオモリケン,ハチノヘシ,ヤワタ,青森県八戸市八幡
0391106,青森県,八戸市,坂牛,アオモリケン,ハチノヘシ,サカウシ,青森県八戸市坂牛
0391107,青森県,八戸市,櫛引（その他）,アオモリケン,ハチノヘシ,クシビキ(ソノタ),青森県八戸市櫛引（その他）
0391108,青森県,八戸市,上野,アオモリケン,ハチノヘシ,ウワノ,青森県八戸市上野
0391109,青森県,八戸市,豊崎町,アオモリケン,ハチノヘシ,トヨサキマチ,青森県八戸市豊崎町
0391111,青森県,八戸市,東白山台,アオモリケン,ハチノヘシ,ヒガシハクサンダイ,青森県八戸市東白山台
0391112,青森県,八戸市,南白山台,アオモリケン,ハチノヘシ,ミナミハクサンダイ,青森県八戸市南白山台
0391113,青森県,八戸市,西白山台,アオモリケン,ハチノヘシ,ニシハクサンダイ,青森県八戸市西白山台
0391114,青森県,八戸市,北白山台,アオモリケン,ハチノヘシ,キタハクサンダイ,青森県八戸市北白山台
0391121,青森県,八戸市,卸センター,アオモリケン,ハチノヘシ,オロシセンター,青森県八戸市卸センター
0391160,青森県,八戸市,小田,アオモリケン,ハチノヘシ,コダ,青森県八戸市小田
0391161,青森県,八戸市,河原木,アオモリケン,ハチノヘシ,カワラギ,青森県八戸市河原木
0391162,青森県,八戸市,豊洲,アオモリケン,ハチノヘシ,トヨス,青森県八戸市豊洲
0391163,青森県,八戸市,高州,アオモリケン,ハチノヘシ,タカス,青森県八戸市高州
0391164,青森県,八戸市,下長,アオモリケン,ハチノヘシ,シモナガ,青森県八戸市下長
0391165,青森県,八戸市,石堂,アオモリケン,ハチノヘシ,イシドウ,青森県八戸市石堂
0391166,青森県,八戸市,根城,アオモリケン,ハチノヘシ,ネジョウ,青森県八戸市根城
0391167,青森県,八戸市,沢里,アオモリケン,ハチノヘシ,サワサト,青森県八戸市沢里
0391168,青森県,八戸市,八太郎,アオモリケン,ハチノヘシ,ハッタロウ,青森県八戸市八太郎
0391169,青森県,八戸市,日計,アオモリケン,ハチノヘシ,ヒバカリ,青森県八戸市日計
0391200,青森県,三戸郡階上町,,アオモリケン,サンノヘグンハシカミチョウ,,青森県三戸郡階上町
0391201,青森県,三戸郡階上町,道仏,アオモリケン,サンノヘグンハシカミチョウ,ドウブツ,青森県三戸郡階上町道仏
0391202,青森県,三戸郡階上町,赤保内,アオモリケン,サンノヘグンハシカミチョウ,アカボナイ,青森県三戸郡階上町赤保内
0391203,青森県,三戸郡階上町,鳥屋部,アオモリケン,サンノヘグンハシカミチョウ,トヤベ,青森県三戸郡階上町鳥屋部
0391204,青森県,三戸郡階上町,平内,アオモリケン,サンノヘグンハシカミチョウ,ヒラナイ,青森県三戸郡階上町平内
0391205,青森県,三戸郡階上町,晴山沢,アオモリケン,サンノヘグンハシカミチョウ,ハレヤマサワ,青森県三戸郡階上町晴山沢
0391206,青森県,三戸郡階上町,田代,アオモリケン,サンノヘグンハシカミチョウ,タシロ,青森県三戸郡階上町田代
0391207,青森県,三戸郡階上町,金山沢,アオモリケン,サンノヘグンハシカミチョウ,カネヤマサワ,青森県三戸郡階上町金山沢
0391208,青森県,三戸郡階上町,角柄折,アオモリケン,サンノヘグンハシカミチョウ,ツノガラオリ,青森県三戸郡階上町角柄折
0391211,青森県,三戸郡階上町,蒼前東,アオモリケン,サンノヘグンハシカミチョウ,ソウゼンヒガシ,青森県三戸郡階上町蒼前東
0391212,青森県,三戸郡階上町,蒼前西,アオモリケン,サンノヘグンハシカミチョウ,ソウゼンニシ,青森県三戸郡階上町蒼前西
0391500,青森県,三戸郡五戸町,,アオモリケン,サンノヘグンゴノヘマチ,,青森県三戸郡五戸町
0391501,青森県,三戸郡五戸町,上市川,アオモリケン,サンノヘグンゴノヘマチ,カミイチカワ,青森県三戸郡五戸町上市川
0391502,青森県,三戸郡五戸町,切谷内（その他）,アオモリケン,サンノヘグンゴノヘマチ,キリヤナイ(ソノタ),青森県三戸郡五戸町切谷内（その他）
0391503,青森県,三戸郡五戸町,佐野上谷地,アオモリケン,サンノヘグンゴノヘマチ,サノカミヤチ,青森県三戸郡五戸町佐野上谷地
0391503,青森県,三戸郡五戸町,大久保,アオモリケン,サンノヘグンゴノヘマチ,オオクボ,青森県三戸郡五戸町大久保
0391503,青森県,三戸郡五戸町,鮫ノ口,アオモリケン,サンノヘグンゴノヘマチ,サメノクチ,青森県三戸郡五戸町鮫ノ口
0391504,青森県,三戸郡五戸町,上兎内,アオモリケン,サンノヘグンゴノヘマチ,カミウサギナイ,青森県三戸郡五戸町上兎内
0391504,青森県,三戸郡五戸町,兎内,アオモリケン,サンノヘグンゴノヘマチ,ウサギナイ,青森県三戸郡五戸町兎内
0391504,青森県,三戸郡五戸町,兎内上保土沢,アオモリケン,サンノヘグンゴノヘマチ,ウサギナイカミホトザワ,青森県三戸郡五戸町兎内上保土沢
0391504,青森県,三戸郡五戸町,兎内下保土沢,アオモリケン,サンノヘグンゴノヘマチ,ウサギナイシモホトザワ,青森県三戸郡五戸町兎内下保土沢
0391504,青森県,三戸郡五戸町,兎内下川原,アオモリケン,サンノヘグンゴノヘマチ,ウサギナイシモカワラ,青森県三戸郡五戸町兎内下川原
0391504,青森県,三戸郡五戸町,兎内下谷地,アオモリケン,サンノヘグンゴノヘマチ,ウサギナイシモヤチ,青森県三戸郡五戸町兎内下谷地
0391505,青森県,三戸郡五戸町,石仏,アオモリケン,サンノヘグンゴノヘマチ,イシボトケ,青森県三戸郡五戸町石仏
0391505,青森県,三戸郡五戸町,石仏上川原,アオモリケン,サンノヘグンゴノヘマチ,イシボトケカミカワラ,青森県三戸郡五戸町石仏上川原
0391505,青森県,三戸郡五戸町,石仏下川原,アオモリケン,サンノヘグンゴノヘマチ,イシボトケシモカワラ,青森県三戸郡五戸町石仏下川原
0391505,青森県,三戸郡五戸町,石仏前,アオモリケン,サンノヘグンゴノヘマチ,イシボトケマエ,青森県三戸郡五戸町石仏前
0391506,青森県,三戸郡五戸町,熊野林,アオモリケン,サンノヘグンゴノヘマチ,クマノバヤシ,青森県三戸郡五戸町熊野林
0391506,青森県,三戸郡五戸町,熊野林前,アオモリケン,サンノヘグンゴノヘマチ,クマノバヤシマエ,青森県三戸郡五戸町熊野林前
0391506,青森県,三戸郡五戸町,熊野林後,アオモリケン,サンノヘグンゴノヘマチ,クマノバヤシウシロ,青森県三戸郡五戸町熊野林後
0391507,青森県,三戸郡五戸町,上谷地,アオモリケン,サンノヘグンゴノヘマチ,カミヤチ,青森県三戸郡五戸町上谷地
0391507,青森県,三戸郡五戸町,中森,アオモリケン,サンノヘグンゴノヘマチ,ナカモリ,青森県三戸郡五戸町中森
0391507,青森県,三戸郡五戸町,蛯川前川原,アオモリケン,サンノヘグンゴノヘマチ,エビカワマエカワラ,青森県三戸郡五戸町蛯川前川原
0391507,青森県,三戸郡五戸町,蛯川後,アオモリケン,サンノヘグンゴノヘマチ,エビカワウシロ,青森県三戸郡五戸町蛯川後
0391507,青森県,三戸郡五戸町,蛯川村,アオモリケン,サンノヘグンゴノヘマチ,エビカワムラ,青森県三戸郡五戸町蛯川村
0391508,青森県,三戸郡五戸町,上新道,アオモリケン,サンノヘグンゴノヘマチ,カミシンミチ,青森県三戸郡五戸町上新道
0391508,青森県,三戸郡五戸町,下新道,アオモリケン,サンノヘグンゴノヘマチ,シモシンミチ,青森県三戸郡五戸町下新道
0391508,青森県,三戸郡五戸町,中寄,アオモリケン,サンノヘグンゴノヘマチ,ナカヨリ,青森県三戸郡五戸町中寄
0391508,青森県,三戸郡五戸町,土取場,アオモリケン,サンノヘグンゴノヘマチ,ツチトリバ,青森県三戸郡五戸町土取場
0391508,青森県,三戸郡五戸町,赤川,アオモリケン,サンノヘグンゴノヘマチ,アカガワ,青森県三戸郡五戸町赤川
0391508,青森県,三戸郡五戸町,赤川前,アオモリケン,サンノヘグンゴノヘマチ,アカガワマエ,青森県三戸郡五戸町赤川前
0391511,青森県,三戸郡五戸町,丁塚,アオモリケン,サンノヘグンゴノヘマチ,チョウヅカ,青森県三戸郡五戸町丁塚
0391511,青森県,三戸郡五戸町,鍜冶屋敷,アオモリケン,サンノヘグンゴノヘマチ,カジヤシキ,青森県三戸郡五戸町鍜冶屋敷
0391511,青森県,三戸郡五戸町,鍜冶屋窪,アオモリケン,サンノヘグンゴノヘマチ,カジヤクボ,青森県三戸郡五戸町鍜冶屋窪
0391511,青森県,三戸郡五戸町,鍜冶屋窪上ミ,アオモリケン,サンノヘグンゴノヘマチ,カジヤクボカミ,青森県三戸郡五戸町鍜冶屋窪上ミ
0391512,青森県,三戸郡五戸町,西ノ沢,アオモリケン,サンノヘグンゴノヘマチ,ニシノサワ,青森県三戸郡五戸町西ノ沢
0391513,青森県,三戸郡五戸町,古館,アオモリケン,サンノヘグンゴノヘマチ,フルダテ,青森県三戸郡五戸町古館
0391513,青森県,三戸郡五戸町,古館向,アオモリケン,サンノヘグンゴノヘマチ,フルダテムカイ,青森県三戸郡五戸町古館向
0391513,青森県,三戸郡五戸町,古館向川原,アオモリケン,サンノヘグンゴノヘマチ,フルダテムカイカワラ,青森県三戸郡五戸町古館向川原
0391513,青森県,三戸郡五戸町,古館脇,アオモリケン,サンノヘグンゴノヘマチ,フルダテワキ,青森県三戸郡五戸町古館脇
0391514,青森県,三戸郡五戸町,下中崎,アオモリケン,サンノヘグンゴノヘマチ,シモナカサキ,青森県三戸郡五戸町下中崎
0391514,青森県,三戸郡五戸町,中崎,アオモリケン,サンノヘグンゴノヘマチ,ナカザキ,青森県三戸郡五戸町中崎
0391515,青森県,三戸郡五戸町,治郎左エ門長根,アオモリケン,サンノヘグンゴノヘマチ,ジロウザエモンナガネ,青森県三戸郡五戸町治郎左エ門長根
0391515,青森県,三戸郡五戸町,熊ノ沢,アオモリケン,サンノヘグンゴノヘマチ,クマノサワ,青森県三戸郡五戸町熊ノ沢
0391515,青森県,三戸郡五戸町,熊ノ沢頭,アオモリケン,サンノヘグンゴノヘマチ,クマノサワガシラ,青森県三戸郡五戸町熊ノ沢頭
0391516,青森県,三戸郡五戸町,市川道十文字,アオモリケン,サンノヘグンゴノヘマチ,イチカワミチジュウモンジ,青森県三戸郡五戸町市川道十文字
0391517,青森県,三戸郡五戸町,沢向,アオモリケン,サンノヘグンゴノヘマチ,サワムカイ,青森県三戸郡五戸町沢向
0391518,青森県,三戸郡五戸町,下モ沢向,アオモリケン,サンノヘグンゴノヘマチ,シモサワムカイ,青森県三戸郡五戸町下モ沢向
0391519,青森県,三戸郡五戸町,天満,アオモリケン,サンノヘグンゴノヘマチ,テンマン,青森県三戸郡五戸町天満
0391519,青森県,三戸郡五戸町,天満下川原,アオモリケン,サンノヘグンゴノヘマチ,テンマンシモカワラ,青森県三戸郡五戸町天満下川原
0391519,青森県,三戸郡五戸町,天満後,アオモリケン,サンノヘグンゴノヘマチ,テンマンウシロ,青森県三戸郡五戸町天満後
0391521,青森県,三戸郡五戸町,久蔵窪,アオモリケン,サンノヘグンゴノヘマチ,キュウゾウクボ,青森県三戸郡五戸町久蔵窪
0391521,青森県,三戸郡五戸町,五百窪,アオモリケン,サンノヘグンゴノヘマチ,イオクボ,青森県三戸郡五戸町五百窪
0391521,青森県,三戸郡五戸町,大渡,アオモリケン,サンノヘグンゴノヘマチ,オオワタリ,青森県三戸郡五戸町大渡
0391521,青森県,三戸郡五戸町,大渡道ノ下,アオモリケン,サンノヘグンゴノヘマチ,オオワタリミチノシモ,青森県三戸郡五戸町大渡道ノ下
0391521,青森県,三戸郡五戸町,泉窪,アオモリケン,サンノヘグンゴノヘマチ,イズミクボ,青森県三戸郡五戸町泉窪
0391522,青森県,三戸郡五戸町,小渡,アオモリケン,サンノヘグンゴノヘマチ,コワタリ,青森県三戸郡五戸町小渡
0391522,青森県,三戸郡五戸町,小渡頭,アオモリケン,サンノヘグンゴノヘマチ,コワタリガシラ,青森県三戸郡五戸町小渡頭
0391522,青森県,三戸郡五戸町,徳良窪,アオモリケン,サンノヘグンゴノヘマチ,トクラクボ,青森県三戸郡五戸町徳良窪
0391522,青森県,三戸郡五戸町,苗代沢,アオモリケン,サンノヘグンゴノヘマチ,ナシロザワ,青森県三戸郡五戸町苗代沢
0391523,青森県,三戸郡五戸町,上保土沢,アオモリケン,サンノヘグンゴノヘマチ,カミホトザワ,青森県三戸郡五戸町上保土沢
0391523,青森県,三戸郡五戸町,下保土沢,アオモリケン,サンノヘグンゴノヘマチ,シモホトザワ,青森県三戸郡五戸町下保土沢
0391523,青森県,三戸郡五戸町,新蔵長根,アオモリケン,サンノヘグンゴノヘマチ,シンゾウナガネ,青森県三戸郡五戸町新蔵長根
0391524,青森県,三戸郡五戸町,豊間内,アオモリケン,サンノヘグンゴノヘマチ,トヨマナイ,青森県三戸郡五戸町豊間内
0391525,青森県,三戸郡五戸町,地蔵岱,アオモリケン,サンノヘグンゴノヘマチ,ジゾウタイ,青森県三戸郡五戸町地蔵岱
0391526,青森県,三戸郡五戸町,上長下,アオモリケン,サンノヘグンゴノヘマチ,カミナガシタ,青森県三戸郡五戸町上長下
0391526,青森県,三戸郡五戸町,下長下,アオモリケン,サンノヘグンゴノヘマチ,シモナガシタ,青森県三戸郡五戸町下長下
0391526,青森県,三戸郡五戸町,惣林橋,アオモリケン,サンノヘグンゴノヘマチ,ソウリンバシ,青森県三戸郡五戸町惣林橋
0391527,青森県,三戸郡五戸町,扇田,アオモリケン,サンノヘグンゴノヘマチ,オウギダ,青森県三戸郡五戸町扇田
0391528,青森県,三戸郡五戸町,浅水,アオモリケン,サンノヘグンゴノヘマチ,アサミズ,青森県三戸郡五戸町浅水
0391529,青森県,三戸郡五戸町,手倉橋,アオモリケン,サンノヘグンゴノヘマチ,テグラバシ,青森県三戸郡五戸町手倉橋
0391531,青森県,三戸郡五戸町,狐森,アオモリケン,サンノヘグンゴノヘマチ,キツネモリ,青森県三戸郡五戸町狐森
0391531,青森県,三戸郡五戸町,狐森北,アオモリケン,サンノヘグンゴノヘマチ,キツネモリキタ,青森県三戸郡五戸町狐森北
0391532,青森県,三戸郡五戸町,観音堂,アオモリケン,サンノヘグンゴノヘマチ,カンノンドウ,青森県三戸郡五戸町観音堂
0391533,青森県,三戸郡五戸町,上大町,アオモリケン,サンノヘグンゴノヘマチ,カミオオマチ,青森県三戸郡五戸町上大町
0391533,青森県,三戸郡五戸町,野月,アオモリケン,サンノヘグンゴノヘマチ,ノヅキ,青森県三戸郡五戸町野月
0391534,青森県,三戸郡五戸町,荒町,アオモリケン,サンノヘグンゴノヘマチ,アラマチ,青森県三戸郡五戸町荒町
0391535,青森県,三戸郡五戸町,新丁,アオモリケン,サンノヘグンゴノヘマチ,シンチョウ,青森県三戸郡五戸町新丁
0391536,青森県,三戸郡五戸町,愛宕丁,アオモリケン,サンノヘグンゴノヘマチ,アタゴチョウ,青森県三戸郡五戸町愛宕丁
0391536,青森県,三戸郡五戸町,愛宕下タ,アオモリケン,サンノヘグンゴノヘマチ,アタゴシタ,青森県三戸郡五戸町愛宕下タ
0391536,青森県,三戸郡五戸町,愛宕後,アオモリケン,サンノヘグンゴノヘマチ,アタゴウシロ,青森県三戸郡五戸町愛宕後
0391537,青森県,三戸郡五戸町,ウルエ長根,アオモリケン,サンノヘグンゴノヘマチ,ウルエナガネ,青森県三戸郡五戸町ウルエ長根
0391537,青森県,三戸郡五戸町,ウルエ長根下,アオモリケン,サンノヘグンゴノヘマチ,ウルエナガネシタ,青森県三戸郡五戸町ウルエ長根下
0391537,青森県,三戸郡五戸町,二本柳,アオモリケン,サンノヘグンゴノヘマチ,ニホンヤナギ,青森県三戸郡五戸町二本柳
0391537,青森県,三戸郡五戸町,二本柳向,アオモリケン,サンノヘグンゴノヘマチ,ニホンヤナギムカイ,青森県三戸郡五戸町二本柳向
0391537,青森県,三戸郡五戸町,追分,アオモリケン,サンノヘグンゴノヘマチ,オイワケ,青森県三戸郡五戸町追分
0391538,青森県,三戸郡五戸町,古街道長根,アオモリケン,サンノヘグンゴノヘマチ,フルカイドウナガネ,青森県三戸郡五戸町古街道長根
0391538,青森県,三戸郡五戸町,塚無岱,アオモリケン,サンノヘグンゴノヘマチ,ツカナシタイ,青森県三戸郡五戸町塚無岱
0391539,青森県,三戸郡五戸町,中ノ沢,アオモリケン,サンノヘグンゴノヘマチ,ナカノサワ,青森県三戸郡五戸町中ノ沢
0391539,青森県,三戸郡五戸町,中ノ沢西張,アオモリケン,サンノヘグンゴノヘマチ,ナカノサワニシハリ,青森県三戸郡五戸町中ノ沢西張
0391539,青森県,三戸郡五戸町,石沢境,アオモリケン,サンノヘグンゴノヘマチ,イシザワサカイ,青森県三戸郡五戸町石沢境
0391541,青森県,三戸郡五戸町,新田窪,アオモリケン,サンノヘグンゴノヘマチ,シンデンクボ,青森県三戸郡五戸町新田窪
0391542,青森県,三戸郡五戸町,中道,アオモリケン,サンノヘグンゴノヘマチ,ナカミチ,青森県三戸郡五戸町中道
0391542,青森県,三戸郡五戸町,中道十文字,アオモリケン,サンノヘグンゴノヘマチ,ナカミチジュウモンジ,青森県三戸郡五戸町中道十文字
0391543,青森県,三戸郡五戸町,竹原,アオモリケン,サンノヘグンゴノヘマチ,タケハラ,青森県三戸郡五戸町竹原
0391544,青森県,三戸郡五戸町,二階平,アオモリケン,サンノヘグンゴノヘマチ,ニカイダイラ,青森県三戸郡五戸町二階平
0391544,青森県,三戸郡五戸町,二階平下タ,アオモリケン,サンノヘグンゴノヘマチ,ニカイダイラシタ,青森県三戸郡五戸町二階平下タ
0391545,青森県,三戸郡五戸町,正場沢,アオモリケン,サンノヘグンゴノヘマチ,ショウバサワ,青森県三戸郡五戸町正場沢
0391545,青森県,三戸郡五戸町,正場沢長根,アオモリケン,サンノヘグンゴノヘマチ,ショウバサワナガネ,青森県三戸郡五戸町正場沢長根
0391546,青森県,三戸郡五戸町,下タノ沢,アオモリケン,サンノヘグンゴノヘマチ,シタノサワ,青森県三戸郡五戸町下タノ沢
0391546,青森県,三戸郡五戸町,下タノ沢頭,アオモリケン,サンノヘグンゴノヘマチ,シタノサワガシラ,青森県三戸郡五戸町下タノ沢頭
0391546,青森県,三戸郡五戸町,土井頭,アオモリケン,サンノヘグンゴノヘマチ,ドイガシラ,青森県三戸郡五戸町土井頭
0391547,青森県,三戸郡五戸町,神明後,アオモリケン,サンノヘグンゴノヘマチ,シンメイウシロ,青森県三戸郡五戸町神明後
0391548,青森県,三戸郡五戸町,新町,アオモリケン,サンノヘグンゴノヘマチ,シンマチ,青森県三戸郡五戸町新町
0391551,青森県,三戸郡五戸町,上新井田,アオモリケン,サンノヘグンゴノヘマチ,カミニイダ,青森県三戸郡五戸町上新井田
0391551,青森県,三戸郡五戸町,上新井田前,アオモリケン,サンノヘグンゴノヘマチ,カミニイダマエ,青森県三戸郡五戸町上新井田前
0391552,青森県,三戸郡五戸町,上高田,アオモリケン,サンノヘグンゴノヘマチ,カミタカダ,青森県三戸郡五戸町上高田
0391552,青森県,三戸郡五戸町,中高田,アオモリケン,サンノヘグンゴノヘマチ,ナカタカダ,青森県三戸郡五戸町中高田
0391552,青森県,三戸郡五戸町,姥堤,アオモリケン,サンノヘグンゴノヘマチ,ウバヅツミ,青森県三戸郡五戸町姥堤
0391552,青森県,三戸郡五戸町,筒口川原,アオモリケン,サンノヘグンゴノヘマチ,ドウグチカワラ,青森県三戸郡五戸町筒口川原
0391553,青森県,三戸郡五戸町,川原町下裏,アオモリケン,サンノヘグンゴノヘマチ,カワラマチシモウラ,青森県三戸郡五戸町川原町下裏
0391553,青森県,三戸郡五戸町,川原町西裏,アオモリケン,サンノヘグンゴノヘマチ,カワラマチニシウラ,青森県三戸郡五戸町川原町西裏
0391554,青森県,三戸郡五戸町,傳兵ヱ丁,アオモリケン,サンノヘグンゴノヘマチ,デンベエチョウ,青森県三戸郡五戸町傳兵ヱ丁
0391554,青森県,三戸郡五戸町,川原町,アオモリケン,サンノヘグンゴノヘマチ,カワラマチ,青森県三戸郡五戸町川原町
0391554,青森県,三戸郡五戸町,川原町裏,アオモリケン,サンノヘグンゴノヘマチ,カワラマチウラ,青森県三戸郡五戸町川原町裏
0391555,青森県,三戸郡五戸町,下高田,アオモリケン,サンノヘグンゴノヘマチ,シモタカダ,青森県三戸郡五戸町下高田
0391555,青森県,三戸郡五戸町,古堂,アオモリケン,サンノヘグンゴノヘマチ,フルドウ,青森県三戸郡五戸町古堂
0391555,青森県,三戸郡五戸町,古堂後,アオモリケン,サンノヘグンゴノヘマチ,フルドウウシロ,青森県三戸郡五戸町古堂後
0391556,青森県,三戸郡五戸町,油出,アオモリケン,サンノヘグンゴノヘマチ,アブラデ,青森県三戸郡五戸町油出
0391557,青森県,三戸郡五戸町,上川原,アオモリケン,サンノヘグンゴノヘマチ,カミカワラ,青森県三戸郡五戸町上川原
0391557,青森県,三戸郡五戸町,八景,アオモリケン,サンノヘグンゴノヘマチ,ハッケイ,青森県三戸郡五戸町八景
0391558,青森県,三戸郡五戸町,博労町,アオモリケン,サンノヘグンゴノヘマチ,バクロウマチ,青森県三戸郡五戸町博労町
0391558,青森県,三戸郡五戸町,堀合,アオモリケン,サンノヘグンゴノヘマチ,ホリアイ,青森県三戸郡五戸町堀合
0391558,青森県,三戸郡五戸町,沢,アオモリケン,サンノヘグンゴノヘマチ,サワ,青森県三戸郡五戸町沢
0391558,青森県,三戸郡五戸町,館,アオモリケン,サンノヘグンゴノヘマチ,タテ,青森県三戸郡五戸町館
0391559,青森県,三戸郡五戸町,下大町,アオモリケン,サンノヘグンゴノヘマチ,シモオオマチ,青森県三戸郡五戸町下大町
0391559,青森県,三戸郡五戸町,横丁,アオモリケン,サンノヘグンゴノヘマチ,ヨコチョウ,青森県三戸郡五戸町横丁
0391561,青森県,三戸郡五戸町,赤坂,アオモリケン,サンノヘグンゴノヘマチ,アカサカ,青森県三戸郡五戸町赤坂
0391561,青森県,三戸郡五戸町,越掛沢,アオモリケン,サンノヘグンゴノヘマチ,コシカケザワ,青森県三戸郡五戸町越掛沢
0391561,青森県,三戸郡五戸町,越掛沢前,アオモリケン,サンノヘグンゴノヘマチ,コシカケザワマエ,青森県三戸郡五戸町越掛沢前
0391561,青森県,三戸郡五戸町,越掛沢道下モ,アオモリケン,サンノヘグンゴノヘマチ,コシカケザワミチノシモ,青森県三戸郡五戸町越掛沢道下モ
0391562,青森県,三戸郡五戸町,白山,アオモリケン,サンノヘグンゴノヘマチ,ハクサン,青森県三戸郡五戸町白山
0391562,青森県,三戸郡五戸町,白山前,アオモリケン,サンノヘグンゴノヘマチ,ハクサンマエ,青森県三戸郡五戸町白山前
0391562,青森県,三戸郡五戸町,鹿内,アオモリケン,サンノヘグンゴノヘマチ,シカナイ,青森県三戸郡五戸町鹿内
0391562,青森県,三戸郡五戸町,鹿内下モ,アオモリケン,サンノヘグンゴノヘマチ,シカナイシモ,青森県三戸郡五戸町鹿内下モ
0391562,青森県,三戸郡五戸町,鹿内前,アオモリケン,サンノヘグンゴノヘマチ,シカナイマエ,青森県三戸郡五戸町鹿内前
0391562,青森県,三戸郡五戸町,鹿内沖,アオモリケン,サンノヘグンゴノヘマチ,シカナイオキ,青森県三戸郡五戸町鹿内沖
0391563,青森県,三戸郡五戸町,大学沢,アオモリケン,サンノヘグンゴノヘマチ,ダイガクザワ,青森県三戸郡五戸町大学沢
0391563,青森県,三戸郡五戸町,大学沢向,アオモリケン,サンノヘグンゴノヘマチ,ダイガクザワムカイ,青森県三戸郡五戸町大学沢向
0391563,青森県,三戸郡五戸町,大工窪,アオモリケン,サンノヘグンゴノヘマチ,ダイククボ,青森県三戸郡五戸町大工窪
0391563,青森県,三戸郡五戸町,岡谷地,アオモリケン,サンノヘグンゴノヘマチ,オカヤチ,青森県三戸郡五戸町岡谷地
0391563,青森県,三戸郡五戸町,平佐窪,アオモリケン,サンノヘグンゴノヘマチ,ヘイサクボ,青森県三戸郡五戸町平佐窪
0391563,青森県,三戸郡五戸町,毛無森,アオモリケン,サンノヘグンゴノヘマチ,ケナシモリ,青森県三戸郡五戸町毛無森
0391564,青森県,三戸郡五戸町,六角,アオモリケン,サンノヘグンゴノヘマチ,ロッカク,青森県三戸郡五戸町六角
0391564,青森県,三戸郡五戸町,古館下川原,アオモリケン,サンノヘグンゴノヘマチ,フルダテシモカワラ,青森県三戸郡五戸町古館下川原
0391565,青森県,三戸郡五戸町,下新井田,アオモリケン,サンノヘグンゴノヘマチ,シモニイダ,青森県三戸郡五戸町下新井田
0391565,青森県,三戸郡五戸町,下新井田前,アオモリケン,サンノヘグンゴノヘマチ,シモニイダマエ,青森県三戸郡五戸町下新井田前
0391565,青森県,三戸郡五戸町,花道川原,アオモリケン,サンノヘグンゴノヘマチ,ハナミチカワラ,青森県三戸郡五戸町花道川原
0391566,青森県,三戸郡五戸町,幸ノ神,アオモリケン,サンノヘグンゴノヘマチ,サイノカミ,青森県三戸郡五戸町幸ノ神
0391566,青森県,三戸郡五戸町,幸ノ神前,アオモリケン,サンノヘグンゴノヘマチ,サイノカミマエ,青森県三戸郡五戸町幸ノ神前
0391567,青森県,三戸郡五戸町,上大平楽,アオモリケン,サンノヘグンゴノヘマチ,カミタイヘイラク,青森県三戸郡五戸町上大平楽
0391567,青森県,三戸郡五戸町,下大平楽,アオモリケン,サンノヘグンゴノヘマチ,シモタイヘイラク,青森県三戸郡五戸町下大平楽
0391568,青森県,三戸郡五戸町,一本木,アオモリケン,サンノヘグンゴノヘマチ,イッポンギ,青森県三戸郡五戸町一本木
0391568,青森県,三戸郡五戸町,一本木前,アオモリケン,サンノヘグンゴノヘマチ,イッポンギマエ,青森県三戸郡五戸町一本木前
0391568,青森県,三戸郡五戸町,傘松,アオモリケン,サンノヘグンゴノヘマチ,カラカサマツ,青森県三戸郡五戸町傘松
0391568,青森県,三戸郡五戸町,傘松前,アオモリケン,サンノヘグンゴノヘマチ,カラカサマツマエ,青森県三戸郡五戸町傘松前
0391568,青森県,三戸郡五戸町,應田,アオモリケン,サンノヘグンゴノヘマチ,オウダ,青森県三戸郡五戸町應田
0391568,青森県,三戸郡五戸町,銀杏木,アオモリケン,サンノヘグンゴノヘマチ,イチョウノキ,青森県三戸郡五戸町銀杏木
0391568,青森県,三戸郡五戸町,銀杏木前,アオモリケン,サンノヘグンゴノヘマチ,イチョウノキマエ,青森県三戸郡五戸町銀杏木前
0391569,青森県,三戸郡五戸町,根岸,アオモリケン,サンノヘグンゴノヘマチ,ネギシ,青森県三戸郡五戸町根岸
0391569,青森県,三戸郡五戸町,虫追塚前,アオモリケン,サンノヘグンゴノヘマチ,ムシオイヅカマエ,青森県三戸郡五戸町虫追塚前
0391701,青森県,三戸郡五戸町,倉石石沢,アオモリケン,サンノヘグンゴノヘマチ,クライシイシザワ,青森県三戸郡五戸町倉石石沢
0391702,青森県,三戸郡五戸町,倉石中市,アオモリケン,サンノヘグンゴノヘマチ,クライシナカイチ,青森県三戸郡五戸町倉石中市
0391703,青森県,三戸郡五戸町,倉石又重,アオモリケン,サンノヘグンゴノヘマチ,クライシマタシゲ,青森県三戸郡五戸町倉石又重
0391800,青森県,三戸郡新郷村,,アオモリケン,サンノヘグンシンゴウムラ,,青森県三戸郡新郷村
0391801,青森県,三戸郡新郷村,戸来,アオモリケン,サンノヘグンシンゴウムラ,ヘライ,青森県三戸郡新郷村戸来
0391802,青森県,三戸郡新郷村,西越,アオモリケン,サンノヘグンシンゴウムラ,サイゴシ,青森県三戸郡新郷村西越
0392102,青森県,上北郡おいらせ町,豊栄,アオモリケン,カミキタグンオイラセチョウ,トヨサカエ,青森県上北郡おいらせ町豊栄
0392111,青森県,上北郡おいらせ町,西後谷地,アオモリケン,カミキタグンオイラセチョウ,ニシウシロヤチ,青森県上北郡おいらせ町西後谷地
0392112,青森県,上北郡おいらせ町,中野平,アオモリケン,カミキタグンオイラセチョウ,ナカノタイ,青森県上北郡おいらせ町中野平
0392113,青森県,上北郡おいらせ町,犬毛谷地,アオモリケン,カミキタグンオイラセチョウ,イヌケヤチ,青森県上北郡おいらせ町犬毛谷地
0392114,青森県,上北郡おいらせ町,高田,アオモリケン,カミキタグンオイラセチョウ,タカダ,青森県上北郡おいらせ町高田
0392115,青森県,上北郡おいらせ町,菜飯,アオモリケン,カミキタグンオイラセチョウ,ナメシ,青森県上北郡おいらせ町菜飯
0392116,青森県,上北郡おいらせ町,秋堂,アオモリケン,カミキタグンオイラセチョウ,アキドウ,青森県上北郡おいらせ町秋堂
0392117,青森県,上北郡おいらせ町,川端,アオモリケン,カミキタグンオイラセチョウ,カワバタ,青森県上北郡おいらせ町川端
0392118,青森県,上北郡おいらせ町,彦七川原,アオモリケン,カミキタグンオイラセチョウ,ヒコシチガワラ,青森県上北郡おいらせ町彦七川原
0392121,青森県,上北郡おいらせ町,下境,アオモリケン,カミキタグンオイラセチョウ,シモサカイ,青森県上北郡おいらせ町下境
0392122,青森県,上北郡おいらせ町,沼小屋,アオモリケン,カミキタグンオイラセチョウ,ヌマコヤ,青森県上北郡おいらせ町沼小屋
0392123,青森県,上北郡おいらせ町,西下谷地,アオモリケン,カミキタグンオイラセチョウ,ニシシモヤチ,青森県上北郡おいらせ町西下谷地
0392124,青森県,上北郡おいらせ町,境田,アオモリケン,カミキタグンオイラセチョウ,サカイダ,青森県上北郡おいらせ町境田
0392125,青森県,上北郡おいらせ町,三本木,アオモリケン,カミキタグンオイラセチョウ,サンボンギ,青森県上北郡おいらせ町三本木
0392126,青森県,上北郡おいらせ町,間木,アオモリケン,カミキタグンオイラセチョウ,マギ,青森県上北郡おいらせ町間木
0392127,青森県,上北郡おいらせ町,木崎,アオモリケン,カミキタグンオイラセチョウ,キザキ,青森県上北郡おいらせ町木崎
0392128,青森県,上北郡おいらせ町,染屋,アオモリケン,カミキタグンオイラセチョウ,ソメヤ,青森県上北郡おいらせ町染屋
0392129,青森県,上北郡おいらせ町,中平下長根山,アオモリケン,カミキタグンオイラセチョウ,ナカタイシモナガネヤマ,青森県上北郡おいらせ町中平下長根山
0392131,青森県,上北郡おいらせ町,向川原,アオモリケン,カミキタグンオイラセチョウ,ムカイカワラ,青森県上北郡おいらせ町向川原
0392132,青森県,上北郡おいらせ町,西前川原,アオモリケン,カミキタグンオイラセチョウ,ニシマエカワラ,青森県上北郡おいらせ町西前川原
0392133,青森県,上北郡おいらせ町,上川原,アオモリケン,カミキタグンオイラセチョウ,カミカワラ,青森県上北郡おいらせ町上川原
0392134,青森県,上北郡おいらせ町,馳下り,アオモリケン,カミキタグンオイラセチョウ,ハセクダリ,青森県上北郡おいらせ町馳下り
0392135,青森県,上北郡おいらせ町,立蛇,アオモリケン,カミキタグンオイラセチョウ,タチジャ,青森県上北郡おいらせ町立蛇
0392136,青森県,上北郡おいらせ町,中下田,アオモリケン,カミキタグンオイラセチョウ,ナカシモダ,青森県上北郡おいらせ町中下田
0392141,青森県,上北郡おいらせ町,明土,アオモリケン,カミキタグンオイラセチョウ,アケド,青森県上北郡おいらせ町明土
0392142,青森県,上北郡おいらせ町,小前谷地,アオモリケン,カミキタグンオイラセチョウ,コマエヤチ,青森県上北郡おいらせ町小前谷地
0392143,青森県,上北郡おいらせ町,上水下,アオモリケン,カミキタグンオイラセチョウ,ジョウスイシタ,青森県上北郡おいらせ町上水下
0392144,青森県,上北郡おいらせ町,丈の端,アオモリケン,カミキタグンオイラセチョウ,タケノハシ,青森県上北郡おいらせ町丈の端
0392145,青森県,上北郡おいらせ町,上谷地,アオモリケン,カミキタグンオイラセチョウ,カミヤチ,青森県上北郡おいらせ町上谷地
0392146,青森県,上北郡おいらせ町,中谷地,アオモリケン,カミキタグンオイラセチョウ,ナカヤチ,青森県上北郡おいらせ町中谷地
0392147,青森県,上北郡おいらせ町,赤田前,アオモリケン,カミキタグンオイラセチョウ,アカダマエ,青森県上北郡おいらせ町赤田前
0392151,青森県,上北郡おいらせ町,向山,アオモリケン,カミキタグンオイラセチョウ,ムカイヤマ,青森県上北郡おいらせ町向山
0392152,青森県,上北郡おいらせ町,向山東,アオモリケン,カミキタグンオイラセチョウ,ムカイヤマヒガシ,青森県上北郡おいらせ町向山東
0392153,青森県,上北郡おいらせ町,山崎,アオモリケン,カミキタグンオイラセチョウ,ヤマザキ,青森県上北郡おいらせ町山崎
0392154,青森県,上北郡おいらせ町,豊原,アオモリケン,カミキタグンオイラセチョウ,トヨハラ,青森県上北郡おいらせ町豊原
0392155,青森県,上北郡おいらせ町,木ノ下西,アオモリケン,カミキタグンオイラセチョウ,キノシタニシ,青森県上北郡おいらせ町木ノ下西
0392156,青森県,上北郡おいらせ町,木ノ下南,アオモリケン,カミキタグンオイラセチョウ,キノシタミナミ,青森県上北郡おいらせ町木ノ下南
0392157,青森県,上北郡おいらせ町,木ノ下東,アオモリケン,カミキタグンオイラセチョウ,キノシタヒガシ,青森県上北郡おいらせ町木ノ下東
0392158,青森県,上北郡おいらせ町,向山南,アオモリケン,カミキタグンオイラセチョウ,ムカイヤマミナミ,青森県上北郡おいらせ町向山南
0392161,青森県,上北郡おいらせ町,西下川原,アオモリケン,カミキタグンオイラセチョウ,ニシシモカワラ,青森県上北郡おいらせ町西下川原
0392162,青森県,上北郡おいらせ町,南下田,アオモリケン,カミキタグンオイラセチョウ,ミナミシモダ,青森県上北郡おいらせ町南下田
0392163,青森県,上北郡おいらせ町,館越,アオモリケン,カミキタグンオイラセチョウ,タテゴシ,青森県上北郡おいらせ町館越
0392164,青森県,上北郡おいらせ町,神明前,アオモリケン,カミキタグンオイラセチョウ,シンメイマエ,青森県上北郡おいらせ町神明前
0392165,青森県,上北郡おいらせ町,阿光坊,アオモリケン,カミキタグンオイラセチョウ,アコウボウ,青森県上北郡おいらせ町阿光坊
0392171,青森県,上北郡おいらせ町,新敷,アオモリケン,カミキタグンオイラセチョウ,ニシキ,青森県上北郡おいらせ町新敷
0392172,青森県,上北郡おいらせ町,洗平,アオモリケン,カミキタグンオイラセチョウ,アライダイ,青森県上北郡おいらせ町洗平
0392173,青森県,上北郡おいらせ町,瓢,アオモリケン,カミキタグンオイラセチョウ,フクベ,青森県上北郡おいらせ町瓢
0392180,青森県,上北郡おいらせ町,住吉,アオモリケン,カミキタグンオイラセチョウ,スミヨシ,青森県上北郡おいらせ町住吉
0392181,青森県,上北郡おいらせ町,古間木山,アオモリケン,カミキタグンオイラセチョウ,フルマギヤマ,青森県上北郡おいらせ町古間木山
0392182,青森県,上北郡おいらせ町,鶉久保,アオモリケン,カミキタグンオイラセチョウ,ウズラクボ,青森県上北郡おいらせ町鶉久保
0392183,青森県,上北郡おいらせ町,鶉久保山,アオモリケン,カミキタグンオイラセチョウ,ウズラクボヤマ,青森県上北郡おいらせ町鶉久保山
0392184,青森県,上北郡おいらせ町,浜道,アオモリケン,カミキタグンオイラセチョウ,ハマミチ,青森県上北郡おいらせ町浜道
0392185,青森県,上北郡おいらせ町,上久保,アオモリケン,カミキタグンオイラセチョウ,カミクボ,青森県上北郡おいらせ町上久保
0392186,青森県,上北郡おいらせ町,北下田,アオモリケン,カミキタグンオイラセチョウ,キタシモダ,青森県上北郡おいらせ町北下田
0392187,青森県,上北郡おいらせ町,緑ケ丘,アオモリケン,カミキタグンオイラセチョウ,ミドリガオカ,青森県上北郡おいらせ町緑ケ丘
0392188,青森県,上北郡おいらせ町,若葉,アオモリケン,カミキタグンオイラセチョウ,ワカバ,青森県上北郡おいらせ町若葉
0392189,青森県,上北郡おいらせ町,青葉,アオモリケン,カミキタグンオイラセチョウ,アオバ,青森県上北郡おいらせ町青葉
0392200,青森県,上北郡おいらせ町,,アオモリケン,カミキタグンオイラセチョウ,,青森県上北郡おいらせ町
0392201,青森県,上北郡おいらせ町,二川目,アオモリケン,カミキタグンオイラセチョウ,フタカワメ,青森県上北郡おいらせ町二川目
0392202,青森県,上北郡おいらせ町,向平,アオモリケン,カミキタグンオイラセチョウ,ムカイタイ,青森県上北郡おいらせ町向平
0392203,青森県,上北郡おいらせ町,一川目,アオモリケン,カミキタグンオイラセチョウ,ヒトカワメ,青森県上北郡おいらせ町一川目
0392204,青森県,上北郡おいらせ町,深沢,アオモリケン,カミキタグンオイラセチョウ,フカサワ,青森県上北郡おいらせ町深沢
0392205,青森県,上北郡おいらせ町,深沢平,アオモリケン,カミキタグンオイラセチョウ,フカサワタイ,青森県上北郡おいらせ町深沢平
0392206,青森県,上北郡おいらせ町,松原,アオモリケン,カミキタグンオイラセチョウ,マツバラ,青森県上北郡おいらせ町松原
0392211,青森県,上北郡おいらせ町,新田,アオモリケン,カミキタグンオイラセチョウ,シンデン,青森県上北郡おいらせ町新田
0392212,青森県,上北郡おいらせ町,東下川原,アオモリケン,カミキタグンオイラセチョウ,ヒガシシモカワラ,青森県上北郡おいらせ町東下川原
0392213,青森県,上北郡おいらせ町,堀ノ内,アオモリケン,カミキタグンオイラセチョウ,ホリノウチ,青森県上北郡おいらせ町堀ノ内
0392214,青森県,上北郡おいらせ町,東前川原,アオモリケン,カミキタグンオイラセチョウ,ヒガシマエカワラ,青森県上北郡おいらせ町東前川原
0392215,青森県,上北郡おいらせ町,下屋敷,アオモリケン,カミキタグンオイラセチョウ,シモヤシキ,青森県上北郡おいらせ町下屋敷
0392216,青森県,上北郡おいらせ町,後田,アオモリケン,カミキタグンオイラセチョウ,ウシロダ,青森県上北郡おいらせ町後田
0392217,青森県,上北郡おいらせ町,牛込平,アオモリケン,カミキタグンオイラセチョウ,ウシゴメタイ,青森県上北郡おいらせ町牛込平
0392221,青森県,上北郡おいらせ町,上前田,アオモリケン,カミキタグンオイラセチョウ,カミマエダ,青森県上北郡おいらせ町上前田
0392222,青森県,上北郡おいらせ町,下前田,アオモリケン,カミキタグンオイラセチョウ,シモマエダ,青森県上北郡おいらせ町下前田
0392223,青森県,上北郡おいらせ町,苗平谷地,アオモリケン,カミキタグンオイラセチョウ,ナエヒラヤチ,青森県上北郡おいらせ町苗平谷地
0392224,青森県,上北郡おいらせ町,下明堂,アオモリケン,カミキタグンオイラセチョウ,シモアケドウ,青森県上北郡おいらせ町下明堂
0392225,青森県,上北郡おいらせ町,上明堂,アオモリケン,カミキタグンオイラセチョウ,カミアケドウ,青森県上北郡おいらせ町上明堂
0392226,青森県,上北郡おいらせ町,新助川原,アオモリケン,カミキタグンオイラセチョウ,シンスケカワラ,青森県上北郡おいらせ町新助川原
0392231,青森県,上北郡おいらせ町,東下谷地,アオモリケン,カミキタグンオイラセチョウ,ヒガシシモヤチ,青森県上北郡おいらせ町東下谷地
0392232,青森県,上北郡おいらせ町,東後谷地,アオモリケン,カミキタグンオイラセチョウ,ヒガシウシロヤチ,青森県上北郡おいらせ町東後谷地
0392233,青森県,上北郡おいらせ町,沼端,アオモリケン,カミキタグンオイラセチョウ,ヌマハタ,青森県上北郡おいらせ町沼端
0392234,青森県,上北郡おいらせ町,堤田,アオモリケン,カミキタグンオイラセチョウ,ツツミダ,青森県上北郡おいらせ町堤田
0392235,青森県,上北郡おいらせ町,千刈田,アオモリケン,カミキタグンオイラセチョウ,センガリダ,青森県上北郡おいらせ町千刈田
0392236,青森県,上北郡おいらせ町,洋光台,アオモリケン,カミキタグンオイラセチョウ,ヨウコウダイ,青森県上北郡おいらせ町洋光台
0392241,青森県,八戸市,市川町,アオモリケン,ハチノヘシ,イチカワマチ,青森県八戸市市川町
0392242,青森県,八戸市,多賀台,アオモリケン,ハチノヘシ,タガダイ,青森県八戸市多賀台
0392243,青森県,八戸市,松ケ丘,アオモリケン,ハチノヘシ,マツガオカ,青森県八戸市松ケ丘
0392245,青森県,八戸市,北インター工業団地,アオモリケン,ハチノヘシ,キタインターコウギョウダンチ,青森県八戸市北インター工業団地
0392246,青森県,八戸市,桔梗野工業団地,アオモリケン,ハチノヘシ,キキョウノコウギョウダンチ,青森県八戸市桔梗野工業団地
0392251,青森県,上北郡おいらせ町,向坂,アオモリケン,カミキタグンオイラセチョウ,ムカイサカ,青森県上北郡おいらせ町向坂
0392252,青森県,上北郡おいらせ町,黒坂谷地,アオモリケン,カミキタグンオイラセチョウ,クロサカヤチ,青森県上北郡おいらせ町黒坂谷地
0392253,青森県,上北郡おいらせ町,獺野,アオモリケン,カミキタグンオイラセチョウ,ウソノ,青森県上北郡おいらせ町獺野
0392254,青森県,上北郡おいらせ町,苗振谷地,アオモリケン,カミキタグンオイラセチョウ,ナエフリヤチ,青森県上北郡おいらせ町苗振谷地
0392255,青森県,上北郡おいらせ町,土取,アオモリケン,カミキタグンオイラセチョウ,ツチトリ,青森県上北郡おいらせ町土取
0392300,青森県,上北郡六戸町,,アオモリケン,カミキタグンロクノヘマチ,,青森県上北郡六戸町
0392302,青森県,三戸郡五戸町,切谷内（北田ノ沢）,アオモリケン,サンノヘグンゴノヘマチ,キリヤナイ(キタタノサワ),青森県三戸郡五戸町切谷内（北田ノ沢）
0392311,青森県,上北郡六戸町,上吉田,アオモリケン,カミキタグンロクノヘマチ,カミヨシタ,青森県上北郡六戸町上吉田
0392312,青森県,上北郡六戸町,下吉田,アオモリケン,カミキタグンロクノヘマチ,シモヨシタ,青森県上北郡六戸町下吉田
0392313,青森県,上北郡六戸町,鶴喰,アオモリケン,カミキタグンロクノヘマチ,ツルバミ,青森県上北郡六戸町鶴喰
0392314,青森県,上北郡六戸町,小平,アオモリケン,カミキタグンロクノヘマチ,コダイラ,青森県上北郡六戸町小平
0392315,青森県,上北郡六戸町,柳町,アオモリケン,カミキタグンロクノヘマチ,ヤナギマチ,青森県上北郡六戸町柳町
0392371,青森県,上北郡六戸町,犬落瀬（その他）,アオモリケン,カミキタグンロクノヘマチ,イヌオトセ(ソノタ),青森県上北郡六戸町犬落瀬（その他）
0392372,青森県,上北郡六戸町,折茂（その他）,アオモリケン,カミキタグンロクノヘマチ,オリモ(ソノタ),青森県上北郡六戸町折茂（その他）
0392401,青森県,上北郡東北町,上野,アオモリケン,カミキタグントウホクマチ,ウワノ,青森県上北郡東北町上野
0392402,青森県,上北郡東北町,大浦,アオモリケン,カミキタグントウホクマチ,オオウラ,青森県上北郡東北町大浦
0392403,青森県,上北郡東北町,新舘,アオモリケン,カミキタグントウホクマチ,ニイダテ,青森県上北郡東北町新舘
0392404,青森県,上北郡東北町,上北北,アオモリケン,カミキタグントウホクマチ,カミキタキタ,青森県上北郡東北町上北北
0392405,青森県,上北郡東北町,上北南,アオモリケン,カミキタグントウホクマチ,カミキタミナミ,青森県上北郡東北町上北南
0392406,青森県,上北郡東北町,旭北,アオモリケン,カミキタグントウホクマチ,アサヒキタ,青森県上北郡東北町旭北
0392407,青森県,上北郡東北町,旭南,アオモリケン,カミキタグントウホクマチ,アサヒミナミ,青森県上北郡東北町旭南
0392500,青森県,上北郡七戸町,,アオモリケン,カミキタグンシチノヘマチ,,青森県上北郡七戸町
0392501,青森県,上北郡七戸町,荒熊内,アオモリケン,カミキタグンシチノヘマチ,アラクマナイ,青森県上北郡七戸町荒熊内
0392502,青森県,上北郡七戸町,大沢,アオモリケン,カミキタグンシチノヘマチ,オオサワ,青森県上北郡七戸町大沢
0392503,青森県,上北郡七戸町,豊間内,アオモリケン,カミキタグンシチノヘマチ,トヨマナイ,青森県上北郡七戸町豊間内
0392504,青森県,上北郡七戸町,寒水,アオモリケン,カミキタグンシチノヘマチ,ヒヤミズ,青森県上北郡七戸町寒水
0392505,青森県,上北郡七戸町,立野頭,アオモリケン,カミキタグンシチノヘマチ,タテノガシラ,青森県上北郡七戸町立野頭
0392506,青森県,上北郡七戸町,膝森,アオモリケン,カミキタグンシチノヘマチ,ヒザモリ,青森県上北郡七戸町膝森
0392507,青森県,上北郡七戸町,えぞ花,アオモリケン,カミキタグンシチノヘマチ,エゾバナ,青森県上北郡七戸町えぞ花
0392508,青森県,上北郡七戸町,大池,アオモリケン,カミキタグンシチノヘマチ,オオイケ,青森県上北郡七戸町大池
0392511,青森県,上北郡七戸町,笊田川久保,アオモリケン,カミキタグンシチノヘマチ,ザルタカワクボ,青森県上北郡七戸町笊田川久保
0392512,青森県,上北郡七戸町,笊田,アオモリケン,カミキタグンシチノヘマチ,ザルタ,青森県上北郡七戸町笊田
0392513,青森県,上北郡七戸町,東槻木,アオモリケン,カミキタグンシチノヘマチ,ヒガシツキノキ,青森県上北郡七戸町東槻木
0392514,青森県,上北郡七戸町,太田野,アオモリケン,カミキタグンシチノヘマチ,オオタノ,青森県上北郡七戸町太田野
0392515,青森県,上北郡七戸町,蒼前,アオモリケン,カミキタグンシチノヘマチ,ソウゼン,青森県上北郡七戸町蒼前
0392516,青森県,上北郡七戸町,舘野,アオモリケン,カミキタグンシチノヘマチ,タテノ,青森県上北郡七戸町舘野
0392517,青森県,上北郡七戸町,夏焼,アオモリケン,カミキタグンシチノヘマチ,ナツヤキ,青森県上北郡七戸町夏焼
0392518,青森県,上北郡七戸町,天神林,アオモリケン,カミキタグンシチノヘマチ,テンジンバヤシ,青森県上北郡七戸町天神林
0392521,青森県,上北郡七戸町,天王,アオモリケン,カミキタグンシチノヘマチ,テンノウ,青森県上北郡七戸町天王
0392522,青森県,上北郡七戸町,倉越,アオモリケン,カミキタグンシチノヘマチ,クラコシ,青森県上北郡七戸町倉越
0392523,青森県,上北郡七戸町,影津内,アオモリケン,カミキタグンシチノヘマチ,カゲツナイ,青森県上北郡七戸町影津内
0392524,青森県,上北郡七戸町,寺裏,アオモリケン,カミキタグンシチノヘマチ,テラウラ,青森県上北郡七戸町寺裏
0392525,青森県,上北郡七戸町,七戸,アオモリケン,カミキタグンシチノヘマチ,シチノヘ,青森県上北郡七戸町七戸
0392526,青森県,上北郡七戸町,上町野,アオモリケン,カミキタグンシチノヘマチ,ウワマチノ,青森県上北郡七戸町上町野
0392527,青森県,上北郡七戸町,町,アオモリケン,カミキタグンシチノヘマチ,マチ,青森県上北郡七戸町町
0392531,青森県,上北郡七戸町,太田,アオモリケン,カミキタグンシチノヘマチ,オオタ,青森県上北郡七戸町太田
0392532,青森県,上北郡七戸町,大林,アオモリケン,カミキタグンシチノヘマチ,オオバヤシ,青森県上北郡七戸町大林
0392533,青森県,上北郡七戸町,川去,アオモリケン,カミキタグンシチノヘマチ,カワサリ,青森県上北郡七戸町川去
0392534,青森県,上北郡七戸町,荒屋,アオモリケン,カミキタグンシチノヘマチ,アラヤ,青森県上北郡七戸町荒屋
0392535,青森県,上北郡七戸町,沼ノ沢,アオモリケン,カミキタグンシチノヘマチ,ヌマノサワ,青森県上北郡七戸町沼ノ沢
0392536,青森県,上北郡七戸町,野佐掛,アオモリケン,カミキタグンシチノヘマチ,ノサカケ,青森県上北郡七戸町野佐掛
0392537,青森県,上北郡七戸町,賽ノ神,アオモリケン,カミキタグンシチノヘマチ,サイノカミ,青森県上北郡七戸町賽ノ神
0392538,青森県,上北郡七戸町,寺下,アオモリケン,カミキタグンシチノヘマチ,テラシタ,青森県上北郡七戸町寺下
0392539,青森県,上北郡七戸町,中村,アオモリケン,カミキタグンシチノヘマチ,ナカムラ,青森県上北郡七戸町中村
0392541,青森県,上北郡七戸町,都平,アオモリケン,カミキタグンシチノヘマチ,ミヤコタイ,青森県上北郡七戸町都平
0392542,青森県,上北郡七戸町,萩ノ沢,アオモリケン,カミキタグンシチノヘマチ,ハギノサワ,青森県上北郡七戸町萩ノ沢
0392543,青森県,上北郡七戸町,有田沢,アオモリケン,カミキタグンシチノヘマチ,アリタサワ,青森県上北郡七戸町有田沢
0392544,青森県,上北郡七戸町,八栗平,アオモリケン,カミキタグンシチノヘマチ,ハックリタイ,青森県上北郡七戸町八栗平
0392545,青森県,上北郡七戸町,別曽,アオモリケン,カミキタグンシチノヘマチ,ベッソウ,青森県上北郡七戸町別曽
0392546,青森県,上北郡七戸町,清水頭,アオモリケン,カミキタグンシチノヘマチ,シミズカシラ,青森県上北郡七戸町清水頭
0392547,青森県,上北郡七戸町,矢倉,アオモリケン,カミキタグンシチノヘマチ,ヤグラ,青森県上北郡七戸町矢倉
0392548,青森県,上北郡七戸町,見町,アオモリケン,カミキタグンシチノヘマチ,ミルマチ,青森県上北郡七戸町見町
0392549,青森県,上北郡七戸町,下見町,アオモリケン,カミキタグンシチノヘマチ,シモミルマチ,青森県上北郡七戸町下見町
0392551,青森県,上北郡七戸町,薬師平,アオモリケン,カミキタグンシチノヘマチ,ヤクシタイ,青森県上北郡七戸町薬師平
0392552,青森県,上北郡七戸町,鶴打田,アオモリケン,カミキタグンシチノヘマチ,ツルウチタ,青森県上北郡七戸町鶴打田
0392553,青森県,上北郡七戸町,八尺堂,アオモリケン,カミキタグンシチノヘマチ,ハッシャクドウ,青森県上北郡七戸町八尺堂
0392554,青森県,上北郡七戸町,中岫,アオモリケン,カミキタグンシチノヘマチ,ナカグキ,青森県上北郡七戸町中岫
0392555,青森県,上北郡七戸町,前田,アオモリケン,カミキタグンシチノヘマチ,マエダ,青森県上北郡七戸町前田
0392556,青森県,上北郡七戸町,西槻木,アオモリケン,カミキタグンシチノヘマチ,ニシツキノキ,青森県上北郡七戸町西槻木
0392557,青森県,上北郡七戸町,西野,アオモリケン,カミキタグンシチノヘマチ,セイノ,青森県上北郡七戸町西野
0392558,青森県,上北郡七戸町,高屋敷,アオモリケン,カミキタグンシチノヘマチ,タカヤシキ,青森県上北郡七戸町高屋敷
0392559,青森県,上北郡七戸町,山屋,アオモリケン,カミキタグンシチノヘマチ,ヤマヤ,青森県上北郡七戸町山屋
0392561,青森県,上北郡七戸町,銀南木,アオモリケン,カミキタグンシチノヘマチ,イチョウノキ,青森県上北郡七戸町銀南木
0392562,青森県,上北郡七戸町,倉岡,アオモリケン,カミキタグンシチノヘマチ,クラオカ,青森県上北郡七戸町倉岡
0392563,青森県,上北郡七戸町,向平,アオモリケン,カミキタグンシチノヘマチ,ムカイタイ,青森県上北郡七戸町向平
0392564,青森県,上北郡七戸町,古屋敷,アオモリケン,カミキタグンシチノヘマチ,フルヤシキ,青森県上北郡七戸町古屋敷
0392565,青森県,上北郡七戸町,治部袋,アオモリケン,カミキタグンシチノヘマチ,ジンバ,青森県上北郡七戸町治部袋
0392566,青森県,上北郡七戸町,放森,アオモリケン,カミキタグンシチノヘマチ,ハナツモリ,青森県上北郡七戸町放森
0392567,青森県,上北郡七戸町,鶴児平,アオモリケン,カミキタグンシチノヘマチ,ツルノコタイ,青森県上北郡七戸町鶴児平
0392568,青森県,上北郡七戸町,左組,アオモリケン,カミキタグンシチノヘマチ,サグミ,青森県上北郡七戸町左組
0392569,青森県,上北郡七戸町,馬門川原,アオモリケン,カミキタグンシチノヘマチ,マカドガワラ,青森県上北郡七戸町馬門川原
0392571,青森県,上北郡七戸町,蛇坂,アオモリケン,カミキタグンシチノヘマチ,ヘビサカ,青森県上北郡七戸町蛇坂
0392572,青森県,上北郡七戸町,城ノ後,アオモリケン,カミキタグンシチノヘマチ,シロノアト,青森県上北郡七戸町城ノ後
0392573,青森県,上北郡七戸町,野続,アオモリケン,カミキタグンシチノヘマチ,ノツヅキ,青森県上北郡七戸町野続
0392574,青森県,上北郡七戸町,宇道坂,アオモリケン,カミキタグンシチノヘマチ,ウドウザカ,青森県上北郡七戸町宇道坂
0392575,青森県,上北郡七戸町,作田,アオモリケン,カミキタグンシチノヘマチ,サクタ,青森県上北郡七戸町作田
0392576,青森県,上北郡七戸町,桜田,アオモリケン,カミキタグンシチノヘマチ,サクラダ,青森県上北郡七戸町桜田
0392577,青森県,上北郡七戸町,鍛治林,アオモリケン,カミキタグンシチノヘマチ,カジバヤシ,青森県上北郡七戸町鍛治林
0392578,青森県,上北郡七戸町,貝ノ口,アオモリケン,カミキタグンシチノヘマチ,カイノクチ,青森県上北郡七戸町貝ノ口
0392579,青森県,上北郡七戸町,十役野,アオモリケン,カミキタグンシチノヘマチ,トヤクノ,青森県上北郡七戸町十役野
0392581,青森県,上北郡七戸町,東上川原,アオモリケン,カミキタグンシチノヘマチ,ヒガシカミカワラ,青森県上北郡七戸町東上川原
0392582,青森県,上北郡七戸町,西上川原,アオモリケン,カミキタグンシチノヘマチ,ニシカミカワラ,青森県上北郡七戸町西上川原
0392583,青森県,上北郡七戸町,前川原,アオモリケン,カミキタグンシチノヘマチ,マエカワラ,青森県上北郡七戸町前川原
0392584,青森県,上北郡七戸町,後川原,アオモリケン,カミキタグンシチノヘマチ,ウシロカワラ,青森県上北郡七戸町後川原
0392585,青森県,上北郡七戸町,上ノ山,アオモリケン,カミキタグンシチノヘマチ,ウエノヤマ,青森県上北郡七戸町上ノ山
0392586,青森県,上北郡七戸町,海内,アオモリケン,カミキタグンシチノヘマチ,ウミナイ,青森県上北郡七戸町海内
0392587,青森県,上北郡七戸町,上屋田,アオモリケン,カミキタグンシチノヘマチ,ウエヤダ,青森県上北郡七戸町上屋田
0392588,青森県,上北郡七戸町,和田下,アオモリケン,カミキタグンシチノヘマチ,ワダシモ,青森県上北郡七戸町和田下
0392589,青森県,上北郡七戸町,和田,アオモリケン,カミキタグンシチノヘマチ,ワダ,青森県上北郡七戸町和田
0392600,青森県,上北郡東北町,,アオモリケン,カミキタグントウホクマチ,,青森県上北郡東北町
0392601,青森県,上北郡東北町,ガス平,アオモリケン,カミキタグントウホクマチ,ガスタイ,青森県上北郡東北町ガス平
0392602,青森県,上北郡東北町,五十嵐,アオモリケン,カミキタグントウホクマチ,イガラシ,青森県上北郡東北町五十嵐
0392602,青森県,上北郡東北町,細津橋ノ上,アオモリケン,カミキタグントウホクマチ,ホソツハシノカミ,青森県上北郡東北町細津橋ノ上
0392603,青森県,上北郡東北町,横沢山,アオモリケン,カミキタグントウホクマチ,ヨコサワヤマ,青森県上北郡東北町横沢山
0392604,青森県,上北郡東北町,横沢,アオモリケン,カミキタグントウホクマチ,ヨコサワ,青森県上北郡東北町横沢
0392604,青森県,上北郡東北町,横沢頭,アオモリケン,カミキタグントウホクマチ,ヨコサワガシラ,青森県上北郡東北町横沢頭
0392604,青森県,上北郡東北町,水流,アオモリケン,カミキタグントウホクマチ,ミズナガレ,青森県上北郡東北町水流
0392604,青森県,上北郡東北町,空久保,アオモリケン,カミキタグントウホクマチ,アキクボ,青森県上北郡東北町空久保
0392604,青森県,上北郡東北町,饅頭長根,アオモリケン,カミキタグントウホクマチ,マンジュウナガネ,青森県上北郡東北町饅頭長根
0392605,青森県,上北郡東北町,淋代,アオモリケン,カミキタグントウホクマチ,サビシロ,青森県上北郡東北町淋代
0392605,青森県,上北郡東北町,高森,アオモリケン,カミキタグントウホクマチ,タカモリ,青森県上北郡東北町高森
0392606,青森県,上北郡東北町,数牛,アオモリケン,カミキタグントウホクマチ,カソシ,青森県上北郡東北町数牛
0392606,青森県,上北郡東北町,谷地頭,アオモリケン,カミキタグントウホクマチ,ヤジガシラ,青森県上北郡東北町谷地頭
0392607,青森県,上北郡東北町,姥沢,アオモリケン,カミキタグントウホクマチ,ウバサワ,青森県上北郡東北町姥沢
0392611,青森県,上北郡東北町,中村道ノ上,アオモリケン,カミキタグントウホクマチ,ナカムラミチノカミ,青森県上北郡東北町中村道ノ上
0392611,青森県,上北郡東北町,中村道ノ下,アオモリケン,カミキタグントウホクマチ,ナカムラミチノシモ,青森県上北郡東北町中村道ノ下
0392612,青森県,上北郡東北町,沼添左ノ平,アオモリケン,カミキタグントウホクマチ,ヌマソエサノタイラ,青森県上北郡東北町沼添左ノ平
0392612,青森県,上北郡東北町,浜台,アオモリケン,カミキタグントウホクマチ,ハマダイ,青森県上北郡東北町浜台
0392612,青森県,上北郡東北町,狼ノ沢,アオモリケン,カミキタグントウホクマチ,オイノサワ,青森県上北郡東北町狼ノ沢
0392613,青森県,上北郡東北町,子ノ鳥平,アオモリケン,カミキタグントウホクマチ,ネノトリタイ,青森県上北郡東北町子ノ鳥平
0392613,青森県,上北郡東北町,野田尻,アオモリケン,カミキタグントウホクマチ,ノダジリ,青森県上北郡東北町野田尻
0392613,青森県,上北郡東北町,野田頭,アオモリケン,カミキタグントウホクマチ,ノダガシラ,青森県上北郡東北町野田頭
0392613,青森県,上北郡東北町,野田頭山,アオモリケン,カミキタグントウホクマチ,ノダガシラヤマ,青森県上北郡東北町野田頭山
0392614,青森県,上北郡東北町,切左坂道ノ下,アオモリケン,カミキタグントウホクマチ,キリサザカミチノシモ,青森県上北郡東北町切左坂道ノ下
0392615,青森県,上北郡東北町,細津,アオモリケン,カミキタグントウホクマチ,ホソツ,青森県上北郡東北町細津
0392615,青森県,上北郡東北町,萌出道ノ上,アオモリケン,カミキタグントウホクマチ,モダシミチノカミ,青森県上北郡東北町萌出道ノ上
0392615,青森県,上北郡東北町,萌出道ノ下,アオモリケン,カミキタグントウホクマチ,モダシミチノシモ,青森県上北郡東北町萌出道ノ下
0392616,青森県,上北郡東北町,切左坂道ノ上,アオモリケン,カミキタグントウホクマチ,キリサザカミチノカミ,青森県上北郡東北町切左坂道ノ上
0392617,青森県,上北郡東北町,水喰,アオモリケン,カミキタグントウホクマチ,ミズハミ,青森県上北郡東北町水喰
0392617,青森県,上北郡東北町,水喰向,アオモリケン,カミキタグントウホクマチ,ミズハミムカイ,青森県上北郡東北町水喰向
0392621,青森県,上北郡東北町,田ノ沢,アオモリケン,カミキタグントウホクマチ,タノサワ,青森県上北郡東北町田ノ沢
0392622,青森県,上北郡東北町,浜家苫,アオモリケン,カミキタグントウホクマチ,ハマケトバ,青森県上北郡東北町浜家苫
0392622,青森県,上北郡東北町,船ケ沢,アオモリケン,カミキタグントウホクマチ,フネガサワ,青森県上北郡東北町船ケ沢
0392623,青森県,上北郡東北町,大久保,アオモリケン,カミキタグントウホクマチ,オオクボ,青森県上北郡東北町大久保
0392623,青森県,上北郡東北町,横志多,アオモリケン,カミキタグントウホクマチ,ヨコシダ,青森県上北郡東北町横志多
0392623,青森県,上北郡東北町,鶴ケ崎,アオモリケン,カミキタグントウホクマチ,ツルガサキ,青森県上北郡東北町鶴ケ崎
0392624,青森県,上北郡東北町,古屋敷,アオモリケン,カミキタグントウホクマチ,フルヤシキ,青森県上北郡東北町古屋敷
0392624,青森県,上北郡東北町,蓼内久保,アオモリケン,カミキタグントウホクマチ,タテナイクボ,青森県上北郡東北町蓼内久保
0392624,青森県,上北郡東北町,道ノ北,アオモリケン,カミキタグントウホクマチ,ミチノキタ,青森県上北郡東北町道ノ北
0392625,青森県,上北郡東北町,長久保,アオモリケン,カミキタグントウホクマチ,ナガクボ,青森県上北郡東北町長久保
0392626,青森県,上北郡東北町,上久保,アオモリケン,カミキタグントウホクマチ,カミクボ,青森県上北郡東北町上久保
0392626,青森県,上北郡東北町,堤尻,アオモリケン,カミキタグントウホクマチ,ツツミジリ,青森県上北郡東北町堤尻
0392626,青森県,上北郡東北町,後久保,アオモリケン,カミキタグントウホクマチ,ウシロクボ,青森県上北郡東北町後久保
0392627,青森県,上北郡東北町,漆玉,アオモリケン,カミキタグントウホクマチ,シッタマ,青森県上北郡東北町漆玉
0392631,青森県,上北郡東北町,滝沢平,アオモリケン,カミキタグントウホクマチ,タキサワタイラ,青森県上北郡東北町滝沢平
0392632,青森県,上北郡東北町,日影林ノ上山,アオモリケン,カミキタグントウホクマチ,ヒカゲハヤシノカミヤマ,青森県上北郡東北町日影林ノ上山
0392633,青森県,上北郡東北町,和山平,アオモリケン,カミキタグントウホクマチ,ワヤマタイラ,青森県上北郡東北町和山平
0392633,青森県,上北郡東北町,素柄邸,アオモリケン,カミキタグントウホクマチ,スガラヤシキ,青森県上北郡東北町素柄邸
0392634,青森県,上北郡東北町,往来ノ下,アオモリケン,カミキタグントウホクマチ,オオライノシモ,青森県上北郡東北町往来ノ下
0392635,青森県,上北郡東北町,乙越,アオモリケン,カミキタグントウホクマチ,オツコシ,青森県上北郡東北町乙越
0392635,青森県,上北郡東北町,舘,アオモリケン,カミキタグントウホクマチ,ダテ,青森県上北郡東北町舘
0392635,青森県,上北郡東北町,鳥口平,アオモリケン,カミキタグントウホクマチ,トリグチタイ,青森県上北郡東北町鳥口平
0392636,青森県,上北郡東北町,往来ノ上,アオモリケン,カミキタグントウホクマチ,オオライノカミ,青森県上北郡東北町往来ノ上
0392641,青森県,上北郡東北町,枋木,アオモリケン,カミキタグントウホクマチ,コボノキ,青森県上北郡東北町枋木
0392642,青森県,上北郡東北町,寒水,アオモリケン,カミキタグントウホクマチ,ヒヤミズ,青森県上北郡東北町寒水
0392642,青森県,上北郡東北町,寒水下,アオモリケン,カミキタグントウホクマチ,ヒヤミズシモ,青森県上北郡東北町寒水下
0392642,青森県,上北郡東北町,寒水山,アオモリケン,カミキタグントウホクマチ,ヒヤミズヤマ,青森県上北郡東北町寒水山
0392643,青森県,上北郡東北町,乙部道ノ上,アオモリケン,カミキタグントウホクマチ,オトベミチノカミ,青森県上北郡東北町乙部道ノ上
0392643,青森県,上北郡東北町,乙部道ノ下,アオモリケン,カミキタグントウホクマチ,オトベミチノシモ,青森県上北郡東北町乙部道ノ下
0392644,青森県,上北郡東北町,保戸沢家ノ上,アオモリケン,カミキタグントウホクマチ,ホドサワイエノカミ,青森県上北郡東北町保戸沢家ノ上
0392644,青森県,上北郡東北町,保戸沢家ノ前,アオモリケン,カミキタグントウホクマチ,ホドサワイエノマエ,青森県上北郡東北町保戸沢家ノ前
0392644,青森県,上北郡東北町,保戸沢家ノ後,アオモリケン,カミキタグントウホクマチ,ホドサワイエノウシロ,青森県上北郡東北町保戸沢家ノ後
0392645,青森県,上北郡東北町,外蛯沢前平,アオモリケン,カミキタグントウホクマチ,ソトエビサワマエタイ,青森県上北郡東北町外蛯沢前平
0392646,青森県,上北郡東北町,外蛯沢西平,アオモリケン,カミキタグントウホクマチ,ソトエビサワニシタイ,青森県上北郡東北町外蛯沢西平
0392647,青森県,上北郡東北町,外蛯沢後久保,アオモリケン,カミキタグントウホクマチ,ソトエビサワウシロクボ,青森県上北郡東北町外蛯沢後久保
0392648,青森県,上北郡東北町,外蛯沢北久保,アオモリケン,カミキタグントウホクマチ,ソトエビサワキタクボ,青森県上北郡東北町外蛯沢北久保
0392651,青森県,上北郡東北町,大沢,アオモリケン,カミキタグントウホクマチ,オオサワ,青森県上北郡東北町大沢
0392652,青森県,上北郡東北町,ほとけ沢,アオモリケン,カミキタグントウホクマチ,ホトケサワ,青森県上北郡東北町ほとけ沢
0392653,青森県,上北郡東北町,下山,アオモリケン,カミキタグントウホクマチ,シモヤマ,青森県上北郡東北町下山
0392654,青森県,上北郡東北町,塔ノ沢山,アオモリケン,カミキタグントウホクマチ,トウノサワヤマ,青森県上北郡東北町塔ノ沢山
0392655,青森県,上北郡東北町,内蛯沢道ノ上,アオモリケン,カミキタグントウホクマチ,ウチエビサワミチノカミ,青森県上北郡東北町内蛯沢道ノ上
0392656,青森県,上北郡東北町,内蛯沢向,アオモリケン,カミキタグントウホクマチ,ウチエビサワムカイ,青森県上北郡東北町内蛯沢向
0392657,青森県,上北郡東北町,赤川道,アオモリケン,カミキタグントウホクマチ,アカガワミチ,青森県上北郡東北町赤川道
0392661,青森県,上北郡東北町,上笹橋,アオモリケン,カミキタグントウホクマチ,カミササバシ,青森県上北郡東北町上笹橋
0392662,青森県,上北郡東北町,下笹橋,アオモリケン,カミキタグントウホクマチ,シモササバシ,青森県上北郡東北町下笹橋
0392663,青森県,上北郡東北町,舘花,アオモリケン,カミキタグントウホクマチ,ダテハナ,青森県上北郡東北町舘花
0392664,青森県,上北郡東北町,乙供,アオモリケン,カミキタグントウホクマチ,オットモ,青森県上北郡東北町乙供
0392665,青森県,上北郡東北町,柳沢,アオモリケン,カミキタグントウホクマチ,ヤナギザワ,青森県上北郡東北町柳沢
0392666,青森県,上北郡東北町,乙供山,アオモリケン,カミキタグントウホクマチ,オットモヤマ,青森県上北郡東北町乙供山
0392667,青森県,上北郡東北町,膳前,アオモリケン,カミキタグントウホクマチ,ゼンマエ,青森県上北郡東北町膳前
0392668,青森県,上北郡東北町,北膳前,アオモリケン,カミキタグントウホクマチ,キタゼンマエ,青森県上北郡東北町北膳前
0392668,青森県,上北郡東北町,篠内平,アオモリケン,カミキタグントウホクマチ,シノナイタイ,青森県上北郡東北町篠内平
0392671,青森県,上北郡東北町,小沢,アオモリケン,カミキタグントウホクマチ,オザワ,青森県上北郡東北町小沢
0392672,青森県,上北郡東北町,向籏屋,アオモリケン,カミキタグントウホクマチ,ムカイハタヤ,青森県上北郡東北町向籏屋
0392672,青森県,上北郡東北町,栗山添,アオモリケン,カミキタグントウホクマチ,クリヤマゾイ,青森県上北郡東北町栗山添
0392673,青森県,上北郡東北町,向屋敷,アオモリケン,カミキタグントウホクマチ,ムカイヤシキ,青森県上北郡東北町向屋敷
0392673,青森県,上北郡東北町,大籏屋,アオモリケン,カミキタグントウホクマチ,オオハタヤ,青森県上北郡東北町大籏屋
0392673,青森県,上北郡東北町,山ノ下,アオモリケン,カミキタグントウホクマチ,ヤマノシタ,青森県上北郡東北町山ノ下
0392673,青森県,上北郡東北町,馬尻,アオモリケン,カミキタグントウホクマチ,ウマジリ,青森県上北郡東北町馬尻
0392674,青森県,上北郡東北町,千曳下山,アオモリケン,カミキタグントウホクマチ,チビキシモヤマ,青森県上北郡東北町千曳下山
0392674,青森県,上北郡東北町,夫雑原,アオモリケン,カミキタグントウホクマチ,ブゾウハラ,青森県上北郡東北町夫雑原
0392675,青森県,上北郡東北町,千曳,アオモリケン,カミキタグントウホクマチ,チビキ,青森県上北郡東北町千曳
0392676,青森県,上北郡東北町,下板橋,アオモリケン,カミキタグントウホクマチ,シモイタバシ,青森県上北郡東北町下板橋
0392677,青森県,上北郡東北町,夫雑原下山,アオモリケン,カミキタグントウホクマチ,ブゾウハラシモヤマ,青森県上北郡東北町夫雑原下山
0392678,青森県,上北郡東北町,坂ノ下,アオモリケン,カミキタグントウホクマチ,サカノシタ,青森県上北郡東北町坂ノ下
0392678,青森県,上北郡東北町,狐沢山,アオモリケン,カミキタグントウホクマチ,キツネサワヤマ,青森県上北郡東北町狐沢山
0392678,青森県,上北郡東北町,田面木,アオモリケン,カミキタグントウホクマチ,タモギ,青森県上北郡東北町田面木
0392678,青森県,上北郡東北町,長者久保,アオモリケン,カミキタグントウホクマチ,チョウジャクボ,青森県上北郡東北町長者久保
0392681,青森県,上北郡東北町,家ノ前,アオモリケン,カミキタグントウホクマチ,イエノマエ,青森県上北郡東北町家ノ前
0392681,青森県,上北郡東北町,山添,アオモリケン,カミキタグントウホクマチ,ヤマゾイ,青森県上北郡東北町山添
0392682,青森県,上北郡東北町,湯沢,アオモリケン,カミキタグントウホクマチ,ユザワ,青森県上北郡東北町湯沢
0392682,青森県,上北郡東北町,石坂,アオモリケン,カミキタグントウホクマチ,イシザカ,青森県上北郡東北町石坂
0392683,青森県,上北郡東北町,大平,アオモリケン,カミキタグントウホクマチ,オオダイラ,青森県上北郡東北町大平
0392683,青森県,上北郡東北町,板橋山,アオモリケン,カミキタグントウホクマチ,イタバシヤマ,青森県上北郡東北町板橋山
0392684,青森県,上北郡東北町,向平,アオモリケン,カミキタグントウホクマチ,ムカイタイ,青森県上北郡東北町向平
0392685,青森県,上北郡東北町,上板橋家ノ後,アオモリケン,カミキタグントウホクマチ,カミイタバシイエノウシロ,青森県上北郡東北町上板橋家ノ後
0392685,青森県,上北郡東北町,家ノ下タ,アオモリケン,カミキタグントウホクマチ,イエノシタ,青森県上北郡東北町家ノ下タ
0392686,青森県,上北郡東北町,塞ノ神,アオモリケン,カミキタグントウホクマチ,サイノカミ,青森県上北郡東北町塞ノ神
0392686,青森県,上北郡東北町,宇道坂,アオモリケン,カミキタグントウホクマチ,ウドウサカ,青森県上北郡東北町宇道坂
0392686,青森県,上北郡東北町,添ノ沢,アオモリケン,カミキタグントウホクマチ,ソエノサワ,青森県上北郡東北町添ノ沢
0392687,青森県,上北郡東北町,上清水目,アオモリケン,カミキタグントウホクマチ,カミシミズメ,青森県上北郡東北町上清水目
0392687,青森県,上北郡東北町,林ノ下,アオモリケン,カミキタグントウホクマチ,ハヤシノシタ,青森県上北郡東北町林ノ下
0392688,青森県,上北郡東北町,大撫沢,アオモリケン,カミキタグントウホクマチ,オオナデサワ,青森県上北郡東北町大撫沢
0392711,青森県,上北郡七戸町,中天間舘,アオモリケン,カミキタグンシチノヘマチ,ナカテンマダテ,青森県上北郡七戸町中天間舘
0392712,青森県,上北郡七戸町,北天間舘,アオモリケン,カミキタグンシチノヘマチ,キタテンマダテ,青森県上北郡七戸町北天間舘
0392713,青森県,上北郡七戸町,東天間舘,アオモリケン,カミキタグンシチノヘマチ,ヒガシテンマダテ,青森県上北郡七戸町東天間舘
0392714,青森県,上北郡七戸町,上志多,アオモリケン,カミキタグンシチノヘマチ,カミシダ,青森県上北郡七戸町上志多
0392715,青森県,上北郡七戸町,尾山頭,アオモリケン,カミキタグンシチノヘマチ,オヤマガシラ,青森県上北郡七戸町尾山頭
0392716,青森県,上北郡七戸町,菩提木,アオモリケン,カミキタグンシチノヘマチ,ボダイギ,青森県上北郡七戸町菩提木
0392717,青森県,上北郡七戸町,柳平,アオモリケン,カミキタグンシチノヘマチ,ヤナギタイラ,青森県上北郡七戸町柳平
0392721,青森県,上北郡七戸町,志茂川原,アオモリケン,カミキタグンシチノヘマチ,シモカワラ,青森県上北郡七戸町志茂川原
0392722,青森県,上北郡七戸町,向川原,アオモリケン,カミキタグンシチノヘマチ,ムカイカワラ,青森県上北郡七戸町向川原
0392723,青森県,上北郡七戸町,下志多,アオモリケン,カミキタグンシチノヘマチ,シモシタ,青森県上北郡七戸町下志多
0392724,青森県,上北郡七戸町,上平,アオモリケン,カミキタグンシチノヘマチ,カミタイラ,青森県上北郡七戸町上平
0392725,青森県,上北郡七戸町,上川原,アオモリケン,カミキタグンシチノヘマチ,カミカワラ,青森県上北郡七戸町上川原
0392726,青森県,上北郡七戸町,李川原,アオモリケン,カミキタグンシチノヘマチ,スモモカワラ,青森県上北郡七戸町李川原
0392731,青森県,上北郡七戸町,後平,アオモリケン,カミキタグンシチノヘマチ,ウシロタイラ,青森県上北郡七戸町後平
0392732,青森県,上北郡七戸町,卒古沢,アオモリケン,カミキタグンシチノヘマチ,ソツコザワ,青森県上北郡七戸町卒古沢
0392733,青森県,上北郡七戸町,天間舘前川原,アオモリケン,カミキタグンシチノヘマチ,テンマダテマエカワラ,青森県上北郡七戸町天間舘前川原
0392741,青森県,上北郡七戸町,猪ノ鼻,アオモリケン,カミキタグンシチノヘマチ,イノハナ,青森県上北郡七戸町猪ノ鼻
0392742,青森県,上北郡七戸町,舟場向川久保,アオモリケン,カミキタグンシチノヘマチ,フナバムカイガワクボ,青森県上北郡七戸町舟場向川久保
0392743,青森県,上北郡七戸町,寺沢前,アオモリケン,カミキタグンシチノヘマチ,テラサワマエ,青森県上北郡七戸町寺沢前
0392744,青森県,上北郡七戸町,塚長根,アオモリケン,カミキタグンシチノヘマチ,ツカナガネ,青森県上北郡七戸町塚長根
0392745,青森県,上北郡七戸町,夷堂,アオモリケン,カミキタグンシチノヘマチ,エビスドウ,青森県上北郡七戸町夷堂
0392746,青森県,上北郡七戸町,附田川目,アオモリケン,カミキタグンシチノヘマチ,ツクタカワメ,青森県上北郡七戸町附田川目
0392747,青森県,上北郡七戸町,附田家ノ前,アオモリケン,カミキタグンシチノヘマチ,ツクタイエノマエ,青森県上北郡七戸町附田家ノ前
0392748,青森県,上北郡七戸町,南舘向,アオモリケン,カミキタグンシチノヘマチ,ミナミダテムカイ,青森県上北郡七戸町南舘向
0392751,青森県,上北郡七戸町,貝塚家ノ前,アオモリケン,カミキタグンシチノヘマチ,カイヅカイエノマエ,青森県上北郡七戸町貝塚家ノ前
0392752,青森県,上北郡七戸町,鉢森平,アオモリケン,カミキタグンシチノヘマチ,ハチモリタイ,青森県上北郡七戸町鉢森平
0392753,青森県,上北郡七戸町,竿打川原,アオモリケン,カミキタグンシチノヘマチ,サオウチカワラ,青森県上北郡七戸町竿打川原
0392754,青森県,上北郡七戸町,地蔵堂,アオモリケン,カミキタグンシチノヘマチ,ジゾウドウ,青森県上北郡七戸町地蔵堂
0392755,青森県,上北郡七戸町,榎林家ノ前,アオモリケン,カミキタグンシチノヘマチ,エノキバヤシイエノマエ,青森県上北郡七戸町榎林家ノ前
0392756,青森県,上北郡七戸町,榎林家ノ後,アオモリケン,カミキタグンシチノヘマチ,エノキバヤシイエノウシロ,青森県上北郡七戸町榎林家ノ後
0392757,青森県,上北郡七戸町,卒古沢南平,アオモリケン,カミキタグンシチノヘマチ,ソツコザワミナミタイ,青森県上北郡七戸町卒古沢南平
0392761,青森県,上北郡七戸町,二ツ森家ノ後,アオモリケン,カミキタグンシチノヘマチ,フタツモリイエノウシロ,青森県上北郡七戸町二ツ森家ノ後
0392762,青森県,上北郡七戸町,二ツ森家ノ下,アオモリケン,カミキタグンシチノヘマチ,フタツモリイエノシタ,青森県上北郡七戸町二ツ森家ノ下
0392763,青森県,上北郡七戸町,二ツ森家ノ表,アオモリケン,カミキタグンシチノヘマチ,フタツモリイエノオモテ,青森県上北郡七戸町二ツ森家ノ表
0392771,青森県,上北郡七戸町,姥沢,アオモリケン,カミキタグンシチノヘマチ,ウバサワ,青森県上北郡七戸町姥沢
0392772,青森県,上北郡七戸町,下田坪,アオモリケン,カミキタグンシチノヘマチ,シモタツボ,青森県上北郡七戸町下田坪
0392773,青森県,上北郡七戸町,前左野,アオモリケン,カミキタグンシチノヘマチ,マエサノ,青森県上北郡七戸町前左野
0392774,青森県,上北郡七戸町,柴舘道ノ下,アオモリケン,カミキタグンシチノヘマチ,シバダテミチノシモ,青森県上北郡七戸町柴舘道ノ下
0392775,青森県,上北郡七戸町,李沢道ノ下,アオモリケン,カミキタグンシチノヘマチ,スモモザワミチノシモ,青森県上北郡七戸町李沢道ノ下
0392776,青森県,上北郡七戸町,李沢家ノ前,アオモリケン,カミキタグンシチノヘマチ,スモモザワイエノマエ,青森県上北郡七戸町李沢家ノ前
0392777,青森県,上北郡七戸町,李沢家ノ後,アオモリケン,カミキタグンシチノヘマチ,スモモザワイエノウシロ,青森県上北郡七戸町李沢家ノ後
0392778,青森県,上北郡七戸町,坂ノ外,アオモリケン,カミキタグンシチノヘマチ,サカノソト,青森県上北郡七戸町坂ノ外
0392779,青森県,上北郡七戸町,榎林古屋敷,アオモリケン,カミキタグンシチノヘマチ,エノキバヤシフルヤシキ,青森県上北郡七戸町榎林古屋敷
0392781,青森県,上北郡七戸町,花松林ノ根,アオモリケン,カミキタグンシチノヘマチ,ハナマツハヤシノネ,青森県上北郡七戸町花松林ノ根
0392782,青森県,上北郡七戸町,中岫太田嶋,アオモリケン,カミキタグンシチノヘマチ,ナカグキオオタシマ,青森県上北郡七戸町中岫太田嶋
0392783,青森県,上北郡七戸町,中岫番屋,アオモリケン,カミキタグンシチノヘマチ,ナカグキバンヤ,青森県上北郡七戸町中岫番屋
0392784,青森県,上北郡七戸町,中岫長沢下,アオモリケン,カミキタグンシチノヘマチ,ナカグキナガサワシモ,青森県上北郡七戸町中岫長沢下
0392785,青森県,上北郡七戸町,中岫村ノ上,アオモリケン,カミキタグンシチノヘマチ,ナカグキムラノカミ,青森県上北郡七戸町中岫村ノ上
0392786,青森県,上北郡七戸町,中岫東道添,アオモリケン,カミキタグンシチノヘマチ,ナカグキヒガシミチゾエ,青森県上北郡七戸町中岫東道添
0392801,青森県,上北郡七戸町,野崎,アオモリケン,カミキタグンシチノヘマチ,ノザキ,青森県上北郡七戸町野崎
0392802,青森県,上北郡七戸町,野崎前平,アオモリケン,カミキタグンシチノヘマチ,ノザキマエヒラ,青森県上北郡七戸町野崎前平
0392803,青森県,上北郡七戸町,野崎森ノ下,アオモリケン,カミキタグンシチノヘマチ,ノザキモリノシモ,青森県上北郡七戸町野崎森ノ下
0392804,青森県,上北郡七戸町,野崎狐久保,アオモリケン,カミキタグンシチノヘマチ,ノザキキツネクボ,青森県上北郡七戸町野崎狐久保
0392805,青森県,上北郡七戸町,原久保,アオモリケン,カミキタグンシチノヘマチ,ハラクボ,青森県上北郡七戸町原久保
0392811,青森県,上北郡七戸町,天間舘荒谷,アオモリケン,カミキタグンシチノヘマチ,テンマダテアラヤ,青森県上北郡七戸町天間舘荒谷
0392812,青森県,上北郡七戸町,小田下,アオモリケン,カミキタグンシチノヘマチ,コダシタ,青森県上北郡七戸町小田下
0392813,青森県,上北郡七戸町,小田平,アオモリケン,カミキタグンシチノヘマチ,コダタイ,青森県上北郡七戸町小田平
0392814,青森県,上北郡七戸町,道ノ下,アオモリケン,カミキタグンシチノヘマチ,ミチノシモ,青森県上北郡七戸町道ノ下
0392815,青森県,上北郡七戸町,森ノ下,アオモリケン,カミキタグンシチノヘマチ,モリノシモ,青森県上北郡七戸町森ノ下
0392816,青森県,上北郡七戸町,家ノ裏,アオモリケン,カミキタグンシチノヘマチ,イエノウラ,青森県上北郡七戸町家ノ裏
0392821,青森県,上北郡七戸町,大平,アオモリケン,カミキタグンシチノヘマチ,オオダイラ,青森県上北郡七戸町大平
0392822,青森県,上北郡七戸町,小又,アオモリケン,カミキタグンシチノヘマチ,コマタ,青森県上北郡七戸町小又
0392823,青森県,上北郡七戸町,館ノ下,アオモリケン,カミキタグンシチノヘマチ,ダテノシタ,青森県上北郡七戸町館ノ下
0392824,青森県,上北郡七戸町,家ノ下,アオモリケン,カミキタグンシチノヘマチ,イエノシタ,青森県上北郡七戸町家ノ下
0392825,青森県,上北郡七戸町,家ノ上,アオモリケン,カミキタグンシチノヘマチ,イエノカミ,青森県上北郡七戸町家ノ上
0392826,青森県,上北郡七戸町,中野,アオモリケン,カミキタグンシチノヘマチ,ナカノ,青森県上北郡七戸町中野
0392827,青森県,上北郡七戸町,森ノ上,アオモリケン,カミキタグンシチノヘマチ,モリノカミ,青森県上北郡七戸町森ノ上
0392828,青森県,上北郡七戸町,森ケ沢,アオモリケン,カミキタグンシチノヘマチ,モリガサワ,青森県上北郡七戸町森ケ沢
0392831,青森県,上北郡七戸町,金沢平,アオモリケン,カミキタグンシチノヘマチ,カナザワタイラ,青森県上北郡七戸町金沢平
0392832,青森県,上北郡七戸町,道ノ上,アオモリケン,カミキタグンシチノヘマチ,ミチノカミ,青森県上北郡七戸町道ノ上
0392833,青森県,上北郡七戸町,家ノ前,アオモリケン,カミキタグンシチノヘマチ,イエノマエ,青森県上北郡七戸町家ノ前
0392834,青森県,上北郡七戸町,向中野川向,アオモリケン,カミキタグンシチノヘマチ,ムカイナカノカワムカイ,青森県上北郡七戸町向中野川向
0392835,青森県,上北郡七戸町,松ケ沢,アオモリケン,カミキタグンシチノヘマチ,マツガサワ,青森県上北郡七戸町松ケ沢
0392841,青森県,上北郡七戸町,下鳥谷部,アオモリケン,カミキタグンシチノヘマチ,シモトリヤベ,青森県上北郡七戸町下鳥谷部
0392842,青森県,上北郡七戸町,中鳥谷,アオモリケン,カミキタグンシチノヘマチ,ナカトリヤ,青森県上北郡七戸町中鳥谷
0392843,青森県,上北郡七戸町,橋ノ上,アオモリケン,カミキタグンシチノヘマチ,ハシノカミ,青森県上北郡七戸町橋ノ上
0392844,青森県,上北郡七戸町,手代森,アオモリケン,カミキタグンシチノヘマチ,テシロモリ,青森県上北郡七戸町手代森
0392845,青森県,上北郡七戸町,作田道,アオモリケン,カミキタグンシチノヘマチ,サクタミチ,青森県上北郡七戸町作田道
0392846,青森県,上北郡七戸町,鳥谷部,アオモリケン,カミキタグンシチノヘマチ,トリヤベ,青森県上北郡七戸町鳥谷部
0392851,青森県,上北郡七戸町,堰根,アオモリケン,カミキタグンシチノヘマチ,セキネ,青森県上北郡七戸町堰根
0392852,青森県,上北郡七戸町,さそう,アオモリケン,カミキタグンシチノヘマチ,サソウ,青森県上北郡七戸町さそう
0392853,青森県,上北郡七戸町,さそう平,アオモリケン,カミキタグンシチノヘマチ,サソウタイ,青森県上北郡七戸町さそう平
0392854,青森県,上北郡七戸町,高井名,アオモリケン,カミキタグンシチノヘマチ,タカイナ,青森県上北郡七戸町高井名
0392855,青森県,上北郡七戸町,底田,アオモリケン,カミキタグンシチノヘマチ,ソコタ,青森県上北郡七戸町底田
0392856,青森県,上北郡七戸町,古和備,アオモリケン,カミキタグンシチノヘマチ,コワソナエ,青森県上北郡七戸町古和備
0392857,青森県,上北郡七戸町,天間舘倉越,アオモリケン,カミキタグンシチノヘマチ,テンマダテクラコシ,青森県上北郡七戸町天間舘倉越
0392861,青森県,上北郡七戸町,天間舘大沢,アオモリケン,カミキタグンシチノヘマチ,テンマダテオオサワ,青森県上北郡七戸町天間舘大沢
0392862,青森県,上北郡七戸町,夏間木,アオモリケン,カミキタグンシチノヘマチ,ナツマギ,青森県上北郡七戸町夏間木
0392863,青森県,上北郡七戸町,十枝内,アオモリケン,カミキタグンシチノヘマチ,トシナイ,青森県上北郡七戸町十枝内
0392864,青森県,上北郡七戸町,下モ川原,アオモリケン,カミキタグンシチノヘマチ,シモカワラ,青森県上北郡七戸町下モ川原
0392865,青森県,上北郡七戸町,市ノ渡,アオモリケン,カミキタグンシチノヘマチ,イチノワタリ,青森県上北郡七戸町市ノ渡
0392866,青森県,上北郡七戸町,栗ノ木沢,アオモリケン,カミキタグンシチノヘマチ,クリノキサワ,青森県上北郡七戸町栗ノ木沢
0392871,青森県,上北郡七戸町,白石,アオモリケン,カミキタグンシチノヘマチ,シロイシ,青森県上北郡七戸町白石
0392872,青森県,上北郡七戸町,下タ川原,アオモリケン,カミキタグンシチノヘマチ,シタカワラ,青森県上北郡七戸町下タ川原
0392873,青森県,上北郡七戸町,天間舘寒水,アオモリケン,カミキタグンシチノヘマチ,テンマダテカンスイ,青森県上北郡七戸町天間舘寒水
0392874,青森県,上北郡七戸町,坪川原,アオモリケン,カミキタグンシチノヘマチ,ツボカワラ,青森県上北郡七戸町坪川原
0392875,青森県,上北郡七戸町,淋代,アオモリケン,カミキタグンシチノヘマチ,サビシロ,青森県上北郡七戸町淋代
0392876,青森県,上北郡七戸町,堰代,アオモリケン,カミキタグンシチノヘマチ,セキシロ,青森県上北郡七戸町堰代
0392877,青森県,上北郡七戸町,五庵ノ下,アオモリケン,カミキタグンシチノヘマチ,ゴアンノシタ,青森県上北郡七戸町五庵ノ下
0393100,青森県,上北郡野辺地町,,アオモリケン,カミキタグンノヘジマチ,,青森県上北郡野辺地町
0393101,青森県,上北郡野辺地町,浜掛,アオモリケン,カミキタグンノヘジマチ,ハマカケ,青森県上北郡野辺地町浜掛
0393102,青森県,上北郡野辺地町,米内沢,アオモリケン,カミキタグンノヘジマチ,ヨナイサワ,青森県上北郡野辺地町米内沢
0393103,青森県,上北郡野辺地町,田名部道,アオモリケン,カミキタグンノヘジマチ,タナブミチ,青森県上北郡野辺地町田名部道
0393104,青森県,上北郡野辺地町,大月平,アオモリケン,カミキタグンノヘジマチ,オオツキタイ,青森県上北郡野辺地町大月平
0393105,青森県,上北郡野辺地町,干草橋,アオモリケン,カミキタグンノヘジマチ,ヒクサバシ,青森県上北郡野辺地町干草橋
0393105,青森県,上北郡野辺地町,有戸鳥井平,アオモリケン,カミキタグンノヘジマチ,アリトトリイタイ,青森県上北郡野辺地町有戸鳥井平
0393105,青森県,上北郡野辺地町,木明,アオモリケン,カミキタグンノヘジマチ,キミョウ,青森県上北郡野辺地町木明
0393105,青森県,上北郡野辺地町,東太田沢,アオモリケン,カミキタグンノヘジマチ,ヒガシオオタサワ,青森県上北郡野辺地町東太田沢
0393106,青森県,上北郡野辺地町,古明前,アオモリケン,カミキタグンノヘジマチ,フルミョウマエ,青森県上北郡野辺地町古明前
0393106,青森県,上北郡野辺地町,明前,アオモリケン,カミキタグンノヘジマチ,ミョウマエ,青森県上北郡野辺地町明前
0393106,青森県,上北郡野辺地町,蟹田,アオモリケン,カミキタグンノヘジマチ,カニタ,青森県上北郡野辺地町蟹田
0393107,青森県,上北郡野辺地町,小沢平,アオモリケン,カミキタグンノヘジマチ,オザワダイ,青森県上北郡野辺地町小沢平
0393108,青森県,上北郡野辺地町,下道,アオモリケン,カミキタグンノヘジマチ,シタミチ,青森県上北郡野辺地町下道
0393108,青森県,上北郡野辺地町,中田,アオモリケン,カミキタグンノヘジマチ,ナカタ,青森県上北郡野辺地町中田
0393108,青森県,上北郡野辺地町,有戸,アオモリケン,カミキタグンノヘジマチ,アリト,青森県上北郡野辺地町有戸
0393109,青森県,上北郡野辺地町,向田,アオモリケン,カミキタグンノヘジマチ,ムカイダ,青森県上北郡野辺地町向田
0393111,青森県,上北郡野辺地町,石神裏,アオモリケン,カミキタグンノヘジマチ,イシガミウラ,青森県上北郡野辺地町石神裏
0393112,青森県,上北郡野辺地町,中道,アオモリケン,カミキタグンノヘジマチ,ナカミチ,青森県上北郡野辺地町中道
0393113,青森県,上北郡野辺地町,田狭沢,アオモリケン,カミキタグンノヘジマチ,タバサミザワ,青森県上北郡野辺地町田狭沢
0393114,青森県,上北郡野辺地町,助佐小路,アオモリケン,カミキタグンノヘジマチ,スケサコウジ,青森県上北郡野辺地町助佐小路
0393115,青森県,上北郡野辺地町,タラノ木,アオモリケン,カミキタグンノヘジマチ,タラノキ,青森県上北郡野辺地町タラノ木
0393116,青森県,上北郡野辺地町,赤坂,アオモリケン,カミキタグンノヘジマチ,アカサカ,青森県上北郡野辺地町赤坂
0393117,青森県,上北郡野辺地町,下坂,アオモリケン,カミキタグンノヘジマチ,シモサカ,青森県上北郡野辺地町下坂
0393118,青森県,上北郡野辺地町,寺ノ沢,アオモリケン,カミキタグンノヘジマチ,テラノサワ,青森県上北郡野辺地町寺ノ沢
0393121,青森県,上北郡野辺地町,船橋,アオモリケン,カミキタグンノヘジマチ,フナバシ,青森県上北郡野辺地町船橋
0393122,青森県,上北郡野辺地町,雑吉沢,アオモリケン,カミキタグンノヘジマチ,ゾウヨシザワ,青森県上北郡野辺地町雑吉沢
0393123,青森県,上北郡野辺地町,種川,アオモリケン,カミキタグンノヘジマチ,タネカワ,青森県上北郡野辺地町種川
0393124,青森県,上北郡野辺地町,白岩,アオモリケン,カミキタグンノヘジマチ,シライワ,青森県上北郡野辺地町白岩
0393125,青森県,上北郡野辺地町,坊ノ塚,アオモリケン,カミキタグンノヘジマチ,ボウノツカ,青森県上北郡野辺地町坊ノ塚
0393126,青森県,上北郡野辺地町,下前田,アオモリケン,カミキタグンノヘジマチ,シモマエダ,青森県上北郡野辺地町下前田
0393127,青森県,上北郡野辺地町,上川原,アオモリケン,カミキタグンノヘジマチ,カミカワラ,青森県上北郡野辺地町上川原
0393128,青森県,上北郡野辺地町,上前田,アオモリケン,カミキタグンノヘジマチ,カミマエダ,青森県上北郡野辺地町上前田
0393128,青森県,上北郡野辺地町,昼場,アオモリケン,カミキタグンノヘジマチ,ヒルバ,青森県上北郡野辺地町昼場
0393129,青森県,上北郡野辺地町,戸田ノ沢,アオモリケン,カミキタグンノヘジマチ,トダノサワ,青森県上北郡野辺地町戸田ノ沢
0393129,青森県,上北郡野辺地町,新田,アオモリケン,カミキタグンノヘジマチ,シンデン,青森県上北郡野辺地町新田
0393129,青森県,上北郡野辺地町,餅粟川原,アオモリケン,カミキタグンノヘジマチ,モチアワカワラ,青森県上北郡野辺地町餅粟川原
0393131,青森県,上北郡野辺地町,野辺地,アオモリケン,カミキタグンノヘジマチ,ノヘジ,青森県上北郡野辺地町野辺地
0393141,青森県,上北郡野辺地町,鳴沢,アオモリケン,カミキタグンノヘジマチ,ナルサワ,青森県上北郡野辺地町鳴沢
0393142,青森県,上北郡野辺地町,久田,アオモリケン,カミキタグンノヘジマチ,クンデン,青森県上北郡野辺地町久田
0393143,青森県,上北郡野辺地町,中屋敷,アオモリケン,カミキタグンノヘジマチ,ナカヤシキ,青森県上北郡野辺地町中屋敷
0393143,青森県,上北郡野辺地町,川目,アオモリケン,カミキタグンノヘジマチ,カワメ,青森県上北郡野辺地町川目
0393144,青森県,上北郡野辺地町,一ノ渡,アオモリケン,カミキタグンノヘジマチ,イチノワタリ,青森県上北郡野辺地町一ノ渡
0393145,青森県,上北郡野辺地町,松ノ木平,アオモリケン,カミキタグンノヘジマチ,マツノキタイ,青森県上北郡野辺地町松ノ木平
0393146,青森県,上北郡野辺地町,下松ノ木平,アオモリケン,カミキタグンノヘジマチ,シモマツノキタイ,青森県上北郡野辺地町下松ノ木平
0393147,青森県,上北郡野辺地町,下与田川,アオモリケン,カミキタグンノヘジマチ,シモヨタガワ,青森県上北郡野辺地町下与田川
0393148,青森県,上北郡野辺地町,与田川尻,アオモリケン,カミキタグンノヘジマチ,ヨタガワジリ,青森県上北郡野辺地町与田川尻
0393151,青森県,上北郡野辺地町,白岩向,アオモリケン,カミキタグンノヘジマチ,シライワムカイ,青森県上北郡野辺地町白岩向
0393152,青森県,上北郡野辺地町,下小中野,アオモリケン,カミキタグンノヘジマチ,シモコナカノ,青森県上北郡野辺地町下小中野
0393153,青森県,上北郡野辺地町,中小中野,アオモリケン,カミキタグンノヘジマチ,ナカコナカノ,青森県上北郡野辺地町中小中野
0393154,青森県,上北郡野辺地町,上小中野,アオモリケン,カミキタグンノヘジマチ,カミコナカノ,青森県上北郡野辺地町上小中野
0393155,青森県,上北郡野辺地町,切明,アオモリケン,カミキタグンノヘジマチ,キリアケ,青森県上北郡野辺地町切明
0393156,青森県,上北郡野辺地町,枇杷野,アオモリケン,カミキタグンノヘジマチ,ビワノ,青森県上北郡野辺地町枇杷野
0393157,青森県,上北郡野辺地町,松ノ木,アオモリケン,カミキタグンノヘジマチ,マツノキ,青森県上北郡野辺地町松ノ木
0393157,青森県,上北郡野辺地町,獅子沢,アオモリケン,カミキタグンノヘジマチ,シシザワ,青森県上北郡野辺地町獅子沢
0393158,青森県,上北郡野辺地町,観音林後,アオモリケン,カミキタグンノヘジマチ,カンノンバヤシウシロ,青森県上北郡野辺地町観音林後
0393159,青森県,上北郡野辺地町,観音林脇,アオモリケン,カミキタグンノヘジマチ,カンノンバヤシワキ,青森県上北郡野辺地町観音林脇
0393161,青森県,上北郡野辺地町,馬門道,アオモリケン,カミキタグンノヘジマチ,マカドミチ,青森県上北郡野辺地町馬門道
0393162,青森県,上北郡野辺地町,笹館,アオモリケン,カミキタグンノヘジマチ,ササダテ,青森県上北郡野辺地町笹館
0393163,青森県,上北郡野辺地町,新町裏,アオモリケン,カミキタグンノヘジマチ,シンマチウラ,青森県上北郡野辺地町新町裏
0393164,青森県,上北郡野辺地町,前田,アオモリケン,カミキタグンノヘジマチ,マエダ,青森県上北郡野辺地町前田
0393165,青森県,上北郡野辺地町,観音林前田,アオモリケン,カミキタグンノヘジマチ,カンノンバヤシマエダ,青森県上北郡野辺地町観音林前田
0393166,青森県,上北郡野辺地町,二本木向前田,アオモリケン,カミキタグンノヘジマチ,ニホンキムカイマエダ,青森県上北郡野辺地町二本木向前田
0393167,青森県,上北郡野辺地町,二本木向,アオモリケン,カミキタグンノヘジマチ,ニホンキムカイ,青森県上北郡野辺地町二本木向
0393168,青森県,上北郡野辺地町,前平,アオモリケン,カミキタグンノヘジマチ,マエヒラ,青森県上北郡野辺地町前平
0393171,青森県,上北郡野辺地町,上御手洗瀬,アオモリケン,カミキタグンノヘジマチ,カミミタラセ,青森県上北郡野辺地町上御手洗瀬
0393171,青森県,上北郡野辺地町,下御手洗瀬,アオモリケン,カミキタグンノヘジマチ,シモミタラセ,青森県上北郡野辺地町下御手洗瀬
0393171,青森県,上北郡野辺地町,二十平,アオモリケン,カミキタグンノヘジマチ,ハタチタイ,青森県上北郡野辺地町二十平
0393171,青森県,上北郡野辺地町,二本木,アオモリケン,カミキタグンノヘジマチ,ニホンキ,青森県上北郡野辺地町二本木
0393171,青森県,上北郡野辺地町,御手洗瀬,アオモリケン,カミキタグンノヘジマチ,ミタラセ,青森県上北郡野辺地町御手洗瀬
0393171,青森県,上北郡野辺地町,槻ノ木,アオモリケン,カミキタグンノヘジマチ,ツキノキ,青森県上北郡野辺地町槻ノ木
0393171,青森県,上北郡野辺地町,滝田,アオモリケン,カミキタグンノヘジマチ,タキタ,青森県上北郡野辺地町滝田
0393172,青森県,上北郡野辺地町,鳥井平,アオモリケン,カミキタグンノヘジマチ,トリイタイ,青森県上北郡野辺地町鳥井平
0393173,青森県,上北郡野辺地町,陣場川原,アオモリケン,カミキタグンノヘジマチ,ジンバガワラ,青森県上北郡野辺地町陣場川原
0393174,青森県,上北郡野辺地町,上河渡頭,アオモリケン,カミキタグンノヘジマチ,カミカドガシラ,青森県上北郡野辺地町上河渡頭
0393174,青森県,上北郡野辺地町,下河渡頭,アオモリケン,カミキタグンノヘジマチ,シモカドガシラ,青森県上北郡野辺地町下河渡頭
0393174,青森県,上北郡野辺地町,大平下,アオモリケン,カミキタグンノヘジマチ,オオダイシタ,青森県上北郡野辺地町大平下
0393174,青森県,上北郡野辺地町,田端,アオモリケン,カミキタグンノヘジマチ,タバタ,青森県上北郡野辺地町田端
0393175,青森県,上北郡野辺地町,地続山,アオモリケン,カミキタグンノヘジマチ,ジツヅキヤマ,青森県上北郡野辺地町地続山
0393175,青森県,上北郡野辺地町,湯沢,アオモリケン,カミキタグンノヘジマチ,ユザワ,青森県上北郡野辺地町湯沢
0393175,青森県,上北郡野辺地町,湯沢尻,アオモリケン,カミキタグンノヘジマチ,ユザワジリ,青森県上北郡野辺地町湯沢尻
0393176,青森県,上北郡野辺地町,中渡,アオモリケン,カミキタグンノヘジマチ,ナカワタリ,青森県上北郡野辺地町中渡
0393177,青森県,上北郡野辺地町,八ノ木谷地,アオモリケン,カミキタグンノヘジマチ,ハノキヤチ,青森県上北郡野辺地町八ノ木谷地
0393177,青森県,上北郡野辺地町,柴崎,アオモリケン,カミキタグンノヘジマチ,シバサキ,青森県上北郡野辺地町柴崎
0393178,青森県,上北郡野辺地町,家ノ上,アオモリケン,カミキタグンノヘジマチ,イエノウエ,青森県上北郡野辺地町家ノ上
0393179,青森県,上北郡野辺地町,馬門,アオモリケン,カミキタグンノヘジマチ,マカド,青森県上北郡野辺地町馬門
0393200,青森県,上北郡六ヶ所村,,アオモリケン,カミキタグンロッカショムラ,,青森県上北郡六ヶ所村
0393211,青森県,上北郡六ヶ所村,出戸,アオモリケン,カミキタグンロッカショムラ,デト,青森県上北郡六ヶ所村出戸
0393212,青森県,上北郡六ヶ所村,尾駮,アオモリケン,カミキタグンロッカショムラ,オブチ,青森県上北郡六ヶ所村尾駮
0393213,青森県,上北郡六ヶ所村,鷹架,アオモリケン,カミキタグンロッカショムラ,タカホコ,青森県上北郡六ヶ所村鷹架
0393214,青森県,上北郡六ヶ所村,平沼,アオモリケン,カミキタグンロッカショムラ,ヒラヌマ,青森県上北郡六ヶ所村平沼
0393215,青森県,上北郡六ヶ所村,倉内,アオモリケン,カミキタグンロッカショムラ,クラウチ,青森県上北郡六ヶ所村倉内
0393300,青森県,東津軽郡平内町,,アオモリケン,ヒガシツガルグンヒラナイマチ,,青森県東津軽郡平内町
0393301,青森県,東津軽郡平内町,東田沢,アオモリケン,ヒガシツガルグンヒラナイマチ,ヒガシタザワ,青森県東津軽郡平内町東田沢
0393302,青森県,東津軽郡平内町,白砂,アオモリケン,ヒガシツガルグンヒラナイマチ,シラス,青森県東津軽郡平内町白砂
0393303,青森県,東津軽郡平内町,東滝,アオモリケン,ヒガシツガルグンヒラナイマチ,ヒガシタキ,青森県東津軽郡平内町東滝
0393311,青森県,東津軽郡平内町,福館,アオモリケン,ヒガシツガルグンヒラナイマチ,フクダテ,青森県東津軽郡平内町福館
0393312,青森県,東津軽郡平内町,浅所,アオモリケン,ヒガシツガルグンヒラナイマチ,アサドコロ,青森県東津軽郡平内町浅所
0393313,青森県,東津軽郡平内町,沼館,アオモリケン,ヒガシツガルグンヒラナイマチ,ヌマダテ,青森県東津軽郡平内町沼館
0393314,青森県,東津軽郡平内町,盛田,アオモリケン,ヒガシツガルグンヒラナイマチ,モリタ,青森県東津軽郡平内町盛田
0393315,青森県,東津軽郡平内町,福島,アオモリケン,ヒガシツガルグンヒラナイマチ,フクシマ,青森県東津軽郡平内町福島
0393321,青森県,東津軽郡平内町,小湊,アオモリケン,ヒガシツガルグンヒラナイマチ,コミナト,青森県東津軽郡平内町小湊
0393331,青森県,東津軽郡平内町,浜子,アオモリケン,ヒガシツガルグンヒラナイマチ,ハマゴ,青森県東津軽郡平内町浜子
0393332,青森県,東津軽郡平内町,清水川,アオモリケン,ヒガシツガルグンヒラナイマチ,シミズガワ,青森県東津軽郡平内町清水川
0393333,青森県,東津軽郡平内町,松野木,アオモリケン,ヒガシツガルグンヒラナイマチ,マツノキ,青森県東津軽郡平内町松野木
0393341,青森県,東津軽郡平内町,薬師野,アオモリケン,ヒガシツガルグンヒラナイマチ,ヤクシノ,青森県東津軽郡平内町薬師野
0393342,青森県,東津軽郡平内町,口広,アオモリケン,ヒガシツガルグンヒラナイマチ,クチヒロ,青森県東津軽郡平内町口広
0393343,青森県,東津軽郡平内町,狩場沢,アオモリケン,ヒガシツガルグンヒラナイマチ,カリバサワ,青森県東津軽郡平内町狩場沢
0393351,青森県,東津軽郡平内町,外童子,アオモリケン,ヒガシツガルグンヒラナイマチ,ソトドウジ,青森県東津軽郡平内町外童子
0393352,青森県,東津軽郡平内町,内童子,アオモリケン,ヒガシツガルグンヒラナイマチ,ウチドウジ,青森県東津軽郡平内町内童子
0393353,青森県,東津軽郡平内町,田茂木,アオモリケン,ヒガシツガルグンヒラナイマチ,タモギ,青森県東津軽郡平内町田茂木
0393361,青森県,東津軽郡平内町,藤沢,アオモリケン,ヒガシツガルグンヒラナイマチ,フジサワ,青森県東津軽郡平内町藤沢
0393362,青森県,東津軽郡平内町,増田,アオモリケン,ヒガシツガルグンヒラナイマチ,マスタ,青森県東津軽郡平内町増田
0393363,青森県,東津軽郡平内町,山口,アオモリケン,ヒガシツガルグンヒラナイマチ,ヤマグチ,青森県東津軽郡平内町山口
0393364,青森県,東津軽郡平内町,小豆沢,アオモリケン,ヒガシツガルグンヒラナイマチ,アズキサワ,青森県東津軽郡平内町小豆沢
0393371,青森県,東津軽郡平内町,中野,アオモリケン,ヒガシツガルグンヒラナイマチ,ナカノ,青森県東津軽郡平内町中野
0393372,青森県,東津軽郡平内町,土屋,アオモリケン,ヒガシツガルグンヒラナイマチ,ツチヤ,青森県東津軽郡平内町土屋
0393373,青森県,東津軽郡平内町,浪打,アオモリケン,ヒガシツガルグンヒラナイマチ,ナミウチ,青森県東津軽郡平内町浪打
0393381,青森県,東津軽郡平内町,茂浦,アオモリケン,ヒガシツガルグンヒラナイマチ,モウラ,青森県東津軽郡平内町茂浦
0393382,青森県,東津軽郡平内町,稲生,アオモリケン,ヒガシツガルグンヒラナイマチ,イノウ,青森県東津軽郡平内町稲生
0393501,青森県,青森市,浅虫,アオモリケン,アオモリシ,アサムシ,青森県青森市浅虫
0393502,青森県,青森市,久栗坂,アオモリケン,アオモリシ,クグリザカ,青森県青森市久栗坂
0393503,青森県,青森市,野内,アオモリケン,アオモリシ,ノナイ,青森県青森市野内
0393504,青森県,青森市,矢田,アオモリケン,アオモリシ,ヤダ,青森県青森市矢田
0393505,青森県,青森市,宮田,アオモリケン,アオモリシ,ミヤタ,青森県青森市宮田
0393506,青森県,青森市,三本木,アオモリケン,アオモリシ,サンボンギ,青森県青森市三本木
0393507,青森県,青森市,馬屋尻,アオモリケン,アオモリシ,マヤジリ,青森県青森市馬屋尻
0393524,青森県,青森市,滝沢（その他）,アオモリケン,アオモリシ,タキサワ(ソノタ),青森県青森市滝沢（その他）
0394100,青森県,上北郡横浜町,,アオモリケン,カミキタグンヨコハママチ,,青森県上北郡横浜町
0394101,青森県,上北郡横浜町,林尻,アオモリケン,カミキタグンヨコハママチ,ハヤシジリ,青森県上北郡横浜町林尻
0394102,青森県,上北郡横浜町,浜田,アオモリケン,カミキタグンヨコハママチ,ハマダ,青森県上北郡横浜町浜田
0394103,青森県,上北郡横浜町,川太郎川目,アオモリケン,カミキタグンヨコハママチ,カワタロウカワメ,青森県上北郡横浜町川太郎川目
0394104,青森県,上北郡横浜町,下苗代川目,アオモリケン,カミキタグンヨコハママチ,シモナワシロカワメ,青森県上北郡横浜町下苗代川目
0394105,青森県,上北郡横浜町,苗代川目,アオモリケン,カミキタグンヨコハママチ,ナワシロカワメ,青森県上北郡横浜町苗代川目
0394106,青森県,上北郡横浜町,有畑,アオモリケン,カミキタグンヨコハママチ,アリハタ,青森県上北郡横浜町有畑
0394111,青森県,上北郡横浜町,大畑,アオモリケン,カミキタグンヨコハママチ,オオハタ,青森県上北郡横浜町大畑
0394112,青森県,上北郡横浜町,夷ケ沢平,アオモリケン,カミキタグンヨコハママチ,エゾガサワタイラ,青森県上北郡横浜町夷ケ沢平
0394113,青森県,上北郡横浜町,家ノ前川目,アオモリケン,カミキタグンヨコハママチ,イエノマエカワメ,青森県上北郡横浜町家ノ前川目
0394114,青森県,上北郡横浜町,大豆田,アオモリケン,カミキタグンヨコハママチ,マメダ,青森県上北郡横浜町大豆田
0394115,青森県,上北郡横浜町,稲荷平,アオモリケン,カミキタグンヨコハママチ,イナリタイラ,青森県上北郡横浜町稲荷平
0394116,青森県,上北郡横浜町,中畑,アオモリケン,カミキタグンヨコハママチ,ナカハタ,青森県上北郡横浜町中畑
0394117,青森県,上北郡横浜町,鶏沢,アオモリケン,カミキタグンヨコハママチ,ニワトリザワ,青森県上北郡横浜町鶏沢
0394121,青森県,上北郡横浜町,桧木,アオモリケン,カミキタグンヨコハママチ,ヒノキ,青森県上北郡横浜町桧木
0394122,青森県,上北郡横浜町,鶏ケ唄,アオモリケン,カミキタグンヨコハママチ,トリガウタ,青森県上北郡横浜町鶏ケ唄
0394123,青森県,上北郡横浜町,茅平,アオモリケン,カミキタグンヨコハママチ,カヤタイラ,青森県上北郡横浜町茅平
0394124,青森県,上北郡横浜町,川尻,アオモリケン,カミキタグンヨコハママチ,カワジリ,青森県上北郡横浜町川尻
0394131,青森県,上北郡横浜町,椛名木,アオモリケン,カミキタグンヨコハママチ,カバナキ,青森県上北郡横浜町椛名木
0394132,青森県,上北郡横浜町,太郎須田,アオモリケン,カミキタグンヨコハママチ,タロウスダ,青森県上北郡横浜町太郎須田
0394133,青森県,上北郡横浜町,舘の後,アオモリケン,カミキタグンヨコハママチ,タテノウシロ,青森県上北郡横浜町舘の後
0394134,青森県,上北郡横浜町,林の脇,アオモリケン,カミキタグンヨコハママチ,ハヤシノワキ,青森県上北郡横浜町林の脇
0394135,青森県,上北郡横浜町,林の後,アオモリケン,カミキタグンヨコハママチ,ハヤシノウシロ,青森県上北郡横浜町林の後
0394136,青森県,上北郡横浜町,横浜,アオモリケン,カミキタグンヨコハママチ,ヨコハマ,青森県上北郡横浜町横浜
0394137,青森県,上北郡横浜町,下川原,アオモリケン,カミキタグンヨコハママチ,シモガワラ,青森県上北郡横浜町下川原
0394138,青森県,上北郡横浜町,塚名平,アオモリケン,カミキタグンヨコハママチ,ツカナタイラ,青森県上北郡横浜町塚名平
0394141,青森県,上北郡横浜町,三保野,アオモリケン,カミキタグンヨコハママチ,ミホノ,青森県上北郡横浜町三保野
0394142,青森県,上北郡横浜町,上イタヤノ木,アオモリケン,カミキタグンヨコハママチ,カミイタヤノキ,青森県上北郡横浜町上イタヤノ木
0394143,青森県,上北郡横浜町,屋敷形,アオモリケン,カミキタグンヨコハママチ,ヤシキガタ,青森県上北郡横浜町屋敷形
0394144,青森県,上北郡横浜町,浜懸,アオモリケン,カミキタグンヨコハママチ,ハマガケ,青森県上北郡横浜町浜懸
0394145,青森県,上北郡横浜町,寺下,アオモリケン,カミキタグンヨコハママチ,テラシタ,青森県上北郡横浜町寺下
0394151,青森県,上北郡横浜町,向平,アオモリケン,カミキタグンヨコハママチ,ムカイタイラ,青森県上北郡横浜町向平
0394152,青森県,上北郡横浜町,百目木,アオモリケン,カミキタグンヨコハママチ,ドメキ,青森県上北郡横浜町百目木
0394153,青森県,上北郡横浜町,吹越,アオモリケン,カミキタグンヨコハママチ,フッコシ,青森県上北郡横浜町吹越
0394154,青森県,上北郡横浜町,明神平,アオモリケン,カミキタグンヨコハママチ,ミョウジンタイラ,青森県上北郡横浜町明神平
0394155,青森県,上北郡横浜町,豊栄平,アオモリケン,カミキタグンヨコハママチ,トヨサカタイラ,青森県上北郡横浜町豊栄平
0394156,青森県,上北郡横浜町,雲雀平,アオモリケン,カミキタグンヨコハママチ,ヒバリタイラ,青森県上北郡横浜町雲雀平
0394157,青森県,上北郡横浜町,二又,アオモリケン,カミキタグンヨコハママチ,フタマタ,青森県上北郡横浜町二又
0394221,青森県,下北郡東通村,猿ケ森,アオモリケン,シモキタグンヒガシドオリムラ,サルガモリ,青森県下北郡東通村猿ケ森
0394222,青森県,下北郡東通村,砂子又,アオモリケン,シモキタグンヒガシドオリムラ,スナゴマタ,青森県下北郡東通村砂子又
0394223,青森県,下北郡東通村,小田野沢,アオモリケン,シモキタグンヒガシドオリムラ,オダノサワ,青森県下北郡東通村小田野沢
0394224,青森県,下北郡東通村,白糠,アオモリケン,シモキタグンヒガシドオリムラ,シラヌカ,青森県下北郡東通村白糠
0394301,青森県,上北郡六ヶ所村,泊,アオモリケン,カミキタグンロッカショムラ,トマリ,青森県上北郡六ヶ所村泊
0394401,青森県,むつ市,大畑町,アオモリケン,ムツシ,オオハタマチ,青森県むつ市大畑町
0394402,青森県,むつ市,大畑町正津川,アオモリケン,ムツシ,オオハタマチショウヅガワ,青森県むつ市大畑町正津川
0394500,青森県,下北郡風間浦村,,アオモリケン,シモキタグンカザマウラムラ,,青森県下北郡風間浦村
0394501,青森県,下北郡風間浦村,下風呂,アオモリケン,シモキタグンカザマウラムラ,シモフロ,青森県下北郡風間浦村下風呂
0394502,青森県,下北郡風間浦村,易国間,アオモリケン,シモキタグンカザマウラムラ,イコクマ,青森県下北郡風間浦村易国間
0394503,青森県,下北郡風間浦村,蛇浦,アオモリケン,シモキタグンカザマウラムラ,ヘビウラ,青森県下北郡風間浦村蛇浦
0394600,青森県,下北郡大間町,,アオモリケン,シモキタグンオオママチ,,青森県下北郡大間町
0394601,青森県,下北郡大間町,大間,アオモリケン,シモキタグンオオママチ,オオマ,青森県下北郡大間町大間
0394602,青森県,下北郡大間町,奥戸,アオモリケン,シモキタグンオオママチ,オコッペ,青森県下北郡大間町奥戸
0394700,青森県,下北郡佐井村,,アオモリケン,シモキタグンサイムラ,,青森県下北郡佐井村
0394701,青森県,むつ市,川内町（板家戸、野平、福浦山）,アオモリケン,ムツシ,カワウチマチ(イタゲド、ノダイ、フクウラヤマ),青森県むつ市川内町（板家戸、野平、福浦山）
0394711,青森県,下北郡佐井村,佐井,アオモリケン,シモキタグンサイムラ,サイ,青森県下北郡佐井村佐井
0394712,青森県,下北郡佐井村,長後,アオモリケン,シモキタグンサイムラ,チョウゴ,青森県下北郡佐井村長後
0395201,青森県,むつ市,川内町（その他）,アオモリケン,ムツシ,カワウチマチ(ソノタ),青森県むつ市川内町（その他）
0395202,青森県,むつ市,川内町桧川,アオモリケン,ムツシ,カワウチマチヒノキガワ,青森県むつ市川内町桧川
0395203,青森県,むつ市,川内町宿野部,アオモリケン,ムツシ,カワウチマチシュクノヘ,青森県むつ市川内町宿野部
0395204,青森県,むつ市,川内町蛎崎（その他）,アオモリケン,ムツシ,カワウチマチカキザキ(ソノタ),青森県むつ市川内町蛎崎（その他）
0395304,青森県,むつ市,川内町蛎崎（半右エ門沢）,アオモリケン,ムツシ,カワウチマチカキザキ(ハンエモンザワ),青森県むつ市川内町蛎崎（半右エ門沢）
0395321,青森県,むつ市,脇野沢源藤城,アオモリケン,ムツシ,ワキノサワゲンドウシロ,青森県むつ市脇野沢源藤城
0395322,青森県,むつ市,脇野沢滝山,アオモリケン,ムツシ,ワキノサワタキヤマ,青森県むつ市脇野沢滝山
0395323,青森県,むつ市,脇野沢七引,アオモリケン,ムツシ,ワキノサワシチビキ,青森県むつ市脇野沢七引
0395324,青森県,むつ市,脇野沢田ノ頭,アオモリケン,ムツシ,ワキノサワタノカシラ,青森県むつ市脇野沢田ノ頭
0395325,青森県,むつ市,脇野沢辰内,アオモリケン,ムツシ,ワキノサワタツウチ,青森県むつ市脇野沢辰内
0395326,青森県,むつ市,脇野沢桂沢,アオモリケン,ムツシ,ワキノサワカツラザワ,青森県むつ市脇野沢桂沢
0395327,青森県,むつ市,脇野沢本村,アオモリケン,ムツシ,ワキノサワホンソン,青森県むつ市脇野沢本村
0395331,青森県,むつ市,脇野沢渡向,アオモリケン,ムツシ,ワキノサワワタムカイ,青森県むつ市脇野沢渡向
0395332,青森県,むつ市,脇野沢瀬野川目,アオモリケン,ムツシ,ワキノサワセノカワメ,青森県むつ市脇野沢瀬野川目
0395333,青森県,むつ市,脇野沢黒岩,アオモリケン,ムツシ,ワキノサワクロイワ,青森県むつ市脇野沢黒岩
0395334,青森県,むつ市,脇野沢新井田,アオモリケン,ムツシ,ワキノサワニイダ,青森県むつ市脇野沢新井田
0395335,青森県,むつ市,脇野沢寄浪,アオモリケン,ムツシ,ワキノサワキナミ,青森県むつ市脇野沢寄浪
0395336,青森県,むつ市,脇野沢蛸田,アオモリケン,ムツシ,ワキノサワタコダ,青森県むつ市脇野沢蛸田
0395337,青森県,むつ市,脇野沢九艘泊,アオモリケン,ムツシ,ワキノサワクソウドマリ,青森県むつ市脇野沢九艘泊
0395341,青森県,むつ市,脇野沢鹿間平,アオモリケン,ムツシ,ワキノサワシカマダイラ,青森県むつ市脇野沢鹿間平
0395342,青森県,むつ市,脇野沢小沢,アオモリケン,ムツシ,ワキノサワコザワ,青森県むつ市脇野沢小沢
0395343,青森県,むつ市,脇野沢小サ沢,アオモリケン,ムツシ,ワキノサワコササワ,青森県むつ市脇野沢小サ沢
0395344,青森県,むつ市,脇野沢稲平,アオモリケン,ムツシ,ワキノサワイナダイラ,青森県むつ市脇野沢稲平
0395345,青森県,むつ市,脇野沢赤坂,アオモリケン,ムツシ,ワキノサワアカサカ,青森県むつ市脇野沢赤坂
0395346,青森県,むつ市,脇野沢口広,アオモリケン,ムツシ,ワキノサワクチヒロ,青森県むつ市脇野沢口広
