zipcode,prefecture_name,city,town,prefecture_kana,city_kana,town_kana,normalized_address
3800801,長野県,長野市,箱清水,ナガノケン,ナガノシ,ハコシミズ,長野県長野市箱清水
3800802,長野県,長野市,上松,ナガノケン,ナガノシ,ウエマツ,長野県長野市上松
3800803,長野県,長野市,三輪,ナガノケン,ナガノシ,ミワ,長野県長野市三輪
3800804,長野県,長野市,荒屋,ナガノケン,ナガノシ,アラヤ,長野県長野市荒屋
3800805,長野県,長野市,柳町,ナガノケン,ナガノシ,ヤナギマチ,長野県長野市柳町
3800806,長野県,長野市,淀ケ橋,ナガノケン,ナガノシ,ヨドガバシ,長野県長野市淀ケ橋
3800807,長野県,長野市,横山,ナガノケン,ナガノシ,ヨコヤマ,長野県長野市横山
3800811,長野県,長野市,東鶴賀町,ナガノケン,ナガノシ,ヒガシツルガマチ,長野県長野市東鶴賀町
3800811,長野県,長野市,鶴賀（東鶴賀町）,ナガノケン,ナガノシ,ツルガ(ヒガシツルガマチ),長野県長野市鶴賀（東鶴賀町）
3800812,長野県,長野市,早苗町,ナガノケン,ナガノシ,サナエチョウ,長野県長野市早苗町
3800812,長野県,長野市,鶴賀（早苗町）,ナガノケン,ナガノシ,ツルガ(サナエチョウ),長野県長野市鶴賀（早苗町）
3800813,長野県,長野市,緑町,ナガノケン,ナガノシ,ミドリチョウ,長野県長野市緑町
3800813,長野県,長野市,鶴賀（緑町）,ナガノケン,ナガノシ,ツルガ(ミドリチョウ),長野県長野市鶴賀（緑町）
3800814,長野県,長野市,西鶴賀町,ナガノケン,ナガノシ,ニシツルガマチ,長野県長野市西鶴賀町
3800814,長野県,長野市,鶴賀（西鶴賀町）,ナガノケン,ナガノシ,ツルガ(ニシツルガマチ),長野県長野市鶴賀（西鶴賀町）
3800815,長野県,長野市,田町,ナガノケン,ナガノシ,タマチ,長野県長野市田町
3800815,長野県,長野市,鶴賀（田町）,ナガノケン,ナガノシ,ツルガ(タマチ),長野県長野市鶴賀（田町）
3800816,長野県,長野市,三輪田町,ナガノケン,ナガノシ,ミワタマチ,長野県長野市三輪田町
3800821,長野県,長野市,上千歳町,ナガノケン,ナガノシ,カミチトセマチ,長野県長野市上千歳町
3800821,長野県,長野市,鶴賀（上千歳町）,ナガノケン,ナガノシ,ツルガ(カミチトセマチ),長野県長野市鶴賀（上千歳町）
3800822,長野県,長野市,南千歳町,ナガノケン,ナガノシ,ミナミチトセマチ,長野県長野市南千歳町
3800822,長野県,長野市,鶴賀（南千歳町）,ナガノケン,ナガノシ,ツルガ(ミナミチトセマチ),長野県長野市鶴賀（南千歳町）
3800823,長野県,長野市,南千歳,ナガノケン,ナガノシ,ミナミチトセ,長野県長野市南千歳
3800824,長野県,長野市,南石堂町,ナガノケン,ナガノシ,ミナミイシドウチョウ,長野県長野市南石堂町
3800825,長野県,長野市,末広町,ナガノケン,ナガノシ,スエヒロチョウ,長野県長野市末広町
3800826,長野県,長野市,北石堂町,ナガノケン,ナガノシ,キタイシドウチョウ,長野県長野市北石堂町
3800831,長野県,長野市,東町,ナガノケン,ナガノシ,ヒガシマチ,長野県長野市東町
3800832,長野県,長野市,東後町,ナガノケン,ナガノシ,ヒガシゴチョウ,長野県長野市東後町
3800833,長野県,長野市,権堂町,ナガノケン,ナガノシ,ゴンドウチョウ,長野県長野市権堂町
3800833,長野県,長野市,鶴賀（権堂町）,ナガノケン,ナガノシ,ツルガ(ゴンドウチョウ),長野県長野市鶴賀（権堂町）
3800834,長野県,長野市,問御所町,ナガノケン,ナガノシ,トイゴショマチ,長野県長野市問御所町
3800834,長野県,長野市,鶴賀（問御所町）,ナガノケン,ナガノシ,ツルガ(トイゴショマチ),長野県長野市鶴賀（問御所町）
3800835,長野県,長野市,新田町,ナガノケン,ナガノシ,シンデンチョウ,長野県長野市新田町
3800836,長野県,長野市,南県町,ナガノケン,ナガノシ,ミナミアガタマチ,長野県長野市南県町
3800837,長野県,長野市,南長野（幅下）,ナガノケン,ナガノシ,ミナミナガノ(ハバシタ),長野県長野市南長野（幅下）
3800838,長野県,長野市,県町,ナガノケン,ナガノシ,アガタマチ,長野県長野市県町
3800841,長野県,長野市,大門町,ナガノケン,ナガノシ,ダイモンチョウ,長野県長野市大門町
3800842,長野県,長野市,西町,ナガノケン,ナガノシ,ニシマチ,長野県長野市西町
3800843,長野県,長野市,長門町,ナガノケン,ナガノシ,ナガトチョウ,長野県長野市長門町
3800844,長野県,長野市,諏訪町,ナガノケン,ナガノシ,スワチョウ,長野県長野市諏訪町
3800845,長野県,長野市,西後町,ナガノケン,ナガノシ,ニシゴチョウ,長野県長野市西後町
3800846,長野県,長野市,旭町,ナガノケン,ナガノシ,アサヒマチ,長野県長野市旭町
3800847,長野県,長野市,若松町,ナガノケン,ナガノシ,ワカマツチョウ,長野県長野市若松町
3800851,長野県,長野市,元善町,ナガノケン,ナガノシ,モトヨシチョウ,長野県長野市元善町
3800852,長野県,長野市,東之門町,ナガノケン,ナガノシ,ヒガシノモンチョウ,長野県長野市東之門町
3800853,長野県,長野市,新町,ナガノケン,ナガノシ,シンマチ,長野県長野市新町
3800854,長野県,長野市,伊勢町,ナガノケン,ナガノシ,イセマチ,長野県長野市伊勢町
3800855,長野県,長野市,岩石町,ナガノケン,ナガノシ,ガンゼキチョウ,長野県長野市岩石町
3800856,長野県,長野市,横町,ナガノケン,ナガノシ,ヨコマチ,長野県長野市横町
3800857,長野県,長野市,西之門町,ナガノケン,ナガノシ,ニシノモンチョウ,長野県長野市西之門町
3800858,長野県,長野市,上西之門町,ナガノケン,ナガノシ,カミニシノモンチョウ,長野県長野市上西之門町
3800861,長野県,長野市,横沢町,ナガノケン,ナガノシ,ヨコサワチョウ,長野県長野市横沢町
3800862,長野県,長野市,桜枝町,ナガノケン,ナガノシ,サクラエチョウ,長野県長野市桜枝町
3800863,長野県,長野市,栄町,ナガノケン,ナガノシ,サカエチョウ,長野県長野市栄町
3800864,長野県,長野市,立町,ナガノケン,ナガノシ,タツマチ,長野県長野市立町
3800865,長野県,長野市,花咲町,ナガノケン,ナガノシ,ハナサキチョウ,長野県長野市花咲町
3800866,長野県,長野市,狐池,ナガノケン,ナガノシ,キツネイケ,長野県長野市狐池
3800867,長野県,長野市,往生地,ナガノケン,ナガノシ,オウショウジ,長野県長野市往生地
3800871,長野県,長野市,西長野,ナガノケン,ナガノシ,ニシナガノ,長野県長野市西長野
3800872,長野県,長野市,妻科,ナガノケン,ナガノシ,ツマシナ,長野県長野市妻科
3800873,長野県,長野市,新諏訪,ナガノケン,ナガノシ,シンスワ,長野県長野市新諏訪
3800873,長野県,長野市,新諏訪町,ナガノケン,ナガノシ,シンスワチョウ,長野県長野市新諏訪町
3800874,長野県,長野市,茂菅,ナガノケン,ナガノシ,モスゲ,長野県長野市茂菅
3800875,長野県,長野市,小鍋,ナガノケン,ナガノシ,コナベ,長野県長野市小鍋
3800876,長野県,長野市,山田中,ナガノケン,ナガノシ,ヤマダナカ,長野県長野市山田中
3800877,長野県,長野市,塩生,ナガノケン,ナガノシ,ショウブ,長野県長野市塩生
3800881,長野県,長野市,門沢,ナガノケン,ナガノシ,カドサワ,長野県長野市門沢
3800882,長野県,長野市,富田,ナガノケン,ナガノシ,トミダ,長野県長野市富田
3800883,長野県,長野市,泉平,ナガノケン,ナガノシ,イズミダイラ,長野県長野市泉平
3800884,長野県,長野市,鑪,ナガノケン,ナガノシ,タタラ,長野県長野市鑪
3800885,長野県,長野市,桜,ナガノケン,ナガノシ,サクラ,長野県長野市桜
3800886,長野県,長野市,広瀬,ナガノケン,ナガノシ,ヒロセ,長野県長野市広瀬
3800887,長野県,長野市,入山,ナガノケン,ナガノシ,イリヤマ,長野県長野市入山
3800888,長野県,長野市,上ケ屋,ナガノケン,ナガノシ,アゲヤ,長野県長野市上ケ屋
3800901,長野県,長野市,居町,ナガノケン,ナガノシ,イマチ,長野県長野市居町
3800901,長野県,長野市,鶴賀（居町）,ナガノケン,ナガノシ,ツルガ(イマチ),長野県長野市鶴賀（居町）
3800902,長野県,長野市,鶴賀（中堰）,ナガノケン,ナガノシ,ツルガ(ナカゼキ),長野県長野市鶴賀（中堰）
3800903,長野県,長野市,鶴賀（峰村）,ナガノケン,ナガノシ,ツルガ(ミネムラ),長野県長野市鶴賀（峰村）
3800904,長野県,長野市,七瀬中町,ナガノケン,ナガノシ,ナナセナカマチ,長野県長野市七瀬中町
3800904,長野県,長野市,鶴賀（七瀬中町）,ナガノケン,ナガノシ,ツルガ(ナナセナカマチ),長野県長野市鶴賀（七瀬中町）
3800905,長野県,長野市,七瀬南部,ナガノケン,ナガノシ,ナナセナンブ,長野県長野市七瀬南部
3800905,長野県,長野市,鶴賀（七瀬南部）,ナガノケン,ナガノシ,ツルガ(ナナセナンブ),長野県長野市鶴賀（七瀬南部）
3800906,長野県,長野市,鶴賀（七瀬）,ナガノケン,ナガノシ,ツルガ(ナナセ),長野県長野市鶴賀（七瀬）
3800907,長野県,長野市,鶴賀,ナガノケン,ナガノシ,ツルガ,長野県長野市鶴賀
3800911,長野県,長野市,稲葉,ナガノケン,ナガノシ,イナバ,長野県長野市稲葉
3800912,長野県,長野市,稲葉日詰,ナガノケン,ナガノシ,イナバヒヅメ,長野県長野市稲葉日詰
3800913,長野県,長野市,川合新田,ナガノケン,ナガノシ,カワイシンデン,長野県長野市川合新田
3800914,長野県,長野市,稲葉母袋,ナガノケン,ナガノシ,イナバモタイ,長野県長野市稲葉母袋
3800915,長野県,長野市,稲葉上千田,ナガノケン,ナガノシ,イナバカミセンダ,長野県長野市稲葉上千田
3800916,長野県,長野市,稲葉中千田,ナガノケン,ナガノシ,イナバナカセンダ,長野県長野市稲葉中千田
3800917,長野県,長野市,稲葉南俣,ナガノケン,ナガノシ,イナバミナミマタ,長野県長野市稲葉南俣
3800918,長野県,長野市,アークス,ナガノケン,ナガノシ,アークス,長野県長野市アークス
3800921,長野県,長野市,栗田,ナガノケン,ナガノシ,クリタ,長野県長野市栗田
3800922,長野県,長野市,七瀬,ナガノケン,ナガノシ,ナナセ,長野県長野市七瀬
3800927,長野県,長野市,栗田北中,ナガノケン,ナガノシ,クリタキタナカ,長野県長野市栗田北中
3800928,長野県,長野市,若里,ナガノケン,ナガノシ,ワカサト,長野県長野市若里
3800934,長野県,長野市,中御所町,ナガノケン,ナガノシ,ナカゴショマチ,長野県長野市中御所町
3800935,長野県,長野市,中御所,ナガノケン,ナガノシ,ナカゴショ,長野県長野市中御所
3800936,長野県,長野市,岡田町,ナガノケン,ナガノシ,オカダマチ,長野県長野市岡田町
3800941,長野県,長野市,安茂里,ナガノケン,ナガノシ,アモリ,長野県長野市安茂里
3800942,長野県,長野市,小柴見,ナガノケン,ナガノシ,コシバミ,長野県長野市小柴見
3800943,長野県,長野市,安茂里差出,ナガノケン,ナガノシ,アモリサシデ,長野県長野市安茂里差出
3800944,長野県,長野市,安茂里米村,ナガノケン,ナガノシ,アモリコメムラ,長野県長野市安茂里米村
3800945,長野県,長野市,安茂里杏花台,ナガノケン,ナガノシ,アモリキョウカダイ,長野県長野市安茂里杏花台
3800946,長野県,長野市,平柴台,ナガノケン,ナガノシ,ヒラシバダイ,長野県長野市平柴台
3800947,長野県,長野市,平柴,ナガノケン,ナガノシ,ヒラシバ,長野県長野市平柴
3800948,長野県,長野市,差出南,ナガノケン,ナガノシ,サシデミナミ,長野県長野市差出南
3800952,長野県,長野市,宮沖,ナガノケン,ナガノシ,ミヤオキ,長野県長野市宮沖
3800953,長野県,長野市,安茂里犀北,ナガノケン,ナガノシ,アモリサイホク,長野県長野市安茂里犀北
3800954,長野県,長野市,安茂里犀北団地,ナガノケン,ナガノシ,アモリサイホクダンチ,長野県長野市安茂里犀北団地
3800955,長野県,長野市,安茂里西河原,ナガノケン,ナガノシ,アモリニシガワラ,長野県長野市安茂里西河原
3800956,長野県,長野市,安茂里小路,ナガノケン,ナガノシ,アモリコウジ,長野県長野市安茂里小路
3800957,長野県,長野市,安茂里大門,ナガノケン,ナガノシ,アモリダイモン,長野県長野市安茂里大門
3800958,長野県,長野市,伊勢宮,ナガノケン,ナガノシ,イセミヤ,長野県長野市伊勢宮
3800961,長野県,長野市,安茂里小市,ナガノケン,ナガノシ,アモリコイチ,長野県長野市安茂里小市
3810000,長野県,長野市,,ナガノケン,ナガノシ,,長野県長野市
3810001,長野県,長野市,赤沼,ナガノケン,ナガノシ,アカヌマ,長野県長野市赤沼
3810002,長野県,長野市,津野,ナガノケン,ナガノシ,ツノ,長野県長野市津野
3810003,長野県,長野市,穂保,ナガノケン,ナガノシ,ホヤス,長野県長野市穂保
3810004,長野県,長野市,大町,ナガノケン,ナガノシ,オオマチ,長野県長野市大町
3810005,長野県,長野市,北堀,ナガノケン,ナガノシ,キタホリ,長野県長野市北堀
3810006,長野県,長野市,富竹,ナガノケン,ナガノシ,トミタケ,長野県長野市富竹
3810007,長野県,長野市,金箱,ナガノケン,ナガノシ,カネバコ,長野県長野市金箱
3810008,長野県,長野市,下駒沢,ナガノケン,ナガノシ,シモコマザワ,長野県長野市下駒沢
3810011,長野県,長野市,村山,ナガノケン,ナガノシ,ムラヤマ,長野県長野市村山
3810012,長野県,長野市,柳原,ナガノケン,ナガノシ,ヤナギハラ,長野県長野市柳原
3810013,長野県,長野市,桜新町,ナガノケン,ナガノシ,サクラシンマチ,長野県長野市桜新町
3810014,長野県,長野市,北尾張部,ナガノケン,ナガノシ,キタオワリベ,長野県長野市北尾張部
3810015,長野県,長野市,石渡,ナガノケン,ナガノシ,イシワタ,長野県長野市石渡
3810016,長野県,長野市,南堀,ナガノケン,ナガノシ,ミナミホリ,長野県長野市南堀
3810017,長野県,長野市,小島,ナガノケン,ナガノシ,コジマ,長野県長野市小島
3810021,長野県,長野市,屋島,ナガノケン,ナガノシ,ヤシマ,長野県長野市屋島
3810022,長野県,長野市,大豆島,ナガノケン,ナガノシ,マメジマ,長野県長野市大豆島
3810023,長野県,長野市,風間,ナガノケン,ナガノシ,カザマ,長野県長野市風間
3810024,長野県,長野市,南長池,ナガノケン,ナガノシ,ミナミナガイケ,長野県長野市南長池
3810025,長野県,長野市,北長池,ナガノケン,ナガノシ,キタナガイケ,長野県長野市北長池
3810026,長野県,長野市,松岡,ナガノケン,ナガノシ,マツオカ,長野県長野市松岡
3810031,長野県,長野市,西尾張部,ナガノケン,ナガノシ,ニシオワリベ,長野県長野市西尾張部
3810032,長野県,長野市,若宮,ナガノケン,ナガノシ,ワカミヤ,長野県長野市若宮
3810033,長野県,長野市,南高田,ナガノケン,ナガノシ,ミナミタカダ,長野県長野市南高田
3810034,長野県,長野市,高田,ナガノケン,ナガノシ,タカダ,長野県長野市高田
3810035,長野県,長野市,北条町,ナガノケン,ナガノシ,キタジョウマチ,長野県長野市北条町
3810036,長野県,長野市,平林,ナガノケン,ナガノシ,ヒラバヤシ,長野県長野市平林
3810037,長野県,長野市,西和田,ナガノケン,ナガノシ,ニシワダ,長野県長野市西和田
3810038,長野県,長野市,東和田,ナガノケン,ナガノシ,ヒガシワダ,長野県長野市東和田
3810041,長野県,長野市,徳間,ナガノケン,ナガノシ,トクマ,長野県長野市徳間
3810042,長野県,長野市,稲田,ナガノケン,ナガノシ,イナダ,長野県長野市稲田
3810043,長野県,長野市,吉田,ナガノケン,ナガノシ,ヨシダ,長野県長野市吉田
3810044,長野県,長野市,中越,ナガノケン,ナガノシ,ナカゴエ,長野県長野市中越
3810045,長野県,長野市,桐原,ナガノケン,ナガノシ,キリハラ,長野県長野市桐原
3810051,長野県,長野市,若槻団地,ナガノケン,ナガノシ,ワカツキダンチ,長野県長野市若槻団地
3810052,長野県,長野市,檀田,ナガノケン,ナガノシ,マユミダ,長野県長野市檀田
3810053,長野県,長野市,神楽橋,ナガノケン,ナガノシ,カグラバシ,長野県長野市神楽橋
3810054,長野県,長野市,浅川,ナガノケン,ナガノシ,アサカワ,長野県長野市浅川
3810055,長野県,長野市,屋敷田,ナガノケン,ナガノシ,ヤシキダ,長野県長野市屋敷田
3810056,長野県,長野市,浅川押田,ナガノケン,ナガノシ,アサカワオシダ,長野県長野市浅川押田
3810057,長野県,長野市,浅川西条,ナガノケン,ナガノシ,アサカワニシジョウ,長野県長野市浅川西条
3810061,長野県,長野市,坂中,ナガノケン,ナガノシ,サカナカ,長野県長野市坂中
3810062,長野県,長野市,浅川福岡,ナガノケン,ナガノシ,アサカワフクオカ,長野県長野市浅川福岡
3810063,長野県,長野市,伺去,ナガノケン,ナガノシ,シャリ,長野県長野市伺去
3810064,長野県,長野市,浅川東条,ナガノケン,ナガノシ,アサカワヒガシジョウ,長野県長野市浅川東条
3810065,長野県,長野市,真光寺,ナガノケン,ナガノシ,シンコウジ,長野県長野市真光寺
3810066,長野県,長野市,浅川西平,ナガノケン,ナガノシ,アサカワニシヒラ,長野県長野市浅川西平
3810071,長野県,長野市,台ケ窪,ナガノケン,ナガノシ,ダイガクボ,長野県長野市台ケ窪
3810072,長野県,長野市,浅川清水,ナガノケン,ナガノシ,アサカワキヨミズ,長野県長野市浅川清水
3810073,長野県,長野市,浅川畑山,ナガノケン,ナガノシ,アサカワハタヤマ,長野県長野市浅川畑山
3810074,長野県,長野市,中曽根,ナガノケン,ナガノシ,ナカゾネ,長野県長野市中曽根
3810075,長野県,長野市,北郷,ナガノケン,ナガノシ,キタゴウ,長野県長野市北郷
3810076,長野県,長野市,三ツ出,ナガノケン,ナガノシ,ミツデ,長野県長野市三ツ出
3810081,長野県,長野市,三才,ナガノケン,ナガノシ,サンサイ,長野県長野市三才
3810082,長野県,長野市,上駒沢,ナガノケン,ナガノシ,カミコマザワ,長野県長野市上駒沢
3810083,長野県,長野市,西三才,ナガノケン,ナガノシ,ニシサンサイ,長野県長野市西三才
3810084,長野県,長野市,若槻東条,ナガノケン,ナガノシ,ワカツキヒガシジョウ,長野県長野市若槻東条
3810085,長野県,長野市,上野,ナガノケン,ナガノシ,ウワノ,長野県長野市上野
3810086,長野県,長野市,田中,ナガノケン,ナガノシ,タナカ,長野県長野市田中
3810087,長野県,長野市,田子,ナガノケン,ナガノシ,タコ,長野県長野市田子
3810088,長野県,長野市,吉,ナガノケン,ナガノシ,ヨシ,長野県長野市吉
3810089,長野県,長野市,若槻西条,ナガノケン,ナガノシ,ワカツキニシジョウ,長野県長野市若槻西条
3810101,長野県,長野市,若穂綿内,ナガノケン,ナガノシ,ワカホワタウチ,長野県長野市若穂綿内
3810102,長野県,長野市,若穂保科,ナガノケン,ナガノシ,ワカホホシナ,長野県長野市若穂保科
3810103,長野県,長野市,若穂川田,ナガノケン,ナガノシ,ワカホカワダ,長野県長野市若穂川田
3810104,長野県,長野市,若穂牛島（その他）,ナガノケン,ナガノシ,ワカホウシジマ(ソノタ),長野県長野市若穂牛島（その他）
3810200,長野県,上高井郡小布施町,,ナガノケン,カミタカイグンオブセマチ,,長野県上高井郡小布施町
3810201,長野県,上高井郡小布施町,小布施,ナガノケン,カミタカイグンオブセマチ,オブセ,長野県上高井郡小布施町小布施
3810202,長野県,上高井郡小布施町,福原,ナガノケン,カミタカイグンオブセマチ,フクハラ,長野県上高井郡小布施町福原
3810203,長野県,上高井郡小布施町,大島,ナガノケン,カミタカイグンオブセマチ,オオジマ,長野県上高井郡小布施町大島
3810204,長野県,上高井郡小布施町,飯田,ナガノケン,カミタカイグンオブセマチ,イイダ,長野県上高井郡小布施町飯田
3810205,長野県,上高井郡小布施町,山王島,ナガノケン,カミタカイグンオブセマチ,サンノウジマ,長野県上高井郡小布施町山王島
3810206,長野県,上高井郡小布施町,北岡,ナガノケン,カミタカイグンオブセマチ,キタオカ,長野県上高井郡小布施町北岡
3810207,長野県,上高井郡小布施町,押羽,ナガノケン,カミタカイグンオブセマチ,オシハ,長野県上高井郡小布施町押羽
3810208,長野県,上高井郡小布施町,都住,ナガノケン,カミタカイグンオブセマチ,ツスミ,長野県上高井郡小布施町都住
3810209,長野県,上高井郡小布施町,中松,ナガノケン,カミタカイグンオブセマチ,ナカマツ,長野県上高井郡小布施町中松
3810211,長野県,上高井郡小布施町,雁田,ナガノケン,カミタカイグンオブセマチ,カリダ,長野県上高井郡小布施町雁田
3810212,長野県,上高井郡小布施町,吉島,ナガノケン,カミタカイグンオブセマチ,ヨシジマ,長野県上高井郡小布施町吉島
3810400,長野県,下高井郡山ノ内町,,ナガノケン,シモタカイグンヤマノウチマチ,,長野県下高井郡山ノ内町
3810401,長野県,下高井郡山ノ内町,平穏,ナガノケン,シモタカイグンヤマノウチマチ,ヒラオ,長野県下高井郡山ノ内町平穏
3810402,長野県,下高井郡山ノ内町,佐野,ナガノケン,シモタカイグンヤマノウチマチ,サノ,長野県下高井郡山ノ内町佐野
3810403,長野県,下高井郡山ノ内町,寒沢,ナガノケン,シモタカイグンヤマノウチマチ,サムサワ,長野県下高井郡山ノ内町寒沢
3810404,長野県,下高井郡山ノ内町,戸狩,ナガノケン,シモタカイグンヤマノウチマチ,トガリ,長野県下高井郡山ノ内町戸狩
3810405,長野県,下高井郡山ノ内町,夜間瀬,ナガノケン,シモタカイグンヤマノウチマチ,ヨマセ,長野県下高井郡山ノ内町夜間瀬
3811211,長野県,長野市,松代町大室,ナガノケン,ナガノシ,マツシロマチオオムロ,長野県長野市松代町大室
3811212,長野県,長野市,松代町牧島,ナガノケン,ナガノシ,マツシロマチマキシマ,長野県長野市松代町牧島
3811213,長野県,長野市,松代町小島田,ナガノケン,ナガノシ,マツシロマチオシマダ,長野県長野市松代町小島田
3811214,長野県,長野市,松代町柴,ナガノケン,ナガノシ,マツシロマチシバ,長野県長野市松代町柴
3811215,長野県,長野市,松代町西寺尾,ナガノケン,ナガノシ,マツシロマチニシテラオ,長野県長野市松代町西寺尾
3811221,長野県,長野市,松代町東条,ナガノケン,ナガノシ,マツシロマチヒガシジョウ,長野県長野市松代町東条
3811222,長野県,長野市,松代町豊栄,ナガノケン,ナガノシ,マツシロマチトヨサカ,長野県長野市松代町豊栄
3811223,長野県,長野市,皆神台,ナガノケン,ナガノシ,ミナカミダイ,長野県長野市皆神台
3811224,長野県,長野市,松代町城東,ナガノケン,ナガノシ,マツシロマチジョウトウ,長野県長野市松代町城東
3811225,長野県,長野市,松代町東寺尾,ナガノケン,ナガノシ,マツシロマチヒガシテラオ,長野県長野市松代町東寺尾
3811226,長野県,長野市,松代温泉,ナガノケン,ナガノシ,マツシロオンセン,長野県長野市松代温泉
3811231,長野県,長野市,松代町松代,ナガノケン,ナガノシ,マツシロマチマツシロ,長野県長野市松代町松代
3811232,長野県,長野市,松代町西条,ナガノケン,ナガノシ,マツシロマチニシジョウ,長野県長野市松代町西条
3811233,長野県,長野市,松代町清野,ナガノケン,ナガノシ,マツシロマチキヨノ,長野県長野市松代町清野
3811234,長野県,長野市,松代町岩野,ナガノケン,ナガノシ,マツシロマチイワノ,長野県長野市松代町岩野
3811235,長野県,長野市,松代町城北,ナガノケン,ナガノシ,マツシロマチジョウホク,長野県長野市松代町城北
3812201,長野県,長野市,若穂牛島（１２９８〜１８３５番地）,ナガノケン,ナガノシ,ワカホウシジマ(1298-1835バンチ),長野県長野市若穂牛島（1298〜1835-）
3812202,長野県,長野市,市場,ナガノケン,ナガノシ,イチバ,長野県長野市市場
3812203,長野県,長野市,真島町川合,ナガノケン,ナガノシ,マシママチカワイ,長野県長野市真島町川合
3812204,長野県,長野市,真島町真島,ナガノケン,ナガノシ,マシママチマシマ,長野県長野市真島町真島
3812205,長野県,長野市,青木島町大塚,ナガノケン,ナガノシ,アオキジママチオオツカ,長野県長野市青木島町大塚
3812206,長野県,長野市,青木島町綱島,ナガノケン,ナガノシ,アオキジママチツナシマ,長野県長野市青木島町綱島
3812207,長野県,長野市,大橋南,ナガノケン,ナガノシ,オオハシミナミ,長野県長野市大橋南
3812211,長野県,長野市,稲里町下氷鉋,ナガノケン,ナガノシ,イナサトマチシモヒガノ,長野県長野市稲里町下氷鉋
3812212,長野県,長野市,小島田町,ナガノケン,ナガノシ,オシマダマチ,長野県長野市小島田町
3812213,長野県,長野市,広田,ナガノケン,ナガノシ,ヒロタ,長野県長野市広田
3812214,長野県,長野市,稲里町田牧,ナガノケン,ナガノシ,イナサトマチタマキ,長野県長野市稲里町田牧
3812215,長野県,長野市,稲里町中氷鉋,ナガノケン,ナガノシ,イナサトマチナカヒガノ,長野県長野市稲里町中氷鉋
3812216,長野県,長野市,下氷鉋,ナガノケン,ナガノシ,シモヒガノ,長野県長野市下氷鉋
3812217,長野県,長野市,稲里町中央,ナガノケン,ナガノシ,イナサトマチチュウオウ,長野県長野市稲里町中央
3812221,長野県,長野市,川中島町御厨,ナガノケン,ナガノシ,カワナカジママチミクリヤ,長野県長野市川中島町御厨
3812222,長野県,長野市,金井田,ナガノケン,ナガノシ,カナイダ,長野県長野市金井田
3812223,長野県,長野市,里島,ナガノケン,ナガノシ,サトジマ,長野県長野市里島
3812224,長野県,長野市,川中島町原,ナガノケン,ナガノシ,カワナカジママチハラ,長野県長野市川中島町原
3812225,長野県,長野市,篠ノ井岡田,ナガノケン,ナガノシ,シノノイオカダ,長野県長野市篠ノ井岡田
3812226,長野県,長野市,川中島町今井,ナガノケン,ナガノシ,カワナカジママチイマイ,長野県長野市川中島町今井
3812227,長野県,長野市,川中島町今井原,ナガノケン,ナガノシ,カワナカジママチイマイハラ,長野県長野市川中島町今井原
3812231,長野県,長野市,川中島町四ツ屋,ナガノケン,ナガノシ,カワナカジママチヨツヤ,長野県長野市川中島町四ツ屋
3812232,長野県,長野市,川中島町若葉町,ナガノケン,ナガノシ,カワナカジマチョウワカバチョウ,長野県長野市川中島町若葉町
3812233,長野県,長野市,川中島町上氷鉋,ナガノケン,ナガノシ,カワナカジママチカミヒガノ,長野県長野市川中島町上氷鉋
3812234,長野県,長野市,川中島町今里,ナガノケン,ナガノシ,カワナカジママチイマザト,長野県長野市川中島町今里
3812235,長野県,長野市,篠ノ井小松原,ナガノケン,ナガノシ,シノノイコマツバラ,長野県長野市篠ノ井小松原
3812241,長野県,長野市,青木島町青木島乙,ナガノケン,ナガノシ,アオキジママチアオキジマオツ,長野県長野市青木島町青木島乙
3812242,長野県,長野市,青木島町青木島,ナガノケン,ナガノシ,アオキジママチアオキジマ,長野県長野市青木島町青木島
3812243,長野県,長野市,稲里,ナガノケン,ナガノシ,イナサト,長野県長野市稲里
3812244,長野県,長野市,三本柳西,ナガノケン,ナガノシ,サンボンヤナギニシ,長野県長野市三本柳西
3812245,長野県,長野市,三本柳東,ナガノケン,ナガノシ,サンボンヤナギヒガシ,長野県長野市三本柳東
3812246,長野県,長野市,丹波島,ナガノケン,ナガノシ,タンバジマ,長野県長野市丹波島
3812247,長野県,長野市,青木島,ナガノケン,ナガノシ,アオキジマ,長野県長野市青木島
3812341,長野県,長野市,信更町下平,ナガノケン,ナガノシ,シンコウマチシモダイラ,長野県長野市信更町下平
3812342,長野県,長野市,信更町宮平,ナガノケン,ナガノシ,シンコウマチミヤダイラ,長野県長野市信更町宮平
3812343,長野県,長野市,信更町桜井,ナガノケン,ナガノシ,シンコウマチサクライ,長野県長野市信更町桜井
3812344,長野県,長野市,信更町上尾,ナガノケン,ナガノシ,シンコウマチアゲオ,長野県長野市信更町上尾
3812345,長野県,長野市,信更町涌池,ナガノケン,ナガノシ,シンコウマチワクイケ,長野県長野市信更町涌池
3812346,長野県,長野市,信更町安庭,ナガノケン,ナガノシ,シンコウマチヤスニワ,長野県長野市信更町安庭
3812347,長野県,長野市,信更町古藤,ナガノケン,ナガノシ,シンコウマチフルフジ,長野県長野市信更町古藤
3812351,長野県,長野市,信更町氷ノ田,ナガノケン,ナガノシ,シンコウマチヒノタ,長野県長野市信更町氷ノ田
3812352,長野県,長野市,信更町赤田,ナガノケン,ナガノシ,シンコウマチアカダ,長野県長野市信更町赤田
3812353,長野県,長野市,信更町田野口,ナガノケン,ナガノシ,シンコウマチタノクチ,長野県長野市信更町田野口
3812354,長野県,長野市,信更町田沢,ナガノケン,ナガノシ,シンコウマチタザワ,長野県長野市信更町田沢
3812355,長野県,長野市,信更町高野,ナガノケン,ナガノシ,シンコウマチタカノ,長野県長野市信更町高野
3812356,長野県,長野市,信更町吉原,ナガノケン,ナガノシ,シンコウマチヨシワラ,長野県長野市信更町吉原
3812357,長野県,長野市,信更町灰原,ナガノケン,ナガノシ,シンコウマチハイバラ,長野県長野市信更町灰原
3812358,長野県,長野市,信更町今泉,ナガノケン,ナガノシ,シンコウマチイマイズミ,長野県長野市信更町今泉
3812359,長野県,長野市,信更町三水,ナガノケン,ナガノシ,シンコウマチサミズ,長野県長野市信更町三水
3812401,長野県,長野市,信州新町越道,ナガノケン,ナガノシ,シンシュウシンマチコエドウ,長野県長野市信州新町越道
3812402,長野県,長野市,信州新町山上条,ナガノケン,ナガノシ,シンシュウシンマチヤマカミジョウ,長野県長野市信州新町山上条
3812403,長野県,長野市,信州新町水内,ナガノケン,ナガノシ,シンシュウシンマチミノチ,長野県長野市信州新町水内
3812404,長野県,長野市,信州新町上条,ナガノケン,ナガノシ,シンシュウシンマチカミジョウ,長野県長野市信州新町上条
3812405,長野県,長野市,信州新町新町,ナガノケン,ナガノシ,シンシュウシンマチシンマチ,長野県長野市信州新町新町
3812406,長野県,長野市,信州新町里穂刈,ナガノケン,ナガノシ,シンシュウシンマチサトホカリ,長野県長野市信州新町里穂刈
3812407,長野県,長野市,信州新町山穂刈,ナガノケン,ナガノシ,シンシュウシンマチヤマホカリ,長野県長野市信州新町山穂刈
3812411,長野県,長野市,信州新町竹房,ナガノケン,ナガノシ,シンシュウシンマチタケブサ,長野県長野市信州新町竹房
3812412,長野県,長野市,信州新町牧野島,ナガノケン,ナガノシ,シンシュウシンマチマキノシマ,長野県長野市信州新町牧野島
3812413,長野県,長野市,信州新町下市場,ナガノケン,ナガノシ,シンシュウシンマチシモイチバ,長野県長野市信州新町下市場
3812414,長野県,長野市,信州新町牧田中,ナガノケン,ナガノシ,シンシュウシンマチマキダナカ,長野県長野市信州新町牧田中
3812415,長野県,長野市,信州新町中牧,ナガノケン,ナガノシ,シンシュウシンマチナカマキ,長野県長野市信州新町中牧
3812416,長野県,長野市,信州新町弘崎,ナガノケン,ナガノシ,シンシュウシンマチヒロサキ,長野県長野市信州新町弘崎
3812421,長野県,長野市,信州新町信級,ナガノケン,ナガノシ,シンシュウシンマチノブシナ,長野県長野市信州新町信級
3812422,長野県,長野市,信州新町日原東,ナガノケン,ナガノシ,シンシュウシンマチヒハラヒガシ,長野県長野市信州新町日原東
3812423,長野県,長野市,信州新町日原西,ナガノケン,ナガノシ,シンシュウシンマチヒハラニシ,長野県長野市信州新町日原西
3812424,長野県,長野市,信州新町左右,ナガノケン,ナガノシ,シンシュウシンマチソウ,長野県長野市信州新町左右
3812701,長野県,長野市,大岡中牧,ナガノケン,ナガノシ,オオオカナカマキ,長野県長野市大岡中牧
3812702,長野県,長野市,大岡丙,ナガノケン,ナガノシ,オオオカヘイ,長野県長野市大岡丙
3812703,長野県,長野市,大岡乙,ナガノケン,ナガノシ,オオオカオツ,長野県長野市大岡乙
3812704,長野県,長野市,大岡甲,ナガノケン,ナガノシ,オオオカコウ,長野県長野市大岡甲
3812705,長野県,長野市,大岡弘崎,ナガノケン,ナガノシ,オオオカヒロサキ,長野県長野市大岡弘崎
3813161,長野県,長野市,七二会丁,ナガノケン,ナガノシ,ナニアイテイ,長野県長野市七二会丁
3813162,長野県,長野市,七二会戊,ナガノケン,ナガノシ,ナニアイボ,長野県長野市七二会戊
3813163,長野県,長野市,七二会己,ナガノケン,ナガノシ,ナニアイキ,長野県長野市七二会己
3813164,長野県,長野市,七二会乙,ナガノケン,ナガノシ,ナニアイオツ,長野県長野市七二会乙
3813165,長野県,長野市,七二会甲,ナガノケン,ナガノシ,ナニアイコウ,長野県長野市七二会甲
3813166,長野県,長野市,七二会丙,ナガノケン,ナガノシ,ナニアイヘイ,長野県長野市七二会丙
3813201,長野県,長野市,中条日高,ナガノケン,ナガノシ,ナカジョウヒダカ,長野県長野市中条日高
3813202,長野県,長野市,中条日下野,ナガノケン,ナガノシ,ナカジョウクサガノ,長野県長野市中条日下野
3813203,長野県,長野市,中条,ナガノケン,ナガノシ,ナカジョウ,長野県長野市中条
3813204,長野県,長野市,中条御山里,ナガノケン,ナガノシ,ナカジョウミヤマサ,長野県長野市中条御山里
3813205,長野県,長野市,中条住良木,ナガノケン,ナガノシ,ナカジョウスメラギ,長野県長野市中条住良木
3813300,長野県,上水内郡小川村,,ナガノケン,カミミノチグンオガワムラ,,長野県上水内郡小川村
3813301,長野県,上水内郡小川村,稲丘,ナガノケン,カミミノチグンオガワムラ,イナオカ,長野県上水内郡小川村稲丘
3813302,長野県,上水内郡小川村,高府,ナガノケン,カミミノチグンオガワムラ,タカフ,長野県上水内郡小川村高府
3813303,長野県,上水内郡小川村,小根山,ナガノケン,カミミノチグンオガワムラ,オネヤマ,長野県上水内郡小川村小根山
3813304,長野県,上水内郡小川村,瀬戸川,ナガノケン,カミミノチグンオガワムラ,セトガワ,長野県上水内郡小川村瀬戸川
3814101,長野県,長野市,戸隠,ナガノケン,ナガノシ,トガクシ,長野県長野市戸隠
3814102,長野県,長野市,戸隠豊岡,ナガノケン,ナガノシ,トガクシトヨオカ,長野県長野市戸隠豊岡
3814103,長野県,長野市,戸隠祖山,ナガノケン,ナガノシ,トガクシソヤマ,長野県長野市戸隠祖山
3814104,長野県,長野市,戸隠栃原,ナガノケン,ナガノシ,トガクシトチワラ,長野県長野市戸隠栃原
3814301,長野県,長野市,鬼無里,ナガノケン,ナガノシ,キナサ,長野県長野市鬼無里
3814302,長野県,長野市,鬼無里日影,ナガノケン,ナガノシ,キナサヒカゲ,長野県長野市鬼無里日影
3814303,長野県,長野市,鬼無里日下野,ナガノケン,ナガノシ,キナサクサガノ,長野県長野市鬼無里日下野
3820000,長野県,須坂市,,ナガノケン,スザカシ,,長野県須坂市
3820001,長野県,須坂市,松川町,ナガノケン,スザカシ,マツカワマチ,長野県須坂市松川町
3820002,長野県,須坂市,北旭ケ丘町,ナガノケン,スザカシ,キタアサヒガオカチョウ,長野県須坂市北旭ケ丘町
3820003,長野県,須坂市,旭ケ丘,ナガノケン,スザカシ,アサヒガオカ,長野県須坂市旭ケ丘
3820004,長野県,須坂市,高畑町,ナガノケン,スザカシ,タカバタケマチ,長野県須坂市高畑町
3820005,長野県,須坂市,新田町,ナガノケン,スザカシ,シンデンチョウ,長野県須坂市新田町
3820006,長野県,須坂市,光ケ丘ニュータウン,ナガノケン,スザカシ,ヒカリガオカニュータウン,長野県須坂市光ケ丘ニュータウン
3820011,長野県,須坂市,本郷町,ナガノケン,スザカシ,ホンゴウマチ,長野県須坂市本郷町
3820012,長野県,須坂市,大谷町,ナガノケン,スザカシ,オオヤマチ,長野県須坂市大谷町
3820013,長野県,須坂市,常盤町,ナガノケン,スザカシ,トキワチョウ,長野県須坂市常盤町
3820014,長野県,須坂市,新町,ナガノケン,スザカシ,シンマチ,長野県須坂市新町
3820015,長野県,須坂市,太子町,ナガノケン,スザカシ,タイシマチ,長野県須坂市太子町
3820016,長野県,須坂市,高橋町,ナガノケン,スザカシ,タカハシマチ,長野県須坂市高橋町
3820017,長野県,須坂市,相森町,ナガノケン,スザカシ,オオモリマチ,長野県須坂市相森町
3820021,長野県,須坂市,豊丘町,ナガノケン,スザカシ,トヨオカマチ,長野県須坂市豊丘町
3820022,長野県,須坂市,豊丘上町,ナガノケン,スザカシ,トヨオカカミマチ,長野県須坂市豊丘上町
3820023,長野県,須坂市,米子町,ナガノケン,スザカシ,ヨナコマチ,長野県須坂市米子町
3820024,長野県,須坂市,塩野町,ナガノケン,スザカシ,シオノマチ,長野県須坂市塩野町
3820025,長野県,須坂市,大日向町,ナガノケン,スザカシ,オビナタマチ,長野県須坂市大日向町
3820026,長野県,須坂市,坂田町,ナガノケン,スザカシ,サカダマチ,長野県須坂市坂田町
3820027,長野県,須坂市,南原町,ナガノケン,スザカシ,ミナミハラマチ,長野県須坂市南原町
3820028,長野県,須坂市,臥竜,ナガノケン,スザカシ,ガリュウ,長野県須坂市臥竜
3820031,長野県,須坂市,村石町,ナガノケン,スザカシ,ムライシマチ,長野県須坂市村石町
3820032,長野県,須坂市,夏端町,ナガノケン,スザカシ,ナツバタチョウ,長野県須坂市夏端町
3820033,長野県,須坂市,亀倉町,ナガノケン,スザカシ,カメクラチョウ,長野県須坂市亀倉町
3820034,長野県,須坂市,仁礼町（その他）,ナガノケン,スザカシ,ニレイマチ(ソノタ),長野県須坂市仁礼町（その他）
3820036,長野県,須坂市,明徳町,ナガノケン,スザカシ,ミョウトクマチ,長野県須坂市明徳町
3820037,長野県,須坂市,野辺町,ナガノケン,スザカシ,ノベマチ,長野県須坂市野辺町
3820041,長野県,須坂市,米持町,ナガノケン,スザカシ,ヨナモチマチ,長野県須坂市米持町
3820042,長野県,須坂市,望岳台,ナガノケン,スザカシ,ボウガクダイ,長野県須坂市望岳台
3820043,長野県,須坂市,下八町,ナガノケン,スザカシ,シモハッチョウ,長野県須坂市下八町
3820044,長野県,須坂市,上八町,ナガノケン,スザカシ,カミハッチョウ,長野県須坂市上八町
3820045,長野県,須坂市,井上,ナガノケン,スザカシ,イノウエ,長野県須坂市井上
3820046,長野県,須坂市,二睦町,ナガノケン,スザカシ,ニボクマチ,長野県須坂市二睦町
3820047,長野県,須坂市,幸高町,ナガノケン,スザカシ,コウタカマチ,長野県須坂市幸高町
3820048,長野県,須坂市,九反田町,ナガノケン,スザカシ,クタンダマチ,長野県須坂市九反田町
3820051,長野県,須坂市,八重森町,ナガノケン,スザカシ,ヤエモリマチ,長野県須坂市八重森町
3820052,長野県,須坂市,塩川町,ナガノケン,スザカシ,シオガワマチ,長野県須坂市塩川町
3820053,長野県,須坂市,五閑町,ナガノケン,スザカシ,ゴカンマチ,長野県須坂市五閑町
3820054,長野県,須坂市,高梨町,ナガノケン,スザカシ,タカナシマチ,長野県須坂市高梨町
3820055,長野県,須坂市,中島町,ナガノケン,スザカシ,ナカジママチ,長野県須坂市中島町
3820056,長野県,須坂市,福島町,ナガノケン,スザカシ,フクジママチ,長野県須坂市福島町
3820057,長野県,須坂市,村山町,ナガノケン,スザカシ,ムラヤママチ,長野県須坂市村山町
3820061,長野県,須坂市,北相之島町,ナガノケン,スザカシ,キタアイノシマチョウ,長野県須坂市北相之島町
3820062,長野県,須坂市,小島町,ナガノケン,スザカシ,コジママチ,長野県須坂市小島町
3820063,長野県,須坂市,西町,ナガノケン,スザカシ,ニシマチ,長野県須坂市西町
3820064,長野県,須坂市,沼目町,ナガノケン,スザカシ,ヌマメマチ,長野県須坂市沼目町
3820065,長野県,須坂市,相之島,ナガノケン,スザカシ,アイノシマ,長野県須坂市相之島
3820066,長野県,須坂市,豊島町,ナガノケン,スザカシ,トヨシママチ,長野県須坂市豊島町
3820071,長野県,須坂市,小河原町,ナガノケン,スザカシ,オガワラチョウ,長野県須坂市小河原町
3820072,長野県,須坂市,南小河原町,ナガノケン,スザカシ,ミナミオガワラマチ,長野県須坂市南小河原町
3820073,長野県,須坂市,田の神町,ナガノケン,スザカシ,タノカミマチ,長野県須坂市田の神町
3820074,長野県,須坂市,春木町,ナガノケン,スザカシ,ハルキマチ,長野県須坂市春木町
3820075,長野県,須坂市,須坂ハイランド町,ナガノケン,スザカシ,スザカハイランドマチ,長野県須坂市須坂ハイランド町
3820076,長野県,須坂市,馬場町,ナガノケン,スザカシ,ババチョウ,長野県須坂市馬場町
3820077,長野県,須坂市,北横町,ナガノケン,スザカシ,キタヨコマチ,長野県須坂市北横町
3820081,長野県,須坂市,横町,ナガノケン,スザカシ,ヨコマチ,長野県須坂市横町
3820082,長野県,須坂市,中町,ナガノケン,スザカシ,ナカマチ,長野県須坂市中町
3820083,長野県,須坂市,上中町,ナガノケン,スザカシ,カミナカマチ,長野県須坂市上中町
3820084,長野県,須坂市,上町,ナガノケン,スザカシ,カンマチ,長野県須坂市上町
3820085,長野県,須坂市,穀町,ナガノケン,スザカシ,コクマチ,長野県須坂市穀町
3820086,長野県,須坂市,本上町,ナガノケン,スザカシ,ホンカンマチ,長野県須坂市本上町
3820087,長野県,須坂市,東横町,ナガノケン,スザカシ,ヒガシヨコマチ,長野県須坂市東横町
3820091,長野県,須坂市,立町,ナガノケン,スザカシ,タツマチ,長野県須坂市立町
3820092,長野県,須坂市,北原町,ナガノケン,スザカシ,キタハラチョウ,長野県須坂市北原町
3820094,長野県,須坂市,屋部町,ナガノケン,スザカシ,ヤブマチ,長野県須坂市屋部町
3820097,長野県,須坂市,南横町,ナガノケン,スザカシ,ミナミヨコマチ,長野県須坂市南横町
3820098,長野県,須坂市,墨坂南,ナガノケン,スザカシ,スミサカミナミ,長野県須坂市墨坂南
3820099,長野県,須坂市,墨坂,ナガノケン,スザカシ,スミサカ,長野県須坂市墨坂
3820800,長野県,上高井郡高山村,,ナガノケン,カミタカイグンタカヤマムラ,,長野県上高井郡高山村
3820801,長野県,上高井郡高山村,駒場,ナガノケン,カミタカイグンタカヤマムラ,コマバ,長野県上高井郡高山村駒場
3820802,長野県,上高井郡高山村,松原,ナガノケン,カミタカイグンタカヤマムラ,マツハラ,長野県上高井郡高山村松原
3820803,長野県,上高井郡高山村,桝形,ナガノケン,カミタカイグンタカヤマムラ,マスガタ,長野県上高井郡高山村桝形
3820804,長野県,上高井郡高山村,中原,ナガノケン,カミタカイグンタカヤマムラ,ナカハラ,長野県上高井郡高山村中原
3820805,長野県,上高井郡高山村,三郷,ナガノケン,カミタカイグンタカヤマムラ,ミサト,長野県上高井郡高山村三郷
3820806,長野県,上高井郡高山村,なかひら,ナガノケン,カミタカイグンタカヤマムラ,ナカヒラ,長野県上高井郡高山村なかひら
3820811,長野県,上高井郡高山村,宮関,ナガノケン,カミタカイグンタカヤマムラ,ミヤセキ,長野県上高井郡高山村宮関
3820813,長野県,上高井郡高山村,蕨平,ナガノケン,カミタカイグンタカヤマムラ,ワラビタイラ,長野県上高井郡高山村蕨平
3820814,長野県,上高井郡高山村,天神原,ナガノケン,カミタカイグンタカヤマムラ,テンジンバラ,長野県上高井郡高山村天神原
3820815,長野県,上高井郡高山村,荻久保,ナガノケン,カミタカイグンタカヤマムラ,オギクボ,長野県上高井郡高山村荻久保
3820816,長野県,上高井郡高山村,山田温泉,ナガノケン,カミタカイグンタカヤマムラ,ヤマダオンセン,長野県上高井郡高山村山田温泉
3820817,長野県,上高井郡高山村,山田牧場,ナガノケン,カミタカイグンタカヤマムラ,ヤマダボクジョウ,長野県上高井郡高山村山田牧場
3820821,長野県,上高井郡高山村,牧,ナガノケン,カミタカイグンタカヤマムラ,マキ,長野県上高井郡高山村牧
3820822,長野県,上高井郡高山村,福井原,ナガノケン,カミタカイグンタカヤマムラ,フクイハラ,長野県上高井郡高山村福井原
3820823,長野県,上高井郡高山村,黒部,ナガノケン,カミタカイグンタカヤマムラ,クロベ,長野県上高井郡高山村黒部
3820824,長野県,上高井郡高山村,緑ケ丘,ナガノケン,カミタカイグンタカヤマムラ,ミドリガオカ,長野県上高井郡高山村緑ケ丘
3820825,長野県,上高井郡高山村,紫,ナガノケン,カミタカイグンタカヤマムラ,ムラサキ,長野県上高井郡高山村紫
3820826,長野県,上高井郡高山村,二ツ石,ナガノケン,カミタカイグンタカヤマムラ,フタツイシ,長野県上高井郡高山村二ツ石
3820827,長野県,上高井郡高山村,松南,ナガノケン,カミタカイグンタカヤマムラ,マツナミ,長野県上高井郡高山村松南
3820831,長野県,上高井郡高山村,荒井原,ナガノケン,カミタカイグンタカヤマムラ,アライハラ,長野県上高井郡高山村荒井原
3820832,長野県,上高井郡高山村,赤和,ナガノケン,カミタカイグンタカヤマムラ,アカワ,長野県上高井郡高山村赤和
3820833,長野県,上高井郡高山村,久保,ナガノケン,カミタカイグンタカヤマムラ,クボ,長野県上高井郡高山村久保
3820834,長野県,上高井郡高山村,水中,ナガノケン,カミタカイグンタカヤマムラ,ミズナカ,長野県上高井郡高山村水中
3820835,長野県,上高井郡高山村,千本松,ナガノケン,カミタカイグンタカヤマムラ,センボンマツ,長野県上高井郡高山村千本松
3820836,長野県,上高井郡高山村,新堀,ナガノケン,カミタカイグンタカヤマムラ,シンボリ,長野県上高井郡高山村新堀
3820837,長野県,上高井郡高山村,堀之内,ナガノケン,カミタカイグンタカヤマムラ,ホリノウチ,長野県上高井郡高山村堀之内
3830000,長野県,中野市,,ナガノケン,ナカノシ,,長野県中野市
3830001,長野県,中野市,岩井,ナガノケン,ナカノシ,イワイ,長野県中野市岩井
3830002,長野県,中野市,田上（その他）,ナガノケン,ナカノシ,タガミ(ソノタ),長野県中野市田上（その他）
3830003,長野県,中野市,柳沢,ナガノケン,ナカノシ,ヤナギサワ,長野県中野市柳沢
3830004,長野県,中野市,赤岩,ナガノケン,ナカノシ,アカイワ,長野県中野市赤岩
3830005,長野県,中野市,越,ナガノケン,ナカノシ,コシ,長野県中野市越
3830006,長野県,中野市,深沢,ナガノケン,ナカノシ,フカサワ,長野県中野市深沢
3830007,長野県,中野市,竹原,ナガノケン,ナカノシ,タケハラ,長野県中野市竹原
3830008,長野県,中野市,金井,ナガノケン,ナカノシ,カナイ,長野県中野市金井
3830011,長野県,中野市,若宮,ナガノケン,ナカノシ,ワカミヤ,長野県中野市若宮
3830012,長野県,中野市,一本木,ナガノケン,ナカノシ,イッポンギ,長野県中野市一本木
3830013,長野県,中野市,中野,ナガノケン,ナカノシ,ナカノ,長野県中野市中野
3830014,長野県,中野市,諏訪町,ナガノケン,ナカノシ,スワチョウ,長野県中野市諏訪町
3830015,長野県,中野市,吉田,ナガノケン,ナカノシ,ヨシダ,長野県中野市吉田
3830021,長野県,中野市,西,ナガノケン,ナカノシ,ニシ,長野県中野市西
3830022,長野県,中野市,中央,ナガノケン,ナカノシ,チュウオウ,長野県中野市中央
3830023,長野県,中野市,小舘,ナガノケン,ナカノシ,オタテ,長野県中野市小舘
3830024,長野県,中野市,東山,ナガノケン,ナカノシ,ヒガシヤマ,長野県中野市東山
3830025,長野県,中野市,三好町,ナガノケン,ナカノシ,ミヨシチョウ,長野県中野市三好町
3830031,長野県,中野市,南宮,ナガノケン,ナカノシ,ナングウ,長野県中野市南宮
3830032,長野県,中野市,更科,ナガノケン,ナカノシ,サラシナ,長野県中野市更科
3830033,長野県,中野市,間山,ナガノケン,ナカノシ,マヤマ,長野県中野市間山
3830034,長野県,中野市,新野,ナガノケン,ナカノシ,シンノ,長野県中野市新野
3830035,長野県,中野市,篠井,ナガノケン,ナカノシ,シノイ,長野県中野市篠井
3830036,長野県,中野市,新保,ナガノケン,ナカノシ,シンボ,長野県中野市新保
3830037,長野県,中野市,小田中,ナガノケン,ナカノシ,コダナカ,長野県中野市小田中
3830041,長野県,中野市,岩船,ナガノケン,ナカノシ,イワフネ,長野県中野市岩船
3830042,長野県,中野市,西条,ナガノケン,ナカノシ,ニシジョウ,長野県中野市西条
3830043,長野県,中野市,三ツ和,ナガノケン,ナカノシ,ミツワ,長野県中野市三ツ和
3830044,長野県,中野市,桜沢,ナガノケン,ナカノシ,サクラサワ,長野県中野市桜沢
3830045,長野県,中野市,江部,ナガノケン,ナカノシ,エベ,長野県中野市江部
3830046,長野県,中野市,片塩,ナガノケン,ナカノシ,カタシオ,長野県中野市片塩
3830051,長野県,中野市,七瀬,ナガノケン,ナカノシ,ナナセ,長野県中野市七瀬
3830052,長野県,中野市,安源寺,ナガノケン,ナカノシ,アンゲンジ,長野県中野市安源寺
3830053,長野県,中野市,草間,ナガノケン,ナカノシ,クサマ,長野県中野市草間
3830054,長野県,中野市,立ケ花,ナガノケン,ナカノシ,タテガハナ,長野県中野市立ケ花
3830055,長野県,中野市,牛出,ナガノケン,ナカノシ,ウシイデ,長野県中野市牛出
3830056,長野県,中野市,栗林,ナガノケン,ナカノシ,クリバヤシ,長野県中野市栗林
3830057,長野県,中野市,大俣,ナガノケン,ナカノシ,オオマタ,長野県中野市大俣
3830061,長野県,中野市,壁田,ナガノケン,ナカノシ,ヘキダ,長野県中野市壁田
3830062,長野県,中野市,笠原,ナガノケン,ナカノシ,カサハラ,長野県中野市笠原
3830063,長野県,中野市,間長瀬,ナガノケン,ナカノシ,マナガセ,長野県中野市間長瀬
3830064,長野県,中野市,新井,ナガノケン,ナカノシ,アライ,長野県中野市新井
3830065,長野県,中野市,田麦,ナガノケン,ナカノシ,タムギ,長野県中野市田麦
3830066,長野県,中野市,厚貝,ナガノケン,ナカノシ,アッカイ,長野県中野市厚貝
3840000,長野県,小諸市,,ナガノケン,コモロシ,,長野県小諸市
3840001,長野県,小諸市,小原,ナガノケン,コモロシ,コバラ,長野県小諸市小原
3840002,長野県,小諸市,唐松,ナガノケン,コモロシ,カラマツ,長野県小諸市唐松
3840003,長野県,小諸市,東山,ナガノケン,コモロシ,ヒガシヤマ,長野県小諸市東山
3840004,長野県,小諸市,乙女,ナガノケン,コモロシ,オトメ,長野県小諸市乙女
3840005,長野県,小諸市,御幸町,ナガノケン,コモロシ,ミユキチョウ,長野県小諸市御幸町
3840006,長野県,小諸市,与良町,ナガノケン,コモロシ,ヨラマチ,長野県小諸市与良町
3840007,長野県,小諸市,鶴巻,ナガノケン,コモロシ,ツルマキ,長野県小諸市鶴巻
3840008,長野県,小諸市,東小諸,ナガノケン,コモロシ,ヒガシコモロ,長野県小諸市東小諸
3840011,長野県,小諸市,赤坂,ナガノケン,コモロシ,アカサカ,長野県小諸市赤坂
3840012,長野県,小諸市,南町,ナガノケン,コモロシ,ミナミチョウ,長野県小諸市南町
3840013,長野県,小諸市,緑ケ丘,ナガノケン,コモロシ,ミドリガオカ,長野県小諸市緑ケ丘
3840014,長野県,小諸市,荒町,ナガノケン,コモロシ,アラマチ,長野県小諸市荒町
3840015,長野県,小諸市,紺屋町,ナガノケン,コモロシ,コンヤマチ,長野県小諸市紺屋町
3840016,長野県,小諸市,八幡町,ナガノケン,コモロシ,ハチマンチョウ,長野県小諸市八幡町
3840017,長野県,小諸市,三和,ナガノケン,コモロシ,ミツワ,長野県小諸市三和
3840018,長野県,小諸市,坂ノ上,ナガノケン,コモロシ,サカノウエ,長野県小諸市坂ノ上
3840021,長野県,小諸市,天池,ナガノケン,コモロシ,アマイケ,長野県小諸市天池
3840022,長野県,小諸市,松井,ナガノケン,コモロシ,マツイ,長野県小諸市松井
3840023,長野県,小諸市,東雲,ナガノケン,コモロシ,シノノメ,長野県小諸市東雲
3840024,長野県,小諸市,熊ノ堂,ナガノケン,コモロシ,クマノドウ,長野県小諸市熊ノ堂
3840025,長野県,小諸市,相生町,ナガノケン,コモロシ,アイオイチョウ,長野県小諸市相生町
3840026,長野県,小諸市,本町,ナガノケン,コモロシ,ホンマチ,長野県小諸市本町
3840027,長野県,小諸市,六供,ナガノケン,コモロシ,ロック,長野県小諸市六供
3840028,長野県,小諸市,田町,ナガノケン,コモロシ,タマチ,長野県小諸市田町
3840031,長野県,小諸市,大手,ナガノケン,コモロシ,オオテ,長野県小諸市大手
3840032,長野県,小諸市,古城,ナガノケン,コモロシ,コジョウ,長野県小諸市古城
3840033,長野県,小諸市,市町,ナガノケン,コモロシ,イチマチ,長野県小諸市市町
3840034,長野県,小諸市,新町,ナガノケン,コモロシ,シンマチ,長野県小諸市新町
3840035,長野県,小諸市,両神,ナガノケン,コモロシ,リョウジン,長野県小諸市両神
3840036,長野県,小諸市,富士見平,ナガノケン,コモロシ,フジミダイラ,長野県小諸市富士見平
3840037,長野県,小諸市,押出,ナガノケン,コモロシ,オシダシ,長野県小諸市押出
3840038,長野県,小諸市,栃木,ナガノケン,コモロシ,トチギ,長野県小諸市栃木
3840041,長野県,小諸市,菱平,ナガノケン,コモロシ,ヒシダイラ,長野県小諸市菱平
3840042,長野県,小諸市,後平,ナガノケン,コモロシ,ウシロダイラ,長野県小諸市後平
3840043,長野県,小諸市,諸,ナガノケン,コモロシ,モロ,長野県小諸市諸
3840044,長野県,小諸市,西原,ナガノケン,コモロシ,ニシバラ,長野県小諸市西原
3840045,長野県,小諸市,滝原,ナガノケン,コモロシ,タキバラ,長野県小諸市滝原
3840046,長野県,小諸市,芝生田,ナガノケン,コモロシ,シボウタ,長野県小諸市芝生田
3840047,長野県,小諸市,井子,ナガノケン,コモロシ,イコ,長野県小諸市井子
3840048,長野県,小諸市,糠地,ナガノケン,コモロシ,ヌカチ,長野県小諸市糠地
3840051,長野県,小諸市,八満,ナガノケン,コモロシ,ハチマン,長野県小諸市八満
3840052,長野県,小諸市,東区,ナガノケン,コモロシ,ヒガシク,長野県小諸市東区
3840053,長野県,小諸市,藤塚,ナガノケン,コモロシ,フジツカ,長野県小諸市藤塚
3840054,長野県,小諸市,石峠,ナガノケン,コモロシ,イシトウゲ,長野県小諸市石峠
3840055,長野県,小諸市,柏木,ナガノケン,コモロシ,カシワギ,長野県小諸市柏木
3840056,長野県,小諸市,四ツ谷,ナガノケン,コモロシ,ヨツヤ,長野県小諸市四ツ谷
3840061,長野県,小諸市,加増,ナガノケン,コモロシ,カマス,長野県小諸市加増
3840062,長野県,小諸市,荒堀,ナガノケン,コモロシ,アラホリ,長野県小諸市荒堀
3840063,長野県,小諸市,南ケ原,ナガノケン,コモロシ,ミナミガハラ,長野県小諸市南ケ原
3840064,長野県,小諸市,乗瀬,ナガノケン,コモロシ,ノリセ,長野県小諸市乗瀬
3840065,長野県,小諸市,ひばりケ丘,ナガノケン,コモロシ,ヒバリガオカ,長野県小諸市ひばりケ丘
3840071,長野県,小諸市,大久保,ナガノケン,コモロシ,オオクボ,長野県小諸市大久保
3840072,長野県,小諸市,鴇久保,ナガノケン,コモロシ,トキクボ,長野県小諸市鴇久保
3840074,長野県,小諸市,西浦,ナガノケン,コモロシ,ニシウラ,長野県小諸市西浦
3840075,長野県,小諸市,上ノ平,ナガノケン,コモロシ,ウエノダイラ,長野県小諸市上ノ平
3840076,長野県,小諸市,久保,ナガノケン,コモロシ,クボ,長野県小諸市久保
3840077,長野県,小諸市,大杭,ナガノケン,コモロシ,オオクイ,長野県小諸市大杭
3840078,長野県,小諸市,宮沢,ナガノケン,コモロシ,ミヤザワ,長野県小諸市宮沢
3840081,長野県,小諸市,御牧ケ原,ナガノケン,コモロシ,ミマキガハラ,長野県小諸市御牧ケ原
3840082,長野県,小諸市,諏訪山,ナガノケン,コモロシ,スワヤマ,長野県小諸市諏訪山
3840083,長野県,小諸市,市,ナガノケン,コモロシ,イチ,長野県小諸市市
3840084,長野県,小諸市,耳取,ナガノケン,コモロシ,ミミトリ,長野県小諸市耳取
3840085,長野県,小諸市,森山,ナガノケン,コモロシ,モリヤマ,長野県小諸市森山
3840091,長野県,小諸市,御影,ナガノケン,コモロシ,ミカゲ,長野県小諸市御影
3840092,長野県,小諸市,平原,ナガノケン,コモロシ,ヒラハラ,長野県小諸市平原
3840093,長野県,小諸市,和田,ナガノケン,コモロシ,ワダ,長野県小諸市和田
3840094,長野県,小諸市,一ツ谷,ナガノケン,コモロシ,ヒトツヤ,長野県小諸市一ツ谷
3840095,長野県,小諸市,谷地原,ナガノケン,コモロシ,ヤチハラ,長野県小諸市谷地原
3840096,長野県,小諸市,池ノ前,ナガノケン,コモロシ,イケノマエ,長野県小諸市池ノ前
3840301,長野県,佐久市,臼田,ナガノケン,サクシ,ウスダ,長野県佐久市臼田
3840302,長野県,佐久市,勝間,ナガノケン,サクシ,カツマ,長野県佐久市勝間
3840303,長野県,佐久市,下小田切,ナガノケン,サクシ,シモオタギリ,長野県佐久市下小田切
3840304,長野県,佐久市,北川,ナガノケン,サクシ,キタガワ,長野県佐久市北川
3840305,長野県,佐久市,中小田切,ナガノケン,サクシ,ナカオタギリ,長野県佐久市中小田切
3840306,長野県,佐久市,上小田切,ナガノケン,サクシ,カミオタギリ,長野県佐久市上小田切
3840307,長野県,佐久市,湯原,ナガノケン,サクシ,ユハラ,長野県佐久市湯原
3840411,長野県,佐久市,清川,ナガノケン,サクシ,キヨカワ,長野県佐久市清川
3840412,長野県,佐久市,田口,ナガノケン,サクシ,タグチ,長野県佐久市田口
3840413,長野県,佐久市,三分,ナガノケン,サクシ,ミブン,長野県佐久市三分
3840414,長野県,佐久市,下越,ナガノケン,サクシ,シモゴエ,長野県佐久市下越
3840501,長野県,南佐久郡佐久穂町,余地,ナガノケン,ミナミサクグンサクホマチ,ヨジ,長野県南佐久郡佐久穂町余地
3840502,長野県,南佐久郡佐久穂町,大日向,ナガノケン,ミナミサクグンサクホマチ,オオヒナタ,長野県南佐久郡佐久穂町大日向
3840503,長野県,南佐久郡佐久穂町,海瀬,ナガノケン,ミナミサクグンサクホマチ,カイゼ,長野県南佐久郡佐久穂町海瀬
3840600,長野県,南佐久郡佐久穂町,,ナガノケン,ミナミサクグンサクホマチ,,長野県南佐久郡佐久穂町
3840611,長野県,南佐久郡佐久穂町,平林,ナガノケン,ミナミサクグンサクホマチ,ヒラバヤシ,長野県南佐久郡佐久穂町平林
3840612,長野県,南佐久郡佐久穂町,宿岩,ナガノケン,ミナミサクグンサクホマチ,ヤドイワ,長野県南佐久郡佐久穂町宿岩
3840613,長野県,南佐久郡佐久穂町,高野町,ナガノケン,ミナミサクグンサクホマチ,タカノマチ,長野県南佐久郡佐久穂町高野町
3840614,長野県,南佐久郡佐久穂町,上,ナガノケン,ミナミサクグンサクホマチ,カミ,長野県南佐久郡佐久穂町上
3840621,長野県,佐久市,入澤,ナガノケン,サクシ,イリサワ,長野県佐久市入澤
3840622,長野県,佐久市,平林,ナガノケン,サクシ,ヒラバヤシ,長野県佐久市平林
3840701,長野県,南佐久郡佐久穂町,畑,ナガノケン,ミナミサクグンサクホマチ,ハタ,長野県南佐久郡佐久穂町畑
3840702,長野県,南佐久郡佐久穂町,穂積,ナガノケン,ミナミサクグンサクホマチ,ホヅミ,長野県南佐久郡佐久穂町穂積
3840703,長野県,南佐久郡佐久穂町,千代里,ナガノケン,ミナミサクグンサクホマチ,チヨサト,長野県南佐久郡佐久穂町千代里
3840704,長野県,南佐久郡佐久穂町,八郡,ナガノケン,ミナミサクグンサクホマチ,ヤコオリ,長野県南佐久郡佐久穂町八郡
3840801,長野県,小諸市,甲,ナガノケン,コモロシ,コウ,長野県小諸市甲
3840802,長野県,小諸市,乙,ナガノケン,コモロシ,オツ,長野県小諸市乙
3840803,長野県,小諸市,丙,ナガノケン,コモロシ,ヘイ,長野県小諸市丙
3840804,長野県,小諸市,丁,ナガノケン,コモロシ,テイ,長野県小諸市丁
3840805,長野県,小諸市,己,ナガノケン,コモロシ,キ,長野県小諸市己
3840806,長野県,小諸市,塩野,ナガノケン,コモロシ,シオノ,長野県小諸市塩野
3840807,長野県,小諸市,山浦,ナガノケン,コモロシ,ヤマウラ,長野県小諸市山浦
3840808,長野県,小諸市,御影新田,ナガノケン,コモロシ,ミカゲシンデン,長野県小諸市御影新田
3840809,長野県,小諸市,滋野甲,ナガノケン,コモロシ,シゲノコウ,長野県小諸市滋野甲
3841100,長野県,南佐久郡小海町,,ナガノケン,ミナミサクグンコウミマチ,,長野県南佐久郡小海町
3841101,長野県,南佐久郡小海町,東馬流,ナガノケン,ミナミサクグンコウミマチ,ヒガシマナガシ,長野県南佐久郡小海町東馬流
3841102,長野県,南佐久郡小海町,小海,ナガノケン,ミナミサクグンコウミマチ,コウミ,長野県南佐久郡小海町小海
3841103,長野県,南佐久郡小海町,豊里,ナガノケン,ミナミサクグンコウミマチ,トヨサト,長野県南佐久郡小海町豊里
3841104,長野県,南佐久郡小海町,稲子,ナガノケン,ミナミサクグンコウミマチ,イナコ,長野県南佐久郡小海町稲子
3841105,長野県,南佐久郡小海町,千代里,ナガノケン,ミナミサクグンコウミマチ,チヨサト,長野県南佐久郡小海町千代里
3841201,長野県,南佐久郡北相木村,,ナガノケン,ミナミサクグンキタアイキムラ,,長野県南佐久郡北相木村
3841211,長野県,南佐久郡南相木村,,ナガノケン,ミナミサクグンミナミアイキムラ,,長野県南佐久郡南相木村
3841300,長野県,南佐久郡南牧村,,ナガノケン,ミナミサクグンミナミマキムラ,,長野県南佐久郡南牧村
3841301,長野県,南佐久郡南牧村,海尻,ナガノケン,ミナミサクグンミナミマキムラ,ウミジリ,長野県南佐久郡南牧村海尻
3841302,長野県,南佐久郡南牧村,海ノ口,ナガノケン,ミナミサクグンミナミマキムラ,ウミノクチ,長野県南佐久郡南牧村海ノ口
3841303,長野県,南佐久郡南牧村,広瀬,ナガノケン,ミナミサクグンミナミマキムラ,ヒロセ,長野県南佐久郡南牧村広瀬
3841304,長野県,南佐久郡南牧村,板橋,ナガノケン,ミナミサクグンミナミマキムラ,イタバシ,長野県南佐久郡南牧村板橋
3841305,長野県,南佐久郡南牧村,野辺山,ナガノケン,ミナミサクグンミナミマキムラ,ノベヤマ,長野県南佐久郡南牧村野辺山
3841306,長野県,南佐久郡南牧村,平沢,ナガノケン,ミナミサクグンミナミマキムラ,ヒラサワ,長野県南佐久郡南牧村平沢
3841400,長野県,南佐久郡川上村,,ナガノケン,ミナミサクグンカワカミムラ,,長野県南佐久郡川上村
3841401,長野県,南佐久郡川上村,川端下,ナガノケン,ミナミサクグンカワカミムラ,カワハケ,長野県南佐久郡川上村川端下
3841402,長野県,南佐久郡川上村,梓山,ナガノケン,ミナミサクグンカワカミムラ,アズサヤマ,長野県南佐久郡川上村梓山
3841403,長野県,南佐久郡川上村,秋山,ナガノケン,ミナミサクグンカワカミムラ,アキヤマ,長野県南佐久郡川上村秋山
3841404,長野県,南佐久郡川上村,居倉,ナガノケン,ミナミサクグンカワカミムラ,イグラ,長野県南佐久郡川上村居倉
3841405,長野県,南佐久郡川上村,大深山,ナガノケン,ミナミサクグンカワカミムラ,オオミヤマ,長野県南佐久郡川上村大深山
3841406,長野県,南佐久郡川上村,原,ナガノケン,ミナミサクグンカワカミムラ,ハラ,長野県南佐久郡川上村原
3841407,長野県,南佐久郡川上村,御所平,ナガノケン,ミナミサクグンカワカミムラ,ゴショダイラ,長野県南佐久郡川上村御所平
3841408,長野県,南佐久郡川上村,樋沢,ナガノケン,ミナミサクグンカワカミムラ,ヒサワ,長野県南佐久郡川上村樋沢
3842101,長野県,佐久市,桑山,ナガノケン,サクシ,クワヤマ,長野県佐久市桑山
3842102,長野県,佐久市,塩名田,ナガノケン,サクシ,シオナダ,長野県佐久市塩名田
3842103,長野県,佐久市,御馬寄,ナガノケン,サクシ,ミマヨセ,長野県佐久市御馬寄
3842104,長野県,佐久市,甲,ナガノケン,サクシ,コウ,長野県佐久市甲
3842105,長野県,佐久市,矢嶋,ナガノケン,サクシ,ヤシマ,長野県佐久市矢嶋
3842106,長野県,佐久市,八幡,ナガノケン,サクシ,ヤワタ,長野県佐久市八幡
3842107,長野県,佐久市,蓬田,ナガノケン,サクシ,ヨモギダ,長野県佐久市蓬田
3842201,長野県,佐久市,印内,ナガノケン,サクシ,インナイ,長野県佐久市印内
3842202,長野県,佐久市,望月,ナガノケン,サクシ,モチヅキ,長野県佐久市望月
3842203,長野県,佐久市,布施,ナガノケン,サクシ,フセ,長野県佐久市布施
3842204,長野県,佐久市,協和,ナガノケン,サクシ,キョウワ,長野県佐久市協和
3842205,長野県,佐久市,春日,ナガノケン,サクシ,カスガ,長野県佐久市春日
3842206,長野県,佐久市,茂田井,ナガノケン,サクシ,モタイ,長野県佐久市茂田井
3842211,長野県,北佐久郡立科町,茂田井（その他）,ナガノケン,キタサクグンタテシナマチ,モタイ(ソノタ),長野県北佐久郡立科町茂田井（その他）
3842300,長野県,北佐久郡立科町,,ナガノケン,キタサクグンタテシナマチ,,長野県北佐久郡立科町
3842301,長野県,北佐久郡立科町,桐原,ナガノケン,キタサクグンタテシナマチ,キリハラ,長野県北佐久郡立科町桐原
3842302,長野県,北佐久郡立科町,藤沢,ナガノケン,キタサクグンタテシナマチ,フジサワ,長野県北佐久郡立科町藤沢
3842303,長野県,北佐久郡立科町,塩沢,ナガノケン,キタサクグンタテシナマチ,シオサワ,長野県北佐久郡立科町塩沢
3842304,長野県,北佐久郡立科町,茂田井（１〜５００「２１１番地を除く」「古町」、２５２７〜２５２９「土遠」）,ナガノケン,キタサクグンタテシナマチ,モタイ(1-500<211バンチヲノゾク><フルマチ>、2527-2529<ドトオ>),長野県北佐久郡立科町茂田井（1〜500「211-を除く」「古町」、2527〜2529「土遠」）
3842305,長野県,北佐久郡立科町,芦田,ナガノケン,キタサクグンタテシナマチ,アシダ,長野県北佐久郡立科町芦田
3842306,長野県,北佐久郡立科町,宇山,ナガノケン,キタサクグンタテシナマチ,ウヤマ,長野県北佐久郡立科町宇山
3842307,長野県,北佐久郡立科町,山部,ナガノケン,キタサクグンタテシナマチ,ヤマベ,長野県北佐久郡立科町山部
3842308,長野県,北佐久郡立科町,牛鹿,ナガノケン,キタサクグンタテシナマチ,ウシロク,長野県北佐久郡立科町牛鹿
3842309,長野県,北佐久郡立科町,芦田八ケ野（その他）,ナガノケン,キタサクグンタテシナマチ,アシダハツカノ(ソノタ),長野県北佐久郡立科町芦田八ケ野（その他）
3850000,長野県,佐久市,,ナガノケン,サクシ,,長野県佐久市
3850001,長野県,佐久市,横根,ナガノケン,サクシ,ヨコネ,長野県佐久市横根
3850002,長野県,佐久市,上平尾,ナガノケン,サクシ,カミヒラオ,長野県佐久市上平尾
3850003,長野県,佐久市,下平尾,ナガノケン,サクシ,シモヒラオ,長野県佐久市下平尾
3850004,長野県,佐久市,安原,ナガノケン,サクシ,ヤスハラ,長野県佐久市安原
3850005,長野県,佐久市,香坂,ナガノケン,サクシ,コウサカ,長野県佐久市香坂
3850006,長野県,佐久市,志賀,ナガノケン,サクシ,シガ,長野県佐久市志賀
3850007,長野県,佐久市,新子田,ナガノケン,サクシ,アラコダ,長野県佐久市新子田
3850009,長野県,佐久市,小田井,ナガノケン,サクシ,オタイ,長野県佐久市小田井
3850011,長野県,佐久市,猿久保,ナガノケン,サクシ,サルクボ,長野県佐久市猿久保
3850012,長野県,佐久市,根々井,ナガノケン,サクシ,ネネイ,長野県佐久市根々井
3850013,長野県,佐久市,横和,ナガノケン,サクシ,ヨコワ,長野県佐久市横和
3850014,長野県,佐久市,三河田,ナガノケン,サクシ,ミカワダ,長野県佐久市三河田
3850015,長野県,佐久市,今井,ナガノケン,サクシ,イマイ,長野県佐久市今井
3850016,長野県,佐久市,鳴瀬,ナガノケン,サクシ,ナルセ,長野県佐久市鳴瀬
3850021,長野県,佐久市,長土呂,ナガノケン,サクシ,ナガトロ,長野県佐久市長土呂
3850022,長野県,佐久市,岩村田,ナガノケン,サクシ,イワムラダ,長野県佐久市岩村田
3850023,長野県,佐久市,岩村田北,ナガノケン,サクシ,イワムラダキタ,長野県佐久市岩村田北
3850024,長野県,佐久市,平塚,ナガノケン,サクシ,ヒラツカ,長野県佐久市平塚
3850025,長野県,佐久市,塚原,ナガノケン,サクシ,ツカバラ,長野県佐久市塚原
3850026,長野県,佐久市,常田,ナガノケン,サクシ,トキダ,長野県佐久市常田
3850027,長野県,佐久市,佐久平駅北,ナガノケン,サクシ,サクダイラエキキタ,長野県佐久市佐久平駅北
3850028,長野県,佐久市,佐久平駅東,ナガノケン,サクシ,サクダイラエキヒガシ,長野県佐久市佐久平駅東
3850029,長野県,佐久市,佐久平駅南,ナガノケン,サクシ,サクダイラエキミナミ,長野県佐久市佐久平駅南
3850031,長野県,佐久市,内山,ナガノケン,サクシ,ウチヤマ,長野県佐久市内山
3850032,長野県,佐久市,常和,ナガノケン,サクシ,トキワ,長野県佐久市常和
3850033,長野県,佐久市,太田部,ナガノケン,サクシ,オオタベ,長野県佐久市太田部
3850034,長野県,佐久市,平賀,ナガノケン,サクシ,ヒラカ,長野県佐久市平賀
3850035,長野県,佐久市,瀬戸,ナガノケン,サクシ,セト,長野県佐久市瀬戸
3850041,長野県,佐久市,鍛冶屋,ナガノケン,サクシ,カジヤ,長野県佐久市鍛冶屋
3850042,長野県,佐久市,高柳,ナガノケン,サクシ,タカヤギ,長野県佐久市高柳
3850043,長野県,佐久市,取出町,ナガノケン,サクシ,トリデマチ,長野県佐久市取出町
3850044,長野県,佐久市,本新町,ナガノケン,サクシ,ホンシンマチ,長野県佐久市本新町
3850045,長野県,佐久市,大沢,ナガノケン,サクシ,オオサワ,長野県佐久市大沢
3850046,長野県,佐久市,前山,ナガノケン,サクシ,マエヤマ,長野県佐久市前山
3850047,長野県,佐久市,小宮山,ナガノケン,サクシ,コミヤマ,長野県佐久市小宮山
3850051,長野県,佐久市,中込,ナガノケン,サクシ,ナカゴミ,長野県佐久市中込
3850052,長野県,佐久市,原,ナガノケン,サクシ,ハラ,長野県佐久市原
3850053,長野県,佐久市,野沢,ナガノケン,サクシ,ノザワ,長野県佐久市野沢
3850054,長野県,佐久市,跡部,ナガノケン,サクシ,アトベ,長野県佐久市跡部
3850055,長野県,佐久市,三塚,ナガノケン,サクシ,ミチヅカ,長野県佐久市三塚
3850056,長野県,佐久市,桜井,ナガノケン,サクシ,サクライ,長野県佐久市桜井
3850061,長野県,佐久市,伴野,ナガノケン,サクシ,トモノ,長野県佐久市伴野
3850062,長野県,佐久市,根岸,ナガノケン,サクシ,ネギシ,長野県佐久市根岸
3850063,長野県,佐久市,東立科,ナガノケン,サクシ,ヒガシタテシナ,長野県佐久市東立科
3860000,長野県,上田市,,ナガノケン,ウエダシ,,長野県上田市
3860001,長野県,上田市,上田,ナガノケン,ウエダシ,ウエダ,長野県上田市上田
3860002,長野県,上田市,住吉,ナガノケン,ウエダシ,スミヨシ,長野県上田市住吉
3860003,長野県,上田市,上野,ナガノケン,ウエダシ,ウエノ,長野県上田市上野
3860004,長野県,上田市,殿城,ナガノケン,ウエダシ,トノシロ,長野県上田市殿城
3860005,長野県,上田市,古里,ナガノケン,ウエダシ,コサト,長野県上田市古里
3860006,長野県,上田市,漆戸,ナガノケン,ウエダシ,ウルシド,長野県上田市漆戸
3860011,長野県,上田市,中央北,ナガノケン,ウエダシ,チュウオウキタ,長野県上田市中央北
3860012,長野県,上田市,中央,ナガノケン,ウエダシ,チュウオウ,長野県上田市中央
3860013,長野県,上田市,中央東,ナガノケン,ウエダシ,チュウオウヒガシ,長野県上田市中央東
3860014,長野県,上田市,材木町,ナガノケン,ウエダシ,ザイモクチョウ,長野県上田市材木町
3860015,長野県,上田市,常入,ナガノケン,ウエダシ,トキイリ,長野県上田市常入
3860016,長野県,上田市,国分,ナガノケン,ウエダシ,コクブ,長野県上田市国分
3860017,長野県,上田市,踏入,ナガノケン,ウエダシ,フミイリ,長野県上田市踏入
3860018,長野県,上田市,常田,ナガノケン,ウエダシ,トキダ,長野県上田市常田
3860022,長野県,上田市,緑が丘,ナガノケン,ウエダシ,ミドリガオカ,長野県上田市緑が丘
3860023,長野県,上田市,中央西,ナガノケン,ウエダシ,チュウオウニシ,長野県上田市中央西
3860024,長野県,上田市,大手,ナガノケン,ウエダシ,オオテ,長野県上田市大手
3860025,長野県,上田市,天神,ナガノケン,ウエダシ,テンジン,長野県上田市天神
3860026,長野県,上田市,二の丸,ナガノケン,ウエダシ,ニノマル,長野県上田市二の丸
3860027,長野県,上田市,常磐城,ナガノケン,ウエダシ,トキワギ,長野県上田市常磐城
3860031,長野県,上田市,小牧,ナガノケン,ウエダシ,コマキ,長野県上田市小牧
3860032,長野県,上田市,諏訪形,ナガノケン,ウエダシ,スワガタ,長野県上田市諏訪形
3860033,長野県,上田市,御所,ナガノケン,ウエダシ,ゴショ,長野県上田市御所
3860034,長野県,上田市,中之条,ナガノケン,ウエダシ,ナカノジョウ,長野県上田市中之条
3860041,長野県,上田市,秋和,ナガノケン,ウエダシ,アキワ,長野県上田市秋和
3860042,長野県,上田市,上塩尻,ナガノケン,ウエダシ,カミシオジリ,長野県上田市上塩尻
3860043,長野県,上田市,下塩尻,ナガノケン,ウエダシ,シモシオジリ,長野県上田市下塩尻
3860151,長野県,上田市,芳田,ナガノケン,ウエダシ,ヨシダ,長野県上田市芳田
3860152,長野県,上田市,大屋,ナガノケン,ウエダシ,オオヤ,長野県上田市大屋
3860153,長野県,上田市,岩下,ナガノケン,ウエダシ,イワシタ,長野県上田市岩下
3860155,長野県,上田市,蒼久保,ナガノケン,ウエダシ,アオクボ,長野県上田市蒼久保
3860156,長野県,上田市,林之郷,ナガノケン,ウエダシ,ハヤシノゴウ,長野県上田市林之郷
3860321,長野県,上田市,平井,ナガノケン,ウエダシ,ヒライ,長野県上田市平井
3860322,長野県,上田市,西内,ナガノケン,ウエダシ,ニシウチ,長野県上田市西内
3860323,長野県,上田市,鹿教湯温泉,ナガノケン,ウエダシ,カケユオンセン,長野県上田市鹿教湯温泉
3860401,長野県,上田市,塩川,ナガノケン,ウエダシ,シオカワ,長野県上田市塩川
3860402,長野県,上田市,藤原田,ナガノケン,ウエダシ,フジワラダ,長野県上田市藤原田
3860403,長野県,上田市,腰越,ナガノケン,ウエダシ,コシゴエ,長野県上田市腰越
3860404,長野県,上田市,上丸子,ナガノケン,ウエダシ,カミマルコ,長野県上田市上丸子
3860405,長野県,上田市,中丸子,ナガノケン,ウエダシ,ナカマルコ,長野県上田市中丸子
3860406,長野県,上田市,下丸子,ナガノケン,ウエダシ,シモマルコ,長野県上田市下丸子
3860407,長野県,上田市,長瀬,ナガノケン,ウエダシ,ナガセ,長野県上田市長瀬
3860408,長野県,上田市,本海野,ナガノケン,ウエダシ,モトウンノ,長野県上田市本海野
3860411,長野県,上田市,生田,ナガノケン,ウエダシ,イクタ,長野県上田市生田
3860412,長野県,上田市,御嶽堂,ナガノケン,ウエダシ,ミタケドウ,長野県上田市御嶽堂
3860413,長野県,上田市,東内,ナガノケン,ウエダシ,ヒガシウチ,長野県上田市東内
3860501,長野県,上田市,武石鳥屋,ナガノケン,ウエダシ,タケシトヤ,長野県上田市武石鳥屋
3860502,長野県,上田市,武石沖,ナガノケン,ウエダシ,タケシオキ,長野県上田市武石沖
3860503,長野県,上田市,下武石,ナガノケン,ウエダシ,シモタケシ,長野県上田市下武石
3860504,長野県,上田市,武石小沢根,ナガノケン,ウエダシ,タケシオザワネ,長野県上田市武石小沢根
3860505,長野県,上田市,武石余里,ナガノケン,ウエダシ,タケシヨリ,長野県上田市武石余里
3860506,長野県,上田市,武石下本入,ナガノケン,ウエダシ,タケシシモホンイリ,長野県上田市武石下本入
3860507,長野県,上田市,武石上本入,ナガノケン,ウエダシ,タケシカミホンイリ,長野県上田市武石上本入
3860508,長野県,上田市,上武石,ナガノケン,ウエダシ,カミタケシ,長野県上田市上武石
3860600,長野県,小県郡長和町,,ナガノケン,チイサガタグンナガワマチ,,長野県小県郡長和町
3860601,長野県,小県郡長和町,大門,ナガノケン,チイサガタグンナガワマチ,ダイモン,長野県小県郡長和町大門
3860602,長野県,小県郡長和町,長久保,ナガノケン,チイサガタグンナガワマチ,ナガクボ,長野県小県郡長和町長久保
3860603,長野県,小県郡長和町,古町,ナガノケン,チイサガタグンナガワマチ,フルマチ,長野県小県郡長和町古町
3860701,長野県,小県郡長和町,和田,ナガノケン,チイサガタグンナガワマチ,ワダ,長野県小県郡長和町和田
3861101,長野県,上田市,下之条,ナガノケン,ウエダシ,シモノジョウ,長野県上田市下之条
3861102,長野県,上田市,上田原,ナガノケン,ウエダシ,ウエダハラ,長野県上田市上田原
3861103,長野県,上田市,神畑,ナガノケン,ウエダシ,カバタケ,長野県上田市神畑
3861104,長野県,上田市,福田,ナガノケン,ウエダシ,フクタ,長野県上田市福田
3861105,長野県,上田市,吉田,ナガノケン,ウエダシ,ヨシダ,長野県上田市吉田
3861106,長野県,上田市,小泉,ナガノケン,ウエダシ,コイズミ,長野県上田市小泉
3861107,長野県,上田市,築地,ナガノケン,ウエダシ,ツイジ,長野県上田市築地
3861108,長野県,上田市,神畑乙,ナガノケン,ウエダシ,カバタケオツ,長野県上田市神畑乙
3861211,長野県,上田市,下之郷,ナガノケン,ウエダシ,シモノゴウ,長野県上田市下之郷
3861212,長野県,上田市,富士山,ナガノケン,ウエダシ,フジヤマ,長野県上田市富士山
3861213,長野県,上田市,古安曽,ナガノケン,ウエダシ,コアソ,長野県上田市古安曽
3861214,長野県,上田市,下之郷乙,ナガノケン,ウエダシ,シモノゴウオツ,長野県上田市下之郷乙
3861321,長野県,上田市,保野,ナガノケン,ウエダシ,ホヤ,長野県上田市保野
3861322,長野県,上田市,小島,ナガノケン,ウエダシ,コジマ,長野県上田市小島
3861323,長野県,上田市,本郷,ナガノケン,ウエダシ,ホンゴウ,長野県上田市本郷
3861324,長野県,上田市,五加,ナガノケン,ウエダシ,ゴカ,長野県上田市五加
3861325,長野県,上田市,中野,ナガノケン,ウエダシ,ナカノ,長野県上田市中野
3861326,長野県,上田市,舞田,ナガノケン,ウエダシ,マイタ,長野県上田市舞田
3861327,長野県,上田市,八木沢,ナガノケン,ウエダシ,ヤギサワ,長野県上田市八木沢
3861431,長野県,上田市,別所温泉,ナガノケン,ウエダシ,ベッショオンセン,長野県上田市別所温泉
3861432,長野県,上田市,山田,ナガノケン,ウエダシ,ヤマダ,長野県上田市山田
3861433,長野県,上田市,手塚,ナガノケン,ウエダシ,テヅカ,長野県上田市手塚
3861434,長野県,上田市,新町,ナガノケン,ウエダシ,シンマチ,長野県上田市新町
3861435,長野県,上田市,十人,ナガノケン,ウエダシ,ジュウニン,長野県上田市十人
3861436,長野県,上田市,前山,ナガノケン,ウエダシ,マエヤマ,長野県上田市前山
3861437,長野県,上田市,野倉,ナガノケン,ウエダシ,ノグラ,長野県上田市野倉
3861541,長野県,上田市,上室賀,ナガノケン,ウエダシ,カミムロガ,長野県上田市上室賀
3861542,長野県,上田市,下室賀,ナガノケン,ウエダシ,シモムロガ,長野県上田市下室賀
3861543,長野県,上田市,岡,ナガノケン,ウエダシ,オカ,長野県上田市岡
3861544,長野県,上田市,仁古田,ナガノケン,ウエダシ,ニコダ,長野県上田市仁古田
3861545,長野県,上田市,越戸,ナガノケン,ウエダシ,コウド,長野県上田市越戸
3861546,長野県,上田市,浦野,ナガノケン,ウエダシ,ウラノ,長野県上田市浦野
3861600,長野県,小県郡青木村,,ナガノケン,チイサガタグンアオキムラ,,長野県小県郡青木村
3861601,長野県,小県郡青木村,田沢,ナガノケン,チイサガタグンアオキムラ,タザワ,長野県小県郡青木村田沢
3861602,長野県,小県郡青木村,村松,ナガノケン,チイサガタグンアオキムラ,ムラマツ,長野県小県郡青木村村松
3861603,長野県,小県郡青木村,当郷,ナガノケン,チイサガタグンアオキムラ,トウゴウ,長野県小県郡青木村当郷
3861604,長野県,小県郡青木村,殿戸,ナガノケン,チイサガタグンアオキムラ,トノド,長野県小県郡青木村殿戸
3861605,長野県,小県郡青木村,夫神,ナガノケン,チイサガタグンアオキムラ,オカミ,長野県小県郡青木村夫神
3861606,長野県,小県郡青木村,沓掛,ナガノケン,チイサガタグンアオキムラ,クツカケ,長野県小県郡青木村沓掛
3861607,長野県,小県郡青木村,奈良本,ナガノケン,チイサガタグンアオキムラ,ナラモト,長野県小県郡青木村奈良本
3862201,長野県,上田市,真田町長,ナガノケン,ウエダシ,サナダマチオサ,長野県上田市真田町長
3862202,長野県,上田市,真田町本原,ナガノケン,ウエダシ,サナダマチモトハラ,長野県上田市真田町本原
3862203,長野県,上田市,真田町傍陽,ナガノケン,ウエダシ,サナダマチソエヒ,長野県上田市真田町傍陽
3862204,長野県,上田市,菅平高原,ナガノケン,ウエダシ,スガダイラコウゲン,長野県上田市菅平高原
3862211,長野県,須坂市,仁礼町（３１５３−１〜３１５３−１１００「峰の原」）,ナガノケン,スザカシ,ニレイマチ(3153-1-3153-1100<ミネノハラ>),長野県須坂市仁礼町（3153-1〜3153-1100「峰の原」）
3870000,長野県,千曲市,,ナガノケン,チクマシ,,長野県千曲市
3870001,長野県,千曲市,雨宮,ナガノケン,チクマシ,アメノミヤ,長野県千曲市雨宮
3870002,長野県,千曲市,土口,ナガノケン,チクマシ,ドグチ,長野県千曲市土口
3870003,長野県,千曲市,生萱,ナガノケン,チクマシ,イキガヤ,長野県千曲市生萱
3870004,長野県,千曲市,倉科,ナガノケン,チクマシ,クラシナ,長野県千曲市倉科
3870005,長野県,千曲市,森,ナガノケン,チクマシ,モリ,長野県千曲市森
3870006,長野県,千曲市,粟佐,ナガノケン,チクマシ,アワサ,長野県千曲市粟佐
3870007,長野県,千曲市,屋代,ナガノケン,チクマシ,ヤシロ,長野県千曲市屋代
3870011,長野県,千曲市,杭瀬下,ナガノケン,チクマシ,クイセケ,長野県千曲市杭瀬下
3870012,長野県,千曲市,桜堂,ナガノケン,チクマシ,サクラドウ,長野県千曲市桜堂
3870013,長野県,千曲市,小島,ナガノケン,チクマシ,オジマ,長野県千曲市小島
3870014,長野県,千曲市,打沢,ナガノケン,チクマシ,ウッサワ,長野県千曲市打沢
3870015,長野県,千曲市,鋳物師屋,ナガノケン,チクマシ,イモジヤ,長野県千曲市鋳物師屋
3870016,長野県,千曲市,寂蒔,ナガノケン,チクマシ,ジャクマク,長野県千曲市寂蒔
3870017,長野県,千曲市,中,ナガノケン,チクマシ,ナカ,長野県千曲市中
3870018,長野県,千曲市,新田,ナガノケン,チクマシ,シンデン,長野県千曲市新田
3870021,長野県,千曲市,稲荷山,ナガノケン,チクマシ,イナリヤマ,長野県千曲市稲荷山
3870022,長野県,千曲市,野高場,ナガノケン,チクマシ,ノタカバ,長野県千曲市野高場
3870023,長野県,千曲市,八幡,ナガノケン,チクマシ,ヤワタ,長野県千曲市八幡
3870024,長野県,千曲市,桑原,ナガノケン,チクマシ,クワバラ,長野県千曲市桑原
3888001,長野県,長野市,東犀南,ナガノケン,ナガノシ,ヒガシサイナミ,長野県長野市東犀南
3888002,長野県,長野市,篠ノ井東福寺,ナガノケン,ナガノシ,シノノイトウフクジ,長野県長野市篠ノ井東福寺
3888003,長野県,長野市,篠ノ井小森,ナガノケン,ナガノシ,シノノイコモリ,長野県長野市篠ノ井小森
3888004,長野県,長野市,篠ノ井会,ナガノケン,ナガノシ,シノノイアイ,長野県長野市篠ノ井会
3888005,長野県,長野市,篠ノ井横田,ナガノケン,ナガノシ,シノノイヨコタ,長野県長野市篠ノ井横田
3888006,長野県,長野市,篠ノ井御幣川,ナガノケン,ナガノシ,シノノイオンベガワ,長野県長野市篠ノ井御幣川
3888007,長野県,長野市,篠ノ井布施高田,ナガノケン,ナガノシ,シノノイフセタカダ,長野県長野市篠ノ井布施高田
3888008,長野県,長野市,合戦場,ナガノケン,ナガノシ,カッセンバ,長野県長野市合戦場
3888011,長野県,長野市,篠ノ井布施五明,ナガノケン,ナガノシ,シノノイフセゴミョウ,長野県長野市篠ノ井布施五明
3888012,長野県,長野市,篠ノ井二ツ柳,ナガノケン,ナガノシ,シノノイフタツヤナギ,長野県長野市篠ノ井二ツ柳
3888013,長野県,長野市,みこと川,ナガノケン,ナガノシ,ミコトガワ,長野県長野市みこと川
3888014,長野県,長野市,篠ノ井塩崎,ナガノケン,ナガノシ,シノノイシオザキ,長野県長野市篠ノ井塩崎
3888015,長野県,長野市,篠ノ井石川,ナガノケン,ナガノシ,シノノイイシカワ,長野県長野市篠ノ井石川
3888016,長野県,長野市,篠ノ井有旅,ナガノケン,ナガノシ,シノノイウタビ,長野県長野市篠ノ井有旅
3888017,長野県,長野市,篠ノ井山布施,ナガノケン,ナガノシ,シノノイヤマブセ,長野県長野市篠ノ井山布施
3888018,長野県,長野市,篠ノ井西寺尾,ナガノケン,ナガノシ,シノノイニシデラオ,長野県長野市篠ノ井西寺尾
3888019,長野県,長野市,篠ノ井杵淵,ナガノケン,ナガノシ,シノノイキネブチ,長野県長野市篠ノ井杵淵
3888020,長野県,長野市,神明,ナガノケン,ナガノシ,シンメイ,長野県長野市神明
3890100,長野県,北佐久郡軽井沢町,,ナガノケン,キタサクグンカルイザワマチ,,長野県北佐久郡軽井沢町
3890101,長野県,北佐久郡軽井沢町,峠町,ナガノケン,キタサクグンカルイザワマチ,トウゲマチ,長野県北佐久郡軽井沢町峠町
3890102,長野県,北佐久郡軽井沢町,軽井沢（大字）,ナガノケン,キタサクグンカルイザワマチ,カルイザワ(オオアザ),長野県北佐久郡軽井沢町軽井沢（大字）
3890103,長野県,北佐久郡軽井沢町,軽井沢（その他）,ナガノケン,キタサクグンカルイザワマチ,カルイザワ(ソノタ),長野県北佐久郡軽井沢町軽井沢（その他）
3890104,長野県,北佐久郡軽井沢町,軽井沢東,ナガノケン,キタサクグンカルイザワマチ,カルイザワヒガシ,長野県北佐久郡軽井沢町軽井沢東
3890111,長野県,北佐久郡軽井沢町,長倉,ナガノケン,キタサクグンカルイザワマチ,ナガクラ,長野県北佐久郡軽井沢町長倉
3890112,長野県,北佐久郡軽井沢町,中軽井沢,ナガノケン,キタサクグンカルイザワマチ,ナカカルイザワ,長野県北佐久郡軽井沢町中軽井沢
3890113,長野県,北佐久郡軽井沢町,発地,ナガノケン,キタサクグンカルイザワマチ,ホッチ,長野県北佐久郡軽井沢町発地
3890114,長野県,北佐久郡軽井沢町,茂沢,ナガノケン,キタサクグンカルイザワマチ,モザワ,長野県北佐久郡軽井沢町茂沢
3890115,長野県,北佐久郡軽井沢町,追分,ナガノケン,キタサクグンカルイザワマチ,オイワケ,長野県北佐久郡軽井沢町追分
3890200,長野県,北佐久郡御代田町,,ナガノケン,キタサクグンミヨタマチ,,長野県北佐久郡御代田町
3890201,長野県,北佐久郡御代田町,塩野,ナガノケン,キタサクグンミヨタマチ,シオノ,長野県北佐久郡御代田町塩野
3890202,長野県,北佐久郡御代田町,草越,ナガノケン,キタサクグンミヨタマチ,クサゴエ,長野県北佐久郡御代田町草越
3890203,長野県,北佐久郡御代田町,広戸,ナガノケン,キタサクグンミヨタマチ,ヒロト,長野県北佐久郡御代田町広戸
3890204,長野県,北佐久郡御代田町,豊昇,ナガノケン,キタサクグンミヨタマチ,ホウショウ,長野県北佐久郡御代田町豊昇
3890205,長野県,北佐久郡御代田町,面替,ナガノケン,キタサクグンミヨタマチ,オモガエ,長野県北佐久郡御代田町面替
3890206,長野県,北佐久郡御代田町,御代田,ナガノケン,キタサクグンミヨタマチ,ミヨタ,長野県北佐久郡御代田町御代田
3890207,長野県,北佐久郡御代田町,馬瀬口,ナガノケン,キタサクグンミヨタマチ,マセグチ,長野県北佐久郡御代田町馬瀬口
3890208,長野県,北佐久郡御代田町,茂沢,ナガノケン,キタサクグンミヨタマチ,モサワ,長野県北佐久郡御代田町茂沢
3890401,長野県,東御市,島川原,ナガノケン,トウミシ,シマガワラ,長野県東御市島川原
3890402,長野県,東御市,布下,ナガノケン,トウミシ,ヌノシタ,長野県東御市布下
3890403,長野県,東御市,御牧原,ナガノケン,トウミシ,ミマキハラ,長野県東御市御牧原
3890404,長野県,東御市,大日向,ナガノケン,トウミシ,オオヒナタ,長野県東御市大日向
3890405,長野県,東御市,下之城,ナガノケン,トウミシ,シモノジョウ,長野県東御市下之城
3890406,長野県,東御市,八重原,ナガノケン,トウミシ,ヤエハラ,長野県東御市八重原
3890407,長野県,東御市,羽毛山,ナガノケン,トウミシ,ハケヤマ,長野県東御市羽毛山
3890500,長野県,東御市,,ナガノケン,トウミシ,,長野県東御市
3890501,長野県,東御市,新張,ナガノケン,トウミシ,ミハリ,長野県東御市新張
3890502,長野県,東御市,鞍掛,ナガノケン,トウミシ,クラカケ,長野県東御市鞍掛
3890503,長野県,東御市,新屋,ナガノケン,トウミシ,アラヤ,長野県東御市新屋
3890504,長野県,東御市,海善寺,ナガノケン,トウミシ,カイゼンジ,長野県東御市海善寺
3890505,長野県,東御市,和,ナガノケン,トウミシ,カノウ,長野県東御市和
3890506,長野県,東御市,祢津,ナガノケン,トウミシ,ネツ,長野県東御市祢津
3890511,長野県,東御市,滋野（甲）,ナガノケン,トウミシ,シゲノ(コウ),長野県東御市滋野（甲）
3890512,長野県,東御市,滋野（乙）,ナガノケン,トウミシ,シゲノ(オツ),長野県東御市滋野（乙）
3890513,長野県,東御市,滋野,ナガノケン,トウミシ,シゲノ,長野県東御市滋野
3890514,長野県,東御市,加沢,ナガノケン,トウミシ,カザワ,長野県東御市加沢
3890515,長野県,東御市,常田,ナガノケン,トウミシ,トキダ,長野県東御市常田
3890516,長野県,東御市,田中,ナガノケン,トウミシ,タナカ,長野県東御市田中
3890517,長野県,東御市,県,ナガノケン,トウミシ,アガタ,長野県東御市県
3890518,長野県,東御市,本海野,ナガノケン,トウミシ,モトウンノ,長野県東御市本海野
3890519,長野県,東御市,塩川,ナガノケン,トウミシ,シオカワ,長野県東御市塩川
3890600,長野県,埴科郡坂城町,,ナガノケン,ハニシナグンサカキマチ,,長野県埴科郡坂城町
3890601,長野県,埴科郡坂城町,坂城,ナガノケン,ハニシナグンサカキマチ,サカキ,長野県埴科郡坂城町坂城
3890602,長野県,埴科郡坂城町,中之条,ナガノケン,ハニシナグンサカキマチ,ナカノジョウ,長野県埴科郡坂城町中之条
3890603,長野県,埴科郡坂城町,南条,ナガノケン,ハニシナグンサカキマチ,ミナミジョウ,長野県埴科郡坂城町南条
3890604,長野県,埴科郡坂城町,網掛,ナガノケン,ハニシナグンサカキマチ,アミカケ,長野県埴科郡坂城町網掛
3890605,長野県,埴科郡坂城町,上平,ナガノケン,ハニシナグンサカキマチ,ウワダイラ,長野県埴科郡坂城町上平
3890606,長野県,埴科郡坂城町,上五明,ナガノケン,ハニシナグンサカキマチ,カミゴミョウ,長野県埴科郡坂城町上五明
3890801,長野県,千曲市,小船山,ナガノケン,チクマシ,コブネヤマ,長野県千曲市小船山
3890802,長野県,千曲市,内川,ナガノケン,チクマシ,ウチカワ,長野県千曲市内川
3890803,長野県,千曲市,千本柳,ナガノケン,チクマシ,センボンヤナギ,長野県千曲市千本柳
3890804,長野県,千曲市,戸倉,ナガノケン,チクマシ,トグラ,長野県千曲市戸倉
3890805,長野県,千曲市,上徳間,ナガノケン,チクマシ,カミトクマ,長野県千曲市上徳間
3890806,長野県,千曲市,磯部,ナガノケン,チクマシ,イソベ,長野県千曲市磯部
3890807,長野県,千曲市,戸倉温泉,ナガノケン,チクマシ,トグラオンセン,長野県千曲市戸倉温泉
3890811,長野県,千曲市,須坂,ナガノケン,チクマシ,スザカ,長野県千曲市須坂
3890812,長野県,千曲市,羽尾,ナガノケン,チクマシ,ハネオ,長野県千曲市羽尾
3890813,長野県,千曲市,若宮,ナガノケン,チクマシ,ワカミヤ,長野県千曲市若宮
3890821,長野県,千曲市,上山田温泉,ナガノケン,チクマシ,カミヤマダオンセン,長野県千曲市上山田温泉
3890822,長野県,千曲市,上山田,ナガノケン,チクマシ,カミヤマダ,長野県千曲市上山田
3890823,長野県,千曲市,新山,ナガノケン,チクマシ,アラヤマ,長野県千曲市新山
3890824,長野県,千曲市,力石,ナガノケン,チクマシ,チカライシ,長野県千曲市力石
3891101,長野県,長野市,豊野町川谷,ナガノケン,ナガノシ,トヨノマチカワタニ,長野県長野市豊野町川谷
3891102,長野県,長野市,豊野町大倉,ナガノケン,ナガノシ,トヨノマチオオクラ,長野県長野市豊野町大倉
3891103,長野県,長野市,豊野町蟹沢,ナガノケン,ナガノシ,トヨノマチカニサワ,長野県長野市豊野町蟹沢
3891104,長野県,長野市,豊野町浅野,ナガノケン,ナガノシ,トヨノマチアサノ,長野県長野市豊野町浅野
3891105,長野県,長野市,豊野町豊野,ナガノケン,ナガノシ,トヨノマチトヨノ,長野県長野市豊野町豊野
3891106,長野県,長野市,豊野町石,ナガノケン,ナガノシ,トヨノマチイシ,長野県長野市豊野町石
3891107,長野県,長野市,豊野町南郷,ナガノケン,ナガノシ,トヨノマチミナミゴウ,長野県長野市豊野町南郷
3891200,長野県,上水内郡飯綱町,,ナガノケン,カミミノチグンイイヅナマチ,,長野県上水内郡飯綱町
3891201,長野県,上水内郡飯綱町,芋川,ナガノケン,カミミノチグンイイヅナマチ,イモガワ,長野県上水内郡飯綱町芋川
3891202,長野県,上水内郡飯綱町,東柏原,ナガノケン,カミミノチグンイイヅナマチ,ヒガシカシワバラ,長野県上水内郡飯綱町東柏原
3891203,長野県,上水内郡飯綱町,赤塩,ナガノケン,カミミノチグンイイヅナマチ,アカシオ,長野県上水内郡飯綱町赤塩
3891204,長野県,上水内郡飯綱町,倉井,ナガノケン,カミミノチグンイイヅナマチ,クライ,長野県上水内郡飯綱町倉井
3891205,長野県,上水内郡飯綱町,川谷,ナガノケン,カミミノチグンイイヅナマチ,カワタニ,長野県上水内郡飯綱町川谷
3891206,長野県,上水内郡飯綱町,普光寺,ナガノケン,カミミノチグンイイヅナマチ,フコウジ,長野県上水内郡飯綱町普光寺
3891211,長野県,上水内郡飯綱町,牟礼,ナガノケン,カミミノチグンイイヅナマチ,ムレ,長野県上水内郡飯綱町牟礼
3891212,長野県,上水内郡飯綱町,豊野,ナガノケン,カミミノチグンイイヅナマチ,トヨノ,長野県上水内郡飯綱町豊野
3891213,長野県,上水内郡飯綱町,平出,ナガノケン,カミミノチグンイイヅナマチ,ヒライデ,長野県上水内郡飯綱町平出
3891214,長野県,上水内郡飯綱町,黒川,ナガノケン,カミミノチグンイイヅナマチ,クロカワ,長野県上水内郡飯綱町黒川
3891215,長野県,上水内郡飯綱町,小玉,ナガノケン,カミミノチグンイイヅナマチ,コダマ,長野県上水内郡飯綱町小玉
3891221,長野県,上水内郡飯綱町,古町,ナガノケン,カミミノチグンイイヅナマチ,フルマチ,長野県上水内郡飯綱町古町
3891222,長野県,上水内郡飯綱町,柳里,ナガノケン,カミミノチグンイイヅナマチ,ヤナギサト,長野県上水内郡飯綱町柳里
3891223,長野県,上水内郡飯綱町,袖之山,ナガノケン,カミミノチグンイイヅナマチ,ソデノヤマ,長野県上水内郡飯綱町袖之山
3891224,長野県,上水内郡飯綱町,地蔵久保,ナガノケン,カミミノチグンイイヅナマチ,ジゾウクボ,長野県上水内郡飯綱町地蔵久保
3891225,長野県,上水内郡飯綱町,坂口,ナガノケン,カミミノチグンイイヅナマチ,サカグチ,長野県上水内郡飯綱町坂口
3891226,長野県,上水内郡飯綱町,川上,ナガノケン,カミミノチグンイイヅナマチ,カワカミ,長野県上水内郡飯綱町川上
3891227,長野県,上水内郡飯綱町,高坂,ナガノケン,カミミノチグンイイヅナマチ,コウサカ,長野県上水内郡飯綱町高坂
3891300,長野県,上水内郡信濃町,,ナガノケン,カミミノチグンシナノマチ,,長野県上水内郡信濃町
3891301,長野県,上水内郡信濃町,熊坂,ナガノケン,カミミノチグンシナノマチ,クマサカ,長野県上水内郡信濃町熊坂
3891302,長野県,上水内郡信濃町,古海,ナガノケン,カミミノチグンシナノマチ,フルミ,長野県上水内郡信濃町古海
3891303,長野県,上水内郡信濃町,野尻,ナガノケン,カミミノチグンシナノマチ,ノジリ,長野県上水内郡信濃町野尻
3891304,長野県,上水内郡信濃町,神山国際村,ナガノケン,カミミノチグンシナノマチ,カミヤマコクサイムラ,長野県上水内郡信濃町神山国際村
3891305,長野県,上水内郡信濃町,柏原,ナガノケン,カミミノチグンシナノマチ,カシワバラ,長野県上水内郡信濃町柏原
3891306,長野県,上水内郡信濃町,野尻（大学村）,ナガノケン,カミミノチグンシナノマチ,ノジリ(ダイガクムラ),長野県上水内郡信濃町野尻（大学村）
3891311,長野県,上水内郡信濃町,荒瀬原,ナガノケン,カミミノチグンシナノマチ,アラセバラ,長野県上水内郡信濃町荒瀬原
3891312,長野県,上水内郡信濃町,富濃,ナガノケン,カミミノチグンシナノマチ,トミノ,長野県上水内郡信濃町富濃
3891313,長野県,上水内郡信濃町,古間,ナガノケン,カミミノチグンシナノマチ,フルマ,長野県上水内郡信濃町古間
3891314,長野県,上水内郡信濃町,穂波,ナガノケン,カミミノチグンシナノマチ,ホナミ,長野県上水内郡信濃町穂波
3891315,長野県,上水内郡信濃町,平岡,ナガノケン,カミミノチグンシナノマチ,ヒラオカ,長野県上水内郡信濃町平岡
3891316,長野県,上水内郡信濃町,大井,ナガノケン,カミミノチグンシナノマチ,オオイ,長野県上水内郡信濃町大井
3892101,長野県,中野市,豊津,ナガノケン,ナカノシ,トヨツ,長野県中野市豊津
3892102,長野県,中野市,上今井,ナガノケン,ナカノシ,カミイマイ,長野県中野市上今井
3892103,長野県,中野市,穴田,ナガノケン,ナカノシ,アナダ,長野県中野市穴田
3892104,長野県,中野市,永江,ナガノケン,ナカノシ,ナガエ,長野県中野市永江
3892200,長野県,飯山市,,ナガノケン,イイヤマシ,,長野県飯山市
3892231,長野県,飯山市,天神堂,ナガノケン,イイヤマシ,テンシンドウ,長野県飯山市天神堂
3892232,長野県,飯山市,下木島,ナガノケン,イイヤマシ,シモキジマ,長野県飯山市下木島
3892233,長野県,飯山市,野坂田,ナガノケン,イイヤマシ,ノサカダ,長野県飯山市野坂田
3892234,長野県,飯山市,木島,ナガノケン,イイヤマシ,キジマ,長野県飯山市木島
3892235,長野県,飯山市,坂井,ナガノケン,イイヤマシ,サカイ,長野県飯山市坂井
3892241,長野県,飯山市,山岸,ナガノケン,イイヤマシ,ヤマギシ,長野県飯山市山岸
3892242,長野県,飯山市,其綿,ナガノケン,イイヤマシ,ソノワタ,長野県飯山市其綿
3892243,長野県,飯山市,吉,ナガノケン,イイヤマシ,ヨシ,長野県飯山市吉
3892244,長野県,飯山市,安田,ナガノケン,イイヤマシ,ヤスダ,長野県飯山市安田
3892251,長野県,飯山市,旭,ナガノケン,イイヤマシ,アサヒ,長野県飯山市旭
3892252,長野県,飯山市,小佐原,ナガノケン,イイヤマシ,コザワラ,長野県飯山市小佐原
3892253,長野県,飯山市,飯山,ナガノケン,イイヤマシ,イイヤマ,長野県飯山市飯山
3892254,長野県,飯山市,南町,ナガノケン,イイヤマシ,ミナミマチ,長野県飯山市南町
3892255,長野県,飯山市,静間,ナガノケン,イイヤマシ,シズマ,長野県飯山市静間
3892256,長野県,飯山市,蓮,ナガノケン,イイヤマシ,ハチス,長野県飯山市蓮
3892257,長野県,飯山市,斑尾高原,ナガノケン,イイヤマシ,マダラオコウゲン,長野県飯山市斑尾高原
3892258,長野県,飯山市,富倉,ナガノケン,イイヤマシ,トミクラ,長野県飯山市富倉
3892300,長野県,下高井郡木島平村,,ナガノケン,シモタカイグンキジマダイラムラ,,長野県下高井郡木島平村
3892301,長野県,下高井郡木島平村,穂高,ナガノケン,シモタカイグンキジマダイラムラ,ホタカ,長野県下高井郡木島平村穂高
3892302,長野県,下高井郡木島平村,往郷,ナガノケン,シモタカイグンキジマダイラムラ,オウゴウ,長野県下高井郡木島平村往郷
3892303,長野県,下高井郡木島平村,上木島,ナガノケン,シモタカイグンキジマダイラムラ,カミキジマ,長野県下高井郡木島平村上木島
3892321,長野県,飯山市,瑞穂豊,ナガノケン,イイヤマシ,ミズホトヨ,長野県飯山市瑞穂豊
3892322,長野県,飯山市,瑞穂,ナガノケン,イイヤマシ,ミズホ,長野県飯山市瑞穂
3892371,長野県,中野市,田上（１３００〜２５１１番地）,ナガノケン,ナカノシ,タガミ(1300-2511バンチ),長野県中野市田上（1300〜2511-）
3892411,長野県,飯山市,豊田,ナガノケン,イイヤマシ,トヨダ,長野県飯山市豊田
3892412,長野県,飯山市,常郷,ナガノケン,イイヤマシ,トキサト,長野県飯山市常郷
3892413,長野県,飯山市,照里,ナガノケン,イイヤマシ,テルサト,長野県飯山市照里
3892414,長野県,飯山市,常盤,ナガノケン,イイヤマシ,トキワ,長野県飯山市常盤
3892415,長野県,飯山市,大池,ナガノケン,イイヤマシ,オオイケ,長野県飯山市大池
3892416,長野県,飯山市,緑,ナガノケン,イイヤマシ,ミドリ,長野県飯山市緑
3892417,長野県,飯山市,中曽根,ナガノケン,イイヤマシ,ナカソネ,長野県飯山市中曽根
3892418,長野県,飯山市,寿,ナガノケン,イイヤマシ,コトブキ,長野県飯山市寿
3892500,長野県,下高井郡野沢温泉村,,ナガノケン,シモタカイグンノザワオンセンムラ,,長野県下高井郡野沢温泉村
3892501,長野県,下高井郡野沢温泉村,坪山,ナガノケン,シモタカイグンノザワオンセンムラ,ツボヤマ,長野県下高井郡野沢温泉村坪山
3892502,長野県,下高井郡野沢温泉村,豊郷,ナガノケン,シモタカイグンノザワオンセンムラ,トヨサト,長野県下高井郡野沢温泉村豊郷
3892503,長野県,下高井郡野沢温泉村,前坂,ナガノケン,シモタカイグンノザワオンセンムラ,マエザカ,長野県下高井郡野沢温泉村前坂
3892601,長野県,飯山市,照岡,ナガノケン,イイヤマシ,テルオカ,長野県飯山市照岡
3892602,長野県,飯山市,一山,ナガノケン,イイヤマシ,イチヤマ,長野県飯山市一山
3892611,長野県,下高井郡野沢温泉村,東大滝,ナガノケン,シモタカイグンノザワオンセンムラ,ヒガシオオタキ,長野県下高井郡野沢温泉村東大滝
3892612,長野県,下高井郡野沢温泉村,七ケ巻,ナガノケン,シモタカイグンノザワオンセンムラ,ナナガマキ,長野県下高井郡野沢温泉村七ケ巻
3892613,長野県,下高井郡野沢温泉村,虫生,ナガノケン,シモタカイグンノザワオンセンムラ,ムシウ,長野県下高井郡野沢温泉村虫生
3892614,長野県,下高井郡野沢温泉村,平林,ナガノケン,シモタカイグンノザワオンセンムラ,ヒラバヤシ,長野県下高井郡野沢温泉村平林
3892700,長野県,下水内郡栄村,,ナガノケン,シモミノチグンサカエムラ,,長野県下水内郡栄村
3892701,長野県,下水内郡栄村,豊栄,ナガノケン,シモミノチグンサカエムラ,トヨサカエ,長野県下水内郡栄村豊栄
3892702,長野県,下水内郡栄村,北信,ナガノケン,シモミノチグンサカエムラ,ホクシン,長野県下水内郡栄村北信
3892703,長野県,下水内郡栄村,堺（その他）,ナガノケン,シモミノチグンサカエムラ,サカイ(ソノタ),長野県下水内郡栄村堺（その他）
3900221,長野県,松本市,里山辺,ナガノケン,マツモトシ,サトヤマベ,長野県松本市里山辺
3900222,長野県,松本市,入山辺,ナガノケン,マツモトシ,イリヤマベ,長野県松本市入山辺
3900301,長野県,松本市,稲倉,ナガノケン,マツモトシ,シナグラ,長野県松本市稲倉
3900302,長野県,松本市,三才山,ナガノケン,マツモトシ,ミサヤマ,長野県松本市三才山
3900303,長野県,松本市,浅間温泉,ナガノケン,マツモトシ,アサマオンセン,長野県松本市浅間温泉
3900304,長野県,松本市,大村,ナガノケン,マツモトシ,オオムラ,長野県松本市大村
3900305,長野県,松本市,惣社,ナガノケン,マツモトシ,ソウザ,長野県松本市惣社
3900306,長野県,松本市,南浅間,ナガノケン,マツモトシ,ミナミアサマ,長野県松本市南浅間
3900311,長野県,松本市,水汲,ナガノケン,マツモトシ,ミズクマ,長野県松本市水汲
3900312,長野県,松本市,岡田松岡,ナガノケン,マツモトシ,オカダマツオカ,長野県松本市岡田松岡
3900313,長野県,松本市,岡田下岡田,ナガノケン,マツモトシ,オカダシモオカダ,長野県松本市岡田下岡田
3900314,長野県,松本市,岡田伊深,ナガノケン,マツモトシ,オカダイブカ,長野県松本市岡田伊深
3900315,長野県,松本市,岡田町,ナガノケン,マツモトシ,オカダマチ,長野県松本市岡田町
3900316,長野県,松本市,原,ナガノケン,マツモトシ,ハラ,長野県松本市原
3900317,長野県,松本市,洞,ナガノケン,マツモトシ,ホラ,長野県松本市洞
3900801,長野県,松本市,美須々,ナガノケン,マツモトシ,ミスズ,長野県松本市美須々
3900802,長野県,松本市,旭,ナガノケン,マツモトシ,アサヒ,長野県松本市旭
3900803,長野県,松本市,元町,ナガノケン,マツモトシ,モトマチ,長野県松本市元町
3900804,長野県,松本市,横田,ナガノケン,マツモトシ,ヨコタ,長野県松本市横田
3900805,長野県,松本市,清水,ナガノケン,マツモトシ,シミズ,長野県松本市清水
3900806,長野県,松本市,女鳥羽,ナガノケン,マツモトシ,メトバ,長野県松本市女鳥羽
3900807,長野県,松本市,城東,ナガノケン,マツモトシ,ジョウトウ,長野県松本市城東
3900811,長野県,松本市,中央,ナガノケン,マツモトシ,チュウオウ,長野県松本市中央
3900812,長野県,松本市,県,ナガノケン,マツモトシ,アガタ,長野県松本市県
3900813,長野県,松本市,埋橋,ナガノケン,マツモトシ,ウズハシ,長野県松本市埋橋
3900814,長野県,松本市,本庄,ナガノケン,マツモトシ,ホンジョウ,長野県松本市本庄
3900815,長野県,松本市,深志,ナガノケン,マツモトシ,フカシ,長野県松本市深志
3900816,長野県,松本市,中条,ナガノケン,マツモトシ,ナカジョウ,長野県松本市中条
3900817,長野県,松本市,巾上,ナガノケン,マツモトシ,ハバウエ,長野県松本市巾上
3900821,長野県,松本市,筑摩,ナガノケン,マツモトシ,ツカマ,長野県松本市筑摩
3900822,長野県,松本市,神田,ナガノケン,マツモトシ,カンダ,長野県松本市神田
3900823,長野県,松本市,中山,ナガノケン,マツモトシ,ナカヤマ,長野県松本市中山
3900824,長野県,松本市,中山台,ナガノケン,マツモトシ,ナカヤマダイ,長野県松本市中山台
3900825,長野県,松本市,並柳,ナガノケン,マツモトシ,ナミヤナギ,長野県松本市並柳
3900826,長野県,松本市,出川町,ナガノケン,マツモトシ,イデガワマチ,長野県松本市出川町
3900827,長野県,松本市,出川,ナガノケン,マツモトシ,イデガワ,長野県松本市出川
3900828,長野県,松本市,庄内,ナガノケン,マツモトシ,ショウナイ,長野県松本市庄内
3900831,長野県,松本市,井川城,ナガノケン,マツモトシ,イガワジョウ,長野県松本市井川城
3900832,長野県,松本市,南松本,ナガノケン,マツモトシ,ミナミマツモト,長野県松本市南松本
3900833,長野県,松本市,双葉,ナガノケン,マツモトシ,フタバ,長野県松本市双葉
3900834,長野県,松本市,高宮中,ナガノケン,マツモトシ,タカミヤナカ,長野県松本市高宮中
3900835,長野県,松本市,高宮東,ナガノケン,マツモトシ,タカミヤヒガシ,長野県松本市高宮東
3900836,長野県,松本市,高宮北,ナガノケン,マツモトシ,タカミヤキタ,長野県松本市高宮北
3900837,長野県,松本市,鎌田,ナガノケン,マツモトシ,カマダ,長野県松本市鎌田
3900841,長野県,松本市,渚,ナガノケン,マツモトシ,ナギサ,長野県松本市渚
3900842,長野県,松本市,征矢野,ナガノケン,マツモトシ,ソヤノ,長野県松本市征矢野
3900843,長野県,松本市,高宮南,ナガノケン,マツモトシ,タカミヤミナミ,長野県松本市高宮南
3900844,長野県,松本市,高宮西,ナガノケン,マツモトシ,タカミヤニシ,長野県松本市高宮西
3900845,長野県,松本市,石芝（１、２丁目）,ナガノケン,マツモトシ,イシシバ(1、2チョウメ),長野県松本市石芝（1、2-）
3900846,長野県,松本市,南原,ナガノケン,マツモトシ,ミナミハラ,長野県松本市南原
3900847,長野県,松本市,笹部,ナガノケン,マツモトシ,ササベ,長野県松本市笹部
3900848,長野県,松本市,両島,ナガノケン,マツモトシ,リョウシマ,長野県松本市両島
3900851,長野県,松本市,島内（その他）,ナガノケン,マツモトシ,シマウチ(ソノタ),長野県松本市島内（その他）
3900852,長野県,松本市,島立,ナガノケン,マツモトシ,シマダチ,長野県松本市島立
3900861,長野県,松本市,蟻ケ崎,ナガノケン,マツモトシ,アリガサキ,長野県松本市蟻ケ崎
3900862,長野県,松本市,宮渕,ナガノケン,マツモトシ,ミヤブチ,長野県松本市宮渕
3900863,長野県,松本市,白板,ナガノケン,マツモトシ,シライタ,長野県松本市白板
3900864,長野県,松本市,宮渕本村,ナガノケン,マツモトシ,ミヤブチホンムラ,長野県松本市宮渕本村
3900865,長野県,松本市,新橋,ナガノケン,マツモトシ,シンバシ,長野県松本市新橋
3900866,長野県,松本市,城山,ナガノケン,マツモトシ,ジョウヤマ,長野県松本市城山
3900867,長野県,松本市,蟻ケ崎台,ナガノケン,マツモトシ,アリガサキダイ,長野県松本市蟻ケ崎台
3900871,長野県,松本市,桐,ナガノケン,マツモトシ,キリ,長野県松本市桐
3900872,長野県,松本市,北深志,ナガノケン,マツモトシ,キタフカシ,長野県松本市北深志
3900873,長野県,松本市,丸の内,ナガノケン,マツモトシ,マルノウチ,長野県松本市丸の内
3900874,長野県,松本市,大手,ナガノケン,マツモトシ,オオテ,長野県松本市大手
3900875,長野県,松本市,城西,ナガノケン,マツモトシ,ジョウセイ,長野県松本市城西
3900876,長野県,松本市,開智,ナガノケン,マツモトシ,カイチ,長野県松本市開智
3900877,長野県,松本市,沢村,ナガノケン,マツモトシ,サワムラ,長野県松本市沢村
3901100,長野県,東筑摩郡朝日村,,ナガノケン,ヒガシチクマグンアサヒムラ,,長野県東筑摩郡朝日村
3901101,長野県,東筑摩郡朝日村,西洗馬,ナガノケン,ヒガシチクマグンアサヒムラ,ニシセバ,長野県東筑摩郡朝日村西洗馬
3901102,長野県,東筑摩郡朝日村,小野沢,ナガノケン,ヒガシチクマグンアサヒムラ,オノザワ,長野県東筑摩郡朝日村小野沢
3901103,長野県,東筑摩郡朝日村,針尾,ナガノケン,ヒガシチクマグンアサヒムラ,ハリオ,長野県東筑摩郡朝日村針尾
3901104,長野県,東筑摩郡朝日村,古見,ナガノケン,ヒガシチクマグンアサヒムラ,コミ,長野県東筑摩郡朝日村古見
3901131,長野県,松本市,今井,ナガノケン,マツモトシ,イマイ,長野県松本市今井
3901132,長野県,松本市,空港東,ナガノケン,マツモトシ,クウコウヒガシ,長野県松本市空港東
3901241,長野県,松本市,新村,ナガノケン,マツモトシ,ニイムラ,長野県松本市新村
3901242,長野県,松本市,和田,ナガノケン,マツモトシ,ワダ,長野県松本市和田
3901243,長野県,松本市,神林,ナガノケン,マツモトシ,カンバヤシ,長野県松本市神林
3901301,長野県,東筑摩郡山形村,,ナガノケン,ヒガシチクマグンヤマガタムラ,,長野県東筑摩郡山形村
3901401,長野県,松本市,波田,ナガノケン,マツモトシ,ハタ,長野県松本市波田
3901501,長野県,松本市,安曇（大野田）,ナガノケン,マツモトシ,アヅミ(オオノタ),長野県松本市安曇（大野田）
3901502,長野県,松本市,安曇（島々）,ナガノケン,マツモトシ,アヅミ(シマシマ),長野県松本市安曇（島々）
3901503,長野県,松本市,安曇（橋場）,ナガノケン,マツモトシ,アヅミ(ハシバ),長野県松本市安曇（橋場）
3901504,長野県,松本市,安曇（稲核）,ナガノケン,マツモトシ,アヅミ(イネコキ),長野県松本市安曇（稲核）
3901506,長野県,松本市,安曇（番所）,ナガノケン,マツモトシ,アヅミ(バンドコロ),長野県松本市安曇（番所）
3901507,長野県,松本市,安曇（宮の原）,ナガノケン,マツモトシ,アヅミ(ミヤノハラ),長野県松本市安曇（宮の原）
3901511,長野県,松本市,安曇（千石平）,ナガノケン,マツモトシ,アヅミ(センゴクダイラ),長野県松本市安曇（千石平）
3901512,長野県,松本市,安曇（楢ノ木）,ナガノケン,マツモトシ,アヅミ(ナラノキ),長野県松本市安曇（楢ノ木）
3901513,長野県,松本市,安曇（鈴蘭）,ナガノケン,マツモトシ,アヅミ(スズラン),長野県松本市安曇（鈴蘭）
3901514,長野県,松本市,安曇（沢渡）,ナガノケン,マツモトシ,アヅミ(サワンド),長野県松本市安曇（沢渡）
3901515,長野県,松本市,安曇（白骨）,ナガノケン,マツモトシ,アヅミ(シラホネ),長野県松本市安曇（白骨）
3901516,長野県,松本市,安曇（上高地）,ナガノケン,マツモトシ,アヅミ(カミコウチ),長野県松本市安曇（上高地）
3901520,長野県,松本市,安曇（その他）,ナガノケン,マツモトシ,アヅミ(ソノタ),長野県松本市安曇（その他）
3901611,長野県,松本市,奈川,ナガノケン,マツモトシ,ナガワ,長野県松本市奈川
3901701,長野県,松本市,梓川倭,ナガノケン,マツモトシ,アズサガワヤマト,長野県松本市梓川倭
3901702,長野県,松本市,梓川梓,ナガノケン,マツモトシ,アズサガワアズサ,長野県松本市梓川梓
3901703,長野県,松本市,梓川上野,ナガノケン,マツモトシ,アズサガワウエノ,長野県松本市梓川上野
3910000,長野県,茅野市,,ナガノケン,チノシ,,長野県茅野市
3910001,長野県,茅野市,ちの,ナガノケン,チノシ,チノ,長野県茅野市ちの
3910002,長野県,茅野市,塚原,ナガノケン,チノシ,ツカハラ,長野県茅野市塚原
3910003,長野県,茅野市,本町,ナガノケン,チノシ,ホンマチ,長野県茅野市本町
3910004,長野県,茅野市,城山,ナガノケン,チノシ,ジョウヤマ,長野県茅野市城山
3910005,長野県,茅野市,仲町,ナガノケン,チノシ,ナカマチ,長野県茅野市仲町
3910011,長野県,茅野市,玉川,ナガノケン,チノシ,タマガワ,長野県茅野市玉川
3910012,長野県,茅野市,金沢,ナガノケン,チノシ,カナザワ,長野県茅野市金沢
3910013,長野県,茅野市,宮川,ナガノケン,チノシ,ミヤガワ,長野県茅野市宮川
3910021,長野県,諏訪郡富士見町,富士見（入笠湖）,ナガノケン,スワグンフジミマチ,フジミ(ニュウカサコ),長野県諏訪郡富士見町富士見（入笠湖）
3910100,長野県,諏訪郡原村,,ナガノケン,スワグンハラムラ,,長野県諏訪郡原村
3910101,長野県,諏訪郡原村,大久保,ナガノケン,スワグンハラムラ,オオクボ,長野県諏訪郡原村大久保
3910102,長野県,諏訪郡原村,柳沢,ナガノケン,スワグンハラムラ,ヤナギサワ,長野県諏訪郡原村柳沢
3910103,長野県,諏訪郡原村,八ツ手,ナガノケン,スワグンハラムラ,ヤツデ,長野県諏訪郡原村八ツ手
3910104,長野県,諏訪郡原村,払沢,ナガノケン,スワグンハラムラ,ハライザワ,長野県諏訪郡原村払沢
3910105,長野県,諏訪郡原村,柏木,ナガノケン,スワグンハラムラ,カシワギ,長野県諏訪郡原村柏木
3910106,長野県,諏訪郡原村,菖蒲沢,ナガノケン,スワグンハラムラ,ショウブザワ,長野県諏訪郡原村菖蒲沢
3910107,長野県,諏訪郡原村,室内,ナガノケン,スワグンハラムラ,ムロウチ,長野県諏訪郡原村室内
3910108,長野県,諏訪郡原村,中新田,ナガノケン,スワグンハラムラ,ナカシンデン,長野県諏訪郡原村中新田
3910109,長野県,諏訪郡原村,南原,ナガノケン,スワグンハラムラ,ミナミハラ,長野県諏訪郡原村南原
3910111,長野県,諏訪郡原村,上里,ナガノケン,スワグンハラムラ,カミサト,長野県諏訪郡原村上里
3910112,長野県,諏訪郡原村,農場,ナガノケン,スワグンハラムラ,ノウジョウ,長野県諏訪郡原村農場
3910113,長野県,諏訪郡原村,やつがね,ナガノケン,スワグンハラムラ,ヤツガネ,長野県諏訪郡原村やつがね
3910114,長野県,諏訪郡原村,ペンション,ナガノケン,スワグンハラムラ,ペンション,長野県諏訪郡原村ペンション
3910115,長野県,諏訪郡原村,原山,ナガノケン,スワグンハラムラ,ハラヤマ,長野県諏訪郡原村原山
3910116,長野県,諏訪郡原村,判の木,ナガノケン,スワグンハラムラ,ハンノキ,長野県諏訪郡原村判の木
3910211,長野県,茅野市,湖東,ナガノケン,チノシ,コヒガシ,長野県茅野市湖東
3910212,長野県,茅野市,北山（渋御殿湯・渋の湯）,ナガノケン,チノシ,キタヤマ(シブゴテンユ・シブノユ),長野県茅野市北山（渋御殿湯・渋の湯）
3910213,長野県,茅野市,豊平,ナガノケン,チノシ,トヨヒラ,長野県茅野市豊平
3910214,長野県,茅野市,泉野,ナガノケン,チノシ,イズミノ,長野県茅野市泉野
3910215,長野県,茅野市,中大塩,ナガノケン,チノシ,ナカオオシオ,長野県茅野市中大塩
3910216,長野県,茅野市,米沢,ナガノケン,チノシ,ヨネザワ,長野県茅野市米沢
3910301,長野県,茅野市,北山（その他）,ナガノケン,チノシ,キタヤマ(ソノタ),長野県茅野市北山（その他）
3910321,長野県,北佐久郡立科町,池の平,ナガノケン,キタサクグンタテシナマチ,イケノタイラ,長野県北佐久郡立科町池の平
3910321,長野県,北佐久郡立科町,芦田八ケ野（１５１９〜１６３５）,ナガノケン,キタサクグンタテシナマチ,アシダハツカノ(1519-1635),長野県北佐久郡立科町芦田八ケ野（1519〜1635）
3920000,長野県,諏訪市,,ナガノケン,スワシ,,長野県諏訪市
3920001,長野県,諏訪市,大和,ナガノケン,スワシ,オワ,長野県諏訪市大和
3920002,長野県,諏訪市,湯の脇,ナガノケン,スワシ,ユノワキ,長野県諏訪市湯の脇
3920003,長野県,諏訪市,上諏訪,ナガノケン,スワシ,カミスワ,長野県諏訪市上諏訪
3920004,長野県,諏訪市,諏訪,ナガノケン,スワシ,スワ,長野県諏訪市諏訪
3920005,長野県,諏訪市,岡村,ナガノケン,スワシ,オカムラ,長野県諏訪市岡村
3920006,長野県,諏訪市,元町,ナガノケン,スワシ,モトマチ,長野県諏訪市元町
3920007,長野県,諏訪市,清水,ナガノケン,スワシ,シミズ,長野県諏訪市清水
3920008,長野県,諏訪市,霧ケ峰,ナガノケン,スワシ,キリガミネ,長野県諏訪市霧ケ峰
3920009,長野県,諏訪市,杉菜池,ナガノケン,スワシ,スギナイケ,長野県諏訪市杉菜池
3920010,長野県,諏訪市,渋崎,ナガノケン,スワシ,シブサキ,長野県諏訪市渋崎
3920011,長野県,諏訪市,赤羽根,ナガノケン,スワシ,アカハネ,長野県諏訪市赤羽根
3920012,長野県,諏訪市,四賀,ナガノケン,スワシ,シガ,長野県諏訪市四賀
3920013,長野県,諏訪市,沖田町,ナガノケン,スワシ,オキタマチ,長野県諏訪市沖田町
3920014,長野県,諏訪市,南町,ナガノケン,スワシ,ミナミマチ,長野県諏訪市南町
3920015,長野県,諏訪市,中洲,ナガノケン,スワシ,ナカス,長野県諏訪市中洲
3920016,長野県,諏訪市,豊田,ナガノケン,スワシ,トヨダ,長野県諏訪市豊田
3920017,長野県,諏訪市,城南,ナガノケン,スワシ,ジョウナン,長野県諏訪市城南
3920021,長野県,諏訪市,上川,ナガノケン,スワシ,カミガワ,長野県諏訪市上川
3920022,長野県,諏訪市,高島,ナガノケン,スワシ,タカシマ,長野県諏訪市高島
3920023,長野県,諏訪市,小和田南,ナガノケン,スワシ,コワタミナミ,長野県諏訪市小和田南
3920024,長野県,諏訪市,小和田,ナガノケン,スワシ,コワタ,長野県諏訪市小和田
3920025,長野県,諏訪市,末広,ナガノケン,スワシ,スエヒロ,長野県諏訪市末広
3920026,長野県,諏訪市,大手,ナガノケン,スワシ,オオテ,長野県諏訪市大手
3920027,長野県,諏訪市,湖岸通り,ナガノケン,スワシ,コガンドオリ,長野県諏訪市湖岸通り
3920131,長野県,諏訪市,湖南,ナガノケン,スワシ,コナミ,長野県諏訪市湖南
3930000,長野県,諏訪郡下諏訪町,,ナガノケン,スワグンシモスワマチ,,長野県諏訪郡下諏訪町
3930001,長野県,諏訪郡下諏訪町,樋橋,ナガノケン,スワグンシモスワマチ,トヨハシ,長野県諏訪郡下諏訪町樋橋
3930002,長野県,諏訪郡下諏訪町,東俣,ナガノケン,スワグンシモスワマチ,ヒガシマタ,長野県諏訪郡下諏訪町東俣
3930003,長野県,諏訪郡下諏訪町,萩倉,ナガノケン,スワグンシモスワマチ,ハギクラ,長野県諏訪郡下諏訪町萩倉
3930004,長野県,諏訪郡下諏訪町,東町下,ナガノケン,スワグンシモスワマチ,ヒガシマチシタ,長野県諏訪郡下諏訪町東町下
3930005,長野県,諏訪郡下諏訪町,東町中,ナガノケン,スワグンシモスワマチ,ヒガシマチナカ,長野県諏訪郡下諏訪町東町中
3930006,長野県,諏訪郡下諏訪町,東町上,ナガノケン,スワグンシモスワマチ,ヒガシマチウエ,長野県諏訪郡下諏訪町東町上
3930007,長野県,諏訪郡下諏訪町,下屋敷,ナガノケン,スワグンシモスワマチ,シモヤシキ,長野県諏訪郡下諏訪町下屋敷
3930008,長野県,諏訪郡下諏訪町,町屋敷,ナガノケン,スワグンシモスワマチ,マチヤシキ,長野県諏訪郡下諏訪町町屋敷
3930011,長野県,諏訪郡下諏訪町,新町上,ナガノケン,スワグンシモスワマチ,シンマチウエ,長野県諏訪郡下諏訪町新町上
3930012,長野県,諏訪郡下諏訪町,横町,ナガノケン,スワグンシモスワマチ,ヨコマチ,長野県諏訪郡下諏訪町横町
3930013,長野県,諏訪郡下諏訪町,小湯の上,ナガノケン,スワグンシモスワマチ,コユノウエ,長野県諏訪郡下諏訪町小湯の上
3930014,長野県,諏訪郡下諏訪町,木の下,ナガノケン,スワグンシモスワマチ,キノシタ,長野県諏訪郡下諏訪町木の下
3930015,長野県,諏訪郡下諏訪町,立町,ナガノケン,スワグンシモスワマチ,タツマチ,長野県諏訪郡下諏訪町立町
3930016,長野県,諏訪郡下諏訪町,湯田町,ナガノケン,スワグンシモスワマチ,ユダマチ,長野県諏訪郡下諏訪町湯田町
3930017,長野県,諏訪郡下諏訪町,湯田仲町,ナガノケン,スワグンシモスワマチ,ユダナカマチ,長野県諏訪郡下諏訪町湯田仲町
3930018,長野県,諏訪郡下諏訪町,新町下,ナガノケン,スワグンシモスワマチ,シンマチシタ,長野県諏訪郡下諏訪町新町下
3930019,長野県,諏訪郡下諏訪町,横町木の下,ナガノケン,スワグンシモスワマチ,ヨコマチキノシタ,長野県諏訪郡下諏訪町横町木の下
3930021,長野県,諏訪郡下諏訪町,武居,ナガノケン,スワグンシモスワマチ,タケイ,長野県諏訪郡下諏訪町武居
3930022,長野県,諏訪郡下諏訪町,関屋,ナガノケン,スワグンシモスワマチ,セキヤ,長野県諏訪郡下諏訪町関屋
3930023,長野県,諏訪郡下諏訪町,富ケ丘,ナガノケン,スワグンシモスワマチ,トミガオカ,長野県諏訪郡下諏訪町富ケ丘
3930024,長野県,諏訪郡下諏訪町,五官,ナガノケン,スワグンシモスワマチ,ゴカン,長野県諏訪郡下諏訪町五官
3930025,長野県,諏訪郡下諏訪町,本郷,ナガノケン,スワグンシモスワマチ,ホンゴウ,長野県諏訪郡下諏訪町本郷
3930026,長野県,諏訪郡下諏訪町,久保海道,ナガノケン,スワグンシモスワマチ,クボカイドウ,長野県諏訪郡下諏訪町久保海道
3930031,長野県,諏訪郡下諏訪町,東豊,ナガノケン,スワグンシモスワマチ,ヒガシユタカ,長野県諏訪郡下諏訪町東豊
3930032,長野県,諏訪郡下諏訪町,西浜,ナガノケン,スワグンシモスワマチ,ニシハマ,長野県諏訪郡下諏訪町西浜
3930033,長野県,諏訪郡下諏訪町,高木,ナガノケン,スワグンシモスワマチ,タカキ,長野県諏訪郡下諏訪町高木
3930034,長野県,諏訪郡下諏訪町,高浜,ナガノケン,スワグンシモスワマチ,タカハマ,長野県諏訪郡下諏訪町高浜
3930035,長野県,諏訪郡下諏訪町,西豊,ナガノケン,スワグンシモスワマチ,ニシユタカ,長野県諏訪郡下諏訪町西豊
3930041,長野県,諏訪郡下諏訪町,西四王,ナガノケン,スワグンシモスワマチ,ニシシオウ,長野県諏訪郡下諏訪町西四王
3930042,長野県,諏訪郡下諏訪町,北四王,ナガノケン,スワグンシモスワマチ,キタシオウ,長野県諏訪郡下諏訪町北四王
3930043,長野県,諏訪郡下諏訪町,東四王,ナガノケン,スワグンシモスワマチ,ヒガシシオウ,長野県諏訪郡下諏訪町東四王
3930044,長野県,諏訪郡下諏訪町,湖畔町,ナガノケン,スワグンシモスワマチ,コハンチョウ,長野県諏訪郡下諏訪町湖畔町
3930045,長野県,諏訪郡下諏訪町,南四王,ナガノケン,スワグンシモスワマチ,ミナミシオウ,長野県諏訪郡下諏訪町南四王
3930046,長野県,諏訪郡下諏訪町,東赤砂,ナガノケン,スワグンシモスワマチ,ヒガシアカスナ,長野県諏訪郡下諏訪町東赤砂
3930047,長野県,諏訪郡下諏訪町,西赤砂,ナガノケン,スワグンシモスワマチ,ニシアカスナ,長野県諏訪郡下諏訪町西赤砂
3930051,長野県,諏訪郡下諏訪町,大社通,ナガノケン,スワグンシモスワマチ,タイシャドオリ,長野県諏訪郡下諏訪町大社通
3930052,長野県,諏訪郡下諏訪町,上久保,ナガノケン,スワグンシモスワマチ,カミクボ,長野県諏訪郡下諏訪町上久保
3930053,長野県,諏訪郡下諏訪町,上馬場,ナガノケン,スワグンシモスワマチ,カミバッパ,長野県諏訪郡下諏訪町上馬場
3930054,長野県,諏訪郡下諏訪町,菅野町,ナガノケン,スワグンシモスワマチ,スゲノマチ,長野県諏訪郡下諏訪町菅野町
3930055,長野県,諏訪郡下諏訪町,富士見町,ナガノケン,スワグンシモスワマチ,フジミチョウ,長野県諏訪郡下諏訪町富士見町
3930056,長野県,諏訪郡下諏訪町,広瀬町,ナガノケン,スワグンシモスワマチ,ヒロセチョウ,長野県諏訪郡下諏訪町広瀬町
3930057,長野県,諏訪郡下諏訪町,友之町,ナガノケン,スワグンシモスワマチ,トモノマチ,長野県諏訪郡下諏訪町友之町
3930061,長野県,諏訪郡下諏訪町,御田町,ナガノケン,スワグンシモスワマチ,ミタマチ,長野県諏訪郡下諏訪町御田町
3930062,長野県,諏訪郡下諏訪町,平沢町,ナガノケン,スワグンシモスワマチ,ヒラサワチョウ,長野県諏訪郡下諏訪町平沢町
3930063,長野県,諏訪郡下諏訪町,花咲町,ナガノケン,スワグンシモスワマチ,ハナサキチョウ,長野県諏訪郡下諏訪町花咲町
3930064,長野県,諏訪郡下諏訪町,中汐町,ナガノケン,スワグンシモスワマチ,ナカシオチョウ,長野県諏訪郡下諏訪町中汐町
3930065,長野県,諏訪郡下諏訪町,魁町,ナガノケン,スワグンシモスワマチ,サキガケチョウ,長野県諏訪郡下諏訪町魁町
3930066,長野県,諏訪郡下諏訪町,曙町,ナガノケン,スワグンシモスワマチ,アケボノチョウ,長野県諏訪郡下諏訪町曙町
3930067,長野県,諏訪郡下諏訪町,矢木東,ナガノケン,スワグンシモスワマチ,ヤギヒガシ,長野県諏訪郡下諏訪町矢木東
3930068,長野県,諏訪郡下諏訪町,春日町,ナガノケン,スワグンシモスワマチ,カスガチョウ,長野県諏訪郡下諏訪町春日町
3930071,長野県,諏訪郡下諏訪町,仲町,ナガノケン,スワグンシモスワマチ,ナカマチ,長野県諏訪郡下諏訪町仲町
3930072,長野県,諏訪郡下諏訪町,桜町,ナガノケン,スワグンシモスワマチ,サクラマチ,長野県諏訪郡下諏訪町桜町
3930073,長野県,諏訪郡下諏訪町,塚田町,ナガノケン,スワグンシモスワマチ,ツカダマチ,長野県諏訪郡下諏訪町塚田町
3930074,長野県,諏訪郡下諏訪町,緑町,ナガノケン,スワグンシモスワマチ,ミドリマチ,長野県諏訪郡下諏訪町緑町
3930075,長野県,諏訪郡下諏訪町,中央通,ナガノケン,スワグンシモスワマチ,チュウオウドオリ,長野県諏訪郡下諏訪町中央通
3930076,長野県,諏訪郡下諏訪町,矢木西,ナガノケン,スワグンシモスワマチ,ヤギニシ,長野県諏訪郡下諏訪町矢木西
3930077,長野県,諏訪郡下諏訪町,矢木町,ナガノケン,スワグンシモスワマチ,ヤギマチ,長野県諏訪郡下諏訪町矢木町
3930078,長野県,諏訪郡下諏訪町,田中町,ナガノケン,スワグンシモスワマチ,タナカマチ,長野県諏訪郡下諏訪町田中町
3930081,長野県,諏訪郡下諏訪町,社東町,ナガノケン,スワグンシモスワマチ,ヤシロヒガシマチ,長野県諏訪郡下諏訪町社東町
3930082,長野県,諏訪郡下諏訪町,西弥生町,ナガノケン,スワグンシモスワマチ,ニシヤヨイチョウ,長野県諏訪郡下諏訪町西弥生町
3930083,長野県,諏訪郡下諏訪町,東弥生町,ナガノケン,スワグンシモスワマチ,ヒガシヤヨイチョウ,長野県諏訪郡下諏訪町東弥生町
3930084,長野県,諏訪郡下諏訪町,栄町,ナガノケン,スワグンシモスワマチ,サカエチョウ,長野県諏訪郡下諏訪町栄町
3930085,長野県,諏訪郡下諏訪町,東鷹野町,ナガノケン,スワグンシモスワマチ,ヒガシタカノマチ,長野県諏訪郡下諏訪町東鷹野町
3930086,長野県,諏訪郡下諏訪町,清水町,ナガノケン,スワグンシモスワマチ,シミズマチ,長野県諏訪郡下諏訪町清水町
3930087,長野県,諏訪郡下諏訪町,西鷹野町,ナガノケン,スワグンシモスワマチ,ニシタカノマチ,長野県諏訪郡下諏訪町西鷹野町
3930091,長野県,諏訪郡下諏訪町,星が丘,ナガノケン,スワグンシモスワマチ,ホシガオカ,長野県諏訪郡下諏訪町星が丘
3930092,長野県,諏訪郡下諏訪町,大門,ナガノケン,スワグンシモスワマチ,ダイモン,長野県諏訪郡下諏訪町大門
3930093,長野県,諏訪郡下諏訪町,東山田,ナガノケン,スワグンシモスワマチ,ヒガシヤマダ,長野県諏訪郡下諏訪町東山田
3940000,長野県,岡谷市,,ナガノケン,オカヤシ,,長野県岡谷市
3940001,長野県,岡谷市,今井,ナガノケン,オカヤシ,イマイ,長野県岡谷市今井
3940002,長野県,岡谷市,赤羽,ナガノケン,オカヤシ,アカハネ,長野県岡谷市赤羽
3940003,長野県,岡谷市,加茂町,ナガノケン,オカヤシ,カモチョウ,長野県岡谷市加茂町
3940004,長野県,岡谷市,神明町,ナガノケン,オカヤシ,シンメイチョウ,長野県岡谷市神明町
3940005,長野県,岡谷市,山下町,ナガノケン,オカヤシ,ヤマシタチョウ,長野県岡谷市山下町
3940011,長野県,岡谷市,長地,ナガノケン,オカヤシ,オサチ,長野県岡谷市長地
3940021,長野県,岡谷市,郷田,ナガノケン,オカヤシ,ゴウダ,長野県岡谷市郷田
3940022,長野県,岡谷市,銀座,ナガノケン,オカヤシ,ギンザ,長野県岡谷市銀座
3940023,長野県,岡谷市,東銀座,ナガノケン,オカヤシ,ヒガシギンザ,長野県岡谷市東銀座
3940024,長野県,岡谷市,堀ノ内,ナガノケン,オカヤシ,ホリノウチ,長野県岡谷市堀ノ内
3940025,長野県,岡谷市,大栄町,ナガノケン,オカヤシ,ダイエイチョウ,長野県岡谷市大栄町
3940026,長野県,岡谷市,塚間町,ナガノケン,オカヤシ,ツカマチョウ,長野県岡谷市塚間町
3940027,長野県,岡谷市,中央町,ナガノケン,オカヤシ,チュウオウチョウ,長野県岡谷市中央町
3940028,長野県,岡谷市,本町,ナガノケン,オカヤシ,ホンチョウ,長野県岡谷市本町
3940029,長野県,岡谷市,幸町,ナガノケン,オカヤシ,サイワイチョウ,長野県岡谷市幸町
3940031,長野県,岡谷市,田中町,ナガノケン,オカヤシ,タナカチョウ,長野県岡谷市田中町
3940032,長野県,岡谷市,若宮,ナガノケン,オカヤシ,ワカミヤ,長野県岡谷市若宮
3940033,長野県,岡谷市,南宮,ナガノケン,オカヤシ,ナングウ,長野県岡谷市南宮
3940034,長野県,岡谷市,湖畔,ナガノケン,オカヤシ,コハン,長野県岡谷市湖畔
3940035,長野県,岡谷市,天竜町,ナガノケン,オカヤシ,テンリュウチョウ,長野県岡谷市天竜町
3940041,長野県,岡谷市,山手町,ナガノケン,オカヤシ,ヤマテチョウ,長野県岡谷市山手町
3940042,長野県,岡谷市,成田町,ナガノケン,オカヤシ,ナルタチョウ,長野県岡谷市成田町
3940043,長野県,岡谷市,御倉町,ナガノケン,オカヤシ,オクラチョウ,長野県岡谷市御倉町
3940044,長野県,岡谷市,湊,ナガノケン,オカヤシ,ミナト,長野県岡谷市湊
3940045,長野県,岡谷市,川岸東,ナガノケン,オカヤシ,カワギシヒガシ,長野県岡谷市川岸東
3940046,長野県,岡谷市,川岸西,ナガノケン,オカヤシ,カワギシニシ,長野県岡谷市川岸西
3940047,長野県,岡谷市,川岸中,ナガノケン,オカヤシ,カワギシナカ,長野県岡谷市川岸中
3940048,長野県,岡谷市,川岸上,ナガノケン,オカヤシ,カワギシカミ,長野県岡谷市川岸上
3940051,長野県,岡谷市,塩嶺,ナガノケン,オカヤシ,エンレイ,長野県岡谷市塩嶺
3940052,長野県,岡谷市,西林,ナガノケン,オカヤシ,ニシバヤシ,長野県岡谷市西林
3940053,長野県,岡谷市,ヨギトギ沢,ナガノケン,オカヤシ,ヨギトギサワ,長野県岡谷市ヨギトギ沢
3940053,長野県,岡谷市,芦ノ沢,ナガノケン,オカヤシ,アシノサワ,長野県岡谷市芦ノ沢
3940054,長野県,岡谷市,半ノ木,ナガノケン,オカヤシ,ハンノキ,長野県岡谷市半ノ木
3940055,長野県,岡谷市,内山,ナガノケン,オカヤシ,ウチヤマ,長野県岡谷市内山
3940056,長野県,岡谷市,樋沢,ナガノケン,オカヤシ,ヒザワ,長野県岡谷市樋沢
3940081,長野県,岡谷市,長地権現町,ナガノケン,オカヤシ,オサチゴンゲンチョウ,長野県岡谷市長地権現町
3940082,長野県,岡谷市,長地御所,ナガノケン,オカヤシ,オサチゴショ,長野県岡谷市長地御所
3940083,長野県,岡谷市,長地柴宮,ナガノケン,オカヤシ,オサチシバミヤ,長野県岡谷市長地柴宮
3940084,長野県,岡谷市,長地片間町,ナガノケン,オカヤシ,オサチカタマチョウ,長野県岡谷市長地片間町
3940085,長野県,岡谷市,長地小萩,ナガノケン,オカヤシ,オサチコハギ,長野県岡谷市長地小萩
3940086,長野県,岡谷市,長地源,ナガノケン,オカヤシ,オサチミナモト,長野県岡谷市長地源
3940087,長野県,岡谷市,長地鎮,ナガノケン,オカヤシ,オサチシズメ,長野県岡谷市長地鎮
3940088,長野県,岡谷市,長地梨久保,ナガノケン,オカヤシ,オサチナシクボ,長野県岡谷市長地梨久保
3940089,長野県,岡谷市,長地出早,ナガノケン,オカヤシ,オサチイズハヤ,長野県岡谷市長地出早
3940091,長野県,岡谷市,,ナガノケン,オカヤシ,,長野県岡谷市
3950000,長野県,飯田市,,ナガノケン,イイダシ,,長野県飯田市
3950001,長野県,飯田市,座光寺,ナガノケン,イイダシ,ザコウジ,長野県飯田市座光寺
3950002,長野県,飯田市,上郷飯沼,ナガノケン,イイダシ,カミサトイイヌマ,長野県飯田市上郷飯沼
3950003,長野県,飯田市,上郷別府,ナガノケン,イイダシ,カミサトベップ,長野県飯田市上郷別府
3950004,長野県,飯田市,上郷黒田,ナガノケン,イイダシ,カミサトクロダ,長野県飯田市上郷黒田
3950011,長野県,飯田市,大門町,ナガノケン,イイダシ,ダイモンチョウ,長野県飯田市大門町
3950012,長野県,飯田市,大王路,ナガノケン,イイダシ,ダイオウジ,長野県飯田市大王路
3950013,長野県,飯田市,小伝馬町,ナガノケン,イイダシ,コデンマチョウ,長野県飯田市小伝馬町
3950014,長野県,飯田市,桜町,ナガノケン,イイダシ,サクラマチ,長野県飯田市桜町
3950015,長野県,飯田市,江戸町,ナガノケン,イイダシ,エドマチ,長野県飯田市江戸町
3950016,長野県,飯田市,伝馬町,ナガノケン,イイダシ,テンマチョウ,長野県飯田市伝馬町
3950017,長野県,飯田市,東新町,ナガノケン,イイダシ,トウシンチョウ,長野県飯田市東新町
3950018,長野県,飯田市,諏訪町,ナガノケン,イイダシ,スワチョウ,長野県飯田市諏訪町
3950021,長野県,飯田市,仲ノ町,ナガノケン,イイダシ,ナカノチョウ,長野県飯田市仲ノ町
3950022,長野県,飯田市,浜井町,ナガノケン,イイダシ,ハマイチョウ,長野県飯田市浜井町
3950023,長野県,飯田市,江戸浜町,ナガノケン,イイダシ,エドハマチョウ,長野県飯田市江戸浜町
3950024,長野県,飯田市,東栄町,ナガノケン,イイダシ,トウエイチョウ,長野県飯田市東栄町
3950025,長野県,飯田市,東中央通り,ナガノケン,イイダシ,ヒガシチュウオウドオリ,長野県飯田市東中央通り
3950026,長野県,飯田市,鼎西鼎,ナガノケン,イイダシ,カナエニシカナエ,長野県飯田市鼎西鼎
3950027,長野県,飯田市,馬場町,ナガノケン,イイダシ,ババンチョウ,長野県飯田市馬場町
3950028,長野県,飯田市,長姫町,ナガノケン,イイダシ,オサヒメチョウ,長野県飯田市長姫町
3950029,長野県,飯田市,二本松,ナガノケン,イイダシ,ニホンマツ,長野県飯田市二本松
3950031,長野県,飯田市,銀座,ナガノケン,イイダシ,ギンザ,長野県飯田市銀座
3950032,長野県,飯田市,主税町,ナガノケン,イイダシ,チカラマチ,長野県飯田市主税町
3950033,長野県,飯田市,常盤町,ナガノケン,イイダシ,トキワマチ,長野県飯田市常盤町
3950034,長野県,飯田市,追手町,ナガノケン,イイダシ,オウテマチ,長野県飯田市追手町
3950035,長野県,飯田市,水の手町,ナガノケン,イイダシ,ミズノテチョウ,長野県飯田市水の手町
3950036,長野県,飯田市,愛宕町,ナガノケン,イイダシ,アタゴチョウ,長野県飯田市愛宕町
3950037,長野県,飯田市,南常盤町,ナガノケン,イイダシ,ミナミトキワマチ,長野県飯田市南常盤町
3950041,長野県,飯田市,中央通り,ナガノケン,イイダシ,チュウオウドオリ,長野県飯田市中央通り
3950042,長野県,飯田市,松尾町,ナガノケン,イイダシ,マツオマチ,長野県飯田市松尾町
3950043,長野県,飯田市,通り町,ナガノケン,イイダシ,トオリマチ,長野県飯田市通り町
3950044,長野県,飯田市,本町,ナガノケン,イイダシ,ホンマチ,長野県飯田市本町
3950045,長野県,飯田市,知久町,ナガノケン,イイダシ,チクマチ,長野県飯田市知久町
3950046,長野県,飯田市,扇町,ナガノケン,イイダシ,オウギマチ,長野県飯田市扇町
3950048,長野県,飯田市,滝の沢,ナガノケン,イイダシ,タキノサワ,長野県飯田市滝の沢
3950051,長野県,飯田市,高羽町,ナガノケン,イイダシ,タカハチョウ,長野県飯田市高羽町
3950052,長野県,飯田市,元町,ナガノケン,イイダシ,モトマチ,長野県飯田市元町
3950053,長野県,飯田市,大久保町,ナガノケン,イイダシ,オオクボチョウ,長野県飯田市大久保町
3950054,長野県,飯田市,箕瀬町,ナガノケン,イイダシ,ミノゼチョウ,長野県飯田市箕瀬町
3950055,長野県,飯田市,旭町,ナガノケン,イイダシ,アサヒマチ,長野県飯田市旭町
3950056,長野県,飯田市,大通,ナガノケン,イイダシ,オオドオリ,長野県飯田市大通
3950061,長野県,飯田市,正永町,ナガノケン,イイダシ,ショウエイチョウ,長野県飯田市正永町
3950062,長野県,飯田市,砂払町,ナガノケン,イイダシ,スナハライチョウ,長野県飯田市砂払町
3950063,長野県,飯田市,羽場町,ナガノケン,イイダシ,ハバチョウ,長野県飯田市羽場町
3950064,長野県,飯田市,羽場仲畑,ナガノケン,イイダシ,ハバナカハタ,長野県飯田市羽場仲畑
3950065,長野県,飯田市,羽場上河原,ナガノケン,イイダシ,ハバカミガワラ,長野県飯田市羽場上河原
3950066,長野県,飯田市,羽場赤坂,ナガノケン,イイダシ,ハバアカサカ,長野県飯田市羽場赤坂
3950067,長野県,飯田市,羽場権現,ナガノケン,イイダシ,ハバゴンゲン,長野県飯田市羽場権現
3950068,長野県,飯田市,大休,ナガノケン,イイダシ,オオヤスミ,長野県飯田市大休
3950071,長野県,飯田市,今宮町,ナガノケン,イイダシ,イマミヤチョウ,長野県飯田市今宮町
3950072,長野県,飯田市,曙町,ナガノケン,イイダシ,アケボノチョウ,長野県飯田市曙町
3950073,長野県,飯田市,羽場坂町,ナガノケン,イイダシ,ハバザカチョウ,長野県飯田市羽場坂町
3950074,長野県,飯田市,松川町,ナガノケン,イイダシ,マツカワチョウ,長野県飯田市松川町
3950075,長野県,飯田市,白山通り,ナガノケン,イイダシ,ハクサンドオリ,長野県飯田市白山通り
3950076,長野県,飯田市,白山町,ナガノケン,イイダシ,ハクサンチョウ,長野県飯田市白山町
3950077,長野県,飯田市,丸山町,ナガノケン,イイダシ,マルヤマチョウ,長野県飯田市丸山町
3950081,長野県,飯田市,宮ノ上,ナガノケン,イイダシ,ミヤノウエ,長野県飯田市宮ノ上
3950082,長野県,飯田市,宮の前,ナガノケン,イイダシ,ミヤノマエ,長野県飯田市宮の前
3950083,長野県,飯田市,錦町,ナガノケン,イイダシ,ニシキチョウ,長野県飯田市錦町
3950084,長野県,飯田市,鈴加町,ナガノケン,イイダシ,スズカチョウ,長野県飯田市鈴加町
3950085,長野県,飯田市,吾妻町,ナガノケン,イイダシ,アズマチョウ,長野県飯田市吾妻町
3950086,長野県,飯田市,東和町,ナガノケン,イイダシ,トウワチョウ,長野県飯田市東和町
3950151,長野県,飯田市,北方,ナガノケン,イイダシ,キタガタ,長野県飯田市北方
3950152,長野県,飯田市,育良町,ナガノケン,イイダシ,イクラチョウ,長野県飯田市育良町
3950153,長野県,飯田市,上殿岡,ナガノケン,イイダシ,カミトノオカ,長野県飯田市上殿岡
3950154,長野県,飯田市,下殿岡,ナガノケン,イイダシ,シモトノオカ,長野県飯田市下殿岡
3950155,長野県,飯田市,三日市場,ナガノケン,イイダシ,ミッカイチバ,長野県飯田市三日市場
3950156,長野県,飯田市,中村,ナガノケン,イイダシ,ナカムラ,長野県飯田市中村
3950157,長野県,飯田市,大瀬木,ナガノケン,イイダシ,オオセギ,長野県飯田市大瀬木
3950241,長野県,飯田市,久米,ナガノケン,イイダシ,クメ,長野県飯田市久米
3950242,長野県,飯田市,竹佐,ナガノケン,イイダシ,タケサ,長野県飯田市竹佐
3950243,長野県,飯田市,箱川,ナガノケン,イイダシ,ハコガワ,長野県飯田市箱川
3950244,長野県,飯田市,山本,ナガノケン,イイダシ,ヤマモト,長野県飯田市山本
3950245,長野県,飯田市,山本二ツ山団地,ナガノケン,イイダシ,ヤマモトフタツヤマダンチ,長野県飯田市山本二ツ山団地
3950300,長野県,下伊那郡阿智村,,ナガノケン,シモイナグンアチムラ,,長野県下伊那郡阿智村
3950301,長野県,下伊那郡阿智村,春日,ナガノケン,シモイナグンアチムラ,カスガ,長野県下伊那郡阿智村春日
3950302,長野県,下伊那郡阿智村,伍和,ナガノケン,シモイナグンアチムラ,ゴカ,長野県下伊那郡阿智村伍和
3950303,長野県,下伊那郡阿智村,駒場,ナガノケン,シモイナグンアチムラ,コマバ,長野県下伊那郡阿智村駒場
3950304,長野県,下伊那郡阿智村,智里,ナガノケン,シモイナグンアチムラ,チサト,長野県下伊那郡阿智村智里
3950305,長野県,下伊那郡阿智村,駒,ナガノケン,シモイナグンアチムラ,コマ,長野県下伊那郡阿智村駒
3950401,長野県,下伊那郡阿智村,清内路,ナガノケン,シモイナグンアチムラ,セイナイジ,長野県下伊那郡阿智村清内路
3950501,長野県,下伊那郡阿智村,浪合,ナガノケン,シモイナグンアチムラ,ナミアイ,長野県下伊那郡阿智村浪合
3950601,長野県,下伊那郡平谷村,,ナガノケン,シモイナグンヒラヤムラ,,長野県下伊那郡平谷村
3950701,長野県,下伊那郡根羽村,,ナガノケン,シモイナグンネバムラ,,長野県下伊那郡根羽村
3950801,長野県,飯田市,鼎中平,ナガノケン,イイダシ,カナエナカダイラ,長野県飯田市鼎中平
3950802,長野県,飯田市,鼎下茶屋,ナガノケン,イイダシ,カナエシモチャヤ,長野県飯田市鼎下茶屋
3950803,長野県,飯田市,鼎下山,ナガノケン,イイダシ,カナエシモヤマ,長野県飯田市鼎下山
3950804,長野県,飯田市,鼎名古熊,ナガノケン,イイダシ,カナエナゴクマ,長野県飯田市鼎名古熊
3950805,長野県,飯田市,鼎一色,ナガノケン,イイダシ,カナエイッシキ,長野県飯田市鼎一色
3950806,長野県,飯田市,鼎上山,ナガノケン,イイダシ,カナエカミヤマ,長野県飯田市鼎上山
3950807,長野県,飯田市,鼎切石,ナガノケン,イイダシ,カナエキリイシ,長野県飯田市鼎切石
3950808,長野県,飯田市,鼎上茶屋,ナガノケン,イイダシ,カナエカミチャヤ,長野県飯田市鼎上茶屋
3950811,長野県,飯田市,松尾上溝,ナガノケン,イイダシ,マツオアゲミゾ,長野県飯田市松尾上溝
3950812,長野県,飯田市,松尾代田,ナガノケン,イイダシ,マツオシロダ,長野県飯田市松尾代田
3950813,長野県,飯田市,毛賀,ナガノケン,イイダシ,ケガ,長野県飯田市毛賀
3950814,長野県,飯田市,八幡町,ナガノケン,イイダシ,ヤワタマチ,長野県飯田市八幡町
3950815,長野県,飯田市,松尾常盤台,ナガノケン,イイダシ,マツオトキワダイ,長野県飯田市松尾常盤台
3950816,長野県,飯田市,松尾久井,ナガノケン,イイダシ,マツオヒサイ,長野県飯田市松尾久井
3950817,長野県,飯田市,鼎東鼎,ナガノケン,イイダシ,カナエヒガシカナエ,長野県飯田市鼎東鼎
3950821,長野県,飯田市,松尾新井,ナガノケン,イイダシ,マツオアライ,長野県飯田市松尾新井
3950822,長野県,飯田市,松尾寺所,ナガノケン,イイダシ,マツオテラドコ,長野県飯田市松尾寺所
3950823,長野県,飯田市,松尾明,ナガノケン,イイダシ,マツオミョウ,長野県飯田市松尾明
3950824,長野県,飯田市,松尾清水,ナガノケン,イイダシ,マツオシミズ,長野県飯田市松尾清水
3950825,長野県,飯田市,松尾城,ナガノケン,イイダシ,マツオジョウ,長野県飯田市松尾城
3950826,長野県,飯田市,松尾水城,ナガノケン,イイダシ,マツオミサジロ,長野県飯田市松尾水城
3951100,長野県,下伊那郡喬木村,,ナガノケン,シモイナグンタカギムラ,,長野県下伊那郡喬木村
3951101,長野県,下伊那郡喬木村,阿島,ナガノケン,シモイナグンタカギムラ,アジマ,長野県下伊那郡喬木村阿島
3951102,長野県,下伊那郡喬木村,加々須,ナガノケン,シモイナグンタカギムラ,カカス,長野県下伊那郡喬木村加々須
3951103,長野県,下伊那郡喬木村,大島,ナガノケン,シモイナグンタカギムラ,オオシマ,長野県下伊那郡喬木村大島
3951104,長野県,下伊那郡喬木村,氏乗,ナガノケン,シモイナグンタカギムラ,ウジノリ,長野県下伊那郡喬木村氏乗
3951105,長野県,下伊那郡喬木村,大和知,ナガノケン,シモイナグンタカギムラ,オオワチ,長野県下伊那郡喬木村大和知
3951106,長野県,下伊那郡喬木村,富田,ナガノケン,シモイナグンタカギムラ,トミダ,長野県下伊那郡喬木村富田
3951107,長野県,下伊那郡喬木村,小川,ナガノケン,シモイナグンタカギムラ,オガワ,長野県下伊那郡喬木村小川
3951108,長野県,下伊那郡喬木村,伊久間,ナガノケン,シモイナグンタカギムラ,イクマ,長野県下伊那郡喬木村伊久間
3960000,長野県,伊那市,,ナガノケン,イナシ,,長野県伊那市
3960001,長野県,伊那市,福島,ナガノケン,イナシ,フクジマ,長野県伊那市福島
3960002,長野県,伊那市,手良沢岡,ナガノケン,イナシ,テラサワオカ,長野県伊那市手良沢岡
3960003,長野県,伊那市,手良野口,ナガノケン,イナシ,テラノグチ,長野県伊那市手良野口
3960004,長野県,伊那市,手良中坪,ナガノケン,イナシ,テラナカツボ,長野県伊那市手良中坪
3960005,長野県,伊那市,野底,ナガノケン,イナシ,ノソコ,長野県伊那市野底
3960006,長野県,伊那市,上牧,ナガノケン,イナシ,カミマキ,長野県伊那市上牧
3960007,長野県,伊那市,若宮,ナガノケン,イナシ,ワカミヤ,長野県伊那市若宮
3960008,長野県,伊那市,上の原,ナガノケン,イナシ,ウエノハラ,長野県伊那市上の原
3960009,長野県,伊那市,日影,ナガノケン,イナシ,ヒカゲ,長野県伊那市日影
3960010,長野県,伊那市,境,ナガノケン,イナシ,サカイ,長野県伊那市境
3960011,長野県,伊那市,伊那部,ナガノケン,イナシ,イナベ,長野県伊那市伊那部
3960012,長野県,伊那市,上新田,ナガノケン,イナシ,カミシンデン,長野県伊那市上新田
3960013,長野県,伊那市,下新田,ナガノケン,イナシ,シモシンデン,長野県伊那市下新田
3960014,長野県,伊那市,狐島,ナガノケン,イナシ,キツネジマ,長野県伊那市狐島
3960015,長野県,伊那市,中央,ナガノケン,イナシ,チュウオウ,長野県伊那市中央
3960021,長野県,伊那市,伊那,ナガノケン,イナシ,イナ,長野県伊那市伊那
3960022,長野県,伊那市,御園,ナガノケン,イナシ,ミソノ,長野県伊那市御園
3960023,長野県,伊那市,山寺,ナガノケン,イナシ,ヤマデラ,長野県伊那市山寺
3960024,長野県,伊那市,坂下,ナガノケン,イナシ,サカシタ,長野県伊那市坂下
3960025,長野県,伊那市,荒井,ナガノケン,イナシ,アライ,長野県伊那市荒井
3960026,長野県,伊那市,西町,ナガノケン,イナシ,ニシマチ,長野県伊那市西町
3960027,長野県,伊那市,ますみヶ丘,ナガノケン,イナシ,マスミガオカ,長野県伊那市ますみヶ丘
3960028,長野県,伊那市,荒井内の萱,ナガノケン,イナシ,アライウチノカヤ,長野県伊那市荒井内の萱
3960029,長野県,伊那市,横山,ナガノケン,イナシ,ヨコヤマ,長野県伊那市横山
3960030,長野県,伊那市,平沢,ナガノケン,イナシ,ヒラサワ,長野県伊那市平沢
3960031,長野県,伊那市,中の原,ナガノケン,イナシ,ナカノハラ,長野県伊那市中の原
3960032,長野県,伊那市,小沢,ナガノケン,イナシ,オザワ,長野県伊那市小沢
3960033,長野県,伊那市,小四郎久保,ナガノケン,イナシ,コシロウクボ,長野県伊那市小四郎久保
3960111,長野県,伊那市,美篶,ナガノケン,イナシ,ミスズ,長野県伊那市美篶
3960112,長野県,伊那市,前原,ナガノケン,イナシ,マエハラ,長野県伊那市前原
3960113,長野県,伊那市,美原,ナガノケン,イナシ,ミハラ,長野県伊那市美原
3960114,長野県,伊那市,仙美,ナガノケン,イナシ,センミ,長野県伊那市仙美
3960211,長野県,伊那市,高遠町西高遠,ナガノケン,イナシ,タカトオマチニシタカトオ,長野県伊那市高遠町西高遠
3960212,長野県,伊那市,高遠町長藤（１〜６５８番地）,ナガノケン,イナシ,タカトオマチオサフジ(1-658バンチ),長野県伊那市高遠町長藤（1〜658-）
3960213,長野県,伊那市,高遠町東高遠,ナガノケン,イナシ,タカトオマチヒガシタカトオ,長野県伊那市高遠町東高遠
3960214,長野県,伊那市,高遠町勝間,ナガノケン,イナシ,タカトオマチカツマ,長野県伊那市高遠町勝間
3960215,長野県,伊那市,高遠町小原,ナガノケン,イナシ,タカトオマチオバラ,長野県伊那市高遠町小原
3960216,長野県,伊那市,高遠町下山田,ナガノケン,イナシ,タカトオマチシモヤマダ,長野県伊那市高遠町下山田
3960217,長野県,伊那市,高遠町上山田,ナガノケン,イナシ,タカトオマチカミヤマダ,長野県伊那市高遠町上山田
3960301,長野県,伊那市,高遠町藤沢,ナガノケン,イナシ,タカトオマチフジサワ,長野県伊那市高遠町藤沢
3960302,長野県,伊那市,高遠町芝平,ナガノケン,イナシ,タカトオマチシビラ,長野県伊那市高遠町芝平
3960303,長野県,伊那市,高遠町荊口,ナガノケン,イナシ,タカトオマチバラグチ,長野県伊那市高遠町荊口
3960304,長野県,伊那市,高遠町山室,ナガノケン,イナシ,タカトオマチヤマムロ,長野県伊那市高遠町山室
3960305,長野県,伊那市,高遠町長藤（その他）,ナガノケン,イナシ,タカトオマチオサフジ(ソノタ),長野県伊那市高遠町長藤（その他）
3960401,長野県,伊那市,長谷非持,ナガノケン,イナシ,ハセヒジ,長野県伊那市長谷非持
3960402,長野県,伊那市,長谷溝口,ナガノケン,イナシ,ハセミゾクチ,長野県伊那市長谷溝口
3960403,長野県,伊那市,長谷黒河内,ナガノケン,イナシ,ハセクロゴウチ,長野県伊那市長谷黒河内
3960404,長野県,伊那市,長谷中尾,ナガノケン,イナシ,ハセナカオ,長野県伊那市長谷中尾
3960405,長野県,伊那市,長谷市野瀬,ナガノケン,イナシ,ハセイチノセ,長野県伊那市長谷市野瀬
3960406,長野県,伊那市,長谷杉島,ナガノケン,イナシ,ハセスギシマ,長野県伊那市長谷杉島
3960407,長野県,伊那市,長谷浦,ナガノケン,イナシ,ハセウラ,長野県伊那市長谷浦
3960621,長野県,伊那市,富県,ナガノケン,イナシ,トミガタ,長野県伊那市富県
3970000,長野県,木曽郡木曽町,,ナガノケン,キソグンキソマチ,,長野県木曽郡木曽町
3970001,長野県,木曽郡木曽町,福島,ナガノケン,キソグンキソマチ,フクシマ,長野県木曽郡木曽町福島
3970002,長野県,木曽郡木曽町,新開,ナガノケン,キソグンキソマチ,シンカイ,長野県木曽郡木曽町新開
3970003,長野県,木曽郡木曽町,新開福,ナガノケン,キソグンキソマチ,シンカイフク,長野県木曽郡木曽町新開福
3970101,長野県,木曽郡木曽町,三岳,ナガノケン,キソグンキソマチ,ミタケ,長野県木曽郡木曽町三岳
3970201,長野県,木曽郡王滝村,,ナガノケン,キソグンオウタキムラ,,長野県木曽郡王滝村
3970301,長野県,木曽郡木曽町,開田高原末川,ナガノケン,キソグンキソマチ,カイダコウゲンスエカワ,長野県木曽郡木曽町開田高原末川
3970302,長野県,木曽郡木曽町,開田高原西野,ナガノケン,キソグンキソマチ,カイダコウゲンニシノ,長野県木曽郡木曽町開田高原西野
3980000,長野県,大町市,,ナガノケン,オオマチシ,,長野県大町市
3980001,長野県,大町市,平,ナガノケン,オオマチシ,タイラ,長野県大町市平
3980002,長野県,大町市,大町,ナガノケン,オオマチシ,オオマチ,長野県大町市大町
3980003,長野県,大町市,社,ナガノケン,オオマチシ,ヤシロ,長野県大町市社
3980004,長野県,大町市,常盤,ナガノケン,オオマチシ,トキワ,長野県大町市常盤
3990000,長野県,松本市,,ナガノケン,マツモトシ,,長野県松本市
3990001,長野県,松本市,宮田,ナガノケン,マツモトシ,ミヤタ,長野県松本市宮田
3990002,長野県,松本市,芳野,ナガノケン,マツモトシ,ヨシノ,長野県松本市芳野
3990004,長野県,松本市,市場,ナガノケン,マツモトシ,イチバ,長野県松本市市場
3990005,長野県,松本市,野溝木工,ナガノケン,マツモトシ,ノミゾモッコウ,長野県松本市野溝木工
3990006,長野県,松本市,野溝西,ナガノケン,マツモトシ,ノミゾニシ,長野県松本市野溝西
3990007,長野県,松本市,石芝（３、４丁目）,ナガノケン,マツモトシ,イシシバ(3、4チョウメ),長野県松本市石芝（3、4-）
3990011,長野県,松本市,寿北,ナガノケン,マツモトシ,コトブキキタ,長野県松本市寿北
3990012,長野県,松本市,寿白瀬渕,ナガノケン,マツモトシ,コトブキシラセブチ,長野県松本市寿白瀬渕
3990014,長野県,松本市,平田東,ナガノケン,マツモトシ,ヒラタヒガシ,長野県松本市平田東
3990015,長野県,松本市,平田西,ナガノケン,マツモトシ,ヒラタニシ,長野県松本市平田西
3990021,長野県,松本市,寿豊丘,ナガノケン,マツモトシ,コトブキトヨオカ,長野県松本市寿豊丘
3990022,長野県,松本市,松原,ナガノケン,マツモトシ,マツバラ,長野県松本市松原
3990023,長野県,松本市,内田,ナガノケン,マツモトシ,ウチダ,長野県松本市内田
3990024,長野県,松本市,寿小赤,ナガノケン,マツモトシ,コトブキコアカ,長野県松本市寿小赤
3990025,長野県,松本市,寿台,ナガノケン,マツモトシ,コトブキダイ,長野県松本市寿台
3990026,長野県,松本市,寿中,ナガノケン,マツモトシ,コトブキナカ,長野県松本市寿中
3990027,長野県,松本市,寿南,ナガノケン,マツモトシ,コトブキミナミ,長野県松本市寿南
3990033,長野県,松本市,笹賀,ナガノケン,マツモトシ,ササガ,長野県松本市笹賀
3990034,長野県,松本市,野溝東,ナガノケン,マツモトシ,ノミゾヒガシ,長野県松本市野溝東
3990035,長野県,松本市,村井町北,ナガノケン,マツモトシ,ムライマチキタ,長野県松本市村井町北
3990036,長野県,松本市,村井町南,ナガノケン,マツモトシ,ムライマチミナミ,長野県松本市村井町南
3990037,長野県,松本市,村井町西,ナガノケン,マツモトシ,ムライマチニシ,長野県松本市村井町西
3990038,長野県,松本市,小屋南,ナガノケン,マツモトシ,コヤミナミ,長野県松本市小屋南
3990039,長野県,松本市,小屋北,ナガノケン,マツモトシ,コヤキタ,長野県松本市小屋北
3990071,長野県,塩尻市,片丘（３６３５、３６８０、５７９４、６１１４番地）,ナガノケン,シオジリシ,カタオカ(3635、3680、5794、6114バンチ),長野県塩尻市片丘（3635、3680、5794、6114-）
3990101,長野県,諏訪郡富士見町,境,ナガノケン,スワグンフジミマチ,サカイ,長野県諏訪郡富士見町境
3990102,長野県,諏訪郡富士見町,落合（３０６０、３６００〜４６００番地）,ナガノケン,スワグンフジミマチ,オチアイ(3060、3600-4600バンチ),長野県諏訪郡富士見町落合（3060、3600〜4600-）
3990200,長野県,諏訪郡富士見町,,ナガノケン,スワグンフジミマチ,,長野県諏訪郡富士見町
3990211,長野県,諏訪郡富士見町,富士見（その他）,ナガノケン,スワグンフジミマチ,フジミ(ソノタ),長野県諏訪郡富士見町富士見（その他）
3990212,長野県,諏訪郡富士見町,立沢,ナガノケン,スワグンフジミマチ,タツザワ,長野県諏訪郡富士見町立沢
3990213,長野県,諏訪郡富士見町,乙事,ナガノケン,スワグンフジミマチ,オッコト,長野県諏訪郡富士見町乙事
3990214,長野県,諏訪郡富士見町,落合（その他）,ナガノケン,スワグンフジミマチ,オチアイ(ソノタ),長野県諏訪郡富士見町落合（その他）
3990400,長野県,上伊那郡辰野町,,ナガノケン,カミイナグンタツノマチ,,長野県上伊那郡辰野町
3990421,長野県,上伊那郡辰野町,辰野,ナガノケン,カミイナグンタツノマチ,タツノ,長野県上伊那郡辰野町辰野
3990422,長野県,上伊那郡辰野町,平出,ナガノケン,カミイナグンタツノマチ,ヒライデ,長野県上伊那郡辰野町平出
3990423,長野県,上伊那郡辰野町,沢底,ナガノケン,カミイナグンタツノマチ,サワソコ,長野県上伊那郡辰野町沢底
3990424,長野県,上伊那郡辰野町,赤羽,ナガノケン,カミイナグンタツノマチ,アカハネ,長野県上伊那郡辰野町赤羽
3990425,長野県,上伊那郡辰野町,樋口,ナガノケン,カミイナグンタツノマチ,ヒグチ,長野県上伊那郡辰野町樋口
3990426,長野県,上伊那郡辰野町,宮木,ナガノケン,カミイナグンタツノマチ,ミヤキ,長野県上伊那郡辰野町宮木
3990427,長野県,上伊那郡辰野町,中央,ナガノケン,カミイナグンタツノマチ,チュウオウ,長野県上伊那郡辰野町中央
3990428,長野県,上伊那郡辰野町,伊那富,ナガノケン,カミイナグンタツノマチ,イナトミ,長野県上伊那郡辰野町伊那富
3990511,長野県,上伊那郡辰野町,横川,ナガノケン,カミイナグンタツノマチ,ヨコカワ,長野県上伊那郡辰野町横川
3990512,長野県,上伊那郡辰野町,上島,ナガノケン,カミイナグンタツノマチ,カミジマ,長野県上伊那郡辰野町上島
3990601,長野県,上伊那郡辰野町,小野,ナガノケン,カミイナグンタツノマチ,オノ,長野県上伊那郡辰野町小野
3990651,長野県,塩尻市,北小野,ナガノケン,シオジリシ,キタオノ,長野県塩尻市北小野
3990700,長野県,塩尻市,,ナガノケン,シオジリシ,,長野県塩尻市
3990701,長野県,塩尻市,広丘吉田,ナガノケン,シオジリシ,ヒロオカヨシダ,長野県塩尻市広丘吉田
3990702,長野県,塩尻市,広丘野村,ナガノケン,シオジリシ,ヒロオカノムラ,長野県塩尻市広丘野村
3990703,長野県,塩尻市,広丘高出,ナガノケン,シオジリシ,ヒロオカタカイデ,長野県塩尻市広丘高出
3990704,長野県,塩尻市,広丘郷原,ナガノケン,シオジリシ,ヒロオカゴウバラ,長野県塩尻市広丘郷原
3990705,長野県,塩尻市,広丘堅石,ナガノケン,シオジリシ,ヒロオカカタイシ,長野県塩尻市広丘堅石
3990706,長野県,塩尻市,広丘原新田,ナガノケン,シオジリシ,ヒロオカハラシンデン,長野県塩尻市広丘原新田
3990711,長野県,塩尻市,片丘（その他）,ナガノケン,シオジリシ,カタオカ(ソノタ),長野県塩尻市片丘（その他）
3990712,長野県,塩尻市,塩尻町,ナガノケン,シオジリシ,シオジリマチ,長野県塩尻市塩尻町
3990713,長野県,塩尻市,大小屋,ナガノケン,シオジリシ,オオゴヤ,長野県塩尻市大小屋
3990714,長野県,塩尻市,堀ノ内,ナガノケン,シオジリシ,ホリノウチ,長野県塩尻市堀ノ内
3990715,長野県,塩尻市,長畝,ナガノケン,シオジリシ,ナガウネ,長野県塩尻市長畝
3990716,長野県,塩尻市,桟敷,ナガノケン,シオジリシ,サジキ,長野県塩尻市桟敷
3990721,長野県,塩尻市,金井,ナガノケン,シオジリシ,カナイ,長野県塩尻市金井
3990722,長野県,塩尻市,柿沢,ナガノケン,シオジリシ,カキザワ,長野県塩尻市柿沢
3990723,長野県,塩尻市,旧塩尻,ナガノケン,シオジリシ,キュウシオジリ,長野県塩尻市旧塩尻
3990724,長野県,塩尻市,上西条,ナガノケン,シオジリシ,カミニシジョウ,長野県塩尻市上西条
3990725,長野県,塩尻市,中西条,ナガノケン,シオジリシ,ナカニシジョウ,長野県塩尻市中西条
3990726,長野県,塩尻市,下西条,ナガノケン,シオジリシ,シモニシジョウ,長野県塩尻市下西条
3990727,長野県,塩尻市,みどり湖,ナガノケン,シオジリシ,ミドリコ,長野県塩尻市みどり湖
3990728,長野県,塩尻市,峰原,ナガノケン,シオジリシ,ミネハラ,長野県塩尻市峰原
3990731,長野県,塩尻市,大門六番町,ナガノケン,シオジリシ,ダイモン6バンチョウ,長野県塩尻市大門六番町
3990732,長野県,塩尻市,大門五番町,ナガノケン,シオジリシ,ダイモン5バンチョウ,長野県塩尻市大門五番町
3990733,長野県,塩尻市,大門三番町,ナガノケン,シオジリシ,ダイモン3バンチョウ,長野県塩尻市大門三番町
3990734,長野県,塩尻市,大門四番町,ナガノケン,シオジリシ,ダイモン4バンチョウ,長野県塩尻市大門四番町
3990735,長野県,塩尻市,大門二番町,ナガノケン,シオジリシ,ダイモン2バンチョウ,長野県塩尻市大門二番町
3990736,長野県,塩尻市,大門一番町,ナガノケン,シオジリシ,ダイモン1バンチョウ,長野県塩尻市大門一番町
3990737,長野県,塩尻市,大門八番町,ナガノケン,シオジリシ,ダイモン8バンチョウ,長野県塩尻市大門八番町
3990738,長野県,塩尻市,大門七番町,ナガノケン,シオジリシ,ダイモン7バンチョウ,長野県塩尻市大門七番町
3990741,長野県,塩尻市,大門幸町,ナガノケン,シオジリシ,ダイモンサイワイチョウ,長野県塩尻市大門幸町
3990742,長野県,塩尻市,大門泉町,ナガノケン,シオジリシ,ダイモンイズミチョウ,長野県塩尻市大門泉町
3990743,長野県,塩尻市,大門田川町,ナガノケン,シオジリシ,ダイモンタガワチョウ,長野県塩尻市大門田川町
3990744,長野県,塩尻市,大門七区,ナガノケン,シオジリシ,ダイモン7ク,長野県塩尻市大門七区
3990744,長野県,塩尻市,大門（番地）,ナガノケン,シオジリシ,ダイモン(バンチ),長野県塩尻市大門（番地）
3990745,長野県,塩尻市,大門桔梗町,ナガノケン,シオジリシ,ダイモンキキョウチョウ,長野県塩尻市大門桔梗町
3990746,長野県,塩尻市,大門並木町,ナガノケン,シオジリシ,ダイモンナミキチョウ,長野県塩尻市大門並木町
3991200,長野県,下伊那郡天龍村,,ナガノケン,シモイナグンテンリュウムラ,,長野県下伊那郡天龍村
3991201,長野県,下伊那郡天龍村,平岡,ナガノケン,シモイナグンテンリュウムラ,ヒラオカ,長野県下伊那郡天龍村平岡
3991202,長野県,下伊那郡天龍村,神原,ナガノケン,シモイナグンテンリュウムラ,カミハラ,長野県下伊那郡天龍村神原
3991203,長野県,下伊那郡天龍村,長島,ナガノケン,シモイナグンテンリュウムラ,ナガシマ,長野県下伊那郡天龍村長島
3991221,長野県,飯田市,南信濃南和田（万古）,ナガノケン,イイダシ,ミナミシナノミナミワダ(マンゴ),長野県飯田市南信濃南和田（万古）
3991311,長野県,飯田市,南信濃和田,ナガノケン,イイダシ,ミナミシナノワダ,長野県飯田市南信濃和田
3991312,長野県,飯田市,南信濃八重河内,ナガノケン,イイダシ,ミナミシナノヤエゴウチ,長野県飯田市南信濃八重河内
3991313,長野県,飯田市,南信濃南和田（その他）,ナガノケン,イイダシ,ミナミシナノミナミワダ(ソノタ),長野県飯田市南信濃南和田（その他）
3991401,長野県,飯田市,南信濃木沢,ナガノケン,イイダシ,ミナミシナノキザワ,長野県飯田市南信濃木沢
3991403,長野県,飯田市,上村,ナガノケン,イイダシ,カミムラ,長野県飯田市上村
3991500,長野県,下伊那郡阿南町,,ナガノケン,シモイナグンアナンチョウ,,長野県下伊那郡阿南町
3991501,長野県,下伊那郡阿南町,北條,ナガノケン,シモイナグンアナンチョウ,キタジョウ,長野県下伊那郡阿南町北條
3991502,長野県,下伊那郡阿南町,東條,ナガノケン,シモイナグンアナンチョウ,ヒガシジョウ,長野県下伊那郡阿南町東條
3991503,長野県,下伊那郡阿南町,南條,ナガノケン,シモイナグンアナンチョウ,ミナミジョウ,長野県下伊那郡阿南町南條
3991504,長野県,下伊那郡阿南町,西條,ナガノケン,シモイナグンアナンチョウ,ニシジョウ,長野県下伊那郡阿南町西條
3991505,長野県,下伊那郡阿南町,富草,ナガノケン,シモイナグンアナンチョウ,トミクサ,長野県下伊那郡阿南町富草
3991601,長野県,下伊那郡売木村,,ナガノケン,シモイナグンウルギムラ,,長野県下伊那郡売木村
3991611,長野県,下伊那郡阿南町,和合,ナガノケン,シモイナグンアナンチョウ,ワゴウ,長野県下伊那郡阿南町和合
3991612,長野県,下伊那郡阿南町,新野,ナガノケン,シモイナグンアナンチョウ,ニイノ,長野県下伊那郡阿南町新野
3991801,長野県,下伊那郡泰阜村,,ナガノケン,シモイナグンヤスオカムラ,,長野県下伊那郡泰阜村
3992100,長野県,下伊那郡下條村,,ナガノケン,シモイナグンシモジョウムラ,,長野県下伊那郡下條村
3992101,長野県,下伊那郡下條村,睦沢,ナガノケン,シモイナグンシモジョウムラ,ムツザワ,長野県下伊那郡下條村睦沢
3992102,長野県,下伊那郡下條村,陽皐,ナガノケン,シモイナグンシモジョウムラ,ヒサワ,長野県下伊那郡下條村陽皐
3992221,長野県,飯田市,龍江,ナガノケン,イイダシ,タツエ,長野県飯田市龍江
3992222,長野県,飯田市,千代,ナガノケン,イイダシ,チヨ,長野県飯田市千代
3992223,長野県,飯田市,千栄,ナガノケン,イイダシ,チハエ,長野県飯田市千栄
3992431,長野県,飯田市,川路,ナガノケン,イイダシ,カワジ,長野県飯田市川路
3992432,長野県,飯田市,下瀬,ナガノケン,イイダシ,シモゼ,長野県飯田市下瀬
3992433,長野県,飯田市,立石,ナガノケン,イイダシ,タテイシ,長野県飯田市立石
3992434,長野県,飯田市,伊豆木,ナガノケン,イイダシ,イズキ,長野県飯田市伊豆木
3992561,長野県,飯田市,駄科,ナガノケン,イイダシ,ダシナ,長野県飯田市駄科
3992562,長野県,飯田市,長野原,ナガノケン,イイダシ,ナガノハラ,長野県飯田市長野原
3992563,長野県,飯田市,時又,ナガノケン,イイダシ,トキマタ,長野県飯田市時又
3992564,長野県,飯田市,上川路,ナガノケン,イイダシ,カミカワジ,長野県飯田市上川路
3992565,長野県,飯田市,桐林,ナガノケン,イイダシ,キリバヤシ,長野県飯田市桐林
3992566,長野県,飯田市,嶋,ナガノケン,イイダシ,シマ,長野県飯田市嶋
3992601,長野県,飯田市,虎岩,ナガノケン,イイダシ,トライワ,長野県飯田市虎岩
3992602,長野県,飯田市,下久堅下虎岩,ナガノケン,イイダシ,シモヒサカタシモトライワ,長野県飯田市下久堅下虎岩
3992603,長野県,飯田市,下久堅知久平,ナガノケン,イイダシ,シモヒサカタチクダイラ,長野県飯田市下久堅知久平
3992604,長野県,飯田市,下久堅柿野沢,ナガノケン,イイダシ,シモヒサカタカキノサワ,長野県飯田市下久堅柿野沢
3992605,長野県,飯田市,下久堅小林,ナガノケン,イイダシ,シモヒサカタコバヤシ,長野県飯田市下久堅小林
3992606,長野県,飯田市,下久堅稲葉,ナガノケン,イイダシ,シモヒサカタイナバ,長野県飯田市下久堅稲葉
3992607,長野県,飯田市,下久堅南原,ナガノケン,イイダシ,シモヒサカタミナバラ,長野県飯田市下久堅南原
3992611,長野県,飯田市,上久堅,ナガノケン,イイダシ,カミヒサカタ,長野県飯田市上久堅
3992612,長野県,飯田市,上久堅戊,ナガノケン,イイダシ,カミヒサカタボ,長野県飯田市上久堅戊
3993100,長野県,下伊那郡高森町,,ナガノケン,シモイナグンタカモリマチ,,長野県下伊那郡高森町
3993101,長野県,下伊那郡高森町,山吹,ナガノケン,シモイナグンタカモリマチ,ヤマブキ,長野県下伊那郡高森町山吹
3993102,長野県,下伊那郡高森町,吉田,ナガノケン,シモイナグンタカモリマチ,ヨシダ,長野県下伊那郡高森町吉田
3993103,長野県,下伊那郡高森町,下市田,ナガノケン,シモイナグンタカモリマチ,シモイチダ,長野県下伊那郡高森町下市田
3993104,長野県,下伊那郡高森町,上市田,ナガノケン,シモイナグンタカモリマチ,カミイチダ,長野県下伊那郡高森町上市田
3993105,長野県,下伊那郡高森町,牛牧,ナガノケン,シモイナグンタカモリマチ,ウシマキ,長野県下伊那郡高森町牛牧
3993106,長野県,下伊那郡高森町,大島山,ナガノケン,シモイナグンタカモリマチ,オオジマサン,長野県下伊那郡高森町大島山
3993107,長野県,下伊那郡高森町,出原,ナガノケン,シモイナグンタカモリマチ,イズハラ,長野県下伊那郡高森町出原
3993200,長野県,下伊那郡豊丘村,,ナガノケン,シモイナグントヨオカムラ,,長野県下伊那郡豊丘村
3993201,長野県,下伊那郡豊丘村,河野（その他）,ナガノケン,シモイナグントヨオカムラ,カワノ(ソノタ),長野県下伊那郡豊丘村河野（その他）
3993202,長野県,下伊那郡豊丘村,神稲,ナガノケン,シモイナグントヨオカムラ,クマシロ,長野県下伊那郡豊丘村神稲
3993300,長野県,下伊那郡松川町,,ナガノケン,シモイナグンマツカワマチ,,長野県下伊那郡松川町
3993301,長野県,下伊那郡松川町,上片桐,ナガノケン,シモイナグンマツカワマチ,カミカタギリ,長野県下伊那郡松川町上片桐
3993302,長野県,下伊那郡松川町,生田,ナガノケン,シモイナグンマツカワマチ,イクタ,長野県下伊那郡松川町生田
3993303,長野県,下伊那郡松川町,元大島,ナガノケン,シモイナグンマツカワマチ,モトオオジマ,長野県下伊那郡松川町元大島
3993304,長野県,下伊那郡松川町,大島,ナガノケン,シモイナグンマツカワマチ,オオジマ,長野県下伊那郡松川町大島
3993311,長野県,下伊那郡豊丘村,河野（７５３０〜７５９０番地）,ナガノケン,シモイナグントヨオカムラ,カワノ(7530-7590バンチ),長野県下伊那郡豊丘村河野（7530〜7590-）
3993500,長野県,下伊那郡大鹿村,,ナガノケン,シモイナグンオオシカムラ,,長野県下伊那郡大鹿村
3993501,長野県,下伊那郡大鹿村,鹿塩,ナガノケン,シモイナグンオオシカムラ,カシオ,長野県下伊那郡大鹿村鹿塩
3993502,長野県,下伊那郡大鹿村,大河原,ナガノケン,シモイナグンオオシカムラ,オオカワラ,長野県下伊那郡大鹿村大河原
3993700,長野県,上伊那郡飯島町,,ナガノケン,カミイナグンイイジママチ,,長野県上伊那郡飯島町
3993701,長野県,上伊那郡飯島町,田切,ナガノケン,カミイナグンイイジママチ,タギリ,長野県上伊那郡飯島町田切
3993702,長野県,上伊那郡飯島町,飯島,ナガノケン,カミイナグンイイジママチ,イイジマ,長野県上伊那郡飯島町飯島
3993703,長野県,上伊那郡飯島町,日曽利,ナガノケン,カミイナグンイイジママチ,ヒッソリ,長野県上伊那郡飯島町日曽利
3993704,長野県,上伊那郡飯島町,本郷,ナガノケン,カミイナグンイイジママチ,ホンゴウ,長野県上伊那郡飯島町本郷
3993705,長野県,上伊那郡飯島町,七久保,ナガノケン,カミイナグンイイジママチ,ナナクボ,長野県上伊那郡飯島町七久保
3993800,長野県,上伊那郡中川村,,ナガノケン,カミイナグンナカガワムラ,,長野県上伊那郡中川村
3993801,長野県,上伊那郡中川村,大草,ナガノケン,カミイナグンナカガワムラ,オオクサ,長野県上伊那郡中川村大草
3993802,長野県,上伊那郡中川村,片桐,ナガノケン,カミイナグンナカガワムラ,カタギリ,長野県上伊那郡中川村片桐
3993803,長野県,上伊那郡中川村,葛島,ナガノケン,カミイナグンナカガワムラ,カツラシマ,長野県上伊那郡中川村葛島
3993804,長野県,上伊那郡中川村,四徳,ナガノケン,カミイナグンナカガワムラ,シトク,長野県上伊那郡中川村四徳
3994100,長野県,駒ヶ根市,,ナガノケン,コマガネシ,,長野県駒ヶ根市
3994101,長野県,駒ヶ根市,下平（その他）,ナガノケン,コマガネシ,シモダイラ(ソノタ),長野県駒ヶ根市下平（その他）
3994102,長野県,駒ヶ根市,飯坂,ナガノケン,コマガネシ,イイザカ,長野県駒ヶ根市飯坂
3994103,長野県,駒ヶ根市,梨の木,ナガノケン,コマガネシ,ナシノキ,長野県駒ヶ根市梨の木
3994104,長野県,駒ヶ根市,経塚,ナガノケン,コマガネシ,キョウヅカ,長野県駒ヶ根市経塚
3994105,長野県,駒ヶ根市,赤須東,ナガノケン,コマガネシ,アカズヒガシ,長野県駒ヶ根市赤須東
3994106,長野県,駒ヶ根市,東町,ナガノケン,コマガネシ,ヒガシマチ,長野県駒ヶ根市東町
3994107,長野県,駒ヶ根市,南田,ナガノケン,コマガネシ,ミナミダ,長野県駒ヶ根市南田
3994108,長野県,駒ヶ根市,下市場,ナガノケン,コマガネシ,シモイチバ,長野県駒ヶ根市下市場
3994111,長野県,駒ヶ根市,北町,ナガノケン,コマガネシ,キタマチ,長野県駒ヶ根市北町
3994112,長野県,駒ヶ根市,中央,ナガノケン,コマガネシ,チュウオウ,長野県駒ヶ根市中央
3994113,長野県,駒ヶ根市,赤須町,ナガノケン,コマガネシ,アカズマチ,長野県駒ヶ根市赤須町
3994114,長野県,駒ヶ根市,上穂南,ナガノケン,コマガネシ,ウワブミナミ,長野県駒ヶ根市上穂南
3994115,長野県,駒ヶ根市,上穂栄町,ナガノケン,コマガネシ,ウワブサカエマチ,長野県駒ヶ根市上穂栄町
3994116,長野県,駒ヶ根市,上穂北,ナガノケン,コマガネシ,ウワブキタ,長野県駒ヶ根市上穂北
3994117,長野県,駒ヶ根市,赤穂,ナガノケン,コマガネシ,アカホ,長野県駒ヶ根市赤穂
3994231,長野県,駒ヶ根市,中沢,ナガノケン,コマガネシ,ナカザワ,長野県駒ヶ根市中沢
3994232,長野県,駒ヶ根市,下平（２０７０〜２１１９、２３０９〜２３１１、２４１９、２４２１〜２４２６,ナガノケン,コマガネシ,シモダイラ(2070-2119、2309-2311、2419、2421-2426,長野県駒ヶ根市下平（2070〜2119、2309〜2311、2419、2421〜2426
3994301,長野県,上伊那郡宮田村,,ナガノケン,カミイナグンミヤダムラ,,長野県上伊那郡宮田村
3994321,長野県,駒ヶ根市,東伊那,ナガノケン,コマガネシ,ヒガシイナ,長野県駒ヶ根市東伊那
3994431,長野県,伊那市,西春近,ナガノケン,イナシ,ニシハルチカ,長野県伊那市西春近
3994432,長野県,伊那市,東春近,ナガノケン,イナシ,ヒガシハルチカ,長野県伊那市東春近
3994501,長野県,伊那市,西箕輪,ナガノケン,イナシ,ニシミノワ,長野県伊那市西箕輪
3994511,長野県,上伊那郡南箕輪村,,ナガノケン,カミイナグンミナミミノワムラ,,長野県上伊那郡南箕輪村
3994600,長野県,上伊那郡箕輪町,,ナガノケン,カミイナグンミノワマチ,,長野県上伊那郡箕輪町
3994601,長野県,上伊那郡箕輪町,中箕輪,ナガノケン,カミイナグンミノワマチ,ナカミノワ,長野県上伊那郡箕輪町中箕輪
3994602,長野県,上伊那郡箕輪町,東箕輪,ナガノケン,カミイナグンミノワマチ,ヒガシミノワ,長野県上伊那郡箕輪町東箕輪
3994603,長野県,上伊那郡箕輪町,三日町,ナガノケン,カミイナグンミノワマチ,ミッカマチ,長野県上伊那郡箕輪町三日町
3994604,長野県,上伊那郡箕輪町,福与,ナガノケン,カミイナグンミノワマチ,フクヨ,長野県上伊那郡箕輪町福与
3994605,長野県,上伊那郡箕輪町,中曽根,ナガノケン,カミイナグンミノワマチ,ナカゾネ,長野県上伊那郡箕輪町中曽根
3995300,長野県,木曽郡南木曽町,,ナガノケン,キソグンナギソマチ,,長野県木曽郡南木曽町
3995301,長野県,木曽郡南木曽町,読書,ナガノケン,キソグンナギソマチ,ヨミカキ,長野県木曽郡南木曽町読書
3995302,長野県,木曽郡南木曽町,吾妻,ナガノケン,キソグンナギソマチ,アヅマ,長野県木曽郡南木曽町吾妻
3995303,長野県,木曽郡南木曽町,田立,ナガノケン,キソグンナギソマチ,タダチ,長野県木曽郡南木曽町田立
3995500,長野県,木曽郡大桑村,,ナガノケン,キソグンオオクワムラ,,長野県木曽郡大桑村
3995501,長野県,木曽郡大桑村,殿,ナガノケン,キソグンオオクワムラ,トノ,長野県木曽郡大桑村殿
3995502,長野県,木曽郡大桑村,須原,ナガノケン,キソグンオオクワムラ,スハラ,長野県木曽郡大桑村須原
3995503,長野県,木曽郡大桑村,長野,ナガノケン,キソグンオオクワムラ,ナガノ,長野県木曽郡大桑村長野
3995504,長野県,木曽郡大桑村,野尻,ナガノケン,キソグンオオクワムラ,ノジリ,長野県木曽郡大桑村野尻
3995600,長野県,木曽郡上松町,,ナガノケン,キソグンアゲマツマチ,,長野県木曽郡上松町
3995601,長野県,木曽郡上松町,上松,ナガノケン,キソグンアゲマツマチ,アゲマツ,長野県木曽郡上松町上松
3995602,長野県,木曽郡上松町,本町通り,ナガノケン,キソグンアゲマツマチ,ホンマチドオリ,長野県木曽郡上松町本町通り
3995603,長野県,木曽郡上松町,駅前通り,ナガノケン,キソグンアゲマツマチ,エキマエドオリ,長野県木曽郡上松町駅前通り
3995604,長野県,木曽郡上松町,正島町,ナガノケン,キソグンアゲマツマチ,ショウジママチ,長野県木曽郡上松町正島町
3995605,長野県,木曽郡上松町,栄町,ナガノケン,キソグンアゲマツマチ,サカエマチ,長野県木曽郡上松町栄町
3995606,長野県,木曽郡上松町,緑町,ナガノケン,キソグンアゲマツマチ,ミドリマチ,長野県木曽郡上松町緑町
3995607,長野県,木曽郡上松町,小川,ナガノケン,キソグンアゲマツマチ,オガワ,長野県木曽郡上松町小川
3995608,長野県,木曽郡上松町,荻原,ナガノケン,キソグンアゲマツマチ,オギハラ,長野県木曽郡上松町荻原
3995609,長野県,木曽郡上松町,旭町,ナガノケン,キソグンアゲマツマチ,アサヒマチ,長野県木曽郡上松町旭町
3996101,長野県,木曽郡木曽町,日義,ナガノケン,キソグンキソマチ,ヒヨシ,長野県木曽郡木曽町日義
3996200,長野県,木曽郡木祖村,,ナガノケン,キソグンキソムラ,,長野県木曽郡木祖村
3996201,長野県,木曽郡木祖村,薮原,ナガノケン,キソグンキソムラ,ヤブハラ,長野県木曽郡木祖村薮原
3996202,長野県,木曽郡木祖村,菅,ナガノケン,キソグンキソムラ,スゲ,長野県木曽郡木祖村菅
3996203,長野県,木曽郡木祖村,小木曽,ナガノケン,キソグンキソムラ,オギソ,長野県木曽郡木祖村小木曽
3996301,長野県,塩尻市,贄川,ナガノケン,シオジリシ,ニエカワ,長野県塩尻市贄川
3996302,長野県,塩尻市,木曽平沢,ナガノケン,シオジリシ,キソヒラサワ,長野県塩尻市木曽平沢
3996303,長野県,塩尻市,奈良井,ナガノケン,シオジリシ,ナライ,長野県塩尻市奈良井
3996461,長野県,塩尻市,宗賀,ナガノケン,シオジリシ,ソウガ,長野県塩尻市宗賀
3996462,長野県,塩尻市,洗馬,ナガノケン,シオジリシ,セバ,長野県塩尻市洗馬
3997101,長野県,安曇野市,明科東川手,ナガノケン,アヅミノシ,アカシナヒガシカワテ,長野県安曇野市明科東川手
3997102,長野県,安曇野市,明科中川手,ナガノケン,アヅミノシ,アカシナナカガワテ,長野県安曇野市明科中川手
3997103,長野県,安曇野市,明科光,ナガノケン,アヅミノシ,アカシナヒカル,長野県安曇野市明科光
3997104,長野県,安曇野市,明科七貴,ナガノケン,アヅミノシ,アカシナナナキ,長野県安曇野市明科七貴
3997105,長野県,安曇野市,明科南陸郷,ナガノケン,アヅミノシ,アカシナミナミリクゴウ,長野県安曇野市明科南陸郷
3997200,長野県,東筑摩郡生坂村,,ナガノケン,ヒガシチクマグンイクサカムラ,,長野県東筑摩郡生坂村
3997201,長野県,東筑摩郡生坂村,,ナガノケン,ヒガシチクマグンイクサカムラ,,長野県東筑摩郡生坂村
3997202,長野県,東筑摩郡生坂村,北陸郷,ナガノケン,ヒガシチクマグンイクサカムラ,キタリクゴウ,長野県東筑摩郡生坂村北陸郷
3997301,長野県,大町市,八坂,ナガノケン,オオマチシ,ヤサカ,長野県大町市八坂
3997302,長野県,大町市,八坂菖蒲,ナガノケン,オオマチシ,ヤサカショウブ,長野県大町市八坂菖蒲
3997311,長野県,東筑摩郡生坂村,東広津,ナガノケン,ヒガシチクマグンイクサカムラ,ヒガシヒロツ,長野県東筑摩郡生坂村東広津
3997401,長野県,松本市,五常,ナガノケン,マツモトシ,ゴジョウ,長野県松本市五常
3997402,長野県,松本市,会田,ナガノケン,マツモトシ,アイダ,長野県松本市会田
3997403,長野県,松本市,穴沢,ナガノケン,マツモトシ,アナザワ,長野県松本市穴沢
3997404,長野県,松本市,取出,ナガノケン,マツモトシ,トリイデ,長野県松本市取出
3997405,長野県,松本市,板場,ナガノケン,マツモトシ,イタバ,長野県松本市板場
3997411,長野県,松本市,中川,ナガノケン,マツモトシ,ナカガワ,長野県松本市中川
3997412,長野県,松本市,保福寺町,ナガノケン,マツモトシ,ホフクジマチ,長野県松本市保福寺町
3997413,長野県,松本市,金山町,ナガノケン,マツモトシ,カナヤママチ,長野県松本市金山町
3997414,長野県,松本市,殿野入,ナガノケン,マツモトシ,トノノイリ,長野県松本市殿野入
3997415,長野県,松本市,赤怒田,ナガノケン,マツモトシ,アカヌタ,長野県松本市赤怒田
3997416,長野県,松本市,七嵐,ナガノケン,マツモトシ,ナナアラシ,長野県松本市七嵐
3997417,長野県,松本市,刈谷原町,ナガノケン,マツモトシ,カリヤハラマチ,長野県松本市刈谷原町
3997418,長野県,松本市,反町,ナガノケン,マツモトシ,ソリマチ,長野県松本市反町
3997500,長野県,東筑摩郡筑北村,,ナガノケン,ヒガシチクマグンチクホクムラ,,長野県東筑摩郡筑北村
3997501,長野県,東筑摩郡筑北村,西条,ナガノケン,ヒガシチクマグンチクホクムラ,ニシジョウ,長野県東筑摩郡筑北村西条
3997502,長野県,東筑摩郡筑北村,東条,ナガノケン,ヒガシチクマグンチクホクムラ,ヒガシジョウ,長野県東筑摩郡筑北村東条
3997503,長野県,東筑摩郡筑北村,大沢新田,ナガノケン,ヒガシチクマグンチクホクムラ,オオサワシンデン,長野県東筑摩郡筑北村大沢新田
3997504,長野県,東筑摩郡筑北村,乱橋,ナガノケン,ヒガシチクマグンチクホクムラ,ミダレハシ,長野県東筑摩郡筑北村乱橋
3997601,長野県,東筑摩郡筑北村,坂北,ナガノケン,ヒガシチクマグンチクホクムラ,サカキタ,長野県東筑摩郡筑北村坂北
3997700,長野県,東筑摩郡麻績村,,ナガノケン,ヒガシチクマグンオミムラ,,長野県東筑摩郡麻績村
3997701,長野県,東筑摩郡麻績村,麻,ナガノケン,ヒガシチクマグンオミムラ,オ,長野県東筑摩郡麻績村麻
3997702,長野県,東筑摩郡麻績村,日,ナガノケン,ヒガシチクマグンオミムラ,ヒ,長野県東筑摩郡麻績村日
3997711,長野県,東筑摩郡筑北村,坂井,ナガノケン,ヒガシチクマグンチクホクムラ,サカイ,長野県東筑摩郡筑北村坂井
3998101,長野県,安曇野市,三郷明盛,ナガノケン,アヅミノシ,ミサトメイセイ,長野県安曇野市三郷明盛
3998102,長野県,安曇野市,三郷温,ナガノケン,アヅミノシ,ミサトユタカ,長野県安曇野市三郷温
3998103,長野県,安曇野市,三郷小倉,ナガノケン,アヅミノシ,ミサトオグラ,長野県安曇野市三郷小倉
3998200,長野県,安曇野市,,ナガノケン,アヅミノシ,,長野県安曇野市
3998201,長野県,安曇野市,豊科南穂高,ナガノケン,アヅミノシ,トヨシナミナミホタカ,長野県安曇野市豊科南穂高
3998202,長野県,安曇野市,豊科光,ナガノケン,アヅミノシ,トヨシナヒカル,長野県安曇野市豊科光
3998203,長野県,安曇野市,豊科田沢,ナガノケン,アヅミノシ,トヨシナタザワ,長野県安曇野市豊科田沢
3998204,長野県,安曇野市,豊科高家,ナガノケン,アヅミノシ,トヨシナタキベ,長野県安曇野市豊科高家
3998205,長野県,安曇野市,豊科,ナガノケン,アヅミノシ,トヨシナ,長野県安曇野市豊科
3998211,長野県,安曇野市,堀金烏川,ナガノケン,アヅミノシ,ホリガネカラスガワ,長野県安曇野市堀金烏川
3998212,長野県,安曇野市,堀金三田,ナガノケン,アヅミノシ,ホリガネミタ,長野県安曇野市堀金三田
3998251,長野県,松本市,島内（９８２０、９８２１、９８２３〜９８３０、９８６４番地以上）,ナガノケン,マツモトシ,シマウチ(9820、9821、9823-9830、9864バンチイジョウ),長野県松本市島内（9820、9821、9823〜9830、9864-以上）
3998301,長野県,安曇野市,穂高有明,ナガノケン,アヅミノシ,ホタカアリアケ,長野県安曇野市穂高有明
3998302,長野県,安曇野市,穂高北穂高,ナガノケン,アヅミノシ,ホタカキタホタカ,長野県安曇野市穂高北穂高
3998303,長野県,安曇野市,穂高,ナガノケン,アヅミノシ,ホタカ,長野県安曇野市穂高
3998304,長野県,安曇野市,穂高柏原,ナガノケン,アヅミノシ,ホタカカシワバラ,長野県安曇野市穂高柏原
3998305,長野県,安曇野市,穂高牧,ナガノケン,アヅミノシ,ホタカマキ,長野県安曇野市穂高牧
3998501,長野県,北安曇郡松川村,,ナガノケン,キタアヅミグンマツカワムラ,,長野県北安曇郡松川村
3998600,長野県,北安曇郡池田町,,ナガノケン,キタアヅミグンイケダマチ,,長野県北安曇郡池田町
3998601,長野県,北安曇郡池田町,池田,ナガノケン,キタアヅミグンイケダマチ,イケダ,長野県北安曇郡池田町池田
3998602,長野県,北安曇郡池田町,会染,ナガノケン,キタアヅミグンイケダマチ,アイソメ,長野県北安曇郡池田町会染
3998603,長野県,北安曇郡池田町,中鵜,ナガノケン,キタアヅミグンイケダマチ,ナカウ,長野県北安曇郡池田町中鵜
3998604,長野県,北安曇郡池田町,広津,ナガノケン,キタアヅミグンイケダマチ,ヒロツ,長野県北安曇郡池田町広津
3998605,長野県,北安曇郡池田町,陸郷,ナガノケン,キタアヅミグンイケダマチ,リクゴウ,長野県北安曇郡池田町陸郷
3999101,長野県,大町市,美麻,ナガノケン,オオマチシ,ミアサ,長野県大町市美麻
3999211,長野県,北安曇郡白馬村,神城,ナガノケン,キタアヅミグンハクバムラ,カミシロ,長野県北安曇郡白馬村神城
3999300,長野県,北安曇郡白馬村,,ナガノケン,キタアヅミグンハクバムラ,,長野県北安曇郡白馬村
3999301,長野県,北安曇郡白馬村,北城,ナガノケン,キタアヅミグンハクバムラ,ホクジョウ,長野県北安曇郡白馬村北城
3999400,長野県,北安曇郡小谷村,,ナガノケン,キタアヅミグンオタリムラ,,長野県北安曇郡小谷村
3999421,長野県,北安曇郡小谷村,中小谷,ナガノケン,キタアヅミグンオタリムラ,ナカオタリ,長野県北安曇郡小谷村中小谷
3999422,長野県,北安曇郡小谷村,千国,ナガノケン,キタアヅミグンオタリムラ,チクニ,長野県北安曇郡小谷村千国
3999511,長野県,北安曇郡小谷村,中土,ナガノケン,キタアヅミグンオタリムラ,ナカツチ,長野県北安曇郡小谷村中土
3999601,長野県,北安曇郡小谷村,北小谷,ナガノケン,キタアヅミグンオタリムラ,キタオタリ,長野県北安曇郡小谷村北小谷
9498321,長野県,下水内郡栄村,堺（１７５００〜１８５６０番地）,ナガノケン,シモミノチグンサカエムラ,サカイ(17500-18560バンチ),長野県下水内郡栄村堺（17500〜18560-）
