zipcode,prefecture_name,city,town,prefecture_kana,city_kana,town_kana,normalized_address
5000000,岐阜県,岐阜市,,ギフケン,ギフシ,,岐阜県岐阜市
5008001,岐阜県,岐阜市,鏡岩,ギフケン,ギフシ,カガミイワ,岐阜県岐阜市鏡岩
5008002,岐阜県,岐阜市,御手洗,ギフケン,ギフシ,ミタラシ,岐阜県岐阜市御手洗
5008003,岐阜県,岐阜市,大宮町,ギフケン,ギフシ,オオミヤチョウ,岐阜県岐阜市大宮町
5008004,岐阜県,岐阜市,千畳敷,ギフケン,ギフシ,センジョウジキ,岐阜県岐阜市千畳敷
5008005,岐阜県,岐阜市,上材木町,ギフケン,ギフシ,カミザイモクチョウ,岐阜県岐阜市上材木町
5008006,岐阜県,岐阜市,堤外,ギフケン,ギフシ,テイガイ,岐阜県岐阜市堤外
5008007,岐阜県,岐阜市,元浜町,ギフケン,ギフシ,モトハマチョウ,岐阜県岐阜市元浜町
5008008,岐阜県,岐阜市,玉井町,ギフケン,ギフシ,タマイチョウ,岐阜県岐阜市玉井町
5008009,岐阜県,岐阜市,湊町,ギフケン,ギフシ,ミナトマチ,岐阜県岐阜市湊町
5008011,岐阜県,岐阜市,木挽町,ギフケン,ギフシ,コビキチョウ,岐阜県岐阜市木挽町
5008012,岐阜県,岐阜市,山口町,ギフケン,ギフシ,ヤマグチチョウ,岐阜県岐阜市山口町
5008013,岐阜県,岐阜市,松下町,ギフケン,ギフシ,マツシタチョウ,岐阜県岐阜市松下町
5008014,岐阜県,岐阜市,夕陽ケ丘,ギフケン,ギフシ,ユウヒガオカ,岐阜県岐阜市夕陽ケ丘
5008015,岐阜県,岐阜市,松山町,ギフケン,ギフシ,マツヤマチョウ,岐阜県岐阜市松山町
5008016,岐阜県,岐阜市,松ケ枝町,ギフケン,ギフシ,マツガエチョウ,岐阜県岐阜市松ケ枝町
5008017,岐阜県,岐阜市,梶川町,ギフケン,ギフシ,カジカワチョウ,岐阜県岐阜市梶川町
5008018,岐阜県,岐阜市,大仏町,ギフケン,ギフシ,ダイブツチョウ,岐阜県岐阜市大仏町
5008019,岐阜県,岐阜市,益屋町,ギフケン,ギフシ,マスヤチョウ,岐阜県岐阜市益屋町
5008021,岐阜県,岐阜市,上茶屋町,ギフケン,ギフシ,カミチャヤマチ,岐阜県岐阜市上茶屋町
5008022,岐阜県,岐阜市,下茶屋町,ギフケン,ギフシ,シモチャヤマチ,岐阜県岐阜市下茶屋町
5008023,岐阜県,岐阜市,今町,ギフケン,ギフシ,イママチ,岐阜県岐阜市今町
5008024,岐阜県,岐阜市,上新町,ギフケン,ギフシ,カミシンマチ,岐阜県岐阜市上新町
5008025,岐阜県,岐阜市,久屋町,ギフケン,ギフシ,ヒサヤチョウ,岐阜県岐阜市久屋町
5008026,岐阜県,岐阜市,上大久和町,ギフケン,ギフシ,カミオオクワチョウ,岐阜県岐阜市上大久和町
5008027,岐阜県,岐阜市,中大桑町,ギフケン,ギフシ,ナカオオクワチョウ,岐阜県岐阜市中大桑町
5008028,岐阜県,岐阜市,西材木町,ギフケン,ギフシ,ニシザイモクチョウ,岐阜県岐阜市西材木町
5008029,岐阜県,岐阜市,東材木町,ギフケン,ギフシ,ヒガシザイモクチョウ,岐阜県岐阜市東材木町
5008031,岐阜県,岐阜市,蜂屋町,ギフケン,ギフシ,ハチヤチョウ,岐阜県岐阜市蜂屋町
5008032,岐阜県,岐阜市,中新町,ギフケン,ギフシ,ナカシンマチ,岐阜県岐阜市中新町
5008033,岐阜県,岐阜市,魚屋町,ギフケン,ギフシ,ウオヤチョウ,岐阜県岐阜市魚屋町
5008034,岐阜県,岐阜市,本町,ギフケン,ギフシ,ホンマチ,岐阜県岐阜市本町
5008035,岐阜県,岐阜市,布屋町,ギフケン,ギフシ,ヌノヤチョウ,岐阜県岐阜市布屋町
5008036,岐阜県,岐阜市,甚衛町,ギフケン,ギフシ,ジンエイチョウ,岐阜県岐阜市甚衛町
5008037,岐阜県,岐阜市,下新町,ギフケン,ギフシ,シモシンマチ,岐阜県岐阜市下新町
5008038,岐阜県,岐阜市,大工町,ギフケン,ギフシ,ダイクチョウ,岐阜県岐阜市大工町
5008039,岐阜県,岐阜市,下大桑町,ギフケン,ギフシ,シモオオクワチョウ,岐阜県岐阜市下大桑町
5008041,岐阜県,岐阜市,靱屋町,ギフケン,ギフシ,ウツボヤチョウ,岐阜県岐阜市靱屋町
5008042,岐阜県,岐阜市,末広町,ギフケン,ギフシ,スエヒロチョウ,岐阜県岐阜市末広町
5008043,岐阜県,岐阜市,伊奈波通,ギフケン,ギフシ,イナバドオリ,岐阜県岐阜市伊奈波通
5008044,岐阜県,岐阜市,万力町,ギフケン,ギフシ,マンリキチョウ,岐阜県岐阜市万力町
5008045,岐阜県,岐阜市,新桜町,ギフケン,ギフシ,シンサクラマチ,岐阜県岐阜市新桜町
5008046,岐阜県,岐阜市,米屋町,ギフケン,ギフシ,コメヤチョウ,岐阜県岐阜市米屋町
5008047,岐阜県,岐阜市,中竹屋町,ギフケン,ギフシ,ナカタケヤチョウ,岐阜県岐阜市中竹屋町
5008048,岐阜県,岐阜市,大和町,ギフケン,ギフシ,ヤマトマチ,岐阜県岐阜市大和町
5008049,岐阜県,岐阜市,上竹屋町,ギフケン,ギフシ,カミタケヤチョウ,岐阜県岐阜市上竹屋町
5008051,岐阜県,岐阜市,駿河山,ギフケン,ギフシ,スルガヤマ,岐阜県岐阜市駿河山
5008052,岐阜県,岐阜市,鶯谷,ギフケン,ギフシ,ウグイスダニ,岐阜県岐阜市鶯谷
5008053,岐阜県,岐阜市,鶯谷町,ギフケン,ギフシ,ウグイスダニチョウ,岐阜県岐阜市鶯谷町
5008054,岐阜県,岐阜市,大門町,ギフケン,ギフシ,ダイモンチョウ,岐阜県岐阜市大門町
5008055,岐阜県,岐阜市,笹土居町,ギフケン,ギフシ,ササドイチョウ,岐阜県岐阜市笹土居町
5008056,岐阜県,岐阜市,下竹町,ギフケン,ギフシ,シモタケチョウ,岐阜県岐阜市下竹町
5008057,岐阜県,岐阜市,上竹町,ギフケン,ギフシ,カミタケチョウ,岐阜県岐阜市上竹町
5008058,岐阜県,岐阜市,常盤町,ギフケン,ギフシ,トキワチョウ,岐阜県岐阜市常盤町
5008059,岐阜県,岐阜市,栄扇町,ギフケン,ギフシ,エイセンチョウ,岐阜県岐阜市栄扇町
5008061,岐阜県,岐阜市,小熊町,ギフケン,ギフシ,オグマチョウ,岐阜県岐阜市小熊町
5008062,岐阜県,岐阜市,初音町,ギフケン,ギフシ,ハツネチョウ,岐阜県岐阜市初音町
5008063,岐阜県,岐阜市,金屋横町,ギフケン,ギフシ,カナヤヨコチョウ,岐阜県岐阜市金屋横町
5008064,岐阜県,岐阜市,柳沢町,ギフケン,ギフシ,ヤナザワチョウ,岐阜県岐阜市柳沢町
5008065,岐阜県,岐阜市,金屋町,ギフケン,ギフシ,カナヤチョウ,岐阜県岐阜市金屋町
5008066,岐阜県,岐阜市,下太田町,ギフケン,ギフシ,シモオオタマチ,岐阜県岐阜市下太田町
5008067,岐阜県,岐阜市,秋津町,ギフケン,ギフシ,アキツマチ,岐阜県岐阜市秋津町
5008068,岐阜県,岐阜市,上太田町,ギフケン,ギフシ,カミオオタマチ,岐阜県岐阜市上太田町
5008069,岐阜県,岐阜市,今小町,ギフケン,ギフシ,イマコマチ,岐阜県岐阜市今小町
5008071,岐阜県,岐阜市,柳町,ギフケン,ギフシ,ヤナギマチ,岐阜県岐阜市柳町
5008072,岐阜県,岐阜市,緑町,ギフケン,ギフシ,ミドリマチ,岐阜県岐阜市緑町
5008073,岐阜県,岐阜市,泉町,ギフケン,ギフシ,イズミマチ,岐阜県岐阜市泉町
5008074,岐阜県,岐阜市,七軒町,ギフケン,ギフシ,ヒチケンチョウ,岐阜県岐阜市七軒町
5008075,岐阜県,岐阜市,室町,ギフケン,ギフシ,ムロマチ,岐阜県岐阜市室町
5008076,岐阜県,岐阜市,司町,ギフケン,ギフシ,ツカサマチ,岐阜県岐阜市司町
5008077,岐阜県,岐阜市,伊吹町,ギフケン,ギフシ,イブキチョウ,岐阜県岐阜市伊吹町
5008078,岐阜県,岐阜市,柳生町,ギフケン,ギフシ,ヤギュウチョウ,岐阜県岐阜市柳生町
5008079,岐阜県,岐阜市,御杉町,ギフケン,ギフシ,オスギチョウ,岐阜県岐阜市御杉町
5008081,岐阜県,岐阜市,啓運町,ギフケン,ギフシ,ケイウンチョウ,岐阜県岐阜市啓運町
5008082,岐阜県,岐阜市,矢島町,ギフケン,ギフシ,ヤジマチョウ,岐阜県岐阜市矢島町
5008083,岐阜県,岐阜市,間之町,ギフケン,ギフシ,アイノマチ,岐阜県岐阜市間之町
5008084,岐阜県,岐阜市,松屋町,ギフケン,ギフシ,マツヤチョウ,岐阜県岐阜市松屋町
5008085,岐阜県,岐阜市,白木町,ギフケン,ギフシ,シラキチョウ,岐阜県岐阜市白木町
5008086,岐阜県,岐阜市,木造町,ギフケン,ギフシ,キヅクリチョウ,岐阜県岐阜市木造町
5008087,岐阜県,岐阜市,堀江町,ギフケン,ギフシ,ホリエチョウ,岐阜県岐阜市堀江町
5008088,岐阜県,岐阜市,四屋町,ギフケン,ギフシ,ヨツヤチョウ,岐阜県岐阜市四屋町
5008089,岐阜県,岐阜市,若松町,ギフケン,ギフシ,ワカマツチョウ,岐阜県岐阜市若松町
5008101,岐阜県,岐阜市,多賀町,ギフケン,ギフシ,タガマチ,岐阜県岐阜市多賀町
5008102,岐阜県,岐阜市,粕森町,ギフケン,ギフシ,カシモリチョウ,岐阜県岐阜市粕森町
5008103,岐阜県,岐阜市,藍川町,ギフケン,ギフシ,アイカワチョウ,岐阜県岐阜市藍川町
5008104,岐阜県,岐阜市,美園町,ギフケン,ギフシ,ミソノチョウ,岐阜県岐阜市美園町
5008105,岐阜県,岐阜市,西園町,ギフケン,ギフシ,ニシゾノチョウ,岐阜県岐阜市西園町
5008106,岐阜県,岐阜市,東高岩町,ギフケン,ギフシ,ヒガシコウガンチョウ,岐阜県岐阜市東高岩町
5008107,岐阜県,岐阜市,高岩町,ギフケン,ギフシ,コウガンチョウ,岐阜県岐阜市高岩町
5008108,岐阜県,岐阜市,川端町,ギフケン,ギフシ,カワバタチョウ,岐阜県岐阜市川端町
5008109,岐阜県,岐阜市,朝日町,ギフケン,ギフシ,アサヒマチ,岐阜県岐阜市朝日町
5008111,岐阜県,岐阜市,梅林,ギフケン,ギフシ,バイリン,岐阜県岐阜市梅林
5008112,岐阜県,岐阜市,梅林南町,ギフケン,ギフシ,バイリンミナミマチ,岐阜県岐阜市梅林南町
5008113,岐阜県,岐阜市,金園町,ギフケン,ギフシ,カナゾノチョウ,岐阜県岐阜市金園町
5008114,岐阜県,岐阜市,金竜町,ギフケン,ギフシ,キンリュウチョウ,岐阜県岐阜市金竜町
5008115,岐阜県,岐阜市,田端町,ギフケン,ギフシ,タバタチョウ,岐阜県岐阜市田端町
5008116,岐阜県,岐阜市,殿町,ギフケン,ギフシ,トノマチ,岐阜県岐阜市殿町
5008117,岐阜県,岐阜市,南殿町,ギフケン,ギフシ,ミナミトノマチ,岐阜県岐阜市南殿町
5008118,岐阜県,岐阜市,寺町,ギフケン,ギフシ,テラマチ,岐阜県岐阜市寺町
5008119,岐阜県,岐阜市,梅林西町,ギフケン,ギフシ,バイリンニシマチ,岐阜県岐阜市梅林西町
5008121,岐阜県,岐阜市,上加納山,ギフケン,ギフシ,カミカノウヤマ,岐阜県岐阜市上加納山
5008122,岐阜県,岐阜市,旭見ケ池町,ギフケン,ギフシ,ヒミガイケチョウ,岐阜県岐阜市旭見ケ池町
5008123,岐阜県,岐阜市,雲竜町,ギフケン,ギフシ,ウンリュウチョウ,岐阜県岐阜市雲竜町
5008124,岐阜県,岐阜市,宝来町,ギフケン,ギフシ,ホウライチョウ,岐阜県岐阜市宝来町
5008125,岐阜県,岐阜市,城望町,ギフケン,ギフシ,ジョウボウチョウ,岐阜県岐阜市城望町
5008126,岐阜県,岐阜市,隆城町,ギフケン,ギフシ,リュウジョウチョウ,岐阜県岐阜市隆城町
5008127,岐阜県,岐阜市,塩町,ギフケン,ギフシ,シオマチ,岐阜県岐阜市塩町
5008128,岐阜県,岐阜市,花月町,ギフケン,ギフシ,カゲツチョウ,岐阜県岐阜市花月町
5008129,岐阜県,岐阜市,鶴見町,ギフケン,ギフシ,ツルミチョウ,岐阜県岐阜市鶴見町
5008131,岐阜県,岐阜市,月ノ会町,ギフケン,ギフシ,ツキノエチョウ,岐阜県岐阜市月ノ会町
5008132,岐阜県,岐阜市,尼ケ崎町,ギフケン,ギフシ,アマガサキチョウ,岐阜県岐阜市尼ケ崎町
5008133,岐阜県,岐阜市,永楽町,ギフケン,ギフシ,エイラクチョウ,岐阜県岐阜市永楽町
5008134,岐阜県,岐阜市,岩栄町,ギフケン,ギフシ,イワエイチョウ,岐阜県岐阜市岩栄町
5008135,岐阜県,岐阜市,織田塚町,ギフケン,ギフシ,オダヅカチョウ,岐阜県岐阜市織田塚町
5008136,岐阜県,岐阜市,雪見町,ギフケン,ギフシ,ユキミチョウ,岐阜県岐阜市雪見町
5008137,岐阜県,岐阜市,東興町,ギフケン,ギフシ,トウコウチョウ,岐阜県岐阜市東興町
5008138,岐阜県,岐阜市,中道北,ギフケン,ギフシ,ナカミチキタ,岐阜県岐阜市中道北
5008139,岐阜県,岐阜市,庵町,ギフケン,ギフシ,イオリマチ,岐阜県岐阜市庵町
5008141,岐阜県,岐阜市,月丘町,ギフケン,ギフシ,ツキオカチョウ,岐阜県岐阜市月丘町
5008142,岐阜県,岐阜市,花沢町,ギフケン,ギフシ,ハナザワチョウ,岐阜県岐阜市花沢町
5008143,岐阜県,岐阜市,瑞雲町,ギフケン,ギフシ,ズイウンチョウ,岐阜県岐阜市瑞雲町
5008144,岐阜県,岐阜市,東栄町,ギフケン,ギフシ,トウエイチョウ,岐阜県岐阜市東栄町
5008145,岐阜県,岐阜市,雲井町,ギフケン,ギフシ,クモイチョウ,岐阜県岐阜市雲井町
5008146,岐阜県,岐阜市,九重町,ギフケン,ギフシ,ココノエチョウ,岐阜県岐阜市九重町
5008147,岐阜県,岐阜市,三笠町,ギフケン,ギフシ,ミカサチョウ,岐阜県岐阜市三笠町
5008148,岐阜県,岐阜市,曙町,ギフケン,ギフシ,アケボノチョウ,岐阜県岐阜市曙町
5008149,岐阜県,岐阜市,戎町,ギフケン,ギフシ,エビスチョウ,岐阜県岐阜市戎町
5008151,岐阜県,岐阜市,大黒町,ギフケン,ギフシ,ダイコクマチ,岐阜県岐阜市大黒町
5008152,岐阜県,岐阜市,入舟町,ギフケン,ギフシ,イリフネチョウ,岐阜県岐阜市入舟町
5008153,岐阜県,岐阜市,石長町,ギフケン,ギフシ,イシナガチョウ,岐阜県岐阜市石長町
5008154,岐阜県,岐阜市,木ノ下町,ギフケン,ギフシ,キノシタチョウ,岐阜県岐阜市木ノ下町
5008155,岐阜県,岐阜市,市ノ坪町,ギフケン,ギフシ,イチノツボチョウ,岐阜県岐阜市市ノ坪町
5008156,岐阜県,岐阜市,祈年町,ギフケン,ギフシ,キネンチョウ,岐阜県岐阜市祈年町
5008157,岐阜県,岐阜市,五坪,ギフケン,ギフシ,ゴツボ,岐阜県岐阜市五坪
5008157,岐阜県,岐阜市,五坪町,ギフケン,ギフシ,ゴツボチョウ,岐阜県岐阜市五坪町
5008158,岐阜県,岐阜市,田神,ギフケン,ギフシ,タガミ,岐阜県岐阜市田神
5008159,岐阜県,岐阜市,田神町,ギフケン,ギフシ,タガミチョウ,岐阜県岐阜市田神町
5008161,岐阜県,岐阜市,茨木町,ギフケン,ギフシ,イバラギチョウ,岐阜県岐阜市茨木町
5008162,岐阜県,岐阜市,高尾町,ギフケン,ギフシ,タカオチョウ,岐阜県岐阜市高尾町
5008163,岐阜県,岐阜市,鶴舞町,ギフケン,ギフシ,ツルマイチョウ,岐阜県岐阜市鶴舞町
5008164,岐阜県,岐阜市,鶴田町,ギフケン,ギフシ,ツルタマチ,岐阜県岐阜市鶴田町
5008165,岐阜県,岐阜市,老松町,ギフケン,ギフシ,オイマツチョウ,岐阜県岐阜市老松町
5008166,岐阜県,岐阜市,天王町,ギフケン,ギフシ,テンノウチョウ,岐阜県岐阜市天王町
5008167,岐阜県,岐阜市,東金宝町,ギフケン,ギフシ,ヒガシキンポウチョウ,岐阜県岐阜市東金宝町
5008168,岐阜県,岐阜市,東駒爪町,ギフケン,ギフシ,ヒガシコマヅメチョウ,岐阜県岐阜市東駒爪町
5008169,岐阜県,岐阜市,溝旗町,ギフケン,ギフシ,ミゾバタチョウ,岐阜県岐阜市溝旗町
5008171,岐阜県,岐阜市,高森町,ギフケン,ギフシ,タカモリチョウ,岐阜県岐阜市高森町
5008172,岐阜県,岐阜市,白山町,ギフケン,ギフシ,ハクサンチョウ,岐阜県岐阜市白山町
5008173,岐阜県,岐阜市,田生越町,ギフケン,ギフシ,タショウゴエチョウ,岐阜県岐阜市田生越町
5008174,岐阜県,岐阜市,栗矢田町,ギフケン,ギフシ,クリヤダチョウ,岐阜県岐阜市栗矢田町
5008175,岐阜県,岐阜市,長住町,ギフケン,ギフシ,ナガズミチョウ,岐阜県岐阜市長住町
5008176,岐阜県,岐阜市,県町,ギフケン,ギフシ,アガタマチ,岐阜県岐阜市県町
5008177,岐阜県,岐阜市,長旗町,ギフケン,ギフシ,ナガハタチョウ,岐阜県岐阜市長旗町
5008178,岐阜県,岐阜市,清住町,ギフケン,ギフシ,キヨズミチョウ,岐阜県岐阜市清住町
5008179,岐阜県,岐阜市,元住町,ギフケン,ギフシ,モトズミチョウ,岐阜県岐阜市元住町
5008181,岐阜県,岐阜市,御浪町,ギフケン,ギフシ,オナミチョウ,岐阜県岐阜市御浪町
5008182,岐阜県,岐阜市,美殿町,ギフケン,ギフシ,ミトノチョウ,岐阜県岐阜市美殿町
5008183,岐阜県,岐阜市,一番町,ギフケン,ギフシ,イチバンチョウ,岐阜県岐阜市一番町
5008184,岐阜県,岐阜市,西駒爪町,ギフケン,ギフシ,ニシコマヅメチョウ,岐阜県岐阜市西駒爪町
5008185,岐阜県,岐阜市,元町,ギフケン,ギフシ,モトマチ,岐阜県岐阜市元町
5008186,岐阜県,岐阜市,霞町,ギフケン,ギフシ,カスミチョウ,岐阜県岐阜市霞町
5008187,岐阜県,岐阜市,吉津町,ギフケン,ギフシ,ヨシヅマチ,岐阜県岐阜市吉津町
5008188,岐阜県,岐阜市,二番町,ギフケン,ギフシ,ニバンチョウ,岐阜県岐阜市二番町
5008189,岐阜県,岐阜市,三番町,ギフケン,ギフシ,サンバンチョウ,岐阜県岐阜市三番町
5008207,岐阜県,岐阜市,日野北,ギフケン,ギフシ,ヒノキタ,岐阜県岐阜市日野北
5008211,岐阜県,岐阜市,日野東,ギフケン,ギフシ,ヒノヒガシ,岐阜県岐阜市日野東
5008212,岐阜県,岐阜市,日野南,ギフケン,ギフシ,ヒノミナミ,岐阜県岐阜市日野南
5008213,岐阜県,岐阜市,日野西,ギフケン,ギフシ,ヒノニシ,岐阜県岐阜市日野西
5008221,岐阜県,岐阜市,天池,ギフケン,ギフシ,アマイケ,岐阜県岐阜市天池
5008222,岐阜県,岐阜市,琴塚,ギフケン,ギフシ,コトヅカ,岐阜県岐阜市琴塚
5008223,岐阜県,岐阜市,水海道,ギフケン,ギフシ,ミズカイドウ,岐阜県岐阜市水海道
5008224,岐阜県,岐阜市,高田,ギフケン,ギフシ,タカタ,岐阜県岐阜市高田
5008225,岐阜県,岐阜市,岩地,ギフケン,ギフシ,イワチ,岐阜県岐阜市岩地
5008226,岐阜県,岐阜市,野一色,ギフケン,ギフシ,ノイッシキ,岐阜県岐阜市野一色
5008227,岐阜県,岐阜市,北一色,ギフケン,ギフシ,キタイッシキ,岐阜県岐阜市北一色
5008228,岐阜県,岐阜市,長森本町,ギフケン,ギフシ,ナガモリホンマチ,岐阜県岐阜市長森本町
5008229,岐阜県,岐阜市,長森岩戸,ギフケン,ギフシ,ナガモリイワド,岐阜県岐阜市長森岩戸
5008231,岐阜県,岐阜市,前一色西町,ギフケン,ギフシ,マエイッシキニシマチ,岐阜県岐阜市前一色西町
5008232,岐阜県,岐阜市,前一色,ギフケン,ギフシ,マエイッシキ,岐阜県岐阜市前一色
5008233,岐阜県,岐阜市,蔵前,ギフケン,ギフシ,クラノマエ,岐阜県岐阜市蔵前
5008234,岐阜県,岐阜市,芋島,ギフケン,ギフシ,イモジマ,岐阜県岐阜市芋島
5008235,岐阜県,岐阜市,東中島,ギフケン,ギフシ,ヒガシナカジマ,岐阜県岐阜市東中島
5008236,岐阜県,岐阜市,手力町,ギフケン,ギフシ,テヂカラチョウ,岐阜県岐阜市手力町
5008237,岐阜県,岐阜市,切通,ギフケン,ギフシ,キリドオシ,岐阜県岐阜市切通
5008238,岐阜県,岐阜市,細畑,ギフケン,ギフシ,ホソバタ,岐阜県岐阜市細畑
5008241,岐阜県,岐阜市,領下,ギフケン,ギフシ,リョウゲ,岐阜県岐阜市領下
5008242,岐阜県,岐阜市,細畑野寄,ギフケン,ギフシ,ホソバタノヨリ,岐阜県岐阜市細畑野寄
5008243,岐阜県,岐阜市,細畑華南,ギフケン,ギフシ,ホソバタカナン,岐阜県岐阜市細畑華南
5008244,岐阜県,岐阜市,細畑塚浦,ギフケン,ギフシ,ホソバタツカウラ,岐阜県岐阜市細畑塚浦
5008245,岐阜県,岐阜市,上川手,ギフケン,ギフシ,カミカワテ,岐阜県岐阜市上川手
5008246,岐阜県,岐阜市,下川手,ギフケン,ギフシ,シモカワテ,岐阜県岐阜市下川手
5008247,岐阜県,岐阜市,長森細畑,ギフケン,ギフシ,ナガモリホソバタ,岐阜県岐阜市長森細畑
5008251,岐阜県,岐阜市,加納御車町,ギフケン,ギフシ,カノウミクルマチョウ,岐阜県岐阜市加納御車町
5008252,岐阜県,岐阜市,加納舟田町,ギフケン,ギフシ,カノウフナダチョウ,岐阜県岐阜市加納舟田町
5008253,岐阜県,岐阜市,薬師町,ギフケン,ギフシ,ヤクシチョウ,岐阜県岐阜市薬師町
5008254,岐阜県,岐阜市,光樹町,ギフケン,ギフシ,コウキチョウ,岐阜県岐阜市光樹町
5008255,岐阜県,岐阜市,朝霧町,ギフケン,ギフシ,アサギリチョウ,岐阜県岐阜市朝霧町
5008256,岐阜県,岐阜市,八坂町,ギフケン,ギフシ,ヤサカチョウ,岐阜県岐阜市八坂町
5008257,岐阜県,岐阜市,東川手,ギフケン,ギフシ,ヒガシカワテ,岐阜県岐阜市東川手
5008258,岐阜県,岐阜市,西川手,ギフケン,ギフシ,ニシカワテ,岐阜県岐阜市西川手
5008259,岐阜県,岐阜市,水主町,ギフケン,ギフシ,カコマチ,岐阜県岐阜市水主町
5008261,岐阜県,岐阜市,茜部大野,ギフケン,ギフシ,アカナベオオノ,岐阜県岐阜市茜部大野
5008262,岐阜県,岐阜市,茜部本郷,ギフケン,ギフシ,アカナベホンゴウ,岐阜県岐阜市茜部本郷
5008263,岐阜県,岐阜市,茜部新所,ギフケン,ギフシ,アカナベシンショ,岐阜県岐阜市茜部新所
5008264,岐阜県,岐阜市,茜部辰新,ギフケン,ギフシ,アカナベタツシン,岐阜県岐阜市茜部辰新
5008265,岐阜県,岐阜市,茜部神清寺,ギフケン,ギフシ,アカナベシンセイジ,岐阜県岐阜市茜部神清寺
5008266,岐阜県,岐阜市,境川,ギフケン,ギフシ,サカイガワ,岐阜県岐阜市境川
5008267,岐阜県,岐阜市,茜部寺屋敷,ギフケン,ギフシ,アカナベテラヤシキ,岐阜県岐阜市茜部寺屋敷
5008268,岐阜県,岐阜市,茜部菱野,ギフケン,ギフシ,アカナベヒシノ,岐阜県岐阜市茜部菱野
5008269,岐阜県,岐阜市,茜部中島,ギフケン,ギフシ,アカナベナカシマ,岐阜県岐阜市茜部中島
5008271,岐阜県,岐阜市,加納堀田町,ギフケン,ギフシ,カノウホッタチョウ,岐阜県岐阜市加納堀田町
5008272,岐阜県,岐阜市,加納奥平町,ギフケン,ギフシ,カノウオクダイラチョウ,岐阜県岐阜市加納奥平町
5008273,岐阜県,岐阜市,加納矢場町,ギフケン,ギフシ,カノウヤバチョウ,岐阜県岐阜市加納矢場町
5008274,岐阜県,岐阜市,加納鷹匠町,ギフケン,ギフシ,カノウタカショウマチ,岐阜県岐阜市加納鷹匠町
5008275,岐阜県,岐阜市,加納花ノ木町,ギフケン,ギフシ,カノウハナノキチョウ,岐阜県岐阜市加納花ノ木町
5008276,岐阜県,岐阜市,加納南陽町,ギフケン,ギフシ,カノウナンヨウチョウ,岐阜県岐阜市加納南陽町
5008277,岐阜県,岐阜市,加納立花町,ギフケン,ギフシ,カノウタチバナチョウ,岐阜県岐阜市加納立花町
5008278,岐阜県,岐阜市,加納西山町,ギフケン,ギフシ,カノウニシヤマチョウ,岐阜県岐阜市加納西山町
5008279,岐阜県,岐阜市,加納梅田町,ギフケン,ギフシ,カノウウメダチョウ,岐阜県岐阜市加納梅田町
5008281,岐阜県,岐阜市,東鶉,ギフケン,ギフシ,ヒガシウズラ,岐阜県岐阜市東鶉
5008282,岐阜県,岐阜市,茜部大川,ギフケン,ギフシ,アカナベオオカワ,岐阜県岐阜市茜部大川
5008283,岐阜県,岐阜市,茜部野瀬,ギフケン,ギフシ,アカナベノセ,岐阜県岐阜市茜部野瀬
5008284,岐阜県,岐阜市,茜町,ギフケン,ギフシ,アカネチョウ,岐阜県岐阜市茜町
5008285,岐阜県,岐阜市,南鶉,ギフケン,ギフシ,ミナミウズラ,岐阜県岐阜市南鶉
5008286,岐阜県,岐阜市,西鶉,ギフケン,ギフシ,ニシウズラ,岐阜県岐阜市西鶉
5008287,岐阜県,岐阜市,北鶉,ギフケン,ギフシ,キタウズラ,岐阜県岐阜市北鶉
5008288,岐阜県,岐阜市,中鶉,ギフケン,ギフシ,ナカウズラ,岐阜県岐阜市中鶉
5008289,岐阜県,岐阜市,須賀,ギフケン,ギフシ,スガ,岐阜県岐阜市須賀
5008301,岐阜県,岐阜市,浪花町,ギフケン,ギフシ,ナニワチョウ,岐阜県岐阜市浪花町
5008302,岐阜県,岐阜市,本郷町,ギフケン,ギフシ,ホンゴウチョウ,岐阜県岐阜市本郷町
5008303,岐阜県,岐阜市,春日町,ギフケン,ギフシ,カスガマチ,岐阜県岐阜市春日町
5008304,岐阜県,岐阜市,柳川町,ギフケン,ギフシ,ヤナガワチョウ,岐阜県岐阜市柳川町
5008305,岐阜県,岐阜市,沖ノ橋町,ギフケン,ギフシ,オキノハシチョウ,岐阜県岐阜市沖ノ橋町
5008306,岐阜県,岐阜市,鍵屋東町,ギフケン,ギフシ,カギヤヒガシマチ,岐阜県岐阜市鍵屋東町
5008307,岐阜県,岐阜市,弁天町,ギフケン,ギフシ,ベンテンチョウ,岐阜県岐阜市弁天町
5008308,岐阜県,岐阜市,三橋町,ギフケン,ギフシ,ミツハシチョウ,岐阜県岐阜市三橋町
5008309,岐阜県,岐阜市,都通,ギフケン,ギフシ,ミヤコドオリ,岐阜県岐阜市都通
5008311,岐阜県,岐阜市,長者町,ギフケン,ギフシ,チョウジャマチ,岐阜県岐阜市長者町
5008312,岐阜県,岐阜市,村雨町,ギフケン,ギフシ,ムラサメチョウ,岐阜県岐阜市村雨町
5008313,岐阜県,岐阜市,鍵屋中町,ギフケン,ギフシ,カギヤナカマチ,岐阜県岐阜市鍵屋中町
5008314,岐阜県,岐阜市,鍵屋西町,ギフケン,ギフシ,カギヤニシマチ,岐阜県岐阜市鍵屋西町
5008315,岐阜県,岐阜市,島田東町,ギフケン,ギフシ,シマダヒガシマチ,岐阜県岐阜市島田東町
5008316,岐阜県,岐阜市,島田中町,ギフケン,ギフシ,シマダナカマチ,岐阜県岐阜市島田中町
5008317,岐阜県,岐阜市,島田西町,ギフケン,ギフシ,シマダニシマチ,岐阜県岐阜市島田西町
5008318,岐阜県,岐阜市,桜通,ギフケン,ギフシ,サクラドオリ,岐阜県岐阜市桜通
5008319,岐阜県,岐阜市,早田（１９７３〜２００９番地）,ギフケン,ギフシ,ソウデン(1973-2009バンチ),岐阜県岐阜市早田（1973〜2009-）
5008319,岐阜県,岐阜市,桜木町,ギフケン,ギフシ,サクラギチョウ,岐阜県岐阜市桜木町
5008321,岐阜県,岐阜市,菊井町,ギフケン,ギフシ,キクイチョウ,岐阜県岐阜市菊井町
5008322,岐阜県,岐阜市,香取町,ギフケン,ギフシ,カトリチョウ,岐阜県岐阜市香取町
5008323,岐阜県,岐阜市,鹿島町,ギフケン,ギフシ,カシマチョウ,岐阜県岐阜市鹿島町
5008324,岐阜県,岐阜市,早苗町,ギフケン,ギフシ,サナエチョウ,岐阜県岐阜市早苗町
5008325,岐阜県,岐阜市,寿町,ギフケン,ギフシ,コトブキチョウ,岐阜県岐阜市寿町
5008326,岐阜県,岐阜市,吹上町,ギフケン,ギフシ,フキアゲチョウ,岐阜県岐阜市吹上町
5008327,岐阜県,岐阜市,如月町,ギフケン,ギフシ,キサラギチョウ,岐阜県岐阜市如月町
5008328,岐阜県,岐阜市,五反田町,ギフケン,ギフシ,ゴタンダチョウ,岐阜県岐阜市五反田町
5008329,岐阜県,岐阜市,本荘町,ギフケン,ギフシ,ホンジョウチョウ,岐阜県岐阜市本荘町
5008331,岐阜県,岐阜市,錦町,ギフケン,ギフシ,ニシキチョウ,岐阜県岐阜市錦町
5008332,岐阜県,岐阜市,羽衣町,ギフケン,ギフシ,ハゴロモチョウ,岐阜県岐阜市羽衣町
5008333,岐阜県,岐阜市,此花町,ギフケン,ギフシ,コノハナチョウ,岐阜県岐阜市此花町
5008334,岐阜県,岐阜市,葭町,ギフケン,ギフシ,ヨシチョウ,岐阜県岐阜市葭町
5008335,岐阜県,岐阜市,三歳町,ギフケン,ギフシ,ミトセチョウ,岐阜県岐阜市三歳町
5008336,岐阜県,岐阜市,稲荷町,ギフケン,ギフシ,イナリチョウ,岐阜県岐阜市稲荷町
5008337,岐阜県,岐阜市,雨踊町,ギフケン,ギフシ,アマオドリチョウ,岐阜県岐阜市雨踊町
5008339,岐阜県,岐阜市,千鳥町,ギフケン,ギフシ,チドリチョウ,岐阜県岐阜市千鳥町
5008341,岐阜県,岐阜市,南本荘四条通,ギフケン,ギフシ,ミナミホンジョウ4ジョウドオリ,岐阜県岐阜市南本荘四条通
5008342,岐阜県,岐阜市,南本荘三条通,ギフケン,ギフシ,ミナミホンジョウ3ジョウドオリ,岐阜県岐阜市南本荘三条通
5008343,岐阜県,岐阜市,南本荘二条通,ギフケン,ギフシ,ミナミホンジョウ2ジョウドオリ,岐阜県岐阜市南本荘二条通
5008344,岐阜県,岐阜市,南本荘一条通,ギフケン,ギフシ,ミナミホンジョウ1ジョウドオリ,岐阜県岐阜市南本荘一条通
5008345,岐阜県,岐阜市,菊地町,ギフケン,ギフシ,キクチチョウ,岐阜県岐阜市菊地町
5008346,岐阜県,岐阜市,清,ギフケン,ギフシ,セイ,岐阜県岐阜市清
5008347,岐阜県,岐阜市,松原町,ギフケン,ギフシ,マツバラチョウ,岐阜県岐阜市松原町
5008348,岐阜県,岐阜市,三ツ又町,ギフケン,ギフシ,ミツマタチョウ,岐阜県岐阜市三ツ又町
5008349,岐阜県,岐阜市,久保見町,ギフケン,ギフシ,クボミチョウ,岐阜県岐阜市久保見町
5008351,岐阜県,岐阜市,清本町,ギフケン,ギフシ,セイホンマチ,岐阜県岐阜市清本町
5008352,岐阜県,岐阜市,六条,ギフケン,ギフシ,ロクジョウ,岐阜県岐阜市六条
5008353,岐阜県,岐阜市,六条東,ギフケン,ギフシ,ロクジョウヒガシ,岐阜県岐阜市六条東
5008354,岐阜県,岐阜市,六条福寿町,ギフケン,ギフシ,ロクジョウフクジュチョウ,岐阜県岐阜市六条福寿町
5008355,岐阜県,岐阜市,六条片田,ギフケン,ギフシ,ロクジョウカタダ,岐阜県岐阜市六条片田
5008356,岐阜県,岐阜市,六条江東,ギフケン,ギフシ,ロクジョウエヒガシ,岐阜県岐阜市六条江東
5008357,岐阜県,岐阜市,六条大溝,ギフケン,ギフシ,ロクジョウオオミゾ,岐阜県岐阜市六条大溝
5008358,岐阜県,岐阜市,六条南,ギフケン,ギフシ,ロクジョウミナミ,岐阜県岐阜市六条南
5008359,岐阜県,岐阜市,六条北,ギフケン,ギフシ,ロクジョウキタ,岐阜県岐阜市六条北
5008361,岐阜県,岐阜市,本荘西,ギフケン,ギフシ,ホンジョウニシ,岐阜県岐阜市本荘西
5008362,岐阜県,岐阜市,西荘,ギフケン,ギフシ,ニシノショウ,岐阜県岐阜市西荘
5008363,岐阜県,岐阜市,爪,ギフケン,ギフシ,ツメ,岐阜県岐阜市爪
5008364,岐阜県,岐阜市,本荘中ノ町,ギフケン,ギフシ,ホンジョウナカノマチ,岐阜県岐阜市本荘中ノ町
5008365,岐阜県,岐阜市,柳森町,ギフケン,ギフシ,ヤナギモリチョウ,岐阜県岐阜市柳森町
5008366,岐阜県,岐阜市,宇佐東町,ギフケン,ギフシ,ウサヒガシマチ,岐阜県岐阜市宇佐東町
5008367,岐阜県,岐阜市,宇佐南,ギフケン,ギフシ,ウサミナミ,岐阜県岐阜市宇佐南
5008368,岐阜県,岐阜市,宇佐,ギフケン,ギフシ,ウサ,岐阜県岐阜市宇佐
5008369,岐阜県,岐阜市,敷島町,ギフケン,ギフシ,シキシマチョウ,岐阜県岐阜市敷島町
5008371,岐阜県,岐阜市,梅園町,ギフケン,ギフシ,ウメゾノチョウ,岐阜県岐阜市梅園町
5008372,岐阜県,岐阜市,熊野町,ギフケン,ギフシ,クマノチョウ,岐阜県岐阜市熊野町
5008373,岐阜県,岐阜市,大池町,ギフケン,ギフシ,オオイケチョウ,岐阜県岐阜市大池町
5008374,岐阜県,岐阜市,豊岡町,ギフケン,ギフシ,トヨオカチョウ,岐阜県岐阜市豊岡町
5008375,岐阜県,岐阜市,新興町,ギフケン,ギフシ,シンコウチョウ,岐阜県岐阜市新興町
5008376,岐阜県,岐阜市,富沢町,ギフケン,ギフシ,トミザワチョウ,岐阜県岐阜市富沢町
5008377,岐阜県,岐阜市,瑞穂町,ギフケン,ギフシ,ミズホチョウ,岐阜県岐阜市瑞穂町
5008378,岐阜県,岐阜市,雲雀ケ丘,ギフケン,ギフシ,ヒバリガオカ,岐阜県岐阜市雲雀ケ丘
5008379,岐阜県,岐阜市,権現町,ギフケン,ギフシ,ゴンゲンチョウ,岐阜県岐阜市権現町
5008381,岐阜県,岐阜市,市橋,ギフケン,ギフシ,イチハシ,岐阜県岐阜市市橋
5008382,岐阜県,岐阜市,薮田東,ギフケン,ギフシ,ヤブタヒガシ,岐阜県岐阜市薮田東
5008383,岐阜県,岐阜市,江添,ギフケン,ギフシ,エゾエ,岐阜県岐阜市江添
5008384,岐阜県,岐阜市,薮田南,ギフケン,ギフシ,ヤブタミナミ,岐阜県岐阜市薮田南
5008385,岐阜県,岐阜市,下奈良,ギフケン,ギフシ,シモナラ,岐阜県岐阜市下奈良
5008386,岐阜県,岐阜市,薮田西,ギフケン,ギフシ,ヤブタニシ,岐阜県岐阜市薮田西
5008387,岐阜県,岐阜市,薮田中,ギフケン,ギフシ,ヤブタナカ,岐阜県岐阜市薮田中
5008388,岐阜県,岐阜市,今嶺,ギフケン,ギフシ,イマミネ,岐阜県岐阜市今嶺
5008389,岐阜県,岐阜市,本荘,ギフケン,ギフシ,ホンジョウ,岐阜県岐阜市本荘
5008401,岐阜県,岐阜市,安良田町,ギフケン,ギフシ,アラタマチ,岐阜県岐阜市安良田町
5008402,岐阜県,岐阜市,竜田町,ギフケン,ギフシ,タツタマチ,岐阜県岐阜市竜田町
5008403,岐阜県,岐阜市,一松道,ギフケン,ギフシ,イッショウドウ,岐阜県岐阜市一松道
5008404,岐阜県,岐阜市,華陽,ギフケン,ギフシ,カヨウ,岐阜県岐阜市華陽
5008405,岐阜県,岐阜市,生田町,ギフケン,ギフシ,イクタマチ,岐阜県岐阜市生田町
5008406,岐阜県,岐阜市,平安町,ギフケン,ギフシ,ヘイアンチョウ,岐阜県岐阜市平安町
5008407,岐阜県,岐阜市,高砂町,ギフケン,ギフシ,タカサゴチョウ,岐阜県岐阜市高砂町
5008408,岐阜県,岐阜市,住ノ江町,ギフケン,ギフシ,スミノエチョウ,岐阜県岐阜市住ノ江町
5008409,岐阜県,岐阜市,幸ノ町,ギフケン,ギフシ,コウノマチ,岐阜県岐阜市幸ノ町
5008411,岐阜県,岐阜市,安宅町,ギフケン,ギフシ,アタカマチ,岐阜県岐阜市安宅町
5008412,岐阜県,岐阜市,松鴻町,ギフケン,ギフシ,ショウコウチョウ,岐阜県岐阜市松鴻町
5008413,岐阜県,岐阜市,加納東陽町,ギフケン,ギフシ,カノウトウヨウチョウ,岐阜県岐阜市加納東陽町
5008414,岐阜県,岐阜市,加納東広江町,ギフケン,ギフシ,カノウヒガシヒロエチョウ,岐阜県岐阜市加納東広江町
5008415,岐阜県,岐阜市,加納中広江町,ギフケン,ギフシ,カノウナカヒロエチョウ,岐阜県岐阜市加納中広江町
5008416,岐阜県,岐阜市,加納徳川町,ギフケン,ギフシ,カノウトクガワチョウ,岐阜県岐阜市加納徳川町
5008417,岐阜県,岐阜市,加納清田町,ギフケン,ギフシ,カノウキヨダマチ,岐阜県岐阜市加納清田町
5008418,岐阜県,岐阜市,加納西広江町,ギフケン,ギフシ,カノウニシヒロエチョウ,岐阜県岐阜市加納西広江町
5008419,岐阜県,岐阜市,加納北広江町,ギフケン,ギフシ,カノウキタヒロエチョウ,岐阜県岐阜市加納北広江町
5008421,岐阜県,岐阜市,加納新柳町,ギフケン,ギフシ,カノウシンヤナギマチ,岐阜県岐阜市加納新柳町
5008422,岐阜県,岐阜市,加納安良町,ギフケン,ギフシ,カノウアラマチ,岐阜県岐阜市加納安良町
5008423,岐阜県,岐阜市,渋谷町,ギフケン,ギフシ,シブヤチョウ,岐阜県岐阜市渋谷町
5008424,岐阜県,岐阜市,加納柳町,ギフケン,ギフシ,カノウヤナギマチ,岐阜県岐阜市加納柳町
5008425,岐阜県,岐阜市,加納新町,ギフケン,ギフシ,カノウシンマチ,岐阜県岐阜市加納新町
5008426,岐阜県,岐阜市,加納南広江町,ギフケン,ギフシ,カノウミナミヒロエチョウ,岐阜県岐阜市加納南広江町
5008427,岐阜県,岐阜市,加納大石町,ギフケン,ギフシ,カノウオオイシチョウ,岐阜県岐阜市加納大石町
5008428,岐阜県,岐阜市,加納桜道,ギフケン,ギフシ,カノウサクラミチ,岐阜県岐阜市加納桜道
5008429,岐阜県,岐阜市,加納清水町,ギフケン,ギフシ,カノウシミズチョウ,岐阜県岐阜市加納清水町
5008431,岐阜県,岐阜市,加納八幡町,ギフケン,ギフシ,カノウハチマンチョウ,岐阜県岐阜市加納八幡町
5008432,岐阜県,岐阜市,畷町,ギフケン,ギフシ,ナワテマチ,岐阜県岐阜市畷町
5008433,岐阜県,岐阜市,若杉町,ギフケン,ギフシ,ワカスギチョウ,岐阜県岐阜市若杉町
5008434,岐阜県,岐阜市,向陽町,ギフケン,ギフシ,コウヨウチョウ,岐阜県岐阜市向陽町
5008435,岐阜県,岐阜市,宮北町,ギフケン,ギフシ,ミヤキタチョウ,岐阜県岐阜市宮北町
5008436,岐阜県,岐阜市,東明見町,ギフケン,ギフシ,ヒガシアケミチョウ,岐阜県岐阜市東明見町
5008437,岐阜県,岐阜市,石切町,ギフケン,ギフシ,イシキリチョウ,岐阜県岐阜市石切町
5008438,岐阜県,岐阜市,島原町,ギフケン,ギフシ,シマバラチョウ,岐阜県岐阜市島原町
5008439,岐阜県,岐阜市,村里町,ギフケン,ギフシ,ムラサトチョウ,岐阜県岐阜市村里町
5008441,岐阜県,岐阜市,城東通,ギフケン,ギフシ,ジョウトウドオリ,岐阜県岐阜市城東通
5008442,岐阜県,岐阜市,正法寺町,ギフケン,ギフシ,ショウホウジチョウ,岐阜県岐阜市正法寺町
5008443,岐阜県,岐阜市,神楽町,ギフケン,ギフシ,カグラチョウ,岐阜県岐阜市神楽町
5008444,岐阜県,岐阜市,西明見町,ギフケン,ギフシ,ニシアケミチョウ,岐阜県岐阜市西明見町
5008445,岐阜県,岐阜市,八島町,ギフケン,ギフシ,ヤシマチョウ,岐阜県岐阜市八島町
5008446,岐阜県,岐阜市,矢倉町,ギフケン,ギフシ,ヤクラチョウ,岐阜県岐阜市矢倉町
5008447,岐阜県,岐阜市,大倉町,ギフケン,ギフシ,オオクラチョウ,岐阜県岐阜市大倉町
5008448,岐阜県,岐阜市,中洲町,ギフケン,ギフシ,ナカスチョウ,岐阜県岐阜市中洲町
5008449,岐阜県,岐阜市,荒川町,ギフケン,ギフシ,アラカワチョウ,岐阜県岐阜市荒川町
5008451,岐阜県,岐阜市,加納上本町,ギフケン,ギフシ,カノウカミホンマチ,岐阜県岐阜市加納上本町
5008452,岐阜県,岐阜市,加納朝日町,ギフケン,ギフシ,カノウアサヒマチ,岐阜県岐阜市加納朝日町
5008453,岐阜県,岐阜市,加納鉄砲町,ギフケン,ギフシ,カノウテッポウチョウ,岐阜県岐阜市加納鉄砲町
5008454,岐阜県,岐阜市,加納永井町,ギフケン,ギフシ,カノウナガイチョウ,岐阜県岐阜市加納永井町
5008455,岐阜県,岐阜市,加納栄町通,ギフケン,ギフシ,カノウサカエマチドオリ,岐阜県岐阜市加納栄町通
5008456,岐阜県,岐阜市,加納大黒町,ギフケン,ギフシ,カノウダイコクチョウ,岐阜県岐阜市加納大黒町
5008457,岐阜県,岐阜市,加納青藤町,ギフケン,ギフシ,カノウアオフジチョウ,岐阜県岐阜市加納青藤町
5008458,岐阜県,岐阜市,加納村松町,ギフケン,ギフシ,カノウムラマツチョウ,岐阜県岐阜市加納村松町
5008459,岐阜県,岐阜市,加納高柳町,ギフケン,ギフシ,カノウタカヤナギチョウ,岐阜県岐阜市加納高柳町
5008461,岐阜県,岐阜市,加納黒木町,ギフケン,ギフシ,カノウクロキチョウ,岐阜県岐阜市加納黒木町
5008462,岐阜県,岐阜市,加納神明町,ギフケン,ギフシ,カノウシンメイチョウ,岐阜県岐阜市加納神明町
5008463,岐阜県,岐阜市,加納新本町,ギフケン,ギフシ,カノウシンホンマチ,岐阜県岐阜市加納新本町
5008464,岐阜県,岐阜市,加納前田町,ギフケン,ギフシ,カノウマエダマチ,岐阜県岐阜市加納前田町
5008465,岐阜県,岐阜市,加納寿町,ギフケン,ギフシ,カノウコトブキチョウ,岐阜県岐阜市加納寿町
5008466,岐阜県,岐阜市,加納本石町,ギフケン,ギフシ,カノウホンゴクチョウ,岐阜県岐阜市加納本石町
5008467,岐阜県,岐阜市,加納三笠町,ギフケン,ギフシ,カノウミカサチョウ,岐阜県岐阜市加納三笠町
5008468,岐阜県,岐阜市,加納桜田町,ギフケン,ギフシ,カノウサクラダチョウ,岐阜県岐阜市加納桜田町
5008469,岐阜県,岐阜市,加納竜興町,ギフケン,ギフシ,カノウリュウコウチョウ,岐阜県岐阜市加納竜興町
5008471,岐阜県,岐阜市,加納富士町,ギフケン,ギフシ,カノウフジマチ,岐阜県岐阜市加納富士町
5008472,岐阜県,岐阜市,加納清野町,ギフケン,ギフシ,カノウキヨノマチ,岐阜県岐阜市加納清野町
5008473,岐阜県,岐阜市,加納天神町,ギフケン,ギフシ,カノウテンジンマチ,岐阜県岐阜市加納天神町
5008474,岐阜県,岐阜市,加納本町,ギフケン,ギフシ,カノウホンマチ,岐阜県岐阜市加納本町
5008475,岐阜県,岐阜市,加納坂井町,ギフケン,ギフシ,カノウサカイマチ,岐阜県岐阜市加納坂井町
5008476,岐阜県,岐阜市,加納愛宕町,ギフケン,ギフシ,カノウアタゴチョウ,岐阜県岐阜市加納愛宕町
5008477,岐阜県,岐阜市,加納水野町,ギフケン,ギフシ,カノウミズノマチ,岐阜県岐阜市加納水野町
5008478,岐阜県,岐阜市,加納伏見町,ギフケン,ギフシ,カノウフシミチョウ,岐阜県岐阜市加納伏見町
5008479,岐阜県,岐阜市,加納菱野町,ギフケン,ギフシ,カノウヒシノマチ,岐阜県岐阜市加納菱野町
5008481,岐阜県,岐阜市,加納沓井町,ギフケン,ギフシ,カノウクツイチョウ,岐阜県岐阜市加納沓井町
5008482,岐阜県,岐阜市,加納大手町,ギフケン,ギフシ,カノウオオテマチ,岐阜県岐阜市加納大手町
5008483,岐阜県,岐阜市,加納東丸町,ギフケン,ギフシ,カノウヒガシマルチョウ,岐阜県岐阜市加納東丸町
5008484,岐阜県,岐阜市,加納二之丸,ギフケン,ギフシ,カノウニノマル,岐阜県岐阜市加納二之丸
5008485,岐阜県,岐阜市,加納丸之内,ギフケン,ギフシ,カノウマルノウチ,岐阜県岐阜市加納丸之内
5008486,岐阜県,岐阜市,加納城南通,ギフケン,ギフシ,カノウジョウナンドオリ,岐阜県岐阜市加納城南通
5008487,岐阜県,岐阜市,加納長刀堀,ギフケン,ギフシ,カノウナギナタボリ,岐阜県岐阜市加納長刀堀
5008488,岐阜県,岐阜市,加納西丸町,ギフケン,ギフシ,カノウニシマルチョウ,岐阜県岐阜市加納西丸町
5008489,岐阜県,岐阜市,稲荷山,ギフケン,ギフシ,イナリヤマ,岐阜県岐阜市稲荷山
5008801,岐阜県,岐阜市,忠節町,ギフケン,ギフシ,チュウセツチョウ,岐阜県岐阜市忠節町
5008802,岐阜県,岐阜市,不動町,ギフケン,ギフシ,フドウチョウ,岐阜県岐阜市不動町
5008803,岐阜県,岐阜市,佐久間町,ギフケン,ギフシ,サクマチョウ,岐阜県岐阜市佐久間町
5008804,岐阜県,岐阜市,京町,ギフケン,ギフシ,キョウマチ,岐阜県岐阜市京町
5008805,岐阜県,岐阜市,忠節三丁目南町,ギフケン,ギフシ,チュウセツサンチョウメミナミマチ,岐阜県岐阜市忠節3-南町
5008806,岐阜県,岐阜市,天神町,ギフケン,ギフシ,テンジンマチ,岐阜県岐阜市天神町
5008807,岐阜県,岐阜市,北野町,ギフケン,ギフシ,キタノマチ,岐阜県岐阜市北野町
5008808,岐阜県,岐阜市,永田町,ギフケン,ギフシ,ナガタマチ,岐阜県岐阜市永田町
5008809,岐阜県,岐阜市,平河町,ギフケン,ギフシ,ヒラカワチョウ,岐阜県岐阜市平河町
5008811,岐阜県,岐阜市,端詰町,ギフケン,ギフシ,ハシヅメチョウ,岐阜県岐阜市端詰町
5008812,岐阜県,岐阜市,美江寺町,ギフケン,ギフシ,ミエジチョウ,岐阜県岐阜市美江寺町
5008813,岐阜県,岐阜市,明徳町,ギフケン,ギフシ,メイトクチョウ,岐阜県岐阜市明徳町
5008814,岐阜県,岐阜市,今川町,ギフケン,ギフシ,イマガワチョウ,岐阜県岐阜市今川町
5008815,岐阜県,岐阜市,梅河町,ギフケン,ギフシ,ウメガワチョウ,岐阜県岐阜市梅河町
5008816,岐阜県,岐阜市,菅原町,ギフケン,ギフシ,スガハラチョウ,岐阜県岐阜市菅原町
5008817,岐阜県,岐阜市,八ツ梅町,ギフケン,ギフシ,ヤツウメチョウ,岐阜県岐阜市八ツ梅町
5008818,岐阜県,岐阜市,梅ケ枝町,ギフケン,ギフシ,ウメガエチョウ,岐阜県岐阜市梅ケ枝町
5008819,岐阜県,岐阜市,千石町,ギフケン,ギフシ,センゴクチョウ,岐阜県岐阜市千石町
5008821,岐阜県,岐阜市,鷹見町,ギフケン,ギフシ,タカミチョウ,岐阜県岐阜市鷹見町
5008822,岐阜県,岐阜市,今沢町,ギフケン,ギフシ,イマザワチョウ,岐阜県岐阜市今沢町
5008823,岐阜県,岐阜市,江川町,ギフケン,ギフシ,エガワチョウ,岐阜県岐阜市江川町
5008824,岐阜県,岐阜市,北八ツ寺町,ギフケン,ギフシ,キタヤツデラマチ,岐阜県岐阜市北八ツ寺町
5008825,岐阜県,岐阜市,八ツ寺町,ギフケン,ギフシ,ヤツデラマチ,岐阜県岐阜市八ツ寺町
5008826,岐阜県,岐阜市,住吉町,ギフケン,ギフシ,スミヨシチョウ,岐阜県岐阜市住吉町
5008827,岐阜県,岐阜市,弥八町,ギフケン,ギフシ,ヤハチチョウ,岐阜県岐阜市弥八町
5008828,岐阜県,岐阜市,若宮町,ギフケン,ギフシ,ワカミヤチョウ,岐阜県岐阜市若宮町
5008829,岐阜県,岐阜市,杉山町,ギフケン,ギフシ,スギヤマチョウ,岐阜県岐阜市杉山町
5008831,岐阜県,岐阜市,弥生町,ギフケン,ギフシ,ヤヨイチョウ,岐阜県岐阜市弥生町
5008832,岐阜県,岐阜市,小柳町,ギフケン,ギフシ,コヤナギチョウ,岐阜県岐阜市小柳町
5008833,岐阜県,岐阜市,神田町,ギフケン,ギフシ,カンダマチ,岐阜県岐阜市神田町
5008834,岐阜県,岐阜市,羽根町,ギフケン,ギフシ,ハネマチ,岐阜県岐阜市羽根町
5008835,岐阜県,岐阜市,玉宮町,ギフケン,ギフシ,タマミヤチョウ,岐阜県岐阜市玉宮町
5008836,岐阜県,岐阜市,西玉宮町,ギフケン,ギフシ,ニシタマミヤチョウ,岐阜県岐阜市西玉宮町
5008837,岐阜県,岐阜市,玉森町,ギフケン,ギフシ,タマモリチョウ,岐阜県岐阜市玉森町
5008838,岐阜県,岐阜市,八幡町,ギフケン,ギフシ,ハチマンチョウ,岐阜県岐阜市八幡町
5008839,岐阜県,岐阜市,蕪城町,ギフケン,ギフシ,カブラギチョウ,岐阜県岐阜市蕪城町
5008841,岐阜県,岐阜市,高野町,ギフケン,ギフシ,タカノマチ,岐阜県岐阜市高野町
5008842,岐阜県,岐阜市,金町,ギフケン,ギフシ,コガネマチ,岐阜県岐阜市金町
5008843,岐阜県,岐阜市,住田町,ギフケン,ギフシ,スミダマチ,岐阜県岐阜市住田町
5008844,岐阜県,岐阜市,吉野町,ギフケン,ギフシ,ヨシノマチ,岐阜県岐阜市吉野町
5008845,岐阜県,岐阜市,問屋町,ギフケン,ギフシ,トイヤマチ,岐阜県岐阜市問屋町
5008846,岐阜県,岐阜市,玉姓町,ギフケン,ギフシ,ギョクセイチョウ,岐阜県岐阜市玉姓町
5008847,岐阜県,岐阜市,金宝町,ギフケン,ギフシ,キンポウチョウ,岐阜県岐阜市金宝町
5008848,岐阜県,岐阜市,神明町,ギフケン,ギフシ,シンメイチョウ,岐阜県岐阜市神明町
5008849,岐阜県,岐阜市,金岡町,ギフケン,ギフシ,カナオカチョウ,岐阜県岐阜市金岡町
5008851,岐阜県,岐阜市,大宝町,ギフケン,ギフシ,ダイホウチョウ,岐阜県岐阜市大宝町
5008852,岐阜県,岐阜市,日ノ本町,ギフケン,ギフシ,ヒノモトチョウ,岐阜県岐阜市日ノ本町
5008853,岐阜県,岐阜市,西問屋町,ギフケン,ギフシ,ニシトイヤマチ,岐阜県岐阜市西問屋町
5008854,岐阜県,岐阜市,花園町,ギフケン,ギフシ,ハナゾノチョウ,岐阜県岐阜市花園町
5008855,岐阜県,岐阜市,新栄町,ギフケン,ギフシ,シンサカエマチ,岐阜県岐阜市新栄町
5008856,岐阜県,岐阜市,橋本町,ギフケン,ギフシ,ハシモトチョウ,岐阜県岐阜市橋本町
5008857,岐阜県,岐阜市,坂井町,ギフケン,ギフシ,サカイマチ,岐阜県岐阜市坂井町
5008858,岐阜県,岐阜市,福住町,ギフケン,ギフシ,フクズミチョウ,岐阜県岐阜市福住町
5008859,岐阜県,岐阜市,室津町,ギフケン,ギフシ,ムロツマチ,岐阜県岐阜市室津町
5008861,岐阜県,岐阜市,千手堂北町,ギフケン,ギフシ,センジュドウキタマチ,岐阜県岐阜市千手堂北町
5008862,岐阜県,岐阜市,千手堂中町,ギフケン,ギフシ,センジュドウナカマチ,岐阜県岐阜市千手堂中町
5008863,岐阜県,岐阜市,千手堂南町,ギフケン,ギフシ,センジュドウミナミマチ,岐阜県岐阜市千手堂南町
5008864,岐阜県,岐阜市,真砂町,ギフケン,ギフシ,マサゴチョウ,岐阜県岐阜市真砂町
5008865,岐阜県,岐阜市,昭和町,ギフケン,ギフシ,ショウワマチ,岐阜県岐阜市昭和町
5008866,岐阜県,岐阜市,寺島町,ギフケン,ギフシ,テラジマチョウ,岐阜県岐阜市寺島町
5008867,岐阜県,岐阜市,木ノ本町,ギフケン,ギフシ,キノモトチョウ,岐阜県岐阜市木ノ本町
5008868,岐阜県,岐阜市,光明町,ギフケン,ギフシ,コウメイチョウ,岐阜県岐阜市光明町
5008869,岐阜県,岐阜市,元宮町,ギフケン,ギフシ,モトミヤチョウ,岐阜県岐阜市元宮町
5008871,岐阜県,岐阜市,大正町,ギフケン,ギフシ,タイショウマチ,岐阜県岐阜市大正町
5008872,岐阜県,岐阜市,栄枝町,ギフケン,ギフシ,サカエダチョウ,岐阜県岐阜市栄枝町
5008873,岐阜県,岐阜市,大富町,ギフケン,ギフシ,オオトミチョウ,岐阜県岐阜市大富町
5008874,岐阜県,岐阜市,銀町,ギフケン,ギフシ,シロガネマチ,岐阜県岐阜市銀町
5008875,岐阜県,岐阜市,柳ケ瀬通,ギフケン,ギフシ,ヤナガセドオリ,岐阜県岐阜市柳ケ瀬通
5008876,岐阜県,岐阜市,日ノ出町,ギフケン,ギフシ,ヒノデマチ,岐阜県岐阜市日ノ出町
5008877,岐阜県,岐阜市,雲雀町,ギフケン,ギフシ,ヒバリチョウ,岐阜県岐阜市雲雀町
5008878,岐阜県,岐阜市,神室町,ギフケン,ギフシ,カムロチョウ,岐阜県岐阜市神室町
5008879,岐阜県,岐阜市,徹明通,ギフケン,ギフシ,テツメイドオリ,岐阜県岐阜市徹明通
5008881,岐阜県,岐阜市,青柳町,ギフケン,ギフシ,アオヤギチョウ,岐阜県岐阜市青柳町
5008882,岐阜県,岐阜市,西野町,ギフケン,ギフシ,ニシノマチ,岐阜県岐阜市西野町
5008883,岐阜県,岐阜市,吾妻町,ギフケン,ギフシ,アヅマチョウ,岐阜県岐阜市吾妻町
5008884,岐阜県,岐阜市,池田町,ギフケン,ギフシ,イケダマチ,岐阜県岐阜市池田町
5008885,岐阜県,岐阜市,大柳町,ギフケン,ギフシ,オオヤナギチョウ,岐阜県岐阜市大柳町
5008886,岐阜県,岐阜市,西野町七丁目北町,ギフケン,ギフシ,ニシノマチナナチョウメキタマチ,岐阜県岐阜市西野町7-北町
5008887,岐阜県,岐阜市,西野町六丁目北町,ギフケン,ギフシ,ニシノマチロクチョウメキタマチ,岐阜県岐阜市西野町6-北町
5008888,岐阜県,岐阜市,万年町,ギフケン,ギフシ,マンネンチョウ,岐阜県岐阜市万年町
5008889,岐阜県,岐阜市,大縄場,ギフケン,ギフシ,オオナワバ,岐阜県岐阜市大縄場
5008891,岐阜県,岐阜市,香蘭,ギフケン,ギフシ,コウラン,岐阜県岐阜市香蘭
5010101,岐阜県,岐阜市,曽我屋,ギフケン,ギフシ,ソガヤ,岐阜県岐阜市曽我屋
5010102,岐阜県,岐阜市,一日市場北町,ギフケン,ギフシ,ヒトイチバキタマチ,岐阜県岐阜市一日市場北町
5010103,岐阜県,岐阜市,一日市場,ギフケン,ギフシ,ヒトイチバ,岐阜県岐阜市一日市場
5010104,岐阜県,岐阜市,寺田,ギフケン,ギフシ,テラダ,岐阜県岐阜市寺田
5010105,岐阜県,岐阜市,河渡,ギフケン,ギフシ,ゴウド,岐阜県岐阜市河渡
5010106,岐阜県,岐阜市,西河渡,ギフケン,ギフシ,ニシゴウド,岐阜県岐阜市西河渡
5010111,岐阜県,岐阜市,川原畑,ギフケン,ギフシ,カワハラバタ,岐阜県岐阜市川原畑
5010111,岐阜県,岐阜市,鏡島,ギフケン,ギフシ,カガシマ,岐阜県岐阜市鏡島
5010111,岐阜県,岐阜市,鏡島町,ギフケン,ギフシ,カガシマチョウ,岐阜県岐阜市鏡島町
5010112,岐阜県,岐阜市,鏡島精華,ギフケン,ギフシ,カガシマセイカ,岐阜県岐阜市鏡島精華
5010113,岐阜県,岐阜市,鏡島市場,ギフケン,ギフシ,カガシマイチバ,岐阜県岐阜市鏡島市場
5010115,岐阜県,岐阜市,鏡島南,ギフケン,ギフシ,カガシマミナミ,岐阜県岐阜市鏡島南
5010117,岐阜県,岐阜市,江崎,ギフケン,ギフシ,エサキ,岐阜県岐阜市江崎
5010118,岐阜県,岐阜市,大菅北,ギフケン,ギフシ,オオスガキタ,岐阜県岐阜市大菅北
5010119,岐阜県,岐阜市,大菅南,ギフケン,ギフシ,オオスガミナミ,岐阜県岐阜市大菅南
5010121,岐阜県,岐阜市,江崎北,ギフケン,ギフシ,エサキキタ,岐阜県岐阜市江崎北
5010122,岐阜県,岐阜市,江崎南,ギフケン,ギフシ,エサキミナミ,岐阜県岐阜市江崎南
5010123,岐阜県,岐阜市,鏡島西,ギフケン,ギフシ,カガシマニシ,岐阜県岐阜市鏡島西
5010124,岐阜県,岐阜市,鏡島中,ギフケン,ギフシ,カガシマナカ,岐阜県岐阜市鏡島中
5010200,岐阜県,瑞穂市,,ギフケン,ミズホシ,,岐阜県瑞穂市
5010201,岐阜県,瑞穂市,馬場,ギフケン,ミズホシ,ババ,岐阜県瑞穂市馬場
5010202,岐阜県,瑞穂市,馬場前畑町,ギフケン,ミズホシ,ババマエハタマチ,岐阜県瑞穂市馬場前畑町
5010203,岐阜県,瑞穂市,馬場上光町,ギフケン,ミズホシ,ババジョウコウマチ,岐阜県瑞穂市馬場上光町
5010204,岐阜県,瑞穂市,馬場春雨町,ギフケン,ミズホシ,ババハルサメマチ,岐阜県瑞穂市馬場春雨町
5010205,岐阜県,瑞穂市,馬場小城町,ギフケン,ミズホシ,ババコシロマチ,岐阜県瑞穂市馬場小城町
5010206,岐阜県,瑞穂市,馬場北町,ギフケン,ミズホシ,ババキタマチ,岐阜県瑞穂市馬場北町
5010211,岐阜県,瑞穂市,生津,ギフケン,ミズホシ,ナマヅ,岐阜県瑞穂市生津
5010212,岐阜県,瑞穂市,生津滝坪町,ギフケン,ミズホシ,ナマヅタキツボマチ,岐阜県瑞穂市生津滝坪町
5010213,岐阜県,瑞穂市,生津内宮町,ギフケン,ミズホシ,ナマヅナイグウマチ,岐阜県瑞穂市生津内宮町
5010214,岐阜県,瑞穂市,生津外宮東町,ギフケン,ミズホシ,ナマヅゲグウヒガシマチ,岐阜県瑞穂市生津外宮東町
5010215,岐阜県,瑞穂市,生津天王東町,ギフケン,ミズホシ,ナマヅテンノウヒガシマチ,岐阜県瑞穂市生津天王東町
5010216,岐阜県,瑞穂市,生津天王町,ギフケン,ミズホシ,ナマヅテンノウマチ,岐阜県瑞穂市生津天王町
5010217,岐阜県,瑞穂市,生津外宮前町,ギフケン,ミズホシ,ナマヅゲグウマエマチ,岐阜県瑞穂市生津外宮前町
5010221,岐阜県,瑞穂市,只越,ギフケン,ミズホシ,タダコシ,岐阜県瑞穂市只越
5010222,岐阜県,瑞穂市,別府,ギフケン,ミズホシ,ベップ,岐阜県瑞穂市別府
5010223,岐阜県,瑞穂市,穂積,ギフケン,ミズホシ,ホヅミ,岐阜県瑞穂市穂積
5010224,岐阜県,瑞穂市,稲里,ギフケン,ミズホシ,イナサト,岐阜県瑞穂市稲里
5010225,岐阜県,瑞穂市,祖父江,ギフケン,ミズホシ,ソブエ,岐阜県瑞穂市祖父江
5010231,岐阜県,瑞穂市,野白新田,ギフケン,ミズホシ,ノバクシンデン,岐阜県瑞穂市野白新田
5010232,岐阜県,瑞穂市,野田新田,ギフケン,ミズホシ,ノダシンデン,岐阜県瑞穂市野田新田
5010233,岐阜県,瑞穂市,宝江,ギフケン,ミズホシ,ホウエ,岐阜県瑞穂市宝江
5010234,岐阜県,瑞穂市,牛牧,ギフケン,ミズホシ,ウシキ,岐阜県瑞穂市牛牧
5010235,岐阜県,瑞穂市,十九条,ギフケン,ミズホシ,ジュウクジョウ,岐阜県瑞穂市十九条
5010236,岐阜県,瑞穂市,本田,ギフケン,ミズホシ,ホンデン,岐阜県瑞穂市本田
5010237,岐阜県,瑞穂市,犀川,ギフケン,ミズホシ,サイカワ,岐阜県瑞穂市犀川
5010301,岐阜県,瑞穂市,七崎,ギフケン,ミズホシ,ナナサキ,岐阜県瑞穂市七崎
5010302,岐阜県,瑞穂市,居倉,ギフケン,ミズホシ,イクラ,岐阜県瑞穂市居倉
5010303,岐阜県,瑞穂市,森,ギフケン,ミズホシ,モリ,岐阜県瑞穂市森
5010304,岐阜県,瑞穂市,田之上,ギフケン,ミズホシ,タノカミ,岐阜県瑞穂市田之上
5010305,岐阜県,瑞穂市,宮田,ギフケン,ミズホシ,ミヤデン,岐阜県瑞穂市宮田
5010306,岐阜県,瑞穂市,大月,ギフケン,ミズホシ,オオツキ,岐阜県瑞穂市大月
5010307,岐阜県,瑞穂市,唐栗,ギフケン,ミズホシ,カラクリ,岐阜県瑞穂市唐栗
5010311,岐阜県,瑞穂市,重里,ギフケン,ミズホシ,シゲサト,岐阜県瑞穂市重里
5010312,岐阜県,瑞穂市,美江寺,ギフケン,ミズホシ,ミエジ,岐阜県瑞穂市美江寺
5010313,岐阜県,瑞穂市,十七条,ギフケン,ミズホシ,ジュウシチジョウ,岐阜県瑞穂市十七条
5010314,岐阜県,瑞穂市,十八条,ギフケン,ミズホシ,ジュウハチジョウ,岐阜県瑞穂市十八条
5010321,岐阜県,瑞穂市,横屋,ギフケン,ミズホシ,ヨコヤ,岐阜県瑞穂市横屋
5010322,岐阜県,瑞穂市,古橋,ギフケン,ミズホシ,フルハシ,岐阜県瑞穂市古橋
5010323,岐阜県,瑞穂市,中宮,ギフケン,ミズホシ,ナカミヤ,岐阜県瑞穂市中宮
5010324,岐阜県,瑞穂市,呂久,ギフケン,ミズホシ,ロク,岐阜県瑞穂市呂久
5010400,岐阜県,本巣市,,ギフケン,モトスシ,,岐阜県本巣市
5010400,岐阜県,本巣郡北方町,,ギフケン,モトスグンキタガタチョウ,,岐阜県本巣郡北方町
5010401,岐阜県,本巣市,上保,ギフケン,モトスシ,カミノホ,岐阜県本巣市上保
5010402,岐阜県,本巣市,郡府,ギフケン,モトスシ,グンブ,岐阜県本巣市郡府
5010403,岐阜県,本巣市,北野,ギフケン,モトスシ,キタノ,岐阜県本巣市北野
5010404,岐阜県,本巣市,春近,ギフケン,モトスシ,ハルチカ,岐阜県本巣市春近
5010405,岐阜県,本巣市,石原,ギフケン,モトスシ,イシハラ,岐阜県本巣市石原
5010406,岐阜県,本巣市,三橋,ギフケン,モトスシ,ミツハシ,岐阜県本巣市三橋
5010407,岐阜県,本巣市,仏生寺,ギフケン,モトスシ,ブッショウジ,岐阜県本巣市仏生寺
5010410,岐阜県,本巣市,石神,ギフケン,モトスシ,イシガミ,岐阜県本巣市石神
5010411,岐阜県,本巣市,上高屋,ギフケン,モトスシ,カミタカヤ,岐阜県本巣市上高屋
5010412,岐阜県,本巣市,長屋,ギフケン,モトスシ,ナガヤ,岐阜県本巣市長屋
5010413,岐阜県,本巣市,見延,ギフケン,モトスシ,ミノベ,岐阜県本巣市見延
5010414,岐阜県,本巣市,数屋,ギフケン,モトスシ,カズヤ,岐阜県本巣市数屋
5010415,岐阜県,本巣市,有里,ギフケン,モトスシ,アリサト,岐阜県本巣市有里
5010416,岐阜県,本巣市,随原,ギフケン,モトスシ,ズイハラ,岐阜県本巣市随原
5010417,岐阜県,本巣市,屋井,ギフケン,モトスシ,ヤイ,岐阜県本巣市屋井
5010418,岐阜県,本巣市,七五三,ギフケン,モトスシ,シメ,岐阜県本巣市七五三
5010419,岐阜県,本巣市,早野,ギフケン,モトスシ,ハヤノ,岐阜県本巣市早野
5010421,岐阜県,本巣郡北方町,芝原西町,ギフケン,モトスグンキタガタチョウ,シバハラニシマチ,岐阜県本巣郡北方町芝原西町
5010422,岐阜県,本巣郡北方町,芝原中町,ギフケン,モトスグンキタガタチョウ,シバハラナカマチ,岐阜県本巣郡北方町芝原中町
5010423,岐阜県,本巣郡北方町,芝原東町,ギフケン,モトスグンキタガタチョウ,シバハラヒガシマチ,岐阜県本巣郡北方町芝原東町
5010424,岐阜県,本巣郡北方町,朝日町,ギフケン,モトスグンキタガタチョウ,アサヒマチ,岐阜県本巣郡北方町朝日町
5010425,岐阜県,本巣郡北方町,加茂,ギフケン,モトスグンキタガタチョウ,カモ,岐阜県本巣郡北方町加茂
5010426,岐阜県,本巣郡北方町,東加茂,ギフケン,モトスグンキタガタチョウ,ヒガシカモ,岐阜県本巣郡北方町東加茂
5010427,岐阜県,本巣郡北方町,栄町,ギフケン,モトスグンキタガタチョウ,サカエマチ,岐阜県本巣郡北方町栄町
5010428,岐阜県,本巣郡北方町,若宮,ギフケン,モトスグンキタガタチョウ,ワカミヤ,岐阜県本巣郡北方町若宮
5010431,岐阜県,本巣郡北方町,北方,ギフケン,モトスグンキタガタチョウ,キタガタ,岐阜県本巣郡北方町北方
5010432,岐阜県,本巣郡北方町,一本松,ギフケン,モトスグンキタガタチョウ,イッポンマツ,岐阜県本巣郡北方町一本松
5010433,岐阜県,本巣郡北方町,天狗堂,ギフケン,モトスグンキタガタチョウ,テングドウ,岐阜県本巣郡北方町天狗堂
5010434,岐阜県,本巣郡北方町,小柳,ギフケン,モトスグンキタガタチョウ,コヤナギ,岐阜県本巣郡北方町小柳
5010435,岐阜県,本巣郡北方町,春来町,ギフケン,モトスグンキタガタチョウ,ハルキマチ,岐阜県本巣郡北方町春来町
5010436,岐阜県,本巣郡北方町,長谷川西,ギフケン,モトスグンキタガタチョウ,ハセガワニシ,岐阜県本巣郡北方町長谷川西
5010437,岐阜県,本巣郡北方町,清水,ギフケン,モトスグンキタガタチョウ,シミズ,岐阜県本巣郡北方町清水
5010438,岐阜県,本巣郡北方町,平成,ギフケン,モトスグンキタガタチョウ,ヘイセイ,岐阜県本巣郡北方町平成
5010439,岐阜県,本巣郡北方町,長谷川,ギフケン,モトスグンキタガタチョウ,ハセガワ,岐阜県本巣郡北方町長谷川
5010441,岐阜県,本巣郡北方町,曲路,ギフケン,モトスグンキタガタチョウ,スジカイ,岐阜県本巣郡北方町曲路
5010442,岐阜県,本巣郡北方町,曲路東,ギフケン,モトスグンキタガタチョウ,スジカイヒガシ,岐阜県本巣郡北方町曲路東
5010443,岐阜県,本巣郡北方町,柱本池之頭,ギフケン,モトスグンキタガタチョウ,ハシラモトイケノガシラ,岐阜県本巣郡北方町柱本池之頭
5010444,岐阜県,本巣郡北方町,柱本白坪,ギフケン,モトスグンキタガタチョウ,ハシラモトシラツボ,岐阜県本巣郡北方町柱本白坪
5010445,岐阜県,本巣郡北方町,柱本南,ギフケン,モトスグンキタガタチョウ,ハシラモトミナミ,岐阜県本巣郡北方町柱本南
5010446,岐阜県,本巣郡北方町,柱本,ギフケン,モトスグンキタガタチョウ,ハシラモト,岐阜県本巣郡北方町柱本
5010451,岐阜県,本巣郡北方町,高屋勅使,ギフケン,モトスグンキタガタチョウ,タカヤチョクシ,岐阜県本巣郡北方町高屋勅使
5010452,岐阜県,本巣郡北方町,高屋石末,ギフケン,モトスグンキタガタチョウ,タカヤイシズエ,岐阜県本巣郡北方町高屋石末
5010453,岐阜県,本巣郡北方町,高屋分木,ギフケン,モトスグンキタガタチョウ,タカヤブンギ,岐阜県本巣郡北方町高屋分木
5010454,岐阜県,本巣郡北方町,高屋白木,ギフケン,モトスグンキタガタチョウ,タカヤシラキ,岐阜県本巣郡北方町高屋白木
5010455,岐阜県,本巣郡北方町,高屋伊勢田,ギフケン,モトスグンキタガタチョウ,タカヤイセデン,岐阜県本巣郡北方町高屋伊勢田
5010456,岐阜県,本巣郡北方町,高屋条里,ギフケン,モトスグンキタガタチョウ,タカヤジョウリ,岐阜県本巣郡北方町高屋条里
5010457,岐阜県,本巣郡北方町,高屋太子,ギフケン,モトスグンキタガタチョウ,タカヤタイシ,岐阜県本巣郡北方町高屋太子
5010458,岐阜県,本巣郡北方町,高屋,ギフケン,モトスグンキタガタチョウ,タカヤ,岐阜県本巣郡北方町高屋
5010461,岐阜県,本巣市,上真桑,ギフケン,モトスシ,カミマクワ,岐阜県本巣市上真桑
5010462,岐阜県,本巣市,宗慶,ギフケン,モトスシ,ソウケイ,岐阜県本巣市宗慶
5010463,岐阜県,本巣市,小柿,ギフケン,モトスシ,コガキ,岐阜県本巣市小柿
5010464,岐阜県,本巣市,十四条,ギフケン,モトスシ,ジュウシジョウ,岐阜県本巣市十四条
5010465,岐阜県,本巣市,軽海,ギフケン,モトスシ,カルミ,岐阜県本巣市軽海
5010466,岐阜県,本巣市,下真桑,ギフケン,モトスシ,シモマクワ,岐阜県本巣市下真桑
5010471,岐阜県,本巣市,政田,ギフケン,モトスシ,マサダ,岐阜県本巣市政田
5010472,岐阜県,本巣市,下福島,ギフケン,モトスシ,シモフクジマ,岐阜県本巣市下福島
5010473,岐阜県,本巣市,温井,ギフケン,モトスシ,ヌクイ,岐阜県本巣市温井
5010474,岐阜県,本巣市,国領,ギフケン,モトスシ,コクリョウ,岐阜県本巣市国領
5010475,岐阜県,本巣市,浅木,ギフケン,モトスシ,アサギ,岐阜県本巣市浅木
5010476,岐阜県,本巣市,海老,ギフケン,モトスシ,カイロウ,岐阜県本巣市海老
5010500,岐阜県,揖斐郡大野町,,ギフケン,イビグンオオノチョウ,,岐阜県揖斐郡大野町
5010501,岐阜県,揖斐郡大野町,稲富,ギフケン,イビグンオオノチョウ,イナドミ,岐阜県揖斐郡大野町稲富
5010502,岐阜県,揖斐郡大野町,古川,ギフケン,イビグンオオノチョウ,フルカワ,岐阜県揖斐郡大野町古川
5010503,岐阜県,揖斐郡大野町,寺内,ギフケン,イビグンオオノチョウ,ジナイ,岐阜県揖斐郡大野町寺内
5010504,岐阜県,揖斐郡大野町,野,ギフケン,イビグンオオノチョウ,ノ,岐阜県揖斐郡大野町野
5010511,岐阜県,揖斐郡大野町,稲畑,ギフケン,イビグンオオノチョウ,イナバタ,岐阜県揖斐郡大野町稲畑
5010512,岐阜県,揖斐郡大野町,上秋,ギフケン,イビグンオオノチョウ,カンダケ,岐阜県揖斐郡大野町上秋
5010513,岐阜県,揖斐郡大野町,大野,ギフケン,イビグンオオノチョウ,オオノ,岐阜県揖斐郡大野町大野
5010514,岐阜県,揖斐郡大野町,西方,ギフケン,イビグンオオノチョウ,ニシガタ,岐阜県揖斐郡大野町西方
5010515,岐阜県,揖斐郡大野町,桜大門,ギフケン,イビグンオオノチョウ,サクラダイモン,岐阜県揖斐郡大野町桜大門
5010521,岐阜県,揖斐郡大野町,黒野,ギフケン,イビグンオオノチョウ,クロノ,岐阜県揖斐郡大野町黒野
5010522,岐阜県,揖斐郡大野町,相羽,ギフケン,イビグンオオノチョウ,アイバ,岐阜県揖斐郡大野町相羽
5010523,岐阜県,揖斐郡大野町,下方,ギフケン,イビグンオオノチョウ,シモガタ,岐阜県揖斐郡大野町下方
5010524,岐阜県,揖斐郡大野町,郡家,ギフケン,イビグンオオノチョウ,グゲ,岐阜県揖斐郡大野町郡家
5010525,岐阜県,揖斐郡大野町,六里,ギフケン,イビグンオオノチョウ,ロクリ,岐阜県揖斐郡大野町六里
5010531,岐阜県,揖斐郡大野町,上磯,ギフケン,イビグンオオノチョウ,カミイソ,岐阜県揖斐郡大野町上磯
5010532,岐阜県,揖斐郡大野町,下磯,ギフケン,イビグンオオノチョウ,シモイソ,岐阜県揖斐郡大野町下磯
5010533,岐阜県,揖斐郡大野町,本庄,ギフケン,イビグンオオノチョウ,ホンジョウ,岐阜県揖斐郡大野町本庄
5010534,岐阜県,揖斐郡大野町,下座倉,ギフケン,イビグンオオノチョウ,シモザグラ,岐阜県揖斐郡大野町下座倉
5010535,岐阜県,揖斐郡大野町,加納,ギフケン,イビグンオオノチョウ,カノウ,岐阜県揖斐郡大野町加納
5010551,岐阜県,揖斐郡大野町,小衣斐,ギフケン,イビグンオオノチョウ,コエビ,岐阜県揖斐郡大野町小衣斐
5010552,岐阜県,揖斐郡大野町,大衣斐,ギフケン,イビグンオオノチョウ,オオエビ,岐阜県揖斐郡大野町大衣斐
5010553,岐阜県,揖斐郡大野町,南方,ギフケン,イビグンオオノチョウ,ミナミガタ,岐阜県揖斐郡大野町南方
5010554,岐阜県,揖斐郡大野町,五之里,ギフケン,イビグンオオノチョウ,ゴノリ,岐阜県揖斐郡大野町五之里
5010555,岐阜県,揖斐郡大野町,公郷,ギフケン,イビグンオオノチョウ,クゴウ,岐阜県揖斐郡大野町公郷
5010556,岐阜県,揖斐郡大野町,領家,ギフケン,イビグンオオノチョウ,リョウケ,岐阜県揖斐郡大野町領家
5010561,岐阜県,揖斐郡大野町,牛洞,ギフケン,イビグンオオノチョウ,ウシボラ,岐阜県揖斐郡大野町牛洞
5010562,岐阜県,揖斐郡大野町,松山,ギフケン,イビグンオオノチョウ,マツヤマ,岐阜県揖斐郡大野町松山
5010563,岐阜県,揖斐郡大野町,瀬古,ギフケン,イビグンオオノチョウ,セコ,岐阜県揖斐郡大野町瀬古
5010564,岐阜県,揖斐郡大野町,麻生,ギフケン,イビグンオオノチョウ,アソウ,岐阜県揖斐郡大野町麻生
5010565,岐阜県,揖斐郡大野町,中之元,ギフケン,イビグンオオノチョウ,ナカノモト,岐阜県揖斐郡大野町中之元
5010600,岐阜県,揖斐郡揖斐川町,,ギフケン,イビグンイビガワチョウ,,岐阜県揖斐郡揖斐川町
5010601,岐阜県,揖斐郡揖斐川町,北方,ギフケン,イビグンイビガワチョウ,キタガタ,岐阜県揖斐郡揖斐川町北方
5010602,岐阜県,揖斐郡揖斐川町,若松,ギフケン,イビグンイビガワチョウ,ワカマツ,岐阜県揖斐郡揖斐川町若松
5010603,岐阜県,揖斐郡揖斐川町,上南方,ギフケン,イビグンイビガワチョウ,カミミナミガタ,岐阜県揖斐郡揖斐川町上南方
5010604,岐阜県,揖斐郡揖斐川町,大光寺,ギフケン,イビグンイビガワチョウ,ダイコウジ,岐阜県揖斐郡揖斐川町大光寺
5010605,岐阜県,揖斐郡揖斐川町,極楽寺,ギフケン,イビグンイビガワチョウ,ゴクラクジ,岐阜県揖斐郡揖斐川町極楽寺
5010606,岐阜県,揖斐郡揖斐川町,房島,ギフケン,イビグンイビガワチョウ,ボウジマ,岐阜県揖斐郡揖斐川町房島
5010607,岐阜県,揖斐郡揖斐川町,桂,ギフケン,イビグンイビガワチョウ,カツラ,岐阜県揖斐郡揖斐川町桂
5010611,岐阜県,揖斐郡揖斐川町,小谷,ギフケン,イビグンイビガワチョウ,コタテ,岐阜県揖斐郡揖斐川町小谷
5010612,岐阜県,揖斐郡揖斐川町,小野,ギフケン,イビグンイビガワチョウ,オノ,岐阜県揖斐郡揖斐川町小野
5010613,岐阜県,揖斐郡揖斐川町,志津山,ギフケン,イビグンイビガワチョウ,シヅヤマ,岐阜県揖斐郡揖斐川町志津山
5010614,岐阜県,揖斐郡揖斐川町,長良,ギフケン,イビグンイビガワチョウ,ナガラ,岐阜県揖斐郡揖斐川町長良
5010615,岐阜県,揖斐郡揖斐川町,清水,ギフケン,イビグンイビガワチョウ,キヨミズ,岐阜県揖斐郡揖斐川町清水
5010616,岐阜県,揖斐郡揖斐川町,福島,ギフケン,イビグンイビガワチョウ,フクジマ,岐阜県揖斐郡揖斐川町福島
5010617,岐阜県,揖斐郡揖斐川町,島,ギフケン,イビグンイビガワチョウ,シマ,岐阜県揖斐郡揖斐川町島
5010618,岐阜県,揖斐郡揖斐川町,上ミ野,ギフケン,イビグンイビガワチョウ,カミノ,岐阜県揖斐郡揖斐川町上ミ野
5010619,岐阜県,揖斐郡揖斐川町,三輪,ギフケン,イビグンイビガワチョウ,ミワ,岐阜県揖斐郡揖斐川町三輪
5010621,岐阜県,揖斐郡揖斐川町,下岡島,ギフケン,イビグンイビガワチョウ,シモオカジマ,岐阜県揖斐郡揖斐川町下岡島
5010622,岐阜県,揖斐郡揖斐川町,脛永,ギフケン,イビグンイビガワチョウ,ハギナガ,岐阜県揖斐郡揖斐川町脛永
5010623,岐阜県,揖斐郡揖斐川町,和田,ギフケン,イビグンイビガワチョウ,ワダ,岐阜県揖斐郡揖斐川町和田
5010624,岐阜県,揖斐郡揖斐川町,岡,ギフケン,イビグンイビガワチョウ,オカ,岐阜県揖斐郡揖斐川町岡
5010625,岐阜県,揖斐郡揖斐川町,黒田,ギフケン,イビグンイビガワチョウ,クロダ,岐阜県揖斐郡揖斐川町黒田
5010626,岐阜県,揖斐郡揖斐川町,瑞岩寺,ギフケン,イビグンイビガワチョウ,ズイガンジ,岐阜県揖斐郡揖斐川町瑞岩寺
5010627,岐阜県,揖斐郡揖斐川町,市場,ギフケン,イビグンイビガワチョウ,イチバ,岐阜県揖斐郡揖斐川町市場
5010628,岐阜県,揖斐郡揖斐川町,新宮,ギフケン,イビグンイビガワチョウ,シングウ,岐阜県揖斐郡揖斐川町新宮
5010631,岐阜県,揖斐郡揖斐川町,上岡島,ギフケン,イビグンイビガワチョウ,カミオカジマ,岐阜県揖斐郡揖斐川町上岡島
5010632,岐阜県,揖斐郡揖斐川町,上東野,ギフケン,イビグンイビガワチョウ,カミヒガシノ,岐阜県揖斐郡揖斐川町上東野
5010633,岐阜県,揖斐郡揖斐川町,小島,ギフケン,イビグンイビガワチョウ,コジマ,岐阜県揖斐郡揖斐川町小島
5010634,岐阜県,揖斐郡揖斐川町,上野,ギフケン,イビグンイビガワチョウ,ウエノ,岐阜県揖斐郡揖斐川町上野
5010635,岐阜県,揖斐郡揖斐川町,白樫,ギフケン,イビグンイビガワチョウ,シラカシ,岐阜県揖斐郡揖斐川町白樫
5010701,岐阜県,揖斐郡揖斐川町,小津,ギフケン,イビグンイビガワチョウ,オヅ,岐阜県揖斐郡揖斐川町小津
5010702,岐阜県,揖斐郡揖斐川町,東津汲,ギフケン,イビグンイビガワチョウ,ヒガシツクミ,岐阜県揖斐郡揖斐川町東津汲
5010703,岐阜県,揖斐郡揖斐川町,乙原,ギフケン,イビグンイビガワチョウ,オトハラ,岐阜県揖斐郡揖斐川町乙原
5010704,岐阜県,揖斐郡揖斐川町,三倉,ギフケン,イビグンイビガワチョウ,ミクラ,岐阜県揖斐郡揖斐川町三倉
5010705,岐阜県,揖斐郡揖斐川町,外津汲,ギフケン,イビグンイビガワチョウ,トツクミ,岐阜県揖斐郡揖斐川町外津汲
5010706,岐阜県,揖斐郡揖斐川町,西津汲,ギフケン,イビグンイビガワチョウ,ニシツクミ,岐阜県揖斐郡揖斐川町西津汲
5010707,岐阜県,揖斐郡揖斐川町,日坂,ギフケン,イビグンイビガワチョウ,ヒサカ,岐阜県揖斐郡揖斐川町日坂
5010708,岐阜県,揖斐郡揖斐川町,樫原,ギフケン,イビグンイビガワチョウ,カシバラ,岐阜県揖斐郡揖斐川町樫原
5010802,岐阜県,揖斐郡揖斐川町,鶴見,ギフケン,イビグンイビガワチョウ,ツルミ,岐阜県揖斐郡揖斐川町鶴見
5010803,岐阜県,揖斐郡揖斐川町,東杉原,ギフケン,イビグンイビガワチョウ,ヒガシスギハラ,岐阜県揖斐郡揖斐川町東杉原
5010804,岐阜県,揖斐郡揖斐川町,東横山,ギフケン,イビグンイビガワチョウ,ヒガシヨコヤマ,岐阜県揖斐郡揖斐川町東横山
5010805,岐阜県,揖斐郡揖斐川町,西横山,ギフケン,イビグンイビガワチョウ,ニシヨコヤマ,岐阜県揖斐郡揖斐川町西横山
5010811,岐阜県,揖斐郡揖斐川町,塚,ギフケン,イビグンイビガワチョウ,ツカ,岐阜県揖斐郡揖斐川町塚
5010812,岐阜県,揖斐郡揖斐川町,櫨原,ギフケン,イビグンイビガワチョウ,ハゼハラ,岐阜県揖斐郡揖斐川町櫨原
5010813,岐阜県,揖斐郡揖斐川町,山手,ギフケン,イビグンイビガワチョウ,ヤマテ,岐阜県揖斐郡揖斐川町山手
5010814,岐阜県,揖斐郡揖斐川町,徳山,ギフケン,イビグンイビガワチョウ,トクヤマ,岐阜県揖斐郡揖斐川町徳山
5010815,岐阜県,揖斐郡揖斐川町,開田,ギフケン,イビグンイビガワチョウ,カイデン,岐阜県揖斐郡揖斐川町開田
5010816,岐阜県,揖斐郡揖斐川町,戸入,ギフケン,イビグンイビガワチョウ,トニュウ,岐阜県揖斐郡揖斐川町戸入
5010817,岐阜県,揖斐郡揖斐川町,門入,ギフケン,イビグンイビガワチョウ,カドニュウ,岐阜県揖斐郡揖斐川町門入
5010901,岐阜県,揖斐郡揖斐川町,坂内川上,ギフケン,イビグンイビガワチョウ,サカウチカワカミ,岐阜県揖斐郡揖斐川町坂内川上
5010902,岐阜県,揖斐郡揖斐川町,坂内広瀬,ギフケン,イビグンイビガワチョウ,サカウチヒロセ,岐阜県揖斐郡揖斐川町坂内広瀬
5010903,岐阜県,揖斐郡揖斐川町,坂内坂本,ギフケン,イビグンイビガワチョウ,サカウチサカモト,岐阜県揖斐郡揖斐川町坂内坂本
5011101,岐阜県,岐阜市,佐野,ギフケン,ギフシ,サノ,岐阜県岐阜市佐野
5011102,岐阜県,岐阜市,岩利,ギフケン,ギフシ,イワリ,岐阜県岐阜市岩利
5011103,岐阜県,岐阜市,彦坂川北,ギフケン,ギフシ,ヒコサカカワキタ,岐阜県岐阜市彦坂川北
5011104,岐阜県,岐阜市,彦坂川上,ギフケン,ギフシ,ヒコサカカワカミ,岐阜県岐阜市彦坂川上
5011105,岐阜県,岐阜市,彦坂,ギフケン,ギフシ,ヒコサカ,岐阜県岐阜市彦坂
5011106,岐阜県,岐阜市,石谷,ギフケン,ギフシ,イシガイ,岐阜県岐阜市石谷
5011107,岐阜県,岐阜市,村山,ギフケン,ギフシ,ムラヤマ,岐阜県岐阜市村山
5011108,岐阜県,岐阜市,安食志良古,ギフケン,ギフシ,アジキシラコ,岐阜県岐阜市安食志良古
5011109,岐阜県,岐阜市,安食,ギフケン,ギフシ,アジキ,岐阜県岐阜市安食
5011111,岐阜県,岐阜市,大学北,ギフケン,ギフシ,ダイガクキタ,岐阜県岐阜市大学北
5011112,岐阜県,岐阜市,柳戸,ギフケン,ギフシ,ヤナギト,岐阜県岐阜市柳戸
5011113,岐阜県,岐阜市,大学西,ギフケン,ギフシ,ダイガクニシ,岐阜県岐阜市大学西
5011114,岐阜県,岐阜市,今川,ギフケン,ギフシ,イマガワ,岐阜県岐阜市今川
5011115,岐阜県,岐阜市,交人,ギフケン,ギフシ,マシト,岐阜県岐阜市交人
5011116,岐阜県,岐阜市,深坂,ギフケン,ギフシ,フカサカ,岐阜県岐阜市深坂
5011121,岐阜県,岐阜市,古市場,ギフケン,ギフシ,フルイチバ,岐阜県岐阜市古市場
5011122,岐阜県,岐阜市,古市場老ノ上,ギフケン,ギフシ,フルイチバオイノカミ,岐阜県岐阜市古市場老ノ上
5011123,岐阜県,岐阜市,古市場高田,ギフケン,ギフシ,フルイチバタカダ,岐阜県岐阜市古市場高田
5011124,岐阜県,岐阜市,古市場中原,ギフケン,ギフシ,フルイチバナカハラ,岐阜県岐阜市古市場中原
5011125,岐阜県,岐阜市,古市場東町田,ギフケン,ギフシ,フルイチバヒガシマチダ,岐阜県岐阜市古市場東町田
5011126,岐阜県,岐阜市,古市場高宮,ギフケン,ギフシ,フルイチバタカミヤ,岐阜県岐阜市古市場高宮
5011127,岐阜県,岐阜市,古市場神田,ギフケン,ギフシ,フルイチバジンデン,岐阜県岐阜市古市場神田
5011128,岐阜県,岐阜市,洞,ギフケン,ギフシ,ホラ,岐阜県岐阜市洞
5011131,岐阜県,岐阜市,黒野,ギフケン,ギフシ,クロノ,岐阜県岐阜市黒野
5011132,岐阜県,岐阜市,折立,ギフケン,ギフシ,オリタテ,岐阜県岐阜市折立
5011133,岐阜県,岐阜市,北柿ケ瀬,ギフケン,ギフシ,キタカキガセ,岐阜県岐阜市北柿ケ瀬
5011134,岐阜県,岐阜市,南柿ケ瀬,ギフケン,ギフシ,ミナミカキガセ,岐阜県岐阜市南柿ケ瀬
5011135,岐阜県,岐阜市,木田,ギフケン,ギフシ,キダ,岐阜県岐阜市木田
5011136,岐阜県,岐阜市,黒野南,ギフケン,ギフシ,クロノミナミ,岐阜県岐阜市黒野南
5011141,岐阜県,岐阜市,東板谷,ギフケン,ギフシ,ヒガシイタヤ,岐阜県岐阜市東板谷
5011142,岐阜県,岐阜市,東改田,ギフケン,ギフシ,ヒガシカイデン,岐阜県岐阜市東改田
5011143,岐阜県,岐阜市,東改田鶴田,ギフケン,ギフシ,ヒガシカイデンツルタ,岐阜県岐阜市東改田鶴田
5011144,岐阜県,岐阜市,東改田再勝,ギフケン,ギフシ,ヒガシカイデンサイカチ,岐阜県岐阜市東改田再勝
5011145,岐阜県,岐阜市,東改田腰前田,ギフケン,ギフシ,ヒガシカイデンコシマエダ,岐阜県岐阜市東改田腰前田
5011146,岐阜県,岐阜市,下尻毛,ギフケン,ギフシ,シモシッケ,岐阜県岐阜市下尻毛
5011147,岐阜県,岐阜市,尻毛,ギフケン,ギフシ,シッケ,岐阜県岐阜市尻毛
5011148,岐阜県,岐阜市,上尻毛日吉,ギフケン,ギフシ,カミシッケヒヨシ,岐阜県岐阜市上尻毛日吉
5011149,岐阜県,岐阜市,上尻毛八幡,ギフケン,ギフシ,カミシッケハチマン,岐阜県岐阜市上尻毛八幡
5011150,岐阜県,岐阜市,上尻毛,ギフケン,ギフシ,カミシッケ,岐阜県岐阜市上尻毛
5011151,岐阜県,岐阜市,川部,ギフケン,ギフシ,カワベ,岐阜県岐阜市川部
5011152,岐阜県,岐阜市,又丸,ギフケン,ギフシ,マタマル,岐阜県岐阜市又丸
5011153,岐阜県,岐阜市,又丸町畑,ギフケン,ギフシ,マタマルチョウバタ,岐阜県岐阜市又丸町畑
5011154,岐阜県,岐阜市,又丸柳町,ギフケン,ギフシ,マタマルヤナギマチ,岐阜県岐阜市又丸柳町
5011155,岐阜県,岐阜市,又丸宮東,ギフケン,ギフシ,マタマルミヤヒガシ,岐阜県岐阜市又丸宮東
5011156,岐阜県,岐阜市,又丸津島,ギフケン,ギフシ,マタマルツシマ,岐阜県岐阜市又丸津島
5011157,岐阜県,岐阜市,又丸村中,ギフケン,ギフシ,マタマルムラナカ,岐阜県岐阜市又丸村中
5011158,岐阜県,岐阜市,西改田先道,ギフケン,ギフシ,ニシカイデンセンドウ,岐阜県岐阜市西改田先道
5011159,岐阜県,岐阜市,西改田,ギフケン,ギフシ,ニシカイデン,岐阜県岐阜市西改田
5011159,岐阜県,岐阜市,西改田松の木,ギフケン,ギフシ,ニシカイデンマツノキ,岐阜県岐阜市西改田松の木
5011161,岐阜県,岐阜市,西改田川向,ギフケン,ギフシ,ニシカイデンカワムカイ,岐阜県岐阜市西改田川向
5011162,岐阜県,岐阜市,西改田若宮,ギフケン,ギフシ,ニシカイデンワカミヤ,岐阜県岐阜市西改田若宮
5011163,岐阜県,岐阜市,西改田米野,ギフケン,ギフシ,ニシカイデンコメノ,岐阜県岐阜市西改田米野
5011164,岐阜県,岐阜市,西改田東改田入会地,ギフケン,ギフシ,ニシカイデンヒガシカイデンイリアイチ,岐阜県岐阜市西改田東改田入会地
5011165,岐阜県,岐阜市,西改田宮西,ギフケン,ギフシ,ニシカイデンミヤニシ,岐阜県岐阜市西改田宮西
5011166,岐阜県,岐阜市,西改田村前,ギフケン,ギフシ,ニシカイデンムラマエ,岐阜県岐阜市西改田村前
5011167,岐阜県,岐阜市,西改田夏梅,ギフケン,ギフシ,ニシカイデンナツメ,岐阜県岐阜市西改田夏梅
5011168,岐阜県,岐阜市,西改田上の町,ギフケン,ギフシ,ニシカイデンウエノマチ,岐阜県岐阜市西改田上の町
5011169,岐阜県,岐阜市,西改田七石,ギフケン,ギフシ,ニシカイデンヒチコク,岐阜県岐阜市西改田七石
5011171,岐阜県,岐阜市,御望,ギフケン,ギフシ,ゴモ,岐阜県岐阜市御望
5011172,岐阜県,岐阜市,下鵜飼,ギフケン,ギフシ,シモウカイ,岐阜県岐阜市下鵜飼
5011173,岐阜県,岐阜市,中,ギフケン,ギフシ,ナカ,岐阜県岐阜市中
5011174,岐阜県,岐阜市,小野,ギフケン,ギフシ,コノ,岐阜県岐阜市小野
5011175,岐阜県,岐阜市,下西郷,ギフケン,ギフシ,シモサイゴウ,岐阜県岐阜市下西郷
5011176,岐阜県,岐阜市,小西郷,ギフケン,ギフシ,コサイゴウ,岐阜県岐阜市小西郷
5011177,岐阜県,岐阜市,中西郷,ギフケン,ギフシ,ナカサイゴウ,岐阜県岐阜市中西郷
5011178,岐阜県,岐阜市,上西郷,ギフケン,ギフシ,カミサイゴウ,岐阜県岐阜市上西郷
5011181,岐阜県,岐阜市,雛倉,ギフケン,ギフシ,ヒナクラ,岐阜県岐阜市雛倉
5011182,岐阜県,岐阜市,秋沢,ギフケン,ギフシ,アキサワ,岐阜県岐阜市秋沢
5011183,岐阜県,岐阜市,則松,ギフケン,ギフシ,ノリマツ,岐阜県岐阜市則松
5011184,岐阜県,岐阜市,西秋沢,ギフケン,ギフシ,ニシアキサワ,岐阜県岐阜市西秋沢
5011185,岐阜県,岐阜市,奥,ギフケン,ギフシ,オク,岐阜県岐阜市奥
5011186,岐阜県,岐阜市,外山,ギフケン,ギフシ,トヤマ,岐阜県岐阜市外山
5011201,岐阜県,本巣市,山口,ギフケン,モトスシ,ヤマグチ,岐阜県本巣市山口
5011202,岐阜県,本巣市,法林寺,ギフケン,モトスシ,ホウリンジ,岐阜県本巣市法林寺
5011203,岐阜県,本巣市,宝珠ハイツ,ギフケン,モトスシ,ホウジュハイツ,岐阜県本巣市宝珠ハイツ
5011203,岐阜県,本巣市,文殊,ギフケン,モトスシ,モンジュ,岐阜県本巣市文殊
5011205,岐阜県,本巣市,曽井中島,ギフケン,モトスシ,ソイナカジマ,岐阜県本巣市曽井中島
5011231,岐阜県,本巣市,日当,ギフケン,モトスシ,ヒナタ,岐阜県本巣市日当
5011232,岐阜県,本巣市,金原,ギフケン,モトスシ,キンバラ,岐阜県本巣市金原
5011233,岐阜県,本巣市,外山,ギフケン,モトスシ,トヤマ,岐阜県本巣市外山
5011234,岐阜県,本巣市,木知原,ギフケン,モトスシ,コチボラ,岐阜県本巣市木知原
5011235,岐阜県,本巣市,神海,ギフケン,モトスシ,コウミ,岐阜県本巣市神海
5011236,岐阜県,本巣市,佐原,ギフケン,モトスシ,サワラ,岐阜県本巣市佐原
5011236,岐阜県,本巣市,鍋原,ギフケン,モトスシ,ナベラ,岐阜県本巣市鍋原
5011301,岐阜県,揖斐郡揖斐川町,谷汲高科,ギフケン,イビグンイビガワチョウ,タニグミタカシナ,岐阜県揖斐郡揖斐川町谷汲高科
5011302,岐阜県,揖斐郡揖斐川町,谷汲岐礼,ギフケン,イビグンイビガワチョウ,タニグミキレ,岐阜県揖斐郡揖斐川町谷汲岐礼
5011303,岐阜県,揖斐郡揖斐川町,谷汲長瀬,ギフケン,イビグンイビガワチョウ,タニグミナガセ,岐阜県揖斐郡揖斐川町谷汲長瀬
5011311,岐阜県,揖斐郡揖斐川町,谷汲徳積,ギフケン,イビグンイビガワチョウ,タニグミトクヅミ,岐阜県揖斐郡揖斐川町谷汲徳積
5011312,岐阜県,揖斐郡揖斐川町,谷汲大洞,ギフケン,イビグンイビガワチョウ,タニグミオオボラ,岐阜県揖斐郡揖斐川町谷汲大洞
5011313,岐阜県,揖斐郡揖斐川町,谷汲深坂,ギフケン,イビグンイビガワチョウ,タニグミフカサカ,岐阜県揖斐郡揖斐川町谷汲深坂
5011314,岐阜県,揖斐郡揖斐川町,谷汲名礼,ギフケン,イビグンイビガワチョウ,タニグミナレ,岐阜県揖斐郡揖斐川町谷汲名礼
5011315,岐阜県,揖斐郡揖斐川町,谷汲有鳥,ギフケン,イビグンイビガワチョウ,タニグミアットリ,岐阜県揖斐郡揖斐川町谷汲有鳥
5011316,岐阜県,揖斐郡揖斐川町,谷汲木曽屋,ギフケン,イビグンイビガワチョウ,タニグミキソヤ,岐阜県揖斐郡揖斐川町谷汲木曽屋
5011317,岐阜県,揖斐郡揖斐川町,谷汲神原,ギフケン,イビグンイビガワチョウ,タニグミカンバラ,岐阜県揖斐郡揖斐川町谷汲神原
5011501,岐阜県,本巣市,根尾越波,ギフケン,モトスシ,ネオオッパ,岐阜県本巣市根尾越波
5011502,岐阜県,本巣市,根尾黒津,ギフケン,モトスシ,ネオクロヅ,岐阜県本巣市根尾黒津
5011503,岐阜県,本巣市,根尾長嶺,ギフケン,モトスシ,ネオナガミネ,岐阜県本巣市根尾長嶺
5011504,岐阜県,本巣市,根尾天神堂,ギフケン,モトスシ,ネオテンジンドウ,岐阜県本巣市根尾天神堂
5011505,岐阜県,本巣市,根尾長島,ギフケン,モトスシ,ネオナガシマ,岐阜県本巣市根尾長島
5011506,岐阜県,本巣市,根尾能郷,ギフケン,モトスシ,ネオノウゴウ,岐阜県本巣市根尾能郷
5011507,岐阜県,本巣市,根尾大河原,ギフケン,モトスシ,ネオオオカワラ,岐阜県本巣市根尾大河原
5011511,岐阜県,本巣市,根尾上大須,ギフケン,モトスシ,ネオカミオオス,岐阜県本巣市根尾上大須
5011512,岐阜県,本巣市,根尾下大須,ギフケン,モトスシ,ネオシモオオス,岐阜県本巣市根尾下大須
5011513,岐阜県,本巣市,根尾松田,ギフケン,モトスシ,ネオマツダ,岐阜県本巣市根尾松田
5011514,岐阜県,本巣市,根尾奥谷,ギフケン,モトスシ,ネオオクダニ,岐阜県本巣市根尾奥谷
5011515,岐阜県,本巣市,根尾口谷,ギフケン,モトスシ,ネオクチダニ,岐阜県本巣市根尾口谷
5011516,岐阜県,本巣市,根尾東板屋,ギフケン,モトスシ,ネオヒガシイタヤ,岐阜県本巣市根尾東板屋
5011517,岐阜県,本巣市,根尾西板屋,ギフケン,モトスシ,ネオニシイタヤ,岐阜県本巣市根尾西板屋
5011518,岐阜県,本巣市,根尾小鹿,ギフケン,モトスシ,ネオオジカ,岐阜県本巣市根尾小鹿
5011521,岐阜県,本巣市,根尾市場,ギフケン,モトスシ,ネオイチバ,岐阜県本巣市根尾市場
5011522,岐阜県,本巣市,根尾樽見,ギフケン,モトスシ,ネオタルミ,岐阜県本巣市根尾樽見
5011523,岐阜県,本巣市,根尾川原,ギフケン,モトスシ,ネオカワラ,岐阜県本巣市根尾川原
5011524,岐阜県,本巣市,根尾板所,ギフケン,モトスシ,ネオイタショ,岐阜県本巣市根尾板所
5011525,岐阜県,本巣市,根尾今村,ギフケン,モトスシ,ネオイマムラ,岐阜県本巣市根尾今村
5011526,岐阜県,本巣市,根尾平野,ギフケン,モトスシ,ネオヒラノ,岐阜県本巣市根尾平野
5011527,岐阜県,本巣市,根尾宇津志,ギフケン,モトスシ,ネオウツシ,岐阜県本巣市根尾宇津志
5011528,岐阜県,本巣市,根尾高尾,ギフケン,モトスシ,ネオタカオ,岐阜県本巣市根尾高尾
5011529,岐阜県,本巣市,根尾水鳥,ギフケン,モトスシ,ネオミドリ,岐阜県本巣市根尾水鳥
5011531,岐阜県,本巣市,根尾門脇,ギフケン,モトスシ,ネオカドワキ,岐阜県本巣市根尾門脇
5011532,岐阜県,本巣市,根尾越卒,ギフケン,モトスシ,ネオオッソ,岐阜県本巣市根尾越卒
5011533,岐阜県,本巣市,根尾中,ギフケン,モトスシ,ネオナカ,岐阜県本巣市根尾中
5011534,岐阜県,本巣市,根尾神所,ギフケン,モトスシ,ネオコウドコロ,岐阜県本巣市根尾神所
5011535,岐阜県,本巣市,根尾大井,ギフケン,モトスシ,ネオオオイ,岐阜県本巣市根尾大井
5011536,岐阜県,本巣市,根尾八谷,ギフケン,モトスシ,ネオヤタニ,岐阜県本巣市根尾八谷
5012100,岐阜県,山県市,,ギフケン,ヤマガタシ,,岐阜県山県市
5012101,岐阜県,山県市,大桑,ギフケン,ヤマガタシ,オオガ,岐阜県山県市大桑
5012102,岐阜県,山県市,伊佐美,ギフケン,ヤマガタシ,イサミ,岐阜県山県市伊佐美
5012103,岐阜県,山県市,椎倉,ギフケン,ヤマガタシ,シグラ,岐阜県山県市椎倉
5012104,岐阜県,山県市,東深瀬,ギフケン,ヤマガタシ,ヒガシフカセ,岐阜県山県市東深瀬
5012105,岐阜県,山県市,高富,ギフケン,ヤマガタシ,タカトミ,岐阜県山県市高富
5012111,岐阜県,山県市,赤尾,ギフケン,ヤマガタシ,アカオ,岐阜県山県市赤尾
5012112,岐阜県,山県市,西深瀬,ギフケン,ヤマガタシ,ニシフカセ,岐阜県山県市西深瀬
5012113,岐阜県,山県市,高木,ギフケン,ヤマガタシ,タカキ,岐阜県山県市高木
5012114,岐阜県,山県市,佐賀,ギフケン,ヤマガタシ,サガ,岐阜県山県市佐賀
5012115,岐阜県,山県市,梅原,ギフケン,ヤマガタシ,ウメハラ,岐阜県山県市梅原
5012121,岐阜県,山県市,大門,ギフケン,ヤマガタシ,ダイモン,岐阜県山県市大門
5012122,岐阜県,山県市,藤倉,ギフケン,ヤマガタシ,フジクラ,岐阜県山県市藤倉
5012123,岐阜県,山県市,大森,ギフケン,ヤマガタシ,オオモリ,岐阜県山県市大森
5012124,岐阜県,山県市,小倉,ギフケン,ヤマガタシ,コグラ,岐阜県山県市小倉
5012125,岐阜県,山県市,洞田,ギフケン,ヤマガタシ,ホラダ,岐阜県山県市洞田
5012131,岐阜県,山県市,平井,ギフケン,ヤマガタシ,ヒライ,岐阜県山県市平井
5012132,岐阜県,山県市,掛,ギフケン,ヤマガタシ,カケ,岐阜県山県市掛
5012133,岐阜県,山県市,上願,ギフケン,ヤマガタシ,ジョウガン,岐阜県山県市上願
5012134,岐阜県,山県市,松尾,ギフケン,ヤマガタシ,マツオ,岐阜県山県市松尾
5012135,岐阜県,山県市,長滝,ギフケン,ヤマガタシ,ナガタキ,岐阜県山県市長滝
5012251,岐阜県,山県市,柿野,ギフケン,ヤマガタシ,カキノ,岐阜県山県市柿野
5012252,岐阜県,山県市,相戸,ギフケン,ヤマガタシ,アイド,岐阜県山県市相戸
5012253,岐阜県,山県市,日永,ギフケン,ヤマガタシ,ヒナガ,岐阜県山県市日永
5012254,岐阜県,山県市,出戸,ギフケン,ヤマガタシ,デト,岐阜県山県市出戸
5012255,岐阜県,山県市,船越,ギフケン,ヤマガタシ,フナコシ,岐阜県山県市船越
5012256,岐阜県,山県市,青波,ギフケン,ヤマガタシ,アオナミ,岐阜県山県市青波
5012257,岐阜県,山県市,富永,ギフケン,ヤマガタシ,トミナガ,岐阜県山県市富永
5012258,岐阜県,山県市,中洞,ギフケン,ヤマガタシ,ナカホラ,岐阜県山県市中洞
5012259,岐阜県,山県市,岩佐,ギフケン,ヤマガタシ,イワサ,岐阜県山県市岩佐
5012301,岐阜県,山県市,神崎,ギフケン,ヤマガタシ,カンザキ,岐阜県山県市神崎
5012302,岐阜県,山県市,円原,ギフケン,ヤマガタシ,エンバラ,岐阜県山県市円原
5012303,岐阜県,山県市,片原,ギフケン,ヤマガタシ,カタハラ,岐阜県山県市片原
5012311,岐阜県,山県市,椿,ギフケン,ヤマガタシ,ツバキ,岐阜県山県市椿
5012312,岐阜県,山県市,佐野,ギフケン,ヤマガタシ,サノ,岐阜県山県市佐野
5012313,岐阜県,山県市,徳永,ギフケン,ヤマガタシ,トクナガ,岐阜県山県市徳永
5012314,岐阜県,山県市,笹賀,ギフケン,ヤマガタシ,ササガ,岐阜県山県市笹賀
5012315,岐阜県,山県市,田栗,ギフケン,ヤマガタシ,タグリ,岐阜県山県市田栗
5012321,岐阜県,山県市,谷合,ギフケン,ヤマガタシ,タニアイ,岐阜県山県市谷合
5012331,岐阜県,山県市,葛原,ギフケン,ヤマガタシ,クズハラ,岐阜県山県市葛原
5012501,岐阜県,岐阜市,出屋敷,ギフケン,ギフシ,デヤシキ,岐阜県岐阜市出屋敷
5012502,岐阜県,岐阜市,山県北野,ギフケン,ギフシ,ヤマガタキタノ,岐阜県岐阜市山県北野
5012503,岐阜県,岐阜市,北野阿原,ギフケン,ギフシ,キタノアワラ,岐阜県岐阜市北野阿原
5012504,岐阜県,岐阜市,山県岩,ギフケン,ギフシ,ヤマガタイワ,岐阜県岐阜市山県岩
5012505,岐阜県,岐阜市,山県岩東,ギフケン,ギフシ,ヤマガタイワヒガシ,岐阜県岐阜市山県岩東
5012506,岐阜県,岐阜市,山県岩南,ギフケン,ギフシ,ヤマガタイワミナミ,岐阜県岐阜市山県岩南
5012507,岐阜県,岐阜市,山県岩中,ギフケン,ギフシ,ヤマガタイワナカ,岐阜県岐阜市山県岩中
5012508,岐阜県,岐阜市,山県岩明光,ギフケン,ギフシ,ヤマガタイワミョウコウ,岐阜県岐阜市山県岩明光
5012509,岐阜県,岐阜市,山県岩西,ギフケン,ギフシ,ヤマガタイワニシ,岐阜県岐阜市山県岩西
5012511,岐阜県,岐阜市,北野北,ギフケン,ギフシ,キタノキタ,岐阜県岐阜市北野北
5012512,岐阜県,岐阜市,北野東,ギフケン,ギフシ,キタノヒガシ,岐阜県岐阜市北野東
5012513,岐阜県,岐阜市,三輪,ギフケン,ギフシ,ミワ,岐阜県岐阜市三輪
5012514,岐阜県,岐阜市,三輪宮前,ギフケン,ギフシ,ミワミヤマエ,岐阜県岐阜市三輪宮前
5012515,岐阜県,岐阜市,三輪宮西,ギフケン,ギフシ,ミワミヤニシ,岐阜県岐阜市三輪宮西
5012516,岐阜県,岐阜市,北野南,ギフケン,ギフシ,キタノミナミ,岐阜県岐阜市北野南
5012517,岐阜県,岐阜市,三輪ぷりんとぴあ,ギフケン,ギフシ,ミワプリントピア,岐阜県岐阜市三輪ぷりんとぴあ
5012518,岐阜県,岐阜市,北野西,ギフケン,ギフシ,キタノニシ,岐阜県岐阜市北野西
5012519,岐阜県,岐阜市,北野西山,ギフケン,ギフシ,キタノニシヤマ,岐阜県岐阜市北野西山
5012521,岐阜県,岐阜市,門屋,ギフケン,ギフシ,カドヤ,岐阜県岐阜市門屋
5012522,岐阜県,岐阜市,門屋溝上,ギフケン,ギフシ,カドヤミゾガミ,岐阜県岐阜市門屋溝上
5012523,岐阜県,岐阜市,茂地,ギフケン,ギフシ,モチ,岐阜県岐阜市茂地
5012524,岐阜県,岐阜市,春近古市場北,ギフケン,ギフシ,ハルチカフルイチバキタ,岐阜県岐阜市春近古市場北
5012525,岐阜県,岐阜市,春近古市場南,ギフケン,ギフシ,ハルチカフルイチバミナミ,岐阜県岐阜市春近古市場南
5012526,岐阜県,岐阜市,門屋野崎,ギフケン,ギフシ,カドヤノザキ,岐阜県岐阜市門屋野崎
5012527,岐阜県,岐阜市,門屋勢引,ギフケン,ギフシ,カドヤセイヒキ,岐阜県岐阜市門屋勢引
5012528,岐阜県,岐阜市,門屋門,ギフケン,ギフシ,カドヤカド,岐阜県岐阜市門屋門
5012531,岐阜県,岐阜市,中屋東,ギフケン,ギフシ,ナカヤヒガシ,岐阜県岐阜市中屋東
5012532,岐阜県,岐阜市,中屋西,ギフケン,ギフシ,ナカヤニシ,岐阜県岐阜市中屋西
5012533,岐阜県,岐阜市,森東,ギフケン,ギフシ,モリヒガシ,岐阜県岐阜市森東
5012534,岐阜県,岐阜市,森西,ギフケン,ギフシ,モリニシ,岐阜県岐阜市森西
5012535,岐阜県,岐阜市,石原（１〜３丁目）,ギフケン,ギフシ,イシハラ(1-3チョウメ),岐阜県岐阜市石原（1〜3-）
5012536,岐阜県,岐阜市,太郎丸樫木,ギフケン,ギフシ,タロウマルカシキ,岐阜県岐阜市太郎丸樫木
5012541,岐阜県,岐阜市,世保,ギフケン,ギフシ,ヨヤス,岐阜県岐阜市世保
5012542,岐阜県,岐阜市,世保東,ギフケン,ギフシ,ヨヤスヒガシ,岐阜県岐阜市世保東
5012543,岐阜県,岐阜市,世保南,ギフケン,ギフシ,ヨヤスミナミ,岐阜県岐阜市世保南
5012544,岐阜県,岐阜市,世保西,ギフケン,ギフシ,ヨヤスニシ,岐阜県岐阜市世保西
5012545,岐阜県,岐阜市,世保北,ギフケン,ギフシ,ヨヤスキタ,岐阜県岐阜市世保北
5012551,岐阜県,岐阜市,溝口,ギフケン,ギフシ,ミゾグチ,岐阜県岐阜市溝口
5012552,岐阜県,岐阜市,溝口東,ギフケン,ギフシ,ミゾグチヒガシ,岐阜県岐阜市溝口東
5012553,岐阜県,岐阜市,溝口中野,ギフケン,ギフシ,ミゾグチナカノ,岐阜県岐阜市溝口中野
5012554,岐阜県,岐阜市,溝口童子,ギフケン,ギフシ,ミゾグチドウジ,岐阜県岐阜市溝口童子
5012555,岐阜県,岐阜市,溝口下,ギフケン,ギフシ,ミゾグチシモ,岐阜県岐阜市溝口下
5012556,岐阜県,岐阜市,溝口中,ギフケン,ギフシ,ミゾグチナカ,岐阜県岐阜市溝口中
5012557,岐阜県,岐阜市,溝口上,ギフケン,ギフシ,ミゾグチカミ,岐阜県岐阜市溝口上
5012561,岐阜県,岐阜市,福富笠海道,ギフケン,ギフシ,フクトミカサカイドウ,岐阜県岐阜市福富笠海道
5012562,岐阜県,岐阜市,福富出口,ギフケン,ギフシ,フクトミデグチ,岐阜県岐阜市福富出口
5012563,岐阜県,岐阜市,福富迎田,ギフケン,ギフシ,フクトミムカエダ,岐阜県岐阜市福富迎田
5012564,岐阜県,岐阜市,福富永田,ギフケン,ギフシ,フクトミナガタ,岐阜県岐阜市福富永田
5012565,岐阜県,岐阜市,福富,ギフケン,ギフシ,フクトミ,岐阜県岐阜市福富
5012566,岐阜県,岐阜市,福富天神前,ギフケン,ギフシ,フクトミテンジンマエ,岐阜県岐阜市福富天神前
5012567,岐阜県,岐阜市,福富町田,ギフケン,ギフシ,フクトミチョウダ,岐阜県岐阜市福富町田
5012571,岐阜県,岐阜市,太郎丸向良,ギフケン,ギフシ,タロウマルムガイラ,岐阜県岐阜市太郎丸向良
5012572,岐阜県,岐阜市,太郎丸北郷,ギフケン,ギフシ,タロウマルキタゴウ,岐阜県岐阜市太郎丸北郷
5012573,岐阜県,岐阜市,太郎丸諏訪,ギフケン,ギフシ,タロウマルスワ,岐阜県岐阜市太郎丸諏訪
5012574,岐阜県,岐阜市,太郎丸北浦,ギフケン,ギフシ,タロウマルキタウラ,岐阜県岐阜市太郎丸北浦
5012575,岐阜県,岐阜市,太郎丸中島,ギフケン,ギフシ,タロウマルナカジマ,岐阜県岐阜市太郎丸中島
5012576,岐阜県,岐阜市,太郎丸新屋敷,ギフケン,ギフシ,タロウマルシンヤシキ,岐阜県岐阜市太郎丸新屋敷
5012577,岐阜県,岐阜市,太郎丸,ギフケン,ギフシ,タロウマル,岐阜県岐阜市太郎丸
5012578,岐阜県,岐阜市,太郎丸野田,ギフケン,ギフシ,タロウマルノダ,岐阜県岐阜市太郎丸野田
5012579,岐阜県,岐阜市,太郎丸知之道,ギフケン,ギフシ,タロウマルチノミチ,岐阜県岐阜市太郎丸知之道
5012601,岐阜県,関市,武芸川町谷口,ギフケン,セキシ,ムゲガワチョウタニグチ,岐阜県関市武芸川町谷口
5012602,岐阜県,関市,武芸川町小知野,ギフケン,セキシ,ムゲガワチョウオジノ,岐阜県関市武芸川町小知野
5012603,岐阜県,関市,武芸川町八幡,ギフケン,セキシ,ムゲガワチョウハチマン,岐阜県関市武芸川町八幡
5012604,岐阜県,関市,武芸川町高野,ギフケン,セキシ,ムゲガワチョウタカノ,岐阜県関市武芸川町高野
5012605,岐阜県,関市,武芸川町跡部,ギフケン,セキシ,ムゲガワチョウアトベ,岐阜県関市武芸川町跡部
5012606,岐阜県,関市,武芸川町平,ギフケン,セキシ,ムゲガワチョウヒラ,岐阜県関市武芸川町平
5012607,岐阜県,関市,武芸川町宇多院,ギフケン,セキシ,ムゲガワチョウウダイン,岐阜県関市武芸川町宇多院
5012801,岐阜県,関市,洞戸栗原,ギフケン,セキシ,ホラドクリハラ,岐阜県関市洞戸栗原
5012802,岐阜県,関市,洞戸通元寺,ギフケン,セキシ,ホラドツウゲンジ,岐阜県関市洞戸通元寺
5012803,岐阜県,関市,洞戸飛瀬,ギフケン,セキシ,ホラドヒセ,岐阜県関市洞戸飛瀬
5012805,岐阜県,関市,洞戸尾倉,ギフケン,セキシ,ホラドオグラ,岐阜県関市洞戸尾倉
5012806,岐阜県,関市,洞戸高賀,ギフケン,セキシ,ホラドコウカ,岐阜県関市洞戸高賀
5012807,岐阜県,関市,洞戸阿部,ギフケン,セキシ,ホラドアベ,岐阜県関市洞戸阿部
5012808,岐阜県,関市,洞戸高見,ギフケン,セキシ,ホラドコウミ,岐阜県関市洞戸高見
5012809,岐阜県,関市,洞戸小瀬見,ギフケン,セキシ,ホラドオゼミ,岐阜県関市洞戸小瀬見
5012811,岐阜県,関市,洞戸片,ギフケン,セキシ,ホラドカタ,岐阜県関市洞戸片
5012812,岐阜県,関市,洞戸市場,ギフケン,セキシ,ホラドイチバ,岐阜県関市洞戸市場
5012814,岐阜県,関市,洞戸菅谷,ギフケン,セキシ,ホラドスガダニ,岐阜県関市洞戸菅谷
5012815,岐阜県,関市,洞戸黒谷,ギフケン,セキシ,ホラドクロダニ,岐阜県関市洞戸黒谷
5012816,岐阜県,関市,洞戸大野,ギフケン,セキシ,ホラドオオノ,岐阜県関市洞戸大野
5012817,岐阜県,関市,洞戸小坂,ギフケン,セキシ,ホラドコサカ,岐阜県関市洞戸小坂
5012901,岐阜県,関市,板取,ギフケン,セキシ,イタドリ,岐阜県関市板取
5013101,岐阜県,岐阜市,岩井,ギフケン,ギフシ,イワイ,岐阜県岐阜市岩井
5013102,岐阜県,岐阜市,岩井万場,ギフケン,ギフシ,イワイマンバ,岐阜県岐阜市岩井万場
5013104,岐阜県,岐阜市,石原（その他）,ギフケン,ギフシ,イシハラ(ソノタ),岐阜県岐阜市石原（その他）
5013107,岐阜県,岐阜市,加野,ギフケン,ギフシ,カノ,岐阜県岐阜市加野
5013108,岐阜県,岐阜市,大蔵台,ギフケン,ギフシ,オオクラダイ,岐阜県岐阜市大蔵台
5013109,岐阜県,岐阜市,向加野,ギフケン,ギフシ,ムカイカノ,岐阜県岐阜市向加野
5013111,岐阜県,岐阜市,芥見大退,ギフケン,ギフシ,アクタミオオノギ,岐阜県岐阜市芥見大退
5013112,岐阜県,岐阜市,芥見東山,ギフケン,ギフシ,アクタミヒガシヤマ,岐阜県岐阜市芥見東山
5013113,岐阜県,岐阜市,北山,ギフケン,ギフシ,キタヤマ,岐阜県岐阜市北山
5013114,岐阜県,岐阜市,芥見大船,ギフケン,ギフシ,アクタミオオブネ,岐阜県岐阜市芥見大船
5013115,岐阜県,岐阜市,上芥見,ギフケン,ギフシ,カミアクタミ,岐阜県岐阜市上芥見
5013116,岐阜県,岐阜市,芥見町屋,ギフケン,ギフシ,アクタミマチヤ,岐阜県岐阜市芥見町屋
5013117,岐阜県,岐阜市,コモンヒルズ北山,ギフケン,ギフシ,コモンヒルズキタヤマ,岐阜県岐阜市コモンヒルズ北山
5013121,岐阜県,岐阜市,大洞桐が丘,ギフケン,ギフシ,オオボラキリガオカ,岐阜県岐阜市大洞桐が丘
5013122,岐阜県,岐阜市,大洞紅葉が丘,ギフケン,ギフシ,オオボラモミジガオカ,岐阜県岐阜市大洞紅葉が丘
5013123,岐阜県,岐阜市,大洞柏台,ギフケン,ギフシ,オオボラカシワダイ,岐阜県岐阜市大洞柏台
5013124,岐阜県,岐阜市,大洞,ギフケン,ギフシ,オオボラ,岐阜県岐阜市大洞
5013125,岐阜県,岐阜市,大洞緑山,ギフケン,ギフシ,オオボラミドリヤマ,岐阜県岐阜市大洞緑山
5013126,岐阜県,岐阜市,大洞西,ギフケン,ギフシ,オオボラニシ,岐阜県岐阜市大洞西
5013127,岐阜県,岐阜市,大洞桜台,ギフケン,ギフシ,オオボラサクラダイ,岐阜県岐阜市大洞桜台
5013131,岐阜県,岐阜市,祇園,ギフケン,ギフシ,ギオン,岐阜県岐阜市祇園
5013132,岐阜県,岐阜市,芥見長山,ギフケン,ギフシ,アクタミナガヤマ,岐阜県岐阜市芥見長山
5013133,岐阜県,岐阜市,芥見南山,ギフケン,ギフシ,アクタミミナミヤマ,岐阜県岐阜市芥見南山
5013134,岐阜県,岐阜市,芥見,ギフケン,ギフシ,アクタミ,岐阜県岐阜市芥見
5013135,岐阜県,岐阜市,芥見清水,ギフケン,ギフシ,アクタミキヨミズ,岐阜県岐阜市芥見清水
5013136,岐阜県,岐阜市,芥見海戸山,ギフケン,ギフシ,アクタミカイトヤマ,岐阜県岐阜市芥見海戸山
5013141,岐阜県,岐阜市,芥見中野畑,ギフケン,ギフシ,アクタミナカノバタ,岐阜県岐阜市芥見中野畑
5013142,岐阜県,岐阜市,諏訪山,ギフケン,ギフシ,スワヤマ,岐阜県岐阜市諏訪山
5013143,岐阜県,岐阜市,芥見影山,ギフケン,ギフシ,アクタミカゲヤマ,岐阜県岐阜市芥見影山
5013144,岐阜県,岐阜市,芥見大般若,ギフケン,ギフシ,アクタミダイハンニャ,岐阜県岐阜市芥見大般若
5013145,岐阜県,岐阜市,芥見野畑,ギフケン,ギフシ,アクタミノバタ,岐阜県岐阜市芥見野畑
5013146,岐阜県,岐阜市,芥見嵯峨,ギフケン,ギフシ,アクタミサガ,岐阜県岐阜市芥見嵯峨
5013147,岐阜県,岐阜市,芥見堀田,ギフケン,ギフシ,アクタミホリタ,岐阜県岐阜市芥見堀田
5013151,岐阜県,岐阜市,岩滝東,ギフケン,ギフシ,イワタキヒガシ,岐阜県岐阜市岩滝東
5013152,岐阜県,岐阜市,岩滝西,ギフケン,ギフシ,イワタキニシ,岐阜県岐阜市岩滝西
5013153,岐阜県,岐阜市,静が丘町,ギフケン,ギフシ,シズガオカチョウ,岐阜県岐阜市静が丘町
5013154,岐阜県,岐阜市,岩田東,ギフケン,ギフシ,イワタヒガシ,岐阜県岐阜市岩田東
5013155,岐阜県,岐阜市,岩田坂,ギフケン,ギフシ,イワタザカ,岐阜県岐阜市岩田坂
5013156,岐阜県,岐阜市,岩田西,ギフケン,ギフシ,イワタニシ,岐阜県岐阜市岩田西
5013200,岐阜県,関市,,ギフケン,セキシ,,岐阜県関市
5013201,岐阜県,関市,小野,ギフケン,セキシ,オノ,岐阜県関市小野
5013202,岐阜県,関市,西神野,ギフケン,セキシ,ニシカミノ,岐阜県関市西神野
5013203,岐阜県,関市,神野,ギフケン,セキシ,カミノ,岐阜県関市神野
5013204,岐阜県,関市,上大野,ギフケン,セキシ,カミオオノ,岐阜県関市上大野
5013205,岐阜県,関市,志津野,ギフケン,セキシ,シツノ,岐阜県関市志津野
5013206,岐阜県,関市,塔ノ洞,ギフケン,セキシ,トウノホラ,岐阜県関市塔ノ洞
5013207,岐阜県,関市,黒屋,ギフケン,セキシ,クロヤ,岐阜県関市黒屋
5013210,岐阜県,関市,尾太町,ギフケン,セキシ,オブトチョウ,岐阜県関市尾太町
5013211,岐阜県,関市,関ノ上,ギフケン,セキシ,セキノウエ,岐阜県関市関ノ上
5013212,岐阜県,関市,寺田,ギフケン,セキシ,テラダ,岐阜県関市寺田
5013213,岐阜県,関市,東貸上,ギフケン,セキシ,ヒガシカシアゲ,岐阜県関市東貸上
5013214,岐阜県,関市,貸上町,ギフケン,セキシ,カシアゲチョウ,岐阜県関市貸上町
5013215,岐阜県,関市,西境松町,ギフケン,セキシ,ニシサカイマツチョウ,岐阜県関市西境松町
5013216,岐阜県,関市,水ノ輪町,ギフケン,セキシ,ミズノワチョウ,岐阜県関市水ノ輪町
5013217,岐阜県,関市,下有知,ギフケン,セキシ,シモウチ,岐阜県関市下有知
5013218,岐阜県,関市,東志摩,ギフケン,セキシ,ヒガシシマ,岐阜県関市東志摩
5013219,岐阜県,関市,のぞみケ丘,ギフケン,セキシ,ノゾミガオカ,岐阜県関市のぞみケ丘
5013221,岐阜県,関市,西貸上,ギフケン,セキシ,ニシカシアゲ,岐阜県関市西貸上
5013222,岐阜県,関市,南貸上,ギフケン,セキシ,ミナミカシアゲ,岐阜県関市南貸上
5013223,岐阜県,関市,竪切南,ギフケン,セキシ,タテキリミナミ,岐阜県関市竪切南
5013224,岐阜県,関市,東仙房,ギフケン,セキシ,ヒガシセンボウ,岐阜県関市東仙房
5013225,岐阜県,関市,南仙房,ギフケン,セキシ,ミナミセンボウ,岐阜県関市南仙房
5013226,岐阜県,関市,向西仙房,ギフケン,セキシ,ムカイサイセンボウ,岐阜県関市向西仙房
5013227,岐阜県,関市,北仙房,ギフケン,セキシ,ホクセンボウ,岐阜県関市北仙房
5013228,岐阜県,関市,竪切北,ギフケン,セキシ,タテキリキタ,岐阜県関市竪切北
5013231,岐阜県,関市,東桜町,ギフケン,セキシ,ヒガシサクラマチ,岐阜県関市東桜町
5013232,岐阜県,関市,桜本町,ギフケン,セキシ,サクラホンマチ,岐阜県関市桜本町
5013233,岐阜県,関市,西木戸町,ギフケン,セキシ,ニシキドチョウ,岐阜県関市西木戸町
5013234,岐阜県,関市,若宮町,ギフケン,セキシ,ワカミヤチョウ,岐阜県関市若宮町
5013235,岐阜県,関市,川間町,ギフケン,セキシ,カワマチョウ,岐阜県関市川間町
5013236,岐阜県,関市,辻井戸町,ギフケン,セキシ,ツジイドチョウ,岐阜県関市辻井戸町
5013237,岐阜県,関市,緑町,ギフケン,セキシ,ミドリマチ,岐阜県関市緑町
5013241,岐阜県,関市,西仙房,ギフケン,セキシ,サイセンボウ,岐阜県関市西仙房
5013242,岐阜県,関市,東福野町,ギフケン,セキシ,ヒガシフクノチョウ,岐阜県関市東福野町
5013243,岐阜県,関市,中福野町,ギフケン,セキシ,ナカフクノチョウ,岐阜県関市中福野町
5013244,岐阜県,関市,西福野町,ギフケン,セキシ,ニシフクノチョウ,岐阜県関市西福野町
5013245,岐阜県,関市,北福野町,ギフケン,セキシ,キタフクノチョウ,岐阜県関市北福野町
5013246,岐阜県,関市,緑ケ丘,ギフケン,セキシ,ミドリガオカ,岐阜県関市緑ケ丘
5013247,岐阜県,関市,池田町,ギフケン,セキシ,イケダチョウ,岐阜県関市池田町
5013250,岐阜県,関市,十三塚町,ギフケン,セキシ,ジュウサンヅカチョウ,岐阜県関市十三塚町
5013251,岐阜県,関市,山王通西,ギフケン,セキシ,サンノウドオリニシ,岐阜県関市山王通西
5013252,岐阜県,関市,山王通,ギフケン,セキシ,サンノウドオリ,岐阜県関市山王通
5013253,岐阜県,関市,栄町,ギフケン,セキシ,サカエマチ,岐阜県関市栄町
5013254,岐阜県,関市,雄飛ケ丘,ギフケン,セキシ,ユウヒガオカ,岐阜県関市雄飛ケ丘
5013255,岐阜県,関市,段下,ギフケン,セキシ,ダンシタ,岐阜県関市段下
5013256,岐阜県,関市,巾,ギフケン,セキシ,ハバ,岐阜県関市巾
5013257,岐阜県,関市,新田,ギフケン,セキシ,シンデン,岐阜県関市新田
5013258,岐阜県,関市,十三塚南,ギフケン,セキシ,ジュウサンヅカミナミ,岐阜県関市十三塚南
5013259,岐阜県,関市,十三塚北,ギフケン,セキシ,ジュウサンヅカキタ,岐阜県関市十三塚北
5013261,岐阜県,関市,広見北町,ギフケン,セキシ,ヒロミキタマチ,岐阜県関市広見北町
5013262,岐阜県,関市,広見東町,ギフケン,セキシ,ヒロミヒガシマチ,岐阜県関市広見東町
5013263,岐阜県,関市,広見,ギフケン,セキシ,ヒロミ,岐阜県関市広見
5013264,岐阜県,関市,池尻,ギフケン,セキシ,イケジリ,岐阜県関市池尻
5013265,岐阜県,関市,小瀬,ギフケン,セキシ,オゼ,岐阜県関市小瀬
5013266,岐阜県,関市,小瀬南,ギフケン,セキシ,オゼミナミ,岐阜県関市小瀬南
5013267,岐阜県,関市,星ケ丘,ギフケン,セキシ,ホシガオカ,岐阜県関市星ケ丘
5013268,岐阜県,関市,小瀬長池町,ギフケン,セキシ,オゼナガイケチョウ,岐阜県関市小瀬長池町
5013300,岐阜県,加茂郡富加町,,ギフケン,カモグントミカチョウ,,岐阜県加茂郡富加町
5013301,岐阜県,加茂郡富加町,加治田,ギフケン,カモグントミカチョウ,カジタ,岐阜県加茂郡富加町加治田
5013302,岐阜県,加茂郡富加町,夕田,ギフケン,カモグントミカチョウ,ユウダ,岐阜県加茂郡富加町夕田
5013303,岐阜県,加茂郡富加町,羽生,ギフケン,カモグントミカチョウ,ハニュウ,岐阜県加茂郡富加町羽生
5013304,岐阜県,加茂郡富加町,高畑,ギフケン,カモグントミカチョウ,タカハタ,岐阜県加茂郡富加町高畑
5013305,岐阜県,加茂郡富加町,滝田,ギフケン,カモグントミカチョウ,タキダ,岐阜県加茂郡富加町滝田
5013306,岐阜県,加茂郡富加町,大山,ギフケン,カモグントミカチョウ,オオヤマ,岐阜県加茂郡富加町大山
5013307,岐阜県,加茂郡富加町,大平賀,ギフケン,カモグントミカチョウ,オオヒラガ,岐阜県加茂郡富加町大平賀
5013501,岐阜県,関市,富之保,ギフケン,セキシ,トミノホ,岐阜県関市富之保
5013511,岐阜県,関市,中之保,ギフケン,セキシ,ナカノホ,岐阜県関市中之保
5013521,岐阜県,関市,下之保,ギフケン,セキシ,シモノホ,岐阜県関市下之保
5013601,岐阜県,関市,上之保,ギフケン,セキシ,カミノホ,岐阜県関市上之保
5013700,岐阜県,美濃市,,ギフケン,ミノシ,,岐阜県美濃市
5013701,岐阜県,美濃市,,ギフケン,ミノシ,,岐阜県美濃市
5013702,岐阜県,美濃市,上河和,ギフケン,ミノシ,カミコウワ,岐阜県美濃市上河和
5013703,岐阜県,美濃市,下河和,ギフケン,ミノシ,シモコウワ,岐阜県美濃市下河和
5013704,岐阜県,美濃市,保木脇,ギフケン,ミノシ,ホキワキ,岐阜県美濃市保木脇
5013705,岐阜県,美濃市,立花,ギフケン,ミノシ,タチバナ,岐阜県美濃市立花
5013706,岐阜県,美濃市,須原,ギフケン,ミノシ,スハラ,岐阜県美濃市須原
5013711,岐阜県,美濃市,樋ケ洞,ギフケン,ミノシ,ヒガホラ,岐阜県美濃市樋ケ洞
5013712,岐阜県,美濃市,口野々,ギフケン,ミノシ,クチノノ,岐阜県美濃市口野々
5013713,岐阜県,美濃市,富野,ギフケン,ミノシ,トミノ,岐阜県美濃市富野
5013714,岐阜県,美濃市,曽代,ギフケン,ミノシ,ソダイ,岐阜県美濃市曽代
5013715,岐阜県,美濃市,梅山町,ギフケン,ミノシ,ウメヤマチョウ,岐阜県美濃市梅山町
5013716,岐阜県,美濃市,前野,ギフケン,ミノシ,マエノ,岐阜県美濃市前野
5013717,岐阜県,美濃市,安毛,ギフケン,ミノシ,アタゲ,岐阜県美濃市安毛
5013721,岐阜県,美濃市,吉川町,ギフケン,ミノシ,ヨシカワチョウ,岐阜県美濃市吉川町
5013722,岐阜県,美濃市,常盤町,ギフケン,ミノシ,トキワチョウ,岐阜県美濃市常盤町
5013723,岐阜県,美濃市,相生町,ギフケン,ミノシ,アイオイチョウ,岐阜県美濃市相生町
5013724,岐阜県,美濃市,魚屋町,ギフケン,ミノシ,ウオヤチョウ,岐阜県美濃市魚屋町
5013725,岐阜県,美濃市,俵町,ギフケン,ミノシ,タワラマチ,岐阜県美濃市俵町
5013726,岐阜県,美濃市,加治屋町,ギフケン,ミノシ,カジヤチョウ,岐阜県美濃市加治屋町
5013727,岐阜県,美濃市,永重町,ギフケン,ミノシ,ナガシゲチョウ,岐阜県美濃市永重町
5013728,岐阜県,美濃市,本住町,ギフケン,ミノシ,モトズミチョウ,岐阜県美濃市本住町
5013729,岐阜県,美濃市,泉町,ギフケン,ミノシ,イズミチョウ,岐阜県美濃市泉町
5013731,岐阜県,美濃市,東市場町,ギフケン,ミノシ,ヒガシイチバチョウ,岐阜県美濃市東市場町
5013732,岐阜県,美濃市,広岡町,ギフケン,ミノシ,ヒロオカチョウ,岐阜県美濃市広岡町
5013733,岐阜県,美濃市,亀野町,ギフケン,ミノシ,カメノチョウ,岐阜県美濃市亀野町
5013734,岐阜県,美濃市,千畝町,ギフケン,ミノシ,チウネチョウ,岐阜県美濃市千畝町
5013735,岐阜県,美濃市,西市場町,ギフケン,ミノシ,ニシイチバチョウ,岐阜県美濃市西市場町
5013736,岐阜県,美濃市,米屋町,ギフケン,ミノシ,コメヤチョウ,岐阜県美濃市米屋町
5013737,岐阜県,美濃市,新町,ギフケン,ミノシ,シンマチ,岐阜県美濃市新町
5013741,岐阜県,美濃市,港町,ギフケン,ミノシ,ミナトマチ,岐阜県美濃市港町
5013742,岐阜県,美濃市,殿町,ギフケン,ミノシ,トノマチ,岐阜県美濃市殿町
5013743,岐阜県,美濃市,上条,ギフケン,ミノシ,カミジョウ,岐阜県美濃市上条
5013744,岐阜県,美濃市,段町,ギフケン,ミノシ,ダンチョウ,岐阜県美濃市段町
5013745,岐阜県,美濃市,下渡,ギフケン,ミノシ,シモワタリ,岐阜県美濃市下渡
5013746,岐阜県,美濃市,中央,ギフケン,ミノシ,チュウオウ,岐阜県美濃市中央
5013751,岐阜県,美濃市,松倉台,ギフケン,ミノシ,マツクラダイ,岐阜県美濃市松倉台
5013752,岐阜県,美濃市,松栄町,ギフケン,ミノシ,ショウエイチョウ,岐阜県美濃市松栄町
5013753,岐阜県,美濃市,松森,ギフケン,ミノシ,マツモリ,岐阜県美濃市松森
5013754,岐阜県,美濃市,さくらケ丘,ギフケン,ミノシ,サクラガオカ,岐阜県美濃市さくらケ丘
5013755,岐阜県,美濃市,志摩,ギフケン,ミノシ,シマ,岐阜県美濃市志摩
5013756,岐阜県,美濃市,生櫛,ギフケン,ミノシ,イクシ,岐阜県美濃市生櫛
5013761,岐阜県,美濃市,横越,ギフケン,ミノシ,ヨコゴシ,岐阜県美濃市横越
5013762,岐阜県,美濃市,藍川,ギフケン,ミノシ,アイカワ,岐阜県美濃市藍川
5013763,岐阜県,美濃市,極楽寺,ギフケン,ミノシ,ゴクラクジ,岐阜県美濃市極楽寺
5013764,岐阜県,美濃市,笠神,ギフケン,ミノシ,カサガミ,岐阜県美濃市笠神
5013771,岐阜県,美濃市,大矢田,ギフケン,ミノシ,オヤダ,岐阜県美濃市大矢田
5013772,岐阜県,美濃市,楓台,ギフケン,ミノシ,カエデダイ,岐阜県美濃市楓台
5013773,岐阜県,美濃市,もみじが丘,ギフケン,ミノシ,モミジガオカ,岐阜県美濃市もみじが丘
5013781,岐阜県,美濃市,片知,ギフケン,ミノシ,カタジ,岐阜県美濃市片知
5013782,岐阜県,美濃市,長瀬,ギフケン,ミノシ,ナガセ,岐阜県美濃市長瀬
5013783,岐阜県,美濃市,神洞,ギフケン,ミノシ,カンボラ,岐阜県美濃市神洞
5013784,岐阜県,美濃市,御手洗,ギフケン,ミノシ,ミタライ,岐阜県美濃市御手洗
5013785,岐阜県,美濃市,小倉,ギフケン,ミノシ,コクラ,岐阜県美濃市小倉
5013786,岐阜県,美濃市,乙狩,ギフケン,ミノシ,オトガリ,岐阜県美濃市乙狩
5013787,岐阜県,美濃市,上野,ギフケン,ミノシ,カミノ,岐阜県美濃市上野
5013788,岐阜県,美濃市,蕨生,ギフケン,ミノシ,ワラビ,岐阜県美濃市蕨生
5013801,岐阜県,関市,大坪,ギフケン,セキシ,オオツボ,岐阜県関市大坪
5013802,岐阜県,関市,若草通,ギフケン,セキシ,ワカクサドオリ,岐阜県関市若草通
5013803,岐阜県,関市,西本郷通,ギフケン,セキシ,ニシホンゴウドオリ,岐阜県関市西本郷通
5013804,岐阜県,関市,円保通,ギフケン,セキシ,エンボドオリ,岐阜県関市円保通
5013805,岐阜県,関市,本郷町,ギフケン,セキシ,ホンゴウチョウ,岐阜県関市本郷町
5013806,岐阜県,関市,観音山,ギフケン,セキシ,カンノンヤマ,岐阜県関市観音山
5013807,岐阜県,関市,安桜山,ギフケン,セキシ,アサクラヤマ,岐阜県関市安桜山
5013808,岐阜県,関市,安桜台,ギフケン,セキシ,アサクラダイ,岐阜県関市安桜台
5013811,岐阜県,関市,東本郷通,ギフケン,セキシ,ヒガシホンゴウドオリ,岐阜県関市東本郷通
5013812,岐阜県,関市,東本郷,ギフケン,セキシ,ヒガシホンゴウ,岐阜県関市東本郷
5013813,岐阜県,関市,東野町,ギフケン,セキシ,ヒガシノマチ,岐阜県関市東野町
5013814,岐阜県,関市,東山,ギフケン,セキシ,ヒガシヤマ,岐阜県関市東山
5013815,岐阜県,関市,東町,ギフケン,セキシ,ヒガシマチ,岐阜県関市東町
5013816,岐阜県,関市,吉野町,ギフケン,セキシ,ヨシノマチ,岐阜県関市吉野町
5013817,岐阜県,関市,仲町,ギフケン,セキシ,ナカマチ,岐阜県関市仲町
5013818,岐阜県,関市,吉本町,ギフケン,セキシ,ヨシモトチョウ,岐阜県関市吉本町
5013819,岐阜県,関市,西町,ギフケン,セキシ,ニシマチ,岐阜県関市西町
5013821,岐阜県,関市,平賀町,ギフケン,セキシ,ヒラガチョウ,岐阜県関市平賀町
5013822,岐阜県,関市,市平賀,ギフケン,セキシ,イチヒラガ,岐阜県関市市平賀
5013823,岐阜県,関市,東出町,ギフケン,セキシ,ヒガシデチョウ,岐阜県関市東出町
5013824,岐阜県,関市,東新町,ギフケン,セキシ,トウシンチョウ,岐阜県関市東新町
5013825,岐阜県,関市,南出,ギフケン,セキシ,ミナミデ,岐阜県関市南出
5013826,岐阜県,関市,関口町,ギフケン,セキシ,セキグチチョウ,岐阜県関市関口町
5013827,岐阜県,関市,宮地町,ギフケン,セキシ,ミヤジチョウ,岐阜県関市宮地町
5013828,岐阜県,関市,西旭ケ丘,ギフケン,セキシ,ニシアサヒガオカ,岐阜県関市西旭ケ丘
5013829,岐阜県,関市,旭ケ丘,ギフケン,セキシ,アサヒガオカ,岐阜県関市旭ケ丘
5013831,岐阜県,関市,長谷寺町,ギフケン,セキシ,ハセデラチョウ,岐阜県関市長谷寺町
5013832,岐阜県,関市,花園町,ギフケン,セキシ,ハナゾノチョウ,岐阜県関市花園町
5013833,岐阜県,関市,大平町,ギフケン,セキシ,タイヘイチョウ,岐阜県関市大平町
5013834,岐阜県,関市,大門町,ギフケン,セキシ,ダイモンチョウ,岐阜県関市大門町
5013835,岐阜県,関市,観音前,ギフケン,セキシ,カンノンマエ,岐阜県関市観音前
5013836,岐阜県,関市,美園町,ギフケン,セキシ,ミソノチョウ,岐阜県関市美園町
5013837,岐阜県,関市,西門前町,ギフケン,セキシ,ニシモンゼンチョウ,岐阜県関市西門前町
5013838,岐阜県,関市,東門前町,ギフケン,セキシ,ヒガシモンゼンチョウ,岐阜県関市東門前町
5013839,岐阜県,関市,長住町,ギフケン,セキシ,ナガズミチョウ,岐阜県関市長住町
5013841,岐阜県,関市,伊勢町,ギフケン,セキシ,イセマチ,岐阜県関市伊勢町
5013842,岐阜県,関市,出来町,ギフケン,セキシ,デキマチ,岐阜県関市出来町
5013843,岐阜県,関市,吉田町,ギフケン,セキシ,キッタマチ,岐阜県関市吉田町
5013844,岐阜県,関市,美和町,ギフケン,セキシ,ミワチョウ,岐阜県関市美和町
5013845,岐阜県,関市,吾妻町,ギフケン,セキシ,アヅマチョウ,岐阜県関市吾妻町
5013846,岐阜県,関市,住吉町,ギフケン,セキシ,スミヨシチョウ,岐阜県関市住吉町
5013847,岐阜県,関市,新町,ギフケン,セキシ,シンマチ,岐阜県関市新町
5013848,岐阜県,関市,末広町,ギフケン,セキシ,スエヒロチョウ,岐阜県関市末広町
5013851,岐阜県,関市,相生町,ギフケン,セキシ,アイオイチョウ,岐阜県関市相生町
5013852,岐阜県,関市,上利町,ギフケン,セキシ,アガリマチ,岐阜県関市上利町
5013853,岐阜県,関市,朝倉町,ギフケン,セキシ,アサクラチョウ,岐阜県関市朝倉町
5013854,岐阜県,関市,月見町,ギフケン,セキシ,ツキミチョウ,岐阜県関市月見町
5013855,岐阜県,関市,いろは町,ギフケン,セキシ,イロハチョウ,岐阜県関市いろは町
5013856,岐阜県,関市,桜木町,ギフケン,セキシ,サクラギチョウ,岐阜県関市桜木町
5013857,岐阜県,関市,南春日町,ギフケン,セキシ,ミナミカスガチョウ,岐阜県関市南春日町
5013861,岐阜県,関市,小柳町,ギフケン,セキシ,コヤナギチョウ,岐阜県関市小柳町
5013862,岐阜県,関市,兼永町,ギフケン,セキシ,カネナガチョウ,岐阜県関市兼永町
5013863,岐阜県,関市,富本町,ギフケン,セキシ,トミモトチョウ,岐阜県関市富本町
5013864,岐阜県,関市,前町,ギフケン,セキシ,マエチョウ,岐阜県関市前町
5013865,岐阜県,関市,春日町,ギフケン,セキシ,カスガチョウ,岐阜県関市春日町
5013866,岐阜県,関市,千年町,ギフケン,セキシ,センネンチョウ,岐阜県関市千年町
5013867,岐阜県,関市,常盤町,ギフケン,セキシ,トキワチョウ,岐阜県関市常盤町
5013868,岐阜県,関市,白川町,ギフケン,セキシ,シラカワチョウ,岐阜県関市白川町
5013871,岐阜県,関市,鍛冶町,ギフケン,セキシ,カジチョウ,岐阜県関市鍛冶町
5013872,岐阜県,関市,金屋町,ギフケン,セキシ,カナヤチョウ,岐阜県関市金屋町
5013873,岐阜県,関市,日ノ出町,ギフケン,セキシ,ヒノデマチ,岐阜県関市日ノ出町
5013874,岐阜県,関市,平和通,ギフケン,セキシ,ヘイワドオリ,岐阜県関市平和通
5013875,岐阜県,関市,森西町,ギフケン,セキシ,モリニシチョウ,岐阜県関市森西町
5013876,岐阜県,関市,貴船町,ギフケン,セキシ,キブネチョウ,岐阜県関市貴船町
5013877,岐阜県,関市,河合町,ギフケン,セキシ,カワイチョウ,岐阜県関市河合町
5013878,岐阜県,関市,十軒町,ギフケン,セキシ,ジッケンチョウ,岐阜県関市十軒町
5013881,岐阜県,関市,元重町,ギフケン,セキシ,モトシゲチョウ,岐阜県関市元重町
5013882,岐阜県,関市,西日吉町,ギフケン,セキシ,ニシヒヨシチョウ,岐阜県関市西日吉町
5013883,岐阜県,関市,東日吉町,ギフケン,セキシ,ヒガシヒヨシチョウ,岐阜県関市東日吉町
5013884,岐阜県,関市,孫六町,ギフケン,セキシ,マゴロクチョウ,岐阜県関市孫六町
5013885,岐阜県,関市,山ノ手,ギフケン,セキシ,ヤマノテ,岐阜県関市山ノ手
5013886,岐阜県,関市,本町,ギフケン,セキシ,ホンマチ,岐阜県関市本町
5013887,岐阜県,関市,吐月町,ギフケン,セキシ,トゲツチョウ,岐阜県関市吐月町
5013888,岐阜県,関市,坂下町,ギフケン,セキシ,サカシタチョウ,岐阜県関市坂下町
5013901,岐阜県,関市,春里町,ギフケン,セキシ,ハルサトチョウ,岐阜県関市春里町
5013902,岐阜県,関市,弥生町,ギフケン,セキシ,ヤヨイチョウ,岐阜県関市弥生町
5013903,岐阜県,関市,桜ケ丘,ギフケン,セキシ,サクラガオカ,岐阜県関市桜ケ丘
5013904,岐阜県,関市,明生町,ギフケン,セキシ,メイセイチョウ,岐阜県関市明生町
5013905,岐阜県,関市,神明町,ギフケン,セキシ,シンメイチョウ,岐阜県関市神明町
5013906,岐阜県,関市,西欠ノ下,ギフケン,セキシ,ニシカケノシタ,岐阜県関市西欠ノ下
5013907,岐阜県,関市,南町,ギフケン,セキシ,ミナミマチ,岐阜県関市南町
5013908,岐阜県,関市,寿町,ギフケン,セキシ,コトブキチョウ,岐阜県関市寿町
5013909,岐阜県,関市,新堀町,ギフケン,セキシ,シンボリチョウ,岐阜県関市新堀町
5013910,岐阜県,関市,笠屋,ギフケン,セキシ,カサヤ,岐阜県関市笠屋
5013911,岐阜県,関市,肥田瀬,ギフケン,セキシ,ヒダセ,岐阜県関市肥田瀬
5013912,岐阜県,関市,宮河町,ギフケン,セキシ,ミヤガワチョウ,岐阜県関市宮河町
5013913,岐阜県,関市,稲河町,ギフケン,セキシ,イナゴチョウ,岐阜県関市稲河町
5013914,岐阜県,関市,鋳物師屋,ギフケン,セキシ,イモジヤ,岐阜県関市鋳物師屋
5013915,岐阜県,関市,天徳町,ギフケン,セキシ,テントクチョウ,岐阜県関市天徳町
5013916,岐阜県,関市,豊岡町,ギフケン,セキシ,トヨオカチョウ,岐阜県関市豊岡町
5013917,岐阜県,関市,北天神,ギフケン,セキシ,キタテンジン,岐阜県関市北天神
5013918,岐阜県,関市,南天神,ギフケン,セキシ,ミナミテンジン,岐阜県関市南天神
5013919,岐阜県,関市,平成通,ギフケン,セキシ,ヘイセイドオリ,岐阜県関市平成通
5013921,岐阜県,関市,東田原,ギフケン,セキシ,ヒガシタワラ,岐阜県関市東田原
5013922,岐阜県,関市,大杉,ギフケン,セキシ,オオスギ,岐阜県関市大杉
5013923,岐阜県,関市,新迫間,ギフケン,セキシ,シンハサマ,岐阜県関市新迫間
5013924,岐阜県,関市,迫間,ギフケン,セキシ,ハサマ,岐阜県関市迫間
5013925,岐阜県,関市,迫間台,ギフケン,セキシ,ハサマダイ,岐阜県関市迫間台
5013926,岐阜県,関市,小迫間,ギフケン,セキシ,コバサマ,岐阜県関市小迫間
5013927,岐阜県,関市,向陽台,ギフケン,セキシ,コウヨウダイ,岐阜県関市向陽台
5013928,岐阜県,関市,西田原,ギフケン,セキシ,ニシタワラ,岐阜県関市西田原
5013930,岐阜県,関市,倉知南,ギフケン,セキシ,クラチミナミ,岐阜県関市倉知南
5013931,岐阜県,関市,桜台,ギフケン,セキシ,サクラダイ,岐阜県関市桜台
5013932,岐阜県,関市,稲口,ギフケン,セキシ,イナグチ,岐阜県関市稲口
5013933,岐阜県,関市,向山町,ギフケン,セキシ,ムコウヤマチョウ,岐阜県関市向山町
5013934,岐阜県,関市,桐谷台,ギフケン,セキシ,キリヤダイ,岐阜県関市桐谷台
5013935,岐阜県,関市,四季ノ台,ギフケン,セキシ,シキノダイ,岐阜県関市四季ノ台
5013936,岐阜県,関市,倉知,ギフケン,セキシ,クラチ,岐阜県関市倉知
5013937,岐阜県,関市,前山町,ギフケン,セキシ,マエヤマチョウ,岐阜県関市前山町
5013938,岐阜県,関市,桐ヶ丘,ギフケン,セキシ,キリガオカ,岐阜県関市桐ヶ丘
5013939,岐阜県,関市,桃紅大地,ギフケン,セキシ,トウコウダイチ,岐阜県関市桃紅大地
5013941,岐阜県,関市,小屋名,ギフケン,セキシ,オヤナ,岐阜県関市小屋名
5013942,岐阜県,関市,希望ケ丘,ギフケン,セキシ,キボウガオカ,岐阜県関市希望ケ丘
5013943,岐阜県,関市,虹ケ丘南,ギフケン,セキシ,ニジガオカミナミ,岐阜県関市虹ケ丘南
5013944,岐阜県,関市,山田,ギフケン,セキシ,ヤマダ,岐阜県関市山田
5013945,岐阜県,関市,虹ケ丘北,ギフケン,セキシ,ニジガオカキタ,岐阜県関市虹ケ丘北
5013946,岐阜県,関市,津保川台,ギフケン,セキシ,ツボカワダイ,岐阜県関市津保川台
5013947,岐阜県,関市,上白金,ギフケン,セキシ,カミシロカネ,岐阜県関市上白金
5013951,岐阜県,関市,植野,ギフケン,セキシ,ウエノ,岐阜県関市植野
5013952,岐阜県,関市,大平台,ギフケン,セキシ,タイヘイダイ,岐阜県関市大平台
5013953,岐阜県,関市,千疋北,ギフケン,セキシ,センビキキタ,岐阜県関市千疋北
5013954,岐阜県,関市,千疋,ギフケン,セキシ,センビキ,岐阜県関市千疋
5013955,岐阜県,関市,下白金,ギフケン,セキシ,シモシロカネ,岐阜県関市下白金
5013956,岐阜県,関市,保明,ギフケン,セキシ,ホウミョウ,岐阜県関市保明
5013957,岐阜県,関市,側島,ギフケン,セキシ,ソバシマ,岐阜県関市側島
5013958,岐阜県,関市,戸田,ギフケン,セキシ,トダ,岐阜県関市戸田
5013961,岐阜県,関市,清蔵寺,ギフケン,セキシ,セイゾウジ,岐阜県関市清蔵寺
5013962,岐阜県,関市,柳町,ギフケン,セキシ,ヤナギマチ,岐阜県関市柳町
5013963,岐阜県,関市,片倉町,ギフケン,セキシ,カタクラチョウ,岐阜県関市片倉町
5013964,岐阜県,関市,宝山町,ギフケン,セキシ,タカラヤマチョウ,岐阜県関市宝山町
5013965,岐阜県,関市,十六所,ギフケン,セキシ,ジュウロクセン,岐阜県関市十六所
5013966,岐阜県,関市,居敷町,ギフケン,セキシ,イシキチョウ,岐阜県関市居敷町
5013967,岐阜県,関市,西居敷,ギフケン,セキシ,ニシイシキ,岐阜県関市西居敷
5013968,岐阜県,関市,力山,ギフケン,セキシ,チカラヤマ,岐阜県関市力山
5013969,岐阜県,関市,馬場出,ギフケン,セキシ,ババダシ,岐阜県関市馬場出
5013971,岐阜県,関市,古屋敷町,ギフケン,セキシ,フルヤシキチョウ,岐阜県関市古屋敷町
5013972,岐阜県,関市,寺内町,ギフケン,セキシ,ジナイチョウ,岐阜県関市寺内町
5013973,岐阜県,関市,一ツ山町,ギフケン,セキシ,ヒトツヤマチョウ,岐阜県関市一ツ山町
5013974,岐阜県,関市,梅ケ枝町,ギフケン,セキシ,ウメガエチョウ,岐阜県関市梅ケ枝町
5013975,岐阜県,関市,豊川町,ギフケン,セキシ,トヨカワチョウ,岐阜県関市豊川町
5013976,岐阜県,関市,梅竜寺山,ギフケン,セキシ,バイリュウジヤマ,岐阜県関市梅竜寺山
5013977,岐阜県,関市,清水町,ギフケン,セキシ,シミズチョウ,岐阜県関市清水町
5013978,岐阜県,関市,赤渕,ギフケン,セキシ,アカフチ,岐阜県関市赤渕
5013979,岐阜県,関市,一本木町,ギフケン,セキシ,イッポンギチョウ,岐阜県関市一本木町
5014101,岐阜県,郡上市,美並町上田,ギフケン,グジョウシ,ミナミチョウカミタ,岐阜県郡上市美並町上田
5014102,岐阜県,郡上市,美並町高砂,ギフケン,グジョウシ,ミナミチョウタカサゴ,岐阜県郡上市美並町高砂
5014103,岐阜県,郡上市,美並町山田,ギフケン,グジョウシ,ミナミチョウヤマダ,岐阜県郡上市美並町山田
5014104,岐阜県,郡上市,美並町梅原,ギフケン,グジョウシ,ミナミチョウウメハラ,岐阜県郡上市美並町梅原
5014105,岐阜県,郡上市,美並町三戸,ギフケン,グジョウシ,ミナミチョウミト,岐阜県郡上市美並町三戸
5014106,岐阜県,郡上市,美並町白山,ギフケン,グジョウシ,ミナミチョウハクサン,岐阜県郡上市美並町白山
5014107,岐阜県,郡上市,美並町大原,ギフケン,グジョウシ,ミナミチョウオオハラ,岐阜県郡上市美並町大原
5014200,岐阜県,郡上市,,ギフケン,グジョウシ,,岐阜県郡上市
5014201,岐阜県,郡上市,八幡町有穂,ギフケン,グジョウシ,ハチマンチョウアリホ,岐阜県郡上市八幡町有穂
5014202,岐阜県,郡上市,八幡町市島,ギフケン,グジョウシ,ハチマンチョウイチシマ,岐阜県郡上市八幡町市島
5014203,岐阜県,郡上市,八幡町初納,ギフケン,グジョウシ,ハチマンチョウショノウ,岐阜県郡上市八幡町初納
5014204,岐阜県,郡上市,八幡町旭,ギフケン,グジョウシ,ハチマンチョウアサヒ,岐阜県郡上市八幡町旭
5014205,岐阜県,郡上市,八幡町安久田,ギフケン,グジョウシ,ハチマンチョウアクダ,岐阜県郡上市八幡町安久田
5014206,岐阜県,郡上市,八幡町吉野,ギフケン,グジョウシ,ハチマンチョウヨシノ,岐阜県郡上市八幡町吉野
5014207,岐阜県,郡上市,八幡町西乙原,ギフケン,グジョウシ,ハチマンチョウニシオッパラ,岐阜県郡上市八幡町西乙原
5014211,岐阜県,郡上市,八幡町中坪,ギフケン,グジョウシ,ハチマンチョウナカツボ,岐阜県郡上市八幡町中坪
5014212,岐阜県,郡上市,八幡町職人町,ギフケン,グジョウシ,ハチマンチョウショクニンマチ,岐阜県郡上市八幡町職人町
5014213,岐阜県,郡上市,八幡町殿町,ギフケン,グジョウシ,ハチマンチョウトノマチ,岐阜県郡上市八幡町殿町
5014214,岐阜県,郡上市,八幡町柳町,ギフケン,グジョウシ,ハチマンチョウヤナギマチ,岐阜県郡上市八幡町柳町
5014215,岐阜県,郡上市,八幡町肴町,ギフケン,グジョウシ,ハチマンチョウサカナマチ,岐阜県郡上市八幡町肴町
5014216,岐阜県,郡上市,八幡町本町,ギフケン,グジョウシ,ハチマンチョウホンマチ,岐阜県郡上市八幡町本町
5014217,岐阜県,郡上市,八幡町尾崎町,ギフケン,グジョウシ,ハチマンチョウオサキチョウ,岐阜県郡上市八幡町尾崎町
5014218,岐阜県,郡上市,八幡町鍛冶屋町,ギフケン,グジョウシ,ハチマンチョウカジヤマチ,岐阜県郡上市八幡町鍛冶屋町
5014219,岐阜県,郡上市,八幡町大手町,ギフケン,グジョウシ,ハチマンチョウオオテマチ,岐阜県郡上市八幡町大手町
5014221,岐阜県,郡上市,八幡町小野,ギフケン,グジョウシ,ハチマンチョウオノ,岐阜県郡上市八幡町小野
5014222,岐阜県,郡上市,八幡町島谷,ギフケン,グジョウシ,ハチマンチョウシマダニ,岐阜県郡上市八幡町島谷
5014223,岐阜県,郡上市,八幡町稲成,ギフケン,グジョウシ,ハチマンチョウイナリ,岐阜県郡上市八幡町稲成
5014224,岐阜県,郡上市,八幡町城南町,ギフケン,グジョウシ,ハチマンチョウジョウナンチョウ,岐阜県郡上市八幡町城南町
5014225,岐阜県,郡上市,八幡町大正町,ギフケン,グジョウシ,ハチマンチョウタイショウマチ,岐阜県郡上市八幡町大正町
5014226,岐阜県,郡上市,八幡町新町,ギフケン,グジョウシ,ハチマンチョウシンマチ,岐阜県郡上市八幡町新町
5014227,岐阜県,郡上市,八幡町橋本町,ギフケン,グジョウシ,ハチマンチョウハシモトチョウ,岐阜県郡上市八幡町橋本町
5014228,岐阜県,郡上市,八幡町桜町,ギフケン,グジョウシ,ハチマンチョウサクラマチ,岐阜県郡上市八幡町桜町
5014231,岐阜県,郡上市,八幡町河鹿,ギフケン,グジョウシ,ハチマンチョウカジカ,岐阜県郡上市八幡町河鹿
5014232,岐阜県,郡上市,八幡町初音,ギフケン,グジョウシ,ハチマンチョウハツネ,岐阜県郡上市八幡町初音
5014233,岐阜県,郡上市,八幡町瀬取,ギフケン,グジョウシ,ハチマンチョウセトリ,岐阜県郡上市八幡町瀬取
5014234,岐阜県,郡上市,八幡町五町,ギフケン,グジョウシ,ハチマンチョウゴチョウ,岐阜県郡上市八幡町五町
5014235,岐阜県,郡上市,八幡町有坂,ギフケン,グジョウシ,ハチマンチョウアリサカ,岐阜県郡上市八幡町有坂
5014236,岐阜県,郡上市,八幡町相生,ギフケン,グジョウシ,ハチマンチョウアイオイ,岐阜県郡上市八幡町相生
5014237,岐阜県,郡上市,八幡町那比,ギフケン,グジョウシ,ハチマンチョウナビ,岐阜県郡上市八幡町那比
5014238,岐阜県,郡上市,八幡町島,ギフケン,グジョウシ,ハチマンチョウシマ,岐阜県郡上市八幡町島
5014241,岐阜県,郡上市,八幡町向山,ギフケン,グジョウシ,ハチマンチョウムカイヤマ,岐阜県郡上市八幡町向山
5014301,岐阜県,郡上市,明宝大谷,ギフケン,グジョウシ,メイホウオオタニ,岐阜県郡上市明宝大谷
5014302,岐阜県,郡上市,明宝寒水,ギフケン,グジョウシ,メイホウカノミズ,岐阜県郡上市明宝寒水
5014303,岐阜県,郡上市,明宝気良,ギフケン,グジョウシ,メイホウケラ,岐阜県郡上市明宝気良
5014304,岐阜県,郡上市,明宝奥住,ギフケン,グジョウシ,メイホウオクズミ,岐阜県郡上市明宝奥住
5014305,岐阜県,郡上市,明宝小川,ギフケン,グジョウシ,メイホウオガワ,岐阜県郡上市明宝小川
5014306,岐阜県,郡上市,明宝畑佐,ギフケン,グジョウシ,メイホウハタサ,岐阜県郡上市明宝畑佐
5014307,岐阜県,郡上市,明宝二間手,ギフケン,グジョウシ,メイホウフタマテ,岐阜県郡上市明宝二間手
5014451,岐阜県,郡上市,八幡町入間,ギフケン,グジョウシ,ハチマンチョウイリマ,岐阜県郡上市八幡町入間
5014452,岐阜県,郡上市,八幡町美山,ギフケン,グジョウシ,ハチマンチョウミヤマ,岐阜県郡上市八幡町美山
5014453,岐阜県,郡上市,八幡町洲河,ギフケン,グジョウシ,ハチマンチョウスゴウ,岐阜県郡上市八幡町洲河
5014454,岐阜県,郡上市,八幡町野々倉,ギフケン,グジョウシ,ハチマンチョウノノクラ,岐阜県郡上市八幡町野々倉
5014455,岐阜県,郡上市,八幡町小那比,ギフケン,グジョウシ,ハチマンチョウオナビ,岐阜県郡上市八幡町小那比
5014501,岐阜県,郡上市,和良町鹿倉,ギフケン,グジョウシ,ワラチョウカクラ,岐阜県郡上市和良町鹿倉
5014502,岐阜県,郡上市,和良町宮代,ギフケン,グジョウシ,ワラチョウミヤシロ,岐阜県郡上市和良町宮代
5014503,岐阜県,郡上市,和良町野尻,ギフケン,グジョウシ,ワラチョウノジリ,岐阜県郡上市和良町野尻
5014504,岐阜県,郡上市,和良町田平,ギフケン,グジョウシ,ワラチョウタビラ,岐阜県郡上市和良町田平
5014505,岐阜県,郡上市,和良町東野,ギフケン,グジョウシ,ワラチョウヒガシノ,岐阜県郡上市和良町東野
5014506,岐阜県,郡上市,和良町横野,ギフケン,グジョウシ,ワラチョウヨコノ,岐阜県郡上市和良町横野
5014507,岐阜県,郡上市,和良町宮地,ギフケン,グジョウシ,ワラチョウミヤジ,岐阜県郡上市和良町宮地
5014508,岐阜県,郡上市,和良町上沢,ギフケン,グジョウシ,ワラチョウカミザワ,岐阜県郡上市和良町上沢
5014509,岐阜県,郡上市,和良町下沢,ギフケン,グジョウシ,ワラチョウシモザワ,岐阜県郡上市和良町下沢
5014510,岐阜県,郡上市,和良町法師丸,ギフケン,グジョウシ,ワラチョウホシマル,岐阜県郡上市和良町法師丸
5014511,岐阜県,郡上市,和良町下洞,ギフケン,グジョウシ,ワラチョウシモボラ,岐阜県郡上市和良町下洞
5014512,岐阜県,郡上市,和良町上土京,ギフケン,グジョウシ,ワラチョウカミドキョウ,岐阜県郡上市和良町上土京
5014513,岐阜県,郡上市,和良町下土京,ギフケン,グジョウシ,ワラチョウシモドキョウ,岐阜県郡上市和良町下土京
5014514,岐阜県,郡上市,和良町安郷野,ギフケン,グジョウシ,ワラチョウアゴノ,岐阜県郡上市和良町安郷野
5014515,岐阜県,郡上市,和良町方須,ギフケン,グジョウシ,ワラチョウホウス,岐阜県郡上市和良町方須
5014516,岐阜県,郡上市,和良町三庫,ギフケン,グジョウシ,ワラチョウミクラ,岐阜県郡上市和良町三庫
5014517,岐阜県,郡上市,和良町沢,ギフケン,グジョウシ,ワラチョウサワ,岐阜県郡上市和良町沢
5014518,岐阜県,郡上市,和良町土京,ギフケン,グジョウシ,ワラチョウドキョウ,岐阜県郡上市和良町土京
5014601,岐阜県,郡上市,大和町大間見,ギフケン,グジョウシ,ヤマトチョウオオマミ,岐阜県郡上市大和町大間見
5014602,岐阜県,郡上市,大和町小間見,ギフケン,グジョウシ,ヤマトチョウコマミ,岐阜県郡上市大和町小間見
5014603,岐阜県,郡上市,大和町栗巣,ギフケン,グジョウシ,ヤマトチョウクリス,岐阜県郡上市大和町栗巣
5014604,岐阜県,郡上市,大和町古道,ギフケン,グジョウシ,ヤマトチョウフルミチ,岐阜県郡上市大和町古道
5014605,岐阜県,郡上市,大和町神路,ギフケン,グジョウシ,ヤマトチョウカンジ,岐阜県郡上市大和町神路
5014606,岐阜県,郡上市,大和町河辺,ギフケン,グジョウシ,ヤマトチョウカベ,岐阜県郡上市大和町河辺
5014607,岐阜県,郡上市,大和町徳永,ギフケン,グジョウシ,ヤマトチョウトクナガ,岐阜県郡上市大和町徳永
5014608,岐阜県,郡上市,大和町牧,ギフケン,グジョウシ,ヤマトチョウマキ,岐阜県郡上市大和町牧
5014610,岐阜県,郡上市,大和町島,ギフケン,グジョウシ,ヤマトチョウシマ,岐阜県郡上市大和町島
5014611,岐阜県,郡上市,大和町万場,ギフケン,グジョウシ,ヤマトチョウマンバ,岐阜県郡上市大和町万場
5014612,岐阜県,郡上市,大和町剣,ギフケン,グジョウシ,ヤマトチョウツルギ,岐阜県郡上市大和町剣
5014613,岐阜県,郡上市,大和町名皿部,ギフケン,グジョウシ,ヤマトチョウナサラベ,岐阜県郡上市大和町名皿部
5014614,岐阜県,郡上市,大和町野口,ギフケン,グジョウシ,ヤマトチョウノグチ,岐阜県郡上市大和町野口
5014615,岐阜県,郡上市,大和町場皿,ギフケン,グジョウシ,ヤマトチョウバツサラ,岐阜県郡上市大和町場皿
5014616,岐阜県,郡上市,大和町福田,ギフケン,グジョウシ,ヤマトチョウフクダ,岐阜県郡上市大和町福田
5014617,岐阜県,郡上市,大和町洞口,ギフケン,グジョウシ,ヤマトチョウホラグチ,岐阜県郡上市大和町洞口
5014618,岐阜県,郡上市,大和町内ケ谷,ギフケン,グジョウシ,ヤマトチョウウチガタニ,岐阜県郡上市大和町内ケ谷
5014619,岐阜県,郡上市,大和町落部,ギフケン,グジョウシ,ヤマトチョウオチベ,岐阜県郡上市大和町落部
5015101,岐阜県,郡上市,白鳥町前谷,ギフケン,グジョウシ,シロトリチョウマエダニ,岐阜県郡上市白鳥町前谷
5015102,岐阜県,郡上市,白鳥町歩岐島,ギフケン,グジョウシ,シロトリチョウホキジマ,岐阜県郡上市白鳥町歩岐島
5015103,岐阜県,郡上市,白鳥町二日町,ギフケン,グジョウシ,シロトリチョウフツカマチ,岐阜県郡上市白鳥町二日町
5015104,岐阜県,郡上市,白鳥町長滝,ギフケン,グジョウシ,シロトリチョウナガタキ,岐阜県郡上市白鳥町長滝
5015105,岐阜県,郡上市,白鳥町干田野,ギフケン,グジョウシ,シロトリチョウヒタノ,岐阜県郡上市白鳥町干田野
5015111,岐阜県,郡上市,白鳥町阿多岐,ギフケン,グジョウシ,シロトリチョウアタギ,岐阜県郡上市白鳥町阿多岐
5015112,岐阜県,郡上市,白鳥町六ノ里,ギフケン,グジョウシ,シロトリチョウロクノリ,岐阜県郡上市白鳥町六ノ里
5015113,岐阜県,郡上市,白鳥町野添,ギフケン,グジョウシ,シロトリチョウノゾエ,岐阜県郡上市白鳥町野添
5015114,岐阜県,郡上市,白鳥町那留,ギフケン,グジョウシ,シロトリチョウナル,岐阜県郡上市白鳥町那留
5015115,岐阜県,郡上市,白鳥町恩地,ギフケン,グジョウシ,シロトリチョウオンジ,岐阜県郡上市白鳥町恩地
5015116,岐阜県,郡上市,白鳥町中西,ギフケン,グジョウシ,シロトリチョウナカニシ,岐阜県郡上市白鳥町中西
5015121,岐阜県,郡上市,白鳥町白鳥,ギフケン,グジョウシ,シロトリチョウシロトリ,岐阜県郡上市白鳥町白鳥
5015122,岐阜県,郡上市,白鳥町為真,ギフケン,グジョウシ,シロトリチョウタメザニ,岐阜県郡上市白鳥町為真
5015123,岐阜県,郡上市,白鳥町中津屋,ギフケン,グジョウシ,シロトリチョウナカツヤ,岐阜県郡上市白鳥町中津屋
5015124,岐阜県,郡上市,白鳥町大島,ギフケン,グジョウシ,シロトリチョウオオシマ,岐阜県郡上市白鳥町大島
5015125,岐阜県,郡上市,白鳥町越佐,ギフケン,グジョウシ,シロトリチョウコッサ,岐阜県郡上市白鳥町越佐
5015126,岐阜県,郡上市,白鳥町向小駄良,ギフケン,グジョウシ,シロトリチョウムカイコダラ,岐阜県郡上市白鳥町向小駄良
5015231,岐阜県,郡上市,白鳥町石徹白,ギフケン,グジョウシ,シロトリチョウイトシロ,岐阜県郡上市白鳥町石徹白
5015301,岐阜県,郡上市,高鷲町ひるがの,ギフケン,グジョウシ,タカスチョウヒルガノ,岐阜県郡上市高鷲町ひるがの
5015302,岐阜県,郡上市,高鷲町鷲見,ギフケン,グジョウシ,タカスチョウワシミ,岐阜県郡上市高鷲町鷲見
5015302,岐阜県,郡上市,高鷲町鷲見（上野）,ギフケン,グジョウシ,タカスチョウワシミ(ウエノ),岐阜県郡上市高鷲町鷲見（上野）
5015303,岐阜県,郡上市,高鷲町大鷲,ギフケン,グジョウシ,タカスチョウオオワシ,岐阜県郡上市高鷲町大鷲
5015304,岐阜県,郡上市,高鷲町切立,ギフケン,グジョウシ,タカスチョウキッタテ,岐阜県郡上市高鷲町切立
5015304,岐阜県,郡上市,高鷲町鮎立,ギフケン,グジョウシ,タカスチョウアユタテ,岐阜県郡上市高鷲町鮎立
5015305,岐阜県,郡上市,高鷲町西洞,ギフケン,グジョウシ,タカスチョウニシボラ,岐阜県郡上市高鷲町西洞
5015401,岐阜県,高山市,荘川町六厩,ギフケン,タカヤマシ,ショウカワチョウムマヤ,岐阜県高山市荘川町六厩
5015402,岐阜県,高山市,荘川町三谷,ギフケン,タカヤマシ,ショウカワチョウサンダニ,岐阜県高山市荘川町三谷
5015403,岐阜県,高山市,荘川町三尾河,ギフケン,タカヤマシ,ショウカワチョウミオゴ,岐阜県高山市荘川町三尾河
5015404,岐阜県,高山市,荘川町黒谷,ギフケン,タカヤマシ,ショウカワチョウクロダニ,岐阜県高山市荘川町黒谷
5015405,岐阜県,高山市,荘川町寺河戸,ギフケン,タカヤマシ,ショウカワチョウテラカワド,岐阜県高山市荘川町寺河戸
5015406,岐阜県,高山市,荘川町惣則,ギフケン,タカヤマシ,ショウカワチョウソウノリ,岐阜県高山市荘川町惣則
5015411,岐阜県,高山市,荘川町牧戸,ギフケン,タカヤマシ,ショウカワチョウマキド,岐阜県高山市荘川町牧戸
5015412,岐阜県,高山市,荘川町中畑,ギフケン,タカヤマシ,ショウカワチョウナカハタ,岐阜県高山市荘川町中畑
5015413,岐阜県,高山市,荘川町新渕,ギフケン,タカヤマシ,ショウカワチョウアラブチ,岐阜県高山市荘川町新渕
5015414,岐阜県,高山市,荘川町猿丸,ギフケン,タカヤマシ,ショウカワチョウサルマル,岐阜県高山市荘川町猿丸
5015415,岐阜県,高山市,荘川町一色,ギフケン,タカヤマシ,ショウカワチョウイッシキ,岐阜県高山市荘川町一色
5015416,岐阜県,高山市,荘川町町屋,ギフケン,タカヤマシ,ショウカワチョウマチヤ,岐阜県高山市荘川町町屋
5015417,岐阜県,高山市,荘川町野々俣,ギフケン,タカヤマシ,ショウカワチョウノノマタ,岐阜県高山市荘川町野々俣
5015421,岐阜県,高山市,荘川町赤谷,ギフケン,タカヤマシ,ショウカワチョウアカダニ,岐阜県高山市荘川町赤谷
5015422,岐阜県,高山市,荘川町牛丸,ギフケン,タカヤマシ,ショウカワチョウウシマル,岐阜県高山市荘川町牛丸
5015423,岐阜県,高山市,荘川町岩瀬,ギフケン,タカヤマシ,ショウカワチョウイワゼ,岐阜県高山市荘川町岩瀬
5015424,岐阜県,高山市,荘川町中野,ギフケン,タカヤマシ,ショウカワチョウナカノ,岐阜県高山市荘川町中野
5015425,岐阜県,高山市,荘川町海上,ギフケン,タカヤマシ,ショウカワチョウカイジョウ,岐阜県高山市荘川町海上
5015426,岐阜県,高山市,荘川町尾上郷,ギフケン,タカヤマシ,ショウカワチョウオガミゴウ,岐阜県高山市荘川町尾上郷
5015501,岐阜県,大野郡白川村,保木脇,ギフケン,オオノグンシラカワムラ,ホキワキ,岐阜県大野郡白川村保木脇
5015502,岐阜県,大野郡白川村,木谷,ギフケン,オオノグンシラカワムラ,キダニ,岐阜県大野郡白川村木谷
5015503,岐阜県,大野郡白川村,長瀬,ギフケン,オオノグンシラカワムラ,ナガセ,岐阜県大野郡白川村長瀬
5015504,岐阜県,大野郡白川村,福島,ギフケン,オオノグンシラカワムラ,フクシマ,岐阜県大野郡白川村福島
5015505,岐阜県,大野郡白川村,牧,ギフケン,オオノグンシラカワムラ,マキ,岐阜県大野郡白川村牧
5015506,岐阜県,大野郡白川村,御母衣,ギフケン,オオノグンシラカワムラ,ミボロ,岐阜県大野郡白川村御母衣
5015507,岐阜県,大野郡白川村,平瀬,ギフケン,オオノグンシラカワムラ,ヒラセ,岐阜県大野郡白川村平瀬
5015600,岐阜県,大野郡白川村,,ギフケン,オオノグンシラカワムラ,,岐阜県大野郡白川村
5015620,岐阜県,大野郡白川村,馬狩,ギフケン,オオノグンシラカワムラ,マガリ,岐阜県大野郡白川村馬狩
5015621,岐阜県,大野郡白川村,小白川,ギフケン,オオノグンシラカワムラ,コジラカワ,岐阜県大野郡白川村小白川
5015622,岐阜県,大野郡白川村,芦倉,ギフケン,オオノグンシラカワムラ,アシクラ,岐阜県大野郡白川村芦倉
5015623,岐阜県,大野郡白川村,椿原,ギフケン,オオノグンシラカワムラ,ツバキハラ,岐阜県大野郡白川村椿原
5015624,岐阜県,大野郡白川村,有家ケ原,ギフケン,オオノグンシラカワムラ,ウケガハラ,岐阜県大野郡白川村有家ケ原
5015625,岐阜県,大野郡白川村,飯島,ギフケン,オオノグンシラカワムラ,イイシマ,岐阜県大野郡白川村飯島
5015626,岐阜県,大野郡白川村,島,ギフケン,オオノグンシラカワムラ,シマ,岐阜県大野郡白川村島
5015627,岐阜県,大野郡白川村,荻町,ギフケン,オオノグンシラカワムラ,オギマチ,岐阜県大野郡白川村荻町
5015628,岐阜県,大野郡白川村,大牧,ギフケン,オオノグンシラカワムラ,オオマキ,岐阜県大野郡白川村大牧
5015629,岐阜県,大野郡白川村,鳩谷,ギフケン,オオノグンシラカワムラ,ハトガヤ,岐阜県大野郡白川村鳩谷
5016001,岐阜県,羽島郡岐南町,上印食,ギフケン,ハシマグンギナンチョウ,カミインジキ,岐阜県羽島郡岐南町上印食
5016002,岐阜県,羽島郡岐南町,三宅,ギフケン,ハシマグンギナンチョウ,ミヤケ,岐阜県羽島郡岐南町三宅
5016003,岐阜県,羽島郡岐南町,平島,ギフケン,ハシマグンギナンチョウ,ヘイジマ,岐阜県羽島郡岐南町平島
5016004,岐阜県,羽島郡岐南町,野中,ギフケン,ハシマグンギナンチョウ,ノナカ,岐阜県羽島郡岐南町野中
5016005,岐阜県,羽島郡岐南町,若宮地,ギフケン,ハシマグンギナンチョウ,ワカミヤジ,岐阜県羽島郡岐南町若宮地
5016006,岐阜県,羽島郡岐南町,伏屋,ギフケン,ハシマグンギナンチョウ,フセヤ,岐阜県羽島郡岐南町伏屋
5016011,岐阜県,羽島郡岐南町,八剣北,ギフケン,ハシマグンギナンチョウ,ヤツルギキタ,岐阜県羽島郡岐南町八剣北
5016012,岐阜県,羽島郡岐南町,八剣,ギフケン,ハシマグンギナンチョウ,ヤツルギ,岐阜県羽島郡岐南町八剣
5016013,岐阜県,羽島郡岐南町,平成,ギフケン,ハシマグンギナンチョウ,ヘイセイ,岐阜県羽島郡岐南町平成
5016014,岐阜県,羽島郡岐南町,薬師寺,ギフケン,ハシマグンギナンチョウ,ヤクシジ,岐阜県羽島郡岐南町薬師寺
5016015,岐阜県,羽島郡岐南町,石原瀬,ギフケン,ハシマグンギナンチョウ,イシハラセ,岐阜県羽島郡岐南町石原瀬
5016016,岐阜県,羽島郡岐南町,徳田,ギフケン,ハシマグンギナンチョウ,トクダ,岐阜県羽島郡岐南町徳田
5016017,岐阜県,羽島郡岐南町,徳田西,ギフケン,ハシマグンギナンチョウ,トクダニシ,岐阜県羽島郡岐南町徳田西
5016018,岐阜県,羽島郡岐南町,下印食,ギフケン,ハシマグンギナンチョウ,シモインジキ,岐阜県羽島郡岐南町下印食
5016019,岐阜県,羽島郡岐南町,みやまち,ギフケン,ハシマグンギナンチョウ,ミヤマチ,岐阜県羽島郡岐南町みやまち
5016021,岐阜県,各務原市,川島笠田町,ギフケン,カカミガハラシ,カワシマカサダマチ,岐阜県各務原市川島笠田町
5016022,岐阜県,各務原市,川島松倉町,ギフケン,カカミガハラシ,カワシママツクラマチ,岐阜県各務原市川島松倉町
5016023,岐阜県,各務原市,川島小網町,ギフケン,カカミガハラシ,カワシマコアミマチ,岐阜県各務原市川島小網町
5016024,岐阜県,各務原市,川島竹早町,ギフケン,カカミガハラシ,カワシマタケハヤマチ,岐阜県各務原市川島竹早町
5016025,岐阜県,各務原市,川島河田町,ギフケン,カカミガハラシ,カワシマコウダマチ,岐阜県各務原市川島河田町
5016026,岐阜県,各務原市,川島松原町,ギフケン,カカミガハラシ,カワシママツバラマチ,岐阜県各務原市川島松原町
5016027,岐阜県,各務原市,川島緑町,ギフケン,カカミガハラシ,カワシマミドリマチ,岐阜県各務原市川島緑町
5016028,岐阜県,各務原市,川島渡町,ギフケン,カカミガハラシ,カワシマワタリマチ,岐阜県各務原市川島渡町
5016029,岐阜県,各務原市,川島北山町,ギフケン,カカミガハラシ,カワシマキタヤママチ,岐阜県各務原市川島北山町
5016031,岐阜県,羽島郡笠松町,米野,ギフケン,ハシマグンカサマツチョウ,コメノ,岐阜県羽島郡笠松町米野
5016032,岐阜県,羽島郡笠松町,江川,ギフケン,ハシマグンカサマツチョウ,エガワ,岐阜県羽島郡笠松町江川
5016033,岐阜県,羽島郡笠松町,無動寺,ギフケン,ハシマグンカサマツチョウ,ムドウジ,岐阜県羽島郡笠松町無動寺
5016034,岐阜県,羽島郡笠松町,中野,ギフケン,ハシマグンカサマツチョウ,ナカノ,岐阜県羽島郡笠松町中野
5016035,岐阜県,羽島郡笠松町,円城寺,ギフケン,ハシマグンカサマツチョウ,エンジョウジ,岐阜県羽島郡笠松町円城寺
5016036,岐阜県,羽島郡笠松町,若葉町,ギフケン,ハシマグンカサマツチョウ,ワカバチョウ,岐阜県羽島郡笠松町若葉町
5016037,岐阜県,羽島郡笠松町,西金池町,ギフケン,ハシマグンカサマツチョウ,ニシカナイケチョウ,岐阜県羽島郡笠松町西金池町
5016038,岐阜県,羽島郡笠松町,東金池町,ギフケン,ハシマグンカサマツチョウ,ヒガシカナイケチョウ,岐阜県羽島郡笠松町東金池町
5016041,岐阜県,羽島郡笠松町,奈良町,ギフケン,ハシマグンカサマツチョウ,ナラマチ,岐阜県羽島郡笠松町奈良町
5016042,岐阜県,羽島郡笠松町,八幡町,ギフケン,ハシマグンカサマツチョウ,ハチマンチョウ,岐阜県羽島郡笠松町八幡町
5016043,岐阜県,羽島郡笠松町,県町,ギフケン,ハシマグンカサマツチョウ,ケンマチ,岐阜県羽島郡笠松町県町
5016044,岐阜県,羽島郡笠松町,相生町,ギフケン,ハシマグンカサマツチョウ,アイオイチョウ,岐阜県羽島郡笠松町相生町
5016045,岐阜県,羽島郡笠松町,司町,ギフケン,ハシマグンカサマツチョウ,ツカサマチ,岐阜県羽島郡笠松町司町
5016046,岐阜県,羽島郡笠松町,宮川町,ギフケン,ハシマグンカサマツチョウ,ミヤガワチョウ,岐阜県羽島郡笠松町宮川町
5016047,岐阜県,羽島郡笠松町,二見町,ギフケン,ハシマグンカサマツチョウ,フタミチョウ,岐阜県羽島郡笠松町二見町
5016051,岐阜県,羽島郡笠松町,上本町,ギフケン,ハシマグンカサマツチョウ,カミホンマチ,岐阜県羽島郡笠松町上本町
5016052,岐阜県,羽島郡笠松町,下本町,ギフケン,ハシマグンカサマツチョウ,シモホンマチ,岐阜県羽島郡笠松町下本町
5016053,岐阜県,羽島郡笠松町,港町,ギフケン,ハシマグンカサマツチョウ,ミナトマチ,岐阜県羽島郡笠松町港町
5016054,岐阜県,羽島郡笠松町,柳原町,ギフケン,ハシマグンカサマツチョウ,ヤナギハラチョウ,岐阜県羽島郡笠松町柳原町
5016055,岐阜県,羽島郡笠松町,西町,ギフケン,ハシマグンカサマツチョウ,ニシマチ,岐阜県羽島郡笠松町西町
5016056,岐阜県,羽島郡笠松町,朝日町,ギフケン,ハシマグンカサマツチョウ,アサヒマチ,岐阜県羽島郡笠松町朝日町
5016057,岐阜県,羽島郡笠松町,下柳川町,ギフケン,ハシマグンカサマツチョウ,シモヤナガワチョウ,岐阜県羽島郡笠松町下柳川町
5016058,岐阜県,羽島郡笠松町,上柳川町,ギフケン,ハシマグンカサマツチョウ,カミヤナガワチョウ,岐阜県羽島郡笠松町上柳川町
5016059,岐阜県,羽島郡笠松町,東宮町,ギフケン,ハシマグンカサマツチョウ,ヒガシミヤチョウ,岐阜県羽島郡笠松町東宮町
5016061,岐阜県,羽島郡笠松町,泉町,ギフケン,ハシマグンカサマツチョウ,イズミマチ,岐阜県羽島郡笠松町泉町
5016062,岐阜県,羽島郡笠松町,田代,ギフケン,ハシマグンカサマツチョウ,デンダイ,岐阜県羽島郡笠松町田代
5016063,岐阜県,羽島郡笠松町,長池,ギフケン,ハシマグンカサマツチョウ,ナガイケ,岐阜県羽島郡笠松町長池
5016064,岐阜県,羽島郡笠松町,北及,ギフケン,ハシマグンカサマツチョウ,キタオヨビ,岐阜県羽島郡笠松町北及
5016065,岐阜県,羽島郡笠松町,門間,ギフケン,ハシマグンカサマツチョウ,カドマ,岐阜県羽島郡笠松町門間
5016071,岐阜県,羽島郡笠松町,上新町,ギフケン,ハシマグンカサマツチョウ,カミシンマチ,岐阜県羽島郡笠松町上新町
5016072,岐阜県,羽島郡笠松町,中新町,ギフケン,ハシマグンカサマツチョウ,ナカシンマチ,岐阜県羽島郡笠松町中新町
5016073,岐阜県,羽島郡笠松町,下新町,ギフケン,ハシマグンカサマツチョウ,シモシンマチ,岐阜県羽島郡笠松町下新町
5016074,岐阜県,羽島郡笠松町,新町,ギフケン,ハシマグンカサマツチョウ,シンマチ,岐阜県羽島郡笠松町新町
5016075,岐阜県,羽島郡笠松町,西宮町,ギフケン,ハシマグンカサマツチョウ,ニシミヤチョウ,岐阜県羽島郡笠松町西宮町
5016076,岐阜県,羽島郡笠松町,門前町,ギフケン,ハシマグンカサマツチョウ,モンゼンチョウ,岐阜県羽島郡笠松町門前町
5016077,岐阜県,羽島郡笠松町,天王町,ギフケン,ハシマグンカサマツチョウ,テンノウチョウ,岐阜県羽島郡笠松町天王町
5016081,岐阜県,羽島郡笠松町,東陽町,ギフケン,ハシマグンカサマツチョウ,トウヨウチョウ,岐阜県羽島郡笠松町東陽町
5016082,岐阜県,羽島郡笠松町,春日町,ギフケン,ハシマグンカサマツチョウ,カスガチョウ,岐阜県羽島郡笠松町春日町
5016083,岐阜県,羽島郡笠松町,常盤町,ギフケン,ハシマグンカサマツチョウ,トキワチョウ,岐阜県羽島郡笠松町常盤町
5016084,岐阜県,羽島郡笠松町,如月町,ギフケン,ハシマグンカサマツチョウ,キサラギチョウ,岐阜県羽島郡笠松町如月町
5016085,岐阜県,羽島郡笠松町,弥生町,ギフケン,ハシマグンカサマツチョウ,ヤヨイチョウ,岐阜県羽島郡笠松町弥生町
5016086,岐阜県,羽島郡笠松町,清住町,ギフケン,ハシマグンカサマツチョウ,キヨズミチョウ,岐阜県羽島郡笠松町清住町
5016087,岐阜県,羽島郡笠松町,大池町,ギフケン,ハシマグンカサマツチョウ,オオイケチョウ,岐阜県羽島郡笠松町大池町
5016088,岐阜県,羽島郡笠松町,美笠通,ギフケン,ハシマグンカサマツチョウ,ミカサドオリ,岐阜県羽島郡笠松町美笠通
5016091,岐阜県,羽島郡笠松町,松栄町,ギフケン,ハシマグンカサマツチョウ,ショウエイチョウ,岐阜県羽島郡笠松町松栄町
5016092,岐阜県,羽島郡笠松町,月美町,ギフケン,ハシマグンカサマツチョウ,ツキミチョウ,岐阜県羽島郡笠松町月美町
5016093,岐阜県,羽島郡笠松町,緑町,ギフケン,ハシマグンカサマツチョウ,ミドリマチ,岐阜県羽島郡笠松町緑町
5016094,岐阜県,羽島郡笠松町,羽衣町,ギフケン,ハシマグンカサマツチョウ,ハゴロモチョウ,岐阜県羽島郡笠松町羽衣町
5016095,岐阜県,羽島郡笠松町,中川町,ギフケン,ハシマグンカサマツチョウ,ナカガワチョウ,岐阜県羽島郡笠松町中川町
5016096,岐阜県,羽島郡笠松町,友楽町,ギフケン,ハシマグンカサマツチョウ,ユウラクチョウ,岐阜県羽島郡笠松町友楽町
5016097,岐阜県,羽島郡笠松町,瓢町,ギフケン,ハシマグンカサマツチョウ,ヒサゴチョウ,岐阜県羽島郡笠松町瓢町
5016098,岐阜県,羽島郡笠松町,桜町,ギフケン,ハシマグンカサマツチョウ,サクラマチ,岐阜県羽島郡笠松町桜町
5016100,岐阜県,羽島郡岐南町,,ギフケン,ハシマグンギナンチョウ,,岐阜県羽島郡岐南町
5016100,岐阜県,羽島郡笠松町,,ギフケン,ハシマグンカサマツチョウ,,岐阜県羽島郡笠松町
5016101,岐阜県,岐阜市,柳津町栄町,ギフケン,ギフシ,ヤナイヅチョウサカエマチ,岐阜県岐阜市柳津町栄町
5016102,岐阜県,岐阜市,柳津町東塚,ギフケン,ギフシ,ヤナイヅチョウヒガシヅカ,岐阜県岐阜市柳津町東塚
5016103,岐阜県,岐阜市,柳津町蓮池,ギフケン,ギフシ,ヤナイヅチョウハスイケ,岐阜県岐阜市柳津町蓮池
5016104,岐阜県,岐阜市,柳津町本郷,ギフケン,ギフシ,ヤナイヅチョウホンゴウ,岐阜県岐阜市柳津町本郷
5016105,岐阜県,岐阜市,柳津町梅松,ギフケン,ギフシ,ヤナイヅチョウウメマツ,岐阜県岐阜市柳津町梅松
5016111,岐阜県,岐阜市,柳津町宮東,ギフケン,ギフシ,ヤナイヅチョウミヤヒガシ,岐阜県岐阜市柳津町宮東
5016112,岐阜県,岐阜市,柳津町北塚,ギフケン,ギフシ,ヤナイヅチョウキタヅカ,岐阜県岐阜市柳津町北塚
5016113,岐阜県,岐阜市,柳津町南塚,ギフケン,ギフシ,ヤナイヅチョウミナミヅカ,岐阜県岐阜市柳津町南塚
5016115,岐阜県,岐阜市,柳津町丸野,ギフケン,ギフシ,ヤナイヅチョウマルノ,岐阜県岐阜市柳津町丸野
5016121,岐阜県,岐阜市,柳津町上佐波,ギフケン,ギフシ,ヤナイヅチョウカミサバ,岐阜県岐阜市柳津町上佐波
5016121,岐阜県,岐阜市,柳津町上佐波東,ギフケン,ギフシ,ヤナイヅチョウカミサバヒガシ,岐阜県岐阜市柳津町上佐波東
5016121,岐阜県,岐阜市,柳津町上佐波西,ギフケン,ギフシ,ヤナイヅチョウカミサバニシ,岐阜県岐阜市柳津町上佐波西
5016121,岐阜県,岐阜市,柳津町下佐波,ギフケン,ギフシ,ヤナイヅチョウシモサバ,岐阜県岐阜市柳津町下佐波
5016121,岐阜県,岐阜市,柳津町下佐波西,ギフケン,ギフシ,ヤナイヅチョウシモサバニシ,岐阜県岐阜市柳津町下佐波西
5016121,岐阜県,岐阜市,柳津町佐波,ギフケン,ギフシ,ヤナイヅチョウサバ,岐阜県岐阜市柳津町佐波
5016122,岐阜県,岐阜市,柳津町高桑,ギフケン,ギフシ,ヤナイヅチョウタカクワ,岐阜県岐阜市柳津町高桑
5016122,岐阜県,岐阜市,柳津町高桑東,ギフケン,ギフシ,ヤナイヅチョウタカクワヒガシ,岐阜県岐阜市柳津町高桑東
5016122,岐阜県,岐阜市,柳津町高桑西,ギフケン,ギフシ,ヤナイヅチョウタカクワニシ,岐阜県岐阜市柳津町高桑西
5016123,岐阜県,岐阜市,柳津町流通センター,ギフケン,ギフシ,ヤナイヅチョウリュウツウセンター,岐阜県岐阜市柳津町流通センター
5016131,岐阜県,岐阜市,高河原,ギフケン,ギフシ,タカガワラ,岐阜県岐阜市高河原
5016132,岐阜県,岐阜市,次木,ギフケン,ギフシ,ナメキ,岐阜県岐阜市次木
5016133,岐阜県,岐阜市,日置江,ギフケン,ギフシ,ヒキエ,岐阜県岐阜市日置江
5016134,岐阜県,岐阜市,大脇,ギフケン,ギフシ,オオワキ,岐阜県岐阜市大脇
5016135,岐阜県,岐阜市,茶屋新田,ギフケン,ギフシ,チャヤシンデン,岐阜県岐阜市茶屋新田
5016200,岐阜県,羽島市,,ギフケン,ハシマシ,,岐阜県羽島市
5016201,岐阜県,羽島市,足近町北宿,ギフケン,ハシマシ,アジカチョウキタジュク,岐阜県羽島市足近町北宿
5016202,岐阜県,羽島市,足近町市場,ギフケン,ハシマシ,アジカチョウイチバ,岐阜県羽島市足近町市場
5016203,岐阜県,羽島市,足近町南宿,ギフケン,ハシマシ,アジカチョウミナミジュク,岐阜県羽島市足近町南宿
5016204,岐阜県,羽島市,足近町小荒井,ギフケン,ハシマシ,アジカチョウコアライ,岐阜県羽島市足近町小荒井
5016205,岐阜県,羽島市,足近町南之川,ギフケン,ハシマシ,アジカチョウミナミノカワ,岐阜県羽島市足近町南之川
5016206,岐阜県,羽島市,新生町,ギフケン,ハシマシ,シンセイチョウ,岐阜県羽島市新生町
5016207,岐阜県,羽島市,足近町,ギフケン,ハシマシ,アジカチョウ,岐阜県羽島市足近町
5016208,岐阜県,羽島市,足近町坂井,ギフケン,ハシマシ,アジカチョウサカイ,岐阜県羽島市足近町坂井
5016209,岐阜県,羽島市,足近町直道,ギフケン,ハシマシ,アジカチョウスグミチ,岐阜県羽島市足近町直道
5016211,岐阜県,羽島市,正木町南及,ギフケン,ハシマシ,マサキチョウミナミオヨビ,岐阜県羽島市正木町南及
5016212,岐阜県,羽島市,正木町上大浦,ギフケン,ハシマシ,マサキチョウカミオオウラ,岐阜県羽島市正木町上大浦
5016213,岐阜県,羽島市,正木町光法寺,ギフケン,ハシマシ,マサキチョウミツホウジ,岐阜県羽島市正木町光法寺
5016214,岐阜県,羽島市,正木町須賀池端,ギフケン,ハシマシ,マサキチョウスカイケハタ,岐阜県羽島市正木町須賀池端
5016215,岐阜県,羽島市,正木町須賀赤松,ギフケン,ハシマシ,マサキチョウスカアカマツ,岐阜県羽島市正木町須賀赤松
5016216,岐阜県,羽島市,正木町須賀,ギフケン,ハシマシ,マサキチョウスカ,岐阜県羽島市正木町須賀
5016217,岐阜県,羽島市,正木町須賀小松,ギフケン,ハシマシ,マサキチョウスカコマツ,岐阜県羽島市正木町須賀小松
5016218,岐阜県,羽島市,正木町須賀本村,ギフケン,ハシマシ,マサキチョウスカホンムラ,岐阜県羽島市正木町須賀本村
5016221,岐阜県,羽島市,正木町森,ギフケン,ハシマシ,マサキチョウモリ,岐阜県羽島市正木町森
5016222,岐阜県,羽島市,正木町森新田,ギフケン,ハシマシ,マサキチョウモリシンデン,岐阜県羽島市正木町森新田
5016223,岐阜県,羽島市,正木町大浦新田,ギフケン,ハシマシ,マサキチョウオオウラシンデン,岐阜県羽島市正木町大浦新田
5016224,岐阜県,羽島市,正木町大浦,ギフケン,ハシマシ,マサキチョウオオウラ,岐阜県羽島市正木町大浦
5016225,岐阜県,羽島市,正木町新井,ギフケン,ハシマシ,マサキチョウアライ,岐阜県羽島市正木町新井
5016226,岐阜県,羽島市,正木町三ツ柳,ギフケン,ハシマシ,マサキチョウミツヤナギ,岐阜県羽島市正木町三ツ柳
5016227,岐阜県,羽島市,正木町曲利,ギフケン,ハシマシ,マサキチョウマガリ,岐阜県羽島市正木町曲利
5016228,岐阜県,羽島市,正木町不破一色,ギフケン,ハシマシ,マサキチョウフワイシキ,岐阜県羽島市正木町不破一色
5016229,岐阜県,羽島市,正木町坂丸,ギフケン,ハシマシ,マサキチョウサカマル,岐阜県羽島市正木町坂丸
5016231,岐阜県,羽島市,竹鼻町神楽,ギフケン,ハシマシ,タケハナチョウカグラ,岐阜県羽島市竹鼻町神楽
5016232,岐阜県,羽島市,竹鼻町狐穴,ギフケン,ハシマシ,タケハナチョウキツネアナ,岐阜県羽島市竹鼻町狐穴
5016233,岐阜県,羽島市,竹鼻町飯柄,ギフケン,ハシマシ,タケハナチョウイイガラ,岐阜県羽島市竹鼻町飯柄
5016234,岐阜県,羽島市,竹鼻町駒塚,ギフケン,ハシマシ,タケハナチョウコマヅカ,岐阜県羽島市竹鼻町駒塚
5016235,岐阜県,羽島市,竹鼻町蜂尻,ギフケン,ハシマシ,タケハナチョウハチジリ,岐阜県羽島市竹鼻町蜂尻
5016236,岐阜県,羽島市,江吉良町,ギフケン,ハシマシ,エギラチョウ,岐阜県羽島市江吉良町
5016237,岐阜県,羽島市,江吉良町江西,ギフケン,ハシマシ,エギラチョウエニシ,岐阜県羽島市江吉良町江西
5016238,岐阜県,羽島市,江吉良町江中,ギフケン,ハシマシ,エギラチョウエナカ,岐阜県羽島市江吉良町江中
5016239,岐阜県,羽島市,江吉良町江南,ギフケン,ハシマシ,エギラチョウエミナミ,岐阜県羽島市江吉良町江南
5016241,岐阜県,羽島市,竹鼻町,ギフケン,ハシマシ,タケハナチョウ,岐阜県羽島市竹鼻町
5016242,岐阜県,羽島市,竹鼻町錦町,ギフケン,ハシマシ,タケハナチョウニシキマチ,岐阜県羽島市竹鼻町錦町
5016243,岐阜県,羽島市,竹鼻町西野町,ギフケン,ハシマシ,タケハナチョウニシノマチ,岐阜県羽島市竹鼻町西野町
5016244,岐阜県,羽島市,竹鼻町丸の内,ギフケン,ハシマシ,タケハナチョウマルノウチ,岐阜県羽島市竹鼻町丸の内
5016251,岐阜県,羽島市,福寿町間島,ギフケン,ハシマシ,フクジュチョウマジマ,岐阜県羽島市福寿町間島
5016252,岐阜県,羽島市,小熊町島前,ギフケン,ハシマシ,オグマチョウシママエ,岐阜県羽島市小熊町島前
5016253,岐阜県,羽島市,小熊町島新道,ギフケン,ハシマシ,オグマチョウシマシンドウ,岐阜県羽島市小熊町島新道
5016254,岐阜県,羽島市,福寿町本郷,ギフケン,ハシマシ,フクジュチョウホンゴウ,岐阜県羽島市福寿町本郷
5016255,岐阜県,羽島市,福寿町浅平,ギフケン,ハシマシ,フクジュチョウアサヒラ,岐阜県羽島市福寿町浅平
5016256,岐阜県,羽島市,福寿町千代田,ギフケン,ハシマシ,フクジュチョウチヨダ,岐阜県羽島市福寿町千代田
5016257,岐阜県,羽島市,福寿町平方,ギフケン,ハシマシ,フクジュチョウヒラカタ,岐阜県羽島市福寿町平方
5016261,岐阜県,羽島市,小熊町外粟野,ギフケン,ハシマシ,オグマチョウソトアワノ,岐阜県羽島市小熊町外粟野
5016262,岐阜県,羽島市,小熊町内粟野,ギフケン,ハシマシ,オグマチョウウチアワノ,岐阜県羽島市小熊町内粟野
5016263,岐阜県,羽島市,小熊町江頭,ギフケン,ハシマシ,オグマチョウエガシラ,岐阜県羽島市小熊町江頭
5016264,岐阜県,羽島市,小熊町島,ギフケン,ハシマシ,オグマチョウシマ,岐阜県羽島市小熊町島
5016265,岐阜県,羽島市,小熊町川口前,ギフケン,ハシマシ,オグマチョウカワクチマエ,岐阜県羽島市小熊町川口前
5016266,岐阜県,羽島市,小熊町川口,ギフケン,ハシマシ,オグマチョウカワクチ,岐阜県羽島市小熊町川口
5016267,岐阜県,羽島市,小熊町天王,ギフケン,ハシマシ,オグマチョウテンノウ,岐阜県羽島市小熊町天王
5016271,岐阜県,羽島市,小熊町東小熊,ギフケン,ハシマシ,オグマチョウヒガシオグマ,岐阜県羽島市小熊町東小熊
5016272,岐阜県,羽島市,小熊町相田,ギフケン,ハシマシ,オグマチョウアイダ,岐阜県羽島市小熊町相田
5016273,岐阜県,羽島市,小熊町,ギフケン,ハシマシ,オグマチョウ,岐阜県羽島市小熊町
5016274,岐阜県,羽島市,小熊町西小熊,ギフケン,ハシマシ,オグマチョウニシオグマ,岐阜県羽島市小熊町西小熊
5016301,岐阜県,羽島市,舟橋町宮北,ギフケン,ハシマシ,フナバシチョウミヤキタ,岐阜県羽島市舟橋町宮北
5016302,岐阜県,羽島市,舟橋町,ギフケン,ハシマシ,フナバシチョウ,岐阜県羽島市舟橋町
5016303,岐阜県,羽島市,舟橋町本町,ギフケン,ハシマシ,フナバシチョウホンマチ,岐阜県羽島市舟橋町本町
5016304,岐阜県,羽島市,舟橋町出須賀,ギフケン,ハシマシ,フナバシチョウデスカ,岐阜県羽島市舟橋町出須賀
5016311,岐阜県,羽島市,上中町長間,ギフケン,ハシマシ,カミナカチョウナガマ,岐阜県羽島市上中町長間
5016312,岐阜県,羽島市,上中町一色,ギフケン,ハシマシ,カミナカチョウイシキ,岐阜県羽島市上中町一色
5016313,岐阜県,羽島市,下中町加賀野井,ギフケン,ハシマシ,シモナカチョウカガノイ,岐阜県羽島市下中町加賀野井
5016314,岐阜県,羽島市,下中町城屋敷,ギフケン,ハシマシ,シモナカチョウシロヤシキ,岐阜県羽島市下中町城屋敷
5016315,岐阜県,羽島市,下中町石田,ギフケン,ハシマシ,シモナカチョウイシダ,岐阜県羽島市下中町石田
5016316,岐阜県,羽島市,下中町市之枝,ギフケン,ハシマシ,シモナカチョウイチノエダ,岐阜県羽島市下中町市之枝
5016317,岐阜県,羽島市,上中町午北,ギフケン,ハシマシ,カミナカチョウウマキタ,岐阜県羽島市上中町午北
5016318,岐阜県,羽島市,上中町沖,ギフケン,ハシマシ,カミナカチョウオキ,岐阜県羽島市上中町沖
5016319,岐阜県,羽島市,上中町中,ギフケン,ハシマシ,カミナカチョウナカ,岐阜県羽島市上中町中
5016321,岐阜県,羽島市,桑原町八神,ギフケン,ハシマシ,クワバラチョウヤガミ,岐阜県羽島市桑原町八神
5016322,岐阜県,羽島市,桑原町前野,ギフケン,ハシマシ,クワバラチョウマエノ,岐阜県羽島市桑原町前野
5016323,岐阜県,羽島市,桑原町午南,ギフケン,ハシマシ,クワバラチョウウマミナミ,岐阜県羽島市桑原町午南
5016324,岐阜県,羽島市,桑原町小薮,ギフケン,ハシマシ,クワバラチョウコヤブ,岐阜県羽島市桑原町小薮
5016325,岐阜県,羽島市,桑原町大須,ギフケン,ハシマシ,クワバラチョウオオス,岐阜県羽島市桑原町大須
5016326,岐阜県,羽島市,桑原町東方,ギフケン,ハシマシ,クワバラチョウヒガシガタ,岐阜県羽島市桑原町東方
5016327,岐阜県,羽島市,桑原町西小薮,ギフケン,ハシマシ,クワバラチョウニシコヤブ,岐阜県羽島市桑原町西小薮
5016328,岐阜県,羽島市,桑原町平太,ギフケン,ハシマシ,クワバラチョウヘイタ,岐阜県羽島市桑原町平太
5016330,岐阜県,羽島市,堀津町（その他）,ギフケン,ハシマシ,ホッツチョウ(ソノタ),岐阜県羽島市堀津町（その他）
5016331,岐阜県,羽島市,堀津町横手,ギフケン,ハシマシ,ホッツチョウヨコテ,岐阜県羽島市堀津町横手
5016332,岐阜県,羽島市,堀津町須賀北,ギフケン,ハシマシ,ホッツチョウスカキタ,岐阜県羽島市堀津町須賀北
5016333,岐阜県,羽島市,堀津町東山,ギフケン,ハシマシ,ホッツチョウヒガシヤマ,岐阜県羽島市堀津町東山
5016334,岐阜県,羽島市,堀津町前谷,ギフケン,ハシマシ,ホッツチョウマエダニ,岐阜県羽島市堀津町前谷
5016335,岐阜県,羽島市,堀津町須賀南,ギフケン,ハシマシ,ホッツチョウスカミナミ,岐阜県羽島市堀津町須賀南
5016336,岐阜県,羽島市,堀津町須賀西,ギフケン,ハシマシ,ホッツチョウスカニシ,岐阜県羽島市堀津町須賀西
5016337,岐阜県,羽島市,堀津町中屋敷,ギフケン,ハシマシ,ホッツチョウナカヤシキ,岐阜県羽島市堀津町中屋敷
5016338,岐阜県,羽島市,堀津町須賀中,ギフケン,ハシマシ,ホッツチョウスカナカ,岐阜県羽島市堀津町須賀中
5020001,岐阜県,岐阜市,粟野,ギフケン,ギフシ,アワノ,岐阜県岐阜市粟野
5020002,岐阜県,岐阜市,粟野東,ギフケン,ギフシ,アワノヒガシ,岐阜県岐阜市粟野東
5020003,岐阜県,岐阜市,三田洞東,ギフケン,ギフシ,ミタホラヒガシ,岐阜県岐阜市三田洞東
5020004,岐阜県,岐阜市,三田洞,ギフケン,ギフシ,ミタホラ,岐阜県岐阜市三田洞
5020005,岐阜県,岐阜市,岩崎,ギフケン,ギフシ,イワサキ,岐阜県岐阜市岩崎
5020006,岐阜県,岐阜市,粟野西,ギフケン,ギフシ,アワノニシ,岐阜県岐阜市粟野西
5020007,岐阜県,岐阜市,粟野台,ギフケン,ギフシ,アワノダイ,岐阜県岐阜市粟野台
5020011,岐阜県,岐阜市,長良古津,ギフケン,ギフシ,ナガラフルツ,岐阜県岐阜市長良古津
5020012,岐阜県,岐阜市,長良志段見,ギフケン,ギフシ,ナガラシダミ,岐阜県岐阜市長良志段見
5020013,岐阜県,岐阜市,中川原,ギフケン,ギフシ,ナカガワラ,岐阜県岐阜市中川原
5020014,岐阜県,岐阜市,雄総緑町,ギフケン,ギフシ,オブサミドリマチ,岐阜県岐阜市雄総緑町
5020015,岐阜県,岐阜市,雄総柳町,ギフケン,ギフシ,オブサヤナギマチ,岐阜県岐阜市雄総柳町
5020016,岐阜県,岐阜市,雄総桜町,ギフケン,ギフシ,オブササクラマチ,岐阜県岐阜市雄総桜町
5020017,岐阜県,岐阜市,長良雄総,ギフケン,ギフシ,ナガラオブサ,岐阜県岐阜市長良雄総
5020021,岐阜県,岐阜市,西後町,ギフケン,ギフシ,サイゴチョウ,岐阜県岐阜市西後町
5020022,岐阜県,岐阜市,長良東郷町,ギフケン,ギフシ,ナガラトウゴウチョウ,岐阜県岐阜市長良東郷町
5020023,岐阜県,岐阜市,城前町,ギフケン,ギフシ,シロマエチョウ,岐阜県岐阜市城前町
5020024,岐阜県,岐阜市,堀田町,ギフケン,ギフシ,ホリタマチ,岐阜県岐阜市堀田町
5020025,岐阜県,岐阜市,山先町,ギフケン,ギフシ,ヤマサキチョウ,岐阜県岐阜市山先町
5020026,岐阜県,岐阜市,長良桜井町,ギフケン,ギフシ,ナガラサクライチョウ,岐阜県岐阜市長良桜井町
5020027,岐阜県,岐阜市,長良宮口町,ギフケン,ギフシ,ナガラミヤグチチョウ,岐阜県岐阜市長良宮口町
5020028,岐阜県,岐阜市,長良白妙町,ギフケン,ギフシ,ナガラシラタエチョウ,岐阜県岐阜市長良白妙町
5020029,岐阜県,岐阜市,長良若葉町,ギフケン,ギフシ,ナガラワカバチョウ,岐阜県岐阜市長良若葉町
5020031,岐阜県,岐阜市,長良大路,ギフケン,ギフシ,ナガラオオジ,岐阜県岐阜市長良大路
5020032,岐阜県,岐阜市,長良高嶺町,ギフケン,ギフシ,ナガラタカミネチョウ,岐阜県岐阜市長良高嶺町
5020033,岐阜県,岐阜市,長良有楽町,ギフケン,ギフシ,ナガラユウラクチョウ,岐阜県岐阜市長良有楽町
5020034,岐阜県,岐阜市,長良有明町,ギフケン,ギフシ,ナガラアリアケチョウ,岐阜県岐阜市長良有明町
5020035,岐阜県,岐阜市,長良南陽町,ギフケン,ギフシ,ナガラナンヨウチョウ,岐阜県岐阜市長良南陽町
5020036,岐阜県,岐阜市,長良大前町,ギフケン,ギフシ,ナガラオオマエチョウ,岐阜県岐阜市長良大前町
5020037,岐阜県,岐阜市,長良金碧町,ギフケン,ギフシ,ナガラキンペキチョウ,岐阜県岐阜市長良金碧町
5020038,岐阜県,岐阜市,長良法久寺町,ギフケン,ギフシ,ナガラホウキュウジチョウ,岐阜県岐阜市長良法久寺町
5020041,岐阜県,岐阜市,長良海用町,ギフケン,ギフシ,ナガラカイヨウチョウ,岐阜県岐阜市長良海用町
5020042,岐阜県,岐阜市,長良城西町,ギフケン,ギフシ,ナガラシロニシチョウ,岐阜県岐阜市長良城西町
5020043,岐阜県,岐阜市,長良東町,ギフケン,ギフシ,ナガラヒガシマチ,岐阜県岐阜市長良東町
5020044,岐阜県,岐阜市,長良校文町,ギフケン,ギフシ,ナガラコウブンチョウ,岐阜県岐阜市長良校文町
5020045,岐阜県,岐阜市,長良校前町,ギフケン,ギフシ,ナガラコウゼンチョウ,岐阜県岐阜市長良校前町
5020046,岐阜県,岐阜市,長良杉乃町,ギフケン,ギフシ,ナガラスギノチョウ,岐阜県岐阜市長良杉乃町
5020047,岐阜県,岐阜市,長良葵町,ギフケン,ギフシ,ナガラアオイチョウ,岐阜県岐阜市長良葵町
5020051,岐阜県,岐阜市,長良幸和町,ギフケン,ギフシ,ナガラコウワチョウ,岐阜県岐阜市長良幸和町
5020052,岐阜県,岐阜市,長良小松町,ギフケン,ギフシ,ナガラコマツチョウ,岐阜県岐阜市長良小松町
5020053,岐阜県,岐阜市,長良宮路町,ギフケン,ギフシ,ナガラミヤジチョウ,岐阜県岐阜市長良宮路町
5020054,岐阜県,岐阜市,長良井田,ギフケン,ギフシ,ナガライダ,岐阜県岐阜市長良井田
5020055,岐阜県,岐阜市,長良福江町,ギフケン,ギフシ,ナガラフクエチョウ,岐阜県岐阜市長良福江町
5020056,岐阜県,岐阜市,長良真生町,ギフケン,ギフシ,ナガラシンセイチョウ,岐阜県岐阜市長良真生町
5020061,岐阜県,岐阜市,長良竜東町,ギフケン,ギフシ,ナガラリュウトウチョウ,岐阜県岐阜市長良竜東町
5020062,岐阜県,岐阜市,長良春田,ギフケン,ギフシ,ナガラハルタ,岐阜県岐阜市長良春田
5020063,岐阜県,岐阜市,長良一楽,ギフケン,ギフシ,ナガライチラク,岐阜県岐阜市長良一楽
5020064,岐阜県,岐阜市,長良田中前,ギフケン,ギフシ,ナガラタナカマエ,岐阜県岐阜市長良田中前
5020065,岐阜県,岐阜市,長良森町,ギフケン,ギフシ,ナガラモリマチ,岐阜県岐阜市長良森町
5020066,岐阜県,岐阜市,長良仙田町,ギフケン,ギフシ,ナガラセンダマチ,岐阜県岐阜市長良仙田町
5020067,岐阜県,岐阜市,長良西野前,ギフケン,ギフシ,ナガラニシノマエ,岐阜県岐阜市長良西野前
5020071,岐阜県,岐阜市,長良（番地）,ギフケン,ギフシ,ナガラ(バンチ),岐阜県岐阜市長良（番地）
5020072,岐阜県,岐阜市,長良福泉,ギフケン,ギフシ,ナガラフクイズミ,岐阜県岐阜市長良福泉
5020073,岐阜県,岐阜市,長良田中,ギフケン,ギフシ,ナガラタナカ,岐阜県岐阜市長良田中
5020074,岐阜県,岐阜市,長良西山前,ギフケン,ギフシ,ナガラニシヤママエ,岐阜県岐阜市長良西山前
5020075,岐阜県,岐阜市,長良子正賀,ギフケン,ギフシ,ナガラコショウガ,岐阜県岐阜市長良子正賀
5020076,岐阜県,岐阜市,長良友瀬,ギフケン,ギフシ,ナガラトモセ,岐阜県岐阜市長良友瀬
5020077,岐阜県,岐阜市,長良奥郷,ギフケン,ギフシ,ナガラオクゴウ,岐阜県岐阜市長良奥郷
5020081,岐阜県,岐阜市,長良（丁目）,ギフケン,ギフシ,ナガラ(チョウメ),岐阜県岐阜市長良（丁目）
5020082,岐阜県,岐阜市,長良東,ギフケン,ギフシ,ナガラヒガシ,岐阜県岐阜市長良東
5020801,岐阜県,岐阜市,椿洞,ギフケン,ギフシ,ツバキボラ,岐阜県岐阜市椿洞
5020802,岐阜県,岐阜市,打越,ギフケン,ギフシ,ウチコシ,岐阜県岐阜市打越
5020803,岐阜県,岐阜市,上土居,ギフケン,ギフシ,カミツチイ,岐阜県岐阜市上土居
5020811,岐阜県,岐阜市,若福町,ギフケン,ギフシ,ワカフクチョウ,岐阜県岐阜市若福町
5020812,岐阜県,岐阜市,八代,ギフケン,ギフシ,ヤシロ,岐阜県岐阜市八代
5020813,岐阜県,岐阜市,福光東,ギフケン,ギフシ,フクミツヒガシ,岐阜県岐阜市福光東
5020814,岐阜県,岐阜市,福光西,ギフケン,ギフシ,フクミツニシ,岐阜県岐阜市福光西
5020815,岐阜県,岐阜市,福光南町,ギフケン,ギフシ,フクミツミナミマチ,岐阜県岐阜市福光南町
5020816,岐阜県,岐阜市,道三町,ギフケン,ギフシ,ドウサンチョウ,岐阜県岐阜市道三町
5020817,岐阜県,岐阜市,長良福光,ギフケン,ギフシ,ナガラフクミツ,岐阜県岐阜市長良福光
5020821,岐阜県,岐阜市,太平町,ギフケン,ギフシ,タイヘイチョウ,岐阜県岐阜市太平町
5020822,岐阜県,岐阜市,福田町,ギフケン,ギフシ,フクタマチ,岐阜県岐阜市福田町
5020823,岐阜県,岐阜市,光栄町,ギフケン,ギフシ,コウエイチョウ,岐阜県岐阜市光栄町
5020824,岐阜県,岐阜市,花ノ木町,ギフケン,ギフシ,ハナノキチョウ,岐阜県岐阜市花ノ木町
5020825,岐阜県,岐阜市,初日町,ギフケン,ギフシ,ハツヒマチ,岐阜県岐阜市初日町
5020826,岐阜県,岐阜市,楠町,ギフケン,ギフシ,クスノキチョウ,岐阜県岐阜市楠町
5020827,岐阜県,岐阜市,平和通,ギフケン,ギフシ,ヘイワドオリ,岐阜県岐阜市平和通
5020828,岐阜県,岐阜市,金華町,ギフケン,ギフシ,キンカチョウ,岐阜県岐阜市金華町
5020829,岐阜県,岐阜市,万代町,ギフケン,ギフシ,バンダイチョウ,岐阜県岐阜市万代町
5020831,岐阜県,岐阜市,菊水町,ギフケン,ギフシ,キクスイチョウ,岐阜県岐阜市菊水町
5020832,岐阜県,岐阜市,千代田町,ギフケン,ギフシ,チヨダマチ,岐阜県岐阜市千代田町
5020833,岐阜県,岐阜市,松風町,ギフケン,ギフシ,マツカゼチョウ,岐阜県岐阜市松風町
5020834,岐阜県,岐阜市,養老町,ギフケン,ギフシ,ヨウロウチョウ,岐阜県岐阜市養老町
5020835,岐阜県,岐阜市,織田町,ギフケン,ギフシ,オダマチ,岐阜県岐阜市織田町
5020836,岐阜県,岐阜市,若竹町,ギフケン,ギフシ,ワカタケチョウ,岐阜県岐阜市若竹町
5020837,岐阜県,岐阜市,鵜川町,ギフケン,ギフシ,ウカワチョウ,岐阜県岐阜市鵜川町
5020838,岐阜県,岐阜市,長良丘,ギフケン,ギフシ,ナガラオカ,岐阜県岐阜市長良丘
5020841,岐阜県,岐阜市,学園町,ギフケン,ギフシ,ガクエンチョウ,岐阜県岐阜市学園町
5020842,岐阜県,岐阜市,早田（その他）,ギフケン,ギフシ,ソウデン(ソノタ),岐阜県岐阜市早田（その他）
5020843,岐阜県,岐阜市,早田東町,ギフケン,ギフシ,ソウデンヒガシマチ,岐阜県岐阜市早田東町
5020844,岐阜県,岐阜市,岩倉町,ギフケン,ギフシ,イワクラチョウ,岐阜県岐阜市岩倉町
5020845,岐阜県,岐阜市,早田町,ギフケン,ギフシ,ソウデンチョウ,岐阜県岐阜市早田町
5020846,岐阜県,岐阜市,津島町,ギフケン,ギフシ,ツシマチョウ,岐阜県岐阜市津島町
5020847,岐阜県,岐阜市,早田栄町,ギフケン,ギフシ,ソウデンサカエマチ,岐阜県岐阜市早田栄町
5020848,岐阜県,岐阜市,早田本町,ギフケン,ギフシ,ソウデンホンマチ,岐阜県岐阜市早田本町
5020849,岐阜県,岐阜市,栄新町,ギフケン,ギフシ,サカエシンマチ,岐阜県岐阜市栄新町
5020850,岐阜県,岐阜市,鷺山東,ギフケン,ギフシ,サギヤマヒガシ,岐阜県岐阜市鷺山東
5020851,岐阜県,岐阜市,鷺山,ギフケン,ギフシ,サギヤマ,岐阜県岐阜市鷺山
5020852,岐阜県,岐阜市,南蝉,ギフケン,ギフシ,ミナミセミ,岐阜県岐阜市南蝉
5020853,岐阜県,岐阜市,鷺山清洲町,ギフケン,ギフシ,サギヤマキヨスチョウ,岐阜県岐阜市鷺山清洲町
5020854,岐阜県,岐阜市,鷺山向井町,ギフケン,ギフシ,サギヤマムカイチョウ,岐阜県岐阜市鷺山向井町
5020855,岐阜県,岐阜市,鷺山緑ケ丘,ギフケン,ギフシ,サギヤマミドリガオカ,岐阜県岐阜市鷺山緑ケ丘
5020856,岐阜県,岐阜市,鷺山緑ケ丘新町,ギフケン,ギフシ,サギヤマミドリガオカシンマチ,岐阜県岐阜市鷺山緑ケ丘新町
5020857,岐阜県,岐阜市,正木,ギフケン,ギフシ,マサキ,岐阜県岐阜市正木
5020858,岐阜県,岐阜市,下土居,ギフケン,ギフシ,シモツチイ,岐阜県岐阜市下土居
5020859,岐阜県,岐阜市,城田寺,ギフケン,ギフシ,キダイジ,岐阜県岐阜市城田寺
5020861,岐阜県,岐阜市,上城田寺南,ギフケン,ギフシ,カミキダイジミナミ,岐阜県岐阜市上城田寺南
5020862,岐阜県,岐阜市,上城田寺中,ギフケン,ギフシ,カミキダイジナカ,岐阜県岐阜市上城田寺中
5020863,岐阜県,岐阜市,上城田寺西,ギフケン,ギフシ,カミキダイジニシ,岐阜県岐阜市上城田寺西
5020864,岐阜県,岐阜市,上城田寺東,ギフケン,ギフシ,カミキダイジヒガシ,岐阜県岐阜市上城田寺東
5020865,岐阜県,岐阜市,正木西町,ギフケン,ギフシ,マサキニシマチ,岐阜県岐阜市正木西町
5020866,岐阜県,岐阜市,正木南,ギフケン,ギフシ,マサキミナミ,岐阜県岐阜市正木南
5020867,岐阜県,岐阜市,鷺山南,ギフケン,ギフシ,サギヤマミナミ,岐阜県岐阜市鷺山南
5020871,岐阜県,岐阜市,鷺山新町,ギフケン,ギフシ,サギヤマシンマチ,岐阜県岐阜市鷺山新町
5020872,岐阜県,岐阜市,鷺山北町,ギフケン,ギフシ,サギヤマキタマチ,岐阜県岐阜市鷺山北町
5020881,岐阜県,岐阜市,正木北町,ギフケン,ギフシ,マサキキタマチ,岐阜県岐阜市正木北町
5020882,岐阜県,岐阜市,正木中,ギフケン,ギフシ,マサキナカ,岐阜県岐阜市正木中
5020901,岐阜県,岐阜市,光町,ギフケン,ギフシ,ヒカリマチ,岐阜県岐阜市光町
5020902,岐阜県,岐阜市,早田大通,ギフケン,ギフシ,ソウデンオオドオリ,岐阜県岐阜市早田大通
5020903,岐阜県,岐阜市,美島町,ギフケン,ギフシ,ミシマチョウ,岐阜県岐阜市美島町
5020904,岐阜県,岐阜市,島栄町,ギフケン,ギフシ,シマサカエマチ,岐阜県岐阜市島栄町
5020905,岐阜県,岐阜市,山吹町,ギフケン,ギフシ,ヤマブキチョウ,岐阜県岐阜市山吹町
5020906,岐阜県,岐阜市,池ノ上町,ギフケン,ギフシ,イケノウエチョウ,岐阜県岐阜市池ノ上町
5020907,岐阜県,岐阜市,島新町,ギフケン,ギフシ,シマシンマチ,岐阜県岐阜市島新町
5020908,岐阜県,岐阜市,近島,ギフケン,ギフシ,ゴンノシマ,岐阜県岐阜市近島
5020909,岐阜県,岐阜市,白菊町,ギフケン,ギフシ,シラギクチョウ,岐阜県岐阜市白菊町
5020911,岐阜県,岐阜市,北島,ギフケン,ギフシ,キタジマ,岐阜県岐阜市北島
5020912,岐阜県,岐阜市,西島町,ギフケン,ギフシ,ニシジマチョウ,岐阜県岐阜市西島町
5020913,岐阜県,岐阜市,東島,ギフケン,ギフシ,ヒガシジマ,岐阜県岐阜市東島
5020914,岐阜県,岐阜市,菅生,ギフケン,ギフシ,スゴウ,岐阜県岐阜市菅生
5020915,岐阜県,岐阜市,江口,ギフケン,ギフシ,エグチ,岐阜県岐阜市江口
5020916,岐阜県,岐阜市,西中島,ギフケン,ギフシ,ニシナカジマ,岐阜県岐阜市西中島
5020917,岐阜県,岐阜市,島田,ギフケン,ギフシ,シマダ,岐阜県岐阜市島田
5020921,岐阜県,岐阜市,守口町,ギフケン,ギフシ,モリグチチョウ,岐阜県岐阜市守口町
5020922,岐阜県,岐阜市,明神町,ギフケン,ギフシ,ミョウジンチョウ,岐阜県岐阜市明神町
5020923,岐阜県,岐阜市,宮浦町,ギフケン,ギフシ,ミヤウラチョウ,岐阜県岐阜市宮浦町
5020924,岐阜県,岐阜市,旦島宮町,ギフケン,ギフシ,ダンノシマミヤマチ,岐阜県岐阜市旦島宮町
5020925,岐阜県,岐阜市,旦島中町,ギフケン,ギフシ,ダンノシマナカマチ,岐阜県岐阜市旦島中町
5020926,岐阜県,岐阜市,旦島,ギフケン,ギフシ,ダンノシマ,岐阜県岐阜市旦島
5020927,岐阜県,岐阜市,旦島西町,ギフケン,ギフシ,ダンノシマニシマチ,岐阜県岐阜市旦島西町
5020928,岐阜県,岐阜市,旦島中,ギフケン,ギフシ,ダンノシマナカ,岐阜県岐阜市旦島中
5020929,岐阜県,岐阜市,則武東,ギフケン,ギフシ,ノリタケヒガシ,岐阜県岐阜市則武東
5020931,岐阜県,岐阜市,則武,ギフケン,ギフシ,ノリタケ,岐阜県岐阜市則武
5020932,岐阜県,岐阜市,則武中,ギフケン,ギフシ,ノリタケナカ,岐阜県岐阜市則武中
5020933,岐阜県,岐阜市,日光町,ギフケン,ギフシ,ニッコウチョウ,岐阜県岐阜市日光町
5020934,岐阜県,岐阜市,大福町,ギフケン,ギフシ,ダイフクチョウ,岐阜県岐阜市大福町
5020935,岐阜県,岐阜市,萱場東町,ギフケン,ギフシ,カヤバヒガシマチ,岐阜県岐阜市萱場東町
5020936,岐阜県,岐阜市,萱場南,ギフケン,ギフシ,カヤバミナミ,岐阜県岐阜市萱場南
5020937,岐阜県,岐阜市,萱場町,ギフケン,ギフシ,カヤバチョウ,岐阜県岐阜市萱場町
5020938,岐阜県,岐阜市,萱場北町,ギフケン,ギフシ,カヤバキタマチ,岐阜県岐阜市萱場北町
5020939,岐阜県,岐阜市,則武西,ギフケン,ギフシ,ノリタケニシ,岐阜県岐阜市則武西
5030000,岐阜県,大垣市,,ギフケン,オオガキシ,,岐阜県大垣市
5030001,岐阜県,大垣市,大島町,ギフケン,オオガキシ,オオシマチョウ,岐阜県大垣市大島町
5030002,岐阜県,大垣市,開発町,ギフケン,オオガキシ,カイハツチョウ,岐阜県大垣市開発町
5030003,岐阜県,大垣市,津村町,ギフケン,オオガキシ,ツムラチョウ,岐阜県大垣市津村町
5030004,岐阜県,大垣市,新開町,ギフケン,オオガキシ,シンカイチョウ,岐阜県大垣市新開町
5030005,岐阜県,大垣市,和合本町,ギフケン,オオガキシ,ワゴウホンマチ,岐阜県大垣市和合本町
5030006,岐阜県,大垣市,加賀野,ギフケン,オオガキシ,カガノ,岐阜県大垣市加賀野
5030007,岐阜県,大垣市,貝曽根町,ギフケン,オオガキシ,カイゾネチョウ,岐阜県大垣市貝曽根町
5030008,岐阜県,大垣市,楽田町,ギフケン,オオガキシ,ガクデンチョウ,岐阜県大垣市楽田町
5030009,岐阜県,大垣市,坂下町,ギフケン,オオガキシ,サカシタチョウ,岐阜県大垣市坂下町
5030011,岐阜県,大垣市,曽根町,ギフケン,オオガキシ,ソネチョウ,岐阜県大垣市曽根町
5030012,岐阜県,大垣市,三津屋町,ギフケン,オオガキシ,ミツヤチョウ,岐阜県大垣市三津屋町
5030013,岐阜県,大垣市,赤花町,ギフケン,オオガキシ,アカバナチョウ,岐阜県大垣市赤花町
5030014,岐阜県,大垣市,領家町,ギフケン,オオガキシ,リョウケチョウ,岐阜県大垣市領家町
5030015,岐阜県,大垣市,林町,ギフケン,オオガキシ,ハヤシマチ,岐阜県大垣市林町
5030016,岐阜県,大垣市,八島町,ギフケン,オオガキシ,ヤシマチョウ,岐阜県大垣市八島町
5030017,岐阜県,大垣市,中川町,ギフケン,オオガキシ,ナカガワチョウ,岐阜県大垣市中川町
5030018,岐阜県,大垣市,西之川町,ギフケン,オオガキシ,ニシノカワチョウ,岐阜県大垣市西之川町
5030019,岐阜県,大垣市,北方町,ギフケン,オオガキシ,キタガタチョウ,岐阜県大垣市北方町
5030021,岐阜県,大垣市,河間町,ギフケン,オオガキシ,ガマチョウ,岐阜県大垣市河間町
5030022,岐阜県,大垣市,中野町,ギフケン,オオガキシ,ナカノチョウ,岐阜県大垣市中野町
5030023,岐阜県,大垣市,笠木町,ギフケン,オオガキシ,カサギチョウ,岐阜県大垣市笠木町
5030024,岐阜県,大垣市,宿地町,ギフケン,オオガキシ,シュクジチョウ,岐阜県大垣市宿地町
5030025,岐阜県,大垣市,見取町,ギフケン,オオガキシ,ミドリチョウ,岐阜県大垣市見取町
5030026,岐阜県,大垣市,室村町,ギフケン,オオガキシ,ムロムラチョウ,岐阜県大垣市室村町
5030027,岐阜県,大垣市,笠縫町,ギフケン,オオガキシ,カサヌイチョウ,岐阜県大垣市笠縫町
5030031,岐阜県,大垣市,牧野町,ギフケン,オオガキシ,マキノチョウ,岐阜県大垣市牧野町
5030032,岐阜県,大垣市,熊野町,ギフケン,オオガキシ,クマノチョウ,岐阜県大垣市熊野町
5030033,岐阜県,大垣市,福田町,ギフケン,オオガキシ,フクタチョウ,岐阜県大垣市福田町
5030034,岐阜県,大垣市,荒尾町,ギフケン,オオガキシ,アラオチョウ,岐阜県大垣市荒尾町
5030035,岐阜県,大垣市,荒尾玉池,ギフケン,オオガキシ,アラオタマイケ,岐阜県大垣市荒尾玉池
5030036,岐阜県,大垣市,古知丸,ギフケン,オオガキシ,コチマル,岐阜県大垣市古知丸
5030100,岐阜県,安八郡安八町,,ギフケン,アンパチグンアンパチチョウ,,岐阜県安八郡安八町
5030101,岐阜県,大垣市,墨俣町先入方,ギフケン,オオガキシ,スノマタチョウセンイリカタ,岐阜県大垣市墨俣町先入方
5030102,岐阜県,大垣市,墨俣町墨俣,ギフケン,オオガキシ,スノマタチョウスノマタ,岐阜県大垣市墨俣町墨俣
5030103,岐阜県,大垣市,墨俣町上宿,ギフケン,オオガキシ,スノマタチョウカミジュク,岐阜県大垣市墨俣町上宿
5030104,岐阜県,大垣市,墨俣町下宿,ギフケン,オオガキシ,スノマタチョウシモジュク,岐阜県大垣市墨俣町下宿
5030105,岐阜県,大垣市,墨俣町二ツ木,ギフケン,オオガキシ,スノマタチョウフタツギ,岐阜県大垣市墨俣町二ツ木
5030106,岐阜県,大垣市,墨俣町さい川,ギフケン,オオガキシ,スノマタチョウサイカワ,岐阜県大垣市墨俣町さい川
5030111,岐阜県,安八郡安八町,西結,ギフケン,アンパチグンアンパチチョウ,ニシムスブ,岐阜県安八郡安八町西結
5030112,岐阜県,安八郡安八町,東結,ギフケン,アンパチグンアンパチチョウ,ヒガシムスブ,岐阜県安八郡安八町東結
5030112,岐阜県,安八郡安八町,芝原,ギフケン,アンパチグンアンパチチョウ,シバハラ,岐阜県安八郡安八町芝原
5030113,岐阜県,安八郡安八町,北今ケ渕,ギフケン,アンパチグンアンパチチョウ,キタイマガフチ,岐阜県安八郡安八町北今ケ渕
5030114,岐阜県,安八郡安八町,森部,ギフケン,アンパチグンアンパチチョウ,モリベ,岐阜県安八郡安八町森部
5030115,岐阜県,安八郡安八町,南今ケ渕,ギフケン,アンパチグンアンパチチョウ,ミナミイマガフチ,岐阜県安八郡安八町南今ケ渕
5030116,岐阜県,安八郡安八町,大森,ギフケン,アンパチグンアンパチチョウ,オオモリ,岐阜県安八郡安八町大森
5030117,岐阜県,安八郡安八町,大明神,ギフケン,アンパチグンアンパチチョウ,ダイミョウジン,岐阜県安八郡安八町大明神
5030118,岐阜県,安八郡安八町,宝江,ギフケン,アンパチグンアンパチチョウ,ホウエ,岐阜県安八郡安八町宝江
5030121,岐阜県,安八郡安八町,氷取,ギフケン,アンパチグンアンパチチョウ,コオリトリ,岐阜県安八郡安八町氷取
5030122,岐阜県,安八郡安八町,善光,ギフケン,アンパチグンアンパチチョウ,ゼンコウ,岐阜県安八郡安八町善光
5030123,岐阜県,安八郡安八町,南條,ギフケン,アンパチグンアンパチチョウ,ミナミジョウ,岐阜県安八郡安八町南條
5030124,岐阜県,安八郡安八町,中,ギフケン,アンパチグンアンパチチョウ,ナカ,岐阜県安八郡安八町中
5030125,岐阜県,安八郡安八町,牧,ギフケン,アンパチグンアンパチチョウ,マキ,岐阜県安八郡安八町牧
5030126,岐阜県,安八郡安八町,中須,ギフケン,アンパチグンアンパチチョウ,ナカズ,岐阜県安八郡安八町中須
5030127,岐阜県,安八郡安八町,城,ギフケン,アンパチグンアンパチチョウ,シロ,岐阜県安八郡安八町城
5030128,岐阜県,安八郡安八町,大野,ギフケン,アンパチグンアンパチチョウ,オオノ,岐阜県安八郡安八町大野
5030129,岐阜県,安八郡安八町,外善光,ギフケン,アンパチグンアンパチチョウ,ソトゼンコウ,岐阜県安八郡安八町外善光
5030141,岐阜県,大垣市,平町（揖斐川東）,ギフケン,オオガキシ,ヒラマチ(イビガワヒガシ),岐阜県大垣市平町（揖斐川東）
5030200,岐阜県,安八郡輪之内町,,ギフケン,アンパチグンワノウチチョウ,,岐阜県安八郡輪之内町
5030201,岐阜県,安八郡輪之内町,楡俣,ギフケン,アンパチグンワノウチチョウ,ニレマタ,岐阜県安八郡輪之内町楡俣
5030202,岐阜県,安八郡輪之内町,大藪,ギフケン,アンパチグンワノウチチョウ,オオヤブ,岐阜県安八郡輪之内町大藪
5030203,岐阜県,安八郡輪之内町,楡俣新田,ギフケン,アンパチグンワノウチチョウ,ニレマタシンデン,岐阜県安八郡輪之内町楡俣新田
5030204,岐阜県,安八郡輪之内町,四郷,ギフケン,アンパチグンワノウチチョウ,ヨゴウ,岐阜県安八郡輪之内町四郷
5030205,岐阜県,安八郡輪之内町,下大榑,ギフケン,アンパチグンワノウチチョウ,シモオオグレ,岐阜県安八郡輪之内町下大榑
5030206,岐阜県,安八郡輪之内町,下大榑新田,ギフケン,アンパチグンワノウチチョウ,シモオオグレシンデン,岐阜県安八郡輪之内町下大榑新田
5030211,岐阜県,安八郡輪之内町,福束新田,ギフケン,アンパチグンワノウチチョウ,フクヅカシンデン,岐阜県安八郡輪之内町福束新田
5030212,岐阜県,安八郡輪之内町,中郷新田,ギフケン,アンパチグンワノウチチョウ,ナカゴウシンデン,岐阜県安八郡輪之内町中郷新田
5030213,岐阜県,安八郡輪之内町,藻池新田,ギフケン,アンパチグンワノウチチョウ,モイケシンデン,岐阜県安八郡輪之内町藻池新田
5030214,岐阜県,安八郡輪之内町,海松新田,ギフケン,アンパチグンワノウチチョウ,ミルシンデン,岐阜県安八郡輪之内町海松新田
5030215,岐阜県,安八郡輪之内町,松内,ギフケン,アンパチグンワノウチチョウ,マツウチ,岐阜県安八郡輪之内町松内
5030216,岐阜県,安八郡輪之内町,大吉新田,ギフケン,アンパチグンワノウチチョウ,オオヨシシンデン,岐阜県安八郡輪之内町大吉新田
5030231,岐阜県,安八郡輪之内町,南波,ギフケン,アンパチグンワノウチチョウ,ナンバ,岐阜県安八郡輪之内町南波
5030232,岐阜県,安八郡輪之内町,本戸,ギフケン,アンパチグンワノウチチョウ,ホンド,岐阜県安八郡輪之内町本戸
5030233,岐阜県,安八郡輪之内町,中郷,ギフケン,アンパチグンワノウチチョウ,ナカゴウ,岐阜県安八郡輪之内町中郷
5030234,岐阜県,安八郡輪之内町,里,ギフケン,アンパチグンワノウチチョウ,サト,岐阜県安八郡輪之内町里
5030235,岐阜県,安八郡輪之内町,福束,ギフケン,アンパチグンワノウチチョウ,フクヅカ,岐阜県安八郡輪之内町福束
5030236,岐阜県,安八郡輪之内町,塩喰,ギフケン,アンパチグンワノウチチョウ,シオバミ,岐阜県安八郡輪之内町塩喰
5030301,岐阜県,海津市,平田町須賀,ギフケン,カイヅシ,ヒラタチョウスカ,岐阜県海津市平田町須賀
5030302,岐阜県,海津市,平田町勝賀,ギフケン,カイヅシ,ヒラタチョウカツガ,岐阜県海津市平田町勝賀
5030303,岐阜県,海津市,平田町野寺,ギフケン,カイヅシ,ヒラタチョウノデラ,岐阜県海津市平田町野寺
5030304,岐阜県,海津市,平田町幡長,ギフケン,カイヅシ,ヒラタチョウハタオサ,岐阜県海津市平田町幡長
5030305,岐阜県,海津市,平田町者結,ギフケン,カイヅシ,ヒラタチョウジャケツ,岐阜県海津市平田町者結
5030306,岐阜県,海津市,平田町蛇池,ギフケン,カイヅシ,ヒラタチョウジャイケ,岐阜県海津市平田町蛇池
5030307,岐阜県,海津市,平田町岡,ギフケン,カイヅシ,ヒラタチョウオカ,岐阜県海津市平田町岡
5030311,岐阜県,海津市,平田町仏師川,ギフケン,カイヅシ,ヒラタチョウブシガワ,岐阜県海津市平田町仏師川
5030312,岐阜県,海津市,平田町三郷,ギフケン,カイヅシ,ヒラタチョウサンゴウ,岐阜県海津市平田町三郷
5030313,岐阜県,海津市,平田町高田,ギフケン,カイヅシ,ヒラタチョウタカダ,岐阜県海津市平田町高田
5030314,岐阜県,海津市,平田町西島,ギフケン,カイヅシ,ヒラタチョウニシジマ,岐阜県海津市平田町西島
5030321,岐阜県,海津市,平田町今尾,ギフケン,カイヅシ,ヒラタチョウイマオ,岐阜県海津市平田町今尾
5030322,岐阜県,海津市,平田町土倉,ギフケン,カイヅシ,ヒラタチョウツチクラ,岐阜県海津市平田町土倉
5030323,岐阜県,海津市,平田町脇野,ギフケン,カイヅシ,ヒラタチョウワキノ,岐阜県海津市平田町脇野
5030401,岐阜県,海津市,南濃町津屋,ギフケン,カイヅシ,ナンノウチョウツヤ,岐阜県海津市南濃町津屋
5030402,岐阜県,海津市,南濃町志津新田,ギフケン,カイヅシ,ナンノウチョウシヅシンデン,岐阜県海津市南濃町志津新田
5030403,岐阜県,海津市,南濃町志津,ギフケン,カイヅシ,ナンノウチョウシヅ,岐阜県海津市南濃町志津
5030404,岐阜県,海津市,南濃町早瀬,ギフケン,カイヅシ,ナンノウチョウハヤセ,岐阜県海津市南濃町早瀬
5030405,岐阜県,海津市,南濃町駒野新田,ギフケン,カイヅシ,ナンノウチョウコマノシンデン,岐阜県海津市南濃町駒野新田
5030406,岐阜県,海津市,南濃町戸田,ギフケン,カイヅシ,ナンノウチョウトダ,岐阜県海津市南濃町戸田
5030407,岐阜県,海津市,南濃町徳田,ギフケン,カイヅシ,ナンノウチョウトクダ,岐阜県海津市南濃町徳田
5030408,岐阜県,海津市,南濃町庭田,ギフケン,カイヅシ,ナンノウチョウニワダ,岐阜県海津市南濃町庭田
5030411,岐阜県,海津市,南濃町駒野,ギフケン,カイヅシ,ナンノウチョウコマノ,岐阜県海津市南濃町駒野
5030412,岐阜県,海津市,南濃町奥条,ギフケン,カイヅシ,ナンノウチョウオクジョウ,岐阜県海津市南濃町奥条
5030413,岐阜県,海津市,南濃町羽沢,ギフケン,カイヅシ,ナンノウチョウハザワ,岐阜県海津市南濃町羽沢
5030414,岐阜県,海津市,南濃町上野河戸,ギフケン,カイヅシ,ナンノウチョウウエノコウズ,岐阜県海津市南濃町上野河戸
5030415,岐阜県,海津市,南濃町山崎,ギフケン,カイヅシ,ナンノウチョウヤマザキ,岐阜県海津市南濃町山崎
5030531,岐阜県,海津市,南濃町安江,ギフケン,カイヅシ,ナンノウチョウヤスエ,岐阜県海津市南濃町安江
5030532,岐阜県,海津市,南濃町太田,ギフケン,カイヅシ,ナンノウチョウオオタ,岐阜県海津市南濃町太田
5030533,岐阜県,海津市,南濃町田鶴,ギフケン,カイヅシ,ナンノウチョウタヅル,岐阜県海津市南濃町田鶴
5030534,岐阜県,海津市,南濃町境,ギフケン,カイヅシ,ナンノウチョウサカイ,岐阜県海津市南濃町境
5030535,岐阜県,海津市,南濃町松山,ギフケン,カイヅシ,ナンノウチョウマツヤマ,岐阜県海津市南濃町松山
5030536,岐阜県,海津市,南濃町吉田,ギフケン,カイヅシ,ナンノウチョウヨシダ,岐阜県海津市南濃町吉田
5030600,岐阜県,海津市,,ギフケン,カイヅシ,,岐阜県海津市
5030601,岐阜県,海津市,海津町松木,ギフケン,カイヅシ,カイヅチョウマツノキ,岐阜県海津市海津町松木
5030602,岐阜県,海津市,海津町瀬古,ギフケン,カイヅシ,カイヅチョウセコ,岐阜県海津市海津町瀬古
5030603,岐阜県,海津市,海津町神桐,ギフケン,カイヅシ,カイヅチョウカミギリ,岐阜県海津市海津町神桐
5030604,岐阜県,海津市,海津町成戸,ギフケン,カイヅシ,カイヅチョウナリト,岐阜県海津市海津町成戸
5030605,岐阜県,海津市,海津町福一色,ギフケン,カイヅシ,カイヅチョウフクイシキ,岐阜県海津市海津町福一色
5030606,岐阜県,海津市,海津町田中,ギフケン,カイヅシ,カイヅチョウタナカ,岐阜県海津市海津町田中
5030608,岐阜県,海津市,海津町鹿野,ギフケン,カイヅシ,カイヅチョウカノ,岐阜県海津市海津町鹿野
5030611,岐阜県,海津市,海津町秋江,ギフケン,カイヅシ,カイヅチョウアキエ,岐阜県海津市海津町秋江
5030612,岐阜県,海津市,海津町大和田,ギフケン,カイヅシ,カイヅチョウオワダ,岐阜県海津市海津町大和田
5030613,岐阜県,海津市,海津町駒ケ江,ギフケン,カイヅシ,カイヅチョウコマガエ,岐阜県海津市海津町駒ケ江
5030614,岐阜県,海津市,海津町長瀬,ギフケン,カイヅシ,カイヅチョウナガセ,岐阜県海津市海津町長瀬
5030615,岐阜県,海津市,海津町日原,ギフケン,カイヅシ,カイヅチョウヒワラ,岐阜県海津市海津町日原
5030616,岐阜県,海津市,海津町長久保,ギフケン,カイヅシ,カイヅチョウナガクボ,岐阜県海津市海津町長久保
5030617,岐阜県,海津市,海津町立野,ギフケン,カイヅシ,カイヅチョウタテノ,岐阜県海津市海津町立野
5030618,岐阜県,海津市,海津町草場,ギフケン,カイヅシ,カイヅチョウクサバ,岐阜県海津市海津町草場
5030621,岐阜県,海津市,海津町外浜,ギフケン,カイヅシ,カイヅチョウソトハマ,岐阜県海津市海津町外浜
5030622,岐阜県,海津市,海津町森下,ギフケン,カイヅシ,カイヅチョウモリシタ,岐阜県海津市海津町森下
5030623,岐阜県,海津市,海津町古中島,ギフケン,カイヅシ,カイヅチョウフルナカジマ,岐阜県海津市海津町古中島
5030624,岐阜県,海津市,海津町金廻,ギフケン,カイヅシ,カイヅチョウカナマワリ,岐阜県海津市海津町金廻
5030625,岐阜県,海津市,海津町油島,ギフケン,カイヅシ,カイヅチョウアブラジマ,岐阜県海津市海津町油島
5030626,岐阜県,海津市,海津町万寿新田,ギフケン,カイヅシ,カイヅチョウマンジュシンデン,岐阜県海津市海津町万寿新田
5030627,岐阜県,海津市,海津町七右衛門新田,ギフケン,カイヅシ,カイヅチョウシチウエモンシンデン,岐阜県海津市海津町七右衛門新田
5030628,岐阜県,海津市,海津町福江,ギフケン,カイヅシ,カイヅチョウフクエ,岐阜県海津市海津町福江
5030629,岐阜県,海津市,海津町石亀,ギフケン,カイヅシ,カイヅチョウイシガメ,岐阜県海津市海津町石亀
5030631,岐阜県,海津市,海津町稲山,ギフケン,カイヅシ,カイヅチョウイナヤマ,岐阜県海津市海津町稲山
5030632,岐阜県,海津市,海津町宮地,ギフケン,カイヅシ,カイヅチョウミヤジ,岐阜県海津市海津町宮地
5030633,岐阜県,海津市,海津町本阿弥新田,ギフケン,カイヅシ,カイヅチョウホンナミシンデン,岐阜県海津市海津町本阿弥新田
5030634,岐阜県,海津市,海津町沼新田,ギフケン,カイヅシ,カイヅチョウヌマシンデン,岐阜県海津市海津町沼新田
5030635,岐阜県,海津市,海津町江東,ギフケン,カイヅシ,カイヅチョウエヒガシ,岐阜県海津市海津町江東
5030636,岐阜県,海津市,海津町帆引新田,ギフケン,カイヅシ,カイヅチョウホビキシンデン,岐阜県海津市海津町帆引新田
5030637,岐阜県,海津市,海津町安田,ギフケン,カイヅシ,カイヅチョウヤスダ,岐阜県海津市海津町安田
5030638,岐阜県,海津市,海津町安田新田,ギフケン,カイヅシ,カイヅチョウヤスダシンデン,岐阜県海津市海津町安田新田
5030641,岐阜県,海津市,海津町内記,ギフケン,カイヅシ,カイヅチョウナイキ,岐阜県海津市海津町内記
5030643,岐阜県,海津市,海津町札野,ギフケン,カイヅシ,カイヅチョウフダノ,岐阜県海津市海津町札野
5030644,岐阜県,海津市,海津町深浜,ギフケン,カイヅシ,カイヅチョウフカハマ,岐阜県海津市海津町深浜
5030645,岐阜県,海津市,海津町五町,ギフケン,カイヅシ,カイヅチョウゴチョウ,岐阜県海津市海津町五町
5030646,岐阜県,海津市,海津町萱野,ギフケン,カイヅシ,カイヅチョウカヤノ,岐阜県海津市海津町萱野
5030647,岐阜県,海津市,海津町東小島,ギフケン,カイヅシ,カイヅチョウヒガシオジマ,岐阜県海津市海津町東小島
5030648,岐阜県,海津市,海津町西小島,ギフケン,カイヅシ,カイヅチョウニシオジマ,岐阜県海津市海津町西小島
5030651,岐阜県,海津市,海津町平原,ギフケン,カイヅシ,カイヅチョウヒラハラ,岐阜県海津市海津町平原
5030652,岐阜県,海津市,海津町馬目,ギフケン,カイヅシ,カイヅチョウマノメ,岐阜県海津市海津町馬目
5030653,岐阜県,海津市,海津町高須町,ギフケン,カイヅシ,カイヅチョウタカスマチ,岐阜県海津市海津町高須町
5030654,岐阜県,海津市,海津町高須,ギフケン,カイヅシ,カイヅチョウタカス,岐阜県海津市海津町高須
5030655,岐阜県,海津市,海津町福岡,ギフケン,カイヅシ,カイヅチョウフクオカ,岐阜県海津市海津町福岡
5030801,岐阜県,大垣市,和合新町,ギフケン,オオガキシ,ワゴウシンマチ,岐阜県大垣市和合新町
5030802,岐阜県,大垣市,東町,ギフケン,オオガキシ,アズマチョウ,岐阜県大垣市東町
5030803,岐阜県,大垣市,小野,ギフケン,オオガキシ,コノ,岐阜県大垣市小野
5030804,岐阜県,大垣市,中ノ江,ギフケン,オオガキシ,ナカノエ,岐阜県大垣市中ノ江
5030805,岐阜県,大垣市,鶴見町,ギフケン,オオガキシ,ツルミチョウ,岐阜県大垣市鶴見町
5030806,岐阜県,大垣市,緑園,ギフケン,オオガキシ,ミドリエン,岐阜県大垣市緑園
5030807,岐阜県,大垣市,今宿,ギフケン,オオガキシ,イマジュク,岐阜県大垣市今宿
5030808,岐阜県,大垣市,三塚町,ギフケン,オオガキシ,ミツヅカチョウ,岐阜県大垣市三塚町
5030811,岐阜県,大垣市,波須,ギフケン,オオガキシ,ハス,岐阜県大垣市波須
5030812,岐阜県,大垣市,万石,ギフケン,オオガキシ,マンゴク,岐阜県大垣市万石
5030813,岐阜県,大垣市,三本木,ギフケン,オオガキシ,サンボンギ,岐阜県大垣市三本木
5030814,岐阜県,大垣市,大村,ギフケン,オオガキシ,オオムラ,岐阜県大垣市大村
5030815,岐阜県,大垣市,直江町,ギフケン,オオガキシ,スグエチョウ,岐阜県大垣市直江町
5030816,岐阜県,大垣市,小泉町,ギフケン,オオガキシ,コイズミチョウ,岐阜県大垣市小泉町
5030817,岐阜県,大垣市,上面,ギフケン,オオガキシ,ジョウメン,岐阜県大垣市上面
5030821,岐阜県,大垣市,早苗町,ギフケン,オオガキシ,サナエチョウ,岐阜県大垣市早苗町
5030822,岐阜県,大垣市,住吉町,ギフケン,オオガキシ,スミヨシチョウ,岐阜県大垣市住吉町
5030823,岐阜県,大垣市,鹿島町,ギフケン,オオガキシ,カシマチョウ,岐阜県大垣市鹿島町
5030824,岐阜県,大垣市,旭町,ギフケン,オオガキシ,アサヒマチ,岐阜県大垣市旭町
5030825,岐阜県,大垣市,花園町,ギフケン,オオガキシ,ハナゾノチョウ,岐阜県大垣市花園町
5030826,岐阜県,大垣市,恵比寿町北,ギフケン,オオガキシ,エビスチョウキタ,岐阜県大垣市恵比寿町北
5030827,岐阜県,大垣市,恵比寿町南,ギフケン,オオガキシ,エビスチョウミナミ,岐阜県大垣市恵比寿町南
5030828,岐阜県,大垣市,恵比寿町,ギフケン,オオガキシ,エビスチョウ,岐阜県大垣市恵比寿町
5030831,岐阜県,大垣市,新長沢町,ギフケン,オオガキシ,シンナガサワチョウ,岐阜県大垣市新長沢町
5030832,岐阜県,大垣市,寿町,ギフケン,オオガキシ,コトブキチョウ,岐阜県大垣市寿町
5030833,岐阜県,大垣市,長沢町,ギフケン,オオガキシ,ナガサワチョウ,岐阜県大垣市長沢町
5030834,岐阜県,大垣市,犬ケ渕町,ギフケン,オオガキシ,イヌガブチチョウ,岐阜県大垣市犬ケ渕町
5030835,岐阜県,大垣市,東前,ギフケン,オオガキシ,ヒガシマエ,岐阜県大垣市東前
5030836,岐阜県,大垣市,大井,ギフケン,オオガキシ,オオイ,岐阜県大垣市大井
5030837,岐阜県,大垣市,安井町,ギフケン,オオガキシ,ヤスイチョウ,岐阜県大垣市安井町
5030838,岐阜県,大垣市,江崎町,ギフケン,オオガキシ,エザキチョウ,岐阜県大垣市江崎町
5030839,岐阜県,大垣市,長井町,ギフケン,オオガキシ,ナガイチョウ,岐阜県大垣市長井町
5030841,岐阜県,大垣市,平町（その他）,ギフケン,オオガキシ,ヒラマチ(ソノタ),岐阜県大垣市平町（その他）
5030842,岐阜県,大垣市,馬の瀬町,ギフケン,オオガキシ,ウマノセチョウ,岐阜県大垣市馬の瀬町
5030843,岐阜県,大垣市,今福町,ギフケン,オオガキシ,イマフクチョウ,岐阜県大垣市今福町
5030844,岐阜県,大垣市,難波野町,ギフケン,オオガキシ,ナンバノチョウ,岐阜県大垣市難波野町
5030845,岐阜県,大垣市,牧新田町,ギフケン,オオガキシ,マキシンデンチョウ,岐阜県大垣市牧新田町
5030846,岐阜県,大垣市,深池町,ギフケン,オオガキシ,フカイケチョウ,岐阜県大垣市深池町
5030847,岐阜県,大垣市,米野町,ギフケン,オオガキシ,コメノチョウ,岐阜県大垣市米野町
5030848,岐阜県,大垣市,古宮町,ギフケン,オオガキシ,フルミヤチョウ,岐阜県大垣市古宮町
5030849,岐阜県,大垣市,東前町,ギフケン,オオガキシ,ヒガシマエチョウ,岐阜県大垣市東前町
5030851,岐阜県,大垣市,禾森,ギフケン,オオガキシ,ノギノモリ,岐阜県大垣市禾森
5030852,岐阜県,大垣市,禾森町,ギフケン,オオガキシ,ノギノモリチョウ,岐阜県大垣市禾森町
5030853,岐阜県,大垣市,田口町,ギフケン,オオガキシ,タグチチョウ,岐阜県大垣市田口町
5030854,岐阜県,大垣市,築捨町,ギフケン,オオガキシ,ツキズテチョウ,岐阜県大垣市築捨町
5030855,岐阜県,大垣市,問屋町,ギフケン,オオガキシ,トイヤマチ,岐阜県大垣市問屋町
5030856,岐阜県,大垣市,新田町,ギフケン,オオガキシ,シンデンチョウ,岐阜県大垣市新田町
5030857,岐阜県,大垣市,美和町,ギフケン,オオガキシ,ミワチョウ,岐阜県大垣市美和町
5030858,岐阜県,大垣市,世安町,ギフケン,オオガキシ,ヨヤスチョウ,岐阜県大垣市世安町
5030861,岐阜県,大垣市,羽衣町,ギフケン,オオガキシ,ハゴロモチョウ,岐阜県大垣市羽衣町
5030862,岐阜県,大垣市,二葉町,ギフケン,オオガキシ,フタバチョウ,岐阜県大垣市二葉町
5030863,岐阜県,大垣市,大池町,ギフケン,オオガキシ,オオイケチョウ,岐阜県大垣市大池町
5030864,岐阜県,大垣市,南頬町,ギフケン,オオガキシ,ミナミノカワチョウ,岐阜県大垣市南頬町
5030865,岐阜県,大垣市,寺内町,ギフケン,オオガキシ,ジナイチョウ,岐阜県大垣市寺内町
5030871,岐阜県,大垣市,魚屋町,ギフケン,オオガキシ,ウオヤチョウ,岐阜県大垣市魚屋町
5030872,岐阜県,大垣市,新町,ギフケン,オオガキシ,シンマチ,岐阜県大垣市新町
5030873,岐阜県,大垣市,南高橋町,ギフケン,オオガキシ,ミナミタカハシチョウ,岐阜県大垣市南高橋町
5030874,岐阜県,大垣市,今岡町,ギフケン,オオガキシ,イマオカチョウ,岐阜県大垣市今岡町
5030875,岐阜県,大垣市,田町,ギフケン,オオガキシ,タマチ,岐阜県大垣市田町
5030876,岐阜県,大垣市,俵町,ギフケン,オオガキシ,タワラマチ,岐阜県大垣市俵町
5030877,岐阜県,大垣市,御殿町,ギフケン,オオガキシ,ゴテンマチ,岐阜県大垣市御殿町
5030878,岐阜県,大垣市,竹島町,ギフケン,オオガキシ,タケジマチョウ,岐阜県大垣市竹島町
5030881,岐阜県,大垣市,岐阜町,ギフケン,オオガキシ,ギフマチ,岐阜県大垣市岐阜町
5030882,岐阜県,大垣市,東長町,ギフケン,オオガキシ,ヒガシナガチョウ,岐阜県大垣市東長町
5030883,岐阜県,大垣市,清水町,ギフケン,オオガキシ,シミズチョウ,岐阜県大垣市清水町
5030884,岐阜県,大垣市,中町,ギフケン,オオガキシ,ナカマチ,岐阜県大垣市中町
5030885,岐阜県,大垣市,本町,ギフケン,オオガキシ,ホンマチ,岐阜県大垣市本町
5030886,岐阜県,大垣市,郭町東,ギフケン,オオガキシ,クルワマチヒガシ,岐阜県大垣市郭町東
5030887,岐阜県,大垣市,郭町,ギフケン,オオガキシ,クルワマチ,岐阜県大垣市郭町
5030888,岐阜県,大垣市,丸の内,ギフケン,オオガキシ,マルノウチ,岐阜県大垣市丸の内
5030889,岐阜県,大垣市,高砂町,ギフケン,オオガキシ,タカサゴチョウ,岐阜県大垣市高砂町
5030891,岐阜県,大垣市,千鳥町,ギフケン,オオガキシ,チドリチョウ,岐阜県大垣市千鳥町
5030892,岐阜県,大垣市,橘町,ギフケン,オオガキシ,タチバナチョウ,岐阜県大垣市橘町
5030893,岐阜県,大垣市,藤江町,ギフケン,オオガキシ,フジエチョウ,岐阜県大垣市藤江町
5030894,岐阜県,大垣市,新地町,ギフケン,オオガキシ,シンチチョウ,岐阜県大垣市新地町
5030895,岐阜県,大垣市,代官町,ギフケン,オオガキシ,ダイカンチョウ,岐阜県大垣市代官町
5030896,岐阜県,大垣市,高橋町,ギフケン,オオガキシ,タカハシチョウ,岐阜県大垣市高橋町
5030897,岐阜県,大垣市,伝馬町,ギフケン,オオガキシ,テンマチョウ,岐阜県大垣市伝馬町
5030898,岐阜県,大垣市,歩行町,ギフケン,オオガキシ,オカチマチ,岐阜県大垣市歩行町
5030899,岐阜県,大垣市,錦町,ギフケン,オオガキシ,ニシキマチ,岐阜県大垣市錦町
5030901,岐阜県,大垣市,高屋町,ギフケン,オオガキシ,タカヤチョウ,岐阜県大垣市高屋町
5030902,岐阜県,大垣市,栗屋町,ギフケン,オオガキシ,クリヤチョウ,岐阜県大垣市栗屋町
5030903,岐阜県,大垣市,東外側町,ギフケン,オオガキシ,ヒガシトガワチョウ,岐阜県大垣市東外側町
5030904,岐阜県,大垣市,桐ケ崎町,ギフケン,オオガキシ,キリガサキチョウ,岐阜県大垣市桐ケ崎町
5030905,岐阜県,大垣市,宮町,ギフケン,オオガキシ,ミヤマチ,岐阜県大垣市宮町
5030906,岐阜県,大垣市,室町,ギフケン,オオガキシ,ムロマチ,岐阜県大垣市室町
5030907,岐阜県,大垣市,番組町,ギフケン,オオガキシ,バングミチョウ,岐阜県大垣市番組町
5030908,岐阜県,大垣市,西外側町,ギフケン,オオガキシ,ニシトガワチョウ,岐阜県大垣市西外側町
5030911,岐阜県,大垣市,室本町,ギフケン,オオガキシ,ムロホンマチ,岐阜県大垣市室本町
5030912,岐阜県,大垣市,鳩部屋町,ギフケン,オオガキシ,ハトベヤチョウ,岐阜県大垣市鳩部屋町
5030913,岐阜県,大垣市,鷹匠町,ギフケン,オオガキシ,タカジョウチョウ,岐阜県大垣市鷹匠町
5030914,岐阜県,大垣市,西長町,ギフケン,オオガキシ,ニシナガチョウ,岐阜県大垣市西長町
5030915,岐阜県,大垣市,北切石町,ギフケン,オオガキシ,キタキリイシチョウ,岐阜県大垣市北切石町
5030916,岐阜県,大垣市,日の出町,ギフケン,オオガキシ,ヒノデチョウ,岐阜県大垣市日の出町
5030917,岐阜県,大垣市,神田町,ギフケン,オオガキシ,カンダチョウ,岐阜県大垣市神田町
5030918,岐阜県,大垣市,西崎町,ギフケン,オオガキシ,ニシザキチョウ,岐阜県大垣市西崎町
5030921,岐阜県,大垣市,新馬場町,ギフケン,オオガキシ,シンババチョウ,岐阜県大垣市新馬場町
5030922,岐阜県,大垣市,馬場町,ギフケン,オオガキシ,ババチョウ,岐阜県大垣市馬場町
5030923,岐阜県,大垣市,船町,ギフケン,オオガキシ,フナマチ,岐阜県大垣市船町
5030924,岐阜県,大垣市,今町,ギフケン,オオガキシ,イママチ,岐阜県大垣市今町
5030925,岐阜県,大垣市,南切石町,ギフケン,オオガキシ,ミナミキリイシチョウ,岐阜県大垣市南切石町
5030926,岐阜県,大垣市,切石町,ギフケン,オオガキシ,キリイシチョウ,岐阜県大垣市切石町
5030931,岐阜県,大垣市,本今,ギフケン,オオガキシ,モトイマ,岐阜県大垣市本今
5030932,岐阜県,大垣市,本今町,ギフケン,オオガキシ,モトイマチョウ,岐阜県大垣市本今町
5030933,岐阜県,大垣市,外野,ギフケン,オオガキシ,ソトノ,岐阜県大垣市外野
5030934,岐阜県,大垣市,外渕,ギフケン,オオガキシ,ソブツ,岐阜県大垣市外渕
5030935,岐阜県,大垣市,島里,ギフケン,オオガキシ,シマザト,岐阜県大垣市島里
5030936,岐阜県,大垣市,内原,ギフケン,オオガキシ,ウチワラ,岐阜県大垣市内原
5030937,岐阜県,大垣市,釜笛,ギフケン,オオガキシ,カマフエ,岐阜県大垣市釜笛
5030941,岐阜県,大垣市,川口,ギフケン,オオガキシ,カワグチ,岐阜県大垣市川口
5030942,岐阜県,大垣市,昭和,ギフケン,オオガキシ,ショウワ,岐阜県大垣市昭和
5030943,岐阜県,大垣市,横曽根町,ギフケン,オオガキシ,ヨコゾネチョウ,岐阜県大垣市横曽根町
5030944,岐阜県,大垣市,横曽根,ギフケン,オオガキシ,ヨコゾネ,岐阜県大垣市横曽根
5030945,岐阜県,大垣市,浅西,ギフケン,オオガキシ,アサニシ,岐阜県大垣市浅西
5030946,岐阜県,大垣市,浅中,ギフケン,オオガキシ,アサナカ,岐阜県大垣市浅中
5030947,岐阜県,大垣市,浅草,ギフケン,オオガキシ,アサクサ,岐阜県大垣市浅草
5030951,岐阜県,大垣市,外野町,ギフケン,オオガキシ,ソトノチョウ,岐阜県大垣市外野町
5030952,岐阜県,大垣市,割田町,ギフケン,オオガキシ,ワリデンチョウ,岐阜県大垣市割田町
5030953,岐阜県,大垣市,割田,ギフケン,オオガキシ,ワリデン,岐阜県大垣市割田
5030954,岐阜県,大垣市,外花,ギフケン,オオガキシ,トバナ,岐阜県大垣市外花
5030955,岐阜県,大垣市,友江,ギフケン,オオガキシ,トモエ,岐阜県大垣市友江
5030956,岐阜県,大垣市,大外羽,ギフケン,オオガキシ,オオトバ,岐阜県大垣市大外羽
5030957,岐阜県,大垣市,上屋,ギフケン,オオガキシ,カミヤ,岐阜県大垣市上屋
5030958,岐阜県,大垣市,高渕,ギフケン,オオガキシ,タカブチ,岐阜県大垣市高渕
5030959,岐阜県,大垣市,高渕町,ギフケン,オオガキシ,タカブチチョウ,岐阜県大垣市高渕町
5030961,岐阜県,大垣市,青柳町,ギフケン,オオガキシ,アオヤナギチョウ,岐阜県大垣市青柳町
5030962,岐阜県,大垣市,入方,ギフケン,オオガキシ,イリカタ,岐阜県大垣市入方
5030963,岐阜県,大垣市,西大外羽,ギフケン,オオガキシ,ニシオオトバ,岐阜県大垣市西大外羽
5030964,岐阜県,大垣市,上笠,ギフケン,オオガキシ,カミガサ,岐阜県大垣市上笠
5030965,岐阜県,大垣市,多芸島,ギフケン,オオガキシ,タギシマ,岐阜県大垣市多芸島
5030971,岐阜県,大垣市,南一色町,ギフケン,オオガキシ,ミナミイッシキチョウ,岐阜県大垣市南一色町
5030972,岐阜県,大垣市,宝和町,ギフケン,オオガキシ,ホウワチョウ,岐阜県大垣市宝和町
5030973,岐阜県,大垣市,木戸町,ギフケン,オオガキシ,キドチョウ,岐阜県大垣市木戸町
5030974,岐阜県,大垣市,久瀬川町,ギフケン,オオガキシ,クゼガワチョウ,岐阜県大垣市久瀬川町
5030975,岐阜県,大垣市,若森町,ギフケン,オオガキシ,ワカモリチョウ,岐阜県大垣市若森町
5030976,岐阜県,大垣市,南若森町,ギフケン,オオガキシ,ミナミワカモリチョウ,岐阜県大垣市南若森町
5030977,岐阜県,大垣市,南若森,ギフケン,オオガキシ,ミナミワカモリ,岐阜県大垣市南若森
5030981,岐阜県,大垣市,桧町,ギフケン,オオガキシ,ヒノキチョウ,岐阜県大垣市桧町
5030982,岐阜県,大垣市,久徳町,ギフケン,オオガキシ,キュウトクチョウ,岐阜県大垣市久徳町
5030983,岐阜県,大垣市,静里町,ギフケン,オオガキシ,シズサトチョウ,岐阜県大垣市静里町
5030984,岐阜県,大垣市,綾野,ギフケン,オオガキシ,アヤノ,岐阜県大垣市綾野
5030985,岐阜県,大垣市,野口,ギフケン,オオガキシ,ノグチ,岐阜県大垣市野口
5030986,岐阜県,大垣市,中曽根町,ギフケン,オオガキシ,ナカゾネチョウ,岐阜県大垣市中曽根町
5030991,岐阜県,大垣市,木呂町,ギフケン,オオガキシ,キロチョウ,岐阜県大垣市木呂町
5030992,岐阜県,大垣市,新長松,ギフケン,オオガキシ,シンナガマツ,岐阜県大垣市新長松
5030993,岐阜県,大垣市,荒川町,ギフケン,オオガキシ,アラカワチョウ,岐阜県大垣市荒川町
5030994,岐阜県,大垣市,綾野町,ギフケン,オオガキシ,アヤノチョウ,岐阜県大垣市綾野町
5030995,岐阜県,大垣市,十六町,ギフケン,オオガキシ,ジュウロクチョウ,岐阜県大垣市十六町
5030996,岐阜県,大垣市,島町,ギフケン,オオガキシ,シマチョウ,岐阜県大垣市島町
5030997,岐阜県,大垣市,長松町,ギフケン,オオガキシ,ナガマツチョウ,岐阜県大垣市長松町
5031241,岐阜県,養老郡養老町,沢田,ギフケン,ヨウロウグンヨウロウチョウ,サワダ,岐阜県養老郡養老町沢田
5031242,岐阜県,養老郡養老町,桜井,ギフケン,ヨウロウグンヨウロウチョウ,サクライ,岐阜県養老郡養老町桜井
5031243,岐阜県,養老郡養老町,五日市,ギフケン,ヨウロウグンヨウロウチョウ,イツカイチ,岐阜県養老郡養老町五日市
5031244,岐阜県,養老郡養老町,竜泉寺,ギフケン,ヨウロウグンヨウロウチョウ,リュウセンジ,岐阜県養老郡養老町竜泉寺
5031245,岐阜県,養老郡養老町,上方,ギフケン,ヨウロウグンヨウロウチョウ,ウワガタ,岐阜県養老郡養老町上方
5031251,岐阜県,養老郡養老町,石畑,ギフケン,ヨウロウグンヨウロウチョウ,イシバタ,岐阜県養老郡養老町石畑
5031252,岐阜県,養老郡養老町,明徳,ギフケン,ヨウロウグンヨウロウチョウ,ミョウトク,岐阜県養老郡養老町明徳
5031253,岐阜県,養老郡養老町,柏尾,ギフケン,ヨウロウグンヨウロウチョウ,カシワオ,岐阜県養老郡養老町柏尾
5031254,岐阜県,養老郡養老町,養老公園,ギフケン,ヨウロウグンヨウロウチョウ,ヨウロウコウエン,岐阜県養老郡養老町養老公園
5031255,岐阜県,養老郡養老町,養老,ギフケン,ヨウロウグンヨウロウチョウ,ヨウロウ,岐阜県養老郡養老町養老
5031256,岐阜県,養老郡養老町,勢至,ギフケン,ヨウロウグンヨウロウチョウ,セイシ,岐阜県養老郡養老町勢至
5031261,岐阜県,養老郡養老町,鷲巣,ギフケン,ヨウロウグンヨウロウチョウ,ワシノス,岐阜県養老郡養老町鷲巣
5031262,岐阜県,養老郡養老町,小倉,ギフケン,ヨウロウグンヨウロウチョウ,オグラ,岐阜県養老郡養老町小倉
5031263,岐阜県,養老郡養老町,船見,ギフケン,ヨウロウグンヨウロウチョウ,フナミ,岐阜県養老郡養老町船見
5031264,岐阜県,養老郡養老町,一色,ギフケン,ヨウロウグンヨウロウチョウ,イッシキ,岐阜県養老郡養老町一色
5031265,岐阜県,養老郡養老町,若宮,ギフケン,ヨウロウグンヨウロウチョウ,ワカミヤ,岐阜県養老郡養老町若宮
5031266,岐阜県,養老郡養老町,京ケ脇,ギフケン,ヨウロウグンヨウロウチョウ,キョウガワキ,岐阜県養老郡養老町京ケ脇
5031267,岐阜県,養老郡養老町,高林,ギフケン,ヨウロウグンヨウロウチョウ,タカバヤシ,岐阜県養老郡養老町高林
5031268,岐阜県,養老郡養老町,西小倉,ギフケン,ヨウロウグンヨウロウチョウ,ニシオグラ,岐阜県養老郡養老町西小倉
5031271,岐阜県,養老郡養老町,田,ギフケン,ヨウロウグンヨウロウチョウ,タ,岐阜県養老郡養老町田
5031272,岐阜県,養老郡養老町,大場,ギフケン,ヨウロウグンヨウロウチョウ,オオバ,岐阜県養老郡養老町大場
5031273,岐阜県,養老郡養老町,根古地,ギフケン,ヨウロウグンヨウロウチョウ,ネコジ,岐阜県養老郡養老町根古地
5031274,岐阜県,養老郡養老町,瑞穂,ギフケン,ヨウロウグンヨウロウチョウ,ミズホ,岐阜県養老郡養老町瑞穂
5031275,岐阜県,養老郡養老町,大巻,ギフケン,ヨウロウグンヨウロウチョウ,オオマキ,岐阜県養老郡養老町大巻
5031276,岐阜県,養老郡養老町,釜段,ギフケン,ヨウロウグンヨウロウチョウ,カマダン,岐阜県養老郡養老町釜段
5031277,岐阜県,養老郡養老町,有尾,ギフケン,ヨウロウグンヨウロウチョウ,アリオ,岐阜県養老郡養老町有尾
5031278,岐阜県,養老郡養老町,横屋,ギフケン,ヨウロウグンヨウロウチョウ,ヨコヤ,岐阜県養老郡養老町横屋
5031300,岐阜県,養老郡養老町,,ギフケン,ヨウロウグンヨウロウチョウ,,岐阜県養老郡養老町
5031301,岐阜県,養老郡養老町,室原,ギフケン,ヨウロウグンヨウロウチョウ,ムロハラ,岐阜県養老郡養老町室原
5031302,岐阜県,養老郡養老町,大坪,ギフケン,ヨウロウグンヨウロウチョウ,オオツボ,岐阜県養老郡養老町大坪
5031303,岐阜県,養老郡養老町,蛇持,ギフケン,ヨウロウグンヨウロウチョウ,ジャモチ,岐阜県養老郡養老町蛇持
5031304,岐阜県,養老郡養老町,飯田,ギフケン,ヨウロウグンヨウロウチョウ,イイダ,岐阜県養老郡養老町飯田
5031305,岐阜県,養老郡養老町,祖父江,ギフケン,ヨウロウグンヨウロウチョウ,ソブエ,岐阜県養老郡養老町祖父江
5031306,岐阜県,養老郡養老町,江月,ギフケン,ヨウロウグンヨウロウチョウ,エツキ,岐阜県養老郡養老町江月
5031311,岐阜県,養老郡養老町,泉町,ギフケン,ヨウロウグンヨウロウチョウ,イズミマチ,岐阜県養老郡養老町泉町
5031312,岐阜県,養老郡養老町,三神町,ギフケン,ヨウロウグンヨウロウチョウ,ミカミマチ,岐阜県養老郡養老町三神町
5031313,岐阜県,養老郡養老町,高田馬場町,ギフケン,ヨウロウグンヨウロウチョウ,タカダババチョウ,岐阜県養老郡養老町高田馬場町
5031314,岐阜県,養老郡養老町,高田,ギフケン,ヨウロウグンヨウロウチョウ,タカダ,岐阜県養老郡養老町高田
5031315,岐阜県,養老郡養老町,烏江,ギフケン,ヨウロウグンヨウロウチョウ,カラスエ,岐阜県養老郡養老町烏江
5031316,岐阜県,養老郡養老町,押越,ギフケン,ヨウロウグンヨウロウチョウ,オシコシ,岐阜県養老郡養老町押越
5031317,岐阜県,養老郡養老町,滝見町,ギフケン,ヨウロウグンヨウロウチョウ,タキミマチ,岐阜県養老郡養老町滝見町
5031321,岐阜県,養老郡養老町,岩道,ギフケン,ヨウロウグンヨウロウチョウ,イワミチ,岐阜県養老郡養老町岩道
5031322,岐阜県,養老郡養老町,西岩道,ギフケン,ヨウロウグンヨウロウチョウ,ニシイワミチ,岐阜県養老郡養老町西岩道
5031323,岐阜県,養老郡養老町,口ケ島,ギフケン,ヨウロウグンヨウロウチョウ,クチガシマ,岐阜県養老郡養老町口ケ島
5031324,岐阜県,養老郡養老町,大跡,ギフケン,ヨウロウグンヨウロウチョウ,オオアト,岐阜県養老郡養老町大跡
5031325,岐阜県,養老郡養老町,飯ノ木,ギフケン,ヨウロウグンヨウロウチョウ,ハンノキ,岐阜県養老郡養老町飯ノ木
5031331,岐阜県,養老郡養老町,橋爪,ギフケン,ヨウロウグンヨウロウチョウ,ハシヅメ,岐阜県養老郡養老町橋爪
5031332,岐阜県,養老郡養老町,中,ギフケン,ヨウロウグンヨウロウチョウ,ナカ,岐阜県養老郡養老町中
5031333,岐阜県,養老郡養老町,色目,ギフケン,ヨウロウグンヨウロウチョウ,イロメ,岐阜県養老郡養老町色目
5031334,岐阜県,養老郡養老町,豊,ギフケン,ヨウロウグンヨウロウチョウ,トヨ,岐阜県養老郡養老町豊
5031335,岐阜県,養老郡養老町,宇田,ギフケン,ヨウロウグンヨウロウチョウ,ウタ,岐阜県養老郡養老町宇田
5031336,岐阜県,養老郡養老町,飯積,ギフケン,ヨウロウグンヨウロウチョウ,イイヅミ,岐阜県養老郡養老町飯積
5031337,岐阜県,養老郡養老町,直江,ギフケン,ヨウロウグンヨウロウチョウ,ナオエ,岐阜県養老郡養老町直江
5031338,岐阜県,養老郡養老町,安久,ギフケン,ヨウロウグンヨウロウチョウ,ヤスヒサ,岐阜県養老郡養老町安久
5031339,岐阜県,養老郡養老町,金屋,ギフケン,ヨウロウグンヨウロウチョウ,カナヤ,岐阜県養老郡養老町金屋
5031381,岐阜県,養老郡養老町,栗笠,ギフケン,ヨウロウグンヨウロウチョウ,クリガサ,岐阜県養老郡養老町栗笠
5031382,岐阜県,養老郡養老町,船附,ギフケン,ヨウロウグンヨウロウチョウ,フナツケ,岐阜県養老郡養老町船附
5031383,岐阜県,養老郡養老町,大野,ギフケン,ヨウロウグンヨウロウチョウ,オオノ,岐阜県養老郡養老町大野
5031384,岐阜県,養老郡養老町,下笠,ギフケン,ヨウロウグンヨウロウチョウ,シモガサ,岐阜県養老郡養老町下笠
5031385,岐阜県,養老郡養老町,上之郷,ギフケン,ヨウロウグンヨウロウチョウ,カミノゴウ,岐阜県養老郡養老町上之郷
5031500,岐阜県,不破郡関ケ原町,,ギフケン,フワグンセキガハラチョウ,,岐阜県不破郡関ケ原町
5031501,岐阜県,不破郡関ケ原町,関ケ原,ギフケン,フワグンセキガハラチョウ,セキガハラ,岐阜県不破郡関ケ原町関ケ原
5031511,岐阜県,不破郡関ケ原町,東町,ギフケン,フワグンセキガハラチョウ,ヒガシマチ,岐阜県不破郡関ケ原町東町
5031512,岐阜県,不破郡関ケ原町,公門,ギフケン,フワグンセキガハラチョウ,クモン,岐阜県不破郡関ケ原町公門
5031513,岐阜県,不破郡関ケ原町,中山,ギフケン,フワグンセキガハラチョウ,ナカヤマ,岐阜県不破郡関ケ原町中山
5031514,岐阜県,不破郡関ケ原町,稲荷,ギフケン,フワグンセキガハラチョウ,イナリ,岐阜県不破郡関ケ原町稲荷
5031514,岐阜県,不破郡関ケ原町,西町,ギフケン,フワグンセキガハラチョウ,ニシマチ,岐阜県不破郡関ケ原町西町
5031515,岐阜県,不破郡関ケ原町,中町,ギフケン,フワグンセキガハラチョウ,ナカマチ,岐阜県不破郡関ケ原町中町
5031521,岐阜県,不破郡関ケ原町,宝有,ギフケン,フワグンセキガハラチョウ,ホウユウ,岐阜県不破郡関ケ原町宝有
5031522,岐阜県,不破郡関ケ原町,陣場野,ギフケン,フワグンセキガハラチョウ,ジンバノ,岐阜県不破郡関ケ原町陣場野
5031523,岐阜県,不破郡関ケ原町,小池,ギフケン,フワグンセキガハラチョウ,コイケ,岐阜県不破郡関ケ原町小池
5031523,岐阜県,不破郡関ケ原町,小関,ギフケン,フワグンセキガハラチョウ,コゼキ,岐阜県不破郡関ケ原町小関
5031524,岐阜県,不破郡関ケ原町,御祭田,ギフケン,フワグンセキガハラチョウ,ゴサイデン,岐阜県不破郡関ケ原町御祭田
5031524,岐阜県,不破郡関ケ原町,笹尾,ギフケン,フワグンセキガハラチョウ,ササオ,岐阜県不破郡関ケ原町笹尾
5031524,岐阜県,不破郡関ケ原町,緑ケ丘,ギフケン,フワグンセキガハラチョウ,ミドリガオカ,岐阜県不破郡関ケ原町緑ケ丘
5031531,岐阜県,不破郡関ケ原町,大高,ギフケン,フワグンセキガハラチョウ,オダカ,岐阜県不破郡関ケ原町大高
5031532,岐阜県,不破郡関ケ原町,野上,ギフケン,フワグンセキガハラチョウ,ノガミ,岐阜県不破郡関ケ原町野上
5031541,岐阜県,不破郡関ケ原町,松尾,ギフケン,フワグンセキガハラチョウ,マツオ,岐阜県不破郡関ケ原町松尾
5031542,岐阜県,不破郡関ケ原町,藤下,ギフケン,フワグンセキガハラチョウ,トウゲ,岐阜県不破郡関ケ原町藤下
5031543,岐阜県,不破郡関ケ原町,今須,ギフケン,フワグンセキガハラチョウ,イマス,岐阜県不破郡関ケ原町今須
5031544,岐阜県,不破郡関ケ原町,山中,ギフケン,フワグンセキガハラチョウ,ヤマナカ,岐阜県不破郡関ケ原町山中
5031545,岐阜県,不破郡関ケ原町,玉,ギフケン,フワグンセキガハラチョウ,タマ,岐阜県不破郡関ケ原町玉
5031601,岐阜県,大垣市,上石津町乙坂,ギフケン,オオガキシ,カミイシヅチョウオツサカ,岐阜県大垣市上石津町乙坂
5031602,岐阜県,大垣市,上石津町牧田,ギフケン,オオガキシ,カミイシヅチョウマキダ,岐阜県大垣市上石津町牧田
5031611,岐阜県,大垣市,上石津町奥,ギフケン,オオガキシ,カミイシヅチョウオク,岐阜県大垣市上石津町奥
5031612,岐阜県,大垣市,上石津町谷畑,ギフケン,オオガキシ,カミイシヅチョウタニハタ,岐阜県大垣市上石津町谷畑
5031613,岐阜県,大垣市,上石津町上鍛治屋,ギフケン,オオガキシ,カミイシヅチョウカミカジヤ,岐阜県大垣市上石津町上鍛治屋
5031614,岐阜県,大垣市,上石津町一之瀬,ギフケン,オオガキシ,カミイシヅチョウイチノセ,岐阜県大垣市上石津町一之瀬
5031621,岐阜県,大垣市,上石津町下多良,ギフケン,オオガキシ,カミイシヅチョウシモタラ,岐阜県大垣市上石津町下多良
5031622,岐阜県,大垣市,上石津町上原,ギフケン,オオガキシ,カミイシヅチョウウワハラ,岐阜県大垣市上石津町上原
5031623,岐阜県,大垣市,上石津町上多良,ギフケン,オオガキシ,カミイシヅチョウカミタラ,岐阜県大垣市上石津町上多良
5031624,岐阜県,大垣市,上石津町三ツ里,ギフケン,オオガキシ,カミイシヅチョウミツサト,岐阜県大垣市上石津町三ツ里
5031625,岐阜県,大垣市,上石津町宮,ギフケン,オオガキシ,カミイシヅチョウミヤ,岐阜県大垣市上石津町宮
5031626,岐阜県,大垣市,上石津町祢宜上,ギフケン,オオガキシ,カミイシヅチョウネギカミ,岐阜県大垣市上石津町祢宜上
5031631,岐阜県,大垣市,上石津町前ケ瀬,ギフケン,オオガキシ,カミイシヅチョウマエガセ,岐阜県大垣市上石津町前ケ瀬
5031632,岐阜県,大垣市,上石津町下山,ギフケン,オオガキシ,カミイシヅチョウシモヤマ,岐阜県大垣市上石津町下山
5031633,岐阜県,大垣市,上石津町打上,ギフケン,オオガキシ,カミイシヅチョウウチアゲ,岐阜県大垣市上石津町打上
5031634,岐阜県,大垣市,上石津町細野,ギフケン,オオガキシ,カミイシヅチョウホソノ,岐阜県大垣市上石津町細野
5031635,岐阜県,大垣市,上石津町時山,ギフケン,オオガキシ,カミイシヅチョウトキヤマ,岐阜県大垣市上石津町時山
5031636,岐阜県,大垣市,上石津町西山,ギフケン,オオガキシ,カミイシヅチョウニシヤマ,岐阜県大垣市上石津町西山
5031637,岐阜県,大垣市,上石津町堂之上,ギフケン,オオガキシ,カミイシヅチョウドウノウエ,岐阜県大垣市上石津町堂之上
5031638,岐阜県,大垣市,上石津町上,ギフケン,オオガキシ,カミイシヅチョウカミ,岐阜県大垣市上石津町上
5032100,岐阜県,不破郡垂井町,,ギフケン,フワグンタルイチョウ,,岐阜県不破郡垂井町
5032101,岐阜県,不破郡垂井町,大滝,ギフケン,フワグンタルイチョウ,オオタキ,岐阜県不破郡垂井町大滝
5032102,岐阜県,不破郡垂井町,敷原,ギフケン,フワグンタルイチョウ,シキハラ,岐阜県不破郡垂井町敷原
5032103,岐阜県,不破郡垂井町,梅谷,ギフケン,フワグンタルイチョウ,ウメタニ,岐阜県不破郡垂井町梅谷
5032104,岐阜県,不破郡垂井町,市之尾,ギフケン,フワグンタルイチョウ,イチノオ,岐阜県不破郡垂井町市之尾
5032105,岐阜県,不破郡垂井町,新井,ギフケン,フワグンタルイチョウ,アライ,岐阜県不破郡垂井町新井
5032106,岐阜県,不破郡垂井町,伊吹,ギフケン,フワグンタルイチョウ,イブキ,岐阜県不破郡垂井町伊吹
5032107,岐阜県,不破郡垂井町,岩手,ギフケン,フワグンタルイチョウ,イワデ,岐阜県不破郡垂井町岩手
5032108,岐阜県,不破郡垂井町,大石,ギフケン,フワグンタルイチョウ,オオイシ,岐阜県不破郡垂井町大石
5032109,岐阜県,不破郡垂井町,南新井,ギフケン,フワグンタルイチョウ,ミナミアライ,岐阜県不破郡垂井町南新井
5032111,岐阜県,不破郡垂井町,平尾,ギフケン,フワグンタルイチョウ,ヒラオ,岐阜県不破郡垂井町平尾
5032112,岐阜県,不破郡垂井町,綾戸,ギフケン,フワグンタルイチョウ,アヤド,岐阜県不破郡垂井町綾戸
5032113,岐阜県,不破郡垂井町,清水,ギフケン,フワグンタルイチョウ,シミズ,岐阜県不破郡垂井町清水
5032114,岐阜県,不破郡垂井町,府中,ギフケン,フワグンタルイチョウ,フチュウ,岐阜県不破郡垂井町府中
5032121,岐阜県,不破郡垂井町,,ギフケン,フワグンタルイチョウ,,岐阜県不破郡垂井町
5032122,岐阜県,不破郡垂井町,表佐,ギフケン,フワグンタルイチョウ,オサ,岐阜県不破郡垂井町表佐
5032123,岐阜県,不破郡垂井町,栗原,ギフケン,フワグンタルイチョウ,クリハラ,岐阜県不破郡垂井町栗原
5032124,岐阜県,不破郡垂井町,宮代,ギフケン,フワグンタルイチョウ,ミヤシロ,岐阜県不破郡垂井町宮代
5032125,岐阜県,不破郡垂井町,東神田,ギフケン,フワグンタルイチョウ,ヒガシカンダ,岐阜県不破郡垂井町東神田
5032201,岐阜県,大垣市,草道島町,ギフケン,オオガキシ,ソウドウジマチョウ,岐阜県大垣市草道島町
5032202,岐阜県,大垣市,青木町,ギフケン,オオガキシ,アオキチョウ,岐阜県大垣市青木町
5032203,岐阜県,大垣市,興福地町,ギフケン,オオガキシ,コウフクジチョウ,岐阜県大垣市興福地町
5032204,岐阜県,大垣市,池尻町,ギフケン,オオガキシ,イケジリチョウ,岐阜県大垣市池尻町
5032205,岐阜県,大垣市,神明,ギフケン,オオガキシ,シンメイ,岐阜県大垣市神明
5032206,岐阜県,大垣市,赤坂新町,ギフケン,オオガキシ,アカサカシンマチ,岐阜県大垣市赤坂新町
5032207,岐阜県,大垣市,枝郷,ギフケン,オオガキシ,エダゴウ,岐阜県大垣市枝郷
5032208,岐阜県,大垣市,菅野,ギフケン,オオガキシ,スガノ,岐阜県大垣市菅野
5032211,岐阜県,大垣市,南市橋町,ギフケン,オオガキシ,ミナミイチハシチョウ,岐阜県大垣市南市橋町
5032212,岐阜県,大垣市,赤坂東町,ギフケン,オオガキシ,アカサカヒガシマチ,岐阜県大垣市赤坂東町
5032213,岐阜県,大垣市,赤坂町,ギフケン,オオガキシ,アカサカチョウ,岐阜県大垣市赤坂町
5032214,岐阜県,大垣市,赤坂新田,ギフケン,オオガキシ,アカサカシンデン,岐阜県大垣市赤坂新田
5032215,岐阜県,大垣市,赤坂大門,ギフケン,オオガキシ,アカサカダイモン,岐阜県大垣市赤坂大門
5032216,岐阜県,大垣市,昼飯町,ギフケン,オオガキシ,ヒルイチョウ,岐阜県大垣市昼飯町
5032221,岐阜県,大垣市,青墓町,ギフケン,オオガキシ,アオハカチョウ,岐阜県大垣市青墓町
5032222,岐阜県,大垣市,榎戸町,ギフケン,オオガキシ,ヨノキドチョウ,岐阜県大垣市榎戸町
5032223,岐阜県,大垣市,矢道町,ギフケン,オオガキシ,ヤミチチョウ,岐阜県大垣市矢道町
5032224,岐阜県,大垣市,稲葉東,ギフケン,オオガキシ,イナバヒガシ,岐阜県大垣市稲葉東
5032225,岐阜県,大垣市,稲葉西,ギフケン,オオガキシ,イナバニシ,岐阜県大垣市稲葉西
5032226,岐阜県,大垣市,稲葉北,ギフケン,オオガキシ,イナバキタ,岐阜県大垣市稲葉北
5032227,岐阜県,大垣市,青野町,ギフケン,オオガキシ,アオノチョウ,岐阜県大垣市青野町
5032300,岐阜県,安八郡神戸町,,ギフケン,アンパチグンゴウドチョウ,,岐阜県安八郡神戸町
5032301,岐阜県,安八郡神戸町,横井,ギフケン,アンパチグンゴウドチョウ,ヨコイ,岐阜県安八郡神戸町横井
5032302,岐阜県,安八郡神戸町,田,ギフケン,アンパチグンゴウドチョウ,タ,岐阜県安八郡神戸町田
5032303,岐阜県,安八郡神戸町,安次,ギフケン,アンパチグンゴウドチョウ,ヤスツグ,岐阜県安八郡神戸町安次
5032304,岐阜県,安八郡神戸町,丈六道,ギフケン,アンパチグンゴウドチョウ,ジョウロクドウ,岐阜県安八郡神戸町丈六道
5032305,岐阜県,安八郡神戸町,神戸,ギフケン,アンパチグンゴウドチョウ,ゴウド,岐阜県安八郡神戸町神戸
5032306,岐阜県,安八郡神戸町,北一色,ギフケン,アンパチグンゴウドチョウ,キタイシキ,岐阜県安八郡神戸町北一色
5032311,岐阜県,安八郡神戸町,川西,ギフケン,アンパチグンゴウドチョウ,カワニシ,岐阜県安八郡神戸町川西
5032312,岐阜県,安八郡神戸町,下宮,ギフケン,アンパチグンゴウドチョウ,シモミヤ,岐阜県安八郡神戸町下宮
5032313,岐阜県,安八郡神戸町,新屋敷,ギフケン,アンパチグンゴウドチョウ,シンヤシキ,岐阜県安八郡神戸町新屋敷
5032314,岐阜県,安八郡神戸町,落合,ギフケン,アンパチグンゴウドチョウ,オチアイ,岐阜県安八郡神戸町落合
5032315,岐阜県,安八郡神戸町,付寄,ギフケン,アンパチグンゴウドチョウ,ツキヨリ,岐阜県安八郡神戸町付寄
5032316,岐阜県,安八郡神戸町,斉田,ギフケン,アンパチグンゴウドチョウ,サイダ,岐阜県安八郡神戸町斉田
5032317,岐阜県,安八郡神戸町,柳瀬,ギフケン,アンパチグンゴウドチョウ,ヤナゼ,岐阜県安八郡神戸町柳瀬
5032318,岐阜県,安八郡神戸町,瀬古,ギフケン,アンパチグンゴウドチョウ,セコ,岐阜県安八郡神戸町瀬古
5032319,岐阜県,安八郡神戸町,前田,ギフケン,アンパチグンゴウドチョウ,マエダ,岐阜県安八郡神戸町前田
5032321,岐阜県,安八郡神戸町,末守,ギフケン,アンパチグンゴウドチョウ,スエモリ,岐阜県安八郡神戸町末守
5032322,岐阜県,安八郡神戸町,更屋敷,ギフケン,アンパチグンゴウドチョウ,サラヤシキ,岐阜県安八郡神戸町更屋敷
5032323,岐阜県,安八郡神戸町,西保,ギフケン,アンパチグンゴウドチョウ,ニシノホ,岐阜県安八郡神戸町西保
5032324,岐阜県,安八郡神戸町,八条,ギフケン,アンパチグンゴウドチョウ,ハチジョウ,岐阜県安八郡神戸町八条
5032325,岐阜県,安八郡神戸町,加納,ギフケン,アンパチグンゴウドチョウ,カノウ,岐阜県安八郡神戸町加納
5032326,岐阜県,安八郡神戸町,中沢,ギフケン,アンパチグンゴウドチョウ,ナカザワ,岐阜県安八郡神戸町中沢
5032327,岐阜県,安八郡神戸町,和泉,ギフケン,アンパチグンゴウドチョウ,イズミ,岐阜県安八郡神戸町和泉
5032328,岐阜県,安八郡神戸町,南方,ギフケン,アンパチグンゴウドチョウ,ミナミガタ,岐阜県安八郡神戸町南方
5032341,岐阜県,安八郡神戸町,西座倉,ギフケン,アンパチグンゴウドチョウ,ニシザクラ,岐阜県安八郡神戸町西座倉
5032400,岐阜県,揖斐郡池田町,,ギフケン,イビグンイケダチョウ,,岐阜県揖斐郡池田町
5032401,岐阜県,揖斐郡池田町,沓井,ギフケン,イビグンイケダチョウ,クツイ,岐阜県揖斐郡池田町沓井
5032402,岐阜県,揖斐郡池田町,粕ケ原,ギフケン,イビグンイケダチョウ,カスガハラ,岐阜県揖斐郡池田町粕ケ原
5032403,岐阜県,揖斐郡池田町,田中,ギフケン,イビグンイケダチョウ,タナカ,岐阜県揖斐郡池田町田中
5032404,岐阜県,揖斐郡池田町,小牛,ギフケン,イビグンイケダチョウ,コウジ,岐阜県揖斐郡池田町小牛
5032405,岐阜県,揖斐郡池田町,願成寺,ギフケン,イビグンイケダチョウ,ガンジョウジ,岐阜県揖斐郡池田町願成寺
5032406,岐阜県,揖斐郡池田町,宮地,ギフケン,イビグンイケダチョウ,ミヤジ,岐阜県揖斐郡池田町宮地
5032407,岐阜県,揖斐郡池田町,般若畑,ギフケン,イビグンイケダチョウ,ハンニャバタ,岐阜県揖斐郡池田町般若畑
5032408,岐阜県,揖斐郡池田町,段,ギフケン,イビグンイケダチョウ,ダン,岐阜県揖斐郡池田町段
5032409,岐阜県,揖斐郡池田町,舟子,ギフケン,イビグンイケダチョウ,フナゴ,岐阜県揖斐郡池田町舟子
5032411,岐阜県,揖斐郡池田町,杉野,ギフケン,イビグンイケダチョウ,スギノ,岐阜県揖斐郡池田町杉野
5032412,岐阜県,揖斐郡池田町,砂畑,ギフケン,イビグンイケダチョウ,スナバタ,岐阜県揖斐郡池田町砂畑
5032413,岐阜県,揖斐郡池田町,白鳥,ギフケン,イビグンイケダチョウ,シロトリ,岐阜県揖斐郡池田町白鳥
5032414,岐阜県,揖斐郡池田町,下東野,ギフケン,イビグンイケダチョウ,シモヒガシノ,岐阜県揖斐郡池田町下東野
5032415,岐阜県,揖斐郡池田町,上田,ギフケン,イビグンイケダチョウ,ウエダ,岐阜県揖斐郡池田町上田
5032416,岐阜県,揖斐郡池田町,萩原,ギフケン,イビグンイケダチョウ,ハギワラ,岐阜県揖斐郡池田町萩原
5032417,岐阜県,揖斐郡池田町,本郷,ギフケン,イビグンイケダチョウ,ホンゴウ,岐阜県揖斐郡池田町本郷
5032418,岐阜県,揖斐郡池田町,草深,ギフケン,イビグンイケダチョウ,クサブカ,岐阜県揖斐郡池田町草深
5032419,岐阜県,揖斐郡池田町,小寺,ギフケン,イビグンイケダチョウ,コデラ,岐阜県揖斐郡池田町小寺
5032421,岐阜県,揖斐郡池田町,山洞,ギフケン,イビグンイケダチョウ,ヤマホラ,岐阜県揖斐郡池田町山洞
5032422,岐阜県,揖斐郡池田町,田畑,ギフケン,イビグンイケダチョウ,タバタ,岐阜県揖斐郡池田町田畑
5032423,岐阜県,揖斐郡池田町,青柳,ギフケン,イビグンイケダチョウ,アオヤナギ,岐阜県揖斐郡池田町青柳
5032424,岐阜県,揖斐郡池田町,池野,ギフケン,イビグンイケダチョウ,イケノ,岐阜県揖斐郡池田町池野
5032425,岐阜県,揖斐郡池田町,六之井,ギフケン,イビグンイケダチョウ,ロクノイ,岐阜県揖斐郡池田町六之井
5032426,岐阜県,揖斐郡池田町,八幡,ギフケン,イビグンイケダチョウ,ヤワタ,岐阜県揖斐郡池田町八幡
5032427,岐阜県,揖斐郡池田町,市橋,ギフケン,イビグンイケダチョウ,イチハシ,岐阜県揖斐郡池田町市橋
5032428,岐阜県,揖斐郡池田町,片山,ギフケン,イビグンイケダチョウ,カタヤマ,岐阜県揖斐郡池田町片山
5032429,岐阜県,揖斐郡池田町,藤代,ギフケン,イビグンイケダチョウ,フジシロ,岐阜県揖斐郡池田町藤代
5032501,岐阜県,揖斐郡揖斐川町,春日美束,ギフケン,イビグンイビガワチョウ,カスガミツカ,岐阜県揖斐郡揖斐川町春日美束
5032502,岐阜県,揖斐郡揖斐川町,春日六合,ギフケン,イビグンイビガワチョウ,カスガロクゴウ,岐阜県揖斐郡揖斐川町春日六合
5032503,岐阜県,揖斐郡揖斐川町,春日川合,ギフケン,イビグンイビガワチョウ,カスガカワイ,岐阜県揖斐郡揖斐川町春日川合
5032504,岐阜県,揖斐郡揖斐川町,春日中山,ギフケン,イビグンイビガワチョウ,カスガナカヤマ,岐阜県揖斐郡揖斐川町春日中山
5032505,岐阜県,揖斐郡揖斐川町,春日小宮神,ギフケン,イビグンイビガワチョウ,カスガコミヤカミ,岐阜県揖斐郡揖斐川町春日小宮神
5032506,岐阜県,揖斐郡揖斐川町,春日香六,ギフケン,イビグンイビガワチョウ,カスガコウロク,岐阜県揖斐郡揖斐川町春日香六
5040000,岐阜県,各務原市,,ギフケン,カカミガハラシ,,岐阜県各務原市
5040001,岐阜県,各務原市,那加大洞,ギフケン,カカミガハラシ,ナカオオボラ,岐阜県各務原市那加大洞
5040002,岐阜県,各務原市,尾崎北町,ギフケン,カカミガハラシ,オザキキタマチ,岐阜県各務原市尾崎北町
5040003,岐阜県,各務原市,尾崎南町,ギフケン,カカミガハラシ,オザキミナミマチ,岐阜県各務原市尾崎南町
5040004,岐阜県,各務原市,尾崎西町,ギフケン,カカミガハラシ,オザキニシマチ,岐阜県各務原市尾崎西町
5040005,岐阜県,各務原市,那加柄山町,ギフケン,カカミガハラシ,ナカカラヤマチョウ,岐阜県各務原市那加柄山町
5040006,岐阜県,各務原市,那加琴が丘町,ギフケン,カカミガハラシ,ナカコトガオカチョウ,岐阜県各務原市那加琴が丘町
5040007,岐阜県,各務原市,那加芦原町,ギフケン,カカミガハラシ,ナカアワラチョウ,岐阜県各務原市那加芦原町
5040008,岐阜県,各務原市,那加桐野町,ギフケン,カカミガハラシ,ナカキリノチョウ,岐阜県各務原市那加桐野町
5040009,岐阜県,各務原市,那加扇平,ギフケン,カカミガハラシ,ナカオオギヒラ,岐阜県各務原市那加扇平
5040011,岐阜県,各務原市,那加北洞町,ギフケン,カカミガハラシ,ナカキタボラチョウ,岐阜県各務原市那加北洞町
5040012,岐阜県,各務原市,蘇原宮代町,ギフケン,カカミガハラシ,ソハラミヤダイチョウ,岐阜県各務原市蘇原宮代町
5040013,岐阜県,各務原市,蘇原宮塚町,ギフケン,カカミガハラシ,ソハラミヤヅカチョウ,岐阜県各務原市蘇原宮塚町
5040014,岐阜県,各務原市,那加山崎町,ギフケン,カカミガハラシ,ナカヤマザキチョウ,岐阜県各務原市那加山崎町
5040015,岐阜県,各務原市,那加東野町,ギフケン,カカミガハラシ,ナカヒガシノチョウ,岐阜県各務原市那加東野町
5040016,岐阜県,各務原市,那加御屋敷町,ギフケン,カカミガハラシ,ナカオヤシキチョウ,岐阜県各務原市那加御屋敷町
5040017,岐阜県,各務原市,那加山下町,ギフケン,カカミガハラシ,ナカヤマシタチョウ,岐阜県各務原市那加山下町
5040018,岐阜県,各務原市,那加西市場町,ギフケン,カカミガハラシ,ナカニシイチバチョウ,岐阜県各務原市那加西市場町
5040021,岐阜県,各務原市,那加前洞新町,ギフケン,カカミガハラシ,ナカマエボラシンマチ,岐阜県各務原市那加前洞新町
5040022,岐阜県,各務原市,那加東亜町,ギフケン,カカミガハラシ,ナカトウアチョウ,岐阜県各務原市那加東亜町
5040023,岐阜県,各務原市,那加太平町,ギフケン,カカミガハラシ,ナカタイヘイチョウ,岐阜県各務原市那加太平町
5040024,岐阜県,各務原市,那加幸町,ギフケン,カカミガハラシ,ナカサイワイチョウ,岐阜県各務原市那加幸町
5040025,岐阜県,各務原市,那加野畑町,ギフケン,カカミガハラシ,ナカノバタチョウ,岐阜県各務原市那加野畑町
5040026,岐阜県,各務原市,那加前野町,ギフケン,カカミガハラシ,ナカマエノチョウ,岐阜県各務原市那加前野町
5040031,岐阜県,各務原市,那加兼橋町,ギフケン,カカミガハラシ,ナカカネハシチョウ,岐阜県各務原市那加兼橋町
5040032,岐阜県,各務原市,那加神田町,ギフケン,カカミガハラシ,ナカジンデンチョウ,岐阜県各務原市那加神田町
5040033,岐阜県,各務原市,那加大谷町,ギフケン,カカミガハラシ,ナカオオタニチョウ,岐阜県各務原市那加大谷町
5040034,岐阜県,各務原市,那加浜見町,ギフケン,カカミガハラシ,ナカハマミチョウ,岐阜県各務原市那加浜見町
5040035,岐阜県,各務原市,那加宮浦町,ギフケン,カカミガハラシ,ナカミヤウラチョウ,岐阜県各務原市那加宮浦町
5040036,岐阜県,各務原市,那加荒田町,ギフケン,カカミガハラシ,ナカアラタチョウ,岐阜県各務原市那加荒田町
5040037,岐阜県,各務原市,那加五反田町,ギフケン,カカミガハラシ,ナカゴタンダチョウ,岐阜県各務原市那加五反田町
5040038,岐阜県,各務原市,那加大門町,ギフケン,カカミガハラシ,ナカダイモンチョウ,岐阜県各務原市那加大門町
5040041,岐阜県,各務原市,那加土山町,ギフケン,カカミガハラシ,ナカドヤマチョウ,岐阜県各務原市那加土山町
5040042,岐阜県,各務原市,那加山後町,ギフケン,カカミガハラシ,ナカヤマウシロチョウ,岐阜県各務原市那加山後町
5040043,岐阜県,各務原市,那加手力町,ギフケン,カカミガハラシ,ナカテヂカラチョウ,岐阜県各務原市那加手力町
5040044,岐阜県,各務原市,那加石山町,ギフケン,カカミガハラシ,ナカイシヤマチョウ,岐阜県各務原市那加石山町
5040045,岐阜県,各務原市,那加新田町,ギフケン,カカミガハラシ,ナカシンデンチョウ,岐阜県各務原市那加新田町
5040046,岐阜県,各務原市,那加長塚町,ギフケン,カカミガハラシ,ナカナガツカチョウ,岐阜県各務原市那加長塚町
5040047,岐阜県,各務原市,那加岩地町,ギフケン,カカミガハラシ,ナカイワチチョウ,岐阜県各務原市那加岩地町
5040801,岐阜県,各務原市,蘇原北山町,ギフケン,カカミガハラシ,ソハラキタヤマチョウ,岐阜県各務原市蘇原北山町
5040802,岐阜県,各務原市,蘇原持田町,ギフケン,カカミガハラシ,ソハラモチダチョウ,岐阜県各務原市蘇原持田町
5040803,岐阜県,各務原市,蘇原東門町,ギフケン,カカミガハラシ,ソハラトウモンチョウ,岐阜県各務原市蘇原東門町
5040804,岐阜県,各務原市,蘇原新生町,ギフケン,カカミガハラシ,ソハラシンセイチョウ,岐阜県各務原市蘇原新生町
5040805,岐阜県,各務原市,蘇原昭栄町,ギフケン,カカミガハラシ,ソハラショウエイチョウ,岐阜県各務原市蘇原昭栄町
5040806,岐阜県,各務原市,蘇原外山町,ギフケン,カカミガハラシ,ソハラトヤマチョウ,岐阜県各務原市蘇原外山町
5040807,岐阜県,各務原市,蘇原清住町,ギフケン,カカミガハラシ,ソハラキヨズミチョウ,岐阜県各務原市蘇原清住町
5040808,岐阜県,各務原市,蘇原飛鳥町,ギフケン,カカミガハラシ,ソハラアズカチョウ,岐阜県各務原市蘇原飛鳥町
5040809,岐阜県,各務原市,蘇原北陽町,ギフケン,カカミガハラシ,ソハラホクヨウチョウ,岐阜県各務原市蘇原北陽町
5040811,岐阜県,各務原市,蘇原和合町,ギフケン,カカミガハラシ,ソハラワゴウチョウ,岐阜県各務原市蘇原和合町
5040812,岐阜県,各務原市,蘇原坂井町,ギフケン,カカミガハラシ,ソハラサカイチョウ,岐阜県各務原市蘇原坂井町
5040813,岐阜県,各務原市,蘇原中央町,ギフケン,カカミガハラシ,ソハラチュウオウチョウ,岐阜県各務原市蘇原中央町
5040814,岐阜県,各務原市,蘇原興亜町,ギフケン,カカミガハラシ,ソハラコウアマチ,岐阜県各務原市蘇原興亜町
5040815,岐阜県,各務原市,蘇原東栄町,ギフケン,カカミガハラシ,ソハラトウエイチョウ,岐阜県各務原市蘇原東栄町
5040816,岐阜県,各務原市,蘇原東島町,ギフケン,カカミガハラシ,ソハラヒガシジマチョウ,岐阜県各務原市蘇原東島町
5040821,岐阜県,各務原市,蘇原瑞雲町,ギフケン,カカミガハラシ,ソハラズイウンチョウ,岐阜県各務原市蘇原瑞雲町
5040822,岐阜県,各務原市,蘇原栄町,ギフケン,カカミガハラシ,ソハラサカエマチ,岐阜県各務原市蘇原栄町
5040823,岐阜県,各務原市,蘇原菊園町,ギフケン,カカミガハラシ,ソハラキクゾノチョウ,岐阜県各務原市蘇原菊園町
5040824,岐阜県,各務原市,蘇原旭町,ギフケン,カカミガハラシ,ソハラアサヒマチ,岐阜県各務原市蘇原旭町
5040825,岐阜県,各務原市,蘇原柿沢町,ギフケン,カカミガハラシ,ソハラカキザワチョウ,岐阜県各務原市蘇原柿沢町
5040826,岐阜県,各務原市,蘇原早苗町,ギフケン,カカミガハラシ,ソハラサナエチョウ,岐阜県各務原市蘇原早苗町
5040827,岐阜県,各務原市,蘇原沢上町,ギフケン,カカミガハラシ,ソハラサワガミチョウ,岐阜県各務原市蘇原沢上町
5040828,岐阜県,各務原市,蘇原村雨町,ギフケン,カカミガハラシ,ソハラムラサメチョウ,岐阜県各務原市蘇原村雨町
5040829,岐阜県,各務原市,蘇原希望町,ギフケン,カカミガハラシ,ソハラキボウチョウ,岐阜県各務原市蘇原希望町
5040831,岐阜県,各務原市,蘇原瑞穂町,ギフケン,カカミガハラシ,ソハラミズホチョウ,岐阜県各務原市蘇原瑞穂町
5040832,岐阜県,各務原市,蘇原花園町,ギフケン,カカミガハラシ,ソハラハナゾノチョウ,岐阜県各務原市蘇原花園町
5040833,岐阜県,各務原市,入会町,ギフケン,カカミガハラシ,ニュウカイチョウ,岐阜県各務原市入会町
5040834,岐阜県,各務原市,那加昭南町,ギフケン,カカミガハラシ,ナカショウナンチョウ,岐阜県各務原市那加昭南町
5040835,岐阜県,各務原市,那加雄飛ケ丘町,ギフケン,カカミガハラシ,ナカユウヒガオカチョウ,岐阜県各務原市那加雄飛ケ丘町
5040836,岐阜県,各務原市,那加雲雀町,ギフケン,カカミガハラシ,ナカヒバリチョウ,岐阜県各務原市那加雲雀町
5040837,岐阜県,各務原市,那加甥田町,ギフケン,カカミガハラシ,ナカオイダチョウ,岐阜県各務原市那加甥田町
5040838,岐阜県,各務原市,那加不動丘,ギフケン,カカミガハラシ,ナカフドウガオカ,岐阜県各務原市那加不動丘
5040839,岐阜県,各務原市,那加巾下町,ギフケン,カカミガハラシ,ナカハバシタチョウ,岐阜県各務原市那加巾下町
5040841,岐阜県,各務原市,蘇原赤羽根町,ギフケン,カカミガハラシ,ソハラアカバネチョウ,岐阜県各務原市蘇原赤羽根町
5040842,岐阜県,各務原市,蘇原寺島町,ギフケン,カカミガハラシ,ソハラテラジマチョウ,岐阜県各務原市蘇原寺島町
5040843,岐阜県,各務原市,蘇原青雲町,ギフケン,カカミガハラシ,ソハラセイウンチョウ,岐阜県各務原市蘇原青雲町
5040844,岐阜県,各務原市,蘇原吉新町,ギフケン,カカミガハラシ,ソハラキチシンチョウ,岐阜県各務原市蘇原吉新町
5040845,岐阜県,各務原市,蘇原申子町,ギフケン,カカミガハラシ,ソハラサルコチョウ,岐阜県各務原市蘇原申子町
5040846,岐阜県,各務原市,蘇原吉野町,ギフケン,カカミガハラシ,ソハラヨシノチョウ,岐阜県各務原市蘇原吉野町
5040847,岐阜県,各務原市,蘇原大島町,ギフケン,カカミガハラシ,ソハラオオシマチョウ,岐阜県各務原市蘇原大島町
5040851,岐阜県,各務原市,蘇原伊吹町,ギフケン,カカミガハラシ,ソハライブキチョウ,岐阜県各務原市蘇原伊吹町
5040852,岐阜県,各務原市,蘇原古市場町,ギフケン,カカミガハラシ,ソハラフルイチバチョウ,岐阜県各務原市蘇原古市場町
5040853,岐阜県,各務原市,蘇原熊田町,ギフケン,カカミガハラシ,ソハラクマタチョウ,岐阜県各務原市蘇原熊田町
5040854,岐阜県,各務原市,蘇原野口町,ギフケン,カカミガハラシ,ソハラノグチチョウ,岐阜県各務原市蘇原野口町
5040855,岐阜県,各務原市,蘇原新栄町,ギフケン,カカミガハラシ,ソハラシンサカエマチ,岐阜県各務原市蘇原新栄町
5040856,岐阜県,各務原市,蘇原島崎町,ギフケン,カカミガハラシ,ソハラシマサキチョウ,岐阜県各務原市蘇原島崎町
5040861,岐阜県,各務原市,東山,ギフケン,カカミガハラシ,ヒガシヤマ,岐阜県各務原市東山
5040901,岐阜県,各務原市,那加東新町,ギフケン,カカミガハラシ,ナカトウシンチョウ,岐阜県各務原市那加東新町
5040902,岐阜県,各務原市,蘇原緑町,ギフケン,カカミガハラシ,ソハラミドリマチ,岐阜県各務原市蘇原緑町
5040903,岐阜県,各務原市,蘇原月丘町,ギフケン,カカミガハラシ,ソハラツキオカチョウ,岐阜県各務原市蘇原月丘町
5040904,岐阜県,各務原市,蘇原三柿野町,ギフケン,カカミガハラシ,ソハラミカキノチョウ,岐阜県各務原市蘇原三柿野町
5040905,岐阜県,各務原市,蘇原六軒町,ギフケン,カカミガハラシ,ソハラロッケンチョウ,岐阜県各務原市蘇原六軒町
5040906,岐阜県,各務原市,那加桐野外二ケ所大字入会地,ギフケン,カカミガハラシ,ナカキリノホカニカショオオアザニュウカイチ,岐阜県各務原市那加桐野外二ケ所大字入会地
5040907,岐阜県,各務原市,那加住吉町,ギフケン,カカミガハラシ,ナカスミヨシチョウ,岐阜県各務原市那加住吉町
5040908,岐阜県,各務原市,那加織田町,ギフケン,カカミガハラシ,ナカオダチョウ,岐阜県各務原市那加織田町
5040909,岐阜県,各務原市,那加信長町,ギフケン,カカミガハラシ,ナカノブナガチョウ,岐阜県各務原市那加信長町
5040911,岐阜県,各務原市,那加門前町,ギフケン,カカミガハラシ,ナカモンゼンチョウ,岐阜県各務原市那加門前町
5040912,岐阜県,各務原市,那加桜町,ギフケン,カカミガハラシ,ナカサクラマチ,岐阜県各務原市那加桜町
5040913,岐阜県,各務原市,那加大東町,ギフケン,カカミガハラシ,ナカダイトウチョウ,岐阜県各務原市那加大東町
5040914,岐阜県,各務原市,三井東町,ギフケン,カカミガハラシ,ミイヒガシマチ,岐阜県各務原市三井東町
5040915,岐阜県,各務原市,三井山町,ギフケン,カカミガハラシ,ミイヤマチョウ,岐阜県各務原市三井山町
5040916,岐阜県,各務原市,那加楠町,ギフケン,カカミガハラシ,ナカクスノキチョウ,岐阜県各務原市那加楠町
5040921,岐阜県,各務原市,前渡北町,ギフケン,カカミガハラシ,マエドキタマチ,岐阜県各務原市前渡北町
5040922,岐阜県,各務原市,前渡東町,ギフケン,カカミガハラシ,マエドヒガシマチ,岐阜県各務原市前渡東町
5040923,岐阜県,各務原市,前渡西町,ギフケン,カカミガハラシ,マエドニシマチ,岐阜県各務原市前渡西町
5040924,岐阜県,各務原市,下切町,ギフケン,カカミガハラシ,シモギリチョウ,岐阜県各務原市下切町
5040925,岐阜県,各務原市,松本町,ギフケン,カカミガハラシ,マツモトチョウ,岐阜県各務原市松本町
5040926,岐阜県,各務原市,上中屋町,ギフケン,カカミガハラシ,カミナカヤチョウ,岐阜県各務原市上中屋町
5040927,岐阜県,各務原市,上戸町,ギフケン,カカミガハラシ,ジョウゴチョウ,岐阜県各務原市上戸町
5040928,岐阜県,各務原市,山脇町,ギフケン,カカミガハラシ,ヤマワキチョウ,岐阜県各務原市山脇町
5040931,岐阜県,各務原市,大佐野町,ギフケン,カカミガハラシ,オオザノチョウ,岐阜県各務原市大佐野町
5040932,岐阜県,各務原市,下中屋町,ギフケン,カカミガハラシ,シモナカヤチョウ,岐阜県各務原市下中屋町
5040933,岐阜県,各務原市,神置町,ギフケン,カカミガハラシ,カミオキチョウ,岐阜県各務原市神置町
5040934,岐阜県,各務原市,大野町,ギフケン,カカミガハラシ,オオノチョウ,岐阜県各務原市大野町
5040935,岐阜県,各務原市,成清町,ギフケン,カカミガハラシ,ナルキヨチョウ,岐阜県各務原市成清町
5040941,岐阜県,各務原市,三井町,ギフケン,カカミガハラシ,ミイチョウ,岐阜県各務原市三井町
5040942,岐阜県,各務原市,小佐野町,ギフケン,カカミガハラシ,コザノチョウ,岐阜県各務原市小佐野町
5040943,岐阜県,各務原市,那加萱場町,ギフケン,カカミガハラシ,ナカカヤバチョウ,岐阜県各務原市那加萱場町
5040944,岐阜県,各務原市,那加緑町,ギフケン,カカミガハラシ,ナカミドリマチ,岐阜県各務原市那加緑町
5040945,岐阜県,各務原市,那加日新町,ギフケン,カカミガハラシ,ナカニッシンチョウ,岐阜県各務原市那加日新町
5040951,岐阜県,各務原市,那加日吉町,ギフケン,カカミガハラシ,ナカヒヨシチョウ,岐阜県各務原市那加日吉町
5040952,岐阜県,各務原市,那加西那加町,ギフケン,カカミガハラシ,ナカニシナカチョウ,岐阜県各務原市那加西那加町
5040953,岐阜県,各務原市,那加東那加町,ギフケン,カカミガハラシ,ナカヒガシナカチョウ,岐阜県各務原市那加東那加町
5040954,岐阜県,各務原市,那加栄町,ギフケン,カカミガハラシ,ナカサカエマチ,岐阜県各務原市那加栄町
5040955,岐阜県,各務原市,那加南栄町,ギフケン,カカミガハラシ,ナカミナミサカエマチ,岐阜県各務原市那加南栄町
5040956,岐阜県,各務原市,三井北町,ギフケン,カカミガハラシ,ミイキタマチ,岐阜県各務原市三井北町
5040957,岐阜県,各務原市,金属団地,ギフケン,カカミガハラシ,キンゾクダンチ,岐阜県各務原市金属団地
5040958,岐阜県,各務原市,那加新加納町,ギフケン,カカミガハラシ,ナカシンカノウチョウ,岐阜県各務原市那加新加納町
5040959,岐阜県,各務原市,那加西浦町,ギフケン,カカミガハラシ,ナカニシウラチョウ,岐阜県各務原市那加西浦町
5040961,岐阜県,各務原市,那加新那加町,ギフケン,カカミガハラシ,ナカシンナカチョウ,岐阜県各務原市那加新那加町
5040962,岐阜県,各務原市,那加吾妻町,ギフケン,カカミガハラシ,ナカアヅマチョウ,岐阜県各務原市那加吾妻町
5040963,岐阜県,各務原市,那加北栄町,ギフケン,カカミガハラシ,ナカキタサカエマチ,岐阜県各務原市那加北栄町
5040964,岐阜県,各務原市,那加元町,ギフケン,カカミガハラシ,ナカモトマチ,岐阜県各務原市那加元町
5040965,岐阜県,各務原市,那加日之出町,ギフケン,カカミガハラシ,ナカヒノデチョウ,岐阜県各務原市那加日之出町
5040966,岐阜県,各務原市,那加本町,ギフケン,カカミガハラシ,ナカホンマチ,岐阜県各務原市那加本町
5040967,岐阜県,各務原市,那加楽天地町,ギフケン,カカミガハラシ,ナカラクテンチチョウ,岐阜県各務原市那加楽天地町
5040968,岐阜県,各務原市,那加西野町,ギフケン,カカミガハラシ,ナカニシノマチ,岐阜県各務原市那加西野町
5040971,岐阜県,各務原市,川崎町,ギフケン,カカミガハラシ,カワサキチョウ,岐阜県各務原市川崎町
5050000,岐阜県,加茂郡坂祝町,,ギフケン,カモグンサカホギチョウ,,岐阜県加茂郡坂祝町
5050000,岐阜県,美濃加茂市,,ギフケン,ミノカモシ,,岐阜県美濃加茂市
5050001,岐阜県,美濃加茂市,三和町廿屋,ギフケン,ミノカモシ,ミワチョウツヅヤ,岐阜県美濃加茂市三和町廿屋
5050002,岐阜県,美濃加茂市,三和町川浦,ギフケン,ミノカモシ,ミワチョウカワウラ,岐阜県美濃加茂市三和町川浦
5050003,岐阜県,美濃加茂市,山之上町,ギフケン,ミノカモシ,ヤマノウエチョウ,岐阜県美濃加茂市山之上町
5050004,岐阜県,美濃加茂市,蜂屋町上蜂屋,ギフケン,ミノカモシ,ハチヤチョウカミハチヤ,岐阜県美濃加茂市蜂屋町上蜂屋
5050005,岐阜県,美濃加茂市,蜂屋町中蜂屋,ギフケン,ミノカモシ,ハチヤチョウナカハチヤ,岐阜県美濃加茂市蜂屋町中蜂屋
5050006,岐阜県,美濃加茂市,蜂屋町伊瀬,ギフケン,ミノカモシ,ハチヤチョウイゼ,岐阜県美濃加茂市蜂屋町伊瀬
5050007,岐阜県,美濃加茂市,蜂屋町下蜂屋,ギフケン,ミノカモシ,ハチヤチョウシモハチヤ,岐阜県美濃加茂市蜂屋町下蜂屋
5050008,岐阜県,美濃加茂市,伊深町,ギフケン,ミノカモシ,イブカチョウ,岐阜県美濃加茂市伊深町
5050009,岐阜県,美濃加茂市,蜂屋町矢田,ギフケン,ミノカモシ,ハチヤチョウヤタ,岐阜県美濃加茂市蜂屋町矢田
5050010,岐阜県,美濃加茂市,健康のまち,ギフケン,ミノカモシ,ケンコウノマチ,岐阜県美濃加茂市健康のまち
5050011,岐阜県,美濃加茂市,下米田町東栃井,ギフケン,ミノカモシ,シモヨネダチョウヒガシトチイ,岐阜県美濃加茂市下米田町東栃井
5050012,岐阜県,美濃加茂市,下米田町山本,ギフケン,ミノカモシ,シモヨネダチョウヤマモト,岐阜県美濃加茂市下米田町山本
5050013,岐阜県,美濃加茂市,下米田町信友,ギフケン,ミノカモシ,シモヨネダチョウノブトモ,岐阜県美濃加茂市下米田町信友
5050014,岐阜県,美濃加茂市,下米田町則光,ギフケン,ミノカモシ,シモヨネダチョウノリミツ,岐阜県美濃加茂市下米田町則光
5050015,岐阜県,美濃加茂市,下米田町今,ギフケン,ミノカモシ,シモヨネダチョウイマ,岐阜県美濃加茂市下米田町今
5050016,岐阜県,美濃加茂市,牧野,ギフケン,ミノカモシ,マキノ,岐阜県美濃加茂市牧野
5050017,岐阜県,美濃加茂市,下米田町小山,ギフケン,ミノカモシ,シモヨネダチョウコヤマ,岐阜県美濃加茂市下米田町小山
5050018,岐阜県,美濃加茂市,下米田町西脇,ギフケン,ミノカモシ,シモヨネダチョウニシワキ,岐阜県美濃加茂市下米田町西脇
5050019,岐阜県,美濃加茂市,下米田町為岡,ギフケン,ミノカモシ,シモヨネダチョウタメオカ,岐阜県美濃加茂市下米田町為岡
5050021,岐阜県,美濃加茂市,森山町,ギフケン,ミノカモシ,モリヤマチョウ,岐阜県美濃加茂市森山町
5050022,岐阜県,美濃加茂市,川合町,ギフケン,ミノカモシ,カワイチョウ,岐阜県美濃加茂市川合町
5050023,岐阜県,美濃加茂市,野笹町,ギフケン,ミノカモシ,ノザサチョウ,岐阜県美濃加茂市野笹町
5050024,岐阜県,美濃加茂市,御門町,ギフケン,ミノカモシ,ミカドチョウ,岐阜県美濃加茂市御門町
5050025,岐阜県,美濃加茂市,島町,ギフケン,ミノカモシ,シマチョウ,岐阜県美濃加茂市島町
5050026,岐阜県,美濃加茂市,清水町,ギフケン,ミノカモシ,シミズチョウ,岐阜県美濃加茂市清水町
5050027,岐阜県,美濃加茂市,本郷町,ギフケン,ミノカモシ,ホンゴウチョウ,岐阜県美濃加茂市本郷町
5050028,岐阜県,美濃加茂市,山崎町,ギフケン,ミノカモシ,ヤマザキチョウ,岐阜県美濃加茂市山崎町
5050029,岐阜県,美濃加茂市,あじさいヶ丘,ギフケン,ミノカモシ,アジサイガオカ,岐阜県美濃加茂市あじさいヶ丘
5050031,岐阜県,美濃加茂市,新池町,ギフケン,ミノカモシ,シンイケチョウ,岐阜県美濃加茂市新池町
5050032,岐阜県,美濃加茂市,田島町,ギフケン,ミノカモシ,タジマチョウ,岐阜県美濃加茂市田島町
5050033,岐阜県,美濃加茂市,中富町,ギフケン,ミノカモシ,ナカトミチョウ,岐阜県美濃加茂市中富町
5050034,岐阜県,美濃加茂市,古井町下古井,ギフケン,ミノカモシ,コビチョウシモコビ,岐阜県美濃加茂市古井町下古井
5050035,岐阜県,美濃加茂市,大手町,ギフケン,ミノカモシ,オオテマチ,岐阜県美濃加茂市大手町
5050036,岐阜県,美濃加茂市,山手町,ギフケン,ミノカモシ,ヤマテチョウ,岐阜県美濃加茂市山手町
5050037,岐阜県,美濃加茂市,前平町,ギフケン,ミノカモシ,マエヒラチョウ,岐阜県美濃加茂市前平町
5050038,岐阜県,美濃加茂市,中部台,ギフケン,ミノカモシ,チュウブダイ,岐阜県美濃加茂市中部台
5050039,岐阜県,美濃加茂市,蜂屋台,ギフケン,ミノカモシ,ハチヤダイ,岐阜県美濃加茂市蜂屋台
5050041,岐阜県,美濃加茂市,太田町,ギフケン,ミノカモシ,オオタチョウ,岐阜県美濃加茂市太田町
5050042,岐阜県,美濃加茂市,太田本町,ギフケン,ミノカモシ,オオタホンマチ,岐阜県美濃加茂市太田本町
5050043,岐阜県,美濃加茂市,深田町,ギフケン,ミノカモシ,フカタチョウ,岐阜県美濃加茂市深田町
5050044,岐阜県,美濃加茂市,加茂川町,ギフケン,ミノカモシ,カモガワチョウ,岐阜県美濃加茂市加茂川町
5050045,岐阜県,美濃加茂市,草笛町,ギフケン,ミノカモシ,クサブエチョウ,岐阜県美濃加茂市草笛町
5050046,岐阜県,美濃加茂市,西町,ギフケン,ミノカモシ,ニシマチ,岐阜県美濃加茂市西町
5050051,岐阜県,美濃加茂市,加茂野町鷹之巣,ギフケン,ミノカモシ,カモノチョウタカノス,岐阜県美濃加茂市加茂野町鷹之巣
5050052,岐阜県,美濃加茂市,加茂野町今泉,ギフケン,ミノカモシ,カモノチョウイマイズミ,岐阜県美濃加茂市加茂野町今泉
5050053,岐阜県,美濃加茂市,加茂野町木野,ギフケン,ミノカモシ,カモノチョウコノ,岐阜県美濃加茂市加茂野町木野
5050054,岐阜県,美濃加茂市,加茂野町加茂野,ギフケン,ミノカモシ,カモノチョウカモノ,岐阜県美濃加茂市加茂野町加茂野
5050055,岐阜県,美濃加茂市,加茂野町稲辺,ギフケン,ミノカモシ,カモノチョウイナベ,岐阜県美濃加茂市加茂野町稲辺
5050056,岐阜県,美濃加茂市,加茂野町市橋,ギフケン,ミノカモシ,カモノチョウイチハシ,岐阜県美濃加茂市加茂野町市橋
5050071,岐阜県,加茂郡坂祝町,黒岩,ギフケン,カモグンサカホギチョウ,クロイワ,岐阜県加茂郡坂祝町黒岩
5050072,岐阜県,加茂郡坂祝町,大針,ギフケン,カモグンサカホギチョウ,オオハリ,岐阜県加茂郡坂祝町大針
5050073,岐阜県,加茂郡坂祝町,加茂山,ギフケン,カモグンサカホギチョウ,カモヤマ,岐阜県加茂郡坂祝町加茂山
5050074,岐阜県,加茂郡坂祝町,酒倉,ギフケン,カモグンサカホギチョウ,サカクラ,岐阜県加茂郡坂祝町酒倉
5050075,岐阜県,加茂郡坂祝町,取組,ギフケン,カモグンサカホギチョウ,トリクミ,岐阜県加茂郡坂祝町取組
5050076,岐阜県,加茂郡坂祝町,勝山,ギフケン,カモグンサカホギチョウ,カツヤマ,岐阜県加茂郡坂祝町勝山
5050077,岐阜県,加茂郡坂祝町,深萱,ギフケン,カモグンサカホギチョウ,フカガヤ,岐阜県加茂郡坂祝町深萱
5050100,岐阜県,可児郡御嵩町,,ギフケン,カニグンミタケチョウ,,岐阜県可児郡御嵩町
5050101,岐阜県,可児郡御嵩町,大久後,ギフケン,カニグンミタケチョウ,オオクゴ,岐阜県可児郡御嵩町大久後
5050102,岐阜県,可児郡御嵩町,前沢,ギフケン,カニグンミタケチョウ,マエザワ,岐阜県可児郡御嵩町前沢
5050103,岐阜県,可児郡御嵩町,津橋,ギフケン,カニグンミタケチョウ,ツバシ,岐阜県可児郡御嵩町津橋
5050104,岐阜県,可児郡御嵩町,謡坂,ギフケン,カニグンミタケチョウ,ウトウザカ,岐阜県可児郡御嵩町謡坂
5050105,岐阜県,可児郡御嵩町,西洞,ギフケン,カニグンミタケチョウ,サイト,岐阜県可児郡御嵩町西洞
5050106,岐阜県,可児郡御嵩町,小原,ギフケン,カニグンミタケチョウ,オバラ,岐阜県可児郡御嵩町小原
5050107,岐阜県,可児郡御嵩町,上之郷,ギフケン,カニグンミタケチョウ,カミノゴウ,岐阜県可児郡御嵩町上之郷
5050108,岐阜県,可児郡御嵩町,小和沢,ギフケン,カニグンミタケチョウ,コワサワ,岐阜県可児郡御嵩町小和沢
5050111,岐阜県,可児郡御嵩町,次月,ギフケン,カニグンミタケチョウ,シヅキ,岐阜県可児郡御嵩町次月
5050112,岐阜県,可児郡御嵩町,美佐野,ギフケン,カニグンミタケチョウ,ミザノ,岐阜県可児郡御嵩町美佐野
5050113,岐阜県,可児郡御嵩町,宿,ギフケン,カニグンミタケチョウ,シュク,岐阜県可児郡御嵩町宿
5050114,岐阜県,可児郡御嵩町,中切,ギフケン,カニグンミタケチョウ,ナカギリ,岐阜県可児郡御嵩町中切
5050115,岐阜県,可児郡御嵩町,井尻,ギフケン,カニグンミタケチョウ,イジリ,岐阜県可児郡御嵩町井尻
5050116,岐阜県,可児郡御嵩町,御嵩,ギフケン,カニグンミタケチョウ,ミタケ,岐阜県可児郡御嵩町御嵩
5050121,岐阜県,可児郡御嵩町,中,ギフケン,カニグンミタケチョウ,ナカ,岐阜県可児郡御嵩町中
5050122,岐阜県,可児郡御嵩町,顔戸,ギフケン,カニグンミタケチョウ,ゴウド,岐阜県可児郡御嵩町顔戸
5050123,岐阜県,可児郡御嵩町,古屋敷,ギフケン,カニグンミタケチョウ,フルヤシキ,岐阜県可児郡御嵩町古屋敷
5050124,岐阜県,可児郡御嵩町,比衣,ギフケン,カニグンミタケチョウ,ヒエ,岐阜県可児郡御嵩町比衣
5050125,岐阜県,可児郡御嵩町,伏見,ギフケン,カニグンミタケチョウ,フシミ,岐阜県可児郡御嵩町伏見
5050126,岐阜県,可児郡御嵩町,上恵土,ギフケン,カニグンミタケチョウ,カミエド,岐阜県可児郡御嵩町上恵土
5050130,岐阜県,可児市,兼山,ギフケン,カニシ,カネヤマ,岐阜県可児市兼山
5050300,岐阜県,加茂郡八百津町,,ギフケン,カモグンヤオツチョウ,,岐阜県加茂郡八百津町
5050301,岐阜県,加茂郡八百津町,八百津,ギフケン,カモグンヤオツチョウ,ヤオツ,岐阜県加茂郡八百津町八百津
5050302,岐阜県,加茂郡八百津町,錦織,ギフケン,カモグンヤオツチョウ,ニシコオリ,岐阜県加茂郡八百津町錦織
5050303,岐阜県,加茂郡八百津町,伊岐津志,ギフケン,カモグンヤオツチョウ,イギツシ,岐阜県加茂郡八百津町伊岐津志
5050304,岐阜県,加茂郡八百津町,上牧野,ギフケン,カモグンヤオツチョウ,カミマキノ,岐阜県加茂郡八百津町上牧野
5050305,岐阜県,加茂郡八百津町,和知,ギフケン,カモグンヤオツチョウ,ワチ,岐阜県加茂郡八百津町和知
5050306,岐阜県,加茂郡八百津町,上飯田,ギフケン,カモグンヤオツチョウ,カミイイダ,岐阜県加茂郡八百津町上飯田
5050307,岐阜県,加茂郡八百津町,野上,ギフケン,カモグンヤオツチョウ,ノガミ,岐阜県加茂郡八百津町野上
5050421,岐阜県,加茂郡八百津町,福地,ギフケン,カモグンヤオツチョウ,フクチ,岐阜県加茂郡八百津町福地
5050422,岐阜県,加茂郡八百津町,久田見,ギフケン,カモグンヤオツチョウ,クタミ,岐阜県加茂郡八百津町久田見
5050423,岐阜県,加茂郡八百津町,上吉田,ギフケン,カモグンヤオツチョウ,カミヨシダ,岐阜県加茂郡八百津町上吉田
5050531,岐阜県,加茂郡八百津町,潮見,ギフケン,カモグンヤオツチョウ,シオミ,岐阜県加茂郡八百津町潮見
5050532,岐阜県,加茂郡八百津町,南戸,ギフケン,カモグンヤオツチョウ,ミナト,岐阜県加茂郡八百津町南戸
5060000,岐阜県,高山市,,ギフケン,タカヤマシ,,岐阜県高山市
5060001,岐阜県,高山市,冬頭町,ギフケン,タカヤマシ,フユトウマチ,岐阜県高山市冬頭町
5060002,岐阜県,高山市,問屋町,ギフケン,タカヤマシ,トンヤマチ,岐阜県高山市問屋町
5060003,岐阜県,高山市,本母町,ギフケン,タカヤマシ,ホノブマチ,岐阜県高山市本母町
5060004,岐阜県,高山市,桐生町,ギフケン,タカヤマシ,キリウマチ,岐阜県高山市桐生町
5060005,岐阜県,高山市,七日町,ギフケン,タカヤマシ,ナヌカマチ,岐阜県高山市七日町
5060006,岐阜県,高山市,神田町,ギフケン,タカヤマシ,カンダマチ,岐阜県高山市神田町
5060007,岐阜県,高山市,総和町,ギフケン,タカヤマシ,ソウワマチ,岐阜県高山市総和町
5060008,岐阜県,高山市,初田町,ギフケン,タカヤマシ,ハツダマチ,岐阜県高山市初田町
5060009,岐阜県,高山市,花岡町,ギフケン,タカヤマシ,ハナオカマチ,岐阜県高山市花岡町
5060011,岐阜県,高山市,本町,ギフケン,タカヤマシ,ホンマチ,岐阜県高山市本町
5060012,岐阜県,高山市,八軒町,ギフケン,タカヤマシ,ハチケンマチ,岐阜県高山市八軒町
5060013,岐阜県,高山市,有楽町,ギフケン,タカヤマシ,ウラマチ,岐阜県高山市有楽町
5060014,岐阜県,高山市,相生町,ギフケン,タカヤマシ,アイオイマチ,岐阜県高山市相生町
5060015,岐阜県,高山市,花川町,ギフケン,タカヤマシ,ハナカワマチ,岐阜県高山市花川町
5060016,岐阜県,高山市,末広町,ギフケン,タカヤマシ,スエヒロマチ,岐阜県高山市末広町
5060017,岐阜県,高山市,朝日町,ギフケン,タカヤマシ,アサヒマチ,岐阜県高山市朝日町
5060021,岐阜県,高山市,名田町,ギフケン,タカヤマシ,ナダマチ,岐阜県高山市名田町
5060022,岐阜県,高山市,西町,ギフケン,タカヤマシ,ニシマチ,岐阜県高山市西町
5060023,岐阜県,高山市,川原町,ギフケン,タカヤマシ,カワハラマチ,岐阜県高山市川原町
5060024,岐阜県,高山市,上川原町,ギフケン,タカヤマシ,カミカワハラマチ,岐阜県高山市上川原町
5060025,岐阜県,高山市,天満町,ギフケン,タカヤマシ,テンマンマチ,岐阜県高山市天満町
5060026,岐阜県,高山市,花里町,ギフケン,タカヤマシ,ハナサトマチ,岐阜県高山市花里町
5060031,岐阜県,高山市,西之一色町,ギフケン,タカヤマシ,ニシノイッシキマチ,岐阜県高山市西之一色町
5060032,岐阜県,高山市,千島町,ギフケン,タカヤマシ,チシママチ,岐阜県高山市千島町
5060033,岐阜県,高山市,越後町,ギフケン,タカヤマシ,エチゴマチ,岐阜県高山市越後町
5060034,岐阜県,高山市,松倉町,ギフケン,タカヤマシ,マツクラマチ,岐阜県高山市松倉町
5060035,岐阜県,高山市,新宮町,ギフケン,タカヤマシ,シングウマチ,岐阜県高山市新宮町
5060041,岐阜県,高山市,下切町,ギフケン,タカヤマシ,シモギリマチ,岐阜県高山市下切町
5060042,岐阜県,高山市,旭ケ丘町,ギフケン,タカヤマシ,アサヒガオカマチ,岐阜県高山市旭ケ丘町
5060043,岐阜県,高山市,中切町,ギフケン,タカヤマシ,ナカギリマチ,岐阜県高山市中切町
5060044,岐阜県,高山市,上切町,ギフケン,タカヤマシ,カミギリマチ,岐阜県高山市上切町
5060045,岐阜県,高山市,赤保木町,ギフケン,タカヤマシ,アカホキマチ,岐阜県高山市赤保木町
5060046,岐阜県,高山市,下之切町,ギフケン,タカヤマシ,シモノキリマチ,岐阜県高山市下之切町
5060047,岐阜県,高山市,八日町,ギフケン,タカヤマシ,ヨウカマチ,岐阜県高山市八日町
5060048,岐阜県,高山市,前原町,ギフケン,タカヤマシ,マエハラマチ,岐阜県高山市前原町
5060051,岐阜県,高山市,中山町,ギフケン,タカヤマシ,ナカヤママチ,岐阜県高山市中山町
5060052,岐阜県,高山市,下岡本町,ギフケン,タカヤマシ,シモオカモトマチ,岐阜県高山市下岡本町
5060053,岐阜県,高山市,昭和町,ギフケン,タカヤマシ,ショウワマチ,岐阜県高山市昭和町
5060054,岐阜県,高山市,岡本町,ギフケン,タカヤマシ,オカモトマチ,岐阜県高山市岡本町
5060055,岐阜県,高山市,上岡本町,ギフケン,タカヤマシ,カミオカモトマチ,岐阜県高山市上岡本町
5060056,岐阜県,高山市,緑ケ丘町,ギフケン,タカヤマシ,ミドリガオカマチ,岐阜県高山市緑ケ丘町
5060057,岐阜県,高山市,匠ケ丘町,ギフケン,タカヤマシ,タクミガオカマチ,岐阜県高山市匠ケ丘町
5060058,岐阜県,高山市,山田町,ギフケン,タカヤマシ,ヤマダマチ,岐阜県高山市山田町
5060059,岐阜県,高山市,下林町,ギフケン,タカヤマシ,シモバヤシマチ,岐阜県高山市下林町
5060101,岐阜県,高山市,清見町牧ケ洞,ギフケン,タカヤマシ,キヨミチョウマキガホラ,岐阜県高山市清見町牧ケ洞
5060102,岐阜県,高山市,清見町三日町,ギフケン,タカヤマシ,キヨミチョウミッカマチ,岐阜県高山市清見町三日町
5060103,岐阜県,高山市,清見町藤瀬,ギフケン,タカヤマシ,キヨミチョウフジセ,岐阜県高山市清見町藤瀬
5060104,岐阜県,高山市,清見町福寄,ギフケン,タカヤマシ,キヨミチョウフクヨリ,岐阜県高山市清見町福寄
5060105,岐阜県,高山市,清見町三ツ谷,ギフケン,タカヤマシ,キヨミチョウミツダニ,岐阜県高山市清見町三ツ谷
5060106,岐阜県,高山市,清見町坂下,ギフケン,タカヤマシ,キヨミチョウサカシタ,岐阜県高山市清見町坂下
5060107,岐阜県,高山市,清見町巣野俣,ギフケン,タカヤマシ,キヨミチョウスノマタ,岐阜県高山市清見町巣野俣
5060201,岐阜県,高山市,清見町江黒,ギフケン,タカヤマシ,キヨミチョウエグロ,岐阜県高山市清見町江黒
5060202,岐阜県,高山市,清見町大谷,ギフケン,タカヤマシ,キヨミチョウオオタニ,岐阜県高山市清見町大谷
5060203,岐阜県,高山市,清見町池本,ギフケン,タカヤマシ,キヨミチョウイケモト,岐阜県高山市清見町池本
5060204,岐阜県,高山市,清見町二本木,ギフケン,タカヤマシ,キヨミチョウニホンギ,岐阜県高山市清見町二本木
5060205,岐阜県,高山市,清見町夏厩,ギフケン,タカヤマシ,キヨミチョウナツマヤ,岐阜県高山市清見町夏厩
5060206,岐阜県,高山市,清見町上小鳥,ギフケン,タカヤマシ,キヨミチョウカミオドリ,岐阜県高山市清見町上小鳥
5060207,岐阜県,高山市,清見町森茂,ギフケン,タカヤマシ,キヨミチョウモリモ,岐阜県高山市清見町森茂
5060271,岐阜県,飛騨市,河合町舟原,ギフケン,ヒダシ,カワイチョウフナバラ,岐阜県飛騨市河合町舟原
5060801,岐阜県,高山市,上野町,ギフケン,タカヤマシ,ウワノマチ,岐阜県高山市上野町
5060802,岐阜県,高山市,松之木町,ギフケン,タカヤマシ,マツノキマチ,岐阜県高山市松之木町
5060803,岐阜県,高山市,日の出町,ギフケン,タカヤマシ,ヒノデマチ,岐阜県高山市日の出町
5060804,岐阜県,高山市,長坂町,ギフケン,タカヤマシ,ナガサカマチ,岐阜県高山市長坂町
5060805,岐阜県,高山市,東山町,ギフケン,タカヤマシ,ヒガシヤママチ,岐阜県高山市東山町
5060806,岐阜県,高山市,曙町,ギフケン,タカヤマシ,アケボノマチ,岐阜県高山市曙町
5060807,岐阜県,高山市,三福寺町,ギフケン,タカヤマシ,サンフクジマチ,岐阜県高山市三福寺町
5060808,岐阜県,高山市,松本町,ギフケン,タカヤマシ,マツモトマチ,岐阜県高山市松本町
5060811,岐阜県,高山市,大洞町,ギフケン,タカヤマシ,オオボラマチ,岐阜県高山市大洞町
5060812,岐阜県,高山市,漆垣内町,ギフケン,タカヤマシ,ウルシガイトウマチ,岐阜県高山市漆垣内町
5060813,岐阜県,高山市,塩屋町,ギフケン,タカヤマシ,シオヤマチ,岐阜県高山市塩屋町
5060814,岐阜県,高山市,滝町,ギフケン,タカヤマシ,タキマチ,岐阜県高山市滝町
5060815,岐阜県,高山市,岩井町,ギフケン,タカヤマシ,イワイマチ,岐阜県高山市岩井町
5060816,岐阜県,高山市,大島町,ギフケン,タカヤマシ,オオジママチ,岐阜県高山市大島町
5060817,岐阜県,高山市,山口町,ギフケン,タカヤマシ,ヤマグチマチ,岐阜県高山市山口町
5060818,岐阜県,高山市,江名子町,ギフケン,タカヤマシ,エナコマチ,岐阜県高山市江名子町
5060821,岐阜県,高山市,神明町,ギフケン,タカヤマシ,シンメイマチ,岐阜県高山市神明町
5060822,岐阜県,高山市,城山,ギフケン,タカヤマシ,シロヤマ,岐阜県高山市城山
5060823,岐阜県,高山市,森下町,ギフケン,タカヤマシ,モリシタマチ,岐阜県高山市森下町
5060824,岐阜県,高山市,片野町,ギフケン,タカヤマシ,カタノマチ,岐阜県高山市片野町
5060825,岐阜県,高山市,石浦町,ギフケン,タカヤマシ,イシウラマチ,岐阜県高山市石浦町
5060831,岐阜県,高山市,吹屋町,ギフケン,タカヤマシ,フキヤマチ,岐阜県高山市吹屋町
5060832,岐阜県,高山市,天性寺町,ギフケン,タカヤマシ,テンショウジマチ,岐阜県高山市天性寺町
5060833,岐阜県,高山市,西洞町,ギフケン,タカヤマシ,ニシボラマチ,岐阜県高山市西洞町
5060834,岐阜県,高山市,宗猷寺町,ギフケン,タカヤマシ,ソウユウジマチ,岐阜県高山市宗猷寺町
5060835,岐阜県,高山市,春日町,ギフケン,タカヤマシ,カスガマチ,岐阜県高山市春日町
5060836,岐阜県,高山市,島川原町,ギフケン,タカヤマシ,シマカワハラマチ,岐阜県高山市島川原町
5060837,岐阜県,高山市,堀端町,ギフケン,タカヤマシ,ホリバタマチ,岐阜県高山市堀端町
5060838,岐阜県,高山市,馬場町,ギフケン,タカヤマシ,ババマチ,岐阜県高山市馬場町
5060841,岐阜県,高山市,下三之町,ギフケン,タカヤマシ,シモ3ノマチ,岐阜県高山市下三之町
5060842,岐阜県,高山市,下二之町,ギフケン,タカヤマシ,シモ2ノマチ,岐阜県高山市下二之町
5060843,岐阜県,高山市,下一之町,ギフケン,タカヤマシ,シモ1ノマチ,岐阜県高山市下一之町
5060844,岐阜県,高山市,上一之町,ギフケン,タカヤマシ,カミ1ノマチ,岐阜県高山市上一之町
5060845,岐阜県,高山市,上二之町,ギフケン,タカヤマシ,カミ2ノマチ,岐阜県高山市上二之町
5060846,岐阜県,高山市,上三之町,ギフケン,タカヤマシ,カミ3ノマチ,岐阜県高山市上三之町
5060847,岐阜県,高山市,片原町,ギフケン,タカヤマシ,カタハラマチ,岐阜県高山市片原町
5060851,岐阜県,高山市,大新町,ギフケン,タカヤマシ,オオシンマチ,岐阜県高山市大新町
5060852,岐阜県,高山市,八幡町,ギフケン,タカヤマシ,ハチマンマチ,岐阜県高山市八幡町
5060853,岐阜県,高山市,左京町,ギフケン,タカヤマシ,サキョウマチ,岐阜県高山市左京町
5060854,岐阜県,高山市,若達町,ギフケン,タカヤマシ,ワカタツマチ,岐阜県高山市若達町
5060855,岐阜県,高山市,愛宕町,ギフケン,タカヤマシ,アタゴマチ,岐阜県高山市愛宕町
5060856,岐阜県,高山市,大門町,ギフケン,タカヤマシ,ダイモンマチ,岐阜県高山市大門町
5060857,岐阜県,高山市,鉄砲町,ギフケン,タカヤマシ,テッポウマチ,岐阜県高山市鉄砲町
5060858,岐阜県,高山市,桜町,ギフケン,タカヤマシ,サクラマチ,岐阜県高山市桜町
5061100,岐阜県,飛騨市,,ギフケン,ヒダシ,,岐阜県飛騨市
5061101,岐阜県,飛騨市,神岡町和佐府,ギフケン,ヒダシ,カミオカチョウワサフ,岐阜県飛騨市神岡町和佐府
5061102,岐阜県,飛騨市,神岡町打保,ギフケン,ヒダシ,カミオカチョウウツボ,岐阜県飛騨市神岡町打保
5061103,岐阜県,飛騨市,神岡町岩井谷,ギフケン,ヒダシ,カミオカチョウイワイダニ,岐阜県飛騨市神岡町岩井谷
5061104,岐阜県,飛騨市,神岡町森茂,ギフケン,ヒダシ,カミオカチョウモリモ,岐阜県飛騨市神岡町森茂
5061105,岐阜県,飛騨市,神岡町和佐保,ギフケン,ヒダシ,カミオカチョウワサボ,岐阜県飛騨市神岡町和佐保
5061106,岐阜県,飛騨市,神岡町伊西,ギフケン,ヒダシ,カミオカチョウイニシ,岐阜県飛騨市神岡町伊西
5061107,岐阜県,飛騨市,神岡町下之本,ギフケン,ヒダシ,カミオカチョウシモノモト,岐阜県飛騨市神岡町下之本
5061108,岐阜県,飛騨市,神岡町瀬戸,ギフケン,ヒダシ,カミオカチョウセト,岐阜県飛騨市神岡町瀬戸
5061111,岐阜県,飛騨市,神岡町六郎,ギフケン,ヒダシ,カミオカチョウロクロウ,岐阜県飛騨市神岡町六郎
5061111,岐阜県,飛騨市,神岡町東町,ギフケン,ヒダシ,カミオカチョウヒガシマチ,岐阜県飛騨市神岡町東町
5061112,岐阜県,飛騨市,神岡町割石,ギフケン,ヒダシ,カミオカチョウワリイシ,岐阜県飛騨市神岡町割石
5061113,岐阜県,飛騨市,神岡町吉ケ原,ギフケン,ヒダシ,カミオカチョウヨシガハラ,岐阜県飛騨市神岡町吉ケ原
5061114,岐阜県,飛騨市,神岡町鹿間,ギフケン,ヒダシ,カミオカチョウシカマ,岐阜県飛騨市神岡町鹿間
5061121,岐阜県,飛騨市,神岡町旭ケ丘,ギフケン,ヒダシ,カミオカチョウアサヒガオカ,岐阜県飛騨市神岡町旭ケ丘
5061121,岐阜県,飛騨市,神岡町殿,ギフケン,ヒダシ,カミオカチョウトノ,岐阜県飛騨市神岡町殿
5061122,岐阜県,飛騨市,神岡町坂富町,ギフケン,ヒダシ,カミオカチョウサカトミチョウ,岐阜県飛騨市神岡町坂富町
5061123,岐阜県,飛騨市,神岡町城ケ丘,ギフケン,ヒダシ,カミオカチョウシロガオカ,岐阜県飛騨市神岡町城ケ丘
5061124,岐阜県,飛騨市,神岡町夕陽ケ丘,ギフケン,ヒダシ,カミオカチョウユウヒガオカ,岐阜県飛騨市神岡町夕陽ケ丘
5061125,岐阜県,飛騨市,神岡町江馬町,ギフケン,ヒダシ,カミオカチョウエマチョウ,岐阜県飛騨市神岡町江馬町
5061126,岐阜県,飛騨市,神岡町桜ケ丘,ギフケン,ヒダシ,カミオカチョウサクラガオカ,岐阜県飛騨市神岡町桜ケ丘
5061131,岐阜県,飛騨市,神岡町麻生野,ギフケン,ヒダシ,カミオカチョウアソヤ,岐阜県飛騨市神岡町麻生野
5061132,岐阜県,飛騨市,神岡町石神,ギフケン,ヒダシ,カミオカチョウイシガミ,岐阜県飛騨市神岡町石神
5061133,岐阜県,飛騨市,神岡町数河,ギフケン,ヒダシ,カミオカチョウスゴウ,岐阜県飛騨市神岡町数河
5061141,岐阜県,飛騨市,神岡町野首,ギフケン,ヒダシ,カミオカチョウノクビ,岐阜県飛騨市神岡町野首
5061142,岐阜県,飛騨市,神岡町丸山,ギフケン,ヒダシ,カミオカチョウマルヤマ,岐阜県飛騨市神岡町丸山
5061143,岐阜県,飛騨市,神岡町小萱,ギフケン,ヒダシ,カミオカチョウコカヤ,岐阜県飛騨市神岡町小萱
5061144,岐阜県,飛騨市,神岡町吉田,ギフケン,ヒダシ,カミオカチョウヨシダ,岐阜県飛騨市神岡町吉田
5061145,岐阜県,飛騨市,神岡町釜崎,ギフケン,ヒダシ,カミオカチョウカマサキ,岐阜県飛騨市神岡町釜崎
5061146,岐阜県,飛騨市,神岡町緑ケ丘,ギフケン,ヒダシ,カミオカチョウミドリガオカ,岐阜県飛騨市神岡町緑ケ丘
5061147,岐阜県,飛騨市,神岡町東雲,ギフケン,ヒダシ,カミオカチョウアズモ,岐阜県飛騨市神岡町東雲
5061148,岐阜県,飛騨市,神岡町館野町,ギフケン,ヒダシ,カミオカチョウタテノチョウ,岐阜県飛騨市神岡町館野町
5061149,岐阜県,飛騨市,神岡町阿曽保,ギフケン,ヒダシ,カミオカチョウアソボ,岐阜県飛騨市神岡町阿曽保
5061151,岐阜県,飛騨市,神岡町梨ケ根,ギフケン,ヒダシ,カミオカチョウナシガネ,岐阜県飛騨市神岡町梨ケ根
5061152,岐阜県,飛騨市,神岡町寺林,ギフケン,ヒダシ,カミオカチョウテラバヤシ,岐阜県飛騨市神岡町寺林
5061153,岐阜県,飛騨市,神岡町堀之内,ギフケン,ヒダシ,カミオカチョウホリノウチ,岐阜県飛騨市神岡町堀之内
5061154,岐阜県,飛騨市,神岡町伏方,ギフケン,ヒダシ,カミオカチョウフセガタ,岐阜県飛騨市神岡町伏方
5061155,岐阜県,飛騨市,神岡町西,ギフケン,ヒダシ,カミオカチョウニシ,岐阜県飛騨市神岡町西
5061156,岐阜県,飛騨市,神岡町山田,ギフケン,ヒダシ,カミオカチョウヤマダ,岐阜県飛騨市神岡町山田
5061157,岐阜県,飛騨市,神岡町巣山,ギフケン,ヒダシ,カミオカチョウスヤマ,岐阜県飛騨市神岡町巣山
5061158,岐阜県,飛騨市,神岡町柏原,ギフケン,ヒダシ,カミオカチョウカシハラ,岐阜県飛騨市神岡町柏原
5061161,岐阜県,飛騨市,神岡町牧ケ平,ギフケン,ヒダシ,カミオカチョウマキガヒラ,岐阜県飛騨市神岡町牧ケ平
5061161,岐阜県,飛騨市,神岡町船津,ギフケン,ヒダシ,カミオカチョウフナツ,岐阜県飛騨市神岡町船津
5061162,岐阜県,飛騨市,神岡町朝浦,ギフケン,ヒダシ,カミオカチョウアソラ,岐阜県飛騨市神岡町朝浦
5061201,岐阜県,飛騨市,神岡町谷,ギフケン,ヒダシ,カミオカチョウタニ,岐阜県飛騨市神岡町谷
5061202,岐阜県,飛騨市,神岡町中山,ギフケン,ヒダシ,カミオカチョウナカヤマ,岐阜県飛騨市神岡町中山
5061203,岐阜県,飛騨市,神岡町横山,ギフケン,ヒダシ,カミオカチョウヨコヤマ,岐阜県飛騨市神岡町横山
5061204,岐阜県,飛騨市,神岡町杉山,ギフケン,ヒダシ,カミオカチョウスギヤマ,岐阜県飛騨市神岡町杉山
5061205,岐阜県,飛騨市,神岡町東茂住,ギフケン,ヒダシ,カミオカチョウヒガシモズミ,岐阜県飛騨市神岡町東茂住
5061206,岐阜県,飛騨市,神岡町西茂住,ギフケン,ヒダシ,カミオカチョウニシモズミ,岐阜県飛騨市神岡町西茂住
5061211,岐阜県,飛騨市,神岡町佐古,ギフケン,ヒダシ,カミオカチョウサコ,岐阜県飛騨市神岡町佐古
5061212,岐阜県,飛騨市,神岡町跡津川,ギフケン,ヒダシ,カミオカチョウアトツガワ,岐阜県飛騨市神岡町跡津川
5061213,岐阜県,飛騨市,神岡町土,ギフケン,ヒダシ,カミオカチョウド,岐阜県飛騨市神岡町土
5061214,岐阜県,飛騨市,神岡町牧,ギフケン,ヒダシ,カミオカチョウマキ,岐阜県飛騨市神岡町牧
5061215,岐阜県,飛騨市,神岡町西漆山,ギフケン,ヒダシ,カミオカチョウニシウルシヤマ,岐阜県飛騨市神岡町西漆山
5061216,岐阜県,飛騨市,神岡町東漆山,ギフケン,ヒダシ,カミオカチョウヒガシウルシヤマ,岐阜県飛騨市神岡町東漆山
5061217,岐阜県,飛騨市,神岡町二ツ屋,ギフケン,ヒダシ,カミオカチョウフタツヤ,岐阜県飛騨市神岡町二ツ屋
5061301,岐阜県,高山市,上宝町葛山,ギフケン,タカヤマシ,カミタカラチョウクズヤマ,岐阜県高山市上宝町葛山
5061302,岐阜県,高山市,上宝町長倉,ギフケン,タカヤマシ,カミタカラチョウナガクラ,岐阜県高山市上宝町長倉
5061303,岐阜県,高山市,上宝町岩井戸,ギフケン,タカヤマシ,カミタカラチョウイワイド,岐阜県高山市上宝町岩井戸
5061304,岐阜県,高山市,上宝町宮原,ギフケン,タカヤマシ,カミタカラチョウミヤハラ,岐阜県高山市上宝町宮原
5061305,岐阜県,高山市,上宝町中山,ギフケン,タカヤマシ,カミタカラチョウナカヤマ,岐阜県高山市上宝町中山
5061306,岐阜県,高山市,上宝町見座,ギフケン,タカヤマシ,カミタカラチョウミザ,岐阜県高山市上宝町見座
5061307,岐阜県,高山市,上宝町双六,ギフケン,タカヤマシ,カミタカラチョウスゴロク,岐阜県高山市上宝町双六
5061308,岐阜県,高山市,上宝町金木戸,ギフケン,タカヤマシ,カミタカラチョウカナキド,岐阜県高山市上宝町金木戸
5061311,岐阜県,高山市,上宝町鼠餅,ギフケン,タカヤマシ,カミタカラチョウネズモチ,岐阜県高山市上宝町鼠餅
5061312,岐阜県,高山市,上宝町新田,ギフケン,タカヤマシ,カミタカラチョウアラタ,岐阜県高山市上宝町新田
5061313,岐阜県,高山市,上宝町在家,ギフケン,タカヤマシ,カミタカラチョウザイケ,岐阜県高山市上宝町在家
5061314,岐阜県,高山市,上宝町蔵柱,ギフケン,タカヤマシ,カミタカラチョウクラバシラ,岐阜県高山市上宝町蔵柱
5061315,岐阜県,高山市,上宝町荒原,ギフケン,タカヤマシ,カミタカラチョウアラハラ,岐阜県高山市上宝町荒原
5061316,岐阜県,高山市,上宝町吉野,ギフケン,タカヤマシ,カミタカラチョウヨシノ,岐阜県高山市上宝町吉野
5061317,岐阜県,高山市,上宝町本郷,ギフケン,タカヤマシ,カミタカラチョウホンゴウ,岐阜県高山市上宝町本郷
5061318,岐阜県,高山市,上宝町芋生茂,ギフケン,タカヤマシ,カミタカラチョウオイモ,岐阜県高山市上宝町芋生茂
5061319,岐阜県,高山市,上宝町下佐谷,ギフケン,タカヤマシ,カミタカラチョウシモサダニ,岐阜県高山市上宝町下佐谷
5061421,岐阜県,高山市,奥飛騨温泉郷神坂（新穂高）,ギフケン,タカヤマシ,オクヒダオンセンゴウカンサカ(シンホダカ),岐阜県高山市奥飛騨温泉郷神坂（新穂高）
5061422,岐阜県,高山市,奥飛騨温泉郷中尾,ギフケン,タカヤマシ,オクヒダオンセンゴウナカオ,岐阜県高山市奥飛騨温泉郷中尾
5061423,岐阜県,高山市,奥飛騨温泉郷栃尾,ギフケン,タカヤマシ,オクヒダオンセンゴウトチオ,岐阜県高山市奥飛騨温泉郷栃尾
5061424,岐阜県,高山市,奥飛騨温泉郷柏当,ギフケン,タカヤマシ,オクヒダオンセンゴウカシアテ,岐阜県高山市奥飛騨温泉郷柏当
5061425,岐阜県,高山市,奥飛騨温泉郷今見,ギフケン,タカヤマシ,オクヒダオンセンゴウイマミ,岐阜県高山市奥飛騨温泉郷今見
5061426,岐阜県,高山市,奥飛騨温泉郷蓼之俣,ギフケン,タカヤマシ,オクヒダオンセンゴウタテノマタ,岐阜県高山市奥飛騨温泉郷蓼之俣
5061427,岐阜県,高山市,奥飛騨温泉郷田頃家,ギフケン,タカヤマシ,オクヒダオンセンゴウタゴロケ,岐阜県高山市奥飛騨温泉郷田頃家
5061428,岐阜県,高山市,奥飛騨温泉郷笹嶋,ギフケン,タカヤマシ,オクヒダオンセンゴウササジマ,岐阜県高山市奥飛騨温泉郷笹嶋
5061429,岐阜県,高山市,奥飛騨温泉郷赤桶,ギフケン,タカヤマシ,オクヒダオンセンゴウアカオケ,岐阜県高山市奥飛騨温泉郷赤桶
5061431,岐阜県,高山市,奥飛騨温泉郷村上,ギフケン,タカヤマシ,オクヒダオンセンゴウムラカミ,岐阜県高山市奥飛騨温泉郷村上
5061432,岐阜県,高山市,奥飛騨温泉郷一重ケ根,ギフケン,タカヤマシ,オクヒダオンセンゴウヒトエガネ,岐阜県高山市奥飛騨温泉郷一重ケ根
5061433,岐阜県,高山市,奥飛騨温泉郷平湯,ギフケン,タカヤマシ,オクヒダオンセンゴウヒラユ,岐阜県高山市奥飛騨温泉郷平湯
5061434,岐阜県,高山市,奥飛騨温泉郷福地,ギフケン,タカヤマシ,オクヒダオンセンゴウフクジ,岐阜県高山市奥飛騨温泉郷福地
5062101,岐阜県,高山市,丹生川町森部,ギフケン,タカヤマシ,ニュウカワチョウモリブ,岐阜県高山市丹生川町森部
5062103,岐阜県,高山市,丹生川町折敷地,ギフケン,タカヤマシ,ニュウカワチョウオシキジ,岐阜県高山市丹生川町折敷地
5062104,岐阜県,高山市,丹生川町大沼,ギフケン,タカヤマシ,ニュウカワチョウオオヌマ,岐阜県高山市丹生川町大沼
5062105,岐阜県,高山市,丹生川町三之瀬,ギフケン,タカヤマシ,ニュウカワチョウサンノセ,岐阜県高山市丹生川町三之瀬
5062106,岐阜県,高山市,丹生川町柏原,ギフケン,タカヤマシ,ニュウカワチョウカシハラ,岐阜県高山市丹生川町柏原
5062111,岐阜県,高山市,丹生川町瓜田,ギフケン,タカヤマシ,ニュウカワチョウウリダ,岐阜県高山市丹生川町瓜田
5062112,岐阜県,高山市,丹生川町板殿,ギフケン,タカヤマシ,ニュウカワチョウイタンド,岐阜県高山市丹生川町板殿
5062113,岐阜県,高山市,丹生川町芦谷,ギフケン,タカヤマシ,ニュウカワチョウアシタニ,岐阜県高山市丹生川町芦谷
5062114,岐阜県,高山市,丹生川町日影,ギフケン,タカヤマシ,ニュウカワチョウヒカゲ,岐阜県高山市丹生川町日影
5062115,岐阜県,高山市,丹生川町小野,ギフケン,タカヤマシ,ニュウカワチョウコノ,岐阜県高山市丹生川町小野
5062116,岐阜県,高山市,丹生川町大谷,ギフケン,タカヤマシ,ニュウカワチョウオオタニ,岐阜県高山市丹生川町大谷
5062117,岐阜県,高山市,丹生川町根方,ギフケン,タカヤマシ,ニュウカワチョウゴンボウ,岐阜県高山市丹生川町根方
5062118,岐阜県,高山市,丹生川町白井,ギフケン,タカヤマシ,ニュウカワチョウシロイ,岐阜県高山市丹生川町白井
5062121,岐阜県,高山市,丹生川町坊方,ギフケン,タカヤマシ,ニュウカワチョウボウカタ,岐阜県高山市丹生川町坊方
5062122,岐阜県,高山市,丹生川町山口,ギフケン,タカヤマシ,ニュウカワチョウヤマクチ,岐阜県高山市丹生川町山口
5062123,岐阜県,高山市,丹生川町町方,ギフケン,タカヤマシ,ニュウカワチョウマチカタ,岐阜県高山市丹生川町町方
5062124,岐阜県,高山市,丹生川町新張,ギフケン,タカヤマシ,ニュウカワチョウニイバリ,岐阜県高山市丹生川町新張
5062125,岐阜県,高山市,丹生川町細越,ギフケン,タカヤマシ,ニュウカワチョウホソゴエ,岐阜県高山市丹生川町細越
5062131,岐阜県,高山市,丹生川町大萱,ギフケン,タカヤマシ,ニュウカワチョウオオガヤ,岐阜県高山市丹生川町大萱
5062132,岐阜県,高山市,丹生川町法力,ギフケン,タカヤマシ,ニュウカワチョウホウリキ,岐阜県高山市丹生川町法力
5062133,岐阜県,高山市,丹生川町北方,ギフケン,タカヤマシ,ニュウカワチョウキタカタ,岐阜県高山市丹生川町北方
5062134,岐阜県,高山市,丹生川町桐山,ギフケン,タカヤマシ,ニュウカワチョウキリヤマ,岐阜県高山市丹生川町桐山
5062135,岐阜県,高山市,丹生川町下保,ギフケン,タカヤマシ,ニュウカワチョウシモボ,岐阜県高山市丹生川町下保
5062251,岐阜県,高山市,丹生川町旗鉾,ギフケン,タカヤマシ,ニュウカワチョウハタホコ,岐阜県高山市丹生川町旗鉾
5062252,岐阜県,高山市,丹生川町久手,ギフケン,タカヤマシ,ニュウカワチョウクテ,岐阜県高山市丹生川町久手
5062253,岐阜県,高山市,丹生川町池之俣,ギフケン,タカヤマシ,ニュウカワチョウイケノマタ,岐阜県高山市丹生川町池之俣
5062254,岐阜県,高山市,丹生川町岩井谷,ギフケン,タカヤマシ,ニュウカワチョウイワイタニ,岐阜県高山市丹生川町岩井谷
5062255,岐阜県,高山市,丹生川町駄吉,ギフケン,タカヤマシ,ニュウカワチョウダヨシ,岐阜県高山市丹生川町駄吉
5062256,岐阜県,高山市,丹生川町日面,ギフケン,タカヤマシ,ニュウカワチョウヒヨモ,岐阜県高山市丹生川町日面
5062257,岐阜県,高山市,丹生川町曽手,ギフケン,タカヤマシ,ニュウカワチョウソデ,岐阜県高山市丹生川町曽手
5062258,岐阜県,高山市,丹生川町塩屋,ギフケン,タカヤマシ,ニュウカワチョウシオヤ,岐阜県高山市丹生川町塩屋
5070000,岐阜県,多治見市,,ギフケン,タジミシ,,岐阜県多治見市
5070001,岐阜県,多治見市,小名田町小滝,ギフケン,タジミシ,オナダチョウコタキ,岐阜県多治見市小名田町小滝
5070002,岐阜県,多治見市,小名田町別山,ギフケン,タジミシ,オナダチョウハナレヤマ,岐阜県多治見市小名田町別山
5070003,岐阜県,多治見市,小名田町東谷,ギフケン,タジミシ,オナダチョウヒガシダニ,岐阜県多治見市小名田町東谷
5070004,岐阜県,多治見市,小名田町,ギフケン,タジミシ,オナダチョウ,岐阜県多治見市小名田町
5070005,岐阜県,多治見市,小名田町岩ケ根,ギフケン,タジミシ,オナダチョウイワガネ,岐阜県多治見市小名田町岩ケ根
5070006,岐阜県,多治見市,小名田町西山,ギフケン,タジミシ,オナダチョウニシヤマ,岐阜県多治見市小名田町西山
5070007,岐阜県,多治見市,小名田町西ケ洞,ギフケン,タジミシ,オナダチョウニシガボラ,岐阜県多治見市小名田町西ケ洞
5070008,岐阜県,多治見市,希望ケ丘,ギフケン,タジミシ,キボウガオカ,岐阜県多治見市希望ケ丘
5070011,岐阜県,多治見市,高田町岩曽根,ギフケン,タジミシ,タカタチョウイワゾネ,岐阜県多治見市高田町岩曽根
5070012,岐阜県,多治見市,高田町白粉,ギフケン,タジミシ,タカタチョウシロコ,岐阜県多治見市高田町白粉
5070013,岐阜県,多治見市,東栄町,ギフケン,タジミシ,トウエイチョウ,岐阜県多治見市東栄町
5070014,岐阜県,多治見市,虎渓山町,ギフケン,タジミシ,コケイザンチョウ,岐阜県多治見市虎渓山町
5070015,岐阜県,多治見市,住吉町,ギフケン,タジミシ,スミヨシチョウ,岐阜県多治見市住吉町
5070016,岐阜県,多治見市,金岡町,ギフケン,タジミシ,カナオカチョウ,岐阜県多治見市金岡町
5070017,岐阜県,多治見市,長瀬町,ギフケン,タジミシ,ナガセチョウ,岐阜県多治見市長瀬町
5070018,岐阜県,多治見市,高田町,ギフケン,タジミシ,タカタチョウ,岐阜県多治見市高田町
5070019,岐阜県,多治見市,東山,ギフケン,タジミシ,ヒガシヤマ,岐阜県多治見市東山
5070021,岐阜県,多治見市,緑ケ丘,ギフケン,タジミシ,ミドリガオカ,岐阜県多治見市緑ケ丘
5070022,岐阜県,多治見市,上山町,ギフケン,タジミシ,カミヤマチョウ,岐阜県多治見市上山町
5070023,岐阜県,多治見市,小田町,ギフケン,タジミシ,オダマチ,岐阜県多治見市小田町
5070024,岐阜県,多治見市,大正町,ギフケン,タジミシ,タイショウマチ,岐阜県多治見市大正町
5070025,岐阜県,多治見市,宮前町,ギフケン,タジミシ,ミヤマエチョウ,岐阜県多治見市宮前町
5070026,岐阜県,多治見市,虎渓町,ギフケン,タジミシ,コケイチョウ,岐阜県多治見市虎渓町
5070027,岐阜県,多治見市,上野町,ギフケン,タジミシ,ウエノチョウ,岐阜県多治見市上野町
5070028,岐阜県,多治見市,弁天町,ギフケン,タジミシ,ベンテンチョウ,岐阜県多治見市弁天町
5070031,岐阜県,多治見市,精華町,ギフケン,タジミシ,セイカマチ,岐阜県多治見市精華町
5070032,岐阜県,多治見市,大日町,ギフケン,タジミシ,ダイニチチョウ,岐阜県多治見市大日町
5070033,岐阜県,多治見市,本町,ギフケン,タジミシ,ホンマチ,岐阜県多治見市本町
5070034,岐阜県,多治見市,豊岡町,ギフケン,タジミシ,トヨオカチョウ,岐阜県多治見市豊岡町
5070035,岐阜県,多治見市,栄町,ギフケン,タジミシ,サカエマチ,岐阜県多治見市栄町
5070036,岐阜県,多治見市,田代町,ギフケン,タジミシ,タシロチョウ,岐阜県多治見市田代町
5070037,岐阜県,多治見市,音羽町,ギフケン,タジミシ,オトワチョウ,岐阜県多治見市音羽町
5070038,岐阜県,多治見市,白山町,ギフケン,タジミシ,ハクサンチョウ,岐阜県多治見市白山町
5070039,岐阜県,多治見市,十九田町,ギフケン,タジミシ,ジュクタチョウ,岐阜県多治見市十九田町
5070041,岐阜県,多治見市,太平町,ギフケン,タジミシ,タイヘイチョウ,岐阜県多治見市太平町
5070042,岐阜県,多治見市,前畑町,ギフケン,タジミシ,マエバタチョウ,岐阜県多治見市前畑町
5070043,岐阜県,多治見市,月見町,ギフケン,タジミシ,ツキミチョウ,岐阜県多治見市月見町
5070044,岐阜県,多治見市,諏訪町,ギフケン,タジミシ,スワチョウ,岐阜県多治見市諏訪町
5070045,岐阜県,多治見市,三の倉町,ギフケン,タジミシ,サンノクラチョウ,岐阜県多治見市三の倉町
5070046,岐阜県,多治見市,廿原町,ギフケン,タジミシ,ツヅハラチョウ,岐阜県多治見市廿原町
5070047,岐阜県,多治見市,富士見町,ギフケン,タジミシ,フジミチョウ,岐阜県多治見市富士見町
5070048,岐阜県,多治見市,池田町,ギフケン,タジミシ,イケダチョウ,岐阜県多治見市池田町
5070051,岐阜県,多治見市,西坂町,ギフケン,タジミシ,ニシザカチョウ,岐阜県多治見市西坂町
5070052,岐阜県,多治見市,光ケ丘,ギフケン,タジミシ,ヒカリガオカ,岐阜県多治見市光ケ丘
5070053,岐阜県,多治見市,若松町,ギフケン,タジミシ,ワカマツチョウ,岐阜県多治見市若松町
5070054,岐阜県,多治見市,宝町,ギフケン,タジミシ,タカラマチ,岐阜県多治見市宝町
5070055,岐阜県,多治見市,喜多町,ギフケン,タジミシ,キタマチ,岐阜県多治見市喜多町
5070056,岐阜県,多治見市,美山町,ギフケン,タジミシ,ミヤマチョウ,岐阜県多治見市美山町
5070057,岐阜県,多治見市,赤坂町,ギフケン,タジミシ,アカサカチョウ,岐阜県多治見市赤坂町
5070058,岐阜県,多治見市,平井町,ギフケン,タジミシ,ヒライチョウ,岐阜県多治見市平井町
5070061,岐阜県,多治見市,姫町,ギフケン,タジミシ,ヒメチョウ,岐阜県多治見市姫町
5070062,岐阜県,多治見市,大針町,ギフケン,タジミシ,オオハリチョウ,岐阜県多治見市大針町
5070063,岐阜県,多治見市,松坂町,ギフケン,タジミシ,マツサカチョウ,岐阜県多治見市松坂町
5070064,岐阜県,多治見市,北丘町,ギフケン,タジミシ,キタオカチョウ,岐阜県多治見市北丘町
5070065,岐阜県,多治見市,根本町,ギフケン,タジミシ,ネモトチョウ,岐阜県多治見市根本町
5070066,岐阜県,多治見市,西山町,ギフケン,タジミシ,ニシヤマチョウ,岐阜県多治見市西山町
5070067,岐阜県,多治見市,北小木町,ギフケン,タジミシ,キタオギチョウ,岐阜県多治見市北小木町
5070068,岐阜県,多治見市,大薮町,ギフケン,タジミシ,オオヤブチョウ,岐阜県多治見市大薮町
5070071,岐阜県,多治見市,旭ケ丘,ギフケン,タジミシ,アサヒガオカ,岐阜県多治見市旭ケ丘
5070072,岐阜県,多治見市,明和町,ギフケン,タジミシ,メイワチョウ,岐阜県多治見市明和町
5070073,岐阜県,多治見市,小泉町,ギフケン,タジミシ,コイズミチョウ,岐阜県多治見市小泉町
5070074,岐阜県,多治見市,大原町,ギフケン,タジミシ,オオハラチョウ,岐阜県多治見市大原町
5070075,岐阜県,多治見市,大沢町,ギフケン,タジミシ,オオサワチョウ,岐阜県多治見市大沢町
5070076,岐阜県,多治見市,昭栄町,ギフケン,タジミシ,ショウエイチョウ,岐阜県多治見市昭栄町
5070077,岐阜県,多治見市,幸町,ギフケン,タジミシ,サイワイチョウ,岐阜県多治見市幸町
5070078,岐阜県,多治見市,高根町,ギフケン,タジミシ,タカネチョウ,岐阜県多治見市高根町
5070801,岐阜県,多治見市,東町,ギフケン,タジミシ,ヒガシマチ,岐阜県多治見市東町
5070802,岐阜県,多治見市,山吹町,ギフケン,タジミシ,ヤマブキチョウ,岐阜県多治見市山吹町
5070803,岐阜県,多治見市,美坂町,ギフケン,タジミシ,ミサカチョウ,岐阜県多治見市美坂町
5070804,岐阜県,多治見市,坂上町,ギフケン,タジミシ,サカウエチョウ,岐阜県多治見市坂上町
5070805,岐阜県,多治見市,新富町,ギフケン,タジミシ,シントミチョウ,岐阜県多治見市新富町
5070806,岐阜県,多治見市,上町,ギフケン,タジミシ,カミマチ,岐阜県多治見市上町
5070807,岐阜県,多治見市,生田町,ギフケン,タジミシ,イクタチョウ,岐阜県多治見市生田町
5070811,岐阜県,多治見市,星ケ台,ギフケン,タジミシ,ホシガダイ,岐阜県多治見市星ケ台
5070812,岐阜県,多治見市,下沢町,ギフケン,タジミシ,シモザワチョウ,岐阜県多治見市下沢町
5070813,岐阜県,多治見市,滝呂町,ギフケン,タジミシ,タキロチョウ,岐阜県多治見市滝呂町
5070814,岐阜県,多治見市,市之倉町,ギフケン,タジミシ,イチノクラチョウ,岐阜県多治見市市之倉町
5070815,岐阜県,多治見市,大畑町赤松,ギフケン,タジミシ,オオバタチョウアカマツ,岐阜県多治見市大畑町赤松
5070816,岐阜県,多治見市,大畑町西仲根,ギフケン,タジミシ,オオバタチョウニシナカネ,岐阜県多治見市大畑町西仲根
5070817,岐阜県,多治見市,大畑町大洞,ギフケン,タジミシ,オオバタチョウオオボラ,岐阜県多治見市大畑町大洞
5070818,岐阜県,多治見市,大畑町,ギフケン,タジミシ,オオバタチョウ,岐阜県多治見市大畑町
5070821,岐阜県,多治見市,窯町,ギフケン,タジミシ,カママチ,岐阜県多治見市窯町
5070822,岐阜県,多治見市,奥川町,ギフケン,タジミシ,オクガワチョウ,岐阜県多治見市奥川町
5070823,岐阜県,多治見市,平野町,ギフケン,タジミシ,ヒラノチョウ,岐阜県多治見市平野町
5070824,岐阜県,多治見市,元町,ギフケン,タジミシ,モトマチ,岐阜県多治見市元町
5070825,岐阜県,多治見市,京町,ギフケン,タジミシ,キョウマチ,岐阜県多治見市京町
5070826,岐阜県,多治見市,脇之島町,ギフケン,タジミシ,ワキノシマチョウ,岐阜県多治見市脇之島町
5070827,岐阜県,多治見市,平和町,ギフケン,タジミシ,ヘイワマチ,岐阜県多治見市平和町
5070828,岐阜県,多治見市,三笠町,ギフケン,タジミシ,ミカサチョウ,岐阜県多治見市三笠町
5070831,岐阜県,多治見市,新町,ギフケン,タジミシ,シンマチ,岐阜県多治見市新町
5070832,岐阜県,多治見市,金山町,ギフケン,タジミシ,カナヤマチョウ,岐阜県多治見市金山町
5070833,岐阜県,多治見市,広小路,ギフケン,タジミシ,ヒロコウジ,岐阜県多治見市広小路
5070834,岐阜県,多治見市,御幸町,ギフケン,タジミシ,ミユキマチ,岐阜県多治見市御幸町
5070835,岐阜県,多治見市,錦町,ギフケン,タジミシ,ニシキマチ,岐阜県多治見市錦町
5070836,岐阜県,多治見市,昭和町,ギフケン,タジミシ,ショウワマチ,岐阜県多治見市昭和町
5070837,岐阜県,多治見市,青木町,ギフケン,タジミシ,アオキマチ,岐阜県多治見市青木町
5070838,岐阜県,多治見市,末広町,ギフケン,タジミシ,スエヒロチョウ,岐阜県多治見市末広町
5070841,岐阜県,多治見市,明治町,ギフケン,タジミシ,メイジマチ,岐阜県多治見市明治町
5070842,岐阜県,多治見市,中町,ギフケン,タジミシ,ナカマチ,岐阜県多治見市中町
5070843,岐阜県,多治見市,常盤町,ギフケン,タジミシ,トキワマチ,岐阜県多治見市常盤町
5070844,岐阜県,多治見市,陶元町,ギフケン,タジミシ,トウゲンチョウ,岐阜県多治見市陶元町
5070845,岐阜県,多治見市,山下町,ギフケン,タジミシ,ヤマシタチョウ,岐阜県多治見市山下町
5070846,岐阜県,多治見市,神楽町,ギフケン,タジミシ,カグラマチ,岐阜県多治見市神楽町
5070847,岐阜県,多治見市,小路町,ギフケン,タジミシ,ショウジマチ,岐阜県多治見市小路町
5070848,岐阜県,多治見市,日ノ出町,ギフケン,タジミシ,ヒノデマチ,岐阜県多治見市日ノ出町
5070901,岐阜県,多治見市,笠原町,ギフケン,タジミシ,カサハラチョウ,岐阜県多治見市笠原町
5080000,岐阜県,中津川市,,ギフケン,ナカツガワシ,,岐阜県中津川市
5080001,岐阜県,中津川市,中津川,ギフケン,ナカツガワシ,ナカツガワ,岐阜県中津川市中津川
5080002,岐阜県,中津川市,阿木川上,ギフケン,ナカツガワシ,アギカオレ,岐阜県中津川市阿木川上
5080002,岐阜県,中津川市,阿木（７６３７〜７９８５）,ギフケン,ナカツガワシ,アギ(7637-7985),岐阜県中津川市阿木（7637〜7985）
5080003,岐阜県,中津川市,中一色町,ギフケン,ナカツガワシ,ナカイッシキチョウ,岐阜県中津川市中一色町
5080004,岐阜県,中津川市,花戸町,ギフケン,ナカツガワシ,ハナドチョウ,岐阜県中津川市花戸町
5080005,岐阜県,中津川市,日の出町,ギフケン,ナカツガワシ,ヒノデチョウ,岐阜県中津川市日の出町
5080006,岐阜県,中津川市,落合,ギフケン,ナカツガワシ,オチアイ,岐阜県中津川市落合
5080007,岐阜県,中津川市,神坂,ギフケン,ナカツガワシ,ミサカ,岐阜県中津川市神坂
5080011,岐阜県,中津川市,駒場,ギフケン,ナカツガワシ,コマンバ,岐阜県中津川市駒場
5080012,岐阜県,中津川市,津島町,ギフケン,ナカツガワシ,ツシマチョウ,岐阜県中津川市津島町
5080013,岐阜県,中津川市,柳町,ギフケン,ナカツガワシ,ヤナギマチ,岐阜県中津川市柳町
5080014,岐阜県,中津川市,駒場町,ギフケン,ナカツガワシ,コマンバチョウ,岐阜県中津川市駒場町
5080015,岐阜県,中津川市,手賀野,ギフケン,ナカツガワシ,テガノ,岐阜県中津川市手賀野
5080021,岐阜県,中津川市,中川町,ギフケン,ナカツガワシ,ナカガワチョウ,岐阜県中津川市中川町
5080022,岐阜県,中津川市,北野町,ギフケン,ナカツガワシ,キタノチョウ,岐阜県中津川市北野町
5080023,岐阜県,中津川市,小川町,ギフケン,ナカツガワシ,オガワチョウ,岐阜県中津川市小川町
5080024,岐阜県,中津川市,桃山町,ギフケン,ナカツガワシ,モモヤマチョウ,岐阜県中津川市桃山町
5080031,岐阜県,中津川市,宮前町,ギフケン,ナカツガワシ,ミヤマエチョウ,岐阜県中津川市宮前町
5080032,岐阜県,中津川市,栄町,ギフケン,ナカツガワシ,サカエマチ,岐阜県中津川市栄町
5080033,岐阜県,中津川市,太田町,ギフケン,ナカツガワシ,オオタマチ,岐阜県中津川市太田町
5080034,岐阜県,中津川市,淀川町,ギフケン,ナカツガワシ,ヨドガワチョウ,岐阜県中津川市淀川町
5080035,岐阜県,中津川市,東町,ギフケン,ナカツガワシ,ヒガシマチ,岐阜県中津川市東町
5080036,岐阜県,中津川市,東宮町,ギフケン,ナカツガワシ,ヒガシミヤマチ,岐阜県中津川市東宮町
5080037,岐阜県,中津川市,えびす町,ギフケン,ナカツガワシ,エビスチョウ,岐阜県中津川市えびす町
5080038,岐阜県,中津川市,新町,ギフケン,ナカツガワシ,シンマチ,岐阜県中津川市新町
5080041,岐阜県,中津川市,本町,ギフケン,ナカツガワシ,ホンマチ,岐阜県中津川市本町
5080042,岐阜県,中津川市,西宮町,ギフケン,ナカツガワシ,ニシミヤマチ,岐阜県中津川市西宮町
5080043,岐阜県,中津川市,八幡町,ギフケン,ナカツガワシ,ハチマンチョウ,岐阜県中津川市八幡町
5080044,岐阜県,中津川市,昭和町,ギフケン,ナカツガワシ,ショウワマチ,岐阜県中津川市昭和町
5080045,岐阜県,中津川市,かやの木町,ギフケン,ナカツガワシ,カヤノキチョウ,岐阜県中津川市かやの木町
5080101,岐阜県,中津川市,苗木,ギフケン,ナカツガワシ,ナエギ,岐阜県中津川市苗木
5080111,岐阜県,中津川市,瀬戸,ギフケン,ナカツガワシ,セト,岐阜県中津川市瀬戸
5080201,岐阜県,中津川市,田瀬,ギフケン,ナカツガワシ,タセ,岐阜県中津川市田瀬
5080202,岐阜県,中津川市,下野,ギフケン,ナカツガワシ,シモノ,岐阜県中津川市下野
5080203,岐阜県,中津川市,福岡,ギフケン,ナカツガワシ,フクオカ,岐阜県中津川市福岡
5080204,岐阜県,中津川市,高山,ギフケン,ナカツガワシ,タカヤマ,岐阜県中津川市高山
5080351,岐阜県,中津川市,付知町,ギフケン,ナカツガワシ,ツケチチョウ,岐阜県中津川市付知町
5080421,岐阜県,中津川市,加子母,ギフケン,ナカツガワシ,カシモ,岐阜県中津川市加子母
5080501,岐阜県,中津川市,山口,ギフケン,ナカツガワシ,ヤマグチ,岐阜県中津川市山口
5080502,岐阜県,中津川市,馬籠,ギフケン,ナカツガワシ,マゴメ,岐阜県中津川市馬籠
5090101,岐阜県,各務原市,須衛,ギフケン,カカミガハラシ,スエ,岐阜県各務原市須衛
5090102,岐阜県,各務原市,各務車洞,ギフケン,カカミガハラシ,カカミクルマホラ,岐阜県各務原市各務車洞
5090103,岐阜県,各務原市,各務東町,ギフケン,カカミガハラシ,カカミヒガシマチ,岐阜県各務原市各務東町
5090104,岐阜県,各務原市,各務おがせ町,ギフケン,カカミガハラシ,カカミオガセチョウ,岐阜県各務原市各務おがせ町
5090105,岐阜県,各務原市,各務山の前町,ギフケン,カカミガハラシ,カカミヤマノマエチョウ,岐阜県各務原市各務山の前町
5090106,岐阜県,各務原市,各務西町,ギフケン,カカミガハラシ,カカミニシマチ,岐阜県各務原市各務西町
5090107,岐阜県,各務原市,各務船山町,ギフケン,カカミガハラシ,カカミフナヤマチョウ,岐阜県各務原市各務船山町
5090108,岐阜県,各務原市,須衛町,ギフケン,カカミガハラシ,スエチョウ,岐阜県各務原市須衛町
5090109,岐阜県,各務原市,テクノプラザ,ギフケン,カカミガハラシ,テクノプラザ,岐阜県各務原市テクノプラザ
5090111,岐阜県,各務原市,鵜沼,ギフケン,カカミガハラシ,ウヌマ,岐阜県各務原市鵜沼
5090112,岐阜県,各務原市,緑苑北,ギフケン,カカミガハラシ,リョクエンキタ,岐阜県各務原市緑苑北
5090113,岐阜県,各務原市,緑苑東,ギフケン,カカミガハラシ,リョクエンヒガシ,岐阜県各務原市緑苑東
5090114,岐阜県,各務原市,緑苑中,ギフケン,カカミガハラシ,リョクエンナカ,岐阜県各務原市緑苑中
5090115,岐阜県,各務原市,緑苑南,ギフケン,カカミガハラシ,リョクエンミナミ,岐阜県各務原市緑苑南
5090116,岐阜県,各務原市,緑苑西,ギフケン,カカミガハラシ,リョクエンニシ,岐阜県各務原市緑苑西
5090117,岐阜県,各務原市,鵜沼大安寺町,ギフケン,カカミガハラシ,ウヌマダイアンジチョウ,岐阜県各務原市鵜沼大安寺町
5090121,岐阜県,各務原市,鵜沼台,ギフケン,カカミガハラシ,ウヌマダイ,岐阜県各務原市鵜沼台
5090122,岐阜県,各務原市,新鵜沼台,ギフケン,カカミガハラシ,シンウヌマダイ,岐阜県各務原市新鵜沼台
5090123,岐阜県,各務原市,鵜沼宝積寺町,ギフケン,カカミガハラシ,ウヌマホウシャクジチョウ,岐阜県各務原市鵜沼宝積寺町
5090124,岐阜県,各務原市,鵜沼山崎町,ギフケン,カカミガハラシ,ウヌマヤマザキチョウ,岐阜県各務原市鵜沼山崎町
5090125,岐阜県,各務原市,鵜沼南町,ギフケン,カカミガハラシ,ウヌマミナミマチ,岐阜県各務原市鵜沼南町
5090126,岐阜県,各務原市,鵜沼東町,ギフケン,カカミガハラシ,ウヌマヒガシマチ,岐阜県各務原市鵜沼東町
5090127,岐阜県,各務原市,桜木町,ギフケン,カカミガハラシ,サクラギチョウ,岐阜県各務原市桜木町
5090131,岐阜県,各務原市,つつじが丘,ギフケン,カカミガハラシ,ツツジガオカ,岐阜県各務原市つつじが丘
5090132,岐阜県,各務原市,鵜沼西町,ギフケン,カカミガハラシ,ウヌマニシマチ,岐阜県各務原市鵜沼西町
5090133,岐阜県,各務原市,鵜沼古市場町,ギフケン,カカミガハラシ,ウヌマフルイチバチョウ,岐阜県各務原市鵜沼古市場町
5090134,岐阜県,各務原市,鵜沼真名越町,ギフケン,カカミガハラシ,ウヌママナゴシチョウ,岐阜県各務原市鵜沼真名越町
5090135,岐阜県,各務原市,鵜沼羽場町,ギフケン,カカミガハラシ,ウヌマハバチョウ,岐阜県各務原市鵜沼羽場町
5090136,岐阜県,各務原市,松が丘,ギフケン,カカミガハラシ,マツガオカ,岐阜県各務原市松が丘
5090141,岐阜県,各務原市,鵜沼各務原町,ギフケン,カカミガハラシ,ウヌマカカミガハラチョウ,岐阜県各務原市鵜沼各務原町
5090142,岐阜県,各務原市,鵜沼丸子町,ギフケン,カカミガハラシ,ウヌママルコチョウ,岐阜県各務原市鵜沼丸子町
5090143,岐阜県,各務原市,鵜沼小伊木町,ギフケン,カカミガハラシ,ウヌマコイギチョウ,岐阜県各務原市鵜沼小伊木町
5090144,岐阜県,各務原市,鵜沼大伊木町,ギフケン,カカミガハラシ,ウヌマオオイギチョウ,岐阜県各務原市鵜沼大伊木町
5090145,岐阜県,各務原市,鵜沼朝日町,ギフケン,カカミガハラシ,ウヌマアサヒマチ,岐阜県各務原市鵜沼朝日町
5090146,岐阜県,各務原市,鵜沼三ツ池町,ギフケン,カカミガハラシ,ウヌマミツイケチョウ,岐阜県各務原市鵜沼三ツ池町
5090147,岐阜県,各務原市,鵜沼川崎町,ギフケン,カカミガハラシ,ウヌマカワサキチョウ,岐阜県各務原市鵜沼川崎町
5090200,岐阜県,可児市,,ギフケン,カニシ,,岐阜県可児市
5090201,岐阜県,可児市,川合,ギフケン,カニシ,カワイ,岐阜県可児市川合
5090202,岐阜県,可児市,中恵土,ギフケン,カニシ,ナカエド,岐阜県可児市中恵土
5090203,岐阜県,可児市,下恵土,ギフケン,カニシ,シモエド,岐阜県可児市下恵土
5090204,岐阜県,可児市,禅台寺,ギフケン,カニシ,ゼンダイジ,岐阜県可児市禅台寺
5090205,岐阜県,可児市,徳野南,ギフケン,カニシ,トクノミナミ,岐阜県可児市徳野南
5090206,岐阜県,可児市,土田,ギフケン,カニシ,ドタ,岐阜県可児市土田
5090207,岐阜県,可児市,今渡,ギフケン,カニシ,イマワタリ,岐阜県可児市今渡
5090208,岐阜県,可児市,川合北,ギフケン,カニシ,カワイキタ,岐阜県可児市川合北
5090209,岐阜県,可児市,下恵土（１、２丁目）,ギフケン,カニシ,シモエド(1、2チョウメ),岐阜県可児市下恵土（1、2-）
5090211,岐阜県,可児市,渕之上,ギフケン,カニシ,フチノウエ,岐阜県可児市渕之上
5090212,岐阜県,可児市,柿田,ギフケン,カニシ,カキダ,岐阜県可児市柿田
5090213,岐阜県,可児市,瀬田,ギフケン,カニシ,セタ,岐阜県可児市瀬田
5090214,岐阜県,可児市,広見,ギフケン,カニシ,ヒロミ,岐阜県可児市広見
5090215,岐阜県,可児市,石井,ギフケン,カニシ,イシイ,岐阜県可児市石井
5090216,岐阜県,可児市,石森,ギフケン,カニシ,イシモリ,岐阜県可児市石森
5090217,岐阜県,可児市,平貝戸,ギフケン,カニシ,ヒラガイト,岐阜県可児市平貝戸
5090218,岐阜県,可児市,松伏,ギフケン,カニシ,マツブセ,岐阜県可児市松伏
5090221,岐阜県,可児市,広眺ケ丘,ギフケン,カニシ,ヒロミガオカ,岐阜県可児市広眺ケ丘
5090222,岐阜県,可児市,羽崎,ギフケン,カニシ,ハザキ,岐阜県可児市羽崎
5090223,岐阜県,可児市,羽生ケ丘,ギフケン,カニシ,ハニュウガオカ,岐阜県可児市羽生ケ丘
5090224,岐阜県,可児市,久々利,ギフケン,カニシ,ククリ,岐阜県可児市久々利
5090230,岐阜県,可児市,星見台,ギフケン,カニシ,ホシミダイ,岐阜県可児市星見台
5090231,岐阜県,可児市,緑ケ丘,ギフケン,カニシ,ミドリガオカ,岐阜県可児市緑ケ丘
5090232,岐阜県,可児市,二野,ギフケン,カニシ,ニノ,岐阜県可児市二野
5090233,岐阜県,可児市,柿下,ギフケン,カニシ,カキシタ,岐阜県可児市柿下
5090234,岐阜県,可児市,久々利柿下入会,ギフケン,カニシ,ククリカキシタニュウカイ,岐阜県可児市久々利柿下入会
5090235,岐阜県,可児市,桜ケ丘,ギフケン,カニシ,サクラガオカ,岐阜県可児市桜ケ丘
5090236,岐阜県,可児市,皐ケ丘,ギフケン,カニシ,サツキガオカ,岐阜県可児市皐ケ丘
5090237,岐阜県,可児市,桂ケ丘,ギフケン,カニシ,カツラガオカ,岐阜県可児市桂ケ丘
5090238,岐阜県,可児市,大森,ギフケン,カニシ,オオモリ,岐阜県可児市大森
5090239,岐阜県,可児市,大森台,ギフケン,カニシ,オオモリダイ,岐阜県可児市大森台
5090240,岐阜県,可児市,みずきケ丘,ギフケン,カニシ,ミズキガオカ,岐阜県可児市みずきケ丘
5090241,岐阜県,可児市,坂戸,ギフケン,カニシ,サカド,岐阜県可児市坂戸
5090242,岐阜県,可児市,谷迫間,ギフケン,カニシ,ヤバサマ,岐阜県可児市谷迫間
5090245,岐阜県,可児市,下切,ギフケン,カニシ,シモギリ,岐阜県可児市下切
5090246,岐阜県,可児市,今,ギフケン,カニシ,イマ,岐阜県可児市今
5090247,岐阜県,可児市,塩河,ギフケン,カニシ,シュウガ,岐阜県可児市塩河
5090248,岐阜県,可児市,清水ケ丘,ギフケン,カニシ,シミズガオカ,岐阜県可児市清水ケ丘
5090249,岐阜県,可児市,姫ケ丘,ギフケン,カニシ,ヒメガオカ,岐阜県可児市姫ケ丘
5090250,岐阜県,可児市,美里ケ丘,ギフケン,カニシ,ミサトガオカ,岐阜県可児市美里ケ丘
5090251,岐阜県,可児市,塩,ギフケン,カニシ,シオ,岐阜県可児市塩
5090252,岐阜県,可児市,矢戸,ギフケン,カニシ,ヤト,岐阜県可児市矢戸
5090253,岐阜県,可児市,室原,ギフケン,カニシ,ムロハラ,岐阜県可児市室原
5090254,岐阜県,可児市,長洞,ギフケン,カニシ,ナガホラ,岐阜県可児市長洞
5090255,岐阜県,可児市,光陽台,ギフケン,カニシ,コウヨウダイ,岐阜県可児市光陽台
5090256,岐阜県,可児市,東帷子,ギフケン,カニシ,ヒガシカタビラ,岐阜県可児市東帷子
5090257,岐阜県,可児市,長坂,ギフケン,カニシ,ナガサカ,岐阜県可児市長坂
5090258,岐阜県,可児市,若葉台,ギフケン,カニシ,ワカバダイ,岐阜県可児市若葉台
5090259,岐阜県,可児市,愛岐ケ丘,ギフケン,カニシ,アイギガオカ,岐阜県可児市愛岐ケ丘
5090261,岐阜県,可児市,虹ケ丘,ギフケン,カニシ,ニジガオカ,岐阜県可児市虹ケ丘
5090262,岐阜県,可児市,菅刈,ギフケン,カニシ,スゲカリ,岐阜県可児市菅刈
5090263,岐阜県,可児市,緑,ギフケン,カニシ,ミドリ,岐阜県可児市緑
5090264,岐阜県,可児市,鳩吹台,ギフケン,カニシ,ハトフキダイ,岐阜県可児市鳩吹台
5090265,岐阜県,可児市,西帷子,ギフケン,カニシ,ニシカタビラ,岐阜県可児市西帷子
5090266,岐阜県,可児市,帷子新町,ギフケン,カニシ,カタビラシンマチ,岐阜県可児市帷子新町
5090300,岐阜県,加茂郡川辺町,,ギフケン,カモグンカワベチョウ,,岐阜県加茂郡川辺町
5090301,岐阜県,加茂郡川辺町,下麻生,ギフケン,カモグンカワベチョウ,シモアソウ,岐阜県加茂郡川辺町下麻生
5090302,岐阜県,加茂郡川辺町,上川辺,ギフケン,カモグンカワベチョウ,カミカワベ,岐阜県加茂郡川辺町上川辺
5090303,岐阜県,加茂郡川辺町,石神,ギフケン,カモグンカワベチョウ,イシガミ,岐阜県加茂郡川辺町石神
5090304,岐阜県,加茂郡川辺町,中川辺,ギフケン,カモグンカワベチョウ,ナカカワベ,岐阜県加茂郡川辺町中川辺
5090305,岐阜県,加茂郡川辺町,西栃井,ギフケン,カモグンカワベチョウ,ニシトチイ,岐阜県加茂郡川辺町西栃井
5090306,岐阜県,加茂郡川辺町,下川辺,ギフケン,カモグンカワベチョウ,シモカワベ,岐阜県加茂郡川辺町下川辺
5090307,岐阜県,加茂郡川辺町,鹿塩,ギフケン,カモグンカワベチョウ,カシオ,岐阜県加茂郡川辺町鹿塩
5090311,岐阜県,加茂郡川辺町,下吉田,ギフケン,カモグンカワベチョウ,シモヨシダ,岐阜県加茂郡川辺町下吉田
5090312,岐阜県,加茂郡川辺町,中野,ギフケン,カモグンカワベチョウ,ナカノ,岐阜県加茂郡川辺町中野
5090313,岐阜県,加茂郡川辺町,下飯田,ギフケン,カモグンカワベチョウ,シモイイダ,岐阜県加茂郡川辺町下飯田
5090314,岐阜県,加茂郡川辺町,福島,ギフケン,カモグンカワベチョウ,フクシマ,岐阜県加茂郡川辺町福島
5090315,岐阜県,加茂郡川辺町,比久見,ギフケン,カモグンカワベチョウ,ヒクミ,岐阜県加茂郡川辺町比久見
5090400,岐阜県,加茂郡七宗町,,ギフケン,カモグンヒチソウチョウ,,岐阜県加茂郡七宗町
5090401,岐阜県,加茂郡七宗町,上麻生,ギフケン,カモグンヒチソウチョウ,カミアソウ,岐阜県加茂郡七宗町上麻生
5090402,岐阜県,加茂郡七宗町,川並,ギフケン,カモグンヒチソウチョウ,カワナミ,岐阜県加茂郡七宗町川並
5090403,岐阜県,加茂郡七宗町,中麻生,ギフケン,カモグンヒチソウチョウ,ナカアソウ,岐阜県加茂郡七宗町中麻生
5090511,岐阜県,加茂郡七宗町,神渕,ギフケン,カモグンヒチソウチョウ,カブチ,岐阜県加茂郡七宗町神渕
5091100,岐阜県,加茂郡白川町,,ギフケン,カモグンシラカワチョウ,,岐阜県加茂郡白川町
5091101,岐阜県,加茂郡白川町,白山,ギフケン,カモグンシラカワチョウ,シラヤマ,岐阜県加茂郡白川町白山
5091102,岐阜県,加茂郡白川町,中川,ギフケン,カモグンシラカワチョウ,ナカガワ,岐阜県加茂郡白川町中川
5091103,岐阜県,加茂郡白川町,水戸野,ギフケン,カモグンシラカワチョウ,ミドノ,岐阜県加茂郡白川町水戸野
5091104,岐阜県,加茂郡白川町,和泉,ギフケン,カモグンシラカワチョウ,イズミ,岐阜県加茂郡白川町和泉
5091105,岐阜県,加茂郡白川町,河岐,ギフケン,カモグンシラカワチョウ,カワマタ,岐阜県加茂郡白川町河岐
5091106,岐阜県,加茂郡白川町,坂ノ東,ギフケン,カモグンシラカワチョウ,サカノヒガシ,岐阜県加茂郡白川町坂ノ東
5091107,岐阜県,加茂郡白川町,河東,ギフケン,カモグンシラカワチョウ,カトウ,岐阜県加茂郡白川町河東
5091108,岐阜県,加茂郡白川町,広野,ギフケン,カモグンシラカワチョウ,ヒロノ,岐阜県加茂郡白川町広野
5091111,岐阜県,加茂郡白川町,切井,ギフケン,カモグンシラカワチョウ,キリイ,岐阜県加茂郡白川町切井
5091112,岐阜県,加茂郡白川町,赤河,ギフケン,カモグンシラカワチョウ,アコウ,岐阜県加茂郡白川町赤河
5091113,岐阜県,加茂郡白川町,三川,ギフケン,カモグンシラカワチョウ,ミカワ,岐阜県加茂郡白川町三川
5091221,岐阜県,加茂郡白川町,上佐見,ギフケン,カモグンシラカワチョウ,カミサミ,岐阜県加茂郡白川町上佐見
5091222,岐阜県,加茂郡白川町,下佐見,ギフケン,カモグンシラカワチョウ,シモサミ,岐阜県加茂郡白川町下佐見
5091300,岐阜県,加茂郡東白川村,,ギフケン,カモグンヒガシシラカワムラ,,岐阜県加茂郡東白川村
5091301,岐阜県,加茂郡東白川村,越原,ギフケン,カモグンヒガシシラカワムラ,オッパラ,岐阜県加茂郡東白川村越原
5091302,岐阜県,加茂郡東白川村,神土,ギフケン,カモグンヒガシシラカワムラ,カンド,岐阜県加茂郡東白川村神土
5091303,岐阜県,加茂郡東白川村,五加,ギフケン,カモグンヒガシシラカワムラ,ゴカ,岐阜県加茂郡東白川村五加
5091431,岐阜県,加茂郡白川町,黒川,ギフケン,カモグンシラカワチョウ,クロカワ,岐阜県加茂郡白川町黒川
5091601,岐阜県,下呂市,金山町弓掛,ギフケン,ゲロシ,カナヤマチョウユガケ,岐阜県下呂市金山町弓掛
5091602,岐阜県,下呂市,金山町卯野原,ギフケン,ゲロシ,カナヤマチョウウノハラ,岐阜県下呂市金山町卯野原
5091603,岐阜県,下呂市,金山町岩瀬,ギフケン,ゲロシ,カナヤマチョウイワセ,岐阜県下呂市金山町岩瀬
5091604,岐阜県,下呂市,金山町東沓部,ギフケン,ゲロシ,カナヤマチョウヒガシクツベ,岐阜県下呂市金山町東沓部
5091605,岐阜県,下呂市,金山町戸部,ギフケン,ゲロシ,カナヤマチョウトベ,岐阜県下呂市金山町戸部
5091606,岐阜県,下呂市,金山町祖師野,ギフケン,ゲロシ,カナヤマチョウソシノ,岐阜県下呂市金山町祖師野
5091607,岐阜県,下呂市,金山町乙原,ギフケン,ゲロシ,カナヤマチョウオッパラ,岐阜県下呂市金山町乙原
5091611,岐阜県,下呂市,金山町中切,ギフケン,ゲロシ,カナヤマチョウナカギリ,岐阜県下呂市金山町中切
5091612,岐阜県,下呂市,金山町福来,ギフケン,ゲロシ,カナヤマチョウフクライ,岐阜県下呂市金山町福来
5091613,岐阜県,下呂市,金山町中津原,ギフケン,ゲロシ,カナヤマチョウナカツハラ,岐阜県下呂市金山町中津原
5091614,岐阜県,下呂市,金山町大船渡,ギフケン,ゲロシ,カナヤマチョウオオフナト,岐阜県下呂市金山町大船渡
5091615,岐阜県,下呂市,金山町田島,ギフケン,ゲロシ,カナヤマチョウタジマ,岐阜県下呂市金山町田島
5091616,岐阜県,下呂市,金山町下原町,ギフケン,ゲロシ,カナヤマチョウシモハラマチ,岐阜県下呂市金山町下原町
5091621,岐阜県,下呂市,金山町渡,ギフケン,ゲロシ,カナヤマチョウワタリ,岐阜県下呂市金山町渡
5091622,岐阜県,下呂市,金山町金山,ギフケン,ゲロシ,カナヤマチョウカナヤマ,岐阜県下呂市金山町金山
5091623,岐阜県,下呂市,金山町菅田桐洞,ギフケン,ゲロシ,カナヤマチョウスガタキリホラ,岐阜県下呂市金山町菅田桐洞
5091624,岐阜県,下呂市,金山町菅田笹洞,ギフケン,ゲロシ,カナヤマチョウスガタササホラ,岐阜県下呂市金山町菅田笹洞
5092131,岐阜県,下呂市,久野川,ギフケン,ゲロシ,クノガワ,岐阜県下呂市久野川
5092132,岐阜県,下呂市,火打,ギフケン,ゲロシ,ヒウチ,岐阜県下呂市火打
5092133,岐阜県,下呂市,和佐,ギフケン,ゲロシ,ワサ,岐阜県下呂市和佐
5092134,岐阜県,下呂市,焼石,ギフケン,ゲロシ,ヤケイシ,岐阜県下呂市焼石
5092135,岐阜県,下呂市,三ツ渕,ギフケン,ゲロシ,ミツブチ,岐阜県下呂市三ツ渕
5092136,岐阜県,下呂市,瀬戸,ギフケン,ゲロシ,セト,岐阜県下呂市瀬戸
5092137,岐阜県,下呂市,保井戸,ギフケン,ゲロシ,ホイド,岐阜県下呂市保井戸
5092138,岐阜県,下呂市,門原,ギフケン,ゲロシ,カドハラ,岐阜県下呂市門原
5092200,岐阜県,下呂市,,ギフケン,ゲロシ,,岐阜県下呂市
5092201,岐阜県,下呂市,東上田,ギフケン,ゲロシ,ヒガシウエダ,岐阜県下呂市東上田
5092202,岐阜県,下呂市,森,ギフケン,ゲロシ,モリ,岐阜県下呂市森
5092203,岐阜県,下呂市,小川,ギフケン,ゲロシ,オガワ,岐阜県下呂市小川
5092204,岐阜県,下呂市,三原,ギフケン,ゲロシ,サンバラ,岐阜県下呂市三原
5092205,岐阜県,下呂市,少ケ野,ギフケン,ゲロシ,ショウガノ,岐阜県下呂市少ケ野
5092206,岐阜県,下呂市,幸田,ギフケン,ゲロシ,コウデン,岐阜県下呂市幸田
5092207,岐阜県,下呂市,湯之島,ギフケン,ゲロシ,ユノシマ,岐阜県下呂市湯之島
5092311,岐阜県,下呂市,乗政,ギフケン,ゲロシ,ノリマサ,岐阜県下呂市乗政
5092312,岐阜県,下呂市,御厩野,ギフケン,ゲロシ,ミマヤノ,岐阜県下呂市御厩野
5092313,岐阜県,下呂市,野尻,ギフケン,ゲロシ,ノジリ,岐阜県下呂市野尻
5092314,岐阜県,下呂市,宮地,ギフケン,ゲロシ,ミヤジ,岐阜県下呂市宮地
5092421,岐阜県,下呂市,夏焼,ギフケン,ゲロシ,ナツヤケ,岐阜県下呂市夏焼
5092422,岐阜県,下呂市,田口,ギフケン,ゲロシ,タグチ,岐阜県下呂市田口
5092423,岐阜県,下呂市,蛇之尾,ギフケン,ゲロシ,ヘビノオ,岐阜県下呂市蛇之尾
5092424,岐阜県,下呂市,門和佐,ギフケン,ゲロシ,カドワサ,岐阜県下呂市門和佐
5092501,岐阜県,下呂市,萩原町山之口,ギフケン,ゲロシ,ハギワラチョウヤマノクチ,岐阜県下呂市萩原町山之口
5092502,岐阜県,下呂市,萩原町四美,ギフケン,ゲロシ,ハギワラチョウシミ,岐阜県下呂市萩原町四美
5092503,岐阜県,下呂市,萩原町西上田,ギフケン,ゲロシ,ハギワラチョウニシウエダ,岐阜県下呂市萩原町西上田
5092504,岐阜県,下呂市,萩原町跡津,ギフケン,ゲロシ,ハギワラチョウアトツ,岐阜県下呂市萩原町跡津
5092505,岐阜県,下呂市,萩原町古関,ギフケン,ゲロシ,ハギワラチョウフルセキ,岐阜県下呂市萩原町古関
5092506,岐阜県,下呂市,萩原町羽根,ギフケン,ゲロシ,ハギワラチョウハネ,岐阜県下呂市萩原町羽根
5092507,岐阜県,下呂市,萩原町野上,ギフケン,ゲロシ,ハギワラチョウノガミ,岐阜県下呂市萩原町野上
5092508,岐阜県,下呂市,萩原町尾崎,ギフケン,ゲロシ,ハギワラチョウオサキ,岐阜県下呂市萩原町尾崎
5092511,岐阜県,下呂市,萩原町宮田,ギフケン,ゲロシ,ハギワラチョウミヤダ,岐阜県下呂市萩原町宮田
5092512,岐阜県,下呂市,萩原町大ヶ洞,ギフケン,ゲロシ,ハギワラチョウオオカホラ,岐阜県下呂市萩原町大ヶ洞
5092513,岐阜県,下呂市,萩原町桜洞,ギフケン,ゲロシ,ハギワラチョウサクラボラ,岐阜県下呂市萩原町桜洞
5092514,岐阜県,下呂市,萩原町中呂,ギフケン,ゲロシ,ハギワラチョウチュウロ,岐阜県下呂市萩原町中呂
5092515,岐阜県,下呂市,萩原町花池,ギフケン,ゲロシ,ハギワラチョウハナイケ,岐阜県下呂市萩原町花池
5092516,岐阜県,下呂市,萩原町上村,ギフケン,ゲロシ,ハギワラチョウウワムラ,岐阜県下呂市萩原町上村
5092517,岐阜県,下呂市,萩原町萩原,ギフケン,ゲロシ,ハギワラチョウハギワラ,岐阜県下呂市萩原町萩原
5092518,岐阜県,下呂市,萩原町上呂,ギフケン,ゲロシ,ハギワラチョウジョウロ,岐阜県下呂市萩原町上呂
5092519,岐阜県,下呂市,萩原町奥田洞,ギフケン,ゲロシ,ハギワラチョウオクダボラ,岐阜県下呂市萩原町奥田洞
5092601,岐阜県,下呂市,馬瀬川上,ギフケン,ゲロシ,マゼカオレ,岐阜県下呂市馬瀬川上
5092602,岐阜県,下呂市,馬瀬黒石,ギフケン,ゲロシ,マゼクロイシ,岐阜県下呂市馬瀬黒石
5092603,岐阜県,下呂市,馬瀬数河,ギフケン,ゲロシ,マゼスゴウ,岐阜県下呂市馬瀬数河
5092604,岐阜県,下呂市,馬瀬中切,ギフケン,ゲロシ,マゼナカギリ,岐阜県下呂市馬瀬中切
5092611,岐阜県,下呂市,馬瀬堀之内,ギフケン,ゲロシ,マゼホリノウチ,岐阜県下呂市馬瀬堀之内
5092612,岐阜県,下呂市,馬瀬名丸,ギフケン,ゲロシ,マゼナマル,岐阜県下呂市馬瀬名丸
5092613,岐阜県,下呂市,馬瀬井谷,ギフケン,ゲロシ,マゼイダニ,岐阜県下呂市馬瀬井谷
5092614,岐阜県,下呂市,馬瀬惣島,ギフケン,ゲロシ,マゼソウジマ,岐阜県下呂市馬瀬惣島
5092615,岐阜県,下呂市,馬瀬西村,ギフケン,ゲロシ,マゼニシムラ,岐阜県下呂市馬瀬西村
5092701,岐阜県,高山市,清見町楢谷,ギフケン,タカヤマシ,キヨミチョウナラダニ,岐阜県高山市清見町楢谷
5092702,岐阜県,高山市,清見町大原,ギフケン,タカヤマシ,キヨミチョウオッパラ,岐阜県高山市清見町大原
5093101,岐阜県,下呂市,小坂町岩崎,ギフケン,ゲロシ,オサカチョウイワサキ,岐阜県下呂市小坂町岩崎
5093102,岐阜県,下呂市,小坂町門坂,ギフケン,ゲロシ,オサカチョウカドサカ,岐阜県下呂市小坂町門坂
5093103,岐阜県,下呂市,小坂町大垣内,ギフケン,ゲロシ,オサカチョウオオガイト,岐阜県下呂市小坂町大垣内
5093104,岐阜県,下呂市,小坂町小坂町,ギフケン,ゲロシ,オサカチョウオサカマチ,岐阜県下呂市小坂町小坂町
5093105,岐阜県,下呂市,小坂町坂下,ギフケン,ゲロシ,オサカチョウサコレ,岐阜県下呂市小坂町坂下
5093106,岐阜県,下呂市,小坂町大島,ギフケン,ゲロシ,オサカチョウオオシマ,岐阜県下呂市小坂町大島
5093107,岐阜県,下呂市,小坂町無数原,ギフケン,ゲロシ,オサカチョウムスバラ,岐阜県下呂市小坂町無数原
5093111,岐阜県,下呂市,小坂町落合,ギフケン,ゲロシ,オサカチョウオチアイ,岐阜県下呂市小坂町落合
5093112,岐阜県,下呂市,小坂町大洞,ギフケン,ゲロシ,オサカチョウオオボラ,岐阜県下呂市小坂町大洞
5093113,岐阜県,下呂市,小坂町湯屋,ギフケン,ゲロシ,オサカチョウユヤ,岐阜県下呂市小坂町湯屋
5093114,岐阜県,下呂市,小坂町赤沼田,ギフケン,ゲロシ,オサカチョウアカンタ,岐阜県下呂市小坂町赤沼田
5093115,岐阜県,下呂市,小坂町長瀬,ギフケン,ゲロシ,オサカチョウナガセ,岐阜県下呂市小坂町長瀬
5093201,岐阜県,高山市,久々野町大西,ギフケン,タカヤマシ,クグノチョウオオニシ,岐阜県高山市久々野町大西
5093202,岐阜県,高山市,久々野町小屋名,ギフケン,タカヤマシ,クグノチョウコヤナ,岐阜県高山市久々野町小屋名
5093203,岐阜県,高山市,久々野町柳島,ギフケン,タカヤマシ,クグノチョウヤナジマ,岐阜県高山市久々野町柳島
5093204,岐阜県,高山市,久々野町久須母,ギフケン,タカヤマシ,クグノチョウクスモ,岐阜県高山市久々野町久須母
5093205,岐阜県,高山市,久々野町久々野,ギフケン,タカヤマシ,クグノチョウクグノ,岐阜県高山市久々野町久々野
5093206,岐阜県,高山市,久々野町山梨,ギフケン,タカヤマシ,クグノチョウヤマナシ,岐阜県高山市久々野町山梨
5093207,岐阜県,高山市,久々野町辻,ギフケン,タカヤマシ,クグノチョウツジ,岐阜県高山市久々野町辻
5093211,岐阜県,高山市,久々野町小坊,ギフケン,タカヤマシ,クグノチョウコボウ,岐阜県高山市久々野町小坊
5093212,岐阜県,高山市,久々野町阿多粕,ギフケン,タカヤマシ,クグノチョウアタガス,岐阜県高山市久々野町阿多粕
5093213,岐阜県,高山市,久々野町渚,ギフケン,タカヤマシ,クグノチョウナギサ,岐阜県高山市久々野町渚
5093214,岐阜県,高山市,久々野町無数河,ギフケン,タカヤマシ,クグノチョウムスゴ,岐阜県高山市久々野町無数河
5093215,岐阜県,高山市,久々野町引下,ギフケン,タカヤマシ,クグノチョウヒキサゲ,岐阜県高山市久々野町引下
5093216,岐阜県,高山市,久々野町木賊洞,ギフケン,タカヤマシ,クグノチョウトクサボラ,岐阜県高山市久々野町木賊洞
5093217,岐阜県,高山市,久々野町長淀,ギフケン,タカヤマシ,クグノチョウナガトロ,岐阜県高山市久々野町長淀
5093218,岐阜県,高山市,久々野町有道,ギフケン,タカヤマシ,クグノチョウウトウ,岐阜県高山市久々野町有道
5093301,岐阜県,高山市,朝日町青屋,ギフケン,タカヤマシ,アサヒチョウアオヤ,岐阜県高山市朝日町青屋
5093302,岐阜県,高山市,朝日町寺附,ギフケン,タカヤマシ,アサヒチョウテラヅキ,岐阜県高山市朝日町寺附
5093303,岐阜県,高山市,朝日町浅井,ギフケン,タカヤマシ,アサヒチョウアサイ,岐阜県高山市朝日町浅井
5093304,岐阜県,高山市,朝日町立岩,ギフケン,タカヤマシ,アサヒチョウタテイワ,岐阜県高山市朝日町立岩
5093305,岐阜県,高山市,朝日町小瀬,ギフケン,タカヤマシ,アサヒチョウコセ,岐阜県高山市朝日町小瀬
5093306,岐阜県,高山市,朝日町見座,ギフケン,タカヤマシ,アサヒチョウミザ,岐阜県高山市朝日町見座
5093311,岐阜県,高山市,朝日町一之宿,ギフケン,タカヤマシ,アサヒチョウイチノシュク,岐阜県高山市朝日町一之宿
5093312,岐阜県,高山市,朝日町桑之島,ギフケン,タカヤマシ,アサヒチョウクワノシマ,岐阜県高山市朝日町桑之島
5093313,岐阜県,高山市,朝日町胡桃島,ギフケン,タカヤマシ,アサヒチョウクルミシマ,岐阜県高山市朝日町胡桃島
5093314,岐阜県,高山市,朝日町西洞（スズラン高原）,ギフケン,タカヤマシ,アサヒチョウニシボラ(スズランコウゲン),岐阜県高山市朝日町西洞（スズラン高原）
5093315,岐阜県,高山市,朝日町宮之前,ギフケン,タカヤマシ,アサヒチョウミヤノマエ,岐阜県高山市朝日町宮之前
5093316,岐阜県,高山市,朝日町黍生谷,ギフケン,タカヤマシ,アサヒチョウキビュウダニ,岐阜県高山市朝日町黍生谷
5093317,岐阜県,高山市,朝日町小瀬ケ洞,ギフケン,タカヤマシ,アサヒチョウコセガホラ,岐阜県高山市朝日町小瀬ケ洞
5093321,岐阜県,高山市,朝日町黒川,ギフケン,タカヤマシ,アサヒチョウクロカワ,岐阜県高山市朝日町黒川
5093322,岐阜県,高山市,朝日町大廣,ギフケン,タカヤマシ,アサヒチョウオオヒロ,岐阜県高山市朝日町大廣
5093323,岐阜県,高山市,朝日町寺澤,ギフケン,タカヤマシ,アサヒチョウテラザワ,岐阜県高山市朝日町寺澤
5093324,岐阜県,高山市,朝日町上ケ見,ギフケン,タカヤマシ,アサヒチョウアゲミ,岐阜県高山市朝日町上ケ見
5093325,岐阜県,高山市,朝日町万石,ギフケン,タカヤマシ,アサヒチョウマンゴク,岐阜県高山市朝日町万石
5093326,岐阜県,高山市,朝日町甲,ギフケン,タカヤマシ,アサヒチョウカブト,岐阜県高山市朝日町甲
5093327,岐阜県,高山市,朝日町小谷,ギフケン,タカヤマシ,アサヒチョウコダニ,岐阜県高山市朝日町小谷
5093401,岐阜県,高山市,高根町阿多野郷,ギフケン,タカヤマシ,タカネマチアタノゴウ,岐阜県高山市高根町阿多野郷
5093402,岐阜県,高山市,高根町野麦,ギフケン,タカヤマシ,タカネマチノムギ,岐阜県高山市高根町野麦
5093403,岐阜県,高山市,高根町日和田,ギフケン,タカヤマシ,タカネマチヒワダ,岐阜県高山市高根町日和田
5093404,岐阜県,高山市,高根町小日和田,ギフケン,タカヤマシ,タカネマチコヒワダ,岐阜県高山市高根町小日和田
5093405,岐阜県,高山市,高根町留之原,ギフケン,タカヤマシ,タカネマチトメノハラ,岐阜県高山市高根町留之原
5093411,岐阜県,高山市,高根町上ケ洞,ギフケン,タカヤマシ,タカネマチカミガホラ,岐阜県高山市高根町上ケ洞
5093412,岐阜県,高山市,高根町大古井,ギフケン,タカヤマシ,タカネマチオオブルイ,岐阜県高山市高根町大古井
5093413,岐阜県,高山市,高根町下之向,ギフケン,タカヤマシ,タカネマチシモノムカイ,岐阜県高山市高根町下之向
5093414,岐阜県,高山市,高根町中之宿,ギフケン,タカヤマシ,タカネマチナカノシュク,岐阜県高山市高根町中之宿
5093415,岐阜県,高山市,高根町猪之鼻,ギフケン,タカヤマシ,タカネマチイノハナ,岐阜県高山市高根町猪之鼻
5093416,岐阜県,高山市,高根町中洞,ギフケン,タカヤマシ,タカネマチナカボラ,岐阜県高山市高根町中洞
5093417,岐阜県,高山市,高根町池ケ洞,ギフケン,タカヤマシ,タカネマチイケガホラ,岐阜県高山市高根町池ケ洞
5093418,岐阜県,高山市,高根町黍生,ギフケン,タカヤマシ,タカネマチキビュウ,岐阜県高山市高根町黍生
5093419,岐阜県,高山市,高根町日影,ギフケン,タカヤマシ,タカネマチヒカゲ,岐阜県高山市高根町日影
5093505,岐阜県,高山市,一之宮町,ギフケン,タカヤマシ,イチノミヤマチ,岐阜県高山市一之宮町
5094101,岐阜県,高山市,国府町桐谷,ギフケン,タカヤマシ,コクフチョウキリダニ,岐阜県高山市国府町桐谷
5094102,岐阜県,高山市,国府町八日町,ギフケン,タカヤマシ,コクフチョウヨウカマチ,岐阜県高山市国府町八日町
5094103,岐阜県,高山市,国府町宮地,ギフケン,タカヤマシ,コクフチョウミヤジ,岐阜県高山市国府町宮地
5094104,岐阜県,高山市,国府町今,ギフケン,タカヤマシ,コクフチョウイマ,岐阜県高山市国府町今
5094105,岐阜県,高山市,国府町蓑輪,ギフケン,タカヤマシ,コクフチョウミノワ,岐阜県高山市国府町蓑輪
5094106,岐阜県,高山市,国府町漆垣内,ギフケン,タカヤマシ,コクフチョウウルシガイト,岐阜県高山市国府町漆垣内
5094107,岐阜県,高山市,国府町西門前,ギフケン,タカヤマシ,コクフチョウニシモンゼン,岐阜県高山市国府町西門前
5094108,岐阜県,高山市,国府町東門前,ギフケン,タカヤマシ,コクフチョウヒガシモンゼン,岐阜県高山市国府町東門前
5094111,岐阜県,高山市,国府町山本,ギフケン,タカヤマシ,コクフチョウヤマモト,岐阜県高山市国府町山本
5094112,岐阜県,高山市,国府町鶴巣,ギフケン,タカヤマシ,コクフチョウツルス,岐阜県高山市国府町鶴巣
5094113,岐阜県,高山市,国府町木曽垣内,ギフケン,タカヤマシ,コクフチョウキソガイト,岐阜県高山市国府町木曽垣内
5094114,岐阜県,高山市,国府町半田,ギフケン,タカヤマシ,コクフチョウハンダ,岐阜県高山市国府町半田
5094115,岐阜県,高山市,国府町三日町,ギフケン,タカヤマシ,コクフチョウミッカマチ,岐阜県高山市国府町三日町
5094116,岐阜県,高山市,国府町上広瀬,ギフケン,タカヤマシ,コクフチョウカミヒロセ,岐阜県高山市国府町上広瀬
5094117,岐阜県,高山市,国府町三川,ギフケン,タカヤマシ,コクフチョウサンガワ,岐阜県高山市国府町三川
5094119,岐阜県,高山市,国府町広瀬町（桜野）,ギフケン,タカヤマシ,コクフチョウヒロセマチ(サクラノ),岐阜県高山市国府町広瀬町（桜野）
5094121,岐阜県,高山市,国府町宇津江,ギフケン,タカヤマシ,コクフチョウウツエ,岐阜県高山市国府町宇津江
5094122,岐阜県,高山市,国府町名張,ギフケン,タカヤマシ,コクフチョウナバリ,岐阜県高山市国府町名張
5094123,岐阜県,高山市,国府町金桶,ギフケン,タカヤマシ,コクフチョウカネオケ,岐阜県高山市国府町金桶
5094124,岐阜県,高山市,国府町村山,ギフケン,タカヤマシ,コクフチョウムラヤマ,岐阜県高山市国府町村山
5094125,岐阜県,高山市,国府町糠塚,ギフケン,タカヤマシ,コクフチョウヌカヅカ,岐阜県高山市国府町糠塚
5094126,岐阜県,高山市,国府町瓜巣,ギフケン,タカヤマシ,コクフチョウウリス,岐阜県高山市国府町瓜巣
5094201,岐阜県,飛騨市,古川町数河,ギフケン,ヒダシ,フルカワチョウスゴウ,岐阜県飛騨市古川町数河
5094202,岐阜県,飛騨市,古川町戸市,ギフケン,ヒダシ,フルカワチョウトイチ,岐阜県飛騨市古川町戸市
5094203,岐阜県,飛騨市,古川町袈裟丸,ギフケン,ヒダシ,フルカワチョウケサマル,岐阜県飛騨市古川町袈裟丸
5094204,岐阜県,飛騨市,古川町野口,ギフケン,ヒダシ,フルカワチョウノグチ,岐阜県飛騨市古川町野口
5094205,岐阜県,飛騨市,古川町末真,ギフケン,ヒダシ,フルカワチョウスエザネ,岐阜県飛騨市古川町末真
5094211,岐阜県,飛騨市,古川町太江,ギフケン,ヒダシ,フルカワチョウタイエ,岐阜県飛騨市古川町太江
5094212,岐阜県,飛騨市,古川町上気多,ギフケン,ヒダシ,フルカワチョウカミキタ,岐阜県飛騨市古川町上気多
5094213,岐阜県,飛騨市,古川町下気多,ギフケン,ヒダシ,フルカワチョウシモキタ,岐阜県飛騨市古川町下気多
5094214,岐阜県,飛騨市,古川町沼町,ギフケン,ヒダシ,フルカワチョウヌママチ,岐阜県飛騨市古川町沼町
5094215,岐阜県,飛騨市,古川町杉崎,ギフケン,ヒダシ,フルカワチョウスギサキ,岐阜県飛騨市古川町杉崎
5094221,岐阜県,飛騨市,古川町若宮,ギフケン,ヒダシ,フルカワチョウワカミヤ,岐阜県飛騨市古川町若宮
5094222,岐阜県,飛騨市,古川町片原町,ギフケン,ヒダシ,フルカワチョウカタハラチョウ,岐阜県飛騨市古川町片原町
5094223,岐阜県,飛騨市,古川町東町,ギフケン,ヒダシ,フルカワチョウヒガシマチ,岐阜県飛騨市古川町東町
5094224,岐阜県,飛騨市,古川町殿町,ギフケン,ヒダシ,フルカワチョウトノマチ,岐阜県飛騨市古川町殿町
5094225,岐阜県,飛騨市,古川町金森町,ギフケン,ヒダシ,フルカワチョウカナモリチョウ,岐阜県飛騨市古川町金森町
5094231,岐阜県,飛騨市,古川町新栄町,ギフケン,ヒダシ,フルカワチョウシンサカエマチ,岐阜県飛騨市古川町新栄町
5094232,岐阜県,飛騨市,古川町本町,ギフケン,ヒダシ,フルカワチョウホンマチ,岐阜県飛騨市古川町本町
5094233,岐阜県,飛騨市,古川町末広町,ギフケン,ヒダシ,フルカワチョウスエヒロチョウ,岐阜県飛騨市古川町末広町
5094234,岐阜県,飛騨市,古川町壱之町,ギフケン,ヒダシ,フルカワチョウイチノマチ,岐阜県飛騨市古川町壱之町
5094235,岐阜県,飛騨市,古川町弐之町,ギフケン,ヒダシ,フルカワチョウニノマチ,岐阜県飛騨市古川町弐之町
5094236,岐阜県,飛騨市,古川町三之町,ギフケン,ヒダシ,フルカワチョウサンノマチ,岐阜県飛騨市古川町三之町
5094237,岐阜県,飛騨市,古川町栄,ギフケン,ヒダシ,フルカワチョウサカエ,岐阜県飛騨市古川町栄
5094241,岐阜県,飛騨市,古川町向町,ギフケン,ヒダシ,フルカワチョウムカイマチ,岐阜県飛騨市古川町向町
5094242,岐阜県,飛騨市,古川町増島町,ギフケン,ヒダシ,フルカワチョウマスシマチョウ,岐阜県飛騨市古川町増島町
5094243,岐阜県,飛騨市,古川町貴船町,ギフケン,ヒダシ,フルカワチョウキフネチョウ,岐阜県飛騨市古川町貴船町
5094244,岐阜県,飛騨市,古川町是重,ギフケン,ヒダシ,フルカワチョウコレシゲ,岐阜県飛騨市古川町是重
5094245,岐阜県,飛騨市,古川町幸栄町,ギフケン,ヒダシ,フルカワチョウコウエイチョウ,岐阜県飛騨市古川町幸栄町
5094251,岐阜県,飛騨市,古川町宮城町,ギフケン,ヒダシ,フルカワチョウミヤギチョウ,岐阜県飛騨市古川町宮城町
5094252,岐阜県,飛騨市,古川町朝開町,ギフケン,ヒダシ,フルカワチョウアサビラキマチ,岐阜県飛騨市古川町朝開町
5094253,岐阜県,飛騨市,古川町南成町,ギフケン,ヒダシ,フルカワチョウナンセイチョウ,岐阜県飛騨市古川町南成町
5094254,岐阜県,飛騨市,古川町上町,ギフケン,ヒダシ,フルカワチョウカンマチ,岐阜県飛騨市古川町上町
5094255,岐阜県,飛騨市,古川町大野町,ギフケン,ヒダシ,フルカワチョウオオノチョウ,岐阜県飛騨市古川町大野町
5094256,岐阜県,飛騨市,古川町高野,ギフケン,ヒダシ,フルカワチョウタカノ,岐阜県飛騨市古川町高野
5094261,岐阜県,飛騨市,古川町下野,ギフケン,ヒダシ,フルカワチョウシモノ,岐阜県飛騨市古川町下野
5094262,岐阜県,飛騨市,古川町中野,ギフケン,ヒダシ,フルカワチョウナカノ,岐阜県飛騨市古川町中野
5094263,岐阜県,飛騨市,古川町上野,ギフケン,ヒダシ,フルカワチョウカミノ,岐阜県飛騨市古川町上野
5094264,岐阜県,飛騨市,古川町平岩,ギフケン,ヒダシ,フルカワチョウヒライワ,岐阜県飛騨市古川町平岩
5094265,岐阜県,飛騨市,古川町畦畑,ギフケン,ヒダシ,フルカワチョウウネハタ,岐阜県飛騨市古川町畦畑
5094271,岐阜県,飛騨市,古川町谷,ギフケン,ヒダシ,フルカワチョウタニ,岐阜県飛騨市古川町谷
5094272,岐阜県,飛騨市,古川町信包,ギフケン,ヒダシ,フルカワチョウノブカ,岐阜県飛騨市古川町信包
5094273,岐阜県,飛騨市,古川町寺地,ギフケン,ヒダシ,フルカワチョウテラジ,岐阜県飛騨市古川町寺地
5094274,岐阜県,飛騨市,古川町笹ケ洞,ギフケン,ヒダシ,フルカワチョウササガホラ,岐阜県飛騨市古川町笹ケ洞
5094275,岐阜県,飛騨市,古川町黒内,ギフケン,ヒダシ,フルカワチョウクロウチ,岐阜県飛騨市古川町黒内
5094301,岐阜県,飛騨市,河合町角川,ギフケン,ヒダシ,カワイチョウツノガワ,岐阜県飛騨市河合町角川
5094302,岐阜県,飛騨市,河合町小無雁,ギフケン,ヒダシ,カワイチョウコムカリ,岐阜県飛騨市河合町小無雁
5094303,岐阜県,飛騨市,河合町有家,ギフケン,ヒダシ,カワイチョウウケ,岐阜県飛騨市河合町有家
5094304,岐阜県,飛騨市,河合町羽根,ギフケン,ヒダシ,カワイチョウハネ,岐阜県飛騨市河合町羽根
5094305,岐阜県,飛騨市,河合町保木林,ギフケン,ヒダシ,カワイチョウホキバヤシ,岐阜県飛騨市河合町保木林
5094306,岐阜県,飛騨市,河合町中沢上,ギフケン,ヒダシ,カワイチョウナカゾウレ,岐阜県飛騨市河合町中沢上
5094311,岐阜県,飛騨市,河合町大谷,ギフケン,ヒダシ,カワイチョウオオタニ,岐阜県飛騨市河合町大谷
5094312,岐阜県,飛騨市,河合町稲越,ギフケン,ヒダシ,カワイチョウイナゴエ,岐阜県飛騨市河合町稲越
5094313,岐阜県,飛騨市,河合町保,ギフケン,ヒダシ,カワイチョウホ,岐阜県飛騨市河合町保
5094314,岐阜県,飛騨市,河合町月ケ瀬,ギフケン,ヒダシ,カワイチョウツキガセ,岐阜県飛騨市河合町月ケ瀬
5094315,岐阜県,飛騨市,河合町天生,ギフケン,ヒダシ,カワイチョウアモウ,岐阜県飛騨市河合町天生
5094316,岐阜県,飛騨市,河合町元田,ギフケン,ヒダシ,カワイチョウゲンダ,岐阜県飛騨市河合町元田
5094317,岐阜県,飛騨市,河合町上ケ島,ギフケン,ヒダシ,カワイチョウジョウガシマ,岐阜県飛騨市河合町上ケ島
5094318,岐阜県,飛騨市,河合町新名,ギフケン,ヒダシ,カワイチョウシンミョウ,岐阜県飛騨市河合町新名
5094401,岐阜県,飛騨市,宮川町菅沼,ギフケン,ヒダシ,ミヤガワチョウスガヌマ,岐阜県飛騨市宮川町菅沼
5094402,岐阜県,飛騨市,宮川町種蔵,ギフケン,ヒダシ,ミヤガワチョウタネクラ,岐阜県飛騨市宮川町種蔵
5094403,岐阜県,飛騨市,宮川町三川原,ギフケン,ヒダシ,ミヤガワチョウサンガワラ,岐阜県飛騨市宮川町三川原
5094404,岐阜県,飛騨市,宮川町巣之内,ギフケン,ヒダシ,ミヤガワチョウスノウチ,岐阜県飛騨市宮川町巣之内
5094405,岐阜県,飛騨市,宮川町丸山,ギフケン,ヒダシ,ミヤガワチョウマルヤマ,岐阜県飛騨市宮川町丸山
5094406,岐阜県,飛騨市,宮川町牧戸,ギフケン,ヒダシ,ミヤガワチョウマキド,岐阜県飛騨市宮川町牧戸
5094411,岐阜県,飛騨市,宮川町野首,ギフケン,ヒダシ,ミヤガワチョウノクビ,岐阜県飛騨市宮川町野首
5094412,岐阜県,飛騨市,宮川町岸奥,ギフケン,ヒダシ,ミヤガワチョウキシオク,岐阜県飛騨市宮川町岸奥
5094413,岐阜県,飛騨市,宮川町小谷,ギフケン,ヒダシ,ミヤガワチョウコダニ,岐阜県飛騨市宮川町小谷
5094414,岐阜県,飛騨市,宮川町大無雁,ギフケン,ヒダシ,ミヤガワチョウオオムカリ,岐阜県飛騨市宮川町大無雁
5094415,岐阜県,飛騨市,宮川町落合,ギフケン,ヒダシ,ミヤガワチョウオチアイ,岐阜県飛騨市宮川町落合
5094421,岐阜県,飛騨市,宮川町高牧,ギフケン,ヒダシ,ミヤガワチョウタカマキ,岐阜県飛騨市宮川町高牧
5094422,岐阜県,飛騨市,宮川町西忍,ギフケン,ヒダシ,ミヤガワチョウニシシノビ,岐阜県飛騨市宮川町西忍
5094423,岐阜県,飛騨市,宮川町林,ギフケン,ヒダシ,ミヤガワチョウハヤシ,岐阜県飛騨市宮川町林
5094424,岐阜県,飛騨市,宮川町森安,ギフケン,ヒダシ,ミヤガワチョウモリヤス,岐阜県飛騨市宮川町森安
5094531,岐阜県,飛騨市,宮川町巣納谷,ギフケン,ヒダシ,ミヤガワチョウスノダニ,岐阜県飛騨市宮川町巣納谷
5094531,岐阜県,飛騨市,宮川町鮎飛,ギフケン,ヒダシ,ミヤガワチョウアユトビ,岐阜県飛騨市宮川町鮎飛
5094532,岐阜県,飛騨市,宮川町洞,ギフケン,ヒダシ,ミヤガワチョウホラ,岐阜県飛騨市宮川町洞
5094533,岐阜県,飛騨市,宮川町塩屋,ギフケン,ヒダシ,ミヤガワチョウシオヤ,岐阜県飛騨市宮川町塩屋
5094534,岐阜県,飛騨市,宮川町中沢上,ギフケン,ヒダシ,ミヤガワチョウナカゾレ,岐阜県飛騨市宮川町中沢上
5094535,岐阜県,飛騨市,宮川町祢宜ケ沢上,ギフケン,ヒダシ,ミヤガワチョウネガソレ,岐阜県飛騨市宮川町祢宜ケ沢上
5094541,岐阜県,飛騨市,宮川町小豆沢,ギフケン,ヒダシ,ミヤガワチョウアズキザワ,岐阜県飛騨市宮川町小豆沢
5094542,岐阜県,飛騨市,宮川町杉原,ギフケン,ヒダシ,ミヤガワチョウスギハラ,岐阜県飛騨市宮川町杉原
5094543,岐阜県,飛騨市,宮川町桑野,ギフケン,ヒダシ,ミヤガワチョウクワノ,岐阜県飛騨市宮川町桑野
5094544,岐阜県,飛騨市,宮川町戸谷,ギフケン,ヒダシ,ミヤガワチョウトダニ,岐阜県飛騨市宮川町戸谷
5094545,岐阜県,飛騨市,宮川町打保,ギフケン,ヒダシ,ミヤガワチョウウツボ,岐阜県飛騨市宮川町打保
5095100,岐阜県,土岐市,,ギフケン,トキシ,,岐阜県土岐市
5095101,岐阜県,土岐市,泉町河合,ギフケン,トキシ,イズミチョウカワイ,岐阜県土岐市泉町河合
5095102,岐阜県,土岐市,泉町定林寺,ギフケン,トキシ,イズミチョウジョウリンジ,岐阜県土岐市泉町定林寺
5095103,岐阜県,土岐市,泉東窯町,ギフケン,トキシ,イズミヒガシガマチョウ,岐阜県土岐市泉東窯町
5095104,岐阜県,土岐市,泉中窯町,ギフケン,トキシ,イズミナカガマチョウ,岐阜県土岐市泉中窯町
5095105,岐阜県,土岐市,泉西窯町,ギフケン,トキシ,イズミニシガマチョウ,岐阜県土岐市泉西窯町
5095106,岐阜県,土岐市,泉仲森町,ギフケン,トキシ,イズミナカモリチョウ,岐阜県土岐市泉仲森町
5095107,岐阜県,土岐市,泉梅ノ木町,ギフケン,トキシ,イズミウメノキチョウ,岐阜県土岐市泉梅ノ木町
5095111,岐阜県,土岐市,肥田浅野双葉町,ギフケン,トキシ,ヒダアサノフタバチョウ,岐阜県土岐市肥田浅野双葉町
5095112,岐阜県,土岐市,肥田浅野笠神町,ギフケン,トキシ,ヒダアサノカサガミチョウ,岐阜県土岐市肥田浅野笠神町
5095113,岐阜県,土岐市,肥田浅野元町,ギフケン,トキシ,ヒダアサノモトマチ,岐阜県土岐市肥田浅野元町
5095114,岐阜県,土岐市,肥田町浅野,ギフケン,トキシ,ヒダチョウアサノ,岐阜県土岐市肥田町浅野
5095115,岐阜県,土岐市,肥田町肥田（その他）,ギフケン,トキシ,ヒダチョウヒダ(ソノタ),岐阜県土岐市肥田町肥田（その他）
5095116,岐阜県,土岐市,肥田浅野矢落町,ギフケン,トキシ,ヒダアサノヤオチチョウ,岐阜県土岐市肥田浅野矢落町
5095117,岐阜県,土岐市,肥田浅野朝日町,ギフケン,トキシ,ヒダアサノアサヒマチ,岐阜県土岐市肥田浅野朝日町
5095118,岐阜県,土岐市,肥田浅野梅ノ木町,ギフケン,トキシ,ヒダアサノウメノキチョウ,岐阜県土岐市肥田浅野梅ノ木町
5095121,岐阜県,土岐市,土岐津町高山,ギフケン,トキシ,トキツチョウタカヤマ,岐阜県土岐市土岐津町高山
5095122,岐阜県,土岐市,土岐津町土岐口,ギフケン,トキシ,トキツチョウトキグチ,岐阜県土岐市土岐津町土岐口
5095123,岐阜県,土岐市,土岐口南町,ギフケン,トキシ,トキグチミナミマチ,岐阜県土岐市土岐口南町
5095124,岐阜県,土岐市,土岐口中町,ギフケン,トキシ,トキグチナカマチ,岐阜県土岐市土岐口中町
5095125,岐阜県,土岐市,御幸町,ギフケン,トキシ,ミユキチョウ,岐阜県土岐市御幸町
5095126,岐阜県,土岐市,土岐口北町,ギフケン,トキシ,トキグチキタマチ,岐阜県土岐市土岐口北町
5095127,岐阜県,土岐市,土岐ヶ丘,ギフケン,トキシ,トキガオカ,岐阜県土岐市土岐ヶ丘
5095131,岐阜県,土岐市,泉寺田町,ギフケン,トキシ,イズミテラダチョウ,岐阜県土岐市泉寺田町
5095132,岐阜県,土岐市,泉町大富,ギフケン,トキシ,イズミチョウオオトミ,岐阜県土岐市泉町大富
5095133,岐阜県,土岐市,泉神栄町,ギフケン,トキシ,イズミシンエイチョウ,岐阜県土岐市泉神栄町
5095134,岐阜県,土岐市,泉島田町,ギフケン,トキシ,イズミシマダチョウ,岐阜県土岐市泉島田町
5095135,岐阜県,土岐市,泉森下町,ギフケン,トキシ,イズミモリシタチョウ,岐阜県土岐市泉森下町
5095136,岐阜県,土岐市,泉大島町,ギフケン,トキシ,イズミオオシマチョウ,岐阜県土岐市泉大島町
5095141,岐阜県,土岐市,泉岩畑町,ギフケン,トキシ,イズミイワバタチョウ,岐阜県土岐市泉岩畑町
5095142,岐阜県,土岐市,泉町久尻,ギフケン,トキシ,イズミチョウクジリ,岐阜県土岐市泉町久尻
5095143,岐阜県,土岐市,泉日之出町,ギフケン,トキシ,イズミヒノデチョウ,岐阜県土岐市泉日之出町
5095144,岐阜県,土岐市,泉池ノ上町,ギフケン,トキシ,イズミイケノウエチョウ,岐阜県土岐市泉池ノ上町
5095145,岐阜県,土岐市,泉大沼町,ギフケン,トキシ,イズミオオヌマチョウ,岐阜県土岐市泉大沼町
5095146,岐阜県,土岐市,泉明治町,ギフケン,トキシ,イズミメイジマチ,岐阜県土岐市泉明治町
5095147,岐阜県,土岐市,泉郷町,ギフケン,トキシ,イズミゴウマチ,岐阜県土岐市泉郷町
5095151,岐阜県,土岐市,泉大坪町,ギフケン,トキシ,イズミオオツボチョウ,岐阜県土岐市泉大坪町
5095152,岐阜県,土岐市,泉寺下町,ギフケン,トキシ,イズミテラシタチョウ,岐阜県土岐市泉寺下町
5095153,岐阜県,土岐市,泉西原町,ギフケン,トキシ,イズミニシハラチョウ,岐阜県土岐市泉西原町
5095154,岐阜県,土岐市,泉西山町,ギフケン,トキシ,イズミニシヤマチョウ,岐阜県土岐市泉西山町
5095161,岐阜県,土岐市,泉が丘町,ギフケン,トキシ,イズミガオカチョウ,岐阜県土岐市泉が丘町
5095171,岐阜県,土岐市,泉北山町,ギフケン,トキシ,イズミキタヤマチョウ,岐阜県土岐市泉北山町
5095201,岐阜県,土岐市,下石阿庄町,ギフケン,トキシ,オロシアショウチョウ,岐阜県土岐市下石阿庄町
5095202,岐阜県,土岐市,下石町,ギフケン,トキシ,オロシチョウ,岐阜県土岐市下石町
5095203,岐阜県,土岐市,下石陶史台,ギフケン,トキシ,オロシトウシダイ,岐阜県土岐市下石陶史台
5095301,岐阜県,土岐市,妻木町,ギフケン,トキシ,ツマギチョウ,岐阜県土岐市妻木町
5095302,岐阜県,土岐市,妻木平成町,ギフケン,トキシ,ツマギヘイセイチョウ,岐阜県土岐市妻木平成町
5095311,岐阜県,土岐市,鶴里町細野,ギフケン,トキシ,ツルサトチョウホソノ,岐阜県土岐市鶴里町細野
5095312,岐阜県,土岐市,鶴里町柿野,ギフケン,トキシ,ツルサトチョウカキノ,岐阜県土岐市鶴里町柿野
5095401,岐阜県,土岐市,駄知町,ギフケン,トキシ,ダチチョウ,岐阜県土岐市駄知町
5095402,岐阜県,土岐市,曽木町,ギフケン,トキシ,ソギチョウ,岐阜県土岐市曽木町
5095403,岐阜県,土岐市,旭ケ丘町,ギフケン,トキシ,アサヒガオカチョウ,岐阜県土岐市旭ケ丘町
5095403,岐阜県,土岐市,肥田町肥田（２８６〜２８７番地）,ギフケン,トキシ,ヒダチョウヒダ(286-287バンチ),岐阜県土岐市肥田町肥田（286〜287-）
5096100,岐阜県,瑞浪市,,ギフケン,ミズナミシ,,岐阜県瑞浪市
5096101,岐阜県,瑞浪市,土岐町,ギフケン,ミズナミシ,トキチョウ,岐阜県瑞浪市土岐町
5096102,岐阜県,瑞浪市,稲津町萩原,ギフケン,ミズナミシ,イナツチョウハギワラ,岐阜県瑞浪市稲津町萩原
5096103,岐阜県,瑞浪市,稲津町小里,ギフケン,ミズナミシ,イナツチョウオリ,岐阜県瑞浪市稲津町小里
5096104,岐阜県,瑞浪市,山田町,ギフケン,ミズナミシ,ヤマダチョウ,岐阜県瑞浪市山田町
5096105,岐阜県,瑞浪市,明賀台,ギフケン,ミズナミシ,ミョウガダイ,岐阜県瑞浪市明賀台
5096106,岐阜県,瑞浪市,学園台,ギフケン,ミズナミシ,ガクエンダイ,岐阜県瑞浪市学園台
5096107,岐阜県,瑞浪市,穂並,ギフケン,ミズナミシ,ホナミ,岐阜県瑞浪市穂並
5096108,岐阜県,瑞浪市,益見町,ギフケン,ミズナミシ,マスミチョウ,岐阜県瑞浪市益見町
5096111,岐阜県,瑞浪市,下沖町,ギフケン,ミズナミシ,シタオキチョウ,岐阜県瑞浪市下沖町
5096112,岐阜県,瑞浪市,小田町,ギフケン,ミズナミシ,オダチョウ,岐阜県瑞浪市小田町
5096113,岐阜県,瑞浪市,和合町,ギフケン,ミズナミシ,ワゴウチョウ,岐阜県瑞浪市和合町
5096114,岐阜県,瑞浪市,西小田町,ギフケン,ミズナミシ,ニシオダチョウ,岐阜県瑞浪市西小田町
5096115,岐阜県,瑞浪市,北小田町,ギフケン,ミズナミシ,キタオダチョウ,岐阜県瑞浪市北小田町
5096116,岐阜県,瑞浪市,南小田町,ギフケン,ミズナミシ,ミナミオダチョウ,岐阜県瑞浪市南小田町
5096121,岐阜県,瑞浪市,寺河戸町,ギフケン,ミズナミシ,テラカワドチョウ,岐阜県瑞浪市寺河戸町
5096122,岐阜県,瑞浪市,上平町,ギフケン,ミズナミシ,ウエダイラチョウ,岐阜県瑞浪市上平町
5096123,岐阜県,瑞浪市,樽上町,ギフケン,ミズナミシ,タルウエチョウ,岐阜県瑞浪市樽上町
5096124,岐阜県,瑞浪市,一色町,ギフケン,ミズナミシ,イシキチョウ,岐阜県瑞浪市一色町
5096125,岐阜県,瑞浪市,上野町,ギフケン,ミズナミシ,ウエノマチ,岐阜県瑞浪市上野町
5096126,岐阜県,瑞浪市,高月町,ギフケン,ミズナミシ,タカツキチョウ,岐阜県瑞浪市高月町
5096127,岐阜県,瑞浪市,須野志町,ギフケン,ミズナミシ,スノシチョウ,岐阜県瑞浪市須野志町
5096128,岐阜県,瑞浪市,宮前町,ギフケン,ミズナミシ,ミヤマエチョウ,岐阜県瑞浪市宮前町
5096131,岐阜県,瑞浪市,明世町月吉,ギフケン,ミズナミシ,アキヨチョウツキヨシ,岐阜県瑞浪市明世町月吉
5096132,岐阜県,瑞浪市,明世町山野内,ギフケン,ミズナミシ,アキヨチョウヤマノウチ,岐阜県瑞浪市明世町山野内
5096133,岐阜県,瑞浪市,明世町戸狩,ギフケン,ミズナミシ,アキヨチョウトガリ,岐阜県瑞浪市明世町戸狩
5096134,岐阜県,瑞浪市,松ケ瀬町,ギフケン,ミズナミシ,マツガセチョウ,岐阜県瑞浪市松ケ瀬町
5096135,岐阜県,瑞浪市,薬師町,ギフケン,ミズナミシ,ヤクシチョウ,岐阜県瑞浪市薬師町
5096251,岐阜県,瑞浪市,日吉町,ギフケン,ミズナミシ,ヒヨシチョウ,岐阜県瑞浪市日吉町
5096361,岐阜県,瑞浪市,陶町猿爪,ギフケン,ミズナミシ,スエチョウマシヅメ,岐阜県瑞浪市陶町猿爪
5096362,岐阜県,瑞浪市,陶町水上,ギフケン,ミズナミシ,スエチョウミズカミ,岐阜県瑞浪市陶町水上
5096363,岐阜県,瑞浪市,陶町大川,ギフケン,ミズナミシ,スエチョウオオカワ,岐阜県瑞浪市陶町大川
5096471,岐阜県,瑞浪市,大湫町,ギフケン,ミズナミシ,オオクテチョウ,岐阜県瑞浪市大湫町
5096472,岐阜県,瑞浪市,釜戸町,ギフケン,ミズナミシ,カマドチョウ,岐阜県瑞浪市釜戸町
5097121,岐阜県,恵那市,武並町藤,ギフケン,エナシ,タケナミチョウフジ,岐阜県恵那市武並町藤
5097122,岐阜県,恵那市,武並町竹折,ギフケン,エナシ,タケナミチョウタケオリ,岐阜県恵那市武並町竹折
5097123,岐阜県,恵那市,三郷町野井,ギフケン,エナシ,ミサトチョウノイ,岐阜県恵那市三郷町野井
5097124,岐阜県,恵那市,三郷町佐々良木,ギフケン,エナシ,ミサトチョウサザラギ,岐阜県恵那市三郷町佐々良木
5097125,岐阜県,恵那市,三郷町椋実,ギフケン,エナシ,ミサトチョウムクノミ,岐阜県恵那市三郷町椋実
5097126,岐阜県,恵那市,武並町新竹折,ギフケン,エナシ,タケナミチョウシンタケオリ,岐阜県恵那市武並町新竹折
5097200,岐阜県,恵那市,,ギフケン,エナシ,,岐阜県恵那市
5097201,岐阜県,恵那市,大井町,ギフケン,エナシ,オオイチョウ,岐阜県恵那市大井町
5097202,岐阜県,恵那市,東野,ギフケン,エナシ,ヒガシノ,岐阜県恵那市東野
5097203,岐阜県,恵那市,長島町正家,ギフケン,エナシ,オサシマチョウショウゲ,岐阜県恵那市長島町正家
5097204,岐阜県,恵那市,長島町永田,ギフケン,エナシ,オサシマチョウナガタ,岐阜県恵那市長島町永田
5097205,岐阜県,恵那市,長島町中野,ギフケン,エナシ,オサシマチョウナカノ,岐阜県恵那市長島町中野
5097206,岐阜県,恵那市,長島町久須見,ギフケン,エナシ,オサシマチョウクスミ,岐阜県恵那市長島町久須見
5097207,岐阜県,恵那市,笠置町河合,ギフケン,エナシ,カサギチョウカワイ,岐阜県恵那市笠置町河合
5097208,岐阜県,恵那市,笠置町姫栗,ギフケン,エナシ,カサギチョウヒメグリ,岐阜県恵那市笠置町姫栗
5097209,岐阜県,恵那市,笠置町毛呂窪,ギフケン,エナシ,カサギチョウケロクボ,岐阜県恵那市笠置町毛呂窪
5097211,岐阜県,恵那市,長島町鍋山,ギフケン,エナシ,オサシマチョウナベヤマ,岐阜県恵那市長島町鍋山
5097321,岐阜県,中津川市,阿木（その他）,ギフケン,ナカツガワシ,アギ(ソノタ),岐阜県中津川市阿木（その他）
5097322,岐阜県,中津川市,飯沼,ギフケン,ナカツガワシ,イイヌマ,岐阜県中津川市飯沼
5097401,岐阜県,恵那市,岩村町飯羽間,ギフケン,エナシ,イワムラチョウイイバマ,岐阜県恵那市岩村町飯羽間
5097402,岐阜県,恵那市,岩村町富田,ギフケン,エナシ,イワムラチョウトミダ,岐阜県恵那市岩村町富田
5097403,岐阜県,恵那市,岩村町,ギフケン,エナシ,イワムラチョウ,岐阜県恵那市岩村町
5097501,岐阜県,恵那市,上矢作町（木ノ実）,ギフケン,エナシ,カミヤハギチョウ(キノミ),岐阜県恵那市上矢作町（木ノ実）
5097502,岐阜県,恵那市,上矢作町（飯田洞）,ギフケン,エナシ,カミヤハギチョウ(イイダボラ),岐阜県恵那市上矢作町（飯田洞）
5097503,岐阜県,恵那市,上矢作町（達原）,ギフケン,エナシ,カミヤハギチョウ(タツバラ),岐阜県恵那市上矢作町（達原）
5097504,岐阜県,恵那市,上矢作町（小笹原）,ギフケン,エナシ,カミヤハギチョウ(コザサハラ),岐阜県恵那市上矢作町（小笹原）
5097505,岐阜県,恵那市,上矢作町（島）,ギフケン,エナシ,カミヤハギチョウ(シマ),岐阜県恵那市上矢作町（島）
5097506,岐阜県,恵那市,上矢作町（本郷）,ギフケン,エナシ,カミヤハギチョウ(ホンゴウ),岐阜県恵那市上矢作町（本郷）
5097507,岐阜県,恵那市,上矢作町（横道）,ギフケン,エナシ,カミヤハギチョウ(ヨコミチ),岐阜県恵那市上矢作町（横道）
5097511,岐阜県,恵那市,上矢作町漆原,ギフケン,エナシ,カミヤハギチョウウルシハラ,岐阜県恵那市上矢作町漆原
5097512,岐阜県,恵那市,上矢作町下,ギフケン,エナシ,カミヤハギチョウシモ,岐阜県恵那市上矢作町下
5097513,岐阜県,恵那市,上矢作町小田子,ギフケン,エナシ,カミヤハギチョウコダコ,岐阜県恵那市上矢作町小田子
5097521,岐阜県,恵那市,上矢作町,ギフケン,エナシ,カミヤハギチョウ,岐阜県恵那市上矢作町
5097601,岐阜県,恵那市,山岡町久保原,ギフケン,エナシ,ヤマオカチョウクボハラ,岐阜県恵那市山岡町久保原
5097602,岐阜県,恵那市,山岡町馬場山田,ギフケン,エナシ,ヤマオカチョウババヤマダ,岐阜県恵那市山岡町馬場山田
5097603,岐阜県,恵那市,山岡町上手向,ギフケン,エナシ,ヤマオカチョウカミトウゲ,岐阜県恵那市山岡町上手向
5097604,岐阜県,恵那市,山岡町釜屋,ギフケン,エナシ,ヤマオカチョウカマヤ,岐阜県恵那市山岡町釜屋
5097605,岐阜県,恵那市,山岡町原,ギフケン,エナシ,ヤマオカチョウハラ,岐阜県恵那市山岡町原
5097606,岐阜県,恵那市,山岡町田代,ギフケン,エナシ,ヤマオカチョウタシロ,岐阜県恵那市山岡町田代
5097607,岐阜県,恵那市,山岡町下手向,ギフケン,エナシ,ヤマオカチョウシモトウゲ,岐阜県恵那市山岡町下手向
5097608,岐阜県,恵那市,山岡町田沢,ギフケン,エナシ,ヤマオカチョウタザワ,岐阜県恵那市山岡町田沢
5097701,岐阜県,恵那市,明智町野志,ギフケン,エナシ,アケチチョウノシ,岐阜県恵那市明智町野志
5097702,岐阜県,恵那市,明智町杉野,ギフケン,エナシ,アケチチョウスギノ,岐阜県恵那市明智町杉野
5097703,岐阜県,恵那市,明智町（市場町）,ギフケン,エナシ,アケチチョウ(イチバチョウ),岐阜県恵那市明智町（市場町）
5097704,岐阜県,恵那市,明智町（駅前町）,ギフケン,エナシ,アケチチョウ(エキマエチョウ),岐阜県恵那市明智町（駅前町）
5097705,岐阜県,恵那市,明智町（新町）,ギフケン,エナシ,アケチチョウ(シンマチ),岐阜県恵那市明智町（新町）
5097706,岐阜県,恵那市,明智町（向町）,ギフケン,エナシ,アケチチョウ(ムカイマチ),岐阜県恵那市明智町（向町）
5097707,岐阜県,恵那市,明智町（滝坂住宅）,ギフケン,エナシ,アケチチョウ(タキザカジュウタク),岐阜県恵那市明智町（滝坂住宅）
5097708,岐阜県,恵那市,明智町（新井町）,ギフケン,エナシ,アケチチョウ(アライチョウ),岐阜県恵那市明智町（新井町）
5097711,岐阜県,恵那市,明智町東方,ギフケン,エナシ,アケチチョウヒガシガタ,岐阜県恵那市明智町東方
5097712,岐阜県,恵那市,明智町（的場町）,ギフケン,エナシ,アケチチョウ(マトバチョウ),岐阜県恵那市明智町（的場町）
5097713,岐阜県,恵那市,明智町（片平町）,ギフケン,エナシ,アケチチョウ(カタヒラチョウ),岐阜県恵那市明智町（片平町）
5097714,岐阜県,恵那市,明智町（常盤町）,ギフケン,エナシ,アケチチョウ(トキワチョウ),岐阜県恵那市明智町（常盤町）
5097715,岐阜県,恵那市,明智町（東町）,ギフケン,エナシ,アケチチョウ(ヒガシマチ),岐阜県恵那市明智町（東町）
5097716,岐阜県,恵那市,明智町（本町）,ギフケン,エナシ,アケチチョウ(ホンマチ),岐阜県恵那市明智町（本町）
5097717,岐阜県,恵那市,明智町（宮町）,ギフケン,エナシ,アケチチョウ(ミヤマチ),岐阜県恵那市明智町（宮町）
5097718,岐阜県,恵那市,明智町（東山町）,ギフケン,エナシ,アケチチョウ(ヒガシヤマチョウ),岐阜県恵那市明智町（東山町）
5097721,岐阜県,恵那市,明智町大泉,ギフケン,エナシ,アケチチョウオオイズミ,岐阜県恵那市明智町大泉
5097722,岐阜県,恵那市,明智町（徳間町）,ギフケン,エナシ,アケチチョウ(トクマチョウ),岐阜県恵那市明智町（徳間町）
5097723,岐阜県,恵那市,明智町大田,ギフケン,エナシ,アケチチョウオオタ,岐阜県恵那市明智町大田
5097724,岐阜県,恵那市,明智町横通,ギフケン,エナシ,アケチチョウヨコドオリ,岐阜県恵那市明智町横通
5097725,岐阜県,恵那市,明智町阿妻,ギフケン,エナシ,アケチチョウアヅマ,岐阜県恵那市明智町阿妻
5097726,岐阜県,恵那市,明智町吉良見,ギフケン,エナシ,アケチチョウキラミ,岐阜県恵那市明智町吉良見
5097731,岐阜県,恵那市,明智町,ギフケン,エナシ,アケチチョウ,岐阜県恵那市明智町
5097801,岐阜県,恵那市,串原（中沢）,ギフケン,エナシ,クシハラ(ナカサワ),岐阜県恵那市串原（中沢）
5097802,岐阜県,恵那市,串原（平山）,ギフケン,エナシ,クシハラ(タイラヤマ),岐阜県恵那市串原（平山）
5097803,岐阜県,恵那市,串原（松本）,ギフケン,エナシ,クシハラ(マツモト),岐阜県恵那市串原（松本）
5097804,岐阜県,恵那市,串原（戸中）,ギフケン,エナシ,クシハラ(トチュウ),岐阜県恵那市串原（戸中）
5097805,岐阜県,恵那市,串原（峯）,ギフケン,エナシ,クシハラ(ミネ),岐阜県恵那市串原（峯）
5097806,岐阜県,恵那市,串原（松林）,ギフケン,エナシ,クシハラ(マツバヤシ),岐阜県恵那市串原（松林）
5097811,岐阜県,恵那市,串原（福原）,ギフケン,エナシ,クシハラ(フクバラ),岐阜県恵那市串原（福原）
5097812,岐阜県,恵那市,串原（森上）,ギフケン,エナシ,クシハラ(モリアゲ),岐阜県恵那市串原（森上）
5097813,岐阜県,恵那市,串原（大竹）,ギフケン,エナシ,クシハラ(オオタケ),岐阜県恵那市串原（大竹）
5097814,岐阜県,恵那市,串原（相走）,ギフケン,エナシ,クシハラ(アイバシリ),岐阜県恵那市串原（相走）
5097815,岐阜県,恵那市,串原（大野）,ギフケン,エナシ,クシハラ(オオノ),岐阜県恵那市串原（大野）
5097816,岐阜県,恵那市,串原（岩倉）,ギフケン,エナシ,クシハラ(イワクラ),岐阜県恵那市串原（岩倉）
5097821,岐阜県,恵那市,串原（大平）,ギフケン,エナシ,クシハラ(オオダイラ),岐阜県恵那市串原（大平）
5097822,岐阜県,恵那市,串原（柿畑）,ギフケン,エナシ,クシハラ(カキバタ),岐阜県恵那市串原（柿畑）
5097823,岐阜県,恵那市,串原（閑羅瀬）,ギフケン,エナシ,クシハラ(シズラセ),岐阜県恵那市串原（閑羅瀬）
5097824,岐阜県,恵那市,串原（大簗）,ギフケン,エナシ,クシハラ(オオヤナ),岐阜県恵那市串原（大簗）
5097825,岐阜県,恵那市,串原（川ケ渡）,ギフケン,エナシ,クシハラ(カワカド),岐阜県恵那市串原（川ケ渡）
5097826,岐阜県,恵那市,串原（木根）,ギフケン,エナシ,クシハラ(キネ),岐阜県恵那市串原（木根）
5097831,岐阜県,恵那市,串原,ギフケン,エナシ,クシハラ,岐阜県恵那市串原
5098231,岐阜県,恵那市,中野方町,ギフケン,エナシ,ナカノホウチョウ,岐阜県恵那市中野方町
5098232,岐阜県,恵那市,飯地町,ギフケン,エナシ,イイジチョウ,岐阜県恵那市飯地町
5098301,岐阜県,中津川市,蛭川,ギフケン,ナカツガワシ,ヒルカワ,岐阜県中津川市蛭川
5099131,岐阜県,中津川市,千旦林,ギフケン,ナカツガワシ,センダンバヤシ,岐阜県中津川市千旦林
5099132,岐阜県,中津川市,茄子川,ギフケン,ナカツガワシ,ナスビガワ,岐阜県中津川市茄子川
5099201,岐阜県,中津川市,川上,ギフケン,ナカツガワシ,カワウエ,岐阜県中津川市川上
5099231,岐阜県,中津川市,上野,ギフケン,ナカツガワシ,ウエノ,岐阜県中津川市上野
5099232,岐阜県,中津川市,坂下,ギフケン,ナカツガワシ,サカシタ,岐阜県中津川市坂下
