zipcode,prefecture_name,city,town,prefecture_kana,city_kana,town_kana,normalized_address
4100000,静岡県,沼津市,,シズオカケン,ヌマヅシ,,静岡県沼津市
4100001,静岡県,沼津市,足高,シズオカケン,ヌマヅシ,アシタカ,静岡県沼津市足高
4100002,静岡県,沼津市,東沢田,シズオカケン,ヌマヅシ,ヒガシサワダ,静岡県沼津市東沢田
4100003,静岡県,沼津市,新沢田町,シズオカケン,ヌマヅシ,シンサワダチョウ,静岡県沼津市新沢田町
4100004,静岡県,沼津市,本田町,シズオカケン,ヌマヅシ,ホンタマチ,静岡県沼津市本田町
4100005,静岡県,沼津市,双葉町,シズオカケン,ヌマヅシ,フタバチョウ,静岡県沼津市双葉町
4100006,静岡県,沼津市,中沢田,シズオカケン,ヌマヅシ,ナカサワダ,静岡県沼津市中沢田
4100007,静岡県,沼津市,西沢田,シズオカケン,ヌマヅシ,ニシサワダ,静岡県沼津市西沢田
4100011,静岡県,沼津市,岡宮,シズオカケン,ヌマヅシ,オカノミヤ,静岡県沼津市岡宮
4100012,静岡県,沼津市,岡一色,シズオカケン,ヌマヅシ,オカイッシキ,静岡県沼津市岡一色
4100013,静岡県,沼津市,東熊堂,シズオカケン,ヌマヅシ,ヒガシクマンドウ,静岡県沼津市東熊堂
4100014,静岡県,沼津市,松沢町,シズオカケン,ヌマヅシ,マツサワチョウ,静岡県沼津市松沢町
4100015,静岡県,沼津市,駿河台,シズオカケン,ヌマヅシ,スルガダイ,静岡県沼津市駿河台
4100016,静岡県,沼津市,高砂町,シズオカケン,ヌマヅシ,タカサゴチョウ,静岡県沼津市高砂町
4100017,静岡県,沼津市,高尾台,シズオカケン,ヌマヅシ,タカオダイ,静岡県沼津市高尾台
4100018,静岡県,沼津市,豊町,シズオカケン,ヌマヅシ,ユタカチョウ,静岡県沼津市豊町
4100021,静岡県,沼津市,小林台,シズオカケン,ヌマヅシ,コバヤシダイ,静岡県沼津市小林台
4100022,静岡県,沼津市,大岡,シズオカケン,ヌマヅシ,オオオカ,静岡県沼津市大岡
4100031,静岡県,沼津市,三枚橋,シズオカケン,ヌマヅシ,サンマイバシ,静岡県沼津市三枚橋
4100032,静岡県,沼津市,日の出町,シズオカケン,ヌマヅシ,ヒノデチョウ,静岡県沼津市日の出町
4100033,静岡県,沼津市,杉崎町,シズオカケン,ヌマヅシ,スギザキチョウ,静岡県沼津市杉崎町
4100034,静岡県,沼津市,富士見町,シズオカケン,ヌマヅシ,フジミチョウ,静岡県沼津市富士見町
4100035,静岡県,沼津市,山王台,シズオカケン,ヌマヅシ,サンノウダイ,静岡県沼津市山王台
4100036,静岡県,沼津市,平町,シズオカケン,ヌマヅシ,ヒラマチ,静岡県沼津市平町
4100037,静岡県,沼津市,三枚橋町,シズオカケン,ヌマヅシ,サンマイバシチョウ,静岡県沼津市三枚橋町
4100038,静岡県,沼津市,三芳町,シズオカケン,ヌマヅシ,ミヨシチョウ,静岡県沼津市三芳町
4100041,静岡県,沼津市,筒井町,シズオカケン,ヌマヅシ,ツツイチョウ,静岡県沼津市筒井町
4100042,静岡県,沼津市,神田町,シズオカケン,ヌマヅシ,カンダチョウ,静岡県沼津市神田町
4100043,静岡県,沼津市,柳町,シズオカケン,ヌマヅシ,ヤナギチョウ,静岡県沼津市柳町
4100044,静岡県,沼津市,五月町,シズオカケン,ヌマヅシ,サツキチョウ,静岡県沼津市五月町
4100045,静岡県,沼津市,泉町,シズオカケン,ヌマヅシ,イズミチョウ,静岡県沼津市泉町
4100046,静岡県,沼津市,米山町,シズオカケン,ヌマヅシ,ヨネヤマチョウ,静岡県沼津市米山町
4100047,静岡県,沼津市,庄栄町,シズオカケン,ヌマヅシ,ショウエイチョウ,静岡県沼津市庄栄町
4100048,静岡県,沼津市,新宿町,シズオカケン,ヌマヅシ,シンジュクチョウ,静岡県沼津市新宿町
4100049,静岡県,沼津市,江原町,シズオカケン,ヌマヅシ,エバラチョウ,静岡県沼津市江原町
4100051,静岡県,沼津市,西熊堂,シズオカケン,ヌマヅシ,ニシクマンドウ,静岡県沼津市西熊堂
4100052,静岡県,沼津市,沢田町,シズオカケン,ヌマヅシ,サワダチョウ,静岡県沼津市沢田町
4100053,静岡県,沼津市,寿町,シズオカケン,ヌマヅシ,コトブキチョウ,静岡県沼津市寿町
4100054,静岡県,沼津市,北高島町,シズオカケン,ヌマヅシ,キタタカシマチョウ,静岡県沼津市北高島町
4100055,静岡県,沼津市,高島本町,シズオカケン,ヌマヅシ,タカシマホンチョウ,静岡県沼津市高島本町
4100056,静岡県,沼津市,高島町,シズオカケン,ヌマヅシ,タカシマチョウ,静岡県沼津市高島町
4100057,静岡県,沼津市,高沢町,シズオカケン,ヌマヅシ,タカザワチョウ,静岡県沼津市高沢町
4100058,静岡県,沼津市,沼北町,シズオカケン,ヌマヅシ,ヌマキタチョウ,静岡県沼津市沼北町
4100059,静岡県,沼津市,若葉町,シズオカケン,ヌマヅシ,ワカバチョウ,静岡県沼津市若葉町
4100061,静岡県,沼津市,北園町,シズオカケン,ヌマヅシ,キタゾノチョウ,静岡県沼津市北園町
4100062,静岡県,沼津市,宮前町,シズオカケン,ヌマヅシ,ミヤマエチョウ,静岡県沼津市宮前町
4100063,静岡県,沼津市,緑ケ丘,シズオカケン,ヌマヅシ,ミドリガオカ,静岡県沼津市緑ケ丘
4100064,静岡県,沼津市,共栄町,シズオカケン,ヌマヅシ,キョウエイチョウ,静岡県沼津市共栄町
4100065,静岡県,沼津市,花園町,シズオカケン,ヌマヅシ,ハナゾノチョウ,静岡県沼津市花園町
4100101,静岡県,沼津市,多比,シズオカケン,ヌマヅシ,タビ,静岡県沼津市多比
4100102,静岡県,沼津市,口野,シズオカケン,ヌマヅシ,クチノ,静岡県沼津市口野
4100103,静岡県,沼津市,江浦,シズオカケン,ヌマヅシ,エノウラ,静岡県沼津市江浦
4100104,静岡県,沼津市,獅子浜,シズオカケン,ヌマヅシ,シシハマ,静岡県沼津市獅子浜
4100105,静岡県,沼津市,馬込,シズオカケン,ヌマヅシ,マゴメ,静岡県沼津市馬込
4100106,静岡県,沼津市,志下,シズオカケン,ヌマヅシ,シゲ,静岡県沼津市志下
4100221,静岡県,沼津市,内浦重寺,シズオカケン,ヌマヅシ,ウチウラシゲデラ,静岡県沼津市内浦重寺
4100222,静岡県,沼津市,内浦小海,シズオカケン,ヌマヅシ,ウチウラコウミ,静岡県沼津市内浦小海
4100223,静岡県,沼津市,内浦三津,シズオカケン,ヌマヅシ,ウチウラミト,静岡県沼津市内浦三津
4100224,静岡県,沼津市,内浦長浜,シズオカケン,ヌマヅシ,ウチウラナガハマ,静岡県沼津市内浦長浜
4100225,静岡県,沼津市,内浦重須,シズオカケン,ヌマヅシ,ウチウラオモス,静岡県沼津市内浦重須
4100231,静岡県,沼津市,西浦木負,シズオカケン,ヌマヅシ,ニシウラキショウ,静岡県沼津市西浦木負
4100232,静岡県,沼津市,西浦河内,シズオカケン,ヌマヅシ,ニシウラコウチ,静岡県沼津市西浦河内
4100233,静岡県,沼津市,西浦久連,シズオカケン,ヌマヅシ,ニシウラクヅラ,静岡県沼津市西浦久連
4100234,静岡県,沼津市,西浦平沢,シズオカケン,ヌマヅシ,ニシウラヒラサワ,静岡県沼津市西浦平沢
4100235,静岡県,沼津市,西浦立保,シズオカケン,ヌマヅシ,ニシウラタチボ,静岡県沼津市西浦立保
4100241,静岡県,沼津市,西浦古宇,シズオカケン,ヌマヅシ,ニシウラコウ,静岡県沼津市西浦古宇
4100242,静岡県,沼津市,西浦足保,シズオカケン,ヌマヅシ,ニシウラアシボ,静岡県沼津市西浦足保
4100243,静岡県,沼津市,西浦久料,シズオカケン,ヌマヅシ,ニシウラクリョウ,静岡県沼津市西浦久料
4100244,静岡県,沼津市,西浦大瀬,シズオカケン,ヌマヅシ,ニシウラオオセ,静岡県沼津市西浦大瀬
4100244,静岡県,沼津市,西浦江梨,シズオカケン,ヌマヅシ,ニシウラエナシ,静岡県沼津市西浦江梨
4100301,静岡県,沼津市,宮本,シズオカケン,ヌマヅシ,ミヤモト,静岡県沼津市宮本
4100302,静岡県,沼津市,東椎路,シズオカケン,ヌマヅシ,ヒガシシイジ,静岡県沼津市東椎路
4100303,静岡県,沼津市,西椎路,シズオカケン,ヌマヅシ,ニシシイジ,静岡県沼津市西椎路
4100304,静岡県,沼津市,東原,シズオカケン,ヌマヅシ,ヒガシバラ,静岡県沼津市東原
4100305,静岡県,沼津市,鳥谷,シズオカケン,ヌマヅシ,トヤ,静岡県沼津市鳥谷
4100306,静岡県,沼津市,大塚,シズオカケン,ヌマヅシ,オオツカ,静岡県沼津市大塚
4100307,静岡県,沼津市,青野,シズオカケン,ヌマヅシ,オオノ,静岡県沼津市青野
4100308,静岡県,沼津市,柳沢,シズオカケン,ヌマヅシ,ヤナギサワ,静岡県沼津市柳沢
4100309,静岡県,沼津市,根古屋,シズオカケン,ヌマヅシ,ネゴヤ,静岡県沼津市根古屋
4100311,静岡県,沼津市,原町中,シズオカケン,ヌマヅシ,ハラマチナカ,静岡県沼津市原町中
4100312,静岡県,沼津市,原,シズオカケン,ヌマヅシ,ハラ,静岡県沼津市原
4100313,静岡県,沼津市,西添町,シズオカケン,ヌマヅシ,ニシゾエチョウ,静岡県沼津市西添町
4100314,静岡県,沼津市,一本松,シズオカケン,ヌマヅシ,イッポンマツ,静岡県沼津市一本松
4100315,静岡県,沼津市,桃里,シズオカケン,ヌマヅシ,モモザト,静岡県沼津市桃里
4100316,静岡県,沼津市,植田,シズオカケン,ヌマヅシ,ウエダ,静岡県沼津市植田
4100317,静岡県,沼津市,石川,シズオカケン,ヌマヅシ,イシカワ,静岡県沼津市石川
4100318,静岡県,沼津市,平沼,シズオカケン,ヌマヅシ,ヒラヌマ,静岡県沼津市平沼
4100319,静岡県,沼津市,井出,シズオカケン,ヌマヅシ,イデ,静岡県沼津市井出
4100321,静岡県,沼津市,西野,シズオカケン,ヌマヅシ,ニシノ,静岡県沼津市西野
4100801,静岡県,沼津市,大手町,シズオカケン,ヌマヅシ,オオテマチ,静岡県沼津市大手町
4100802,静岡県,沼津市,上土町,シズオカケン,ヌマヅシ,アゲツチチョウ,静岡県沼津市上土町
4100803,静岡県,沼津市,添地町,シズオカケン,ヌマヅシ,ソエチチョウ,静岡県沼津市添地町
4100804,静岡県,沼津市,西条町,シズオカケン,ヌマヅシ,サイジョウチョウ,静岡県沼津市西条町
4100805,静岡県,沼津市,白銀町,シズオカケン,ヌマヅシ,シロガネチョウ,静岡県沼津市白銀町
4100806,静岡県,沼津市,丸子町,シズオカケン,ヌマヅシ,マルコチョウ,静岡県沼津市丸子町
4100807,静岡県,沼津市,錦町,シズオカケン,ヌマヅシ,ニシキチョウ,静岡県沼津市錦町
4100811,静岡県,沼津市,中瀬町,シズオカケン,ヌマヅシ,ナカセチョウ,静岡県沼津市中瀬町
4100812,静岡県,沼津市,山ケ下町,シズオカケン,ヌマヅシ,ヤマガシタチョウ,静岡県沼津市山ケ下町
4100813,静岡県,沼津市,上香貫,シズオカケン,ヌマヅシ,カミカヌキ,静岡県沼津市上香貫
4100814,静岡県,沼津市,玉江町,シズオカケン,ヌマヅシ,タマエチョウ,静岡県沼津市玉江町
4100815,静岡県,沼津市,南本郷町,シズオカケン,ヌマヅシ,ミナミホンゴウチョウ,静岡県沼津市南本郷町
4100816,静岡県,沼津市,住吉町,シズオカケン,ヌマヅシ,スミヨシチョウ,静岡県沼津市住吉町
4100817,静岡県,沼津市,本郷町,シズオカケン,ヌマヅシ,ホンゴウチョウ,静岡県沼津市本郷町
4100818,静岡県,沼津市,中原町,シズオカケン,ヌマヅシ,ナカハラチョウ,静岡県沼津市中原町
4100819,静岡県,沼津市,黒瀬町,シズオカケン,ヌマヅシ,クロセチョウ,静岡県沼津市黒瀬町
4100821,静岡県,沼津市,大平,シズオカケン,ヌマヅシ,オオヒラ,静岡県沼津市大平
4100822,静岡県,沼津市,下香貫,シズオカケン,ヌマヅシ,シモカヌキ,静岡県沼津市下香貫
4100823,静岡県,沼津市,我入道,シズオカケン,ヌマヅシ,ガニュウドウ,静岡県沼津市我入道
4100824,静岡県,沼津市,香貫が丘,シズオカケン,ヌマヅシ,カヌキガオカ,静岡県沼津市香貫が丘
4100831,静岡県,沼津市,市場町,シズオカケン,ヌマヅシ,イチバチョウ,静岡県沼津市市場町
4100832,静岡県,沼津市,御幸町,シズオカケン,ヌマヅシ,ミユキチョウ,静岡県沼津市御幸町
4100833,静岡県,沼津市,三園町,シズオカケン,ヌマヅシ,ミソノチョウ,静岡県沼津市三園町
4100834,静岡県,沼津市,槇島町,シズオカケン,ヌマヅシ,マキジマチョウ,静岡県沼津市槇島町
4100835,静岡県,沼津市,西島町,シズオカケン,ヌマヅシ,ニシジマチョウ,静岡県沼津市西島町
4100836,静岡県,沼津市,吉田町,シズオカケン,ヌマヅシ,ヨシダチョウ,静岡県沼津市吉田町
4100841,静岡県,沼津市,下河原町,シズオカケン,ヌマヅシ,シモガワラチョウ,静岡県沼津市下河原町
4100842,静岡県,沼津市,蛇松町,シズオカケン,ヌマヅシ,ジャマツチョウ,静岡県沼津市蛇松町
4100843,静岡県,沼津市,蓼原町,シズオカケン,ヌマヅシ,タデハラチョウ,静岡県沼津市蓼原町
4100844,静岡県,沼津市,春日町,シズオカケン,ヌマヅシ,カスガチョウ,静岡県沼津市春日町
4100845,静岡県,沼津市,千本港町,シズオカケン,ヌマヅシ,センボンミナトチョウ,静岡県沼津市千本港町
4100846,静岡県,沼津市,千本東町,シズオカケン,ヌマヅシ,センボンヒガシチョウ,静岡県沼津市千本東町
4100847,静岡県,沼津市,千本中町,シズオカケン,ヌマヅシ,センボンナカチョウ,静岡県沼津市千本中町
4100848,静岡県,沼津市,千本西町,シズオカケン,ヌマヅシ,センボンニシチョウ,静岡県沼津市千本西町
4100849,静岡県,沼津市,千本郷林,シズオカケン,ヌマヅシ,センボンゴウリン,静岡県沼津市千本郷林
4100851,静岡県,沼津市,宮町,シズオカケン,ヌマヅシ,ミヤチョウ,静岡県沼津市宮町
4100852,静岡県,沼津市,旭町,シズオカケン,ヌマヅシ,アサヒチョウ,静岡県沼津市旭町
4100853,静岡県,沼津市,常盤町,シズオカケン,ヌマヅシ,トキワチョウ,静岡県沼津市常盤町
4100854,静岡県,沼津市,千本常盤町,シズオカケン,ヌマヅシ,センボントキワチョウ,静岡県沼津市千本常盤町
4100855,静岡県,沼津市,千本緑町,シズオカケン,ヌマヅシ,センボンミドリチョウ,静岡県沼津市千本緑町
4100861,静岡県,沼津市,真砂町,シズオカケン,ヌマヅシ,マサゴチョウ,静岡県沼津市真砂町
4100862,静岡県,沼津市,幸町,シズオカケン,ヌマヅシ,サイワイチョウ,静岡県沼津市幸町
4100863,静岡県,沼津市,下一丁田,シズオカケン,ヌマヅシ,シモイッチョウダ,静岡県沼津市下一丁田
4100864,静岡県,沼津市,松下,シズオカケン,ヌマヅシ,マツシタ,静岡県沼津市松下
4100865,静岡県,沼津市,東間門,シズオカケン,ヌマヅシ,ヒガシマカド,静岡県沼津市東間門
4100866,静岡県,沼津市,市道,シズオカケン,ヌマヅシ,イチミチ,静岡県沼津市市道
4100867,静岡県,沼津市,下中溝,シズオカケン,ヌマヅシ,シモナカミゾ,静岡県沼津市下中溝
4100867,静岡県,沼津市,出口町,シズオカケン,ヌマヅシ,デグチチョウ,静岡県沼津市出口町
4100867,静岡県,沼津市,前田,シズオカケン,ヌマヅシ,マエダ,静岡県沼津市前田
4100867,静岡県,沼津市,千本,シズオカケン,ヌマヅシ,センボン,静岡県沼津市千本
4100867,静岡県,沼津市,本,シズオカケン,ヌマヅシ,ホン,静岡県沼津市本
4100867,静岡県,沼津市,松下七反田,シズオカケン,ヌマヅシ,マツシタヒチタンダ,静岡県沼津市松下七反田
4100867,静岡県,沼津市,西松下,シズオカケン,ヌマヅシ,ニシマツシタ,静岡県沼津市西松下
4100868,静岡県,沼津市,下小路町,シズオカケン,ヌマヅシ,シタコウジチョウ,静岡県沼津市下小路町
4100871,静岡県,沼津市,西間門,シズオカケン,ヌマヅシ,ニシマカド,静岡県沼津市西間門
4100872,静岡県,沼津市,小諏訪,シズオカケン,ヌマヅシ,コズワ,静岡県沼津市小諏訪
4100873,静岡県,沼津市,大諏訪,シズオカケン,ヌマヅシ,オオズワ,静岡県沼津市大諏訪
4100874,静岡県,沼津市,松長,シズオカケン,ヌマヅシ,マツナガ,静岡県沼津市松長
4100875,静岡県,沼津市,今沢,シズオカケン,ヌマヅシ,イマザワ,静岡県沼津市今沢
4100876,静岡県,沼津市,北今沢,シズオカケン,ヌマヅシ,キタイマザワ,静岡県沼津市北今沢
4100881,静岡県,沼津市,八幡町,シズオカケン,ヌマヅシ,ハチマンチョウ,静岡県沼津市八幡町
4100882,静岡県,沼津市,町方町,シズオカケン,ヌマヅシ,マチカタマチ,静岡県沼津市町方町
4100883,静岡県,沼津市,大門町,シズオカケン,ヌマヅシ,ダイモンチョウ,静岡県沼津市大門町
4100884,静岡県,沼津市,本町,シズオカケン,ヌマヅシ,ホンチョウ,静岡県沼津市本町
4100885,静岡県,沼津市,下本町,シズオカケン,ヌマヅシ,シモホンチョウ,静岡県沼津市下本町
4100886,静岡県,沼津市,浅間町,シズオカケン,ヌマヅシ,センゲンチョウ,静岡県沼津市浅間町
4100887,静岡県,沼津市,東宮後町,シズオカケン,ヌマヅシ,ヒガシミヤウシロチョウ,静岡県沼津市東宮後町
4100888,静岡県,沼津市,末広町,シズオカケン,ヌマヅシ,スエヒロチョウ,静岡県沼津市末広町
4100891,静岡県,沼津市,通横町,シズオカケン,ヌマヅシ,トオリヨコチョウ,静岡県沼津市通横町
4100892,静岡県,沼津市,魚町,シズオカケン,ヌマヅシ,ウオチョウ,静岡県沼津市魚町
4100893,静岡県,沼津市,くまだか町,シズオカケン,ヌマヅシ,クマダカチョウ,静岡県沼津市くまだか町
4100894,静岡県,沼津市,仲町,シズオカケン,ヌマヅシ,ナカチョウ,静岡県沼津市仲町
4100895,静岡県,沼津市,新町,シズオカケン,ヌマヅシ,シンチョウ,静岡県沼津市新町
4101100,静岡県,裾野市,,シズオカケン,スソノシ,,静岡県裾野市
4101101,静岡県,裾野市,岩波,シズオカケン,スソノシ,イワナミ,静岡県裾野市岩波
4101102,静岡県,裾野市,深良,シズオカケン,スソノシ,フカラ,静岡県裾野市深良
4101103,静岡県,裾野市,葛山,シズオカケン,スソノシ,カズラヤマ,静岡県裾野市葛山
4101104,静岡県,裾野市,今里,シズオカケン,スソノシ,イマザト,静岡県裾野市今里
4101105,静岡県,裾野市,下和田,シズオカケン,スソノシ,シモワダ,静岡県裾野市下和田
4101106,静岡県,裾野市,金沢,シズオカケン,スソノシ,カネザワ,静岡県裾野市金沢
4101107,静岡県,裾野市,御宿,シズオカケン,スソノシ,ミシュク,静岡県裾野市御宿
4101108,静岡県,裾野市,上ケ田,シズオカケン,スソノシ,アゲタ,静岡県裾野市上ケ田
4101109,静岡県,裾野市,呼子,シズオカケン,スソノシ,ヨビコ,静岡県裾野市呼子
4101111,静岡県,裾野市,久根,シズオカケン,スソノシ,クネ,静岡県裾野市久根
4101112,静岡県,裾野市,公文名,シズオカケン,スソノシ,クモミョウ,静岡県裾野市公文名
4101113,静岡県,裾野市,稲荷,シズオカケン,スソノシ,イナリ,静岡県裾野市稲荷
4101114,静岡県,裾野市,大畑,シズオカケン,スソノシ,オオハタ,静岡県裾野市大畑
4101115,静岡県,裾野市,千福が丘,シズオカケン,スソノシ,センプクガオカ,静岡県裾野市千福が丘
4101116,静岡県,裾野市,千福,シズオカケン,スソノシ,センプク,静岡県裾野市千福
4101117,静岡県,裾野市,石脇,シズオカケン,スソノシ,イシワキ,静岡県裾野市石脇
4101118,静岡県,裾野市,佐野,シズオカケン,スソノシ,サノ,静岡県裾野市佐野
4101121,静岡県,裾野市,茶畑,シズオカケン,スソノシ,チャバタケ,静岡県裾野市茶畑
4101122,静岡県,裾野市,麦塚,シズオカケン,スソノシ,ムギツカ,静岡県裾野市麦塚
4101123,静岡県,裾野市,伊豆島田,シズオカケン,スソノシ,イズシマタ,静岡県裾野市伊豆島田
4101124,静岡県,裾野市,水窪,シズオカケン,スソノシ,ミズクボ,静岡県裾野市水窪
4101125,静岡県,裾野市,富沢,シズオカケン,スソノシ,トミザワ,静岡県裾野市富沢
4101126,静岡県,裾野市,桃園,シズオカケン,スソノシ,モモゾノ,静岡県裾野市桃園
4101127,静岡県,裾野市,平松,シズオカケン,スソノシ,ヒラマツ,静岡県裾野市平松
4101128,静岡県,裾野市,二ツ屋,シズオカケン,スソノシ,フタツヤ,静岡県裾野市二ツ屋
4101231,静岡県,裾野市,須山,シズオカケン,スソノシ,スヤマ,静岡県裾野市須山
4101300,静岡県,駿東郡小山町,,シズオカケン,スントウグンオヤマチョウ,,静岡県駿東郡小山町
4101301,静岡県,駿東郡小山町,柳島,シズオカケン,スントウグンオヤマチョウ,ヤナギシマ,静岡県駿東郡小山町柳島
4101302,静岡県,駿東郡小山町,中島,シズオカケン,スントウグンオヤマチョウ,ナカジマ,静岡県駿東郡小山町中島
4101303,静岡県,駿東郡小山町,生土,シズオカケン,スントウグンオヤマチョウ,イキド,静岡県駿東郡小山町生土
4101304,静岡県,駿東郡小山町,藤曲,シズオカケン,スントウグンオヤマチョウ,フジマガリ,静岡県駿東郡小山町藤曲
4101305,静岡県,駿東郡小山町,湯船,シズオカケン,スントウグンオヤマチョウ,ユブネ,静岡県駿東郡小山町湯船
4101306,静岡県,駿東郡小山町,上野,シズオカケン,スントウグンオヤマチョウ,ウエノ,静岡県駿東郡小山町上野
4101307,静岡県,駿東郡小山町,中日向,シズオカケン,スントウグンオヤマチョウ,ナカヒナタ,静岡県駿東郡小山町中日向
4101308,静岡県,駿東郡小山町,大御神,シズオカケン,スントウグンオヤマチョウ,オオミカ,静岡県駿東郡小山町大御神
4101311,静岡県,駿東郡小山町,小山,シズオカケン,スントウグンオヤマチョウ,オヤマ,静岡県駿東郡小山町小山
4101312,静岡県,駿東郡小山町,菅沼,シズオカケン,スントウグンオヤマチョウ,スガヌマ,静岡県駿東郡小山町菅沼
4101313,静岡県,駿東郡小山町,竹之下,シズオカケン,スントウグンオヤマチョウ,タケノシタ,静岡県駿東郡小山町竹之下
4101314,静岡県,駿東郡小山町,新柴,シズオカケン,スントウグンオヤマチョウ,アラシバ,静岡県駿東郡小山町新柴
4101315,静岡県,駿東郡小山町,桑木,シズオカケン,スントウグンオヤマチョウ,クワギ,静岡県駿東郡小山町桑木
4101316,静岡県,駿東郡小山町,下古城,シズオカケン,スントウグンオヤマチョウ,シモフルシロ,静岡県駿東郡小山町下古城
4101317,静岡県,駿東郡小山町,大胡田,シズオカケン,スントウグンオヤマチョウ,オオゴダ,静岡県駿東郡小山町大胡田
4101321,静岡県,駿東郡小山町,阿多野,シズオカケン,スントウグンオヤマチョウ,アダノ,静岡県駿東郡小山町阿多野
4101322,静岡県,駿東郡小山町,吉久保,シズオカケン,スントウグンオヤマチョウ,ヨシクボ,静岡県駿東郡小山町吉久保
4101323,静岡県,駿東郡小山町,上古城,シズオカケン,スントウグンオヤマチョウ,カミフルシロ,静岡県駿東郡小山町上古城
4101324,静岡県,駿東郡小山町,下小林,シズオカケン,スントウグンオヤマチョウ,シモコバヤシ,静岡県駿東郡小山町下小林
4101325,静岡県,駿東郡小山町,一色,シズオカケン,スントウグンオヤマチョウ,イシキ,静岡県駿東郡小山町一色
4101326,静岡県,駿東郡小山町,用沢,シズオカケン,スントウグンオヤマチョウ,ヨウサワ,静岡県駿東郡小山町用沢
4101327,静岡県,駿東郡小山町,棚頭,シズオカケン,スントウグンオヤマチョウ,タナガシラ,静岡県駿東郡小山町棚頭
4101431,静岡県,駿東郡小山町,須走,シズオカケン,スントウグンオヤマチョウ,スバシリ,静岡県駿東郡小山町須走
4101432,静岡県,駿東郡小山町,自衛隊富士学校,シズオカケン,スントウグンオヤマチョウ,ジエイタイフジガッコウ,静岡県駿東郡小山町自衛隊富士学校
4102101,静岡県,伊豆の国市,小松ケ原,シズオカケン,イズノクニシ,コマツガハラ,静岡県伊豆の国市小松ケ原
4102102,静岡県,伊豆の国市,富士見ニュータウン,シズオカケン,イズノクニシ,フジミニュータウン,静岡県伊豆の国市富士見ニュータウン
4102103,静岡県,伊豆の国市,エメラルドタウン,シズオカケン,イズノクニシ,エメラルドタウン,静岡県伊豆の国市エメラルドタウン
4102111,静岡県,伊豆の国市,立花台,シズオカケン,イズノクニシ,タチバナダイ,静岡県伊豆の国市立花台
4102112,静岡県,伊豆の国市,内中,シズオカケン,イズノクニシ,ウチナカ,静岡県伊豆の国市内中
4102113,静岡県,伊豆の国市,中,シズオカケン,イズノクニシ,ナカ,静岡県伊豆の国市中
4102114,静岡県,伊豆の国市,南條,シズオカケン,イズノクニシ,ナンジョウ,静岡県伊豆の国市南條
4102121,静岡県,伊豆の国市,中條,シズオカケン,イズノクニシ,チュウジョウ,静岡県伊豆の国市中條
4102122,静岡県,伊豆の国市,寺家,シズオカケン,イズノクニシ,ジケ,静岡県伊豆の国市寺家
4102123,静岡県,伊豆の国市,四日町,シズオカケン,イズノクニシ,ヨッカマチ,静岡県伊豆の国市四日町
4102124,静岡県,伊豆の国市,原木,シズオカケン,イズノクニシ,バラキ,静岡県伊豆の国市原木
4102131,静岡県,伊豆の国市,長崎,シズオカケン,イズノクニシ,ナガサキ,静岡県伊豆の国市長崎
4102132,静岡県,伊豆の国市,奈古谷,シズオカケン,イズノクニシ,ナゴヤ,静岡県伊豆の国市奈古谷
4102133,静岡県,伊豆の国市,韮山多田,シズオカケン,イズノクニシ,ニラヤマタダ,静岡県伊豆の国市韮山多田
4102141,静岡県,伊豆の国市,韮山山木,シズオカケン,イズノクニシ,ニラヤマヤマキ,静岡県伊豆の国市韮山山木
4102142,静岡県,伊豆の国市,韮山金谷,シズオカケン,イズノクニシ,ニラヤマカナヤ,静岡県伊豆の国市韮山金谷
4102143,静岡県,伊豆の国市,韮山韮山,シズオカケン,イズノクニシ,ニラヤマニラヤマ,静岡県伊豆の国市韮山韮山
4102144,静岡県,伊豆の国市,韮山土手和田,シズオカケン,イズノクニシ,ニラヤマドテワダ,静岡県伊豆の国市韮山土手和田
4102200,静岡県,伊豆の国市,,シズオカケン,イズノクニシ,,静岡県伊豆の国市
4102201,静岡県,伊豆の国市,古奈,シズオカケン,イズノクニシ,コナ,静岡県伊豆の国市古奈
4102202,静岡県,伊豆の国市,天野,シズオカケン,イズノクニシ,アマノ,静岡県伊豆の国市天野
4102203,静岡県,伊豆の国市,小坂,シズオカケン,イズノクニシ,オサカ,静岡県伊豆の国市小坂
4102204,静岡県,伊豆の国市,墹之上,シズオカケン,イズノクニシ,ママノウエ,静岡県伊豆の国市墹之上
4102205,静岡県,伊豆の国市,富士見,シズオカケン,イズノクニシ,フジミ,静岡県伊豆の国市富士見
4102211,静岡県,伊豆の国市,長岡,シズオカケン,イズノクニシ,ナガオカ,静岡県伊豆の国市長岡
4102212,静岡県,伊豆の国市,長瀬,シズオカケン,イズノクニシ,ナガセ,静岡県伊豆の国市長瀬
4102213,静岡県,伊豆の国市,戸沢,シズオカケン,イズノクニシ,トサワ,静岡県伊豆の国市戸沢
4102214,静岡県,伊豆の国市,花坂,シズオカケン,イズノクニシ,ハナサカ,静岡県伊豆の国市花坂
4102221,静岡県,伊豆の国市,南江間,シズオカケン,イズノクニシ,ミナミエマ,静岡県伊豆の国市南江間
4102223,静岡県,伊豆の国市,北江間,シズオカケン,イズノクニシ,キタエマ,静岡県伊豆の国市北江間
4102301,静岡県,伊豆の国市,田中山,シズオカケン,イズノクニシ,タナカヤマ,静岡県伊豆の国市田中山
4102302,静岡県,伊豆の国市,宗光寺,シズオカケン,イズノクニシ,ソウコウジ,静岡県伊豆の国市宗光寺
4102303,静岡県,伊豆の国市,立花,シズオカケン,イズノクニシ,タチバナ,静岡県伊豆の国市立花
4102304,静岡県,伊豆の国市,宗光寺（星和）,シズオカケン,イズノクニシ,ソウコウジ(セイワ),静岡県伊豆の国市宗光寺（星和）
4102311,静岡県,伊豆の国市,浮橋,シズオカケン,イズノクニシ,ウキハシ,静岡県伊豆の国市浮橋
4102312,静岡県,伊豆の国市,長者原,シズオカケン,イズノクニシ,チョウジャガハラ,静岡県伊豆の国市長者原
4102313,静岡県,伊豆の国市,田原野,シズオカケン,イズノクニシ,タワラノ,静岡県伊豆の国市田原野
4102314,静岡県,伊豆の国市,下畑,シズオカケン,イズノクニシ,シモハタ,静岡県伊豆の国市下畑
4102315,静岡県,伊豆の国市,田京,シズオカケン,イズノクニシ,タキョウ,静岡県伊豆の国市田京
4102316,静岡県,伊豆の国市,御門,シズオカケン,イズノクニシ,ミカド,静岡県伊豆の国市御門
4102317,静岡県,伊豆の国市,守木,シズオカケン,イズノクニシ,モリキ,静岡県伊豆の国市守木
4102318,静岡県,伊豆の国市,白山堂,シズオカケン,イズノクニシ,シラヤマドウ,静岡県伊豆の国市白山堂
4102321,静岡県,伊豆の国市,三福,シズオカケン,イズノクニシ,ミフク,静岡県伊豆の国市三福
4102322,静岡県,伊豆の国市,吉田,シズオカケン,イズノクニシ,ヨシダ,静岡県伊豆の国市吉田
4102323,静岡県,伊豆の国市,大仁,シズオカケン,イズノクニシ,オオヒト,静岡県伊豆の国市大仁
4102324,静岡県,伊豆の国市,中島,シズオカケン,イズノクニシ,ナカジマ,静岡県伊豆の国市中島
4102325,静岡県,伊豆の国市,神島,シズオカケン,イズノクニシ,カミシマ,静岡県伊豆の国市神島
4102400,静岡県,伊豆市,,シズオカケン,イズシ,,静岡県伊豆市
4102401,静岡県,伊豆市,牧之郷,シズオカケン,イズシ,マキノコウ,静岡県伊豆市牧之郷
4102402,静岡県,伊豆市,大野,シズオカケン,イズシ,オオノ,静岡県伊豆市大野
4102403,静岡県,伊豆市,年川,シズオカケン,イズシ,トシガワ,静岡県伊豆市年川
4102404,静岡県,伊豆市,田代,シズオカケン,イズシ,タシロ,静岡県伊豆市田代
4102405,静岡県,伊豆市,加殿,シズオカケン,イズシ,カドノ,静岡県伊豆市加殿
4102406,静岡県,伊豆市,日向,シズオカケン,イズシ,ヒナタ,静岡県伊豆市日向
4102407,静岡県,伊豆市,柏久保,シズオカケン,イズシ,カシワクボ,静岡県伊豆市柏久保
4102411,静岡県,伊豆市,熊坂,シズオカケン,イズシ,クマサカ,静岡県伊豆市熊坂
4102412,静岡県,伊豆市,瓜生野,シズオカケン,イズシ,ウリュウノ,静岡県伊豆市瓜生野
4102413,静岡県,伊豆市,小立野,シズオカケン,イズシ,コダチノ,静岡県伊豆市小立野
4102414,静岡県,伊豆市,本立野,シズオカケン,イズシ,ホンダチノ,静岡県伊豆市本立野
4102415,静岡県,伊豆市,大平,シズオカケン,イズシ,オオダイラ,静岡県伊豆市大平
4102416,静岡県,伊豆市,修善寺,シズオカケン,イズシ,シュゼンジ,静岡県伊豆市修善寺
4102417,静岡県,伊豆市,大沢,シズオカケン,イズシ,オオサワ,静岡県伊豆市大沢
4102418,静岡県,伊豆市,堀切,シズオカケン,イズシ,ホリギリ,静岡県伊豆市堀切
4102501,静岡県,伊豆市,下白岩,シズオカケン,イズシ,シモシライワ,静岡県伊豆市下白岩
4102502,静岡県,伊豆市,上白岩,シズオカケン,イズシ,カミシライワ,静岡県伊豆市上白岩
4102503,静岡県,伊豆市,城,シズオカケン,イズシ,ジョウ,静岡県伊豆市城
4102504,静岡県,伊豆市,関野,シズオカケン,イズシ,セキノ,静岡県伊豆市関野
4102505,静岡県,伊豆市,八幡,シズオカケン,イズシ,ハツマ,静岡県伊豆市八幡
4102506,静岡県,伊豆市,徳永,シズオカケン,イズシ,トクナガ,静岡県伊豆市徳永
4102507,静岡県,伊豆市,冷川,シズオカケン,イズシ,ヒエカワ,静岡県伊豆市冷川
4102508,静岡県,伊豆市,柳瀬,シズオカケン,イズシ,ヤナセ,静岡県伊豆市柳瀬
4102509,静岡県,伊豆市,梅木,シズオカケン,イズシ,ウメギ,静岡県伊豆市梅木
4102511,静岡県,伊豆市,宮上,シズオカケン,イズシ,ミヤカミ,静岡県伊豆市宮上
4102512,静岡県,伊豆市,中原戸,シズオカケン,イズシ,ナカハラト,静岡県伊豆市中原戸
4102513,静岡県,伊豆市,菅引,シズオカケン,イズシ,スゲヒキ,静岡県伊豆市菅引
4102514,静岡県,伊豆市,原保,シズオカケン,イズシ,ワラボ,静岡県伊豆市原保
4102515,静岡県,伊豆市,地蔵堂,シズオカケン,イズシ,ジゾウドウ,静岡県伊豆市地蔵堂
4102516,静岡県,伊豆市,筏場,シズオカケン,イズシ,イカダバ,静岡県伊豆市筏場
4102517,静岡県,伊豆市,貴僧坊,シズオカケン,イズシ,キソウボウ,静岡県伊豆市貴僧坊
4102518,静岡県,伊豆市,姫之湯,シズオカケン,イズシ,ヒメノユ,静岡県伊豆市姫之湯
4102519,静岡県,伊豆市,戸倉野,シズオカケン,イズシ,トクラノ,静岡県伊豆市戸倉野
4103201,静岡県,伊豆市,佐野,シズオカケン,イズシ,サノ,静岡県伊豆市佐野
4103202,静岡県,伊豆市,雲金,シズオカケン,イズシ,クモガネ,静岡県伊豆市雲金
4103203,静岡県,伊豆市,矢熊,シズオカケン,イズシ,ヤグマ,静岡県伊豆市矢熊
4103204,静岡県,伊豆市,田沢,シズオカケン,イズシ,タザワ,静岡県伊豆市田沢
4103205,静岡県,伊豆市,市山,シズオカケン,イズシ,イチヤマ,静岡県伊豆市市山
4103206,静岡県,伊豆市,湯ケ島,シズオカケン,イズシ,ユガシマ,静岡県伊豆市湯ケ島
4103207,静岡県,伊豆市,持越,シズオカケン,イズシ,モチコシ,静岡県伊豆市持越
4103208,静岡県,伊豆市,吉奈,シズオカケン,イズシ,ヨシナ,静岡県伊豆市吉奈
4103209,静岡県,伊豆市,門野原,シズオカケン,イズシ,カドノハラ,静岡県伊豆市門野原
4103211,静岡県,伊豆市,松ケ瀬,シズオカケン,イズシ,マツガセ,静岡県伊豆市松ケ瀬
4103212,静岡県,伊豆市,本柿木,シズオカケン,イズシ,ホンカキギ,静岡県伊豆市本柿木
4103213,静岡県,伊豆市,青羽根,シズオカケン,イズシ,アオバネ,静岡県伊豆市青羽根
4103214,静岡県,伊豆市,下船原,シズオカケン,イズシ,シモフナバラ,静岡県伊豆市下船原
4103215,静岡県,伊豆市,月ケ瀬,シズオカケン,イズシ,ツキガセ,静岡県伊豆市月ケ瀬
4103216,静岡県,伊豆市,上船原,シズオカケン,イズシ,カミフナバラ,静岡県伊豆市上船原
4103217,静岡県,伊豆市,大平柿木,シズオカケン,イズシ,オオダイラカキギ,静岡県伊豆市大平柿木
4103301,静岡県,伊豆市,小土肥,シズオカケン,イズシ,オドイ,静岡県伊豆市小土肥
4103302,静岡県,伊豆市,土肥,シズオカケン,イズシ,トイ,静岡県伊豆市土肥
4103303,静岡県,伊豆市,八木沢,シズオカケン,イズシ,ヤギサワ,静岡県伊豆市八木沢
4103304,静岡県,伊豆市,小下田,シズオカケン,イズシ,コシモダ,静岡県伊豆市小下田
4103401,静岡県,沼津市,井田,シズオカケン,ヌマヅシ,イタ,静岡県沼津市井田
4103402,静岡県,沼津市,戸田,シズオカケン,ヌマヅシ,ヘダ,静岡県沼津市戸田
4103500,静岡県,賀茂郡西伊豆町,,シズオカケン,カモグンニシイズチョウ,,静岡県賀茂郡西伊豆町
4103501,静岡県,賀茂郡西伊豆町,宇久須,シズオカケン,カモグンニシイズチョウ,ウグス,静岡県賀茂郡西伊豆町宇久須
4103502,静岡県,賀茂郡西伊豆町,安良里,シズオカケン,カモグンニシイズチョウ,アラリ,静岡県賀茂郡西伊豆町安良里
4103511,静岡県,賀茂郡西伊豆町,大沢里,シズオカケン,カモグンニシイズチョウ,オオソウリ,静岡県賀茂郡西伊豆町大沢里
4103512,静岡県,賀茂郡西伊豆町,一色,シズオカケン,カモグンニシイズチョウ,イシキ,静岡県賀茂郡西伊豆町一色
4103513,静岡県,賀茂郡西伊豆町,中,シズオカケン,カモグンニシイズチョウ,ナカ,静岡県賀茂郡西伊豆町中
4103514,静岡県,賀茂郡西伊豆町,仁科,シズオカケン,カモグンニシイズチョウ,ニシナ,静岡県賀茂郡西伊豆町仁科
4103515,静岡県,賀茂郡西伊豆町,田子,シズオカケン,カモグンニシイズチョウ,タゴ,静岡県賀茂郡西伊豆町田子
4103600,静岡県,賀茂郡松崎町,,シズオカケン,カモグンマツザキチョウ,,静岡県賀茂郡松崎町
4103601,静岡県,賀茂郡松崎町,池代,シズオカケン,カモグンマツザキチョウ,イケシロ,静岡県賀茂郡松崎町池代
4103602,静岡県,賀茂郡松崎町,小杉原,シズオカケン,カモグンマツザキチョウ,コスギハラ,静岡県賀茂郡松崎町小杉原
4103603,静岡県,賀茂郡松崎町,明伏,シズオカケン,カモグンマツザキチョウ,アケブシ,静岡県賀茂郡松崎町明伏
4103604,静岡県,賀茂郡松崎町,大沢,シズオカケン,カモグンマツザキチョウ,オオサワ,静岡県賀茂郡松崎町大沢
4103605,静岡県,賀茂郡松崎町,峰輪,シズオカケン,カモグンマツザキチョウ,ミネワ,静岡県賀茂郡松崎町峰輪
4103606,静岡県,賀茂郡松崎町,船田,シズオカケン,カモグンマツザキチョウ,フナタ,静岡県賀茂郡松崎町船田
4103607,静岡県,賀茂郡松崎町,門野,シズオカケン,カモグンマツザキチョウ,カドノ,静岡県賀茂郡松崎町門野
4103611,静岡県,賀茂郡松崎町,松崎,シズオカケン,カモグンマツザキチョウ,マツザキ,静岡県賀茂郡松崎町松崎
4103612,静岡県,賀茂郡松崎町,宮内,シズオカケン,カモグンマツザキチョウ,ミヤウチ,静岡県賀茂郡松崎町宮内
4103613,静岡県,賀茂郡松崎町,岩科北側,シズオカケン,カモグンマツザキチョウ,イワシナホクソク,静岡県賀茂郡松崎町岩科北側
4103614,静岡県,賀茂郡松崎町,岩科南側,シズオカケン,カモグンマツザキチョウ,イワシナナンソク,静岡県賀茂郡松崎町岩科南側
4103615,静岡県,賀茂郡松崎町,雲見,シズオカケン,カモグンマツザキチョウ,クモミ,静岡県賀茂郡松崎町雲見
4103616,静岡県,賀茂郡松崎町,石部,シズオカケン,カモグンマツザキチョウ,イシブ,静岡県賀茂郡松崎町石部
4103617,静岡県,賀茂郡松崎町,岩地,シズオカケン,カモグンマツザキチョウ,イワチ,静岡県賀茂郡松崎町岩地
4103618,静岡県,賀茂郡松崎町,道部,シズオカケン,カモグンマツザキチョウ,ミチブ,静岡県賀茂郡松崎町道部
4103621,静岡県,賀茂郡松崎町,吉田,シズオカケン,カモグンマツザキチョウ,ヨシダ,静岡県賀茂郡松崎町吉田
4103622,静岡県,賀茂郡松崎町,南郷,シズオカケン,カモグンマツザキチョウ,ナンゴウ,静岡県賀茂郡松崎町南郷
4103623,静岡県,賀茂郡松崎町,伏倉,シズオカケン,カモグンマツザキチョウ,シクラ,静岡県賀茂郡松崎町伏倉
4103624,静岡県,賀茂郡松崎町,江奈,シズオカケン,カモグンマツザキチョウ,エナ,静岡県賀茂郡松崎町江奈
4103625,静岡県,賀茂郡松崎町,桜田,シズオカケン,カモグンマツザキチョウ,サクラダ,静岡県賀茂郡松崎町桜田
4103626,静岡県,賀茂郡松崎町,那賀,シズオカケン,カモグンマツザキチョウ,ナカ,静岡県賀茂郡松崎町那賀
4103627,静岡県,賀茂郡松崎町,建久寺,シズオカケン,カモグンマツザキチョウ,ケンキュウジ,静岡県賀茂郡松崎町建久寺
4110000,静岡県,三島市,,シズオカケン,ミシマシ,,静岡県三島市
4110000,静岡県,駿東郡清水町,,シズオカケン,スントウグンシミズチョウ,,静岡県駿東郡清水町
4110000,静岡県,駿東郡長泉町,,シズオカケン,スントウグンナガイズミチョウ,,静岡県駿東郡長泉町
4110001,静岡県,田方郡函南町,桑原（箱根峠）,シズオカケン,タガタグンカンナミチョウ,クワハラ(ハコネトウゲ),静岡県田方郡函南町桑原（箱根峠）
4110001,静岡県,田方郡函南町,桑原（茨ケ平）,シズオカケン,タガタグンカンナミチョウ,クワハラ(イバラガヒラ),静岡県田方郡函南町桑原（茨ケ平）
4110011,静岡県,三島市,山中新田,シズオカケン,ミシマシ,ヤマナカシンデン,静岡県三島市山中新田
4110012,静岡県,三島市,笹原新田,シズオカケン,ミシマシ,ササハラシンデン,静岡県三島市笹原新田
4110013,静岡県,三島市,三ツ谷新田,シズオカケン,ミシマシ,ミツヤシンデン,静岡県三島市三ツ谷新田
4110014,静岡県,三島市,玉沢,シズオカケン,ミシマシ,タマザワ,静岡県三島市玉沢
4110015,静岡県,三島市,市山新田,シズオカケン,ミシマシ,イチノヤマシンデン,静岡県三島市市山新田
4110016,静岡県,三島市,塚原新田,シズオカケン,ミシマシ,ツカハラシンデン,静岡県三島市塚原新田
4110017,静岡県,三島市,三恵台,シズオカケン,ミシマシ,サンケイダイ,静岡県三島市三恵台
4110018,静岡県,三島市,初音台,シズオカケン,ミシマシ,ハツネダイ,静岡県三島市初音台
4110019,静岡県,三島市,松が丘,シズオカケン,ミシマシ,マツガオカ,静岡県三島市松が丘
4110020,静岡県,三島市,旭ケ丘,シズオカケン,ミシマシ,アサヒガオカ,静岡県三島市旭ケ丘
4110021,静岡県,三島市,富士見台,シズオカケン,ミシマシ,フジミダイ,静岡県三島市富士見台
4110022,静岡県,三島市,川原ケ谷,シズオカケン,ミシマシ,カワハラガヤ,静岡県三島市川原ケ谷
4110023,静岡県,三島市,加茂,シズオカケン,ミシマシ,カモ,静岡県三島市加茂
4110024,静岡県,三島市,若松町,シズオカケン,ミシマシ,ワカマツチョウ,静岡県三島市若松町
4110025,静岡県,三島市,壱町田,シズオカケン,ミシマシ,イッチョウダ,静岡県三島市壱町田
4110026,静岡県,三島市,東壱町田,シズオカケン,ミシマシ,ヒガシイッチョウダ,静岡県三島市東壱町田
4110027,静岡県,三島市,千枚原,シズオカケン,ミシマシ,センマイバラ,静岡県三島市千枚原
4110028,静岡県,三島市,富士ビレッジ,シズオカケン,ミシマシ,フジビレッジ,静岡県三島市富士ビレッジ
4110029,静岡県,三島市,光ケ丘,シズオカケン,ミシマシ,ヒカリガオカ,静岡県三島市光ケ丘
4110030,静岡県,三島市,西旭ケ丘町,シズオカケン,ミシマシ,ニシアサヒガオカチョウ,静岡県三島市西旭ケ丘町
4110031,静岡県,三島市,幸原町,シズオカケン,ミシマシ,コウバラチョウ,静岡県三島市幸原町
4110032,静岡県,三島市,末広町,シズオカケン,ミシマシ,スエヒロチョウ,静岡県三島市末広町
4110033,静岡県,三島市,文教町,シズオカケン,ミシマシ,ブンキョウチョウ,静岡県三島市文教町
4110034,静岡県,三島市,加茂川町,シズオカケン,ミシマシ,カモガワチョウ,静岡県三島市加茂川町
4110035,静岡県,三島市,大宮町,シズオカケン,ミシマシ,オオミヤチョウ,静岡県三島市大宮町
4110036,静岡県,三島市,一番町,シズオカケン,ミシマシ,イチバンチョウ,静岡県三島市一番町
4110037,静岡県,三島市,泉町,シズオカケン,ミシマシ,イズミチョウ,静岡県三島市泉町
4110038,静岡県,三島市,西若町,シズオカケン,ミシマシ,ニシワカチョウ,静岡県三島市西若町
4110039,静岡県,三島市,寿町,シズオカケン,ミシマシ,コトブキチョウ,静岡県三島市寿町
4110041,静岡県,三島市,佐野見晴台,シズオカケン,ミシマシ,サノミハラシダイ,静岡県三島市佐野見晴台
4110042,静岡県,三島市,平成台,シズオカケン,ミシマシ,ヘイセイダイ,静岡県三島市平成台
4110043,静岡県,三島市,沢地,シズオカケン,ミシマシ,サワジ,静岡県三島市沢地
4110044,静岡県,三島市,徳倉,シズオカケン,ミシマシ,トクラ,静岡県三島市徳倉
4110045,静岡県,三島市,萩,シズオカケン,ミシマシ,ハギ,静岡県三島市萩
4110046,静岡県,三島市,芙蓉台,シズオカケン,ミシマシ,フヨウダイ,静岡県三島市芙蓉台
4110047,静岡県,三島市,佐野,シズオカケン,ミシマシ,サノ,静岡県三島市佐野
4110801,静岡県,三島市,谷田,シズオカケン,ミシマシ,ヤタ,静岡県三島市谷田
4110802,静岡県,三島市,東大場,シズオカケン,ミシマシ,ヒガシダイバ,静岡県三島市東大場
4110803,静岡県,三島市,大場,シズオカケン,ミシマシ,ダイバ,静岡県三島市大場
4110804,静岡県,三島市,多呂,シズオカケン,ミシマシ,タロ,静岡県三島市多呂
4110805,静岡県,三島市,北沢,シズオカケン,ミシマシ,キタザワ,静岡県三島市北沢
4110806,静岡県,三島市,柳郷地,シズオカケン,ミシマシ,ヤナギゴウチ,静岡県三島市柳郷地
4110807,静岡県,三島市,竹倉,シズオカケン,ミシマシ,タケクラ,静岡県三島市竹倉
4110808,静岡県,三島市,錦が丘,シズオカケン,ミシマシ,ニシキガオカ,静岡県三島市錦が丘
4110811,静岡県,三島市,青木,シズオカケン,ミシマシ,アオキ,静岡県三島市青木
4110812,静岡県,三島市,藤代町,シズオカケン,ミシマシ,フジシロチョウ,静岡県三島市藤代町
4110813,静岡県,三島市,鶴喰,シズオカケン,ミシマシ,ツルハミ,静岡県三島市鶴喰
4110814,静岡県,三島市,中島,シズオカケン,ミシマシ,ナカジマ,静岡県三島市中島
4110815,静岡県,三島市,安久,シズオカケン,ミシマシ,ヤスヒサ,静岡県三島市安久
4110816,静岡県,三島市,梅名,シズオカケン,ミシマシ,ウメナ,静岡県三島市梅名
4110817,静岡県,三島市,八反畑,シズオカケン,ミシマシ,ハッタバタ,静岡県三島市八反畑
4110821,静岡県,三島市,平田,シズオカケン,ミシマシ,ヒラタ,静岡県三島市平田
4110822,静岡県,三島市,松本,シズオカケン,ミシマシ,マツモト,静岡県三島市松本
4110823,静岡県,三島市,御園,シズオカケン,ミシマシ,ミソノ,静岡県三島市御園
4110824,静岡県,三島市,長伏,シズオカケン,ミシマシ,ナガブセ,静岡県三島市長伏
4110831,静岡県,三島市,東本町,シズオカケン,ミシマシ,ヒガシホンチョウ,静岡県三島市東本町
4110832,静岡県,三島市,南二日町,シズオカケン,ミシマシ,ミナミフツカマチ,静岡県三島市南二日町
4110833,静岡県,三島市,中,シズオカケン,ミシマシ,ナカ,静岡県三島市中
4110834,静岡県,三島市,新谷,シズオカケン,ミシマシ,アラヤ,静岡県三島市新谷
4110835,静岡県,三島市,玉川,シズオカケン,ミシマシ,タマガワ,静岡県三島市玉川
4110836,静岡県,三島市,富田町,シズオカケン,ミシマシ,トミタマチ,静岡県三島市富田町
4110837,静岡県,三島市,南田町,シズオカケン,ミシマシ,ミナミタマチ,静岡県三島市南田町
4110838,静岡県,三島市,中田町,シズオカケン,ミシマシ,ナカタマチ,静岡県三島市中田町
4110841,静岡県,三島市,南本町,シズオカケン,ミシマシ,ミナミホンチョウ,静岡県三島市南本町
4110842,静岡県,三島市,南町,シズオカケン,ミシマシ,ミナミチョウ,静岡県三島市南町
4110843,静岡県,三島市,三好町,シズオカケン,ミシマシ,ミヨシチョウ,静岡県三島市三好町
4110844,静岡県,三島市,清住町,シズオカケン,ミシマシ,キヨズミチョウ,静岡県三島市清住町
4110845,静岡県,三島市,加屋町,シズオカケン,ミシマシ,カヤマチ,静岡県三島市加屋町
4110846,静岡県,三島市,栄町,シズオカケン,ミシマシ,サカエチョウ,静岡県三島市栄町
4110847,静岡県,三島市,西本町,シズオカケン,ミシマシ,ニシホンチョウ,静岡県三島市西本町
4110848,静岡県,三島市,緑町,シズオカケン,ミシマシ,ミドリチョウ,静岡県三島市緑町
4110851,静岡県,三島市,日の出町,シズオカケン,ミシマシ,ヒノデチョウ,静岡県三島市日の出町
4110852,静岡県,三島市,東町,シズオカケン,ミシマシ,ヒガシチョウ,静岡県三島市東町
4110853,静岡県,三島市,大社町,シズオカケン,ミシマシ,タイシャチョウ,静岡県三島市大社町
4110854,静岡県,三島市,北田町,シズオカケン,ミシマシ,キタタマチ,静岡県三島市北田町
4110855,静岡県,三島市,本町,シズオカケン,ミシマシ,ホンチョウ,静岡県三島市本町
4110856,静岡県,三島市,広小路町,シズオカケン,ミシマシ,ヒロコウジチョウ,静岡県三島市広小路町
4110857,静岡県,三島市,芝本町,シズオカケン,ミシマシ,シバホンチョウ,静岡県三島市芝本町
4110858,静岡県,三島市,中央町,シズオカケン,ミシマシ,チュウオウチョウ,静岡県三島市中央町
4110901,静岡県,駿東郡清水町,新宿,シズオカケン,スントウグンシミズチョウ,シンシュク,静岡県駿東郡清水町新宿
4110902,静岡県,駿東郡清水町,玉川,シズオカケン,スントウグンシミズチョウ,タマガワ,静岡県駿東郡清水町玉川
4110903,静岡県,駿東郡清水町,堂庭,シズオカケン,スントウグンシミズチョウ,ドウニワ,静岡県駿東郡清水町堂庭
4110904,静岡県,駿東郡清水町,柿田,シズオカケン,スントウグンシミズチョウ,カキダ,静岡県駿東郡清水町柿田
4110905,静岡県,駿東郡清水町,長沢,シズオカケン,スントウグンシミズチョウ,ナガサワ,静岡県駿東郡清水町長沢
4110906,静岡県,駿東郡清水町,八幡,シズオカケン,スントウグンシミズチョウ,ヤハタ,静岡県駿東郡清水町八幡
4110907,静岡県,駿東郡清水町,伏見,シズオカケン,スントウグンシミズチョウ,フシミ,静岡県駿東郡清水町伏見
4110911,静岡県,駿東郡清水町,久米田,シズオカケン,スントウグンシミズチョウ,クマイデン,静岡県駿東郡清水町久米田
4110912,静岡県,駿東郡清水町,卸団地,シズオカケン,スントウグンシミズチョウ,オロシダンチ,静岡県駿東郡清水町卸団地
4110913,静岡県,駿東郡清水町,戸田,シズオカケン,スントウグンシミズチョウ,トダ,静岡県駿東郡清水町戸田
4110914,静岡県,駿東郡清水町,畑中,シズオカケン,スントウグンシミズチョウ,ハタケナカ,静岡県駿東郡清水町畑中
4110915,静岡県,駿東郡清水町,的場,シズオカケン,スントウグンシミズチョウ,マトバ,静岡県駿東郡清水町的場
4110916,静岡県,駿東郡清水町,中徳倉,シズオカケン,スントウグンシミズチョウ,ナカトクラ,静岡県駿東郡清水町中徳倉
4110917,静岡県,駿東郡清水町,徳倉（上徳倉、下徳倉、外原）,シズオカケン,スントウグンシミズチョウ,トクラ(カミトクラ、シモトクラ、ソトハラ),静岡県駿東郡清水町徳倉（上徳倉、下徳倉、外原）
4110918,静岡県,駿東郡清水町,湯川,シズオカケン,スントウグンシミズチョウ,ユカワ,静岡県駿東郡清水町湯川
4110931,静岡県,駿東郡長泉町,東野,シズオカケン,スントウグンナガイズミチョウ,ヒガシノ,静岡県駿東郡長泉町東野
4110932,静岡県,駿東郡長泉町,南一色,シズオカケン,スントウグンナガイズミチョウ,ミナミイシキ,静岡県駿東郡長泉町南一色
4110933,静岡県,駿東郡長泉町,納米里,シズオカケン,スントウグンナガイズミチョウ,ナメリ,静岡県駿東郡長泉町納米里
4110934,静岡県,駿東郡長泉町,下長窪,シズオカケン,スントウグンナガイズミチョウ,シモナガクボ,静岡県駿東郡長泉町下長窪
4110935,静岡県,駿東郡長泉町,上長窪,シズオカケン,スントウグンナガイズミチョウ,カミナガクボ,静岡県駿東郡長泉町上長窪
4110936,静岡県,駿東郡長泉町,元長窪,シズオカケン,スントウグンナガイズミチョウ,モトナガクボ,静岡県駿東郡長泉町元長窪
4110941,静岡県,駿東郡長泉町,上土狩,シズオカケン,スントウグンナガイズミチョウ,カミトガリ,静岡県駿東郡長泉町上土狩
4110942,静岡県,駿東郡長泉町,中土狩,シズオカケン,スントウグンナガイズミチョウ,ナカトガリ,静岡県駿東郡長泉町中土狩
4110943,静岡県,駿東郡長泉町,下土狩,シズオカケン,スントウグンナガイズミチョウ,シモトガリ,静岡県駿東郡長泉町下土狩
4110944,静岡県,駿東郡長泉町,竹原,シズオカケン,スントウグンナガイズミチョウ,タケハラ,静岡県駿東郡長泉町竹原
4110945,静岡県,駿東郡長泉町,本宿,シズオカケン,スントウグンナガイズミチョウ,ホンジュク,静岡県駿東郡長泉町本宿
4110951,静岡県,駿東郡長泉町,桜堤,シズオカケン,スントウグンナガイズミチョウ,サクラヅツミ,静岡県駿東郡長泉町桜堤
4120000,静岡県,御殿場市,,シズオカケン,ゴテンバシ,,静岡県御殿場市
4120001,静岡県,御殿場市,水土野,シズオカケン,ゴテンバシ,ミドノ,静岡県御殿場市水土野
4120002,静岡県,御殿場市,上小林,シズオカケン,ゴテンバシ,カミコバヤシ,静岡県御殿場市上小林
4120003,静岡県,御殿場市,柴怒田,シズオカケン,ゴテンバシ,シバンタ,静岡県御殿場市柴怒田
4120004,静岡県,御殿場市,北久原,シズオカケン,ゴテンバシ,ホックバラ,静岡県御殿場市北久原
4120005,静岡県,御殿場市,仁杉,シズオカケン,ゴテンバシ,ヒトスギ,静岡県御殿場市仁杉
4120006,静岡県,御殿場市,中畑,シズオカケン,ゴテンバシ,ナカバタ,静岡県御殿場市中畑
4120007,静岡県,御殿場市,永塚,シズオカケン,ゴテンバシ,ナガツカ,静岡県御殿場市永塚
4120008,静岡県,御殿場市,印野,シズオカケン,ゴテンバシ,インノ,静岡県御殿場市印野
4120009,静岡県,御殿場市,川柳,シズオカケン,ゴテンバシ,カワヤナギ,静岡県御殿場市川柳
4120011,静岡県,御殿場市,古沢,シズオカケン,ゴテンバシ,フルサワ,静岡県御殿場市古沢
4120012,静岡県,御殿場市,増田,シズオカケン,ゴテンバシ,マシダ,静岡県御殿場市増田
4120013,静岡県,御殿場市,小倉野,シズオカケン,ゴテンバシ,オグラノ,静岡県御殿場市小倉野
4120014,静岡県,御殿場市,大堰,シズオカケン,ゴテンバシ,オオセギ,静岡県御殿場市大堰
4120015,静岡県,御殿場市,中丸,シズオカケン,ゴテンバシ,ナカマル,静岡県御殿場市中丸
4120016,静岡県,御殿場市,六日市場,シズオカケン,ゴテンバシ,ムイカイチバ,静岡県御殿場市六日市場
4120017,静岡県,御殿場市,塚原,シズオカケン,ゴテンバシ,ツカバラ,静岡県御殿場市塚原
4120018,静岡県,御殿場市,山之尻,シズオカケン,ゴテンバシ,ヤマノシリ,静岡県御殿場市山之尻
4120019,静岡県,御殿場市,山尾田,シズオカケン,ゴテンバシ,ヤマオダ,静岡県御殿場市山尾田
4120021,静岡県,御殿場市,二枚橋,シズオカケン,ゴテンバシ,ニマイバシ,静岡県御殿場市二枚橋
4120022,静岡県,御殿場市,清後,シズオカケン,ゴテンバシ,セイゴ,静岡県御殿場市清後
4120023,静岡県,御殿場市,深沢,シズオカケン,ゴテンバシ,フカサワ,静岡県御殿場市深沢
4120024,静岡県,御殿場市,東山,シズオカケン,ゴテンバシ,ヒガシヤマ,静岡県御殿場市東山
4120025,静岡県,御殿場市,二の岡,シズオカケン,ゴテンバシ,ニノオカ,静岡県御殿場市二の岡
4120026,静岡県,御殿場市,東田中,シズオカケン,ゴテンバシ,ヒガシタナカ,静岡県御殿場市東田中
4120027,静岡県,御殿場市,西田中,シズオカケン,ゴテンバシ,ニシタナカ,静岡県御殿場市西田中
4120028,静岡県,御殿場市,御殿場,シズオカケン,ゴテンバシ,ゴテンバ,静岡県御殿場市御殿場
4120029,静岡県,御殿場市,神山平,シズオカケン,ゴテンバシ,コウヤマダイラ,静岡県御殿場市神山平
4120031,静岡県,御殿場市,沼田,シズオカケン,ゴテンバシ,ヌマタ,静岡県御殿場市沼田
4120032,静岡県,御殿場市,二子,シズオカケン,ゴテンバシ,フタゴ,静岡県御殿場市二子
4120033,静岡県,御殿場市,神山,シズオカケン,ゴテンバシ,コウヤマ,静岡県御殿場市神山
4120034,静岡県,御殿場市,大坂,シズオカケン,ゴテンバシ,オオサカ,静岡県御殿場市大坂
4120035,静岡県,御殿場市,中山,シズオカケン,ゴテンバシ,ナカヤマ,静岡県御殿場市中山
4120036,静岡県,御殿場市,萩蕪,シズオカケン,ゴテンバシ,ハギカブ,静岡県御殿場市萩蕪
4120037,静岡県,御殿場市,中清水,シズオカケン,ゴテンバシ,ナカシミズ,静岡県御殿場市中清水
4120038,静岡県,御殿場市,駒門,シズオカケン,ゴテンバシ,コマカド,静岡県御殿場市駒門
4120039,静岡県,御殿場市,竈,シズオカケン,ゴテンバシ,カマド,静岡県御殿場市竈
4120041,静岡県,御殿場市,茱萸沢,シズオカケン,ゴテンバシ,グミザワ,静岡県御殿場市茱萸沢
4120042,静岡県,御殿場市,萩原,シズオカケン,ゴテンバシ,ハギワラ,静岡県御殿場市萩原
4120043,静岡県,御殿場市,新橋,シズオカケン,ゴテンバシ,ニイハシ,静岡県御殿場市新橋
4120044,静岡県,御殿場市,杉名沢,シズオカケン,ゴテンバシ,スギナザワ,静岡県御殿場市杉名沢
4120045,静岡県,御殿場市,川島田,シズオカケン,ゴテンバシ,カワシマタ,静岡県御殿場市川島田
4120046,静岡県,御殿場市,保土沢,シズオカケン,ゴテンバシ,ホトザワ,静岡県御殿場市保土沢
4120047,静岡県,御殿場市,神場,シズオカケン,ゴテンバシ,ジンバ,静岡県御殿場市神場
4120048,静岡県,御殿場市,板妻,シズオカケン,ゴテンバシ,イタヅマ,静岡県御殿場市板妻
4120051,静岡県,御殿場市,富士見原,シズオカケン,ゴテンバシ,フジミハラ,静岡県御殿場市富士見原
4130000,静岡県,熱海市,,シズオカケン,アタミシ,,静岡県熱海市
4130001,静岡県,熱海市,泉,シズオカケン,アタミシ,イズミ,静岡県熱海市泉
4130002,静岡県,熱海市,伊豆山,シズオカケン,アタミシ,イズサン,静岡県熱海市伊豆山
4130003,静岡県,熱海市,海光町,シズオカケン,アタミシ,カイコウチョウ,静岡県熱海市海光町
4130004,静岡県,熱海市,初島,シズオカケン,アタミシ,ハツシマ,静岡県熱海市初島
4130005,静岡県,熱海市,春日町,シズオカケン,アタミシ,カスガチョウ,静岡県熱海市春日町
4130006,静岡県,熱海市,桃山町,シズオカケン,アタミシ,モモヤマチョウ,静岡県熱海市桃山町
4130011,静岡県,熱海市,田原本町,シズオカケン,アタミシ,タハラホンチョウ,静岡県熱海市田原本町
4130012,静岡県,熱海市,東海岸町,シズオカケン,アタミシ,ヒガシカイガンチョウ,静岡県熱海市東海岸町
4130013,静岡県,熱海市,銀座町,シズオカケン,アタミシ,ギンザチョウ,静岡県熱海市銀座町
4130014,静岡県,熱海市,渚町,シズオカケン,アタミシ,ナギサチョウ,静岡県熱海市渚町
4130015,静岡県,熱海市,中央町,シズオカケン,アタミシ,チュウオウチョウ,静岡県熱海市中央町
4130016,静岡県,熱海市,水口町,シズオカケン,アタミシ,ミナグチチョウ,静岡県熱海市水口町
4130017,静岡県,熱海市,福道町,シズオカケン,アタミシ,フクミチチョウ,静岡県熱海市福道町
4130018,静岡県,熱海市,上宿町,シズオカケン,アタミシ,カミジュクチョウ,静岡県熱海市上宿町
4130019,静岡県,熱海市,咲見町,シズオカケン,アタミシ,サキミチョウ,静岡県熱海市咲見町
4130021,静岡県,熱海市,清水町,シズオカケン,アタミシ,シミズチョウ,静岡県熱海市清水町
4130022,静岡県,熱海市,昭和町,シズオカケン,アタミシ,ショウワチョウ,静岡県熱海市昭和町
4130023,静岡県,熱海市,和田浜南町,シズオカケン,アタミシ,ワダハマミナミチョウ,静岡県熱海市和田浜南町
4130024,静岡県,熱海市,和田町,シズオカケン,アタミシ,ワダチョウ,静岡県熱海市和田町
4130025,静岡県,熱海市,桜木町,シズオカケン,アタミシ,サクラギチョウ,静岡県熱海市桜木町
4130026,静岡県,熱海市,梅花町,シズオカケン,アタミシ,バイカチョウ,静岡県熱海市梅花町
4130027,静岡県,熱海市,紅葉ガ丘町,シズオカケン,アタミシ,モミジガオカチョウ,静岡県熱海市紅葉ガ丘町
4130028,静岡県,熱海市,桜町,シズオカケン,アタミシ,サクラチョウ,静岡県熱海市桜町
4130029,静岡県,熱海市,小嵐町,シズオカケン,アタミシ,コアラシチョウ,静岡県熱海市小嵐町
4130031,静岡県,熱海市,林ガ丘町,シズオカケン,アタミシ,ハヤシガオカチョウ,静岡県熱海市林ガ丘町
4130032,静岡県,熱海市,梅園町,シズオカケン,アタミシ,バイエンチョウ,静岡県熱海市梅園町
4130033,静岡県,熱海市,熱海,シズオカケン,アタミシ,アタミ,静岡県熱海市熱海
4130034,静岡県,熱海市,西山町,シズオカケン,アタミシ,ニシヤマチョウ,静岡県熱海市西山町
4130035,静岡県,熱海市,緑ガ丘町,シズオカケン,アタミシ,ミドリガオカチョウ,静岡県熱海市緑ガ丘町
4130036,静岡県,熱海市,日金町,シズオカケン,アタミシ,ヒガネチョウ,静岡県熱海市日金町
4130037,静岡県,熱海市,笹良ケ台町,シズオカケン,アタミシ,ササラガダイチョウ,静岡県熱海市笹良ケ台町
4130038,静岡県,熱海市,西熱海町,シズオカケン,アタミシ,ニシアタミチョウ,静岡県熱海市西熱海町
4130039,静岡県,熱海市,相の原町,シズオカケン,アタミシ,アイノハラチョウ,静岡県熱海市相の原町
4130041,静岡県,熱海市,青葉町,シズオカケン,アタミシ,アオバチョウ,静岡県熱海市青葉町
4130042,静岡県,熱海市,山手町,シズオカケン,アタミシ,ヤマテチョウ,静岡県熱海市山手町
4130101,静岡県,熱海市,上多賀,シズオカケン,アタミシ,カミタガ,静岡県熱海市上多賀
4130102,静岡県,熱海市,下多賀,シズオカケン,アタミシ,シモタガ,静岡県熱海市下多賀
4130103,静岡県,熱海市,網代,シズオカケン,アタミシ,アジロ,静岡県熱海市網代
4130111,静岡県,伊東市,グリーンヒル別荘地,シズオカケン,イトウシ,グリーンヒルベツソウチ,静岡県伊東市グリーンヒル別荘地
4130231,静岡県,伊東市,富戸,シズオカケン,イトウシ,フト,静岡県伊東市富戸
4130232,静岡県,伊東市,八幡野,シズオカケン,イトウシ,ヤワタノ,静岡県伊東市八幡野
4130233,静岡県,伊東市,赤沢,シズオカケン,イトウシ,アカザワ,静岡県伊東市赤沢
4130234,静岡県,伊東市,池,シズオカケン,イトウシ,イケ,静岡県伊東市池
4130235,静岡県,伊東市,大室高原,シズオカケン,イトウシ,オオムロコウゲン,静岡県伊東市大室高原
4130300,静岡県,賀茂郡東伊豆町,,シズオカケン,カモグンヒガシイズチョウ,,静岡県賀茂郡東伊豆町
4130301,静岡県,賀茂郡東伊豆町,大川,シズオカケン,カモグンヒガシイズチョウ,オオカワ,静岡県賀茂郡東伊豆町大川
4130302,静岡県,賀茂郡東伊豆町,北川,シズオカケン,カモグンヒガシイズチョウ,ホツカワ,静岡県賀茂郡東伊豆町北川
4130302,静岡県,賀茂郡東伊豆町,奈良本,シズオカケン,カモグンヒガシイズチョウ,ナラモト,静岡県賀茂郡東伊豆町奈良本
4130303,静岡県,賀茂郡東伊豆町,片瀬,シズオカケン,カモグンヒガシイズチョウ,カタセ,静岡県賀茂郡東伊豆町片瀬
4130304,静岡県,賀茂郡東伊豆町,白田,シズオカケン,カモグンヒガシイズチョウ,シラタ,静岡県賀茂郡東伊豆町白田
4130411,静岡県,賀茂郡東伊豆町,稲取,シズオカケン,カモグンヒガシイズチョウ,イナトリ,静岡県賀茂郡東伊豆町稲取
4130500,静岡県,賀茂郡河津町,,シズオカケン,カモグンカワヅチョウ,,静岡県賀茂郡河津町
4130501,静岡県,賀茂郡河津町,梨本,シズオカケン,カモグンカワヅチョウ,ナシモト,静岡県賀茂郡河津町梨本
4130502,静岡県,賀茂郡河津町,川津筏場,シズオカケン,カモグンカワヅチョウ,カワヅイカダバ,静岡県賀茂郡河津町川津筏場
4130503,静岡県,賀茂郡河津町,見高,シズオカケン,カモグンカワヅチョウ,ミダカ,静岡県賀茂郡河津町見高
4130504,静岡県,賀茂郡河津町,田中,シズオカケン,カモグンカワヅチョウ,タナカ,静岡県賀茂郡河津町田中
4130505,静岡県,賀茂郡河津町,沢田,シズオカケン,カモグンカワヅチョウ,サワダ,静岡県賀茂郡河津町沢田
4130506,静岡県,賀茂郡河津町,下佐ケ野,シズオカケン,カモグンカワヅチョウ,シモサガノ,静岡県賀茂郡河津町下佐ケ野
4130507,静岡県,賀茂郡河津町,湯ケ野,シズオカケン,カモグンカワヅチョウ,ユガノ,静岡県賀茂郡河津町湯ケ野
4130508,静岡県,賀茂郡河津町,小鍋,シズオカケン,カモグンカワヅチョウ,コナベ,静岡県賀茂郡河津町小鍋
4130509,静岡県,賀茂郡河津町,大鍋,シズオカケン,カモグンカワヅチョウ,オオナベ,静岡県賀茂郡河津町大鍋
4130511,静岡県,賀茂郡河津町,峰,シズオカケン,カモグンカワヅチョウ,ミネ,静岡県賀茂郡河津町峰
4130512,静岡県,賀茂郡河津町,笹原,シズオカケン,カモグンカワヅチョウ,ササハラ,静岡県賀茂郡河津町笹原
4130513,静岡県,賀茂郡河津町,浜,シズオカケン,カモグンカワヅチョウ,ハマ,静岡県賀茂郡河津町浜
4130514,静岡県,賀茂郡河津町,縄地,シズオカケン,カモグンカワヅチョウ,ナワジ,静岡県賀茂郡河津町縄地
4130515,静岡県,賀茂郡河津町,谷津,シズオカケン,カモグンカワヅチョウ,ヤツ,静岡県賀茂郡河津町谷津
4130516,静岡県,賀茂郡河津町,逆川,シズオカケン,カモグンカワヅチョウ,サカサガワ,静岡県賀茂郡河津町逆川
4130701,静岡県,下田市,落合,シズオカケン,シモダシ,オチアイ,静岡県下田市落合
4130702,静岡県,下田市,堀之内,シズオカケン,シモダシ,ホリノウチ,静岡県下田市堀之内
4130703,静岡県,下田市,荒増,シズオカケン,シモダシ,アラゾウ,静岡県下田市荒増
4130704,静岡県,下田市,椎原,シズオカケン,シモダシ,シイバラ,静岡県下田市椎原
4130705,静岡県,下田市,箕作,シズオカケン,シモダシ,ミツクリ,静岡県下田市箕作
4130711,静岡県,下田市,相玉,シズオカケン,シモダシ,アイタマ,静岡県下田市相玉
4130712,静岡県,下田市,横川,シズオカケン,シモダシ,ヨコカワ,静岡県下田市横川
4130713,静岡県,下田市,加増野,シズオカケン,シモダシ,カゾウノ,静岡県下田市加増野
4130714,静岡県,下田市,北湯ケ野,シズオカケン,シモダシ,キタユガノ,静岡県下田市北湯ケ野
4130715,静岡県,下田市,宇土金,シズオカケン,シモダシ,ウドガネ,静岡県下田市宇土金
4130716,静岡県,下田市,須原,シズオカケン,シモダシ,スハラ,静岡県下田市須原
4140000,静岡県,伊東市,,シズオカケン,イトウシ,,静岡県伊東市
4140001,静岡県,伊東市,宇佐美,シズオカケン,イトウシ,ウサミ,静岡県伊東市宇佐美
4140002,静岡県,伊東市,湯川,シズオカケン,イトウシ,ユカワ,静岡県伊東市湯川
4140003,静岡県,伊東市,中央町,シズオカケン,イトウシ,チュウオウチョウ,静岡県伊東市中央町
4140004,静岡県,伊東市,猪戸,シズオカケン,イトウシ,シシド,静岡県伊東市猪戸
4140005,静岡県,伊東市,松原湯端町,シズオカケン,イトウシ,マツバラユバタチョウ,静岡県伊東市松原湯端町
4140006,静岡県,伊東市,松原,シズオカケン,イトウシ,マツバラ,静岡県伊東市松原
4140011,静岡県,伊東市,松川町,シズオカケン,イトウシ,マツカワチョウ,静岡県伊東市松川町
4140012,静岡県,伊東市,宝町,シズオカケン,イトウシ,タカラチョウ,静岡県伊東市宝町
4140013,静岡県,伊東市,桜木町,シズオカケン,イトウシ,サクラギチョウ,静岡県伊東市桜木町
4140014,静岡県,伊東市,弥生町,シズオカケン,イトウシ,ヤヨイチョウ,静岡県伊東市弥生町
4140015,静岡県,伊東市,末広町,シズオカケン,イトウシ,スエヒロチョウ,静岡県伊東市末広町
4140016,静岡県,伊東市,岡広町,シズオカケン,イトウシ,オカヒロチョウ,静岡県伊東市岡広町
4140017,静岡県,伊東市,幸町,シズオカケン,イトウシ,サイワイチョウ,静岡県伊東市幸町
4140018,静岡県,伊東市,寿町,シズオカケン,イトウシ,コトブキチョウ,静岡県伊東市寿町
4140021,静岡県,伊東市,松原本町,シズオカケン,イトウシ,マツバラホンチョウ,静岡県伊東市松原本町
4140022,静岡県,伊東市,東松原町,シズオカケン,イトウシ,ヒガシマツバラチョウ,静岡県伊東市東松原町
4140023,静岡県,伊東市,渚町,シズオカケン,イトウシ,ナギサチョウ,静岡県伊東市渚町
4140024,静岡県,伊東市,和田,シズオカケン,イトウシ,ワダ,静岡県伊東市和田
4140025,静岡県,伊東市,物見が丘,シズオカケン,イトウシ,モノミガオカ,静岡県伊東市物見が丘
4140026,静岡県,伊東市,竹の台,シズオカケン,イトウシ,タケノダイ,静岡県伊東市竹の台
4140027,静岡県,伊東市,竹の内,シズオカケン,イトウシ,タケノウチ,静岡県伊東市竹の内
4140028,静岡県,伊東市,銀座元町,シズオカケン,イトウシ,ギンザモトマチ,静岡県伊東市銀座元町
4140031,静岡県,伊東市,湯田町,シズオカケン,イトウシ,ユダチョウ,静岡県伊東市湯田町
4140032,静岡県,伊東市,音無町,シズオカケン,イトウシ,オトナシチョウ,静岡県伊東市音無町
4140033,静岡県,伊東市,馬場町,シズオカケン,イトウシ,ババチョウ,静岡県伊東市馬場町
4140034,静岡県,伊東市,瓶山,シズオカケン,イトウシ,カメヤマ,静岡県伊東市瓶山
4140035,静岡県,伊東市,南町,シズオカケン,イトウシ,ミナミチョウ,静岡県伊東市南町
4140036,静岡県,伊東市,宮川町,シズオカケン,イトウシ,ミヤガワチョウ,静岡県伊東市宮川町
4140037,静岡県,伊東市,桜ガ丘,シズオカケン,イトウシ,サクラガオカ,静岡県伊東市桜ガ丘
4140038,静岡県,伊東市,広野,シズオカケン,イトウシ,ヒロノ,静岡県伊東市広野
4140041,静岡県,伊東市,芝町,シズオカケン,イトウシ,シバチョウ,静岡県伊東市芝町
4140042,静岡県,伊東市,静海町,シズオカケン,イトウシ,シズミチョウ,静岡県伊東市静海町
4140043,静岡県,伊東市,新井,シズオカケン,イトウシ,アライ,静岡県伊東市新井
4140044,静岡県,伊東市,川奈,シズオカケン,イトウシ,カワナ,静岡県伊東市川奈
4140045,静岡県,伊東市,玖須美元和田,シズオカケン,イトウシ,クスミモトワダ,静岡県伊東市玖須美元和田
4140046,静岡県,伊東市,大原,シズオカケン,イトウシ,オオハラ,静岡県伊東市大原
4140051,静岡県,伊東市,吉田,シズオカケン,イトウシ,ヨシダ,静岡県伊東市吉田
4140052,静岡県,伊東市,十足,シズオカケン,イトウシ,トオタリ,静岡県伊東市十足
4140053,静岡県,伊東市,荻,シズオカケン,イトウシ,オギ,静岡県伊東市荻
4140054,静岡県,伊東市,鎌田,シズオカケン,イトウシ,カマダ,静岡県伊東市鎌田
4140055,静岡県,伊東市,岡,シズオカケン,イトウシ,オカ,静岡県伊東市岡
4150000,静岡県,下田市,,シズオカケン,シモダシ,,静岡県下田市
4150001,静岡県,下田市,,シズオカケン,シモダシ,,静岡県下田市
4150011,静岡県,下田市,河内,シズオカケン,シモダシ,コウチ,静岡県下田市河内
4150012,静岡県,下田市,白浜,シズオカケン,シモダシ,シラハマ,静岡県下田市白浜
4150013,静岡県,下田市,柿崎,シズオカケン,シモダシ,カキサキ,静岡県下田市柿崎
4150014,静岡県,下田市,須崎,シズオカケン,シモダシ,スザキ,静岡県下田市須崎
4150015,静岡県,下田市,武ガ浜,シズオカケン,シモダシ,タケガハマ,静岡県下田市武ガ浜
4150016,静岡県,下田市,中,シズオカケン,シモダシ,ナカ,静岡県下田市中
4150017,静岡県,下田市,東中,シズオカケン,シモダシ,ヒガシナカ,静岡県下田市東中
4150018,静岡県,下田市,西中,シズオカケン,シモダシ,ニシナカ,静岡県下田市西中
4150021,静岡県,下田市,一丁目,シズオカケン,シモダシ,イッチョウメ,静岡県下田市1
4150022,静岡県,下田市,二丁目,シズオカケン,シモダシ,ニチョウメ,静岡県下田市2
4150023,静岡県,下田市,三丁目,シズオカケン,シモダシ,サンチョウメ,静岡県下田市3
4150024,静岡県,下田市,四丁目,シズオカケン,シモダシ,ヨンチョウメ,静岡県下田市4
4150025,静岡県,下田市,五丁目,シズオカケン,シモダシ,ゴチョウメ,静岡県下田市5
4150026,静岡県,下田市,六丁目,シズオカケン,シモダシ,ロクチョウメ,静岡県下田市6
4150027,静岡県,下田市,旧岡方村,シズオカケン,シモダシ,キュウオカガタムラ,静岡県下田市旧岡方村
4150028,静岡県,下田市,吉佐美,シズオカケン,シモダシ,キサミ,静岡県下田市吉佐美
4150029,静岡県,下田市,田牛,シズオカケン,シモダシ,トウジ,静岡県下田市田牛
4150031,静岡県,下田市,蓮台寺,シズオカケン,シモダシ,レンダイジ,静岡県下田市蓮台寺
4150032,静岡県,下田市,立野,シズオカケン,シモダシ,タチノ,静岡県下田市立野
4150033,静岡県,下田市,本郷,シズオカケン,シモダシ,ホンゴウ,静岡県下田市本郷
4150034,静岡県,下田市,高馬,シズオカケン,シモダシ,タコウマ,静岡県下田市高馬
4150035,静岡県,下田市,東本郷,シズオカケン,シモダシ,ヒガシホンゴウ,静岡県下田市東本郷
4150036,静岡県,下田市,西本郷,シズオカケン,シモダシ,ニシホンゴウ,静岡県下田市西本郷
4150037,静岡県,下田市,敷根,シズオカケン,シモダシ,シキネ,静岡県下田市敷根
4150038,静岡県,下田市,大賀茂,シズオカケン,シモダシ,オオガモ,静岡県下田市大賀茂
4150039,静岡県,下田市,大沢,シズオカケン,シモダシ,オオサワ,静岡県下田市大沢
4150151,静岡県,賀茂郡南伊豆町,青市,シズオカケン,カモグンミナミイズチョウ,アオイチ,静岡県賀茂郡南伊豆町青市
4150152,静岡県,賀茂郡南伊豆町,湊,シズオカケン,カモグンミナミイズチョウ,ミナト,静岡県賀茂郡南伊豆町湊
4150153,静岡県,賀茂郡南伊豆町,手石,シズオカケン,カモグンミナミイズチョウ,テイシ,静岡県賀茂郡南伊豆町手石
4150154,静岡県,賀茂郡南伊豆町,下流,シズオカケン,カモグンミナミイズチョウ,シタル,静岡県賀茂郡南伊豆町下流
4150155,静岡県,賀茂郡南伊豆町,大瀬,シズオカケン,カモグンミナミイズチョウ,オオセ,静岡県賀茂郡南伊豆町大瀬
4150156,静岡県,賀茂郡南伊豆町,石廊崎,シズオカケン,カモグンミナミイズチョウ,イロウザキ,静岡県賀茂郡南伊豆町石廊崎
4150300,静岡県,賀茂郡南伊豆町,,シズオカケン,カモグンミナミイズチョウ,,静岡県賀茂郡南伊豆町
4150301,静岡県,賀茂郡南伊豆町,一條,シズオカケン,カモグンミナミイズチョウ,イチジョウ,静岡県賀茂郡南伊豆町一條
4150302,静岡県,賀茂郡南伊豆町,上賀茂,シズオカケン,カモグンミナミイズチョウ,カミガモ,静岡県賀茂郡南伊豆町上賀茂
4150303,静岡県,賀茂郡南伊豆町,下賀茂,シズオカケン,カモグンミナミイズチョウ,シモガモ,静岡県賀茂郡南伊豆町下賀茂
4150304,静岡県,賀茂郡南伊豆町,加納,シズオカケン,カモグンミナミイズチョウ,カノウ,静岡県賀茂郡南伊豆町加納
4150305,静岡県,賀茂郡南伊豆町,二條,シズオカケン,カモグンミナミイズチョウ,ニジョウ,静岡県賀茂郡南伊豆町二條
4150306,静岡県,賀茂郡南伊豆町,石井,シズオカケン,カモグンミナミイズチョウ,イシイ,静岡県賀茂郡南伊豆町石井
4150311,静岡県,賀茂郡南伊豆町,中木,シズオカケン,カモグンミナミイズチョウ,ナカギ,静岡県賀茂郡南伊豆町中木
4150312,静岡県,賀茂郡南伊豆町,入間,シズオカケン,カモグンミナミイズチョウ,イルマ,静岡県賀茂郡南伊豆町入間
4150312,静岡県,賀茂郡南伊豆町,差田,シズオカケン,カモグンミナミイズチョウ,サシダ,静岡県賀茂郡南伊豆町差田
4150313,静岡県,賀茂郡南伊豆町,一色,シズオカケン,カモグンミナミイズチョウ,イシキ,静岡県賀茂郡南伊豆町一色
4150314,静岡県,賀茂郡南伊豆町,蝶ケ野,シズオカケン,カモグンミナミイズチョウ,チョウガノ,静岡県賀茂郡南伊豆町蝶ケ野
4150321,静岡県,賀茂郡南伊豆町,毛倉野,シズオカケン,カモグンミナミイズチョウ,ケグラノ,静岡県賀茂郡南伊豆町毛倉野
4150322,静岡県,賀茂郡南伊豆町,岩殿,シズオカケン,カモグンミナミイズチョウ,イワドノ,静岡県賀茂郡南伊豆町岩殿
4150323,静岡県,賀茂郡南伊豆町,下小野,シズオカケン,カモグンミナミイズチョウ,シモオノ,静岡県賀茂郡南伊豆町下小野
4150323,静岡県,賀茂郡南伊豆町,川合野,シズオカケン,カモグンミナミイズチョウ,カワイノ,静岡県賀茂郡南伊豆町川合野
4150324,静岡県,賀茂郡南伊豆町,上小野,シズオカケン,カモグンミナミイズチョウ,カミオノ,静岡県賀茂郡南伊豆町上小野
4150325,静岡県,賀茂郡南伊豆町,市之瀬,シズオカケン,カモグンミナミイズチョウ,イチノセ,静岡県賀茂郡南伊豆町市之瀬
4150325,静岡県,賀茂郡南伊豆町,平戸,シズオカケン,カモグンミナミイズチョウ,ヒラド,静岡県賀茂郡南伊豆町平戸
4150326,静岡県,賀茂郡南伊豆町,蛇石,シズオカケン,カモグンミナミイズチョウ,ジャイシ,静岡県賀茂郡南伊豆町蛇石
4150327,静岡県,賀茂郡南伊豆町,青野,シズオカケン,カモグンミナミイズチョウ,アオノ,静岡県賀茂郡南伊豆町青野
4150531,静岡県,賀茂郡南伊豆町,一町田,シズオカケン,カモグンミナミイズチョウ,イッチョウダ,静岡県賀茂郡南伊豆町一町田
4150531,静岡県,賀茂郡南伊豆町,伊浜,シズオカケン,カモグンミナミイズチョウ,イハマ,静岡県賀茂郡南伊豆町伊浜
4150531,静岡県,賀茂郡南伊豆町,天神原,シズオカケン,カモグンミナミイズチョウ,テンジンバラ,静岡県賀茂郡南伊豆町天神原
4150531,静岡県,賀茂郡南伊豆町,落居,シズオカケン,カモグンミナミイズチョウ,オチイ,静岡県賀茂郡南伊豆町落居
4150532,静岡県,賀茂郡南伊豆町,子浦,シズオカケン,カモグンミナミイズチョウ,コウラ,静岡県賀茂郡南伊豆町子浦
4150533,静岡県,賀茂郡南伊豆町,吉田,シズオカケン,カモグンミナミイズチョウ,ヨシダ,静岡県賀茂郡南伊豆町吉田
4150533,静岡県,賀茂郡南伊豆町,妻良,シズオカケン,カモグンミナミイズチョウ,メラ,静岡県賀茂郡南伊豆町妻良
4150533,静岡県,賀茂郡南伊豆町,立岩,シズオカケン,カモグンミナミイズチョウ,タテイワ,静岡県賀茂郡南伊豆町立岩
4160901,静岡県,富士市,岩本,シズオカケン,フジシ,イワモト,静岡県富士市岩本
4160902,静岡県,富士市,長通,シズオカケン,フジシ,ナガドオリ,静岡県富士市長通
4160903,静岡県,富士市,松本,シズオカケン,フジシ,マツモト,静岡県富士市松本
4160904,静岡県,富士市,本市場新田,シズオカケン,フジシ,モトイチバシンデン,静岡県富士市本市場新田
4160905,静岡県,富士市,五味島,シズオカケン,フジシ,ゴミジマ,静岡県富士市五味島
4160906,静岡県,富士市,本市場,シズオカケン,フジシ,モトイチバ,静岡県富士市本市場
4160907,静岡県,富士市,中島,シズオカケン,フジシ,ナカジマ,静岡県富士市中島
4160908,静岡県,富士市,柚木,シズオカケン,フジシ,ユノキ,静岡県富士市柚木
4160909,静岡県,富士市,松岡,シズオカケン,フジシ,マツオカ,静岡県富士市松岡
4160911,静岡県,富士市,八幡町,シズオカケン,フジシ,ハチマンチョウ,静岡県富士市八幡町
4160912,静岡県,富士市,加島町,シズオカケン,フジシ,カジマチョウ,静岡県富士市加島町
4160913,静岡県,富士市,平垣本町,シズオカケン,フジシ,ヘイガキホンチョウ,静岡県富士市平垣本町
4160914,静岡県,富士市,本町,シズオカケン,フジシ,ホンチョウ,静岡県富士市本町
4160915,静岡県,富士市,富士町,シズオカケン,フジシ,フジチョウ,静岡県富士市富士町
4160916,静岡県,富士市,平垣,シズオカケン,フジシ,ヘイガキ,静岡県富士市平垣
4160917,静岡県,富士市,元町,シズオカケン,フジシ,モトチョウ,静岡県富士市元町
4160918,静岡県,富士市,平垣町,シズオカケン,フジシ,ヘイガキチョウ,静岡県富士市平垣町
4160919,静岡県,富士市,松富町,シズオカケン,フジシ,マツトミマチ,静岡県富士市松富町
4160921,静岡県,富士市,水戸島,シズオカケン,フジシ,ミトジマ,静岡県富士市水戸島
4160922,静岡県,富士市,水戸島元町,シズオカケン,フジシ,ミトジマモトチョウ,静岡県富士市水戸島元町
4160923,静岡県,富士市,横割本町,シズオカケン,フジシ,ヨコワリホンチョウ,静岡県富士市横割本町
4160924,静岡県,富士市,水戸島本町,シズオカケン,フジシ,ミトジマホンチョウ,静岡県富士市水戸島本町
4160931,静岡県,富士市,蓼原,シズオカケン,フジシ,タデハラ,静岡県富士市蓼原
4160932,静岡県,富士市,柳島,シズオカケン,フジシ,ヤナギシマ,静岡県富士市柳島
4160933,静岡県,富士市,中丸,シズオカケン,フジシ,ナカマル,静岡県富士市中丸
4160934,静岡県,富士市,鮫島,シズオカケン,フジシ,サメジマ,静岡県富士市鮫島
4160935,静岡県,富士市,田子,シズオカケン,フジシ,タゴ,静岡県富士市田子
4160936,静岡県,富士市,中河原（その他）,シズオカケン,フジシ,ナカカワハラ(ソノタ),静岡県富士市中河原（その他）
4160937,静岡県,富士市,前田,シズオカケン,フジシ,マエダ,静岡県富士市前田
4160938,静岡県,富士市,浜田町,シズオカケン,フジシ,ハマダチョウ,静岡県富士市浜田町
4160939,静岡県,富士市,川成島,シズオカケン,フジシ,カワナリジマ,静岡県富士市川成島
4160941,静岡県,富士市,十兵衛,シズオカケン,フジシ,ジュウベエ,静岡県富士市十兵衛
4160942,静岡県,富士市,上横割,シズオカケン,フジシ,カミヨコワリ,静岡県富士市上横割
4160943,静岡県,富士市,下横割,シズオカケン,フジシ,シモヨコワリ,静岡県富士市下横割
4160944,静岡県,富士市,横割,シズオカケン,フジシ,ヨコワリ,静岡県富士市横割
4160945,静岡県,富士市,宮島,シズオカケン,フジシ,ミヤジマ,静岡県富士市宮島
4160946,静岡県,富士市,五貫島,シズオカケン,フジシ,ゴカンジマ,静岡県富士市五貫島
4160947,静岡県,富士市,宮下,シズオカケン,フジシ,ミヤシタ,静岡県富士市宮下
4160948,静岡県,富士市,森島,シズオカケン,フジシ,モリジマ,静岡県富士市森島
4160949,静岡県,富士市,森下,シズオカケン,フジシ,モリシタ,静岡県富士市森下
4160951,静岡県,富士市,米之宮町,シズオカケン,フジシ,ヨネノミヤチョウ,静岡県富士市米之宮町
4160952,静岡県,富士市,青葉町,シズオカケン,フジシ,アオバチョウ,静岡県富士市青葉町
4160953,静岡県,富士市,蓼原町,シズオカケン,フジシ,タデハラチョウ,静岡県富士市蓼原町
4160954,静岡県,富士市,本市場町,シズオカケン,フジシ,モトイチバチョウ,静岡県富士市本市場町
4160955,静岡県,富士市,川成新町,シズオカケン,フジシ,カワナリシンマチ,静岡県富士市川成新町
4170000,静岡県,富士市,,シズオカケン,フジシ,,静岡県富士市
4170001,静岡県,富士市,今泉,シズオカケン,フジシ,イマイズミ,静岡県富士市今泉
4170002,静岡県,富士市,依田橋,シズオカケン,フジシ,ヨダバシ,静岡県富士市依田橋
4170003,静岡県,富士市,依田橋町,シズオカケン,フジシ,ヨダバシチョウ,静岡県富士市依田橋町
4170004,静岡県,富士市,新橋町,シズオカケン,フジシ,シンバシチョウ,静岡県富士市新橋町
4170011,静岡県,富士市,鈴川本町,シズオカケン,フジシ,スズカワホンチョウ,静岡県富士市鈴川本町
4170012,静岡県,富士市,鈴川東町,シズオカケン,フジシ,スズカワヒガシチョウ,静岡県富士市鈴川東町
4170013,静岡県,富士市,鈴川中町,シズオカケン,フジシ,スズカワナカチョウ,静岡県富士市鈴川中町
4170014,静岡県,富士市,鈴川西町,シズオカケン,フジシ,スズカワニシチョウ,静岡県富士市鈴川西町
4170015,静岡県,富士市,鈴川町,シズオカケン,フジシ,スズカワチョウ,静岡県富士市鈴川町
4170021,静岡県,富士市,依田原,シズオカケン,フジシ,ヨダハラ,静岡県富士市依田原
4170022,静岡県,富士市,依田原町,シズオカケン,フジシ,ヨダハラチョウ,静岡県富士市依田原町
4170023,静岡県,富士市,吉原宝町,シズオカケン,フジシ,ヨシワラタカラチョウ,静岡県富士市吉原宝町
4170024,静岡県,富士市,八代町,シズオカケン,フジシ,ヤシロチョウ,静岡県富士市八代町
4170025,静岡県,富士市,瓜島,シズオカケン,フジシ,ウリジマ,静岡県富士市瓜島
4170026,静岡県,富士市,南町,シズオカケン,フジシ,ミナミチョウ,静岡県富士市南町
4170031,静岡県,富士市,田島,シズオカケン,フジシ,タジマ,静岡県富士市田島
4170032,静岡県,富士市,田島新田,シズオカケン,フジシ,タジマシンデン,静岡県富士市田島新田
4170033,静岡県,富士市,島田町,シズオカケン,フジシ,シマダチョウ,静岡県富士市島田町
4170034,静岡県,富士市,津田,シズオカケン,フジシ,ツタ,静岡県富士市津田
4170035,静岡県,富士市,津田町,シズオカケン,フジシ,ツタチョウ,静岡県富士市津田町
4170036,静岡県,富士市,中河原（６６、８８、９３、１９７、２９２−４、３１５番地）,シズオカケン,フジシ,ナカカワハラ(66、88、93、197、292-4、315バンチ),静岡県富士市中河原（66、88、93、197、292-4、315-）
4170037,静岡県,富士市,外木,シズオカケン,フジシ,トノキ,静岡県富士市外木
4170041,静岡県,富士市,御幸町,シズオカケン,フジシ,ミユキチョウ,静岡県富士市御幸町
4170042,静岡県,富士市,荒田島,シズオカケン,フジシ,アラタジマ,静岡県富士市荒田島
4170043,静岡県,富士市,荒田島町,シズオカケン,フジシ,アラタジマチョウ,静岡県富士市荒田島町
4170044,静岡県,富士市,高嶺町,シズオカケン,フジシ,タカネチョウ,静岡県富士市高嶺町
4170045,静岡県,富士市,錦町,シズオカケン,フジシ,ニシキチョウ,静岡県富士市錦町
4170046,静岡県,富士市,青島,シズオカケン,フジシ,アオシマ,静岡県富士市青島
4170047,静岡県,富士市,青島町,シズオカケン,フジシ,アオシマチョウ,静岡県富士市青島町
4170048,静岡県,富士市,高島町,シズオカケン,フジシ,タカシマチョウ,静岡県富士市高島町
4170049,静岡県,富士市,緑町,シズオカケン,フジシ,ミドリチョウ,静岡県富士市緑町
4170051,静岡県,富士市,吉原,シズオカケン,フジシ,ヨシワラ,静岡県富士市吉原
4170052,静岡県,富士市,中央町,シズオカケン,フジシ,チュウオウチョウ,静岡県富士市中央町
4170053,静岡県,富士市,依田原新田,シズオカケン,フジシ,ヨダハラシンデン,静岡県富士市依田原新田
4170054,静岡県,富士市,永田,シズオカケン,フジシ,ナガタ,静岡県富士市永田
4170055,静岡県,富士市,永田町,シズオカケン,フジシ,ナガタチョウ,静岡県富士市永田町
4170056,静岡県,富士市,日乃出町,シズオカケン,フジシ,ヒノデチョウ,静岡県富士市日乃出町
4170057,静岡県,富士市,瓜島町,シズオカケン,フジシ,ウリジマチョウ,静岡県富士市瓜島町
4170058,静岡県,富士市,永田北町,シズオカケン,フジシ,ナガタキタチョウ,静岡県富士市永田北町
4170061,静岡県,富士市,伝法,シズオカケン,フジシ,デンボウ,静岡県富士市伝法
4170062,静岡県,富士市,香西,シズオカケン,フジシ,コウサイ,静岡県富士市香西
4170063,静岡県,富士市,香西新田,シズオカケン,フジシ,コウサイシンデン,静岡県富士市香西新田
4170064,静岡県,富士市,弥生,シズオカケン,フジシ,ヤヨイ,静岡県富士市弥生
4170065,静岡県,富士市,弥生新田,シズオカケン,フジシ,ヤヨイシンデン,静岡県富士市弥生新田
4170071,静岡県,富士市,国久保,シズオカケン,フジシ,クニクボ,静岡県富士市国久保
4170072,静岡県,富士市,浅間上町,シズオカケン,フジシ,センゲンカミチョウ,静岡県富士市浅間上町
4170073,静岡県,富士市,浅間本町,シズオカケン,フジシ,センゲンホンチョウ,静岡県富士市浅間本町
4170801,静岡県,富士市,大淵,シズオカケン,フジシ,オオブチ,静岡県富士市大淵
4170802,静岡県,富士市,今宮,シズオカケン,フジシ,イマミヤ,静岡県富士市今宮
4170803,静岡県,富士市,桑崎,シズオカケン,フジシ,カザキ,静岡県富士市桑崎
4170804,静岡県,富士市,石井,シズオカケン,フジシ,イシイ,静岡県富士市石井
4170805,静岡県,富士市,鵜無ケ淵,シズオカケン,フジシ,ウナイガフチ,静岡県富士市鵜無ケ淵
4170806,静岡県,富士市,間門,シズオカケン,フジシ,マカド,静岡県富士市間門
4170807,静岡県,富士市,神戸,シズオカケン,フジシ,ゴウド,静岡県富士市神戸
4170808,静岡県,富士市,一色,シズオカケン,フジシ,イッシキ,静岡県富士市一色
4170809,静岡県,富士市,中野,シズオカケン,フジシ,ナカノ,静岡県富士市中野
4170811,静岡県,富士市,江尾,シズオカケン,フジシ,エノオ,静岡県富士市江尾
4170812,静岡県,富士市,境,シズオカケン,フジシ,サカイ,静岡県富士市境
4170813,静岡県,富士市,船津,シズオカケン,フジシ,フナツ,静岡県富士市船津
4170814,静岡県,富士市,西船津,シズオカケン,フジシ,ニシフナツ,静岡県富士市西船津
4170815,静岡県,富士市,増川,シズオカケン,フジシ,マスガワ,静岡県富士市増川
4170816,静岡県,富士市,増川新町,シズオカケン,フジシ,マスガワシンマチ,静岡県富士市増川新町
4170817,静岡県,富士市,江尾南,シズオカケン,フジシ,エノオミナミ,静岡県富士市江尾南
4170821,静岡県,富士市,神谷,シズオカケン,フジシ,カミヤ,静岡県富士市神谷
4170822,静岡県,富士市,神谷新町,シズオカケン,フジシ,カミヤシンマチ,静岡県富士市神谷新町
4170823,静岡県,富士市,神谷南,シズオカケン,フジシ,カミヤミナミ,静岡県富士市神谷南
4170824,静岡県,富士市,川尻東,シズオカケン,フジシ,カワシリヒガシ,静岡県富士市川尻東
4170825,静岡県,富士市,川尻,シズオカケン,フジシ,カワシリ,静岡県富士市川尻
4170826,静岡県,富士市,中里,シズオカケン,フジシ,ナカザト,静岡県富士市中里
4170831,静岡県,富士市,東柏原新田,シズオカケン,フジシ,ヒガシカシワバラシンデン,静岡県富士市東柏原新田
4170832,静岡県,富士市,中柏原新田,シズオカケン,フジシ,ナカカシワバラシンデン,静岡県富士市中柏原新田
4170833,静岡県,富士市,沼田新田,シズオカケン,フジシ,ヌマタシンデン,静岡県富士市沼田新田
4170834,静岡県,富士市,西柏原新田,シズオカケン,フジシ,ニシカシワバラシンデン,静岡県富士市西柏原新田
4170835,静岡県,富士市,柏原,シズオカケン,フジシ,カシワバラ,静岡県富士市柏原
4170841,静岡県,富士市,富士岡,シズオカケン,フジシ,フジオカ,静岡県富士市富士岡
4170842,静岡県,富士市,三新田,シズオカケン,フジシ,サンシンデン,静岡県富士市三新田
4170843,静岡県,富士市,田中新田,シズオカケン,フジシ,タナカシンデン,静岡県富士市田中新田
4170844,静岡県,富士市,檜新田,シズオカケン,フジシ,ヒノキシンデン,静岡県富士市檜新田
4170845,静岡県,富士市,大野新田,シズオカケン,フジシ,オオノシンデン,静岡県富士市大野新田
4170846,静岡県,富士市,今井,シズオカケン,フジシ,イマイ,静岡県富士市今井
4170847,静岡県,富士市,比奈,シズオカケン,フジシ,ヒナ,静岡県富士市比奈
4170848,静岡県,富士市,大野,シズオカケン,フジシ,オオノ,静岡県富士市大野
4170851,静岡県,富士市,富士見台,シズオカケン,フジシ,フジミダイ,静岡県富士市富士見台
4170852,静岡県,富士市,原田,シズオカケン,フジシ,ハラダ,静岡県富士市原田
4170853,静岡県,富士市,宇東川東町,シズオカケン,フジシ,ウトガワヒガシチョウ,静岡県富士市宇東川東町
4170854,静岡県,富士市,宇東川西町,シズオカケン,フジシ,ウトガワニシチョウ,静岡県富士市宇東川西町
4170855,静岡県,富士市,三ツ沢,シズオカケン,フジシ,ミツザワ,静岡県富士市三ツ沢
4170856,静岡県,富士市,さんどまき,シズオカケン,フジシ,サンドマキ,静岡県富士市さんどまき
4170861,静岡県,富士市,広見東本町,シズオカケン,フジシ,ヒロミヒガシホンチョウ,静岡県富士市広見東本町
4170862,静岡県,富士市,石坂,シズオカケン,フジシ,イシザカ,静岡県富士市石坂
4170863,静岡県,富士市,広見西本町,シズオカケン,フジシ,ヒロミニシホンチョウ,静岡県富士市広見西本町
4170864,静岡県,富士市,広見本町,シズオカケン,フジシ,ヒロミホンチョウ,静岡県富士市広見本町
4180000,静岡県,富士宮市,,シズオカケン,フジノミヤシ,,静岡県富士宮市
4180001,静岡県,富士宮市,万野原新田,シズオカケン,フジノミヤシ,マンノハラシンデン,静岡県富士宮市万野原新田
4180002,静岡県,富士宮市,中原町,シズオカケン,フジノミヤシ,ナカハラチョウ,静岡県富士宮市中原町
4180003,静岡県,富士宮市,ひばりが丘,シズオカケン,フジノミヤシ,ヒバリガオカ,静岡県富士宮市ひばりが丘
4180004,静岡県,富士宮市,三園平,シズオカケン,フジノミヤシ,ミソノダイラ,静岡県富士宮市三園平
4180005,静岡県,富士宮市,宮原,シズオカケン,フジノミヤシ,ミヤハラ,静岡県富士宮市宮原
4180006,静岡県,富士宮市,外神,シズオカケン,フジノミヤシ,トガミ,静岡県富士宮市外神
4180007,静岡県,富士宮市,外神東町,シズオカケン,フジノミヤシ,トガミヒガシチョウ,静岡県富士宮市外神東町
4180011,静岡県,富士宮市,粟倉,シズオカケン,フジノミヤシ,アワクラ,静岡県富士宮市粟倉
4180012,静岡県,富士宮市,村山,シズオカケン,フジノミヤシ,ムラヤマ,静岡県富士宮市村山
4180013,静岡県,富士宮市,大岩,シズオカケン,フジノミヤシ,オオイワ,静岡県富士宮市大岩
4180014,静岡県,富士宮市,富士見ケ丘,シズオカケン,フジノミヤシ,フジミガオカ,静岡県富士宮市富士見ケ丘
4180015,静岡県,富士宮市,舞々木町,シズオカケン,フジノミヤシ,マイマイギチョウ,静岡県富士宮市舞々木町
4180016,静岡県,富士宮市,阿幸地,シズオカケン,フジノミヤシ,アコウジ,静岡県富士宮市阿幸地
4180017,静岡県,富士宮市,舟久保町,シズオカケン,フジノミヤシ,フナクボチョウ,静岡県富士宮市舟久保町
4180018,静岡県,富士宮市,粟倉南町,シズオカケン,フジノミヤシ,アワクラミナミチョウ,静岡県富士宮市粟倉南町
4180019,静岡県,富士宮市,南陵,シズオカケン,フジノミヤシ,ナンリョウ,静岡県富士宮市南陵
4180021,静岡県,富士宮市,杉田,シズオカケン,フジノミヤシ,スギタ,静岡県富士宮市杉田
4180022,静岡県,富士宮市,小泉,シズオカケン,フジノミヤシ,コイズミ,静岡県富士宮市小泉
4180023,静岡県,富士宮市,山本,シズオカケン,フジノミヤシ,ヤマモト,静岡県富士宮市山本
4180024,静岡県,富士宮市,貫戸,シズオカケン,フジノミヤシ,ヌクド,静岡県富士宮市貫戸
4180025,静岡県,富士宮市,前田町,シズオカケン,フジノミヤシ,マエダチョウ,静岡県富士宮市前田町
4180026,静岡県,富士宮市,西小泉町,シズオカケン,フジノミヤシ,ニシコイズミチョウ,静岡県富士宮市西小泉町
4180031,静岡県,富士宮市,神田川町,シズオカケン,フジノミヤシ,カンダガワチョウ,静岡県富士宮市神田川町
4180032,静岡県,富士宮市,浅間町,シズオカケン,フジノミヤシ,アサマチョウ,静岡県富士宮市浅間町
4180033,静岡県,富士宮市,野中東町,シズオカケン,フジノミヤシ,ノナカヒガシチョウ,静岡県富士宮市野中東町
4180034,静岡県,富士宮市,黒田,シズオカケン,フジノミヤシ,クロダ,静岡県富士宮市黒田
4180035,静岡県,富士宮市,星山,シズオカケン,フジノミヤシ,ホシヤマ,静岡県富士宮市星山
4180036,静岡県,富士宮市,沼久保,シズオカケン,フジノミヤシ,ヌマクボ,静岡県富士宮市沼久保
4180037,静岡県,富士宮市,安居山,シズオカケン,フジノミヤシ,アゴヤマ,静岡県富士宮市安居山
4180038,静岡県,富士宮市,野中町,シズオカケン,フジノミヤシ,ノナカチョウ,静岡県富士宮市野中町
4180039,静岡県,富士宮市,野中,シズオカケン,フジノミヤシ,ノナカ,静岡県富士宮市野中
4180041,静岡県,富士宮市,淀川町,シズオカケン,フジノミヤシ,ヨドガワチョウ,静岡県富士宮市淀川町
4180042,静岡県,富士宮市,貴船町,シズオカケン,フジノミヤシ,キブネチョウ,静岡県富士宮市貴船町
4180043,静岡県,富士宮市,泉町,シズオカケン,フジノミヤシ,イズミチョウ,静岡県富士宮市泉町
4180044,静岡県,富士宮市,大中里,シズオカケン,フジノミヤシ,オオナカザト,静岡県富士宮市大中里
4180045,静岡県,富士宮市,中島町,シズオカケン,フジノミヤシ,ナカジマチョウ,静岡県富士宮市中島町
4180046,静岡県,富士宮市,中里東町,シズオカケン,フジノミヤシ,ナカザトヒガシチョウ,静岡県富士宮市中里東町
4180047,静岡県,富士宮市,青木,シズオカケン,フジノミヤシ,アオキ,静岡県富士宮市青木
4180048,静岡県,富士宮市,青木平,シズオカケン,フジノミヤシ,アオキダイラ,静岡県富士宮市青木平
4180051,静岡県,富士宮市,淀師,シズオカケン,フジノミヤシ,ヨドシ,静岡県富士宮市淀師
4180052,静岡県,富士宮市,淀平町,シズオカケン,フジノミヤシ,ヨドヒラチョウ,静岡県富士宮市淀平町
4180053,静岡県,富士宮市,宮北町,シズオカケン,フジノミヤシ,ミヤキタチョウ,静岡県富士宮市宮北町
4180054,静岡県,富士宮市,光町,シズオカケン,フジノミヤシ,ヒカリチョウ,静岡県富士宮市光町
4180055,静岡県,富士宮市,宝町,シズオカケン,フジノミヤシ,タカラマチ,静岡県富士宮市宝町
4180056,静岡県,富士宮市,西町,シズオカケン,フジノミヤシ,ニシマチ,静岡県富士宮市西町
4180057,静岡県,富士宮市,朝日町,シズオカケン,フジノミヤシ,アサヒチョウ,静岡県富士宮市朝日町
4180058,静岡県,富士宮市,穂波町,シズオカケン,フジノミヤシ,ホナミチョウ,静岡県富士宮市穂波町
4180061,静岡県,富士宮市,北町,シズオカケン,フジノミヤシ,キタマチ,静岡県富士宮市北町
4180062,静岡県,富士宮市,城北町,シズオカケン,フジノミヤシ,ジョウホクチョウ,静岡県富士宮市城北町
4180063,静岡県,富士宮市,若の宮町,シズオカケン,フジノミヤシ,ワカノミヤチョウ,静岡県富士宮市若の宮町
4180064,静岡県,富士宮市,元城町,シズオカケン,フジノミヤシ,モトシロチョウ,静岡県富士宮市元城町
4180065,静岡県,富士宮市,中央町,シズオカケン,フジノミヤシ,チュウオウチョウ,静岡県富士宮市中央町
4180066,静岡県,富士宮市,大宮町,シズオカケン,フジノミヤシ,オオミヤチョウ,静岡県富士宮市大宮町
4180067,静岡県,富士宮市,宮町,シズオカケン,フジノミヤシ,ミヤチョウ,静岡県富士宮市宮町
4180068,静岡県,富士宮市,豊町,シズオカケン,フジノミヤシ,ユタカチョウ,静岡県富士宮市豊町
4180071,静岡県,富士宮市,東阿幸地,シズオカケン,フジノミヤシ,ヒガシアコウジ,静岡県富士宮市東阿幸地
4180072,静岡県,富士宮市,矢立町,シズオカケン,フジノミヤシ,ヤタテチョウ,静岡県富士宮市矢立町
4180073,静岡県,富士宮市,弓沢町,シズオカケン,フジノミヤシ,ユミザワチョウ,静岡県富士宮市弓沢町
4180074,静岡県,富士宮市,源道寺町,シズオカケン,フジノミヤシ,ゲンドウジチョウ,静岡県富士宮市源道寺町
4180075,静岡県,富士宮市,田中町,シズオカケン,フジノミヤシ,タナカチョウ,静岡県富士宮市田中町
4180076,静岡県,富士宮市,錦町,シズオカケン,フジノミヤシ,ニシキチョウ,静岡県富士宮市錦町
4180077,静岡県,富士宮市,東町,シズオカケン,フジノミヤシ,ヒガシチョウ,静岡県富士宮市東町
4180078,静岡県,富士宮市,阿幸地町,シズオカケン,フジノミヤシ,アコウジチョウ,静岡県富士宮市阿幸地町
4180101,静岡県,富士宮市,根原,シズオカケン,フジノミヤシ,ネバラ,静岡県富士宮市根原
4180102,静岡県,富士宮市,人穴,シズオカケン,フジノミヤシ,ヒトアナ,静岡県富士宮市人穴
4180103,静岡県,富士宮市,上井出,シズオカケン,フジノミヤシ,カミイデ,静岡県富士宮市上井出
4180104,静岡県,富士宮市,内野,シズオカケン,フジノミヤシ,ウツノ,静岡県富士宮市内野
4180105,静岡県,富士宮市,原,シズオカケン,フジノミヤシ,ハラ,静岡県富士宮市原
4180106,静岡県,富士宮市,半野,シズオカケン,フジノミヤシ,ハンノ,静岡県富士宮市半野
4180107,静岡県,富士宮市,佐折,シズオカケン,フジノミヤシ,サオリ,静岡県富士宮市佐折
4180108,静岡県,富士宮市,猪之頭,シズオカケン,フジノミヤシ,イノカシラ,静岡県富士宮市猪之頭
4180109,静岡県,富士宮市,麓,シズオカケン,フジノミヤシ,フモト,静岡県富士宮市麓
4180111,静岡県,富士宮市,山宮,シズオカケン,フジノミヤシ,ヤマミヤ,静岡県富士宮市山宮
4180112,静岡県,富士宮市,北山,シズオカケン,フジノミヤシ,キタヤマ,静岡県富士宮市北山
4180113,静岡県,富士宮市,馬見塚,シズオカケン,フジノミヤシ,ウマミヅカ,静岡県富士宮市馬見塚
4180114,静岡県,富士宮市,下条,シズオカケン,フジノミヤシ,シモジョウ,静岡県富士宮市下条
4180115,静岡県,富士宮市,精進川,シズオカケン,フジノミヤシ,ショウジンガワ,静岡県富士宮市精進川
4180116,静岡県,富士宮市,上条,シズオカケン,フジノミヤシ,カミジョウ,静岡県富士宮市上条
4180117,静岡県,富士宮市,狩宿,シズオカケン,フジノミヤシ,カリヤド,静岡県富士宮市狩宿
4190100,静岡県,田方郡函南町,,シズオカケン,タガタグンカンナミチョウ,,静岡県田方郡函南町
4190101,静岡県,田方郡函南町,桑原（その他）,シズオカケン,タガタグンカンナミチョウ,クワハラ(ソノタ),静岡県田方郡函南町桑原（その他）
4190102,静岡県,田方郡函南町,田代,シズオカケン,タガタグンカンナミチョウ,タシロ,静岡県田方郡函南町田代
4190103,静岡県,田方郡函南町,軽井沢,シズオカケン,タガタグンカンナミチョウ,カルイサワ,静岡県田方郡函南町軽井沢
4190104,静岡県,田方郡函南町,畑,シズオカケン,タガタグンカンナミチョウ,ハタ,静岡県田方郡函南町畑
4190105,静岡県,田方郡函南町,丹那,シズオカケン,タガタグンカンナミチョウ,タンナ,静岡県田方郡函南町丹那
4190106,静岡県,田方郡函南町,南箱根ダイヤランド,シズオカケン,タガタグンカンナミチョウ,ミナミハコネダイヤランド,静岡県田方郡函南町南箱根ダイヤランド
4190107,静岡県,田方郡函南町,平井,シズオカケン,タガタグンカンナミチョウ,ヒライ,静岡県田方郡函南町平井
4190111,静岡県,田方郡函南町,畑毛,シズオカケン,タガタグンカンナミチョウ,ハタケ,静岡県田方郡函南町畑毛
4190112,静岡県,田方郡函南町,柏谷,シズオカケン,タガタグンカンナミチョウ,カシヤ,静岡県田方郡函南町柏谷
4190113,静岡県,田方郡函南町,大土肥,シズオカケン,タガタグンカンナミチョウ,オオドイ,静岡県田方郡函南町大土肥
4190114,静岡県,田方郡函南町,仁田,シズオカケン,タガタグンカンナミチョウ,ニッタ,静岡県田方郡函南町仁田
4190115,静岡県,田方郡函南町,新田,シズオカケン,タガタグンカンナミチョウ,シンデン,静岡県田方郡函南町新田
4190116,静岡県,田方郡函南町,日守,シズオカケン,タガタグンカンナミチョウ,ヒモリ,静岡県田方郡函南町日守
4190121,静岡県,田方郡函南町,大竹,シズオカケン,タガタグンカンナミチョウ,オオダケ,静岡県田方郡函南町大竹
4190122,静岡県,田方郡函南町,上沢,シズオカケン,タガタグンカンナミチョウ,カミザワ,静岡県田方郡函南町上沢
4190123,静岡県,田方郡函南町,間宮,シズオカケン,タガタグンカンナミチョウ,マミヤ,静岡県田方郡函南町間宮
4190124,静岡県,田方郡函南町,塚本,シズオカケン,タガタグンカンナミチョウ,ツカモト,静岡県田方郡函南町塚本
4190125,静岡県,田方郡函南町,肥田,シズオカケン,タガタグンカンナミチョウ,ヒタ,静岡県田方郡函南町肥田
4190201,静岡県,富士市,厚原,シズオカケン,フジシ,アツハラ,静岡県富士市厚原
4190202,静岡県,富士市,久沢,シズオカケン,フジシ,クザワ,静岡県富士市久沢
4190203,静岡県,富士市,鷹岡本町,シズオカケン,フジシ,タカオカホンチョウ,静岡県富士市鷹岡本町
4190204,静岡県,富士市,入山瀬,シズオカケン,フジシ,イリヤマセ,静岡県富士市入山瀬
4190205,静岡県,富士市,天間,シズオカケン,フジシ,テンマ,静岡県富士市天間
4190301,静岡県,富士宮市,上柚野,シズオカケン,フジノミヤシ,カミユノ,静岡県富士宮市上柚野
4190302,静岡県,富士宮市,猫沢,シズオカケン,フジノミヤシ,ネコザワ,静岡県富士宮市猫沢
4190303,静岡県,富士宮市,大鹿窪,シズオカケン,フジノミヤシ,オオシカクボ,静岡県富士宮市大鹿窪
4190304,静岡県,富士宮市,鳥並,シズオカケン,フジノミヤシ,トリナミ,静岡県富士宮市鳥並
4190305,静岡県,富士宮市,下柚野,シズオカケン,フジノミヤシ,シモユノ,静岡県富士宮市下柚野
4190311,静岡県,富士宮市,上稲子,シズオカケン,フジノミヤシ,カミイナコ,静岡県富士宮市上稲子
4190312,静岡県,富士宮市,下稲子,シズオカケン,フジノミヤシ,シモイナコ,静岡県富士宮市下稲子
4190313,静岡県,富士宮市,西山,シズオカケン,フジノミヤシ,ニシヤマ,静岡県富士宮市西山
4190314,静岡県,富士宮市,大久保,シズオカケン,フジノミヤシ,オオクボ,静岡県富士宮市大久保
4190315,静岡県,富士宮市,長貫,シズオカケン,フジノミヤシ,ナガヌキ,静岡県富士宮市長貫
4190316,静岡県,富士宮市,羽鮒,シズオカケン,フジノミヤシ,ハブナ,静岡県富士宮市羽鮒
4190317,静岡県,富士宮市,内房,シズオカケン,フジノミヤシ,ウツブサ,静岡県富士宮市内房
4200001,静岡県,静岡市葵区,井宮町,シズオカケン,シズオカシアオイク,イノミヤチョウ,静岡県静岡市葵区井宮町
4200002,静岡県,静岡市葵区,材木町,シズオカケン,シズオカシアオイク,ザイモクチョウ,静岡県静岡市葵区材木町
4200003,静岡県,静岡市葵区,片羽町,シズオカケン,シズオカシアオイク,カタハチョウ,静岡県静岡市葵区片羽町
4200004,静岡県,静岡市葵区,末広町,シズオカケン,シズオカシアオイク,スエヒロチョウ,静岡県静岡市葵区末広町
4200005,静岡県,静岡市葵区,北番町,シズオカケン,シズオカシアオイク,キタバンチョウ,静岡県静岡市葵区北番町
4200006,静岡県,静岡市葵区,若松町,シズオカケン,シズオカシアオイク,ワカマツチョウ,静岡県静岡市葵区若松町
4200007,静岡県,静岡市葵区,柳町,シズオカケン,シズオカシアオイク,ヤナギチョウ,静岡県静岡市葵区柳町
4200008,静岡県,静岡市葵区,水道町,シズオカケン,シズオカシアオイク,スイドウチョウ,静岡県静岡市葵区水道町
4200009,静岡県,静岡市葵区,神明町,シズオカケン,シズオカシアオイク,シンメイチョウ,静岡県静岡市葵区神明町
4200011,静岡県,静岡市葵区,安西,シズオカケン,シズオカシアオイク,アンザイ,静岡県静岡市葵区安西
4200012,静岡県,静岡市葵区,柚木町,シズオカケン,シズオカシアオイク,ユズノキチョウ,静岡県静岡市葵区柚木町
4200013,静岡県,静岡市葵区,八千代町,シズオカケン,シズオカシアオイク,ヤチヨチョウ,静岡県静岡市葵区八千代町
4200014,静岡県,静岡市葵区,上桶屋町,シズオカケン,シズオカシアオイク,カミオケヤチョウ,静岡県静岡市葵区上桶屋町
4200015,静岡県,静岡市葵区,錦町,シズオカケン,シズオカシアオイク,ニシキチョウ,静岡県静岡市葵区錦町
4200016,静岡県,静岡市葵区,住吉町,シズオカケン,シズオカシアオイク,スミヨシチョウ,静岡県静岡市葵区住吉町
4200017,静岡県,静岡市葵区,葵町,シズオカケン,シズオカシアオイク,アオイチョウ,静岡県静岡市葵区葵町
4200018,静岡県,静岡市葵区,土太夫町,シズオカケン,シズオカシアオイク,ドダユウチョウ,静岡県静岡市葵区土太夫町
4200021,静岡県,静岡市葵区,茶町,シズオカケン,シズオカシアオイク,チャマチ,静岡県静岡市葵区茶町
4200022,静岡県,静岡市葵区,車町,シズオカケン,シズオカシアオイク,クルマチョウ,静岡県静岡市葵区車町
4200023,静岡県,静岡市葵区,富士見町,シズオカケン,シズオカシアオイク,フジミチョウ,静岡県静岡市葵区富士見町
4200024,静岡県,静岡市葵区,中町,シズオカケン,シズオカシアオイク,ナカチョウ,静岡県静岡市葵区中町
4200025,静岡県,静岡市葵区,金座町,シズオカケン,シズオカシアオイク,キンザマチ,静岡県静岡市葵区金座町
4200026,静岡県,静岡市葵区,大鋸町,シズオカケン,シズオカシアオイク,オオガマチ,静岡県静岡市葵区大鋸町
4200027,静岡県,静岡市葵区,大工町,シズオカケン,シズオカシアオイク,ダイクチョウ,静岡県静岡市葵区大工町
4200028,静岡県,静岡市葵区,屋形町,シズオカケン,シズオカシアオイク,ヤカタマチ,静岡県静岡市葵区屋形町
4200029,静岡県,静岡市葵区,研屋町,シズオカケン,シズオカシアオイク,トギヤチョウ,静岡県静岡市葵区研屋町
4200031,静岡県,静岡市葵区,呉服町,シズオカケン,シズオカシアオイク,ゴフクチョウ,静岡県静岡市葵区呉服町
4200032,静岡県,静岡市葵区,両替町,シズオカケン,シズオカシアオイク,リョウガエチョウ,静岡県静岡市葵区両替町
4200033,静岡県,静岡市葵区,昭和町,シズオカケン,シズオカシアオイク,ショウワチョウ,静岡県静岡市葵区昭和町
4200034,静岡県,静岡市葵区,常磐町,シズオカケン,シズオカシアオイク,トキワチョウ,静岡県静岡市葵区常磐町
4200035,静岡県,静岡市葵区,七間町,シズオカケン,シズオカシアオイク,シチケンチョウ,静岡県静岡市葵区七間町
4200036,静岡県,静岡市葵区,駿河町,シズオカケン,シズオカシアオイク,スルガチョウ,静岡県静岡市葵区駿河町
4200037,静岡県,静岡市葵区,人宿町,シズオカケン,シズオカシアオイク,ヒトヤドチョウ,静岡県静岡市葵区人宿町
4200038,静岡県,静岡市葵区,梅屋町,シズオカケン,シズオカシアオイク,ウメヤチョウ,静岡県静岡市葵区梅屋町
4200039,静岡県,静岡市葵区,上石町,シズオカケン,シズオカシアオイク,カミゴクチョウ,静岡県静岡市葵区上石町
4200041,静岡県,静岡市葵区,双葉町,シズオカケン,シズオカシアオイク,フタバチョウ,静岡県静岡市葵区双葉町
4200042,静岡県,静岡市葵区,駒形通,シズオカケン,シズオカシアオイク,コマガタドオリ,静岡県静岡市葵区駒形通
4200043,静岡県,静岡市葵区,川辺町,シズオカケン,シズオカシアオイク,カワナベチョウ,静岡県静岡市葵区川辺町
4200044,静岡県,静岡市葵区,西門町,シズオカケン,シズオカシアオイク,ニシモンチョウ,静岡県静岡市葵区西門町
4200045,静岡県,静岡市葵区,天王町,シズオカケン,シズオカシアオイク,テンノウチョウ,静岡県静岡市葵区天王町
4200046,静岡県,静岡市葵区,吉野町,シズオカケン,シズオカシアオイク,ヨシノチョウ,静岡県静岡市葵区吉野町
4200047,静岡県,静岡市葵区,清閑町,シズオカケン,シズオカシアオイク,セイカンチョウ,静岡県静岡市葵区清閑町
4200048,静岡県,静岡市葵区,桜木町,シズオカケン,シズオカシアオイク,サクラギチョウ,静岡県静岡市葵区桜木町
4200051,静岡県,静岡市葵区,南田町,シズオカケン,シズオカシアオイク,ミナミタマチ,静岡県静岡市葵区南田町
4200052,静岡県,静岡市葵区,川越町,シズオカケン,シズオカシアオイク,カワゴシチョウ,静岡県静岡市葵区川越町
4200053,静岡県,静岡市葵区,弥勒,シズオカケン,シズオカシアオイク,ミロク,静岡県静岡市葵区弥勒
4200054,静岡県,静岡市葵区,南安倍（１、２丁目）,シズオカケン,シズオカシアオイク,ミナミアベ(1、2チョウメ),静岡県静岡市葵区南安倍（1、2-）
4200061,静岡県,静岡市葵区,新富町,シズオカケン,シズオカシアオイク,シントミチョウ,静岡県静岡市葵区新富町
4200062,静岡県,静岡市葵区,上新富町,シズオカケン,シズオカシアオイク,カミシントミチョウ,静岡県静岡市葵区上新富町
4200063,静岡県,静岡市葵区,通車町,シズオカケン,シズオカシアオイク,トオリクルマチョウ,静岡県静岡市葵区通車町
4200064,静岡県,静岡市葵区,本通,シズオカケン,シズオカシアオイク,ホントオリ,静岡県静岡市葵区本通
4200065,静岡県,静岡市葵区,新通,シズオカケン,シズオカシアオイク,シントオリ,静岡県静岡市葵区新通
4200066,静岡県,静岡市葵区,本通西町,シズオカケン,シズオカシアオイク,ホントオリニシマチ,静岡県静岡市葵区本通西町
4200067,静岡県,静岡市葵区,幸町,シズオカケン,シズオカシアオイク,サイワイチョウ,静岡県静岡市葵区幸町
4200068,静岡県,静岡市葵区,田町,シズオカケン,シズオカシアオイク,タマチ,静岡県静岡市葵区田町
4200071,静岡県,静岡市葵区,一番町,シズオカケン,シズオカシアオイク,イチバンチョウ,静岡県静岡市葵区一番町
4200072,静岡県,静岡市葵区,二番町,シズオカケン,シズオカシアオイク,ニバンチョウ,静岡県静岡市葵区二番町
4200073,静岡県,静岡市葵区,三番町,シズオカケン,シズオカシアオイク,サンバンチョウ,静岡県静岡市葵区三番町
4200074,静岡県,静岡市葵区,四番町,シズオカケン,シズオカシアオイク,ヨンバンチョウ,静岡県静岡市葵区四番町
4200075,静岡県,静岡市葵区,五番町,シズオカケン,シズオカシアオイク,ゴバンチョウ,静岡県静岡市葵区五番町
4200076,静岡県,静岡市葵区,六番町,シズオカケン,シズオカシアオイク,ロクバンチョウ,静岡県静岡市葵区六番町
4200077,静岡県,静岡市葵区,七番町,シズオカケン,シズオカシアオイク,シチバンチョウ,静岡県静岡市葵区七番町
4200078,静岡県,静岡市葵区,八番町,シズオカケン,シズオカシアオイク,ハチバンチョウ,静岡県静岡市葵区八番町
4200801,静岡県,静岡市葵区,東千代田,シズオカケン,シズオカシアオイク,ヒガシチヨダ,静岡県静岡市葵区東千代田
4200803,静岡県,静岡市葵区,千代田,シズオカケン,シズオカシアオイク,チヨダ,静岡県静岡市葵区千代田
4200804,静岡県,静岡市葵区,竜南,シズオカケン,シズオカシアオイク,リュウナン,静岡県静岡市葵区竜南
4200805,静岡県,静岡市葵区,城北,シズオカケン,シズオカシアオイク,ジョウホク,静岡県静岡市葵区城北
4200810,静岡県,静岡市葵区,上土,シズオカケン,シズオカシアオイク,アゲツチ,静岡県静岡市葵区上土
4200811,静岡県,静岡市葵区,上土新田,シズオカケン,シズオカシアオイク,アゲツチシンデン,静岡県静岡市葵区上土新田
4200812,静岡県,静岡市葵区,古庄,シズオカケン,シズオカシアオイク,フルショウ,静岡県静岡市葵区古庄
4200813,静岡県,静岡市葵区,長沼,シズオカケン,シズオカシアオイク,ナガヌマ,静岡県静岡市葵区長沼
4200814,静岡県,静岡市葵区,長沼南,シズオカケン,シズオカシアオイク,ナガヌマミナミ,静岡県静岡市葵区長沼南
4200815,静岡県,静岡市葵区,上沓谷町,シズオカケン,シズオカシアオイク,カミクツノヤチョウ,静岡県静岡市葵区上沓谷町
4200816,静岡県,静岡市葵区,沓谷,シズオカケン,シズオカシアオイク,クツノヤ,静岡県静岡市葵区沓谷
4200817,静岡県,静岡市葵区,東静岡,シズオカケン,シズオカシアオイク,ヒガシシズオカ,静岡県静岡市葵区東静岡
4200821,静岡県,静岡市葵区,柚木,シズオカケン,シズオカシアオイク,ユノキ,静岡県静岡市葵区柚木
4200822,静岡県,静岡市葵区,宮前町,シズオカケン,シズオカシアオイク,ミヤマエチョウ,静岡県静岡市葵区宮前町
4200823,静岡県,静岡市葵区,春日,シズオカケン,シズオカシアオイク,カスガ,静岡県静岡市葵区春日
4200824,静岡県,静岡市葵区,春日町,シズオカケン,シズオカシアオイク,カスガチョウ,静岡県静岡市葵区春日町
4200825,静岡県,静岡市葵区,瓦場町,シズオカケン,シズオカシアオイク,カワラバチョウ,静岡県静岡市葵区瓦場町
4200831,静岡県,静岡市葵区,水落町,シズオカケン,シズオカシアオイク,ミズオチチョウ,静岡県静岡市葵区水落町
4200832,静岡県,静岡市葵区,横内町,シズオカケン,シズオカシアオイク,ヨコウチチョウ,静岡県静岡市葵区横内町
4200833,静岡県,静岡市葵区,東鷹匠町,シズオカケン,シズオカシアオイク,ヒガシタカジョウマチ,静岡県静岡市葵区東鷹匠町
4200834,静岡県,静岡市葵区,音羽町,シズオカケン,シズオカシアオイク,オトワチョウ,静岡県静岡市葵区音羽町
4200835,静岡県,静岡市葵区,横田町,シズオカケン,シズオカシアオイク,ヨコタマチ,静岡県静岡市葵区横田町
4200836,静岡県,静岡市葵区,東町,シズオカケン,シズオカシアオイク,アズマチョウ,静岡県静岡市葵区東町
4200837,静岡県,静岡市葵区,日出町,シズオカケン,シズオカシアオイク,ヒノデチョウ,静岡県静岡市葵区日出町
4200838,静岡県,静岡市葵区,相生町,シズオカケン,シズオカシアオイク,アイオイチョウ,静岡県静岡市葵区相生町
4200839,静岡県,静岡市葵区,鷹匠,シズオカケン,シズオカシアオイク,タカジョウ,静岡県静岡市葵区鷹匠
4200841,静岡県,静岡市葵区,上足洗,シズオカケン,シズオカシアオイク,カミアシアライ,静岡県静岡市葵区上足洗
4200842,静岡県,静岡市葵区,銭座町,シズオカケン,シズオカシアオイク,ゼンザマチ,静岡県静岡市葵区銭座町
4200843,静岡県,静岡市葵区,巴町,シズオカケン,シズオカシアオイク,トモエチョウ,静岡県静岡市葵区巴町
4200844,静岡県,静岡市葵区,緑町,シズオカケン,シズオカシアオイク,ミドリチョウ,静岡県静岡市葵区緑町
4200845,静岡県,静岡市葵区,太田町,シズオカケン,シズオカシアオイク,オオタマチ,静岡県静岡市葵区太田町
4200846,静岡県,静岡市葵区,城東町,シズオカケン,シズオカシアオイク,ジョウトウチョウ,静岡県静岡市葵区城東町
4200847,静岡県,静岡市葵区,西千代田町,シズオカケン,シズオカシアオイク,ニシチヨダチョウ,静岡県静岡市葵区西千代田町
4200851,静岡県,静岡市葵区,黒金町,シズオカケン,シズオカシアオイク,クロガネチョウ,静岡県静岡市葵区黒金町
4200852,静岡県,静岡市葵区,紺屋町,シズオカケン,シズオカシアオイク,コウヤマチ,静岡県静岡市葵区紺屋町
4200853,静岡県,静岡市葵区,追手町,シズオカケン,シズオカシアオイク,オウテマチ,静岡県静岡市葵区追手町
4200854,静岡県,静岡市葵区,城内町,シズオカケン,シズオカシアオイク,ジョウナイチョウ,静岡県静岡市葵区城内町
4200855,静岡県,静岡市葵区,駿府城公園,シズオカケン,シズオカシアオイク,スンプジョウコウエン,静岡県静岡市葵区駿府城公園
4200856,静岡県,静岡市葵区,駿府町,シズオカケン,シズオカシアオイク,スンプチョウ,静岡県静岡市葵区駿府町
4200857,静岡県,静岡市葵区,御幸町,シズオカケン,シズオカシアオイク,ミユキチョウ,静岡県静岡市葵区御幸町
4200858,静岡県,静岡市葵区,伝馬町,シズオカケン,シズオカシアオイク,テンマチョウ,静岡県静岡市葵区伝馬町
4200859,静岡県,静岡市葵区,栄町,シズオカケン,シズオカシアオイク,サカエチョウ,静岡県静岡市葵区栄町
4200861,静岡県,静岡市葵区,丸山町,シズオカケン,シズオカシアオイク,マルヤマチョウ,静岡県静岡市葵区丸山町
4200862,静岡県,静岡市葵区,浅間町,シズオカケン,シズオカシアオイク,センゲンチョウ,静岡県静岡市葵区浅間町
4200863,静岡県,静岡市葵区,安東柳町,シズオカケン,シズオカシアオイク,アンドウヤナギチョウ,静岡県静岡市葵区安東柳町
4200864,静岡県,静岡市葵区,長谷町,シズオカケン,シズオカシアオイク,ハセチョウ,静岡県静岡市葵区長谷町
4200865,静岡県,静岡市葵区,東草深町,シズオカケン,シズオカシアオイク,ヒガシクサブカチョウ,静岡県静岡市葵区東草深町
4200866,静岡県,静岡市葵区,西草深町,シズオカケン,シズオカシアオイク,ニシクサブカチョウ,静岡県静岡市葵区西草深町
4200867,静岡県,静岡市葵区,馬場町,シズオカケン,シズオカシアオイク,ババンチョウ,静岡県静岡市葵区馬場町
4200868,静岡県,静岡市葵区,宮ケ崎町,シズオカケン,シズオカシアオイク,ミヤガサキチョウ,静岡県静岡市葵区宮ケ崎町
4200869,静岡県,静岡市葵区,安倍町,シズオカケン,シズオカシアオイク,アベチョウ,静岡県静岡市葵区安倍町
4200871,静岡県,静岡市葵区,昭府,シズオカケン,シズオカシアオイク,ショウブ,静岡県静岡市葵区昭府
4200872,静岡県,静岡市葵区,昭府町,シズオカケン,シズオカシアオイク,ショウブチョウ,静岡県静岡市葵区昭府町
4200873,静岡県,静岡市葵区,籠上,シズオカケン,シズオカシアオイク,カゴウエ,静岡県静岡市葵区籠上
4200874,静岡県,静岡市葵区,辰起町,シズオカケン,シズオカシアオイク,タツキチョウ,静岡県静岡市葵区辰起町
4200875,静岡県,静岡市葵区,美川町,シズオカケン,シズオカシアオイク,ミカワチョウ,静岡県静岡市葵区美川町
4200876,静岡県,静岡市葵区,平和,シズオカケン,シズオカシアオイク,ヘイワ,静岡県静岡市葵区平和
4200881,静岡県,静岡市葵区,北安東,シズオカケン,シズオカシアオイク,キタアンドウ,静岡県静岡市葵区北安東
4200882,静岡県,静岡市葵区,安東,シズオカケン,シズオカシアオイク,アンドウ,静岡県静岡市葵区安東
4200883,静岡県,静岡市葵区,大岩宮下町,シズオカケン,シズオカシアオイク,オオイワミヤシタチョウ,静岡県静岡市葵区大岩宮下町
4200884,静岡県,静岡市葵区,大岩本町,シズオカケン,シズオカシアオイク,オオイワホンチョウ,静岡県静岡市葵区大岩本町
4200885,静岡県,静岡市葵区,大岩町,シズオカケン,シズオカシアオイク,オオイワチョウ,静岡県静岡市葵区大岩町
4200886,静岡県,静岡市葵区,大岩,シズオカケン,シズオカシアオイク,オオイワ,静岡県静岡市葵区大岩
4200901,静岡県,静岡市葵区,北沼上,シズオカケン,シズオカシアオイク,キタヌマガミ,静岡県静岡市葵区北沼上
4200902,静岡県,静岡市葵区,諏訪,シズオカケン,シズオカシアオイク,スワ,静岡県静岡市葵区諏訪
4200903,静岡県,静岡市葵区,長尾,シズオカケン,シズオカシアオイク,ナガオ,静岡県静岡市葵区長尾
4200904,静岡県,静岡市葵区,平山,シズオカケン,シズオカシアオイク,ヒラヤマ,静岡県静岡市葵区平山
4200905,静岡県,静岡市葵区,南沼上,シズオカケン,シズオカシアオイク,ミナミヌマガミ,静岡県静岡市葵区南沼上
4200906,静岡県,静岡市葵区,薬師,シズオカケン,シズオカシアオイク,ヤクシ,静岡県静岡市葵区薬師
4200911,静岡県,静岡市葵区,瀬名,シズオカケン,シズオカシアオイク,セナ,静岡県静岡市葵区瀬名
4200912,静岡県,静岡市葵区,東瀬名町,シズオカケン,シズオカシアオイク,ヒガシセナチョウ,静岡県静岡市葵区東瀬名町
4200913,静岡県,静岡市葵区,瀬名川,シズオカケン,シズオカシアオイク,セナガワ,静岡県静岡市葵区瀬名川
4200914,静岡県,静岡市葵区,西瀬名町,シズオカケン,シズオカシアオイク,ニシセナチョウ,静岡県静岡市葵区西瀬名町
4200915,静岡県,静岡市葵区,南瀬名町,シズオカケン,シズオカシアオイク,ミナミセナチョウ,静岡県静岡市葵区南瀬名町
4200916,静岡県,静岡市葵区,瀬名中央,シズオカケン,シズオカシアオイク,セナチュウオウ,静岡県静岡市葵区瀬名中央
4200921,静岡県,静岡市葵区,野丈,シズオカケン,シズオカシアオイク,ノダケ,静岡県静岡市葵区野丈
4200922,静岡県,静岡市葵区,流通センター,シズオカケン,シズオカシアオイク,リュウツウセンター,静岡県静岡市葵区流通センター
4200923,静岡県,静岡市葵区,川合,シズオカケン,シズオカシアオイク,カワイ,静岡県静岡市葵区川合
4200924,静岡県,静岡市葵区,川合新田,シズオカケン,シズオカシアオイク,カワイシンデン,静岡県静岡市葵区川合新田
4200925,静岡県,静岡市葵区,加藤島,シズオカケン,シズオカシアオイク,カトウジマ,静岡県静岡市葵区加藤島
4200931,静岡県,静岡市葵区,観山,シズオカケン,シズオカシアオイク,カンザン,静岡県静岡市葵区観山
4200932,静岡県,静岡市葵区,豊地,シズオカケン,シズオカシアオイク,トヨチ,静岡県静岡市葵区豊地
4200933,静岡県,静岡市葵区,立石,シズオカケン,シズオカシアオイク,タテイシ,静岡県静岡市葵区立石
4200934,静岡県,静岡市葵区,岳美,シズオカケン,シズオカシアオイク,タケミ,静岡県静岡市葵区岳美
4200935,静岡県,静岡市葵区,池ケ谷東,シズオカケン,シズオカシアオイク,イケガヤヒガシ,静岡県静岡市葵区池ケ谷東
4200936,静岡県,静岡市葵区,池ケ谷,シズオカケン,シズオカシアオイク,イケガヤ,静岡県静岡市葵区池ケ谷
4200937,静岡県,静岡市葵区,唐瀬,シズオカケン,シズオカシアオイク,カラセ,静岡県静岡市葵区唐瀬
4200941,静岡県,静岡市葵区,松富,シズオカケン,シズオカシアオイク,マツドミ,静岡県静岡市葵区松富
4200942,静岡県,静岡市葵区,松富上組,シズオカケン,シズオカシアオイク,マツドミカミグミ,静岡県静岡市葵区松富上組
4200943,静岡県,静岡市葵区,上伝馬,シズオカケン,シズオカシアオイク,カミテンマ,静岡県静岡市葵区上伝馬
4200944,静岡県,静岡市葵区,新伝馬,シズオカケン,シズオカシアオイク,シンテンマ,静岡県静岡市葵区新伝馬
4200945,静岡県,静岡市葵区,桜町,シズオカケン,シズオカシアオイク,サクラチョウ,静岡県静岡市葵区桜町
4200946,静岡県,静岡市葵区,伊呂波町,シズオカケン,シズオカシアオイク,イロハチョウ,静岡県静岡市葵区伊呂波町
4200947,静岡県,静岡市葵区,堤町,シズオカケン,シズオカシアオイク,ツツミチョウ,静岡県静岡市葵区堤町
4200948,静岡県,静岡市葵区,秋山町,シズオカケン,シズオカシアオイク,アキヤマチョウ,静岡県静岡市葵区秋山町
4200949,静岡県,静岡市葵区,与一,シズオカケン,シズオカシアオイク,ヨイチ,静岡県静岡市葵区与一
4200951,静岡県,静岡市葵区,天神前,シズオカケン,シズオカシアオイク,テンジンマエ,静岡県静岡市葵区天神前
4200952,静岡県,静岡市葵区,牛田,シズオカケン,シズオカシアオイク,ウシダ,静岡県静岡市葵区牛田
4200953,静岡県,静岡市葵区,漆山,シズオカケン,シズオカシアオイク,ウルシヤマ,静岡県静岡市葵区漆山
4200954,静岡県,静岡市葵区,平柳,シズオカケン,シズオカシアオイク,ヒラヤナギ,静岡県静岡市葵区平柳
4200955,静岡県,静岡市葵区,芝原,シズオカケン,シズオカシアオイク,シバハラ,静岡県静岡市葵区芝原
4200956,静岡県,静岡市葵区,南,シズオカケン,シズオカシアオイク,ミナミ,静岡県静岡市葵区南
4200957,静岡県,静岡市葵区,前林,シズオカケン,シズオカシアオイク,マエバヤシ,静岡県静岡市葵区前林
4200961,静岡県,静岡市葵区,北,シズオカケン,シズオカシアオイク,キタ,静岡県静岡市葵区北
4200962,静岡県,静岡市葵区,東,シズオカケン,シズオカシアオイク,ヒガシ,静岡県静岡市葵区東
4200963,静岡県,静岡市葵区,赤松,シズオカケン,シズオカシアオイク,アカマツ,静岡県静岡市葵区赤松
4200964,静岡県,静岡市葵区,柳原,シズオカケン,シズオカシアオイク,ヤナギハラ,静岡県静岡市葵区柳原
4200965,静岡県,静岡市葵区,有永,シズオカケン,シズオカシアオイク,アリナガ,静岡県静岡市葵区有永
4200966,静岡県,静岡市葵区,羽高,シズオカケン,シズオカシアオイク,ハタカ,静岡県静岡市葵区羽高
4200967,静岡県,静岡市葵区,羽高町,シズオカケン,シズオカシアオイク,ハタカチョウ,静岡県静岡市葵区羽高町
4200968,静岡県,静岡市葵区,あさはた,シズオカケン,シズオカシアオイク,アサハタ,静岡県静岡市葵区あさはた
4200969,静岡県,静岡市葵区,有永町,シズオカケン,シズオカシアオイク,アリナガチョウ,静岡県静岡市葵区有永町
4210101,静岡県,静岡市駿河区,向敷地,シズオカケン,シズオカシスルガク,ムコウシキジ,静岡県静岡市駿河区向敷地
4210102,静岡県,静岡市駿河区,手越,シズオカケン,シズオカシスルガク,テゴシ,静岡県静岡市駿河区手越
4210103,静岡県,静岡市駿河区,丸子,シズオカケン,シズオカシスルガク,マリコ,静岡県静岡市駿河区丸子
4210104,静岡県,静岡市駿河区,丸子芹が谷町,シズオカケン,シズオカシスルガク,マリコセリガヤチョウ,静岡県静岡市駿河区丸子芹が谷町
4210105,静岡県,静岡市駿河区,宇津ノ谷,シズオカケン,シズオカシスルガク,ウツノヤ,静岡県静岡市駿河区宇津ノ谷
4210106,静岡県,静岡市駿河区,北丸子,シズオカケン,シズオカシスルガク,キタマリコ,静岡県静岡市駿河区北丸子
4210107,静岡県,静岡市駿河区,向手越,シズオカケン,シズオカシスルガク,ムコウテゴシ,静岡県静岡市駿河区向手越
4210111,静岡県,静岡市駿河区,丸子新田,シズオカケン,シズオカシスルガク,マリコシンデン,静岡県静岡市駿河区丸子新田
4210112,静岡県,静岡市駿河区,東新田,シズオカケン,シズオカシスルガク,トウシンデン,静岡県静岡市駿河区東新田
4210113,静岡県,静岡市駿河区,下川原,シズオカケン,シズオカシスルガク,シモカワハラ,静岡県静岡市駿河区下川原
4210114,静岡県,静岡市駿河区,桃園町,シズオカケン,シズオカシスルガク,モモゾノチョウ,静岡県静岡市駿河区桃園町
4210115,静岡県,静岡市駿河区,みずほ,シズオカケン,シズオカシスルガク,ミズホ,静岡県静岡市駿河区みずほ
4210116,静岡県,静岡市駿河区,光陽町,シズオカケン,シズオカシスルガク,コウヨウチョウ,静岡県静岡市駿河区光陽町
4210117,静岡県,静岡市駿河区,下川原南,シズオカケン,シズオカシスルガク,シモカワハラミナミ,静岡県静岡市駿河区下川原南
4210121,静岡県,静岡市駿河区,広野,シズオカケン,シズオカシスルガク,ヒロノ,静岡県静岡市駿河区広野
4210122,静岡県,静岡市駿河区,用宗,シズオカケン,シズオカシスルガク,モチムネ,静岡県静岡市駿河区用宗
4210123,静岡県,静岡市駿河区,石部,シズオカケン,シズオカシスルガク,セキベ,静岡県静岡市駿河区石部
4210124,静岡県,静岡市駿河区,用宗城山町,シズオカケン,シズオカシスルガク,モチムネシロヤマチョウ,静岡県静岡市駿河区用宗城山町
4210125,静岡県,静岡市駿河区,用宗小石町,シズオカケン,シズオカシスルガク,モチムネコイシチョウ,静岡県静岡市駿河区用宗小石町
4210126,静岡県,静岡市駿河区,用宗巴町,シズオカケン,シズオカシスルガク,モチムネトモエチョウ,静岡県静岡市駿河区用宗巴町
4210131,静岡県,静岡市駿河区,手越原,シズオカケン,シズオカシスルガク,テゴシハラ,静岡県静岡市駿河区手越原
4210132,静岡県,静岡市駿河区,上川原,シズオカケン,シズオカシスルガク,カミカワハラ,静岡県静岡市駿河区上川原
4210133,静岡県,静岡市駿河区,鎌田,シズオカケン,シズオカシスルガク,カマタ,静岡県静岡市駿河区鎌田
4210134,静岡県,静岡市駿河区,青木,シズオカケン,シズオカシスルガク,アオキ,静岡県静岡市駿河区青木
4210135,静岡県,静岡市駿河区,小坂,シズオカケン,シズオカシスルガク,オサカ,静岡県静岡市駿河区小坂
4210136,静岡県,静岡市駿河区,大和田,シズオカケン,シズオカシスルガク,オオワダ,静岡県静岡市駿河区大和田
4210137,静岡県,静岡市駿河区,寺田,シズオカケン,シズオカシスルガク,テラダ,静岡県静岡市駿河区寺田
4210201,静岡県,焼津市,上小杉,シズオカケン,ヤイヅシ,カミコスギ,静岡県焼津市上小杉
4210202,静岡県,焼津市,下小杉,シズオカケン,ヤイヅシ,シモコスギ,静岡県焼津市下小杉
4210203,静岡県,焼津市,藤守,シズオカケン,ヤイヅシ,フジモリ,静岡県焼津市藤守
4210204,静岡県,焼津市,高新田,シズオカケン,ヤイヅシ,タカシンデン,静岡県焼津市高新田
4210205,静岡県,焼津市,宗高,シズオカケン,ヤイヅシ,ムナダカ,静岡県焼津市宗高
4210206,静岡県,焼津市,上新田,シズオカケン,ヤイヅシ,カミシンデン,静岡県焼津市上新田
4210211,静岡県,焼津市,吉永,シズオカケン,ヤイヅシ,ヨシナガ,静岡県焼津市吉永
4210212,静岡県,焼津市,利右衛門,シズオカケン,ヤイヅシ,リエモン,静岡県焼津市利右衛門
4210213,静岡県,焼津市,飯淵,シズオカケン,ヤイヅシ,ハブチ,静岡県焼津市飯淵
4210214,静岡県,焼津市,中島,シズオカケン,ヤイヅシ,ナカジマ,静岡県焼津市中島
4210215,静岡県,焼津市,西島,シズオカケン,ヤイヅシ,ニシジマ,静岡県焼津市西島
4210216,静岡県,焼津市,相川,シズオカケン,ヤイヅシ,アイカワ,静岡県焼津市相川
4210217,静岡県,焼津市,上泉,シズオカケン,ヤイヅシ,カミイズミ,静岡県焼津市上泉
4210218,静岡県,焼津市,下江留,シズオカケン,ヤイヅシ,シモエドメ,静岡県焼津市下江留
4210300,静岡県,榛原郡吉田町,,シズオカケン,ハイバラグンヨシダチョウ,,静岡県榛原郡吉田町
4210301,静岡県,榛原郡吉田町,住吉,シズオカケン,ハイバラグンヨシダチョウ,スミヨシ,静岡県榛原郡吉田町住吉
4210302,静岡県,榛原郡吉田町,川尻,シズオカケン,ハイバラグンヨシダチョウ,カワシリ,静岡県榛原郡吉田町川尻
4210303,静岡県,榛原郡吉田町,片岡,シズオカケン,ハイバラグンヨシダチョウ,カタオカ,静岡県榛原郡吉田町片岡
4210304,静岡県,榛原郡吉田町,神戸,シズオカケン,ハイバラグンヨシダチョウ,カンド,静岡県榛原郡吉田町神戸
4210305,静岡県,榛原郡吉田町,大幡,シズオカケン,ハイバラグンヨシダチョウ,オオハタ,静岡県榛原郡吉田町大幡
4210401,静岡県,牧之原市,切山,シズオカケン,マキノハラシ,キリヤマ,静岡県牧之原市切山
4210402,静岡県,牧之原市,勝間,シズオカケン,マキノハラシ,カツマ,静岡県牧之原市勝間
4210403,静岡県,牧之原市,中,シズオカケン,マキノハラシ,ナカ,静岡県牧之原市中
4210404,静岡県,牧之原市,静谷,シズオカケン,マキノハラシ,シズタニ,静岡県牧之原市静谷
4210405,静岡県,牧之原市,白井（１２９１〜１６８２、１８３９〜１８４０番地）,シズオカケン,マキノハラシ,シライ(1291-1682、1839-1840バンチ),静岡県牧之原市白井（1291〜1682、1839〜1840-）
4210406,静岡県,牧之原市,勝田,シズオカケン,マキノハラシ,カツタ,静岡県牧之原市勝田
4210407,静岡県,牧之原市,布引原,シズオカケン,マキノハラシ,ヌノヒキハラ,静岡県牧之原市布引原
4210408,静岡県,牧之原市,嶋,シズオカケン,マキノハラシ,シマ,静岡県牧之原市嶋
4210409,静岡県,牧之原市,牧之原（その他）,シズオカケン,マキノハラシ,マキノハラ(ソノタ),静岡県牧之原市牧之原（その他）
4210411,静岡県,牧之原市,坂口,シズオカケン,マキノハラシ,サカグチ,静岡県牧之原市坂口
4210412,静岡県,牧之原市,坂部,シズオカケン,マキノハラシ,サカベ,静岡県牧之原市坂部
4210413,静岡県,牧之原市,仁田,シズオカケン,マキノハラシ,ニタ,静岡県牧之原市仁田
4210414,静岡県,牧之原市,勝俣,シズオカケン,マキノハラシ,カツマタ,静岡県牧之原市勝俣
4210415,静岡県,牧之原市,道場,シズオカケン,マキノハラシ,ドウジョウ,静岡県牧之原市道場
4210421,静岡県,牧之原市,細江,シズオカケン,マキノハラシ,ホソエ,静岡県牧之原市細江
4210422,静岡県,牧之原市,静波,シズオカケン,マキノハラシ,シズナミ,静岡県牧之原市静波
4210500,静岡県,牧之原市,,シズオカケン,マキノハラシ,,静岡県牧之原市
4210501,静岡県,牧之原市,東萩間,シズオカケン,マキノハラシ,ヒガシハギマ,静岡県牧之原市東萩間
4210502,静岡県,牧之原市,白井（その他）,シズオカケン,マキノハラシ,シライ(ソノタ),静岡県牧之原市白井（その他）
4210503,静岡県,牧之原市,蛭ケ谷,シズオカケン,マキノハラシ,ヒルガヤ,静岡県牧之原市蛭ケ谷
4210504,静岡県,牧之原市,黒子,シズオカケン,マキノハラシ,クロコ,静岡県牧之原市黒子
4210505,静岡県,牧之原市,中西,シズオカケン,マキノハラシ,ナカニシ,静岡県牧之原市中西
4210506,静岡県,牧之原市,大寄,シズオカケン,マキノハラシ,オオヨリ,静岡県牧之原市大寄
4210507,静岡県,牧之原市,和田,シズオカケン,マキノハラシ,ワダ,静岡県牧之原市和田
4210508,静岡県,牧之原市,西萩間,シズオカケン,マキノハラシ,ニシハギマ,静岡県牧之原市西萩間
4210509,静岡県,牧之原市,牧之原（１３６〜１４４番地）,シズオカケン,マキノハラシ,マキノハラ(136-144バンチ),静岡県牧之原市牧之原（136〜144-）
4210511,静岡県,牧之原市,片浜,シズオカケン,マキノハラシ,カタハマ,静岡県牧之原市片浜
4210512,静岡県,牧之原市,大江,シズオカケン,マキノハラシ,オオエ,静岡県牧之原市大江
4210513,静岡県,牧之原市,松本,シズオカケン,マキノハラシ,マツモト,静岡県牧之原市松本
4210514,静岡県,牧之原市,菅ケ谷,シズオカケン,マキノハラシ,スゲガヤ,静岡県牧之原市菅ケ谷
4210515,静岡県,牧之原市,西山寺,シズオカケン,マキノハラシ,サイサンジ,静岡県牧之原市西山寺
4210516,静岡県,牧之原市,女神,シズオカケン,マキノハラシ,メカミ,静岡県牧之原市女神
4210517,静岡県,牧之原市,男神,シズオカケン,マキノハラシ,オカミ,静岡県牧之原市男神
4210521,静岡県,牧之原市,福岡,シズオカケン,マキノハラシ,フクオカ,静岡県牧之原市福岡
4210522,静岡県,牧之原市,相良,シズオカケン,マキノハラシ,サガラ,静岡県牧之原市相良
4210523,静岡県,牧之原市,波津,シズオカケン,マキノハラシ,ハヅ,静岡県牧之原市波津
4210524,静岡県,牧之原市,須々木,シズオカケン,マキノハラシ,ススキ,静岡県牧之原市須々木
4210525,静岡県,牧之原市,鬼女新田,シズオカケン,マキノハラシ,キジョシンデン,静岡県牧之原市鬼女新田
4210526,静岡県,牧之原市,大沢,シズオカケン,マキノハラシ,オオサワ,静岡県牧之原市大沢
4210527,静岡県,牧之原市,汐見台,シズオカケン,マキノハラシ,シオミダイ,静岡県牧之原市汐見台
4210531,静岡県,牧之原市,落居,シズオカケン,マキノハラシ,オチイ,静岡県牧之原市落居
4210532,静岡県,牧之原市,地頭方,シズオカケン,マキノハラシ,ジトウガタ,静岡県牧之原市地頭方
4210533,静岡県,牧之原市,新庄,シズオカケン,マキノハラシ,シンショウ,静岡県牧之原市新庄
4210534,静岡県,牧之原市,堀野新田,シズオカケン,マキノハラシ,ホリノシンデン,静岡県牧之原市堀野新田
4210535,静岡県,牧之原市,笠名,シズオカケン,マキノハラシ,カサナ,静岡県牧之原市笠名
4211101,静岡県,藤枝市,岡部町玉取,シズオカケン,フジエダシ,オカベチョウタマトリ,静岡県藤枝市岡部町玉取
4211102,静岡県,藤枝市,岡部町宮島,シズオカケン,フジエダシ,オカベチョウミヤジマ,静岡県藤枝市岡部町宮島
4211103,静岡県,藤枝市,岡部町青羽根,シズオカケン,フジエダシ,オカベチョウアオハネ,静岡県藤枝市岡部町青羽根
4211111,静岡県,藤枝市,岡部町野田沢,シズオカケン,フジエダシ,オカベチョウノタザワ,静岡県藤枝市岡部町野田沢
4211112,静岡県,藤枝市,岡部町殿,シズオカケン,フジエダシ,オカベチョウトノ,静岡県藤枝市岡部町殿
4211113,静岡県,藤枝市,岡部町桂島,シズオカケン,フジエダシ,オカベチョウカツラシマ,静岡県藤枝市岡部町桂島
4211114,静岡県,藤枝市,岡部町羽佐間,シズオカケン,フジエダシ,オカベチョウハサマ,静岡県藤枝市岡部町羽佐間
4211115,静岡県,藤枝市,岡部町新舟,シズオカケン,フジエダシ,オカベチョウニュウフネ,静岡県藤枝市岡部町新舟
4211121,静岡県,藤枝市,岡部町岡部,シズオカケン,フジエダシ,オカベチョウオカベ,静岡県藤枝市岡部町岡部
4211122,静岡県,藤枝市,岡部町子持坂,シズオカケン,フジエダシ,オカベチョウコモチザカ,静岡県藤枝市岡部町子持坂
4211123,静岡県,藤枝市,岡部町入野,シズオカケン,フジエダシ,オカベチョウイリノ,静岡県藤枝市岡部町入野
4211124,静岡県,藤枝市,岡部町村良,シズオカケン,フジエダシ,オカベチョウムララ,静岡県藤枝市岡部町村良
4211131,静岡県,藤枝市,岡部町内谷,シズオカケン,フジエダシ,オカベチョウウツタニ,静岡県藤枝市岡部町内谷
4211132,静岡県,藤枝市,岡部町三輪,シズオカケン,フジエダシ,オカベチョウミワ,静岡県藤枝市岡部町三輪
4211201,静岡県,静岡市葵区,新間,シズオカケン,シズオカシアオイク,シンマ,静岡県静岡市葵区新間
4211202,静岡県,静岡市葵区,谷津,シズオカケン,シズオカシアオイク,ヤツ,静岡県静岡市葵区谷津
4211211,静岡県,静岡市葵区,慈悲尾,シズオカケン,シズオカシアオイク,シイノオ,静岡県静岡市葵区慈悲尾
4211212,静岡県,静岡市葵区,千代,シズオカケン,シズオカシアオイク,センダイ,静岡県静岡市葵区千代
4211213,静岡県,静岡市葵区,山崎,シズオカケン,シズオカシアオイク,ヤマザキ,静岡県静岡市葵区山崎
4211214,静岡県,静岡市葵区,建穂,シズオカケン,シズオカシアオイク,タキョウ,静岡県静岡市葵区建穂
4211215,静岡県,静岡市葵区,羽鳥,シズオカケン,シズオカシアオイク,ハトリ,静岡県静岡市葵区羽鳥
4211216,静岡県,静岡市葵区,羽鳥大門町,シズオカケン,シズオカシアオイク,ハトリダイモンチョウ,静岡県静岡市葵区羽鳥大門町
4211217,静岡県,静岡市葵区,羽鳥本町,シズオカケン,シズオカシアオイク,ハトリホンチョウ,静岡県静岡市葵区羽鳥本町
4211221,静岡県,静岡市葵区,牧ケ谷,シズオカケン,シズオカシアオイク,マキガヤ,静岡県静岡市葵区牧ケ谷
4211222,静岡県,静岡市葵区,産女,シズオカケン,シズオカシアオイク,ウブメ,静岡県静岡市葵区産女
4211223,静岡県,静岡市葵区,吉津,シズオカケン,シズオカシアオイク,ヨシヅ,静岡県静岡市葵区吉津
4211224,静岡県,静岡市葵区,飯間,シズオカケン,シズオカシアオイク,ハンマ,静岡県静岡市葵区飯間
4211225,静岡県,静岡市葵区,小瀬戸,シズオカケン,シズオカシアオイク,コゼト,静岡県静岡市葵区小瀬戸
4211226,静岡県,静岡市葵区,西又,シズオカケン,シズオカシアオイク,ニシマタ,静岡県静岡市葵区西又
4211301,静岡県,静岡市葵区,小島,シズオカケン,シズオカシアオイク,コジマ,静岡県静岡市葵区小島
4211302,静岡県,静岡市葵区,鍵穴,シズオカケン,シズオカシアオイク,カギアナ,静岡県静岡市葵区鍵穴
4211303,静岡県,静岡市葵区,坂本,シズオカケン,シズオカシアオイク,サカモト,静岡県静岡市葵区坂本
4211304,静岡県,静岡市葵区,寺島,シズオカケン,シズオカシアオイク,テラジマ,静岡県静岡市葵区寺島
4211305,静岡県,静岡市葵区,赤沢,シズオカケン,シズオカシアオイク,アカザワ,静岡県静岡市葵区赤沢
4211306,静岡県,静岡市葵区,昼居渡,シズオカケン,シズオカシアオイク,ヒルイド,静岡県静岡市葵区昼居渡
4211307,静岡県,静岡市葵区,相俣,シズオカケン,シズオカシアオイク,アイマタ,静岡県静岡市葵区相俣
4211308,静岡県,静岡市葵区,黒俣,シズオカケン,シズオカシアオイク,クロマタ,静岡県静岡市葵区黒俣
4211309,静岡県,静岡市葵区,杉尾,シズオカケン,シズオカシアオイク,スギオ,静岡県静岡市葵区杉尾
4211311,静岡県,静岡市葵区,富沢,シズオカケン,シズオカシアオイク,トンザワ,静岡県静岡市葵区富沢
4211312,静岡県,静岡市葵区,奈良間,シズオカケン,シズオカシアオイク,ナラマ,静岡県静岡市葵区奈良間
4211313,静岡県,静岡市葵区,水見色,シズオカケン,シズオカシアオイク,ミズミイロ,静岡県静岡市葵区水見色
4211314,静岡県,静岡市葵区,大原,シズオカケン,シズオカシアオイク,オオハラ,静岡県静岡市葵区大原
4211315,静岡県,静岡市葵区,富厚里,シズオカケン,シズオカシアオイク,フコウリ,静岡県静岡市葵区富厚里
4211316,静岡県,静岡市葵区,小布杉,シズオカケン,シズオカシアオイク,コブスギ,静岡県静岡市葵区小布杉
4211401,静岡県,静岡市葵区,大間,シズオカケン,シズオカシアオイク,オオマ,静岡県静岡市葵区大間
4211402,静岡県,静岡市葵区,諸子沢,シズオカケン,シズオカシアオイク,モロコザワ,静岡県静岡市葵区諸子沢
4211403,静岡県,静岡市葵区,日向,シズオカケン,シズオカシアオイク,ヒナタ,静岡県静岡市葵区日向
4211404,静岡県,静岡市葵区,栃沢,シズオカケン,シズオカシアオイク,トチザワ,静岡県静岡市葵区栃沢
4211405,静岡県,静岡市葵区,坂ノ上,シズオカケン,シズオカシアオイク,サカノカミ,静岡県静岡市葵区坂ノ上
4211406,静岡県,静岡市葵区,湯ノ島,シズオカケン,シズオカシアオイク,ユノシマ,静岡県静岡市葵区湯ノ島
4211407,静岡県,静岡市葵区,楢尾,シズオカケン,シズオカシアオイク,ナラオ,静岡県静岡市葵区楢尾
4211408,静岡県,静岡市葵区,崩野,シズオカケン,シズオカシアオイク,クズレノ,静岡県静岡市葵区崩野
4211409,静岡県,静岡市葵区,八草,シズオカケン,シズオカシアオイク,ヤクサ,静岡県静岡市葵区八草
4212101,静岡県,静岡市葵区,俵峰,シズオカケン,シズオカシアオイク,タワラミネ,静岡県静岡市葵区俵峰
4212102,静岡県,静岡市葵区,油島,シズオカケン,シズオカシアオイク,ユジマ,静岡県静岡市葵区油島
4212103,静岡県,静岡市葵区,俵沢,シズオカケン,シズオカシアオイク,タワラザワ,静岡県静岡市葵区俵沢
4212104,静岡県,静岡市葵区,野田平,シズオカケン,シズオカシアオイク,ノタヒラ,静岡県静岡市葵区野田平
4212105,静岡県,静岡市葵区,郷島,シズオカケン,シズオカシアオイク,ゴウジマ,静岡県静岡市葵区郷島
4212106,静岡県,静岡市葵区,牛妻,シズオカケン,シズオカシアオイク,ウシヅマ,静岡県静岡市葵区牛妻
4212107,静岡県,静岡市葵区,門屋,シズオカケン,シズオカシアオイク,カドヤ,静岡県静岡市葵区門屋
4212108,静岡県,静岡市葵区,下,シズオカケン,シズオカシアオイク,シモ,静岡県静岡市葵区下
4212109,静岡県,静岡市葵区,福田ケ谷,シズオカケン,シズオカシアオイク,フクダガヤ,静岡県静岡市葵区福田ケ谷
4212111,静岡県,静岡市葵区,中ノ郷,シズオカケン,シズオカシアオイク,ナカノゴウ,静岡県静岡市葵区中ノ郷
4212112,静岡県,静岡市葵区,遠藤新田,シズオカケン,シズオカシアオイク,エンドウシンデン,静岡県静岡市葵区遠藤新田
4212113,静岡県,静岡市葵区,安倍口団地,シズオカケン,シズオカシアオイク,アベグチダンチ,静岡県静岡市葵区安倍口団地
4212114,静岡県,静岡市葵区,安倍口新田,シズオカケン,シズオカシアオイク,アベグチシンデン,静岡県静岡市葵区安倍口新田
4212115,静岡県,静岡市葵区,与左衛門新田,シズオカケン,シズオカシアオイク,ヨザエモンシンデン,静岡県静岡市葵区与左衛門新田
4212116,静岡県,静岡市葵区,西ケ谷,シズオカケン,シズオカシアオイク,ニシガヤ,静岡県静岡市葵区西ケ谷
4212117,静岡県,静岡市葵区,幸庵新田,シズオカケン,シズオカシアオイク,コウアンシンデン,静岡県静岡市葵区幸庵新田
4212118,静岡県,静岡市葵区,内牧,シズオカケン,シズオカシアオイク,ウチマキ,静岡県静岡市葵区内牧
4212121,静岡県,静岡市葵区,津渡野,シズオカケン,シズオカシアオイク,ツドノ,静岡県静岡市葵区津渡野
4212122,静岡県,静岡市葵区,松野,シズオカケン,シズオカシアオイク,マツノ,静岡県静岡市葵区松野
4212123,静岡県,静岡市葵区,油山,シズオカケン,シズオカシアオイク,ユヤマ,静岡県静岡市葵区油山
4212124,静岡県,静岡市葵区,足久保口組,シズオカケン,シズオカシアオイク,アシクボクチグミ,静岡県静岡市葵区足久保口組
4212125,静岡県,静岡市葵区,足久保奥組,シズオカケン,シズオカシアオイク,アシクボオクグミ,静岡県静岡市葵区足久保奥組
4212201,静岡県,静岡市葵区,奥仙俣,シズオカケン,シズオカシアオイク,オクセンマタ,静岡県静岡市葵区奥仙俣
4212202,静岡県,静岡市葵区,口仙俣,シズオカケン,シズオカシアオイク,クチセンマタ,静岡県静岡市葵区口仙俣
4212203,静岡県,静岡市葵区,口坂本,シズオカケン,シズオカシアオイク,クチサカモト,静岡県静岡市葵区口坂本
4212211,静岡県,静岡市葵区,上落合,シズオカケン,シズオカシアオイク,カミオチアイ,静岡県静岡市葵区上落合
4212212,静岡県,静岡市葵区,油野,シズオカケン,シズオカシアオイク,ユノ,静岡県静岡市葵区油野
4212213,静岡県,静岡市葵区,長妻田,シズオカケン,シズオカシアオイク,ナガツマタ,静岡県静岡市葵区長妻田
4212214,静岡県,静岡市葵区,柿島,シズオカケン,シズオカシアオイク,カキシマ,静岡県静岡市葵区柿島
4212215,静岡県,静岡市葵区,奥池ケ谷,シズオカケン,シズオカシアオイク,オクイケガヤ,静岡県静岡市葵区奥池ケ谷
4212216,静岡県,静岡市葵区,長熊,シズオカケン,シズオカシアオイク,ナガクマ,静岡県静岡市葵区長熊
4212217,静岡県,静岡市葵区,森腰,シズオカケン,シズオカシアオイク,モリコシ,静岡県静岡市葵区森腰
4212221,静岡県,静岡市葵区,中沢,シズオカケン,シズオカシアオイク,ナカザワ,静岡県静岡市葵区中沢
4212222,静岡県,静岡市葵区,桂山,シズオカケン,シズオカシアオイク,カヤマ,静岡県静岡市葵区桂山
4212223,静岡県,静岡市葵区,落合,シズオカケン,シズオカシアオイク,オチアイ,静岡県静岡市葵区落合
4212224,静岡県,静岡市葵区,内匠,シズオカケン,シズオカシアオイク,タクミ,静岡県静岡市葵区内匠
4212225,静岡県,静岡市葵区,腰越,シズオカケン,シズオカシアオイク,コシゴエ,静岡県静岡市葵区腰越
4212226,静岡県,静岡市葵区,横沢,シズオカケン,シズオカシアオイク,ヨコサワ,静岡県静岡市葵区横沢
4212227,静岡県,静岡市葵区,大沢,シズオカケン,シズオカシアオイク,オオサワ,静岡県静岡市葵区大沢
4212301,静岡県,静岡市葵区,梅ケ島,シズオカケン,シズオカシアオイク,ウメガシマ,静岡県静岡市葵区梅ケ島
4212302,静岡県,静岡市葵区,入島,シズオカケン,シズオカシアオイク,ニュウジマ,静岡県静岡市葵区入島
4212303,静岡県,静岡市葵区,有東木,シズオカケン,シズオカシアオイク,ウトウギ,静岡県静岡市葵区有東木
4212304,静岡県,静岡市葵区,渡,シズオカケン,シズオカシアオイク,ド,静岡県静岡市葵区渡
4212305,静岡県,静岡市葵区,中平,シズオカケン,シズオカシアオイク,ナカヒラ,静岡県静岡市葵区中平
4212306,静岡県,静岡市葵区,平野,シズオカケン,シズオカシアオイク,ヒラノ,静岡県静岡市葵区平野
4212307,静岡県,静岡市葵区,横山,シズオカケン,シズオカシアオイク,ヨコヤマ,静岡県静岡市葵区横山
4212308,静岡県,静岡市葵区,蕨野,シズオカケン,シズオカシアオイク,ワラビノ,静岡県静岡市葵区蕨野
4212309,静岡県,静岡市葵区,相淵,シズオカケン,シズオカシアオイク,アイブチ,静岡県静岡市葵区相淵
4213101,静岡県,静岡市清水区,由比入山,シズオカケン,シズオカシシミズク,ユイイリヤマ,静岡県静岡市清水区由比入山
4213102,静岡県,静岡市清水区,由比東山寺,シズオカケン,シズオカシシミズク,ユイヒガシヤマデラ,静岡県静岡市清水区由比東山寺
4213103,静岡県,静岡市清水区,由比,シズオカケン,シズオカシシミズク,ユイ,静岡県静岡市清水区由比
4213104,静岡県,静岡市清水区,由比北田,シズオカケン,シズオカシシミズク,ユイキタダ,静岡県静岡市清水区由比北田
4213105,静岡県,静岡市清水区,由比町屋原,シズオカケン,シズオカシシミズク,ユイマチヤハラ,静岡県静岡市清水区由比町屋原
4213106,静岡県,静岡市清水区,由比西山寺,シズオカケン,シズオカシシミズク,ユイニシヤマデラ,静岡県静岡市清水区由比西山寺
4213107,静岡県,静岡市清水区,由比阿僧,シズオカケン,シズオカシシミズク,ユイアソウ,静岡県静岡市清水区由比阿僧
4213111,静岡県,静岡市清水区,由比今宿,シズオカケン,シズオカシシミズク,ユイイマジュク,静岡県静岡市清水区由比今宿
4213112,静岡県,静岡市清水区,由比寺尾,シズオカケン,シズオカシシミズク,ユイテラオ,静岡県静岡市清水区由比寺尾
4213114,静岡県,静岡市清水区,由比東倉澤,シズオカケン,シズオカシシミズク,ユイヒガシクラサワ,静岡県静岡市清水区由比東倉澤
4213115,静岡県,静岡市清水区,由比西倉澤,シズオカケン,シズオカシシミズク,ユイニシクラサワ,静岡県静岡市清水区由比西倉澤
4213201,静岡県,静岡市清水区,蒲原東,シズオカケン,シズオカシシミズク,カンバラヒガシ,静岡県静岡市清水区蒲原東
4213202,静岡県,静岡市清水区,蒲原新栄,シズオカケン,シズオカシシミズク,カンバラシンエイ,静岡県静岡市清水区蒲原新栄
4213203,静岡県,静岡市清水区,蒲原,シズオカケン,シズオカシシミズク,カンバラ,静岡県静岡市清水区蒲原
4213211,静岡県,静岡市清水区,蒲原新田,シズオカケン,シズオカシシミズク,カンバラシンデン,静岡県静岡市清水区蒲原新田
4213212,静岡県,静岡市清水区,蒲原小金,シズオカケン,シズオカシシミズク,カンバラコガネ,静岡県静岡市清水区蒲原小金
4213213,静岡県,静岡市清水区,蒲原中,シズオカケン,シズオカシシミズク,カンバラナカ,静岡県静岡市清水区蒲原中
4213214,静岡県,静岡市清水区,蒲原堰沢,シズオカケン,シズオカシシミズク,カンバラセギザワ,静岡県静岡市清水区蒲原堰沢
4213215,静岡県,静岡市清水区,蒲原神沢,シズオカケン,シズオカシシミズク,カンバラカンザワ,静岡県静岡市清水区蒲原神沢
4213301,静岡県,富士市,北松野,シズオカケン,フジシ,キタマツノ,静岡県富士市北松野
4213302,静岡県,富士市,中野台,シズオカケン,フジシ,ナカノダイ,静岡県富士市中野台
4213303,静岡県,富士市,南松野,シズオカケン,フジシ,ミナミマツノ,静岡県富士市南松野
4213304,静岡県,富士市,木島,シズオカケン,フジシ,キジマ,静岡県富士市木島
4213305,静岡県,富士市,岩淵,シズオカケン,フジシ,イワブチ,静岡県富士市岩淵
4213306,静岡県,富士市,中之郷,シズオカケン,フジシ,ナカノゴウ,静岡県富士市中之郷
4220000,静岡県,静岡市清水区,,シズオカケン,シズオカシシミズク,,静岡県静岡市清水区
4220000,静岡県,静岡市葵区,,シズオカケン,シズオカシアオイク,,静岡県静岡市葵区
4220000,静岡県,静岡市駿河区,,シズオカケン,シズオカシスルガク,,静岡県静岡市駿河区
4228001,静岡県,静岡市駿河区,中吉田,シズオカケン,シズオカシスルガク,ナカヨシダ,静岡県静岡市駿河区中吉田
4228002,静岡県,静岡市駿河区,谷田,シズオカケン,シズオカシスルガク,ヤダ,静岡県静岡市駿河区谷田
4228003,静岡県,静岡市駿河区,平沢,シズオカケン,シズオカシスルガク,ヒラサワ,静岡県静岡市駿河区平沢
4228004,静岡県,静岡市駿河区,国吉田,シズオカケン,シズオカシスルガク,クニヨシダ,静岡県静岡市駿河区国吉田
4228005,静岡県,静岡市駿河区,池田,シズオカケン,シズオカシスルガク,イケダ,静岡県静岡市駿河区池田
4228006,静岡県,静岡市駿河区,曲金,シズオカケン,シズオカシスルガク,マガリカネ,静岡県静岡市駿河区曲金
4228007,静岡県,静岡市駿河区,聖一色,シズオカケン,シズオカシスルガク,ヒジリイッシキ,静岡県静岡市駿河区聖一色
4228008,静岡県,静岡市駿河区,栗原,シズオカケン,シズオカシスルガク,クリハラ,静岡県静岡市駿河区栗原
4228009,静岡県,静岡市駿河区,弥生町,シズオカケン,シズオカシスルガク,ヤヨイチョウ,静岡県静岡市駿河区弥生町
4228011,静岡県,静岡市駿河区,根古屋,シズオカケン,シズオカシスルガク,ネゴヤ,静岡県静岡市駿河区根古屋
4228012,静岡県,静岡市駿河区,安居,シズオカケン,シズオカシスルガク,アゴ,静岡県静岡市駿河区安居
4228013,静岡県,静岡市駿河区,古宿,シズオカケン,シズオカシスルガク,フルヤド,静岡県静岡市駿河区古宿
4228014,静岡県,静岡市駿河区,青沢,シズオカケン,シズオカシスルガク,アオサワ,静岡県静岡市駿河区青沢
4228015,静岡県,静岡市駿河区,中平松,シズオカケン,シズオカシスルガク,ナカヒラマツ,静岡県静岡市駿河区中平松
4228016,静岡県,静岡市駿河区,西平松,シズオカケン,シズオカシスルガク,ニシヒラマツ,静岡県静岡市駿河区西平松
4228017,静岡県,静岡市駿河区,大谷,シズオカケン,シズオカシスルガク,オオヤ,静岡県静岡市駿河区大谷
4228018,静岡県,静岡市駿河区,西大谷,シズオカケン,シズオカシスルガク,ニシオオヤ,静岡県静岡市駿河区西大谷
4228019,静岡県,静岡市駿河区,東静岡,シズオカケン,シズオカシスルガク,ヒガシシズオカ,静岡県静岡市駿河区東静岡
4228021,静岡県,静岡市駿河区,小鹿,シズオカケン,シズオカシスルガク,オシカ,静岡県静岡市駿河区小鹿
4228022,静岡県,静岡市駿河区,恩田原,シズオカケン,シズオカシスルガク,オンダバラ,静岡県静岡市駿河区恩田原
4228023,静岡県,静岡市駿河区,片山,シズオカケン,シズオカシスルガク,カタヤマ,静岡県静岡市駿河区片山
4228024,静岡県,静岡市駿河区,宮川,シズオカケン,シズオカシスルガク,ミヤガワ,静岡県静岡市駿河区宮川
4228025,静岡県,静岡市駿河区,水上,シズオカケン,シズオカシスルガク,ミズカミ,静岡県静岡市駿河区水上
4228026,静岡県,静岡市駿河区,富士見台,シズオカケン,シズオカシスルガク,フジミダイ,静岡県静岡市駿河区富士見台
4228027,静岡県,静岡市駿河区,豊田,シズオカケン,シズオカシスルガク,トヨダ,静岡県静岡市駿河区豊田
4228031,静岡県,静岡市駿河区,有明町,シズオカケン,シズオカシスルガク,アリアケチョウ,静岡県静岡市駿河区有明町
4228032,静岡県,静岡市駿河区,有東,シズオカケン,シズオカシスルガク,ウトウ,静岡県静岡市駿河区有東
4228033,静岡県,静岡市駿河区,登呂,シズオカケン,シズオカシスルガク,トロ,静岡県静岡市駿河区登呂
4228034,静岡県,静岡市駿河区,高松,シズオカケン,シズオカシスルガク,タカマツ,静岡県静岡市駿河区高松
4228035,静岡県,静岡市駿河区,宮竹,シズオカケン,シズオカシスルガク,ミヤタケ,静岡県静岡市駿河区宮竹
4228036,静岡県,静岡市駿河区,敷地,シズオカケン,シズオカシスルガク,シキジ,静岡県静岡市駿河区敷地
4228037,静岡県,静岡市駿河区,下島,シズオカケン,シズオカシスルガク,シモジマ,静岡県静岡市駿河区下島
4228041,静岡県,静岡市駿河区,中田,シズオカケン,シズオカシスルガク,ナカダ,静岡県静岡市駿河区中田
4228042,静岡県,静岡市駿河区,石田,シズオカケン,シズオカシスルガク,イシダ,静岡県静岡市駿河区石田
4228043,静岡県,静岡市駿河区,中田本町,シズオカケン,シズオカシスルガク,ナカダホンチョウ,静岡県静岡市駿河区中田本町
4228044,静岡県,静岡市駿河区,西脇,シズオカケン,シズオカシスルガク,ニシワキ,静岡県静岡市駿河区西脇
4228045,静岡県,静岡市駿河区,西島,シズオカケン,シズオカシスルガク,ニシジマ,静岡県静岡市駿河区西島
4228046,静岡県,静岡市駿河区,中島,シズオカケン,シズオカシスルガク,ナカジマ,静岡県静岡市駿河区中島
4228047,静岡県,静岡市駿河区,中村町,シズオカケン,シズオカシスルガク,ナカムラチョウ,静岡県静岡市駿河区中村町
4228051,静岡県,静岡市駿河区,中野新田,シズオカケン,シズオカシスルガク,ナカノシンデン,静岡県静岡市駿河区中野新田
4228052,静岡県,静岡市駿河区,緑が丘町,シズオカケン,シズオカシスルガク,ミドリガオカチョウ,静岡県静岡市駿河区緑が丘町
4228053,静岡県,静岡市駿河区,西中原,シズオカケン,シズオカシスルガク,ニシナカハラ,静岡県静岡市駿河区西中原
4228054,静岡県,静岡市駿河区,南安倍（３丁目）,シズオカケン,シズオカシスルガク,ミナミアベ(3チョウメ),静岡県静岡市駿河区南安倍（3-）
4228055,静岡県,静岡市駿河区,寿町,シズオカケン,シズオカシスルガク,コトブキチョウ,静岡県静岡市駿河区寿町
4228056,静岡県,静岡市駿河区,津島町,シズオカケン,シズオカシスルガク,ツシマチョウ,静岡県静岡市駿河区津島町
4228057,静岡県,静岡市駿河区,見瀬,シズオカケン,シズオカシスルガク,ミセ,静岡県静岡市駿河区見瀬
4228058,静岡県,静岡市駿河区,中原,シズオカケン,シズオカシスルガク,ナカハラ,静岡県静岡市駿河区中原
4228061,静岡県,静岡市駿河区,森下町,シズオカケン,シズオカシスルガク,モリシタチョウ,静岡県静岡市駿河区森下町
4228062,静岡県,静岡市駿河区,稲川,シズオカケン,シズオカシスルガク,イナガワ,静岡県静岡市駿河区稲川
4228063,静岡県,静岡市駿河区,馬渕,シズオカケン,シズオカシスルガク,マブチ,静岡県静岡市駿河区馬渕
4228064,静岡県,静岡市駿河区,新川,シズオカケン,シズオカシスルガク,シンカワ,静岡県静岡市駿河区新川
4228065,静岡県,静岡市駿河区,宮本町,シズオカケン,シズオカシスルガク,ミヤモトチョウ,静岡県静岡市駿河区宮本町
4228066,静岡県,静岡市駿河区,泉町,シズオカケン,シズオカシスルガク,イズミチョウ,静岡県静岡市駿河区泉町
4228067,静岡県,静岡市駿河区,南町,シズオカケン,シズオカシスルガク,ミナミチョウ,静岡県静岡市駿河区南町
4228071,静岡県,静岡市駿河区,豊原町,シズオカケン,シズオカシスルガク,トヨハラチョウ,静岡県静岡市駿河区豊原町
4228072,静岡県,静岡市駿河区,小黒,シズオカケン,シズオカシスルガク,オグロ,静岡県静岡市駿河区小黒
4228073,静岡県,静岡市駿河区,八幡山,シズオカケン,シズオカシスルガク,ヤハタヤマ,静岡県静岡市駿河区八幡山
4228074,静岡県,静岡市駿河区,南八幡町,シズオカケン,シズオカシスルガク,ミナミヤハタチョウ,静岡県静岡市駿河区南八幡町
4228075,静岡県,静岡市駿河区,大坪町,シズオカケン,シズオカシスルガク,オオツボチョウ,静岡県静岡市駿河区大坪町
4228076,静岡県,静岡市駿河区,八幡,シズオカケン,シズオカシスルガク,ヤハタ,静岡県静岡市駿河区八幡
4228077,静岡県,静岡市駿河区,大和,シズオカケン,シズオカシスルガク,ヤマト,静岡県静岡市駿河区大和
4228078,静岡県,静岡市駿河区,さつき町,シズオカケン,シズオカシスルガク,サツキチョウ,静岡県静岡市駿河区さつき町
4240001,静岡県,静岡市清水区,梅ケ谷,シズオカケン,シズオカシシミズク,ウメガヤ,静岡県静岡市清水区梅ケ谷
4240002,静岡県,静岡市清水区,山原,シズオカケン,シズオカシシミズク,ヤンバラ,静岡県静岡市清水区山原
4240003,静岡県,静岡市清水区,蜂ケ谷,シズオカケン,シズオカシシミズク,ハチガヤ,静岡県静岡市清水区蜂ケ谷
4240004,静岡県,静岡市清水区,蜂ケ谷南町,シズオカケン,シズオカシシミズク,ハチガヤミナミチョウ,静岡県静岡市清水区蜂ケ谷南町
4240005,静岡県,静岡市清水区,石川,シズオカケン,シズオカシシミズク,イシカワ,静岡県静岡市清水区石川
4240006,静岡県,静岡市清水区,石川本町,シズオカケン,シズオカシシミズク,イシカワホンチョウ,静岡県静岡市清水区石川本町
4240007,静岡県,静岡市清水区,石川新町,シズオカケン,シズオカシシミズク,イシカワシンマチ,静岡県静岡市清水区石川新町
4240008,静岡県,静岡市清水区,押切,シズオカケン,シズオカシシミズク,オシキリ,静岡県静岡市清水区押切
4240009,静岡県,静岡市清水区,柏尾,シズオカケン,シズオカシシミズク,カシオ,静岡県静岡市清水区柏尾
4240011,静岡県,静岡市清水区,下野町,シズオカケン,シズオカシシミズク,シモノチョウ,静岡県静岡市清水区下野町
4240012,静岡県,静岡市清水区,下野西,シズオカケン,シズオカシシミズク,シモノニシ,静岡県静岡市清水区下野西
4240013,静岡県,静岡市清水区,下野緑町,シズオカケン,シズオカシシミズク,シモノミドリチョウ,静岡県静岡市清水区下野緑町
4240014,静岡県,静岡市清水区,天王南,シズオカケン,シズオカシシミズク,テンノウミナミ,静岡県静岡市清水区天王南
4240015,静岡県,静岡市清水区,天王町,シズオカケン,シズオカシシミズク,テンノウチョウ,静岡県静岡市清水区天王町
4240016,静岡県,静岡市清水区,天王西,シズオカケン,シズオカシシミズク,テンノウニシ,静岡県静岡市清水区天王西
4240017,静岡県,静岡市清水区,天王東,シズオカケン,シズオカシシミズク,テンノウヒガシ,静岡県静岡市清水区天王東
4240018,静岡県,静岡市清水区,弥生町,シズオカケン,シズオカシシミズク,ヤヨイチョウ,静岡県静岡市清水区弥生町
4240021,静岡県,静岡市清水区,下野北,シズオカケン,シズオカシシミズク,シモノキタ,静岡県静岡市清水区下野北
4240022,静岡県,静岡市清水区,八坂町,シズオカケン,シズオカシシミズク,ヤサカチョウ,静岡県静岡市清水区八坂町
4240023,静岡県,静岡市清水区,八坂北,シズオカケン,シズオカシシミズク,ヤサカキタ,静岡県静岡市清水区八坂北
4240024,静岡県,静岡市清水区,八坂東,シズオカケン,シズオカシシミズク,ヤサカヒガシ,静岡県静岡市清水区八坂東
4240025,静岡県,静岡市清水区,八坂西町,シズオカケン,シズオカシシミズク,ヤサカニシチョウ,静岡県静岡市清水区八坂西町
4240026,静岡県,静岡市清水区,八坂南町,シズオカケン,シズオカシシミズク,ヤサカミナミチョウ,静岡県静岡市清水区八坂南町
4240027,静岡県,静岡市清水区,飯田町,シズオカケン,シズオカシシミズク,イイダチョウ,静岡県静岡市清水区飯田町
4240028,静岡県,静岡市清水区,下野東,シズオカケン,シズオカシシミズク,シモノヒガシ,静岡県静岡市清水区下野東
4240029,静岡県,静岡市清水区,下野中,シズオカケン,シズオカシシミズク,シモノナカ,静岡県静岡市清水区下野中
4240031,静岡県,静岡市清水区,横砂,シズオカケン,シズオカシシミズク,ヨコスナ,静岡県静岡市清水区横砂
4240032,静岡県,静岡市清水区,横砂東町,シズオカケン,シズオカシシミズク,ヨコスナヒガシチョウ,静岡県静岡市清水区横砂東町
4240033,静岡県,静岡市清水区,横砂本町,シズオカケン,シズオカシシミズク,ヨコスナホンチョウ,静岡県静岡市清水区横砂本町
4240034,静岡県,静岡市清水区,横砂中町,シズオカケン,シズオカシシミズク,ヨコスナナカチョウ,静岡県静岡市清水区横砂中町
4240035,静岡県,静岡市清水区,横砂南町,シズオカケン,シズオカシシミズク,ヨコスナミナミチョウ,静岡県静岡市清水区横砂南町
4240036,静岡県,静岡市清水区,横砂西町,シズオカケン,シズオカシシミズク,ヨコスナニシチョウ,静岡県静岡市清水区横砂西町
4240037,静岡県,静岡市清水区,袖師町,シズオカケン,シズオカシシミズク,ソデシチョウ,静岡県静岡市清水区袖師町
4240038,静岡県,静岡市清水区,西久保,シズオカケン,シズオカシシミズク,ニシクボ,静岡県静岡市清水区西久保
4240041,静岡県,静岡市清水区,高橋,シズオカケン,シズオカシシミズク,タカハシ,静岡県静岡市清水区高橋
4240042,静岡県,静岡市清水区,高橋南町,シズオカケン,シズオカシシミズク,タカハシミナミチョウ,静岡県静岡市清水区高橋南町
4240043,静岡県,静岡市清水区,永楽町,シズオカケン,シズオカシシミズク,エイラクチョウ,静岡県静岡市清水区永楽町
4240044,静岡県,静岡市清水区,江尻台町,シズオカケン,シズオカシシミズク,エジリダイマチ,静岡県静岡市清水区江尻台町
4240045,静岡県,静岡市清水区,東大曲町,シズオカケン,シズオカシシミズク,ヒガシオオマガリチョウ,静岡県静岡市清水区東大曲町
4240046,静岡県,静岡市清水区,西大曲町,シズオカケン,シズオカシシミズク,ニシオオマガリチョウ,静岡県静岡市清水区西大曲町
4240047,静岡県,静岡市清水区,鶴舞町,シズオカケン,シズオカシシミズク,ツルマイチョウ,静岡県静岡市清水区鶴舞町
4240048,静岡県,静岡市清水区,高橋町,シズオカケン,シズオカシシミズク,タカハシチョウ,静岡県静岡市清水区高橋町
4240051,静岡県,静岡市清水区,北脇新田,シズオカケン,シズオカシシミズク,キタワキシンデン,静岡県静岡市清水区北脇新田
4240052,静岡県,静岡市清水区,北脇,シズオカケン,シズオカシシミズク,キタワキ,静岡県静岡市清水区北脇
4240053,静岡県,静岡市清水区,渋川,シズオカケン,シズオカシシミズク,シブカワ,静岡県静岡市清水区渋川
4240054,静岡県,静岡市清水区,恵比寿町,シズオカケン,シズオカシシミズク,エビスチョウ,静岡県静岡市清水区恵比寿町
4240055,静岡県,静岡市清水区,吉川,シズオカケン,シズオカシシミズク,キッカワ,静岡県静岡市清水区吉川
4240056,静岡県,静岡市清水区,半左衛門新田,シズオカケン,シズオカシシミズク,ハンザエモンシンデン,静岡県静岡市清水区半左衛門新田
4240057,静岡県,静岡市清水区,堀込,シズオカケン,シズオカシシミズク,ホリゴメ,静岡県静岡市清水区堀込
4240061,静岡県,静岡市清水区,大内,シズオカケン,シズオカシシミズク,オオウチ,静岡県静岡市清水区大内
4240062,静岡県,静岡市清水区,大内新田,シズオカケン,シズオカシシミズク,オオウチシンデン,静岡県静岡市清水区大内新田
4240063,静岡県,静岡市清水区,能島,シズオカケン,シズオカシシミズク,ノウジマ,静岡県静岡市清水区能島
4240064,静岡県,静岡市清水区,長崎新田,シズオカケン,シズオカシシミズク,ナガサキシンデン,静岡県静岡市清水区長崎新田
4240065,静岡県,静岡市清水区,長崎,シズオカケン,シズオカシシミズク,ナガサキ,静岡県静岡市清水区長崎
4240066,静岡県,静岡市清水区,七ツ新屋,シズオカケン,シズオカシシミズク,ナナツシンヤ,静岡県静岡市清水区七ツ新屋
4240067,静岡県,静岡市清水区,鳥坂,シズオカケン,シズオカシシミズク,トリサカ,静岡県静岡市清水区鳥坂
4240068,静岡県,静岡市清水区,長崎南町,シズオカケン,シズオカシシミズク,ナガサキミナミチョウ,静岡県静岡市清水区長崎南町
4240101,静岡県,静岡市清水区,茂畑,シズオカケン,シズオカシシミズク,モバタ,静岡県静岡市清水区茂畑
4240102,静岡県,静岡市清水区,広瀬,シズオカケン,シズオカシシミズク,ヒロセ,静岡県静岡市清水区広瀬
4240103,静岡県,静岡市清水区,尾羽,シズオカケン,シズオカシシミズク,オバネ,静岡県静岡市清水区尾羽
4240104,静岡県,静岡市清水区,草ケ谷,シズオカケン,シズオカシシミズク,クサガヤ,静岡県静岡市清水区草ケ谷
4240105,静岡県,静岡市清水区,山切,シズオカケン,シズオカシシミズク,ヤマキリ,静岡県静岡市清水区山切
4240106,静岡県,静岡市清水区,杉山,シズオカケン,シズオカシシミズク,スギヤマ,静岡県静岡市清水区杉山
4240107,静岡県,静岡市清水区,新丹谷,シズオカケン,シズオカシシミズク,アラタンヤ,静岡県静岡市清水区新丹谷
4240111,静岡県,静岡市清水区,吉原,シズオカケン,シズオカシシミズク,ヨシワラ,静岡県静岡市清水区吉原
4240112,静岡県,静岡市清水区,伊佐布,シズオカケン,シズオカシシミズク,イサブ,静岡県静岡市清水区伊佐布
4240113,静岡県,静岡市清水区,原,シズオカケン,シズオカシシミズク,ハラ,静岡県静岡市清水区原
4240114,静岡県,静岡市清水区,庵原町,シズオカケン,シズオカシシミズク,イハラチョウ,静岡県静岡市清水区庵原町
4240201,静岡県,静岡市清水区,承元寺町,シズオカケン,シズオカシシミズク,ショウゲンジチョウ,静岡県静岡市清水区承元寺町
4240202,静岡県,静岡市清水区,興津井上町,シズオカケン,シズオカシシミズク,オキツイノウエチョウ,静岡県静岡市清水区興津井上町
4240203,静岡県,静岡市清水区,興津東町,シズオカケン,シズオカシシミズク,オキツアズマチョウ,静岡県静岡市清水区興津東町
4240204,静岡県,静岡市清水区,興津中町,シズオカケン,シズオカシシミズク,オキツナカチョウ,静岡県静岡市清水区興津中町
4240205,静岡県,静岡市清水区,興津本町,シズオカケン,シズオカシシミズク,オキツホンチョウ,静岡県静岡市清水区興津本町
4240206,静岡県,静岡市清水区,興津清見寺町,シズオカケン,シズオカシシミズク,オキツセイケンジチョウ,静岡県静岡市清水区興津清見寺町
4240211,静岡県,静岡市清水区,谷津町,シズオカケン,シズオカシシミズク,ヤツチョウ,静岡県静岡市清水区谷津町
4240212,静岡県,静岡市清水区,八木間町,シズオカケン,シズオカシシミズク,ヤギマチョウ,静岡県静岡市清水区八木間町
4240301,静岡県,静岡市清水区,宍原,シズオカケン,シズオカシシミズク,シシハラ,静岡県静岡市清水区宍原
4240302,静岡県,静岡市清水区,小河内,シズオカケン,シズオカシシミズク,コゴウチ,静岡県静岡市清水区小河内
4240303,静岡県,静岡市清水区,但沼町,シズオカケン,シズオカシシミズク,タダヌマチョウ,静岡県静岡市清水区但沼町
4240304,静岡県,静岡市清水区,立花,シズオカケン,シズオカシシミズク,タチバナ,静岡県静岡市清水区立花
4240305,静岡県,静岡市清水区,小島町,シズオカケン,シズオカシシミズク,オジマチョウ,静岡県静岡市清水区小島町
4240306,静岡県,静岡市清水区,小島本町,シズオカケン,シズオカシシミズク,オジマホンチョウ,静岡県静岡市清水区小島本町
4240401,静岡県,静岡市清水区,中河内,シズオカケン,シズオカシシミズク,ナカゴウチ,静岡県静岡市清水区中河内
4240402,静岡県,静岡市清水区,清地,シズオカケン,シズオカシシミズク,キヨジ,静岡県静岡市清水区清地
4240403,静岡県,静岡市清水区,和田島,シズオカケン,シズオカシシミズク,ワダシマ,静岡県静岡市清水区和田島
4240404,静岡県,静岡市清水区,高山,シズオカケン,シズオカシシミズク,タカヤマ,静岡県静岡市清水区高山
4240405,静岡県,静岡市清水区,茂野島,シズオカケン,シズオカシシミズク,シゲノシマ,静岡県静岡市清水区茂野島
4240406,静岡県,静岡市清水区,葛沢,シズオカケン,シズオカシシミズク,トズラサワ,静岡県静岡市清水区葛沢
4240411,静岡県,静岡市清水区,大平,シズオカケン,シズオカシシミズク,オオヒラ,静岡県静岡市清水区大平
4240412,静岡県,静岡市清水区,河内,シズオカケン,シズオカシシミズク,コウチ,静岡県静岡市清水区河内
4240413,静岡県,静岡市清水区,西里,シズオカケン,シズオカシシミズク,ニシザト,静岡県静岡市清水区西里
4240414,静岡県,静岡市清水区,土,シズオカケン,シズオカシシミズク,ド,静岡県静岡市清水区土
4240415,静岡県,静岡市清水区,布沢,シズオカケン,シズオカシシミズク,ヌノザワ,静岡県静岡市清水区布沢
4240801,静岡県,静岡市清水区,秋吉町,シズオカケン,シズオカシシミズク,アキヨシチョウ,静岡県静岡市清水区秋吉町
4240802,静岡県,静岡市清水区,矢倉町,シズオカケン,シズオカシシミズク,ヤグラチョウ,静岡県静岡市清水区矢倉町
4240803,静岡県,静岡市清水区,宮下町,シズオカケン,シズオカシシミズク,ミヤシタチョウ,静岡県静岡市清水区宮下町
4240804,静岡県,静岡市清水区,田町,シズオカケン,シズオカシシミズク,タマチ,静岡県静岡市清水区田町
4240805,静岡県,静岡市清水区,愛染町,シズオカケン,シズオカシシミズク,アイゾメチョウ,静岡県静岡市清水区愛染町
4240806,静岡県,静岡市清水区,辻,シズオカケン,シズオカシシミズク,ツジ,静岡県静岡市清水区辻
4240807,静岡県,静岡市清水区,宮代町,シズオカケン,シズオカシシミズク,ミヤシロチョウ,静岡県静岡市清水区宮代町
4240808,静岡県,静岡市清水区,大手,シズオカケン,シズオカシシミズク,オオテ,静岡県静岡市清水区大手
4240809,静岡県,静岡市清水区,天神,シズオカケン,シズオカシシミズク,テンジン,静岡県静岡市清水区天神
4240811,静岡県,静岡市清水区,二の丸町,シズオカケン,シズオカシシミズク,ニノマルチョウ,静岡県静岡市清水区二の丸町
4240812,静岡県,静岡市清水区,小芝町,シズオカケン,シズオカシシミズク,オシバチョウ,静岡県静岡市清水区小芝町
4240813,静岡県,静岡市清水区,宝町,シズオカケン,シズオカシシミズク,タカラチョウ,静岡県静岡市清水区宝町
4240814,静岡県,静岡市清水区,本郷町,シズオカケン,シズオカシシミズク,ホンゴウチョウ,静岡県静岡市清水区本郷町
4240815,静岡県,静岡市清水区,江尻東,シズオカケン,シズオカシシミズク,エジリヒガシ,静岡県静岡市清水区江尻東
4240816,静岡県,静岡市清水区,真砂町,シズオカケン,シズオカシシミズク,マサゴチョウ,静岡県静岡市清水区真砂町
4240817,静岡県,静岡市清水区,銀座,シズオカケン,シズオカシシミズク,ギンザ,静岡県静岡市清水区銀座
4240818,静岡県,静岡市清水区,江尻町,シズオカケン,シズオカシシミズク,エジリチョウ,静岡県静岡市清水区江尻町
4240819,静岡県,静岡市清水区,元城町,シズオカケン,シズオカシシミズク,モトシロチョウ,静岡県静岡市清水区元城町
4240821,静岡県,静岡市清水区,相生町,シズオカケン,シズオカシシミズク,アイオイチョウ,静岡県静岡市清水区相生町
4240822,静岡県,静岡市清水区,旭町,シズオカケン,シズオカシシミズク,アサヒチョウ,静岡県静岡市清水区旭町
4240823,静岡県,静岡市清水区,島崎町,シズオカケン,シズオカシシミズク,シマザキチョウ,静岡県静岡市清水区島崎町
4240824,静岡県,静岡市清水区,新港町,シズオカケン,シズオカシシミズク,シンミナトチョウ,静岡県静岡市清水区新港町
4240825,静岡県,静岡市清水区,松原町,シズオカケン,シズオカシシミズク,マツバラチョウ,静岡県静岡市清水区松原町
4240826,静岡県,静岡市清水区,万世町,シズオカケン,シズオカシシミズク,マンセイチョウ,静岡県静岡市清水区万世町
4240827,静岡県,静岡市清水区,上,シズオカケン,シズオカシシミズク,カミ,静岡県静岡市清水区上
4240828,静岡県,静岡市清水区,千歳町,シズオカケン,シズオカシシミズク,チトセチョウ,静岡県静岡市清水区千歳町
4240829,静岡県,静岡市清水区,巴町,シズオカケン,シズオカシシミズク,トモエチョウ,静岡県静岡市清水区巴町
4240831,静岡県,静岡市清水区,入江,シズオカケン,シズオカシシミズク,イリエ,静岡県静岡市清水区入江
4240832,静岡県,静岡市清水区,入江南町,シズオカケン,シズオカシシミズク,イリエミナミチョウ,静岡県静岡市清水区入江南町
4240833,静岡県,静岡市清水区,新富町,シズオカケン,シズオカシシミズク,シントミチョウ,静岡県静岡市清水区新富町
4240834,静岡県,静岡市清水区,浜田町,シズオカケン,シズオカシシミズク,ハマダチョウ,静岡県静岡市清水区浜田町
4240835,静岡県,静岡市清水区,上清水町,シズオカケン,シズオカシシミズク,カミシミズチョウ,静岡県静岡市清水区上清水町
4240836,静岡県,静岡市清水区,桜が丘町,シズオカケン,シズオカシシミズク,サクラガオカチョウ,静岡県静岡市清水区桜が丘町
4240837,静岡県,静岡市清水区,桜橋町,シズオカケン,シズオカシシミズク,サクラバシチョウ,静岡県静岡市清水区桜橋町
4240838,静岡県,静岡市清水区,淡島町,シズオカケン,シズオカシシミズク,アワシマチョウ,静岡県静岡市清水区淡島町
4240839,静岡県,静岡市清水区,入江岡町,シズオカケン,シズオカシシミズク,イリエオカチョウ,静岡県静岡市清水区入江岡町
4240841,静岡県,静岡市清水区,追分,シズオカケン,シズオカシシミズク,オイワケ,静岡県静岡市清水区追分
4240842,静岡県,静岡市清水区,春日,シズオカケン,シズオカシシミズク,カスガ,静岡県静岡市清水区春日
4240843,静岡県,静岡市清水区,青葉町,シズオカケン,シズオカシシミズク,アオバチョウ,静岡県静岡市清水区青葉町
4240844,静岡県,静岡市清水区,西高町,シズオカケン,シズオカシシミズク,ニシタカチョウ,静岡県静岡市清水区西高町
4240845,静岡県,静岡市清水区,船原,シズオカケン,シズオカシシミズク,フナバラ,静岡県静岡市清水区船原
4240846,静岡県,静岡市清水区,木の下町,シズオカケン,シズオカシシミズク,キノシタチョウ,静岡県静岡市清水区木の下町
4240847,静岡県,静岡市清水区,大坪,シズオカケン,シズオカシシミズク,オオツボ,静岡県静岡市清水区大坪
4240851,静岡県,静岡市清水区,堂林,シズオカケン,シズオカシシミズク,ドウバヤシ,静岡県静岡市清水区堂林
4240852,静岡県,静岡市清水区,神田町,シズオカケン,シズオカシシミズク,カンダチョウ,静岡県静岡市清水区神田町
4240853,静岡県,静岡市清水区,月見町,シズオカケン,シズオカシシミズク,ツキミチョウ,静岡県静岡市清水区月見町
4240854,静岡県,静岡市清水区,中矢部町,シズオカケン,シズオカシシミズク,ナカヤベチョウ,静岡県静岡市清水区中矢部町
4240855,静岡県,静岡市清水区,庄福町,シズオカケン,シズオカシシミズク,ショウフクチョウ,静岡県静岡市清水区庄福町
4240856,静岡県,静岡市清水区,上力町,シズオカケン,シズオカシシミズク,ジョウリキチョウ,静岡県静岡市清水区上力町
4240857,静岡県,静岡市清水区,川原町,シズオカケン,シズオカシシミズク,カワハラチョウ,静岡県静岡市清水区川原町
4240858,静岡県,静岡市清水区,大沢町,シズオカケン,シズオカシシミズク,オオサワチョウ,静岡県静岡市清水区大沢町
4240861,静岡県,静岡市清水区,船越町,シズオカケン,シズオカシシミズク,フナコシチョウ,静岡県静岡市清水区船越町
4240862,静岡県,静岡市清水区,船越東町,シズオカケン,シズオカシシミズク,フナコシヒガシチョウ,静岡県静岡市清水区船越東町
4240863,静岡県,静岡市清水区,船越南町,シズオカケン,シズオカシシミズク,フナコシミナミチョウ,静岡県静岡市清水区船越南町
4240864,静岡県,静岡市清水区,南矢部,シズオカケン,シズオカシシミズク,ミナミヤベ,静岡県静岡市清水区南矢部
4240865,静岡県,静岡市清水区,北矢部,シズオカケン,シズオカシシミズク,キタヤベ,静岡県静岡市清水区北矢部
4240866,静岡県,静岡市清水区,船越,シズオカケン,シズオカシシミズク,フナコシ,静岡県静岡市清水区船越
4240871,静岡県,静岡市清水区,上原,シズオカケン,シズオカシシミズク,ウワハラ,静岡県静岡市清水区上原
4240872,静岡県,静岡市清水区,平川地,シズオカケン,シズオカシシミズク,ヒラカワジ,静岡県静岡市清水区平川地
4240873,静岡県,静岡市清水区,有東坂,シズオカケン,シズオカシシミズク,ウトウザカ,静岡県静岡市清水区有東坂
4240874,静岡県,静岡市清水区,今泉,シズオカケン,シズオカシシミズク,イマイズミ,静岡県静岡市清水区今泉
4240875,静岡県,静岡市清水区,馬走,シズオカケン,シズオカシシミズク,マバセ,静岡県静岡市清水区馬走
4240876,静岡県,静岡市清水区,馬走北,シズオカケン,シズオカシシミズク,マバセキタ,静岡県静岡市清水区馬走北
4240877,静岡県,静岡市清水区,馬走坂の上,シズオカケン,シズオカシシミズク,マバセサカノウエ,静岡県静岡市清水区馬走坂の上
4240878,静岡県,静岡市清水区,御門台,シズオカケン,シズオカシシミズク,ミカドダイ,静岡県静岡市清水区御門台
4240879,静岡県,静岡市清水区,有度本町,シズオカケン,シズオカシシミズク,ウドホンチョウ,静岡県静岡市清水区有度本町
4240881,静岡県,静岡市清水区,楠,シズオカケン,シズオカシシミズク,クスノキ,静岡県静岡市清水区楠
4240882,静岡県,静岡市清水区,楠新田,シズオカケン,シズオカシシミズク,クスノキシンデン,静岡県静岡市清水区楠新田
4240883,静岡県,静岡市清水区,草薙北,シズオカケン,シズオカシシミズク,クサナギキタ,静岡県静岡市清水区草薙北
4240884,静岡県,静岡市清水区,草薙一里山,シズオカケン,シズオカシシミズク,クサナギイチリヤマ,静岡県静岡市清水区草薙一里山
4240885,静岡県,静岡市清水区,草薙杉道,シズオカケン,シズオカシシミズク,クサナギスギミチ,静岡県静岡市清水区草薙杉道
4240886,静岡県,静岡市清水区,草薙,シズオカケン,シズオカシシミズク,クサナギ,静岡県静岡市清水区草薙
4240887,静岡県,静岡市清水区,谷田,シズオカケン,シズオカシシミズク,ヤダ,静岡県静岡市清水区谷田
4240888,静岡県,静岡市清水区,中之郷,シズオカケン,シズオカシシミズク,ナカノゴウ,静岡県静岡市清水区中之郷
4240901,静岡県,静岡市清水区,三保,シズオカケン,シズオカシシミズク,ミホ,静岡県静岡市清水区三保
4240902,静岡県,静岡市清水区,折戸,シズオカケン,シズオカシシミズク,オリド,静岡県静岡市清水区折戸
4240903,静岡県,静岡市清水区,駒越南町,シズオカケン,シズオカシシミズク,コマゴエミナミチョウ,静岡県静岡市清水区駒越南町
4240904,静岡県,静岡市清水区,駒越中,シズオカケン,シズオカシシミズク,コマゴエナカ,静岡県静岡市清水区駒越中
4240905,静岡県,静岡市清水区,駒越西,シズオカケン,シズオカシシミズク,コマゴエニシ,静岡県静岡市清水区駒越西
4240906,静岡県,静岡市清水区,駒越北町,シズオカケン,シズオカシシミズク,コマゴエキタマチ,静岡県静岡市清水区駒越北町
4240907,静岡県,静岡市清水区,駒越東町,シズオカケン,シズオカシシミズク,コマゴエヒガシチョウ,静岡県静岡市清水区駒越東町
4240908,静岡県,静岡市清水区,三保松原町,シズオカケン,シズオカシシミズク,ミホマツバラチョウ,静岡県静岡市清水区三保松原町
4240911,静岡県,静岡市清水区,宮加三,シズオカケン,シズオカシシミズク,ミヤカミ,静岡県静岡市清水区宮加三
4240912,静岡県,静岡市清水区,殿沢,シズオカケン,シズオカシシミズク,トノサワ,静岡県静岡市清水区殿沢
4240913,静岡県,静岡市清水区,迎山町,シズオカケン,シズオカシシミズク,ムカエヤマチョウ,静岡県静岡市清水区迎山町
4240914,静岡県,静岡市清水区,港南町,シズオカケン,シズオカシシミズク,コウナンチョウ,静岡県静岡市清水区港南町
4240915,静岡県,静岡市清水区,増,シズオカケン,シズオカシシミズク,ゾウ,静岡県静岡市清水区増
4240916,静岡県,静岡市清水区,蛇塚,シズオカケン,シズオカシシミズク,ヘビツカ,静岡県静岡市清水区蛇塚
4240917,静岡県,静岡市清水区,駒越,シズオカケン,シズオカシシミズク,コマゴエ,静岡県静岡市清水区駒越
4240921,静岡県,静岡市清水区,松井町,シズオカケン,シズオカシシミズク,マツイチョウ,静岡県静岡市清水区松井町
4240922,静岡県,静岡市清水区,日の出町,シズオカケン,シズオカシシミズク,ヒノデチョウ,静岡県静岡市清水区日の出町
4240923,静岡県,静岡市清水区,幸町,シズオカケン,シズオカシシミズク,サイワイチョウ,静岡県静岡市清水区幸町
4240924,静岡県,静岡市清水区,清開,シズオカケン,シズオカシシミズク,セイカイ,静岡県静岡市清水区清開
4240925,静岡県,静岡市清水区,清水村松地先新田,シズオカケン,シズオカシシミズク,シミズムラマツチサキシンデン,静岡県静岡市清水区清水村松地先新田
4240926,静岡県,静岡市清水区,村松,シズオカケン,シズオカシシミズク,ムラマツ,静岡県静岡市清水区村松
4240927,静岡県,静岡市清水区,新緑町,シズオカケン,シズオカシシミズク,シンミドリチョウ,静岡県静岡市清水区新緑町
4240928,静岡県,静岡市清水区,緑が丘町,シズオカケン,シズオカシシミズク,ミドリガオカチョウ,静岡県静岡市清水区緑が丘町
4240929,静岡県,静岡市清水区,日立町,シズオカケン,シズオカシシミズク,ヒタチチョウ,静岡県静岡市清水区日立町
4240931,静岡県,静岡市清水区,岡町,シズオカケン,シズオカシシミズク,オカマチ,静岡県静岡市清水区岡町
4240932,静岡県,静岡市清水区,南岡町,シズオカケン,シズオカシシミズク,ミナミオカマチ,静岡県静岡市清水区南岡町
4240933,静岡県,静岡市清水区,三光町,シズオカケン,シズオカシシミズク,サンコウチョウ,静岡県静岡市清水区三光町
4240934,静岡県,静岡市清水区,村松原,シズオカケン,シズオカシシミズク,ムラマツハラ,静岡県静岡市清水区村松原
4240935,静岡県,静岡市清水区,沼田町,シズオカケン,シズオカシシミズク,ヌマタチョウ,静岡県静岡市清水区沼田町
4240936,静岡県,静岡市清水区,向田町,シズオカケン,シズオカシシミズク,ムカイダチョウ,静岡県静岡市清水区向田町
4240937,静岡県,静岡市清水区,北矢部町,シズオカケン,シズオカシシミズク,キタヤベチョウ,静岡県静岡市清水区北矢部町
4240938,静岡県,静岡市清水区,梅が岡,シズオカケン,シズオカシシミズク,ウメガオカ,静岡県静岡市清水区梅が岡
4240939,静岡県,静岡市清水区,下清水町,シズオカケン,シズオカシシミズク,シモシミズチョウ,静岡県静岡市清水区下清水町
4240941,静岡県,静岡市清水区,富士見町,シズオカケン,シズオカシシミズク,フジミチョウ,静岡県静岡市清水区富士見町
4240942,静岡県,静岡市清水区,入船町,シズオカケン,シズオカシシミズク,イリフネチョウ,静岡県静岡市清水区入船町
4240943,静岡県,静岡市清水区,港町,シズオカケン,シズオカシシミズク,ミナトチョウ,静岡県静岡市清水区港町
4240944,静岡県,静岡市清水区,築地町,シズオカケン,シズオカシシミズク,ツキジチョウ,静岡県静岡市清水区築地町
4240945,静岡県,静岡市清水区,美濃輪町,シズオカケン,シズオカシシミズク,ミノワチョウ,静岡県静岡市清水区美濃輪町
4240946,静岡県,静岡市清水区,八千代町,シズオカケン,シズオカシシミズク,ヤチヨチョウ,静岡県静岡市清水区八千代町
4240947,静岡県,静岡市清水区,清水町,シズオカケン,シズオカシシミズク,シミズマチ,静岡県静岡市清水区清水町
4240948,静岡県,静岡市清水区,梅田町,シズオカケン,シズオカシシミズク,ウメダチョウ,静岡県静岡市清水区梅田町
4240949,静岡県,静岡市清水区,本町,シズオカケン,シズオカシシミズク,ホンマチ,静岡県静岡市清水区本町
4250000,静岡県,焼津市,,シズオカケン,ヤイヅシ,,静岡県焼津市
4250001,静岡県,焼津市,花沢,シズオカケン,ヤイヅシ,ハナザワ,静岡県焼津市花沢
4250002,静岡県,焼津市,吉津,シズオカケン,ヤイヅシ,ヨシヅ,静岡県焼津市吉津
4250003,静岡県,焼津市,高崎,シズオカケン,ヤイヅシ,タカサキ,静岡県焼津市高崎
4250004,静岡県,焼津市,坂本,シズオカケン,ヤイヅシ,サカモト,静岡県焼津市坂本
4250005,静岡県,焼津市,方ノ上,シズオカケン,ヤイヅシ,カタノカミ,静岡県焼津市方ノ上
4250006,静岡県,焼津市,関方,シズオカケン,ヤイヅシ,セキガタ,静岡県焼津市関方
4250007,静岡県,焼津市,策牛,シズオカケン,ヤイヅシ,ムチウシ,静岡県焼津市策牛
4250011,静岡県,焼津市,小浜,シズオカケン,ヤイヅシ,オバマ,静岡県焼津市小浜
4250012,静岡県,焼津市,浜当目,シズオカケン,ヤイヅシ,ハマトウメ,静岡県焼津市浜当目
4250013,静岡県,焼津市,岡当目,シズオカケン,ヤイヅシ,オカトウメ,静岡県焼津市岡当目
4250014,静岡県,焼津市,中里,シズオカケン,ヤイヅシ,ナカザト,静岡県焼津市中里
4250015,静岡県,焼津市,石脇上,シズオカケン,ヤイヅシ,イシワキカミ,静岡県焼津市石脇上
4250016,静岡県,焼津市,石脇下,シズオカケン,ヤイヅシ,イシワキシモ,静岡県焼津市石脇下
4250017,静岡県,焼津市,野秋,シズオカケン,ヤイヅシ,ノアキ,静岡県焼津市野秋
4250021,静岡県,焼津市,中港,シズオカケン,ヤイヅシ,ナカミナト,静岡県焼津市中港
4250022,静岡県,焼津市,本町,シズオカケン,ヤイヅシ,ホンマチ,静岡県焼津市本町
4250023,静岡県,焼津市,新屋,シズオカケン,ヤイヅシ,アラヤ,静岡県焼津市新屋
4250024,静岡県,焼津市,北浜通,シズオカケン,ヤイヅシ,キタハマドオリ,静岡県焼津市北浜通
4250025,静岡県,焼津市,城之腰,シズオカケン,ヤイヅシ,ジョウノコシ,静岡県焼津市城之腰
4250026,静岡県,焼津市,焼津,シズオカケン,ヤイヅシ,ヤイヅ,静岡県焼津市焼津
4250027,静岡県,焼津市,栄町,シズオカケン,ヤイヅシ,サカエマチ,静岡県焼津市栄町
4250028,静岡県,焼津市,駅北,シズオカケン,ヤイヅシ,エキキタ,静岡県焼津市駅北
4250031,静岡県,焼津市,小川新町,シズオカケン,ヤイヅシ,コガワシンマチ,静岡県焼津市小川新町
4250032,静岡県,焼津市,鰯ケ島,シズオカケン,ヤイヅシ,イワシガシマ,静岡県焼津市鰯ケ島
4250033,静岡県,焼津市,小川,シズオカケン,ヤイヅシ,コガワ,静岡県焼津市小川
4250034,静岡県,焼津市,与惣次,シズオカケン,ヤイヅシ,ヨソウジ,静岡県焼津市与惣次
4250035,静岡県,焼津市,東小川,シズオカケン,ヤイヅシ,ヒガシコガワ,静岡県焼津市東小川
4250036,静岡県,焼津市,西小川,シズオカケン,ヤイヅシ,ニシコガワ,静岡県焼津市西小川
4250041,静岡県,焼津市,石津,シズオカケン,ヤイヅシ,イシヅ,静岡県焼津市石津
4250042,静岡県,焼津市,石津港町,シズオカケン,ヤイヅシ,イシヅミナトチョウ,静岡県焼津市石津港町
4250043,静岡県,焼津市,石津中町,シズオカケン,ヤイヅシ,イシヅナカチョウ,静岡県焼津市石津中町
4250044,静岡県,焼津市,石津向町,シズオカケン,ヤイヅシ,イシヅムカイチョウ,静岡県焼津市石津向町
4250045,静岡県,焼津市,祢宜島,シズオカケン,ヤイヅシ,ネギシマ,静岡県焼津市祢宜島
4250046,静岡県,焼津市,三右衛門新田,シズオカケン,ヤイヅシ,サンウエモンシンデン,静岡県焼津市三右衛門新田
4250051,静岡県,焼津市,田尻北,シズオカケン,ヤイヅシ,タジリキタ,静岡県焼津市田尻北
4250052,静岡県,焼津市,田尻,シズオカケン,ヤイヅシ,タジリ,静岡県焼津市田尻
4250053,静岡県,焼津市,すみれ台,シズオカケン,ヤイヅシ,スミレダイ,静岡県焼津市すみれ台
4250054,静岡県,焼津市,一色,シズオカケン,ヤイヅシ,イッシキ,静岡県焼津市一色
4250055,静岡県,焼津市,道原,シズオカケン,ヤイヅシ,ドウバラ,静岡県焼津市道原
4250056,静岡県,焼津市,下小田中町,シズオカケン,ヤイヅシ,シモオダナカマチ,静岡県焼津市下小田中町
4250057,静岡県,焼津市,下小田,シズオカケン,ヤイヅシ,シモオダ,静岡県焼津市下小田
4250058,静岡県,焼津市,北新田,シズオカケン,ヤイヅシ,キタシンデン,静岡県焼津市北新田
4250061,静岡県,焼津市,中根,シズオカケン,ヤイヅシ,ナカネ,静岡県焼津市中根
4250062,静岡県,焼津市,中根新田,シズオカケン,ヤイヅシ,ナカネシンデン,静岡県焼津市中根新田
4250063,静岡県,焼津市,本中根,シズオカケン,ヤイヅシ,ホンナカネ,静岡県焼津市本中根
4250064,静岡県,焼津市,三和,シズオカケン,ヤイヅシ,ミワ,静岡県焼津市三和
4250065,静岡県,焼津市,惣右衛門,シズオカケン,ヤイヅシ,ソウウエモン,静岡県焼津市惣右衛門
4250066,静岡県,焼津市,大島,シズオカケン,ヤイヅシ,オオジマ,静岡県焼津市大島
4250067,静岡県,焼津市,治長請所,シズオカケン,ヤイヅシ,ジチョウウケショ,静岡県焼津市治長請所
4250068,静岡県,焼津市,中新田,シズオカケン,ヤイヅシ,ナカシンデン,静岡県焼津市中新田
4250069,静岡県,焼津市,大島新田,シズオカケン,ヤイヅシ,オオシマシンデン,静岡県焼津市大島新田
4250071,静岡県,焼津市,三ケ名,シズオカケン,ヤイヅシ,サンガミョウ,静岡県焼津市三ケ名
4250072,静岡県,焼津市,大住,シズオカケン,ヤイヅシ,オオズミ,静岡県焼津市大住
4250073,静岡県,焼津市,小柳津,シズオカケン,ヤイヅシ,オヤイヅ,静岡県焼津市小柳津
4250074,静岡県,焼津市,柳新屋,シズオカケン,ヤイヅシ,ヤナギアラヤ,静岡県焼津市柳新屋
4250075,静岡県,焼津市,西焼津,シズオカケン,ヤイヅシ,ニシヤイヅ,静岡県焼津市西焼津
4250076,静岡県,焼津市,小屋敷,シズオカケン,ヤイヅシ,コヤシキ,静岡県焼津市小屋敷
4250077,静岡県,焼津市,五ケ堀之内,シズオカケン,ヤイヅシ,ゴカホリノウチ,静岡県焼津市五ケ堀之内
4250081,静岡県,焼津市,大栄町,シズオカケン,ヤイヅシ,ダイエイチョウ,静岡県焼津市大栄町
4250082,静岡県,焼津市,大村,シズオカケン,ヤイヅシ,オオムラ,静岡県焼津市大村
4250083,静岡県,焼津市,大,シズオカケン,ヤイヅシ,オオ,静岡県焼津市大
4250084,静岡県,焼津市,大村新田,シズオカケン,ヤイヅシ,オオムラシンデン,静岡県焼津市大村新田
4250085,静岡県,焼津市,塩津,シズオカケン,ヤイヅシ,シオツ,静岡県焼津市塩津
4250086,静岡県,焼津市,小土,シズオカケン,ヤイヅシ,コヒジ,静岡県焼津市小土
4250087,静岡県,焼津市,保福島,シズオカケン,ヤイヅシ,ホフクジマ,静岡県焼津市保福島
4250088,静岡県,焼津市,大覚寺,シズオカケン,ヤイヅシ,ダイカクジ,静岡県焼津市大覚寺
4250091,静岡県,焼津市,八楠,シズオカケン,ヤイヅシ,ヤグス,静岡県焼津市八楠
4250092,静岡県,焼津市,越後島,シズオカケン,ヤイヅシ,エチゴシマ,静岡県焼津市越後島
4260000,静岡県,藤枝市,,シズオカケン,フジエダシ,,静岡県藤枝市
4260001,静岡県,藤枝市,仮宿,シズオカケン,フジエダシ,カリヤド,静岡県藤枝市仮宿
4260002,静岡県,藤枝市,横内,シズオカケン,フジエダシ,ヨコウチ,静岡県藤枝市横内
4260003,静岡県,藤枝市,下当間,シズオカケン,フジエダシ,シモドウマ,静岡県藤枝市下当間
4260004,静岡県,藤枝市,上当間,シズオカケン,フジエダシ,カミドウマ,静岡県藤枝市上当間
4260005,静岡県,藤枝市,水守,シズオカケン,フジエダシ,ミズモリ,静岡県藤枝市水守
4260006,静岡県,藤枝市,藤岡,シズオカケン,フジエダシ,フジオカ,静岡県藤枝市藤岡
4260007,静岡県,藤枝市,潮,シズオカケン,フジエダシ,ウシオ,静岡県藤枝市潮
4260008,静岡県,藤枝市,鬼島,シズオカケン,フジエダシ,オニジマ,静岡県藤枝市鬼島
4260009,静岡県,藤枝市,八幡,シズオカケン,フジエダシ,ヤワタ,静岡県藤枝市八幡
4260011,静岡県,藤枝市,平島,シズオカケン,フジエダシ,ヒラシマ,静岡県藤枝市平島
4260012,静岡県,藤枝市,田中,シズオカケン,フジエダシ,タナカ,静岡県藤枝市田中
4260013,静岡県,藤枝市,立花,シズオカケン,フジエダシ,タチバナ,静岡県藤枝市立花
4260014,静岡県,藤枝市,若王子,シズオカケン,フジエダシ,ニャクオウジ,静岡県藤枝市若王子
4260015,静岡県,藤枝市,五十海,シズオカケン,フジエダシ,イカルミ,静岡県藤枝市五十海
4260016,静岡県,藤枝市,郡,シズオカケン,フジエダシ,コオリ,静岡県藤枝市郡
4260017,静岡県,藤枝市,大手,シズオカケン,フジエダシ,オオテ,静岡県藤枝市大手
4260018,静岡県,藤枝市,本町,シズオカケン,フジエダシ,ホンマチ,静岡県藤枝市本町
4260019,静岡県,藤枝市,天王町,シズオカケン,フジエダシ,テンノウチョウ,静岡県藤枝市天王町
4260021,静岡県,藤枝市,城南,シズオカケン,フジエダシ,ジョウナン,静岡県藤枝市城南
4260022,静岡県,藤枝市,稲川,シズオカケン,フジエダシ,イナガワ,静岡県藤枝市稲川
4260023,静岡県,藤枝市,茶町,シズオカケン,フジエダシ,チャマチ,静岡県藤枝市茶町
4260024,静岡県,藤枝市,鬼岩寺,シズオカケン,フジエダシ,キガンジ,静岡県藤枝市鬼岩寺
4260025,静岡県,藤枝市,藤枝,シズオカケン,フジエダシ,フジエダ,静岡県藤枝市藤枝
4260026,静岡県,藤枝市,岡出山,シズオカケン,フジエダシ,オカデヤマ,静岡県藤枝市岡出山
4260027,静岡県,藤枝市,緑町,シズオカケン,フジエダシ,ミドリチョウ,静岡県藤枝市緑町
4260028,静岡県,藤枝市,益津下,シズオカケン,フジエダシ,マシヅシモ,静岡県藤枝市益津下
4260029,静岡県,藤枝市,益津,シズオカケン,フジエダシ,マシヅ,静岡県藤枝市益津
4260031,静岡県,藤枝市,築地,シズオカケン,フジエダシ,ツイジ,静岡県藤枝市築地
4260032,静岡県,藤枝市,築地上,シズオカケン,フジエダシ,ツイジカミ,静岡県藤枝市築地上
4260033,静岡県,藤枝市,小石川町,シズオカケン,フジエダシ,コイシガワチョウ,静岡県藤枝市小石川町
4260034,静岡県,藤枝市,駅前,シズオカケン,フジエダシ,エキマエ,静岡県藤枝市駅前
4260035,静岡県,藤枝市,下青島,シズオカケン,フジエダシ,シモアオジマ,静岡県藤枝市下青島
4260036,静岡県,藤枝市,上青島,シズオカケン,フジエダシ,カミアオジマ,静岡県藤枝市上青島
4260037,静岡県,藤枝市,青木,シズオカケン,フジエダシ,アオキ,静岡県藤枝市青木
4260038,静岡県,藤枝市,東町,シズオカケン,フジエダシ,ヒガシチョウ,静岡県藤枝市東町
4260041,静岡県,藤枝市,高柳,シズオカケン,フジエダシ,タカヤナギ,静岡県藤枝市高柳
4260042,静岡県,藤枝市,兵太夫,シズオカケン,フジエダシ,ヒョウダユウ,静岡県藤枝市兵太夫
4260043,静岡県,藤枝市,大新島,シズオカケン,フジエダシ,タイシンジマ,静岡県藤枝市大新島
4260044,静岡県,藤枝市,大東町,シズオカケン,フジエダシ,ダイトウチョウ,静岡県藤枝市大東町
4260045,静岡県,藤枝市,泉町,シズオカケン,フジエダシ,イズミチョウ,静岡県藤枝市泉町
4260046,静岡県,藤枝市,高洲,シズオカケン,フジエダシ,タカス,静岡県藤枝市高洲
4260047,静岡県,藤枝市,与左衛門,シズオカケン,フジエダシ,ヨザエモン,静岡県藤枝市与左衛門
4260051,静岡県,藤枝市,大洲,シズオカケン,フジエダシ,オオス,静岡県藤枝市大洲
4260052,静岡県,藤枝市,弥左衛門,シズオカケン,フジエダシ,ヤザエモン,静岡県藤枝市弥左衛門
4260053,静岡県,藤枝市,善左衛門,シズオカケン,フジエダシ,ゼンザエモン,静岡県藤枝市善左衛門
4260054,静岡県,藤枝市,源助,シズオカケン,フジエダシ,ゲンスケ,静岡県藤枝市源助
4260055,静岡県,藤枝市,大西町,シズオカケン,フジエダシ,ダイセイチョウ,静岡県藤枝市大西町
4260056,静岡県,藤枝市,五平,シズオカケン,フジエダシ,ゴヘイ,静岡県藤枝市五平
4260057,静岡県,藤枝市,忠兵衛,シズオカケン,フジエダシ,チュウベエ,静岡県藤枝市忠兵衛
4260061,静岡県,藤枝市,田沼,シズオカケン,フジエダシ,タヌマ,静岡県藤枝市田沼
4260062,静岡県,藤枝市,高岡,シズオカケン,フジエダシ,タカオカ,静岡県藤枝市高岡
4260063,静岡県,藤枝市,青南町,シズオカケン,フジエダシ,セイナンチョウ,静岡県藤枝市青南町
4260064,静岡県,藤枝市,久兵衛市右衛門請新田,シズオカケン,フジエダシ,キュウベエイチウエモンウケシンデン,静岡県藤枝市久兵衛市右衛門請新田
4260065,静岡県,藤枝市,末広,シズオカケン,フジエダシ,スエヒロ,静岡県藤枝市末広
4260066,静岡県,藤枝市,青葉町,シズオカケン,フジエダシ,アオバチョウ,静岡県藤枝市青葉町
4260067,静岡県,藤枝市,前島,シズオカケン,フジエダシ,マエジマ,静岡県藤枝市前島
4260070,静岡県,藤枝市,緑の丘,シズオカケン,フジエダシ,ミドリノオカ,静岡県藤枝市緑の丘
4260071,静岡県,藤枝市,志太,シズオカケン,フジエダシ,シダ,静岡県藤枝市志太
4260072,静岡県,藤枝市,南新屋,シズオカケン,フジエダシ,ミナミアラヤ,静岡県藤枝市南新屋
4260073,静岡県,藤枝市,新南新屋,シズオカケン,フジエダシ,シンミナミアラヤ,静岡県藤枝市新南新屋
4260074,静岡県,藤枝市,水上,シズオカケン,フジエダシ,ミズカミ,静岡県藤枝市水上
4260075,静岡県,藤枝市,瀬戸新屋,シズオカケン,フジエダシ,セトアラヤ,静岡県藤枝市瀬戸新屋
4260076,静岡県,藤枝市,内瀬戸,シズオカケン,フジエダシ,ウチセト,静岡県藤枝市内瀬戸
4260077,静岡県,藤枝市,駿河台,シズオカケン,フジエダシ,スルガダイ,静岡県藤枝市駿河台
4260078,静岡県,藤枝市,南駿河台,シズオカケン,フジエダシ,ミナミスルガダイ,静岡県藤枝市南駿河台
4260079,静岡県,藤枝市,光洋台,シズオカケン,フジエダシ,コウヨウダイ,静岡県藤枝市光洋台
4260081,静岡県,藤枝市,旭が丘,シズオカケン,フジエダシ,アサヒガオカ,静岡県藤枝市旭が丘
4260082,静岡県,藤枝市,瀬古,シズオカケン,フジエダシ,セコ,静岡県藤枝市瀬古
4260083,静岡県,藤枝市,谷稲葉,シズオカケン,フジエダシ,ヤイナバ,静岡県藤枝市谷稲葉
4260084,静岡県,藤枝市,寺島,シズオカケン,フジエダシ,テラジマ,静岡県藤枝市寺島
4260085,静岡県,藤枝市,助宗,シズオカケン,フジエダシ,スケムネ,静岡県藤枝市助宗
4260086,静岡県,藤枝市,原,シズオカケン,フジエダシ,ハラ,静岡県藤枝市原
4260087,静岡県,藤枝市,音羽町,シズオカケン,フジエダシ,オトワチョウ,静岡県藤枝市音羽町
4260088,静岡県,藤枝市,堀之内,シズオカケン,フジエダシ,ホリノウチ,静岡県藤枝市堀之内
4260131,静岡県,藤枝市,瀬戸ノ谷,シズオカケン,フジエダシ,セトノヤ,静岡県藤枝市瀬戸ノ谷
4260132,静岡県,藤枝市,本郷,シズオカケン,フジエダシ,ホンゴウ,静岡県藤枝市本郷
4260133,静岡県,藤枝市,宮原,シズオカケン,フジエダシ,ミヤバラ,静岡県藤枝市宮原
4260134,静岡県,藤枝市,滝沢,シズオカケン,フジエダシ,タキサワ,静岡県藤枝市滝沢
4260201,静岡県,藤枝市,下藪田,シズオカケン,フジエダシ,シモヤブタ,静岡県藤枝市下藪田
4260202,静岡県,藤枝市,上藪田,シズオカケン,フジエダシ,カミヤブタ,静岡県藤枝市上藪田
4260203,静岡県,藤枝市,下之郷,シズオカケン,フジエダシ,シモノゴウ,静岡県藤枝市下之郷
4260204,静岡県,藤枝市,時ケ谷,シズオカケン,フジエダシ,トキガヤ,静岡県藤枝市時ケ谷
4260205,静岡県,藤枝市,花倉,シズオカケン,フジエダシ,ハナグラ,静岡県藤枝市花倉
4260211,静岡県,藤枝市,西方,シズオカケン,フジエダシ,ニシガタ,静岡県藤枝市西方
4260212,静岡県,藤枝市,北方,シズオカケン,フジエダシ,キタガタ,静岡県藤枝市北方
4260213,静岡県,藤枝市,中ノ合,シズオカケン,フジエダシ,ナカノゴウ,静岡県藤枝市中ノ合
4260221,静岡県,藤枝市,高田,シズオカケン,フジエダシ,タカタ,静岡県藤枝市高田
4260222,静岡県,藤枝市,中藪田,シズオカケン,フジエダシ,ナカヤブタ,静岡県藤枝市中藪田
4260223,静岡県,藤枝市,清里,シズオカケン,フジエダシ,キヨサト,静岡県藤枝市清里
4260224,静岡県,藤枝市,南清里,シズオカケン,フジエダシ,ミナミキヨサト,静岡県藤枝市南清里
4270000,静岡県,島田市,,シズオカケン,シマダシ,,静岡県島田市
4270001,静岡県,島田市,千葉,シズオカケン,シマダシ,チバ,静岡県島田市千葉
4270002,静岡県,島田市,大草,シズオカケン,シマダシ,オオクサ,静岡県島田市大草
4270003,静岡県,島田市,東光寺,シズオカケン,シマダシ,トウコウジ,静岡県島田市東光寺
4270004,静岡県,島田市,岸,シズオカケン,シマダシ,キシ,静岡県島田市岸
4270005,静岡県,島田市,岸町,シズオカケン,シマダシ,キシチョウ,静岡県島田市岸町
4270006,静岡県,島田市,阿知ケ谷,シズオカケン,シマダシ,アチガヤ,静岡県島田市阿知ケ谷
4270007,静岡県,島田市,野田,シズオカケン,シマダシ,ノダ,静岡県島田市野田
4270008,静岡県,島田市,落合,シズオカケン,シマダシ,オチアイ,静岡県島田市落合
4270009,静岡県,島田市,尾川,シズオカケン,シマダシ,オガワ,静岡県島田市尾川
4270011,静岡県,島田市,東町,シズオカケン,シマダシ,ヒガシチョウ,静岡県島田市東町
4270012,静岡県,島田市,細島,シズオカケン,シマダシ,ホソジマ,静岡県島田市細島
4270013,静岡県,島田市,御請,シズオカケン,シマダシ,オウケ,静岡県島田市御請
4270014,静岡県,島田市,道悦島,シズオカケン,シマダシ,ドウエツジマ,静岡県島田市道悦島
4270015,静岡県,島田市,高島町,シズオカケン,シマダシ,タカジマチョウ,静岡県島田市高島町
4270016,静岡県,島田市,宝来町,シズオカケン,シマダシ,ホウライチョウ,静岡県島田市宝来町
4270017,静岡県,島田市,南,シズオカケン,シマダシ,ミナミ,静岡県島田市南
4270018,静岡県,島田市,旭,シズオカケン,シマダシ,アサヒ,静岡県島田市旭
4270019,静岡県,島田市,道悦,シズオカケン,シマダシ,ドウエツ,静岡県島田市道悦
4270021,静岡県,島田市,柳町,シズオカケン,シマダシ,ヤナギマチ,静岡県島田市柳町
4270022,静岡県,島田市,本通,シズオカケン,シマダシ,ホントオリ,静岡県島田市本通
4270023,静岡県,島田市,大川町,シズオカケン,シマダシ,オオカワチョウ,静岡県島田市大川町
4270024,静岡県,島田市,横井,シズオカケン,シマダシ,ヨコイ,静岡県島田市横井
4270025,静岡県,島田市,大井町,シズオカケン,シマダシ,オオイチョウ,静岡県島田市大井町
4270026,静岡県,島田市,扇町,シズオカケン,シマダシ,オウギマチ,静岡県島田市扇町
4270027,静岡県,島田市,幸町,シズオカケン,シマダシ,サイワイマチ,静岡県島田市幸町
4270028,静岡県,島田市,栄町,シズオカケン,シマダシ,サカエチョウ,静岡県島田市栄町
4270029,静岡県,島田市,日之出町,シズオカケン,シマダシ,ヒノデチョウ,静岡県島田市日之出町
4270031,静岡県,島田市,鵜網,シズオカケン,シマダシ,ウアミ,静岡県島田市鵜網
4270032,静岡県,島田市,神座,シズオカケン,シマダシ,カンザ,静岡県島田市神座
4270033,静岡県,島田市,相賀,シズオカケン,シマダシ,オオカ,静岡県島田市相賀
4270034,静岡県,島田市,伊太,シズオカケン,シマダシ,イタ,静岡県島田市伊太
4270035,静岡県,島田市,向谷元町,シズオカケン,シマダシ,ムクヤモトマチ,静岡県島田市向谷元町
4270036,静岡県,島田市,三ツ合町,シズオカケン,シマダシ,ミツアイチョウ,静岡県島田市三ツ合町
4270037,静岡県,島田市,河原,シズオカケン,シマダシ,カワラ,静岡県島田市河原
4270038,静岡県,島田市,稲荷,シズオカケン,シマダシ,イナリ,静岡県島田市稲荷
4270039,静岡県,島田市,向谷,シズオカケン,シマダシ,ムクヤ,静岡県島田市向谷
4270041,静岡県,島田市,中河町,シズオカケン,シマダシ,ナカガワチョウ,静岡県島田市中河町
4270042,静岡県,島田市,中央町,シズオカケン,シマダシ,チュウオウチョウ,静岡県島田市中央町
4270043,静岡県,島田市,中溝,シズオカケン,シマダシ,ナカミゾ,静岡県島田市中溝
4270044,静岡県,島田市,宮川町,シズオカケン,シマダシ,ミヤガワチョウ,静岡県島田市宮川町
4270045,静岡県,島田市,向島町,シズオカケン,シマダシ,ムカイジマチョウ,静岡県島田市向島町
4270046,静岡県,島田市,若松町,シズオカケン,シマダシ,ワカマツチョウ,静岡県島田市若松町
4270047,静岡県,島田市,中溝町,シズオカケン,シマダシ,ナカミゾチョウ,静岡県島田市中溝町
4270048,静岡県,島田市,旗指,シズオカケン,シマダシ,ハッサシ,静岡県島田市旗指
4270051,静岡県,島田市,元島田東町,シズオカケン,シマダシ,モトシマダヒガシチョウ,静岡県島田市元島田東町
4270052,静岡県,島田市,松葉町,シズオカケン,シマダシ,マツバチョウ,静岡県島田市松葉町
4270053,静岡県,島田市,御仮屋町,シズオカケン,シマダシ,オカリヤチョウ,静岡県島田市御仮屋町
4270054,静岡県,島田市,高砂町,シズオカケン,シマダシ,タカサゴチョウ,静岡県島田市高砂町
4270055,静岡県,島田市,新町通,シズオカケン,シマダシ,シンマチドオリ,静岡県島田市新町通
4270056,静岡県,島田市,大津通,シズオカケン,シマダシ,オオツドオリ,静岡県島田市大津通
4270057,静岡県,島田市,元島田,シズオカケン,シマダシ,モトシマダ,静岡県島田市元島田
4270058,静岡県,島田市,祇園町,シズオカケン,シマダシ,ギオンチョウ,静岡県島田市祇園町
4270059,静岡県,島田市,新田町,シズオカケン,シマダシ,シンデンチョウ,静岡県島田市新田町
4270061,静岡県,島田市,ばらの丘,シズオカケン,シマダシ,バラノオカ,静岡県島田市ばらの丘
4270101,静岡県,島田市,大柳,シズオカケン,シマダシ,オオヤナギ,静岡県島田市大柳
4270102,静岡県,島田市,大柳南,シズオカケン,シマダシ,オオヤナギミナミ,静岡県島田市大柳南
4270103,静岡県,島田市,中河,シズオカケン,シマダシ,ナカガワ,静岡県島田市中河
4270104,静岡県,島田市,井口,シズオカケン,シマダシ,イグチ,静岡県島田市井口
4270105,静岡県,島田市,南原,シズオカケン,シマダシ,ミナミハラ,静岡県島田市南原
4270106,静岡県,島田市,岡田,シズオカケン,シマダシ,オカダ,静岡県島田市岡田
4270107,静岡県,島田市,船木,シズオカケン,シマダシ,フナキ,静岡県島田市船木
4270108,静岡県,島田市,牧之原（その他）,シズオカケン,シマダシ,マキノハラ(ソノタ),静岡県島田市牧之原（その他）
4270111,静岡県,島田市,阪本,シズオカケン,シマダシ,サカモト,静岡県島田市阪本
4270112,静岡県,島田市,月坂,シズオカケン,シマダシ,ツキサカ,静岡県島田市月坂
4270113,静岡県,島田市,湯日,シズオカケン,シマダシ,ユイ,静岡県島田市湯日
4270231,静岡県,島田市,笹間下,シズオカケン,シマダシ,ササマシモ,静岡県島田市笹間下
4270232,静岡県,島田市,伊久美,シズオカケン,シマダシ,イクミ,静岡県島田市伊久美
4270233,静岡県,島田市,身成,シズオカケン,シマダシ,ミナリ,静岡県島田市身成
4280001,静岡県,島田市,高熊,シズオカケン,シマダシ,タカクマ,静岡県島田市高熊
4280002,静岡県,島田市,福用,シズオカケン,シマダシ,フクヨウ,静岡県島田市福用
4280003,静岡県,島田市,神尾,シズオカケン,シマダシ,カミオ,静岡県島田市神尾
4280004,静岡県,島田市,横岡,シズオカケン,シマダシ,ヨコオカ,静岡県島田市横岡
4280005,静岡県,島田市,横岡新田,シズオカケン,シマダシ,ヨコオカシンデン,静岡県島田市横岡新田
4280006,静岡県,島田市,牛尾,シズオカケン,シマダシ,ウシオ,静岡県島田市牛尾
4280007,静岡県,島田市,島,シズオカケン,シマダシ,シマ,静岡県島田市島
4280008,静岡県,島田市,竹下,シズオカケン,シマダシ,タケシタ,静岡県島田市竹下
4280009,静岡県,島田市,大代,シズオカケン,シマダシ,オオジロ,静岡県島田市大代
4280011,静岡県,島田市,番生寺,シズオカケン,シマダシ,バンショウジ,静岡県島田市番生寺
4280012,静岡県,島田市,金谷代官町,シズオカケン,シマダシ,カナヤダイカンチョウ,静岡県島田市金谷代官町
4280013,静岡県,島田市,金谷東,シズオカケン,シマダシ,カナヤアズマ,静岡県島田市金谷東
4280014,静岡県,島田市,金谷泉町,シズオカケン,シマダシ,カナヤイズミチョウ,静岡県島田市金谷泉町
4280015,静岡県,島田市,金谷扇町,シズオカケン,シマダシ,カナヤオウギチョウ,静岡県島田市金谷扇町
4280016,静岡県,島田市,金谷宮崎町,シズオカケン,シマダシ,カナヤミヤザキチョウ,静岡県島田市金谷宮崎町
4280017,静岡県,島田市,金谷栄町,シズオカケン,シマダシ,カナヤサカエチョウ,静岡県島田市金谷栄町
4280018,静岡県,島田市,金谷根岸町,シズオカケン,シマダシ,カナヤネギシチョウ,静岡県島田市金谷根岸町
4280019,静岡県,島田市,志戸呂,シズオカケン,シマダシ,シトロ,静岡県島田市志戸呂
4280023,静岡県,島田市,金谷坂町,シズオカケン,シマダシ,カナヤサカマチ,静岡県島田市金谷坂町
4280024,静岡県,島田市,金谷南町,シズオカケン,シマダシ,カナヤミナミチョウ,静岡県島田市金谷南町
4280025,静岡県,島田市,金谷田町,シズオカケン,シマダシ,カナヤタマチ,静岡県島田市金谷田町
4280026,静岡県,島田市,金谷本町,シズオカケン,シマダシ,カナヤホンマチ,静岡県島田市金谷本町
4280027,静岡県,島田市,金谷上十五軒,シズオカケン,シマダシ,カナヤカミジュウゴケン,静岡県島田市金谷上十五軒
4280028,静岡県,島田市,金谷下十五軒,シズオカケン,シマダシ,カナヤシモジュウゴケン,静岡県島田市金谷下十五軒
4280031,静岡県,島田市,金谷清水,シズオカケン,シマダシ,カナヤシミズ,静岡県島田市金谷清水
4280032,静岡県,島田市,金谷天王町,シズオカケン,シマダシ,カナヤテンノウチョウ,静岡県島田市金谷天王町
4280033,静岡県,島田市,金谷二軒家,シズオカケン,シマダシ,カナヤニケンヤ,静岡県島田市金谷二軒家
4280034,静岡県,島田市,金谷富士見町,シズオカケン,シマダシ,カナヤフジミチョウ,静岡県島田市金谷富士見町
4280035,静岡県,島田市,切山,シズオカケン,シマダシ,キリヤマ,静岡県島田市切山
4280036,静岡県,島田市,神谷城,シズオカケン,シマダシ,カミヤシロ,静岡県島田市神谷城
4280037,静岡県,島田市,菊川,シズオカケン,シマダシ,キクガワ,静岡県島田市菊川
4280038,静岡県,島田市,佐夜鹿,シズオカケン,シマダシ,サヨシカ,静岡県島田市佐夜鹿
4280039,静岡県,島田市,金谷猪土居,シズオカケン,シマダシ,カナヤシシドイ,静岡県島田市金谷猪土居
4280041,静岡県,島田市,金谷都町,シズオカケン,シマダシ,カナヤミヤコチョウ,静岡県島田市金谷都町
4280042,静岡県,島田市,金谷古横町,シズオカケン,シマダシ,カナヤフルヨコチョウ,静岡県島田市金谷古横町
4280043,静岡県,島田市,金谷中町,シズオカケン,シマダシ,カナヤナカマチ,静岡県島田市金谷中町
4280044,静岡県,島田市,金谷緑町,シズオカケン,シマダシ,カナヤミドリチョウ,静岡県島田市金谷緑町
4280046,静岡県,島田市,金谷金山町,シズオカケン,シマダシ,カナヤキンザンチョウ,静岡県島田市金谷金山町
4280047,静岡県,島田市,金谷新町,シズオカケン,シマダシ,カナヤシンマチ,静岡県島田市金谷新町
4280048,静岡県,島田市,金谷城山町,シズオカケン,シマダシ,カナヤシロヤマチョウ,静岡県島田市金谷城山町
4280049,静岡県,島田市,牧之原（２５０〜３４３番地「２５５、２５６、２５８、２５９、２６２、,シズオカケン,シマダシ,マキノハラ(250-343バンチ<255、256、258、259、262、,静岡県島田市牧之原（250〜343-「255、256、258、259、262、
4280101,静岡県,島田市,川根町笹間渡,シズオカケン,シマダシ,カワネチョウササマド,静岡県島田市川根町笹間渡
4280102,静岡県,島田市,川根町上河内,シズオカケン,シマダシ,カワネチョウカミゴウチ,静岡県島田市川根町上河内
4280103,静岡県,島田市,川根町身成,シズオカケン,シマダシ,カワネチョウミナリ,静岡県島田市川根町身成
4280104,静岡県,島田市,川根町家山,シズオカケン,シマダシ,カワネチョウイエヤマ,静岡県島田市川根町家山
4280105,静岡県,島田市,川根町葛籠,シズオカケン,シマダシ,カワネチョウツヅラ,静岡県島田市川根町葛籠
4280106,静岡県,島田市,川根町抜里,シズオカケン,シマダシ,カワネチョウヌクリ,静岡県島田市川根町抜里
4280211,静岡県,島田市,川根町笹間上,シズオカケン,シマダシ,カワネチョウササマカミ,静岡県島田市川根町笹間上
4280212,静岡県,島田市,川根町笹間下,シズオカケン,シマダシ,カワネチョウササマシモ,静岡県島田市川根町笹間下
4280300,静岡県,榛原郡川根本町,,シズオカケン,ハイバラグンカワネホンチョウ,,静岡県榛原郡川根本町
4280301,静岡県,榛原郡川根本町,徳山,シズオカケン,ハイバラグンカワネホンチョウ,トクヤマ,静岡県榛原郡川根本町徳山
4280302,静岡県,榛原郡川根本町,文沢,シズオカケン,ハイバラグンカワネホンチョウ,ブンザワ,静岡県榛原郡川根本町文沢
4280303,静岡県,榛原郡川根本町,壱町河内,シズオカケン,ハイバラグンカワネホンチョウ,イチョウゴウチ,静岡県榛原郡川根本町壱町河内
4280304,静岡県,榛原郡川根本町,下泉,シズオカケン,ハイバラグンカワネホンチョウ,シモイズミ,静岡県榛原郡川根本町下泉
4280305,静岡県,榛原郡川根本町,地名,シズオカケン,ハイバラグンカワネホンチョウ,ジナ,静岡県榛原郡川根本町地名
4280306,静岡県,榛原郡川根本町,田野口,シズオカケン,ハイバラグンカワネホンチョウ,タノクチ,静岡県榛原郡川根本町田野口
4280311,静岡県,榛原郡川根本町,元藤川,シズオカケン,ハイバラグンカワネホンチョウ,モトフジカワ,静岡県榛原郡川根本町元藤川
4280312,静岡県,榛原郡川根本町,水川,シズオカケン,ハイバラグンカワネホンチョウ,ミズカワ,静岡県榛原郡川根本町水川
4280313,静岡県,榛原郡川根本町,上長尾,シズオカケン,ハイバラグンカワネホンチョウ,カミナガオ,静岡県榛原郡川根本町上長尾
4280314,静岡県,榛原郡川根本町,下長尾,シズオカケン,ハイバラグンカワネホンチョウ,シモナガオ,静岡県榛原郡川根本町下長尾
4280315,静岡県,榛原郡川根本町,久野脇,シズオカケン,ハイバラグンカワネホンチョウ,クノワキ,静岡県榛原郡川根本町久野脇
4280401,静岡県,榛原郡川根本町,梅地,シズオカケン,ハイバラグンカワネホンチョウ,ウメジ,静岡県榛原郡川根本町梅地
4280402,静岡県,榛原郡川根本町,犬間,シズオカケン,ハイバラグンカワネホンチョウ,イヌマ,静岡県榛原郡川根本町犬間
4280411,静岡県,榛原郡川根本町,千頭,シズオカケン,ハイバラグンカワネホンチョウ,センズ,静岡県榛原郡川根本町千頭
4280412,静岡県,榛原郡川根本町,奥泉,シズオカケン,ハイバラグンカワネホンチョウ,オクイズミ,静岡県榛原郡川根本町奥泉
4280413,静岡県,榛原郡川根本町,桑野山,シズオカケン,ハイバラグンカワネホンチョウ,クワノヤマ,静岡県榛原郡川根本町桑野山
4280414,静岡県,榛原郡川根本町,東藤川,シズオカケン,ハイバラグンカワネホンチョウ,ヒガシフジカワ,静岡県榛原郡川根本町東藤川
4280415,静岡県,榛原郡川根本町,上岸,シズオカケン,ハイバラグンカワネホンチョウ,カミキシ,静岡県榛原郡川根本町上岸
4280416,静岡県,榛原郡川根本町,田代,シズオカケン,ハイバラグンカワネホンチョウ,タシロ,静岡県榛原郡川根本町田代
4280417,静岡県,榛原郡川根本町,青部,シズオカケン,ハイバラグンカワネホンチョウ,アオベ,静岡県榛原郡川根本町青部
4280418,静岡県,榛原郡川根本町,崎平,シズオカケン,ハイバラグンカワネホンチョウ,サキダイラ,静岡県榛原郡川根本町崎平
4280501,静岡県,静岡市葵区,小河内,シズオカケン,シズオカシアオイク,コゴウチ,静岡県静岡市葵区小河内
4280502,静岡県,静岡市葵区,上坂本,シズオカケン,シズオカシアオイク,カミサカモト,静岡県静岡市葵区上坂本
4280503,静岡県,静岡市葵区,岩崎,シズオカケン,シズオカシアオイク,イワサキ,静岡県静岡市葵区岩崎
4280504,静岡県,静岡市葵区,井川,シズオカケン,シズオカシアオイク,イカワ,静岡県静岡市葵区井川
4280505,静岡県,静岡市葵区,田代,シズオカケン,シズオカシアオイク,タシロ,静岡県静岡市葵区田代
4300801,静岡県,浜松市東区,神立町,シズオカケン,ハママツシヒガシク,コウダチチョウ,静岡県浜松市東区神立町
4300802,静岡県,浜松市東区,将監町,シズオカケン,ハママツシヒガシク,ショウゲンチョウ,静岡県浜松市東区将監町
4300803,静岡県,浜松市東区,植松町,シズオカケン,ハママツシヒガシク,ウエマツチョウ,静岡県浜松市東区植松町
4300804,静岡県,浜松市中区,富吉町,シズオカケン,ハママツシナカク,トミヨシチョウ,静岡県浜松市中区富吉町
4300805,静岡県,浜松市中区,相生町,シズオカケン,ハママツシナカク,アイオイチョウ,静岡県浜松市中区相生町
4300806,静岡県,浜松市中区,木戸町,シズオカケン,ハママツシナカク,キドチョウ,静岡県浜松市中区木戸町
4300807,静岡県,浜松市中区,佐藤,シズオカケン,ハママツシナカク,サトウ,静岡県浜松市中区佐藤
4300808,静岡県,浜松市中区,天神町,シズオカケン,ハママツシナカク,テンジンマチ,静岡県浜松市中区天神町
4300811,静岡県,浜松市中区,名塚町,シズオカケン,ハママツシナカク,ナヅカチョウ,静岡県浜松市中区名塚町
4300812,静岡県,浜松市南区,本郷町,シズオカケン,ハママツシミナミク,ホンゴウチョウ,静岡県浜松市南区本郷町
4300813,静岡県,浜松市南区,芳川町,シズオカケン,ハママツシミナミク,ホウガワチョウ,静岡県浜松市南区芳川町
4300814,静岡県,浜松市南区,恩地町,シズオカケン,ハママツシミナミク,オンヂチョウ,静岡県浜松市南区恩地町
4300815,静岡県,浜松市南区,都盛町,シズオカケン,ハママツシミナミク,ツモリチョウ,静岡県浜松市南区都盛町
4300816,静岡県,浜松市南区,参野町,シズオカケン,ハママツシミナミク,サンジノチョウ,静岡県浜松市南区参野町
4300817,静岡県,浜松市南区,頭陀寺町,シズオカケン,ハママツシミナミク,ズダジチョウ,静岡県浜松市南区頭陀寺町
4300821,静岡県,浜松市南区,西町,シズオカケン,ハママツシミナミク,ニシマチ,静岡県浜松市南区西町
4300822,静岡県,浜松市南区,東町,シズオカケン,ハママツシミナミク,ヒガシマチ,静岡県浜松市南区東町
4300823,静岡県,浜松市南区,河輪町,シズオカケン,ハママツシミナミク,カワワチョウ,静岡県浜松市南区河輪町
4300824,静岡県,浜松市南区,富屋町,シズオカケン,ハママツシミナミク,トミヤチョウ,静岡県浜松市南区富屋町
4300825,静岡県,浜松市南区,下江町,シズオカケン,ハママツシミナミク,シモエチョウ,静岡県浜松市南区下江町
4300826,静岡県,浜松市南区,四本松町,シズオカケン,ハママツシミナミク,シホンマツチョウ,静岡県浜松市南区四本松町
4300827,静岡県,浜松市南区,立野町,シズオカケン,ハママツシミナミク,タテノチョウ,静岡県浜松市南区立野町
4300831,静岡県,浜松市南区,御給町,シズオカケン,ハママツシミナミク,ゴキュウチョウ,静岡県浜松市南区御給町
4300832,静岡県,浜松市南区,長田町,シズオカケン,ハママツシミナミク,ナガタチョウ,静岡県浜松市南区長田町
4300833,静岡県,浜松市南区,三新町,シズオカケン,ハママツシミナミク,サンシンチョウ,静岡県浜松市南区三新町
4300834,静岡県,浜松市南区,松島町,シズオカケン,ハママツシミナミク,マツシマチョウ,静岡県浜松市南区松島町
4300835,静岡県,浜松市南区,遠州浜,シズオカケン,ハママツシミナミク,エンシュウハマ,静岡県浜松市南区遠州浜
4300836,静岡県,浜松市南区,福島町,シズオカケン,ハママツシミナミク,フクシマチョウ,静岡県浜松市南区福島町
4300837,静岡県,浜松市南区,西島町,シズオカケン,ハママツシミナミク,ニシジマチョウ,静岡県浜松市南区西島町
4300838,静岡県,浜松市南区,鼡野町,シズオカケン,ハママツシミナミク,ネズミノチョウ,静岡県浜松市南区鼡野町
4300841,静岡県,浜松市南区,寺脇町,シズオカケン,ハママツシミナミク,テラワキチョウ,静岡県浜松市南区寺脇町
4300842,静岡県,浜松市南区,大柳町,シズオカケン,ハママツシミナミク,オオヤギチョウ,静岡県浜松市南区大柳町
4300843,静岡県,浜松市南区,福塚町,シズオカケン,ハママツシミナミク,フクヅカチョウ,静岡県浜松市南区福塚町
4300844,静岡県,浜松市南区,江之島町,シズオカケン,ハママツシミナミク,エノシマチョウ,静岡県浜松市南区江之島町
4300845,静岡県,浜松市南区,中田島町,シズオカケン,ハママツシミナミク,ナカタジマチョウ,静岡県浜松市南区中田島町
4300846,静岡県,浜松市南区,白羽町,シズオカケン,ハママツシミナミク,シロワチョウ,静岡県浜松市南区白羽町
4300851,静岡県,浜松市中区,向宿,シズオカケン,ハママツシナカク,ムコウジュク,静岡県浜松市中区向宿
4300852,静岡県,浜松市中区,領家,シズオカケン,ハママツシナカク,リョウケ,静岡県浜松市中区領家
4300853,静岡県,浜松市南区,三島町,シズオカケン,ハママツシミナミク,ミシマチョウ,静岡県浜松市南区三島町
4300854,静岡県,浜松市中区,瓜内町,シズオカケン,ハママツシナカク,ウリウチチョウ,静岡県浜松市中区瓜内町
4300854,静岡県,浜松市南区,瓜内町,シズオカケン,ハママツシミナミク,ウリウチチョウ,静岡県浜松市南区瓜内町
4300855,静岡県,浜松市南区,楊子町,シズオカケン,ハママツシミナミク,ヨウズチョウ,静岡県浜松市南区楊子町
4300856,静岡県,浜松市中区,中島,シズオカケン,ハママツシナカク,ナカジマ,静岡県浜松市中区中島
4300857,静岡県,浜松市中区,中島町,シズオカケン,ハママツシナカク,ナカジマチョウ,静岡県浜松市中区中島町
4300901,静岡県,浜松市中区,曳馬,シズオカケン,ハママツシナカク,ヒクマ,静岡県浜松市中区曳馬
4300902,静岡県,浜松市中区,曳馬町,シズオカケン,ハママツシナカク,ヒクマチョウ,静岡県浜松市中区曳馬町
4300903,静岡県,浜松市中区,助信町,シズオカケン,ハママツシナカク,スケノブチョウ,静岡県浜松市中区助信町
4300904,静岡県,浜松市中区,中沢町,シズオカケン,ハママツシナカク,ナカザワチョウ,静岡県浜松市中区中沢町
4300905,静岡県,浜松市中区,下池川町,シズオカケン,ハママツシナカク,シモイケガワチョウ,静岡県浜松市中区下池川町
4300906,静岡県,浜松市中区,住吉,シズオカケン,ハママツシナカク,スミヨシ,静岡県浜松市中区住吉
4300907,静岡県,浜松市中区,高林,シズオカケン,ハママツシナカク,タカバヤシ,静岡県浜松市中区高林
4300911,静岡県,浜松市中区,新津町,シズオカケン,ハママツシナカク,シンヅチョウ,静岡県浜松市中区新津町
4300912,静岡県,浜松市中区,茄子町,シズオカケン,ハママツシナカク,ナスビチョウ,静岡県浜松市中区茄子町
4300913,静岡県,浜松市中区,船越町,シズオカケン,ハママツシナカク,フナコシチョウ,静岡県浜松市中区船越町
4300915,静岡県,浜松市中区,東田町,シズオカケン,ハママツシナカク,ヒガシタマチ,静岡県浜松市中区東田町
4300916,静岡県,浜松市中区,早馬町,シズオカケン,ハママツシナカク,ハヤウマチョウ,静岡県浜松市中区早馬町
4300917,静岡県,浜松市中区,常盤町,シズオカケン,ハママツシナカク,トキワチョウ,静岡県浜松市中区常盤町
4300918,静岡県,浜松市中区,八幡町,シズオカケン,ハママツシナカク,ハチマンチョウ,静岡県浜松市中区八幡町
4300919,静岡県,浜松市中区,野口町,シズオカケン,ハママツシナカク,ノグチチョウ,静岡県浜松市中区野口町
4300923,静岡県,浜松市中区,北寺島町,シズオカケン,ハママツシナカク,キタテラジマチョウ,静岡県浜松市中区北寺島町
4300924,静岡県,浜松市中区,龍禅寺町,シズオカケン,ハママツシナカク,リュウゼンジチョウ,静岡県浜松市中区龍禅寺町
4300925,静岡県,浜松市中区,寺島町,シズオカケン,ハママツシナカク,テラジマチョウ,静岡県浜松市中区寺島町
4300926,静岡県,浜松市中区,砂山町,シズオカケン,ハママツシナカク,スナヤマチョウ,静岡県浜松市中区砂山町
4300927,静岡県,浜松市中区,旭町,シズオカケン,ハママツシナカク,アサヒチョウ,静岡県浜松市中区旭町
4300928,静岡県,浜松市中区,板屋町（次のビルを除く）,シズオカケン,ハママツシナカク,イタヤマチ(ツギノビルヲノゾク),静岡県浜松市中区板屋町（次のビルを除く）
4300929,静岡県,浜松市中区,中央,シズオカケン,ハママツシナカク,チュウオウ,静岡県浜松市中区中央
4300931,静岡県,浜松市中区,神明町,シズオカケン,ハママツシナカク,シンメイチョウ,静岡県浜松市中区神明町
4300932,静岡県,浜松市中区,肴町,シズオカケン,ハママツシナカク,サカナマチ,静岡県浜松市中区肴町
4300933,静岡県,浜松市中区,鍛冶町,シズオカケン,ハママツシナカク,カジマチ,静岡県浜松市中区鍛冶町
4300934,静岡県,浜松市中区,千歳町,シズオカケン,ハママツシナカク,チトセチョウ,静岡県浜松市中区千歳町
4300935,静岡県,浜松市中区,伝馬町,シズオカケン,ハママツシナカク,テンマチョウ,静岡県浜松市中区伝馬町
4300936,静岡県,浜松市中区,大工町,シズオカケン,ハママツシナカク,ダイクマチ,静岡県浜松市中区大工町
4300937,静岡県,浜松市中区,利町,シズオカケン,ハママツシナカク,トギマチ,静岡県浜松市中区利町
4300938,静岡県,浜松市中区,紺屋町,シズオカケン,ハママツシナカク,コウヤマチ,静岡県浜松市中区紺屋町
4300939,静岡県,浜松市中区,連尺町,シズオカケン,ハママツシナカク,レンジャクチョウ,静岡県浜松市中区連尺町
4300941,静岡県,浜松市中区,山下町,シズオカケン,ハママツシナカク,ヤマシタチョウ,静岡県浜松市中区山下町
4300942,静岡県,浜松市中区,元浜町,シズオカケン,ハママツシナカク,モトハマチョウ,静岡県浜松市中区元浜町
4300943,静岡県,浜松市中区,北田町,シズオカケン,ハママツシナカク,キタタマチ,静岡県浜松市中区北田町
4300944,静岡県,浜松市中区,田町,シズオカケン,ハママツシナカク,タマチ,静岡県浜松市中区田町
4300945,静岡県,浜松市中区,池町,シズオカケン,ハママツシナカク,イケマチ,静岡県浜松市中区池町
4300946,静岡県,浜松市中区,元城町,シズオカケン,ハママツシナカク,モトシロチョウ,静岡県浜松市中区元城町
4300947,静岡県,浜松市中区,松城町,シズオカケン,ハママツシナカク,マツシロチョウ,静岡県浜松市中区松城町
4300948,静岡県,浜松市中区,元目町,シズオカケン,ハママツシナカク,ゲンモクチョウ,静岡県浜松市中区元目町
4300949,静岡県,浜松市中区,尾張町,シズオカケン,ハママツシナカク,オワリチョウ,静岡県浜松市中区尾張町
4307701,静岡県,浜松市中区,板屋町浜松アクトタワー（１階）,シズオカケン,ハママツシナカク,イタヤマチハママツアクトタワー(1カイ),静岡県浜松市中区板屋町浜松アクトタワー（1階）
4307702,静岡県,浜松市中区,板屋町浜松アクトタワー（２階）,シズオカケン,ハママツシナカク,イタヤマチハママツアクトタワー(2カイ),静岡県浜松市中区板屋町浜松アクトタワー（2階）
4307703,静岡県,浜松市中区,板屋町浜松アクトタワー（３階）,シズオカケン,ハママツシナカク,イタヤマチハママツアクトタワー(3カイ),静岡県浜松市中区板屋町浜松アクトタワー（3階）
4307704,静岡県,浜松市中区,板屋町浜松アクトタワー（４階）,シズオカケン,ハママツシナカク,イタヤマチハママツアクトタワー(4カイ),静岡県浜松市中区板屋町浜松アクトタワー（4階）
4307705,静岡県,浜松市中区,板屋町浜松アクトタワー（５階）,シズオカケン,ハママツシナカク,イタヤマチハママツアクトタワー(5カイ),静岡県浜松市中区板屋町浜松アクトタワー（5階）
4307706,静岡県,浜松市中区,板屋町浜松アクトタワー（６階）,シズオカケン,ハママツシナカク,イタヤマチハママツアクトタワー(6カイ),静岡県浜松市中区板屋町浜松アクトタワー（6階）
4307707,静岡県,浜松市中区,板屋町浜松アクトタワー（７階）,シズオカケン,ハママツシナカク,イタヤマチハママツアクトタワー(7カイ),静岡県浜松市中区板屋町浜松アクトタワー（7階）
4307708,静岡県,浜松市中区,板屋町浜松アクトタワー（８階）,シズオカケン,ハママツシナカク,イタヤマチハママツアクトタワー(8カイ),静岡県浜松市中区板屋町浜松アクトタワー（8階）
4307709,静岡県,浜松市中区,板屋町浜松アクトタワー（９階）,シズオカケン,ハママツシナカク,イタヤマチハママツアクトタワー(9カイ),静岡県浜松市中区板屋町浜松アクトタワー（9階）
4307710,静岡県,浜松市中区,板屋町浜松アクトタワー（１０階）,シズオカケン,ハママツシナカク,イタヤマチハママツアクトタワー(10カイ),静岡県浜松市中区板屋町浜松アクトタワー（10階）
4307711,静岡県,浜松市中区,板屋町浜松アクトタワー（１１階）,シズオカケン,ハママツシナカク,イタヤマチハママツアクトタワー(11カイ),静岡県浜松市中区板屋町浜松アクトタワー（11階）
4307712,静岡県,浜松市中区,板屋町浜松アクトタワー（１２階）,シズオカケン,ハママツシナカク,イタヤマチハママツアクトタワー(12カイ),静岡県浜松市中区板屋町浜松アクトタワー（12階）
4307713,静岡県,浜松市中区,板屋町浜松アクトタワー（１３階）,シズオカケン,ハママツシナカク,イタヤマチハママツアクトタワー(13カイ),静岡県浜松市中区板屋町浜松アクトタワー（13階）
4307714,静岡県,浜松市中区,板屋町浜松アクトタワー（１４階）,シズオカケン,ハママツシナカク,イタヤマチハママツアクトタワー(14カイ),静岡県浜松市中区板屋町浜松アクトタワー（14階）
4307715,静岡県,浜松市中区,板屋町浜松アクトタワー（１５階）,シズオカケン,ハママツシナカク,イタヤマチハママツアクトタワー(15カイ),静岡県浜松市中区板屋町浜松アクトタワー（15階）
4307716,静岡県,浜松市中区,板屋町浜松アクトタワー（１６階）,シズオカケン,ハママツシナカク,イタヤマチハママツアクトタワー(16カイ),静岡県浜松市中区板屋町浜松アクトタワー（16階）
4307717,静岡県,浜松市中区,板屋町浜松アクトタワー（１７階）,シズオカケン,ハママツシナカク,イタヤマチハママツアクトタワー(17カイ),静岡県浜松市中区板屋町浜松アクトタワー（17階）
4307718,静岡県,浜松市中区,板屋町浜松アクトタワー（１８階）,シズオカケン,ハママツシナカク,イタヤマチハママツアクトタワー(18カイ),静岡県浜松市中区板屋町浜松アクトタワー（18階）
4307719,静岡県,浜松市中区,板屋町浜松アクトタワー（１９階）,シズオカケン,ハママツシナカク,イタヤマチハママツアクトタワー(19カイ),静岡県浜松市中区板屋町浜松アクトタワー（19階）
4307720,静岡県,浜松市中区,板屋町浜松アクトタワー（２０階）,シズオカケン,ハママツシナカク,イタヤマチハママツアクトタワー(20カイ),静岡県浜松市中区板屋町浜松アクトタワー（20階）
4307721,静岡県,浜松市中区,板屋町浜松アクトタワー（２１階）,シズオカケン,ハママツシナカク,イタヤマチハママツアクトタワー(21カイ),静岡県浜松市中区板屋町浜松アクトタワー（21階）
4307722,静岡県,浜松市中区,板屋町浜松アクトタワー（２２階）,シズオカケン,ハママツシナカク,イタヤマチハママツアクトタワー(22カイ),静岡県浜松市中区板屋町浜松アクトタワー（22階）
4307723,静岡県,浜松市中区,板屋町浜松アクトタワー（２３階）,シズオカケン,ハママツシナカク,イタヤマチハママツアクトタワー(23カイ),静岡県浜松市中区板屋町浜松アクトタワー（23階）
4307724,静岡県,浜松市中区,板屋町浜松アクトタワー（２４階）,シズオカケン,ハママツシナカク,イタヤマチハママツアクトタワー(24カイ),静岡県浜松市中区板屋町浜松アクトタワー（24階）
4307725,静岡県,浜松市中区,板屋町浜松アクトタワー（２５階）,シズオカケン,ハママツシナカク,イタヤマチハママツアクトタワー(25カイ),静岡県浜松市中区板屋町浜松アクトタワー（25階）
4307726,静岡県,浜松市中区,板屋町浜松アクトタワー（２６階）,シズオカケン,ハママツシナカク,イタヤマチハママツアクトタワー(26カイ),静岡県浜松市中区板屋町浜松アクトタワー（26階）
4307727,静岡県,浜松市中区,板屋町浜松アクトタワー（２７階）,シズオカケン,ハママツシナカク,イタヤマチハママツアクトタワー(27カイ),静岡県浜松市中区板屋町浜松アクトタワー（27階）
4307728,静岡県,浜松市中区,板屋町浜松アクトタワー（２８階）,シズオカケン,ハママツシナカク,イタヤマチハママツアクトタワー(28カイ),静岡県浜松市中区板屋町浜松アクトタワー（28階）
4307729,静岡県,浜松市中区,板屋町浜松アクトタワー（２９階）,シズオカケン,ハママツシナカク,イタヤマチハママツアクトタワー(29カイ),静岡県浜松市中区板屋町浜松アクトタワー（29階）
4307730,静岡県,浜松市中区,板屋町浜松アクトタワー（３０階）,シズオカケン,ハママツシナカク,イタヤマチハママツアクトタワー(30カイ),静岡県浜松市中区板屋町浜松アクトタワー（30階）
4307731,静岡県,浜松市中区,板屋町浜松アクトタワー（３１階）,シズオカケン,ハママツシナカク,イタヤマチハママツアクトタワー(31カイ),静岡県浜松市中区板屋町浜松アクトタワー（31階）
4307732,静岡県,浜松市中区,板屋町浜松アクトタワー（３２階）,シズオカケン,ハママツシナカク,イタヤマチハママツアクトタワー(32カイ),静岡県浜松市中区板屋町浜松アクトタワー（32階）
4307733,静岡県,浜松市中区,板屋町浜松アクトタワー（３３階）,シズオカケン,ハママツシナカク,イタヤマチハママツアクトタワー(33カイ),静岡県浜松市中区板屋町浜松アクトタワー（33階）
4307734,静岡県,浜松市中区,板屋町浜松アクトタワー（３４階）,シズオカケン,ハママツシナカク,イタヤマチハママツアクトタワー(34カイ),静岡県浜松市中区板屋町浜松アクトタワー（34階）
4307735,静岡県,浜松市中区,板屋町浜松アクトタワー（３５階）,シズオカケン,ハママツシナカク,イタヤマチハママツアクトタワー(35カイ),静岡県浜松市中区板屋町浜松アクトタワー（35階）
4307736,静岡県,浜松市中区,板屋町浜松アクトタワー（３６階）,シズオカケン,ハママツシナカク,イタヤマチハママツアクトタワー(36カイ),静岡県浜松市中区板屋町浜松アクトタワー（36階）
4307737,静岡県,浜松市中区,板屋町浜松アクトタワー（３７階）,シズオカケン,ハママツシナカク,イタヤマチハママツアクトタワー(37カイ),静岡県浜松市中区板屋町浜松アクトタワー（37階）
4307738,静岡県,浜松市中区,板屋町浜松アクトタワー（３８階）,シズオカケン,ハママツシナカク,イタヤマチハママツアクトタワー(38カイ),静岡県浜松市中区板屋町浜松アクトタワー（38階）
4307739,静岡県,浜松市中区,板屋町浜松アクトタワー（３９階）,シズオカケン,ハママツシナカク,イタヤマチハママツアクトタワー(39カイ),静岡県浜松市中区板屋町浜松アクトタワー（39階）
4307740,静岡県,浜松市中区,板屋町浜松アクトタワー（４０階）,シズオカケン,ハママツシナカク,イタヤマチハママツアクトタワー(40カイ),静岡県浜松市中区板屋町浜松アクトタワー（40階）
4307741,静岡県,浜松市中区,板屋町浜松アクトタワー（４１階）,シズオカケン,ハママツシナカク,イタヤマチハママツアクトタワー(41カイ),静岡県浜松市中区板屋町浜松アクトタワー（41階）
4307742,静岡県,浜松市中区,板屋町浜松アクトタワー（４２階）,シズオカケン,ハママツシナカク,イタヤマチハママツアクトタワー(42カイ),静岡県浜松市中区板屋町浜松アクトタワー（42階）
4307743,静岡県,浜松市中区,板屋町浜松アクトタワー（４３階）,シズオカケン,ハママツシナカク,イタヤマチハママツアクトタワー(43カイ),静岡県浜松市中区板屋町浜松アクトタワー（43階）
4307744,静岡県,浜松市中区,板屋町浜松アクトタワー（４４階）,シズオカケン,ハママツシナカク,イタヤマチハママツアクトタワー(44カイ),静岡県浜松市中区板屋町浜松アクトタワー（44階）
4307745,静岡県,浜松市中区,板屋町浜松アクトタワー（４５階）,シズオカケン,ハママツシナカク,イタヤマチハママツアクトタワー(45カイ),静岡県浜松市中区板屋町浜松アクトタワー（45階）
4307790,静岡県,浜松市中区,板屋町浜松アクトタワー（地階・階層不明）,シズオカケン,ハママツシナカク,イタヤマチハママツアクトタワー(チカイ・カイソウフメイ),静岡県浜松市中区板屋町浜松アクトタワー（地階・階層不明）
4310101,静岡県,浜松市西区,雄踏町山崎,シズオカケン,ハママツシニシク,ユウトウチョウヤマザキ,静岡県浜松市西区雄踏町山崎
4310102,静岡県,浜松市西区,雄踏町宇布見,シズオカケン,ハママツシニシク,ユウトウチョウウブミ,静岡県浜松市西区雄踏町宇布見
4310103,静岡県,浜松市西区,雄踏,シズオカケン,ハママツシニシク,ユウトウ,静岡県浜松市西区雄踏
4310201,静岡県,浜松市西区,篠原町,シズオカケン,ハママツシニシク,シノハラチョウ,静岡県浜松市西区篠原町
4310202,静岡県,浜松市西区,坪井町,シズオカケン,ハママツシニシク,ツボイチョウ,静岡県浜松市西区坪井町
4310203,静岡県,浜松市西区,馬郡町,シズオカケン,ハママツシニシク,マゴオリチョウ,静岡県浜松市西区馬郡町
4310211,静岡県,浜松市西区,舞阪町舞阪,シズオカケン,ハママツシニシク,マイサカチョウマイサカ,静岡県浜松市西区舞阪町舞阪
4310212,静岡県,浜松市西区,舞阪町長十新田,シズオカケン,ハママツシニシク,マイサカチョウチョウジュウシンデン,静岡県浜松市西区舞阪町長十新田
4310213,静岡県,浜松市西区,舞阪町浜田,シズオカケン,ハママツシニシク,マイサカチョウハマダ,静岡県浜松市西区舞阪町浜田
4310214,静岡県,浜松市西区,舞阪町弁天島,シズオカケン,ハママツシニシク,マイサカチョウベンテンジマ,静岡県浜松市西区舞阪町弁天島
4310301,静岡県,湖西市,新居町中之郷,シズオカケン,コサイシ,アライチョウナカノゴウ,静岡県湖西市新居町中之郷
4310302,静岡県,湖西市,新居町新居,シズオカケン,コサイシ,アライチョウアライ,静岡県湖西市新居町新居
4310303,静岡県,湖西市,新居町浜名,シズオカケン,コサイシ,アライチョウハマナ,静岡県湖西市新居町浜名
4310304,静岡県,湖西市,新居町内山,シズオカケン,コサイシ,アライチョウウチヤマ,静岡県湖西市新居町内山
4310400,静岡県,湖西市,,シズオカケン,コサイシ,,静岡県湖西市
4310401,静岡県,湖西市,横山,シズオカケン,コサイシ,ヨコヤマ,静岡県湖西市横山
4310402,静岡県,湖西市,利木,シズオカケン,コサイシ,リキ,静岡県湖西市利木
4310403,静岡県,湖西市,大知波,シズオカケン,コサイシ,オオチバ,静岡県湖西市大知波
4310404,静岡県,湖西市,太田,シズオカケン,コサイシ,オオタ,静岡県湖西市太田
4310405,静岡県,湖西市,神座,シズオカケン,コサイシ,カンザ,静岡県湖西市神座
4310411,静岡県,湖西市,入出,シズオカケン,コサイシ,イリデ,静岡県湖西市入出
4310412,静岡県,湖西市,内浦,シズオカケン,コサイシ,ウチウラ,静岡県湖西市内浦
4310421,静岡県,湖西市,新所,シズオカケン,コサイシ,シンジョ,静岡県湖西市新所
4310422,静岡県,湖西市,岡崎,シズオカケン,コサイシ,オカサキ,静岡県湖西市岡崎
4310423,静岡県,湖西市,新所・岡崎・梅田入会地,シズオカケン,コサイシ,シンジョ・オカサキ・ウメダニュウカイチ,静岡県湖西市新所・岡崎・梅田入会地
4310424,静岡県,湖西市,新所原,シズオカケン,コサイシ,シンジョハラ,静岡県湖西市新所原
4310425,静岡県,湖西市,梅田,シズオカケン,コサイシ,ウメダ,静岡県湖西市梅田
4310426,静岡県,湖西市,新所原東,シズオカケン,コサイシ,シンジョハラヒガシ,静岡県湖西市新所原東
4310427,静岡県,湖西市,駅南,シズオカケン,コサイシ,エキミナミ,静岡県湖西市駅南
4310428,静岡県,湖西市,ときわ,シズオカケン,コサイシ,トキワ,静岡県湖西市ときわ
4310429,静岡県,湖西市,南台,シズオカケン,コサイシ,ミナミダイ,静岡県湖西市南台
4310431,静岡県,湖西市,鷲津,シズオカケン,コサイシ,ワシヅ,静岡県湖西市鷲津
4310432,静岡県,湖西市,風の杜,シズオカケン,コサイシ,カゼノモリ,静岡県湖西市風の杜
4310441,静岡県,湖西市,吉美,シズオカケン,コサイシ,キビ,静岡県湖西市吉美
4310442,静岡県,湖西市,古見,シズオカケン,コサイシ,コミ,静岡県湖西市古見
4310443,静岡県,湖西市,山口,シズオカケン,コサイシ,ヤマグチ,静岡県湖西市山口
4310444,静岡県,湖西市,坊瀬,シズオカケン,コサイシ,ボウゼ,静岡県湖西市坊瀬
4310451,静岡県,湖西市,白須賀,シズオカケン,コサイシ,シラスカ,静岡県湖西市白須賀
4310452,静岡県,湖西市,境宿,シズオカケン,コサイシ,サカイジュク,静岡県湖西市境宿
4311101,静岡県,浜松市西区,和光町,シズオカケン,ハママツシニシク,ワコウチョウ,静岡県浜松市西区和光町
4311102,静岡県,浜松市西区,大山町,シズオカケン,ハママツシニシク,オオヤマチョウ,静岡県浜松市西区大山町
4311103,静岡県,浜松市西区,湖東町,シズオカケン,ハママツシニシク,コトウチョウ,静岡県浜松市西区湖東町
4311104,静岡県,浜松市西区,桜台,シズオカケン,ハママツシニシク,サクラダイ,静岡県浜松市西区桜台
4311111,静岡県,浜松市西区,伊左地町,シズオカケン,ハママツシニシク,イサジチョウ,静岡県浜松市西区伊左地町
4311112,静岡県,浜松市西区,大人見町,シズオカケン,ハママツシニシク,オオヒトミチョウ,静岡県浜松市西区大人見町
4311113,静岡県,浜松市西区,古人見町,シズオカケン,ハママツシニシク,コヒトミチョウ,静岡県浜松市西区古人見町
4311114,静岡県,浜松市西区,佐浜町,シズオカケン,ハママツシニシク,サハマチョウ,静岡県浜松市西区佐浜町
4311115,静岡県,浜松市西区,和地町,シズオカケン,ハママツシニシク,ワジチョウ,静岡県浜松市西区和地町
4311201,静岡県,浜松市西区,深萩町,シズオカケン,ハママツシニシク,フカハギチョウ,静岡県浜松市西区深萩町
4311202,静岡県,浜松市西区,呉松町,シズオカケン,ハママツシニシク,クレマツチョウ,静岡県浜松市西区呉松町
4311203,静岡県,浜松市西区,平松町,シズオカケン,ハママツシニシク,ヒラマツチョウ,静岡県浜松市西区平松町
4311204,静岡県,浜松市西区,白洲町,シズオカケン,ハママツシニシク,シラスチョウ,静岡県浜松市西区白洲町
4311205,静岡県,浜松市西区,協和町,シズオカケン,ハママツシニシク,キョウワチョウ,静岡県浜松市西区協和町
4311206,静岡県,浜松市西区,庄和町,シズオカケン,ハママツシニシク,ショウワチョウ,静岡県浜松市西区庄和町
4311207,静岡県,浜松市西区,村櫛町,シズオカケン,ハママツシニシク,ムラクシチョウ,静岡県浜松市西区村櫛町
4311208,静岡県,浜松市西区,庄内町,シズオカケン,ハママツシニシク,ショウナイチョウ,静岡県浜松市西区庄内町
4311209,静岡県,浜松市西区,舘山寺町,シズオカケン,ハママツシニシク,カンザンジチョウ,静岡県浜松市西区舘山寺町
4311301,静岡県,浜松市北区,細江町小野,シズオカケン,ハママツシキタク,ホソエチョウオノ,静岡県浜松市北区細江町小野
4311302,静岡県,浜松市北区,細江町広岡,シズオカケン,ハママツシキタク,ホソエチョウヒロオカ,静岡県浜松市北区細江町広岡
4311303,静岡県,浜松市北区,細江町三和,シズオカケン,ハママツシキタク,ホソエチョウミワ,静岡県浜松市北区細江町三和
4311304,静岡県,浜松市北区,細江町中川,シズオカケン,ハママツシキタク,ホソエチョウナカガワ,静岡県浜松市北区細江町中川
4311305,静岡県,浜松市北区,細江町気賀,シズオカケン,ハママツシキタク,ホソエチョウキガ,静岡県浜松市北区細江町気賀
4311401,静岡県,浜松市北区,三ヶ日町佐久米,シズオカケン,ハママツシキタク,ミッカビチョウサクメ,静岡県浜松市北区三ヶ日町佐久米
4311402,静岡県,浜松市北区,三ヶ日町都筑,シズオカケン,ハママツシキタク,ミッカビチョウツヅキ,静岡県浜松市北区三ヶ日町都筑
4311403,静岡県,浜松市北区,三ヶ日町大崎,シズオカケン,ハママツシキタク,ミッカビチョウオオサキ,静岡県浜松市北区三ヶ日町大崎
4311404,静岡県,浜松市北区,三ヶ日町宇志,シズオカケン,ハママツシキタク,ミッカビチョウウシ,静岡県浜松市北区三ヶ日町宇志
4311405,静岡県,浜松市北区,三ヶ日町津々崎,シズオカケン,ハママツシキタク,ミッカビチョウツヅサキ,静岡県浜松市北区三ヶ日町津々崎
4311406,静岡県,浜松市北区,三ヶ日町駒場,シズオカケン,ハママツシキタク,ミッカビチョウコマバ,静岡県浜松市北区三ヶ日町駒場
4311407,静岡県,浜松市北区,三ヶ日町大谷,シズオカケン,ハママツシキタク,ミッカビチョウオオヤ,静岡県浜松市北区三ヶ日町大谷
4311411,静岡県,浜松市北区,三ヶ日町福長,シズオカケン,ハママツシキタク,ミッカビチョウフクナガ,静岡県浜松市北区三ヶ日町福長
4311412,静岡県,浜松市北区,三ヶ日町只木,シズオカケン,ハママツシキタク,ミッカビチョウタダキ,静岡県浜松市北区三ヶ日町只木
4311413,静岡県,浜松市北区,三ヶ日町摩訶耶,シズオカケン,ハママツシキタク,ミッカビチョウマカヤ,静岡県浜松市北区三ヶ日町摩訶耶
4311414,静岡県,浜松市北区,三ヶ日町三ヶ日,シズオカケン,ハママツシキタク,ミッカビチョウミッカビ,静岡県浜松市北区三ヶ日町三ヶ日
4311415,静岡県,浜松市北区,三ヶ日町岡本,シズオカケン,ハママツシキタク,ミッカビチョウオカモト,静岡県浜松市北区三ヶ日町岡本
4311416,静岡県,浜松市北区,三ヶ日町釣,シズオカケン,ハママツシキタク,ミッカビチョウツリ,静岡県浜松市北区三ヶ日町釣
4311417,静岡県,浜松市北区,三ヶ日町平山,シズオカケン,ハママツシキタク,ミッカビチョウヒラヤマ,静岡県浜松市北区三ヶ日町平山
4311421,静岡県,浜松市北区,三ヶ日町本坂,シズオカケン,ハママツシキタク,ミッカビチョウホンザカ,静岡県浜松市北区三ヶ日町本坂
4311422,静岡県,浜松市北区,三ヶ日町日比沢,シズオカケン,ハママツシキタク,ミッカビチョウヒビサワ,静岡県浜松市北区三ヶ日町日比沢
4311423,静岡県,浜松市北区,三ヶ日町鵺代,シズオカケン,ハママツシキタク,ミッカビチョウヌエシロ,静岡県浜松市北区三ヶ日町鵺代
4311424,静岡県,浜松市北区,三ヶ日町下尾奈,シズオカケン,ハママツシキタク,ミッカビチョウシモオナ,静岡県浜松市北区三ヶ日町下尾奈
4311425,静岡県,浜松市北区,三ヶ日町上尾奈,シズオカケン,ハママツシキタク,ミッカビチョウカミオナ,静岡県浜松市北区三ヶ日町上尾奈
4312101,静岡県,浜松市北区,滝沢町,シズオカケン,ハママツシキタク,タキサワチョウ,静岡県浜松市北区滝沢町
4312102,静岡県,浜松市北区,都田町,シズオカケン,ハママツシキタク,ミヤコダチョウ,静岡県浜松市北区都田町
4312103,静岡県,浜松市北区,新都田,シズオカケン,ハママツシキタク,シンミヤコダ,静岡県浜松市北区新都田
4312104,静岡県,浜松市北区,鷲沢町,シズオカケン,ハママツシキタク,ワシザワチョウ,静岡県浜松市北区鷲沢町
4312201,静岡県,浜松市北区,引佐町東久留女木（その他）,シズオカケン,ハママツシキタク,イナサチョウヒガシクルメキ(ソノタ),静岡県浜松市北区引佐町東久留女木（その他）
4312202,静岡県,浜松市北区,引佐町川名,シズオカケン,ハママツシキタク,イナサチョウカワナ,静岡県浜松市北区引佐町川名
4312203,静岡県,浜松市北区,引佐町三岳,シズオカケン,ハママツシキタク,イナサチョウミタケ,静岡県浜松市北区引佐町三岳
4312204,静岡県,浜松市北区,引佐町兎荷,シズオカケン,ハママツシキタク,イナサチョウトッカ,静岡県浜松市北区引佐町兎荷
4312205,静岡県,浜松市北区,引佐町伊平,シズオカケン,ハママツシキタク,イナサチョウイダイラ,静岡県浜松市北区引佐町伊平
4312206,静岡県,浜松市北区,引佐町西黒田,シズオカケン,ハママツシキタク,イナサチョウニシクロダ,静岡県浜松市北区引佐町西黒田
4312207,静岡県,浜松市北区,引佐町東黒田,シズオカケン,ハママツシキタク,イナサチョウヒガシクロダ,静岡県浜松市北区引佐町東黒田
4312211,静岡県,浜松市北区,引佐町花平,シズオカケン,ハママツシキタク,イナサチョウハナダイラ,静岡県浜松市北区引佐町花平
4312212,静岡県,浜松市北区,引佐町井伊谷,シズオカケン,ハママツシキタク,イナサチョウイイノヤ,静岡県浜松市北区引佐町井伊谷
4312213,静岡県,浜松市北区,引佐町金指,シズオカケン,ハママツシキタク,イナサチョウカナサシ,静岡県浜松市北区引佐町金指
4312214,静岡県,浜松市北区,引佐町横尾,シズオカケン,ハママツシキタク,イナサチョウヨコオ,静岡県浜松市北区引佐町横尾
4312215,静岡県,浜松市北区,引佐町白岩,シズオカケン,ハママツシキタク,イナサチョウシライワ,静岡県浜松市北区引佐町白岩
4312216,静岡県,浜松市北区,神宮寺町,シズオカケン,ハママツシキタク,ジングウジチョウ,静岡県浜松市北区神宮寺町
4312221,静岡県,浜松市北区,引佐町田畑,シズオカケン,ハママツシキタク,イナサチョウタバタケ,静岡県浜松市北区引佐町田畑
4312222,静岡県,浜松市北区,引佐町黒渕,シズオカケン,ハママツシキタク,イナサチョウクロブチ,静岡県浜松市北区引佐町黒渕
4312223,静岡県,浜松市北区,引佐町栃窪,シズオカケン,ハママツシキタク,イナサチョウトチクボ,静岡県浜松市北区引佐町栃窪
4312224,静岡県,浜松市北区,引佐町奥山,シズオカケン,ハママツシキタク,イナサチョウオクヤマ,静岡県浜松市北区引佐町奥山
4312225,静岡県,浜松市北区,引佐町狩宿,シズオカケン,ハママツシキタク,イナサチョウカリシュク,静岡県浜松市北区引佐町狩宿
4312226,静岡県,浜松市北区,引佐町谷沢,シズオカケン,ハママツシキタク,イナサチョウヤザワ,静岡県浜松市北区引佐町谷沢
4312531,静岡県,浜松市北区,引佐町東久留女木（３７２〜７９９番地）,シズオカケン,ハママツシキタク,イナサチョウヒガシクルメキ(372-799バンチ),静岡県浜松市北区引佐町東久留女木（372〜799-）
4312532,静岡県,浜松市北区,引佐町西久留女木,シズオカケン,ハママツシキタク,イナサチョウニシクルメキ,静岡県浜松市北区引佐町西久留女木
4312533,静岡県,浜松市北区,引佐町四方浄,シズオカケン,ハママツシキタク,イナサチョウシホウジョウ,静岡県浜松市北区引佐町四方浄
4312534,静岡県,浜松市北区,引佐町別所,シズオカケン,ハママツシキタク,イナサチョウベッシヨ,静岡県浜松市北区引佐町別所
4312535,静岡県,浜松市北区,引佐町的場,シズオカケン,ハママツシキタク,イナサチョウマトバ,静岡県浜松市北区引佐町的場
4312536,静岡県,浜松市北区,引佐町田沢,シズオカケン,ハママツシキタク,イナサチョウタザワ,静岡県浜松市北区引佐町田沢
4312537,静岡県,浜松市北区,引佐町渋川,シズオカケン,ハママツシキタク,イナサチョウシブカワ,静岡県浜松市北区引佐町渋川
4313101,静岡県,浜松市東区,豊町,シズオカケン,ハママツシヒガシク,ユタカチョウ,静岡県浜松市東区豊町
4313102,静岡県,浜松市東区,豊西町,シズオカケン,ハママツシヒガシク,トヨニシチョウ,静岡県浜松市東区豊西町
4313103,静岡県,浜松市東区,常光町,シズオカケン,ハママツシヒガシク,ジョウコウチョウ,静岡県浜松市東区常光町
4313104,静岡県,浜松市東区,貴平町,シズオカケン,ハママツシヒガシク,キヘイチョウ,静岡県浜松市東区貴平町
4313105,静岡県,浜松市東区,笠井新田町,シズオカケン,ハママツシヒガシク,カサイシンデンチョウ,静岡県浜松市東区笠井新田町
4313106,静岡県,浜松市東区,笠井上町,シズオカケン,ハママツシヒガシク,カサイカミマチ,静岡県浜松市東区笠井上町
4313107,静岡県,浜松市東区,笠井町,シズオカケン,ハママツシヒガシク,カサイチョウ,静岡県浜松市東区笠井町
4313108,静岡県,浜松市東区,恒武町,シズオカケン,ハママツシヒガシク,ツネタケチョウ,静岡県浜松市東区恒武町
4313111,静岡県,浜松市東区,中郡町,シズオカケン,ハママツシヒガシク,ナカゴオリチョウ,静岡県浜松市東区中郡町
4313112,静岡県,浜松市東区,大島町,シズオカケン,ハママツシヒガシク,オオシマチョウ,静岡県浜松市東区大島町
4313113,静岡県,浜松市東区,大瀬町,シズオカケン,ハママツシヒガシク,オオセチョウ,静岡県浜松市東区大瀬町
4313114,静岡県,浜松市東区,積志町,シズオカケン,ハママツシヒガシク,セキシチョウ,静岡県浜松市東区積志町
4313115,静岡県,浜松市東区,西ケ崎町,シズオカケン,ハママツシヒガシク,ニシガサキチョウ,静岡県浜松市東区西ケ崎町
4313121,静岡県,浜松市東区,有玉北町,シズオカケン,ハママツシヒガシク,アリタマキタマチ,静岡県浜松市東区有玉北町
4313122,静岡県,浜松市東区,有玉南町,シズオカケン,ハママツシヒガシク,アリタマミナミマチ,静岡県浜松市東区有玉南町
4313123,静岡県,浜松市東区,有玉西町,シズオカケン,ハママツシヒガシク,アリタマニシマチ,静岡県浜松市東区有玉西町
4313124,静岡県,浜松市東区,半田町,シズオカケン,ハママツシヒガシク,ハンダチョウ,静岡県浜松市東区半田町
4313125,静岡県,浜松市東区,半田山,シズオカケン,ハママツシヒガシク,ハンダヤマ,静岡県浜松市東区半田山
4313126,静岡県,浜松市東区,有玉台,シズオカケン,ハママツシヒガシク,アリタマダイ,静岡県浜松市東区有玉台
4313301,静岡県,浜松市天竜区,横川,シズオカケン,ハママツシテンリュウク,ヨコカワ,静岡県浜松市天竜区横川
4313302,静岡県,浜松市天竜区,只来,シズオカケン,ハママツシテンリュウク,タダライ,静岡県浜松市天竜区只来
4313303,静岡県,浜松市天竜区,山東,シズオカケン,ハママツシテンリュウク,ヤマヒガシ,静岡県浜松市天竜区山東
4313304,静岡県,浜松市天竜区,次郎八新田,シズオカケン,ハママツシテンリュウク,ジロウハチシンデン,静岡県浜松市天竜区次郎八新田
4313305,静岡県,浜松市天竜区,大谷,シズオカケン,ハママツシテンリュウク,オオヤ,静岡県浜松市天竜区大谷
4313306,静岡県,浜松市天竜区,船明,シズオカケン,ハママツシテンリュウク,フナギラ,静岡県浜松市天竜区船明
4313311,静岡県,浜松市天竜区,二俣町阿蔵,シズオカケン,ハママツシテンリュウク,フタマタチョウアクラ,静岡県浜松市天竜区二俣町阿蔵
4313312,静岡県,浜松市天竜区,二俣町南鹿島,シズオカケン,ハママツシテンリュウク,フタマタチョウミナミカジマ,静岡県浜松市天竜区二俣町南鹿島
4313313,静岡県,浜松市天竜区,二俣町鹿島,シズオカケン,ハママツシテンリュウク,フタマタチョウカジマ,静岡県浜松市天竜区二俣町鹿島
4313314,静岡県,浜松市天竜区,二俣町二俣,シズオカケン,ハママツシテンリュウク,フタマタチョウフタマタ,静岡県浜松市天竜区二俣町二俣
4313315,静岡県,浜松市天竜区,二俣町大園,シズオカケン,ハママツシテンリュウク,フタマタチョウオオソノ,静岡県浜松市天竜区二俣町大園
4313421,静岡県,浜松市天竜区,日明,シズオカケン,ハママツシテンリュウク,ヒアリ,静岡県浜松市天竜区日明
4313422,静岡県,浜松市天竜区,米沢,シズオカケン,ハママツシテンリュウク,ミナザワ,静岡県浜松市天竜区米沢
4313423,静岡県,浜松市天竜区,渡ケ島,シズオカケン,ハママツシテンリュウク,ワタガシマ,静岡県浜松市天竜区渡ケ島
4313424,静岡県,浜松市天竜区,緑恵台,シズオカケン,ハママツシテンリュウク,リョクケイダイ,静岡県浜松市天竜区緑恵台
4313425,静岡県,浜松市天竜区,青谷,シズオカケン,ハママツシテンリュウク,アオヤ,静岡県浜松市天竜区青谷
4313426,静岡県,浜松市天竜区,両島,シズオカケン,ハママツシテンリュウク,リョウシマ,静岡県浜松市天竜区両島
4313427,静岡県,浜松市天竜区,上野,シズオカケン,ハママツシテンリュウク,カミノ,静岡県浜松市天竜区上野
4313428,静岡県,浜松市天竜区,石神,シズオカケン,ハママツシテンリュウク,イシガミ,静岡県浜松市天竜区石神
4313531,静岡県,浜松市天竜区,東藤平,シズオカケン,ハママツシテンリュウク,ヒガシフジダイラ,静岡県浜松市天竜区東藤平
4313532,静岡県,浜松市天竜区,西藤平,シズオカケン,ハママツシテンリュウク,ニシフジダイラ,静岡県浜松市天竜区西藤平
4313533,静岡県,浜松市天竜区,長沢,シズオカケン,ハママツシテンリュウク,ナガサワ,静岡県浜松市天竜区長沢
4313534,静岡県,浜松市天竜区,懐山,シズオカケン,ハママツシテンリュウク,フトコロヤマ,静岡県浜松市天竜区懐山
4313535,静岡県,浜松市天竜区,芦窪,シズオカケン,ハママツシテンリュウク,アシクボ,静岡県浜松市天竜区芦窪
4313536,静岡県,浜松市天竜区,阿寺,シズオカケン,ハママツシテンリュウク,アテラ,静岡県浜松市天竜区阿寺
4313641,静岡県,浜松市天竜区,熊,シズオカケン,ハママツシテンリュウク,クマ,静岡県浜松市天竜区熊
4313642,静岡県,浜松市天竜区,大栗安,シズオカケン,ハママツシテンリュウク,オオグリヤス,静岡県浜松市天竜区大栗安
4313643,静岡県,浜松市天竜区,神沢,シズオカケン,ハママツシテンリュウク,カンザワ,静岡県浜松市天竜区神沢
4313751,静岡県,浜松市天竜区,東雲名,シズオカケン,ハママツシテンリュウク,ヒガシウンナ,静岡県浜松市天竜区東雲名
4313752,静岡県,浜松市天竜区,小川,シズオカケン,ハママツシテンリュウク,オガワ,静岡県浜松市天竜区小川
4313753,静岡県,浜松市天竜区,佐久,シズオカケン,ハママツシテンリュウク,サク,静岡県浜松市天竜区佐久
4313754,静岡県,浜松市天竜区,相津,シズオカケン,ハママツシテンリュウク,ソウヅ,静岡県浜松市天竜区相津
4313755,静岡県,浜松市天竜区,大川,シズオカケン,ハママツシテンリュウク,オオカワ,静岡県浜松市天竜区大川
4313756,静岡県,浜松市天竜区,谷山,シズオカケン,ハママツシテンリュウク,ヤヤマ,静岡県浜松市天竜区谷山
4313761,静岡県,浜松市天竜区,西雲名,シズオカケン,ハママツシテンリュウク,ニシウンナ,静岡県浜松市天竜区西雲名
4313762,静岡県,浜松市天竜区,伊砂,シズオカケン,ハママツシテンリュウク,イスカ,静岡県浜松市天竜区伊砂
4313763,静岡県,浜松市天竜区,月,シズオカケン,ハママツシテンリュウク,ツキ,静岡県浜松市天竜区月
4313764,静岡県,浜松市天竜区,横山町,シズオカケン,ハママツシテンリュウク,ヨコヤマチョウ,静岡県浜松市天竜区横山町
4313801,静岡県,浜松市天竜区,龍山町瀬尻,シズオカケン,ハママツシテンリュウク,タツヤマチョウセジリ,静岡県浜松市天竜区龍山町瀬尻
4313802,静岡県,浜松市天竜区,龍山町下平山,シズオカケン,ハママツシテンリュウク,タツヤマチョウシモヒラヤマ,静岡県浜松市天竜区龍山町下平山
4313803,静岡県,浜松市天竜区,龍山町戸倉,シズオカケン,ハママツシテンリュウク,タツヤマチョウトクラ,静岡県浜松市天竜区龍山町戸倉
4313804,静岡県,浜松市天竜区,龍山町大嶺,シズオカケン,ハママツシテンリュウク,タツヤマチョウオオミネ,静岡県浜松市天竜区龍山町大嶺
4313901,静岡県,浜松市天竜区,佐久間町佐久間,シズオカケン,ハママツシテンリュウク,サクマチョウサクマ,静岡県浜松市天竜区佐久間町佐久間
4313902,静岡県,浜松市天竜区,佐久間町大井,シズオカケン,ハママツシテンリュウク,サクマチョウオオイ,静岡県浜松市天竜区佐久間町大井
4313903,静岡県,浜松市天竜区,佐久間町上平山,シズオカケン,ハママツシテンリュウク,サクマチョウカミヒラヤマ,静岡県浜松市天竜区佐久間町上平山
4313904,静岡県,浜松市天竜区,佐久間町戸口,シズオカケン,ハママツシテンリュウク,サクマチョウトグチ,静岡県浜松市天竜区佐久間町戸口
4313905,静岡県,浜松市天竜区,佐久間町半場,シズオカケン,ハママツシテンリュウク,サクマチョウハンバ,静岡県浜松市天竜区佐久間町半場
4313906,静岡県,浜松市天竜区,佐久間町浦川,シズオカケン,ハママツシテンリュウク,サクマチョウウラカワ,静岡県浜松市天竜区佐久間町浦川
4313907,静岡県,浜松市天竜区,佐久間町川合,シズオカケン,ハママツシテンリュウク,サクマチョウカワイ,静岡県浜松市天竜区佐久間町川合
4313908,静岡県,浜松市天竜区,佐久間町中部,シズオカケン,ハママツシテンリュウク,サクマチョウナカベ,静岡県浜松市天竜区佐久間町中部
4314101,静岡県,浜松市天竜区,水窪町奥領家,シズオカケン,ハママツシテンリュウク,ミサクボチョウオクリョウケ,静岡県浜松市天竜区水窪町奥領家
4314102,静岡県,浜松市天竜区,水窪町地頭方,シズオカケン,ハママツシテンリュウク,ミサクボチョウジトウガタ,静岡県浜松市天竜区水窪町地頭方
4314103,静岡県,浜松市天竜区,水窪町山住,シズオカケン,ハママツシテンリュウク,ミサクボチョウヤマズミ,静岡県浜松市天竜区水窪町山住
4314111,静岡県,浜松市天竜区,佐久間町相月,シズオカケン,ハママツシテンリュウク,サクマチョウアイヅキ,静岡県浜松市天竜区佐久間町相月
4314112,静岡県,浜松市天竜区,佐久間町奥領家,シズオカケン,ハママツシテンリュウク,サクマチョウオクリョウケ,静岡県浜松市天竜区佐久間町奥領家
4320000,静岡県,浜松市中区,,シズオカケン,ハママツシナカク,,静岡県浜松市中区
4320000,静岡県,浜松市北区,,シズオカケン,ハママツシキタク,,静岡県浜松市北区
4320000,静岡県,浜松市南区,,シズオカケン,ハママツシミナミク,,静岡県浜松市南区
4320000,静岡県,浜松市天竜区,,シズオカケン,ハママツシテンリュウク,,静岡県浜松市天竜区
4320000,静岡県,浜松市東区,,シズオカケン,ハママツシヒガシク,,静岡県浜松市東区
4320000,静岡県,浜松市西区,,シズオカケン,ハママツシニシク,,静岡県浜松市西区
4328001,静岡県,浜松市西区,西山町,シズオカケン,ハママツシニシク,ニシヤマチョウ,静岡県浜松市西区西山町
4328002,静岡県,浜松市中区,富塚町,シズオカケン,ハママツシナカク,トミツカチョウ,静岡県浜松市中区富塚町
4328003,静岡県,浜松市中区,和地山,シズオカケン,ハママツシナカク,ワジヤマ,静岡県浜松市中区和地山
4328004,静岡県,浜松市中区,文丘町,シズオカケン,ハママツシナカク,フミオカチョウ,静岡県浜松市中区文丘町
4328005,静岡県,浜松市西区,神ケ谷町,シズオカケン,ハママツシニシク,カミガヤチョウ,静岡県浜松市西区神ケ谷町
4328006,静岡県,浜松市西区,大久保町,シズオカケン,ハママツシニシク,オオクボチョウ,静岡県浜松市西区大久保町
4328007,静岡県,浜松市西区,神原町,シズオカケン,ハママツシニシク,カミハラチョウ,静岡県浜松市西区神原町
4328011,静岡県,浜松市中区,城北,シズオカケン,ハママツシナカク,ジョウホク,静岡県浜松市中区城北
4328012,静岡県,浜松市中区,布橋,シズオカケン,ハママツシナカク,ヌノハシ,静岡県浜松市中区布橋
4328013,静岡県,浜松市中区,広沢,シズオカケン,ハママツシナカク,ヒロサワ,静岡県浜松市中区広沢
4328014,静岡県,浜松市中区,鹿谷町,シズオカケン,ハママツシナカク,シカタニチョウ,静岡県浜松市中区鹿谷町
4328015,静岡県,浜松市中区,高町,シズオカケン,ハママツシナカク,タカマチ,静岡県浜松市中区高町
4328016,静岡県,浜松市中区,中山町,シズオカケン,ハママツシナカク,ナカヤマチョウ,静岡県浜松市中区中山町
4328017,静岡県,浜松市中区,三組町,シズオカケン,ハママツシナカク,ミクミチョウ,静岡県浜松市中区三組町
4328018,静岡県,浜松市中区,蜆塚,シズオカケン,ハママツシナカク,シジミヅカ,静岡県浜松市中区蜆塚
4328021,静岡県,浜松市中区,佐鳴台,シズオカケン,ハママツシナカク,サナルダイ,静岡県浜松市中区佐鳴台
4328022,静岡県,浜松市中区,山手町,シズオカケン,ハママツシナカク,ヤマテチョウ,静岡県浜松市中区山手町
4328023,静岡県,浜松市中区,鴨江,シズオカケン,ハママツシナカク,カモエ,静岡県浜松市中区鴨江
4328024,静岡県,浜松市中区,鴨江町,シズオカケン,ハママツシナカク,カモエチョウ,静岡県浜松市中区鴨江町
4328025,静岡県,浜松市中区,栄町,シズオカケン,ハママツシナカク,サカエマチ,静岡県浜松市中区栄町
4328026,静岡県,浜松市中区,元魚町,シズオカケン,ハママツシナカク,モトウオチョウ,静岡県浜松市中区元魚町
4328027,静岡県,浜松市中区,旅籠町,シズオカケン,ハママツシナカク,ハタゴマチ,静岡県浜松市中区旅籠町
4328031,静岡県,浜松市中区,平田町,シズオカケン,ハママツシナカク,ナメダチョウ,静岡県浜松市中区平田町
4328032,静岡県,浜松市中区,海老塚町,シズオカケン,ハママツシナカク,エビツカチョウ,静岡県浜松市中区海老塚町
4328033,静岡県,浜松市中区,海老塚,シズオカケン,ハママツシナカク,エビツカ,静岡県浜松市中区海老塚
4328034,静岡県,浜松市中区,塩町,シズオカケン,ハママツシナカク,シオマチ,静岡県浜松市中区塩町
4328035,静岡県,浜松市中区,成子町,シズオカケン,ハママツシナカク,ナルコチョウ,静岡県浜松市中区成子町
4328036,静岡県,浜松市中区,東伊場,シズオカケン,ハママツシナカク,ヒガシイバ,静岡県浜松市中区東伊場
4328037,静岡県,浜松市中区,南伊場町,シズオカケン,ハママツシナカク,ミナミイバチョウ,静岡県浜松市中区南伊場町
4328038,静岡県,浜松市中区,西伊場町,シズオカケン,ハママツシナカク,ニシイバチョウ,静岡県浜松市中区西伊場町
4328041,静岡県,浜松市中区,菅原町,シズオカケン,ハママツシナカク,スガワラチョウ,静岡県浜松市中区菅原町
4328042,静岡県,浜松市中区,上浅田,シズオカケン,ハママツシナカク,カミアサダ,静岡県浜松市中区上浅田
4328043,静岡県,浜松市中区,浅田町,シズオカケン,ハママツシナカク,アサダチョウ,静岡県浜松市中区浅田町
4328044,静岡県,浜松市中区,南浅田,シズオカケン,ハママツシナカク,ミナミアサダ,静岡県浜松市中区南浅田
4328045,静岡県,浜松市中区,西浅田,シズオカケン,ハママツシナカク,ニシアサダ,静岡県浜松市中区西浅田
4328046,静岡県,浜松市中区,春日町,シズオカケン,ハママツシナカク,カスガチョウ,静岡県浜松市中区春日町
4328047,静岡県,浜松市中区,神田町,シズオカケン,ハママツシナカク,カミダマチ,静岡県浜松市中区神田町
4328048,静岡県,浜松市中区,森田町,シズオカケン,ハママツシナカク,モリタチョウ,静岡県浜松市中区森田町
4328051,静岡県,浜松市南区,若林町,シズオカケン,ハママツシミナミク,ワカバヤシチョウ,静岡県浜松市南区若林町
4328052,静岡県,浜松市南区,東若林町,シズオカケン,ハママツシミナミク,ヒガシワカバヤシチョウ,静岡県浜松市南区東若林町
4328053,静岡県,浜松市中区,法枝町,シズオカケン,ハママツシナカク,ノリエダチョウ,静岡県浜松市中区法枝町
4328053,静岡県,浜松市南区,法枝町,シズオカケン,ハママツシミナミク,ノリエダチョウ,静岡県浜松市南区法枝町
4328054,静岡県,浜松市南区,田尻町,シズオカケン,ハママツシミナミク,タジリチョウ,静岡県浜松市南区田尻町
4328055,静岡県,浜松市南区,卸本町,シズオカケン,ハママツシミナミク,オロシホンマチ,静岡県浜松市南区卸本町
4328056,静岡県,浜松市南区,米津町,シズオカケン,ハママツシミナミク,ヨネヅチョウ,静岡県浜松市南区米津町
4328057,静岡県,浜松市南区,堤町,シズオカケン,ハママツシミナミク,ツツミチョウ,静岡県浜松市南区堤町
4328058,静岡県,浜松市南区,新橋町,シズオカケン,ハママツシミナミク,ニッパシチョウ,静岡県浜松市南区新橋町
4328061,静岡県,浜松市西区,入野町,シズオカケン,ハママツシニシク,イリノチョウ,静岡県浜松市西区入野町
4328062,静岡県,浜松市南区,増楽町,シズオカケン,ハママツシミナミク,ゾウラチョウ,静岡県浜松市南区増楽町
4328063,静岡県,浜松市南区,小沢渡町,シズオカケン,ハママツシミナミク,コザワタリチョウ,静岡県浜松市南区小沢渡町
4328064,静岡県,浜松市南区,倉松町,シズオカケン,ハママツシミナミク,クラマツチョウ,静岡県浜松市南区倉松町
4328065,静岡県,浜松市南区,高塚町,シズオカケン,ハママツシミナミク,タカツカチョウ,静岡県浜松市南区高塚町
4328066,静岡県,浜松市西区,志都呂町,シズオカケン,ハママツシニシク,シトロチョウ,静岡県浜松市西区志都呂町
4328067,静岡県,浜松市西区,西鴨江町,シズオカケン,ハママツシニシク,ニシカモエチョウ,静岡県浜松市西区西鴨江町
4328068,静岡県,浜松市西区,大平台,シズオカケン,ハママツシニシク,オオヒラダイ,静岡県浜松市西区大平台
4328069,静岡県,浜松市西区,志都呂,シズオカケン,ハママツシニシク,シトロ,静岡県浜松市西区志都呂
4328071,静岡県,浜松市西区,西都台町,シズオカケン,ハママツシニシク,セイトダイチョウ,静岡県浜松市西区西都台町
4338101,静岡県,浜松市北区,三幸町,シズオカケン,ハママツシキタク,ミユキチョウ,静岡県浜松市北区三幸町
4338102,静岡県,浜松市北区,大原町,シズオカケン,ハママツシキタク,オオハラチョウ,静岡県浜松市北区大原町
4338103,静岡県,浜松市北区,豊岡町,シズオカケン,ハママツシキタク,トヨオカチョウ,静岡県浜松市北区豊岡町
4338104,静岡県,浜松市北区,東三方町,シズオカケン,ハママツシキタク,ヒガシミカタチョウ,静岡県浜松市北区東三方町
4338105,静岡県,浜松市北区,三方原町,シズオカケン,ハママツシキタク,ミカタハラチョウ,静岡県浜松市北区三方原町
4338108,静岡県,浜松市北区,根洗町,シズオカケン,ハママツシキタク,ネアライチョウ,静岡県浜松市北区根洗町
4338109,静岡県,浜松市中区,花川町,シズオカケン,ハママツシナカク,ハナカワチョウ,静岡県浜松市中区花川町
4338111,静岡県,浜松市中区,葵西,シズオカケン,ハママツシナカク,アオイニシ,静岡県浜松市中区葵西
4338112,静岡県,浜松市北区,初生町,シズオカケン,ハママツシキタク,ハツオイチョウ,静岡県浜松市北区初生町
4338113,静岡県,浜松市中区,小豆餅,シズオカケン,ハママツシナカク,アズキモチ,静岡県浜松市中区小豆餅
4338114,静岡県,浜松市中区,葵東,シズオカケン,ハママツシナカク,アオイヒガシ,静岡県浜松市中区葵東
4338116,静岡県,浜松市中区,西丘町,シズオカケン,ハママツシナカク,ニシオカチョウ,静岡県浜松市中区西丘町
4338117,静岡県,浜松市中区,高丘東,シズオカケン,ハママツシナカク,タカオカヒガシ,静岡県浜松市中区高丘東
4338118,静岡県,浜松市中区,高丘西,シズオカケン,ハママツシナカク,タカオカニシ,静岡県浜松市中区高丘西
4338119,静岡県,浜松市中区,高丘北,シズオカケン,ハママツシナカク,タカオカキタ,静岡県浜松市中区高丘北
4338121,静岡県,浜松市中区,萩丘,シズオカケン,ハママツシナカク,ハギオカ,静岡県浜松市中区萩丘
4338122,静岡県,浜松市中区,上島,シズオカケン,ハママツシナカク,カミジマ,静岡県浜松市中区上島
4338123,静岡県,浜松市中区,幸,シズオカケン,ハママツシナカク,サイワイ,静岡県浜松市中区幸
4338124,静岡県,浜松市中区,泉,シズオカケン,ハママツシナカク,イズミ,静岡県浜松市中区泉
4338125,静岡県,浜松市中区,和合町,シズオカケン,ハママツシナカク,ワゴウチョウ,静岡県浜松市中区和合町
4338126,静岡県,浜松市中区,泉町,シズオカケン,ハママツシナカク,イズミチョウ,静岡県浜松市中区泉町
4338127,静岡県,浜松市中区,和合北,シズオカケン,ハママツシナカク,ワゴウキタ,静岡県浜松市中区和合北
4340000,静岡県,浜松市浜北区,,シズオカケン,ハママツシハマキタク,,静岡県浜松市浜北区
4340001,静岡県,浜松市浜北区,堀谷,シズオカケン,ハママツシハマキタク,ホリヤ,静岡県浜松市浜北区堀谷
4340002,静岡県,浜松市浜北区,尾野,シズオカケン,ハママツシハマキタク,オノ,静岡県浜松市浜北区尾野
4340003,静岡県,浜松市浜北区,新原,シズオカケン,ハママツシハマキタク,シンパラ,静岡県浜松市浜北区新原
4340004,静岡県,浜松市浜北区,宮口,シズオカケン,ハママツシハマキタク,ミヤグチ,静岡県浜松市浜北区宮口
4340005,静岡県,浜松市浜北区,大平,シズオカケン,ハママツシハマキタク,オイダイラ,静岡県浜松市浜北区大平
4340006,静岡県,浜松市浜北区,四大地,シズオカケン,ハママツシハマキタク,ヨンダイチ,静岡県浜松市浜北区四大地
4340007,静岡県,浜松市浜北区,灰木,シズオカケン,ハママツシハマキタク,ハイノキ,静岡県浜松市浜北区灰木
4340011,静岡県,浜松市浜北区,上島,シズオカケン,ハママツシハマキタク,カミジマ,静岡県浜松市浜北区上島
4340012,静岡県,浜松市浜北区,中瀬,シズオカケン,ハママツシハマキタク,ナカゼ,静岡県浜松市浜北区中瀬
4340013,静岡県,浜松市浜北区,永島,シズオカケン,ハママツシハマキタク,ナガシマ,静岡県浜松市浜北区永島
4340014,静岡県,浜松市浜北区,本沢合,シズオカケン,ハママツシハマキタク,ホンザワイ,静岡県浜松市浜北区本沢合
4340015,静岡県,浜松市浜北区,於呂,シズオカケン,ハママツシハマキタク,オロ,静岡県浜松市浜北区於呂
4340016,静岡県,浜松市浜北区,根堅,シズオカケン,ハママツシハマキタク,ネガタ,静岡県浜松市浜北区根堅
4340017,静岡県,浜松市浜北区,豊保,シズオカケン,ハママツシハマキタク,トヨヤス,静岡県浜松市浜北区豊保
4340018,静岡県,浜松市浜北区,西中瀬,シズオカケン,ハママツシハマキタク,ニシナカゼ,静岡県浜松市浜北区西中瀬
4340021,静岡県,浜松市浜北区,八幡,シズオカケン,ハママツシハマキタク,ヤワタ,静岡県浜松市浜北区八幡
4340022,静岡県,浜松市浜北区,新堀,シズオカケン,ハママツシハマキタク,ニイボリ,静岡県浜松市浜北区新堀
4340023,静岡県,浜松市浜北区,高薗,シズオカケン,ハママツシハマキタク,タカソノ,静岡県浜松市浜北区高薗
4340024,静岡県,浜松市浜北区,竜南,シズオカケン,ハママツシハマキタク,リュウナン,静岡県浜松市浜北区竜南
4340025,静岡県,浜松市浜北区,善地,シズオカケン,ハママツシハマキタク,ゼンジ,静岡県浜松市浜北区善地
4340026,静岡県,浜松市浜北区,東美薗,シズオカケン,ハママツシハマキタク,ヒガシミソノ,静岡県浜松市浜北区東美薗
4340027,静岡県,浜松市浜北区,油一色,シズオカケン,ハママツシハマキタク,アブライシキ,静岡県浜松市浜北区油一色
4340028,静岡県,浜松市浜北区,上善地,シズオカケン,ハママツシハマキタク,カミゼンジ,静岡県浜松市浜北区上善地
4340029,静岡県,浜松市浜北区,新野,シズオカケン,ハママツシハマキタク,ニイノ,静岡県浜松市浜北区新野
4340031,静岡県,浜松市浜北区,小林,シズオカケン,ハママツシハマキタク,コバヤシ,静岡県浜松市浜北区小林
4340032,静岡県,浜松市浜北区,道本,シズオカケン,ハママツシハマキタク,ドウホン,静岡県浜松市浜北区道本
4340033,静岡県,浜松市浜北区,西美薗,シズオカケン,ハママツシハマキタク,ニシミソノ,静岡県浜松市浜北区西美薗
4340034,静岡県,浜松市浜北区,高畑,シズオカケン,ハママツシハマキタク,タカバタケ,静岡県浜松市浜北区高畑
4340035,静岡県,浜松市浜北区,寺島,シズオカケン,ハママツシハマキタク,テラジマ,静岡県浜松市浜北区寺島
4340036,静岡県,浜松市浜北区,横須賀,シズオカケン,ハママツシハマキタク,ヨコスカ,静岡県浜松市浜北区横須賀
4340037,静岡県,浜松市浜北区,沼,シズオカケン,ハママツシハマキタク,ヌマ,静岡県浜松市浜北区沼
4340038,静岡県,浜松市浜北区,貴布祢,シズオカケン,ハママツシハマキタク,キブネ,静岡県浜松市浜北区貴布祢
4340041,静岡県,浜松市浜北区,平口,シズオカケン,ハママツシハマキタク,ヒラクチ,静岡県浜松市浜北区平口
4340042,静岡県,浜松市浜北区,小松,シズオカケン,ハママツシハマキタク,コマツ,静岡県浜松市浜北区小松
4340043,静岡県,浜松市浜北区,中条,シズオカケン,ハママツシハマキタク,ナカジョウ,静岡県浜松市浜北区中条
4340044,静岡県,浜松市浜北区,内野,シズオカケン,ハママツシハマキタク,ウチノ,静岡県浜松市浜北区内野
4340045,静岡県,浜松市浜北区,内野台,シズオカケン,ハママツシハマキタク,ウチノダイ,静岡県浜松市浜北区内野台
4340046,静岡県,浜松市浜北区,染地台,シズオカケン,ハママツシハマキタク,ソメジダイ,静岡県浜松市浜北区染地台
4350001,静岡県,浜松市東区,上石田町,シズオカケン,ハママツシヒガシク,カミイシダチョウ,静岡県浜松市東区上石田町
4350002,静岡県,浜松市東区,白鳥町,シズオカケン,ハママツシヒガシク,シロトリチョウ,静岡県浜松市東区白鳥町
4350003,静岡県,浜松市東区,中里町,シズオカケン,ハママツシヒガシク,ナカサトチョウ,静岡県浜松市東区中里町
4350004,静岡県,浜松市東区,中野町,シズオカケン,ハママツシヒガシク,ナカノマチ,静岡県浜松市東区中野町
4350005,静岡県,浜松市東区,安新町,シズオカケン,ハママツシヒガシク,アンシンチョウ,静岡県浜松市東区安新町
4350006,静岡県,浜松市東区,下石田町,シズオカケン,ハママツシヒガシク,シモイシダチョウ,静岡県浜松市東区下石田町
4350007,静岡県,浜松市東区,流通元町,シズオカケン,ハママツシヒガシク,リュウツウモトマチ,静岡県浜松市東区流通元町
4350008,静岡県,浜松市東区,松小池町,シズオカケン,ハママツシヒガシク,マツコイケチョウ,静岡県浜松市東区松小池町
4350011,静岡県,浜松市東区,国吉町,シズオカケン,ハママツシヒガシク,クニヨシチョウ,静岡県浜松市東区国吉町
4350012,静岡県,浜松市東区,安間町,シズオカケン,ハママツシヒガシク,アンマチョウ,静岡県浜松市東区安間町
4350013,静岡県,浜松市東区,天龍川町,シズオカケン,ハママツシヒガシク,テンリュウガワチョウ,静岡県浜松市東区天龍川町
4350014,静岡県,浜松市東区,大蒲町,シズオカケン,ハママツシヒガシク,オオカバチョウ,静岡県浜松市東区大蒲町
4350015,静岡県,浜松市東区,子安町,シズオカケン,ハママツシヒガシク,コヤスチョウ,静岡県浜松市東区子安町
4350016,静岡県,浜松市東区,和田町,シズオカケン,ハママツシヒガシク,ワダチョウ,静岡県浜松市東区和田町
4350017,静岡県,浜松市東区,薬師町,シズオカケン,ハママツシヒガシク,ヤクシチョウ,静岡県浜松市東区薬師町
4350018,静岡県,浜松市東区,薬新町,シズオカケン,ハママツシヒガシク,ヤクシンチョウ,静岡県浜松市東区薬新町
4350021,静岡県,浜松市東区,材木町,シズオカケン,ハママツシヒガシク,ザイモクチョウ,静岡県浜松市東区材木町
4350022,静岡県,浜松市南区,鶴見町,シズオカケン,ハママツシミナミク,ツルミチョウ,静岡県浜松市南区鶴見町
4350023,静岡県,浜松市南区,新貝町,シズオカケン,ハママツシミナミク,シンガイチョウ,静岡県浜松市南区新貝町
4350024,静岡県,浜松市南区,大塚町,シズオカケン,ハママツシミナミク,オオツカチョウ,静岡県浜松市南区大塚町
4350025,静岡県,浜松市南区,老間町,シズオカケン,ハママツシミナミク,オイマチョウ,静岡県浜松市南区老間町
4350026,静岡県,浜松市南区,金折町,シズオカケン,ハママツシミナミク,カナオリチョウ,静岡県浜松市南区金折町
4350027,静岡県,浜松市南区,下飯田町,シズオカケン,ハママツシミナミク,シモイイダチョウ,静岡県浜松市南区下飯田町
4350028,静岡県,浜松市南区,飯田町,シズオカケン,ハママツシミナミク,イイダチョウ,静岡県浜松市南区飯田町
4350029,静岡県,浜松市東区,龍光町,シズオカケン,ハママツシヒガシク,リュウコウチョウ,静岡県浜松市東区龍光町
4350031,静岡県,浜松市東区,長鶴町,シズオカケン,ハママツシヒガシク,ナガツルチョウ,静岡県浜松市東区長鶴町
4350032,静岡県,浜松市南区,古川町,シズオカケン,ハママツシミナミク,フルカワチョウ,静岡県浜松市南区古川町
4350033,静岡県,浜松市南区,石原町,シズオカケン,ハママツシミナミク,イシハラチョウ,静岡県浜松市南区石原町
4350034,静岡県,浜松市南区,安松町,シズオカケン,ハママツシミナミク,ヤスマツチョウ,静岡県浜松市南区安松町
4350035,静岡県,浜松市南区,西伝寺町,シズオカケン,ハママツシミナミク,セイデンジチョウ,静岡県浜松市南区西伝寺町
4350036,静岡県,浜松市南区,渡瀬町,シズオカケン,ハママツシミナミク,ワタセチョウ,静岡県浜松市南区渡瀬町
4350037,静岡県,浜松市南区,青屋町,シズオカケン,ハママツシミナミク,アオヤチョウ,静岡県浜松市南区青屋町
4350038,静岡県,浜松市南区,三和町,シズオカケン,ハママツシミナミク,サンワチョウ,静岡県浜松市南区三和町
4350041,静岡県,浜松市東区,北島町,シズオカケン,ハママツシヒガシク,キタジマチョウ,静岡県浜松市東区北島町
4350042,静岡県,浜松市東区,篠ケ瀬町,シズオカケン,ハママツシヒガシク,ササガセチョウ,静岡県浜松市東区篠ケ瀬町
4350043,静岡県,浜松市東区,宮竹町,シズオカケン,ハママツシヒガシク,ミヤタケチョウ,静岡県浜松市東区宮竹町
4350044,静岡県,浜松市東区,西塚町,シズオカケン,ハママツシヒガシク,ニシヅカチョウ,静岡県浜松市東区西塚町
4350045,静岡県,浜松市中区,細島町,シズオカケン,ハママツシナカク,ホソジマチョウ,静岡県浜松市中区細島町
4350046,静岡県,浜松市東区,丸塚町,シズオカケン,ハママツシヒガシク,マルヅカチョウ,静岡県浜松市東区丸塚町
4350047,静岡県,浜松市東区,原島町,シズオカケン,ハママツシヒガシク,バラジマチョウ,静岡県浜松市東区原島町
4350048,静岡県,浜松市東区,上西町,シズオカケン,ハママツシヒガシク,カミニシチョウ,静岡県浜松市東区上西町
4350051,静岡県,浜松市東区,市野町,シズオカケン,ハママツシヒガシク,イチノチョウ,静岡県浜松市東区市野町
4350052,静岡県,浜松市東区,天王町,シズオカケン,ハママツシヒガシク,テンノウチョウ,静岡県浜松市東区天王町
4350053,静岡県,浜松市東区,上新屋町,シズオカケン,ハママツシヒガシク,カミアラヤチョウ,静岡県浜松市東区上新屋町
4350054,静岡県,浜松市中区,早出町,シズオカケン,ハママツシナカク,ソウデチョウ,静岡県浜松市中区早出町
4350055,静岡県,浜松市中区,十軒町,シズオカケン,ハママツシナカク,ジッケンチョウ,静岡県浜松市中区十軒町
4350056,静岡県,浜松市東区,小池町,シズオカケン,ハママツシヒガシク,コイケチョウ,静岡県浜松市東区小池町
4350057,静岡県,浜松市東区,中田町,シズオカケン,ハママツシヒガシク,ナカダチョウ,静岡県浜松市東区中田町
4360000,静岡県,掛川市,,シズオカケン,カケガワシ,,静岡県掛川市
4360001,静岡県,掛川市,東山,シズオカケン,カケガワシ,ヒガシヤマ,静岡県掛川市東山
4360002,静岡県,掛川市,佐夜鹿,シズオカケン,カケガワシ,サヨシカ,静岡県掛川市佐夜鹿
4360003,静岡県,掛川市,日坂,シズオカケン,カケガワシ,ニッサカ,静岡県掛川市日坂
4360004,静岡県,掛川市,八坂,シズオカケン,カケガワシ,ヤサカ,静岡県掛川市八坂
4360005,静岡県,掛川市,伊達方,シズオカケン,カケガワシ,ダテガタ,静岡県掛川市伊達方
4360006,静岡県,掛川市,本所,シズオカケン,カケガワシ,ホンジョ,静岡県掛川市本所
4360007,静岡県,掛川市,小原子,シズオカケン,カケガワシ,コバラコ,静岡県掛川市小原子
4360008,静岡県,掛川市,千羽,シズオカケン,カケガワシ,センバ,静岡県掛川市千羽
4360009,静岡県,掛川市,大野,シズオカケン,カケガワシ,オオノ,静岡県掛川市大野
4360011,静岡県,掛川市,満水,シズオカケン,カケガワシ,タマリ,静岡県掛川市満水
4360012,静岡県,掛川市,上内田,シズオカケン,カケガワシ,カミウチダ,静岡県掛川市上内田
4360013,静岡県,掛川市,子隣,シズオカケン,カケガワシ,コトナリ,静岡県掛川市子隣
4360014,静岡県,掛川市,岩井寺,シズオカケン,カケガワシ,ガンショウジ,静岡県掛川市岩井寺
4360015,静岡県,掛川市,和田,シズオカケン,カケガワシ,ワダ,静岡県掛川市和田
4360016,静岡県,掛川市,板沢,シズオカケン,カケガワシ,イタサワ,静岡県掛川市板沢
4360017,静岡県,掛川市,杉谷,シズオカケン,カケガワシ,スギヤ,静岡県掛川市杉谷
4360018,静岡県,掛川市,葵町,シズオカケン,カケガワシ,アオイチョウ,静岡県掛川市葵町
4360019,静岡県,掛川市,青葉台,シズオカケン,カケガワシ,アオバダイ,静岡県掛川市青葉台
4360020,静岡県,掛川市,矢崎町,シズオカケン,カケガワシ,ヤサキチョウ,静岡県掛川市矢崎町
4360021,静岡県,掛川市,緑ケ丘,シズオカケン,カケガワシ,ミドリガオカ,静岡県掛川市緑ケ丘
4360022,静岡県,掛川市,上張,シズオカケン,カケガワシ,アゲハリ,静岡県掛川市上張
4360023,静岡県,掛川市,結縁寺,シズオカケン,カケガワシ,ケツエンジ,静岡県掛川市結縁寺
4360024,静岡県,掛川市,南西郷,シズオカケン,カケガワシ,ミナミサイゴウ,静岡県掛川市南西郷
4360025,静岡県,掛川市,下俣,シズオカケン,カケガワシ,シモマタ,静岡県掛川市下俣
4360026,静岡県,掛川市,下俣南,シズオカケン,カケガワシ,シモマタミナミ,静岡県掛川市下俣南
4360027,静岡県,掛川市,久保,シズオカケン,カケガワシ,クボ,静岡県掛川市久保
4360028,静岡県,掛川市,亀の甲,シズオカケン,カケガワシ,カメノコウ,静岡県掛川市亀の甲
4360029,静岡県,掛川市,南,シズオカケン,カケガワシ,ミナミ,静岡県掛川市南
4360030,静岡県,掛川市,杉谷南,シズオカケン,カケガワシ,スギヤミナミ,静岡県掛川市杉谷南
4360031,静岡県,掛川市,高御所,シズオカケン,カケガワシ,コウゴショ,静岡県掛川市高御所
4360032,静岡県,掛川市,平野,シズオカケン,カケガワシ,ヒラノ,静岡県掛川市平野
4360033,静岡県,掛川市,篠場,シズオカケン,カケガワシ,シノンバ,静岡県掛川市篠場
4360034,静岡県,掛川市,梅橋,シズオカケン,カケガワシ,ウメバシ,静岡県掛川市梅橋
4360035,静岡県,掛川市,徳泉,シズオカケン,カケガワシ,トクイズミ,静岡県掛川市徳泉
4360036,静岡県,掛川市,原川,シズオカケン,カケガワシ,ハラガワ,静岡県掛川市原川
4360037,静岡県,掛川市,岡津,シズオカケン,カケガワシ,オカツ,静岡県掛川市岡津
4360038,静岡県,掛川市,領家,シズオカケン,カケガワシ,リョウケ,静岡県掛川市領家
4360039,静岡県,掛川市,沢田,シズオカケン,カケガワシ,サワダ,静岡県掛川市沢田
4360040,静岡県,掛川市,菖蒲ヶ池,シズオカケン,カケガワシ,ショウブガイケ,静岡県掛川市菖蒲ヶ池
4360041,静岡県,掛川市,秋葉路,シズオカケン,カケガワシ,アキハミチ,静岡県掛川市秋葉路
4360042,静岡県,掛川市,二瀬川,シズオカケン,カケガワシ,フタセガワ,静岡県掛川市二瀬川
4360043,静岡県,掛川市,大池,シズオカケン,カケガワシ,オオイケ,静岡県掛川市大池
4360044,静岡県,掛川市,清崎,シズオカケン,カケガワシ,キヨサキ,静岡県掛川市清崎
4360045,静岡県,掛川市,小鷹町,シズオカケン,カケガワシ,オダカチョウ,静岡県掛川市小鷹町
4360046,静岡県,掛川市,中央高町,シズオカケン,カケガワシ,チュウオウタカマチ,静岡県掛川市中央高町
4360047,静岡県,掛川市,長谷,シズオカケン,カケガワシ,ナガヤ,静岡県掛川市長谷
4360048,静岡県,掛川市,細田,シズオカケン,カケガワシ,サイダ,静岡県掛川市細田
4360049,静岡県,掛川市,上屋敷,シズオカケン,カケガワシ,カミヤシキ,静岡県掛川市上屋敷
4360051,静岡県,掛川市,中宿,シズオカケン,カケガワシ,ナカジュク,静岡県掛川市中宿
4360052,静岡県,掛川市,柳町,シズオカケン,カケガワシ,ヤナギチョウ,静岡県掛川市柳町
4360053,静岡県,掛川市,弥生町,シズオカケン,カケガワシ,ヤヨイチョウ,静岡県掛川市弥生町
4360054,静岡県,掛川市,城西,シズオカケン,カケガワシ,シロニシ,静岡県掛川市城西
4360055,静岡県,掛川市,紺屋町,シズオカケン,カケガワシ,コウヤマチ,静岡県掛川市紺屋町
4360056,静岡県,掛川市,中央,シズオカケン,カケガワシ,チュウオウ,静岡県掛川市中央
4360057,静岡県,掛川市,十九首,シズオカケン,カケガワシ,ジュウクシュ,静岡県掛川市十九首
4360058,静岡県,掛川市,七日町,シズオカケン,カケガワシ,ナノカマチ,静岡県掛川市七日町
4360059,静岡県,掛川市,城北,シズオカケン,カケガワシ,ジョウホク,静岡県掛川市城北
4360061,静岡県,掛川市,水垂,シズオカケン,カケガワシ,ミズタリ,静岡県掛川市水垂
4360062,静岡県,掛川市,旭ケ丘,シズオカケン,カケガワシ,アサヒガオカ,静岡県掛川市旭ケ丘
4360063,静岡県,掛川市,北池新田,シズオカケン,カケガワシ,キタイケシンデン,静岡県掛川市北池新田
4360064,静岡県,掛川市,北門,シズオカケン,カケガワシ,キタモン,静岡県掛川市北門
4360065,静岡県,掛川市,天王町,シズオカケン,カケガワシ,テンノウチョウ,静岡県掛川市天王町
4360066,静岡県,掛川市,谷の口町,シズオカケン,カケガワシ,ヤノクチチョウ,静岡県掛川市谷の口町
4360067,静岡県,掛川市,下西郷,シズオカケン,カケガワシ,シモサイゴウ,静岡県掛川市下西郷
4360068,静岡県,掛川市,御所原,シズオカケン,カケガワシ,ゴショバラ,静岡県掛川市御所原
4360069,静岡県,掛川市,旭台,シズオカケン,カケガワシ,アサヒダイ,静岡県掛川市旭台
4360070,静岡県,掛川市,紅葉台,シズオカケン,カケガワシ,コウヨウダイ,静岡県掛川市紅葉台
4360071,静岡県,掛川市,仁藤,シズオカケン,カケガワシ,ニトウ,静岡県掛川市仁藤
4360072,静岡県,掛川市,印内,シズオカケン,カケガワシ,インナイ,静岡県掛川市印内
4360073,静岡県,掛川市,金城,シズオカケン,カケガワシ,カネシロ,静岡県掛川市金城
4360074,静岡県,掛川市,葛川,シズオカケン,カケガワシ,クズカワ,静岡県掛川市葛川
4360075,静岡県,掛川市,仁藤町,シズオカケン,カケガワシ,ニトウマチ,静岡県掛川市仁藤町
4360076,静岡県,掛川市,塩町,シズオカケン,カケガワシ,シオマチ,静岡県掛川市塩町
4360077,静岡県,掛川市,駅前,シズオカケン,カケガワシ,エキマエ,静岡県掛川市駅前
4360078,静岡県,掛川市,肴町,シズオカケン,カケガワシ,サカナマチ,静岡県掛川市肴町
4360079,静岡県,掛川市,掛川,シズオカケン,カケガワシ,カケガワ,静岡県掛川市掛川
4360081,静岡県,掛川市,初馬,シズオカケン,カケガワシ,ハツマ,静岡県掛川市初馬
4360082,静岡県,掛川市,淡陽,シズオカケン,カケガワシ,タンヨウ,静岡県掛川市淡陽
4360083,静岡県,掛川市,薗ケ谷,シズオカケン,カケガワシ,ソノガヤ,静岡県掛川市薗ケ谷
4360084,静岡県,掛川市,逆川,シズオカケン,カケガワシ,サカガワ,静岡県掛川市逆川
4360085,静岡県,掛川市,成滝,シズオカケン,カケガワシ,ナルタキ,静岡県掛川市成滝
4360086,静岡県,掛川市,宮脇,シズオカケン,カケガワシ,ミヤワキ,静岡県掛川市宮脇
4360087,静岡県,掛川市,大多郎,シズオカケン,カケガワシ,オオタロウ,静岡県掛川市大多郎
4360088,静岡県,掛川市,葛ケ丘,シズオカケン,カケガワシ,カツラガオカ,静岡県掛川市葛ケ丘
4360089,静岡県,掛川市,安養寺,シズオカケン,カケガワシ,アンヨウジ,静岡県掛川市安養寺
4360090,静岡県,掛川市,光陽,シズオカケン,カケガワシ,コウヨウ,静岡県掛川市光陽
4360091,静岡県,掛川市,城下,シズオカケン,カケガワシ,シロシタ,静岡県掛川市城下
4360092,静岡県,掛川市,中町,シズオカケン,カケガワシ,ナカマチ,静岡県掛川市中町
4360093,静岡県,掛川市,連雀,シズオカケン,カケガワシ,レンジャク,静岡県掛川市連雀
4360094,静岡県,掛川市,喜町,シズオカケン,カケガワシ,キマチ,静岡県掛川市喜町
4360101,静岡県,掛川市,上西之谷,シズオカケン,カケガワシ,カミニシノヤ,静岡県掛川市上西之谷
4360102,静岡県,掛川市,中西之谷,シズオカケン,カケガワシ,ナカニシノヤ,静岡県掛川市中西之谷
4360103,静岡県,掛川市,久居島,シズオカケン,カケガワシ,ヒサイジマ,静岡県掛川市久居島
4360104,静岡県,掛川市,平島,シズオカケン,カケガワシ,ヒラシマ,静岡県掛川市平島
4360105,静岡県,掛川市,原里,シズオカケン,カケガワシ,ハラサト,静岡県掛川市原里
4360106,静岡県,掛川市,寺島,シズオカケン,カケガワシ,テラシマ,静岡県掛川市寺島
4360111,静岡県,掛川市,本郷,シズオカケン,カケガワシ,ホンゴウ,静岡県掛川市本郷
4360112,静岡県,掛川市,細谷,シズオカケン,カケガワシ,ホソヤ,静岡県掛川市細谷
4360113,静岡県,掛川市,各和,シズオカケン,カケガワシ,カクワ,静岡県掛川市各和
4360114,静岡県,掛川市,高田,シズオカケン,カケガワシ,タカダ,静岡県掛川市高田
4360115,静岡県,掛川市,吉岡,シズオカケン,カケガワシ,ヨシオカ,静岡県掛川市吉岡
4360116,静岡県,掛川市,西山,シズオカケン,カケガワシ,ニシヤマ,静岡県掛川市西山
4360117,静岡県,掛川市,幡鎌,シズオカケン,カケガワシ,ハタカマ,静岡県掛川市幡鎌
4360221,静岡県,掛川市,上垂木,シズオカケン,カケガワシ,カミタルキ,静岡県掛川市上垂木
4360222,静岡県,掛川市,下垂木,シズオカケン,カケガワシ,シモタルキ,静岡県掛川市下垂木
4360223,静岡県,掛川市,黒田,シズオカケン,カケガワシ,クロダ,静岡県掛川市黒田
4360224,静岡県,掛川市,富部,シズオカケン,カケガワシ,トンベ,静岡県掛川市富部
4360225,静岡県,掛川市,家代,シズオカケン,カケガワシ,イエシロ,静岡県掛川市家代
4360226,静岡県,掛川市,遊家,シズオカケン,カケガワシ,ユケ,静岡県掛川市遊家
4360227,静岡県,掛川市,家代の里,シズオカケン,カケガワシ,イエシロノサト,静岡県掛川市家代の里
4360331,静岡県,掛川市,黒俣,シズオカケン,カケガワシ,クロマタ,静岡県掛川市黒俣
4360332,静岡県,掛川市,居尻,シズオカケン,カケガワシ,イジリ,静岡県掛川市居尻
4360333,静岡県,掛川市,丹間,シズオカケン,カケガワシ,タンマ,静岡県掛川市丹間
4360334,静岡県,掛川市,孕石,シズオカケン,カケガワシ,ハラミイシ,静岡県掛川市孕石
4360335,静岡県,掛川市,大和田,シズオカケン,カケガワシ,オオワダ,静岡県掛川市大和田
4360336,静岡県,掛川市,萩間,シズオカケン,カケガワシ,ハギマ,静岡県掛川市萩間
4360337,静岡県,掛川市,炭焼,シズオカケン,カケガワシ,スミヤキ,静岡県掛川市炭焼
4360338,静岡県,掛川市,和光,シズオカケン,カケガワシ,ワコウ,静岡県掛川市和光
4360341,静岡県,掛川市,倉真,シズオカケン,カケガワシ,クラミ,静岡県掛川市倉真
4360342,静岡県,掛川市,上西郷,シズオカケン,カケガワシ,カミサイゴウ,静岡県掛川市上西郷
4360343,静岡県,掛川市,五明,シズオカケン,カケガワシ,ゴミョウ,静岡県掛川市五明
4370000,静岡県,袋井市,,シズオカケン,フクロイシ,,静岡県袋井市
4370001,静岡県,袋井市,山田,シズオカケン,フクロイシ,ヤマダ,静岡県袋井市山田
4370002,静岡県,袋井市,川会,シズオカケン,フクロイシ,カワエ,静岡県袋井市川会
4370003,静岡県,袋井市,萱間,シズオカケン,フクロイシ,カヤマ,静岡県袋井市萱間
4370004,静岡県,袋井市,友永,シズオカケン,フクロイシ,トモナガ,静岡県袋井市友永
4370005,静岡県,袋井市,見取,シズオカケン,フクロイシ,ミドリ,静岡県袋井市見取
4370006,静岡県,袋井市,大谷,シズオカケン,フクロイシ,オオヤ,静岡県袋井市大谷
4370011,静岡県,袋井市,村松,シズオカケン,フクロイシ,ムラマツ,静岡県袋井市村松
4370012,静岡県,袋井市,国本,シズオカケン,フクロイシ,クニモト,静岡県袋井市国本
4370013,静岡県,袋井市,新屋,シズオカケン,フクロイシ,アラヤ,静岡県袋井市新屋
4370014,静岡県,袋井市,永楽町,シズオカケン,フクロイシ,エイラクチョウ,静岡県袋井市永楽町
4370015,静岡県,袋井市,旭町,シズオカケン,フクロイシ,アサヒチョウ,静岡県袋井市旭町
4370016,静岡県,袋井市,葵町,シズオカケン,フクロイシ,アオイチョウ,静岡県袋井市葵町
4370017,静岡県,袋井市,鷲巣,シズオカケン,フクロイシ,ワシズ,静岡県袋井市鷲巣
4370021,静岡県,袋井市,広岡,シズオカケン,フクロイシ,ヒロオカ,静岡県袋井市広岡
4370022,静岡県,袋井市,方丈,シズオカケン,フクロイシ,ホウジョウ,静岡県袋井市方丈
4370023,静岡県,袋井市,高尾,シズオカケン,フクロイシ,タカオ,静岡県袋井市高尾
4370024,静岡県,袋井市,三門町,シズオカケン,フクロイシ,ミカドチョウ,静岡県袋井市三門町
4370025,静岡県,袋井市,栄町,シズオカケン,フクロイシ,サカエマチ,静岡県袋井市栄町
4370026,静岡県,袋井市,袋井,シズオカケン,フクロイシ,フクロイ,静岡県袋井市袋井
4370027,静岡県,袋井市,高尾町,シズオカケン,フクロイシ,タカオチョウ,静岡県袋井市高尾町
4370028,静岡県,袋井市,神長,シズオカケン,フクロイシ,カミナガ,静岡県袋井市神長
4370029,静岡県,袋井市,掛之上,シズオカケン,フクロイシ,カケノウエ,静岡県袋井市掛之上
4370031,静岡県,袋井市,愛野,シズオカケン,フクロイシ,アイノ,静岡県袋井市愛野
4370032,静岡県,袋井市,豊沢,シズオカケン,フクロイシ,トヨサワ,静岡県袋井市豊沢
4370033,静岡県,袋井市,上田町,シズオカケン,フクロイシ,ウエダチョウ,静岡県袋井市上田町
4370034,静岡県,袋井市,青木町,シズオカケン,フクロイシ,アオキチョウ,静岡県袋井市青木町
4370035,静岡県,袋井市,砂本町,シズオカケン,フクロイシ,スナモトチョウ,静岡県袋井市砂本町
4370036,静岡県,袋井市,小川町,シズオカケン,フクロイシ,オガワチョウ,静岡県袋井市小川町
4370037,静岡県,袋井市,清水町,シズオカケン,フクロイシ,シミズチョウ,静岡県袋井市清水町
4370038,静岡県,袋井市,大門,シズオカケン,フクロイシ,ダイモン,静岡県袋井市大門
4370039,静岡県,袋井市,愛野東,シズオカケン,フクロイシ,アイノヒガシ,静岡県袋井市愛野東
4370040,静岡県,袋井市,愛野南,シズオカケン,フクロイシ,アイノミナミ,静岡県袋井市愛野南
4370041,静岡県,袋井市,睦町,シズオカケン,フクロイシ,ムツミチョウ,静岡県袋井市睦町
4370042,静岡県,袋井市,山名町,シズオカケン,フクロイシ,ヤマナチョウ,静岡県袋井市山名町
4370043,静岡県,袋井市,新池,シズオカケン,フクロイシ,ニイケ,静岡県袋井市新池
4370044,静岡県,袋井市,松袋井,シズオカケン,フクロイシ,マツブクロイ,静岡県袋井市松袋井
4370045,静岡県,袋井市,彦島,シズオカケン,フクロイシ,ヒコジマ,静岡県袋井市彦島
4370046,静岡県,袋井市,木原,シズオカケン,フクロイシ,キワラ,静岡県袋井市木原
4370047,静岡県,袋井市,西田,シズオカケン,フクロイシ,ニシダ,静岡県袋井市西田
4370051,静岡県,袋井市,深見,シズオカケン,フクロイシ,フカミ,静岡県袋井市深見
4370052,静岡県,袋井市,太田,シズオカケン,フクロイシ,オオタ,静岡県袋井市太田
4370053,静岡県,袋井市,延久,シズオカケン,フクロイシ,ノベヒサ,静岡県袋井市延久
4370054,静岡県,袋井市,徳光,シズオカケン,フクロイシ,トクミツ,静岡県袋井市徳光
4370055,静岡県,袋井市,土橋,シズオカケン,フクロイシ,ツチハシ,静岡県袋井市土橋
4370056,静岡県,袋井市,小山,シズオカケン,フクロイシ,オヤマ,静岡県袋井市小山
4370057,静岡県,袋井市,横井,シズオカケン,フクロイシ,ヨコイ,静岡県袋井市横井
4370061,静岡県,袋井市,久能,シズオカケン,フクロイシ,クノ,静岡県袋井市久能
4370062,静岡県,袋井市,泉町,シズオカケン,フクロイシ,イズミチョウ,静岡県袋井市泉町
4370063,静岡県,袋井市,田町,シズオカケン,フクロイシ,タマチ,静岡県袋井市田町
4370064,静岡県,袋井市,川井,シズオカケン,フクロイシ,カワイ,静岡県袋井市川井
4370065,静岡県,袋井市,堀越,シズオカケン,フクロイシ,ホリコシ,静岡県袋井市堀越
4370066,静岡県,袋井市,山科,シズオカケン,フクロイシ,ヤマシナ,静岡県袋井市山科
4370067,静岡県,袋井市,天神町,シズオカケン,フクロイシ,テンジンチョウ,静岡県袋井市天神町
4370121,静岡県,袋井市,宇刈,シズオカケン,フクロイシ,ウガリ,静岡県袋井市宇刈
4370122,静岡県,袋井市,春岡,シズオカケン,フクロイシ,ハルオカ,静岡県袋井市春岡
4370123,静岡県,袋井市,下山梨,シズオカケン,フクロイシ,シモヤマナシ,静岡県袋井市下山梨
4370124,静岡県,袋井市,沖山梨,シズオカケン,フクロイシ,オキヤマナシ,静岡県袋井市沖山梨
4370125,静岡県,袋井市,上山梨,シズオカケン,フクロイシ,カミヤマナシ,静岡県袋井市上山梨
4370126,静岡県,袋井市,月見町,シズオカケン,フクロイシ,ツキミチョウ,静岡県袋井市月見町
4370127,静岡県,袋井市,可睡の杜,シズオカケン,フクロイシ,カスイノモリ,静岡県袋井市可睡の杜
4370200,静岡県,周智郡森町,,シズオカケン,シュウチグンモリマチ,,静岡県周智郡森町
4370201,静岡県,周智郡森町,嵯塚,シズオカケン,シュウチグンモリマチ,サヅカ,静岡県周智郡森町嵯塚
4370202,静岡県,周智郡森町,亀久保,シズオカケン,シュウチグンモリマチ,カメクボ,静岡県周智郡森町亀久保
4370203,静岡県,周智郡森町,鍛冶島,シズオカケン,シュウチグンモリマチ,カジシマ,静岡県周智郡森町鍛冶島
4370204,静岡県,周智郡森町,問詰,シズオカケン,シュウチグンモリマチ,トイヅメ,静岡県周智郡森町問詰
4370205,静岡県,周智郡森町,大鳥居,シズオカケン,シュウチグンモリマチ,オオトリイ,静岡県周智郡森町大鳥居
4370206,静岡県,周智郡森町,葛布,シズオカケン,シュウチグンモリマチ,カツブ,静岡県周智郡森町葛布
4370207,静岡県,周智郡森町,西俣,シズオカケン,シュウチグンモリマチ,ニシマタ,静岡県周智郡森町西俣
4370208,静岡県,周智郡森町,三倉,シズオカケン,シュウチグンモリマチ,ミクラ,静岡県周智郡森町三倉
4370211,静岡県,周智郡森町,城下,シズオカケン,シュウチグンモリマチ,シロシタ,静岡県周智郡森町城下
4370212,静岡県,周智郡森町,向天方,シズオカケン,シュウチグンモリマチ,ムカイアマガタ,静岡県周智郡森町向天方
4370213,静岡県,周智郡森町,睦実,シズオカケン,シュウチグンモリマチ,ムツミ,静岡県周智郡森町睦実
4370214,静岡県,周智郡森町,草ケ谷,シズオカケン,シュウチグンモリマチ,クサガヤ,静岡県周智郡森町草ケ谷
4370215,静岡県,周智郡森町,森,シズオカケン,シュウチグンモリマチ,モリ,静岡県周智郡森町森
4370216,静岡県,周智郡森町,天宮,シズオカケン,シュウチグンモリマチ,アメノミヤ,静岡県周智郡森町天宮
4370217,静岡県,周智郡森町,薄場,シズオカケン,シュウチグンモリマチ,ウスバ,静岡県周智郡森町薄場
4370221,静岡県,周智郡森町,円田,シズオカケン,シュウチグンモリマチ,エンデン,静岡県周智郡森町円田
4370222,静岡県,周智郡森町,飯田,シズオカケン,シュウチグンモリマチ,イイダ,静岡県周智郡森町飯田
4370223,静岡県,周智郡森町,中川,シズオカケン,シュウチグンモリマチ,ナカガワ,静岡県周智郡森町中川
4370224,静岡県,周智郡森町,牛飼,シズオカケン,シュウチグンモリマチ,ウシカイ,静岡県周智郡森町牛飼
4370225,静岡県,周智郡森町,谷中,シズオカケン,シュウチグンモリマチ,ヤナカ,静岡県周智郡森町谷中
4370226,静岡県,周智郡森町,一宮,シズオカケン,シュウチグンモリマチ,イチミヤ,静岡県周智郡森町一宮
4370227,静岡県,周智郡森町,橘,シズオカケン,シュウチグンモリマチ,タチバナ,静岡県周智郡森町橘
4370601,静岡県,浜松市天竜区,春野町川上,シズオカケン,ハママツシテンリュウク,ハルノチョウカワカミ,静岡県浜松市天竜区春野町川上
4370602,静岡県,浜松市天竜区,春野町杉,シズオカケン,ハママツシテンリュウク,ハルノチョウスギ,静岡県浜松市天竜区春野町杉
4370603,静岡県,浜松市天竜区,春野町五和,シズオカケン,ハママツシテンリュウク,ハルノチョウゴワ,静岡県浜松市天竜区春野町五和
4370604,静岡県,浜松市天竜区,春野町宮川,シズオカケン,ハママツシテンリュウク,ハルノチョウミヤガワ,静岡県浜松市天竜区春野町宮川
4370605,静岡県,浜松市天竜区,春野町気田,シズオカケン,ハママツシテンリュウク,ハルノチョウケタ,静岡県浜松市天竜区春野町気田
4370606,静岡県,浜松市天竜区,春野町豊岡,シズオカケン,ハママツシテンリュウク,ハルノチョウトヨオカ,静岡県浜松市天竜区春野町豊岡
4370607,静岡県,浜松市天竜区,春野町石切,シズオカケン,ハママツシテンリュウク,ハルノチョウイシキリ,静岡県浜松市天竜区春野町石切
4370608,静岡県,浜松市天竜区,春野町小俣京丸,シズオカケン,ハママツシテンリュウク,ハルノチョウオマタキョウマル,静岡県浜松市天竜区春野町小俣京丸
4370611,静岡県,浜松市天竜区,春野町田河内,シズオカケン,ハママツシテンリュウク,ハルノチョウタゴウチ,静岡県浜松市天竜区春野町田河内
4370612,静岡県,浜松市天竜区,春野町花島,シズオカケン,ハママツシテンリュウク,ハルノチョウハナジマ,静岡県浜松市天竜区春野町花島
4370613,静岡県,浜松市天竜区,春野町牧野,シズオカケン,ハママツシテンリュウク,ハルノチョウマキノ,静岡県浜松市天竜区春野町牧野
4370614,静岡県,浜松市天竜区,春野町長蔵寺,シズオカケン,ハママツシテンリュウク,ハルノチョウチョウゾウジ,静岡県浜松市天竜区春野町長蔵寺
4370615,静岡県,浜松市天竜区,春野町石打松下,シズオカケン,ハママツシテンリュウク,ハルノチョウイシウチマツシタ,静岡県浜松市天竜区春野町石打松下
4370616,静岡県,浜松市天竜区,春野町田黒,シズオカケン,ハママツシテンリュウク,ハルノチョウタグロ,静岡県浜松市天竜区春野町田黒
4370617,静岡県,浜松市天竜区,春野町筏戸大上,シズオカケン,ハママツシテンリュウク,ハルノチョウイカンドオオカミ,静岡県浜松市天竜区春野町筏戸大上
4370618,静岡県,浜松市天竜区,春野町越木平,シズオカケン,ハママツシテンリュウク,ハルノチョウコシキダイラ,静岡県浜松市天竜区春野町越木平
4370621,静岡県,浜松市天竜区,春野町砂川,シズオカケン,ハママツシテンリュウク,ハルノチョウイサガワ,静岡県浜松市天竜区春野町砂川
4370622,静岡県,浜松市天竜区,春野町大時,シズオカケン,ハママツシテンリュウク,ハルノチョウオオトキ,静岡県浜松市天竜区春野町大時
4370623,静岡県,浜松市天竜区,春野町胡桃平,シズオカケン,ハママツシテンリュウク,ハルノチョウクルミダイラ,静岡県浜松市天竜区春野町胡桃平
4370624,静岡県,浜松市天竜区,春野町和泉平,シズオカケン,ハママツシテンリュウク,ハルノチョウイズミダイラ,静岡県浜松市天竜区春野町和泉平
4370625,静岡県,浜松市天竜区,春野町堀之内,シズオカケン,ハママツシテンリュウク,ハルノチョウホリノウチ,静岡県浜松市天竜区春野町堀之内
4370626,静岡県,浜松市天竜区,春野町領家,シズオカケン,ハママツシテンリュウク,ハルノチョウリョウケ,静岡県浜松市天竜区春野町領家
4371101,静岡県,袋井市,浅羽,シズオカケン,フクロイシ,アサバ,静岡県袋井市浅羽
4371102,静岡県,袋井市,浅名,シズオカケン,フクロイシ,アサナ,静岡県袋井市浅名
4371103,静岡県,袋井市,豊住,シズオカケン,フクロイシ,トヨズミ,静岡県袋井市豊住
4371104,静岡県,袋井市,新堀,シズオカケン,フクロイシ,ニイボリ,静岡県袋井市新堀
4371105,静岡県,袋井市,梅山,シズオカケン,フクロイシ,ウメヤマ,静岡県袋井市梅山
4371111,静岡県,袋井市,中新田,シズオカケン,フクロイシ,ナカシンデン,静岡県袋井市中新田
4371112,静岡県,袋井市,大野,シズオカケン,フクロイシ,オオノ,静岡県袋井市大野
4371113,静岡県,袋井市,東同笠,シズオカケン,フクロイシ,ヒガシドウリ,静岡県袋井市東同笠
4371114,静岡県,袋井市,西同笠,シズオカケン,フクロイシ,ニシドウリ,静岡県袋井市西同笠
4371115,静岡県,袋井市,湊,シズオカケン,フクロイシ,ミナト,静岡県袋井市湊
4371116,静岡県,袋井市,太郎助,シズオカケン,フクロイシ,タロスケ,静岡県袋井市太郎助
4371117,静岡県,袋井市,松原,シズオカケン,フクロイシ,マツバラ,静岡県袋井市松原
4371118,静岡県,袋井市,西ケ崎,シズオカケン,フクロイシ,ニシガサキ,静岡県袋井市西ケ崎
4371119,静岡県,袋井市,初越,シズオカケン,フクロイシ,ハヅコシ,静岡県袋井市初越
4371121,静岡県,袋井市,諸井,シズオカケン,フクロイシ,モロイ,静岡県袋井市諸井
4371122,静岡県,袋井市,浅岡,シズオカケン,フクロイシ,アサオカ,静岡県袋井市浅岡
4371123,静岡県,袋井市,浅羽一色,シズオカケン,フクロイシ,アサバイシキ,静岡県袋井市浅羽一色
4371124,静岡県,袋井市,富里,シズオカケン,フクロイシ,トミサト,静岡県袋井市富里
4371125,静岡県,袋井市,中,シズオカケン,フクロイシ,ナカ,静岡県袋井市中
4371126,静岡県,袋井市,長溝,シズオカケン,フクロイシ,ナガミゾ,静岡県袋井市長溝
4371201,静岡県,磐田市,豊浜中野,シズオカケン,イワタシ,トヨハマナカノ,静岡県磐田市豊浜中野
4371202,静岡県,磐田市,豊浜,シズオカケン,イワタシ,トヨハマ,静岡県磐田市豊浜
4371203,静岡県,磐田市,福田,シズオカケン,イワタシ,フクデ,静岡県磐田市福田
4371204,静岡県,磐田市,福田中島,シズオカケン,イワタシ,フクデナカジマ,静岡県磐田市福田中島
4371205,静岡県,磐田市,下太,シズオカケン,イワタシ,シモフト,静岡県磐田市下太
4371206,静岡県,磐田市,五十子,シズオカケン,イワタシ,イカゴ,静岡県磐田市五十子
4371207,静岡県,磐田市,蛭池,シズオカケン,イワタシ,ヒルイケ,静岡県磐田市蛭池
4371208,静岡県,磐田市,東小島,シズオカケン,イワタシ,ヒガシコジマ,静岡県磐田市東小島
4371209,静岡県,磐田市,南島,シズオカケン,イワタシ,ミナミシマ,静岡県磐田市南島
4371211,静岡県,磐田市,大原（その他）,シズオカケン,イワタシ,オオワラ(ソノタ),静岡県磐田市大原（その他）
4371212,静岡県,磐田市,南田,シズオカケン,イワタシ,ミナミダ,静岡県磐田市南田
4371213,静岡県,磐田市,塩新田,シズオカケン,イワタシ,シオシンデン,静岡県磐田市塩新田
4371214,静岡県,磐田市,清庵新田,シズオカケン,イワタシ,セイアンシンデン,静岡県磐田市清庵新田
4371215,静岡県,磐田市,太郎馬新田,シズオカケン,イワタシ,タロマシンデン,静岡県磐田市太郎馬新田
4371216,静岡県,磐田市,一色,シズオカケン,イワタシ,イッシキ,静岡県磐田市一色
4371217,静岡県,磐田市,宇兵衛新田,シズオカケン,イワタシ,ウヘエシンデン,静岡県磐田市宇兵衛新田
4371218,静岡県,磐田市,南田伊兵衛新田,シズオカケン,イワタシ,ミナミダイヘエシンデン,静岡県磐田市南田伊兵衛新田
4371301,静岡県,掛川市,横須賀,シズオカケン,カケガワシ,ヨコスカ,静岡県掛川市横須賀
4371302,静岡県,掛川市,大渕,シズオカケン,カケガワシ,オオブチ,静岡県掛川市大渕
4371303,静岡県,掛川市,沖之須,シズオカケン,カケガワシ,オキノス,静岡県掛川市沖之須
4371304,静岡県,掛川市,西大渕,シズオカケン,カケガワシ,ニシオオブチ,静岡県掛川市西大渕
4371305,静岡県,掛川市,山崎,シズオカケン,カケガワシ,ヤマザキ,静岡県掛川市山崎
4371306,静岡県,掛川市,洋望台,シズオカケン,カケガワシ,ヨウボウダイ,静岡県掛川市洋望台
4371311,静岡県,袋井市,山崎,シズオカケン,フクロイシ,ヤマザキ,静岡県袋井市山崎
4371312,静岡県,袋井市,岡崎,シズオカケン,フクロイシ,オカザキ,静岡県袋井市岡崎
4371401,静岡県,掛川市,高瀬,シズオカケン,カケガワシ,タカセ,静岡県掛川市高瀬
4371402,静岡県,掛川市,中方,シズオカケン,カケガワシ,ナカホウ,静岡県掛川市中方
4371403,静岡県,掛川市,岩滑,シズオカケン,カケガワシ,イワナメ,静岡県掛川市岩滑
4371404,静岡県,掛川市,西之谷,シズオカケン,カケガワシ,ニシノヤ,静岡県掛川市西之谷
4371405,静岡県,掛川市,中,シズオカケン,カケガワシ,ナカ,静岡県掛川市中
4371406,静岡県,掛川市,川久保,シズオカケン,カケガワシ,カワクボ,静岡県掛川市川久保
4371407,静岡県,掛川市,小貫,シズオカケン,カケガワシ,オヌキ,静岡県掛川市小貫
4371411,静岡県,掛川市,坂里,シズオカケン,カケガワシ,サカサト,静岡県掛川市坂里
4371412,静岡県,掛川市,千浜,シズオカケン,カケガワシ,チハマ,静岡県掛川市千浜
4371413,静岡県,掛川市,国安,シズオカケン,カケガワシ,クニヤス,静岡県掛川市国安
4371414,静岡県,掛川市,国包,シズオカケン,カケガワシ,クニカネ,静岡県掛川市国包
4371415,静岡県,掛川市,菊浜,シズオカケン,カケガワシ,キクハマ,静岡県掛川市菊浜
4371416,静岡県,掛川市,三俣,シズオカケン,カケガワシ,ミツマタ,静岡県掛川市三俣
4371421,静岡県,掛川市,大坂,シズオカケン,カケガワシ,オオサカ,静岡県掛川市大坂
4371422,静岡県,掛川市,海戸,シズオカケン,カケガワシ,カイト,静岡県掛川市海戸
4371423,静岡県,掛川市,浜川新田,シズオカケン,カケガワシ,ハマガワシンデン,静岡県掛川市浜川新田
4371424,静岡県,掛川市,浜野,シズオカケン,カケガワシ,ハマノ,静岡県掛川市浜野
4371425,静岡県,掛川市,浜野新田,シズオカケン,カケガワシ,ハマノシンデン,静岡県掛川市浜野新田
4371431,静岡県,掛川市,上土方落合,シズオカケン,カケガワシ,カミヒジカタオチアイ,静岡県掛川市上土方落合
4371432,静岡県,掛川市,上土方工業団地,シズオカケン,カケガワシ,カミヒジカタコウギョウダンチ,静岡県掛川市上土方工業団地
4371433,静岡県,掛川市,上土方,シズオカケン,カケガワシ,カミヒジカタ,静岡県掛川市上土方
4371434,静岡県,掛川市,下土方,シズオカケン,カケガワシ,シモヒジカタ,静岡県掛川市下土方
4371435,静岡県,掛川市,上土方嶺向,シズオカケン,カケガワシ,カミヒジカタミネムカイ,静岡県掛川市上土方嶺向
4371436,静岡県,掛川市,今滝,シズオカケン,カケガワシ,イマタキ,静岡県掛川市今滝
4371437,静岡県,掛川市,上土方旦付新田,シズオカケン,カケガワシ,カミヒジカタダンヅクシンデン,静岡県掛川市上土方旦付新田
4371438,静岡県,掛川市,入山瀬,シズオカケン,カケガワシ,イリヤマセ,静岡県掛川市入山瀬
4371439,静岡県,掛川市,大坪台,シズオカケン,カケガワシ,オオツボダイ,静岡県掛川市大坪台
4371501,静岡県,菊川市,丹野,シズオカケン,キクガワシ,タンノ,静岡県菊川市丹野
4371502,静岡県,菊川市,古谷,シズオカケン,キクガワシ,フルヤ,静岡県菊川市古谷
4371503,静岡県,菊川市,川上,シズオカケン,キクガワシ,カワカミ,静岡県菊川市川上
4371504,静岡県,菊川市,花水木,シズオカケン,キクガワシ,ハナミズキ,静岡県菊川市花水木
4371505,静岡県,菊川市,高橋,シズオカケン,キクガワシ,タカハシ,静岡県菊川市高橋
4371506,静岡県,菊川市,河東,シズオカケン,キクガワシ,カトウ,静岡県菊川市河東
4371507,静岡県,菊川市,赤土,シズオカケン,キクガワシ,アカツチ,静岡県菊川市赤土
4371511,静岡県,菊川市,目木,シズオカケン,キクガワシ,モッキ,静岡県菊川市目木
4371512,静岡県,菊川市,猿渡,シズオカケン,キクガワシ,サルワタリ,静岡県菊川市猿渡
4371513,静岡県,菊川市,棚草,シズオカケン,キクガワシ,タナクサ,静岡県菊川市棚草
4371514,静岡県,菊川市,下平川,シズオカケン,キクガワシ,シモヒラカワ,静岡県菊川市下平川
4371521,静岡県,菊川市,上平川,シズオカケン,キクガワシ,カミヒラカワ,静岡県菊川市上平川
4371522,静岡県,菊川市,嶺田,シズオカケン,キクガワシ,ミネダ,静岡県菊川市嶺田
4371523,静岡県,菊川市,堂山新田,シズオカケン,キクガワシ,ドウヤマシンデン,静岡県菊川市堂山新田
4371524,静岡県,菊川市,大石,シズオカケン,キクガワシ,オオイシ,静岡県菊川市大石
4371600,静岡県,御前崎市,,シズオカケン,オマエザキシ,,静岡県御前崎市
4371601,静岡県,御前崎市,上朝比奈,シズオカケン,オマエザキシ,カミアサヒナ,静岡県御前崎市上朝比奈
4371602,静岡県,御前崎市,比木,シズオカケン,オマエザキシ,ヒキ,静岡県御前崎市比木
4371603,静岡県,御前崎市,宮内,シズオカケン,オマエザキシ,ミヤウチ,静岡県御前崎市宮内
4371604,静岡県,御前崎市,佐倉,シズオカケン,オマエザキシ,サクラ,静岡県御前崎市佐倉
4371605,静岡県,御前崎市,下朝比奈,シズオカケン,オマエザキシ,シモアサヒナ,静岡県御前崎市下朝比奈
4371611,静岡県,御前崎市,新野,シズオカケン,オマエザキシ,ニイノ,静岡県御前崎市新野
4371612,静岡県,御前崎市,池新田,シズオカケン,オマエザキシ,イケシンデン,静岡県御前崎市池新田
4371613,静岡県,御前崎市,合戸,シズオカケン,オマエザキシ,ゴウド,静岡県御前崎市合戸
4371614,静岡県,御前崎市,塩原新田,シズオカケン,オマエザキシ,シオバラシンデン,静岡県御前崎市塩原新田
4371615,静岡県,御前崎市,門屋,シズオカケン,オマエザキシ,カドヤ,静岡県御前崎市門屋
4371621,静岡県,御前崎市,御前崎,シズオカケン,オマエザキシ,オマエザキ,静岡県御前崎市御前崎
4371622,静岡県,御前崎市,白羽,シズオカケン,オマエザキシ,シロワ,静岡県御前崎市白羽
4371623,静岡県,御前崎市,港,シズオカケン,オマエザキシ,ミナト,静岡県御前崎市港
4380000,静岡県,磐田市,,シズオカケン,イワタシ,,静岡県磐田市
4380001,静岡県,磐田市,藤上原,シズオカケン,イワタシ,フジカンバラ,静岡県磐田市藤上原
4380002,静岡県,磐田市,大久保,シズオカケン,イワタシ,オオクボ,静岡県磐田市大久保
4380003,静岡県,磐田市,匂坂新,シズオカケン,イワタシ,サギサカシン,静岡県磐田市匂坂新
4380004,静岡県,磐田市,匂坂中,シズオカケン,イワタシ,サギサカナカ,静岡県磐田市匂坂中
4380005,静岡県,磐田市,匂坂上,シズオカケン,イワタシ,サギサカカミ,静岡県磐田市匂坂上
4380006,静岡県,磐田市,寺谷,シズオカケン,イワタシ,テラダニ,静岡県磐田市寺谷
4380007,静岡県,磐田市,寺谷新田,シズオカケン,イワタシ,テラダニシンデン,静岡県磐田市寺谷新田
4380008,静岡県,磐田市,平松掛下入作,シズオカケン,イワタシ,ヒラマツカケシタイリサク,静岡県磐田市平松掛下入作
4380011,静岡県,磐田市,笠梅,シズオカケン,イワタシ,カサウメ,静岡県磐田市笠梅
4380012,静岡県,磐田市,向笠新屋,シズオカケン,イワタシ,ムカサアラヤ,静岡県磐田市向笠新屋
4380013,静岡県,磐田市,向笠竹之内,シズオカケン,イワタシ,ムカサタケノウチ,静岡県磐田市向笠竹之内
4380014,静岡県,磐田市,向笠西,シズオカケン,イワタシ,ムカサニシ,静岡県磐田市向笠西
4380015,静岡県,磐田市,篠原,シズオカケン,イワタシ,シノハラ,静岡県磐田市篠原
4380016,静岡県,磐田市,岩井,シズオカケン,イワタシ,イワイ,静岡県磐田市岩井
4380017,静岡県,磐田市,安久路,シズオカケン,イワタシ,アクロ,静岡県磐田市安久路
4380018,静岡県,磐田市,三ケ野台,シズオカケン,イワタシ,ミカノダイ,静岡県磐田市三ケ野台
4380019,静岡県,磐田市,明ケ島原,シズオカケン,イワタシ,ミョウガジマハラ,静岡県磐田市明ケ島原
4380021,静岡県,磐田市,玉越,シズオカケン,イワタシ,タマコシ,静岡県磐田市玉越
4380022,静岡県,磐田市,西島,シズオカケン,イワタシ,ニシジマ,静岡県磐田市西島
4380023,静岡県,磐田市,彦島,シズオカケン,イワタシ,ヒコジマ,静岡県磐田市彦島
4380024,静岡県,磐田市,明ケ島,シズオカケン,イワタシ,ミョウガジマ,静岡県磐田市明ケ島
4380025,静岡県,磐田市,新貝,シズオカケン,イワタシ,シンガイ,静岡県磐田市新貝
4380026,静岡県,磐田市,西貝塚,シズオカケン,イワタシ,ニシカイヅカ,静岡県磐田市西貝塚
4380027,静岡県,磐田市,三ケ野,シズオカケン,イワタシ,ミカノ,静岡県磐田市三ケ野
4380028,静岡県,磐田市,東山,シズオカケン,イワタシ,ヒガシヤマ,静岡県磐田市東山
4380031,静岡県,磐田市,稗原,シズオカケン,イワタシ,ヒエバラ,静岡県磐田市稗原
4380032,静岡県,磐田市,東脇,シズオカケン,イワタシ,ヒガシワキ,静岡県磐田市東脇
4380033,静岡県,磐田市,新出,シズオカケン,イワタシ,シンデ,静岡県磐田市新出
4380034,静岡県,磐田市,和口,シズオカケン,イワタシ,ワグチ,静岡県磐田市和口
4380035,静岡県,磐田市,東新屋,シズオカケン,イワタシ,ヒガシアラヤ,静岡県磐田市東新屋
4380036,静岡県,磐田市,大立野,シズオカケン,イワタシ,オオダテノ,静岡県磐田市大立野
4380037,静岡県,磐田市,東貝塚,シズオカケン,イワタシ,ヒガシカイヅカ,静岡県磐田市東貝塚
4380038,静岡県,磐田市,鎌田,シズオカケン,イワタシ,カマダ,静岡県磐田市鎌田
4380039,静岡県,磐田市,東新町,シズオカケン,イワタシ,トウシンチョウ,静岡県磐田市東新町
4380041,静岡県,磐田市,西之島,シズオカケン,イワタシ,ニシノシマ,静岡県磐田市西之島
4380042,静岡県,磐田市,上南田,シズオカケン,イワタシ,カミミナミダ,静岡県磐田市上南田
4380043,静岡県,磐田市,大原（１番地〜２０６１番地、２７５７番地〜２７６８番地）,シズオカケン,イワタシ,オオワラ(1バンチ-2061バンチ、2757バンチ-2768バンチ),静岡県磐田市大原（1-〜2061-、2757-〜2768-）
4380044,静岡県,磐田市,大泉町,シズオカケン,イワタシ,オオイズミチョウ,静岡県磐田市大泉町
4380045,静岡県,磐田市,上岡田,シズオカケン,イワタシ,カミオカタ,静岡県磐田市上岡田
4380046,静岡県,磐田市,下岡田,シズオカケン,イワタシ,シモオカタ,静岡県磐田市下岡田
4380047,静岡県,磐田市,豊島,シズオカケン,イワタシ,トヨシマ,静岡県磐田市豊島
4380051,静岡県,磐田市,上大之郷,シズオカケン,イワタシ,カミオオノゴウ,静岡県磐田市上大之郷
4380052,静岡県,磐田市,下大之郷,シズオカケン,イワタシ,シモオオノゴウ,静岡県磐田市下大之郷
4380053,静岡県,磐田市,中野,シズオカケン,イワタシ,ナカノ,静岡県磐田市中野
4380054,静岡県,磐田市,浜部,シズオカケン,イワタシ,ハマベ,静岡県磐田市浜部
4380055,静岡県,磐田市,鮫島,シズオカケン,イワタシ,サメジマ,静岡県磐田市鮫島
4380056,静岡県,磐田市,小島,シズオカケン,イワタシ,コジマ,静岡県磐田市小島
4380057,静岡県,磐田市,千手堂,シズオカケン,イワタシ,センズドウ,静岡県磐田市千手堂
4380058,静岡県,磐田市,万正寺,シズオカケン,イワタシ,マンショウジ,静岡県磐田市万正寺
4380061,静岡県,磐田市,刑部島,シズオカケン,イワタシ,ギョウブジマ,静岡県磐田市刑部島
4380062,静岡県,磐田市,新島,シズオカケン,イワタシ,アラシマ,静岡県磐田市新島
4380063,静岡県,磐田市,真光寺,シズオカケン,イワタシ,シンコウジ,静岡県磐田市真光寺
4380064,静岡県,磐田市,北島,シズオカケン,イワタシ,キタジマ,静岡県磐田市北島
4380065,静岡県,磐田市,野箱,シズオカケン,イワタシ,ノバコ,静岡県磐田市野箱
4380066,静岡県,磐田市,白拍子,シズオカケン,イワタシ,シラビョウシ,静岡県磐田市白拍子
4380067,静岡県,磐田市,草崎,シズオカケン,イワタシ,クササキ,静岡県磐田市草崎
4380068,静岡県,磐田市,前野,シズオカケン,イワタシ,マエノ,静岡県磐田市前野
4380069,静岡県,磐田市,長須賀,シズオカケン,イワタシ,ナガスカ,静岡県磐田市長須賀
4380071,静岡県,磐田市,今之浦,シズオカケン,イワタシ,イマノウラ,静岡県磐田市今之浦
4380072,静岡県,磐田市,鳥之瀬,シズオカケン,イワタシ,トリノセ,静岡県磐田市鳥之瀬
4380073,静岡県,磐田市,二之宮東,シズオカケン,イワタシ,ニノミヤヒガシ,静岡県磐田市二之宮東
4380074,静岡県,磐田市,二之宮,シズオカケン,イワタシ,ニノミヤ,静岡県磐田市二之宮
4380074,静岡県,磐田市,二之宮浅間,シズオカケン,イワタシ,ニノミヤセンゲン,静岡県磐田市二之宮浅間
4380075,静岡県,磐田市,天龍,シズオカケン,イワタシ,テンリュウ,静岡県磐田市天龍
4380077,静岡県,磐田市,国府台,シズオカケン,イワタシ,コウノダイ,静岡県磐田市国府台
4380078,静岡県,磐田市,七軒町,シズオカケン,イワタシ,シチケンチョウ,静岡県磐田市七軒町
4380078,静岡県,磐田市,中央町,シズオカケン,イワタシ,チュウオウチョウ,静岡県磐田市中央町
4380078,静岡県,磐田市,中泉,シズオカケン,イワタシ,ナカイズミ,静岡県磐田市中泉
4380078,静岡県,磐田市,中町,シズオカケン,イワタシ,ナカマチ,静岡県磐田市中町
4380078,静岡県,磐田市,久保町,シズオカケン,イワタシ,クボチョウ,静岡県磐田市久保町
4380078,静岡県,磐田市,坂上町,シズオカケン,イワタシ,サカウエチョウ,静岡県磐田市坂上町
4380078,静岡県,磐田市,御殿,シズオカケン,イワタシ,ゴテン,静岡県磐田市御殿
4380078,静岡県,磐田市,旭ケ丘,シズオカケン,イワタシ,アサヒガオカ,静岡県磐田市旭ケ丘
4380078,静岡県,磐田市,本町,シズオカケン,イワタシ,ホンマチ,静岡県磐田市本町
4380078,静岡県,磐田市,東町,シズオカケン,イワタシ,ヒガシマチ,静岡県磐田市東町
4380078,静岡県,磐田市,栄町,シズオカケン,イワタシ,サカエチョウ,静岡県磐田市栄町
4380078,静岡県,磐田市,桜ケ丘,シズオカケン,イワタシ,サクラガオカ,静岡県磐田市桜ケ丘
4380078,静岡県,磐田市,泉町,シズオカケン,イワタシ,イズミチョウ,静岡県磐田市泉町
4380078,静岡県,磐田市,田町,シズオカケン,イワタシ,タマチ,静岡県磐田市田町
4380078,静岡県,磐田市,石原町,シズオカケン,イワタシ,イシワラチョウ,静岡県磐田市石原町
4380078,静岡県,磐田市,西新町,シズオカケン,イワタシ,ニシシンマチ,静岡県磐田市西新町
4380078,静岡県,磐田市,西町,シズオカケン,イワタシ,ニシマチ,静岡県磐田市西町
4380081,静岡県,磐田市,緑ケ丘,シズオカケン,イワタシ,ミドリガオカ,静岡県磐田市緑ケ丘
4380082,静岡県,磐田市,元天神町,シズオカケン,イワタシ,モトテンジンチョウ,静岡県磐田市元天神町
4380083,静岡県,磐田市,富士見町,シズオカケン,イワタシ,フジミチョウ,静岡県磐田市富士見町
4380084,静岡県,磐田市,城之崎,シズオカケン,イワタシ,キノサキ,静岡県磐田市城之崎
4380085,静岡県,磐田市,水堀,シズオカケン,イワタシ,ミズホリ,静岡県磐田市水堀
4380086,静岡県,磐田市,一番町,シズオカケン,イワタシ,イチバンチョウ,静岡県磐田市一番町
4380086,静岡県,磐田市,中川町,シズオカケン,イワタシ,ナカガワチョウ,静岡県磐田市中川町
4380086,静岡県,磐田市,二番町,シズオカケン,イワタシ,ニバンチョウ,静岡県磐田市二番町
4380086,静岡県,磐田市,住吉町,シズオカケン,イワタシ,スミヨシチョウ,静岡県磐田市住吉町
4380086,静岡県,磐田市,元倉町,シズオカケン,イワタシ,モトクラチョウ,静岡県磐田市元倉町
4380086,静岡県,磐田市,元宮町,シズオカケン,イワタシ,モトミヤチョウ,静岡県磐田市元宮町
4380086,静岡県,磐田市,加茂川通,シズオカケン,イワタシ,カモガワドオリ,静岡県磐田市加茂川通
4380086,静岡県,磐田市,北見町,シズオカケン,イワタシ,キタミチョウ,静岡県磐田市北見町
4380086,静岡県,磐田市,地脇町,シズオカケン,イワタシ,ジワキチョウ,静岡県磐田市地脇町
4380086,静岡県,磐田市,天王町,シズオカケン,イワタシ,テンノウチョウ,静岡県磐田市天王町
4380086,静岡県,磐田市,宿町,シズオカケン,イワタシ,シュクマチ,静岡県磐田市宿町
4380086,静岡県,磐田市,幸町,シズオカケン,イワタシ,サイワイチョウ,静岡県磐田市幸町
4380086,静岡県,磐田市,新通町,シズオカケン,イワタシ,シンドオリチョウ,静岡県磐田市新通町
4380086,静岡県,磐田市,東坂町,シズオカケン,イワタシ,ヒガシザカチョウ,静岡県磐田市東坂町
4380086,静岡県,磐田市,梅屋町,シズオカケン,イワタシ,ウメヤチョウ,静岡県磐田市梅屋町
4380086,静岡県,磐田市,権現町,シズオカケン,イワタシ,ゴンゲンチョウ,静岡県磐田市権現町
4380086,静岡県,磐田市,河原町,シズオカケン,イワタシ,カワラチョウ,静岡県磐田市河原町
4380086,静岡県,磐田市,清水町,シズオカケン,イワタシ,シミズチョウ,静岡県磐田市清水町
4380086,静岡県,磐田市,美登里町,シズオカケン,イワタシ,ミドリチョウ,静岡県磐田市美登里町
4380086,静岡県,磐田市,西坂町,シズオカケン,イワタシ,ニシザカチョウ,静岡県磐田市西坂町
4380086,静岡県,磐田市,見付,シズオカケン,イワタシ,ミツケ,静岡県磐田市見付
4380086,静岡県,磐田市,馬場町,シズオカケン,イワタシ,ババチョウ,静岡県磐田市馬場町
4380088,静岡県,磐田市,富士見台,シズオカケン,イワタシ,フジミダイ,静岡県磐田市富士見台
4380101,静岡県,磐田市,万瀬,シズオカケン,イワタシ,マンゼ,静岡県磐田市万瀬
4380102,静岡県,磐田市,虫生,シズオカケン,イワタシ,ムシュウ,静岡県磐田市虫生
4380103,静岡県,磐田市,大平,シズオカケン,イワタシ,オイダイラ,静岡県磐田市大平
4380104,静岡県,磐田市,岩室,シズオカケン,イワタシ,イワムロ,静岡県磐田市岩室
4380105,静岡県,磐田市,家田,シズオカケン,イワタシ,イエタ,静岡県磐田市家田
4380106,静岡県,磐田市,敷地,シズオカケン,イワタシ,シキジ,静岡県磐田市敷地
4380107,静岡県,磐田市,大当所,シズオカケン,イワタシ,オオトウショ,静岡県磐田市大当所
4380108,静岡県,磐田市,社山,シズオカケン,イワタシ,ヤシロヤマ,静岡県磐田市社山
4380111,静岡県,磐田市,上野部,シズオカケン,イワタシ,カミノベ,静岡県磐田市上野部
4380112,静岡県,磐田市,下野部,シズオカケン,イワタシ,シモノベ,静岡県磐田市下野部
4380113,静岡県,磐田市,新開,シズオカケン,イワタシ,シンカイ,静岡県磐田市新開
4380114,静岡県,磐田市,合代島,シズオカケン,イワタシ,ゴウダイジマ,静岡県磐田市合代島
4380115,静岡県,磐田市,上神増,シズオカケン,イワタシ,カミカンゾ,静岡県磐田市上神増
4380116,静岡県,磐田市,壱貫地,シズオカケン,イワタシ,イッカンジ,静岡県磐田市壱貫地
4380121,静岡県,磐田市,神増,シズオカケン,イワタシ,カンゾ,静岡県磐田市神増
4380122,静岡県,磐田市,惣兵衛下新田,シズオカケン,イワタシ,ソウベエシモシンデン,静岡県磐田市惣兵衛下新田
4380123,静岡県,磐田市,平松,シズオカケン,イワタシ,ヒラマツ,静岡県磐田市平松
4380124,静岡県,磐田市,掛下,シズオカケン,イワタシ,カケシタ,静岡県磐田市掛下
4380125,静岡県,磐田市,松之木島,シズオカケン,イワタシ,マツノキジマ,静岡県磐田市松之木島
4380126,静岡県,磐田市,下神増,シズオカケン,イワタシ,シモカンゾ,静岡県磐田市下神増
4380127,静岡県,磐田市,三家,シズオカケン,イワタシ,ミツエ,静岡県磐田市三家
4380201,静岡県,磐田市,竜洋中島,シズオカケン,イワタシ,リュウヨウナカジマ,静岡県磐田市竜洋中島
4380202,静岡県,磐田市,高木,シズオカケン,イワタシ,タカギ,静岡県磐田市高木
4380203,静岡県,磐田市,平間,シズオカケン,イワタシ,ヒラマ,静岡県磐田市平間
4380204,静岡県,磐田市,岡,シズオカケン,イワタシ,オカ,静岡県磐田市岡
4380205,静岡県,磐田市,堀之内,シズオカケン,イワタシ,ホリノウチ,静岡県磐田市堀之内
4380206,静岡県,磐田市,松本,シズオカケン,イワタシ,マツモト,静岡県磐田市松本
4380207,静岡県,磐田市,宮本,シズオカケン,イワタシ,ミヤモト,静岡県磐田市宮本
4380211,静岡県,磐田市,東平松,シズオカケン,イワタシ,ヒガシヒラマツ,静岡県磐田市東平松
4380212,静岡県,磐田市,海老島,シズオカケン,イワタシ,エビジマ,静岡県磐田市海老島
4380213,静岡県,磐田市,竜洋稗原,シズオカケン,イワタシ,リュウヨウヒエバラ,静岡県磐田市竜洋稗原
4380214,静岡県,磐田市,大中瀬,シズオカケン,イワタシ,オオナカゼ,静岡県磐田市大中瀬
4380215,静岡県,磐田市,小中瀬,シズオカケン,イワタシ,コナカゼ,静岡県磐田市小中瀬
4380216,静岡県,磐田市,飛平松,シズオカケン,イワタシ,トビヒラマツ,静岡県磐田市飛平松
4380217,静岡県,磐田市,西平松,シズオカケン,イワタシ,ニシヒラマツ,静岡県磐田市西平松
4380218,静岡県,磐田市,中平松,シズオカケン,イワタシ,ナカヒラマツ,静岡県磐田市中平松
4380221,静岡県,磐田市,南平松,シズオカケン,イワタシ,ミナミヒラマツ,静岡県磐田市南平松
4380222,静岡県,磐田市,須恵新田,シズオカケン,イワタシ,スエシンデン,静岡県磐田市須恵新田
4380223,静岡県,磐田市,請負新田,シズオカケン,イワタシ,ウケオイシンデン,静岡県磐田市請負新田
4380224,静岡県,磐田市,浜新田,シズオカケン,イワタシ,ハマシンデン,静岡県磐田市浜新田
4380231,静岡県,磐田市,豊岡,シズオカケン,イワタシ,トヨオカ,静岡県磐田市豊岡
4380232,静岡県,磐田市,川袋,シズオカケン,イワタシ,カワブクロ,静岡県磐田市川袋
4380233,静岡県,磐田市,駒場,シズオカケン,イワタシ,コマバ,静岡県磐田市駒場
4380234,静岡県,磐田市,掛塚,シズオカケン,イワタシ,カケツカ,静岡県磐田市掛塚
4380235,静岡県,磐田市,白羽,シズオカケン,イワタシ,シロワ,静岡県磐田市白羽
4380236,静岡県,磐田市,十郎島,シズオカケン,イワタシ,ジュウロウジマ,静岡県磐田市十郎島
4380801,静岡県,磐田市,高見丘,シズオカケン,イワタシ,タカミガオカ,静岡県磐田市高見丘
4380802,静岡県,磐田市,東原,シズオカケン,イワタシ,ヒガシバラ,静岡県磐田市東原
4380803,静岡県,磐田市,富丘,シズオカケン,イワタシ,トミガオカ,静岡県磐田市富丘
4380804,静岡県,磐田市,加茂,シズオカケン,イワタシ,カモ,静岡県磐田市加茂
4380805,静岡県,磐田市,池田,シズオカケン,イワタシ,イケダ,静岡県磐田市池田
4380806,静岡県,磐田市,東名,シズオカケン,イワタシ,トウメイ,静岡県磐田市東名
4380807,静岡県,磐田市,富里,シズオカケン,イワタシ,トミサト,静岡県磐田市富里
4380808,静岡県,磐田市,豊田,シズオカケン,イワタシ,トヨダ,静岡県磐田市豊田
4380811,静岡県,磐田市,一言,シズオカケン,イワタシ,ヒトコト,静岡県磐田市一言
4380812,静岡県,磐田市,海老塚,シズオカケン,イワタシ,エビツカ,静岡県磐田市海老塚
4380813,静岡県,磐田市,笹原島,シズオカケン,イワタシ,ササハラジマ,静岡県磐田市笹原島
4380814,静岡県,磐田市,気子島,シズオカケン,イワタシ,ケゴジマ,静岡県磐田市気子島
4380815,静岡県,磐田市,中田,シズオカケン,イワタシ,ナカダ,静岡県磐田市中田
4380816,静岡県,磐田市,宮之一色,シズオカケン,イワタシ,ミヤノイシキ,静岡県磐田市宮之一色
4380817,静岡県,磐田市,上万能,シズオカケン,イワタシ,カミマンノウ,静岡県磐田市上万能
4380818,静岡県,磐田市,下万能,シズオカケン,イワタシ,シモマンノウ,静岡県磐田市下万能
4380821,静岡県,磐田市,立野,シズオカケン,イワタシ,タテノ,静岡県磐田市立野
4380822,静岡県,磐田市,上本郷,シズオカケン,イワタシ,カミホンゴウ,静岡県磐田市上本郷
4380823,静岡県,磐田市,下本郷,シズオカケン,イワタシ,シモホンゴウ,静岡県磐田市下本郷
4380824,静岡県,磐田市,赤池,シズオカケン,イワタシ,アカイケ,静岡県磐田市赤池
4380825,静岡県,磐田市,森本,シズオカケン,イワタシ,モリモト,静岡県磐田市森本
4380831,静岡県,磐田市,上新屋,シズオカケン,イワタシ,カミアラヤ,静岡県磐田市上新屋
4380832,静岡県,磐田市,森岡,シズオカケン,イワタシ,モリオカ,静岡県磐田市森岡
4380833,静岡県,磐田市,弥藤太島,シズオカケン,イワタシ,ヤトウタジマ,静岡県磐田市弥藤太島
4380834,静岡県,磐田市,森下,シズオカケン,イワタシ,モリシタ,静岡県磐田市森下
4380835,静岡県,磐田市,豊田西之島,シズオカケン,イワタシ,トヨダニシノシマ,静岡県磐田市豊田西之島
4380836,静岡県,磐田市,長森,シズオカケン,イワタシ,ナガモリ,静岡県磐田市長森
4380837,静岡県,磐田市,源平新田,シズオカケン,イワタシ,ゲンペイシンデン,静岡県磐田市源平新田
4380838,静岡県,磐田市,小立野,シズオカケン,イワタシ,コダテノ,静岡県磐田市小立野
4390000,静岡県,菊川市,,シズオカケン,キクガワシ,,静岡県菊川市
4390001,静岡県,菊川市,富田,シズオカケン,キクガワシ,トミタ,静岡県菊川市富田
4390002,静岡県,菊川市,倉沢,シズオカケン,キクガワシ,クラサワ,静岡県菊川市倉沢
4390003,静岡県,菊川市,沢水加,シズオカケン,キクガワシ,サバカ,静岡県菊川市沢水加
4390004,静岡県,菊川市,和田,シズオカケン,キクガワシ,ワダ,静岡県菊川市和田
4390005,静岡県,菊川市,潮海寺,シズオカケン,キクガワシ,チョウカイジ,静岡県菊川市潮海寺
4390006,静岡県,菊川市,堀之内,シズオカケン,キクガワシ,ホリノウチ,静岡県菊川市堀之内
4390007,静岡県,菊川市,柳,シズオカケン,キクガワシ,ヤナギ,静岡県菊川市柳
4390008,静岡県,菊川市,友田,シズオカケン,キクガワシ,トモダ,静岡県菊川市友田
4390009,静岡県,菊川市,吉沢,シズオカケン,キクガワシ,ヨシサワ,静岡県菊川市吉沢
4390011,静岡県,菊川市,仲島,シズオカケン,キクガワシ,ナカジマ,静岡県菊川市仲島
4390012,静岡県,菊川市,青葉台,シズオカケン,キクガワシ,アオバダイ,静岡県菊川市青葉台
4390013,静岡県,菊川市,牛渕,シズオカケン,キクガワシ,ウシブチ,静岡県菊川市牛渕
4390014,静岡県,菊川市,小沢,シズオカケン,キクガワシ,コザワ,静岡県菊川市小沢
4390015,静岡県,菊川市,牧之原,シズオカケン,キクガワシ,マキノハラ,静岡県菊川市牧之原
4390016,静岡県,菊川市,神尾,シズオカケン,キクガワシ,カンノオ,静岡県菊川市神尾
4390017,静岡県,菊川市,朝日,シズオカケン,キクガワシ,アサヒ,静岡県菊川市朝日
4390018,静岡県,菊川市,本所,シズオカケン,キクガワシ,ホンジョ,静岡県菊川市本所
4390019,静岡県,菊川市,半済,シズオカケン,キクガワシ,ハンセイ,静岡県菊川市半済
4390021,静岡県,菊川市,小出,シズオカケン,キクガワシ,オイデ,静岡県菊川市小出
4390022,静岡県,菊川市,東横地,シズオカケン,キクガワシ,ヒガシヨコジ,静岡県菊川市東横地
4390023,静岡県,菊川市,三沢,シズオカケン,キクガワシ,ミサワ,静岡県菊川市三沢
4390024,静岡県,菊川市,奈良野,シズオカケン,キクガワシ,ナラノ,静岡県菊川市奈良野
4390025,静岡県,菊川市,土橋,シズオカケン,キクガワシ,ツチハシ,静岡県菊川市土橋
4390026,静岡県,菊川市,西横地,シズオカケン,キクガワシ,ニシヨコジ,静岡県菊川市西横地
4390031,静岡県,菊川市,加茂,シズオカケン,キクガワシ,カモ,静岡県菊川市加茂
4390032,静岡県,菊川市,月岡,シズオカケン,キクガワシ,ツキオカ,静岡県菊川市月岡
4390033,静岡県,菊川市,耳川,シズオカケン,キクガワシ,ミミガワ,静岡県菊川市耳川
4390034,静岡県,菊川市,下内田,シズオカケン,キクガワシ,シモウチダ,静岡県菊川市下内田
4390035,静岡県,菊川市,平尾,シズオカケン,キクガワシ,ヒラオ,静岡県菊川市平尾
4390036,静岡県,菊川市,中内田,シズオカケン,キクガワシ,ナカウチダ,静岡県菊川市中内田
4390037,静岡県,菊川市,西方,シズオカケン,キクガワシ,ニシカタ,静岡県菊川市西方
