zipcode,prefecture_name,city,town,prefecture_kana,city_kana,town_kana,normalized_address
4980000,三重県,桑名郡木曽岬町,,ミエケン,クワナグンキソサキチョウ,,三重県桑名郡木曽岬町
4980801,三重県,桑名郡木曽岬町,加路戸,ミエケン,クワナグンキソサキチョウ,カロト,三重県桑名郡木曽岬町加路戸
4980802,三重県,桑名郡木曽岬町,見入,ミエケン,クワナグンキソサキチョウ,ケンニュウ,三重県桑名郡木曽岬町見入
4980803,三重県,桑名郡木曽岬町,和泉,ミエケン,クワナグンキソサキチョウ,イズミ,三重県桑名郡木曽岬町和泉
4980804,三重県,桑名郡木曽岬町,小和泉,ミエケン,クワナグンキソサキチョウ,コイズミ,三重県桑名郡木曽岬町小和泉
4980805,三重県,桑名郡木曽岬町,小林,ミエケン,クワナグンキソサキチョウ,コバヤシ,三重県桑名郡木曽岬町小林
4980806,三重県,桑名郡木曽岬町,外平喜,ミエケン,クワナグンキソサキチョウ,ソトビラキ,三重県桑名郡木曽岬町外平喜
4980807,三重県,桑名郡木曽岬町,西対海地,ミエケン,クワナグンキソサキチョウ,ニシタイガンジ,三重県桑名郡木曽岬町西対海地
4980808,三重県,桑名郡木曽岬町,近江島,ミエケン,クワナグンキソサキチョウ,オウミジマ,三重県桑名郡木曽岬町近江島
4980810,三重県,桑名郡木曽岬町,川先,ミエケン,クワナグンキソサキチョウ,カワサキ,三重県桑名郡木曽岬町川先
4980811,三重県,桑名郡木曽岬町,栄,ミエケン,クワナグンキソサキチョウ,サカエ,三重県桑名郡木曽岬町栄
4980812,三重県,桑名郡木曽岬町,中和泉,ミエケン,クワナグンキソサキチョウ,ナカイズミ,三重県桑名郡木曽岬町中和泉
4980813,三重県,桑名郡木曽岬町,富田子,ミエケン,クワナグンキソサキチョウ,トミタネ,三重県桑名郡木曽岬町富田子
4980814,三重県,桑名郡木曽岬町,三崎,ミエケン,クワナグンキソサキチョウ,ミサキ,三重県桑名郡木曽岬町三崎
4980815,三重県,桑名郡木曽岬町,白鷺,ミエケン,クワナグンキソサキチョウ,ハクロ,三重県桑名郡木曽岬町白鷺
4980816,三重県,桑名郡木曽岬町,源緑輪中,ミエケン,クワナグンキソサキチョウ,ゲンロクワジュウ,三重県桑名郡木曽岬町源緑輪中
4980817,三重県,桑名郡木曽岬町,松永,ミエケン,クワナグンキソサキチョウ,マツナガ,三重県桑名郡木曽岬町松永
4980818,三重県,桑名郡木曽岬町,雁ケ地,ミエケン,クワナグンキソサキチョウ,ガンガジ,三重県桑名郡木曽岬町雁ケ地
4980819,三重県,桑名郡木曽岬町,田代,ミエケン,クワナグンキソサキチョウ,タシロ,三重県桑名郡木曽岬町田代
4980821,三重県,桑名郡木曽岬町,新加路戸,ミエケン,クワナグンキソサキチョウ,シンカロト,三重県桑名郡木曽岬町新加路戸
4980822,三重県,桑名郡木曽岬町,見入流作,ミエケン,クワナグンキソサキチョウ,ケンニュウリュウサク,三重県桑名郡木曽岬町見入流作
4980823,三重県,桑名郡木曽岬町,和富,ミエケン,クワナグンキソサキチョウ,カズトミ,三重県桑名郡木曽岬町和富
4980824,三重県,桑名郡木曽岬町,新輪,ミエケン,クワナグンキソサキチョウ,シンワ,三重県桑名郡木曽岬町新輪
5100000,三重県,三重郡川越町,,ミエケン,ミエグンカワゴエチョウ,,三重県三重郡川越町
5100000,三重県,三重郡朝日町,,ミエケン,ミエグンアサヒチョウ,,三重県三重郡朝日町
5100000,三重県,四日市市,,ミエケン,ヨッカイチシ,,三重県四日市市
5100001,三重県,四日市市,八田,ミエケン,ヨッカイチシ,ハッタ,三重県四日市市八田
5100002,三重県,四日市市,羽津中,ミエケン,ヨッカイチシ,ハヅナカ,三重県四日市市羽津中
5100003,三重県,四日市市,大宮町,ミエケン,ヨッカイチシ,オオミヤチョウ,三重県四日市市大宮町
5100004,三重県,四日市市,大宮西町,ミエケン,ヨッカイチシ,オオミヤニシマチ,三重県四日市市大宮西町
5100005,三重県,四日市市,山手町,ミエケン,ヨッカイチシ,ヤマテチョウ,三重県四日市市山手町
5100006,三重県,四日市市,緑丘町,ミエケン,ヨッカイチシ,ミドリガオカチョウ,三重県四日市市緑丘町
5100007,三重県,四日市市,別名,ミエケン,ヨッカイチシ,ベツメイ,三重県四日市市別名
5100008,三重県,四日市市,南いかるが町,ミエケン,ヨッカイチシ,ミナミイカルガチョウ,三重県四日市市南いかるが町
5100011,三重県,四日市市,霞,ミエケン,ヨッカイチシ,カスミ,三重県四日市市霞
5100012,三重県,四日市市,羽津,ミエケン,ヨッカイチシ,ハヅ,三重県四日市市羽津
5100013,三重県,四日市市,富士町,ミエケン,ヨッカイチシ,フジチョウ,三重県四日市市富士町
5100014,三重県,四日市市,金場町,ミエケン,ヨッカイチシ,カネバチョウ,三重県四日市市金場町
5100015,三重県,四日市市,城山町,ミエケン,ヨッカイチシ,シロヤマチョウ,三重県四日市市城山町
5100016,三重県,四日市市,羽津山町,ミエケン,ヨッカイチシ,ハヅヤマチョウ,三重県四日市市羽津山町
5100017,三重県,四日市市,羽津町,ミエケン,ヨッカイチシ,ハヅチョウ,三重県四日市市羽津町
5100018,三重県,四日市市,白須賀,ミエケン,ヨッカイチシ,シラスカ,三重県四日市市白須賀
5100021,三重県,四日市市,三郎町,ミエケン,ヨッカイチシ,サブロウマチ,三重県四日市市三郎町
5100022,三重県,四日市市,大協町,ミエケン,ヨッカイチシ,ダイキョウチョウ,三重県四日市市大協町
5100023,三重県,四日市市,午起,ミエケン,ヨッカイチシ,ウマオコシ,三重県四日市市午起
5100024,三重県,四日市市,新浜町,ミエケン,ヨッカイチシ,シンハマチョウ,三重県四日市市新浜町
5100025,三重県,四日市市,東新町,ミエケン,ヨッカイチシ,トウシンチョウ,三重県四日市市東新町
5100026,三重県,四日市市,高浜町,ミエケン,ヨッカイチシ,タカハマチョウ,三重県四日市市高浜町
5100027,三重県,四日市市,高浜新町,ミエケン,ヨッカイチシ,タカハマシンマチ,三重県四日市市高浜新町
5100031,三重県,四日市市,浜一色町,ミエケン,ヨッカイチシ,ハマイッシキチョウ,三重県四日市市浜一色町
5100032,三重県,四日市市,京町,ミエケン,ヨッカイチシ,キョウマチ,三重県四日市市京町
5100033,三重県,四日市市,川原町,ミエケン,ヨッカイチシ,カワラマチ,三重県四日市市川原町
5100034,三重県,四日市市,滝川町,ミエケン,ヨッカイチシ,タキガワチョウ,三重県四日市市滝川町
5100035,三重県,四日市市,陶栄町,ミエケン,ヨッカイチシ,トウエイチョウ,三重県四日市市陶栄町
5100041,三重県,四日市市,稲葉町,ミエケン,ヨッカイチシ,イナバチョウ,三重県四日市市稲葉町
5100042,三重県,四日市市,高砂町,ミエケン,ヨッカイチシ,タカサゴチョウ,三重県四日市市高砂町
5100043,三重県,四日市市,南納屋町,ミエケン,ヨッカイチシ,ミナミナヤチョウ,三重県四日市市南納屋町
5100044,三重県,四日市市,相生町,ミエケン,ヨッカイチシ,アイオイチョウ,三重県四日市市相生町
5100045,三重県,四日市市,蔵町,ミエケン,ヨッカイチシ,クラマチ,三重県四日市市蔵町
5100046,三重県,四日市市,浜町,ミエケン,ヨッカイチシ,ハママチ,三重県四日市市浜町
5100047,三重県,四日市市,北納屋町,ミエケン,ヨッカイチシ,キタナヤチョウ,三重県四日市市北納屋町
5100048,三重県,四日市市,中納屋町,ミエケン,ヨッカイチシ,ナカナヤチョウ,三重県四日市市中納屋町
5100051,三重県,四日市市,千歳町,ミエケン,ヨッカイチシ,チトセチョウ,三重県四日市市千歳町
5100052,三重県,四日市市,末広町,ミエケン,ヨッカイチシ,スエヒロチョウ,三重県四日市市末広町
5100053,三重県,四日市市,曙,ミエケン,ヨッカイチシ,アケボノ,三重県四日市市曙
5100054,三重県,四日市市,曙町,ミエケン,ヨッカイチシ,アケボノチョウ,三重県四日市市曙町
5100055,三重県,四日市市,寿町,ミエケン,ヨッカイチシ,コトブキチョウ,三重県四日市市寿町
5100056,三重県,四日市市,南起町,ミエケン,ヨッカイチシ,ミナミオコシチョウ,三重県四日市市南起町
5100057,三重県,四日市市,昌栄町,ミエケン,ヨッカイチシ,ショウエイチョウ,三重県四日市市昌栄町
5100058,三重県,四日市市,西末広町,ミエケン,ヨッカイチシ,ニシスエヒロチョウ,三重県四日市市西末広町
5100059,三重県,四日市市,尾上町,ミエケン,ヨッカイチシ,オノエチョウ,三重県四日市市尾上町
5100061,三重県,四日市市,朝日町,ミエケン,ヨッカイチシ,アサヒマチ,三重県四日市市朝日町
5100062,三重県,四日市市,北浜田町,ミエケン,ヨッカイチシ,キタハマダチョウ,三重県四日市市北浜田町
5100063,三重県,四日市市,十七軒町,ミエケン,ヨッカイチシ,ジュウシチケンチョウ,三重県四日市市十七軒町
5100064,三重県,四日市市,新正,ミエケン,ヨッカイチシ,シンショウ,三重県四日市市新正
5100065,三重県,四日市市,中浜田町,ミエケン,ヨッカイチシ,ナカハマダチョウ,三重県四日市市中浜田町
5100066,三重県,四日市市,南浜田町,ミエケン,ヨッカイチシ,ミナミハマダチョウ,三重県四日市市南浜田町
5100067,三重県,四日市市,浜田町,ミエケン,ヨッカイチシ,ハマダチョウ,三重県四日市市浜田町
5100068,三重県,四日市市,三栄町,ミエケン,ヨッカイチシ,サンエイチョウ,三重県四日市市三栄町
5100069,三重県,四日市市,幸町,ミエケン,ヨッカイチシ,サイワイチョウ,三重県四日市市幸町
5100071,三重県,四日市市,西浦,ミエケン,ヨッカイチシ,ニシウラ,三重県四日市市西浦
5100072,三重県,四日市市,九の城町,ミエケン,ヨッカイチシ,クノシロチョウ,三重県四日市市九の城町
5100073,三重県,四日市市,西浜田町,ミエケン,ヨッカイチシ,ニシハマダチョウ,三重県四日市市西浜田町
5100074,三重県,四日市市,鵜の森,ミエケン,ヨッカイチシ,ウノモリ,三重県四日市市鵜の森
5100075,三重県,四日市市,安島,ミエケン,ヨッカイチシ,ヤスジマ,三重県四日市市安島
5100076,三重県,四日市市,堀木,ミエケン,ヨッカイチシ,ホリキ,三重県四日市市堀木
5100081,三重県,四日市市,北町,ミエケン,ヨッカイチシ,キタマチ,三重県四日市市北町
5100082,三重県,四日市市,中部,ミエケン,ヨッカイチシ,チュウブ,三重県四日市市中部
5100083,三重県,四日市市,沖の島町,ミエケン,ヨッカイチシ,オキノシマチョウ,三重県四日市市沖の島町
5100084,三重県,四日市市,栄町,ミエケン,ヨッカイチシ,サカエマチ,三重県四日市市栄町
5100085,三重県,四日市市,諏訪町,ミエケン,ヨッカイチシ,スワチョウ,三重県四日市市諏訪町
5100086,三重県,四日市市,諏訪栄町,ミエケン,ヨッカイチシ,スワサカエマチ,三重県四日市市諏訪栄町
5100087,三重県,四日市市,西新地,ミエケン,ヨッカイチシ,ニシシンチ,三重県四日市市西新地
5100088,三重県,四日市市,元町,ミエケン,ヨッカイチシ,モトマチ,三重県四日市市元町
5100089,三重県,四日市市,西町,ミエケン,ヨッカイチシ,ニシマチ,三重県四日市市西町
5100091,三重県,四日市市,北浜町,ミエケン,ヨッカイチシ,キタハマチョウ,三重県四日市市北浜町
5100092,三重県,四日市市,新町,ミエケン,ヨッカイチシ,シンチョウ,三重県四日市市新町
5100093,三重県,四日市市,本町,ミエケン,ヨッカイチシ,ホンマチ,三重県四日市市本町
5100094,三重県,四日市市,新々町,ミエケン,ヨッカイチシ,シンシンマチ,三重県四日市市新々町
5100095,三重県,四日市市,元新町,ミエケン,ヨッカイチシ,モトシンマチ,三重県四日市市元新町
5100096,三重県,四日市市,中町,ミエケン,ヨッカイチシ,ナカマチ,三重県四日市市中町
5100097,三重県,四日市市,八幡町,ミエケン,ヨッカイチシ,ハチマンチョウ,三重県四日市市八幡町
5100098,三重県,四日市市,北条町,ミエケン,ヨッカイチシ,キタジョウマチ,三重県四日市市北条町
5100101,三重県,四日市市,楠町小倉,ミエケン,ヨッカイチシ,クスチョウオグラ,三重県四日市市楠町小倉
5100102,三重県,四日市市,楠町吉崎,ミエケン,ヨッカイチシ,クスチョウヨシザキ,三重県四日市市楠町吉崎
5100103,三重県,四日市市,楠町北五味塚,ミエケン,ヨッカイチシ,クスチョウキタゴミヅカ,三重県四日市市楠町北五味塚
5100104,三重県,四日市市,楠町南五味塚,ミエケン,ヨッカイチシ,クスチョウミナミゴミヅカ,三重県四日市市楠町南五味塚
5100105,三重県,四日市市,楠町南川,ミエケン,ヨッカイチシ,クスチョウミナミガワ,三重県四日市市楠町南川
5100106,三重県,四日市市,楠町本郷,ミエケン,ヨッカイチシ,クスチョウホンゴウ,三重県四日市市楠町本郷
5100107,三重県,四日市市,楠町北一色,ミエケン,ヨッカイチシ,クスチョウキタイッシキ,三重県四日市市楠町北一色
5100201,三重県,鈴鹿市,稲生町,ミエケン,スズカシ,イノウチョウ,三重県鈴鹿市稲生町
5100202,三重県,鈴鹿市,野町,ミエケン,スズカシ,ノマチ,三重県鈴鹿市野町
5100203,三重県,鈴鹿市,野村町,ミエケン,スズカシ,ノムラチョウ,三重県鈴鹿市野村町
5100204,三重県,鈴鹿市,稲生西,ミエケン,スズカシ,イノウニシ,三重県鈴鹿市稲生西
5100205,三重県,鈴鹿市,稲生,ミエケン,スズカシ,イノウ,三重県鈴鹿市稲生
5100206,三重県,鈴鹿市,稲生こがね園,ミエケン,スズカシ,イノウコガネエン,三重県鈴鹿市稲生こがね園
5100207,三重県,鈴鹿市,稲生塩屋,ミエケン,スズカシ,イノウシオヤ,三重県鈴鹿市稲生塩屋
5100208,三重県,鈴鹿市,鈴鹿ハイツ,ミエケン,スズカシ,スズカハイツ,三重県鈴鹿市鈴鹿ハイツ
5100211,三重県,鈴鹿市,東旭が丘,ミエケン,スズカシ,ヒガシアサヒガオカ,三重県鈴鹿市東旭が丘
5100212,三重県,鈴鹿市,中旭が丘,ミエケン,スズカシ,ナカアサヒガオカ,三重県鈴鹿市中旭が丘
5100213,三重県,鈴鹿市,南旭が丘,ミエケン,スズカシ,ミナミアサヒガオカ,三重県鈴鹿市南旭が丘
5100216,三重県,鈴鹿市,野町中,ミエケン,スズカシ,ノマチナカ,三重県鈴鹿市野町中
5100217,三重県,鈴鹿市,野町東,ミエケン,スズカシ,ノマチヒガシ,三重県鈴鹿市野町東
5100218,三重県,鈴鹿市,野町西,ミエケン,スズカシ,ノマチニシ,三重県鈴鹿市野町西
5100219,三重県,鈴鹿市,野町南,ミエケン,スズカシ,ノマチミナミ,三重県鈴鹿市野町南
5100221,三重県,鈴鹿市,北若松町,ミエケン,スズカシ,キタワカマツチョウ,三重県鈴鹿市北若松町
5100222,三重県,鈴鹿市,若松西,ミエケン,スズカシ,ワカマツニシ,三重県鈴鹿市若松西
5100223,三重県,鈴鹿市,若松北,ミエケン,スズカシ,ワカマツキタ,三重県鈴鹿市若松北
5100224,三重県,鈴鹿市,若松中,ミエケン,スズカシ,ワカマツナカ,三重県鈴鹿市若松中
5100225,三重県,鈴鹿市,若松東,ミエケン,スズカシ,ワカマツヒガシ,三重県鈴鹿市若松東
5100226,三重県,鈴鹿市,岸岡町,ミエケン,スズカシ,キシオカチョウ,三重県鈴鹿市岸岡町
5100227,三重県,鈴鹿市,南若松町,ミエケン,スズカシ,ミナミワカマツチョウ,三重県鈴鹿市南若松町
5100231,三重県,鈴鹿市,江島台,ミエケン,スズカシ,エジマダイ,三重県鈴鹿市江島台
5100232,三重県,鈴鹿市,北江島町,ミエケン,スズカシ,キタエジマチョウ,三重県鈴鹿市北江島町
5100233,三重県,鈴鹿市,東江島町,ミエケン,スズカシ,ヒガシエジマチョウ,三重県鈴鹿市東江島町
5100234,三重県,鈴鹿市,江島本町,ミエケン,スズカシ,エジマホンマチ,三重県鈴鹿市江島本町
5100235,三重県,鈴鹿市,南江島町,ミエケン,スズカシ,ミナミエジマチョウ,三重県鈴鹿市南江島町
5100236,三重県,鈴鹿市,中江島町,ミエケン,スズカシ,ナカエジマチョウ,三重県鈴鹿市中江島町
5100237,三重県,鈴鹿市,江島町,ミエケン,スズカシ,エジマチョウ,三重県鈴鹿市江島町
5100241,三重県,鈴鹿市,白子駅前,ミエケン,スズカシ,シロコエキマエ,三重県鈴鹿市白子駅前
5100242,三重県,鈴鹿市,白子本町,ミエケン,スズカシ,シロコホンマチ,三重県鈴鹿市白子本町
5100243,三重県,鈴鹿市,白子,ミエケン,スズカシ,シロコ,三重県鈴鹿市白子
5100244,三重県,鈴鹿市,白子町,ミエケン,スズカシ,シロコチョウ,三重県鈴鹿市白子町
5100251,三重県,鈴鹿市,徳田町,ミエケン,スズカシ,トクダチョウ,三重県鈴鹿市徳田町
5100252,三重県,鈴鹿市,五祝町,ミエケン,スズカシ,イワイチョウ,三重県鈴鹿市五祝町
5100253,三重県,鈴鹿市,寺家町,ミエケン,スズカシ,ジケチョウ,三重県鈴鹿市寺家町
5100254,三重県,鈴鹿市,寺家,ミエケン,スズカシ,ジケ,三重県鈴鹿市寺家
5100255,三重県,鈴鹿市,磯山町,ミエケン,スズカシ,イソヤマチョウ,三重県鈴鹿市磯山町
5100256,三重県,鈴鹿市,磯山,ミエケン,スズカシ,イソヤマ,三重県鈴鹿市磯山
5100257,三重県,鈴鹿市,東磯山,ミエケン,スズカシ,ヒガシイソヤマ,三重県鈴鹿市東磯山
5100258,三重県,鈴鹿市,秋永町,ミエケン,スズカシ,アキナガチョウ,三重県鈴鹿市秋永町
5100259,三重県,鈴鹿市,中瀬古町,ミエケン,スズカシ,ナカゼコチョウ,三重県鈴鹿市中瀬古町
5100261,三重県,鈴鹿市,御薗町,ミエケン,スズカシ,ミソノチョウ,三重県鈴鹿市御薗町
5100262,三重県,鈴鹿市,越知町,ミエケン,スズカシ,オウチチョウ,三重県鈴鹿市越知町
5100263,三重県,鈴鹿市,郡山町,ミエケン,スズカシ,コオリヤマチョウ,三重県鈴鹿市郡山町
5100264,三重県,鈴鹿市,徳居町,ミエケン,スズカシ,トクスイチョウ,三重県鈴鹿市徳居町
5100265,三重県,鈴鹿市,三宅町,ミエケン,スズカシ,ミヤケチョウ,三重県鈴鹿市三宅町
5100266,三重県,鈴鹿市,長法寺町,ミエケン,スズカシ,チョウボウジチョウ,三重県鈴鹿市長法寺町
5100301,三重県,津市,河芸町西千里,ミエケン,ツシ,カワゲチョウニシチサト,三重県津市河芸町西千里
5100302,三重県,津市,河芸町千里ケ丘,ミエケン,ツシ,カワゲチョウチサトガオカ,三重県津市河芸町千里ケ丘
5100303,三重県,津市,河芸町東千里,ミエケン,ツシ,カワゲチョウヒガシチサト,三重県津市河芸町東千里
5100304,三重県,津市,河芸町上野,ミエケン,ツシ,カワゲチョウウエノ,三重県津市河芸町上野
5100305,三重県,津市,河芸町中別保,ミエケン,ツシ,カワゲチョウナカベッポ,三重県津市河芸町中別保
5100306,三重県,津市,河芸町一色,ミエケン,ツシ,カワゲチョウイッシキ,三重県津市河芸町一色
5100307,三重県,津市,河芸町影重,ミエケン,ツシ,カワゲチョウカゲシゲ,三重県津市河芸町影重
5100308,三重県,津市,河芸町中瀬,ミエケン,ツシ,カワゲチョウナカゼ,三重県津市河芸町中瀬
5100311,三重県,津市,河芸町三行,ミエケン,ツシ,カワゲチョウミユキ,三重県津市河芸町三行
5100312,三重県,津市,河芸町久知野,ミエケン,ツシ,カワゲチョウクチノ,三重県津市河芸町久知野
5100313,三重県,津市,河芸町赤部,ミエケン,ツシ,カワゲチョウアカブ,三重県津市河芸町赤部
5100314,三重県,津市,河芸町浜田,ミエケン,ツシ,カワゲチョウハマダ,三重県津市河芸町浜田
5100315,三重県,津市,河芸町高佐,ミエケン,ツシ,カワゲチョウタカサ,三重県津市河芸町高佐
5100316,三重県,津市,河芸町南黒田,ミエケン,ツシ,カワゲチョウミナミクロダ,三重県津市河芸町南黒田
5100317,三重県,津市,河芸町北黒田,ミエケン,ツシ,カワゲチョウキタクロダ,三重県津市河芸町北黒田
5100318,三重県,津市,河芸町杜の街,ミエケン,ツシ,カワゲチョウモリノマチ,三重県津市河芸町杜の街
5100801,三重県,四日市市,三ツ谷東町,ミエケン,ヨッカイチシ,ミツヤヒガシマチ,三重県四日市市三ツ谷東町
5100802,三重県,四日市市,三ツ谷町,ミエケン,ヨッカイチシ,ミツヤチョウ,三重県四日市市三ツ谷町
5100803,三重県,四日市市,阿倉川町,ミエケン,ヨッカイチシ,アクラガワチョウ,三重県四日市市阿倉川町
5100804,三重県,四日市市,万古町,ミエケン,ヨッカイチシ,バンコチョウ,三重県四日市市万古町
5100805,三重県,四日市市,東阿倉川,ミエケン,ヨッカイチシ,ヒガシアクラガワ,三重県四日市市東阿倉川
5100806,三重県,四日市市,本郷町,ミエケン,ヨッカイチシ,ホンゴウチョウ,三重県四日市市本郷町
5100807,三重県,四日市市,末永町,ミエケン,ヨッカイチシ,スエナガチョウ,三重県四日市市末永町
5100810,三重県,四日市市,阿倉川新町,ミエケン,ヨッカイチシ,アクラガワシンマチ,三重県四日市市阿倉川新町
5100811,三重県,四日市市,みゆきケ丘,ミエケン,ヨッカイチシ,ミユキガオカ,三重県四日市市みゆきケ丘
5100812,三重県,四日市市,西阿倉川,ミエケン,ヨッカイチシ,ニシアクラガワ,三重県四日市市西阿倉川
5100813,三重県,四日市市,末永,ミエケン,ヨッカイチシ,スエナガ,三重県四日市市末永
5100814,三重県,四日市市,清水町,ミエケン,ヨッカイチシ,シミズチョウ,三重県四日市市清水町
5100815,三重県,四日市市,野田,ミエケン,ヨッカイチシ,ノダ,三重県四日市市野田
5100821,三重県,四日市市,久保田,ミエケン,ヨッカイチシ,クボタ,三重県四日市市久保田
5100822,三重県,四日市市,芝田,ミエケン,ヨッカイチシ,シバタ,三重県四日市市芝田
5100823,三重県,四日市市,城北町,ミエケン,ヨッカイチシ,シロキタチョウ,三重県四日市市城北町
5100824,三重県,四日市市,城東町,ミエケン,ヨッカイチシ,シロヒガシマチ,三重県四日市市城東町
5100825,三重県,四日市市,赤堀新町,ミエケン,ヨッカイチシ,アカホリシンマチ,三重県四日市市赤堀新町
5100826,三重県,四日市市,赤堀,ミエケン,ヨッカイチシ,アカホリ,三重県四日市市赤堀
5100827,三重県,四日市市,赤堀南町,ミエケン,ヨッカイチシ,アカホリミナミマチ,三重県四日市市赤堀南町
5100828,三重県,四日市市,石塚町,ミエケン,ヨッカイチシ,イシヅカチョウ,三重県四日市市石塚町
5100829,三重県,四日市市,城西町,ミエケン,ヨッカイチシ,シロニシチョウ,三重県四日市市城西町
5100831,三重県,四日市市,西伊倉町,ミエケン,ヨッカイチシ,ニシイグラチョウ,三重県四日市市西伊倉町
5100832,三重県,四日市市,伊倉,ミエケン,ヨッカイチシ,イグラ,三重県四日市市伊倉
5100833,三重県,四日市市,中川原,ミエケン,ヨッカイチシ,ナカガワラ,三重県四日市市中川原
5100834,三重県,四日市市,ときわ,ミエケン,ヨッカイチシ,トキワ,三重県四日市市ときわ
5100835,三重県,四日市市,大井手,ミエケン,ヨッカイチシ,オオイデ,三重県四日市市大井手
5100836,三重県,四日市市,松本,ミエケン,ヨッカイチシ,マツモト,三重県四日市市松本
5100837,三重県,四日市市,西松本町,ミエケン,ヨッカイチシ,ニシマツモトチョウ,三重県四日市市西松本町
5100838,三重県,四日市市,南松本町,ミエケン,ヨッカイチシ,ミナミマツモトチョウ,三重県四日市市南松本町
5100839,三重県,四日市市,青葉町,ミエケン,ヨッカイチシ,アオバチョウ,三重県四日市市青葉町
5100841,三重県,四日市市,三田町,ミエケン,ヨッカイチシ,ミタチョウ,三重県四日市市三田町
5100842,三重県,四日市市,石原町,ミエケン,ヨッカイチシ,イシハラチョウ,三重県四日市市石原町
5100843,三重県,四日市市,宮東町,ミエケン,ヨッカイチシ,ミヤヒガシチョウ,三重県四日市市宮東町
5100844,三重県,四日市市,宝町,ミエケン,ヨッカイチシ,タカラマチ,三重県四日市市宝町
5100845,三重県,四日市市,海山道町,ミエケン,ヨッカイチシ,ミヤマドチョウ,三重県四日市市海山道町
5100846,三重県,四日市市,大井の川町,ミエケン,ヨッカイチシ,オオイノカワチョウ,三重県四日市市大井の川町
5100847,三重県,四日市市,大浜町,ミエケン,ヨッカイチシ,オオハマチョウ,三重県四日市市大浜町
5100848,三重県,四日市市,東邦町,ミエケン,ヨッカイチシ,トウホウチョウ,三重県四日市市東邦町
5100851,三重県,四日市市,塩浜町,ミエケン,ヨッカイチシ,シオハマチョウ,三重県四日市市塩浜町
5100852,三重県,四日市市,浜旭町,ミエケン,ヨッカイチシ,ハマアサヒチョウ,三重県四日市市浜旭町
5100853,三重県,四日市市,川合町,ミエケン,ヨッカイチシ,カワイチョウ,三重県四日市市川合町
5100854,三重県,四日市市,塩浜本町,ミエケン,ヨッカイチシ,シオハマホンマチ,三重県四日市市塩浜本町
5100855,三重県,四日市市,馳出町,ミエケン,ヨッカイチシ,ハセダシチョウ,三重県四日市市馳出町
5100856,三重県,四日市市,七つ屋町,ミエケン,ヨッカイチシ,ナナツヤチョウ,三重県四日市市七つ屋町
5100857,三重県,四日市市,高旭町,ミエケン,ヨッカイチシ,タカアサヒチョウ,三重県四日市市高旭町
5100861,三重県,四日市市,柳町,ミエケン,ヨッカイチシ,ヤナギマチ,三重県四日市市柳町
5100862,三重県,四日市市,御薗町,ミエケン,ヨッカイチシ,ミソノチョウ,三重県四日市市御薗町
5100863,三重県,四日市市,塩浜,ミエケン,ヨッカイチシ,シオハマ,三重県四日市市塩浜
5100863,三重県,四日市市,塩浜栄町,ミエケン,ヨッカイチシ,シオハマサカエマチ,三重県四日市市塩浜栄町
5100863,三重県,四日市市,大里町,ミエケン,ヨッカイチシ,オオザトチョウ,三重県四日市市大里町
5100863,三重県,四日市市,磯津,ミエケン,ヨッカイチシ,イソヅ,三重県四日市市磯津
5100864,三重県,四日市市,中里町,ミエケン,ヨッカイチシ,ナカザトチョウ,三重県四日市市中里町
5100865,三重県,四日市市,小浜町,ミエケン,ヨッカイチシ,コハマチョウ,三重県四日市市小浜町
5100866,三重県,四日市市,大池町,ミエケン,ヨッカイチシ,オオイケチョウ,三重県四日市市大池町
5100867,三重県,四日市市,松泉町,ミエケン,ヨッカイチシ,ショウセンチョウ,三重県四日市市松泉町
5100868,三重県,四日市市,馳出,ミエケン,ヨッカイチシ,ハセダシ,三重県四日市市馳出
5100871,三重県,四日市市,川尻町,ミエケン,ヨッカイチシ,カワジリチョウ,三重県四日市市川尻町
5100872,三重県,四日市市,内堀町,ミエケン,ヨッカイチシ,ウツボリチョウ,三重県四日市市内堀町
5100873,三重県,四日市市,貝塚町,ミエケン,ヨッカイチシ,カイヅカチョウ,三重県四日市市貝塚町
5100874,三重県,四日市市,河原田町,ミエケン,ヨッカイチシ,カワラダチョウ,三重県四日市市河原田町
5100875,三重県,四日市市,大治田,ミエケン,ヨッカイチシ,オバタ,三重県四日市市大治田
5100881,三重県,四日市市,六呂見,ミエケン,ヨッカイチシ,ロクロミ,三重県四日市市六呂見
5100882,三重県,四日市市,追分,ミエケン,ヨッカイチシ,オイワケ,三重県四日市市追分
5100883,三重県,四日市市,泊小柳町,ミエケン,ヨッカイチシ,トマリコヤナギチョウ,三重県四日市市泊小柳町
5100884,三重県,四日市市,泊町,ミエケン,ヨッカイチシ,トマリチョウ,三重県四日市市泊町
5100885,三重県,四日市市,日永,ミエケン,ヨッカイチシ,ヒナガ,三重県四日市市日永
5100886,三重県,四日市市,日永東,ミエケン,ヨッカイチシ,ヒナガヒガシ,三重県四日市市日永東
5100891,三重県,四日市市,日永西,ミエケン,ヨッカイチシ,ヒナガニシ,三重県四日市市日永西
5100892,三重県,四日市市,泊山崎町,ミエケン,ヨッカイチシ,トマリヤマザキチョウ,三重県四日市市泊山崎町
5100893,三重県,四日市市,前田町,ミエケン,ヨッカイチシ,マエダチョウ,三重県四日市市前田町
5100894,三重県,四日市市,泊村,ミエケン,ヨッカイチシ,トマリムラ,三重県四日市市泊村
5100941,三重県,四日市市,東日野,ミエケン,ヨッカイチシ,ヒガシヒノ,三重県四日市市東日野
5100942,三重県,四日市市,東日野町,ミエケン,ヨッカイチシ,ヒガシヒノチョウ,三重県四日市市東日野町
5100943,三重県,四日市市,西日野町,ミエケン,ヨッカイチシ,ニシヒノチョウ,三重県四日市市西日野町
5100944,三重県,四日市市,笹川,ミエケン,ヨッカイチシ,ササガワ,三重県四日市市笹川
5100945,三重県,四日市市,高花平,ミエケン,ヨッカイチシ,タカハナダイラ,三重県四日市市高花平
5100946,三重県,四日市市,小林町,ミエケン,ヨッカイチシ,コバヤシチョウ,三重県四日市市小林町
5100947,三重県,四日市市,八王子町,ミエケン,ヨッカイチシ,ハチオウジチョウ,三重県四日市市八王子町
5100948,三重県,四日市市,室山町,ミエケン,ヨッカイチシ,ムロヤマチョウ,三重県四日市市室山町
5100951,三重県,四日市市,小古曽東,ミエケン,ヨッカイチシ,オゴソヒガシ,三重県四日市市小古曽東
5100952,三重県,四日市市,小古曽町,ミエケン,ヨッカイチシ,オゴソチョウ,三重県四日市市小古曽町
5100953,三重県,四日市市,釆女が丘,ミエケン,ヨッカイチシ,ウネメガオカ,三重県四日市市釆女が丘
5100954,三重県,四日市市,釆女町,ミエケン,ヨッカイチシ,ウネメチョウ,三重県四日市市釆女町
5100955,三重県,四日市市,北小松町,ミエケン,ヨッカイチシ,キタコマツチョウ,三重県四日市市北小松町
5100956,三重県,四日市市,貝家町,ミエケン,ヨッカイチシ,カイゲチョウ,三重県四日市市貝家町
5100957,三重県,四日市市,森カ山町,ミエケン,ヨッカイチシ,モリガヤマチョウ,三重県四日市市森カ山町
5100958,三重県,四日市市,小古曽,ミエケン,ヨッカイチシ,オゴソ,三重県四日市市小古曽
5100961,三重県,四日市市,波木町,ミエケン,ヨッカイチシ,ハギチョウ,三重県四日市市波木町
5100962,三重県,四日市市,波木が丘町,ミエケン,ヨッカイチシ,ハギガオカチョウ,三重県四日市市波木が丘町
5100963,三重県,四日市市,波木南台,ミエケン,ヨッカイチシ,ハギミナミダイ,三重県四日市市波木南台
5100971,三重県,四日市市,南小松町,ミエケン,ヨッカイチシ,ミナミコマツチョウ,三重県四日市市南小松町
5101200,三重県,三重郡菰野町,,ミエケン,ミエグンコモノチョウ,,三重県三重郡菰野町
5101221,三重県,三重郡菰野町,池底,ミエケン,ミエグンコモノチョウ,イケゾコ,三重県三重郡菰野町池底
5101222,三重県,三重郡菰野町,大強原,ミエケン,ミエグンコモノチョウ,オオゴハラ,三重県三重郡菰野町大強原
5101223,三重県,三重郡菰野町,諏訪,ミエケン,ミエグンコモノチョウ,スワ,三重県三重郡菰野町諏訪
5101224,三重県,三重郡菰野町,川北,ミエケン,ミエグンコモノチョウ,カワキタ,三重県三重郡菰野町川北
5101225,三重県,三重郡菰野町,下村,ミエケン,ミエグンコモノチョウ,シモムラ,三重県三重郡菰野町下村
5101226,三重県,三重郡菰野町,吉沢,ミエケン,ミエグンコモノチョウ,ヨシザワ,三重県三重郡菰野町吉沢
5101231,三重県,三重郡菰野町,神森,ミエケン,ミエグンコモノチョウ,カモリ,三重県三重郡菰野町神森
5101232,三重県,三重郡菰野町,宿野,ミエケン,ミエグンコモノチョウ,シュクノ,三重県三重郡菰野町宿野
5101233,三重県,三重郡菰野町,菰野,ミエケン,ミエグンコモノチョウ,コモノ,三重県三重郡菰野町菰野
5101234,三重県,三重郡菰野町,福村,ミエケン,ミエグンコモノチョウ,フクムラ,三重県三重郡菰野町福村
5101235,三重県,三重郡菰野町,宝永台,ミエケン,ミエグンコモノチョウ,ホウエイダイ,三重県三重郡菰野町宝永台
5101236,三重県,三重郡菰野町,初若の郷,ミエケン,ミエグンコモノチョウ,ハツワカノサト,三重県三重郡菰野町初若の郷
5101241,三重県,三重郡菰野町,大羽根園新林町,ミエケン,ミエグンコモノチョウ,オオバネエンシンバヤシチョウ,三重県三重郡菰野町大羽根園新林町
5101242,三重県,三重郡菰野町,大羽根園柴垣町,ミエケン,ミエグンコモノチョウ,オオバネエンシバガキチョウ,三重県三重郡菰野町大羽根園柴垣町
5101243,三重県,三重郡菰野町,大羽根園呉竹町,ミエケン,ミエグンコモノチョウ,オオバネエンクレタケチョウ,三重県三重郡菰野町大羽根園呉竹町
5101244,三重県,三重郡菰野町,大羽根園並木通,ミエケン,ミエグンコモノチョウ,オオバネエンナミキドオリ,三重県三重郡菰野町大羽根園並木通
5101245,三重県,三重郡菰野町,大羽根園松ケ枝町,ミエケン,ミエグンコモノチョウ,オオバネエンマツガエチョウ,三重県三重郡菰野町大羽根園松ケ枝町
5101246,三重県,三重郡菰野町,大羽根園青葉町,ミエケン,ミエグンコモノチョウ,オオバネエンアオバチョウ,三重県三重郡菰野町大羽根園青葉町
5101251,三重県,三重郡菰野町,千草,ミエケン,ミエグンコモノチョウ,チクサ,三重県三重郡菰野町千草
5101252,三重県,三重郡菰野町,音羽,ミエケン,ミエグンコモノチョウ,オトワ,三重県三重郡菰野町音羽
5101253,三重県,三重郡菰野町,潤田,ミエケン,ミエグンコモノチョウ,ウルダ,三重県三重郡菰野町潤田
5101311,三重県,三重郡菰野町,永井,ミエケン,ミエグンコモノチョウ,ナガイ,三重県三重郡菰野町永井
5101312,三重県,三重郡菰野町,竹成,ミエケン,ミエグンコモノチョウ,タケナリ,三重県三重郡菰野町竹成
5101321,三重県,三重郡菰野町,田口,ミエケン,ミエグンコモノチョウ,タグチ,三重県三重郡菰野町田口
5101322,三重県,三重郡菰野町,田口新田,ミエケン,ミエグンコモノチョウ,タグチシンデン,三重県三重郡菰野町田口新田
5101323,三重県,三重郡菰野町,小島,ミエケン,ミエグンコモノチョウ,オジマ,三重県三重郡菰野町小島
5101324,三重県,三重郡菰野町,田光,ミエケン,ミエグンコモノチョウ,タビカ,三重県三重郡菰野町田光
5101325,三重県,三重郡菰野町,榊,ミエケン,ミエグンコモノチョウ,サカキ,三重県三重郡菰野町榊
5101326,三重県,三重郡菰野町,杉谷,ミエケン,ミエグンコモノチョウ,スギタニ,三重県三重郡菰野町杉谷
5101327,三重県,三重郡菰野町,根の平,ミエケン,ミエグンコモノチョウ,ネノヒラ,三重県三重郡菰野町根の平
5101328,三重県,三重郡菰野町,切畑,ミエケン,ミエグンコモノチョウ,キリハタ,三重県三重郡菰野町切畑
5108001,三重県,四日市市,天カ須賀,ミエケン,ヨッカイチシ,アマガスカ,三重県四日市市天カ須賀
5108002,三重県,四日市市,天カ須賀新町,ミエケン,ヨッカイチシ,アマガスカシンマチ,三重県四日市市天カ須賀新町
5108003,三重県,四日市市,住吉町,ミエケン,ヨッカイチシ,スミヨシチョウ,三重県四日市市住吉町
5108004,三重県,四日市市,富田一色町,ミエケン,ヨッカイチシ,トミダイッシキチョウ,三重県四日市市富田一色町
5108005,三重県,四日市市,富双,ミエケン,ヨッカイチシ,フソウ,三重県四日市市富双
5108006,三重県,四日市市,東富田町,ミエケン,ヨッカイチシ,ヒガシトミダチョウ,三重県四日市市東富田町
5108007,三重県,四日市市,富田浜元町,ミエケン,ヨッカイチシ,トミダハマモトチョウ,三重県四日市市富田浜元町
5108008,三重県,四日市市,富田浜町,ミエケン,ヨッカイチシ,トミダハマチョウ,三重県四日市市富田浜町
5108009,三重県,四日市市,浜園町,ミエケン,ヨッカイチシ,ハマゾノチョウ,三重県四日市市浜園町
5108011,三重県,四日市市,東茂福町,ミエケン,ヨッカイチシ,ヒガシモチブクチョウ,三重県四日市市東茂福町
5108012,三重県,四日市市,茂福町,ミエケン,ヨッカイチシ,モチブクチョウ,三重県四日市市茂福町
5108013,三重県,四日市市,南富田町,ミエケン,ヨッカイチシ,ミナミトミダチョウ,三重県四日市市南富田町
5108014,三重県,四日市市,富田,ミエケン,ヨッカイチシ,トミダ,三重県四日市市富田
5108015,三重県,四日市市,松原町,ミエケン,ヨッカイチシ,マツバラチョウ,三重県四日市市松原町
5108016,三重県,四日市市,富州原町,ミエケン,ヨッカイチシ,トミスハラチョウ,三重県四日市市富州原町
5108017,三重県,四日市市,平町,ミエケン,ヨッカイチシ,タイラマチ,三重県四日市市平町
5108021,三重県,四日市市,松寺,ミエケン,ヨッカイチシ,マツテラ,三重県四日市市松寺
5108022,三重県,四日市市,蒔田,ミエケン,ヨッカイチシ,マキタ,三重県四日市市蒔田
5108023,三重県,四日市市,西富田,ミエケン,ヨッカイチシ,ニシトミダ,三重県四日市市西富田
5108024,三重県,四日市市,西富田町,ミエケン,ヨッカイチシ,ニシトミダチョウ,三重県四日市市西富田町
5108025,三重県,四日市市,富田栄町,ミエケン,ヨッカイチシ,トミダサカエマチ,三重県四日市市富田栄町
5108026,三重県,四日市市,十志町,ミエケン,ヨッカイチシ,ジュウシチョウ,三重県四日市市十志町
5108027,三重県,四日市市,茂福,ミエケン,ヨッカイチシ,モチブク,三重県四日市市茂福
5108028,三重県,四日市市,下之宮町,ミエケン,ヨッカイチシ,シモノミヤチョウ,三重県四日市市下之宮町
5108031,三重県,四日市市,川北,ミエケン,ヨッカイチシ,カワキタ,三重県四日市市川北
5108032,三重県,四日市市,川北町,ミエケン,ヨッカイチシ,カワキタチョウ,三重県四日市市川北町
5108033,三重県,四日市市,下さざらい町,ミエケン,ヨッカイチシ,シモサザライチョウ,三重県四日市市下さざらい町
5108034,三重県,四日市市,大矢知町,ミエケン,ヨッカイチシ,オオヤチチョウ,三重県四日市市大矢知町
5108035,三重県,四日市市,東垂坂町,ミエケン,ヨッカイチシ,ヒガシタルサカチョウ,三重県四日市市東垂坂町
5108036,三重県,四日市市,南垂坂町,ミエケン,ヨッカイチシ,ミナミタルサカチョウ,三重県四日市市南垂坂町
5108037,三重県,四日市市,垂坂町,ミエケン,ヨッカイチシ,タルサカチョウ,三重県四日市市垂坂町
5108038,三重県,四日市市,垂坂新町,ミエケン,ヨッカイチシ,タルサカシンマチ,三重県四日市市垂坂新町
5108039,三重県,四日市市,大矢知新町,ミエケン,ヨッカイチシ,オオヤチシンマチ,三重県四日市市大矢知新町
5108101,三重県,三重郡朝日町,縄生,ミエケン,ミエグンアサヒチョウ,ナオ,三重県三重郡朝日町縄生
5108102,三重県,三重郡朝日町,小向,ミエケン,ミエグンアサヒチョウ,オブケ,三重県三重郡朝日町小向
5108103,三重県,三重郡朝日町,柿,ミエケン,ミエグンアサヒチョウ,カキ,三重県三重郡朝日町柿
5108104,三重県,三重郡朝日町,埋縄,ミエケン,ミエグンアサヒチョウ,ウズナワ,三重県三重郡朝日町埋縄
5108105,三重県,三重郡朝日町,向陽台,ミエケン,ミエグンアサヒチョウ,コウヨウダイ,三重県三重郡朝日町向陽台
5108106,三重県,三重郡朝日町,白梅の丘東,ミエケン,ミエグンアサヒチョウ,シラウメノオカヒガシ,三重県三重郡朝日町白梅の丘東
5108107,三重県,三重郡朝日町,白梅の丘西,ミエケン,ミエグンアサヒチョウ,シラウメノオカニシ,三重県三重郡朝日町白梅の丘西
5108111,三重県,三重郡川越町,当新田,ミエケン,ミエグンカワゴエチョウ,トウシンデン,三重県三重郡川越町当新田
5108112,三重県,三重郡川越町,亀須新田,ミエケン,ミエグンカワゴエチョウ,カメズシンデン,三重県三重郡川越町亀須新田
5108113,三重県,三重郡川越町,亀尾新田,ミエケン,ミエグンカワゴエチョウ,カメオシンデン,三重県三重郡川越町亀尾新田
5108114,三重県,三重郡川越町,亀崎新田,ミエケン,ミエグンカワゴエチョウ,カメザキシンデン,三重県三重郡川越町亀崎新田
5108121,三重県,三重郡川越町,高松,ミエケン,ミエグンカワゴエチョウ,タカマツ,三重県三重郡川越町高松
5108122,三重県,三重郡川越町,豊田,ミエケン,ミエグンカワゴエチョウ,トヨダ,三重県三重郡川越町豊田
5108123,三重県,三重郡川越町,豊田一色,ミエケン,ミエグンカワゴエチョウ,トヨダイッシキ,三重県三重郡川越町豊田一色
5108124,三重県,三重郡川越町,南福崎,ミエケン,ミエグンカワゴエチョウ,ミナミフクサキ,三重県三重郡川越町南福崎
5108125,三重県,三重郡川越町,北福崎,ミエケン,ミエグンカワゴエチョウ,キタフクサキ,三重県三重郡川越町北福崎
5110000,三重県,桑名市,,ミエケン,クワナシ,,三重県桑名市
5110001,三重県,桑名市,上之輪新田,ミエケン,クワナシ,カミノワシンデン,三重県桑名市上之輪新田
5110002,三重県,桑名市,福島,ミエケン,クワナシ,フクジマ,三重県桑名市福島
5110003,三重県,桑名市,東太一丸,ミエケン,クワナシ,ヒガシタイチマル,三重県桑名市東太一丸
5110004,三重県,桑名市,住吉町,ミエケン,クワナシ,スミヨシチョウ,三重県桑名市住吉町
5110005,三重県,桑名市,太一丸,ミエケン,クワナシ,タイチマル,三重県桑名市太一丸
5110006,三重県,桑名市,今北町,ミエケン,クワナシ,イマキタマチ,三重県桑名市今北町
5110007,三重県,桑名市,参宮通,ミエケン,クワナシ,サングウドオリ,三重県桑名市参宮通
5110008,三重県,桑名市,蓮見町,ミエケン,クワナシ,ハスミチョウ,三重県桑名市蓮見町
5110009,三重県,桑名市,桑名,ミエケン,クワナシ,クワナ,三重県桑名市桑名
5110011,三重県,桑名市,船馬町,ミエケン,クワナシ,センバチョウ,三重県桑名市船馬町
5110012,三重県,桑名市,春日町,ミエケン,クワナシ,カスガチョウ,三重県桑名市春日町
5110013,三重県,桑名市,宝殿町,ミエケン,クワナシ,ホウデンマチ,三重県桑名市宝殿町
5110014,三重県,桑名市,三崎通,ミエケン,クワナシ,ミサキドオリ,三重県桑名市三崎通
5110015,三重県,桑名市,殿町,ミエケン,クワナシ,トノマチ,三重県桑名市殿町
5110016,三重県,桑名市,相生町,ミエケン,クワナシ,アイオイチョウ,三重県桑名市相生町
5110017,三重県,桑名市,今片町,ミエケン,クワナシ,イマカタマチ,三重県桑名市今片町
5110018,三重県,桑名市,今中町,ミエケン,クワナシ,イマナカマチ,三重県桑名市今中町
5110019,三重県,桑名市,清水町,ミエケン,クワナシ,シミズチョウ,三重県桑名市清水町
5110021,三重県,桑名市,川口町,ミエケン,クワナシ,カワグチチョウ,三重県桑名市川口町
5110022,三重県,桑名市,江戸町,ミエケン,クワナシ,エドマチ,三重県桑名市江戸町
5110023,三重県,桑名市,本町,ミエケン,クワナシ,ホンマチ,三重県桑名市本町
5110024,三重県,桑名市,北魚町,ミエケン,クワナシ,キタウオマチ,三重県桑名市北魚町
5110025,三重県,桑名市,風呂町,ミエケン,クワナシ,フロマチ,三重県桑名市風呂町
5110026,三重県,桑名市,宮町,ミエケン,クワナシ,ミヤマチ,三重県桑名市宮町
5110027,三重県,桑名市,福島新町,ミエケン,クワナシ,フクジマシンマチ,三重県桑名市福島新町
5110031,三重県,桑名市,三之丸,ミエケン,クワナシ,サンノマル,三重県桑名市三之丸
5110032,三重県,桑名市,吉之丸,ミエケン,クワナシ,ヨシノマル,三重県桑名市吉之丸
5110033,三重県,桑名市,赤須賀,ミエケン,クワナシ,アカスカ,三重県桑名市赤須賀
5110034,三重県,桑名市,地蔵,ミエケン,クワナシ,ジゾウ,三重県桑名市地蔵
5110035,三重県,桑名市,東野,ミエケン,クワナシ,ヒガシノ,三重県桑名市東野
5110036,三重県,桑名市,伊賀町,ミエケン,クワナシ,イガマチ,三重県桑名市伊賀町
5110037,三重県,桑名市,元赤須賀,ミエケン,クワナシ,モトアカスカ,三重県桑名市元赤須賀
5110038,三重県,桑名市,内堀,ミエケン,クワナシ,ウチボリ,三重県桑名市内堀
5110039,三重県,桑名市,京町,ミエケン,クワナシ,キョウマチ,三重県桑名市京町
5110041,三重県,桑名市,外堀,ミエケン,クワナシ,ソトボリ,三重県桑名市外堀
5110042,三重県,桑名市,柳原,ミエケン,クワナシ,ヤナギハラ,三重県桑名市柳原
5110043,三重県,桑名市,新屋敷,ミエケン,クワナシ,シンヤシキ,三重県桑名市新屋敷
5110044,三重県,桑名市,萱町,ミエケン,クワナシ,カヤマチ,三重県桑名市萱町
5110045,三重県,桑名市,伝馬町,ミエケン,クワナシ,テンマチョウ,三重県桑名市伝馬町
5110046,三重県,桑名市,一色町,ミエケン,クワナシ,イッシキマチ,三重県桑名市一色町
5110047,三重県,桑名市,鍜冶町,ミエケン,クワナシ,カジマチ,三重県桑名市鍜冶町
5110048,三重県,桑名市,新町,ミエケン,クワナシ,シンマチ,三重県桑名市新町
5110049,三重県,桑名市,八幡町,ミエケン,クワナシ,ハチマンチョウ,三重県桑名市八幡町
5110051,三重県,桑名市,矢田磧,ミエケン,クワナシ,ヤダカワラ,三重県桑名市矢田磧
5110052,三重県,桑名市,相川町,ミエケン,クワナシ,アイカワチョウ,三重県桑名市相川町
5110053,三重県,桑名市,東鍋屋町,ミエケン,クワナシ,ヒガシナベヤマチ,三重県桑名市東鍋屋町
5110054,三重県,桑名市,西鍋屋町,ミエケン,クワナシ,ニシナベヤマチ,三重県桑名市西鍋屋町
5110055,三重県,桑名市,東矢田町,ミエケン,クワナシ,ヒガシヤダマチ,三重県桑名市東矢田町
5110056,三重県,桑名市,西矢田町,ミエケン,クワナシ,ニシヤダマチ,三重県桑名市西矢田町
5110057,三重県,桑名市,三ツ矢橋,ミエケン,クワナシ,ミツヤバシ,三重県桑名市三ツ矢橋
5110058,三重県,桑名市,千代田町,ミエケン,クワナシ,チヨダチョウ,三重県桑名市千代田町
5110061,三重県,桑名市,寿町,ミエケン,クワナシ,コトブキチョウ,三重県桑名市寿町
5110062,三重県,桑名市,常盤町,ミエケン,クワナシ,トキワチョウ,三重県桑名市常盤町
5110063,三重県,桑名市,京橋町,ミエケン,クワナシ,キョウバシチョウ,三重県桑名市京橋町
5110064,三重県,桑名市,新築町,ミエケン,クワナシ,シンチクチョウ,三重県桑名市新築町
5110065,三重県,桑名市,大央町,ミエケン,クワナシ,ダイオウチョウ,三重県桑名市大央町
5110066,三重県,桑名市,北鍋屋町,ミエケン,クワナシ,キタナベヤマチ,三重県桑名市北鍋屋町
5110067,三重県,桑名市,掛樋,ミエケン,クワナシ,カケヒ,三重県桑名市掛樋
5110068,三重県,桑名市,中央町,ミエケン,クワナシ,チュウオウチョウ,三重県桑名市中央町
5110069,三重県,桑名市,新矢田,ミエケン,クワナシ,シンヤダ,三重県桑名市新矢田
5110071,三重県,桑名市,駅元町,ミエケン,クワナシ,エキモトチョウ,三重県桑名市駅元町
5110072,三重県,桑名市,堤原,ミエケン,クワナシ,ツツミハラ,三重県桑名市堤原
5110073,三重県,桑名市,北寺町,ミエケン,クワナシ,キタテラマチ,三重県桑名市北寺町
5110074,三重県,桑名市,南寺町,ミエケン,クワナシ,ミナミテラマチ,三重県桑名市南寺町
5110075,三重県,桑名市,三栄町,ミエケン,クワナシ,サンエイチョウ,三重県桑名市三栄町
5110076,三重県,桑名市,八間通,ミエケン,クワナシ,ハチケンドオリ,三重県桑名市八間通
5110077,三重県,桑名市,末広町,ミエケン,クワナシ,スエヒロチョウ,三重県桑名市末広町
5110078,三重県,桑名市,桑栄町,ミエケン,クワナシ,ソウエイチョウ,三重県桑名市桑栄町
5110079,三重県,桑名市,有楽町,ミエケン,クワナシ,ユウラクチョウ,三重県桑名市有楽町
5110081,三重県,桑名市,片町,ミエケン,クワナシ,カタマチ,三重県桑名市片町
5110082,三重県,桑名市,宮通,ミエケン,クワナシ,ミヤドオリ,三重県桑名市宮通
5110083,三重県,桑名市,職人町,ミエケン,クワナシ,ショクニンマチ,三重県桑名市職人町
5110084,三重県,桑名市,油町,ミエケン,クワナシ,アブラマチ,三重県桑名市油町
5110085,三重県,桑名市,紺屋町,ミエケン,クワナシ,コンヤマチ,三重県桑名市紺屋町
5110086,三重県,桑名市,入江葭町,ミエケン,クワナシ,イリエヨシマチ,三重県桑名市入江葭町
5110087,三重県,桑名市,吉津屋町,ミエケン,クワナシ,ヨツヤチョウ,三重県桑名市吉津屋町
5110088,三重県,桑名市,南魚町,ミエケン,クワナシ,ミナミウオマチ,三重県桑名市南魚町
5110089,三重県,桑名市,田町,ミエケン,クワナシ,タマチ,三重県桑名市田町
5110101,三重県,桑名市,多度町柚井,ミエケン,クワナシ,タドチョウユイ,三重県桑名市多度町柚井
5110102,三重県,桑名市,多度町香取,ミエケン,クワナシ,タドチョウカトリ,三重県桑名市多度町香取
5110103,三重県,桑名市,多度町戸津,ミエケン,クワナシ,タドチョウトヅ,三重県桑名市多度町戸津
5110104,三重県,桑名市,多度町肱江,ミエケン,クワナシ,タドチョウヒジエ,三重県桑名市多度町肱江
5110105,三重県,桑名市,多度町小山,ミエケン,クワナシ,タドチョウオヤマ,三重県桑名市多度町小山
5110106,三重県,桑名市,多度町多度,ミエケン,クワナシ,タドチョウタド,三重県桑名市多度町多度
5110111,三重県,桑名市,多度町平古,ミエケン,クワナシ,タドチョウヒラコ,三重県桑名市多度町平古
5110112,三重県,桑名市,多度町福永,ミエケン,クワナシ,タドチョウフクナガ,三重県桑名市多度町福永
5110113,三重県,桑名市,多度町上之郷,ミエケン,クワナシ,タドチョウカミノゴウ,三重県桑名市多度町上之郷
5110114,三重県,桑名市,多度町中須,ミエケン,クワナシ,タドチョウナカズ,三重県桑名市多度町中須
5110115,三重県,桑名市,多度町南之郷,ミエケン,クワナシ,タドチョウミナミノゴウ,三重県桑名市多度町南之郷
5110116,三重県,桑名市,多度町大鳥居,ミエケン,クワナシ,タドチョウオオドリイ,三重県桑名市多度町大鳥居
5110117,三重県,桑名市,多度町下野代,ミエケン,クワナシ,タドチョウシモノシロ,三重県桑名市多度町下野代
5110118,三重県,桑名市,多度町御衣野,ミエケン,クワナシ,タドチョウミゾノ,三重県桑名市多度町御衣野
5110121,三重県,桑名市,多度町美鹿,ミエケン,クワナシ,タドチョウビロク,三重県桑名市多度町美鹿
5110122,三重県,桑名市,多度町古野,ミエケン,クワナシ,タドチョウコノ,三重県桑名市多度町古野
5110123,三重県,桑名市,多度町北猪飼,ミエケン,クワナシ,タドチョウキタイカイ,三重県桑名市多度町北猪飼
5110124,三重県,桑名市,多度町猪飼,ミエケン,クワナシ,タドチョウイカイ,三重県桑名市多度町猪飼
5110125,三重県,桑名市,多度町力尾,ミエケン,クワナシ,タドチョウチカラオ,三重県桑名市多度町力尾
5110200,三重県,いなべ市,,ミエケン,イナベシ,,三重県いなべ市
5110200,三重県,員弁郡東員町,,ミエケン,イナベグントウインチョウ,,三重県員弁郡東員町
5110201,三重県,いなべ市,員弁町市之原,ミエケン,イナベシ,イナベチョウイチノハラ,三重県いなべ市員弁町市之原
5110202,三重県,いなべ市,員弁町楚原,ミエケン,イナベシ,イナベチョウソハラ,三重県いなべ市員弁町楚原
5110203,三重県,いなべ市,員弁町畑新田,ミエケン,イナベシ,イナベチョウハタシンデン,三重県いなべ市員弁町畑新田
5110204,三重県,いなべ市,員弁町石仏,ミエケン,イナベシ,イナベチョウイシボトケ,三重県いなべ市員弁町石仏
5110205,三重県,いなべ市,員弁町笠田新田,ミエケン,イナベシ,イナベチョウカサダシンデン,三重県いなべ市員弁町笠田新田
5110206,三重県,いなべ市,員弁町宇野,ミエケン,イナベシ,イナベチョウウノ,三重県いなべ市員弁町宇野
5110207,三重県,いなべ市,員弁町上笠田,ミエケン,イナベシ,イナベチョウカミカサダ,三重県いなべ市員弁町上笠田
5110208,三重県,いなべ市,員弁町坂東新田,ミエケン,イナベシ,イナベチョウバンドウシンデン,三重県いなべ市員弁町坂東新田
5110211,三重県,いなべ市,員弁町松名新田,ミエケン,イナベシ,イナベチョウマツナシンデン,三重県いなべ市員弁町松名新田
5110212,三重県,いなべ市,員弁町平古,ミエケン,イナベシ,イナベチョウヒラコ,三重県いなべ市員弁町平古
5110213,三重県,いなべ市,員弁町暮明,ミエケン,イナベシ,イナベチョウクラガリ,三重県いなべ市員弁町暮明
5110214,三重県,いなべ市,員弁町岡丁田,ミエケン,イナベシ,イナベチョウオカチョウダ,三重県いなべ市員弁町岡丁田
5110215,三重県,いなべ市,員弁町東一色,ミエケン,イナベシ,イナベチョウヒガシイッシキ,三重県いなべ市員弁町東一色
5110216,三重県,いなべ市,員弁町松之木,ミエケン,イナベシ,イナベチョウマツノキ,三重県いなべ市員弁町松之木
5110217,三重県,いなべ市,員弁町大泉新田,ミエケン,イナベシ,イナベチョウオオイズミシンデン,三重県いなべ市員弁町大泉新田
5110221,三重県,いなべ市,員弁町下笠田,ミエケン,イナベシ,イナベチョウシモカサダ,三重県いなべ市員弁町下笠田
5110222,三重県,いなべ市,員弁町御薗,ミエケン,イナベシ,イナベチョウミソノ,三重県いなべ市員弁町御薗
5110223,三重県,いなべ市,員弁町北金井,ミエケン,イナベシ,イナベチョウキタカナイ,三重県いなべ市員弁町北金井
5110224,三重県,いなべ市,員弁町大泉,ミエケン,イナベシ,イナベチョウオオイズミ,三重県いなべ市員弁町大泉
5110225,三重県,いなべ市,員弁町西方,ミエケン,イナベシ,イナベチョウニシガタ,三重県いなべ市員弁町西方
5110231,三重県,員弁郡東員町,笹尾西,ミエケン,イナベグントウインチョウ,ササオニシ,三重県員弁郡東員町笹尾西
5110232,三重県,員弁郡東員町,笹尾東,ミエケン,イナベグントウインチョウ,ササオヒガシ,三重県員弁郡東員町笹尾東
5110233,三重県,員弁郡東員町,城山,ミエケン,イナベグントウインチョウ,シロヤマ,三重県員弁郡東員町城山
5110241,三重県,員弁郡東員町,鳥取,ミエケン,イナベグントウインチョウ,トットリ,三重県員弁郡東員町鳥取
5110242,三重県,員弁郡東員町,六把野新田,ミエケン,イナベグントウインチョウ,ロッパノシンデン,三重県員弁郡東員町六把野新田
5110243,三重県,員弁郡東員町,穴太,ミエケン,イナベグントウインチョウ,アノウ,三重県員弁郡東員町穴太
5110244,三重県,員弁郡東員町,大木,ミエケン,イナベグントウインチョウ,オオキ,三重県員弁郡東員町大木
5110245,三重県,員弁郡東員町,八幡新田,ミエケン,イナベグントウインチョウ,ハチマンシンデン,三重県員弁郡東員町八幡新田
5110251,三重県,員弁郡東員町,北山田,ミエケン,イナベグントウインチョウ,キタヤマダ,三重県員弁郡東員町北山田
5110251,三重県,員弁郡東員町,山田,ミエケン,イナベグントウインチョウ,ヤマダ,三重県員弁郡東員町山田
5110252,三重県,員弁郡東員町,瀬古泉,ミエケン,イナベグントウインチョウ,セコイズミ,三重県員弁郡東員町瀬古泉
5110253,三重県,員弁郡東員町,筑紫,ミエケン,イナベグントウインチョウ,ツクシ,三重県員弁郡東員町筑紫
5110254,三重県,員弁郡東員町,中上,ミエケン,イナベグントウインチョウ,ナカガミ,三重県員弁郡東員町中上
5110255,三重県,員弁郡東員町,長深,ミエケン,イナベグントウインチョウ,ナガフケ,三重県員弁郡東員町長深
5110256,三重県,員弁郡東員町,南大社,ミエケン,イナベグントウインチョウ,ミナミオオヤシロ,三重県員弁郡東員町南大社
5110257,三重県,員弁郡東員町,北大社,ミエケン,イナベグントウインチョウ,キタオオヤシロ,三重県員弁郡東員町北大社
5110261,三重県,いなべ市,大安町丹生川上,ミエケン,イナベシ,ダイアンチョウニュウガワカミ,三重県いなべ市大安町丹生川上
5110262,三重県,いなべ市,大安町丹生川中,ミエケン,イナベシ,ダイアンチョウニュウガワナカ,三重県いなべ市大安町丹生川中
5110263,三重県,いなべ市,大安町丹生川久下,ミエケン,イナベシ,ダイアンチョウニュウガワヒサカ,三重県いなべ市大安町丹生川久下
5110264,三重県,いなべ市,大安町石榑東,ミエケン,イナベシ,ダイアンチョウイシグレヒガシ,三重県いなべ市大安町石榑東
5110265,三重県,いなべ市,大安町石榑北,ミエケン,イナベシ,ダイアンチョウイシグレキタ,三重県いなべ市大安町石榑北
5110266,三重県,いなべ市,大安町石榑南,ミエケン,イナベシ,ダイアンチョウイシグレミナミ,三重県いなべ市大安町石榑南
5110267,三重県,いなべ市,大安町石榑北山,ミエケン,イナベシ,ダイアンチョウイシグレキタヤマ,三重県いなべ市大安町石榑北山
5110271,三重県,いなべ市,大安町片樋,ミエケン,イナベシ,ダイアンチョウカタヒ,三重県いなべ市大安町片樋
5110272,三重県,いなべ市,大安町高柳,ミエケン,イナベシ,ダイアンチョウタカヤナギ,三重県いなべ市大安町高柳
5110273,三重県,いなべ市,大安町平塚,ミエケン,イナベシ,ダイアンチョウヒラツカ,三重県いなべ市大安町平塚
5110274,三重県,いなべ市,大安町大井田,ミエケン,イナベシ,ダイアンチョウオオイダ,三重県いなべ市大安町大井田
5110275,三重県,いなべ市,大安町鍋坂,ミエケン,イナベシ,ダイアンチョウナベサカ,三重県いなべ市大安町鍋坂
5110276,三重県,いなべ市,大安町石榑下,ミエケン,イナベシ,ダイアンチョウイシグレシモ,三重県いなべ市大安町石榑下
5110281,三重県,いなべ市,大安町門前,ミエケン,イナベシ,ダイアンチョウモンゼン,三重県いなべ市大安町門前
5110282,三重県,いなべ市,大安町大泉,ミエケン,イナベシ,ダイアンチョウオオイズミ,三重県いなべ市大安町大泉
5110283,三重県,いなべ市,大安町南金井,ミエケン,イナベシ,ダイアンチョウミナミカナイ,三重県いなべ市大安町南金井
5110284,三重県,いなべ市,大安町梅戸,ミエケン,イナベシ,ダイアンチョウウメド,三重県いなべ市大安町梅戸
5110285,三重県,いなべ市,大安町宇賀新田,ミエケン,イナベシ,ダイアンチョウウガシンデン,三重県いなべ市大安町宇賀新田
5110286,三重県,いなべ市,大安町宇賀,ミエケン,イナベシ,ダイアンチョウウガ,三重県いなべ市大安町宇賀
5110287,三重県,いなべ市,大安町中央ケ丘,ミエケン,イナベシ,ダイアンチョウチュウオウガオカ,三重県いなべ市大安町中央ケ丘
5110401,三重県,いなべ市,北勢町川原,ミエケン,イナベシ,ホクセイチョウカワハラ,三重県いなべ市北勢町川原
5110402,三重県,いなべ市,北勢町千司久連新田,ミエケン,イナベシ,ホクセイチョウセンジグレシンデン,三重県いなべ市北勢町千司久連新田
5110403,三重県,いなべ市,北勢町二之瀬,ミエケン,イナベシ,ホクセイチョウニノセ,三重県いなべ市北勢町二之瀬
5110404,三重県,いなべ市,北勢町小原一色,ミエケン,イナベシ,ホクセイチョウコハライッシキ,三重県いなべ市北勢町小原一色
5110405,三重県,いなべ市,北勢町田辺,ミエケン,イナベシ,ホクセイチョウタナベ,三重県いなべ市北勢町田辺
5110406,三重県,いなべ市,北勢町塩崎,ミエケン,イナベシ,ホクセイチョウシオサキ,三重県いなべ市北勢町塩崎
5110411,三重県,いなべ市,北勢町京ケ野新田,ミエケン,イナベシ,ホクセイチョウキョウガノシンデン,三重県いなべ市北勢町京ケ野新田
5110412,三重県,いなべ市,北勢町向平,ミエケン,イナベシ,ホクセイチョウムコヒラ,三重県いなべ市北勢町向平
5110413,三重県,いなべ市,北勢町畑毛,ミエケン,イナベシ,ホクセイチョウハタケ,三重県いなべ市北勢町畑毛
5110414,三重県,いなべ市,北勢町西貝野,ミエケン,イナベシ,ホクセイチョウニシカイノ,三重県いなべ市北勢町西貝野
5110415,三重県,いなべ市,北勢町東貝野,ミエケン,イナベシ,ホクセイチョウヒガシカイノ,三重県いなべ市北勢町東貝野
5110416,三重県,いなべ市,北勢町飯倉,ミエケン,イナベシ,ホクセイチョウイグラ,三重県いなべ市北勢町飯倉
5110417,三重県,いなべ市,北勢町瀬木,ミエケン,イナベシ,ホクセイチョウセギ,三重県いなべ市北勢町瀬木
5110418,三重県,いなべ市,北勢町下平,ミエケン,イナベシ,ホクセイチョウシモヒラ,三重県いなべ市北勢町下平
5110421,三重県,いなべ市,北勢町皷,ミエケン,イナベシ,ホクセイチョウツヅミ,三重県いなべ市北勢町皷
5110422,三重県,いなべ市,北勢町北中津原,ミエケン,イナベシ,ホクセイチョウキタナカツハラ,三重県いなべ市北勢町北中津原
5110423,三重県,いなべ市,北勢町平野新田,ミエケン,イナベシ,ホクセイチョウヒラノシンデン,三重県いなべ市北勢町平野新田
5110424,三重県,いなべ市,北勢町南中津原,ミエケン,イナベシ,ホクセイチョウミナミナカツハラ,三重県いなべ市北勢町南中津原
5110425,三重県,いなべ市,北勢町大辻新田,ミエケン,イナベシ,ホクセイチョウオオツジシンデン,三重県いなべ市北勢町大辻新田
5110426,三重県,いなべ市,北勢町其原,ミエケン,イナベシ,ホクセイチョウソノハラ,三重県いなべ市北勢町其原
5110427,三重県,いなべ市,北勢町麻生田,ミエケン,イナベシ,ホクセイチョウオウダ,三重県いなべ市北勢町麻生田
5110428,三重県,いなべ市,北勢町阿下喜,ミエケン,イナベシ,ホクセイチョウアゲキ,三重県いなべ市北勢町阿下喜
5110431,三重県,いなべ市,北勢町別名,ミエケン,イナベシ,ホクセイチョウベツミョウ,三重県いなべ市北勢町別名
5110432,三重県,いなべ市,北勢町東村,ミエケン,イナベシ,ホクセイチョウヒガシムラ,三重県いなべ市北勢町東村
5110433,三重県,いなべ市,北勢町中山,ミエケン,イナベシ,ホクセイチョウナカヤマ,三重県いなべ市北勢町中山
5110434,三重県,いなべ市,北勢町麓村,ミエケン,イナベシ,ホクセイチョウフモトムラ,三重県いなべ市北勢町麓村
5110435,三重県,いなべ市,北勢町奥村,ミエケン,イナベシ,ホクセイチョウオクムラ,三重県いなべ市北勢町奥村
5110436,三重県,いなべ市,北勢町新町,ミエケン,イナベシ,ホクセイチョウシンマチ,三重県いなべ市北勢町新町
5110437,三重県,いなべ市,北勢町垣内,ミエケン,イナベシ,ホクセイチョウカイト,三重県いなべ市北勢町垣内
5110438,三重県,いなべ市,北勢町治田外面,ミエケン,イナベシ,ホクセイチョウハッタドモ,三重県いなべ市北勢町治田外面
5110501,三重県,いなべ市,藤原町鼎,ミエケン,イナベシ,フジワラチョウカナエ,三重県いなべ市藤原町鼎
5110502,三重県,いなべ市,藤原町上相場,ミエケン,イナベシ,フジワラチョウカミアイバ,三重県いなべ市藤原町上相場
5110503,三重県,いなべ市,藤原町下相場,ミエケン,イナベシ,フジワラチョウシモアイバ,三重県いなべ市藤原町下相場
5110504,三重県,いなべ市,藤原町川合,ミエケン,イナベシ,フジワラチョウカワイ,三重県いなべ市藤原町川合
5110505,三重県,いなべ市,藤原町日内,ミエケン,イナベシ,フジワラチョウヒナイ,三重県いなべ市藤原町日内
5110506,三重県,いなべ市,藤原町長尾,ミエケン,イナベシ,フジワラチョウナガオ,三重県いなべ市藤原町長尾
5110507,三重県,いなべ市,藤原町上之山田,ミエケン,イナベシ,フジワラチョウウエノヤマダ,三重県いなべ市藤原町上之山田
5110508,三重県,いなべ市,藤原町藤ケ丘,ミエケン,イナベシ,フジワラチョウフジガオカ,三重県いなべ市藤原町藤ケ丘
5110511,三重県,いなべ市,藤原町市場,ミエケン,イナベシ,フジワラチョウイチバ,三重県いなべ市藤原町市場
5110512,三重県,いなべ市,藤原町志礼石新田,ミエケン,イナベシ,フジワラチョウシレイシシンデン,三重県いなべ市藤原町志礼石新田
5110513,三重県,いなべ市,藤原町下野尻,ミエケン,イナベシ,フジワラチョウシモノジリ,三重県いなべ市藤原町下野尻
5110514,三重県,いなべ市,藤原町石川,ミエケン,イナベシ,フジワラチョウイシカワ,三重県いなべ市藤原町石川
5110515,三重県,いなべ市,藤原町東禅寺,ミエケン,イナベシ,フジワラチョウトウゼンジ,三重県いなべ市藤原町東禅寺
5110516,三重県,いなべ市,藤原町西野尻,ミエケン,イナベシ,フジワラチョウニシノジリ,三重県いなべ市藤原町西野尻
5110517,三重県,いなべ市,藤原町大貝戸,ミエケン,イナベシ,フジワラチョウオオガイト,三重県いなべ市藤原町大貝戸
5110518,三重県,いなべ市,藤原町坂本,ミエケン,イナベシ,フジワラチョウサカモト,三重県いなべ市藤原町坂本
5110519,三重県,いなべ市,藤原町別名,ミエケン,イナベシ,フジワラチョウベツミョウ,三重県いなべ市藤原町別名
5110521,三重県,いなべ市,藤原町古田,ミエケン,イナベシ,フジワラチョウフルタ,三重県いなべ市藤原町古田
5110522,三重県,いなべ市,藤原町篠立,ミエケン,イナベシ,フジワラチョウシノダチ,三重県いなべ市藤原町篠立
5110523,三重県,いなべ市,藤原町本郷,ミエケン,イナベシ,フジワラチョウホンゴウ,三重県いなべ市藤原町本郷
5110524,三重県,いなべ市,藤原町山口,ミエケン,イナベシ,フジワラチョウヤマグチ,三重県いなべ市藤原町山口
5110801,三重県,桑名市,今島,ミエケン,クワナシ,イマジマ,三重県桑名市今島
5110802,三重県,桑名市,川崎町,ミエケン,クワナシ,カワサキチョウ,三重県桑名市川崎町
5110803,三重県,桑名市,枇杷島台,ミエケン,クワナシ,ビワジマダイ,三重県桑名市枇杷島台
5110804,三重県,桑名市,北川原台,ミエケン,クワナシ,キタガワラダイ,三重県桑名市北川原台
5110805,三重県,桑名市,深谷町,ミエケン,クワナシ,フカヤチョウ,三重県桑名市深谷町
5110806,三重県,桑名市,東汰上,ミエケン,クワナシ,ヒガシユリアゲ,三重県桑名市東汰上
5110807,三重県,桑名市,西汰上,ミエケン,クワナシ,ニシユリアゲ,三重県桑名市西汰上
5110808,三重県,桑名市,下深谷部,ミエケン,クワナシ,シモフカヤベ,三重県桑名市下深谷部
5110809,三重県,桑名市,上深谷部,ミエケン,クワナシ,カミフカヤベ,三重県桑名市上深谷部
5110810,三重県,桑名市,清竹の丘,ミエケン,クワナシ,キヨタケノオカ,三重県桑名市清竹の丘
5110811,三重県,桑名市,東方,ミエケン,クワナシ,ヒガシカタ,三重県桑名市東方
5110812,三重県,桑名市,尾野山,ミエケン,クワナシ,オノヤマ,三重県桑名市尾野山
5110813,三重県,桑名市,桜通,ミエケン,クワナシ,サクラドオリ,三重県桑名市桜通
5110814,三重県,桑名市,松並町,ミエケン,クワナシ,マツナミチョウ,三重県桑名市松並町
5110815,三重県,桑名市,梅園通,ミエケン,クワナシ,ウメゾノドオリ,三重県桑名市梅園通
5110816,三重県,桑名市,汐見町,ミエケン,クワナシ,シオミチョウ,三重県桑名市汐見町
5110817,三重県,桑名市,青葉町,ミエケン,クワナシ,アオバチョウ,三重県桑名市青葉町
5110818,三重県,桑名市,高塚町,ミエケン,クワナシ,タカツカチョウ,三重県桑名市高塚町
5110819,三重県,桑名市,北別所,ミエケン,クワナシ,キタベッシヨ,三重県桑名市北別所
5110821,三重県,桑名市,矢田,ミエケン,クワナシ,ヤダ,三重県桑名市矢田
5110822,三重県,桑名市,馬道,ミエケン,クワナシ,ウマミチ,三重県桑名市馬道
5110823,三重県,桑名市,明正町,ミエケン,クワナシ,メイセイチョウ,三重県桑名市明正町
5110824,三重県,桑名市,繁松新田,ミエケン,クワナシ,シゲマツシンデン,三重県桑名市繁松新田
5110825,三重県,桑名市,上野,ミエケン,クワナシ,ウエノ,三重県桑名市上野
5110826,三重県,桑名市,太夫,ミエケン,クワナシ,タユウ,三重県桑名市太夫
5110827,三重県,桑名市,霞町,ミエケン,クワナシ,カスミチョウ,三重県桑名市霞町
5110828,三重県,桑名市,立花町,ミエケン,クワナシ,タチバナチョウ,三重県桑名市立花町
5110829,三重県,桑名市,神楽町,ミエケン,クワナシ,カグラチョウ,三重県桑名市神楽町
5110831,三重県,桑名市,益生町,ミエケン,クワナシ,マスオチョウ,三重県桑名市益生町
5110832,三重県,桑名市,新地,ミエケン,クワナシ,シンチ,三重県桑名市新地
5110833,三重県,桑名市,福江町,ミエケン,クワナシ,フクエマチ,三重県桑名市福江町
5110834,三重県,桑名市,大福,ミエケン,クワナシ,ダイフク,三重県桑名市大福
5110835,三重県,桑名市,本願寺,ミエケン,クワナシ,ホンガンジ,三重県桑名市本願寺
5110836,三重県,桑名市,江場,ミエケン,クワナシ,エバ,三重県桑名市江場
5110837,三重県,桑名市,小泉,ミエケン,クワナシ,コイズミ,三重県桑名市小泉
5110838,三重県,桑名市,和泉,ミエケン,クワナシ,イズミ,三重県桑名市和泉
5110839,三重県,桑名市,安永,ミエケン,クワナシ,ヤスナガ,三重県桑名市安永
5110841,三重県,桑名市,小貝須,ミエケン,クワナシ,コガイス,三重県桑名市小貝須
5110842,三重県,桑名市,立田町,ミエケン,クワナシ,タツタチョウ,三重県桑名市立田町
5110843,三重県,桑名市,太平町,ミエケン,クワナシ,タイヘイチョウ,三重県桑名市太平町
5110844,三重県,桑名市,福岡町,ミエケン,クワナシ,フクオカチョウ,三重県桑名市福岡町
5110845,三重県,桑名市,福地,ミエケン,クワナシ,フクチ,三重県桑名市福地
5110846,三重県,桑名市,城南萱町,ミエケン,クワナシ,ジョウナンカヤマチ,三重県桑名市城南萱町
5110847,三重県,桑名市,福江,ミエケン,クワナシ,フクエ,三重県桑名市福江
5110848,三重県,桑名市,大貝須,ミエケン,クワナシ,オオガイス,三重県桑名市大貝須
5110851,三重県,桑名市,希望ケ丘,ミエケン,クワナシ,キボウガオカ,三重県桑名市希望ケ丘
5110851,三重県,桑名市,西別所,ミエケン,クワナシ,ニシベッシヨ,三重県桑名市西別所
5110852,三重県,桑名市,稗田,ミエケン,クワナシ,ヒエダ,三重県桑名市稗田
5110853,三重県,桑名市,増田,ミエケン,クワナシ,マスダ,三重県桑名市増田
5110854,三重県,桑名市,蓮花寺,ミエケン,クワナシ,レンゲジ,三重県桑名市蓮花寺
5110855,三重県,桑名市,新倉持,ミエケン,クワナシ,シンクラモチ,三重県桑名市新倉持
5110861,三重県,桑名市,蠣塚新田,ミエケン,クワナシ,カキヅカシンデン,三重県桑名市蠣塚新田
5110862,三重県,桑名市,播磨,ミエケン,クワナシ,ハリマ,三重県桑名市播磨
5110863,三重県,桑名市,新西方,ミエケン,クワナシ,シンニシカタ,三重県桑名市新西方
5110864,三重県,桑名市,西方,ミエケン,クワナシ,ニシカタ,三重県桑名市西方
5110865,三重県,桑名市,藤が丘,ミエケン,クワナシ,フジガオカ,三重県桑名市藤が丘
5110866,三重県,桑名市,神成町,ミエケン,クワナシ,シンセイチョウ,三重県桑名市神成町
5110867,三重県,桑名市,陽だまりの丘,ミエケン,クワナシ,ヒダマリノオカ,三重県桑名市陽だまりの丘
5110868,三重県,桑名市,さくらの丘,ミエケン,クワナシ,サクラノオカ,三重県桑名市さくらの丘
5110901,三重県,桑名市,筒尾,ミエケン,クワナシ,ツツオ,三重県桑名市筒尾
5110902,三重県,桑名市,松ノ木,ミエケン,クワナシ,マツノキ,三重県桑名市松ノ木
5110903,三重県,桑名市,大山田,ミエケン,クワナシ,オオヤマダ,三重県桑名市大山田
5110904,三重県,桑名市,野田,ミエケン,クワナシ,ノダ,三重県桑名市野田
5110911,三重県,桑名市,額田,ミエケン,クワナシ,ヌカタ,三重県桑名市額田
5110912,三重県,桑名市,星川,ミエケン,クワナシ,ホシカワ,三重県桑名市星川
5110912,三重県,桑名市,星見ケ丘,ミエケン,クワナシ,ホシミガオカ,三重県桑名市星見ケ丘
5110913,三重県,桑名市,里町,ミエケン,クワナシ,サトマチ,三重県桑名市里町
5110914,三重県,桑名市,中山町,ミエケン,クワナシ,ナカヤマチョウ,三重県桑名市中山町
5110921,三重県,桑名市,東金井,ミエケン,クワナシ,ヒガシカナイ,三重県桑名市東金井
5110922,三重県,桑名市,西金井,ミエケン,クワナシ,ニシカナイ,三重県桑名市西金井
5110923,三重県,桑名市,桑部,ミエケン,クワナシ,クワベ,三重県桑名市桑部
5110924,三重県,桑名市,城山台,ミエケン,クワナシ,シロヤマダイ,三重県桑名市城山台
5110931,三重県,桑名市,能部,ミエケン,クワナシ,ノンベ,三重県桑名市能部
5110932,三重県,桑名市,東正和台,ミエケン,クワナシ,ヒガシセイワダイ,三重県桑名市東正和台
5110933,三重県,桑名市,西正和台,ミエケン,クワナシ,ニシセイワダイ,三重県桑名市西正和台
5110934,三重県,桑名市,赤尾,ミエケン,クワナシ,アコオ,三重県桑名市赤尾
5110935,三重県,桑名市,赤尾台,ミエケン,クワナシ,アコオダイ,三重県桑名市赤尾台
5110936,三重県,桑名市,島田,ミエケン,クワナシ,シマダ,三重県桑名市島田
5110937,三重県,桑名市,志知,ミエケン,クワナシ,シチ,三重県桑名市志知
5110938,三重県,桑名市,友村,ミエケン,クワナシ,トモムラ,三重県桑名市友村
5110939,三重県,桑名市,坂井,ミエケン,クワナシ,サカイ,三重県桑名市坂井
5110941,三重県,桑名市,嘉例川,ミエケン,クワナシ,カレガワ,三重県桑名市嘉例川
5110942,三重県,桑名市,広見ケ丘,ミエケン,クワナシ,ヒロミガオカ,三重県桑名市広見ケ丘
5110943,三重県,桑名市,森忠,ミエケン,クワナシ,モリタダ,三重県桑名市森忠
5110944,三重県,桑名市,芳ケ崎,ミエケン,クワナシ,ハガサキ,三重県桑名市芳ケ崎
5110945,三重県,桑名市,筑紫,ミエケン,クワナシ,ツクシ,三重県桑名市筑紫
5110946,三重県,桑名市,五反田,ミエケン,クワナシ,ゴタンダ,三重県桑名市五反田
5110947,三重県,桑名市,大仲新田,ミエケン,クワナシ,オオナカシンデン,三重県桑名市大仲新田
5111101,三重県,桑名市,長島町新所,ミエケン,クワナシ,ナガシマチョウシンショ,三重県桑名市長島町新所
5111102,三重県,桑名市,長島町西川,ミエケン,クワナシ,ナガシマチョウニシカワ,三重県桑名市長島町西川
5111103,三重県,桑名市,長島町中川,ミエケン,クワナシ,ナガシマチョウナカガワ,三重県桑名市長島町中川
5111104,三重県,桑名市,長島町高座,ミエケン,クワナシ,ナガシマチョウコウザ,三重県桑名市長島町高座
5111105,三重県,桑名市,長島町千倉,ミエケン,クワナシ,ナガシマチョウチクラ,三重県桑名市長島町千倉
5111106,三重県,桑名市,長島町下坂手,ミエケン,クワナシ,ナガシマチョウシモサカテ,三重県桑名市長島町下坂手
5111107,三重県,桑名市,長島町上坂手,ミエケン,クワナシ,ナガシマチョウカミサカテ,三重県桑名市長島町上坂手
5111108,三重県,桑名市,長島町杉江,ミエケン,クワナシ,ナガシマチョウスギエ,三重県桑名市長島町杉江
5111109,三重県,桑名市,長島町松之木,ミエケン,クワナシ,ナガシマチョウマツノキ,三重県桑名市長島町松之木
5111111,三重県,桑名市,長島町小島,ミエケン,クワナシ,ナガシマチョウコジマ,三重県桑名市長島町小島
5111112,三重県,桑名市,長島町大倉,ミエケン,クワナシ,ナガシマチョウオオクラ,三重県桑名市長島町大倉
5111113,三重県,桑名市,長島町押付,ミエケン,クワナシ,ナガシマチョウオシツケ,三重県桑名市長島町押付
5111114,三重県,桑名市,長島町長島下町,ミエケン,クワナシ,ナガシマチョウナガシマシモマチ,三重県桑名市長島町長島下町
5111115,三重県,桑名市,長島町長島中町,ミエケン,クワナシ,ナガシマチョウナガシマナカマチ,三重県桑名市長島町長島中町
5111116,三重県,桑名市,長島町長島萱町,ミエケン,クワナシ,ナガシマチョウナガシマカヤマチ,三重県桑名市長島町長島萱町
5111121,三重県,桑名市,長島町東殿名,ミエケン,クワナシ,ナガシマチョウヒガシトノメ,三重県桑名市長島町東殿名
5111122,三重県,桑名市,長島町松ケ島,ミエケン,クワナシ,ナガシマチョウマツガシマ,三重県桑名市長島町松ケ島
5111123,三重県,桑名市,長島町鎌ケ地,ミエケン,クワナシ,ナガシマチョウカマガンジ,三重県桑名市長島町鎌ケ地
5111124,三重県,桑名市,長島町葭ケ須,ミエケン,クワナシ,ナガシマチョウヨシガス,三重県桑名市長島町葭ケ須
5111125,三重県,桑名市,長島町源部外面,ミエケン,クワナシ,ナガシマチョウゲンベドモ,三重県桑名市長島町源部外面
5111126,三重県,桑名市,長島町又木,ミエケン,クワナシ,ナガシマチョウマタギ,三重県桑名市長島町又木
5111127,三重県,桑名市,長島町殿名,ミエケン,クワナシ,ナガシマチョウトノメ,三重県桑名市長島町殿名
5111128,三重県,桑名市,長島町又木市街,ミエケン,クワナシ,ナガシマチョウマタギシガイ,三重県桑名市長島町又木市街
5111131,三重県,桑名市,長島町赤地,ミエケン,クワナシ,ナガシマチョウアカジ,三重県桑名市長島町赤地
5111132,三重県,桑名市,長島町福豊,ミエケン,クワナシ,ナガシマチョウフクトヨ,三重県桑名市長島町福豊
5111133,三重県,桑名市,長島町横満蔵,ミエケン,クワナシ,ナガシマチョウヨコマクラ,三重県桑名市長島町横満蔵
5111134,三重県,桑名市,長島町松蔭,ミエケン,クワナシ,ナガシマチョウマツカゲ,三重県桑名市長島町松蔭
5111135,三重県,桑名市,長島町浦安,ミエケン,クワナシ,ナガシマチョウウラヤス,三重県桑名市長島町浦安
5111136,三重県,桑名市,長島町白鶏,ミエケン,クワナシ,ナガシマチョウハッケ,三重県桑名市長島町白鶏
5111137,三重県,桑名市,長島町福吉,ミエケン,クワナシ,ナガシマチョウフクヨシ,三重県桑名市長島町福吉
5111141,三重県,桑名市,長島町間々,ミエケン,クワナシ,ナガシマチョウママ,三重県桑名市長島町間々
5111142,三重県,桑名市,長島町出口,ミエケン,クワナシ,ナガシマチョウデグチ,三重県桑名市長島町出口
5111143,三重県,桑名市,長島町西外面,ミエケン,クワナシ,ナガシマチョウニシドモ,三重県桑名市長島町西外面
5111144,三重県,桑名市,長島町駒江,ミエケン,クワナシ,ナガシマチョウコマエ,三重県桑名市長島町駒江
5111145,三重県,桑名市,長島町大島,ミエケン,クワナシ,ナガシマチョウオオジマ,三重県桑名市長島町大島
5111146,三重県,桑名市,長島町十日外面,ミエケン,クワナシ,ナガシマチョウトオカドモ,三重県桑名市長島町十日外面
5111147,三重県,桑名市,長島町平方,ミエケン,クワナシ,ナガシマチョウヒラカタ,三重県桑名市長島町平方
5111148,三重県,桑名市,長島町北殿名,ミエケン,クワナシ,ナガシマチョウキタトノメ,三重県桑名市長島町北殿名
5111149,三重県,桑名市,長島町西外面市街,ミエケン,クワナシ,ナガシマチョウニシドモシガイ,三重県桑名市長島町西外面市街
5120301,三重県,四日市市,水沢野田町,ミエケン,ヨッカイチシ,スイザワノダチョウ,三重県四日市市水沢野田町
5120901,三重県,四日市市,大谷台,ミエケン,ヨッカイチシ,オオタニダイ,三重県四日市市大谷台
5120902,三重県,四日市市,小杉町,ミエケン,ヨッカイチシ,コスギチョウ,三重県四日市市小杉町
5120903,三重県,四日市市,小杉新町,ミエケン,ヨッカイチシ,コスギシンマチ,三重県四日市市小杉新町
5120904,三重県,四日市市,東坂部町,ミエケン,ヨッカイチシ,ヒガシサカベチョウ,三重県四日市市東坂部町
5120905,三重県,四日市市,坂部が丘,ミエケン,ヨッカイチシ,サカベガオカ,三重県四日市市坂部が丘
5120906,三重県,四日市市,山之一色町,ミエケン,ヨッカイチシ,ヤマノイッシキチョウ,三重県四日市市山之一色町
5120907,三重県,四日市市,東ケ谷,ミエケン,ヨッカイチシ,ヒガシガタニ,三重県四日市市東ケ谷
5120908,三重県,四日市市,坂部台,ミエケン,ヨッカイチシ,サカベダイ,三重県四日市市坂部台
5120911,三重県,四日市市,生桑町,ミエケン,ヨッカイチシ,イクワチョウ,三重県四日市市生桑町
5120912,三重県,四日市市,三重,ミエケン,ヨッカイチシ,ミエ,三重県四日市市三重
5120913,三重県,四日市市,西坂部町,ミエケン,ヨッカイチシ,ニシサカベチョウ,三重県四日市市西坂部町
5120914,三重県,四日市市,南坂部町,ミエケン,ヨッカイチシ,ミナミサカベチョウ,三重県四日市市南坂部町
5120921,三重県,四日市市,尾平町,ミエケン,ヨッカイチシ,オビラチョウ,三重県四日市市尾平町
5120922,三重県,四日市市,曽井町,ミエケン,ヨッカイチシ,ソイチョウ,三重県四日市市曽井町
5120923,三重県,四日市市,高角町,ミエケン,ヨッカイチシ,タカツノチョウ,三重県四日市市高角町
5120924,三重県,四日市市,寺方町,ミエケン,ヨッカイチシ,テラガタチョウ,三重県四日市市寺方町
5120925,三重県,四日市市,菅原町,ミエケン,ヨッカイチシ,スガハラチョウ,三重県四日市市菅原町
5120931,三重県,四日市市,浮橋,ミエケン,ヨッカイチシ,ウキハシ,三重県四日市市浮橋
5120932,三重県,四日市市,小生町,ミエケン,ヨッカイチシ,コモチョウ,三重県四日市市小生町
5120933,三重県,四日市市,三滝台,ミエケン,ヨッカイチシ,ミタキダイ,三重県四日市市三滝台
5120934,三重県,四日市市,川島町,ミエケン,ヨッカイチシ,カワシマチョウ,三重県四日市市川島町
5120935,三重県,四日市市,川島新町,ミエケン,ヨッカイチシ,カワシマシンマチ,三重県四日市市川島新町
5120936,三重県,四日市市,別山,ミエケン,ヨッカイチシ,ベツヤマ,三重県四日市市別山
5121101,三重県,四日市市,内山町,ミエケン,ヨッカイチシ,ウチヤマチョウ,三重県四日市市内山町
5121102,三重県,四日市市,小山町,ミエケン,ヨッカイチシ,オヤマチョウ,三重県四日市市小山町
5121103,三重県,四日市市,西山町,ミエケン,ヨッカイチシ,ニシヤマチョウ,三重県四日市市西山町
5121104,三重県,四日市市,美里町,ミエケン,ヨッカイチシ,ミサトチョウ,三重県四日市市美里町
5121105,三重県,四日市市,水沢町,ミエケン,ヨッカイチシ,スイザワチョウ,三重県四日市市水沢町
5121111,三重県,四日市市,山田町,ミエケン,ヨッカイチシ,ヤマダチョウ,三重県四日市市山田町
5121113,三重県,四日市市,鹿間町,ミエケン,ヨッカイチシ,シカマチョウ,三重県四日市市鹿間町
5121114,三重県,四日市市,和無田町,ミエケン,ヨッカイチシ,ワンダチョウ,三重県四日市市和無田町
5121115,三重県,四日市市,堂ケ山町,ミエケン,ヨッカイチシ,ドウガヤマチョウ,三重県四日市市堂ケ山町
5121116,三重県,四日市市,六名町,ミエケン,ヨッカイチシ,ロクミョウチョウ,三重県四日市市六名町
5121201,三重県,四日市市,上海老町,ミエケン,ヨッカイチシ,カミエビチョウ,三重県四日市市上海老町
5121202,三重県,四日市市,あがたが丘,ミエケン,ヨッカイチシ,アガタガオカ,三重県四日市市あがたが丘
5121203,三重県,四日市市,下海老町,ミエケン,ヨッカイチシ,シモエビチョウ,三重県四日市市下海老町
5121204,三重県,四日市市,赤水町,ミエケン,ヨッカイチシ,アコズチョウ,三重県四日市市赤水町
5121205,三重県,四日市市,平尾町,ミエケン,ヨッカイチシ,ヒラオチョウ,三重県四日市市平尾町
5121206,三重県,四日市市,江村町,ミエケン,ヨッカイチシ,エムラチョウ,三重県四日市市江村町
5121207,三重県,四日市市,黒田町,ミエケン,ヨッカイチシ,クロダチョウ,三重県四日市市黒田町
5121208,三重県,四日市市,北野町,ミエケン,ヨッカイチシ,キタノチョウ,三重県四日市市北野町
5121211,三重県,四日市市,桜町,ミエケン,ヨッカイチシ,サクラチョウ,三重県四日市市桜町
5121212,三重県,四日市市,智積町,ミエケン,ヨッカイチシ,チシャクチョウ,三重県四日市市智積町
5121213,三重県,四日市市,桜台本町,ミエケン,ヨッカイチシ,サクラダイホンマチ,三重県四日市市桜台本町
5121214,三重県,四日市市,桜台,ミエケン,ヨッカイチシ,サクラダイ,三重県四日市市桜台
5121215,三重県,四日市市,桜新町,ミエケン,ヨッカイチシ,サクラシンマチ,三重県四日市市桜新町
5121216,三重県,四日市市,桜花台,ミエケン,ヨッカイチシ,オウカダイ,三重県四日市市桜花台
5121301,三重県,四日市市,高見台,ミエケン,ヨッカイチシ,タカミダイ,三重県四日市市高見台
5121302,三重県,四日市市,市場町,ミエケン,ヨッカイチシ,イチバチョウ,三重県四日市市市場町
5121303,三重県,四日市市,小牧町,ミエケン,ヨッカイチシ,コマキチョウ,三重県四日市市小牧町
5121304,三重県,四日市市,中野町,ミエケン,ヨッカイチシ,ナカノチョウ,三重県四日市市中野町
5121305,三重県,四日市市,西村町,ミエケン,ヨッカイチシ,ニシムラチョウ,三重県四日市市西村町
5121306,三重県,四日市市,まきの木台,ミエケン,ヨッカイチシ,マキノキダイ,三重県四日市市まきの木台
5128041,三重県,四日市市,山分町,ミエケン,ヨッカイチシ,ヤマケチョウ,三重県四日市市山分町
5128042,三重県,四日市市,平津町,ミエケン,ヨッカイチシ,ヘイヅチョウ,三重県四日市市平津町
5128043,三重県,四日市市,平津新町,ミエケン,ヨッカイチシ,ヘイヅシンマチ,三重県四日市市平津新町
5128044,三重県,四日市市,中村町,ミエケン,ヨッカイチシ,ナカムラチョウ,三重県四日市市中村町
5128045,三重県,四日市市,萱生町,ミエケン,ヨッカイチシ,カヨウチョウ,三重県四日市市萱生町
5128046,三重県,四日市市,あかつき台,ミエケン,ヨッカイチシ,アカツキダイ,三重県四日市市あかつき台
5128047,三重県,四日市市,八千代台,ミエケン,ヨッカイチシ,ヤチヨダイ,三重県四日市市八千代台
5128048,三重県,四日市市,山城町,ミエケン,ヨッカイチシ,ヤマジョウチョウ,三重県四日市市山城町
5128051,三重県,四日市市,北山町,ミエケン,ヨッカイチシ,キタヤマチョウ,三重県四日市市北山町
5128052,三重県,四日市市,西大鐘町,ミエケン,ヨッカイチシ,ニシオオガネチョウ,三重県四日市市西大鐘町
5128053,三重県,四日市市,大鐘町,ミエケン,ヨッカイチシ,オオガネチョウ,三重県四日市市大鐘町
5128054,三重県,四日市市,朝明町,ミエケン,ヨッカイチシ,アサケチョウ,三重県四日市市朝明町
5128055,三重県,四日市市,あさけが丘,ミエケン,ヨッカイチシ,アサケガオカ,三重県四日市市あさけが丘
5128056,三重県,四日市市,札場町,ミエケン,ヨッカイチシ,サツバチョウ,三重県四日市市札場町
5128061,三重県,四日市市,広永町,ミエケン,ヨッカイチシ,ヒロナガチョウ,三重県四日市市広永町
5128062,三重県,四日市市,黄金町,ミエケン,ヨッカイチシ,コガネチョウ,三重県四日市市黄金町
5128063,三重県,四日市市,山村町,ミエケン,ヨッカイチシ,ヤマムラチョウ,三重県四日市市山村町
5128064,三重県,四日市市,伊坂町,ミエケン,ヨッカイチシ,イサカチョウ,三重県四日市市伊坂町
5128065,三重県,四日市市,千代田町,ミエケン,ヨッカイチシ,チヨダチョウ,三重県四日市市千代田町
5128066,三重県,四日市市,伊坂台,ミエケン,ヨッカイチシ,イサカダイ,三重県四日市市伊坂台
5130000,三重県,鈴鹿市,,ミエケン,スズカシ,,三重県鈴鹿市
5130001,三重県,鈴鹿市,広瀬町,ミエケン,スズカシ,ヒロセチョウ,三重県鈴鹿市広瀬町
5130002,三重県,鈴鹿市,津賀町,ミエケン,スズカシ,ツガチョウ,三重県鈴鹿市津賀町
5130003,三重県,鈴鹿市,加佐登町,ミエケン,スズカシ,カサドチョウ,三重県鈴鹿市加佐登町
5130004,三重県,鈴鹿市,加佐登,ミエケン,スズカシ,カサド,三重県鈴鹿市加佐登
5130005,三重県,鈴鹿市,汲川原町,ミエケン,スズカシ,クミガワラチョウ,三重県鈴鹿市汲川原町
5130006,三重県,鈴鹿市,和泉町,ミエケン,スズカシ,イズミチョウ,三重県鈴鹿市和泉町
5130007,三重県,鈴鹿市,小田町,ミエケン,スズカシ,オダチョウ,三重県鈴鹿市小田町
5130008,三重県,鈴鹿市,西冨田町,ミエケン,スズカシ,ニシトミダチョウ,三重県鈴鹿市西冨田町
5130009,三重県,鈴鹿市,中冨田町,ミエケン,スズカシ,ナカトミダチョウ,三重県鈴鹿市中冨田町
5130010,三重県,鈴鹿市,釆女が丘町,ミエケン,スズカシ,ウネメガオカチョウ,三重県鈴鹿市釆女が丘町
5130011,三重県,鈴鹿市,高塚町,ミエケン,スズカシ,タカツカチョウ,三重県鈴鹿市高塚町
5130012,三重県,鈴鹿市,石薬師町,ミエケン,スズカシ,イシヤクシチョウ,三重県鈴鹿市石薬師町
5130013,三重県,鈴鹿市,国分町,ミエケン,スズカシ,コクブチョウ,三重県鈴鹿市国分町
5130014,三重県,鈴鹿市,高岡町,ミエケン,スズカシ,タカオカチョウ,三重県鈴鹿市高岡町
5130015,三重県,鈴鹿市,木田町,ミエケン,スズカシ,キダチョウ,三重県鈴鹿市木田町
5130016,三重県,鈴鹿市,山辺町,ミエケン,スズカシ,ヤマベチョウ,三重県鈴鹿市山辺町
5130017,三重県,鈴鹿市,上野町,ミエケン,スズカシ,ウエノチョウ,三重県鈴鹿市上野町
5130018,三重県,鈴鹿市,上田町,ミエケン,スズカシ,ウエダチョウ,三重県鈴鹿市上田町
5130019,三重県,鈴鹿市,高岡台,ミエケン,スズカシ,タカオカダイ,三重県鈴鹿市高岡台
5130021,三重県,鈴鹿市,甲斐町,ミエケン,スズカシ,カイチョウ,三重県鈴鹿市甲斐町
5130022,三重県,鈴鹿市,野辺町,ミエケン,スズカシ,ノンベチョウ,三重県鈴鹿市野辺町
5130023,三重県,鈴鹿市,河田町,ミエケン,スズカシ,コウダチョウ,三重県鈴鹿市河田町
5130024,三重県,鈴鹿市,野辺,ミエケン,スズカシ,ノンベ,三重県鈴鹿市野辺
5130025,三重県,鈴鹿市,竹野,ミエケン,スズカシ,タケノ,三重県鈴鹿市竹野
5130026,三重県,鈴鹿市,竹野町,ミエケン,スズカシ,タケノチョウ,三重県鈴鹿市竹野町
5130027,三重県,鈴鹿市,岡田,ミエケン,スズカシ,オカダ,三重県鈴鹿市岡田
5130028,三重県,鈴鹿市,岡田町,ミエケン,スズカシ,オカダチョウ,三重県鈴鹿市岡田町
5130031,三重県,鈴鹿市,一ノ宮町,ミエケン,スズカシ,イチノミヤチョウ,三重県鈴鹿市一ノ宮町
5130032,三重県,鈴鹿市,池田町,ミエケン,スズカシ,イケダチョウ,三重県鈴鹿市池田町
5130033,三重県,鈴鹿市,須賀町,ミエケン,スズカシ,スカチョウ,三重県鈴鹿市須賀町
5130034,三重県,鈴鹿市,須賀,ミエケン,スズカシ,スカ,三重県鈴鹿市須賀
5130035,三重県,鈴鹿市,矢橋町,ミエケン,スズカシ,ヤバセチョウ,三重県鈴鹿市矢橋町
5130036,三重県,鈴鹿市,矢橋,ミエケン,スズカシ,ヤバセ,三重県鈴鹿市矢橋
5130037,三重県,鈴鹿市,十宮,ミエケン,スズカシ,トミヤ,三重県鈴鹿市十宮
5130038,三重県,鈴鹿市,十宮町,ミエケン,スズカシ,トミヤチョウ,三重県鈴鹿市十宮町
5130041,三重県,鈴鹿市,長太新町,ミエケン,スズカシ,ナゴシンマチ,三重県鈴鹿市長太新町
5130042,三重県,鈴鹿市,長太旭町,ミエケン,スズカシ,ナゴアサヒマチ,三重県鈴鹿市長太旭町
5130043,三重県,鈴鹿市,長太栄町,ミエケン,スズカシ,ナゴサカエマチ,三重県鈴鹿市長太栄町
5130044,三重県,鈴鹿市,北堀江町,ミエケン,スズカシ,キタホリエチョウ,三重県鈴鹿市北堀江町
5130045,三重県,鈴鹿市,北堀江,ミエケン,スズカシ,キタホリエ,三重県鈴鹿市北堀江
5130046,三重県,鈴鹿市,南堀江,ミエケン,スズカシ,ミナミホリエ,三重県鈴鹿市南堀江
5130047,三重県,鈴鹿市,南堀江町,ミエケン,スズカシ,ミナミホリエチョウ,三重県鈴鹿市南堀江町
5130048,三重県,鈴鹿市,南長太町,ミエケン,スズカシ,ミナミナゴチョウ,三重県鈴鹿市南長太町
5130049,三重県,鈴鹿市,北長太町,ミエケン,スズカシ,キタナゴチョウ,三重県鈴鹿市北長太町
5130051,三重県,鈴鹿市,下箕田町,ミエケン,スズカシ,シモミダチョウ,三重県鈴鹿市下箕田町
5130052,三重県,鈴鹿市,下箕田,ミエケン,スズカシ,シモミダ,三重県鈴鹿市下箕田
5130053,三重県,鈴鹿市,中箕田町,ミエケン,スズカシ,ナカミダチョウ,三重県鈴鹿市中箕田町
5130054,三重県,鈴鹿市,中箕田,ミエケン,スズカシ,ナカミダ,三重県鈴鹿市中箕田
5130055,三重県,鈴鹿市,上箕田町,ミエケン,スズカシ,カミミダチョウ,三重県鈴鹿市上箕田町
5130056,三重県,鈴鹿市,上箕田,ミエケン,スズカシ,カミミダ,三重県鈴鹿市上箕田
5130057,三重県,鈴鹿市,南林崎町,ミエケン,スズカシ,ミナミハヤサキチョウ,三重県鈴鹿市南林崎町
5130058,三重県,鈴鹿市,林崎,ミエケン,スズカシ,ハヤサキ,三重県鈴鹿市林崎
5130059,三重県,鈴鹿市,林崎町,ミエケン,スズカシ,ハヤサキチョウ,三重県鈴鹿市林崎町
5130801,三重県,鈴鹿市,神戸,ミエケン,スズカシ,カンベ,三重県鈴鹿市神戸
5130801,三重県,鈴鹿市,神戸本多町,ミエケン,スズカシ,カンベホンダマチ,三重県鈴鹿市神戸本多町
5130802,三重県,鈴鹿市,飯野寺家町,ミエケン,スズカシ,イイノジケチョウ,三重県鈴鹿市飯野寺家町
5130803,三重県,鈴鹿市,三日市町,ミエケン,スズカシ,ミッカイチチョウ,三重県鈴鹿市三日市町
5130804,三重県,鈴鹿市,三日市南,ミエケン,スズカシ,ミッカイチミナミ,三重県鈴鹿市三日市南
5130805,三重県,鈴鹿市,算所町,ミエケン,スズカシ,サンジョチョウ,三重県鈴鹿市算所町
5130806,三重県,鈴鹿市,算所,ミエケン,スズカシ,サンジョ,三重県鈴鹿市算所
5130807,三重県,鈴鹿市,三日市,ミエケン,スズカシ,ミッカイチ,三重県鈴鹿市三日市
5130808,三重県,鈴鹿市,西條町,ミエケン,スズカシ,ニシジョウチョウ,三重県鈴鹿市西條町
5130809,三重県,鈴鹿市,西条,ミエケン,スズカシ,ニシジョウ,三重県鈴鹿市西条
5130811,三重県,鈴鹿市,柳町,ミエケン,スズカシ,ヤナギチョウ,三重県鈴鹿市柳町
5130812,三重県,鈴鹿市,土師町,ミエケン,スズカシ,ハゼチョウ,三重県鈴鹿市土師町
5130813,三重県,鈴鹿市,北玉垣町,ミエケン,スズカシ,キタタマガキチョウ,三重県鈴鹿市北玉垣町
5130814,三重県,鈴鹿市,東玉垣町,ミエケン,スズカシ,ヒガシタマガキチョウ,三重県鈴鹿市東玉垣町
5130815,三重県,鈴鹿市,西玉垣町,ミエケン,スズカシ,ニシタマガキチョウ,三重県鈴鹿市西玉垣町
5130816,三重県,鈴鹿市,南玉垣町,ミエケン,スズカシ,ミナミタマガキチョウ,三重県鈴鹿市南玉垣町
5130817,三重県,鈴鹿市,桜島町,ミエケン,スズカシ,サクラジマチョウ,三重県鈴鹿市桜島町
5130818,三重県,鈴鹿市,安塚町,ミエケン,スズカシ,ヤスヅカチョウ,三重県鈴鹿市安塚町
5130819,三重県,鈴鹿市,肥田町,ミエケン,スズカシ,ヒダチョウ,三重県鈴鹿市肥田町
5130821,三重県,鈴鹿市,地子町,ミエケン,スズカシ,ジシマチ,三重県鈴鹿市地子町
5130822,三重県,鈴鹿市,末広町,ミエケン,スズカシ,スエヒロチョウ,三重県鈴鹿市末広町
5130823,三重県,鈴鹿市,道伯,ミエケン,スズカシ,ドウハク,三重県鈴鹿市道伯
5130824,三重県,鈴鹿市,道伯町,ミエケン,スズカシ,ドウハクチョウ,三重県鈴鹿市道伯町
5130825,三重県,鈴鹿市,住吉町,ミエケン,スズカシ,スミヨシチョウ,三重県鈴鹿市住吉町
5130826,三重県,鈴鹿市,住吉,ミエケン,スズカシ,スミヨシ,三重県鈴鹿市住吉
5130827,三重県,鈴鹿市,大池,ミエケン,スズカシ,オオイケ,三重県鈴鹿市大池
5130828,三重県,鈴鹿市,阿古曽町,ミエケン,スズカシ,アコソチョウ,三重県鈴鹿市阿古曽町
5130831,三重県,鈴鹿市,庄野町,ミエケン,スズカシ,ショウノチョウ,三重県鈴鹿市庄野町
5130832,三重県,鈴鹿市,庄野東,ミエケン,スズカシ,ショウノヒガシ,三重県鈴鹿市庄野東
5130833,三重県,鈴鹿市,庄野共進,ミエケン,スズカシ,ショウノキョウシン,三重県鈴鹿市庄野共進
5130834,三重県,鈴鹿市,庄野羽山,ミエケン,スズカシ,ショウノハヤマ,三重県鈴鹿市庄野羽山
5130835,三重県,鈴鹿市,平野町,ミエケン,スズカシ,ヒラノチョウ,三重県鈴鹿市平野町
5130836,三重県,鈴鹿市,国府町,ミエケン,スズカシ,コウチョウ,三重県鈴鹿市国府町
5130837,三重県,鈴鹿市,八野町,ミエケン,スズカシ,ハチノチョウ,三重県鈴鹿市八野町
5130841,三重県,鈴鹿市,弓削町,ミエケン,スズカシ,ユゲチョウ,三重県鈴鹿市弓削町
5130842,三重県,鈴鹿市,弓削,ミエケン,スズカシ,ユゲ,三重県鈴鹿市弓削
5130843,三重県,鈴鹿市,平田東町,ミエケン,スズカシ,ヒラタヒガシマチ,三重県鈴鹿市平田東町
5130844,三重県,鈴鹿市,平田,ミエケン,スズカシ,ヒラタ,三重県鈴鹿市平田
5130845,三重県,鈴鹿市,平田新町,ミエケン,スズカシ,ヒラタシンマチ,三重県鈴鹿市平田新町
5130846,三重県,鈴鹿市,平田中町,ミエケン,スズカシ,ヒラタナカマチ,三重県鈴鹿市平田中町
5130847,三重県,鈴鹿市,平田町,ミエケン,スズカシ,ヒラタチョウ,三重県鈴鹿市平田町
5130848,三重県,鈴鹿市,平田本町,ミエケン,スズカシ,ヒラタホンマチ,三重県鈴鹿市平田本町
5130851,三重県,鈴鹿市,末広東,ミエケン,スズカシ,スエヒロヒガシ,三重県鈴鹿市末広東
5130852,三重県,鈴鹿市,末広西,ミエケン,スズカシ,スエヒロニシ,三重県鈴鹿市末広西
5130853,三重県,鈴鹿市,末広南,ミエケン,スズカシ,スエヒロミナミ,三重県鈴鹿市末広南
5130854,三重県,鈴鹿市,末広北,ミエケン,スズカシ,スエヒロキタ,三重県鈴鹿市末広北
5130855,三重県,鈴鹿市,石垣,ミエケン,スズカシ,イシガキ,三重県鈴鹿市石垣
5131121,三重県,鈴鹿市,岸田町,ミエケン,スズカシ,キシタチョウ,三重県鈴鹿市岸田町
5131122,三重県,鈴鹿市,花川町,ミエケン,スズカシ,ハナガワチョウ,三重県鈴鹿市花川町
5131123,三重県,鈴鹿市,下大久保町,ミエケン,スズカシ,シモオオクボチョウ,三重県鈴鹿市下大久保町
5131124,三重県,鈴鹿市,自由ヶ丘,ミエケン,スズカシ,ジユウガオカ,三重県鈴鹿市自由ヶ丘
5140000,三重県,津市,,ミエケン,ツシ,,三重県津市
5140001,三重県,津市,江戸橋,ミエケン,ツシ,エドバシ,三重県津市江戸橋
5140002,三重県,津市,島崎町,ミエケン,ツシ,シマザキチョウ,三重県津市島崎町
5140003,三重県,津市,桜橋,ミエケン,ツシ,サクラバシ,三重県津市桜橋
5140004,三重県,津市,栄町,ミエケン,ツシ,サカエマチ,三重県津市栄町
5140005,三重県,津市,鳥居町,ミエケン,ツシ,トリイチョウ,三重県津市鳥居町
5140006,三重県,津市,広明町,ミエケン,ツシ,コウメイチョウ,三重県津市広明町
5140007,三重県,津市,大谷町,ミエケン,ツシ,オオタニチョウ,三重県津市大谷町
5140008,三重県,津市,上浜町,ミエケン,ツシ,カミハマチョウ,三重県津市上浜町
5140009,三重県,津市,羽所町,ミエケン,ツシ,ハドコロチョウ,三重県津市羽所町
5140010,三重県,津市,なぎさまち,ミエケン,ツシ,ナギサマチ,三重県津市なぎさまち
5140011,三重県,津市,高洲町,ミエケン,ツシ,タカスチョウ,三重県津市高洲町
5140012,三重県,津市,末広町,ミエケン,ツシ,スエヒロチョウ,三重県津市末広町
5140013,三重県,津市,海岸町,ミエケン,ツシ,カイガンチョウ,三重県津市海岸町
5140014,三重県,津市,港町,ミエケン,ツシ,ミナトマチ,三重県津市港町
5140015,三重県,津市,寿町,ミエケン,ツシ,コトブキチョウ,三重県津市寿町
5140016,三重県,津市,乙部,ミエケン,ツシ,オトベ,三重県津市乙部
5140017,三重県,津市,相生町,ミエケン,ツシ,アイオイチョウ,三重県津市相生町
5140018,三重県,津市,中河原,ミエケン,ツシ,ナカガワラ,三重県津市中河原
5140019,三重県,津市,住吉町,ミエケン,ツシ,スミヨシチョウ,三重県津市住吉町
5140021,三重県,津市,万町津,ミエケン,ツシ,ヨロズマチツ,三重県津市万町津
5140022,三重県,津市,愛宕町,ミエケン,ツシ,アタゴチョウ,三重県津市愛宕町
5140023,三重県,津市,北町津,ミエケン,ツシ,キタマチツ,三重県津市北町津
5140024,三重県,津市,新立町津,ミエケン,ツシ,シンタテマチツ,三重県津市新立町津
5140025,三重県,津市,東町津,ミエケン,ツシ,ヒガシマチツ,三重県津市東町津
5140026,三重県,津市,新東町塔世,ミエケン,ツシ,シンヒガシマチトウセ,三重県津市新東町塔世
5140027,三重県,津市,大門,ミエケン,ツシ,ダイモン,三重県津市大門
5140028,三重県,津市,東丸之内,ミエケン,ツシ,ヒガシマルノウチ,三重県津市東丸之内
5140031,三重県,津市,北丸之内,ミエケン,ツシ,キタマルノウチ,三重県津市北丸之内
5140032,三重県,津市,中央,ミエケン,ツシ,チュウオウ,三重県津市中央
5140033,三重県,津市,丸之内,ミエケン,ツシ,マルノウチ,三重県津市丸之内
5140034,三重県,津市,南丸之内,ミエケン,ツシ,ミナミマルノウチ,三重県津市南丸之内
5140035,三重県,津市,西丸之内,ミエケン,ツシ,ニシマルノウチ,三重県津市西丸之内
5140036,三重県,津市,丸之内養正町,ミエケン,ツシ,マルノウチヨウセイチョウ,三重県津市丸之内養正町
5140037,三重県,津市,東古河町,ミエケン,ツシ,ヒガシフルカワチョウ,三重県津市東古河町
5140038,三重県,津市,西古河町,ミエケン,ツシ,ニシフルカワチョウ,三重県津市西古河町
5140039,三重県,津市,押加部町,ミエケン,ツシ,オシカベチョウ,三重県津市押加部町
5140041,三重県,津市,八町,ミエケン,ツシ,ハッチョウ,三重県津市八町
5140042,三重県,津市,新町,ミエケン,ツシ,シンマチ,三重県津市新町
5140043,三重県,津市,南新町,ミエケン,ツシ,ミナミシンマチ,三重県津市南新町
5140044,三重県,津市,川添町,ミエケン,ツシ,カワゾエチョウ,三重県津市川添町
5140045,三重県,津市,美川町,ミエケン,ツシ,ミカワチョウ,三重県津市美川町
5140046,三重県,津市,大園町,ミエケン,ツシ,オオゾノチョウ,三重県津市大園町
5140047,三重県,津市,桜田町,ミエケン,ツシ,サクラダチョウ,三重県津市桜田町
5140051,三重県,津市,納所町,ミエケン,ツシ,ノウソチョウ,三重県津市納所町
5140052,三重県,津市,神納町,ミエケン,ツシ,カノウチョウ,三重県津市神納町
5140053,三重県,津市,博多町,ミエケン,ツシ,ハカタチョウ,三重県津市博多町
5140054,三重県,津市,神納,ミエケン,ツシ,カノウ,三重県津市神納
5140055,三重県,津市,南河路,ミエケン,ツシ,ミナミコウジ,三重県津市南河路
5140056,三重県,津市,北河路町,ミエケン,ツシ,キタコウジチョウ,三重県津市北河路町
5140057,三重県,津市,一色町,ミエケン,ツシ,イッシキチョウ,三重県津市一色町
5140058,三重県,津市,安東町,ミエケン,ツシ,アントウチョウ,三重県津市安東町
5140061,三重県,津市,一身田上津部田,ミエケン,ツシ,イッシンデンコウヅベタ,三重県津市一身田上津部田
5140062,三重県,津市,観音寺町,ミエケン,ツシ,カンノンジチョウ,三重県津市観音寺町
5140063,三重県,津市,渋見町,ミエケン,ツシ,シブミチョウ,三重県津市渋見町
5140064,三重県,津市,長岡町,ミエケン,ツシ,ナガオカチョウ,三重県津市長岡町
5140065,三重県,津市,河辺町,ミエケン,ツシ,コウベチョウ,三重県津市河辺町
5140071,三重県,津市,分部,ミエケン,ツシ,ワケベ,三重県津市分部
5140072,三重県,津市,小舟,ミエケン,ツシ,オブネ,三重県津市小舟
5140073,三重県,津市,殿村,ミエケン,ツシ,トノムラ,三重県津市殿村
5140074,三重県,津市,片田長谷場町,ミエケン,ツシ,カタダハセバチョウ,三重県津市片田長谷場町
5140075,三重県,津市,片田志袋町,ミエケン,ツシ,カタダシブクロチョウ,三重県津市片田志袋町
5140076,三重県,津市,産品,ミエケン,ツシ,ウブシナ,三重県津市産品
5140077,三重県,津市,片田長谷町,ミエケン,ツシ,カタダハセチョウ,三重県津市片田長谷町
5140081,三重県,津市,片田田中町,ミエケン,ツシ,カタダタナカチョウ,三重県津市片田田中町
5140082,三重県,津市,片田井戸町,ミエケン,ツシ,カタダイドチョウ,三重県津市片田井戸町
5140083,三重県,津市,片田新町,ミエケン,ツシ,カタダシンマチ,三重県津市片田新町
5140084,三重県,津市,片田町,ミエケン,ツシ,カタダチョウ,三重県津市片田町
5140085,三重県,津市,片田久保町,ミエケン,ツシ,カタダクボチョウ,三重県津市片田久保町
5140086,三重県,津市,片田薬王寺町,ミエケン,ツシ,カタダヤクオウジチョウ,三重県津市片田薬王寺町
5140101,三重県,津市,白塚町,ミエケン,ツシ,シラツカチョウ,三重県津市白塚町
5140102,三重県,津市,栗真町屋町,ミエケン,ツシ,クリママチヤチョウ,三重県津市栗真町屋町
5140103,三重県,津市,栗真中山町,ミエケン,ツシ,クリマナカヤマチョウ,三重県津市栗真中山町
5140104,三重県,津市,栗真小川町,ミエケン,ツシ,クリマコガワチョウ,三重県津市栗真小川町
5140111,三重県,津市,一身田平野,ミエケン,ツシ,イッシンデンヒラノ,三重県津市一身田平野
5140112,三重県,津市,一身田中野,ミエケン,ツシ,イッシンデンナカノ,三重県津市一身田中野
5140113,三重県,津市,一身田大古曽,ミエケン,ツシ,イッシンデンオオゴソ,三重県津市一身田大古曽
5140114,三重県,津市,一身田町,ミエケン,ツシ,イッシンデンチョウ,三重県津市一身田町
5140115,三重県,津市,一身田豊野,ミエケン,ツシ,イッシンデントヨノ,三重県津市一身田豊野
5140116,三重県,津市,夢が丘,ミエケン,ツシ,ユメガオカ,三重県津市夢が丘
5140121,三重県,津市,大里山室町,ミエケン,ツシ,オオザトヤマムロチョウ,三重県津市大里山室町
5140122,三重県,津市,大里野田町,ミエケン,ツシ,オオザトノダチョウ,三重県津市大里野田町
5140123,三重県,津市,大里小野田町,ミエケン,ツシ,オオザトコノダチョウ,三重県津市大里小野田町
5140124,三重県,津市,大里川北町,ミエケン,ツシ,オオザトカワキタチョウ,三重県津市大里川北町
5140125,三重県,津市,大里窪田町,ミエケン,ツシ,オオザトクボタチョウ,三重県津市大里窪田町
5140126,三重県,津市,大里睦合町,ミエケン,ツシ,オオザトムツアイチョウ,三重県津市大里睦合町
5140131,三重県,津市,あのつ台,ミエケン,ツシ,アノツダイ,三重県津市あのつ台
5140301,三重県,津市,雲出鋼管町,ミエケン,ツシ,クモズコウカンチョウ,三重県津市雲出鋼管町
5140302,三重県,津市,雲出伊倉津町,ミエケン,ツシ,クモズイグラヅチョウ,三重県津市雲出伊倉津町
5140303,三重県,津市,雲出長常町,ミエケン,ツシ,クモズナガツネチョウ,三重県津市雲出長常町
5140304,三重県,津市,雲出本郷町,ミエケン,ツシ,クモズホンゴウチョウ,三重県津市雲出本郷町
5140305,三重県,津市,雲出島貫町,ミエケン,ツシ,クモズシマヌキチョウ,三重県津市雲出島貫町
5140311,三重県,津市,香良洲町（稲葉）,ミエケン,ツシ,カラスチョウ(イナバ),三重県津市香良洲町（稲葉）
5140312,三重県,津市,香良洲町（小松）,ミエケン,ツシ,カラスチョウ(コマツ),三重県津市香良洲町（小松）
5140313,三重県,津市,香良洲町（浜浦）,ミエケン,ツシ,カラスチョウ(ハマウラ),三重県津市香良洲町（浜浦）
5140314,三重県,津市,香良洲町（高砂）,ミエケン,ツシ,カラスチョウ(タカサゴ),三重県津市香良洲町（高砂）
5140315,三重県,津市,香良洲町（その他）,ミエケン,ツシ,カラスチョウ(ソノタ),三重県津市香良洲町（その他）
5140321,三重県,津市,香良洲町（砂原）,ミエケン,ツシ,カラスチョウ(スナハラ),三重県津市香良洲町（砂原）
5140323,三重県,津市,香良洲町（馬場）,ミエケン,ツシ,カラスチョウ(ババ),三重県津市香良洲町（馬場）
5140324,三重県,津市,香良洲町（地家）,ミエケン,ツシ,カラスチョウ(ジケ),三重県津市香良洲町（地家）
5140325,三重県,津市,香良洲町（桜町）,ミエケン,ツシ,カラスチョウ(サクラマチ),三重県津市香良洲町（桜町）
5140326,三重県,津市,香良洲町（川原）,ミエケン,ツシ,カラスチョウ(カワハラ),三重県津市香良洲町（川原）
5140801,三重県,津市,船頭町津興,ミエケン,ツシ,センドウマチツオキ,三重県津市船頭町津興
5140802,三重県,津市,三重町津興,ミエケン,ツシ,ミエチョウツオキ,三重県津市三重町津興
5140803,三重県,津市,柳山津興,ミエケン,ツシ,ヤナギヤマツオキ,三重県津市柳山津興
5140804,三重県,津市,上弁財町津興,ミエケン,ツシ,カミベザイマチツオキ,三重県津市上弁財町津興
5140805,三重県,津市,下弁財町津興,ミエケン,ツシ,シモベザイマチツオキ,三重県津市下弁財町津興
5140806,三重県,津市,上弁財町,ミエケン,ツシ,カミベザイチョウ,三重県津市上弁財町
5140811,三重県,津市,阿漕町,ミエケン,ツシ,アコギマチ,三重県津市阿漕町
5140812,三重県,津市,津興,ミエケン,ツシ,ツオキ,三重県津市津興
5140813,三重県,津市,八幡町,ミエケン,ツシ,ヤハタチョウ,三重県津市八幡町
5140814,三重県,津市,藤枝町,ミエケン,ツシ,フジエダチョウ,三重県津市藤枝町
5140815,三重県,津市,藤方,ミエケン,ツシ,フジカタ,三重県津市藤方
5140816,三重県,津市,高茶屋小森上野町,ミエケン,ツシ,タカヂャヤコモリウエノチョウ,三重県津市高茶屋小森上野町
5140817,三重県,津市,高茶屋小森町,ミエケン,ツシ,タカヂャヤコモリチョウ,三重県津市高茶屋小森町
5140818,三重県,津市,城山,ミエケン,ツシ,シロヤマ,三重県津市城山
5140819,三重県,津市,高茶屋,ミエケン,ツシ,タカヂャヤ,三重県津市高茶屋
5140821,三重県,津市,垂水,ミエケン,ツシ,タルミ,三重県津市垂水
5140822,三重県,津市,南が丘,ミエケン,ツシ,ミナミガオカ,三重県津市南が丘
5140823,三重県,津市,半田,ミエケン,ツシ,ハンダ,三重県津市半田
5140824,三重県,津市,神戸,ミエケン,ツシ,カンベ,三重県津市神戸
5140825,三重県,津市,緑が丘,ミエケン,ツシ,ミドリガオカ,三重県津市緑が丘
5140826,三重県,津市,野田,ミエケン,ツシ,ノダ,三重県津市野田
5140831,三重県,津市,本町,ミエケン,ツシ,ホンマチ,三重県津市本町
5140832,三重県,津市,南中央,ミエケン,ツシ,ミナミチュウオウ,三重県津市南中央
5140833,三重県,津市,西阿漕町岩田,ミエケン,ツシ,ニシアコギチョウイワタ,三重県津市西阿漕町岩田
5140834,三重県,津市,大倉,ミエケン,ツシ,オオクラ,三重県津市大倉
5140835,三重県,津市,幸町,ミエケン,ツシ,サイワイチョウ,三重県津市幸町
5140836,三重県,津市,野崎垣内岩田,ミエケン,ツシ,ノザキガイトイワタ,三重県津市野崎垣内岩田
5140837,三重県,津市,修成町,ミエケン,ツシ,シュウセイチョウ,三重県津市修成町
5140838,三重県,津市,岩田,ミエケン,ツシ,イワタ,三重県津市岩田
5141101,三重県,津市,久居明神町,ミエケン,ツシ,ヒサイミョウジンチョウ,三重県津市久居明神町
5141102,三重県,津市,久居藤ケ丘町,ミエケン,ツシ,ヒサイフジガオカチョウ,三重県津市久居藤ケ丘町
5141103,三重県,津市,久居相川町,ミエケン,ツシ,ヒサイアイカワチョウ,三重県津市久居相川町
5141104,三重県,津市,久居持川町,ミエケン,ツシ,ヒサイモチカワチョウ,三重県津市久居持川町
5141105,三重県,津市,久居北口町,ミエケン,ツシ,ヒサイキタグチチョウ,三重県津市久居北口町
5141106,三重県,津市,久居寺町,ミエケン,ツシ,ヒサイテラマチ,三重県津市久居寺町
5141107,三重県,津市,久居中町,ミエケン,ツシ,ヒサイナカマチ,三重県津市久居中町
5141108,三重県,津市,久居射場町,ミエケン,ツシ,ヒサイイバチョウ,三重県津市久居射場町
5141109,三重県,津市,久居烏木町,ミエケン,ツシ,ヒサイカラスギチョウ,三重県津市久居烏木町
5141111,三重県,津市,久居桜が丘町,ミエケン,ツシ,ヒサイサクラガオカチョウ,三重県津市久居桜が丘町
5141112,三重県,津市,久居小野辺町,ミエケン,ツシ,ヒサイコノンベチョウ,三重県津市久居小野辺町
5141113,三重県,津市,久居野村町,ミエケン,ツシ,ヒサイノムラチョウ,三重県津市久居野村町
5141114,三重県,津市,久居井戸山町,ミエケン,ツシ,ヒサイイドヤマチョウ,三重県津市久居井戸山町
5141115,三重県,津市,木造町,ミエケン,ツシ,コツクリチョウ,三重県津市木造町
5141116,三重県,津市,新家町,ミエケン,ツシ,ニノミチョウ,三重県津市新家町
5141117,三重県,津市,久居野口町,ミエケン,ツシ,ヒサイノグチチョウ,三重県津市久居野口町
5141118,三重県,津市,久居新町,ミエケン,ツシ,ヒサイシンマチ,三重県津市久居新町
5141121,三重県,津市,久居二ノ町,ミエケン,ツシ,ヒサイニノマチ,三重県津市久居二ノ町
5141122,三重県,津市,川方町,ミエケン,ツシ,カワカタチョウ,三重県津市川方町
5141123,三重県,津市,牧町,ミエケン,ツシ,マキチョウ,三重県津市牧町
5141124,三重県,津市,須ケ瀬町,ミエケン,ツシ,スガゼチョウ,三重県津市須ケ瀬町
5141125,三重県,津市,久居元町,ミエケン,ツシ,ヒサイモトマチ,三重県津市久居元町
5141131,三重県,津市,久居西鷹跡町,ミエケン,ツシ,ヒサイニシタカトマチ,三重県津市久居西鷹跡町
5141132,三重県,津市,久居幸町,ミエケン,ツシ,ヒサイサヤマチ,三重県津市久居幸町
5141133,三重県,津市,久居万町,ミエケン,ツシ,ヒサイヨロズマチ,三重県津市久居万町
5141134,三重県,津市,久居旅籠町,ミエケン,ツシ,ヒサイハタゴマチ,三重県津市久居旅籠町
5141135,三重県,津市,久居本町,ミエケン,ツシ,ヒサイホンマチ,三重県津市久居本町
5141136,三重県,津市,久居東鷹跡町,ミエケン,ツシ,ヒサイヒガシタカトマチ,三重県津市久居東鷹跡町
5141137,三重県,津市,久居小戸木町,ミエケン,ツシ,ヒサイコベキチョウ,三重県津市久居小戸木町
5141138,三重県,津市,戸木町,ミエケン,ツシ,ヘキチョウ,三重県津市戸木町
5141139,三重県,津市,青葉台,ミエケン,ツシ,アオバダイ,三重県津市青葉台
5141251,三重県,津市,榊原町,ミエケン,ツシ,サカキバラチョウ,三重県津市榊原町
5141252,三重県,津市,稲葉町,ミエケン,ツシ,イナバチョウ,三重県津市稲葉町
5141253,三重県,津市,久居一色町,ミエケン,ツシ,ヒサイイッシキチョウ,三重県津市久居一色町
5141254,三重県,津市,森町,ミエケン,ツシ,モリチョウ,三重県津市森町
5141255,三重県,津市,庄田町,ミエケン,ツシ,ショウダチョウ,三重県津市庄田町
5141256,三重県,津市,中村町,ミエケン,ツシ,ナカムラチョウ,三重県津市中村町
5141257,三重県,津市,大鳥町,ミエケン,ツシ,オオドリチョウ,三重県津市大鳥町
5141258,三重県,津市,久居緑が丘町,ミエケン,ツシ,ヒサイミドリガオカチョウ,三重県津市久居緑が丘町
5142101,三重県,津市,美里町高座原,ミエケン,ツシ,ミサトチョウコウザワラ,三重県津市美里町高座原
5142102,三重県,津市,美里町船山,ミエケン,ツシ,ミサトチョウフナヤマ,三重県津市美里町船山
5142103,三重県,津市,美里町日南田,ミエケン,ツシ,ミサトチョウヒナタ,三重県津市美里町日南田
5142104,三重県,津市,美里町家所,ミエケン,ツシ,ミサトチョウイエドコロ,三重県津市美里町家所
5142105,三重県,津市,美里町五百野,ミエケン,ツシ,ミサトチョウイオノ,三重県津市美里町五百野
5142106,三重県,津市,美里町足坂,ミエケン,ツシ,ミサトチョウアシザカ,三重県津市美里町足坂
5142107,三重県,津市,美里町穴倉,ミエケン,ツシ,ミサトチョウアナクラ,三重県津市美里町穴倉
5142111,三重県,津市,美里町平木,ミエケン,ツシ,ミサトチョウヒラギ,三重県津市美里町平木
5142112,三重県,津市,美里町北長野,ミエケン,ツシ,ミサトチョウキタナガノ,三重県津市美里町北長野
5142113,三重県,津市,美里町三郷,ミエケン,ツシ,ミサトチョウミサト,三重県津市美里町三郷
5142114,三重県,津市,美里町南長野,ミエケン,ツシ,ミサトチョウミナミナガノ,三重県津市美里町南長野
5142115,三重県,津市,美里町桂畑,ミエケン,ツシ,ミサトチョウカツラハタ,三重県津市美里町桂畑
5142201,三重県,津市,芸濃町楠原,ミエケン,ツシ,ゲイノウチョウクスワラ,三重県津市芸濃町楠原
5142202,三重県,津市,芸濃町林,ミエケン,ツシ,ゲイノウチョウハヤシ,三重県津市芸濃町林
5142203,三重県,津市,芸濃町中縄,ミエケン,ツシ,ゲイノウチョウナカナワ,三重県津市芸濃町中縄
5142204,三重県,津市,芸濃町雲林院,ミエケン,ツシ,ゲイノウチョウウジイ,三重県津市芸濃町雲林院
5142205,三重県,津市,芸濃町多門,ミエケン,ツシ,ゲイノウチョウタモン,三重県津市芸濃町多門
5142206,三重県,津市,芸濃町小野平,ミエケン,ツシ,ゲイノウチョウオノヒラ,三重県津市芸濃町小野平
5142207,三重県,津市,芸濃町河内,ミエケン,ツシ,ゲイノウチョウコウチ,三重県津市芸濃町河内
5142208,三重県,津市,芸濃町忍田,ミエケン,ツシ,ゲイノウチョウオシダ,三重県津市芸濃町忍田
5142211,三重県,津市,芸濃町椋本,ミエケン,ツシ,ゲイノウチョウムクモト,三重県津市芸濃町椋本
5142212,三重県,津市,芸濃町岡本,ミエケン,ツシ,ゲイノウチョウオカモト,三重県津市芸濃町岡本
5142213,三重県,津市,芸濃町北神山,ミエケン,ツシ,ゲイノウチョウキタコヤマ,三重県津市芸濃町北神山
5142214,三重県,津市,芸濃町萩野,ミエケン,ツシ,ゲイノウチョウハギノ,三重県津市芸濃町萩野
5142221,三重県,津市,高野尾町,ミエケン,ツシ,タカノオチョウ,三重県津市高野尾町
5142222,三重県,津市,豊が丘,ミエケン,ツシ,トヨガオカ,三重県津市豊が丘
5142301,三重県,津市,安濃町荒木,ミエケン,ツシ,アノウチョウアラキ,三重県津市安濃町荒木
5142302,三重県,津市,安濃町安濃,ミエケン,ツシ,アノウチョウアノウ,三重県津市安濃町安濃
5142303,三重県,津市,安濃町内多,ミエケン,ツシ,アノウチョウウチダ,三重県津市安濃町内多
5142304,三重県,津市,安濃町太田,ミエケン,ツシ,アノウチョウオオタ,三重県津市安濃町太田
5142305,三重県,津市,安濃町清水,ミエケン,ツシ,アノウチョウシミズ,三重県津市安濃町清水
5142306,三重県,津市,安濃町曽根,ミエケン,ツシ,アノウチョウソネ,三重県津市安濃町曽根
5142307,三重県,津市,安濃町浄土寺,ミエケン,ツシ,アノウチョウジョウドウジ,三重県津市安濃町浄土寺
5142308,三重県,津市,安濃町川西,ミエケン,ツシ,アノウチョウカワニシ,三重県津市安濃町川西
5142311,三重県,津市,安濃町神田,ミエケン,ツシ,アノウチョウコウダ,三重県津市安濃町神田
5142312,三重県,津市,安濃町連部,ミエケン,ツシ,アノウチョウツラベ,三重県津市安濃町連部
5142313,三重県,津市,安濃町今徳,ミエケン,ツシ,アノウチョウコンドク,三重県津市安濃町今徳
5142314,三重県,津市,安濃町妙法寺,ミエケン,ツシ,アノウチョウミョウホウジ,三重県津市安濃町妙法寺
5142315,三重県,津市,安濃町光明寺,ミエケン,ツシ,アノウチョウコウミョウジ,三重県津市安濃町光明寺
5142316,三重県,津市,安濃町南神山,ミエケン,ツシ,アノウチョウミナミコヤマ,三重県津市安濃町南神山
5142317,三重県,津市,安濃町前野,ミエケン,ツシ,アノウチョウマエノ,三重県津市安濃町前野
5142318,三重県,津市,安濃町中川,ミエケン,ツシ,アノウチョウナカガワ,三重県津市安濃町中川
5142321,三重県,津市,安濃町野口,ミエケン,ツシ,アノウチョウノグチ,三重県津市安濃町野口
5142322,三重県,津市,安濃町戸島,ミエケン,ツシ,アノウチョウトシマ,三重県津市安濃町戸島
5142323,三重県,津市,安濃町大塚,ミエケン,ツシ,アノウチョウオオツカ,三重県津市安濃町大塚
5142324,三重県,津市,安濃町粟加,ミエケン,ツシ,アノウチョウオウカ,三重県津市安濃町粟加
5142325,三重県,津市,安濃町田端上野,ミエケン,ツシ,アノウチョウタバタウエノ,三重県津市安濃町田端上野
5142326,三重県,津市,安濃町東観音寺,ミエケン,ツシ,アノウチョウトウカンオンジ,三重県津市安濃町東観音寺
5142327,三重県,津市,安濃町安部,ミエケン,ツシ,アノウチョウアベ,三重県津市安濃町安部
5142328,三重県,津市,安濃町草生,ミエケン,ツシ,アノウチョウクサワ,三重県津市安濃町草生
5150000,三重県,松阪市,,ミエケン,マツサカシ,,三重県松阪市
5150001,三重県,松阪市,大口町,ミエケン,マツサカシ,オオクチチョウ,三重県松阪市大口町
5150002,三重県,松阪市,郷津町,ミエケン,マツサカシ,ゴウヅチョウ,三重県松阪市郷津町
5150003,三重県,松阪市,朝日町一区,ミエケン,マツサカシ,アサヒマチ1ク,三重県松阪市朝日町一区
5150004,三重県,松阪市,朝日町,ミエケン,マツサカシ,アサヒマチ,三重県松阪市朝日町
5150005,三重県,松阪市,鎌田町,ミエケン,マツサカシ,カマダチョウ,三重県松阪市鎌田町
5150006,三重県,松阪市,石津町,ミエケン,マツサカシ,イシヅチョウ,三重県松阪市石津町
5150007,三重県,松阪市,荒木町,ミエケン,マツサカシ,アラキチョウ,三重県松阪市荒木町
5150011,三重県,松阪市,高町,ミエケン,マツサカシ,タカマチ,三重県松阪市高町
5150012,三重県,松阪市,東町,ミエケン,マツサカシ,ヒガシマチ,三重県松阪市東町
5150013,三重県,松阪市,幸生町,ミエケン,マツサカシ,コウセイチョウ,三重県松阪市幸生町
5150014,三重県,松阪市,若葉町,ミエケン,マツサカシ,ワカバチョウ,三重県松阪市若葉町
5150015,三重県,松阪市,宮町,ミエケン,マツサカシ,ミヤマチ,三重県松阪市宮町
5150016,三重県,松阪市,末広町,ミエケン,マツサカシ,スエヒロチョウ,三重県松阪市末広町
5150017,三重県,松阪市,京町,ミエケン,マツサカシ,キョウマチ,三重県松阪市京町
5150018,三重県,松阪市,京町一区,ミエケン,マツサカシ,キョウマチ1ク,三重県松阪市京町一区
5150019,三重県,松阪市,中央町,ミエケン,マツサカシ,チュウオウチョウ,三重県松阪市中央町
5150021,三重県,松阪市,古井町,ミエケン,マツサカシ,コイチョウ,三重県松阪市古井町
5150022,三重県,松阪市,新屋敷町,ミエケン,マツサカシ,シンヤシキチョウ,三重県松阪市新屋敷町
5150023,三重県,松阪市,下七見町,ミエケン,マツサカシ,シモナナミチョウ,三重県松阪市下七見町
5150024,三重県,松阪市,大宮田町,ミエケン,マツサカシ,オオミヤダチョウ,三重県松阪市大宮田町
5150025,三重県,松阪市,和屋町,ミエケン,マツサカシ,ワヤチョウ,三重県松阪市和屋町
5150026,三重県,松阪市,立田町,ミエケン,マツサカシ,タツタチョウ,三重県松阪市立田町
5150027,三重県,松阪市,朝田町,ミエケン,マツサカシ,アサダチョウ,三重県松阪市朝田町
5150028,三重県,松阪市,佐久米町,ミエケン,マツサカシ,サクメチョウ,三重県松阪市佐久米町
5150029,三重県,松阪市,西野々町,ミエケン,マツサカシ,ニシノノチョウ,三重県松阪市西野々町
5150031,三重県,松阪市,大津町,ミエケン,マツサカシ,オオツチョウ,三重県松阪市大津町
5150032,三重県,松阪市,田原町,ミエケン,マツサカシ,タワラチョウ,三重県松阪市田原町
5150033,三重県,松阪市,垣鼻町,ミエケン,マツサカシ,カイバナチョウ,三重県松阪市垣鼻町
5150034,三重県,松阪市,南町,ミエケン,マツサカシ,ミナミマチ,三重県松阪市南町
5150035,三重県,松阪市,長月町,ミエケン,マツサカシ,チョウゲツチョウ,三重県松阪市長月町
5150036,三重県,松阪市,平生町,ミエケン,マツサカシ,ヒラオマチ,三重県松阪市平生町
5150037,三重県,松阪市,愛宕町,ミエケン,マツサカシ,アタゴマチ,三重県松阪市愛宕町
5150038,三重県,松阪市,挽木町,ミエケン,マツサカシ,ヒキギマチ,三重県松阪市挽木町
5150039,三重県,松阪市,清生町,ミエケン,マツサカシ,セイセイチョウ,三重県松阪市清生町
5150041,三重県,松阪市,上川町,ミエケン,マツサカシ,ウエガワチョウ,三重県松阪市上川町
5150042,三重県,松阪市,虹が丘町,ミエケン,マツサカシ,ニジガオカチョウ,三重県松阪市虹が丘町
5150043,三重県,松阪市,下村町,ミエケン,マツサカシ,シモムラチョウ,三重県松阪市下村町
5150044,三重県,松阪市,久保町,ミエケン,マツサカシ,クボチョウ,三重県松阪市久保町
5150045,三重県,松阪市,駅部田町,ミエケン,マツサカシ,マエノヘタチョウ,三重県松阪市駅部田町
5150046,三重県,松阪市,南虹が丘町,ミエケン,マツサカシ,ミナミニジガオカチョウ,三重県松阪市南虹が丘町
5150051,三重県,松阪市,光町,ミエケン,マツサカシ,ヒカリチョウ,三重県松阪市光町
5150052,三重県,松阪市,山室町,ミエケン,マツサカシ,ヤマムロチョウ,三重県松阪市山室町
5150053,三重県,松阪市,広陽町,ミエケン,マツサカシ,コウヨウチョウ,三重県松阪市広陽町
5150054,三重県,松阪市,立野町,ミエケン,マツサカシ,タチノチョウ,三重県松阪市立野町
5150055,三重県,松阪市,田村町,ミエケン,マツサカシ,タムラチョウ,三重県松阪市田村町
5150056,三重県,松阪市,宝塚町,ミエケン,マツサカシ,タカラヅカチョウ,三重県松阪市宝塚町
5150057,三重県,松阪市,御殿山町,ミエケン,マツサカシ,ゴテンヤマチョウ,三重県松阪市御殿山町
5150061,三重県,松阪市,黒田町,ミエケン,マツサカシ,クロダマチ,三重県松阪市黒田町
5150062,三重県,松阪市,小黒田町,ミエケン,マツサカシ,コクロダチョウ,三重県松阪市小黒田町
5150063,三重県,松阪市,大黒田町,ミエケン,マツサカシ,オオクロダチョウ,三重県松阪市大黒田町
5150064,三重県,松阪市,五反田町,ミエケン,マツサカシ,ゴタンダチョウ,三重県松阪市五反田町
5150065,三重県,松阪市,五月町,ミエケン,マツサカシ,サツキチョウ,三重県松阪市五月町
5150066,三重県,松阪市,泉町,ミエケン,マツサカシ,イズミチョウ,三重県松阪市泉町
5150071,三重県,松阪市,桜町,ミエケン,マツサカシ,サクラチョウ,三重県松阪市桜町
5150072,三重県,松阪市,内五曲町,ミエケン,マツサカシ,ウチゴマガリチョウ,三重県松阪市内五曲町
5150073,三重県,松阪市,殿町,ミエケン,マツサカシ,トノマチ,三重県松阪市殿町
5150074,三重県,松阪市,新座町,ミエケン,マツサカシ,シンザマチ,三重県松阪市新座町
5150075,三重県,松阪市,新町,ミエケン,マツサカシ,シンマチ,三重県松阪市新町
5150076,三重県,松阪市,白粉町,ミエケン,マツサカシ,オシロイマチ,三重県松阪市白粉町
5150077,三重県,松阪市,茶与町,ミエケン,マツサカシ,チャヨマチ,三重県松阪市茶与町
5150078,三重県,松阪市,春日町,ミエケン,マツサカシ,カスガチョウ,三重県松阪市春日町
5150081,三重県,松阪市,本町,ミエケン,マツサカシ,ホンマチ,三重県松阪市本町
5150082,三重県,松阪市,魚町,ミエケン,マツサカシ,ウオマチ,三重県松阪市魚町
5150083,三重県,松阪市,中町,ミエケン,マツサカシ,ナカマチ,三重県松阪市中町
5150084,三重県,松阪市,日野町,ミエケン,マツサカシ,ヒノマチ,三重県松阪市日野町
5150085,三重県,松阪市,湊町,ミエケン,マツサカシ,ミナトマチ,三重県松阪市湊町
5150086,三重県,松阪市,五十鈴町,ミエケン,マツサカシ,イスズチョウ,三重県松阪市五十鈴町
5150087,三重県,松阪市,萌木町,ミエケン,マツサカシ,モエギチョウ,三重県松阪市萌木町
5150088,三重県,松阪市,木の郷町,ミエケン,マツサカシ,キノサトチョウ,三重県松阪市木の郷町
5150101,三重県,松阪市,東黒部町,ミエケン,マツサカシ,ヒガシクロベチョウ,三重県松阪市東黒部町
5150102,三重県,松阪市,松名瀬町,ミエケン,マツサカシ,マツナセチョウ,三重県松阪市松名瀬町
5150103,三重県,松阪市,西黒部町,ミエケン,マツサカシ,ニシクロベチョウ,三重県松阪市西黒部町
5150104,三重県,松阪市,高須町,ミエケン,マツサカシ,タカスチョウ,三重県松阪市高須町
5150111,三重県,松阪市,柿木原町,ミエケン,マツサカシ,カキノキハラチョウ,三重県松阪市柿木原町
5150112,三重県,松阪市,土古路町,ミエケン,マツサカシ,トコロチョウ,三重県松阪市土古路町
5150113,三重県,松阪市,出間町,ミエケン,マツサカシ,イズマチョウ,三重県松阪市出間町
5150114,三重県,松阪市,大垣内町,ミエケン,マツサカシ,オオガイトチョウ,三重県松阪市大垣内町
5150115,三重県,松阪市,蓮花寺町,ミエケン,マツサカシ,レンゲジチョウ,三重県松阪市蓮花寺町
5150116,三重県,松阪市,牛草町,ミエケン,マツサカシ,ウシクサチョウ,三重県松阪市牛草町
5150117,三重県,松阪市,乙部町,ミエケン,マツサカシ,オトベチョウ,三重県松阪市乙部町
5150118,三重県,松阪市,垣内田町,ミエケン,マツサカシ,カイトダチョウ,三重県松阪市垣内田町
5150119,三重県,松阪市,神守町,ミエケン,マツサカシ,カンモリチョウ,三重県松阪市神守町
5150121,三重県,松阪市,東久保町,ミエケン,マツサカシ,ヒガシクボチョウ,三重県松阪市東久保町
5150122,三重県,松阪市,川島町,ミエケン,マツサカシ,カワシマチョウ,三重県松阪市川島町
5150123,三重県,松阪市,新開町,ミエケン,マツサカシ,シンガイチョウ,三重県松阪市新開町
5150124,三重県,松阪市,保津町,ミエケン,マツサカシ,ホウヅチョウ,三重県松阪市保津町
5150125,三重県,松阪市,腹太町,ミエケン,マツサカシ,ハラフトチョウ,三重県松阪市腹太町
5150126,三重県,松阪市,井口中町,ミエケン,マツサカシ,イグチナカチョウ,三重県松阪市井口中町
5150127,三重県,松阪市,六根町,ミエケン,マツサカシ,ロッコンチョウ,三重県松阪市六根町
5150128,三重県,松阪市,魚見町,ミエケン,マツサカシ,ウオミチョウ,三重県松阪市魚見町
5150201,三重県,松阪市,上七見町,ミエケン,マツサカシ,カミナナミチョウ,三重県松阪市上七見町
5150202,三重県,松阪市,菅生町,ミエケン,マツサカシ,スギュウチョウ,三重県松阪市菅生町
5150203,三重県,松阪市,清水町,ミエケン,マツサカシ,シミズチョウ,三重県松阪市清水町
5150204,三重県,松阪市,櫛田町,ミエケン,マツサカシ,クシダチョウ,三重県松阪市櫛田町
5150205,三重県,松阪市,豊原町,ミエケン,マツサカシ,トヨハラチョウ,三重県松阪市豊原町
5150206,三重県,松阪市,山下町,ミエケン,マツサカシ,ヤマシタチョウ,三重県松阪市山下町
5150207,三重県,松阪市,安楽町,ミエケン,マツサカシ,アンラクチョウ,三重県松阪市安楽町
5150208,三重県,松阪市,山添町,ミエケン,マツサカシ,ヤマゾエチョウ,三重県松阪市山添町
5150211,三重県,松阪市,高木町,ミエケン,マツサカシ,タカキチョウ,三重県松阪市高木町
5150212,三重県,松阪市,稲木町,ミエケン,マツサカシ,イナギチョウ,三重県松阪市稲木町
5150213,三重県,松阪市,伊勢場町,ミエケン,マツサカシ,イセバチョウ,三重県松阪市伊勢場町
5150214,三重県,松阪市,法田町,ミエケン,マツサカシ,ホウダチョウ,三重県松阪市法田町
5150215,三重県,松阪市,横地町,ミエケン,マツサカシ,ヨコチチョウ,三重県松阪市横地町
5150216,三重県,松阪市,目田町,ミエケン,マツサカシ,メダチョウ,三重県松阪市目田町
5150217,三重県,松阪市,早馬瀬町,ミエケン,マツサカシ,ハヤマゼチョウ,三重県松阪市早馬瀬町
5150300,三重県,多気郡明和町,,ミエケン,タキグンメイワチョウ,,三重県多気郡明和町
5150301,三重県,多気郡明和町,大堀川新田,ミエケン,タキグンメイワチョウ,オオホリカワシンデン,三重県多気郡明和町大堀川新田
5150302,三重県,多気郡明和町,大淀,ミエケン,タキグンメイワチョウ,オオヨド,三重県多気郡明和町大淀
5150303,三重県,多気郡明和町,山大淀,ミエケン,タキグンメイワチョウ,ヤマオオヨド,三重県多気郡明和町山大淀
5150311,三重県,多気郡明和町,平尾,ミエケン,タキグンメイワチョウ,ヒラオ,三重県多気郡明和町平尾
5150312,三重県,多気郡明和町,上野,ミエケン,タキグンメイワチョウ,ウエノ,三重県多気郡明和町上野
5150313,三重県,多気郡明和町,明星,ミエケン,タキグンメイワチョウ,ミョウジョウ,三重県多気郡明和町明星
5150314,三重県,多気郡明和町,新茶屋,ミエケン,タキグンメイワチョウ,シンチャヤ,三重県多気郡明和町新茶屋
5150315,三重県,多気郡明和町,蓑村,ミエケン,タキグンメイワチョウ,ミノムラ,三重県多気郡明和町蓑村
5150316,三重県,多気郡明和町,有爾中,ミエケン,タキグンメイワチョウ,ウニナカ,三重県多気郡明和町有爾中
5150317,三重県,多気郡明和町,池村,ミエケン,タキグンメイワチョウ,イケムラ,三重県多気郡明和町池村
5150321,三重県,多気郡明和町,斎宮,ミエケン,タキグンメイワチョウ,サイクウ,三重県多気郡明和町斎宮
5150322,三重県,多気郡明和町,上村,ミエケン,タキグンメイワチョウ,ウエムラ,三重県多気郡明和町上村
5150323,三重県,多気郡明和町,岩内,ミエケン,タキグンメイワチョウ,ヨウチ,三重県多気郡明和町岩内
5150324,三重県,多気郡明和町,金剛坂,ミエケン,タキグンメイワチョウ,コンゴウザカ,三重県多気郡明和町金剛坂
5150325,三重県,多気郡明和町,竹川,ミエケン,タキグンメイワチョウ,タケガワ,三重県多気郡明和町竹川
5150331,三重県,多気郡明和町,佐田,ミエケン,タキグンメイワチョウ,サタ,三重県多気郡明和町佐田
5150332,三重県,多気郡明和町,馬之上,ミエケン,タキグンメイワチョウ,ウマノウエ,三重県多気郡明和町馬之上
5150333,三重県,多気郡明和町,坂本,ミエケン,タキグンメイワチョウ,サカモト,三重県多気郡明和町坂本
5150334,三重県,多気郡明和町,中海,ミエケン,タキグンメイワチョウ,ナコミ,三重県多気郡明和町中海
5150341,三重県,多気郡明和町,北藤原,ミエケン,タキグンメイワチョウ,キタフジワラ,三重県多気郡明和町北藤原
5150342,三重県,多気郡明和町,南藤原,ミエケン,タキグンメイワチョウ,ミナミフジワラ,三重県多気郡明和町南藤原
5150343,三重県,多気郡明和町,内座,ミエケン,タキグンメイワチョウ,ナイザ,三重県多気郡明和町内座
5150344,三重県,多気郡明和町,養川,ミエケン,タキグンメイワチョウ,ヨウカワ,三重県多気郡明和町養川
5150345,三重県,多気郡明和町,田屋,ミエケン,タキグンメイワチョウ,タヤ,三重県多気郡明和町田屋
5150346,三重県,多気郡明和町,前野,ミエケン,タキグンメイワチョウ,マエノ,三重県多気郡明和町前野
5150347,三重県,多気郡明和町,志貴,ミエケン,タキグンメイワチョウ,シキ,三重県多気郡明和町志貴
5150348,三重県,多気郡明和町,中村,ミエケン,タキグンメイワチョウ,ナカムラ,三重県多気郡明和町中村
5150349,三重県,多気郡明和町,川尻,ミエケン,タキグンメイワチョウ,カワシリ,三重県多気郡明和町川尻
5150351,三重県,多気郡明和町,浜田,ミエケン,タキグンメイワチョウ,ハマダ,三重県多気郡明和町浜田
5150352,三重県,多気郡明和町,八木戸,ミエケン,タキグンメイワチョウ,ヤキド,三重県多気郡明和町八木戸
5150353,三重県,多気郡明和町,根倉,ミエケン,タキグンメイワチョウ,ネグラ,三重県多気郡明和町根倉
5150354,三重県,多気郡明和町,行部,ミエケン,タキグンメイワチョウ,ユクベ,三重県多気郡明和町行部
5150501,三重県,伊勢市,有滝町,ミエケン,イセシ,アリタキチョウ,三重県伊勢市有滝町
5150502,三重県,伊勢市,東豊浜町,ミエケン,イセシ,ヒガシトヨハマチョウ,三重県伊勢市東豊浜町
5150503,三重県,伊勢市,樫原町,ミエケン,イセシ,カシワラチョウ,三重県伊勢市樫原町
5150504,三重県,伊勢市,磯町,ミエケン,イセシ,イソチョウ,三重県伊勢市磯町
5150505,三重県,伊勢市,西豊浜町,ミエケン,イセシ,ニシトヨハマチョウ,三重県伊勢市西豊浜町
5150506,三重県,伊勢市,植山町,ミエケン,イセシ,ウエヤマチョウ,三重県伊勢市植山町
5150507,三重県,伊勢市,村松町,ミエケン,イセシ,ムラマツチョウ,三重県伊勢市村松町
5150508,三重県,伊勢市,柏町,ミエケン,イセシ,カシワチョウ,三重県伊勢市柏町
5150509,三重県,伊勢市,東大淀町,ミエケン,イセシ,ヒガシオイズチョウ,三重県伊勢市東大淀町
5150511,三重県,伊勢市,野村町,ミエケン,イセシ,ノムラチョウ,三重県伊勢市野村町
5150521,三重県,伊勢市,御薗町上條（三軒屋）,ミエケン,イセシ,ミソノチョウカミジョウ(サンゲンヤ),三重県伊勢市御薗町上條（三軒屋）
5150801,三重県,松阪市,新松ケ島町,ミエケン,マツサカシ,シンマツガシマチョウ,三重県松阪市新松ケ島町
5150802,三重県,松阪市,猟師町,ミエケン,マツサカシ,リョウシチョウ,三重県松阪市猟師町
5150803,三重県,松阪市,町平尾町,ミエケン,マツサカシ,マチビラオチョウ,三重県松阪市町平尾町
5150804,三重県,松阪市,大平尾町,ミエケン,マツサカシ,オオビラオチョウ,三重県松阪市大平尾町
5150811,三重県,松阪市,塚本町,ミエケン,マツサカシ,ツカモトチョウ,三重県松阪市塚本町
5150812,三重県,松阪市,船江町,ミエケン,マツサカシ,フナエチョウ,三重県松阪市船江町
5150813,三重県,松阪市,大塚町,ミエケン,マツサカシ,オオツカチョウ,三重県松阪市大塚町
5150814,三重県,松阪市,久保田町,ミエケン,マツサカシ,クボタチョウ,三重県松阪市久保田町
5150815,三重県,松阪市,西町,ミエケン,マツサカシ,ニシマチ,三重県松阪市西町
5150816,三重県,松阪市,西之庄町,ミエケン,マツサカシ,ニシノショウチョウ,三重県松阪市西之庄町
5150817,三重県,松阪市,井村町,ミエケン,マツサカシ,イムラチョウ,三重県松阪市井村町
5150818,三重県,松阪市,川井町,ミエケン,マツサカシ,カワイマチ,三重県松阪市川井町
5150821,三重県,松阪市,外五曲町,ミエケン,マツサカシ,ソトゴマガリチョウ,三重県松阪市外五曲町
5150822,三重県,松阪市,大足町,ミエケン,マツサカシ,オワセチョウ,三重県松阪市大足町
5150823,三重県,松阪市,阿形町,ミエケン,マツサカシ,アガタチョウ,三重県松阪市阿形町
5150824,三重県,松阪市,平成町,ミエケン,マツサカシ,ヘイセイチョウ,三重県松阪市平成町
5150825,三重県,松阪市,藤之木町,ミエケン,マツサカシ,フジノキチョウ,三重県松阪市藤之木町
5150831,三重県,松阪市,岡本町,ミエケン,マツサカシ,オカモトチョウ,三重県松阪市岡本町
5150832,三重県,松阪市,丹生寺町,ミエケン,マツサカシ,ニュウデラチョウ,三重県松阪市丹生寺町
5150833,三重県,松阪市,西野町,ミエケン,マツサカシ,ニシノチョウ,三重県松阪市西野町
5150834,三重県,松阪市,岡山町,ミエケン,マツサカシ,オカヤマチョウ,三重県松阪市岡山町
5150835,三重県,松阪市,日丘町,ミエケン,マツサカシ,ヒオカチョウ,三重県松阪市日丘町
5150841,三重県,松阪市,曲町,ミエケン,マツサカシ,マガリチョウ,三重県松阪市曲町
5150842,三重県,松阪市,田牧町,ミエケン,マツサカシ,タイラチョウ,三重県松阪市田牧町
5150843,三重県,松阪市,殿村町,ミエケン,マツサカシ,トノムラチョウ,三重県松阪市殿村町
5150844,三重県,松阪市,八重田町,ミエケン,マツサカシ,ヤエダチョウ,三重県松阪市八重田町
5150845,三重県,松阪市,伊勢寺町,ミエケン,マツサカシ,イセデラチョウ,三重県松阪市伊勢寺町
5150846,三重県,松阪市,深長町,ミエケン,マツサカシ,フコサチョウ,三重県松阪市深長町
5150847,三重県,松阪市,岩内町,ミエケン,マツサカシ,ヨウチチョウ,三重県松阪市岩内町
5150848,三重県,松阪市,野村町,ミエケン,マツサカシ,ノムラチョウ,三重県松阪市野村町
5151101,三重県,松阪市,勢津町,ミエケン,マツサカシ,セイヅチョウ,三重県松阪市勢津町
5151102,三重県,松阪市,矢津町,ミエケン,マツサカシ,ヤヅチョウ,三重県松阪市矢津町
5151103,三重県,松阪市,笹川町,ミエケン,マツサカシ,ササガワチョウ,三重県松阪市笹川町
5151104,三重県,松阪市,桂瀬町,ミエケン,マツサカシ,カツラセチョウ,三重県松阪市桂瀬町
5151105,三重県,松阪市,大河内町,ミエケン,マツサカシ,オカワチチョウ,三重県松阪市大河内町
5151106,三重県,松阪市,辻原町,ミエケン,マツサカシ,ツジワラチョウ,三重県松阪市辻原町
5151107,三重県,松阪市,阪内町,ミエケン,マツサカシ,サカナイチョウ,三重県松阪市阪内町
5151201,三重県,松阪市,広瀬町,ミエケン,マツサカシ,ヒロセチョウ,三重県松阪市広瀬町
5151202,三重県,松阪市,茅原町,ミエケン,マツサカシ,チハラチョウ,三重県松阪市茅原町
5151203,三重県,松阪市,六呂木町,ミエケン,マツサカシ,ロクロギチョウ,三重県松阪市六呂木町
5151204,三重県,松阪市,小片野町,ミエケン,マツサカシ,オカタノチョウ,三重県松阪市小片野町
5151205,三重県,松阪市,大石町,ミエケン,マツサカシ,オイシチョウ,三重県松阪市大石町
5151301,三重県,松阪市,飯南町深野,ミエケン,マツサカシ,イイナンチョウフカノ,三重県松阪市飯南町深野
5151302,三重県,松阪市,飯南町横野,ミエケン,マツサカシ,イイナンチョウヨコノ,三重県松阪市飯南町横野
5151303,三重県,松阪市,飯南町下仁柿,ミエケン,マツサカシ,イイナンチョウシモニガキ,三重県松阪市飯南町下仁柿
5151304,三重県,松阪市,飯南町上仁柿,ミエケン,マツサカシ,イイナンチョウカミニガキ,三重県松阪市飯南町上仁柿
5151411,三重県,松阪市,飯南町粥見,ミエケン,マツサカシ,イイナンチョウカユミ,三重県松阪市飯南町粥見
5151412,三重県,松阪市,飯南町向粥見,ミエケン,マツサカシ,イイナンチョウムコウカユミ,三重県松阪市飯南町向粥見
5151413,三重県,松阪市,飯南町有間野,ミエケン,マツサカシ,イイナンチョウアリマノ,三重県松阪市飯南町有間野
5151501,三重県,松阪市,飯高町下滝野,ミエケン,マツサカシ,イイタカチョウシモタキノ,三重県松阪市飯高町下滝野
5151502,三重県,松阪市,飯高町宮前,ミエケン,マツサカシ,イイタカチョウミヤマエ,三重県松阪市飯高町宮前
5151503,三重県,松阪市,飯高町野々口,ミエケン,マツサカシ,イイタカチョウノノグチ,三重県松阪市飯高町野々口
5151504,三重県,松阪市,飯高町作滝,ミエケン,マツサカシ,イイタカチョウサクタキ,三重県松阪市飯高町作滝
5151505,三重県,松阪市,飯高町赤桶,ミエケン,マツサカシ,イイタカチョウアコウ,三重県松阪市飯高町赤桶
5151506,三重県,松阪市,飯高町田引,ミエケン,マツサカシ,イイタカチョウタビキ,三重県松阪市飯高町田引
5151611,三重県,松阪市,飯高町七日市,ミエケン,マツサカシ,イイタカチョウナノカイチ,三重県松阪市飯高町七日市
5151612,三重県,松阪市,飯高町富永,ミエケン,マツサカシ,イイタカチョウトミナガ,三重県松阪市飯高町富永
5151613,三重県,松阪市,飯高町粟野,ミエケン,マツサカシ,イイタカチョウアワノ,三重県松阪市飯高町粟野
5151614,三重県,松阪市,飯高町宮本,ミエケン,マツサカシ,イイタカチョウミヤモト,三重県松阪市飯高町宮本
5151615,三重県,松阪市,飯高町森,ミエケン,マツサカシ,イイタカチョウモリ,三重県松阪市飯高町森
5151616,三重県,松阪市,飯高町青田,ミエケン,マツサカシ,イイタカチョウオオダ,三重県松阪市飯高町青田
5151617,三重県,松阪市,飯高町猿山,ミエケン,マツサカシ,イイタカチョウエテヤマ,三重県松阪市飯高町猿山
5151618,三重県,松阪市,飯高町蓮,ミエケン,マツサカシ,イイタカチョウハチス,三重県松阪市飯高町蓮
5151721,三重県,松阪市,飯高町月出,ミエケン,マツサカシ,イイタカチョウツキデ,三重県松阪市飯高町月出
5151722,三重県,松阪市,飯高町加波,ミエケン,マツサカシ,イイタカチョウカバ,三重県松阪市飯高町加波
5151723,三重県,松阪市,飯高町乙栗子,ミエケン,マツサカシ,イイタカチョウオトグルス,三重県松阪市飯高町乙栗子
5151724,三重県,松阪市,飯高町桑原,ミエケン,マツサカシ,イイタカチョウクワバラ,三重県松阪市飯高町桑原
5151725,三重県,松阪市,飯高町波瀬,ミエケン,マツサカシ,イイタカチョウハゼ,三重県松阪市飯高町波瀬
5151726,三重県,松阪市,飯高町太良木,ミエケン,マツサカシ,イイタカチョウタラキ,三重県松阪市飯高町太良木
5151727,三重県,松阪市,飯高町草鹿野,ミエケン,マツサカシ,イイタカチョウソウガノ,三重県松阪市飯高町草鹿野
5151731,三重県,松阪市,飯高町舟戸,ミエケン,マツサカシ,イイタカチョウフナト,三重県松阪市飯高町舟戸
5151732,三重県,松阪市,飯高町落方,ミエケン,マツサカシ,イイタカチョウオチカタ,三重県松阪市飯高町落方
5151733,三重県,松阪市,飯高町栃谷,ミエケン,マツサカシ,イイタカチョウトチダニ,三重県松阪市飯高町栃谷
5151734,三重県,松阪市,飯高町木梶,ミエケン,マツサカシ,イイタカチョウキカジ,三重県松阪市飯高町木梶
5152101,三重県,松阪市,星合町,ミエケン,マツサカシ,ホシアイチョウ,三重県松阪市星合町
5152102,三重県,松阪市,五主町,ミエケン,マツサカシ,ゴヌシチョウ,三重県松阪市五主町
5152103,三重県,松阪市,笠松町,ミエケン,マツサカシ,カサマツチョウ,三重県松阪市笠松町
5152104,三重県,松阪市,小舟江町,ミエケン,マツサカシ,コブナエチョウ,三重県松阪市小舟江町
5152105,三重県,松阪市,肥留町,ミエケン,マツサカシ,ヒルチョウ,三重県松阪市肥留町
5152106,三重県,松阪市,西肥留町,ミエケン,マツサカシ,ニシヒルチョウ,三重県松阪市西肥留町
5152107,三重県,松阪市,舞出町,ミエケン,マツサカシ,マイデチョウ,三重県松阪市舞出町
5152108,三重県,松阪市,甚目町,ミエケン,マツサカシ,ハダメチョウ,三重県松阪市甚目町
5152109,三重県,松阪市,小野江町,ミエケン,マツサカシ,オノエチョウ,三重県松阪市小野江町
5152111,三重県,松阪市,中林町,ミエケン,マツサカシ,ナカバヤシチョウ,三重県松阪市中林町
5152112,三重県,松阪市,曽原町,ミエケン,マツサカシ,ソハラチョウ,三重県松阪市曽原町
5152113,三重県,松阪市,喜多村新田町,ミエケン,マツサカシ,キタムラシンデンチョウ,三重県松阪市喜多村新田町
5152114,三重県,松阪市,小津町,ミエケン,マツサカシ,オヅチョウ,三重県松阪市小津町
5152115,三重県,松阪市,中道町,ミエケン,マツサカシ,ナカミチチョウ,三重県松阪市中道町
5152121,三重県,松阪市,市場庄町,ミエケン,マツサカシ,イチバショウチョウ,三重県松阪市市場庄町
5152122,三重県,松阪市,久米町,ミエケン,マツサカシ,クメチョウ,三重県松阪市久米町
5152123,三重県,松阪市,上ノ庄町,ミエケン,マツサカシ,カミノショウチョウ,三重県松阪市上ノ庄町
5152124,三重県,松阪市,中ノ庄町,ミエケン,マツサカシ,ナカノショウチョウ,三重県松阪市中ノ庄町
5152131,三重県,松阪市,六軒町,ミエケン,マツサカシ,ロッケンチョウ,三重県松阪市六軒町
5152132,三重県,松阪市,松崎浦町,ミエケン,マツサカシ,マツサキウラチョウ,三重県松阪市松崎浦町
5152133,三重県,松阪市,松ケ島町,ミエケン,マツサカシ,マツガシマチョウ,三重県松阪市松ケ島町
5152301,三重県,松阪市,嬉野島田町,ミエケン,マツサカシ,ウレシノシマダチョウ,三重県松阪市嬉野島田町
5152302,三重県,松阪市,嬉野天花寺町,ミエケン,マツサカシ,ウレシノテンゲエジチョウ,三重県松阪市嬉野天花寺町
5152303,三重県,松阪市,嬉野宮古町,ミエケン,マツサカシ,ウレシノミヤコチョウ,三重県松阪市嬉野宮古町
5152304,三重県,松阪市,嬉野平生町,ミエケン,マツサカシ,ウレシノヒロチョウ,三重県松阪市嬉野平生町
5152305,三重県,松阪市,嬉野一志町,ミエケン,マツサカシ,ウレシノイチシチョウ,三重県松阪市嬉野一志町
5152311,三重県,松阪市,嬉野黒田町,ミエケン,マツサカシ,ウレシノクロダチョウ,三重県松阪市嬉野黒田町
5152312,三重県,松阪市,嬉野見永町,ミエケン,マツサカシ,ウレシノミナガチョウ,三重県松阪市嬉野見永町
5152313,三重県,松阪市,嬉野川原木造町,ミエケン,マツサカシ,ウレシノカワラコツクリチョウ,三重県松阪市嬉野川原木造町
5152314,三重県,松阪市,嬉野新屋庄町,ミエケン,マツサカシ,ウレシノニワノショウチョウ,三重県松阪市嬉野新屋庄町
5152315,三重県,松阪市,嬉野小村町,ミエケン,マツサカシ,ウレシノコムラチョウ,三重県松阪市嬉野小村町
5152316,三重県,松阪市,嬉野川北町,ミエケン,マツサカシ,ウレシノカワギタチョウ,三重県松阪市嬉野川北町
5152317,三重県,松阪市,嬉野野田町,ミエケン,マツサカシ,ウレシノノダチョウ,三重県松阪市嬉野野田町
5152321,三重県,松阪市,嬉野中川町,ミエケン,マツサカシ,ウレシノナカガワチョウ,三重県松阪市嬉野中川町
5152322,三重県,松阪市,嬉野須賀町,ミエケン,マツサカシ,ウレシノスカチョウ,三重県松阪市嬉野須賀町
5152323,三重県,松阪市,嬉野権現前町,ミエケン,マツサカシ,ウレシノゴンゲンマエチョウ,三重県松阪市嬉野権現前町
5152324,三重県,松阪市,嬉野町,ミエケン,マツサカシ,ウレシノチョウ,三重県松阪市嬉野町
5152325,三重県,松阪市,嬉野中川新町,ミエケン,マツサカシ,ウレシノナカガワシンマチ,三重県松阪市嬉野中川新町
5152331,三重県,松阪市,嬉野須賀領町,ミエケン,マツサカシ,ウレシノスカリョウチョウ,三重県松阪市嬉野須賀領町
5152332,三重県,松阪市,嬉野津屋城町,ミエケン,マツサカシ,ウレシノツヤジョウチョウ,三重県松阪市嬉野津屋城町
5152333,三重県,松阪市,嬉野田村町,ミエケン,マツサカシ,ウレシノタムラチョウ,三重県松阪市嬉野田村町
5152334,三重県,松阪市,嬉野黒野町,ミエケン,マツサカシ,ウレシノクロノチョウ,三重県松阪市嬉野黒野町
5152335,三重県,松阪市,嬉野算所町,ミエケン,マツサカシ,ウレシノサンジョチョウ,三重県松阪市嬉野算所町
5152341,三重県,松阪市,小野町,ミエケン,マツサカシ,オオノチョウ,三重県松阪市小野町
5152342,三重県,松阪市,大阿坂町,ミエケン,マツサカシ,オオアザカチョウ,三重県松阪市大阿坂町
5152343,三重県,松阪市,小阿坂町,ミエケン,マツサカシ,コアザカチョウ,三重県松阪市小阿坂町
5152344,三重県,松阪市,美濃田町,ミエケン,マツサカシ,ミノダチョウ,三重県松阪市美濃田町
5152351,三重県,松阪市,嬉野井之上町,ミエケン,マツサカシ,ウレシノイノウエチョウ,三重県松阪市嬉野井之上町
5152352,三重県,松阪市,嬉野八田町,ミエケン,マツサカシ,ウレシノハッタチョウ,三重県松阪市嬉野八田町
5152353,三重県,松阪市,嬉野堀之内町,ミエケン,マツサカシ,ウレシノホリノウチチョウ,三重県松阪市嬉野堀之内町
5152354,三重県,松阪市,嬉野下之庄町,ミエケン,マツサカシ,ウレシノシモノショウチョウ,三重県松阪市嬉野下之庄町
5152355,三重県,松阪市,嬉野薬王寺町,ミエケン,マツサカシ,ウレシノヤクオウジチョウ,三重県松阪市嬉野薬王寺町
5152356,三重県,松阪市,嬉野上野町,ミエケン,マツサカシ,ウレシノウエノチョウ,三重県松阪市嬉野上野町
5152357,三重県,松阪市,嬉野神ノ木町,ミエケン,マツサカシ,ウレシノカミノキチョウ,三重県松阪市嬉野神ノ木町
5152401,三重県,松阪市,嬉野釜生田町,ミエケン,マツサカシ,ウレシノカモダチョウ,三重県松阪市嬉野釜生田町
5152402,三重県,松阪市,嬉野森本町,ミエケン,マツサカシ,ウレシノモリモトチョウ,三重県松阪市嬉野森本町
5152403,三重県,松阪市,嬉野岩倉町,ミエケン,マツサカシ,ウレシノイワクラチョウ,三重県松阪市嬉野岩倉町
5152404,三重県,松阪市,嬉野上小川町,ミエケン,マツサカシ,ウレシノカミオガワチョウ,三重県松阪市嬉野上小川町
5152405,三重県,松阪市,嬉野小原町,ミエケン,マツサカシ,ウレシノオハラチョウ,三重県松阪市嬉野小原町
5152406,三重県,松阪市,嬉野合ケ野町,ミエケン,マツサカシ,ウレシノゴガノチョウ,三重県松阪市嬉野合ケ野町
5152407,三重県,松阪市,嬉野矢下町,ミエケン,マツサカシ,ウレシノヤオロシチョウ,三重県松阪市嬉野矢下町
5152408,三重県,松阪市,嬉野宮野町,ミエケン,マツサカシ,ウレシノミヤノチョウ,三重県松阪市嬉野宮野町
5152409,三重県,松阪市,嬉野滝之川町,ミエケン,マツサカシ,ウレシノタキノガワチョウ,三重県松阪市嬉野滝之川町
5152411,三重県,松阪市,与原町,ミエケン,マツサカシ,ヨハラチョウ,三重県松阪市与原町
5152412,三重県,松阪市,飯福田町,ミエケン,マツサカシ,イフタチョウ,三重県松阪市飯福田町
5152413,三重県,松阪市,後山町,ミエケン,マツサカシ,ウシロヤマチョウ,三重県松阪市後山町
5152414,三重県,松阪市,柚原町,ミエケン,マツサカシ,ユノハラチョウ,三重県松阪市柚原町
5152501,三重県,津市,一志町庄村,ミエケン,ツシ,イチシチョウショウムラ,三重県津市一志町庄村
5152502,三重県,津市,一志町其村,ミエケン,ツシ,イチシチョウソノムラ,三重県津市一志町其村
5152503,三重県,津市,一志町日置,ミエケン,ツシ,イチシチョウヒオキ,三重県津市一志町日置
5152504,三重県,津市,一志町高野（その他）,ミエケン,ツシ,イチシチョウタカノ(ソノタ),三重県津市一志町高野（その他）
5152504,三重県,津市,一志町高野（野田）,ミエケン,ツシ,イチシチョウタカノ(ノダ),三重県津市一志町高野（野田）
5152504,三重県,津市,一志町高野（高野団地）,ミエケン,ツシ,イチシチョウタカノ(タカノダンチ),三重県津市一志町高野（高野団地）
5152505,三重県,津市,一志町小戸木,ミエケン,ツシ,イチシチョウコベキ,三重県津市一志町小戸木
5152511,三重県,津市,一志町片野,ミエケン,ツシ,イチシチョウカタノ,三重県津市一志町片野
5152512,三重県,津市,一志町新沢田,ミエケン,ツシ,イチシチョウシンサワダ,三重県津市一志町新沢田
5152513,三重県,津市,一志町虹が丘,ミエケン,ツシ,イチシチョウニジガオカ,三重県津市一志町虹が丘
5152514,三重県,津市,一志町小山（その他）,ミエケン,ツシ,イチシチョウオヤマ(ソノタ),三重県津市一志町小山（その他）
5152514,三重県,津市,一志町小山（小山台地）,ミエケン,ツシ,イチシチョウオヤマ(オヤマダイチ),三重県津市一志町小山（小山台地）
5152515,三重県,津市,一志町八太（その他）,ミエケン,ツシ,イチシチョウハタ(ソノタ),三重県津市一志町八太（その他）
5152515,三重県,津市,一志町八太（一志団地）,ミエケン,ツシ,イチシチョウハタ(イチシダンチ),三重県津市一志町八太（一志団地）
5152516,三重県,津市,一志町田尻,ミエケン,ツシ,イチシチョウタジリ,三重県津市一志町田尻
5152517,三重県,津市,一志町みのりケ丘,ミエケン,ツシ,イチシチョウミノリガオカ,三重県津市一志町みのりケ丘
5152521,三重県,津市,一志町井関,ミエケン,ツシ,イチシチョウイセギ,三重県津市一志町井関
5152522,三重県,津市,一志町波瀬,ミエケン,ツシ,イチシチョウハゼ,三重県津市一志町波瀬
5152523,三重県,津市,一志町井生,ミエケン,ツシ,イチシチョウイウ,三重県津市一志町井生
5152524,三重県,津市,一志町大仰,ミエケン,ツシ,イチシチョウオオノキ,三重県津市一志町大仰
5152525,三重県,津市,一志町石橋,ミエケン,ツシ,イチシチョウイシバシ,三重県津市一志町石橋
5152526,三重県,津市,一志町其倉,ミエケン,ツシ,イチシチョウソノクラ,三重県津市一志町其倉
5152601,三重県,津市,白山町三ケ野,ミエケン,ツシ,ハクサンチョウミツガノ,三重県津市白山町三ケ野
5152602,三重県,津市,白山町二本木,ミエケン,ツシ,ハクサンチョウニホンギ,三重県津市白山町二本木
5152603,三重県,津市,白山町川口,ミエケン,ツシ,ハクサンチョウカワグチ,三重県津市白山町川口
5152604,三重県,津市,白山町岡,ミエケン,ツシ,ハクサンチョウオカ,三重県津市白山町岡
5152605,三重県,津市,白山台,ミエケン,ツシ,ハクサンダイ,三重県津市白山台
5152611,三重県,津市,白山町南出,ミエケン,ツシ,ハクサンチョウミナミデ,三重県津市白山町南出
5152612,三重県,津市,白山町古市,ミエケン,ツシ,ハクサンチョウフルイチ,三重県津市白山町古市
5152613,三重県,津市,白山町山田野,ミエケン,ツシ,ハクサンチョウヤマダノ,三重県津市白山町山田野
5152614,三重県,津市,白山町伊勢見,ミエケン,ツシ,ハクサンチョウイセミ,三重県津市白山町伊勢見
5152615,三重県,津市,白山町八対野,ミエケン,ツシ,ハクサンチョウハッタイノ,三重県津市白山町八対野
5152616,三重県,津市,白山町稲垣,ミエケン,ツシ,ハクサンチョウイナカケ,三重県津市白山町稲垣
5152617,三重県,津市,グリンタウン榊原,ミエケン,ツシ,グリンタウンサカキバラ,三重県津市グリンタウン榊原
5152621,三重県,津市,白山町佐田,ミエケン,ツシ,ハクサンチョウサダ,三重県津市白山町佐田
5152622,三重県,津市,白山町中ノ村,ミエケン,ツシ,ハクサンチョウナカノムラ,三重県津市白山町中ノ村
5152623,三重県,津市,白山町上ノ村,ミエケン,ツシ,ハクサンチョウカミノムラ,三重県津市白山町上ノ村
5152624,三重県,津市,白山町垣内,ミエケン,ツシ,ハクサンチョウカイト,三重県津市白山町垣内
5153131,三重県,津市,白山町藤,ミエケン,ツシ,ハクサンチョウフジ,三重県津市白山町藤
5153132,三重県,津市,白山町北家城,ミエケン,ツシ,ハクサンチョウキタイエキ,三重県津市白山町北家城
5153133,三重県,津市,白山町南家城,ミエケン,ツシ,ハクサンチョウミナミイエキ,三重県津市白山町南家城
5153134,三重県,津市,白山町真見,ミエケン,ツシ,ハクサンチョウマミ,三重県津市白山町真見
5153135,三重県,津市,白山町二俣,ミエケン,ツシ,ハクサンチョウフタマタ,三重県津市白山町二俣
5153136,三重県,津市,白山町福田山,ミエケン,ツシ,ハクサンチョウフクタヤマ,三重県津市白山町福田山
5153137,三重県,津市,白山町大原,ミエケン,ツシ,ハクサンチョウオオバラ,三重県津市白山町大原
5153138,三重県,津市,白山町小杉,ミエケン,ツシ,ハクサンチョウコスギ,三重県津市白山町小杉
5153139,三重県,津市,白山町城立,ミエケン,ツシ,ハクサンチョウジョウリュウ,三重県津市白山町城立
5153201,三重県,津市,美杉町竹原,ミエケン,ツシ,ミスギチョウタケハラ,三重県津市美杉町竹原
5153202,三重県,津市,美杉町八手俣,ミエケン,ツシ,ミスギチョウハテマタ,三重県津市美杉町八手俣
5153203,三重県,津市,美杉町下之川,ミエケン,ツシ,ミスギチョウシモノガワ,三重県津市美杉町下之川
5153311,三重県,津市,美杉町下多気,ミエケン,ツシ,ミスギチョウシモタゲ,三重県津市美杉町下多気
5153312,三重県,津市,美杉町上多気,ミエケン,ツシ,ミスギチョウカミタゲ,三重県津市美杉町上多気
5153313,三重県,津市,美杉町丹生俣,ミエケン,ツシ,ミスギチョウニュウノマタ,三重県津市美杉町丹生俣
5153421,三重県,津市,美杉町八知,ミエケン,ツシ,ミスギチョウヤチ,三重県津市美杉町八知
5153531,三重県,津市,美杉町奥津,ミエケン,ツシ,ミスギチョウオキツ,三重県津市美杉町奥津
5153532,三重県,津市,美杉町川上,ミエケン,ツシ,ミスギチョウカワカミ,三重県津市美杉町川上
5153533,三重県,津市,美杉町石名原,ミエケン,ツシ,ミスギチョウイシナハラ,三重県津市美杉町石名原
5153534,三重県,津市,美杉町杉平,ミエケン,ツシ,ミスギチョウスギヒラ,三重県津市美杉町杉平
5153535,三重県,津市,美杉町三多気,ミエケン,ツシ,ミスギチョウミタケ,三重県津市美杉町三多気
5153536,三重県,津市,美杉町太郎生,ミエケン,ツシ,ミスギチョウタロオ,三重県津市美杉町太郎生
5160000,三重県,伊勢市,,ミエケン,イセシ,,三重県伊勢市
5160001,三重県,伊勢市,大湊町,ミエケン,イセシ,オオミナトチョウ,三重県伊勢市大湊町
5160002,三重県,伊勢市,馬瀬町,ミエケン,イセシ,マゼチョウ,三重県伊勢市馬瀬町
5160003,三重県,伊勢市,下野町,ミエケン,イセシ,シモノチョウ,三重県伊勢市下野町
5160004,三重県,伊勢市,神社港,ミエケン,イセシ,カミヤシロコウ,三重県伊勢市神社港
5160005,三重県,伊勢市,竹ケ鼻町,ミエケン,イセシ,タケガハナチョウ,三重県伊勢市竹ケ鼻町
5160006,三重県,伊勢市,田尻町,ミエケン,イセシ,タジリチョウ,三重県伊勢市田尻町
5160007,三重県,伊勢市,小木町,ミエケン,イセシ,コウギチョウ,三重県伊勢市小木町
5160008,三重県,伊勢市,船江,ミエケン,イセシ,フナエ,三重県伊勢市船江
5160009,三重県,伊勢市,河崎,ミエケン,イセシ,カワサキ,三重県伊勢市河崎
5160011,三重県,伊勢市,一色町,ミエケン,イセシ,イッシキチョウ,三重県伊勢市一色町
5160012,三重県,伊勢市,通町,ミエケン,イセシ,トオリチョウ,三重県伊勢市通町
5160013,三重県,伊勢市,鹿海町,ミエケン,イセシ,カノミチョウ,三重県伊勢市鹿海町
5160014,三重県,伊勢市,楠部町,ミエケン,イセシ,クスベチョウ,三重県伊勢市楠部町
5160015,三重県,伊勢市,久世戸町,ミエケン,イセシ,クセドチョウ,三重県伊勢市久世戸町
5160016,三重県,伊勢市,神田久志本町,ミエケン,イセシ,コウダクシモトチョウ,三重県伊勢市神田久志本町
5160017,三重県,伊勢市,神久,ミエケン,イセシ,ジンキュウ,三重県伊勢市神久
5160018,三重県,伊勢市,黒瀬町,ミエケン,イセシ,クロセチョウ,三重県伊勢市黒瀬町
5160021,三重県,伊勢市,朝熊町（その他）,ミエケン,イセシ,アサマチョウ(ソノタ),三重県伊勢市朝熊町（その他）
5160022,三重県,伊勢市,一宇田町,ミエケン,イセシ,イチウダチョウ,三重県伊勢市一宇田町
5160023,三重県,伊勢市,宇治館町,ミエケン,イセシ,ウジタチチョウ,三重県伊勢市宇治館町
5160024,三重県,伊勢市,宇治今在家町,ミエケン,イセシ,ウジイマザイケチョウ,三重県伊勢市宇治今在家町
5160025,三重県,伊勢市,宇治中之切町,ミエケン,イセシ,ウジナカノキリチョウ,三重県伊勢市宇治中之切町
5160026,三重県,伊勢市,宇治浦田,ミエケン,イセシ,ウジウラタ,三重県伊勢市宇治浦田
5160027,三重県,伊勢市,桜木町,ミエケン,イセシ,サクラギチョウ,三重県伊勢市桜木町
5160028,三重県,伊勢市,中村町,ミエケン,イセシ,ナカムラチョウ,三重県伊勢市中村町
5160031,三重県,伊勢市,尾上町,ミエケン,イセシ,オノエチョウ,三重県伊勢市尾上町
5160032,三重県,伊勢市,倭町,ミエケン,イセシ,ヤマトマチ,三重県伊勢市倭町
5160033,三重県,伊勢市,古市町,ミエケン,イセシ,フルイチチョウ,三重県伊勢市古市町
5160034,三重県,伊勢市,中之町,ミエケン,イセシ,ナカノチョウ,三重県伊勢市中之町
5160035,三重県,伊勢市,勢田町,ミエケン,イセシ,セイタチョウ,三重県伊勢市勢田町
5160036,三重県,伊勢市,岡本,ミエケン,イセシ,オカモト,三重県伊勢市岡本
5160037,三重県,伊勢市,岩渕,ミエケン,イセシ,イワブチ,三重県伊勢市岩渕
5160038,三重県,伊勢市,岩渕町,ミエケン,イセシ,イワブチチョウ,三重県伊勢市岩渕町
5160041,三重県,伊勢市,常磐,ミエケン,イセシ,トキワ,三重県伊勢市常磐
5160042,三重県,伊勢市,豊川町,ミエケン,イセシ,トヨカワチョウ,三重県伊勢市豊川町
5160043,三重県,伊勢市,藤里町,ミエケン,イセシ,フジサトチョウ,三重県伊勢市藤里町
5160044,三重県,伊勢市,前山町,ミエケン,イセシ,マエヤマチョウ,三重県伊勢市前山町
5160045,三重県,伊勢市,旭町,ミエケン,イセシ,アサヒチョウ,三重県伊勢市旭町
5160046,三重県,伊勢市,辻久留町,ミエケン,イセシ,ツジクルチョウ,三重県伊勢市辻久留町
5160047,三重県,伊勢市,常磐町,ミエケン,イセシ,トキワチョウ,三重県伊勢市常磐町
5160051,三重県,伊勢市,上地町,ミエケン,イセシ,ウエジチョウ,三重県伊勢市上地町
5160052,三重県,伊勢市,川端町,ミエケン,イセシ,カワバタチョウ,三重県伊勢市川端町
5160053,三重県,伊勢市,中須町,ミエケン,イセシ,ナカズチョウ,三重県伊勢市中須町
5160054,三重県,伊勢市,粟野町,ミエケン,イセシ,アワノチョウ,三重県伊勢市粟野町
5160061,三重県,伊勢市,宮川,ミエケン,イセシ,ミヤガワ,三重県伊勢市宮川
5160062,三重県,伊勢市,浦口,ミエケン,イセシ,ウラグチ,三重県伊勢市浦口
5160063,三重県,伊勢市,浦口町,ミエケン,イセシ,ウラグチチョウ,三重県伊勢市浦口町
5160064,三重県,伊勢市,二俣,ミエケン,イセシ,フタマタ,三重県伊勢市二俣
5160065,三重県,伊勢市,二俣町,ミエケン,イセシ,フタマタチョウ,三重県伊勢市二俣町
5160066,三重県,伊勢市,辻久留,ミエケン,イセシ,ツジクル,三重県伊勢市辻久留
5160067,三重県,伊勢市,中島,ミエケン,イセシ,ナカジマ,三重県伊勢市中島
5160071,三重県,伊勢市,一之木,ミエケン,イセシ,イチノキ,三重県伊勢市一之木
5160072,三重県,伊勢市,宮後,ミエケン,イセシ,ミヤジリ,三重県伊勢市宮後
5160073,三重県,伊勢市,吹上,ミエケン,イセシ,フキアゲ,三重県伊勢市吹上
5160074,三重県,伊勢市,本町,ミエケン,イセシ,ホンマチ,三重県伊勢市本町
5160075,三重県,伊勢市,一志町,ミエケン,イセシ,イチシチョウ,三重県伊勢市一志町
5160076,三重県,伊勢市,八日市場町,ミエケン,イセシ,ヨウカイチバチョウ,三重県伊勢市八日市場町
5160077,三重県,伊勢市,宮町,ミエケン,イセシ,ミヤマチ,三重県伊勢市宮町
5160078,三重県,伊勢市,曽祢,ミエケン,イセシ,ソネ,三重県伊勢市曽祢
5160079,三重県,伊勢市,大世古,ミエケン,イセシ,オオゼコ,三重県伊勢市大世古
5160100,三重県,度会郡南伊勢町,,ミエケン,ワタライグンミナミイセチョウ,,三重県度会郡南伊勢町
5160101,三重県,度会郡南伊勢町,五ケ所浦,ミエケン,ワタライグンミナミイセチョウ,ゴカショウラ,三重県度会郡南伊勢町五ケ所浦
5160102,三重県,度会郡南伊勢町,切原,ミエケン,ワタライグンミナミイセチョウ,キリハラ,三重県度会郡南伊勢町切原
5160103,三重県,度会郡南伊勢町,泉,ミエケン,ワタライグンミナミイセチョウ,イズミ,三重県度会郡南伊勢町泉
5160104,三重県,度会郡南伊勢町,神津佐,ミエケン,ワタライグンミナミイセチョウ,コンサ,三重県度会郡南伊勢町神津佐
5160105,三重県,度会郡南伊勢町,下津浦,ミエケン,ワタライグンミナミイセチョウ,シモツウラ,三重県度会郡南伊勢町下津浦
5160106,三重県,度会郡南伊勢町,木谷,ミエケン,ワタライグンミナミイセチョウ,キダニ,三重県度会郡南伊勢町木谷
5160107,三重県,度会郡南伊勢町,飯満,ミエケン,ワタライグンミナミイセチョウ,ハンマ,三重県度会郡南伊勢町飯満
5160108,三重県,度会郡南伊勢町,中津浜浦,ミエケン,ワタライグンミナミイセチョウ,ナカツハマウラ,三重県度会郡南伊勢町中津浜浦
5160109,三重県,度会郡南伊勢町,船越,ミエケン,ワタライグンミナミイセチョウ,フナコシ,三重県度会郡南伊勢町船越
5160111,三重県,度会郡南伊勢町,内瀬,ミエケン,ワタライグンミナミイセチョウ,ナイゼ,三重県度会郡南伊勢町内瀬
5160112,三重県,度会郡南伊勢町,伊勢路,ミエケン,ワタライグンミナミイセチョウ,イセジ,三重県度会郡南伊勢町伊勢路
5160113,三重県,度会郡南伊勢町,斎田,ミエケン,ワタライグンミナミイセチョウ,サイタ,三重県度会郡南伊勢町斎田
5160114,三重県,度会郡南伊勢町,始神,ミエケン,ワタライグンミナミイセチョウ,ハジカミ,三重県度会郡南伊勢町始神
5160115,三重県,度会郡南伊勢町,押渕,ミエケン,ワタライグンミナミイセチョウ,オシブチ,三重県度会郡南伊勢町押渕
5160116,三重県,度会郡南伊勢町,迫間浦,ミエケン,ワタライグンミナミイセチョウ,ハサマウラ,三重県度会郡南伊勢町迫間浦
5160117,三重県,度会郡南伊勢町,礫浦,ミエケン,ワタライグンミナミイセチョウ,サザラウラ,三重県度会郡南伊勢町礫浦
5160118,三重県,度会郡南伊勢町,相賀浦,ミエケン,ワタライグンミナミイセチョウ,オウカウラ,三重県度会郡南伊勢町相賀浦
5160221,三重県,度会郡南伊勢町,宿浦,ミエケン,ワタライグンミナミイセチョウ,シュクウラ,三重県度会郡南伊勢町宿浦
5160222,三重県,度会郡南伊勢町,田曽浦,ミエケン,ワタライグンミナミイセチョウ,タソウラ,三重県度会郡南伊勢町田曽浦
5160801,三重県,伊勢市,御薗町小林,ミエケン,イセシ,ミソノチョウオハヤシ,三重県伊勢市御薗町小林
5160802,三重県,伊勢市,御薗町新開,ミエケン,イセシ,ミソノチョウシンガイ,三重県伊勢市御薗町新開
5160803,三重県,伊勢市,御薗町王中島,ミエケン,イセシ,ミソノチョウオウナカジマ,三重県伊勢市御薗町王中島
5160804,三重県,伊勢市,御薗町長屋,ミエケン,イセシ,ミソノチョウナガヤ,三重県伊勢市御薗町長屋
5160805,三重県,伊勢市,御薗町高向,ミエケン,イセシ,ミソノチョウタカブク,三重県伊勢市御薗町高向
5160806,三重県,伊勢市,御薗町上條（その他）,ミエケン,イセシ,ミソノチョウカミジョウ(ソノタ),三重県伊勢市御薗町上條（その他）
5161101,三重県,伊勢市,大倉町,ミエケン,イセシ,オオクラチョウ,三重県伊勢市大倉町
5161102,三重県,伊勢市,佐八町,ミエケン,イセシ,ソウチチョウ,三重県伊勢市佐八町
5161103,三重県,伊勢市,津村町,ミエケン,イセシ,ツムラチョウ,三重県伊勢市津村町
5161104,三重県,伊勢市,上野町,ミエケン,イセシ,ウエノチョウ,三重県伊勢市上野町
5161105,三重県,伊勢市,矢持町,ミエケン,イセシ,ヤモチチョウ,三重県伊勢市矢持町
5161106,三重県,伊勢市,横輪町,ミエケン,イセシ,ヨコワチョウ,三重県伊勢市横輪町
5161107,三重県,伊勢市,神薗町,ミエケン,イセシ,カミソノチョウ,三重県伊勢市神薗町
5161108,三重県,伊勢市,円座町,ミエケン,イセシ,エンザチョウ,三重県伊勢市円座町
5161231,三重県,度会郡度会町,川口,ミエケン,ワタライグンワタライチョウ,カワグチ,三重県度会郡度会町川口
5161232,三重県,度会郡度会町,栗原,ミエケン,ワタライグンワタライチョウ,クリハラ,三重県度会郡度会町栗原
5161233,三重県,度会郡度会町,日向,ミエケン,ワタライグンワタライチョウ,ヒナタ,三重県度会郡度会町日向
5161234,三重県,度会郡度会町,火打石,ミエケン,ワタライグンワタライチョウ,ヒウチイシ,三重県度会郡度会町火打石
5161235,三重県,度会郡度会町,駒ケ野,ミエケン,ワタライグンワタライチョウ,コマガノ,三重県度会郡度会町駒ケ野
5161236,三重県,度会郡度会町,小川,ミエケン,ワタライグンワタライチョウ,オガワ,三重県度会郡度会町小川
5161237,三重県,度会郡度会町,五ケ町,ミエケン,ワタライグンワタライチョウ,ゴカノチョウ,三重県度会郡度会町五ケ町
5161238,三重県,度会郡度会町,中之郷,ミエケン,ワタライグンワタライチョウ,ナカノゴウ,三重県度会郡度会町中之郷
5161241,三重県,度会郡度会町,柳,ミエケン,ワタライグンワタライチョウ,ヤナギ,三重県度会郡度会町柳
5161242,三重県,度会郡度会町,市場,ミエケン,ワタライグンワタライチョウ,イチバ,三重県度会郡度会町市場
5161243,三重県,度会郡度会町,和井野,ミエケン,ワタライグンワタライチョウ,ワイノ,三重県度会郡度会町和井野
5161244,三重県,度会郡度会町,南中村,ミエケン,ワタライグンワタライチョウ,ミナミナカムラ,三重県度会郡度会町南中村
5161245,三重県,度会郡度会町,川上,ミエケン,ワタライグンワタライチョウ,カワカミ,三重県度会郡度会町川上
5161246,三重県,度会郡度会町,脇出,ミエケン,ワタライグンワタライチョウ,ワキデ,三重県度会郡度会町脇出
5161247,三重県,度会郡度会町,小萩,ミエケン,ワタライグンワタライチョウ,コハギ,三重県度会郡度会町小萩
5161301,三重県,度会郡南伊勢町,道方,ミエケン,ワタライグンミナミイセチョウ,ミチカタ,三重県度会郡南伊勢町道方
5161302,三重県,度会郡南伊勢町,大江,ミエケン,ワタライグンミナミイセチョウ,オオエ,三重県度会郡南伊勢町大江
5161303,三重県,度会郡南伊勢町,道行竈,ミエケン,ワタライグンミナミイセチョウ,ミチユクガマ,三重県度会郡南伊勢町道行竈
5161304,三重県,度会郡南伊勢町,大方竈,ミエケン,ワタライグンミナミイセチョウ,オオカタガマ,三重県度会郡南伊勢町大方竈
5161305,三重県,度会郡南伊勢町,阿曽浦,ミエケン,ワタライグンミナミイセチョウ,アソウラ,三重県度会郡南伊勢町阿曽浦
5161306,三重県,度会郡南伊勢町,慥柄浦,ミエケン,ワタライグンミナミイセチョウ,タシカラウラ,三重県度会郡南伊勢町慥柄浦
5161307,三重県,度会郡南伊勢町,贄浦,ミエケン,ワタライグンミナミイセチョウ,ニエウラ,三重県度会郡南伊勢町贄浦
5161308,三重県,度会郡南伊勢町,奈屋浦,ミエケン,ワタライグンミナミイセチョウ,ナヤウラ,三重県度会郡南伊勢町奈屋浦
5161309,三重県,度会郡南伊勢町,東宮,ミエケン,ワタライグンミナミイセチョウ,トウグウ,三重県度会郡南伊勢町東宮
5161421,三重県,度会郡南伊勢町,河内,ミエケン,ワタライグンミナミイセチョウ,コウチ,三重県度会郡南伊勢町河内
5161422,三重県,度会郡南伊勢町,神前浦,ミエケン,ワタライグンミナミイセチョウ,カミサキウラ,三重県度会郡南伊勢町神前浦
5161423,三重県,度会郡南伊勢町,村山,ミエケン,ワタライグンミナミイセチョウ,ムラヤマ,三重県度会郡南伊勢町村山
5161531,三重県,度会郡南伊勢町,方座浦,ミエケン,ワタライグンミナミイセチョウ,ホウザウラ,三重県度会郡南伊勢町方座浦
5161532,三重県,度会郡南伊勢町,小方竈,ミエケン,ワタライグンミナミイセチョウ,オガタガマ,三重県度会郡南伊勢町小方竈
5161533,三重県,度会郡南伊勢町,栃木竈,ミエケン,ワタライグンミナミイセチョウ,トチノキガマ,三重県度会郡南伊勢町栃木竈
5161534,三重県,度会郡南伊勢町,古和浦,ミエケン,ワタライグンミナミイセチョウ,コワウラ,三重県度会郡南伊勢町古和浦
5161535,三重県,度会郡南伊勢町,棚橋竈,ミエケン,ワタライグンミナミイセチョウ,タナハシガマ,三重県度会郡南伊勢町棚橋竈
5161536,三重県,度会郡南伊勢町,新桑竈,ミエケン,ワタライグンミナミイセチョウ,サラクワガマ,三重県度会郡南伊勢町新桑竈
5162100,三重県,度会郡度会町,,ミエケン,ワタライグンワタライチョウ,,三重県度会郡度会町
5162101,三重県,度会郡度会町,葛原,ミエケン,ワタライグンワタライチョウ,クズワラ,三重県度会郡度会町葛原
5162102,三重県,度会郡度会町,大野木,ミエケン,ワタライグンワタライチョウ,オオノキ,三重県度会郡度会町大野木
5162103,三重県,度会郡度会町,棚橋,ミエケン,ワタライグンワタライチョウ,タナハシ,三重県度会郡度会町棚橋
5162104,三重県,度会郡度会町,牧戸,ミエケン,ワタライグンワタライチョウ,マキド,三重県度会郡度会町牧戸
5162105,三重県,度会郡度会町,平生,ミエケン,ワタライグンワタライチョウ,ヒロオ,三重県度会郡度会町平生
5162106,三重県,度会郡度会町,大久保,ミエケン,ワタライグンワタライチョウ,オオクボ,三重県度会郡度会町大久保
5162107,三重県,度会郡度会町,立岡,ミエケン,ワタライグンワタライチョウ,タチオカ,三重県度会郡度会町立岡
5162108,三重県,度会郡度会町,鮠川,ミエケン,ワタライグンワタライチョウ,ハイカワ,三重県度会郡度会町鮠川
5162111,三重県,度会郡度会町,下久具,ミエケン,ワタライグンワタライチョウ,シモクグ,三重県度会郡度会町下久具
5162112,三重県,度会郡度会町,上久具,ミエケン,ワタライグンワタライチョウ,カミクグ,三重県度会郡度会町上久具
5162113,三重県,度会郡度会町,田間,ミエケン,ワタライグンワタライチョウ,タマ,三重県度会郡度会町田間
5162114,三重県,度会郡度会町,当津,ミエケン,ワタライグンワタライチョウ,トウヅ,三重県度会郡度会町当津
5162115,三重県,度会郡度会町,長原,ミエケン,ワタライグンワタライチョウ,ナガワラ,三重県度会郡度会町長原
5162116,三重県,度会郡度会町,坂井,ミエケン,ワタライグンワタライチョウ,サカイ,三重県度会郡度会町坂井
5162117,三重県,度会郡度会町,麻加江,ミエケン,ワタライグンワタライチョウ,マカエ,三重県度会郡度会町麻加江
5162118,三重県,度会郡度会町,田口,ミエケン,ワタライグンワタライチョウ,タグチ,三重県度会郡度会町田口
5162119,三重県,度会郡度会町,注連指,ミエケン,ワタライグンワタライチョウ,シメサス,三重県度会郡度会町注連指
5170000,三重県,鳥羽市,,ミエケン,トバシ,,三重県鳥羽市
5170001,三重県,鳥羽市,神島町,ミエケン,トバシ,カミジマチョウ,三重県鳥羽市神島町
5170002,三重県,鳥羽市,答志町,ミエケン,トバシ,トウシチョウ,三重県鳥羽市答志町
5170003,三重県,鳥羽市,桃取町,ミエケン,トバシ,モモトリチョウ,三重県鳥羽市桃取町
5170004,三重県,鳥羽市,菅島町,ミエケン,トバシ,スガシマチョウ,三重県鳥羽市菅島町
5170005,三重県,鳥羽市,坂手町,ミエケン,トバシ,サカテチョウ,三重県鳥羽市坂手町
5170011,三重県,鳥羽市,鳥羽,ミエケン,トバシ,トバ,三重県鳥羽市鳥羽
5170012,三重県,鳥羽市,池上町,ミエケン,トバシ,イケガミチョウ,三重県鳥羽市池上町
5170013,三重県,鳥羽市,屋内町,ミエケン,トバシ,ヤナイチョウ,三重県鳥羽市屋内町
5170014,三重県,鳥羽市,堅神町,ミエケン,トバシ,カタカミチョウ,三重県鳥羽市堅神町
5170015,三重県,鳥羽市,小浜町,ミエケン,トバシ,オハマチョウ,三重県鳥羽市小浜町
5170021,三重県,鳥羽市,安楽島町,ミエケン,トバシ,アラシマチョウ,三重県鳥羽市安楽島町
5170022,三重県,鳥羽市,大明東町,ミエケン,トバシ,オアキヒガシマチ,三重県鳥羽市大明東町
5170023,三重県,鳥羽市,大明西町,ミエケン,トバシ,オアキニシマチ,三重県鳥羽市大明西町
5170024,三重県,鳥羽市,高丘町,ミエケン,トバシ,タカオカチョウ,三重県鳥羽市高丘町
5170025,三重県,鳥羽市,浦村町,ミエケン,トバシ,ウラムラチョウ,三重県鳥羽市浦村町
5170026,三重県,鳥羽市,石鏡町,ミエケン,トバシ,イジカチョウ,三重県鳥羽市石鏡町
5170031,三重県,鳥羽市,国崎町,ミエケン,トバシ,クザキチョウ,三重県鳥羽市国崎町
5170032,三重県,鳥羽市,相差町,ミエケン,トバシ,オウサツチョウ,三重県鳥羽市相差町
5170033,三重県,鳥羽市,畔蛸町,ミエケン,トバシ,アダコチョウ,三重県鳥羽市畔蛸町
5170034,三重県,鳥羽市,千賀町,ミエケン,トバシ,センガチョウ,三重県鳥羽市千賀町
5170035,三重県,鳥羽市,堅子町,ミエケン,トバシ,カタコチョウ,三重県鳥羽市堅子町
5170041,三重県,鳥羽市,岩倉町,ミエケン,トバシ,イワクラチョウ,三重県鳥羽市岩倉町
5170042,三重県,鳥羽市,松尾町,ミエケン,トバシ,マツオチョウ,三重県鳥羽市松尾町
5170043,三重県,鳥羽市,白木町,ミエケン,トバシ,シラキチョウ,三重県鳥羽市白木町
5170044,三重県,鳥羽市,河内町,ミエケン,トバシ,コウチチョウ,三重県鳥羽市河内町
5170045,三重県,鳥羽市,船津町,ミエケン,トバシ,フナツチョウ,三重県鳥羽市船津町
5170046,三重県,鳥羽市,幸丘,ミエケン,トバシ,サチガオカ,三重県鳥羽市幸丘
5170047,三重県,鳥羽市,若杉町,ミエケン,トバシ,ワカスギチョウ,三重県鳥羽市若杉町
5170081,三重県,伊勢市,朝熊町（池の浦、箕曲瀬）,ミエケン,イセシ,アサマチョウ(イケノウラ、ミノセ),三重県伊勢市朝熊町（池の浦、箕曲瀬）
5170201,三重県,志摩市,磯部町五知,ミエケン,シマシ,イソベチョウゴチ,三重県志摩市磯部町五知
5170202,三重県,志摩市,磯部町沓掛,ミエケン,シマシ,イソベチョウクツカケ,三重県志摩市磯部町沓掛
5170203,三重県,志摩市,磯部町山田,ミエケン,シマシ,イソベチョウヤマダ,三重県志摩市磯部町山田
5170204,三重県,志摩市,磯部町的矢,ミエケン,シマシ,イソベチョウマトヤ,三重県志摩市磯部町的矢
5170205,三重県,志摩市,磯部町渡鹿野,ミエケン,シマシ,イソベチョウワタカノ,三重県志摩市磯部町渡鹿野
5170206,三重県,志摩市,磯部町飯浜,ミエケン,シマシ,イソベチョウイイハマ,三重県志摩市磯部町飯浜
5170207,三重県,志摩市,磯部町下之郷,ミエケン,シマシ,イソベチョウシモノゴウ,三重県志摩市磯部町下之郷
5170208,三重県,志摩市,磯部町上之郷,ミエケン,シマシ,イソベチョウカミノゴウ,三重県志摩市磯部町上之郷
5170209,三重県,志摩市,磯部町恵利原,ミエケン,シマシ,イソベチョウエリハラ,三重県志摩市磯部町恵利原
5170211,三重県,志摩市,磯部町三ケ所,ミエケン,シマシ,イソベチョウサンガショ,三重県志摩市磯部町三ケ所
5170212,三重県,志摩市,磯部町坂崎,ミエケン,シマシ,イソベチョウサカザキ,三重県志摩市磯部町坂崎
5170213,三重県,志摩市,磯部町穴川,ミエケン,シマシ,イソベチョウアナガワ,三重県志摩市磯部町穴川
5170214,三重県,志摩市,磯部町迫間,ミエケン,シマシ,イソベチョウハサマ,三重県志摩市磯部町迫間
5170215,三重県,志摩市,磯部町檜山,ミエケン,シマシ,イソベチョウヒヤマ,三重県志摩市磯部町檜山
5170216,三重県,志摩市,磯部町栗木広,ミエケン,シマシ,イソベチョウクリキヒロ,三重県志摩市磯部町栗木広
5170217,三重県,志摩市,磯部町山原,ミエケン,シマシ,イソベチョウヤマハラ,三重県志摩市磯部町山原
5170218,三重県,志摩市,磯部町築地,ミエケン,シマシ,イソベチョウツイジ,三重県志摩市磯部町築地
5170401,三重県,志摩市,浜島町桧山路,ミエケン,シマシ,ハマジマチョウヒヤマジ,三重県志摩市浜島町桧山路
5170402,三重県,志摩市,浜島町塩屋,ミエケン,シマシ,ハマジマチョウシオヤ,三重県志摩市浜島町塩屋
5170403,三重県,志摩市,浜島町迫子,ミエケン,シマシ,ハマジマチョウハザコ,三重県志摩市浜島町迫子
5170404,三重県,志摩市,浜島町浜島,ミエケン,シマシ,ハマジマチョウハマジマ,三重県志摩市浜島町浜島
5170405,三重県,志摩市,浜島町南張,ミエケン,シマシ,ハマジマチョウナンバリ,三重県志摩市浜島町南張
5170500,三重県,志摩市,,ミエケン,シマシ,,三重県志摩市
5170501,三重県,志摩市,阿児町鵜方,ミエケン,シマシ,アゴチョウウガタ,三重県志摩市阿児町鵜方
5170502,三重県,志摩市,阿児町神明,ミエケン,シマシ,アゴチョウシンメイ,三重県志摩市阿児町神明
5170503,三重県,志摩市,阿児町立神,ミエケン,シマシ,アゴチョウタテガミ,三重県志摩市阿児町立神
5170504,三重県,志摩市,阿児町志島,ミエケン,シマシ,アゴチョウシジマ,三重県志摩市阿児町志島
5170505,三重県,志摩市,阿児町甲賀,ミエケン,シマシ,アゴチョウコウカ,三重県志摩市阿児町甲賀
5170506,三重県,志摩市,阿児町国府,ミエケン,シマシ,アゴチョウコウ,三重県志摩市阿児町国府
5170507,三重県,志摩市,阿児町安乗,ミエケン,シマシ,アゴチョウアノリ,三重県志摩市阿児町安乗
5170601,三重県,志摩市,大王町畔名,ミエケン,シマシ,ダイオウチョウアゼナ,三重県志摩市大王町畔名
5170602,三重県,志摩市,大王町名田,ミエケン,シマシ,ダイオウチョウナタ,三重県志摩市大王町名田
5170603,三重県,志摩市,大王町波切,ミエケン,シマシ,ダイオウチョウナキリ,三重県志摩市大王町波切
5170604,三重県,志摩市,大王町船越,ミエケン,シマシ,ダイオウチョウフナコシ,三重県志摩市大王町船越
5170701,三重県,志摩市,志摩町片田,ミエケン,シマシ,シマチョウカタダ,三重県志摩市志摩町片田
5170702,三重県,志摩市,志摩町布施田,ミエケン,シマシ,シマチョウフセダ,三重県志摩市志摩町布施田
5170703,三重県,志摩市,志摩町和具,ミエケン,シマシ,シマチョウワグ,三重県志摩市志摩町和具
5170704,三重県,志摩市,志摩町越賀,ミエケン,シマシ,シマチョウコシカ,三重県志摩市志摩町越賀
5170705,三重県,志摩市,志摩町御座,ミエケン,シマシ,シマチョウゴザ,三重県志摩市志摩町御座
5180000,三重県,伊賀市,,ミエケン,イガシ,,三重県伊賀市
5180001,三重県,伊賀市,佐那具町,ミエケン,イガシ,サナグチョウ,三重県伊賀市佐那具町
5180002,三重県,伊賀市,千歳,ミエケン,イガシ,センザイ,三重県伊賀市千歳
5180003,三重県,伊賀市,一之宮,ミエケン,イガシ,イチノミヤ,三重県伊賀市一之宮
5180004,三重県,伊賀市,寺田,ミエケン,イガシ,テラダ,三重県伊賀市寺田
5180005,三重県,伊賀市,高畑,ミエケン,イガシ,タカハタ,三重県伊賀市高畑
5180006,三重県,伊賀市,羽根,ミエケン,イガシ,ハネ,三重県伊賀市羽根
5180007,三重県,伊賀市,服部町,ミエケン,イガシ,ハットリチョウ,三重県伊賀市服部町
5180008,三重県,伊賀市,印代,ミエケン,イガシ,イジロ,三重県伊賀市印代
5180011,三重県,伊賀市,外山,ミエケン,イガシ,トヤマ,三重県伊賀市外山
5180012,三重県,伊賀市,坂之下,ミエケン,イガシ,サカノシタ,三重県伊賀市坂之下
5180013,三重県,伊賀市,東条,ミエケン,イガシ,ヒガシジョウ,三重県伊賀市東条
5180014,三重県,伊賀市,西条,ミエケン,イガシ,ニシジョウ,三重県伊賀市西条
5180015,三重県,伊賀市,土橋,ミエケン,イガシ,ツチハシ,三重県伊賀市土橋
5180016,三重県,伊賀市,山神,ミエケン,イガシ,ヤガミ,三重県伊賀市山神
5180017,三重県,伊賀市,大谷,ミエケン,イガシ,オオタニ,三重県伊賀市大谷
5180021,三重県,伊賀市,諏訪,ミエケン,イガシ,スワ,三重県伊賀市諏訪
5180022,三重県,伊賀市,三田,ミエケン,イガシ,ミタ,三重県伊賀市三田
5180023,三重県,伊賀市,野間,ミエケン,イガシ,ノマ,三重県伊賀市野間
5180024,三重県,伊賀市,東高倉,ミエケン,イガシ,ヒガシタカクラ,三重県伊賀市東高倉
5180025,三重県,伊賀市,西高倉,ミエケン,イガシ,ニシタカクラ,三重県伊賀市西高倉
5180026,三重県,伊賀市,岩倉,ミエケン,イガシ,イワクラ,三重県伊賀市岩倉
5180027,三重県,伊賀市,西山,ミエケン,イガシ,ニシヤマ,三重県伊賀市西山
5180031,三重県,伊賀市,長田,ミエケン,イガシ,ナガタ,三重県伊賀市長田
5180032,三重県,伊賀市,朝屋,ミエケン,イガシ,チョウヤ,三重県伊賀市朝屋
5180033,三重県,伊賀市,大野木,ミエケン,イガシ,オオノギ,三重県伊賀市大野木
5180034,三重県,伊賀市,大内,ミエケン,イガシ,オオウチ,三重県伊賀市大内
5180035,三重県,伊賀市,七本木,ミエケン,イガシ,シチホンギ,三重県伊賀市七本木
5180036,三重県,伊賀市,法花,ミエケン,イガシ,ホッケ,三重県伊賀市法花
5180101,三重県,伊賀市,依那具,ミエケン,イガシ,イナグ,三重県伊賀市依那具
5180102,三重県,伊賀市,市部,ミエケン,イガシ,イチベ,三重県伊賀市市部
5180103,三重県,伊賀市,沖,ミエケン,イガシ,オキ,三重県伊賀市沖
5180104,三重県,伊賀市,摺見,ミエケン,イガシ,スルミ,三重県伊賀市摺見
5180105,三重県,伊賀市,比自岐,ミエケン,イガシ,ヒジキ,三重県伊賀市比自岐
5180106,三重県,伊賀市,岡波,ミエケン,イガシ,オカナミ,三重県伊賀市岡波
5180107,三重県,伊賀市,枅川,ミエケン,イガシ,ヒジキガワ,三重県伊賀市枅川
5180108,三重県,伊賀市,才良,ミエケン,イガシ,ザイリョウ,三重県伊賀市才良
5180111,三重県,伊賀市,下神戸,ミエケン,イガシ,シモカンベ,三重県伊賀市下神戸
5180112,三重県,伊賀市,上林,ミエケン,イガシ,ウエバヤシ,三重県伊賀市上林
5180113,三重県,伊賀市,古郡,ミエケン,イガシ,フルコオリ,三重県伊賀市古郡
5180114,三重県,伊賀市,朝日ケ丘町,ミエケン,イガシ,アサヒガオカチョウ,三重県伊賀市朝日ケ丘町
5180115,三重県,伊賀市,比土,ミエケン,イガシ,ヒド,三重県伊賀市比土
5180116,三重県,伊賀市,上神戸,ミエケン,イガシ,カミカンベ,三重県伊賀市上神戸
5180121,三重県,伊賀市,上之庄,ミエケン,イガシ,カミノショウ,三重県伊賀市上之庄
5180122,三重県,伊賀市,笠部,ミエケン,イガシ,カサベ,三重県伊賀市笠部
5180123,三重県,伊賀市,猪田,ミエケン,イガシ,イダ,三重県伊賀市猪田
5180124,三重県,伊賀市,下郡,ミエケン,イガシ,シモゴオリ,三重県伊賀市下郡
5180125,三重県,伊賀市,上郡,ミエケン,イガシ,カミゴオリ,三重県伊賀市上郡
5180126,三重県,伊賀市,森寺,ミエケン,イガシ,モリデラ,三重県伊賀市森寺
5180127,三重県,伊賀市,山出,ミエケン,イガシ,ヤマデ,三重県伊賀市山出
5180131,三重県,伊賀市,ゆめが丘,ミエケン,イガシ,ユメガオカ,三重県伊賀市ゆめが丘
5180201,三重県,伊賀市,瀧,ミエケン,イガシ,タキ,三重県伊賀市瀧
5180202,三重県,伊賀市,妙楽地,ミエケン,イガシ,ミョウラクジ,三重県伊賀市妙楽地
5180203,三重県,伊賀市,勝地,ミエケン,イガシ,カチジ,三重県伊賀市勝地
5180204,三重県,伊賀市,北山,ミエケン,イガシ,キタヤマ,三重県伊賀市北山
5180205,三重県,伊賀市,伊勢路,ミエケン,イガシ,イセジ,三重県伊賀市伊勢路
5180206,三重県,伊賀市,下川原,ミエケン,イガシ,シモガワラ,三重県伊賀市下川原
5180211,三重県,伊賀市,奥鹿野,ミエケン,イガシ,オクガノ,三重県伊賀市奥鹿野
5180212,三重県,伊賀市,福川,ミエケン,イガシ,フクガワ,三重県伊賀市福川
5180213,三重県,伊賀市,諸木,ミエケン,イガシ,モロキ,三重県伊賀市諸木
5180214,三重県,伊賀市,腰山,ミエケン,イガシ,コシヤマ,三重県伊賀市腰山
5180215,三重県,伊賀市,霧生,ミエケン,イガシ,キリュウ,三重県伊賀市霧生
5180216,三重県,伊賀市,高尾,ミエケン,イガシ,タカオ,三重県伊賀市高尾
5180217,三重県,伊賀市,種生,ミエケン,イガシ,タナオ,三重県伊賀市種生
5180218,三重県,伊賀市,川上,ミエケン,イガシ,カワカミ,三重県伊賀市川上
5180219,三重県,伊賀市,老川,ミエケン,イガシ,オイカワ,三重県伊賀市老川
5180221,三重県,伊賀市,別府,ミエケン,イガシ,ベフ,三重県伊賀市別府
5180222,三重県,伊賀市,寺脇,ミエケン,イガシ,テラワキ,三重県伊賀市寺脇
5180223,三重県,伊賀市,岡田,ミエケン,イガシ,オカダ,三重県伊賀市岡田
5180224,三重県,伊賀市,柏尾,ミエケン,イガシ,カシオ,三重県伊賀市柏尾
5180225,三重県,伊賀市,桐ケ丘,ミエケン,イガシ,キリガオカ,三重県伊賀市桐ケ丘
5180226,三重県,伊賀市,阿保,ミエケン,イガシ,アオ,三重県伊賀市阿保
5180227,三重県,伊賀市,青山羽根,ミエケン,イガシ,アオヤマハネ,三重県伊賀市青山羽根
5180400,三重県,名張市,,ミエケン,ナバリシ,,三重県名張市
5180401,三重県,名張市,すずらん台東１番町,ミエケン,ナバリシ,スズランダイヒガシ1バンチョウ,三重県名張市すずらん台東1-町
5180402,三重県,名張市,すずらん台東２番町,ミエケン,ナバリシ,スズランダイヒガシ2バンチョウ,三重県名張市すずらん台東2-町
5180403,三重県,名張市,すずらん台東３番町,ミエケン,ナバリシ,スズランダイヒガシ3バンチョウ,三重県名張市すずらん台東3-町
5180404,三重県,名張市,すずらん台東４番町,ミエケン,ナバリシ,スズランダイヒガシ4バンチョウ,三重県名張市すずらん台東4-町
5180405,三重県,名張市,すずらん台東５番町,ミエケン,ナバリシ,スズランダイヒガシ5バンチョウ,三重県名張市すずらん台東5-町
5180406,三重県,名張市,すずらん台西１番町,ミエケン,ナバリシ,スズランダイニシ1バンチョウ,三重県名張市すずらん台西1-町
5180407,三重県,名張市,すずらん台西２番町,ミエケン,ナバリシ,スズランダイニシ2バンチョウ,三重県名張市すずらん台西2-町
5180408,三重県,名張市,すずらん台西３番町,ミエケン,ナバリシ,スズランダイニシ3バンチョウ,三重県名張市すずらん台西3-町
5180409,三重県,名張市,すずらん台西４番町,ミエケン,ナバリシ,スズランダイニシ4バンチョウ,三重県名張市すずらん台西4-町
5180411,三重県,名張市,滝之原,ミエケン,ナバリシ,タキノハラ,三重県名張市滝之原
5180412,三重県,名張市,上比奈知,ミエケン,ナバリシ,カミヒナチ,三重県名張市上比奈知
5180413,三重県,名張市,下比奈知,ミエケン,ナバリシ,シモヒナチ,三重県名張市下比奈知
5180414,三重県,名張市,富貴ケ丘１番町,ミエケン,ナバリシ,フキガオカ1バンチョウ,三重県名張市富貴ケ丘1-町
5180415,三重県,名張市,富貴ケ丘２番町,ミエケン,ナバリシ,フキガオカ2バンチョウ,三重県名張市富貴ケ丘2-町
5180416,三重県,名張市,富貴ケ丘３番町,ミエケン,ナバリシ,フキガオカ3バンチョウ,三重県名張市富貴ケ丘3-町
5180417,三重県,名張市,富貴ケ丘４番町,ミエケン,ナバリシ,フキガオカ4バンチョウ,三重県名張市富貴ケ丘4-町
5180418,三重県,名張市,富貴ケ丘５番町,ミエケン,ナバリシ,フキガオカ5バンチョウ,三重県名張市富貴ケ丘5-町
5180419,三重県,名張市,富貴ケ丘６番町,ミエケン,ナバリシ,フキガオカ6バンチョウ,三重県名張市富貴ケ丘6-町
5180421,三重県,名張市,つつじが丘南１番町,ミエケン,ナバリシ,ツツジガオカミナミ1バンチョウ,三重県名張市つつじが丘南1-町
5180422,三重県,名張市,つつじが丘南２番町,ミエケン,ナバリシ,ツツジガオカミナミ2バンチョウ,三重県名張市つつじが丘南2-町
5180423,三重県,名張市,つつじが丘南３番町,ミエケン,ナバリシ,ツツジガオカミナミ3バンチョウ,三重県名張市つつじが丘南3-町
5180424,三重県,名張市,つつじが丘南４番町,ミエケン,ナバリシ,ツツジガオカミナミ4バンチョウ,三重県名張市つつじが丘南4-町
5180425,三重県,名張市,つつじが丘南５番町,ミエケン,ナバリシ,ツツジガオカミナミ5バンチョウ,三重県名張市つつじが丘南5-町
5180426,三重県,名張市,つつじが丘南６番町,ミエケン,ナバリシ,ツツジガオカミナミ6バンチョウ,三重県名張市つつじが丘南6-町
5180427,三重県,名張市,つつじが丘南７番町,ミエケン,ナバリシ,ツツジガオカミナミ7バンチョウ,三重県名張市つつじが丘南7-町
5180428,三重県,名張市,つつじが丘南８番町,ミエケン,ナバリシ,ツツジガオカミナミ8バンチョウ,三重県名張市つつじが丘南8-町
5180430,三重県,名張市,つつじが丘北１０番町,ミエケン,ナバリシ,ツツジガオカキタ10バンチョウ,三重県名張市つつじが丘北10-町
5180431,三重県,名張市,つつじが丘北１番町,ミエケン,ナバリシ,ツツジガオカキタ1バンチョウ,三重県名張市つつじが丘北1-町
5180432,三重県,名張市,つつじが丘北２番町,ミエケン,ナバリシ,ツツジガオカキタ2バンチョウ,三重県名張市つつじが丘北2-町
5180433,三重県,名張市,つつじが丘北３番町,ミエケン,ナバリシ,ツツジガオカキタ3バンチョウ,三重県名張市つつじが丘北3-町
5180434,三重県,名張市,つつじが丘北４番町,ミエケン,ナバリシ,ツツジガオカキタ4バンチョウ,三重県名張市つつじが丘北4-町
5180435,三重県,名張市,つつじが丘北５番町,ミエケン,ナバリシ,ツツジガオカキタ5バンチョウ,三重県名張市つつじが丘北5-町
5180436,三重県,名張市,つつじが丘北６番町,ミエケン,ナバリシ,ツツジガオカキタ6バンチョウ,三重県名張市つつじが丘北6-町
5180437,三重県,名張市,つつじが丘北７番町,ミエケン,ナバリシ,ツツジガオカキタ7バンチョウ,三重県名張市つつじが丘北7-町
5180438,三重県,名張市,つつじが丘北８番町,ミエケン,ナバリシ,ツツジガオカキタ8バンチョウ,三重県名張市つつじが丘北8-町
5180439,三重県,名張市,つつじが丘北９番町,ミエケン,ナバリシ,ツツジガオカキタ9バンチョウ,三重県名張市つつじが丘北9-町
5180441,三重県,名張市,夏見,ミエケン,ナバリシ,ナツミ,三重県名張市夏見
5180442,三重県,名張市,中知山,ミエケン,ナバリシ,ナカチヤマ,三重県名張市中知山
5180443,三重県,名張市,青蓮寺,ミエケン,ナバリシ,ショウレンジ,三重県名張市青蓮寺
5180444,三重県,名張市,箕曲中村,ミエケン,ナバリシ,ミノワナカムラ,三重県名張市箕曲中村
5180445,三重県,名張市,瀬古口,ミエケン,ナバリシ,セコグチ,三重県名張市瀬古口
5180446,三重県,名張市,南百合が丘,ミエケン,ナバリシ,ミナミユリガオカ,三重県名張市南百合が丘
5180453,三重県,名張市,春日丘１番町,ミエケン,ナバリシ,カスガオカ1バンチョウ,三重県名張市春日丘1-町
5180454,三重県,名張市,春日丘２番町,ミエケン,ナバリシ,カスガオカ2バンチョウ,三重県名張市春日丘2-町
5180455,三重県,名張市,春日丘３番町,ミエケン,ナバリシ,カスガオカ3バンチョウ,三重県名張市春日丘3-町
5180456,三重県,名張市,春日丘４番町,ミエケン,ナバリシ,カスガオカ4バンチョウ,三重県名張市春日丘4-町
5180457,三重県,名張市,春日丘５番町,ミエケン,ナバリシ,カスガオカ5バンチョウ,三重県名張市春日丘5-町
5180458,三重県,名張市,春日丘６番町,ミエケン,ナバリシ,カスガオカ6バンチョウ,三重県名張市春日丘6-町
5180459,三重県,名張市,春日丘７番町,ミエケン,ナバリシ,カスガオカ7バンチョウ,三重県名張市春日丘7-町
5180461,三重県,名張市,赤目町すみれが丘,ミエケン,ナバリシ,アカメチョウスミレガオカ,三重県名張市赤目町すみれが丘
5180462,三重県,名張市,赤目町星川,ミエケン,ナバリシ,アカメチョウホシカワ,三重県名張市赤目町星川
5180463,三重県,名張市,赤目町檀,ミエケン,ナバリシ,アカメチョウダン,三重県名張市赤目町檀
5180464,三重県,名張市,赤目町柏原,ミエケン,ナバリシ,アカメチョウカシワラ,三重県名張市赤目町柏原
5180465,三重県,名張市,赤目町丈六,ミエケン,ナバリシ,アカメチョウジョウロク,三重県名張市赤目町丈六
5180466,三重県,名張市,赤目町新川,ミエケン,ナバリシ,アカメチョウシンカワ,三重県名張市赤目町新川
5180467,三重県,名張市,赤目町相楽,ミエケン,ナバリシ,アカメチョウサガラ,三重県名張市赤目町相楽
5180468,三重県,名張市,赤目町一ノ井,ミエケン,ナバリシ,アカメチョウイチノイ,三重県名張市赤目町一ノ井
5180469,三重県,名張市,赤目町長坂,ミエケン,ナバリシ,アカメチョウナガサカ,三重県名張市赤目町長坂
5180471,三重県,名張市,百合が丘東１番町,ミエケン,ナバリシ,ユリガオカヒガシ1バンチョウ,三重県名張市百合が丘東1-町
5180472,三重県,名張市,百合が丘東２番町,ミエケン,ナバリシ,ユリガオカヒガシ2バンチョウ,三重県名張市百合が丘東2-町
5180473,三重県,名張市,百合が丘東３番町,ミエケン,ナバリシ,ユリガオカヒガシ3バンチョウ,三重県名張市百合が丘東3-町
5180474,三重県,名張市,百合が丘東４番町,ミエケン,ナバリシ,ユリガオカヒガシ4バンチョウ,三重県名張市百合が丘東4-町
5180475,三重県,名張市,百合が丘東５番町,ミエケン,ナバリシ,ユリガオカヒガシ5バンチョウ,三重県名張市百合が丘東5-町
5180476,三重県,名張市,百合が丘東６番町,ミエケン,ナバリシ,ユリガオカヒガシ6バンチョウ,三重県名張市百合が丘東6-町
5180477,三重県,名張市,百合が丘東７番町,ミエケン,ナバリシ,ユリガオカヒガシ7バンチョウ,三重県名張市百合が丘東7-町
5180478,三重県,名張市,百合が丘東８番町,ミエケン,ナバリシ,ユリガオカヒガシ8バンチョウ,三重県名張市百合が丘東8-町
5180479,三重県,名張市,百合が丘東９番町,ミエケン,ナバリシ,ユリガオカヒガシ9バンチョウ,三重県名張市百合が丘東9-町
5180481,三重県,名張市,百合が丘西１番町,ミエケン,ナバリシ,ユリガオカニシ1バンチョウ,三重県名張市百合が丘西1-町
5180482,三重県,名張市,百合が丘西２番町,ミエケン,ナバリシ,ユリガオカニシ2バンチョウ,三重県名張市百合が丘西2-町
5180483,三重県,名張市,百合が丘西３番町,ミエケン,ナバリシ,ユリガオカニシ3バンチョウ,三重県名張市百合が丘西3-町
5180484,三重県,名張市,百合が丘西４番町,ミエケン,ナバリシ,ユリガオカニシ4バンチョウ,三重県名張市百合が丘西4-町
5180485,三重県,名張市,百合が丘西５番町,ミエケン,ナバリシ,ユリガオカニシ5バンチョウ,三重県名張市百合が丘西5-町
5180486,三重県,名張市,百合が丘西６番町,ミエケン,ナバリシ,ユリガオカニシ6バンチョウ,三重県名張市百合が丘西6-町
5180501,三重県,名張市,長瀬,ミエケン,ナバリシ,ナガセ,三重県名張市長瀬
5180502,三重県,名張市,上長瀬,ミエケン,ナバリシ,カミナガセ,三重県名張市上長瀬
5180503,三重県,名張市,布生,ミエケン,ナバリシ,フノウ,三重県名張市布生
5180504,三重県,名張市,神屋,ミエケン,ナバリシ,カミヤ,三重県名張市神屋
5180505,三重県,名張市,奈垣,ミエケン,ナバリシ,ナガキ,三重県名張市奈垣
5180601,三重県,名張市,南古山,ミエケン,ナバリシ,ミナミフルヤマ,三重県名張市南古山
5180602,三重県,名張市,東田原,ミエケン,ナバリシ,ヒガシタワラ,三重県名張市東田原
5180603,三重県,名張市,西原町,ミエケン,ナバリシ,ニシワラチョウ,三重県名張市西原町
5180604,三重県,名張市,さつき台,ミエケン,ナバリシ,サツキダイ,三重県名張市さつき台
5180605,三重県,名張市,八幡,ミエケン,ナバリシ,ヤバタ,三重県名張市八幡
5180606,三重県,名張市,薦生,ミエケン,ナバリシ,コモオ,三重県名張市薦生
5180607,三重県,名張市,家野,ミエケン,ナバリシ,イエノ,三重県名張市家野
5180607,三重県,名張市,葛尾,ミエケン,ナバリシ,クズオ,三重県名張市葛尾
5180608,三重県,名張市,鵜山,ミエケン,ナバリシ,ウヤマ,三重県名張市鵜山
5180609,三重県,名張市,西田原,ミエケン,ナバリシ,ニシタワラ,三重県名張市西田原
5180610,三重県,名張市,美旗町藤が丘,ミエケン,ナバリシ,ミハタチョウフジガオカ,三重県名張市美旗町藤が丘
5180611,三重県,名張市,新田,ミエケン,ナバリシ,シンデン,三重県名張市新田
5180612,三重県,名張市,下小波田,ミエケン,ナバリシ,シモオバタ,三重県名張市下小波田
5180613,三重県,名張市,上小波田,ミエケン,ナバリシ,カミオバタ,三重県名張市上小波田
5180614,三重県,名張市,美旗町池の台東,ミエケン,ナバリシ,ミハタチョウイケノダイヒガシ,三重県名張市美旗町池の台東
5180614,三重県,名張市,美旗町池の台西,ミエケン,ナバリシ,ミハタチョウイケノダイニシ,三重県名張市美旗町池の台西
5180615,三重県,名張市,美旗中村,ミエケン,ナバリシ,ミハタナカムラ,三重県名張市美旗中村
5180616,三重県,名張市,美旗町南西原,ミエケン,ナバリシ,ミハタチョウミナミニシハラ,三重県名張市美旗町南西原
5180617,三重県,名張市,美旗町中１番,ミエケン,ナバリシ,ミハタチョウナカ1バン,三重県名張市美旗町中1
5180618,三重県,名張市,美旗町中２番,ミエケン,ナバリシ,ミハタチョウナカ2バン,三重県名張市美旗町中2
5180619,三重県,名張市,美旗町中３番,ミエケン,ナバリシ,ミハタチョウナカ3バン,三重県名張市美旗町中3
5180621,三重県,名張市,桔梗が丘１番町,ミエケン,ナバリシ,キキョウガオカ1バンチョウ,三重県名張市桔梗が丘1-町
5180622,三重県,名張市,桔梗が丘２番町,ミエケン,ナバリシ,キキョウガオカ2バンチョウ,三重県名張市桔梗が丘2-町
5180623,三重県,名張市,桔梗が丘３番町,ミエケン,ナバリシ,キキョウガオカ3バンチョウ,三重県名張市桔梗が丘3-町
5180624,三重県,名張市,桔梗が丘４番町,ミエケン,ナバリシ,キキョウガオカ4バンチョウ,三重県名張市桔梗が丘4-町
5180625,三重県,名張市,桔梗が丘５番町,ミエケン,ナバリシ,キキョウガオカ5バンチョウ,三重県名張市桔梗が丘5-町
5180626,三重県,名張市,桔梗が丘６番町,ミエケン,ナバリシ,キキョウガオカ6バンチョウ,三重県名張市桔梗が丘6-町
5180627,三重県,名張市,桔梗が丘７番町,ミエケン,ナバリシ,キキョウガオカ7バンチョウ,三重県名張市桔梗が丘7-町
5180628,三重県,名張市,桔梗が丘８番町,ミエケン,ナバリシ,キキョウガオカ8バンチョウ,三重県名張市桔梗が丘8-町
5180631,三重県,名張市,桔梗が丘南１番町,ミエケン,ナバリシ,キキョウガオカミナミ1バンチョウ,三重県名張市桔梗が丘南1-町
5180632,三重県,名張市,桔梗が丘南２番町,ミエケン,ナバリシ,キキョウガオカミナミ2バンチョウ,三重県名張市桔梗が丘南2-町
5180633,三重県,名張市,桔梗が丘南３番町,ミエケン,ナバリシ,キキョウガオカミナミ3バンチョウ,三重県名張市桔梗が丘南3-町
5180634,三重県,名張市,桔梗が丘南４番町,ミエケン,ナバリシ,キキョウガオカミナミ4バンチョウ,三重県名張市桔梗が丘南4-町
5180641,三重県,名張市,桔梗が丘西１番町,ミエケン,ナバリシ,キキョウガオカニシ1バンチョウ,三重県名張市桔梗が丘西1-町
5180642,三重県,名張市,桔梗が丘西２番町,ミエケン,ナバリシ,キキョウガオカニシ2バンチョウ,三重県名張市桔梗が丘西2-町
5180643,三重県,名張市,桔梗が丘西３番町,ミエケン,ナバリシ,キキョウガオカニシ3バンチョウ,三重県名張市桔梗が丘西3-町
5180644,三重県,名張市,桔梗が丘西４番町,ミエケン,ナバリシ,キキョウガオカニシ4バンチョウ,三重県名張市桔梗が丘西4-町
5180645,三重県,名張市,桔梗が丘西５番町,ミエケン,ナバリシ,キキョウガオカニシ5バンチョウ,三重県名張市桔梗が丘西5-町
5180646,三重県,名張市,桔梗が丘西６番町,ミエケン,ナバリシ,キキョウガオカニシ6バンチョウ,三重県名張市桔梗が丘西6-町
5180647,三重県,名張市,桔梗が丘西７番町,ミエケン,ナバリシ,キキョウガオカニシ7バンチョウ,三重県名張市桔梗が丘西7-町
5180701,三重県,名張市,鴻之台１番町,ミエケン,ナバリシ,コウノダイ1バンチョウ,三重県名張市鴻之台1-町
5180702,三重県,名張市,鴻之台２番町,ミエケン,ナバリシ,コウノダイ2バンチョウ,三重県名張市鴻之台2-町
5180703,三重県,名張市,鴻之台３番町,ミエケン,ナバリシ,コウノダイ3バンチョウ,三重県名張市鴻之台3-町
5180704,三重県,名張市,鴻之台４番町,ミエケン,ナバリシ,コウノダイ4バンチョウ,三重県名張市鴻之台4-町
5180705,三重県,名張市,鴻之台５番町,ミエケン,ナバリシ,コウノダイ5バンチョウ,三重県名張市鴻之台5-町
5180710,三重県,名張市,上八町,ミエケン,ナバリシ,カミハッチョウ,三重県名張市上八町
5180711,三重県,名張市,東町,ミエケン,ナバリシ,ヒガシマチ,三重県名張市東町
5180712,三重県,名張市,桜ケ丘,ミエケン,ナバリシ,サクラガオカ,三重県名張市桜ケ丘
5180713,三重県,名張市,平尾,ミエケン,ナバリシ,ヒラオ,三重県名張市平尾
5180714,三重県,名張市,鍛冶町,ミエケン,ナバリシ,カジマチ,三重県名張市鍛冶町
5180715,三重県,名張市,柳原町,ミエケン,ナバリシ,ヤナギハラチョウ,三重県名張市柳原町
5180716,三重県,名張市,上本町,ミエケン,ナバリシ,ウエホンマチ,三重県名張市上本町
5180717,三重県,名張市,中町,ミエケン,ナバリシ,ナカマチ,三重県名張市中町
5180718,三重県,名張市,丸之内,ミエケン,ナバリシ,マルノウチ,三重県名張市丸之内
5180719,三重県,名張市,栄町,ミエケン,ナバリシ,サカエマチ,三重県名張市栄町
5180721,三重県,名張市,朝日町,ミエケン,ナバリシ,アサヒマチ,三重県名張市朝日町
5180722,三重県,名張市,松崎町,ミエケン,ナバリシ,マツサキマチ,三重県名張市松崎町
5180723,三重県,名張市,木屋町,ミエケン,ナバリシ,キヤマチ,三重県名張市木屋町
5180724,三重県,名張市,榊町,ミエケン,ナバリシ,サカキマチ,三重県名張市榊町
5180725,三重県,名張市,元町,ミエケン,ナバリシ,モトマチ,三重県名張市元町
5180726,三重県,名張市,本町,ミエケン,ナバリシ,ホンマチ,三重県名張市本町
5180727,三重県,名張市,新町,ミエケン,ナバリシ,シンマチ,三重県名張市新町
5180728,三重県,名張市,豊後町,ミエケン,ナバリシ,ブンゴマチ,三重県名張市豊後町
5180729,三重県,名張市,南町,ミエケン,ナバリシ,ミナミマチ,三重県名張市南町
5180731,三重県,名張市,夏秋,ミエケン,ナバリシ,ナツアキ,三重県名張市夏秋
5180732,三重県,名張市,松原町,ミエケン,ナバリシ,マツバラチョウ,三重県名張市松原町
5180733,三重県,名張市,大屋戸,ミエケン,ナバリシ,オヤド,三重県名張市大屋戸
5180734,三重県,名張市,黒田,ミエケン,ナバリシ,クロダ,三重県名張市黒田
5180735,三重県,名張市,結馬,ミエケン,ナバリシ,ケチバ,三重県名張市結馬
5180736,三重県,名張市,井手,ミエケン,ナバリシ,イデ,三重県名張市井手
5180737,三重県,名張市,安部田,ミエケン,ナバリシ,アベタ,三重県名張市安部田
5180738,三重県,名張市,短野,ミエケン,ナバリシ,ミジカノ,三重県名張市短野
5180739,三重県,名張市,下三谷,ミエケン,ナバリシ,シモミタニ,三重県名張市下三谷
5180740,三重県,名張市,梅が丘北５番町,ミエケン,ナバリシ,ウメガオカキタ5バンチョウ,三重県名張市梅が丘北5-町
5180741,三重県,名張市,梅が丘南１番町,ミエケン,ナバリシ,ウメガオカミナミ1バンチョウ,三重県名張市梅が丘南1-町
5180742,三重県,名張市,梅が丘南２番町,ミエケン,ナバリシ,ウメガオカミナミ2バンチョウ,三重県名張市梅が丘南2-町
5180743,三重県,名張市,梅が丘南３番町,ミエケン,ナバリシ,ウメガオカミナミ3バンチョウ,三重県名張市梅が丘南3-町
5180744,三重県,名張市,梅が丘南４番町,ミエケン,ナバリシ,ウメガオカミナミ4バンチョウ,三重県名張市梅が丘南4-町
5180745,三重県,名張市,梅が丘南５番町,ミエケン,ナバリシ,ウメガオカミナミ5バンチョウ,三重県名張市梅が丘南5-町
5180746,三重県,名張市,梅が丘北１番町,ミエケン,ナバリシ,ウメガオカキタ1バンチョウ,三重県名張市梅が丘北1-町
5180747,三重県,名張市,梅が丘北２番町,ミエケン,ナバリシ,ウメガオカキタ2バンチョウ,三重県名張市梅が丘北2-町
5180748,三重県,名張市,梅が丘北３番町,ミエケン,ナバリシ,ウメガオカキタ3バンチョウ,三重県名張市梅が丘北3-町
5180749,三重県,名張市,梅が丘北４番町,ミエケン,ナバリシ,ウメガオカキタ4バンチョウ,三重県名張市梅が丘北4-町
5180751,三重県,名張市,蔵持町芝出,ミエケン,ナバリシ,クラモチチョウシバデ,三重県名張市蔵持町芝出
5180752,三重県,名張市,蔵持町原出,ミエケン,ナバリシ,クラモチチョウハラデ,三重県名張市蔵持町原出
5180753,三重県,名張市,蔵持町里,ミエケン,ナバリシ,クラモチチョウサト,三重県名張市蔵持町里
5180754,三重県,名張市,緑が丘西,ミエケン,ナバリシ,ミドリガオカニシ,三重県名張市緑が丘西
5180755,三重県,名張市,緑が丘中,ミエケン,ナバリシ,ミドリガオカナカ,三重県名張市緑が丘中
5180756,三重県,名張市,緑が丘東,ミエケン,ナバリシ,ミドリガオカヒガシ,三重県名張市緑が丘東
5180761,三重県,名張市,竜口,ミエケン,ナバリシ,リュウグチ,三重県名張市竜口
5180762,三重県,名張市,上三谷,ミエケン,ナバリシ,カミミタニ,三重県名張市上三谷
5180763,三重県,名張市,矢川,ミエケン,ナバリシ,ヤガワ,三重県名張市矢川
5180771,三重県,名張市,希央台１番町,ミエケン,ナバリシ,キオウダイ1バンチョウ,三重県名張市希央台1-町
5180772,三重県,名張市,希央台２番町,ミエケン,ナバリシ,キオウダイ2バンチョウ,三重県名張市希央台2-町
5180773,三重県,名張市,希央台３番町,ミエケン,ナバリシ,キオウダイ3バンチョウ,三重県名張市希央台3-町
5180774,三重県,名張市,希央台４番町,ミエケン,ナバリシ,キオウダイ4バンチョウ,三重県名張市希央台4-町
5180775,三重県,名張市,希央台５番町,ミエケン,ナバリシ,キオウダイ5バンチョウ,三重県名張市希央台5-町
5180801,三重県,伊賀市,平野見能,ミエケン,イガシ,ヒラノミノウ,三重県伊賀市平野見能
5180802,三重県,伊賀市,平野樋之口,ミエケン,イガシ,ヒラノヒノクチ,三重県伊賀市平野樋之口
5180804,三重県,伊賀市,平野六反田,ミエケン,イガシ,ヒラノロクタンダ,三重県伊賀市平野六反田
5180807,三重県,伊賀市,平野上川原,ミエケン,イガシ,ヒラノカミガワラ,三重県伊賀市平野上川原
5180808,三重県,伊賀市,平野蔵垣内,ミエケン,イガシ,ヒラノクラガイト,三重県伊賀市平野蔵垣内
5180809,三重県,伊賀市,西明寺,ミエケン,イガシ,サイミョウジ,三重県伊賀市西明寺
5180810,三重県,伊賀市,平野東町,ミエケン,イガシ,ヒラノヒガシマチ,三重県伊賀市平野東町
5180811,三重県,伊賀市,喰代,ミエケン,イガシ,ホウジロ,三重県伊賀市喰代
5180812,三重県,伊賀市,高山,ミエケン,イガシ,タカヤマ,三重県伊賀市高山
5180813,三重県,伊賀市,蓮池,ミエケン,イガシ,ハスイケ,三重県伊賀市蓮池
5180814,三重県,伊賀市,上友生,ミエケン,イガシ,カミトモノ,三重県伊賀市上友生
5180815,三重県,伊賀市,界外,ミエケン,イガシ,カイゲ,三重県伊賀市界外
5180816,三重県,伊賀市,中友生,ミエケン,イガシ,ナカトモノ,三重県伊賀市中友生
5180817,三重県,伊賀市,下友生,ミエケン,イガシ,シモトモノ,三重県伊賀市下友生
5180818,三重県,伊賀市,荒木,ミエケン,イガシ,アラキ,三重県伊賀市荒木
5180820,三重県,伊賀市,平野西町,ミエケン,イガシ,ヒラノニシマチ,三重県伊賀市平野西町
5180821,三重県,伊賀市,生琉里,ミエケン,イガシ,フルサト,三重県伊賀市生琉里
5180822,三重県,伊賀市,問屋町,ミエケン,イガシ,トンヤマチ,三重県伊賀市問屋町
5180823,三重県,伊賀市,四十九町,ミエケン,イガシ,シジュクチョウ,三重県伊賀市四十九町
5180824,三重県,伊賀市,守田町,ミエケン,イガシ,モリタチョウ,三重県伊賀市守田町
5180825,三重県,伊賀市,小田町,ミエケン,イガシ,オタチョウ,三重県伊賀市小田町
5180826,三重県,伊賀市,平野北谷,ミエケン,イガシ,ヒラノキタダニ,三重県伊賀市平野北谷
5180827,三重県,伊賀市,平野清水,ミエケン,イガシ,ヒラノショウズ,三重県伊賀市平野清水
5180828,三重県,伊賀市,平野中川原,ミエケン,イガシ,ヒラノナカガワラ,三重県伊賀市平野中川原
5180829,三重県,伊賀市,平野山之下,ミエケン,イガシ,ヒラノヤマノシタ,三重県伊賀市平野山之下
5180830,三重県,伊賀市,平野城北町,ミエケン,イガシ,ヒラノジョウホクチョウ,三重県伊賀市平野城北町
5180831,三重県,伊賀市,上野農人町,ミエケン,イガシ,ウエノノウニンマチ,三重県伊賀市上野農人町
5180832,三重県,伊賀市,上野車坂町,ミエケン,イガシ,ウエノクルマザカチョウ,三重県伊賀市上野車坂町
5180833,三重県,伊賀市,緑ケ丘東町,ミエケン,イガシ,ミドリガオカヒガシマチ,三重県伊賀市緑ケ丘東町
5180834,三重県,伊賀市,緑ケ丘中町,ミエケン,イガシ,ミドリガオカナカマチ,三重県伊賀市緑ケ丘中町
5180835,三重県,伊賀市,緑ケ丘南町,ミエケン,イガシ,ミドリガオカミナミマチ,三重県伊賀市緑ケ丘南町
5180836,三重県,伊賀市,緑ケ丘本町,ミエケン,イガシ,ミドリガオカホンマチ,三重県伊賀市緑ケ丘本町
5180837,三重県,伊賀市,緑ケ丘西町,ミエケン,イガシ,ミドリガオカニシマチ,三重県伊賀市緑ケ丘西町
5180838,三重県,伊賀市,上野茅町,ミエケン,イガシ,ウエノカヤマチ,三重県伊賀市上野茅町
5180839,三重県,伊賀市,上野田端町,ミエケン,イガシ,ウエノタバタチョウ,三重県伊賀市上野田端町
5180840,三重県,伊賀市,陽光台,ミエケン,イガシ,ヨウコウダイ,三重県伊賀市陽光台
5180841,三重県,伊賀市,上野恵美須町,ミエケン,イガシ,ウエノエビスマチ,三重県伊賀市上野恵美須町
5180842,三重県,伊賀市,上野桑町,ミエケン,イガシ,ウエノクワマチ,三重県伊賀市上野桑町
5180843,三重県,伊賀市,久米町,ミエケン,イガシ,クメチョウ,三重県伊賀市久米町
5180844,三重県,伊賀市,八幡町,ミエケン,イガシ,ヤハタチョウ,三重県伊賀市八幡町
5180845,三重県,伊賀市,木興町,ミエケン,イガシ,キコチョウ,三重県伊賀市木興町
5180846,三重県,伊賀市,上野愛宕町,ミエケン,イガシ,ウエノアタゴマチ,三重県伊賀市上野愛宕町
5180847,三重県,伊賀市,上野鉄砲町,ミエケン,イガシ,ウエノテッポウマチ,三重県伊賀市上野鉄砲町
5180848,三重県,伊賀市,上野西日南町,ミエケン,イガシ,ウエノニシヒナタマチ,三重県伊賀市上野西日南町
5180849,三重県,伊賀市,上野東日南町,ミエケン,イガシ,ウエノヒガシヒナタマチ,三重県伊賀市上野東日南町
5180851,三重県,伊賀市,上野寺町,ミエケン,イガシ,ウエノテラマチ,三重県伊賀市上野寺町
5180852,三重県,伊賀市,上野伊予町,ミエケン,イガシ,ウエノイヨマチ,三重県伊賀市上野伊予町
5180853,三重県,伊賀市,上野池町,ミエケン,イガシ,ウエノイケマチ,三重県伊賀市上野池町
5180854,三重県,伊賀市,上野忍町,ミエケン,イガシ,ウエノシノビチョウ,三重県伊賀市上野忍町
5180855,三重県,伊賀市,上野万町,ミエケン,イガシ,ウエノヨロズマチ,三重県伊賀市上野万町
5180856,三重県,伊賀市,上野徳居町,ミエケン,イガシ,ウエノトクイチョウ,三重県伊賀市上野徳居町
5180857,三重県,伊賀市,上野三之西町,ミエケン,イガシ,ウエノサンノニシマチ,三重県伊賀市上野三之西町
5180858,三重県,伊賀市,上野紺屋町,ミエケン,イガシ,ウエノコンヤマチ,三重県伊賀市上野紺屋町
5180859,三重県,伊賀市,上野相生町,ミエケン,イガシ,ウエノアイオイチョウ,三重県伊賀市上野相生町
5180861,三重県,伊賀市,上野東町,ミエケン,イガシ,ウエノヒガシマチ,三重県伊賀市上野東町
5180862,三重県,伊賀市,上野片原町,ミエケン,イガシ,ウエノカタハラマチ,三重県伊賀市上野片原町
5180863,三重県,伊賀市,上野新町,ミエケン,イガシ,ウエノシンマチ,三重県伊賀市上野新町
5180864,三重県,伊賀市,上野鍛冶町,ミエケン,イガシ,ウエノカジマチ,三重県伊賀市上野鍛冶町
5180865,三重県,伊賀市,上野魚町,ミエケン,イガシ,ウエノウオマチ,三重県伊賀市上野魚町
5180866,三重県,伊賀市,上野小玉町,ミエケン,イガシ,ウエノコダマチョウ,三重県伊賀市上野小玉町
5180867,三重県,伊賀市,上野福居町,ミエケン,イガシ,ウエノフクイチョウ,三重県伊賀市上野福居町
5180868,三重県,伊賀市,上野西町,ミエケン,イガシ,ウエノニシマチ,三重県伊賀市上野西町
5180869,三重県,伊賀市,上野中町,ミエケン,イガシ,ウエノナカマチ,三重県伊賀市上野中町
5180871,三重県,伊賀市,上野赤坂町,ミエケン,イガシ,ウエノアカサカチョウ,三重県伊賀市上野赤坂町
5180872,三重県,伊賀市,上野玄蕃町,ミエケン,イガシ,ウエノゲンバマチ,三重県伊賀市上野玄蕃町
5180873,三重県,伊賀市,上野丸之内,ミエケン,イガシ,ウエノマルノウチ,三重県伊賀市上野丸之内
5180874,三重県,伊賀市,上野幸坂町,ミエケン,イガシ,ウエノコウサカマチ,三重県伊賀市上野幸坂町
5180875,三重県,伊賀市,上野向島町,ミエケン,イガシ,ウエノムカイジマチョウ,三重県伊賀市上野向島町
5180877,三重県,伊賀市,上野下幸坂町,ミエケン,イガシ,ウエノシモコウサカマチ,三重県伊賀市上野下幸坂町
5180878,三重県,伊賀市,上野西大手町,ミエケン,イガシ,ウエノニシオオテチョウ,三重県伊賀市上野西大手町
5181141,三重県,伊賀市,菖蒲池,ミエケン,イガシ,ショウブイケ,三重県伊賀市菖蒲池
5181142,三重県,伊賀市,古山界外,ミエケン,イガシ,フルヤマカイゲ,三重県伊賀市古山界外
5181143,三重県,伊賀市,鍛冶屋,ミエケン,イガシ,カジヤ,三重県伊賀市鍛冶屋
5181144,三重県,伊賀市,東谷,ミエケン,イガシ,ヒガシダニ,三重県伊賀市東谷
5181145,三重県,伊賀市,安場,ミエケン,イガシ,ヤスバ,三重県伊賀市安場
5181146,三重県,伊賀市,湯屋谷,ミエケン,イガシ,ユヤダニ,三重県伊賀市湯屋谷
5181147,三重県,伊賀市,蔵縄手,ミエケン,イガシ,クラナワテ,三重県伊賀市蔵縄手
5181151,三重県,伊賀市,白樫,ミエケン,イガシ,シラカシ,三重県伊賀市白樫
5181152,三重県,伊賀市,予野,ミエケン,イガシ,ヨノ,三重県伊賀市予野
5181153,三重県,伊賀市,桂,ミエケン,イガシ,カツラ,三重県伊賀市桂
5181154,三重県,伊賀市,大滝,ミエケン,イガシ,オオタキ,三重県伊賀市大滝
5181155,三重県,伊賀市,治田,ミエケン,イガシ,ハッタ,三重県伊賀市治田
5181301,三重県,伊賀市,西湯舟,ミエケン,イガシ,ニシユブネ,三重県伊賀市西湯舟
5181302,三重県,伊賀市,東湯舟,ミエケン,イガシ,ヒガシユブネ,三重県伊賀市東湯舟
5181303,三重県,伊賀市,上友田,ミエケン,イガシ,カミトモダ,三重県伊賀市上友田
5181304,三重県,伊賀市,中友田,ミエケン,イガシ,ナカトモダ,三重県伊賀市中友田
5181305,三重県,伊賀市,下友田,ミエケン,イガシ,シモトモダ,三重県伊賀市下友田
5181306,三重県,伊賀市,湯舟,ミエケン,イガシ,ユブネ,三重県伊賀市湯舟
5181307,三重県,伊賀市,川合（東山タウン）,ミエケン,イガシ,カワイ(ヒガシヤマタウン),三重県伊賀市川合（東山タウン）
5181311,三重県,伊賀市,馬田,ミエケン,イガシ,バタ,三重県伊賀市馬田
5181312,三重県,伊賀市,田中,ミエケン,イガシ,タナカ,三重県伊賀市田中
5181313,三重県,伊賀市,馬場,ミエケン,イガシ,ババ,三重県伊賀市馬場
5181314,三重県,伊賀市,円徳院,ミエケン,イガシ,エントクイン,三重県伊賀市円徳院
5181315,三重県,伊賀市,川合,ミエケン,イガシ,カワイ,三重県伊賀市川合
5181316,三重県,伊賀市,阿山ハイツ,ミエケン,イガシ,アヤマハイツ,三重県伊賀市阿山ハイツ
5181317,三重県,伊賀市,大江,ミエケン,イガシ,オオエ,三重県伊賀市大江
5181318,三重県,伊賀市,波敷野,ミエケン,イガシ,ハジキノ,三重県伊賀市波敷野
5181319,三重県,伊賀市,千貝,ミエケン,イガシ,セガイ,三重県伊賀市千貝
5181321,三重県,伊賀市,内保,ミエケン,イガシ,ウチホ,三重県伊賀市内保
5181322,三重県,伊賀市,玉滝,ミエケン,イガシ,タマタキ,三重県伊賀市玉滝
5181323,三重県,伊賀市,石川,ミエケン,イガシ,イシカワ,三重県伊賀市石川
5181324,三重県,伊賀市,音羽,ミエケン,イガシ,オトワ,三重県伊賀市音羽
5181325,三重県,伊賀市,丸柱,ミエケン,イガシ,マルバシラ,三重県伊賀市丸柱
5181326,三重県,伊賀市,槙山,ミエケン,イガシ,マキヤマ,三重県伊賀市槙山
5181401,三重県,伊賀市,千戸,ミエケン,イガシ,センド,三重県伊賀市千戸
5181403,三重県,伊賀市,炊村,ミエケン,イガシ,カシキムラ,三重県伊賀市炊村
5181404,三重県,伊賀市,甲野,ミエケン,イガシ,コウノ,三重県伊賀市甲野
5181405,三重県,伊賀市,鳳凰寺,ミエケン,イガシ,ボウジ,三重県伊賀市鳳凰寺
5181406,三重県,伊賀市,中村,ミエケン,イガシ,ナカムラ,三重県伊賀市中村
5181407,三重県,伊賀市,出後,ミエケン,イガシ,イズゴ,三重県伊賀市出後
5181408,三重県,伊賀市,畑村,ミエケン,イガシ,ハタムラ,三重県伊賀市畑村
5181412,三重県,伊賀市,上阿波,ミエケン,イガシ,カミアワ,三重県伊賀市上阿波
5181414,三重県,伊賀市,猿野,ミエケン,イガシ,マシノ,三重県伊賀市猿野
5181416,三重県,伊賀市,下阿波,ミエケン,イガシ,シモアワ,三重県伊賀市下阿波
5181417,三重県,伊賀市,富永,ミエケン,イガシ,トミナガ,三重県伊賀市富永
5181421,三重県,伊賀市,真泥,ミエケン,イガシ,ミドロ,三重県伊賀市真泥
5181422,三重県,伊賀市,平田,ミエケン,イガシ,ヒラタ,三重県伊賀市平田
5181424,三重県,伊賀市,富岡,ミエケン,イガシ,トミオカ,三重県伊賀市富岡
5181425,三重県,伊賀市,川北,ミエケン,イガシ,カワキタ,三重県伊賀市川北
5181426,三重県,伊賀市,広瀬,ミエケン,イガシ,ヒロセ,三重県伊賀市広瀬
5181427,三重県,伊賀市,奥馬野,ミエケン,イガシ,オクバノ,三重県伊賀市奥馬野
5181428,三重県,伊賀市,中馬野,ミエケン,イガシ,ナカバノ,三重県伊賀市中馬野
5181429,三重県,伊賀市,坂下,ミエケン,イガシ,サカゲ,三重県伊賀市坂下
5190100,三重県,亀山市,,ミエケン,カメヤマシ,,三重県亀山市
5190101,三重県,亀山市,井田川町,ミエケン,カメヤマシ,イダガワチョウ,三重県亀山市井田川町
5190102,三重県,亀山市,和田町,ミエケン,カメヤマシ,ワダチョウ,三重県亀山市和田町
5190103,三重県,亀山市,川合町,ミエケン,カメヤマシ,カワイチョウ,三重県亀山市川合町
5190104,三重県,亀山市,椿世町,ミエケン,カメヤマシ,ツバイソチョウ,三重県亀山市椿世町
5190105,三重県,亀山市,みずほ台,ミエケン,カメヤマシ,ミズホダイ,三重県亀山市みずほ台
5190106,三重県,亀山市,みどり町,ミエケン,カメヤマシ,ミドリチョウ,三重県亀山市みどり町
5190111,三重県,亀山市,栄町,ミエケン,カメヤマシ,サカエマチ,三重県亀山市栄町
5190112,三重県,亀山市,上野町,ミエケン,カメヤマシ,ウエノチョウ,三重県亀山市上野町
5190113,三重県,亀山市,小下町,ミエケン,カメヤマシ,コミザチョウ,三重県亀山市小下町
5190114,三重県,亀山市,南鹿島町,ミエケン,カメヤマシ,ミナミカシマチョウ,三重県亀山市南鹿島町
5190115,三重県,亀山市,北鹿島町,ミエケン,カメヤマシ,キタカシマチョウ,三重県亀山市北鹿島町
5190116,三重県,亀山市,本町,ミエケン,カメヤマシ,ホンマチ,三重県亀山市本町
5190117,三重県,亀山市,北山町,ミエケン,カメヤマシ,キタヤマチョウ,三重県亀山市北山町
5190118,三重県,亀山市,北町,ミエケン,カメヤマシ,キタマチ,三重県亀山市北町
5190119,三重県,亀山市,高塚町,ミエケン,カメヤマシ,タカツカチョウ,三重県亀山市高塚町
5190121,三重県,亀山市,江ケ室,ミエケン,カメヤマシ,エガムロ,三重県亀山市江ケ室
5190122,三重県,亀山市,東台町,ミエケン,カメヤマシ,ヒガシダイチョウ,三重県亀山市東台町
5190123,三重県,亀山市,渋倉町,ミエケン,カメヤマシ,シブクラチョウ,三重県亀山市渋倉町
5190124,三重県,亀山市,東御幸町,ミエケン,カメヤマシ,ヒガシミユキチョウ,三重県亀山市東御幸町
5190125,三重県,亀山市,東町,ミエケン,カメヤマシ,ヒガシマチ,三重県亀山市東町
5190126,三重県,亀山市,東丸町,ミエケン,カメヤマシ,ヒガシマルチョウ,三重県亀山市東丸町
5190127,三重県,亀山市,中屋敷町,ミエケン,カメヤマシ,ナカヤシキチョウ,三重県亀山市中屋敷町
5190131,三重県,亀山市,井尻町,ミエケン,カメヤマシ,イジリチョウ,三重県亀山市井尻町
5190132,三重県,亀山市,菅内町,ミエケン,カメヤマシ,スガウチチョウ,三重県亀山市菅内町
5190133,三重県,亀山市,下庄町,ミエケン,カメヤマシ,シモノショウチョウ,三重県亀山市下庄町
5190134,三重県,亀山市,中庄町,ミエケン,カメヤマシ,ナカノショウチョウ,三重県亀山市中庄町
5190135,三重県,亀山市,三寺町,ミエケン,カメヤマシ,ミツデラチョウ,三重県亀山市三寺町
5190136,三重県,亀山市,田茂町,ミエケン,カメヤマシ,タモチョウ,三重県亀山市田茂町
5190137,三重県,亀山市,阿野田町,ミエケン,カメヤマシ,アノダチョウ,三重県亀山市阿野田町
5190141,三重県,亀山市,海本町,ミエケン,カメヤマシ,カイモトチョウ,三重県亀山市海本町
5190142,三重県,亀山市,天神,ミエケン,カメヤマシ,テンジン,三重県亀山市天神
5190143,三重県,亀山市,安知本町,ミエケン,カメヤマシ,アチモトチョウ,三重県亀山市安知本町
5190144,三重県,亀山市,楠平尾町,ミエケン,カメヤマシ,クスビラオチョウ,三重県亀山市楠平尾町
5190145,三重県,亀山市,和賀町,ミエケン,カメヤマシ,ワガチョウ,三重県亀山市和賀町
5190146,三重県,亀山市,野村町,ミエケン,カメヤマシ,ノムラチョウ,三重県亀山市野村町
5190147,三重県,亀山市,山下町,ミエケン,カメヤマシ,ヤマシタチョウ,三重県亀山市山下町
5190148,三重県,亀山市,木下町,ミエケン,カメヤマシ,コノシタチョウ,三重県亀山市木下町
5190151,三重県,亀山市,若山町,ミエケン,カメヤマシ,ワカヤマチョウ,三重県亀山市若山町
5190152,三重県,亀山市,本丸町,ミエケン,カメヤマシ,ホンマルチョウ,三重県亀山市本丸町
5190153,三重県,亀山市,西町,ミエケン,カメヤマシ,ニシマチ,三重県亀山市西町
5190154,三重県,亀山市,南崎町,ミエケン,カメヤマシ,ミナミザキチョウ,三重県亀山市南崎町
5190155,三重県,亀山市,御幸町,ミエケン,カメヤマシ,ミユキチョウ,三重県亀山市御幸町
5190156,三重県,亀山市,南野町,ミエケン,カメヤマシ,ミナミノチョウ,三重県亀山市南野町
5190157,三重県,亀山市,北野町,ミエケン,カメヤマシ,キタノチョウ,三重県亀山市北野町
5190158,三重県,亀山市,市ケ坂町,ミエケン,カメヤマシ,イチガサカチョウ,三重県亀山市市ケ坂町
5190159,三重県,亀山市,西丸町,ミエケン,カメヤマシ,ニシマルチョウ,三重県亀山市西丸町
5190161,三重県,亀山市,小川町,ミエケン,カメヤマシ,オガワチョウ,三重県亀山市小川町
5190162,三重県,亀山市,住山町,ミエケン,カメヤマシ,スミヤマチョウ,三重県亀山市住山町
5190163,三重県,亀山市,亀田町,ミエケン,カメヤマシ,カメダチョウ,三重県亀山市亀田町
5190164,三重県,亀山市,羽若町,ミエケン,カメヤマシ,ハワカチョウ,三重県亀山市羽若町
5190165,三重県,亀山市,野村,ミエケン,カメヤマシ,ノムラ,三重県亀山市野村
5190166,三重県,亀山市,布気町,ミエケン,カメヤマシ,フケチョウ,三重県亀山市布気町
5190167,三重県,亀山市,小野町,ミエケン,カメヤマシ,オノチョウ,三重県亀山市小野町
5190168,三重県,亀山市,太岡寺町,ミエケン,カメヤマシ,タイコウジチョウ,三重県亀山市太岡寺町
5190169,三重県,亀山市,白木町,ミエケン,カメヤマシ,シラキチョウ,三重県亀山市白木町
5190171,三重県,亀山市,アイリス町,ミエケン,カメヤマシ,アイリスチョウ,三重県亀山市アイリス町
5190181,三重県,亀山市,みずきが丘,ミエケン,カメヤマシ,ミズキガオカ,三重県亀山市みずきが丘
5190211,三重県,亀山市,川崎町,ミエケン,カメヤマシ,カワサキチョウ,三重県亀山市川崎町
5190212,三重県,亀山市,能褒野町,ミエケン,カメヤマシ,ノボノチョウ,三重県亀山市能褒野町
5190213,三重県,亀山市,田村町,ミエケン,カメヤマシ,タムラチョウ,三重県亀山市田村町
5190214,三重県,亀山市,長明寺町,ミエケン,カメヤマシ,チョウミョウジチョウ,三重県亀山市長明寺町
5190215,三重県,亀山市,太森町,ミエケン,カメヤマシ,フトモリチョウ,三重県亀山市太森町
5190221,三重県,亀山市,辺法寺町,ミエケン,カメヤマシ,ヘンボウジチョウ,三重県亀山市辺法寺町
5190222,三重県,亀山市,両尾町,ミエケン,カメヤマシ,フタオチョウ,三重県亀山市両尾町
5190223,三重県,亀山市,安坂山町,ミエケン,カメヤマシ,アサカヤマチョウ,三重県亀山市安坂山町
5190271,三重県,鈴鹿市,西庄内町,ミエケン,スズカシ,ニシショウナイチョウ,三重県鈴鹿市西庄内町
5190272,三重県,鈴鹿市,東庄内町,ミエケン,スズカシ,ヒガシショウナイチョウ,三重県鈴鹿市東庄内町
5190311,三重県,鈴鹿市,大久保町,ミエケン,スズカシ,オオクボチョウ,三重県鈴鹿市大久保町
5190312,三重県,鈴鹿市,椿一宮町,ミエケン,スズカシ,ツバキイチミヤチョウ,三重県鈴鹿市椿一宮町
5190313,三重県,鈴鹿市,追分町,ミエケン,スズカシ,オイワケチョウ,三重県鈴鹿市追分町
5190314,三重県,鈴鹿市,長澤町,ミエケン,スズカシ,ナガサワチョウ,三重県鈴鹿市長澤町
5190315,三重県,鈴鹿市,山本町,ミエケン,スズカシ,ヤマモトチョウ,三重県鈴鹿市山本町
5190316,三重県,鈴鹿市,小岐須町,ミエケン,スズカシ,オギスチョウ,三重県鈴鹿市小岐須町
5190321,三重県,鈴鹿市,深溝町,ミエケン,スズカシ,フカミゾチョウ,三重県鈴鹿市深溝町
5190322,三重県,鈴鹿市,三畑町,ミエケン,スズカシ,ミハタチョウ,三重県鈴鹿市三畑町
5190323,三重県,鈴鹿市,伊船町,ミエケン,スズカシ,イフナチョウ,三重県鈴鹿市伊船町
5190324,三重県,鈴鹿市,小社町,ミエケン,スズカシ,コヤシロチョウ,三重県鈴鹿市小社町
5190400,三重県,度会郡玉城町,,ミエケン,ワタライグンタマキチョウ,,三重県度会郡玉城町
5190401,三重県,度会郡玉城町,世古,ミエケン,ワタライグンタマキチョウ,セコ,三重県度会郡玉城町世古
5190402,三重県,度会郡玉城町,門前,ミエケン,ワタライグンタマキチョウ,モンゼン,三重県度会郡玉城町門前
5190403,三重県,度会郡玉城町,井倉,ミエケン,ワタライグンタマキチョウ,イグラ,三重県度会郡玉城町井倉
5190404,三重県,度会郡玉城町,長更,ミエケン,ワタライグンタマキチョウ,ナガフケ,三重県度会郡玉城町長更
5190405,三重県,度会郡玉城町,日向,ミエケン,ワタライグンタマキチョウ,ヒュウガ,三重県度会郡玉城町日向
5190406,三重県,度会郡玉城町,岡村,ミエケン,ワタライグンタマキチョウ,オカムラ,三重県度会郡玉城町岡村
5190407,三重県,度会郡玉城町,玉川,ミエケン,ワタライグンタマキチョウ,タマガワ,三重県度会郡玉城町玉川
5190408,三重県,度会郡玉城町,坂本,ミエケン,ワタライグンタマキチョウ,サカモト,三重県度会郡玉城町坂本
5190411,三重県,度会郡玉城町,久保,ミエケン,ワタライグンタマキチョウ,クボ,三重県度会郡玉城町久保
5190412,三重県,度会郡玉城町,中楽,ミエケン,ワタライグンタマキチョウ,チュウラク,三重県度会郡玉城町中楽
5190413,三重県,度会郡玉城町,妙法寺,ミエケン,ワタライグンタマキチョウ,ミョウホウジ,三重県度会郡玉城町妙法寺
5190414,三重県,度会郡玉城町,佐田,ミエケン,ワタライグンタマキチョウ,サタ,三重県度会郡玉城町佐田
5190415,三重県,度会郡玉城町,田丸,ミエケン,ワタライグンタマキチョウ,タマル,三重県度会郡玉城町田丸
5190416,三重県,度会郡玉城町,下田辺,ミエケン,ワタライグンタマキチョウ,シモタヌイ,三重県度会郡玉城町下田辺
5190417,三重県,度会郡玉城町,上田辺,ミエケン,ワタライグンタマキチョウ,カミタヌイ,三重県度会郡玉城町上田辺
5190421,三重県,度会郡玉城町,冨岡,ミエケン,ワタライグンタマキチョウ,トミオカ,三重県度会郡玉城町冨岡
5190422,三重県,度会郡玉城町,小社曽根,ミエケン,ワタライグンタマキチョウ,オゴソソネ,三重県度会郡玉城町小社曽根
5190423,三重県,度会郡玉城町,昼田,ミエケン,ワタライグンタマキチョウ,ヒルダ,三重県度会郡玉城町昼田
5190424,三重県,度会郡玉城町,山岡,ミエケン,ワタライグンタマキチョウ,ヤマオカ,三重県度会郡玉城町山岡
5190425,三重県,度会郡玉城町,岩出,ミエケン,ワタライグンタマキチョウ,イワデ,三重県度会郡玉城町岩出
5190426,三重県,度会郡玉城町,中角,ミエケン,ワタライグンタマキチョウ,ナカツノ,三重県度会郡玉城町中角
5190427,三重県,度会郡玉城町,宮古,ミエケン,ワタライグンタマキチョウ,ミヤコ,三重県度会郡玉城町宮古
5190428,三重県,度会郡玉城町,岡出,ミエケン,ワタライグンタマキチョウ,オカデ,三重県度会郡玉城町岡出
5190431,三重県,度会郡玉城町,蚊野,ミエケン,ワタライグンタマキチョウ,カノ,三重県度会郡玉城町蚊野
5190432,三重県,度会郡玉城町,野篠,ミエケン,ワタライグンタマキチョウ,ノジノ,三重県度会郡玉城町野篠
5190433,三重県,度会郡玉城町,勝田,ミエケン,ワタライグンタマキチョウ,カツタ,三重県度会郡玉城町勝田
5190434,三重県,度会郡玉城町,田宮寺,ミエケン,ワタライグンタマキチョウ,タミヤジ,三重県度会郡玉城町田宮寺
5190435,三重県,度会郡玉城町,矢野,ミエケン,ワタライグンタマキチョウ,ヤノ,三重県度会郡玉城町矢野
5190436,三重県,度会郡玉城町,山神,ミエケン,ワタライグンタマキチョウ,ヤマカミ,三重県度会郡玉城町山神
5190437,三重県,度会郡玉城町,積良,ミエケン,ワタライグンタマキチョウ,ツムロ,三重県度会郡玉城町積良
5190438,三重県,度会郡玉城町,原,ミエケン,ワタライグンタマキチョウ,ハラ,三重県度会郡玉城町原
5190501,三重県,伊勢市,小俣町明野,ミエケン,イセシ,オバタチョウアケノ,三重県伊勢市小俣町明野
5190502,三重県,伊勢市,小俣町相合,ミエケン,イセシ,オバタチョウソウゴウ,三重県伊勢市小俣町相合
5190503,三重県,伊勢市,小俣町元町,ミエケン,イセシ,オバタチョウモトマチ,三重県伊勢市小俣町元町
5190504,三重県,伊勢市,小俣町宮前,ミエケン,イセシ,オバタチョウミヤマエ,三重県伊勢市小俣町宮前
5190505,三重県,伊勢市,小俣町本町,ミエケン,イセシ,オバタチョウホンマチ,三重県伊勢市小俣町本町
5190506,三重県,伊勢市,小俣町湯田,ミエケン,イセシ,オバタチョウユタ,三重県伊勢市小俣町湯田
5190507,三重県,伊勢市,小俣町新村,ミエケン,イセシ,オバタチョウシムラ,三重県伊勢市小俣町新村
5190601,三重県,伊勢市,二見町松下,ミエケン,イセシ,フタミチョウマツシタ,三重県伊勢市二見町松下
5190602,三重県,伊勢市,二見町江,ミエケン,イセシ,フタミチョウエ,三重県伊勢市二見町江
5190603,三重県,伊勢市,二見町三津,ミエケン,イセシ,フタミチョウミツ,三重県伊勢市二見町三津
5190604,三重県,伊勢市,二見町山田原,ミエケン,イセシ,フタミチョウヤマダハラ,三重県伊勢市二見町山田原
5190605,三重県,伊勢市,二見町溝口,ミエケン,イセシ,フタミチョウミゾグチ,三重県伊勢市二見町溝口
5190606,三重県,伊勢市,二見町荘,ミエケン,イセシ,フタミチョウショウ,三重県伊勢市二見町荘
5190607,三重県,伊勢市,二見町西,ミエケン,イセシ,フタミチョウニシ,三重県伊勢市二見町西
5190608,三重県,伊勢市,二見町今一色,ミエケン,イセシ,フタミチョウイマイシキ,三重県伊勢市二見町今一色
5190609,三重県,伊勢市,二見町茶屋,ミエケン,イセシ,フタミチョウチャヤ,三重県伊勢市二見町茶屋
5190611,三重県,伊勢市,二見町光の街,ミエケン,イセシ,フタミチョウヒカリノマチ,三重県伊勢市二見町光の街
5191101,三重県,亀山市,関町坂下,ミエケン,カメヤマシ,セキチョウサカシタ,三重県亀山市関町坂下
5191102,三重県,亀山市,関町沓掛,ミエケン,カメヤマシ,セキチョウクツカケ,三重県亀山市関町沓掛
5191103,三重県,亀山市,関町市瀬,ミエケン,カメヤマシ,セキチョウイチノセ,三重県亀山市関町市瀬
5191104,三重県,亀山市,関町白木一色,ミエケン,カメヤマシ,セキチョウシラキイッシキ,三重県亀山市関町白木一色
5191105,三重県,亀山市,関町鷲山,ミエケン,カメヤマシ,セキチョウワシヤマ,三重県亀山市関町鷲山
5191106,三重県,亀山市,関町会下,ミエケン,カメヤマシ,セキチョウエゲ,三重県亀山市関町会下
5191107,三重県,亀山市,関町木崎,ミエケン,カメヤマシ,セキチョウコザキ,三重県亀山市関町木崎
5191108,三重県,亀山市,関町小野,ミエケン,カメヤマシ,セキチョウオノ,三重県亀山市関町小野
5191111,三重県,亀山市,関町新所,ミエケン,カメヤマシ,セキチョウシンジョ,三重県亀山市関町新所
5191112,三重県,亀山市,関町中町,ミエケン,カメヤマシ,セキチョウナカマチ,三重県亀山市関町中町
5191113,三重県,亀山市,関町古厩,ミエケン,カメヤマシ,セキチョウフルマヤ,三重県亀山市関町古厩
5191114,三重県,亀山市,関町萩原,ミエケン,カメヤマシ,セキチョウハギワラ,三重県亀山市関町萩原
5191115,三重県,亀山市,関町福徳,ミエケン,カメヤマシ,セキチョウフクトク,三重県亀山市関町福徳
5191116,三重県,亀山市,関町久我,ミエケン,カメヤマシ,セキチョウクガ,三重県亀山市関町久我
5191117,三重県,亀山市,関町泉ケ丘,ミエケン,カメヤマシ,セキチョウイズミガオカ,三重県亀山市関町泉ケ丘
5191118,三重県,亀山市,関町富士ハイツ,ミエケン,カメヤマシ,セキチョウフジハイツ,三重県亀山市関町富士ハイツ
5191119,三重県,亀山市,関ケ丘,ミエケン,カメヤマシ,セキガオカ,三重県亀山市関ケ丘
5191121,三重県,亀山市,加太梶ケ坂,ミエケン,カメヤマシ,カブトカジガサカ,三重県亀山市加太梶ケ坂
5191122,三重県,亀山市,加太市場,ミエケン,カメヤマシ,カブトイチバ,三重県亀山市加太市場
5191123,三重県,亀山市,関町金場,ミエケン,カメヤマシ,セキチョウカネバ,三重県亀山市関町金場
5191124,三重県,亀山市,関町越川,ミエケン,カメヤマシ,セキチョウエチガワ,三重県亀山市関町越川
5191125,三重県,亀山市,加太向井,ミエケン,カメヤマシ,カブトムカイ,三重県亀山市加太向井
5191126,三重県,亀山市,加太神武,ミエケン,カメヤマシ,カブトジンム,三重県亀山市加太神武
5191127,三重県,亀山市,加太中在家,ミエケン,カメヤマシ,カブトナカザイケ,三重県亀山市加太中在家
5191128,三重県,亀山市,加太北在家,ミエケン,カメヤマシ,カブトキタザイケ,三重県亀山市加太北在家
5191129,三重県,亀山市,加太板屋,ミエケン,カメヤマシ,カブトイタヤ,三重県亀山市加太板屋
5191401,三重県,伊賀市,一ツ家,ミエケン,イガシ,ヒトツヤ,三重県伊賀市一ツ家
5191402,三重県,伊賀市,柘植町,ミエケン,イガシ,ツゲマチ,三重県伊賀市柘植町
5191403,三重県,伊賀市,上村,ミエケン,イガシ,ウエムラ,三重県伊賀市上村
5191404,三重県,伊賀市,中柘植,ミエケン,イガシ,ナカツゲ,三重県伊賀市中柘植
5191405,三重県,伊賀市,野村,ミエケン,イガシ,ノムラ,三重県伊賀市野村
5191406,三重県,伊賀市,小杉,ミエケン,イガシ,コスギ,三重県伊賀市小杉
5191411,三重県,伊賀市,楯岡,ミエケン,イガシ,タテオカ,三重県伊賀市楯岡
5191412,三重県,伊賀市,下柘植,ミエケン,イガシ,シモツゲ,三重県伊賀市下柘植
5191413,三重県,伊賀市,愛田,ミエケン,イガシ,アイタ,三重県伊賀市愛田
5191414,三重県,伊賀市,御代,ミエケン,イガシ,ミダイ,三重県伊賀市御代
5191415,三重県,伊賀市,柏野,ミエケン,イガシ,カシワノ,三重県伊賀市柏野
5191416,三重県,伊賀市,新堂,ミエケン,イガシ,シンドウ,三重県伊賀市新堂
5191421,三重県,伊賀市,山畑,ミエケン,イガシ,ヤバタ,三重県伊賀市山畑
5191422,三重県,伊賀市,希望ケ丘東,ミエケン,イガシ,キボウガオカヒガシ,三重県伊賀市希望ケ丘東
5191423,三重県,伊賀市,希望ケ丘西,ミエケン,イガシ,キボウガオカニシ,三重県伊賀市希望ケ丘西
5191424,三重県,伊賀市,川東,ミエケン,イガシ,カワヒガシ,三重県伊賀市川東
5191425,三重県,伊賀市,川西,ミエケン,イガシ,カワニシ,三重県伊賀市川西
5191426,三重県,伊賀市,西之澤,ミエケン,イガシ,ニシノサワ,三重県伊賀市西之澤
5191701,三重県,伊賀市,島ケ原（川南）,ミエケン,イガシ,シマガハラ(カワミナミ),三重県伊賀市島ケ原（川南）
5191702,三重県,伊賀市,島ケ原（不見上）,ミエケン,イガシ,シマガハラ(フケンジョウ),三重県伊賀市島ケ原（不見上）
5191703,三重県,伊賀市,島ケ原（山菅）,ミエケン,イガシ,シマガハラ(ヤマスゲ),三重県伊賀市島ケ原（山菅）
5191704,三重県,伊賀市,島ケ原（町）,ミエケン,イガシ,シマガハラ(マチ),三重県伊賀市島ケ原（町）
5191705,三重県,伊賀市,島ケ原（中村）,ミエケン,イガシ,シマガハラ(ナカムラ),三重県伊賀市島ケ原（中村）
5191706,三重県,伊賀市,島ケ原（奥村）,ミエケン,イガシ,シマガハラ(オクムラ),三重県伊賀市島ケ原（奥村）
5191707,三重県,伊賀市,島ケ原（大道）,ミエケン,イガシ,シマガハラ(オオドウ),三重県伊賀市島ケ原（大道）
5191708,三重県,伊賀市,島ケ原（中矢）,ミエケン,イガシ,シマガハラ(ナカヤ),三重県伊賀市島ケ原（中矢）
5191711,三重県,伊賀市,島ケ原,ミエケン,イガシ,シマガハラ,三重県伊賀市島ケ原
5192100,三重県,多気郡多気町,,ミエケン,タキグンタキチョウ,,三重県多気郡多気町
5192141,三重県,松阪市,上蛸路町,ミエケン,マツサカシ,カミタコジチョウ,三重県松阪市上蛸路町
5192142,三重県,松阪市,下蛸路町,ミエケン,マツサカシ,シモタコジチョウ,三重県松阪市下蛸路町
5192143,三重県,松阪市,中万町,ミエケン,マツサカシ,チュウマチョウ,三重県松阪市中万町
5192144,三重県,松阪市,八太町,ミエケン,マツサカシ,ハッタチョウ,三重県松阪市八太町
5192145,三重県,松阪市,射和町,ミエケン,マツサカシ,イザワチョウ,三重県松阪市射和町
5192146,三重県,松阪市,阿波曽町,ミエケン,マツサカシ,アワソチョウ,三重県松阪市阿波曽町
5192147,三重県,松阪市,庄町,ミエケン,マツサカシ,ショウチョウ,三重県松阪市庄町
5192148,三重県,松阪市,御麻生薗町,ミエケン,マツサカシ,ミオゾノチョウ,三重県松阪市御麻生薗町
5192151,三重県,多気郡多気町,朝長,ミエケン,タキグンタキチョウ,アサオサ,三重県多気郡多気町朝長
5192152,三重県,多気郡多気町,弟国,ミエケン,タキグンタキチョウ,オウグニ,三重県多気郡多気町弟国
5192153,三重県,多気郡多気町,河田,ミエケン,タキグンタキチョウ,コウダ,三重県多気郡多気町河田
5192154,三重県,多気郡多気町,多気,ミエケン,タキグンタキチョウ,タキ,三重県多気郡多気町多気
5192155,三重県,多気郡多気町,東池上,ミエケン,タキグンタキチョウ,ヒガシイケベ,三重県多気郡多気町東池上
5192156,三重県,多気郡多気町,西池上,ミエケン,タキグンタキチョウ,ニシイケベ,三重県多気郡多気町西池上
5192157,三重県,多気郡多気町,五佐奈,ミエケン,タキグンタキチョウ,ゴサナ,三重県多気郡多気町五佐奈
5192158,三重県,多気郡多気町,荒蒔,ミエケン,タキグンタキチョウ,アラマキ,三重県多気郡多気町荒蒔
5192159,三重県,多気郡多気町,兄国,ミエケン,タキグンタキチョウ,エクニ,三重県多気郡多気町兄国
5192161,三重県,多気郡多気町,土羽,ミエケン,タキグンタキチョウ,トバ,三重県多気郡多気町土羽
5192162,三重県,多気郡多気町,笠木,ミエケン,タキグンタキチョウ,カサギ,三重県多気郡多気町笠木
5192163,三重県,多気郡多気町,矢田,ミエケン,タキグンタキチョウ,ヤタ,三重県多気郡多気町矢田
5192164,三重県,多気郡多気町,森荘,ミエケン,タキグンタキチョウ,モリショウ,三重県多気郡多気町森荘
5192165,三重県,多気郡多気町,田中,ミエケン,タキグンタキチョウ,タナカ,三重県多気郡多気町田中
5192166,三重県,多気郡多気町,野中,ミエケン,タキグンタキチョウ,ノナカ,三重県多気郡多気町野中
5192167,三重県,多気郡多気町,相鹿瀬,ミエケン,タキグンタキチョウ,オウカセ,三重県多気郡多気町相鹿瀬
5192170,三重県,多気郡多気町,ヴィソン,ミエケン,タキグンタキチョウ,ヴィソン,三重県多気郡多気町ヴィソン
5192171,三重県,多気郡多気町,西山,ミエケン,タキグンタキチョウ,ニシヤマ,三重県多気郡多気町西山
5192172,三重県,多気郡多気町,四神田,ミエケン,タキグンタキチョウ,シコウダ,三重県多気郡多気町四神田
5192173,三重県,多気郡多気町,油夫,ミエケン,タキグンタキチョウ,ユブ,三重県多気郡多気町油夫
5192174,三重県,多気郡多気町,五桂,ミエケン,タキグンタキチョウ,ゴカツラ,三重県多気郡多気町五桂
5192175,三重県,多気郡多気町,前村,ミエケン,タキグンタキチョウ,マエムラ,三重県多気郡多気町前村
5192176,三重県,多気郡多気町,長谷,ミエケン,タキグンタキチョウ,ハセ,三重県多気郡多気町長谷
5192177,三重県,多気郡多気町,神坂,ミエケン,タキグンタキチョウ,コウザカ,三重県多気郡多気町神坂
5192178,三重県,多気郡多気町,平谷,ミエケン,タキグンタキチョウ,ヒラダニ,三重県多気郡多気町平谷
5192179,三重県,多気郡多気町,仁田,ミエケン,タキグンタキチョウ,ニタ,三重県多気郡多気町仁田
5192181,三重県,多気郡多気町,相可,ミエケン,タキグンタキチョウ,オウカ,三重県多気郡多気町相可
5192182,三重県,多気郡多気町,相可台,ミエケン,タキグンタキチョウ,オウカダイ,三重県多気郡多気町相可台
5192183,三重県,多気郡多気町,四疋田,ミエケン,タキグンタキチョウ,シヒキダ,三重県多気郡多気町四疋田
5192184,三重県,多気郡多気町,三疋田,ミエケン,タキグンタキチョウ,サンビキダ,三重県多気郡多気町三疋田
5192185,三重県,多気郡多気町,佐伯中,ミエケン,タキグンタキチョウ,サエキナカ,三重県多気郡多気町佐伯中
5192186,三重県,多気郡多気町,井内林,ミエケン,タキグンタキチョウ,イノウチバヤシ,三重県多気郡多気町井内林
5192187,三重県,多気郡多気町,鍬形,ミエケン,タキグンタキチョウ,クワガタ,三重県多気郡多気町鍬形
5192188,三重県,多気郡多気町,牧,ミエケン,タキグンタキチョウ,マキ,三重県多気郡多気町牧
5192189,三重県,多気郡多気町,津留,ミエケン,タキグンタキチョウ,ツル,三重県多気郡多気町津留
5192201,三重県,多気郡多気町,上出江,ミエケン,タキグンタキチョウ,カミイズエ,三重県多気郡多気町上出江
5192202,三重県,多気郡多気町,下出江,ミエケン,タキグンタキチョウ,シモイズエ,三重県多気郡多気町下出江
5192203,三重県,多気郡多気町,片野,ミエケン,タキグンタキチョウ,カタノ,三重県多気郡多気町片野
5192204,三重県,多気郡多気町,波多瀬,ミエケン,タキグンタキチョウ,ハタセ,三重県多気郡多気町波多瀬
5192211,三重県,多気郡多気町,丹生,ミエケン,タキグンタキチョウ,ニウ,三重県多気郡多気町丹生
5192212,三重県,多気郡多気町,色太,ミエケン,タキグンタキチョウ,シキフト,三重県多気郡多気町色太
5192213,三重県,多気郡多気町,土屋,ミエケン,タキグンタキチョウ,ツチヤ,三重県多気郡多気町土屋
5192214,三重県,多気郡多気町,車川,ミエケン,タキグンタキチョウ,クルマガワ,三重県多気郡多気町車川
5192215,三重県,多気郡多気町,朝柄,ミエケン,タキグンタキチョウ,アサガラ,三重県多気郡多気町朝柄
5192216,三重県,多気郡多気町,古江,ミエケン,タキグンタキチョウ,フルエ,三重県多気郡多気町古江
5192400,三重県,多気郡大台町,,ミエケン,タキグンオオダイチョウ,,三重県多気郡大台町
5192401,三重県,多気郡大台町,長ケ,ミエケン,タキグンオオダイチョウ,ナガ,三重県多気郡大台町長ケ
5192402,三重県,多気郡大台町,下三瀬,ミエケン,タキグンオオダイチョウ,シモミセ,三重県多気郡大台町下三瀬
5192403,三重県,多気郡大台町,上三瀬,ミエケン,タキグンオオダイチョウ,カミミセ,三重県多気郡大台町上三瀬
5192404,三重県,多気郡大台町,佐原,ミエケン,タキグンオオダイチョウ,サワラ,三重県多気郡大台町佐原
5192405,三重県,多気郡大台町,弥起井,ミエケン,タキグンオオダイチョウ,ヤキイ,三重県多気郡大台町弥起井
5192411,三重県,多気郡大台町,上菅,ミエケン,タキグンオオダイチョウ,カミスガ,三重県多気郡大台町上菅
5192412,三重県,多気郡大台町,下菅,ミエケン,タキグンオオダイチョウ,シモスガ,三重県多気郡大台町下菅
5192412,三重県,多気郡大台町,川合,ミエケン,タキグンオオダイチョウ,カワイ,三重県多気郡大台町川合
5192412,三重県,多気郡大台町,滝広,ミエケン,タキグンオオダイチョウ,タキヒロ,三重県多気郡大台町滝広
5192412,三重県,多気郡大台町,菅合,ミエケン,タキグンオオダイチョウ,スガアイ,三重県多気郡大台町菅合
5192413,三重県,多気郡大台町,大ケ所,ミエケン,タキグンオオダイチョウ,オオガショ,三重県多気郡大台町大ケ所
5192421,三重県,多気郡大台町,千代,ミエケン,タキグンオオダイチョウ,センダイ,三重県多気郡大台町千代
5192422,三重県,多気郡大台町,柳原,ミエケン,タキグンオオダイチョウ,ヤナギハラ,三重県多気郡大台町柳原
5192423,三重県,多気郡大台町,新田,ミエケン,タキグンオオダイチョウ,シンデン,三重県多気郡大台町新田
5192424,三重県,多気郡大台町,栃原,ミエケン,タキグンオオダイチョウ,トチハラ,三重県多気郡大台町栃原
5192425,三重県,多気郡大台町,神瀬,ミエケン,タキグンオオダイチョウ,カミゼ,三重県多気郡大台町神瀬
5192426,三重県,多気郡大台町,下楠,ミエケン,タキグンオオダイチョウ,シモクス,三重県多気郡大台町下楠
5192427,三重県,多気郡大台町,上楠,ミエケン,タキグンオオダイチョウ,カミクス,三重県多気郡大台町上楠
5192428,三重県,多気郡大台町,粟生,ミエケン,タキグンオオダイチョウ,アオ,三重県多気郡大台町粟生
5192429,三重県,多気郡大台町,高奈,ミエケン,タキグンオオダイチョウ,タカナ,三重県多気郡大台町高奈
5192501,三重県,多気郡大台町,下真手,ミエケン,タキグンオオダイチョウ,シモマテ,三重県多気郡大台町下真手
5192502,三重県,多気郡大台町,上真手,ミエケン,タキグンオオダイチョウ,カミマテ,三重県多気郡大台町上真手
5192503,三重県,多気郡大台町,本田木屋,ミエケン,タキグンオオダイチョウ,ホンダゴヤ,三重県多気郡大台町本田木屋
5192504,三重県,多気郡大台町,小切畑,ミエケン,タキグンオオダイチョウ,コギリハタ,三重県多気郡大台町小切畑
5192505,三重県,多気郡大台町,江馬,ミエケン,タキグンオオダイチョウ,エマ,三重県多気郡大台町江馬
5192506,三重県,多気郡大台町,天ケ瀬,ミエケン,タキグンオオダイチョウ,アマガセ,三重県多気郡大台町天ケ瀬
5192507,三重県,多気郡大台町,栗谷,ミエケン,タキグンオオダイチョウ,クリダニ,三重県多気郡大台町栗谷
5192511,三重県,多気郡大台町,菅木屋,ミエケン,タキグンオオダイチョウ,スガゴヤ,三重県多気郡大台町菅木屋
5192512,三重県,多気郡大台町,清滝,ミエケン,タキグンオオダイチョウ,キヨタキ,三重県多気郡大台町清滝
5192513,三重県,多気郡大台町,薗,ミエケン,タキグンオオダイチョウ,ソノ,三重県多気郡大台町薗
5192514,三重県,多気郡大台町,茂原,ミエケン,タキグンオオダイチョウ,モバラ,三重県多気郡大台町茂原
5192515,三重県,多気郡大台町,熊内,ミエケン,タキグンオオダイチョウ,クモチ,三重県多気郡大台町熊内
5192516,三重県,多気郡大台町,唐櫃,ミエケン,タキグンオオダイチョウ,カラト,三重県多気郡大台町唐櫃
5192517,三重県,多気郡大台町,南,ミエケン,タキグンオオダイチョウ,ミナミ,三重県多気郡大台町南
5192518,三重県,多気郡大台町,大井,ミエケン,タキグンオオダイチョウ,オオイ,三重県多気郡大台町大井
5192521,三重県,多気郡大台町,明豆,ミエケン,タキグンオオダイチョウ,ミョウズ,三重県多気郡大台町明豆
5192522,三重県,多気郡大台町,御棟,ミエケン,タキグンオオダイチョウ,オムナギ,三重県多気郡大台町御棟
5192523,三重県,多気郡大台町,小滝,ミエケン,タキグンオオダイチョウ,コタキ,三重県多気郡大台町小滝
5192524,三重県,多気郡大台町,神滝,ミエケン,タキグンオオダイチョウ,コウタキ,三重県多気郡大台町神滝
5192525,三重県,多気郡大台町,滝谷,ミエケン,タキグンオオダイチョウ,タキヤ,三重県多気郡大台町滝谷
5192631,三重県,多気郡大台町,岩井,ミエケン,タキグンオオダイチョウ,イワイ,三重県多気郡大台町岩井
5192632,三重県,多気郡大台町,桧原,ミエケン,タキグンオオダイチョウ,キソハラ,三重県多気郡大台町桧原
5192633,三重県,多気郡大台町,久豆,ミエケン,タキグンオオダイチョウ,クズ,三重県多気郡大台町久豆
5192634,三重県,多気郡大台町,大杉,ミエケン,タキグンオオダイチョウ,オオスギ,三重県多気郡大台町大杉
5192700,三重県,度会郡大紀町,,ミエケン,ワタライグンタイキチョウ,,三重県度会郡大紀町
5192701,三重県,度会郡大紀町,船木,ミエケン,ワタライグンタイキチョウ,フナキ,三重県度会郡大紀町船木
5192702,三重県,度会郡大紀町,三瀬川,ミエケン,ワタライグンタイキチョウ,ミセガワ,三重県度会郡大紀町三瀬川
5192703,三重県,度会郡大紀町,滝原,ミエケン,ワタライグンタイキチョウ,タキハラ,三重県度会郡大紀町滝原
5192704,三重県,度会郡大紀町,阿曽,ミエケン,ワタライグンタイキチョウ,アソ,三重県度会郡大紀町阿曽
5192731,三重県,度会郡大紀町,野原,ミエケン,ワタライグンタイキチョウ,ノワラ,三重県度会郡大紀町野原
5192732,三重県,度会郡大紀町,野添,ミエケン,ワタライグンタイキチョウ,ノゾエ,三重県度会郡大紀町野添
5192733,三重県,度会郡大紀町,金輪,ミエケン,ワタライグンタイキチョウ,カナワ,三重県度会郡大紀町金輪
5192734,三重県,度会郡大紀町,永会,ミエケン,ワタライグンタイキチョウ,エイカイ,三重県度会郡大紀町永会
5192735,三重県,度会郡大紀町,神原,ミエケン,ワタライグンタイキチョウ,コノハラ,三重県度会郡大紀町神原
5192736,三重県,度会郡大紀町,打見,ミエケン,ワタライグンタイキチョウ,ウチミ,三重県度会郡大紀町打見
5192801,三重県,度会郡大紀町,柏野,ミエケン,ワタライグンタイキチョウ,カシワノ,三重県度会郡大紀町柏野
5192802,三重県,度会郡大紀町,崎,ミエケン,ワタライグンタイキチョウ,サキ,三重県度会郡大紀町崎
5192911,三重県,度会郡大紀町,錦,ミエケン,ワタライグンタイキチョウ,ニシキ,三重県度会郡大紀町錦
5193111,三重県,度会郡大紀町,大内山,ミエケン,ワタライグンタイキチョウ,オオウチヤマ,三重県度会郡大紀町大内山
5193201,三重県,北牟婁郡紀北町,十須,ミエケン,キタムログンキホクチョウ,ジュウス,三重県北牟婁郡紀北町十須
5193202,三重県,北牟婁郡紀北町,大原,ミエケン,キタムログンキホクチョウ,オオハラ,三重県北牟婁郡紀北町大原
5193203,三重県,北牟婁郡紀北町,島原,ミエケン,キタムログンキホクチョウ,シマバラ,三重県北牟婁郡紀北町島原
5193204,三重県,北牟婁郡紀北町,東長島,ミエケン,キタムログンキホクチョウ,ヒガシナガシマ,三重県北牟婁郡紀北町東長島
5193205,三重県,北牟婁郡紀北町,長島,ミエケン,キタムログンキホクチョウ,ナガシマ,三重県北牟婁郡紀北町長島
5193206,三重県,北牟婁郡紀北町,海野,ミエケン,キタムログンキホクチョウ,カイノ,三重県北牟婁郡紀北町海野
5193207,三重県,北牟婁郡紀北町,道瀬,ミエケン,キタムログンキホクチョウ,ドウゼ,三重県北牟婁郡紀北町道瀬
5193208,三重県,北牟婁郡紀北町,三浦,ミエケン,キタムログンキホクチョウ,ミウラ,三重県北牟婁郡紀北町三浦
5193209,三重県,北牟婁郡紀北町,古里,ミエケン,キタムログンキホクチョウ,フルサト,三重県北牟婁郡紀北町古里
5193400,三重県,北牟婁郡紀北町,,ミエケン,キタムログンキホクチョウ,,三重県北牟婁郡紀北町
5193401,三重県,北牟婁郡紀北町,馬瀬,ミエケン,キタムログンキホクチョウ,ウマゼ,三重県北牟婁郡紀北町馬瀬
5193402,三重県,北牟婁郡紀北町,河内,ミエケン,キタムログンキホクチョウ,コウチ,三重県北牟婁郡紀北町河内
5193403,三重県,北牟婁郡紀北町,上里,ミエケン,キタムログンキホクチョウ,カミザト,三重県北牟婁郡紀北町上里
5193404,三重県,北牟婁郡紀北町,中里,ミエケン,キタムログンキホクチョウ,ナカザト,三重県北牟婁郡紀北町中里
5193405,三重県,北牟婁郡紀北町,船津,ミエケン,キタムログンキホクチョウ,フナツ,三重県北牟婁郡紀北町船津
5193406,三重県,北牟婁郡紀北町,相賀,ミエケン,キタムログンキホクチョウ,アイガ,三重県北牟婁郡紀北町相賀
5193407,三重県,北牟婁郡紀北町,小山浦,ミエケン,キタムログンキホクチョウ,オヤマウラ,三重県北牟婁郡紀北町小山浦
5193408,三重県,北牟婁郡紀北町,便ノ山,ミエケン,キタムログンキホクチョウ,ビンノヤマ,三重県北牟婁郡紀北町便ノ山
5193411,三重県,北牟婁郡紀北町,白浦,ミエケン,キタムログンキホクチョウ,シロウラ,三重県北牟婁郡紀北町白浦
5193412,三重県,北牟婁郡紀北町,島勝浦,ミエケン,キタムログンキホクチョウ,シマカツウラ,三重県北牟婁郡紀北町島勝浦
5193413,三重県,北牟婁郡紀北町,引本浦,ミエケン,キタムログンキホクチョウ,ヒキモトウラ,三重県北牟婁郡紀北町引本浦
5193414,三重県,北牟婁郡紀北町,小浦,ミエケン,キタムログンキホクチョウ,オウラ,三重県北牟婁郡紀北町小浦
5193415,三重県,北牟婁郡紀北町,矢口浦,ミエケン,キタムログンキホクチョウ,ヤグチウラ,三重県北牟婁郡紀北町矢口浦
5193421,三重県,尾鷲市,須賀利町,ミエケン,オワセシ,スガリチョウ,三重県尾鷲市須賀利町
5193600,三重県,尾鷲市,,ミエケン,オワセシ,,三重県尾鷲市
5193601,三重県,尾鷲市,南浦（天満）,ミエケン,オワセシ,ミナミウラ(テンマ),三重県尾鷲市南浦（天満）
5193602,三重県,尾鷲市,天満浦,ミエケン,オワセシ,テンマウラ,三重県尾鷲市天満浦
5193604,三重県,尾鷲市,港町,ミエケン,オワセシ,ミナトマチ,三重県尾鷲市港町
5193605,三重県,尾鷲市,中井町,ミエケン,オワセシ,ナカイマチ,三重県尾鷲市中井町
5193606,三重県,尾鷲市,北浦町,ミエケン,オワセシ,キタウラチョウ,三重県尾鷲市北浦町
5193609,三重県,尾鷲市,北浦東町,ミエケン,オワセシ,キタウラヒガシマチ,三重県尾鷲市北浦東町
5193610,三重県,尾鷲市,北浦西町,ミエケン,オワセシ,キタウラニシマチ,三重県尾鷲市北浦西町
5193611,三重県,尾鷲市,朝日町,ミエケン,オワセシ,アサヒマチ,三重県尾鷲市朝日町
5193612,三重県,尾鷲市,林町,ミエケン,オワセシ,ハヤシマチ,三重県尾鷲市林町
5193613,三重県,尾鷲市,南浦（林）,ミエケン,オワセシ,ミナミウラ(ハヤシ),三重県尾鷲市南浦（林）
5193613,三重県,尾鷲市,瀬木山町,ミエケン,オワセシ,セギヤマチョウ,三重県尾鷲市瀬木山町
5193614,三重県,尾鷲市,南陽町,ミエケン,オワセシ,ナンヨウチョウ,三重県尾鷲市南陽町
5193615,三重県,尾鷲市,中央町,ミエケン,オワセシ,チュウオウチョウ,三重県尾鷲市中央町
5193616,三重県,尾鷲市,中村町,ミエケン,オワセシ,ナカムラチョウ,三重県尾鷲市中村町
5193617,三重県,尾鷲市,野地町,ミエケン,オワセシ,ノジマチ,三重県尾鷲市野地町
5193618,三重県,尾鷲市,栄町,ミエケン,オワセシ,サカエマチ,三重県尾鷲市栄町
5193619,三重県,尾鷲市,馬越町,ミエケン,オワセシ,マゴセチョウ,三重県尾鷲市馬越町
5193620,三重県,尾鷲市,座ノ下町,ミエケン,オワセシ,ザノシタチョウ,三重県尾鷲市座ノ下町
5193621,三重県,尾鷲市,行野浦,ミエケン,オワセシ,ユクノウラ,三重県尾鷲市行野浦
5193623,三重県,尾鷲市,大曽根浦,ミエケン,オワセシ,オオソネウラ,三重県尾鷲市大曽根浦
5193625,三重県,尾鷲市,向井,ミエケン,オワセシ,ムカイ,三重県尾鷲市向井
5193626,三重県,尾鷲市,国市松泉町,ミエケン,オワセシ,クニシショウセンチョウ,三重県尾鷲市国市松泉町
5193634,三重県,尾鷲市,南浦（矢浜）,ミエケン,オワセシ,ミナミウラ(ヤノハマ),三重県尾鷲市南浦（矢浜）
5193637,三重県,尾鷲市,光ケ丘,ミエケン,オワセシ,ヒカリガオカ,三重県尾鷲市光ケ丘
5193638,三重県,尾鷲市,新田町,ミエケン,オワセシ,シンデンチョウ,三重県尾鷲市新田町
5193639,三重県,尾鷲市,中川,ミエケン,オワセシ,ナカガワ,三重県尾鷲市中川
5193640,三重県,尾鷲市,桂ケ丘,ミエケン,オワセシ,カツラガオカ,三重県尾鷲市桂ケ丘
5193642,三重県,尾鷲市,大滝町,ミエケン,オワセシ,オオタキチョウ,三重県尾鷲市大滝町
5193643,三重県,尾鷲市,南浦（小原野）,ミエケン,オワセシ,ミナミウラ(オバラノ),三重県尾鷲市南浦（小原野）
5193646,三重県,尾鷲市,泉町,ミエケン,オワセシ,イズミチョウ,三重県尾鷲市泉町
5193647,三重県,尾鷲市,小川西町,ミエケン,オワセシ,コガワニシマチ,三重県尾鷲市小川西町
5193648,三重県,尾鷲市,小川東町,ミエケン,オワセシ,コガワヒガシマチ,三重県尾鷲市小川東町
5193651,三重県,尾鷲市,末広町,ミエケン,オワセシ,スエヒロチョウ,三重県尾鷲市末広町
5193652,三重県,尾鷲市,古戸町,ミエケン,オワセシ,コドチョウ,三重県尾鷲市古戸町
5193653,三重県,尾鷲市,上野町,ミエケン,オワセシ,ウエノチョウ,三重県尾鷲市上野町
5193656,三重県,尾鷲市,南浦（倉ノ谷）,ミエケン,オワセシ,ミナミウラ(クラノタニ),三重県尾鷲市南浦（倉ノ谷）
5193658,三重県,尾鷲市,倉ノ谷町,ミエケン,オワセシ,クラノタニチョウ,三重県尾鷲市倉ノ谷町
5193659,三重県,尾鷲市,古戸野町,ミエケン,オワセシ,コドノチョウ,三重県尾鷲市古戸野町
5193663,三重県,尾鷲市,宮ノ上町,ミエケン,オワセシ,ミヤノウエチョウ,三重県尾鷲市宮ノ上町
5193664,三重県,尾鷲市,坂場町,ミエケン,オワセシ,サカバチョウ,三重県尾鷲市坂場町
5193666,三重県,尾鷲市,中井浦（坂場）,ミエケン,オワセシ,ナカイウラ(サカバ),三重県尾鷲市中井浦（坂場）
5193666,三重県,尾鷲市,坂場西町,ミエケン,オワセシ,サカバニシマチ,三重県尾鷲市坂場西町
5193667,三重県,尾鷲市,南浦（クチスボ）,ミエケン,オワセシ,ミナミウラ(クチスボ),三重県尾鷲市南浦（クチスボ）
5193671,三重県,尾鷲市,矢浜（丁目）,ミエケン,オワセシ,ヤノハマ(チョウメ),三重県尾鷲市矢浜（丁目）
5193672,三重県,尾鷲市,矢浜岡崎町,ミエケン,オワセシ,ヤノハマオカザキチョウ,三重県尾鷲市矢浜岡崎町
5193673,三重県,尾鷲市,矢浜大道,ミエケン,オワセシ,ヤノハマオオミチ,三重県尾鷲市矢浜大道
5193674,三重県,尾鷲市,矢浜真砂,ミエケン,オワセシ,ヤノハママサゴ,三重県尾鷲市矢浜真砂
5193701,三重県,尾鷲市,九鬼町,ミエケン,オワセシ,クキチョウ,三重県尾鷲市九鬼町
5193702,三重県,尾鷲市,早田町,ミエケン,オワセシ,ハイダチョウ,三重県尾鷲市早田町
5193811,三重県,尾鷲市,三木里町,ミエケン,オワセシ,ミキサトチョウ,三重県尾鷲市三木里町
5193812,三重県,尾鷲市,名柄町,ミエケン,オワセシ,ナガラチョウ,三重県尾鷲市名柄町
5193813,三重県,尾鷲市,小脇町,ミエケン,オワセシ,コワキチョウ,三重県尾鷲市小脇町
5193814,三重県,尾鷲市,三木浦町,ミエケン,オワセシ,ミキウラチョウ,三重県尾鷲市三木浦町
5193921,三重県,尾鷲市,賀田町,ミエケン,オワセシ,カタチョウ,三重県尾鷲市賀田町
5193922,三重県,尾鷲市,古江町,ミエケン,オワセシ,フルエチョウ,三重県尾鷲市古江町
5193923,三重県,尾鷲市,梶賀町,ミエケン,オワセシ,カジカチョウ,三重県尾鷲市梶賀町
5193924,三重県,尾鷲市,曽根町,ミエケン,オワセシ,ソネチョウ,三重県尾鷲市曽根町
5194201,三重県,熊野市,須野町,ミエケン,クマノシ,スノチョウ,三重県熊野市須野町
5194202,三重県,熊野市,甫母町,ミエケン,クマノシ,ホボチョウ,三重県熊野市甫母町
5194203,三重県,熊野市,二木島里町,ミエケン,クマノシ,ニギシマサトチョウ,三重県熊野市二木島里町
5194204,三重県,熊野市,二木島町,ミエケン,クマノシ,ニギシマチョウ,三重県熊野市二木島町
5194205,三重県,熊野市,遊木町,ミエケン,クマノシ,ユキチョウ,三重県熊野市遊木町
5194206,三重県,熊野市,新鹿町,ミエケン,クマノシ,アタシカチョウ,三重県熊野市新鹿町
5194207,三重県,熊野市,波田須町,ミエケン,クマノシ,ハダスチョウ,三重県熊野市波田須町
5194300,三重県,熊野市,,ミエケン,クマノシ,,三重県熊野市
5194321,三重県,熊野市,磯崎町,ミエケン,クマノシ,イソザキチョウ,三重県熊野市磯崎町
5194322,三重県,熊野市,大泊町,ミエケン,クマノシ,オオドマリチョウ,三重県熊野市大泊町
5194323,三重県,熊野市,木本町,ミエケン,クマノシ,キノモトチョウ,三重県熊野市木本町
5194324,三重県,熊野市,井戸町,ミエケン,クマノシ,イドチョウ,三重県熊野市井戸町
5194325,三重県,熊野市,有馬町,ミエケン,クマノシ,アリマチョウ,三重県熊野市有馬町
5194326,三重県,熊野市,久生屋町,ミエケン,クマノシ,クシヤチョウ,三重県熊野市久生屋町
5194327,三重県,熊野市,金山町,ミエケン,クマノシ,カナヤマチョウ,三重県熊野市金山町
5194441,三重県,熊野市,神川町花知,ミエケン,クマノシ,カミカワチョウハナジリ,三重県熊野市神川町花知
5194442,三重県,熊野市,神川町神上,ミエケン,クマノシ,カミカワチョウコウノウエ,三重県熊野市神川町神上
5194443,三重県,熊野市,神川町柳谷,ミエケン,クマノシ,カミカワチョウヤナギダニ,三重県熊野市神川町柳谷
5194444,三重県,熊野市,神川町長原,ミエケン,クマノシ,カミカワチョウナガハラ,三重県熊野市神川町長原
5194445,三重県,熊野市,育生町粉所,ミエケン,クマノシ,イクセイチョウコドコロ,三重県熊野市育生町粉所
5194446,三重県,熊野市,育生町赤倉,ミエケン,クマノシ,イクセイチョウアカグラ,三重県熊野市育生町赤倉
5194447,三重県,熊野市,育生町尾川,ミエケン,クマノシ,イクセイチョウオガワ,三重県熊野市育生町尾川
5194448,三重県,熊野市,育生町大井,ミエケン,クマノシ,イクセイチョウオオイ,三重県熊野市育生町大井
5194449,三重県,熊野市,育生町長井,ミエケン,クマノシ,イクセイチョウナガイ,三重県熊野市育生町長井
5194561,三重県,熊野市,飛鳥町大又,ミエケン,クマノシ,アスカチョウオオマタ,三重県熊野市飛鳥町大又
5194562,三重県,熊野市,飛鳥町小又,ミエケン,クマノシ,アスカチョウコマタ,三重県熊野市飛鳥町小又
5194563,三重県,熊野市,飛鳥町小阪,ミエケン,クマノシ,アスカチョウコザカ,三重県熊野市飛鳥町小阪
5194564,三重県,熊野市,飛鳥町佐渡,ミエケン,クマノシ,アスカチョウサワタリ,三重県熊野市飛鳥町佐渡
5194565,三重県,熊野市,飛鳥町野口,ミエケン,クマノシ,アスカチョウノグチ,三重県熊野市飛鳥町野口
5194566,三重県,熊野市,飛鳥町神山,ミエケン,クマノシ,アスカチョウコウノヤマ,三重県熊野市飛鳥町神山
5194671,三重県,熊野市,五郷町桃崎,ミエケン,クマノシ,イサトチョウモモザキ,三重県熊野市五郷町桃崎
5194672,三重県,熊野市,五郷町湯谷,ミエケン,クマノシ,イサトチョウユノタニ,三重県熊野市五郷町湯谷
5194673,三重県,熊野市,五郷町寺谷,ミエケン,クマノシ,イサトチョウテラダニ,三重県熊野市五郷町寺谷
5194674,三重県,熊野市,五郷町和田,ミエケン,クマノシ,イサトチョウワダ,三重県熊野市五郷町和田
5194675,三重県,熊野市,五郷町大井谷,ミエケン,クマノシ,イサトチョウオオイダニ,三重県熊野市五郷町大井谷
5195200,三重県,南牟婁郡御浜町,,ミエケン,ミナミムログンミハマチョウ,,三重県南牟婁郡御浜町
5195201,三重県,南牟婁郡御浜町,神木,ミエケン,ミナミムログンミハマチョウ,コウノギ,三重県南牟婁郡御浜町神木
5195202,三重県,南牟婁郡御浜町,志原,ミエケン,ミナミムログンミハマチョウ,シワラ,三重県南牟婁郡御浜町志原
5195203,三重県,南牟婁郡御浜町,下市木,ミエケン,ミナミムログンミハマチョウ,シモイチギ,三重県南牟婁郡御浜町下市木
5195203,三重県,南牟婁郡御浜町,萩内,ミエケン,ミナミムログンミハマチョウ,ハギウチ,三重県南牟婁郡御浜町萩内
5195204,三重県,南牟婁郡御浜町,山地,ミエケン,ミナミムログンミハマチョウ,ヤマヂ,三重県南牟婁郡御浜町山地
5195204,三重県,南牟婁郡御浜町,阿田和,ミエケン,ミナミムログンミハマチョウ,アタワ,三重県南牟婁郡御浜町阿田和
5195204,三重県,南牟婁郡御浜町,阿田和（平見）,ミエケン,ミナミムログンミハマチョウ,アタワ(ヒラミ),三重県南牟婁郡御浜町阿田和（平見）
5195205,三重県,南牟婁郡御浜町,引作,ミエケン,ミナミムログンミハマチョウ,ヒキツクリ,三重県南牟婁郡御浜町引作
5195206,三重県,南牟婁郡御浜町,柿原,ミエケン,ミナミムログンミハマチョウ,カキハラ,三重県南牟婁郡御浜町柿原
5195211,三重県,南牟婁郡御浜町,上市木,ミエケン,ミナミムログンミハマチョウ,カミイチギ,三重県南牟婁郡御浜町上市木
5195321,三重県,南牟婁郡御浜町,阪本,ミエケン,ミナミムログンミハマチョウ,サカモト,三重県南牟婁郡御浜町阪本
5195322,三重県,南牟婁郡御浜町,上野,ミエケン,ミナミムログンミハマチョウ,ウワノ,三重県南牟婁郡御浜町上野
5195323,三重県,南牟婁郡御浜町,西原,ミエケン,ミナミムログンミハマチョウ,ニシノハラ,三重県南牟婁郡御浜町西原
5195324,三重県,南牟婁郡御浜町,中立,ミエケン,ミナミムログンミハマチョウ,ナカダチ,三重県南牟婁郡御浜町中立
5195325,三重県,南牟婁郡御浜町,片川,ミエケン,ミナミムログンミハマチョウ,カタカワ,三重県南牟婁郡御浜町片川
5195326,三重県,南牟婁郡御浜町,栗須,ミエケン,ミナミムログンミハマチョウ,クルス,三重県南牟婁郡御浜町栗須
5195327,三重県,南牟婁郡御浜町,川瀬,ミエケン,ミナミムログンミハマチョウ,カワセ,三重県南牟婁郡御浜町川瀬
5195401,三重県,熊野市,紀和町小森,ミエケン,クマノシ,キワチョウコモリ,三重県熊野市紀和町小森
5195402,三重県,熊野市,紀和町平谷,ミエケン,クマノシ,キワチョウヒラタニ,三重県熊野市紀和町平谷
5195403,三重県,熊野市,紀和町長尾,ミエケン,クマノシ,キワチョウナガオ,三重県熊野市紀和町長尾
5195404,三重県,熊野市,紀和町赤木,ミエケン,クマノシ,キワチョウアカギ,三重県熊野市紀和町赤木
5195405,三重県,熊野市,紀和町丸山,ミエケン,クマノシ,キワチョウマルヤマ,三重県熊野市紀和町丸山
5195406,三重県,熊野市,紀和町矢ノ川,ミエケン,クマノシ,キワチョウヤノカワ,三重県熊野市紀和町矢ノ川
5195411,三重県,熊野市,紀和町木津呂,ミエケン,クマノシ,キワチョウキヅロ,三重県熊野市紀和町木津呂
5195412,三重県,熊野市,紀和町大栗須,ミエケン,クマノシ,キワチョウオオグルス,三重県熊野市紀和町大栗須
5195413,三重県,熊野市,紀和町板屋,ミエケン,クマノシ,キワチョウイタヤ,三重県熊野市紀和町板屋
5195414,三重県,熊野市,紀和町小栗須,ミエケン,クマノシ,キワチョウコグルス,三重県熊野市紀和町小栗須
5195415,三重県,熊野市,紀和町大河内,ミエケン,クマノシ,キワチョウオコチ,三重県熊野市紀和町大河内
5195416,三重県,熊野市,紀和町湯ノ口,ミエケン,クマノシ,キワチョウユノクチ,三重県熊野市紀和町湯ノ口
5195417,三重県,熊野市,紀和町小川口,ミエケン,クマノシ,キワチョウコガワグチ,三重県熊野市紀和町小川口
5195700,三重県,南牟婁郡紀宝町,,ミエケン,ミナミムログンキホウチョウ,,三重県南牟婁郡紀宝町
5195701,三重県,南牟婁郡紀宝町,鵜殿,ミエケン,ミナミムログンキホウチョウ,ウドノ,三重県南牟婁郡紀宝町鵜殿
5195711,三重県,南牟婁郡紀宝町,井田,ミエケン,ミナミムログンキホウチョウ,イダ,三重県南牟婁郡紀宝町井田
5195712,三重県,南牟婁郡紀宝町,神内,ミエケン,ミナミムログンキホウチョウ,コウノウチ,三重県南牟婁郡紀宝町神内
5195713,三重県,南牟婁郡紀宝町,成川,ミエケン,ミナミムログンキホウチョウ,ナルカワ,三重県南牟婁郡紀宝町成川
5195714,三重県,南牟婁郡紀宝町,鮒田,ミエケン,ミナミムログンキホウチョウ,フナダ,三重県南牟婁郡紀宝町鮒田
5195715,三重県,南牟婁郡紀宝町,高岡,ミエケン,ミナミムログンキホウチョウ,タカオカ,三重県南牟婁郡紀宝町高岡
5195716,三重県,南牟婁郡紀宝町,北桧杖,ミエケン,ミナミムログンキホウチョウ,キタヒヅエ,三重県南牟婁郡紀宝町北桧杖
5195717,三重県,南牟婁郡紀宝町,瀬原,ミエケン,ミナミムログンキホウチョウ,セバラ,三重県南牟婁郡紀宝町瀬原
5195718,三重県,南牟婁郡紀宝町,浅里,ミエケン,ミナミムログンキホウチョウ,アサリ,三重県南牟婁郡紀宝町浅里
5195831,三重県,南牟婁郡紀宝町,桐原,ミエケン,ミナミムログンキホウチョウ,キリハラ,三重県南牟婁郡紀宝町桐原
5195832,三重県,南牟婁郡紀宝町,阪松原,ミエケン,ミナミムログンキホウチョウ,サカマツバラ,三重県南牟婁郡紀宝町阪松原
5195833,三重県,南牟婁郡紀宝町,平尾井,ミエケン,ミナミムログンキホウチョウ,ヒラオイ,三重県南牟婁郡紀宝町平尾井
5195834,三重県,南牟婁郡紀宝町,井内,ミエケン,ミナミムログンキホウチョウ,イナイ,三重県南牟婁郡紀宝町井内
5195835,三重県,南牟婁郡紀宝町,大里,ミエケン,ミナミムログンキホウチョウ,オオザト,三重県南牟婁郡紀宝町大里
6471321,三重県,熊野市,紀和町花井,ミエケン,クマノシ,キワチョウケイ,三重県熊野市紀和町花井
6471322,三重県,熊野市,紀和町小船,ミエケン,クマノシ,キワチョウコブネ,三重県熊野市紀和町小船
6471323,三重県,熊野市,紀和町楊枝川,ミエケン,クマノシ,キワチョウヨウジガワ,三重県熊野市紀和町楊枝川
6471324,三重県,熊野市,紀和町和気,ミエケン,クマノシ,キワチョウワケ,三重県熊野市紀和町和気
6471325,三重県,熊野市,紀和町楊枝,ミエケン,クマノシ,キワチョウヨウジ,三重県熊野市紀和町楊枝
