zipcode,prefecture_name,city,town,prefecture_kana,city_kana,town_kana,normalized_address
5200000,滋賀県,大津市,,シガケン,オオツシ,,滋賀県大津市
5200001,滋賀県,大津市,蓮池町,シガケン,オオツシ,ハスイケチョウ,滋賀県大津市蓮池町
5200002,滋賀県,大津市,際川,シガケン,オオツシ,サイガワ,滋賀県大津市際川
5200003,滋賀県,大津市,あかね町,シガケン,オオツシ,アカネチョウ,滋賀県大津市あかね町
5200004,滋賀県,大津市,見世,シガケン,オオツシ,ミセ,滋賀県大津市見世
5200005,滋賀県,大津市,高砂町,シガケン,オオツシ,タカサゴチョウ,滋賀県大津市高砂町
5200006,滋賀県,大津市,滋賀里,シガケン,オオツシ,シガサト,滋賀県大津市滋賀里
5200011,滋賀県,大津市,南志賀,シガケン,オオツシ,ミナミシガ,滋賀県大津市南志賀
5200012,滋賀県,大津市,鏡が浜,シガケン,オオツシ,カガミガハマ,滋賀県大津市鏡が浜
5200013,滋賀県,大津市,勧学,シガケン,オオツシ,カンガク,滋賀県大津市勧学
5200014,滋賀県,大津市,柳川,シガケン,オオツシ,ヤナガワ,滋賀県大津市柳川
5200015,滋賀県,大津市,神宮町,シガケン,オオツシ,ジングウチョウ,滋賀県大津市神宮町
5200016,滋賀県,大津市,比叡平,シガケン,オオツシ,ヒエイダイラ,滋賀県大津市比叡平
5200017,滋賀県,大津市,山中町,シガケン,オオツシ,ヤマナカチョウ,滋賀県大津市山中町
5200018,滋賀県,大津市,南滋賀町,シガケン,オオツシ,ミナミシガチョウ,滋賀県大津市南滋賀町
5200021,滋賀県,大津市,二本松,シガケン,オオツシ,ニホンマツ,滋賀県大津市二本松
5200022,滋賀県,大津市,柳が崎,シガケン,オオツシ,ヤナガサキ,滋賀県大津市柳が崎
5200023,滋賀県,大津市,茶が崎,シガケン,オオツシ,チャガサキ,滋賀県大津市茶が崎
5200024,滋賀県,大津市,松山町,シガケン,オオツシ,マツヤマチョウ,滋賀県大津市松山町
5200025,滋賀県,大津市,皇子が丘,シガケン,オオツシ,オウジガオカ,滋賀県大津市皇子が丘
5200026,滋賀県,大津市,桜野町,シガケン,オオツシ,サクラノチョウ,滋賀県大津市桜野町
5200027,滋賀県,大津市,錦織,シガケン,オオツシ,ニシコオリ,滋賀県大津市錦織
5200028,滋賀県,大津市,千石台,シガケン,オオツシ,センゴクダイ,滋賀県大津市千石台
5200031,滋賀県,大津市,尾花川,シガケン,オオツシ,オバナガワ,滋賀県大津市尾花川
5200032,滋賀県,大津市,観音寺,シガケン,オオツシ,カンノンジ,滋賀県大津市観音寺
5200033,滋賀県,大津市,大門通,シガケン,オオツシ,ダイモンドオリ,滋賀県大津市大門通
5200034,滋賀県,大津市,三井寺町,シガケン,オオツシ,ミイデラチョウ,滋賀県大津市三井寺町
5200035,滋賀県,大津市,小関町,シガケン,オオツシ,コゼキチョウ,滋賀県大津市小関町
5200036,滋賀県,大津市,園城寺町,シガケン,オオツシ,オンジョウジチョウ,滋賀県大津市園城寺町
5200037,滋賀県,大津市,御陵町,シガケン,オオツシ,ゴリョウチョウ,滋賀県大津市御陵町
5200038,滋賀県,大津市,山上町,シガケン,オオツシ,ヤマガミチョウ,滋賀県大津市山上町
5200041,滋賀県,大津市,浜町,シガケン,オオツシ,ハママチ,滋賀県大津市浜町
5200042,滋賀県,大津市,島の関,シガケン,オオツシ,シマノセキ,滋賀県大津市島の関
5200043,滋賀県,大津市,中央,シガケン,オオツシ,チュウオウ,滋賀県大津市中央
5200044,滋賀県,大津市,京町,シガケン,オオツシ,キョウマチ,滋賀県大津市京町
5200045,滋賀県,大津市,札の辻,シガケン,オオツシ,フダノツジ,滋賀県大津市札の辻
5200046,滋賀県,大津市,長等,シガケン,オオツシ,ナガラ,滋賀県大津市長等
5200047,滋賀県,大津市,浜大津,シガケン,オオツシ,ハマオオツ,滋賀県大津市浜大津
5200051,滋賀県,大津市,梅林,シガケン,オオツシ,ウメバヤシ,滋賀県大津市梅林
5200052,滋賀県,大津市,朝日が丘,シガケン,オオツシ,アサヒガオカ,滋賀県大津市朝日が丘
5200053,滋賀県,大津市,音羽台,シガケン,オオツシ,オトワダイ,滋賀県大津市音羽台
5200054,滋賀県,大津市,逢坂,シガケン,オオツシ,オウサカ,滋賀県大津市逢坂
5200055,滋賀県,大津市,春日町,シガケン,オオツシ,カスガチョウ,滋賀県大津市春日町
5200056,滋賀県,大津市,末広町,シガケン,オオツシ,スエヒロチョウ,滋賀県大津市末広町
5200057,滋賀県,大津市,御幸町,シガケン,オオツシ,ミユキチョウ,滋賀県大津市御幸町
5200061,滋賀県,大津市,神出開町,シガケン,オオツシ,カミデヒラキマチ,滋賀県大津市神出開町
5200062,滋賀県,大津市,大谷町,シガケン,オオツシ,オオタニチョウ,滋賀県大津市大谷町
5200063,滋賀県,大津市,横木,シガケン,オオツシ,ヨコギ,滋賀県大津市横木
5200064,滋賀県,大津市,追分町,シガケン,オオツシ,オイワケチョウ,滋賀県大津市追分町
5200065,滋賀県,大津市,稲葉台,シガケン,オオツシ,イナバダイ,滋賀県大津市稲葉台
5200066,滋賀県,大津市,茶戸町,シガケン,オオツシ,チャドチョウ,滋賀県大津市茶戸町
5200067,滋賀県,大津市,藤尾奥町,シガケン,オオツシ,フジオオクマチ,滋賀県大津市藤尾奥町
5200101,滋賀県,大津市,雄琴,シガケン,オオツシ,オゴト,滋賀県大津市雄琴
5200102,滋賀県,大津市,苗鹿,シガケン,オオツシ,ノウカ,滋賀県大津市苗鹿
5200103,滋賀県,大津市,木の岡町,シガケン,オオツシ,コノオカチョウ,滋賀県大津市木の岡町
5200104,滋賀県,大津市,比叡辻,シガケン,オオツシ,ヒエイツジ,滋賀県大津市比叡辻
5200105,滋賀県,大津市,下阪本,シガケン,オオツシ,シモサカモト,滋賀県大津市下阪本
5200106,滋賀県,大津市,唐崎,シガケン,オオツシ,カラサキ,滋賀県大津市唐崎
5200107,滋賀県,大津市,雄琴北,シガケン,オオツシ,オゴトキタ,滋賀県大津市雄琴北
5200111,滋賀県,大津市,千野,シガケン,オオツシ,チノ,滋賀県大津市千野
5200112,滋賀県,大津市,日吉台,シガケン,オオツシ,ヒヨシダイ,滋賀県大津市日吉台
5200113,滋賀県,大津市,坂本,シガケン,オオツシ,サカモト,滋賀県大津市坂本
5200114,滋賀県,大津市,穴太,シガケン,オオツシ,アノウ,滋賀県大津市穴太
5200115,滋賀県,大津市,弥生町,シガケン,オオツシ,ヤヨイチョウ,滋賀県大津市弥生町
5200116,滋賀県,大津市,坂本本町,シガケン,オオツシ,サカモトホンマチ,滋賀県大津市坂本本町
5200221,滋賀県,大津市,緑町,シガケン,オオツシ,ミドリチョウ,滋賀県大津市緑町
5200222,滋賀県,大津市,花園町,シガケン,オオツシ,ハナゾノチョウ,滋賀県大津市花園町
5200223,滋賀県,大津市,美空町,シガケン,オオツシ,ミソラチョウ,滋賀県大津市美空町
5200224,滋賀県,大津市,向陽町,シガケン,オオツシ,コウヨウチョウ,滋賀県大津市向陽町
5200225,滋賀県,大津市,清風町,シガケン,オオツシ,セイフウチョウ,滋賀県大津市清風町
5200226,滋賀県,大津市,陽明町,シガケン,オオツシ,ヨウメイチョウ,滋賀県大津市陽明町
5200227,滋賀県,大津市,清和町,シガケン,オオツシ,セイワチョウ,滋賀県大津市清和町
5200231,滋賀県,大津市,真野普門,シガケン,オオツシ,マノフモン,滋賀県大津市真野普門
5200232,滋賀県,大津市,真野,シガケン,オオツシ,マノ,滋賀県大津市真野
5200233,滋賀県,大津市,真野谷口町,シガケン,オオツシ,マノタニグチチョウ,滋賀県大津市真野谷口町
5200234,滋賀県,大津市,真野家田町,シガケン,オオツシ,マノイエダチョウ,滋賀県大津市真野家田町
5200235,滋賀県,大津市,真野大野,シガケン,オオツシ,マノオオノ,滋賀県大津市真野大野
5200236,滋賀県,大津市,真野佐川町,シガケン,オオツシ,マノサガワチョウ,滋賀県大津市真野佐川町
5200241,滋賀県,大津市,今堅田,シガケン,オオツシ,イマカタタ,滋賀県大津市今堅田
5200242,滋賀県,大津市,本堅田,シガケン,オオツシ,ホンカタタ,滋賀県大津市本堅田
5200243,滋賀県,大津市,堅田,シガケン,オオツシ,カタタ,滋賀県大津市堅田
5200244,滋賀県,大津市,衣川,シガケン,オオツシ,キヌガワ,滋賀県大津市衣川
5200245,滋賀県,大津市,仰木町,シガケン,オオツシ,オオギチョウ,滋賀県大津市仰木町
5200246,滋賀県,大津市,仰木の里,シガケン,オオツシ,オオギノサト,滋賀県大津市仰木の里
5200247,滋賀県,大津市,仰木,シガケン,オオツシ,オオギ,滋賀県大津市仰木
5200248,滋賀県,大津市,仰木の里東,シガケン,オオツシ,オオギノサトヒガシ,滋賀県大津市仰木の里東
5200351,滋賀県,大津市,伊香立北在地町,シガケン,オオツシ,イカダチキタザイジチョウ,滋賀県大津市伊香立北在地町
5200352,滋賀県,大津市,伊香立下在地町,シガケン,オオツシ,イカダチシモザイジチョウ,滋賀県大津市伊香立下在地町
5200353,滋賀県,大津市,伊香立向在地町,シガケン,オオツシ,イカダチムカイザイジチョウ,滋賀県大津市伊香立向在地町
5200354,滋賀県,大津市,伊香立南庄町,シガケン,オオツシ,イカダチミナミショウチョウ,滋賀県大津市伊香立南庄町
5200355,滋賀県,大津市,伊香立生津町,シガケン,オオツシ,イカダチナマヅチョウ,滋賀県大津市伊香立生津町
5200356,滋賀県,大津市,伊香立上在地町,シガケン,オオツシ,イカダチカミザイジチョウ,滋賀県大津市伊香立上在地町
5200357,滋賀県,大津市,山百合の丘,シガケン,オオツシ,ヤマユリノオカ,滋賀県大津市山百合の丘
5200361,滋賀県,大津市,伊香立途中町,シガケン,オオツシ,イカダチトチュウチョウ,滋賀県大津市伊香立途中町
5200362,滋賀県,大津市,伊香立上龍華町,シガケン,オオツシ,イカダチカミリュウゲチョウ,滋賀県大津市伊香立上龍華町
5200363,滋賀県,大津市,伊香立下龍華町,シガケン,オオツシ,イカダチシモリュウゲチョウ,滋賀県大津市伊香立下龍華町
5200471,滋賀県,大津市,葛川細川町,シガケン,オオツシ,カツラガワホソカワチョウ,滋賀県大津市葛川細川町
5200472,滋賀県,大津市,葛川貫井町,シガケン,オオツシ,カツラガワヌクイチョウ,滋賀県大津市葛川貫井町
5200473,滋賀県,大津市,葛川梅ノ木町,シガケン,オオツシ,カツラガワウメノキチョウ,滋賀県大津市葛川梅ノ木町
5200474,滋賀県,大津市,葛川町居町,シガケン,オオツシ,カツラガワマチイチョウ,滋賀県大津市葛川町居町
5200475,滋賀県,大津市,葛川坊村町,シガケン,オオツシ,カツラガワボウムラチョウ,滋賀県大津市葛川坊村町
5200476,滋賀県,大津市,葛川中村町,シガケン,オオツシ,カツラガワナカムラチョウ,滋賀県大津市葛川中村町
5200477,滋賀県,大津市,葛川木戸口町,シガケン,オオツシ,カツラガワキドグチチョウ,滋賀県大津市葛川木戸口町
5200478,滋賀県,大津市,葛川坂下町,シガケン,オオツシ,カツラガワサカシタチョウ,滋賀県大津市葛川坂下町
5200501,滋賀県,大津市,北小松,シガケン,オオツシ,キタコマツ,滋賀県大津市北小松
5200502,滋賀県,大津市,南小松,シガケン,オオツシ,ミナミコマツ,滋賀県大津市南小松
5200503,滋賀県,大津市,北比良,シガケン,オオツシ,キタヒラ,滋賀県大津市北比良
5200511,滋賀県,大津市,南比良,シガケン,オオツシ,ミナミヒラ,滋賀県大津市南比良
5200512,滋賀県,大津市,大物,シガケン,オオツシ,ダイモツ,滋賀県大津市大物
5200513,滋賀県,大津市,荒川,シガケン,オオツシ,アラカワ,滋賀県大津市荒川
5200514,滋賀県,大津市,木戸,シガケン,オオツシ,キド,滋賀県大津市木戸
5200515,滋賀県,大津市,八屋戸,シガケン,オオツシ,ハチヤド,滋賀県大津市八屋戸
5200516,滋賀県,大津市,南船路,シガケン,オオツシ,ミナミフナジ,滋賀県大津市南船路
5200521,滋賀県,大津市,和邇北浜,シガケン,オオツシ,ワニキタハマ,滋賀県大津市和邇北浜
5200522,滋賀県,大津市,和邇中浜,シガケン,オオツシ,ワニナカハマ,滋賀県大津市和邇中浜
5200523,滋賀県,大津市,和邇南浜,シガケン,オオツシ,ワニミナミハマ,滋賀県大津市和邇南浜
5200524,滋賀県,大津市,和邇今宿,シガケン,オオツシ,ワニイマジュク,滋賀県大津市和邇今宿
5200525,滋賀県,大津市,小野,シガケン,オオツシ,オノ,滋賀県大津市小野
5200526,滋賀県,大津市,和邇中,シガケン,オオツシ,ワニナカ,滋賀県大津市和邇中
5200527,滋賀県,大津市,栗原,シガケン,オオツシ,クリハラ,滋賀県大津市栗原
5200528,滋賀県,大津市,和邇高城,シガケン,オオツシ,ワニタカシロ,滋賀県大津市和邇高城
5200529,滋賀県,大津市,和邇春日,シガケン,オオツシ,ワニカスガ,滋賀県大津市和邇春日
5200531,滋賀県,大津市,水明,シガケン,オオツシ,スイメイ,滋賀県大津市水明
5200532,滋賀県,大津市,湖青,シガケン,オオツシ,コセイ,滋賀県大津市湖青
5200533,滋賀県,大津市,朝日,シガケン,オオツシ,アサヒ,滋賀県大津市朝日
5200801,滋賀県,大津市,におの浜,シガケン,オオツシ,ニオノハマ,滋賀県大津市におの浜
5200802,滋賀県,大津市,馬場,シガケン,オオツシ,バンバ,滋賀県大津市馬場
5200803,滋賀県,大津市,竜が丘,シガケン,オオツシ,タツガオカ,滋賀県大津市竜が丘
5200804,滋賀県,大津市,本宮,シガケン,オオツシ,モトミヤ,滋賀県大津市本宮
5200805,滋賀県,大津市,石場,シガケン,オオツシ,イシバ,滋賀県大津市石場
5200806,滋賀県,大津市,打出浜,シガケン,オオツシ,ウチデハマ,滋賀県大津市打出浜
5200807,滋賀県,大津市,松本,シガケン,オオツシ,マツモト,滋賀県大津市松本
5200811,滋賀県,大津市,由美浜,シガケン,オオツシ,ユミハマ,滋賀県大津市由美浜
5200812,滋賀県,大津市,木下町,シガケン,オオツシ,キノシタチョウ,滋賀県大津市木下町
5200813,滋賀県,大津市,丸の内町,シガケン,オオツシ,マルノウチチョウ,滋賀県大津市丸の内町
5200814,滋賀県,大津市,本丸町,シガケン,オオツシ,ホンマルチョウ,滋賀県大津市本丸町
5200815,滋賀県,大津市,膳所,シガケン,オオツシ,ゼゼ,滋賀県大津市膳所
5200816,滋賀県,大津市,相模町,シガケン,オオツシ,サガミチョウ,滋賀県大津市相模町
5200817,滋賀県,大津市,昭和町,シガケン,オオツシ,ショウワチョウ,滋賀県大津市昭和町
5200818,滋賀県,大津市,西の庄,シガケン,オオツシ,ニシノショウ,滋賀県大津市西の庄
5200821,滋賀県,大津市,湖城が丘,シガケン,オオツシ,コジョウガオカ,滋賀県大津市湖城が丘
5200822,滋賀県,大津市,秋葉台,シガケン,オオツシ,アキバダイ,滋賀県大津市秋葉台
5200823,滋賀県,大津市,膳所上別保町,シガケン,オオツシ,ゼゼカミベッポチョウ,滋賀県大津市膳所上別保町
5200824,滋賀県,大津市,膳所平尾町,シガケン,オオツシ,ゼゼヒラオチョウ,滋賀県大津市膳所平尾町
5200825,滋賀県,大津市,膳所池ノ内町,シガケン,オオツシ,ゼゼイケノウチチョウ,滋賀県大津市膳所池ノ内町
5200826,滋賀県,大津市,鶴の里,シガケン,オオツシ,ツルノサト,滋賀県大津市鶴の里
5200827,滋賀県,大津市,池の里,シガケン,オオツシ,イケノサト,滋賀県大津市池の里
5200831,滋賀県,大津市,松原町,シガケン,オオツシ,マツバラチョウ,滋賀県大津市松原町
5200832,滋賀県,大津市,粟津町,シガケン,オオツシ,アワヅチョウ,滋賀県大津市粟津町
5200833,滋賀県,大津市,晴嵐,シガケン,オオツシ,セイラン,滋賀県大津市晴嵐
5200834,滋賀県,大津市,御殿浜,シガケン,オオツシ,ゴテンハマ,滋賀県大津市御殿浜
5200835,滋賀県,大津市,別保,シガケン,オオツシ,ベツポ,滋賀県大津市別保
5200836,滋賀県,大津市,杉浦町,シガケン,オオツシ,スギウラチョウ,滋賀県大津市杉浦町
5200837,滋賀県,大津市,中庄,シガケン,オオツシ,ナカショウ,滋賀県大津市中庄
5200841,滋賀県,大津市,美崎町,シガケン,オオツシ,ミサキチョウ,滋賀県大津市美崎町
5200842,滋賀県,大津市,園山,シガケン,オオツシ,ソノヤマ,滋賀県大津市園山
5200843,滋賀県,大津市,北大路,シガケン,オオツシ,キタオオジ,滋賀県大津市北大路
5200844,滋賀県,大津市,国分,シガケン,オオツシ,コクブ,滋賀県大津市国分
5200845,滋賀県,大津市,若葉台,シガケン,オオツシ,ワカバダイ,滋賀県大津市若葉台
5200846,滋賀県,大津市,富士見台,シガケン,オオツシ,フジミダイ,滋賀県大津市富士見台
5200851,滋賀県,大津市,唐橋町,シガケン,オオツシ,カラハシチョウ,滋賀県大津市唐橋町
5200852,滋賀県,大津市,田辺町,シガケン,オオツシ,タナベチョウ,滋賀県大津市田辺町
5200853,滋賀県,大津市,螢谷,シガケン,オオツシ,ホタルダニ,滋賀県大津市螢谷
5200854,滋賀県,大津市,鳥居川町,シガケン,オオツシ,トリイガワチョウ,滋賀県大津市鳥居川町
5200855,滋賀県,大津市,栄町,シガケン,オオツシ,サカエマチ,滋賀県大津市栄町
5200856,滋賀県,大津市,光が丘町,シガケン,オオツシ,ヒカリガオカチョウ,滋賀県大津市光が丘町
5200860,滋賀県,大津市,石山千町,シガケン,オオツシ,イシヤマセンチョウ,滋賀県大津市石山千町
5200861,滋賀県,大津市,石山寺,シガケン,オオツシ,イシヤマデラ,滋賀県大津市石山寺
5200862,滋賀県,大津市,平津,シガケン,オオツシ,ヒラツ,滋賀県大津市平津
5200863,滋賀県,大津市,千町,シガケン,オオツシ,センチョウ,滋賀県大津市千町
5200864,滋賀県,大津市,赤尾町,シガケン,オオツシ,アカオチョウ,滋賀県大津市赤尾町
5200865,滋賀県,大津市,南郷,シガケン,オオツシ,ナンゴウ,滋賀県大津市南郷
5200866,滋賀県,大津市,石山寺辺町,シガケン,オオツシ,イシヤマテラベチョウ,滋賀県大津市石山寺辺町
5200867,滋賀県,大津市,大平,シガケン,オオツシ,オオヒラ,滋賀県大津市大平
5200868,滋賀県,大津市,石山外畑町,シガケン,オオツシ,イシヤマソトハタチョウ,滋賀県大津市石山外畑町
5200869,滋賀県,大津市,石山内畑町,シガケン,オオツシ,イシヤマウチハタチョウ,滋賀県大津市石山内畑町
5200871,滋賀県,大津市,南郷上山町,シガケン,オオツシ,ナンゴウカミヤマチョウ,滋賀県大津市南郷上山町
5201100,滋賀県,高島市,,シガケン,タカシマシ,,滋賀県高島市
5201101,滋賀県,高島市,武曽横山,シガケン,タカシマシ,ムソヨコヤマ,滋賀県高島市武曽横山
5201102,滋賀県,高島市,野田,シガケン,タカシマシ,ノダ,滋賀県高島市野田
5201103,滋賀県,高島市,宮野,シガケン,タカシマシ,ミヤノ,滋賀県高島市宮野
5201111,滋賀県,高島市,鴨,シガケン,タカシマシ,カモ,滋賀県高島市鴨
5201112,滋賀県,高島市,永田,シガケン,タカシマシ,ナガタ,滋賀県高島市永田
5201121,滋賀県,高島市,勝野,シガケン,タカシマシ,カツノ,滋賀県高島市勝野
5201122,滋賀県,高島市,鵜川,シガケン,タカシマシ,ウカワ,滋賀県高島市鵜川
5201123,滋賀県,高島市,城山台,シガケン,タカシマシ,シロヤマダイ,滋賀県高島市城山台
5201131,滋賀県,高島市,音羽,シガケン,タカシマシ,オトワ,滋賀県高島市音羽
5201132,滋賀県,高島市,拝戸,シガケン,タカシマシ,ハイド,滋賀県高島市拝戸
5201133,滋賀県,高島市,鴨川平,シガケン,タカシマシ,カモガワダイラ,滋賀県高島市鴨川平
5201141,滋賀県,高島市,高島,シガケン,タカシマシ,タカシマ,滋賀県高島市高島
5201142,滋賀県,高島市,鹿ケ瀬,シガケン,タカシマシ,シシガセ,滋賀県高島市鹿ケ瀬
5201143,滋賀県,高島市,黒谷,シガケン,タカシマシ,クロダニ,滋賀県高島市黒谷
5201144,滋賀県,高島市,畑,シガケン,タカシマシ,ハタ,滋賀県高島市畑
5201201,滋賀県,高島市,安曇川町上古賀,シガケン,タカシマシ,アドガワチョウカミコガ,滋賀県高島市安曇川町上古賀
5201202,滋賀県,高島市,安曇川町下古賀,シガケン,タカシマシ,アドガワチョウシモコガ,滋賀県高島市安曇川町下古賀
5201203,滋賀県,高島市,安曇川町南古賀,シガケン,タカシマシ,アドガワチョウミナミコガ,滋賀県高島市安曇川町南古賀
5201204,滋賀県,高島市,安曇川町中野,シガケン,タカシマシ,アドガワチョウナカノ,滋賀県高島市安曇川町中野
5201205,滋賀県,高島市,安曇川町長尾,シガケン,タカシマシ,アドガワチョウナガオ,滋賀県高島市安曇川町長尾
5201211,滋賀県,高島市,安曇川町常磐木,シガケン,タカシマシ,アドガワチョウトキワギ,滋賀県高島市安曇川町常磐木
5201212,滋賀県,高島市,安曇川町西万木,シガケン,タカシマシ,アドガワチョウニシユルギ,滋賀県高島市安曇川町西万木
5201213,滋賀県,高島市,安曇川町五番領,シガケン,タカシマシ,アドガワチョウゴバンリョウ,滋賀県高島市安曇川町五番領
5201214,滋賀県,高島市,安曇川町末広,シガケン,タカシマシ,アドガワチョウスエヒロ,滋賀県高島市安曇川町末広
5201215,滋賀県,高島市,安曇川町三尾里,シガケン,タカシマシ,アドガワチョウミオザト,滋賀県高島市安曇川町三尾里
5201216,滋賀県,高島市,安曇川町中央,シガケン,タカシマシ,アドガワチョウチュウオウ,滋賀県高島市安曇川町中央
5201217,滋賀県,高島市,安曇川町田中,シガケン,タカシマシ,アドガワチョウタナカ,滋賀県高島市安曇川町田中
5201221,滋賀県,高島市,安曇川町青柳,シガケン,タカシマシ,アドガワチョウアオヤギ,滋賀県高島市安曇川町青柳
5201222,滋賀県,高島市,安曇川町横江,シガケン,タカシマシ,アドガワチョウヨコエ,滋賀県高島市安曇川町横江
5201223,滋賀県,高島市,安曇川町下小川,シガケン,タカシマシ,アドガワチョウシモオガワ,滋賀県高島市安曇川町下小川
5201224,滋賀県,高島市,安曇川町上小川,シガケン,タカシマシ,アドガワチョウカミオガワ,滋賀県高島市安曇川町上小川
5201231,滋賀県,高島市,安曇川町川島,シガケン,タカシマシ,アドガワチョウカワシマ,滋賀県高島市安曇川町川島
5201232,滋賀県,高島市,安曇川町北船木,シガケン,タカシマシ,アドガワチョウキタフナキ,滋賀県高島市安曇川町北船木
5201233,滋賀県,高島市,安曇川町南船木,シガケン,タカシマシ,アドガワチョウミナミフナキ,滋賀県高島市安曇川町南船木
5201234,滋賀県,高島市,安曇川町四津川,シガケン,タカシマシ,アドガワチョウヨツガワ,滋賀県高島市安曇川町四津川
5201235,滋賀県,高島市,安曇川町横江浜,シガケン,タカシマシ,アドガワチョウヨコエハマ,滋賀県高島市安曇川町横江浜
5201401,滋賀県,高島市,朽木市場,シガケン,タカシマシ,クツキイチバ,滋賀県高島市朽木市場
5201411,滋賀県,高島市,朽木荒川,シガケン,タカシマシ,クツキアラカワ,滋賀県高島市朽木荒川
5201412,滋賀県,高島市,朽木野尻,シガケン,タカシマシ,クツキノジリ,滋賀県高島市朽木野尻
5201413,滋賀県,高島市,朽木上野,シガケン,タカシマシ,クツキウエノ,滋賀県高島市朽木上野
5201414,滋賀県,高島市,朽木宮前坊,シガケン,タカシマシ,クツキミヤマエボウ,滋賀県高島市朽木宮前坊
5201415,滋賀県,高島市,朽木柏,シガケン,タカシマシ,クツキカセ,滋賀県高島市朽木柏
5201421,滋賀県,高島市,朽木岩瀬,シガケン,タカシマシ,クツキイワセ,滋賀県高島市朽木岩瀬
5201422,滋賀県,高島市,朽木古川,シガケン,タカシマシ,クツキフルカワ,滋賀県高島市朽木古川
5201423,滋賀県,高島市,朽木大野,シガケン,タカシマシ,クツキオオノ,滋賀県高島市朽木大野
5201424,滋賀県,高島市,朽木村井,シガケン,タカシマシ,クツキムライ,滋賀県高島市朽木村井
5201425,滋賀県,高島市,朽木栃生,シガケン,タカシマシ,クツキトチュウ,滋賀県高島市朽木栃生
5201431,滋賀県,高島市,朽木小川,シガケン,タカシマシ,クツキコガワ,滋賀県高島市朽木小川
5201432,滋賀県,高島市,朽木平良,シガケン,タカシマシ,クツキヘラ,滋賀県高島市朽木平良
5201433,滋賀県,高島市,朽木桑原,シガケン,タカシマシ,クツキクワバラ,滋賀県高島市朽木桑原
5201441,滋賀県,高島市,朽木古屋,シガケン,タカシマシ,クツキフルヤ,滋賀県高島市朽木古屋
5201442,滋賀県,高島市,朽木生杉,シガケン,タカシマシ,クツキオイスギ,滋賀県高島市朽木生杉
5201443,滋賀県,高島市,朽木小入谷,シガケン,タカシマシ,クツキオニュウダニ,滋賀県高島市朽木小入谷
5201444,滋賀県,高島市,朽木中牧,シガケン,タカシマシ,クツキナカマキ,滋賀県高島市朽木中牧
5201451,滋賀県,高島市,朽木麻生,シガケン,タカシマシ,クツキアソウ,滋賀県高島市朽木麻生
5201452,滋賀県,高島市,朽木地子原,シガケン,タカシマシ,クツキジシハラ,滋賀県高島市朽木地子原
5201453,滋賀県,高島市,朽木雲洞谷,シガケン,タカシマシ,クツキウトウダニ,滋賀県高島市朽木雲洞谷
5201454,滋賀県,高島市,朽木能家,シガケン,タカシマシ,クツキノウゲ,滋賀県高島市朽木能家
5201455,滋賀県,高島市,朽木木地山,シガケン,タカシマシ,クツキキジヤマ,滋賀県高島市朽木木地山
5201501,滋賀県,高島市,新旭町旭,シガケン,タカシマシ,シンアサヒチョウアサヒ,滋賀県高島市新旭町旭
5201502,滋賀県,高島市,新旭町針江,シガケン,タカシマシ,シンアサヒチョウハリエ,滋賀県高島市新旭町針江
5201503,滋賀県,高島市,新旭町深溝,シガケン,タカシマシ,シンアサヒチョウフカミゾ,滋賀県高島市新旭町深溝
5201511,滋賀県,高島市,新旭町藁園,シガケン,タカシマシ,シンアサヒチョウワラソノ,滋賀県高島市新旭町藁園
5201512,滋賀県,高島市,新旭町太田,シガケン,タカシマシ,シンアサヒチョウオオタ,滋賀県高島市新旭町太田
5201521,滋賀県,高島市,新旭町北畑,シガケン,タカシマシ,シンアサヒチョウキタバタ,滋賀県高島市新旭町北畑
5201522,滋賀県,高島市,新旭町新庄,シガケン,タカシマシ,シンアサヒチョウシンジョウ,滋賀県高島市新旭町新庄
5201531,滋賀県,高島市,新旭町饗庭,シガケン,タカシマシ,シンアサヒチョウアイバ,滋賀県高島市新旭町饗庭
5201532,滋賀県,高島市,新旭町熊野本,シガケン,タカシマシ,シンアサヒチョウクマノモト,滋賀県高島市新旭町熊野本
5201533,滋賀県,高島市,新旭町安井川,シガケン,タカシマシ,シンアサヒチョウヤスイガワ,滋賀県高島市新旭町安井川
5201601,滋賀県,高島市,今津町深清水,シガケン,タカシマシ,イマヅチョウフカシミズ,滋賀県高島市今津町深清水
5201602,滋賀県,高島市,今津町桂,シガケン,タカシマシ,イマヅチョウカツラ,滋賀県高島市今津町桂
5201603,滋賀県,高島市,今津町北仰,シガケン,タカシマシ,イマヅチョウキトゲ,滋賀県高島市今津町北仰
5201604,滋賀県,高島市,今津町浜分,シガケン,タカシマシ,イマヅチョウハマブン,滋賀県高島市今津町浜分
5201605,滋賀県,高島市,今津町南新保,シガケン,タカシマシ,イマヅチョウミナミシンボ,滋賀県高島市今津町南新保
5201611,滋賀県,高島市,今津町弘川,シガケン,タカシマシ,イマヅチョウヒロカワ,滋賀県高島市今津町弘川
5201612,滋賀県,高島市,今津町下弘部,シガケン,タカシマシ,イマヅチョウシモヒロベ,滋賀県高島市今津町下弘部
5201613,滋賀県,高島市,今津町上弘部,シガケン,タカシマシ,イマヅチョウカミヒロベ,滋賀県高島市今津町上弘部
5201614,滋賀県,高島市,今津町藺生,シガケン,タカシマシ,イマヅチョウユウ,滋賀県高島市今津町藺生
5201621,滋賀県,高島市,今津町今津,シガケン,タカシマシ,イマヅチョウイマヅ,滋賀県高島市今津町今津
5201622,滋賀県,高島市,今津町中沼,シガケン,タカシマシ,イマヅチョウナカヌマ,滋賀県高島市今津町中沼
5201623,滋賀県,高島市,今津町住吉,シガケン,タカシマシ,イマヅチョウスミヨシ,滋賀県高島市今津町住吉
5201631,滋賀県,高島市,今津町名小路,シガケン,タカシマシ,イマヅチョウナコジ,滋賀県高島市今津町名小路
5201632,滋賀県,高島市,今津町桜町,シガケン,タカシマシ,イマヅチョウサクラマチ,滋賀県高島市今津町桜町
5201633,滋賀県,高島市,今津町松陽台,シガケン,タカシマシ,イマヅチョウショウヨウダイ,滋賀県高島市今津町松陽台
5201634,滋賀県,高島市,今津町大供大門,シガケン,タカシマシ,イマヅチョウオオトモダイモン,滋賀県高島市今津町大供大門
5201635,滋賀県,高島市,今津町大供,シガケン,タカシマシ,イマヅチョウオオトモ,滋賀県高島市今津町大供
5201636,滋賀県,高島市,今津町舟橋,シガケン,タカシマシ,イマヅチョウフナバシ,滋賀県高島市今津町舟橋
5201641,滋賀県,高島市,今津町南生見,シガケン,タカシマシ,イマヅチョウミナミウミ,滋賀県高島市今津町南生見
5201642,滋賀県,高島市,今津町北生見,シガケン,タカシマシ,イマヅチョウキタウミ,滋賀県高島市今津町北生見
5201643,滋賀県,高島市,今津町保坂,シガケン,タカシマシ,イマヅチョウホウザカ,滋賀県高島市今津町保坂
5201644,滋賀県,高島市,今津町途中谷,シガケン,タカシマシ,イマヅチョウトチュウダニ,滋賀県高島市今津町途中谷
5201645,滋賀県,高島市,今津町椋川,シガケン,タカシマシ,イマヅチョウムクガワ,滋賀県高島市今津町椋川
5201646,滋賀県,高島市,今津町杉山,シガケン,タカシマシ,イマヅチョウスギヤマ,滋賀県高島市今津町杉山
5201647,滋賀県,高島市,今津町天増川,シガケン,タカシマシ,イマヅチョウアマスガワ,滋賀県高島市今津町天増川
5201648,滋賀県,高島市,今津町角川,シガケン,タカシマシ,イマヅチョウツノガワ,滋賀県高島市今津町角川
5201651,滋賀県,高島市,今津町酒波,シガケン,タカシマシ,イマヅチョウサナミ,滋賀県高島市今津町酒波
5201652,滋賀県,高島市,今津町福岡,シガケン,タカシマシ,イマヅチョウフクオカ,滋賀県高島市今津町福岡
5201653,滋賀県,高島市,今津町岸脇,シガケン,タカシマシ,イマヅチョウキシワキ,滋賀県高島市今津町岸脇
5201654,滋賀県,高島市,今津町梅原,シガケン,タカシマシ,イマヅチョウウメハラ,滋賀県高島市今津町梅原
5201655,滋賀県,高島市,今津町日置前,シガケン,タカシマシ,イマヅチョウヒオキマエ,滋賀県高島市今津町日置前
5201801,滋賀県,高島市,マキノ町在原,シガケン,タカシマシ,マキノチョウアリハラ,滋賀県高島市マキノ町在原
5201802,滋賀県,高島市,マキノ町野口,シガケン,タカシマシ,マキノチョウノグチ,滋賀県高島市マキノ町野口
5201803,滋賀県,高島市,マキノ町小荒路,シガケン,タカシマシ,マキノチョウコアラジ,滋賀県高島市マキノ町小荒路
5201804,滋賀県,高島市,マキノ町浦,シガケン,タカシマシ,マキノチョウウラ,滋賀県高島市マキノ町浦
5201805,滋賀県,高島市,マキノ町下,シガケン,タカシマシ,マキノチョウシモ,滋賀県高島市マキノ町下
5201806,滋賀県,高島市,マキノ町山中,シガケン,タカシマシ,マキノチョウヤマナカ,滋賀県高島市マキノ町山中
5201811,滋賀県,高島市,マキノ町海津,シガケン,タカシマシ,マキノチョウカイヅ,滋賀県高島市マキノ町海津
5201812,滋賀県,高島市,マキノ町西浜,シガケン,タカシマシ,マキノチョウニシハマ,滋賀県高島市マキノ町西浜
5201813,滋賀県,高島市,マキノ町高木浜,シガケン,タカシマシ,マキノチョウタカギハマ,滋賀県高島市マキノ町高木浜
5201814,滋賀県,高島市,マキノ町知内,シガケン,タカシマシ,マキノチョウチナイ,滋賀県高島市マキノ町知内
5201821,滋賀県,高島市,マキノ町沢,シガケン,タカシマシ,マキノチョウサワ,滋賀県高島市マキノ町沢
5201822,滋賀県,高島市,マキノ町新保,シガケン,タカシマシ,マキノチョウシンボ,滋賀県高島市マキノ町新保
5201823,滋賀県,高島市,マキノ町中庄,シガケン,タカシマシ,マキノチョウナカショウ,滋賀県高島市マキノ町中庄
5201824,滋賀県,高島市,マキノ町大沼,シガケン,タカシマシ,マキノチョウオオヌマ,滋賀県高島市マキノ町大沼
5201825,滋賀県,高島市,マキノ町森西,シガケン,タカシマシ,マキノチョウモリニシ,滋賀県高島市マキノ町森西
5201826,滋賀県,高島市,マキノ町辻,シガケン,タカシマシ,マキノチョウツジ,滋賀県高島市マキノ町辻
5201831,滋賀県,高島市,マキノ町上開田,シガケン,タカシマシ,マキノチョウカミカイデ,滋賀県高島市マキノ町上開田
5201832,滋賀県,高島市,マキノ町下開田,シガケン,タカシマシ,マキノチョウシモカイデ,滋賀県高島市マキノ町下開田
5201833,滋賀県,高島市,マキノ町蛭口,シガケン,タカシマシ,マキノチョウヒルグチ,滋賀県高島市マキノ町蛭口
5201834,滋賀県,高島市,マキノ町寺久保,シガケン,タカシマシ,マキノチョウテラクボ,滋賀県高島市マキノ町寺久保
5201835,滋賀県,高島市,マキノ町石庭,シガケン,タカシマシ,マキノチョウイシバ,滋賀県高島市マキノ町石庭
5201836,滋賀県,高島市,マキノ町牧野,シガケン,タカシマシ,マキノチョウマキノ,滋賀県高島市マキノ町牧野
5201837,滋賀県,高島市,マキノ町白谷,シガケン,タカシマシ,マキノチョウシラタニ,滋賀県高島市マキノ町白谷
5202101,滋賀県,大津市,青山,シガケン,オオツシ,アオヤマ,滋賀県大津市青山
5202102,滋賀県,大津市,松が丘,シガケン,オオツシ,マツガオカ,滋賀県大津市松が丘
5202111,滋賀県,大津市,桐生,シガケン,オオツシ,キリュウ,滋賀県大津市桐生
5202112,滋賀県,大津市,牧,シガケン,オオツシ,マキ,滋賀県大津市牧
5202113,滋賀県,大津市,平野,シガケン,オオツシ,ヒラノ,滋賀県大津市平野
5202114,滋賀県,大津市,中野,シガケン,オオツシ,ナカノ,滋賀県大津市中野
5202115,滋賀県,大津市,新免,シガケン,オオツシ,シンメン,滋賀県大津市新免
5202116,滋賀県,大津市,堂,シガケン,オオツシ,ドウ,滋賀県大津市堂
5202117,滋賀県,大津市,芝原,シガケン,オオツシ,シバハラ,滋賀県大津市芝原
5202118,滋賀県,大津市,大鳥居,シガケン,オオツシ,オオドリイ,滋賀県大津市大鳥居
5202121,滋賀県,大津市,瀬田月輪町,シガケン,オオツシ,セタツキノワチョウ,滋賀県大津市瀬田月輪町
5202122,滋賀県,大津市,瀬田南大萱町,シガケン,オオツシ,セタミナミオオガヤチョウ,滋賀県大津市瀬田南大萱町
5202123,滋賀県,大津市,瀬田大江町,シガケン,オオツシ,セタオオエチョウ,滋賀県大津市瀬田大江町
5202124,滋賀県,大津市,瀬田神領町,シガケン,オオツシ,セタジンリョウチョウ,滋賀県大津市瀬田神領町
5202125,滋賀県,大津市,瀬田橋本町,シガケン,オオツシ,セタハシモトチョウ,滋賀県大津市瀬田橋本町
5202131,滋賀県,大津市,三大寺,シガケン,オオツシ,サンダイジ,滋賀県大津市三大寺
5202132,滋賀県,大津市,神領,シガケン,オオツシ,ジンリョウ,滋賀県大津市神領
5202133,滋賀県,大津市,野郷原,シガケン,オオツシ,ノゴウハラ,滋賀県大津市野郷原
5202134,滋賀県,大津市,瀬田,シガケン,オオツシ,セタ,滋賀県大津市瀬田
5202135,滋賀県,大津市,松陽,シガケン,オオツシ,ショウヨウ,滋賀県大津市松陽
5202141,滋賀県,大津市,大江,シガケン,オオツシ,オオエ,滋賀県大津市大江
5202142,滋賀県,大津市,玉野浦,シガケン,オオツシ,タマノウラ,滋賀県大津市玉野浦
5202143,滋賀県,大津市,萱野浦,シガケン,オオツシ,カヤノウラ,滋賀県大津市萱野浦
5202144,滋賀県,大津市,大萱,シガケン,オオツシ,オオガヤ,滋賀県大津市大萱
5202145,滋賀県,大津市,大将軍,シガケン,オオツシ,タイショウグン,滋賀県大津市大将軍
5202151,滋賀県,大津市,栗林町,シガケン,オオツシ,クリバヤシチョウ,滋賀県大津市栗林町
5202152,滋賀県,大津市,月輪,シガケン,オオツシ,ツキノワ,滋賀県大津市月輪
5202153,滋賀県,大津市,一里山,シガケン,オオツシ,イチリヤマ,滋賀県大津市一里山
5202161,滋賀県,大津市,上田上桐生町,シガケン,オオツシ,カミタナカミキリュウチョウ,滋賀県大津市上田上桐生町
5202162,滋賀県,大津市,上田上牧町,シガケン,オオツシ,カミタナカミマキチョウ,滋賀県大津市上田上牧町
5202163,滋賀県,大津市,上田上平野町,シガケン,オオツシ,カミタナカミヒラノチョウ,滋賀県大津市上田上平野町
5202164,滋賀県,大津市,上田上中野町,シガケン,オオツシ,カミタナカミナカノチョウ,滋賀県大津市上田上中野町
5202165,滋賀県,大津市,上田上新免町,シガケン,オオツシ,カミタナカミシンメチョウ,滋賀県大津市上田上新免町
5202166,滋賀県,大津市,上田上堂町,シガケン,オオツシ,カミタナカミドウチョウ,滋賀県大津市上田上堂町
5202167,滋賀県,大津市,上田上芝原町,シガケン,オオツシ,カミタナカミシバハラチョウ,滋賀県大津市上田上芝原町
5202261,滋賀県,大津市,大石曽束,シガケン,オオツシ,オオイシソツカ,滋賀県大津市大石曽束
5202261,滋賀県,大津市,大石曽束町,シガケン,オオツシ,オオイシソツカチョウ,滋賀県大津市大石曽束町
5202262,滋賀県,大津市,大石淀,シガケン,オオツシ,オオイシヨド,滋賀県大津市大石淀
5202262,滋賀県,大津市,大石淀町,シガケン,オオツシ,オオイシヨドチョウ,滋賀県大津市大石淀町
5202263,滋賀県,大津市,大石中,シガケン,オオツシ,オオイシナカ,滋賀県大津市大石中
5202264,滋賀県,大津市,大石東,シガケン,オオツシ,オオイシヒガシ,滋賀県大津市大石東
5202265,滋賀県,大津市,大石富川,シガケン,オオツシ,オオイシトミカワ,滋賀県大津市大石富川
5202265,滋賀県,大津市,大石富川町,シガケン,オオツシ,オオイシトミカワチョウ,滋賀県大津市大石富川町
5202266,滋賀県,大津市,大石龍門,シガケン,オオツシ,オオイシリュウモン,滋賀県大津市大石龍門
5202267,滋賀県,大津市,大石小田原,シガケン,オオツシ,オオイシオダワラ,滋賀県大津市大石小田原
5202267,滋賀県,大津市,大石小田原町,シガケン,オオツシ,オオイシオダワラチョウ,滋賀県大津市大石小田原町
5202271,滋賀県,大津市,稲津,シガケン,オオツシ,イナヅ,滋賀県大津市稲津
5202272,滋賀県,大津市,石居,シガケン,オオツシ,イシズエ,滋賀県大津市石居
5202273,滋賀県,大津市,羽栗,シガケン,オオツシ,ハグリ,滋賀県大津市羽栗
5202274,滋賀県,大津市,森,シガケン,オオツシ,モリ,滋賀県大津市森
5202275,滋賀県,大津市,枝,シガケン,オオツシ,エダ,滋賀県大津市枝
5202276,滋賀県,大津市,里,シガケン,オオツシ,サト,滋賀県大津市里
5202277,滋賀県,大津市,関津,シガケン,オオツシ,セキノツ,滋賀県大津市関津
5202278,滋賀県,大津市,太子,シガケン,オオツシ,タイシ,滋賀県大津市太子
5202279,滋賀県,大津市,黒津,シガケン,オオツシ,クロヅ,滋賀県大津市黒津
5202300,滋賀県,野洲市,,シガケン,ヤスシ,,滋賀県野洲市
5202301,滋賀県,野洲市,小南,シガケン,ヤスシ,コミナミ,滋賀県野洲市小南
5202302,滋賀県,野洲市,高木,シガケン,ヤスシ,タカギ,滋賀県野洲市高木
5202303,滋賀県,野洲市,中北,シガケン,ヤスシ,ナカキタ,滋賀県野洲市中北
5202304,滋賀県,野洲市,永原,シガケン,ヤスシ,ナガハラ,滋賀県野洲市永原
5202305,滋賀県,野洲市,北,シガケン,ヤスシ,キタ,滋賀県野洲市北
5202311,滋賀県,野洲市,長島,シガケン,ヤスシ,ナガシマ,滋賀県野洲市長島
5202312,滋賀県,野洲市,入町,シガケン,ヤスシ,イリマチ,滋賀県野洲市入町
5202313,滋賀県,野洲市,大篠原,シガケン,ヤスシ,オオシノハラ,滋賀県野洲市大篠原
5202314,滋賀県,野洲市,小堤,シガケン,ヤスシ,コヅツミ,滋賀県野洲市小堤
5202315,滋賀県,野洲市,辻町,シガケン,ヤスシ,ツジマチ,滋賀県野洲市辻町
5202316,滋賀県,野洲市,上屋,シガケン,ヤスシ,カミヤ,滋賀県野洲市上屋
5202321,滋賀県,野洲市,北桜,シガケン,ヤスシ,キタザクラ,滋賀県野洲市北桜
5202322,滋賀県,野洲市,南桜,シガケン,ヤスシ,ミナミザクラ,滋賀県野洲市南桜
5202323,滋賀県,野洲市,三上,シガケン,ヤスシ,ミカミ,滋賀県野洲市三上
5202324,滋賀県,野洲市,近江富士,シガケン,ヤスシ,オウミフジ,滋賀県野洲市近江富士
5202331,滋賀県,野洲市,小篠原,シガケン,ヤスシ,コシノハラ,滋賀県野洲市小篠原
5202332,滋賀県,野洲市,妙光寺,シガケン,ヤスシ,ミョウコウジ,滋賀県野洲市妙光寺
5202333,滋賀県,野洲市,栄,シガケン,ヤスシ,サカエ,滋賀県野洲市栄
5202341,滋賀県,野洲市,行畑,シガケン,ヤスシ,ユキハタ,滋賀県野洲市行畑
5202342,滋賀県,野洲市,野洲,シガケン,ヤスシ,ヤス,滋賀県野洲市野洲
5202343,滋賀県,野洲市,大畑,シガケン,ヤスシ,オオハタ,滋賀県野洲市大畑
5202351,滋賀県,野洲市,冨波甲,シガケン,ヤスシ,トバコウ,滋賀県野洲市冨波甲
5202352,滋賀県,野洲市,冨波乙,シガケン,ヤスシ,トバオツ,滋賀県野洲市冨波乙
5202353,滋賀県,野洲市,久野部,シガケン,ヤスシ,クノベ,滋賀県野洲市久野部
5202361,滋賀県,野洲市,北野,シガケン,ヤスシ,キタノ,滋賀県野洲市北野
5202362,滋賀県,野洲市,市三宅,シガケン,ヤスシ,イチミヤケ,滋賀県野洲市市三宅
5202363,滋賀県,野洲市,竹生,シガケン,ヤスシ,タケジョウ,滋賀県野洲市竹生
5202364,滋賀県,野洲市,五之里,シガケン,ヤスシ,ゴノリ,滋賀県野洲市五之里
5202365,滋賀県,野洲市,竹ヶ丘,シガケン,ヤスシ,タケガオカ,滋賀県野洲市竹ヶ丘
5202411,滋賀県,野洲市,安治,シガケン,ヤスシ,アワジ,滋賀県野洲市安治
5202412,滋賀県,野洲市,六条,シガケン,ヤスシ,ロクジョウ,滋賀県野洲市六条
5202413,滋賀県,野洲市,吉地,シガケン,ヤスシ,ヨシジ,滋賀県野洲市吉地
5202414,滋賀県,野洲市,井口,シガケン,ヤスシ,イノクチ,滋賀県野洲市井口
5202415,滋賀県,野洲市,須原,シガケン,ヤスシ,スワラ,滋賀県野洲市須原
5202416,滋賀県,野洲市,堤,シガケン,ヤスシ,ツツミ,滋賀県野洲市堤
5202417,滋賀県,野洲市,下堤,シガケン,ヤスシ,シモヅツミ,滋賀県野洲市下堤
5202421,滋賀県,野洲市,野田,シガケン,ヤスシ,ノダ,滋賀県野洲市野田
5202422,滋賀県,野洲市,比留田,シガケン,ヤスシ,ヒルタ,滋賀県野洲市比留田
5202423,滋賀県,野洲市,西河原,シガケン,ヤスシ,ニシガワラ,滋賀県野洲市西河原
5202424,滋賀県,野洲市,五条,シガケン,ヤスシ,ゴジョウ,滋賀県野洲市五条
5202431,滋賀県,野洲市,木部,シガケン,ヤスシ,キベ,滋賀県野洲市木部
5202432,滋賀県,野洲市,虫生,シガケン,ヤスシ,ムシュウ,滋賀県野洲市虫生
5202433,滋賀県,野洲市,八夫,シガケン,ヤスシ,ヤブ,滋賀県野洲市八夫
5202434,滋賀県,野洲市,比江,シガケン,ヤスシ,ヒエ,滋賀県野洲市比江
5202435,滋賀県,野洲市,乙窪,シガケン,ヤスシ,オチクボ,滋賀県野洲市乙窪
5202436,滋賀県,野洲市,北比江,シガケン,ヤスシ,キタヒエ,滋賀県野洲市北比江
5202437,滋賀県,野洲市,小比江,シガケン,ヤスシ,コビエ,滋賀県野洲市小比江
5202500,滋賀県,蒲生郡竜王町,,シガケン,ガモウグンリュウオウチョウ,,滋賀県蒲生郡竜王町
5202501,滋賀県,蒲生郡竜王町,弓削,シガケン,ガモウグンリュウオウチョウ,ユゲ,滋賀県蒲生郡竜王町弓削
5202502,滋賀県,蒲生郡竜王町,庄,シガケン,ガモウグンリュウオウチョウ,ショウ,滋賀県蒲生郡竜王町庄
5202503,滋賀県,蒲生郡竜王町,信濃,シガケン,ガモウグンリュウオウチョウ,シナノ,滋賀県蒲生郡竜王町信濃
5202504,滋賀県,蒲生郡竜王町,川上,シガケン,ガモウグンリュウオウチョウ,カワカミ,滋賀県蒲生郡竜王町川上
5202511,滋賀県,蒲生郡竜王町,林,シガケン,ガモウグンリュウオウチョウ,ハヤシ,滋賀県蒲生郡竜王町林
5202512,滋賀県,蒲生郡竜王町,駕輿丁,シガケン,ガモウグンリュウオウチョウ,カヨチョウ,滋賀県蒲生郡竜王町駕輿丁
5202513,滋賀県,蒲生郡竜王町,島,シガケン,ガモウグンリュウオウチョウ,シマ,滋賀県蒲生郡竜王町島
5202514,滋賀県,蒲生郡竜王町,橋本,シガケン,ガモウグンリュウオウチョウ,ハシモト,滋賀県蒲生郡竜王町橋本
5202521,滋賀県,蒲生郡竜王町,川守,シガケン,ガモウグンリュウオウチョウ,カワモリ,滋賀県蒲生郡竜王町川守
5202522,滋賀県,蒲生郡竜王町,岩井,シガケン,ガモウグンリュウオウチョウ,イワイ,滋賀県蒲生郡竜王町岩井
5202523,滋賀県,蒲生郡竜王町,田中,シガケン,ガモウグンリュウオウチョウ,タナカ,滋賀県蒲生郡竜王町田中
5202524,滋賀県,蒲生郡竜王町,綾戸,シガケン,ガモウグンリュウオウチョウ,アヤド,滋賀県蒲生郡竜王町綾戸
5202531,滋賀県,蒲生郡竜王町,山之上,シガケン,ガモウグンリュウオウチョウ,ヤマノウエ,滋賀県蒲生郡竜王町山之上
5202541,滋賀県,蒲生郡竜王町,岡屋,シガケン,ガモウグンリュウオウチョウ,オカヤ,滋賀県蒲生郡竜王町岡屋
5202542,滋賀県,蒲生郡竜王町,山中,シガケン,ガモウグンリュウオウチョウ,ヤマナカ,滋賀県蒲生郡竜王町山中
5202551,滋賀県,蒲生郡竜王町,薬師,シガケン,ガモウグンリュウオウチョウ,クズシ,滋賀県蒲生郡竜王町薬師
5202552,滋賀県,蒲生郡竜王町,小口,シガケン,ガモウグンリュウオウチョウ,オグチ,滋賀県蒲生郡竜王町小口
5202561,滋賀県,蒲生郡竜王町,須恵,シガケン,ガモウグンリュウオウチョウ,スエ,滋賀県蒲生郡竜王町須恵
5202562,滋賀県,蒲生郡竜王町,鵜川,シガケン,ガモウグンリュウオウチョウ,ウカワ,滋賀県蒲生郡竜王町鵜川
5202563,滋賀県,蒲生郡竜王町,七里,シガケン,ガモウグンリュウオウチョウ,シチリ,滋賀県蒲生郡竜王町七里
5202564,滋賀県,蒲生郡竜王町,山面,シガケン,ガモウグンリュウオウチョウ,ヤマヅラ,滋賀県蒲生郡竜王町山面
5202571,滋賀県,蒲生郡竜王町,西横関,シガケン,ガモウグンリュウオウチョウ,ニシヨコゼキ,滋賀県蒲生郡竜王町西横関
5202572,滋賀県,蒲生郡竜王町,西川,シガケン,ガモウグンリュウオウチョウ,ニシガワ,滋賀県蒲生郡竜王町西川
5202573,滋賀県,蒲生郡竜王町,鏡,シガケン,ガモウグンリュウオウチョウ,カガミ,滋賀県蒲生郡竜王町鏡
5203000,滋賀県,栗東市,,シガケン,リットウシ,,滋賀県栗東市
5203001,滋賀県,栗東市,東坂,シガケン,リットウシ,ヒガシサカ,滋賀県栗東市東坂
5203002,滋賀県,栗東市,観音寺,シガケン,リットウシ,カンオンジ,滋賀県栗東市観音寺
5203003,滋賀県,栗東市,荒張,シガケン,リットウシ,アラハリ,滋賀県栗東市荒張
5203004,滋賀県,栗東市,上砥山,シガケン,リットウシ,カミトヤマ,滋賀県栗東市上砥山
5203005,滋賀県,栗東市,御園,シガケン,リットウシ,ミソノ,滋賀県栗東市御園
5203006,滋賀県,栗東市,井上,シガケン,リットウシ,イノウエ,滋賀県栗東市井上
5203011,滋賀県,栗東市,下戸山,シガケン,リットウシ,シモドヤマ,滋賀県栗東市下戸山
5203012,滋賀県,栗東市,岡,シガケン,リットウシ,オカ,滋賀県栗東市岡
5203013,滋賀県,栗東市,目川,シガケン,リットウシ,メガワ,滋賀県栗東市目川
5203014,滋賀県,栗東市,川辺,シガケン,リットウシ,カワヅラ,滋賀県栗東市川辺
5203015,滋賀県,栗東市,安養寺,シガケン,リットウシ,アンヨウジ,滋賀県栗東市安養寺
5203016,滋賀県,栗東市,小野,シガケン,リットウシ,オノ,滋賀県栗東市小野
5203017,滋賀県,栗東市,六地蔵,シガケン,リットウシ,ロクジゾウ,滋賀県栗東市六地蔵
5203021,滋賀県,栗東市,蜂屋,シガケン,リットウシ,ハチヤ,滋賀県栗東市蜂屋
5203022,滋賀県,栗東市,上鈎,シガケン,リットウシ,カミマガリ,滋賀県栗東市上鈎
5203023,滋賀県,栗東市,坊袋,シガケン,リットウシ,ボウブクロ,滋賀県栗東市坊袋
5203024,滋賀県,栗東市,小柿,シガケン,リットウシ,オガキ,滋賀県栗東市小柿
5203025,滋賀県,栗東市,中沢,シガケン,リットウシ,ナカザワ,滋賀県栗東市中沢
5203026,滋賀県,栗東市,下鈎,シガケン,リットウシ,シモマガリ,滋賀県栗東市下鈎
5203027,滋賀県,栗東市,野尻,シガケン,リットウシ,ノジリ,滋賀県栗東市野尻
5203031,滋賀県,栗東市,綣,シガケン,リットウシ,ヘソ,滋賀県栗東市綣
5203032,滋賀県,栗東市,苅原,シガケン,リットウシ,カリハラ,滋賀県栗東市苅原
5203033,滋賀県,栗東市,笠川,シガケン,リットウシ,カサガワ,滋賀県栗東市笠川
5203034,滋賀県,栗東市,小平井,シガケン,リットウシ,コビライ,滋賀県栗東市小平井
5203035,滋賀県,栗東市,霊仙寺,シガケン,リットウシ,リョウセンジ,滋賀県栗東市霊仙寺
5203036,滋賀県,栗東市,十里,シガケン,リットウシ,ジュウリ,滋賀県栗東市十里
5203037,滋賀県,栗東市,北中小路,シガケン,リットウシ,キタナカコウジ,滋賀県栗東市北中小路
5203041,滋賀県,栗東市,出庭,シガケン,リットウシ,デバ,滋賀県栗東市出庭
5203042,滋賀県,栗東市,辻,シガケン,リットウシ,ツジ,滋賀県栗東市辻
5203043,滋賀県,栗東市,林,シガケン,リットウシ,ハヤシ,滋賀県栗東市林
5203044,滋賀県,栗東市,伊勢落,シガケン,リットウシ,イセオチ,滋賀県栗東市伊勢落
5203045,滋賀県,栗東市,高野,シガケン,リットウシ,タカノ,滋賀県栗東市高野
5203046,滋賀県,栗東市,大橋,シガケン,リットウシ,オオハシ,滋賀県栗東市大橋
5203047,滋賀県,栗東市,手原,シガケン,リットウシ,テハラ,滋賀県栗東市手原
5203101,滋賀県,湖南市,石部,シガケン,コナンシ,イシベ,滋賀県湖南市石部
5203102,滋賀県,湖南市,宮の森,シガケン,コナンシ,ミヤノモリ,滋賀県湖南市宮の森
5203103,滋賀県,湖南市,宝来坂,シガケン,コナンシ,ホウライザカ,滋賀県湖南市宝来坂
5203104,滋賀県,湖南市,岡出,シガケン,コナンシ,オカデ,滋賀県湖南市岡出
5203105,滋賀県,湖南市,石部西,シガケン,コナンシ,イシベニシ,滋賀県湖南市石部西
5203106,滋賀県,湖南市,石部中央,シガケン,コナンシ,イシベチュウオウ,滋賀県湖南市石部中央
5203107,滋賀県,湖南市,石部東,シガケン,コナンシ,イシベヒガシ,滋賀県湖南市石部東
5203108,滋賀県,湖南市,石部南,シガケン,コナンシ,イシベミナミ,滋賀県湖南市石部南
5203109,滋賀県,湖南市,石部が丘,シガケン,コナンシ,イシベガオカ,滋賀県湖南市石部が丘
5203111,滋賀県,湖南市,東寺,シガケン,コナンシ,ヒガシテラ,滋賀県湖南市東寺
5203112,滋賀県,湖南市,丸山,シガケン,コナンシ,マルヤマ,滋賀県湖南市丸山
5203113,滋賀県,湖南市,石部北,シガケン,コナンシ,イシベキタ,滋賀県湖南市石部北
5203114,滋賀県,湖南市,石部口,シガケン,コナンシ,イシベグチ,滋賀県湖南市石部口
5203115,滋賀県,湖南市,石部緑台,シガケン,コナンシ,イシベミドリダイ,滋賀県湖南市石部緑台
5203116,滋賀県,湖南市,雨山,シガケン,コナンシ,アメヤマ,滋賀県湖南市雨山
5203121,滋賀県,湖南市,西寺,シガケン,コナンシ,ニシテラ,滋賀県湖南市西寺
5203200,滋賀県,湖南市,,シガケン,コナンシ,,滋賀県湖南市
5203201,滋賀県,湖南市,下田,シガケン,コナンシ,シモダ,滋賀県湖南市下田
5203202,滋賀県,湖南市,西峰町,シガケン,コナンシ,ニシミネチョウ,滋賀県湖南市西峰町
5203203,滋賀県,湖南市,日枝町,シガケン,コナンシ,ヒエチョウ,滋賀県湖南市日枝町
5203211,滋賀県,湖南市,高松町,シガケン,コナンシ,タカマツチョウ,滋賀県湖南市高松町
5203212,滋賀県,湖南市,小砂町,シガケン,コナンシ,コスナチョウ,滋賀県湖南市小砂町
5203213,滋賀県,湖南市,大池町,シガケン,コナンシ,オオイケチョウ,滋賀県湖南市大池町
5203214,滋賀県,湖南市,梅影町,シガケン,コナンシ,ウメカゲチョウ,滋賀県湖南市梅影町
5203215,滋賀県,湖南市,水戸町,シガケン,コナンシ,ミトチョウ,滋賀県湖南市水戸町
5203216,滋賀県,湖南市,若竹町,シガケン,コナンシ,ワカタケチョウ,滋賀県湖南市若竹町
5203221,滋賀県,湖南市,三雲,シガケン,コナンシ,ミクモ,滋賀県湖南市三雲
5203222,滋賀県,湖南市,吉永,シガケン,コナンシ,ヨシナガ,滋賀県湖南市吉永
5203223,滋賀県,湖南市,夏見,シガケン,コナンシ,ナツミ,滋賀県湖南市夏見
5203231,滋賀県,湖南市,針,シガケン,コナンシ,ハリ,滋賀県湖南市針
5203232,滋賀県,湖南市,平松,シガケン,コナンシ,ヒラマツ,滋賀県湖南市平松
5203233,滋賀県,湖南市,柑子袋,シガケン,コナンシ,コウジブクロ,滋賀県湖南市柑子袋
5203234,滋賀県,湖南市,中央,シガケン,コナンシ,チュウオウ,滋賀県湖南市中央
5203235,滋賀県,湖南市,平松北,シガケン,コナンシ,ヒラマツキタ,滋賀県湖南市平松北
5203236,滋賀県,湖南市,柑子袋東,シガケン,コナンシ,コウジブクロヒガシ,滋賀県湖南市柑子袋東
5203237,滋賀県,湖南市,柑子袋西,シガケン,コナンシ,コウジブクロニシ,滋賀県湖南市柑子袋西
5203241,滋賀県,湖南市,北山台,シガケン,コナンシ,キタヤマダイ,滋賀県湖南市北山台
5203242,滋賀県,湖南市,菩提寺,シガケン,コナンシ,ボダイジ,滋賀県湖南市菩提寺
5203244,滋賀県,湖南市,サイドタウン,シガケン,コナンシ,サイドタウン,滋賀県湖南市サイドタウン
5203245,滋賀県,湖南市,近江台,シガケン,コナンシ,オウミダイ,滋賀県湖南市近江台
5203246,滋賀県,湖南市,菩提寺北,シガケン,コナンシ,ボダイジキタ,滋賀県湖南市菩提寺北
5203247,滋賀県,湖南市,菩提寺東,シガケン,コナンシ,ボダイジヒガシ,滋賀県湖南市菩提寺東
5203248,滋賀県,湖南市,菩提寺西,シガケン,コナンシ,ボダイジニシ,滋賀県湖南市菩提寺西
5203251,滋賀県,湖南市,朝国,シガケン,コナンシ,アサクニ,滋賀県湖南市朝国
5203252,滋賀県,湖南市,岩根,シガケン,コナンシ,イワネ,滋賀県湖南市岩根
5203253,滋賀県,湖南市,正福寺,シガケン,コナンシ,ショウフクジ,滋賀県湖南市正福寺
5203254,滋賀県,湖南市,岩根中央,シガケン,コナンシ,イワネチュウオウ,滋賀県湖南市岩根中央
5203255,滋賀県,湖南市,日枝山手台,シガケン,コナンシ,ヒエヤマテダイ,滋賀県湖南市日枝山手台
5203256,滋賀県,湖南市,日枝あおい,シガケン,コナンシ,ヒエアオイ,滋賀県湖南市日枝あおい
5203301,滋賀県,甲賀市,甲南町寺庄,シガケン,コウカシ,コウナンチョウテラショウ,滋賀県甲賀市甲南町寺庄
5203302,滋賀県,甲賀市,甲南町池田,シガケン,コウカシ,コウナンチョウイケダ,滋賀県甲賀市甲南町池田
5203303,滋賀県,甲賀市,甲南町上馬杉,シガケン,コウカシ,コウナンチョウカミマスギ,滋賀県甲賀市甲南町上馬杉
5203304,滋賀県,甲賀市,甲南町下馬杉,シガケン,コウカシ,コウナンチョウシモマスギ,滋賀県甲賀市甲南町下馬杉
5203305,滋賀県,甲賀市,甲南町野川,シガケン,コウカシ,コウナンチョウノガワ,滋賀県甲賀市甲南町野川
5203306,滋賀県,甲賀市,甲南町柑子,シガケン,コウカシ,コウナンチョウコオジ,滋賀県甲賀市甲南町柑子
5203307,滋賀県,甲賀市,甲南町野尻,シガケン,コウカシ,コウナンチョウノジリ,滋賀県甲賀市甲南町野尻
5203308,滋賀県,甲賀市,甲南町野田,シガケン,コウカシ,コウナンチョウノダ,滋賀県甲賀市甲南町野田
5203311,滋賀県,甲賀市,甲南町竜法師,シガケン,コウカシ,コウナンチョウリュウボウシ,滋賀県甲賀市甲南町竜法師
5203312,滋賀県,甲賀市,甲南町磯尾,シガケン,コウカシ,コウナンチョウイソオ,滋賀県甲賀市甲南町磯尾
5203313,滋賀県,甲賀市,甲南町新治,シガケン,コウカシ,コウナンチョウシンジ,滋賀県甲賀市甲南町新治
5203314,滋賀県,甲賀市,甲南町杉谷,シガケン,コウカシ,コウナンチョウスギタニ,滋賀県甲賀市甲南町杉谷
5203315,滋賀県,甲賀市,甲南町塩野,シガケン,コウカシ,コウナンチョウシオノ,滋賀県甲賀市甲南町塩野
5203316,滋賀県,甲賀市,甲南町市原,シガケン,コウカシ,コウナンチョウイチハラ,滋賀県甲賀市甲南町市原
5203321,滋賀県,甲賀市,甲南町葛木,シガケン,コウカシ,コウナンチョウカヅラキ,滋賀県甲賀市甲南町葛木
5203322,滋賀県,甲賀市,甲南町深川,シガケン,コウカシ,コウナンチョウフカワ,滋賀県甲賀市甲南町深川
5203323,滋賀県,甲賀市,甲南町深川市場,シガケン,コウカシ,コウナンチョウフカワイチバ,滋賀県甲賀市甲南町深川市場
5203324,滋賀県,甲賀市,甲南町森尻,シガケン,コウカシ,コウナンチョウモリシリ,滋賀県甲賀市甲南町森尻
5203325,滋賀県,甲賀市,甲南町宝木,シガケン,コウカシ,コウナンチョウホウノキ,滋賀県甲賀市甲南町宝木
5203326,滋賀県,甲賀市,甲南町耕心,シガケン,コウカシ,コウナンチョウコウシン,滋賀県甲賀市甲南町耕心
5203331,滋賀県,甲賀市,甲南町稗谷,シガケン,コウカシ,コウナンチョウヒエダニ,滋賀県甲賀市甲南町稗谷
5203332,滋賀県,甲賀市,甲南町希望ケ丘本町,シガケン,コウカシ,コウナンチョウキボウガオカホンマチ,滋賀県甲賀市甲南町希望ケ丘本町
5203333,滋賀県,甲賀市,甲南町希望ケ丘,シガケン,コウカシ,コウナンチョウキボウガオカ,滋賀県甲賀市甲南町希望ケ丘
5203401,滋賀県,甲賀市,甲賀町岩室,シガケン,コウカシ,コウカチョウイワムロ,滋賀県甲賀市甲賀町岩室
5203402,滋賀県,甲賀市,甲賀町小佐治,シガケン,コウカシ,コウカチョウコサジ,滋賀県甲賀市甲賀町小佐治
5203403,滋賀県,甲賀市,甲賀町鳥居野,シガケン,コウカシ,コウカチョウトリイノ,滋賀県甲賀市甲賀町鳥居野
5203404,滋賀県,甲賀市,甲賀町神保,シガケン,コウカシ,コウカチョウジンボ,滋賀県甲賀市甲賀町神保
5203405,滋賀県,甲賀市,甲賀町隠岐,シガケン,コウカシ,コウカチョウオキ,滋賀県甲賀市甲賀町隠岐
5203411,滋賀県,甲賀市,甲賀町神,シガケン,コウカシ,コウカチョウカミ,滋賀県甲賀市甲賀町神
5203412,滋賀県,甲賀市,甲賀町櫟野,シガケン,コウカシ,コウカチョウイチノ,滋賀県甲賀市甲賀町櫟野
5203413,滋賀県,甲賀市,甲賀町油日,シガケン,コウカシ,コウカチョウアブラヒ,滋賀県甲賀市甲賀町油日
5203414,滋賀県,甲賀市,甲賀町大久保,シガケン,コウカシ,コウカチョウオオクボ,滋賀県甲賀市甲賀町大久保
5203415,滋賀県,甲賀市,甲賀町大原上田,シガケン,コウカシ,コウカチョウオオハラウエダ,滋賀県甲賀市甲賀町大原上田
5203421,滋賀県,甲賀市,甲賀町上野,シガケン,コウカシ,コウカチョウウエノ,滋賀県甲賀市甲賀町上野
5203422,滋賀県,甲賀市,甲賀町和田,シガケン,コウカシ,コウカチョウワタ,滋賀県甲賀市甲賀町和田
5203423,滋賀県,甲賀市,甲賀町五反田,シガケン,コウカシ,コウカチョウゴタンダ,滋賀県甲賀市甲賀町五反田
5203424,滋賀県,甲賀市,甲賀町高嶺,シガケン,コウカシ,コウカチョウタカミネ,滋賀県甲賀市甲賀町高嶺
5203425,滋賀県,甲賀市,甲賀町毛枚,シガケン,コウカシ,コウカチョウモビラ,滋賀県甲賀市甲賀町毛枚
5203426,滋賀県,甲賀市,甲賀町田堵野,シガケン,コウカシ,コウカチョウタドノ,滋賀県甲賀市甲賀町田堵野
5203427,滋賀県,甲賀市,甲賀町鹿深台,シガケン,コウカシ,コウカチョウカフカダイ,滋賀県甲賀市甲賀町鹿深台
5203431,滋賀県,甲賀市,甲賀町大原中,シガケン,コウカシ,コウカチョウオオハラナカ,滋賀県甲賀市甲賀町大原中
5203432,滋賀県,甲賀市,甲賀町滝,シガケン,コウカシ,コウカチョウタキ,滋賀県甲賀市甲賀町滝
5203433,滋賀県,甲賀市,甲賀町大原市場,シガケン,コウカシ,コウカチョウオオハライチバ,滋賀県甲賀市甲賀町大原市場
5203434,滋賀県,甲賀市,甲賀町高野,シガケン,コウカシ,コウカチョウタカノ,滋賀県甲賀市甲賀町高野
5203435,滋賀県,甲賀市,甲賀町相模,シガケン,コウカシ,コウカチョウサガミ,滋賀県甲賀市甲賀町相模
5203436,滋賀県,甲賀市,甲賀町拝坂,シガケン,コウカシ,コウカチョウハイサカ,滋賀県甲賀市甲賀町拝坂
5210000,滋賀県,米原市,,シガケン,マイバラシ,,滋賀県米原市
5210001,滋賀県,米原市,朝妻筑摩,シガケン,マイバラシ,アサヅマチクマ,滋賀県米原市朝妻筑摩
5210002,滋賀県,米原市,上多良,シガケン,マイバラシ,カミタラ,滋賀県米原市上多良
5210003,滋賀県,米原市,入江,シガケン,マイバラシ,イリエ,滋賀県米原市入江
5210004,滋賀県,米原市,磯,シガケン,マイバラシ,イソ,滋賀県米原市磯
5210011,滋賀県,米原市,中多良,シガケン,マイバラシ,ナカタラ,滋賀県米原市中多良
5210012,滋賀県,米原市,米原,シガケン,マイバラシ,マイハラ,滋賀県米原市米原
5210013,滋賀県,米原市,梅ケ原,シガケン,マイバラシ,ウメガハラ,滋賀県米原市梅ケ原
5210014,滋賀県,米原市,梅ケ原栄,シガケン,マイバラシ,ウメガハラサカエ,滋賀県米原市梅ケ原栄
5210015,滋賀県,米原市,米原西,シガケン,マイバラシ,マイバラニシ,滋賀県米原市米原西
5210016,滋賀県,米原市,下多良,シガケン,マイバラシ,シモタラ,滋賀県米原市下多良
5210021,滋賀県,米原市,河南,シガケン,マイバラシ,カワナミ,滋賀県米原市河南
5210022,滋賀県,米原市,樋口,シガケン,マイバラシ,ヒグチ,滋賀県米原市樋口
5210023,滋賀県,米原市,三吉,シガケン,マイバラシ,ミヨシ,滋賀県米原市三吉
5210024,滋賀県,米原市,西坂,シガケン,マイバラシ,ニシサカ,滋賀県米原市西坂
5210025,滋賀県,米原市,番場,シガケン,マイバラシ,バンバ,滋賀県米原市番場
5210031,滋賀県,米原市,一色,シガケン,マイバラシ,イッシキ,滋賀県米原市一色
5210032,滋賀県,米原市,枝折,シガケン,マイバラシ,シオリ,滋賀県米原市枝折
5210033,滋賀県,米原市,上丹生,シガケン,マイバラシ,カミニュウ,滋賀県米原市上丹生
5210034,滋賀県,米原市,下丹生,シガケン,マイバラシ,シモニュウ,滋賀県米原市下丹生
5210035,滋賀県,米原市,醒井,シガケン,マイバラシ,サメガイ,滋賀県米原市醒井
5210061,滋賀県,米原市,長沢,シガケン,マイバラシ,ナガサワ,滋賀県米原市長沢
5210062,滋賀県,米原市,宇賀野,シガケン,マイバラシ,ウカノ,滋賀県米原市宇賀野
5210063,滋賀県,米原市,飯,シガケン,マイバラシ,イ,滋賀県米原市飯
5210064,滋賀県,米原市,世継,シガケン,マイバラシ,ヨツギ,滋賀県米原市世継
5210071,滋賀県,米原市,舟崎,シガケン,マイバラシ,フナサキ,滋賀県米原市舟崎
5210072,滋賀県,米原市,顔戸,シガケン,マイバラシ,ゴウド,滋賀県米原市顔戸
5210073,滋賀県,米原市,箕浦,シガケン,マイバラシ,ミノウラ,滋賀県米原市箕浦
5210074,滋賀県,米原市,高溝,シガケン,マイバラシ,タカミゾ,滋賀県米原市高溝
5210081,滋賀県,米原市,多和田,シガケン,マイバラシ,タワダ,滋賀県米原市多和田
5210082,滋賀県,米原市,能登瀬,シガケン,マイバラシ,ノトセ,滋賀県米原市能登瀬
5210083,滋賀県,米原市,新庄,シガケン,マイバラシ,シンジョウ,滋賀県米原市新庄
5210084,滋賀県,米原市,日光寺,シガケン,マイバラシ,ニッコウジ,滋賀県米原市日光寺
5210091,滋賀県,米原市,岩脇,シガケン,マイバラシ,イオギ,滋賀県米原市岩脇
5210092,滋賀県,米原市,西円寺,シガケン,マイバラシ,サイエンジ,滋賀県米原市西円寺
5210093,滋賀県,米原市,寺倉,シガケン,マイバラシ,テラクラ,滋賀県米原市寺倉
5210201,滋賀県,米原市,長久寺,シガケン,マイバラシ,チョウキュウジ,滋賀県米原市長久寺
5210202,滋賀県,米原市,柏原,シガケン,マイバラシ,カシワバラ,滋賀県米原市柏原
5210203,滋賀県,米原市,清滝,シガケン,マイバラシ,キヨタキ,滋賀県米原市清滝
5210211,滋賀県,米原市,梓河内,シガケン,マイバラシ,アンサカワチ,滋賀県米原市梓河内
5210212,滋賀県,米原市,本郷,シガケン,マイバラシ,ホンゴウ,滋賀県米原市本郷
5210213,滋賀県,米原市,堂谷,シガケン,マイバラシ,ドウダニ,滋賀県米原市堂谷
5210214,滋賀県,米原市,大鹿,シガケン,マイバラシ,オオシカ,滋賀県米原市大鹿
5210215,滋賀県,米原市,山室,シガケン,マイバラシ,ヤマムロ,滋賀県米原市山室
5210216,滋賀県,米原市,菅江,シガケン,マイバラシ,スエ,滋賀県米原市菅江
5210217,滋賀県,米原市,北方,シガケン,マイバラシ,キタガタ,滋賀県米原市北方
5210218,滋賀県,米原市,志賀谷,シガケン,マイバラシ,シガヤ,滋賀県米原市志賀谷
5210219,滋賀県,米原市,加勢野,シガケン,マイバラシ,カセノ,滋賀県米原市加勢野
5210221,滋賀県,米原市,池下,シガケン,マイバラシ,イケシタ,滋賀県米原市池下
5210222,滋賀県,米原市,天満,シガケン,マイバラシ,テンマ,滋賀県米原市天満
5210223,滋賀県,米原市,本市場,シガケン,マイバラシ,モトイチバ,滋賀県米原市本市場
5210224,滋賀県,米原市,夫馬,シガケン,マイバラシ,ブマ,滋賀県米原市夫馬
5210225,滋賀県,米原市,市場,シガケン,マイバラシ,イチバ,滋賀県米原市市場
5210226,滋賀県,米原市,朝日,シガケン,マイバラシ,アサヒ,滋賀県米原市朝日
5210227,滋賀県,米原市,烏脇,シガケン,マイバラシ,カラスワキ,滋賀県米原市烏脇
5210231,滋賀県,米原市,村居田,シガケン,マイバラシ,ムライダ,滋賀県米原市村居田
5210232,滋賀県,米原市,坂口,シガケン,マイバラシ,サカグチ,滋賀県米原市坂口
5210233,滋賀県,米原市,野一色,シガケン,マイバラシ,ノイシキ,滋賀県米原市野一色
5210234,滋賀県,米原市,井之口,シガケン,マイバラシ,イノクチ,滋賀県米原市井之口
5210235,滋賀県,米原市,小田,シガケン,マイバラシ,ヤナイダ,滋賀県米原市小田
5210236,滋賀県,米原市,間田,シガケン,マイバラシ,ハサマタ,滋賀県米原市間田
5210241,滋賀県,米原市,西山,シガケン,マイバラシ,ニシヤマ,滋賀県米原市西山
5210242,滋賀県,米原市,長岡,シガケン,マイバラシ,ナガオカ,滋賀県米原市長岡
5210243,滋賀県,米原市,万願寺,シガケン,マイバラシ,マンガンジ,滋賀県米原市万願寺
5210244,滋賀県,米原市,大野木,シガケン,マイバラシ,オオノギ,滋賀県米原市大野木
5210245,滋賀県,米原市,須川,シガケン,マイバラシ,スガワ,滋賀県米原市須川
5210301,滋賀県,米原市,甲津原,シガケン,マイバラシ,コウヅハラ,滋賀県米原市甲津原
5210302,滋賀県,米原市,曲谷,シガケン,マイバラシ,マガタニ,滋賀県米原市曲谷
5210303,滋賀県,米原市,甲賀,シガケン,マイバラシ,コウガ,滋賀県米原市甲賀
5210304,滋賀県,米原市,吉槻,シガケン,マイバラシ,ヨシツキ,滋賀県米原市吉槻
5210305,滋賀県,米原市,上板並,シガケン,マイバラシ,カミイタナミ,滋賀県米原市上板並
5210306,滋賀県,米原市,下板並,シガケン,マイバラシ,シモイタナミ,滋賀県米原市下板並
5210307,滋賀県,米原市,大久保,シガケン,マイバラシ,オオクボ,滋賀県米原市大久保
5210308,滋賀県,米原市,小泉,シガケン,マイバラシ,コイズミ,滋賀県米原市小泉
5210311,滋賀県,米原市,伊吹,シガケン,マイバラシ,イブキ,滋賀県米原市伊吹
5210312,滋賀県,米原市,上野,シガケン,マイバラシ,ウエノ,滋賀県米原市上野
5210313,滋賀県,米原市,弥高,シガケン,マイバラシ,ヤタカ,滋賀県米原市弥高
5210314,滋賀県,米原市,春照,シガケン,マイバラシ,スイジョウ,滋賀県米原市春照
5210321,滋賀県,米原市,高番,シガケン,マイバラシ,タカバン,滋賀県米原市高番
5210322,滋賀県,米原市,杉沢,シガケン,マイバラシ,スギサワ,滋賀県米原市杉沢
5210323,滋賀県,米原市,村木,シガケン,マイバラシ,ムラギ,滋賀県米原市村木
5210324,滋賀県,米原市,大清水,シガケン,マイバラシ,オオシミズ,滋賀県米原市大清水
5210325,滋賀県,米原市,藤川,シガケン,マイバラシ,フジカワ,滋賀県米原市藤川
5210326,滋賀県,米原市,寺林,シガケン,マイバラシ,テラバヤシ,滋賀県米原市寺林
5210327,滋賀県,米原市,上平寺,シガケン,マイバラシ,ジョウヘイジ,滋賀県米原市上平寺
5211101,滋賀県,彦根市,石寺町,シガケン,ヒコネシ,イシデラチョウ,滋賀県彦根市石寺町
5211102,滋賀県,彦根市,下岡部町,シガケン,ヒコネシ,シモオカベチョウ,滋賀県彦根市下岡部町
5211103,滋賀県,彦根市,上岡部町,シガケン,ヒコネシ,カミオカベチョウ,滋賀県彦根市上岡部町
5211104,滋賀県,彦根市,出路町,シガケン,ヒコネシ,デッチチョウ,滋賀県彦根市出路町
5211105,滋賀県,彦根市,田原町,シガケン,ヒコネシ,タワラチョウ,滋賀県彦根市田原町
5211111,滋賀県,彦根市,稲里町,シガケン,ヒコネシ,イナサトチョウ,滋賀県彦根市稲里町
5211112,滋賀県,彦根市,金沢町,シガケン,ヒコネシ,カナザワチョウ,滋賀県彦根市金沢町
5211113,滋賀県,彦根市,稲部町,シガケン,ヒコネシ,イナベチョウ,滋賀県彦根市稲部町
5211114,滋賀県,彦根市,彦富町,シガケン,ヒコネシ,ヒコトミチョウ,滋賀県彦根市彦富町
5211115,滋賀県,彦根市,金田町,シガケン,ヒコネシ,カネダチョウ,滋賀県彦根市金田町
5211121,滋賀県,彦根市,海瀬町,シガケン,ヒコネシ,カイゼチョウ,滋賀県彦根市海瀬町
5211122,滋賀県,彦根市,三津町,シガケン,ヒコネシ,ミツチョウ,滋賀県彦根市三津町
5211123,滋賀県,彦根市,肥田町,シガケン,ヒコネシ,ヒダチョウ,滋賀県彦根市肥田町
5211124,滋賀県,彦根市,野良田町,シガケン,ヒコネシ,ノラダチョウ,滋賀県彦根市野良田町
5211125,滋賀県,彦根市,稲枝町,シガケン,ヒコネシ,イナエチョウ,滋賀県彦根市稲枝町
5211126,滋賀県,彦根市,服部町,シガケン,ヒコネシ,ハツトリチョウ,滋賀県彦根市服部町
5211131,滋賀県,彦根市,上稲葉町,シガケン,ヒコネシ,カミイナバチョウ,滋賀県彦根市上稲葉町
5211132,滋賀県,彦根市,下稲葉町,シガケン,ヒコネシ,シモイナバチョウ,滋賀県彦根市下稲葉町
5211133,滋賀県,彦根市,本庄町,シガケン,ヒコネシ,ホンジョウチョウ,滋賀県彦根市本庄町
5211134,滋賀県,彦根市,田附町,シガケン,ヒコネシ,タヅケチョウ,滋賀県彦根市田附町
5211135,滋賀県,彦根市,新海町,シガケン,ヒコネシ,シンガイチョウ,滋賀県彦根市新海町
5211136,滋賀県,彦根市,新海浜,シガケン,ヒコネシ,シンガイハマ,滋賀県彦根市新海浜
5211141,滋賀県,彦根市,甲崎町,シガケン,ヒコネシ,コウザキチョウ,滋賀県彦根市甲崎町
5211142,滋賀県,彦根市,下西川町,シガケン,ヒコネシ,シモニシガワチョウ,滋賀県彦根市下西川町
5211143,滋賀県,彦根市,上西川町,シガケン,ヒコネシ,カミニシガワチョウ,滋賀県彦根市上西川町
5211144,滋賀県,彦根市,普光寺町,シガケン,ヒコネシ,フコウジチョウ,滋賀県彦根市普光寺町
5211145,滋賀県,彦根市,南三ツ谷町,シガケン,ヒコネシ,ミナミミツヤチョウ,滋賀県彦根市南三ツ谷町
5211146,滋賀県,彦根市,柳川町,シガケン,ヒコネシ,ヤナガワチョウ,滋賀県彦根市柳川町
5211147,滋賀県,彦根市,薩摩町,シガケン,ヒコネシ,サツマチョウ,滋賀県彦根市薩摩町
5211201,滋賀県,東近江市,新宮町,シガケン,ヒガシオウミシ,シングウチョウ,滋賀県東近江市新宮町
5211202,滋賀県,東近江市,阿弥陀堂町,シガケン,ヒガシオウミシ,アミダドウチョウ,滋賀県東近江市阿弥陀堂町
5211203,滋賀県,東近江市,川南町,シガケン,ヒガシオウミシ,カワミナミチョウ,滋賀県東近江市川南町
5211204,滋賀県,東近江市,小川町,シガケン,ヒガシオウミシ,オガワチョウ,滋賀県東近江市小川町
5211205,滋賀県,東近江市,躰光寺町,シガケン,ヒガシオウミシ,タイコウジチョウ,滋賀県東近江市躰光寺町
5211211,滋賀県,東近江市,今町,シガケン,ヒガシオウミシ,イマチョウ,滋賀県東近江市今町
5211212,滋賀県,東近江市,種町,シガケン,ヒガシオウミシ,タネチョウ,滋賀県東近江市種町
5211213,滋賀県,東近江市,神郷町,シガケン,ヒガシオウミシ,ジンゴウチョウ,滋賀県東近江市神郷町
5211214,滋賀県,東近江市,長勝寺町,シガケン,ヒガシオウミシ,チョウショウジチョウ,滋賀県東近江市長勝寺町
5211215,滋賀県,東近江市,佐生町,シガケン,ヒガシオウミシ,サソチョウ,滋賀県東近江市佐生町
5211221,滋賀県,東近江市,垣見町,シガケン,ヒガシオウミシ,カキミチョウ,滋賀県東近江市垣見町
5211222,滋賀県,東近江市,佐野町,シガケン,ヒガシオウミシ,サノチョウ,滋賀県東近江市佐野町
5211223,滋賀県,東近江市,猪子町,シガケン,ヒガシオウミシ,イノコチョウ,滋賀県東近江市猪子町
5211224,滋賀県,東近江市,林町,シガケン,ヒガシオウミシ,ハヤシチョウ,滋賀県東近江市林町
5211225,滋賀県,東近江市,山路町,シガケン,ヒガシオウミシ,ヤマジチョウ,滋賀県東近江市山路町
5211231,滋賀県,東近江市,能登川町,シガケン,ヒガシオウミシ,ノトガワチョウ,滋賀県東近江市能登川町
5211232,滋賀県,東近江市,北須田町,シガケン,ヒガシオウミシ,キタスダチョウ,滋賀県東近江市北須田町
5211233,滋賀県,東近江市,南須田町,シガケン,ヒガシオウミシ,ミナミスダチョウ,滋賀県東近江市南須田町
5211234,滋賀県,東近江市,きぬがさ町,シガケン,ヒガシオウミシ,キヌガサチョウ,滋賀県東近江市きぬがさ町
5211235,滋賀県,東近江市,伊庭町,シガケン,ヒガシオウミシ,イバチョウ,滋賀県東近江市伊庭町
5211241,滋賀県,東近江市,乙女浜町,シガケン,ヒガシオウミシ,オトメハマチョウ,滋賀県東近江市乙女浜町
5211242,滋賀県,東近江市,福堂町,シガケン,ヒガシオウミシ,フクドウチョウ,滋賀県東近江市福堂町
5211243,滋賀県,東近江市,栗見新田町,シガケン,ヒガシオウミシ,クリミシンデンチョウ,滋賀県東近江市栗見新田町
5211244,滋賀県,東近江市,大中町,シガケン,ヒガシオウミシ,ダイナカチョウ,滋賀県東近江市大中町
5211245,滋賀県,東近江市,栗見出在家町,シガケン,ヒガシオウミシ,クリミデザイケチョウ,滋賀県東近江市栗見出在家町
5211301,滋賀県,近江八幡市,安土町大中,シガケン,オウミハチマンシ,アヅチチョウダイナカ,滋賀県近江八幡市安土町大中
5211311,滋賀県,近江八幡市,安土町下豊浦,シガケン,オウミハチマンシ,アヅチチョウシモトイラ,滋賀県近江八幡市安土町下豊浦
5211321,滋賀県,近江八幡市,安土町桑実寺,シガケン,オウミハチマンシ,アヅチチョウクワノミジ,滋賀県近江八幡市安土町桑実寺
5211322,滋賀県,近江八幡市,安土町宮津,シガケン,オウミハチマンシ,アヅチチョウミヤヅ,滋賀県近江八幡市安土町宮津
5211331,滋賀県,近江八幡市,安土町石寺,シガケン,オウミハチマンシ,アヅチチョウイシデラ,滋賀県近江八幡市安土町石寺
5211332,滋賀県,近江八幡市,安土町東老蘇,シガケン,オウミハチマンシ,アヅチチョウヒガシオイソ,滋賀県近江八幡市安土町東老蘇
5211333,滋賀県,近江八幡市,安土町内野,シガケン,オウミハチマンシ,アヅチチョウウチノ,滋賀県近江八幡市安土町内野
5211334,滋賀県,近江八幡市,安土町西老蘇,シガケン,オウミハチマンシ,アヅチチョウニシオイソ,滋賀県近江八幡市安土町西老蘇
5211341,滋賀県,近江八幡市,安土町上豊浦,シガケン,オウミハチマンシ,アヅチチョウカミトヨウラ,滋賀県近江八幡市安土町上豊浦
5211342,滋賀県,近江八幡市,安土町上出,シガケン,オウミハチマンシ,アヅチチョウカミデ,滋賀県近江八幡市安土町上出
5211343,滋賀県,近江八幡市,安土町小中,シガケン,オウミハチマンシ,アヅチチョウコナカ,滋賀県近江八幡市安土町小中
5211344,滋賀県,近江八幡市,安土町中屋,シガケン,オウミハチマンシ,アヅチチョウナカヤ,滋賀県近江八幡市安土町中屋
5211345,滋賀県,近江八幡市,安土町慈恩寺,シガケン,オウミハチマンシ,アヅチチョウジオンジ,滋賀県近江八幡市安土町慈恩寺
5211346,滋賀県,近江八幡市,安土町香庄,シガケン,オウミハチマンシ,アヅチチョウコノショウ,滋賀県近江八幡市安土町香庄
5211351,滋賀県,近江八幡市,安土町常楽寺,シガケン,オウミハチマンシ,アヅチチョウジョウラクジ,滋賀県近江八幡市安土町常楽寺
5220000,滋賀県,彦根市,,シガケン,ヒコネシ,,滋賀県彦根市
5220001,滋賀県,彦根市,尾末町,シガケン,ヒコネシ,オスエチョウ,滋賀県彦根市尾末町
5220002,滋賀県,彦根市,松原,シガケン,ヒコネシ,マツバラ,滋賀県彦根市松原
5220002,滋賀県,彦根市,松原町,シガケン,ヒコネシ,マツバラチョウ,滋賀県彦根市松原町
5220003,滋賀県,彦根市,宮田町,シガケン,ヒコネシ,ミヤタチョウ,滋賀県彦根市宮田町
5220004,滋賀県,彦根市,鳥居本町,シガケン,ヒコネシ,トリイモトチョウ,滋賀県彦根市鳥居本町
5220005,滋賀県,彦根市,小野町,シガケン,ヒコネシ,オノチョウ,滋賀県彦根市小野町
5220006,滋賀県,彦根市,佐和山町,シガケン,ヒコネシ,サワヤマチョウ,滋賀県彦根市佐和山町
5220007,滋賀県,彦根市,古沢町,シガケン,ヒコネシ,フルサワチョウ,滋賀県彦根市古沢町
5220008,滋賀県,彦根市,安清東町,シガケン,ヒコネシ,ヤスキヨヒガシマチ,滋賀県彦根市安清東町
5220009,滋賀県,彦根市,外町,シガケン,ヒコネシ,トマチ,滋賀県彦根市外町
5220010,滋賀県,彦根市,駅東町,シガケン,ヒコネシ,エキヒガシチョウ,滋賀県彦根市駅東町
5220011,滋賀県,彦根市,下矢倉町,シガケン,ヒコネシ,シモヤグラチョウ,滋賀県彦根市下矢倉町
5220012,滋賀県,彦根市,甲田町,シガケン,ヒコネシ,コウタチョウ,滋賀県彦根市甲田町
5220013,滋賀県,彦根市,中山町,シガケン,ヒコネシ,ナカヤマチョウ,滋賀県彦根市中山町
5220014,滋賀県,彦根市,善谷町,シガケン,ヒコネシ,ゼンダニチョウ,滋賀県彦根市善谷町
5220015,滋賀県,彦根市,荘厳寺町,シガケン,ヒコネシ,ショウゴンジチョウ,滋賀県彦根市荘厳寺町
5220016,滋賀県,彦根市,武奈町,シガケン,ヒコネシ,ブナチョウ,滋賀県彦根市武奈町
5220017,滋賀県,彦根市,男鬼町,シガケン,ヒコネシ,オオリチョウ,滋賀県彦根市男鬼町
5220018,滋賀県,彦根市,仏生寺町,シガケン,ヒコネシ,ブツショウジチョウ,滋賀県彦根市仏生寺町
5220019,滋賀県,彦根市,笹尾町,シガケン,ヒコネシ,ササオチョウ,滋賀県彦根市笹尾町
5220021,滋賀県,彦根市,幸町,シガケン,ヒコネシ,サイワイチョウ,滋賀県彦根市幸町
5220022,滋賀県,彦根市,里根町,シガケン,ヒコネシ,サトネチョウ,滋賀県彦根市里根町
5220023,滋賀県,彦根市,原町,シガケン,ヒコネシ,ハラチョウ,滋賀県彦根市原町
5220024,滋賀県,彦根市,正法寺町,シガケン,ヒコネシ,ショウボウジチョウ,滋賀県彦根市正法寺町
5220025,滋賀県,彦根市,野田山町,シガケン,ヒコネシ,ノダヤマチョウ,滋賀県彦根市野田山町
5220026,滋賀県,彦根市,大堀町,シガケン,ヒコネシ,オオボリチョウ,滋賀県彦根市大堀町
5220027,滋賀県,彦根市,東沼波町,シガケン,ヒコネシ,ヒガシノナミチョウ,滋賀県彦根市東沼波町
5220029,滋賀県,彦根市,地蔵町,シガケン,ヒコネシ,ジゾウチョウ,滋賀県彦根市地蔵町
5220031,滋賀県,彦根市,芹中町,シガケン,ヒコネシ,セリナカマチ,滋賀県彦根市芹中町
5220032,滋賀県,彦根市,芹町,シガケン,ヒコネシ,セリマチ,滋賀県彦根市芹町
5220033,滋賀県,彦根市,芹川町,シガケン,ヒコネシ,セリカワチョウ,滋賀県彦根市芹川町
5220034,滋賀県,彦根市,大橋町,シガケン,ヒコネシ,オオハシマチ,滋賀県彦根市大橋町
5220035,滋賀県,彦根市,元岡町,シガケン,ヒコネシ,モトオカマチ,滋賀県彦根市元岡町
5220036,滋賀県,彦根市,沼波町,シガケン,ヒコネシ,ノナミマチ,滋賀県彦根市沼波町
5220037,滋賀県,彦根市,岡町,シガケン,ヒコネシ,オカマチ,滋賀県彦根市岡町
5220038,滋賀県,彦根市,山之脇町,シガケン,ヒコネシ,ヤマノワキチョウ,滋賀県彦根市山之脇町
5220038,滋賀県,彦根市,西沼波町,シガケン,ヒコネシ,ニシノナミチョウ,滋賀県彦根市西沼波町
5220039,滋賀県,彦根市,和田町,シガケン,ヒコネシ,ワダチョウ,滋賀県彦根市和田町
5220041,滋賀県,彦根市,平田町,シガケン,ヒコネシ,ヒラタチョウ,滋賀県彦根市平田町
5220042,滋賀県,彦根市,戸賀町,シガケン,ヒコネシ,トガチョウ,滋賀県彦根市戸賀町
5220043,滋賀県,彦根市,小泉町,シガケン,ヒコネシ,コイズミチョウ,滋賀県彦根市小泉町
5220044,滋賀県,彦根市,竹ケ鼻町,シガケン,ヒコネシ,タケガハナチョウ,滋賀県彦根市竹ケ鼻町
5220045,滋賀県,彦根市,宇尾町（その他）,シガケン,ヒコネシ,ウオチョウ(ソノタ),滋賀県彦根市宇尾町（その他）
5220046,滋賀県,彦根市,甘呂町,シガケン,ヒコネシ,カンロチョウ,滋賀県彦根市甘呂町
5220047,滋賀県,彦根市,日夏町,シガケン,ヒコネシ,ヒナツチョウ,滋賀県彦根市日夏町
5220051,滋賀県,彦根市,中藪,シガケン,ヒコネシ,ナカヤブ,滋賀県彦根市中藪
5220051,滋賀県,彦根市,中藪町,シガケン,ヒコネシ,ナカヤブチョウ,滋賀県彦根市中藪町
5220052,滋賀県,彦根市,長曽根南町,シガケン,ヒコネシ,ナガソネミナミチョウ,滋賀県彦根市長曽根南町
5220053,滋賀県,彦根市,大藪町,シガケン,ヒコネシ,オオヤブチョウ,滋賀県彦根市大藪町
5220054,滋賀県,彦根市,西今町,シガケン,ヒコネシ,ニシイマチョウ,滋賀県彦根市西今町
5220055,滋賀県,彦根市,野瀬町,シガケン,ヒコネシ,ノセチョウ,滋賀県彦根市野瀬町
5220056,滋賀県,彦根市,開出今町,シガケン,ヒコネシ,カイデイマチョウ,滋賀県彦根市開出今町
5220057,滋賀県,彦根市,八坂町,シガケン,ヒコネシ,ハッサカチョウ,滋賀県彦根市八坂町
5220058,滋賀県,彦根市,須越町,シガケン,ヒコネシ,スゴシチョウ,滋賀県彦根市須越町
5220059,滋賀県,彦根市,三津屋町,シガケン,ヒコネシ,ミツヤチョウ,滋賀県彦根市三津屋町
5220061,滋賀県,彦根市,金亀町,シガケン,ヒコネシ,コンキチョウ,滋賀県彦根市金亀町
5220062,滋賀県,彦根市,立花町,シガケン,ヒコネシ,タチバナチョウ,滋賀県彦根市立花町
5220063,滋賀県,彦根市,中央町,シガケン,ヒコネシ,チュウオウチョウ,滋賀県彦根市中央町
5220064,滋賀県,彦根市,本町,シガケン,ヒコネシ,ホンマチ,滋賀県彦根市本町
5220065,滋賀県,彦根市,池州町,シガケン,ヒコネシ,イケスチョウ,滋賀県彦根市池州町
5220066,滋賀県,彦根市,栄町,シガケン,ヒコネシ,サカエマチ,滋賀県彦根市栄町
5220067,滋賀県,彦根市,長曽根町,シガケン,ヒコネシ,ナガソネチョウ,滋賀県彦根市長曽根町
5220068,滋賀県,彦根市,城町,シガケン,ヒコネシ,シロマチ,滋賀県彦根市城町
5220069,滋賀県,彦根市,馬場,シガケン,ヒコネシ,バンバ,滋賀県彦根市馬場
5220071,滋賀県,彦根市,元町,シガケン,ヒコネシ,モトマチ,滋賀県彦根市元町
5220072,滋賀県,彦根市,船町,シガケン,ヒコネシ,フナマチ,滋賀県彦根市船町
5220073,滋賀県,彦根市,旭町,シガケン,ヒコネシ,アサヒマチ,滋賀県彦根市旭町
5220074,滋賀県,彦根市,大東町,シガケン,ヒコネシ,ダイトウチョウ,滋賀県彦根市大東町
5220075,滋賀県,彦根市,佐和町,シガケン,ヒコネシ,サワチョウ,滋賀県彦根市佐和町
5220081,滋賀県,彦根市,京町,シガケン,ヒコネシ,キョウマチ,滋賀県彦根市京町
5220082,滋賀県,彦根市,安清町,シガケン,ヒコネシ,ヤスキヨチョウ,滋賀県彦根市安清町
5220083,滋賀県,彦根市,河原,シガケン,ヒコネシ,カワラ,滋賀県彦根市河原
5220084,滋賀県,彦根市,橋向町,シガケン,ヒコネシ,ハシムカイチョウ,滋賀県彦根市橋向町
5220085,滋賀県,彦根市,新町,シガケン,ヒコネシ,シンマチ,滋賀県彦根市新町
5220086,滋賀県,彦根市,後三条町,シガケン,ヒコネシ,ゴサンジョウチョウ,滋賀県彦根市後三条町
5220087,滋賀県,彦根市,芹橋,シガケン,ヒコネシ,セリバシ,滋賀県彦根市芹橋
5220088,滋賀県,彦根市,銀座町,シガケン,ヒコネシ,ギンザチョウ,滋賀県彦根市銀座町
5220089,滋賀県,彦根市,錦町,シガケン,ヒコネシ,ニシキマチ,滋賀県彦根市錦町
5220200,滋賀県,犬上郡甲良町,,シガケン,イヌカミグンコウラチョウ,,滋賀県犬上郡甲良町
5220201,滋賀県,彦根市,高宮町,シガケン,ヒコネシ,タカミヤチョウ,滋賀県彦根市高宮町
5220211,滋賀県,彦根市,法士町,シガケン,ヒコネシ,ホウゼチョウ,滋賀県彦根市法士町
5220212,滋賀県,彦根市,葛籠町,シガケン,ヒコネシ,ツズラマチ,滋賀県彦根市葛籠町
5220213,滋賀県,彦根市,西葛籠町,シガケン,ヒコネシ,ニシツズラマチ,滋賀県彦根市西葛籠町
5220214,滋賀県,彦根市,出町,シガケン,ヒコネシ,デマチ,滋賀県彦根市出町
5220221,滋賀県,彦根市,野口町,シガケン,ヒコネシ,ノグチチョウ,滋賀県彦根市野口町
5220222,滋賀県,彦根市,南川瀬町,シガケン,ヒコネシ,ミナミカワセチョウ,滋賀県彦根市南川瀬町
5220223,滋賀県,彦根市,川瀬馬場町,シガケン,ヒコネシ,カワセババチョウ,滋賀県彦根市川瀬馬場町
5220231,滋賀県,彦根市,極楽寺町,シガケン,ヒコネシ,ゴクラクジチョウ,滋賀県彦根市極楽寺町
5220232,滋賀県,彦根市,蓮台寺町,シガケン,ヒコネシ,レンダイジチョウ,滋賀県彦根市蓮台寺町
5220233,滋賀県,彦根市,辻堂町,シガケン,ヒコネシ,ツジドウチョウ,滋賀県彦根市辻堂町
5220234,滋賀県,彦根市,森堂町,シガケン,ヒコネシ,モリドウチョウ,滋賀県彦根市森堂町
5220235,滋賀県,彦根市,金剛寺町,シガケン,ヒコネシ,コンゴウジチョウ,滋賀県彦根市金剛寺町
5220236,滋賀県,彦根市,犬方町,シガケン,ヒコネシ,イヌカタチョウ,滋賀県彦根市犬方町
5220237,滋賀県,彦根市,堀町,シガケン,ヒコネシ,ホリチョウ,滋賀県彦根市堀町
5220238,滋賀県,彦根市,広野町,シガケン,ヒコネシ,コウノチョウ,滋賀県彦根市広野町
5220239,滋賀県,彦根市,宇尾町（８９７番地及び中島５０５〜５１８番地）,シガケン,ヒコネシ,ウオチョウ(897バンチオヨビナカジマ505-518バンチ),滋賀県彦根市宇尾町（897-及び中島505〜518-）
5220241,滋賀県,犬上郡甲良町,呉竹,シガケン,イヌカミグンコウラチョウ,クレタケ,滋賀県犬上郡甲良町呉竹
5220242,滋賀県,犬上郡甲良町,尼子,シガケン,イヌカミグンコウラチョウ,アマゴ,滋賀県犬上郡甲良町尼子
5220243,滋賀県,犬上郡甲良町,小川原,シガケン,イヌカミグンコウラチョウ,コガワハラ,滋賀県犬上郡甲良町小川原
5220244,滋賀県,犬上郡甲良町,在士,シガケン,イヌカミグンコウラチョウ,ザイジ,滋賀県犬上郡甲良町在士
5220251,滋賀県,犬上郡甲良町,北落,シガケン,イヌカミグンコウラチョウ,キタオチ,滋賀県犬上郡甲良町北落
5220252,滋賀県,犬上郡甲良町,金屋,シガケン,イヌカミグンコウラチョウ,カナヤ,滋賀県犬上郡甲良町金屋
5220253,滋賀県,犬上郡甲良町,正楽寺,シガケン,イヌカミグンコウラチョウ,ショウラクジ,滋賀県犬上郡甲良町正楽寺
5220254,滋賀県,犬上郡甲良町,池寺,シガケン,イヌカミグンコウラチョウ,イケデラ,滋賀県犬上郡甲良町池寺
5220261,滋賀県,犬上郡甲良町,長寺,シガケン,イヌカミグンコウラチョウ,オサデラ,滋賀県犬上郡甲良町長寺
5220262,滋賀県,犬上郡甲良町,横関,シガケン,イヌカミグンコウラチョウ,ヨコゼキ,滋賀県犬上郡甲良町横関
5220263,滋賀県,犬上郡甲良町,法養寺,シガケン,イヌカミグンコウラチョウ,ホウヨウジ,滋賀県犬上郡甲良町法養寺
5220271,滋賀県,犬上郡甲良町,下之郷,シガケン,イヌカミグンコウラチョウ,シモノゴウ,滋賀県犬上郡甲良町下之郷
5220300,滋賀県,犬上郡多賀町,,シガケン,イヌカミグンタガチョウ,,滋賀県犬上郡多賀町
5220301,滋賀県,犬上郡多賀町,河内,シガケン,イヌカミグンタガチョウ,カワチ,滋賀県犬上郡多賀町河内
5220302,滋賀県,犬上郡多賀町,向之倉,シガケン,イヌカミグンタガチョウ,ムカイノクラ,滋賀県犬上郡多賀町向之倉
5220303,滋賀県,犬上郡多賀町,屏風,シガケン,イヌカミグンタガチョウ,ビョウブ,滋賀県犬上郡多賀町屏風
5220304,滋賀県,犬上郡多賀町,後谷,シガケン,イヌカミグンタガチョウ,ウシロダニ,滋賀県犬上郡多賀町後谷
5220305,滋賀県,犬上郡多賀町,甲頭倉,シガケン,イヌカミグンタガチョウ,コウズクラ,滋賀県犬上郡多賀町甲頭倉
5220306,滋賀県,犬上郡多賀町,霊仙,シガケン,イヌカミグンタガチョウ,リョウゼン,滋賀県犬上郡多賀町霊仙
5220311,滋賀県,犬上郡多賀町,五僧,シガケン,イヌカミグンタガチョウ,ゴソウ,滋賀県犬上郡多賀町五僧
5220312,滋賀県,犬上郡多賀町,保月,シガケン,イヌカミグンタガチョウ,ホウヅキ,滋賀県犬上郡多賀町保月
5220313,滋賀県,犬上郡多賀町,杉,シガケン,イヌカミグンタガチョウ,スギ,滋賀県犬上郡多賀町杉
5220314,滋賀県,犬上郡多賀町,四手,シガケン,イヌカミグンタガチョウ,シデ,滋賀県犬上郡多賀町四手
5220315,滋賀県,犬上郡多賀町,大岡,シガケン,イヌカミグンタガチョウ,オオオカ,滋賀県犬上郡多賀町大岡
5220316,滋賀県,犬上郡多賀町,栗栖,シガケン,イヌカミグンタガチョウ,クルス,滋賀県犬上郡多賀町栗栖
5220317,滋賀県,犬上郡多賀町,,シガケン,イヌカミグンタガチョウ,,滋賀県犬上郡多賀町
5220318,滋賀県,犬上郡多賀町,水谷,シガケン,イヌカミグンタガチョウ,スイダニ,滋賀県犬上郡多賀町水谷
5220319,滋賀県,犬上郡多賀町,桃原,シガケン,イヌカミグンタガチョウ,モバラ,滋賀県犬上郡多賀町桃原
5220321,滋賀県,犬上郡多賀町,大君ケ畑,シガケン,イヌカミグンタガチョウ,オジガハタ,滋賀県犬上郡多賀町大君ケ畑
5220322,滋賀県,犬上郡多賀町,佐目,シガケン,イヌカミグンタガチョウ,サメ,滋賀県犬上郡多賀町佐目
5220323,滋賀県,犬上郡多賀町,一ノ瀬,シガケン,イヌカミグンタガチョウ,イチノセ,滋賀県犬上郡多賀町一ノ瀬
5220324,滋賀県,犬上郡多賀町,川相,シガケン,イヌカミグンタガチョウ,カワナイ,滋賀県犬上郡多賀町川相
5220325,滋賀県,犬上郡多賀町,小原,シガケン,イヌカミグンタガチョウ,コハラ,滋賀県犬上郡多賀町小原
5220326,滋賀県,犬上郡多賀町,霜ケ原,シガケン,イヌカミグンタガチョウ,シモガハラ,滋賀県犬上郡多賀町霜ケ原
5220327,滋賀県,犬上郡多賀町,南後谷,シガケン,イヌカミグンタガチョウ,ミナミウシロダニ,滋賀県犬上郡多賀町南後谷
5220331,滋賀県,犬上郡多賀町,大杉,シガケン,イヌカミグンタガチョウ,オオスギ,滋賀県犬上郡多賀町大杉
5220332,滋賀県,犬上郡多賀町,樋田,シガケン,イヌカミグンタガチョウ,ヒダ,滋賀県犬上郡多賀町樋田
5220333,滋賀県,犬上郡多賀町,萱原,シガケン,イヌカミグンタガチョウ,カイハラ,滋賀県犬上郡多賀町萱原
5220334,滋賀県,犬上郡多賀町,仏ケ後,シガケン,イヌカミグンタガチョウ,ホトケラ,滋賀県犬上郡多賀町仏ケ後
5220335,滋賀県,犬上郡多賀町,藤瀬,シガケン,イヌカミグンタガチョウ,フジセ,滋賀県犬上郡多賀町藤瀬
5220336,滋賀県,犬上郡多賀町,楢崎,シガケン,イヌカミグンタガチョウ,ナラサキ,滋賀県犬上郡多賀町楢崎
5220337,滋賀県,犬上郡多賀町,富之尾,シガケン,イヌカミグンタガチョウ,トミノオ,滋賀県犬上郡多賀町富之尾
5220338,滋賀県,犬上郡多賀町,壺,シガケン,イヌカミグンタガチョウ,ツボ,滋賀県犬上郡多賀町壺
5220341,滋賀県,犬上郡多賀町,多賀,シガケン,イヌカミグンタガチョウ,タガ,滋賀県犬上郡多賀町多賀
5220342,滋賀県,犬上郡多賀町,敏満寺,シガケン,イヌカミグンタガチョウ,ビンマンジ,滋賀県犬上郡多賀町敏満寺
5220343,滋賀県,犬上郡多賀町,猿木,シガケン,イヌカミグンタガチョウ,サルギ,滋賀県犬上郡多賀町猿木
5220351,滋賀県,犬上郡多賀町,八重練,シガケン,イヌカミグンタガチョウ,ヤエネリ,滋賀県犬上郡多賀町八重練
5220352,滋賀県,犬上郡多賀町,久徳,シガケン,イヌカミグンタガチョウ,キュウトク,滋賀県犬上郡多賀町久徳
5220353,滋賀県,犬上郡多賀町,月之木,シガケン,イヌカミグンタガチョウ,ツキノキ,滋賀県犬上郡多賀町月之木
5220354,滋賀県,犬上郡多賀町,土田,シガケン,イヌカミグンタガチョウ,ツチダ,滋賀県犬上郡多賀町土田
5220355,滋賀県,犬上郡多賀町,中川原,シガケン,イヌカミグンタガチョウ,ナカガワラ,滋賀県犬上郡多賀町中川原
5220356,滋賀県,犬上郡多賀町,木曽,シガケン,イヌカミグンタガチョウ,キソ,滋賀県犬上郡多賀町木曽
5230000,滋賀県,近江八幡市,,シガケン,オウミハチマンシ,,滋賀県近江八幡市
5230001,滋賀県,近江八幡市,金剛寺町,シガケン,オウミハチマンシ,コンゴウジチョウ,滋賀県近江八幡市金剛寺町
5230002,滋賀県,近江八幡市,野田町,シガケン,オウミハチマンシ,ノダチョウ,滋賀県近江八幡市野田町
5230003,滋賀県,近江八幡市,御所内町,シガケン,オウミハチマンシ,ゴショウチチョウ,滋賀県近江八幡市御所内町
5230004,滋賀県,近江八幡市,西生来町,シガケン,オウミハチマンシ,ニショウライチョウ,滋賀県近江八幡市西生来町
5230005,滋賀県,近江八幡市,末広町,シガケン,オウミハチマンシ,スエヒロチョウ,滋賀県近江八幡市末広町
5230011,滋賀県,近江八幡市,友定町,シガケン,オウミハチマンシ,トモサダチョウ,滋賀県近江八幡市友定町
5230012,滋賀県,近江八幡市,武佐町,シガケン,オウミハチマンシ,ムサチョウ,滋賀県近江八幡市武佐町
5230013,滋賀県,近江八幡市,長光寺町,シガケン,オウミハチマンシ,チョウコウジチョウ,滋賀県近江八幡市長光寺町
5230014,滋賀県,近江八幡市,西宿町,シガケン,オウミハチマンシ,ニシジュクチョウ,滋賀県近江八幡市西宿町
5230015,滋賀県,近江八幡市,上田町,シガケン,オウミハチマンシ,ウエダチョウ,滋賀県近江八幡市上田町
5230016,滋賀県,近江八幡市,千僧供町,シガケン,オウミハチマンシ,センゾクチョウ,滋賀県近江八幡市千僧供町
5230021,滋賀県,近江八幡市,長福寺町,シガケン,オウミハチマンシ,チョウフクジチョウ,滋賀県近江八幡市長福寺町
5230022,滋賀県,近江八幡市,馬淵町,シガケン,オウミハチマンシ,マブチチョウ,滋賀県近江八幡市馬淵町
5230023,滋賀県,近江八幡市,倉橋部町,シガケン,オウミハチマンシ,クラハシベチョウ,滋賀県近江八幡市倉橋部町
5230024,滋賀県,近江八幡市,浄土寺町,シガケン,オウミハチマンシ,ジョウドジチョウ,滋賀県近江八幡市浄土寺町
5230025,滋賀県,近江八幡市,新巻町,シガケン,オウミハチマンシ,シンマキチョウ,滋賀県近江八幡市新巻町
5230026,滋賀県,近江八幡市,上畑町,シガケン,オウミハチマンシ,ウエハタチョウ,滋賀県近江八幡市上畑町
5230027,滋賀県,近江八幡市,東川町,シガケン,オウミハチマンシ,ヒガシガワチョウ,滋賀県近江八幡市東川町
5230031,滋賀県,近江八幡市,堀上町,シガケン,オウミハチマンシ,ホリカミチョウ,滋賀県近江八幡市堀上町
5230032,滋賀県,近江八幡市,白鳥町,シガケン,オウミハチマンシ,シラトリチョウ,滋賀県近江八幡市白鳥町
5230033,滋賀県,近江八幡市,日吉野町,シガケン,オウミハチマンシ,ヒヨノチョウ,滋賀県近江八幡市日吉野町
5230034,滋賀県,近江八幡市,若宮町,シガケン,オウミハチマンシ,ワカミヤチョウ,滋賀県近江八幡市若宮町
5230035,滋賀県,近江八幡市,東横関町,シガケン,オウミハチマンシ,ヒガシヨコゼキチョウ,滋賀県近江八幡市東横関町
5230036,滋賀県,近江八幡市,竹町,シガケン,オウミハチマンシ,タケチョウ,滋賀県近江八幡市竹町
5230037,滋賀県,近江八幡市,東町,シガケン,オウミハチマンシ,ヒガシチョウ,滋賀県近江八幡市東町
5230041,滋賀県,近江八幡市,中小森町,シガケン,オウミハチマンシ,ナカコモリチョウ,滋賀県近江八幡市中小森町
5230042,滋賀県,近江八幡市,大森町,シガケン,オウミハチマンシ,オオモリチョウ,滋賀県近江八幡市大森町
5230043,滋賀県,近江八幡市,池田本町,シガケン,オウミハチマンシ,イケダホンマチ,滋賀県近江八幡市池田本町
5230044,滋賀県,近江八幡市,篠原町,シガケン,オウミハチマンシ,シノハラチョウ,滋賀県近江八幡市篠原町
5230045,滋賀県,近江八幡市,安養寺町,シガケン,オウミハチマンシ,アンヨウジチョウ,滋賀県近江八幡市安養寺町
5230046,滋賀県,近江八幡市,上野町,シガケン,オウミハチマンシ,ウエノチョウ,滋賀県近江八幡市上野町
5230047,滋賀県,近江八幡市,川原町,シガケン,オウミハチマンシ,カワラマチ,滋賀県近江八幡市川原町
5230048,滋賀県,近江八幡市,緑町,シガケン,オウミハチマンシ,ミドリマチ,滋賀県近江八幡市緑町
5230051,滋賀県,近江八幡市,八木町,シガケン,オウミハチマンシ,ヤギチョウ,滋賀県近江八幡市八木町
5230052,滋賀県,近江八幡市,赤尾町,シガケン,オウミハチマンシ,アコウチョウ,滋賀県近江八幡市赤尾町
5230053,滋賀県,近江八幡市,益田町,シガケン,オウミハチマンシ,マスダチョウ,滋賀県近江八幡市益田町
5230054,滋賀県,近江八幡市,森尻町,シガケン,オウミハチマンシ,モリジリチョウ,滋賀県近江八幡市森尻町
5230055,滋賀県,近江八幡市,柳町,シガケン,オウミハチマンシ,ヤナギマチ,滋賀県近江八幡市柳町
5230056,滋賀県,近江八幡市,古川町,シガケン,オウミハチマンシ,フルカワチョウ,滋賀県近江八幡市古川町
5230057,滋賀県,近江八幡市,田中江町,シガケン,オウミハチマンシ,タナカエチョウ,滋賀県近江八幡市田中江町
5230058,滋賀県,近江八幡市,加茂町,シガケン,オウミハチマンシ,カモチョウ,滋賀県近江八幡市加茂町
5230061,滋賀県,近江八幡市,江頭町,シガケン,オウミハチマンシ,エガシラチョウ,滋賀県近江八幡市江頭町
5230062,滋賀県,近江八幡市,丸の内町,シガケン,オウミハチマンシ,マルノウチチョウ,滋賀県近江八幡市丸の内町
5230063,滋賀県,近江八幡市,十王町,シガケン,オウミハチマンシ,ジュウオウチョウ,滋賀県近江八幡市十王町
5230064,滋賀県,近江八幡市,小田町,シガケン,オウミハチマンシ,オダチョウ,滋賀県近江八幡市小田町
5230071,滋賀県,近江八幡市,大房町,シガケン,オウミハチマンシ,オオブサチョウ,滋賀県近江八幡市大房町
5230072,滋賀県,近江八幡市,牧町,シガケン,オウミハチマンシ,マキチョウ,滋賀県近江八幡市牧町
5230073,滋賀県,近江八幡市,元水茎町,シガケン,オウミハチマンシ,モトスイケイチョウ,滋賀県近江八幡市元水茎町
5230074,滋賀県,近江八幡市,水茎町,シガケン,オウミハチマンシ,スイケイチョウ,滋賀県近江八幡市水茎町
5230075,滋賀県,近江八幡市,野村町,シガケン,オウミハチマンシ,ノムラチョウ,滋賀県近江八幡市野村町
5230076,滋賀県,近江八幡市,佐波江町,シガケン,オウミハチマンシ,サバエチョウ,滋賀県近江八幡市佐波江町
5230081,滋賀県,近江八幡市,新栄町,シガケン,オウミハチマンシ,シンサカエマチ,滋賀県近江八幡市新栄町
5230082,滋賀県,近江八幡市,土田町,シガケン,オウミハチマンシ,ツチダチョウ,滋賀県近江八幡市土田町
5230083,滋賀県,近江八幡市,小船木町,シガケン,オウミハチマンシ,コブナキチョウ,滋賀県近江八幡市小船木町
5230084,滋賀県,近江八幡市,船木町,シガケン,オウミハチマンシ,フナキチョウ,滋賀県近江八幡市船木町
5230085,滋賀県,近江八幡市,南津田町,シガケン,オウミハチマンシ,ミナミツダチョウ,滋賀県近江八幡市南津田町
5230086,滋賀県,近江八幡市,津田町,シガケン,オウミハチマンシ,ツダチョウ,滋賀県近江八幡市津田町
5230087,滋賀県,近江八幡市,北津田町,シガケン,オウミハチマンシ,キタツダチョウ,滋賀県近江八幡市北津田町
5230801,滋賀県,近江八幡市,沖島町,シガケン,オウミハチマンシ,オキシマチョウ,滋賀県近江八幡市沖島町
5230802,滋賀県,近江八幡市,大中町,シガケン,オウミハチマンシ,ダイナカチョウ,滋賀県近江八幡市大中町
5230803,滋賀県,近江八幡市,白王町,シガケン,オウミハチマンシ,シラオウチョウ,滋賀県近江八幡市白王町
5230804,滋賀県,近江八幡市,島町,シガケン,オウミハチマンシ,シマチョウ,滋賀県近江八幡市島町
5230805,滋賀県,近江八幡市,円山町,シガケン,オウミハチマンシ,マルヤマチョウ,滋賀県近江八幡市円山町
5230806,滋賀県,近江八幡市,北之庄町,シガケン,オウミハチマンシ,キタノショウチョウ,滋賀県近江八幡市北之庄町
5230807,滋賀県,近江八幡市,中之庄町,シガケン,オウミハチマンシ,ナカノショウチョウ,滋賀県近江八幡市中之庄町
5230808,滋賀県,近江八幡市,長命寺町,シガケン,オウミハチマンシ,チョウメイジチョウ,滋賀県近江八幡市長命寺町
5230811,滋賀県,近江八幡市,長田町,シガケン,オウミハチマンシ,オサダチョウ,滋賀県近江八幡市長田町
5230812,滋賀県,近江八幡市,杉森町,シガケン,オウミハチマンシ,スギノモリチョウ,滋賀県近江八幡市杉森町
5230813,滋賀県,近江八幡市,西本郷町,シガケン,オウミハチマンシ,ニシホンゴウチョウ,滋賀県近江八幡市西本郷町
5230814,滋賀県,近江八幡市,南本郷町,シガケン,オウミハチマンシ,ミナミホンゴウチョウ,滋賀県近江八幡市南本郷町
5230815,滋賀県,近江八幡市,若葉町,シガケン,オウミハチマンシ,ワカバチョウ,滋賀県近江八幡市若葉町
5230816,滋賀県,近江八幡市,西庄町,シガケン,オウミハチマンシ,ニシノショウチョウ,滋賀県近江八幡市西庄町
5230817,滋賀県,近江八幡市,浅小井町,シガケン,オウミハチマンシ,アサゴイチョウ,滋賀県近江八幡市浅小井町
5230818,滋賀県,近江八幡市,西本郷町東,シガケン,オウミハチマンシ,ニシホンゴウチョウヒガシ,滋賀県近江八幡市西本郷町東
5230819,滋賀県,近江八幡市,西本郷町西,シガケン,オウミハチマンシ,ニシホンゴウチョウニシ,滋賀県近江八幡市西本郷町西
5230821,滋賀県,近江八幡市,多賀町,シガケン,オウミハチマンシ,タガチョウ,滋賀県近江八幡市多賀町
5230822,滋賀県,近江八幡市,船町,シガケン,オウミハチマンシ,フナマチ,滋賀県近江八幡市船町
5230823,滋賀県,近江八幡市,生須町,シガケン,オウミハチマンシ,イケスチョウ,滋賀県近江八幡市生須町
5230824,滋賀県,近江八幡市,大工町,シガケン,オウミハチマンシ,ダイクチョウ,滋賀県近江八幡市大工町
5230825,滋賀県,近江八幡市,新左衛門町,シガケン,オウミハチマンシ,シンザエモンチョウ,滋賀県近江八幡市新左衛門町
5230826,滋賀県,近江八幡市,薬師町,シガケン,オウミハチマンシ,ヤクシチョウ,滋賀県近江八幡市薬師町
5230827,滋賀県,近江八幡市,鉄炮町,シガケン,オウミハチマンシ,テッポウチョウ,滋賀県近江八幡市鉄炮町
5230828,滋賀県,近江八幡市,宮内町,シガケン,オウミハチマンシ,ミヤウチチョウ,滋賀県近江八幡市宮内町
5230831,滋賀県,近江八幡市,玉屋町,シガケン,オウミハチマンシ,タマヤチョウ,滋賀県近江八幡市玉屋町
5230832,滋賀県,近江八幡市,江南町,シガケン,オウミハチマンシ,エナミチョウ,滋賀県近江八幡市江南町
5230833,滋賀県,近江八幡市,鍛治屋町,シガケン,オウミハチマンシ,カジヤチョウ,滋賀県近江八幡市鍛治屋町
5230834,滋賀県,近江八幡市,東畳屋町,シガケン,オウミハチマンシ,ヒガシタタミヤチョウ,滋賀県近江八幡市東畳屋町
5230835,滋賀県,近江八幡市,西畳屋町,シガケン,オウミハチマンシ,ニシタタミヤチョウ,滋賀県近江八幡市西畳屋町
5230836,滋賀県,近江八幡市,間之町,シガケン,オウミハチマンシ,アイノマチ,滋賀県近江八幡市間之町
5230837,滋賀県,近江八幡市,大杉町,シガケン,オウミハチマンシ,オオスギチョウ,滋賀県近江八幡市大杉町
5230841,滋賀県,近江八幡市,慈恩寺町元,シガケン,オウミハチマンシ,ジオンジチョウモト,滋賀県近江八幡市慈恩寺町元
5230842,滋賀県,近江八幡市,慈恩寺町中,シガケン,オウミハチマンシ,ジオンジチョウナカ,滋賀県近江八幡市慈恩寺町中
5230843,滋賀県,近江八幡市,慈恩寺町上,シガケン,オウミハチマンシ,ジオンジチョウカミ,滋賀県近江八幡市慈恩寺町上
5230844,滋賀県,近江八幡市,博労町元,シガケン,オウミハチマンシ,バクロチョウモト,滋賀県近江八幡市博労町元
5230845,滋賀県,近江八幡市,博労町中,シガケン,オウミハチマンシ,バクロチョウナカ,滋賀県近江八幡市博労町中
5230846,滋賀県,近江八幡市,博労町上,シガケン,オウミハチマンシ,バクロチョウカミ,滋賀県近江八幡市博労町上
5230847,滋賀県,近江八幡市,永原町元,シガケン,オウミハチマンシ,ナガハラチョウモト,滋賀県近江八幡市永原町元
5230848,滋賀県,近江八幡市,永原町中,シガケン,オウミハチマンシ,ナガハラチョウナカ,滋賀県近江八幡市永原町中
5230849,滋賀県,近江八幡市,永原町上,シガケン,オウミハチマンシ,ナガハラチョウカミ,滋賀県近江八幡市永原町上
5230851,滋賀県,近江八幡市,市井町,シガケン,オウミハチマンシ,イチイチョウ,滋賀県近江八幡市市井町
5230852,滋賀県,近江八幡市,鍵之手町,シガケン,オウミハチマンシ,カギノテチョウ,滋賀県近江八幡市鍵之手町
5230853,滋賀県,近江八幡市,縄手町元,シガケン,オウミハチマンシ,ナワテチョウモト,滋賀県近江八幡市縄手町元
5230854,滋賀県,近江八幡市,縄手町中,シガケン,オウミハチマンシ,ナワテチョウナカ,滋賀県近江八幡市縄手町中
5230855,滋賀県,近江八幡市,縄手町末,シガケン,オウミハチマンシ,ナワテチョウスエ,滋賀県近江八幡市縄手町末
5230856,滋賀県,近江八幡市,音羽町,シガケン,オウミハチマンシ,オトワチョウ,滋賀県近江八幡市音羽町
5230857,滋賀県,近江八幡市,八幡町,シガケン,オウミハチマンシ,ハチマンチョウ,滋賀県近江八幡市八幡町
5230861,滋賀県,近江八幡市,仲屋町元,シガケン,オウミハチマンシ,スワイチョウモト,滋賀県近江八幡市仲屋町元
5230862,滋賀県,近江八幡市,仲屋町中,シガケン,オウミハチマンシ,スワイチョウナカ,滋賀県近江八幡市仲屋町中
5230863,滋賀県,近江八幡市,仲屋町上,シガケン,オウミハチマンシ,スワイチョウカミ,滋賀県近江八幡市仲屋町上
5230864,滋賀県,近江八幡市,為心町元,シガケン,オウミハチマンシ,イシンチョウモト,滋賀県近江八幡市為心町元
5230865,滋賀県,近江八幡市,為心町中,シガケン,オウミハチマンシ,イシンチョウナカ,滋賀県近江八幡市為心町中
5230866,滋賀県,近江八幡市,為心町上,シガケン,オウミハチマンシ,イシンチョウカミ,滋賀県近江八幡市為心町上
5230867,滋賀県,近江八幡市,魚屋町元,シガケン,オウミハチマンシ,ウワイチョウモト,滋賀県近江八幡市魚屋町元
5230868,滋賀県,近江八幡市,魚屋町中,シガケン,オウミハチマンシ,ウワイチョウナカ,滋賀県近江八幡市魚屋町中
5230869,滋賀県,近江八幡市,魚屋町上,シガケン,オウミハチマンシ,ウワイチョウカミ,滋賀県近江八幡市魚屋町上
5230871,滋賀県,近江八幡市,新町,シガケン,オウミハチマンシ,シンマチ,滋賀県近江八幡市新町
5230872,滋賀県,近江八幡市,玉木町,シガケン,オウミハチマンシ,タマキチョウ,滋賀県近江八幡市玉木町
5230873,滋賀県,近江八幡市,正神町,シガケン,オウミハチマンシ,ショウガミチョウ,滋賀県近江八幡市正神町
5230874,滋賀県,近江八幡市,小幡町中,シガケン,オウミハチマンシ,オバタチョウナカ,滋賀県近江八幡市小幡町中
5230875,滋賀県,近江八幡市,小幡町上,シガケン,オウミハチマンシ,オバタチョウカミ,滋賀県近江八幡市小幡町上
5230876,滋賀県,近江八幡市,本町,シガケン,オウミハチマンシ,ホンマチ,滋賀県近江八幡市本町
5230877,滋賀県,近江八幡市,池田町,シガケン,オウミハチマンシ,イケダマチ,滋賀県近江八幡市池田町
5230881,滋賀県,近江八幡市,佐久間町,シガケン,オウミハチマンシ,サクマチョウ,滋賀県近江八幡市佐久間町
5230882,滋賀県,近江八幡市,元玉屋町,シガケン,オウミハチマンシ,モトタマヤチョウ,滋賀県近江八幡市元玉屋町
5230883,滋賀県,近江八幡市,北元町,シガケン,オウミハチマンシ,キタモトチョウ,滋賀県近江八幡市北元町
5230884,滋賀県,近江八幡市,北末町,シガケン,オウミハチマンシ,キタスエチョウ,滋賀県近江八幡市北末町
5230885,滋賀県,近江八幡市,板屋町,シガケン,オウミハチマンシ,イタヤチョウ,滋賀県近江八幡市板屋町
5230886,滋賀県,近江八幡市,西末町,シガケン,オウミハチマンシ,ニシスエチョウ,滋賀県近江八幡市西末町
5230887,滋賀県,近江八幡市,西元町,シガケン,オウミハチマンシ,ニシモトチョウ,滋賀県近江八幡市西元町
5230888,滋賀県,近江八幡市,孫平治町,シガケン,オウミハチマンシ,マゴヘイジチョウ,滋賀県近江八幡市孫平治町
5230889,滋賀県,近江八幡市,日杉町,シガケン,オウミハチマンシ,ヒスギチョウ,滋賀県近江八幡市日杉町
5230891,滋賀県,近江八幡市,鷹飼町,シガケン,オウミハチマンシ,タカカイチョウ,滋賀県近江八幡市鷹飼町
5230892,滋賀県,近江八幡市,出町,シガケン,オウミハチマンシ,デマチ,滋賀県近江八幡市出町
5230893,滋賀県,近江八幡市,桜宮町,シガケン,オウミハチマンシ,サクラミヤチョウ,滋賀県近江八幡市桜宮町
5230894,滋賀県,近江八幡市,中村町,シガケン,オウミハチマンシ,ナカムラチョウ,滋賀県近江八幡市中村町
5230895,滋賀県,近江八幡市,宇津呂町,シガケン,オウミハチマンシ,ウツロチョウ,滋賀県近江八幡市宇津呂町
5230896,滋賀県,近江八幡市,鷹飼町北,シガケン,オウミハチマンシ,タカカイチョウキタ,滋賀県近江八幡市鷹飼町北
5230897,滋賀県,近江八幡市,鷹飼町東,シガケン,オウミハチマンシ,タカカイチョウヒガシ,滋賀県近江八幡市鷹飼町東
5230898,滋賀県,近江八幡市,鷹飼町南,シガケン,オウミハチマンシ,タカカイチョウミナミ,滋賀県近江八幡市鷹飼町南
5240000,滋賀県,守山市,,シガケン,モリヤマシ,,滋賀県守山市
5240001,滋賀県,守山市,川田町,シガケン,モリヤマシ,カワタチョウ,滋賀県守山市川田町
5240002,滋賀県,守山市,小島町,シガケン,モリヤマシ,コジマチョウ,滋賀県守山市小島町
5240003,滋賀県,守山市,中町,シガケン,モリヤマシ,ナカチョウ,滋賀県守山市中町
5240004,滋賀県,守山市,笠原町,シガケン,モリヤマシ,カサハラチョウ,滋賀県守山市笠原町
5240011,滋賀県,守山市,今市町,シガケン,モリヤマシ,イマイチチョウ,滋賀県守山市今市町
5240012,滋賀県,守山市,播磨田町,シガケン,モリヤマシ,ハリマダチョウ,滋賀県守山市播磨田町
5240013,滋賀県,守山市,下之郷,シガケン,モリヤマシ,シモノゴウ,滋賀県守山市下之郷
5240013,滋賀県,守山市,下之郷町,シガケン,モリヤマシ,シモノゴウチョウ,滋賀県守山市下之郷町
5240014,滋賀県,守山市,石田町,シガケン,モリヤマシ,イシダチョウ,滋賀県守山市石田町
5240015,滋賀県,守山市,矢島町,シガケン,モリヤマシ,ヤジマチョウ,滋賀県守山市矢島町
5240016,滋賀県,守山市,荒見町,シガケン,モリヤマシ,アラミチョウ,滋賀県守山市荒見町
5240021,滋賀県,守山市,吉身,シガケン,モリヤマシ,ヨシミ,滋賀県守山市吉身
5240021,滋賀県,守山市,吉身町,シガケン,モリヤマシ,ヨシミチョウ,滋賀県守山市吉身町
5240022,滋賀県,守山市,守山,シガケン,モリヤマシ,モリヤマ,滋賀県守山市守山
5240022,滋賀県,守山市,守山町,シガケン,モリヤマシ,モリヤマチョウ,滋賀県守山市守山町
5240031,滋賀県,守山市,立入町,シガケン,モリヤマシ,タテイリチョウ,滋賀県守山市立入町
5240032,滋賀県,守山市,岡町,シガケン,モリヤマシ,オカチョウ,滋賀県守山市岡町
5240033,滋賀県,守山市,浮気町,シガケン,モリヤマシ,フケチョウ,滋賀県守山市浮気町
5240034,滋賀県,守山市,千代町,シガケン,モリヤマシ,チシロチョウ,滋賀県守山市千代町
5240035,滋賀県,守山市,阿村町,シガケン,モリヤマシ,アムラチョウ,滋賀県守山市阿村町
5240036,滋賀県,守山市,伊勢町,シガケン,モリヤマシ,イセチョウ,滋賀県守山市伊勢町
5240037,滋賀県,守山市,梅田町,シガケン,モリヤマシ,ウメダチョウ,滋賀県守山市梅田町
5240041,滋賀県,守山市,勝部,シガケン,モリヤマシ,カツベ,滋賀県守山市勝部
5240041,滋賀県,守山市,勝部町,シガケン,モリヤマシ,カツベチョウ,滋賀県守山市勝部町
5240042,滋賀県,守山市,焔魔堂町,シガケン,モリヤマシ,エンマドウチョウ,滋賀県守山市焔魔堂町
5240043,滋賀県,守山市,二町町,シガケン,モリヤマシ,フタマチチョウ,滋賀県守山市二町町
5240044,滋賀県,守山市,古高町,シガケン,モリヤマシ,フルタカチョウ,滋賀県守山市古高町
5240045,滋賀県,守山市,金森町,シガケン,モリヤマシ,カネガモリチョウ,滋賀県守山市金森町
5240046,滋賀県,守山市,今宿,シガケン,モリヤマシ,イマジュク,滋賀県守山市今宿
5240046,滋賀県,守山市,今宿町,シガケン,モリヤマシ,イマジュクチョウ,滋賀県守山市今宿町
5240051,滋賀県,守山市,三宅町,シガケン,モリヤマシ,ミヤケチョウ,滋賀県守山市三宅町
5240052,滋賀県,守山市,大門町,シガケン,モリヤマシ,ダイモンチョウ,滋賀県守山市大門町
5240053,滋賀県,守山市,横江町,シガケン,モリヤマシ,ヨコエチョウ,滋賀県守山市横江町
5240054,滋賀県,守山市,大林町,シガケン,モリヤマシ,オオバヤシチョウ,滋賀県守山市大林町
5240055,滋賀県,守山市,十二里町,シガケン,モリヤマシ,ジュウニリチョウ,滋賀県守山市十二里町
5240061,滋賀県,守山市,赤野井町,シガケン,モリヤマシ,アカノイチョウ,滋賀県守山市赤野井町
5240062,滋賀県,守山市,杉江町,シガケン,モリヤマシ,スギエチョウ,滋賀県守山市杉江町
5240063,滋賀県,守山市,欲賀町,シガケン,モリヤマシ,ホシカチョウ,滋賀県守山市欲賀町
5240064,滋賀県,守山市,森川原町,シガケン,モリヤマシ,モリカワラチョウ,滋賀県守山市森川原町
5240065,滋賀県,守山市,山賀町,シガケン,モリヤマシ,ヤマガチョウ,滋賀県守山市山賀町
5240101,滋賀県,守山市,今浜町,シガケン,モリヤマシ,イマハマチョウ,滋賀県守山市今浜町
5240102,滋賀県,守山市,水保町,シガケン,モリヤマシ,ミズホチョウ,滋賀県守山市水保町
5240103,滋賀県,守山市,洲本町,シガケン,モリヤマシ,スモトチョウ,滋賀県守山市洲本町
5240104,滋賀県,守山市,木浜町,シガケン,モリヤマシ,コノハマチョウ,滋賀県守山市木浜町
5240201,滋賀県,野洲市,吉川,シガケン,ヤスシ,ヨシカワ,滋賀県野洲市吉川
5240202,滋賀県,野洲市,菖蒲,シガケン,ヤスシ,アヤメ,滋賀県野洲市菖蒲
5240203,滋賀県,野洲市,喜合,シガケン,ヤスシ,キゴウ,滋賀県野洲市喜合
5240211,滋賀県,守山市,小浜町,シガケン,モリヤマシ,コバマチョウ,滋賀県守山市小浜町
5240212,滋賀県,守山市,服部町,シガケン,モリヤマシ,ハットリチョウ,滋賀県守山市服部町
5240213,滋賀県,守山市,新庄町,シガケン,モリヤマシ,シンジョウチョウ,滋賀県守山市新庄町
5240214,滋賀県,守山市,立田町,シガケン,モリヤマシ,タツタチョウ,滋賀県守山市立田町
5240215,滋賀県,守山市,幸津川町,シガケン,モリヤマシ,サヅカワチョウ,滋賀県守山市幸津川町
5240216,滋賀県,守山市,環境学習都市宣言記念公園,シガケン,モリヤマシ,カンキョウガクシュウトシセンゲンキネンコウエン,滋賀県守山市環境学習都市宣言記念公園
5250000,滋賀県,草津市,,シガケン,クサツシ,,滋賀県草津市
5250001,滋賀県,草津市,下物町,シガケン,クサツシ,オロシモチョウ,滋賀県草津市下物町
5250002,滋賀県,草津市,芦浦町,シガケン,クサツシ,アシウラチョウ,滋賀県草津市芦浦町
5250003,滋賀県,草津市,長束町,シガケン,クサツシ,ナツカチョウ,滋賀県草津市長束町
5250004,滋賀県,草津市,上寺町,シガケン,クサツシ,カミデラチョウ,滋賀県草津市上寺町
5250005,滋賀県,草津市,志那町,シガケン,クサツシ,シナチョウ,滋賀県草津市志那町
5250006,滋賀県,草津市,志那中町,シガケン,クサツシ,シナナカチョウ,滋賀県草津市志那中町
5250007,滋賀県,草津市,下寺町,シガケン,クサツシ,シモデラチョウ,滋賀県草津市下寺町
5250011,滋賀県,草津市,片岡町,シガケン,クサツシ,カタオカチョウ,滋賀県草津市片岡町
5250012,滋賀県,草津市,穴村町,シガケン,クサツシ,アナムラチョウ,滋賀県草津市穴村町
5250013,滋賀県,草津市,新堂町,シガケン,クサツシ,シンドウチョウ,滋賀県草津市新堂町
5250014,滋賀県,草津市,駒井沢町,シガケン,クサツシ,コマイザワチョウ,滋賀県草津市駒井沢町
5250015,滋賀県,草津市,集町,シガケン,クサツシ,アツマリチョウ,滋賀県草津市集町
5250016,滋賀県,草津市,北大萱町,シガケン,クサツシ,キタオオガヤチョウ,滋賀県草津市北大萱町
5250021,滋賀県,草津市,川原,シガケン,クサツシ,カワラ,滋賀県草津市川原
5250022,滋賀県,草津市,川原町,シガケン,クサツシ,カワラチョウ,滋賀県草津市川原町
5250023,滋賀県,草津市,平井,シガケン,クサツシ,ヒライ,滋賀県草津市平井
5250024,滋賀県,草津市,平井町,シガケン,クサツシ,ヒライチョウ,滋賀県草津市平井町
5250025,滋賀県,草津市,西渋川,シガケン,クサツシ,ニシシブカワ,滋賀県草津市西渋川
5250026,滋賀県,草津市,渋川,シガケン,クサツシ,シブカワ,滋賀県草津市渋川
5250027,滋賀県,草津市,野村,シガケン,クサツシ,ノムラ,滋賀県草津市野村
5250028,滋賀県,草津市,上笠,シガケン,クサツシ,カミガサ,滋賀県草津市上笠
5250029,滋賀県,草津市,下笠町,シガケン,クサツシ,シモガサチョウ,滋賀県草津市下笠町
5250031,滋賀県,草津市,若竹町,シガケン,クサツシ,ワカタケチョウ,滋賀県草津市若竹町
5250032,滋賀県,草津市,大路,シガケン,クサツシ,オオジ,滋賀県草津市大路
5250033,滋賀県,草津市,東草津,シガケン,クサツシ,ヒガシクサツ,滋賀県草津市東草津
5250034,滋賀県,草津市,草津,シガケン,クサツシ,クサツ,滋賀県草津市草津
5250035,滋賀県,草津市,西草津,シガケン,クサツシ,ニシクサツ,滋賀県草津市西草津
5250036,滋賀県,草津市,草津町,シガケン,クサツシ,クサツチョウ,滋賀県草津市草津町
5250037,滋賀県,草津市,西大路町,シガケン,クサツシ,ニシオオジチョウ,滋賀県草津市西大路町
5250041,滋賀県,草津市,青地町,シガケン,クサツシ,アオジチョウ,滋賀県草津市青地町
5250042,滋賀県,草津市,山寺町,シガケン,クサツシ,ヤマデラチョウ,滋賀県草津市山寺町
5250043,滋賀県,草津市,馬場町,シガケン,クサツシ,バンバチョウ,滋賀県草津市馬場町
5250044,滋賀県,草津市,岡本町,シガケン,クサツシ,オカモトチョウ,滋賀県草津市岡本町
5250045,滋賀県,草津市,若草,シガケン,クサツシ,ワカクサ,滋賀県草津市若草
5250047,滋賀県,草津市,追分,シガケン,クサツシ,オイワケ,滋賀県草津市追分
5250048,滋賀県,草津市,追分南,シガケン,クサツシ,オイワケミナミ,滋賀県草津市追分南
5250050,滋賀県,草津市,南草津,シガケン,クサツシ,ミナミクサツ,滋賀県草津市南草津
5250051,滋賀県,草津市,木川町,シガケン,クサツシ,キノカワチョウ,滋賀県草津市木川町
5250052,滋賀県,草津市,西矢倉,シガケン,クサツシ,ニシヤグラ,滋賀県草津市西矢倉
5250053,滋賀県,草津市,矢倉,シガケン,クサツシ,ヤグラ,滋賀県草津市矢倉
5250054,滋賀県,草津市,東矢倉,シガケン,クサツシ,ヒガシヤグラ,滋賀県草津市東矢倉
5250055,滋賀県,草津市,野路町,シガケン,クサツシ,ノジチョウ,滋賀県草津市野路町
5250056,滋賀県,草津市,南笠町,シガケン,クサツシ,ミナミガサチョウ,滋賀県草津市南笠町
5250057,滋賀県,草津市,桜ケ丘,シガケン,クサツシ,サクラガオカ,滋賀県草津市桜ケ丘
5250058,滋賀県,草津市,野路東,シガケン,クサツシ,ノジヒガシ,滋賀県草津市野路東
5250059,滋賀県,草津市,野路,シガケン,クサツシ,ノジ,滋賀県草津市野路
5250061,滋賀県,草津市,北山田町,シガケン,クサツシ,キタヤマダチョウ,滋賀県草津市北山田町
5250062,滋賀県,草津市,山田町,シガケン,クサツシ,ヤマダチョウ,滋賀県草津市山田町
5250063,滋賀県,草津市,南山田町,シガケン,クサツシ,ミナミヤマダチョウ,滋賀県草津市南山田町
5250064,滋賀県,草津市,御倉町,シガケン,クサツシ,ミクラチョウ,滋賀県草津市御倉町
5250065,滋賀県,草津市,橋岡町,シガケン,クサツシ,ハシオカチョウ,滋賀県草津市橋岡町
5250066,滋賀県,草津市,矢橋町,シガケン,クサツシ,ヤバセチョウ,滋賀県草津市矢橋町
5250067,滋賀県,草津市,新浜町,シガケン,クサツシ,シンハマチョウ,滋賀県草津市新浜町
5250071,滋賀県,草津市,南笠東,シガケン,クサツシ,ミナミガサヒガシ,滋賀県草津市南笠東
5250072,滋賀県,草津市,笠山,シガケン,クサツシ,カサヤマ,滋賀県草津市笠山
5260000,滋賀県,長浜市,,シガケン,ナガハマシ,,滋賀県長浜市
5260001,滋賀県,長浜市,国友町,シガケン,ナガハマシ,クニトモチョウ,滋賀県長浜市国友町
5260002,滋賀県,長浜市,保田町,シガケン,ナガハマシ,ホウデチョウ,滋賀県長浜市保田町
5260003,滋賀県,長浜市,泉町,シガケン,ナガハマシ,イズミチョウ,滋賀県長浜市泉町
5260004,滋賀県,長浜市,小沢町,シガケン,ナガハマシ,コザワチョウ,滋賀県長浜市小沢町
5260005,滋賀県,長浜市,下之郷町,シガケン,ナガハマシ,シモノゴウチョウ,滋賀県長浜市下之郷町
5260011,滋賀県,長浜市,新庄馬場町,シガケン,ナガハマシ,シンジョウバンバチョウ,滋賀県長浜市新庄馬場町
5260012,滋賀県,長浜市,新庄中町,シガケン,ナガハマシ,シンジョウナカチョウ,滋賀県長浜市新庄中町
5260013,滋賀県,長浜市,新庄寺町,シガケン,ナガハマシ,シンジョウテラチョウ,滋賀県長浜市新庄寺町
5260014,滋賀県,長浜市,口分田町,シガケン,ナガハマシ,クモデチョウ,滋賀県長浜市口分田町
5260015,滋賀県,長浜市,神照町,シガケン,ナガハマシ,カミテルチョウ,滋賀県長浜市神照町
5260016,滋賀県,長浜市,十里町,シガケン,ナガハマシ,ジュウリチョウ,滋賀県長浜市十里町
5260017,滋賀県,長浜市,相撲町,シガケン,ナガハマシ,スマイチョウ,滋賀県長浜市相撲町
5260018,滋賀県,長浜市,森町,シガケン,ナガハマシ,モリチョウ,滋賀県長浜市森町
5260021,滋賀県,長浜市,八幡中山町,シガケン,ナガハマシ,ヤワタナカヤマチョウ,滋賀県長浜市八幡中山町
5260022,滋賀県,長浜市,中山町,シガケン,ナガハマシ,ナカヤマチョウ,滋賀県長浜市中山町
5260023,滋賀県,長浜市,三ツ矢町,シガケン,ナガハマシ,ミツヤチョウ,滋賀県長浜市三ツ矢町
5260024,滋賀県,長浜市,三ツ矢元町,シガケン,ナガハマシ,ミツヤモトチョウ,滋賀県長浜市三ツ矢元町
5260025,滋賀県,長浜市,分木町,シガケン,ナガハマシ,ブンギチョウ,滋賀県長浜市分木町
5260031,滋賀県,長浜市,八幡東町,シガケン,ナガハマシ,ヤワタヒガシチョウ,滋賀県長浜市八幡東町
5260032,滋賀県,長浜市,南高田町,シガケン,ナガハマシ,ミナミタカダチョウ,滋賀県長浜市南高田町
5260033,滋賀県,長浜市,平方町,シガケン,ナガハマシ,ヒラカタチョウ,滋賀県長浜市平方町
5260034,滋賀県,長浜市,弥高町,シガケン,ナガハマシ,ヤタカチョウ,滋賀県長浜市弥高町
5260035,滋賀県,長浜市,平方南町,シガケン,ナガハマシ,ヒラカタミナミチョウ,滋賀県長浜市平方南町
5260036,滋賀県,長浜市,地福寺町,シガケン,ナガハマシ,ジフクジチョウ,滋賀県長浜市地福寺町
5260037,滋賀県,長浜市,高田町,シガケン,ナガハマシ,タカダチョウ,滋賀県長浜市高田町
5260041,滋賀県,長浜市,四ツ塚町,シガケン,ナガハマシ,ヨツヅカチョウ,滋賀県長浜市四ツ塚町
5260042,滋賀県,長浜市,勝町,シガケン,ナガハマシ,カツチョウ,滋賀県長浜市勝町
5260043,滋賀県,長浜市,大戌亥町,シガケン,ナガハマシ,オオイヌイチョウ,滋賀県長浜市大戌亥町
5260044,滋賀県,長浜市,下坂中町,シガケン,ナガハマシ,シモサカナカチョウ,滋賀県長浜市下坂中町
5260045,滋賀県,長浜市,寺田町,シガケン,ナガハマシ,テラダチョウ,滋賀県長浜市寺田町
5260046,滋賀県,長浜市,高橋町,シガケン,ナガハマシ,タカハシチョウ,滋賀県長浜市高橋町
5260047,滋賀県,長浜市,下坂浜町,シガケン,ナガハマシ,シモサカハマチョウ,滋賀県長浜市下坂浜町
5260051,滋賀県,長浜市,一の宮町,シガケン,ナガハマシ,イチノミヤチョウ,滋賀県長浜市一の宮町
5260052,滋賀県,長浜市,神前町,シガケン,ナガハマシ,シンゼンチョウ,滋賀県長浜市神前町
5260053,滋賀県,長浜市,宮前町,シガケン,ナガハマシ,ミヤマエチョウ,滋賀県長浜市宮前町
5260054,滋賀県,長浜市,大宮町,シガケン,ナガハマシ,オオミヤチョウ,滋賀県長浜市大宮町
5260055,滋賀県,長浜市,三和町,シガケン,ナガハマシ,サンワチョウ,滋賀県長浜市三和町
5260056,滋賀県,長浜市,朝日町,シガケン,ナガハマシ,アサヒチョウ,滋賀県長浜市朝日町
5260057,滋賀県,長浜市,北船町,シガケン,ナガハマシ,キタフナチョウ,滋賀県長浜市北船町
5260058,滋賀県,長浜市,南呉服町,シガケン,ナガハマシ,ミナミゴフクチョウ,滋賀県長浜市南呉服町
5260059,滋賀県,長浜市,元浜町,シガケン,ナガハマシ,モトハマチョウ,滋賀県長浜市元浜町
5260061,滋賀県,長浜市,祇園町,シガケン,ナガハマシ,ギオンチョウ,滋賀県長浜市祇園町
5260062,滋賀県,長浜市,列見町,シガケン,ナガハマシ,レツケチョウ,滋賀県長浜市列見町
5260063,滋賀県,長浜市,末広町,シガケン,ナガハマシ,スエヒロチョウ,滋賀県長浜市末広町
5260064,滋賀県,長浜市,殿町,シガケン,ナガハマシ,トノチョウ,滋賀県長浜市殿町
5260065,滋賀県,長浜市,公園町,シガケン,ナガハマシ,コウエンチョウ,滋賀県長浜市公園町
5260066,滋賀県,長浜市,大島町,シガケン,ナガハマシ,オオシマチョウ,滋賀県長浜市大島町
5260067,滋賀県,長浜市,港町,シガケン,ナガハマシ,ミナトチョウ,滋賀県長浜市港町
5260068,滋賀県,長浜市,鐘紡町,シガケン,ナガハマシ,カネボウチョウ,滋賀県長浜市鐘紡町
5260101,滋賀県,長浜市,錦織町,シガケン,ナガハマシ,ニシコオリチョウ,滋賀県長浜市錦織町
5260102,滋賀県,長浜市,落合町,シガケン,ナガハマシ,オチアイチョウ,滋賀県長浜市落合町
5260103,滋賀県,長浜市,曽根町,シガケン,ナガハマシ,ソネチョウ,滋賀県長浜市曽根町
5260104,滋賀県,長浜市,御館,シガケン,ナガハマシ,ミタチ,滋賀県長浜市御館
5260105,滋賀県,長浜市,細江町,シガケン,ナガハマシ,ホソエチョウ,滋賀県長浜市細江町
5260106,滋賀県,長浜市,野寺町,シガケン,ナガハマシ,ノデラチョウ,滋賀県長浜市野寺町
5260107,滋賀県,長浜市,新居町,シガケン,ナガハマシ,ニノイチョウ,滋賀県長浜市新居町
5260108,滋賀県,長浜市,難波町,シガケン,ナガハマシ,ナンバチョウ,滋賀県長浜市難波町
5260111,滋賀県,長浜市,川道町,シガケン,ナガハマシ,カワミチチョウ,滋賀県長浜市川道町
5260112,滋賀県,長浜市,鶴が島,シガケン,ナガハマシ,ツルガシマ,滋賀県長浜市鶴が島
5260113,滋賀県,長浜市,南浜町,シガケン,ナガハマシ,ミナミハマチョウ,滋賀県長浜市南浜町
5260114,滋賀県,長浜市,中浜,シガケン,ナガハマシ,ナカハマ,滋賀県長浜市中浜
5260115,滋賀県,長浜市,大浜町,シガケン,ナガハマシ,オオハマチョウ,滋賀県長浜市大浜町
5260116,滋賀県,長浜市,八木浜町,シガケン,ナガハマシ,ヤギハマチョウ,滋賀県長浜市八木浜町
5260121,滋賀県,長浜市,十九町,シガケン,ナガハマシ,ジュックチョウ,滋賀県長浜市十九町
5260122,滋賀県,長浜市,上八木町,シガケン,ナガハマシ,カミヤギチョウ,滋賀県長浜市上八木町
5260123,滋賀県,長浜市,下八木町,シガケン,ナガハマシ,シモヤギチョウ,滋賀県長浜市下八木町
5260124,滋賀県,長浜市,早崎町,シガケン,ナガハマシ,ハヤザキチョウ,滋賀県長浜市早崎町
5260125,滋賀県,長浜市,益田町,シガケン,ナガハマシ,マスダチョウ,滋賀県長浜市益田町
5260126,滋賀県,長浜市,安養寺町,シガケン,ナガハマシ,アンヨウジチョウ,滋賀県長浜市安養寺町
5260131,滋賀県,長浜市,富田町,シガケン,ナガハマシ,トンダチョウ,滋賀県長浜市富田町
5260132,滋賀県,長浜市,香花寺町,シガケン,ナガハマシ,コウケイジチョウ,滋賀県長浜市香花寺町
5260133,滋賀県,長浜市,稲葉町,シガケン,ナガハマシ,イナバチョウ,滋賀県長浜市稲葉町
5260134,滋賀県,長浜市,小観音寺町,シガケン,ナガハマシ,コカンノンジチョウ,滋賀県長浜市小観音寺町
5260135,滋賀県,長浜市,弓削町,シガケン,ナガハマシ,ユウゲチョウ,滋賀県長浜市弓削町
5260201,滋賀県,長浜市,高山町,シガケン,ナガハマシ,タカヤマチョウ,滋賀県長浜市高山町
5260202,滋賀県,長浜市,草野町,シガケン,ナガハマシ,クサノチョウ,滋賀県長浜市草野町
5260203,滋賀県,長浜市,野瀬町,シガケン,ナガハマシ,ノセチョウ,滋賀県長浜市野瀬町
5260204,滋賀県,長浜市,鍛冶屋町,シガケン,ナガハマシ,カジヤチョウ,滋賀県長浜市鍛冶屋町
5260205,滋賀県,長浜市,岡谷町,シガケン,ナガハマシ,オカダニチョウ,滋賀県長浜市岡谷町
5260206,滋賀県,長浜市,郷野町,シガケン,ナガハマシ,ゴウノチョウ,滋賀県長浜市郷野町
5260207,滋賀県,長浜市,太田町,シガケン,ナガハマシ,オオタチョウ,滋賀県長浜市太田町
5260208,滋賀県,長浜市,西村町,シガケン,ナガハマシ,ニシムラチョウ,滋賀県長浜市西村町
5260209,滋賀県,長浜市,寺師町,シガケン,ナガハマシ,テラシチョウ,滋賀県長浜市寺師町
5260211,滋賀県,長浜市,飯山町,シガケン,ナガハマシ,イヤマチョウ,滋賀県長浜市飯山町
5260212,滋賀県,長浜市,徳山町,シガケン,ナガハマシ,トクヤマチョウ,滋賀県長浜市徳山町
5260213,滋賀県,長浜市,醍醐町,シガケン,ナガハマシ,ダイゴチョウ,滋賀県長浜市醍醐町
5260214,滋賀県,長浜市,北ノ郷町,シガケン,ナガハマシ,キタノゴウチョウ,滋賀県長浜市北ノ郷町
5260215,滋賀県,長浜市,当目町,シガケン,ナガハマシ,トウメチョウ,滋賀県長浜市当目町
5260216,滋賀県,長浜市,大門町,シガケン,ナガハマシ,ダイモンチョウ,滋賀県長浜市大門町
5260217,滋賀県,長浜市,乗倉町,シガケン,ナガハマシ,ノセクラチョウ,滋賀県長浜市乗倉町
5260221,滋賀県,長浜市,小野寺町,シガケン,ナガハマシ,オノデラチョウ,滋賀県長浜市小野寺町
5260222,滋賀県,長浜市,浅井高原,シガケン,ナガハマシ,アザイコウゲン,滋賀県長浜市浅井高原
5260223,滋賀県,長浜市,法楽寺町,シガケン,ナガハマシ,ホウラクジチョウ,滋賀県長浜市法楽寺町
5260224,滋賀県,長浜市,東野町,シガケン,ナガハマシ,ヒガシノチョウ,滋賀県長浜市東野町
5260225,滋賀県,長浜市,南郷町,シガケン,ナガハマシ,ナンゴウチョウ,滋賀県長浜市南郷町
5260226,滋賀県,長浜市,東主計町,シガケン,ナガハマシ,ヒガシカズエチョウ,滋賀県長浜市東主計町
5260227,滋賀県,長浜市,西主計町,シガケン,ナガハマシ,ニシカズエチョウ,滋賀県長浜市西主計町
5260231,滋賀県,長浜市,北池町,シガケン,ナガハマシ,キタイケチョウ,滋賀県長浜市北池町
5260232,滋賀県,長浜市,南池町,シガケン,ナガハマシ,ミナミイケチョウ,滋賀県長浜市南池町
5260233,滋賀県,長浜市,今荘町,シガケン,ナガハマシ,イマジョウチョウ,滋賀県長浜市今荘町
5260234,滋賀県,長浜市,相撲庭町,シガケン,ナガハマシ,スマイニワチョウ,滋賀県長浜市相撲庭町
5260235,滋賀県,長浜市,佐野町,シガケン,ナガハマシ,サノチョウ,滋賀県長浜市佐野町
5260236,滋賀県,長浜市,野村町,シガケン,ナガハマシ,ノムラチョウ,滋賀県長浜市野村町
5260241,滋賀県,長浜市,新三田,シガケン,ナガハマシ,シンミタ,滋賀県長浜市新三田
5260242,滋賀県,長浜市,三田町,シガケン,ナガハマシ,ミタチョウ,滋賀県長浜市三田町
5260243,滋賀県,長浜市,大路町,シガケン,ナガハマシ,オチチョウ,滋賀県長浜市大路町
5260244,滋賀県,長浜市,内保町,シガケン,ナガハマシ,ウチボチョウ,滋賀県長浜市内保町
5260245,滋賀県,長浜市,湯次町,シガケン,ナガハマシ,ユスキチョウ,滋賀県長浜市湯次町
5260246,滋賀県,長浜市,西新三田,シガケン,ナガハマシ,ニシシンミタ,滋賀県長浜市西新三田
5260251,滋賀県,長浜市,大依町,シガケン,ナガハマシ,オオヨリチョウ,滋賀県長浜市大依町
5260252,滋賀県,長浜市,八島町,シガケン,ナガハマシ,ヤシマチョウ,滋賀県長浜市八島町
5260253,滋賀県,長浜市,平塚町,シガケン,ナガハマシ,ヒラツカチョウ,滋賀県長浜市平塚町
5260254,滋賀県,長浜市,尊野町,シガケン,ナガハマシ,ソンノチョウ,滋賀県長浜市尊野町
5260255,滋賀県,長浜市,西野町,シガケン,ナガハマシ,ニシノチョウ,滋賀県長浜市西野町
5260256,滋賀県,長浜市,尊勝寺町,シガケン,ナガハマシ,ソンショウジチョウ,滋賀県長浜市尊勝寺町
5260257,滋賀県,長浜市,山ノ前町,シガケン,ナガハマシ,ヤマノマエチョウ,滋賀県長浜市山ノ前町
5260261,滋賀県,長浜市,竜安寺町,シガケン,ナガハマシ,リュウアンジチョウ,滋賀県長浜市竜安寺町
5260262,滋賀県,長浜市,黒部町,シガケン,ナガハマシ,クロベチョウ,滋賀県長浜市黒部町
5260263,滋賀県,長浜市,小室町,シガケン,ナガハマシ,コムロチョウ,滋賀県長浜市小室町
5260264,滋賀県,長浜市,上野町,シガケン,ナガハマシ,ウワノチョウ,滋賀県長浜市上野町
5260265,滋賀県,長浜市,木尾町,シガケン,ナガハマシ,キオチョウ,滋賀県長浜市木尾町
5260266,滋賀県,長浜市,野田町,シガケン,ナガハマシ,ノダチョウ,滋賀県長浜市野田町
5260267,滋賀県,長浜市,力丸町,シガケン,ナガハマシ,リキマルチョウ,滋賀県長浜市力丸町
5260271,滋賀県,長浜市,谷口町,シガケン,ナガハマシ,タニグチチョウ,滋賀県長浜市谷口町
5260272,滋賀県,長浜市,北野町,シガケン,ナガハマシ,キタノチョウ,滋賀県長浜市北野町
5260273,滋賀県,長浜市,高畑町,シガケン,ナガハマシ,タカハタチョウ,滋賀県長浜市高畑町
5260274,滋賀県,長浜市,池奥町,シガケン,ナガハマシ,イケオクチョウ,滋賀県長浜市池奥町
5260275,滋賀県,長浜市,瓜生町,シガケン,ナガハマシ,ウリュウチョウ,滋賀県長浜市瓜生町
5260276,滋賀県,長浜市,田川町,シガケン,ナガハマシ,タガワチョウ,滋賀県長浜市田川町
5260277,滋賀県,長浜市,須賀谷町,シガケン,ナガハマシ,スガタニチョウ,滋賀県長浜市須賀谷町
5260801,滋賀県,長浜市,千草町,シガケン,ナガハマシ,チクサチョウ,滋賀県長浜市千草町
5260802,滋賀県,長浜市,東上坂町,シガケン,ナガハマシ,ヒガシコウザカチョウ,滋賀県長浜市東上坂町
5260803,滋賀県,長浜市,西上坂町,シガケン,ナガハマシ,ニシコウザカチョウ,滋賀県長浜市西上坂町
5260804,滋賀県,長浜市,加納町,シガケン,ナガハマシ,カノウチョウ,滋賀県長浜市加納町
5260805,滋賀県,長浜市,榎木町,シガケン,ナガハマシ,エノキチョウ,滋賀県長浜市榎木町
5260806,滋賀県,長浜市,今町,シガケン,ナガハマシ,イマチョウ,滋賀県長浜市今町
5260811,滋賀県,長浜市,垣籠町,シガケン,ナガハマシ,カイゴメチョウ,滋賀県長浜市垣籠町
5260812,滋賀県,長浜市,保多町,シガケン,ナガハマシ,ホダチョウ,滋賀県長浜市保多町
5260813,滋賀県,長浜市,堀部町,シガケン,ナガハマシ,ホリベチョウ,滋賀県長浜市堀部町
5260814,滋賀県,長浜市,石田町,シガケン,ナガハマシ,イシダチョウ,滋賀県長浜市石田町
5260815,滋賀県,長浜市,八条町,シガケン,ナガハマシ,ハチジョウチョウ,滋賀県長浜市八条町
5260816,滋賀県,長浜市,今川町,シガケン,ナガハマシ,イマガワチョウ,滋賀県長浜市今川町
5260817,滋賀県,長浜市,七条町,シガケン,ナガハマシ,シチジョウチョウ,滋賀県長浜市七条町
5260821,滋賀県,長浜市,本庄町,シガケン,ナガハマシ,ホンジョウチョウ,滋賀県長浜市本庄町
5260822,滋賀県,長浜市,鳥羽上町,シガケン,ナガハマシ,トバカミチョウ,滋賀県長浜市鳥羽上町
5260823,滋賀県,長浜市,常喜町,シガケン,ナガハマシ,ジョウギチョウ,滋賀県長浜市常喜町
5260824,滋賀県,長浜市,名越町,シガケン,ナガハマシ,ナゴシチョウ,滋賀県長浜市名越町
5260825,滋賀県,長浜市,布勢町,シガケン,ナガハマシ,フセチョウ,滋賀県長浜市布勢町
5260826,滋賀県,長浜市,小一条町,シガケン,ナガハマシ,コイチジョウチョウ,滋賀県長浜市小一条町
5260827,滋賀県,長浜市,加田今町,シガケン,ナガハマシ,カダイマチョウ,滋賀県長浜市加田今町
5260828,滋賀県,長浜市,加田町,シガケン,ナガハマシ,カダチョウ,滋賀県長浜市加田町
5260829,滋賀県,長浜市,田村町,シガケン,ナガハマシ,タムラチョウ,滋賀県長浜市田村町
5260831,滋賀県,長浜市,宮司町,シガケン,ナガハマシ,ミヤシチョウ,滋賀県長浜市宮司町
5260832,滋賀県,長浜市,大東町,シガケン,ナガハマシ,オオヒガシチョウ,滋賀県長浜市大東町
5260833,滋賀県,長浜市,永久寺町,シガケン,ナガハマシ,エイキュウジチョウ,滋賀県長浜市永久寺町
5260834,滋賀県,長浜市,大辰巳町,シガケン,ナガハマシ,オオタツミチョウ,滋賀県長浜市大辰巳町
5260835,滋賀県,長浜市,室町,シガケン,ナガハマシ,ムロチョウ,滋賀県長浜市室町
5260841,滋賀県,長浜市,新栄町,シガケン,ナガハマシ,ニイサカチョウ,滋賀県長浜市新栄町
5260842,滋賀県,長浜市,春近町,シガケン,ナガハマシ,ハルチカチョウ,滋賀県長浜市春近町
5260843,滋賀県,長浜市,南小足町,シガケン,ナガハマシ,ミナミコアシチョウ,滋賀県長浜市南小足町
5260844,滋賀県,長浜市,南田附町,シガケン,ナガハマシ,ミナミタヅケチョウ,滋賀県長浜市南田附町
5260845,滋賀県,長浜市,小堀町,シガケン,ナガハマシ,コボリチョウ,滋賀県長浜市小堀町
5260846,滋賀県,長浜市,川崎町,シガケン,ナガハマシ,カワサキチョウ,滋賀県長浜市川崎町
5260847,滋賀県,長浜市,山階町,シガケン,ナガハマシ,ヤマシナチョウ,滋賀県長浜市山階町
5270000,滋賀県,東近江市,,シガケン,ヒガシオウミシ,,滋賀県東近江市
5270001,滋賀県,東近江市,建部下野町,シガケン,ヒガシオウミシ,タテベシモノチョウ,滋賀県東近江市建部下野町
5270002,滋賀県,東近江市,建部上中町,シガケン,ヒガシオウミシ,タテベカミナカチョウ,滋賀県東近江市建部上中町
5270003,滋賀県,東近江市,建部北町,シガケン,ヒガシオウミシ,タテベキタチョウ,滋賀県東近江市建部北町
5270004,滋賀県,東近江市,建部堺町,シガケン,ヒガシオウミシ,タテベサカイチョウ,滋賀県東近江市建部堺町
5270005,滋賀県,東近江市,建部南町,シガケン,ヒガシオウミシ,タテベミナミチョウ,滋賀県東近江市建部南町
5270006,滋賀県,東近江市,建部日吉町,シガケン,ヒガシオウミシ,タテベヒヨシチョウ,滋賀県東近江市建部日吉町
5270007,滋賀県,東近江市,建部瓦屋寺町,シガケン,ヒガシオウミシ,タテベカワラヤジチョウ,滋賀県東近江市建部瓦屋寺町
5270011,滋賀県,東近江市,八日市浜野町,シガケン,ヒガシオウミシ,ヨウカイチハマノチョウ,滋賀県東近江市八日市浜野町
5270012,滋賀県,東近江市,八日市本町,シガケン,ヒガシオウミシ,ヨウカイチホンマチ,滋賀県東近江市八日市本町
5270013,滋賀県,東近江市,東中野町,シガケン,ヒガシオウミシ,ヒガシナカノチョウ,滋賀県東近江市東中野町
5270014,滋賀県,東近江市,西中野町,シガケン,ヒガシオウミシ,ニシナカノチョウ,滋賀県東近江市西中野町
5270015,滋賀県,東近江市,中野町,シガケン,ヒガシオウミシ,ナカノチョウ,滋賀県東近江市中野町
5270016,滋賀県,東近江市,今崎町,シガケン,ヒガシオウミシ,イマサキチョウ,滋賀県東近江市今崎町
5270017,滋賀県,東近江市,昭和町,シガケン,ヒガシオウミシ,ショウワチョウ,滋賀県東近江市昭和町
5270018,滋賀県,東近江市,八日市清水,シガケン,ヒガシオウミシ,ヨウカイチシミズ,滋賀県東近江市八日市清水
5270019,滋賀県,東近江市,八日市松尾町,シガケン,ヒガシオウミシ,ヨウカイチマツオチョウ,滋賀県東近江市八日市松尾町
5270021,滋賀県,東近江市,八日市東浜町,シガケン,ヒガシオウミシ,ヨウカイチヒガシハマチョウ,滋賀県東近江市八日市東浜町
5270022,滋賀県,東近江市,八日市上之町,シガケン,ヒガシオウミシ,ヨウカイチカミノチョウ,滋賀県東近江市八日市上之町
5270023,滋賀県,東近江市,八日市緑町,シガケン,ヒガシオウミシ,ヨウカイチミドリマチ,滋賀県東近江市八日市緑町
5270024,滋賀県,東近江市,札の辻,シガケン,ヒガシオウミシ,フダノツジ,滋賀県東近江市札の辻
5270025,滋賀県,東近江市,八日市東本町,シガケン,ヒガシオウミシ,ヨウカイチヒガシホンマチ,滋賀県東近江市八日市東本町
5270026,滋賀県,東近江市,八日市野々宮町,シガケン,ヒガシオウミシ,ヨウカイチノノミヤチョウ,滋賀県東近江市八日市野々宮町
5270027,滋賀県,東近江市,栄町,シガケン,ヒガシオウミシ,サカエマチ,滋賀県東近江市栄町
5270028,滋賀県,東近江市,八日市金屋,シガケン,ヒガシオウミシ,ヨウカイチカナヤ,滋賀県東近江市八日市金屋
5270029,滋賀県,東近江市,八日市町,シガケン,ヒガシオウミシ,ヨウカイチチョウ,滋賀県東近江市八日市町
5270031,滋賀県,東近江市,幸町,シガケン,ヒガシオウミシ,サイワイチョウ,滋賀県東近江市幸町
5270032,滋賀県,東近江市,春日町,シガケン,ヒガシオウミシ,カスガチョウ,滋賀県東近江市春日町
5270033,滋賀県,東近江市,東沖野,シガケン,ヒガシオウミシ,ヒガシオキノ,滋賀県東近江市東沖野
5270034,滋賀県,東近江市,沖野,シガケン,ヒガシオウミシ,オキノ,滋賀県東近江市沖野
5270035,滋賀県,東近江市,ひばり丘町,シガケン,ヒガシオウミシ,ヒバリオカチョウ,滋賀県東近江市ひばり丘町
5270036,滋賀県,東近江市,聖和町,シガケン,ヒガシオウミシ,セイワチョウ,滋賀県東近江市聖和町
5270037,滋賀県,東近江市,東今崎町,シガケン,ヒガシオウミシ,ヒガシイマサキチョウ,滋賀県東近江市東今崎町
5270038,滋賀県,東近江市,聖徳町,シガケン,ヒガシオウミシ,セイトクチョウ,滋賀県東近江市聖徳町
5270039,滋賀県,東近江市,青葉町,シガケン,ヒガシオウミシ,アオバチョウ,滋賀県東近江市青葉町
5270041,滋賀県,東近江市,川合寺町,シガケン,ヒガシオウミシ,カワイデラチョウ,滋賀県東近江市川合寺町
5270042,滋賀県,東近江市,外町,シガケン,ヒガシオウミシ,トノチョウ,滋賀県東近江市外町
5270043,滋賀県,東近江市,神田町,シガケン,ヒガシオウミシ,ジンデンチョウ,滋賀県東近江市神田町
5270044,滋賀県,東近江市,五智町,シガケン,ヒガシオウミシ,ゴチチョウ,滋賀県東近江市五智町
5270045,滋賀県,東近江市,中小路町,シガケン,ヒガシオウミシ,ナコオジチョウ,滋賀県東近江市中小路町
5270046,滋賀県,東近江市,妙法寺町,シガケン,ヒガシオウミシ,ミョウホウジチョウ,滋賀県東近江市妙法寺町
5270047,滋賀県,東近江市,野村町,シガケン,ヒガシオウミシ,ノムラチョウ,滋賀県東近江市野村町
5270051,滋賀県,東近江市,林田町,シガケン,ヒガシオウミシ,ハヤシダチョウ,滋賀県東近江市林田町
5270052,滋賀県,東近江市,寺町,シガケン,ヒガシオウミシ,テラチョウ,滋賀県東近江市寺町
5270053,滋賀県,東近江市,今代町,シガケン,ヒガシオウミシ,イマダイチョウ,滋賀県東近江市今代町
5270054,滋賀県,東近江市,池田町,シガケン,ヒガシオウミシ,イケダチョウ,滋賀県東近江市池田町
5270055,滋賀県,東近江市,瓜生津町,シガケン,ヒガシオウミシ,ウリウヅチョウ,滋賀県東近江市瓜生津町
5270056,滋賀県,東近江市,御園町,シガケン,ヒガシオウミシ,ミソノチョウ,滋賀県東近江市御園町
5270057,滋賀県,東近江市,岡田町,シガケン,ヒガシオウミシ,オカダチョウ,滋賀県東近江市岡田町
5270061,滋賀県,東近江市,土器町,シガケン,ヒガシオウミシ,ドキチョウ,滋賀県東近江市土器町
5270062,滋賀県,東近江市,上大森町,シガケン,ヒガシオウミシ,カミオオモリチョウ,滋賀県東近江市上大森町
5270063,滋賀県,東近江市,大森町,シガケン,ヒガシオウミシ,オオモリチョウ,滋賀県東近江市大森町
5270064,滋賀県,東近江市,尻無町,シガケン,ヒガシオウミシ,シナシチョウ,滋賀県東近江市尻無町
5270065,滋賀県,東近江市,下二俣町,シガケン,ヒガシオウミシ,シモフタマタチョウ,滋賀県東近江市下二俣町
5270066,滋賀県,東近江市,柴原南町,シガケン,ヒガシオウミシ,シバハラミナミチョウ,滋賀県東近江市柴原南町
5270067,滋賀県,東近江市,芝原町,シガケン,ヒガシオウミシ,シバハラチョウ,滋賀県東近江市芝原町
5270071,滋賀県,東近江市,今堀町,シガケン,ヒガシオウミシ,イマボリチョウ,滋賀県東近江市今堀町
5270072,滋賀県,東近江市,布引台,シガケン,ヒガシオウミシ,ヌノビキダイ,滋賀県東近江市布引台
5270073,滋賀県,東近江市,蛇溝町,シガケン,ヒガシオウミシ,ヘビミゾチョウ,滋賀県東近江市蛇溝町
5270074,滋賀県,東近江市,市辺町,シガケン,ヒガシオウミシ,イチノベチョウ,滋賀県東近江市市辺町
5270075,滋賀県,東近江市,三津屋町,シガケン,ヒガシオウミシ,ミツヤチョウ,滋賀県東近江市三津屋町
5270076,滋賀県,東近江市,野口町,シガケン,ヒガシオウミシ,ノグチチョウ,滋賀県東近江市野口町
5270081,滋賀県,東近江市,布施町,シガケン,ヒガシオウミシ,フセチョウ,滋賀県東近江市布施町
5270082,滋賀県,東近江市,上羽田町,シガケン,ヒガシオウミシ,カミハネダチョウ,滋賀県東近江市上羽田町
5270083,滋賀県,東近江市,柏木町,シガケン,ヒガシオウミシ,カシワギチョウ,滋賀県東近江市柏木町
5270084,滋賀県,東近江市,中羽田町,シガケン,ヒガシオウミシ,ナカハネダチョウ,滋賀県東近江市中羽田町
5270085,滋賀県,東近江市,下羽田町,シガケン,ヒガシオウミシ,シモハネダチョウ,滋賀県東近江市下羽田町
5270086,滋賀県,東近江市,上平木町,シガケン,ヒガシオウミシ,カミヒラギチョウ,滋賀県東近江市上平木町
5270087,滋賀県,東近江市,平田町,シガケン,ヒガシオウミシ,ヒラタチョウ,滋賀県東近江市平田町
5270091,滋賀県,東近江市,小脇町,シガケン,ヒガシオウミシ,オワキチョウ,滋賀県東近江市小脇町
5270092,滋賀県,東近江市,小今町,シガケン,ヒガシオウミシ,コイマチョウ,滋賀県東近江市小今町
5270093,滋賀県,東近江市,糠塚町,シガケン,ヒガシオウミシ,ヌカヅカチョウ,滋賀県東近江市糠塚町
5270101,滋賀県,東近江市,祇園町,シガケン,ヒガシオウミシ,ギオンチョウ,滋賀県東近江市祇園町
5270102,滋賀県,東近江市,平柳町,シガケン,ヒガシオウミシ,ヒラヤナギチョウ,滋賀県東近江市平柳町
5270103,滋賀県,東近江市,湯屋町,シガケン,ヒガシオウミシ,ユヤチョウ,滋賀県東近江市湯屋町
5270104,滋賀県,東近江市,読合堂町,シガケン,ヒガシオウミシ,ヨミアイドウチョウ,滋賀県東近江市読合堂町
5270105,滋賀県,東近江市,中里町,シガケン,ヒガシオウミシ,ナカザトチョウ,滋賀県東近江市中里町
5270106,滋賀県,東近江市,僧坊町,シガケン,ヒガシオウミシ,ソウボウチョウ,滋賀県東近江市僧坊町
5270107,滋賀県,東近江市,今在家町,シガケン,ヒガシオウミシ,イマザイケチョウ,滋賀県東近江市今在家町
5270108,滋賀県,東近江市,小八木町,シガケン,ヒガシオウミシ,コヤギチョウ,滋賀県東近江市小八木町
5270111,滋賀県,東近江市,北花沢町,シガケン,ヒガシオウミシ,キタハナザワチョウ,滋賀県東近江市北花沢町
5270112,滋賀県,東近江市,南花沢町,シガケン,ヒガシオウミシ,ミナミハナザワチョウ,滋賀県東近江市南花沢町
5270113,滋賀県,東近江市,池庄町,シガケン,ヒガシオウミシ,イケショウチョウ,滋賀県東近江市池庄町
5270114,滋賀県,東近江市,大沢町,シガケン,ヒガシオウミシ,オオザワチョウ,滋賀県東近江市大沢町
5270115,滋賀県,東近江市,下里町,シガケン,ヒガシオウミシ,シモザトチョウ,滋賀県東近江市下里町
5270121,滋賀県,東近江市,小池町,シガケン,ヒガシオウミシ,コイケチョウ,滋賀県東近江市小池町
5270122,滋賀県,東近江市,長町,シガケン,ヒガシオウミシ,オサチョウ,滋賀県東近江市長町
5270123,滋賀県,東近江市,中岸本町,シガケン,ヒガシオウミシ,ナカギシモトチョウ,滋賀県東近江市中岸本町
5270124,滋賀県,東近江市,下岸本町,シガケン,ヒガシオウミシ,シモギシモトチョウ,滋賀県東近江市下岸本町
5270125,滋賀県,東近江市,小田苅町,シガケン,ヒガシオウミシ,コタカリチョウ,滋賀県東近江市小田苅町
5270126,滋賀県,東近江市,大清水町,シガケン,ヒガシオウミシ,オオシュウズチョウ,滋賀県東近江市大清水町
5270127,滋賀県,東近江市,南清水町,シガケン,ヒガシオウミシ,ミナミシュウズチョウ,滋賀県東近江市南清水町
5270128,滋賀県,東近江市,清水中町,シガケン,ヒガシオウミシ,シュウズナカチョウ,滋賀県東近江市清水中町
5270129,滋賀県,東近江市,北清水町,シガケン,ヒガシオウミシ,キタシュウズチョウ,滋賀県東近江市北清水町
5270131,滋賀県,東近江市,勝堂町,シガケン,ヒガシオウミシ,ショウドウチョウ,滋賀県東近江市勝堂町
5270132,滋賀県,東近江市,下一色町,シガケン,ヒガシオウミシ,シモイシキチョウ,滋賀県東近江市下一色町
5270133,滋賀県,東近江市,中一色町,シガケン,ヒガシオウミシ,ナカイシキチョウ,滋賀県東近江市中一色町
5270134,滋賀県,東近江市,平松町,シガケン,ヒガシオウミシ,ヒラマツチョウ,滋賀県東近江市平松町
5270135,滋賀県,東近江市,横溝町,シガケン,ヒガシオウミシ,ヨコミゾチョウ,滋賀県東近江市横溝町
5270136,滋賀県,東近江市,南菩提寺町,シガケン,ヒガシオウミシ,ミナミボダイジチョウ,滋賀県東近江市南菩提寺町
5270137,滋賀県,東近江市,西菩提寺町,シガケン,ヒガシオウミシ,ニシボダイジチョウ,滋賀県東近江市西菩提寺町
5270138,滋賀県,東近江市,北菩提寺町,シガケン,ヒガシオウミシ,キタボダイジチョウ,滋賀県東近江市北菩提寺町
5270141,滋賀県,東近江市,百済寺甲町,シガケン,ヒガシオウミシ,ヒャクサイジコウチョウ,滋賀県東近江市百済寺甲町
5270142,滋賀県,東近江市,上山町,シガケン,ヒガシオウミシ,カミヤマチョウ,滋賀県東近江市上山町
5270143,滋賀県,東近江市,百済寺本町,シガケン,ヒガシオウミシ,ヒャクサイジホンマチ,滋賀県東近江市百済寺本町
5270144,滋賀県,東近江市,百済寺町,シガケン,ヒガシオウミシ,ヒャクサイジチョウ,滋賀県東近江市百済寺町
5270145,滋賀県,東近江市,北坂町,シガケン,ヒガシオウミシ,キタサカチョウ,滋賀県東近江市北坂町
5270151,滋賀県,東近江市,市ケ原町,シガケン,ヒガシオウミシ,イチガハラチョウ,滋賀県東近江市市ケ原町
5270152,滋賀県,東近江市,大覚寺町,シガケン,ヒガシオウミシ,ダイカクジチョウ,滋賀県東近江市大覚寺町
5270153,滋賀県,東近江市,平尾町,シガケン,ヒガシオウミシ,ヒラオチョウ,滋賀県東近江市平尾町
5270154,滋賀県,東近江市,園町,シガケン,ヒガシオウミシ,ソノチョウ,滋賀県東近江市園町
5270155,滋賀県,東近江市,大林町,シガケン,ヒガシオウミシ,オオバヤシチョウ,滋賀県東近江市大林町
5270156,滋賀県,東近江市,上中野町,シガケン,ヒガシオウミシ,ウエナカノチョウ,滋賀県東近江市上中野町
5270157,滋賀県,東近江市,下中野町,シガケン,ヒガシオウミシ,シモナカノチョウ,滋賀県東近江市下中野町
5270161,滋賀県,東近江市,中戸町,シガケン,ヒガシオウミシ,ナカトチョウ,滋賀県東近江市中戸町
5270162,滋賀県,東近江市,妹町,シガケン,ヒガシオウミシ,イモトチョウ,滋賀県東近江市妹町
5270163,滋賀県,東近江市,曽根町,シガケン,ヒガシオウミシ,ソネチョウ,滋賀県東近江市曽根町
5270164,滋賀県,東近江市,青山町,シガケン,ヒガシオウミシ,アオヤマチョウ,滋賀県東近江市青山町
5270165,滋賀県,東近江市,小倉町,シガケン,ヒガシオウミシ,オグラチョウ,滋賀県東近江市小倉町
5270166,滋賀県,東近江市,愛東外町,シガケン,ヒガシオウミシ,アイトウトノチョウ,滋賀県東近江市愛東外町
5270171,滋賀県,東近江市,池之尻町,シガケン,ヒガシオウミシ,イケノシリチョウ,滋賀県東近江市池之尻町
5270172,滋賀県,東近江市,鯰江町,シガケン,ヒガシオウミシ,ナマズエチョウ,滋賀県東近江市鯰江町
5270173,滋賀県,東近江市,上岸本町,シガケン,ヒガシオウミシ,カミギシモトチョウ,滋賀県東近江市上岸本町
5270174,滋賀県,東近江市,大萩町,シガケン,ヒガシオウミシ,オオハギチョウ,滋賀県東近江市大萩町
5270175,滋賀県,東近江市,梅林町,シガケン,ヒガシオウミシ,ウメバヤシチョウ,滋賀県東近江市梅林町
5270201,滋賀県,東近江市,蛭谷町,シガケン,ヒガシオウミシ,ヒルタニチョウ,滋賀県東近江市蛭谷町
5270202,滋賀県,東近江市,君ケ畑町,シガケン,ヒガシオウミシ,キミガハタチョウ,滋賀県東近江市君ケ畑町
5270203,滋賀県,東近江市,箕川町,シガケン,ヒガシオウミシ,ミノガワチョウ,滋賀県東近江市箕川町
5270204,滋賀県,東近江市,政所町,シガケン,ヒガシオウミシ,マンドコロチョウ,滋賀県東近江市政所町
5270205,滋賀県,東近江市,黄和田町,シガケン,ヒガシオウミシ,キワダチョウ,滋賀県東近江市黄和田町
5270206,滋賀県,東近江市,杠葉尾町,シガケン,ヒガシオウミシ,ユズリオチョウ,滋賀県東近江市杠葉尾町
5270207,滋賀県,東近江市,蓼畑町,シガケン,ヒガシオウミシ,タテハタチョウ,滋賀県東近江市蓼畑町
5270208,滋賀県,東近江市,萱尾町,シガケン,ヒガシオウミシ,カヤオチョウ,滋賀県東近江市萱尾町
5270209,滋賀県,東近江市,佐目町,シガケン,ヒガシオウミシ,サメチョウ,滋賀県東近江市佐目町
5270211,滋賀県,東近江市,永源寺相谷町,シガケン,ヒガシオウミシ,エイゲンジアイダニチョウ,滋賀県東近江市永源寺相谷町
5270212,滋賀県,東近江市,永源寺高野町,シガケン,ヒガシオウミシ,エイゲンジタカノチョウ,滋賀県東近江市永源寺高野町
5270213,滋賀県,東近江市,和南町,シガケン,ヒガシオウミシ,ワナミチョウ,滋賀県東近江市和南町
5270214,滋賀県,東近江市,甲津畑町,シガケン,ヒガシオウミシ,コウヅハタチョウ,滋賀県東近江市甲津畑町
5270215,滋賀県,東近江市,九居瀬町,シガケン,ヒガシオウミシ,クイゼチョウ,滋賀県東近江市九居瀬町
5270216,滋賀県,東近江市,茨川町,シガケン,ヒガシオウミシ,イバラガワチョウ,滋賀県東近江市茨川町
5270221,滋賀県,東近江市,上二俣町,シガケン,ヒガシオウミシ,カミフタマタチョウ,滋賀県東近江市上二俣町
5270222,滋賀県,東近江市,池之脇町,シガケン,ヒガシオウミシ,イケノワキチョウ,滋賀県東近江市池之脇町
5270223,滋賀県,東近江市,高木町,シガケン,ヒガシオウミシ,タカギチョウ,滋賀県東近江市高木町
5270224,滋賀県,東近江市,市原野町,シガケン,ヒガシオウミシ,イチハラノチョウ,滋賀県東近江市市原野町
5270225,滋賀県,東近江市,新出町,シガケン,ヒガシオウミシ,シンデチョウ,滋賀県東近江市新出町
5270226,滋賀県,東近江市,一式町,シガケン,ヒガシオウミシ,イッシキチョウ,滋賀県東近江市一式町
5270227,滋賀県,東近江市,石谷町,シガケン,ヒガシオウミシ,イシダニチョウ,滋賀県東近江市石谷町
5270228,滋賀県,東近江市,如来町,シガケン,ヒガシオウミシ,ニョライチョウ,滋賀県東近江市如来町
5270231,滋賀県,東近江市,山上町,シガケン,ヒガシオウミシ,ヤマカミチョウ,滋賀県東近江市山上町
5270232,滋賀県,東近江市,青野町,シガケン,ヒガシオウミシ,アオノチョウ,滋賀県東近江市青野町
5280000,滋賀県,甲賀市,,シガケン,コウカシ,,滋賀県甲賀市
5280001,滋賀県,甲賀市,水口町中畑,シガケン,コウカシ,ミナクチチョウナカハタ,滋賀県甲賀市水口町中畑
5280002,滋賀県,甲賀市,水口町今郷,シガケン,コウカシ,ミナクチチョウイマゴウ,滋賀県甲賀市水口町今郷
5280003,滋賀県,甲賀市,水口町和野,シガケン,コウカシ,ミナクチチョウワノ,滋賀県甲賀市水口町和野
5280004,滋賀県,甲賀市,水口町嶬峨,シガケン,コウカシ,ミナクチチョウギカ,滋賀県甲賀市水口町嶬峨
5280005,滋賀県,甲賀市,水口町水口,シガケン,コウカシ,ミナクチチョウミナクチ,滋賀県甲賀市水口町水口
5280006,滋賀県,甲賀市,水口町元町,シガケン,コウカシ,ミナクチチョウモトマチ,滋賀県甲賀市水口町元町
5280007,滋賀県,甲賀市,水口町新城,シガケン,コウカシ,ミナクチチョウシンジョウ,滋賀県甲賀市水口町新城
5280011,滋賀県,甲賀市,水口町高塚,シガケン,コウカシ,ミナクチチョウタカツカ,滋賀県甲賀市水口町高塚
5280012,滋賀県,甲賀市,水口町暁,シガケン,コウカシ,ミナクチチョウアカツキ,滋賀県甲賀市水口町暁
5280013,滋賀県,甲賀市,水口町宮の前,シガケン,コウカシ,ミナクチチョウミヤノマエ,滋賀県甲賀市水口町宮の前
5280014,滋賀県,甲賀市,水口町鹿深,シガケン,コウカシ,ミナクチチョウロクシン,滋賀県甲賀市水口町鹿深
5280015,滋賀県,甲賀市,水口町松栄,シガケン,コウカシ,ミナクチチョウショウエイ,滋賀県甲賀市水口町松栄
5280016,滋賀県,甲賀市,水口町神明,シガケン,コウカシ,ミナクチチョウシンメイ,滋賀県甲賀市水口町神明
5280017,滋賀県,甲賀市,水口町京町,シガケン,コウカシ,ミナクチチョウキョウマチ,滋賀県甲賀市水口町京町
5280020,滋賀県,甲賀市,水口町的場,シガケン,コウカシ,ミナクチチョウマトバ,滋賀県甲賀市水口町的場
5280021,滋賀県,甲賀市,水口町八光,シガケン,コウカシ,ミナクチチョウハッコウ,滋賀県甲賀市水口町八光
5280022,滋賀県,甲賀市,水口町梅が丘,シガケン,コウカシ,ミナクチチョウウメガオカ,滋賀県甲賀市水口町梅が丘
5280023,滋賀県,甲賀市,水口町本丸,シガケン,コウカシ,ミナクチチョウホンマル,滋賀県甲賀市水口町本丸
5280024,滋賀県,甲賀市,水口町中邸,シガケン,コウカシ,ミナクチチョウナカヤシキ,滋賀県甲賀市水口町中邸
5280025,滋賀県,甲賀市,水口町西林口,シガケン,コウカシ,ミナクチチョウニシハヤシグチ,滋賀県甲賀市水口町西林口
5280026,滋賀県,甲賀市,水口町東林口,シガケン,コウカシ,ミナクチチョウヒガシハヤシグチ,滋賀県甲賀市水口町東林口
5280027,滋賀県,甲賀市,水口町城内,シガケン,コウカシ,ミナクチチョウジョウナイ,滋賀県甲賀市水口町城内
5280028,滋賀県,甲賀市,水口町城東,シガケン,コウカシ,ミナクチチョウジョウトウ,滋賀県甲賀市水口町城東
5280029,滋賀県,甲賀市,水口町南林口,シガケン,コウカシ,ミナクチチョウミナミハヤシグチ,滋賀県甲賀市水口町南林口
5280031,滋賀県,甲賀市,水口町本町,シガケン,コウカシ,ミナクチチョウホンマチ,滋賀県甲賀市水口町本町
5280032,滋賀県,甲賀市,水口町八坂,シガケン,コウカシ,ミナクチチョウヤサカ,滋賀県甲賀市水口町八坂
5280033,滋賀県,甲賀市,水口町綾野,シガケン,コウカシ,ミナクチチョウアヤノ,滋賀県甲賀市水口町綾野
5280034,滋賀県,甲賀市,水口町日電,シガケン,コウカシ,ミナクチチョウニチデン,滋賀県甲賀市水口町日電
5280035,滋賀県,甲賀市,水口町名坂,シガケン,コウカシ,ミナクチチョウナサカ,滋賀県甲賀市水口町名坂
5280036,滋賀県,甲賀市,水口町東名坂,シガケン,コウカシ,ミナクチチョウヒガシナサカ,滋賀県甲賀市水口町東名坂
5280037,滋賀県,甲賀市,水口町本綾野,シガケン,コウカシ,ミナクチチョウモトアヤノ,滋賀県甲賀市水口町本綾野
5280038,滋賀県,甲賀市,水口町新町,シガケン,コウカシ,ミナクチチョウシンマチ,滋賀県甲賀市水口町新町
5280040,滋賀県,甲賀市,水口町三本柳,シガケン,コウカシ,ミナクチチョウサンボンヤナギ,滋賀県甲賀市水口町三本柳
5280041,滋賀県,甲賀市,水口町虫生野,シガケン,コウカシ,ミナクチチョウムショウノ,滋賀県甲賀市水口町虫生野
5280042,滋賀県,甲賀市,水口町虫生野中央,シガケン,コウカシ,ミナクチチョウムショウノチュウオウ,滋賀県甲賀市水口町虫生野中央
5280043,滋賀県,甲賀市,水口町杣中,シガケン,コウカシ,ミナクチチョウソマナカ,滋賀県甲賀市水口町杣中
5280044,滋賀県,甲賀市,水口町山上,シガケン,コウカシ,ミナクチチョウヤマガミ,滋賀県甲賀市水口町山上
5280045,滋賀県,甲賀市,水口町牛飼,シガケン,コウカシ,ミナクチチョウウシカイ,滋賀県甲賀市水口町牛飼
5280046,滋賀県,甲賀市,水口町三大寺,シガケン,コウカシ,ミナクチチョウサンダイジ,滋賀県甲賀市水口町三大寺
5280047,滋賀県,甲賀市,水口町岩坂,シガケン,コウカシ,ミナクチチョウイワサカ,滋賀県甲賀市水口町岩坂
5280048,滋賀県,甲賀市,水口町高山,シガケン,コウカシ,ミナクチチョウタカヤマ,滋賀県甲賀市水口町高山
5280049,滋賀県,甲賀市,水口町貴生川,シガケン,コウカシ,ミナクチチョウキブカワ,滋賀県甲賀市水口町貴生川
5280051,滋賀県,甲賀市,水口町北内貴,シガケン,コウカシ,ミナクチチョウキタナイキ,滋賀県甲賀市水口町北内貴
5280052,滋賀県,甲賀市,水口町宇川,シガケン,コウカシ,ミナクチチョウウカワ,滋賀県甲賀市水口町宇川
5280053,滋賀県,甲賀市,水口町宇田,シガケン,コウカシ,ミナクチチョウウツタ,滋賀県甲賀市水口町宇田
5280054,滋賀県,甲賀市,水口町酒人,シガケン,コウカシ,ミナクチチョウサコウド,滋賀県甲賀市水口町酒人
5280055,滋賀県,甲賀市,水口町植,シガケン,コウカシ,ミナクチチョウウエ,滋賀県甲賀市水口町植
5280056,滋賀県,甲賀市,水口町泉,シガケン,コウカシ,ミナクチチョウイズミ,滋賀県甲賀市水口町泉
5280057,滋賀県,甲賀市,水口町北脇,シガケン,コウカシ,ミナクチチョウキタワキ,滋賀県甲賀市水口町北脇
5280058,滋賀県,甲賀市,水口町北泉,シガケン,コウカシ,ミナクチチョウキタイズミ,滋賀県甲賀市水口町北泉
5280061,滋賀県,甲賀市,水口町笹が丘,シガケン,コウカシ,ミナクチチョウササガオカ,滋賀県甲賀市水口町笹が丘
5280062,滋賀県,甲賀市,水口町さつきが丘,シガケン,コウカシ,ミナクチチョウサツキガオカ,滋賀県甲賀市水口町さつきが丘
5280063,滋賀県,甲賀市,水口町下山,シガケン,コウカシ,ミナクチチョウシモヤマ,滋賀県甲賀市水口町下山
5280064,滋賀県,甲賀市,水口町伴中山,シガケン,コウカシ,ミナクチチョウバンナカヤマ,滋賀県甲賀市水口町伴中山
5280065,滋賀県,甲賀市,水口町春日,シガケン,コウカシ,ミナクチチョウカスガ,滋賀県甲賀市水口町春日
5280066,滋賀県,甲賀市,水口町八田,シガケン,コウカシ,ミナクチチョウハッタ,滋賀県甲賀市水口町八田
5280067,滋賀県,甲賀市,水口町山,シガケン,コウカシ,ミナクチチョウヤマ,滋賀県甲賀市水口町山
5280068,滋賀県,甲賀市,水口町ひのきが丘,シガケン,コウカシ,ミナクチチョウヒノキガオカ,滋賀県甲賀市水口町ひのきが丘
5280069,滋賀県,甲賀市,水口町虫生野虹の町,シガケン,コウカシ,ミナクチチョウムショウノニジノマチ,滋賀県甲賀市水口町虫生野虹の町
5280071,滋賀県,甲賀市,水口町秋葉,シガケン,コウカシ,ミナクチチョウアキバ,滋賀県甲賀市水口町秋葉
5280072,滋賀県,甲賀市,水口町朝日が丘,シガケン,コウカシ,ミナクチチョウアサヒガオカ,滋賀県甲賀市水口町朝日が丘
5280073,滋賀県,甲賀市,水口町古城が丘,シガケン,コウカシ,ミナクチチョウコジョウガオカ,滋賀県甲賀市水口町古城が丘
5280074,滋賀県,甲賀市,水口町松尾,シガケン,コウカシ,ミナクチチョウマツオ,滋賀県甲賀市水口町松尾
5280201,滋賀県,甲賀市,土山町大河原,シガケン,コウカシ,ツチヤマチョウオオカワラ,滋賀県甲賀市土山町大河原
5280202,滋賀県,甲賀市,土山町鮎河,シガケン,コウカシ,ツチヤマチョウアユカワ,滋賀県甲賀市土山町鮎河
5280203,滋賀県,甲賀市,土山町黒滝,シガケン,コウカシ,ツチヤマチョウクロタキ,滋賀県甲賀市土山町黒滝
5280204,滋賀県,甲賀市,土山町山女原,シガケン,コウカシ,ツチヤマチョウアケビハラ,滋賀県甲賀市土山町山女原
5280205,滋賀県,甲賀市,土山町笹路,シガケン,コウカシ,ツチヤマチョウソソロ,滋賀県甲賀市土山町笹路
5280206,滋賀県,甲賀市,土山町山中,シガケン,コウカシ,ツチヤマチョウヤマナカ,滋賀県甲賀市土山町山中
5280207,滋賀県,甲賀市,土山町猪鼻,シガケン,コウカシ,ツチヤマチョウイノハナ,滋賀県甲賀市土山町猪鼻
5280208,滋賀県,甲賀市,土山町黒川,シガケン,コウカシ,ツチヤマチョウクロカワ,滋賀県甲賀市土山町黒川
5280211,滋賀県,甲賀市,土山町北土山,シガケン,コウカシ,ツチヤマチョウキタツチヤマ,滋賀県甲賀市土山町北土山
5280212,滋賀県,甲賀市,土山町南土山,シガケン,コウカシ,ツチヤマチョウミナミツチヤマ,滋賀県甲賀市土山町南土山
5280213,滋賀県,甲賀市,土山町大澤,シガケン,コウカシ,ツチヤマチョウオオザワ,滋賀県甲賀市土山町大澤
5280221,滋賀県,甲賀市,土山町青土,シガケン,コウカシ,ツチヤマチョウオオヅチ,滋賀県甲賀市土山町青土
5280222,滋賀県,甲賀市,土山町平子,シガケン,コウカシ,ツチヤマチョウヒラコ,滋賀県甲賀市土山町平子
5280223,滋賀県,甲賀市,土山町瀬ノ音,シガケン,コウカシ,ツチヤマチョウセノオト,滋賀県甲賀市土山町瀬ノ音
5280224,滋賀県,甲賀市,土山町野上野,シガケン,コウカシ,ツチヤマチョウノガミノ,滋賀県甲賀市土山町野上野
5280231,滋賀県,甲賀市,土山町頓宮,シガケン,コウカシ,ツチヤマチョウトングウ,滋賀県甲賀市土山町頓宮
5280232,滋賀県,甲賀市,土山町前野,シガケン,コウカシ,ツチヤマチョウマエノ,滋賀県甲賀市土山町前野
5280233,滋賀県,甲賀市,土山町市場,シガケン,コウカシ,ツチヤマチョウイチバ,滋賀県甲賀市土山町市場
5280234,滋賀県,甲賀市,土山町徳原,シガケン,コウカシ,ツチヤマチョウトクハラ,滋賀県甲賀市土山町徳原
5280235,滋賀県,甲賀市,土山町大野,シガケン,コウカシ,ツチヤマチョウオオノ,滋賀県甲賀市土山町大野
5290101,滋賀県,長浜市,唐国町,シガケン,ナガハマシ,カラクニチョウ,滋賀県長浜市唐国町
5290102,滋賀県,長浜市,月ヶ瀬町,シガケン,ナガハマシ,ツキガセチョウ,滋賀県長浜市月ヶ瀬町
5290103,滋賀県,長浜市,中野町,シガケン,ナガハマシ,ナカノチョウ,滋賀県長浜市中野町
5290111,滋賀県,長浜市,三川町,シガケン,ナガハマシ,ミカワチョウ,滋賀県長浜市三川町
5290112,滋賀県,長浜市,宮部町,シガケン,ナガハマシ,ミヤベチョウ,滋賀県長浜市宮部町
5290113,滋賀県,長浜市,大井町,シガケン,ナガハマシ,オオイチョウ,滋賀県長浜市大井町
5290121,滋賀県,長浜市,桜町,シガケン,ナガハマシ,サクラチョウ,滋賀県長浜市桜町
5290122,滋賀県,長浜市,酢,シガケン,ナガハマシ,ス,滋賀県長浜市酢
5290123,滋賀県,長浜市,西大井町,シガケン,ナガハマシ,ニシオオイチョウ,滋賀県長浜市西大井町
5290131,滋賀県,長浜市,柿ノ木,シガケン,ナガハマシ,カキノキ,滋賀県長浜市柿ノ木
5290132,滋賀県,長浜市,長田町,シガケン,ナガハマシ,ナガタチョウ,滋賀県長浜市長田町
5290133,滋賀県,長浜市,新旭町,シガケン,ナガハマシ,シンアサヒマチ,滋賀県長浜市新旭町
5290141,滋賀県,長浜市,五村,シガケン,ナガハマシ,ゴムラ,滋賀県長浜市五村
5290142,滋賀県,長浜市,田町,シガケン,ナガハマシ,タチョウ,滋賀県長浜市田町
5290143,滋賀県,長浜市,本町,シガケン,ナガハマシ,ホンチョウ,滋賀県長浜市本町
5290144,滋賀県,長浜市,大寺町,シガケン,ナガハマシ,ダイジチョウ,滋賀県長浜市大寺町
5290201,滋賀県,長浜市,高月町横山,シガケン,ナガハマシ,タカツキチョウヨコヤマ,滋賀県長浜市高月町横山
5290202,滋賀県,長浜市,高月町東高田,シガケン,ナガハマシ,タカツキチョウヒガシタカタ,滋賀県長浜市高月町東高田
5290203,滋賀県,長浜市,高月町磯野,シガケン,ナガハマシ,タカツキチョウイソノ,滋賀県長浜市高月町磯野
5290204,滋賀県,長浜市,高月町布施,シガケン,ナガハマシ,タカツキチョウフセ,滋賀県長浜市高月町布施
5290205,滋賀県,長浜市,高月町唐川,シガケン,ナガハマシ,タカツキチョウカラカワ,滋賀県長浜市高月町唐川
5290211,滋賀県,長浜市,高月町保延寺,シガケン,ナガハマシ,タカツキチョウホウエンジ,滋賀県長浜市高月町保延寺
5290212,滋賀県,長浜市,高月町井口,シガケン,ナガハマシ,タカツキチョウイノクチ,滋賀県長浜市高月町井口
5290213,滋賀県,長浜市,高月町持寺,シガケン,ナガハマシ,タカツキチョウモチデラ,滋賀県長浜市高月町持寺
5290214,滋賀県,長浜市,高月町洞戸,シガケン,ナガハマシ,タカツキチョウホラド,滋賀県長浜市高月町洞戸
5290215,滋賀県,長浜市,高月町尾山,シガケン,ナガハマシ,タカツキチョウオヤマ,滋賀県長浜市高月町尾山
5290221,滋賀県,長浜市,高月町高野,シガケン,ナガハマシ,タカツキチョウタカノ,滋賀県長浜市高月町高野
5290222,滋賀県,長浜市,高月町雨森,シガケン,ナガハマシ,タカツキチョウアメノモリ,滋賀県長浜市高月町雨森
5290223,滋賀県,長浜市,高月町馬上,シガケン,ナガハマシ,タカツキチョウマケ,滋賀県長浜市高月町馬上
5290231,滋賀県,長浜市,高月町森本,シガケン,ナガハマシ,タカツキチョウモリモト,滋賀県長浜市高月町森本
5290232,滋賀県,長浜市,高月町落川,シガケン,ナガハマシ,タカツキチョウオチカワ,滋賀県長浜市高月町落川
5290233,滋賀県,長浜市,高月町渡岸寺,シガケン,ナガハマシ,タカツキチョウドウガンジ,滋賀県長浜市高月町渡岸寺
5290234,滋賀県,長浜市,高月町柏原,シガケン,ナガハマシ,タカツキチョウカシハラ,滋賀県長浜市高月町柏原
5290241,滋賀県,長浜市,高月町高月,シガケン,ナガハマシ,タカツキチョウタカツキ,滋賀県長浜市高月町高月
5290251,滋賀県,長浜市,高月町宇根,シガケン,ナガハマシ,タカツキチョウウネ,滋賀県長浜市高月町宇根
5290252,滋賀県,長浜市,高月町東阿閉,シガケン,ナガハマシ,タカツキチョウヒガシアツジ,滋賀県長浜市高月町東阿閉
5290253,滋賀県,長浜市,高月町西阿閉,シガケン,ナガハマシ,タカツキチョウニシアツジ,滋賀県長浜市高月町西阿閉
5290261,滋賀県,長浜市,高月町東物部,シガケン,ナガハマシ,タカツキチョウヒガシモノベ,滋賀県長浜市高月町東物部
5290262,滋賀県,長浜市,高月町西物部,シガケン,ナガハマシ,タカツキチョウニシモノベ,滋賀県長浜市高月町西物部
5290263,滋賀県,長浜市,高月町東柳野,シガケン,ナガハマシ,タカツキチョウヒガシヤナギノ,滋賀県長浜市高月町東柳野
5290264,滋賀県,長浜市,高月町柳野中,シガケン,ナガハマシ,タカツキチョウヤナギノナカ,滋賀県長浜市高月町柳野中
5290265,滋賀県,長浜市,高月町西柳野,シガケン,ナガハマシ,タカツキチョウニシヤナギノ,滋賀県長浜市高月町西柳野
5290271,滋賀県,長浜市,高月町熊野,シガケン,ナガハマシ,タカツキチョウクマノ,滋賀県長浜市高月町熊野
5290272,滋賀県,長浜市,高月町片山,シガケン,ナガハマシ,タカツキチョウカタヤマ,滋賀県長浜市高月町片山
5290273,滋賀県,長浜市,高月町西野,シガケン,ナガハマシ,タカツキチョウニシノ,滋賀県長浜市高月町西野
5290274,滋賀県,長浜市,高月町松尾,シガケン,ナガハマシ,タカツキチョウマツオ,滋賀県長浜市高月町松尾
5290275,滋賀県,長浜市,高月町重則,シガケン,ナガハマシ,タカツキチョウシゲノリ,滋賀県長浜市高月町重則
5290301,滋賀県,長浜市,小谷上山田町,シガケン,ナガハマシ,オダニカミヤマダチョウ,滋賀県長浜市小谷上山田町
5290302,滋賀県,長浜市,下山田,シガケン,ナガハマシ,シモヤマダ,滋賀県長浜市下山田
5290303,滋賀県,長浜市,湖北町二俣,シガケン,ナガハマシ,コホクチョウフタマタ,滋賀県長浜市湖北町二俣
5290304,滋賀県,長浜市,小谷丁野町,シガケン,ナガハマシ,オダニヨウノチョウ,滋賀県長浜市小谷丁野町
5290311,滋賀県,長浜市,小谷美濃山町,シガケン,ナガハマシ,オダニミノヤマチョウ,滋賀県長浜市小谷美濃山町
5290312,滋賀県,長浜市,小谷郡上町,シガケン,ナガハマシ,オダニグジョウチョウ,滋賀県長浜市小谷郡上町
5290313,滋賀県,長浜市,湖北町伊部,シガケン,ナガハマシ,コホクチョウイベ,滋賀県長浜市湖北町伊部
5290314,滋賀県,長浜市,湖北町留目,シガケン,ナガハマシ,コホクチョウトドメ,滋賀県長浜市湖北町留目
5290315,滋賀県,長浜市,湖北町別所,シガケン,ナガハマシ,コホクチョウベッシヨ,滋賀県長浜市湖北町別所
5290316,滋賀県,長浜市,湖北町河毛,シガケン,ナガハマシ,コホクチョウカワケ,滋賀県長浜市湖北町河毛
5290317,滋賀県,長浜市,湖北町山脇,シガケン,ナガハマシ,コホクチョウヤマワキ,滋賀県長浜市湖北町山脇
5290321,滋賀県,長浜市,湖北町賀,シガケン,ナガハマシ,コホクチョウカ,滋賀県長浜市湖北町賀
5290322,滋賀県,長浜市,湖北町小今,シガケン,ナガハマシ,コホクチョウコイマ,滋賀県長浜市湖北町小今
5290331,滋賀県,長浜市,湖北町八日市,シガケン,ナガハマシ,コホクチョウヨウカイチ,滋賀県長浜市湖北町八日市
5290332,滋賀県,長浜市,湖北町青名,シガケン,ナガハマシ,コホクチョウアオナ,滋賀県長浜市湖北町青名
5290333,滋賀県,長浜市,湖北今町,シガケン,ナガハマシ,コホクイマチョウ,滋賀県長浜市湖北今町
5290334,滋賀県,長浜市,湖北町沢,シガケン,ナガハマシ,コホクチョウサワ,滋賀県長浜市湖北町沢
5290335,滋賀県,長浜市,湖北町猫口,シガケン,ナガハマシ,コホクチョウネコグチ,滋賀県長浜市湖北町猫口
5290341,滋賀県,長浜市,湖北町速水,シガケン,ナガハマシ,コホクチョウハヤミ,滋賀県長浜市湖北町速水
5290342,滋賀県,長浜市,湖北高田町,シガケン,ナガハマシ,コホクタカタチョウ,滋賀県長浜市湖北高田町
5290343,滋賀県,長浜市,湖北町小倉,シガケン,ナガハマシ,コホクチョウオグラ,滋賀県長浜市湖北町小倉
5290344,滋賀県,長浜市,湖北町馬渡,シガケン,ナガハマシ,コホクチョウモウタリ,滋賀県長浜市湖北町馬渡
5290345,滋賀県,長浜市,湖北町大安寺,シガケン,ナガハマシ,コホクチョウダイアンジ,滋賀県長浜市湖北町大安寺
5290346,滋賀県,長浜市,湖北町南速水,シガケン,ナガハマシ,コホクチョウミナミハヤミ,滋賀県長浜市湖北町南速水
5290351,滋賀県,長浜市,大光寺町,シガケン,ナガハマシ,ダイコウジチョウ,滋賀県長浜市大光寺町
5290352,滋賀県,長浜市,湖北町五坪,シガケン,ナガハマシ,コホクチョウゴノツボ,滋賀県長浜市湖北町五坪
5290353,滋賀県,長浜市,湖北町田中,シガケン,ナガハマシ,コホクチョウタナカ,滋賀県長浜市湖北町田中
5290354,滋賀県,長浜市,湖北町山本,シガケン,ナガハマシ,コホクチョウヤマモト,滋賀県長浜市湖北町山本
5290361,滋賀県,長浜市,湖北町石川,シガケン,ナガハマシ,コホクチョウイシカワ,滋賀県長浜市湖北町石川
5290362,滋賀県,長浜市,湖北町津里,シガケン,ナガハマシ,コホクチョウツノサト,滋賀県長浜市湖北町津里
5290363,滋賀県,長浜市,湖北東尾上町,シガケン,ナガハマシ,コホクヒガシオノエチョウ,滋賀県長浜市湖北東尾上町
5290364,滋賀県,長浜市,湖北町尾上,シガケン,ナガハマシ,コホクチョウオノエ,滋賀県長浜市湖北町尾上
5290365,滋賀県,長浜市,湖北町今西,シガケン,ナガハマシ,コホクチョウイマニシ,滋賀県長浜市湖北町今西
5290366,滋賀県,長浜市,湖北町延勝寺,シガケン,ナガハマシ,コホクチョウエンショウジ,滋賀県長浜市湖北町延勝寺
5290367,滋賀県,長浜市,湖北町海老江,シガケン,ナガハマシ,コホクチョウエビエ,滋賀県長浜市湖北町海老江
5290401,滋賀県,長浜市,木之本町金居原,シガケン,ナガハマシ,キノモトチョウカネイハラ,滋賀県長浜市木之本町金居原
5290402,滋賀県,長浜市,木之本町杉野,シガケン,ナガハマシ,キノモトチョウスギノ,滋賀県長浜市木之本町杉野
5290403,滋賀県,長浜市,木之本町音羽,シガケン,ナガハマシ,キノモトチョウオトワ,滋賀県長浜市木之本町音羽
5290404,滋賀県,長浜市,木之本町杉本,シガケン,ナガハマシ,キノモトチョウスギモト,滋賀県長浜市木之本町杉本
5290411,滋賀県,長浜市,木之本町古橋,シガケン,ナガハマシ,キノモトチョウフルハシ,滋賀県長浜市木之本町古橋
5290412,滋賀県,長浜市,木之本町石道,シガケン,ナガハマシ,キノモトチョウイシミチ,滋賀県長浜市木之本町石道
5290413,滋賀県,長浜市,木之本町小山,シガケン,ナガハマシ,キノモトチョウコヤマ,滋賀県長浜市木之本町小山
5290414,滋賀県,長浜市,木之本町川合,シガケン,ナガハマシ,キノモトチョウカワイ,滋賀県長浜市木之本町川合
5290415,滋賀県,長浜市,木之本町大見,シガケン,ナガハマシ,キノモトチョウオオミ,滋賀県長浜市木之本町大見
5290421,滋賀県,長浜市,木之本町アットリ,シガケン,ナガハマシ,キノモトチョウアットリ,滋賀県長浜市木之本町アットリ
5290422,滋賀県,長浜市,木之本町田部,シガケン,ナガハマシ,キノモトチョウタベ,滋賀県長浜市木之本町田部
5290423,滋賀県,長浜市,木之本町千田,シガケン,ナガハマシ,キノモトチョウセンダ,滋賀県長浜市木之本町千田
5290424,滋賀県,長浜市,木之本町廣瀬,シガケン,ナガハマシ,キノモトチョウヒロセ,滋賀県長浜市木之本町廣瀬
5290425,滋賀県,長浜市,木之本町木之本,シガケン,ナガハマシ,キノモトチョウキノモト,滋賀県長浜市木之本町木之本
5290426,滋賀県,長浜市,木之本町黒田,シガケン,ナガハマシ,キノモトチョウクロダ,滋賀県長浜市木之本町黒田
5290431,滋賀県,長浜市,木之本町大音,シガケン,ナガハマシ,キノモトチョウオオト,滋賀県長浜市木之本町大音
5290432,滋賀県,長浜市,木之本町田居,シガケン,ナガハマシ,キノモトチョウタイ,滋賀県長浜市木之本町田居
5290433,滋賀県,長浜市,木之本町西山,シガケン,ナガハマシ,キノモトチョウニシヤマ,滋賀県長浜市木之本町西山
5290434,滋賀県,長浜市,木之本町北布施,シガケン,ナガハマシ,キノモトチョウキタフセ,滋賀県長浜市木之本町北布施
5290435,滋賀県,長浜市,木之本町赤尾,シガケン,ナガハマシ,キノモトチョウアカオ,滋賀県長浜市木之本町赤尾
5290436,滋賀県,長浜市,木之本町山梨子,シガケン,ナガハマシ,キノモトチョウヤマナシ,滋賀県長浜市木之本町山梨子
5290437,滋賀県,長浜市,木之本町飯浦（その他）,シガケン,ナガハマシ,キノモトチョウハンノウラ(ソノタ),滋賀県長浜市木之本町飯浦（その他）
5290501,滋賀県,長浜市,余呉町針川,シガケン,ナガハマシ,ヨゴチョウハリカワ,滋賀県長浜市余呉町針川
5290502,滋賀県,長浜市,余呉町尾羽梨,シガケン,ナガハマシ,ヨゴチョウオバナシ,滋賀県長浜市余呉町尾羽梨
5290503,滋賀県,長浜市,余呉町奥川並,シガケン,ナガハマシ,ヨゴチョウオクカワナミ,滋賀県長浜市余呉町奥川並
5290504,滋賀県,長浜市,余呉町田戸,シガケン,ナガハマシ,ヨゴチョウタド,滋賀県長浜市余呉町田戸
5290505,滋賀県,長浜市,余呉町小原,シガケン,ナガハマシ,ヨゴチョウオハラ,滋賀県長浜市余呉町小原
5290506,滋賀県,長浜市,余呉町鷲見,シガケン,ナガハマシ,ヨゴチョウワシミ,滋賀県長浜市余呉町鷲見
5290511,滋賀県,長浜市,余呉町菅並,シガケン,ナガハマシ,ヨゴチョウスガナミ,滋賀県長浜市余呉町菅並
5290512,滋賀県,長浜市,余呉町上丹生,シガケン,ナガハマシ,ヨゴチョウカミニュウ,滋賀県長浜市余呉町上丹生
5290513,滋賀県,長浜市,余呉町摺墨,シガケン,ナガハマシ,ヨゴチョウスルスミ,滋賀県長浜市余呉町摺墨
5290514,滋賀県,長浜市,余呉町下丹生,シガケン,ナガハマシ,ヨゴチョウシモニュウ,滋賀県長浜市余呉町下丹生
5290515,滋賀県,長浜市,余呉町中之郷,シガケン,ナガハマシ,ヨゴチョウナカノゴウ,滋賀県長浜市余呉町中之郷
5290521,滋賀県,長浜市,余呉町下余呉,シガケン,ナガハマシ,ヨゴチョウシモヨゴ,滋賀県長浜市余呉町下余呉
5290522,滋賀県,長浜市,余呉町坂口,シガケン,ナガハマシ,ヨゴチョウサカグチ,滋賀県長浜市余呉町坂口
5290523,滋賀県,長浜市,余呉町川並,シガケン,ナガハマシ,ヨゴチョウカワナミ,滋賀県長浜市余呉町川並
5290524,滋賀県,長浜市,余呉町八戸,シガケン,ナガハマシ,ヨゴチョウヤト,滋賀県長浜市余呉町八戸
5290525,滋賀県,長浜市,余呉町文室,シガケン,ナガハマシ,ヨゴチョウフムロ,滋賀県長浜市余呉町文室
5290526,滋賀県,長浜市,余呉町国安,シガケン,ナガハマシ,ヨゴチョウクニヤス,滋賀県長浜市余呉町国安
5290527,滋賀県,長浜市,余呉町東野,シガケン,ナガハマシ,ヨゴチョウヒガシノ,滋賀県長浜市余呉町東野
5290531,滋賀県,長浜市,余呉町中河内,シガケン,ナガハマシ,ヨゴチョウナカノカワチ,滋賀県長浜市余呉町中河内
5290532,滋賀県,長浜市,余呉町椿坂,シガケン,ナガハマシ,ヨゴチョウツバキザカ,滋賀県長浜市余呉町椿坂
5290533,滋賀県,長浜市,余呉町柳ケ瀬,シガケン,ナガハマシ,ヨゴチョウヤナガセ,滋賀県長浜市余呉町柳ケ瀬
5290534,滋賀県,長浜市,余呉町小谷,シガケン,ナガハマシ,ヨゴチョウオオタニ,滋賀県長浜市余呉町小谷
5290535,滋賀県,長浜市,余呉町今市,シガケン,ナガハマシ,ヨゴチョウイマイチ,滋賀県長浜市余呉町今市
5290536,滋賀県,長浜市,余呉町池原,シガケン,ナガハマシ,ヨゴチョウイケハラ,滋賀県長浜市余呉町池原
5290537,滋賀県,長浜市,余呉町新堂,シガケン,ナガハマシ,ヨゴチョウシンドウ,滋賀県長浜市余呉町新堂
5290541,滋賀県,長浜市,木之本町飯浦（坂尻）,シガケン,ナガハマシ,キノモトチョウハンノウラ(サカジリ),滋賀県長浜市木之本町飯浦（坂尻）
5290701,滋賀県,長浜市,西浅井町塩津浜,シガケン,ナガハマシ,ニシアザイチョウシオツハマ,滋賀県長浜市西浅井町塩津浜
5290702,滋賀県,長浜市,西浅井町祝山,シガケン,ナガハマシ,ニシアザイチョウホリヤマ,滋賀県長浜市西浅井町祝山
5290703,滋賀県,長浜市,西浅井町野坂,シガケン,ナガハマシ,ニシアザイチョウノザカ,滋賀県長浜市西浅井町野坂
5290704,滋賀県,長浜市,西浅井町塩津中,シガケン,ナガハマシ,ニシアザイチョウシオツナカ,滋賀県長浜市西浅井町塩津中
5290705,滋賀県,長浜市,西浅井町横波,シガケン,ナガハマシ,ニシアザイチョウヨコナミ,滋賀県長浜市西浅井町横波
5290706,滋賀県,長浜市,西浅井町余,シガケン,ナガハマシ,ニシアザイチョウヨ,滋賀県長浜市西浅井町余
5290707,滋賀県,長浜市,西浅井町集福寺,シガケン,ナガハマシ,ニシアザイチョウシュウフクジ,滋賀県長浜市西浅井町集福寺
5290708,滋賀県,長浜市,西浅井町沓掛,シガケン,ナガハマシ,ニシアザイチョウクツカケ,滋賀県長浜市西浅井町沓掛
5290711,滋賀県,長浜市,西浅井町岩熊,シガケン,ナガハマシ,ニシアザイチョウヤノクマ,滋賀県長浜市西浅井町岩熊
5290712,滋賀県,長浜市,西浅井町月出,シガケン,ナガハマシ,ニシアザイチョウツキデ,滋賀県長浜市西浅井町月出
5290713,滋賀県,長浜市,西浅井町八田部,シガケン,ナガハマシ,ニシアザイチョウハタベ,滋賀県長浜市西浅井町八田部
5290714,滋賀県,長浜市,西浅井町小山,シガケン,ナガハマシ,ニシアザイチョウオヤマ,滋賀県長浜市西浅井町小山
5290715,滋賀県,長浜市,西浅井町山田,シガケン,ナガハマシ,ニシアザイチョウヤマダ,滋賀県長浜市西浅井町山田
5290721,滋賀県,長浜市,西浅井町大浦,シガケン,ナガハマシ,ニシアザイチョウオオウラ,滋賀県長浜市西浅井町大浦
5290722,滋賀県,長浜市,西浅井町庄,シガケン,ナガハマシ,ニシアザイチョウショウ,滋賀県長浜市西浅井町庄
5290723,滋賀県,長浜市,西浅井町中,シガケン,ナガハマシ,ニシアザイチョウナカ,滋賀県長浜市西浅井町中
5290724,滋賀県,長浜市,西浅井町山門,シガケン,ナガハマシ,ニシアザイチョウヤマカド,滋賀県長浜市西浅井町山門
5290725,滋賀県,長浜市,西浅井町黒山,シガケン,ナガハマシ,ニシアザイチョウクロヤマ,滋賀県長浜市西浅井町黒山
5290726,滋賀県,長浜市,西浅井町菅浦,シガケン,ナガハマシ,ニシアザイチョウスガウラ,滋賀県長浜市西浅井町菅浦
5291100,滋賀県,犬上郡豊郷町,,シガケン,イヌカミグントヨサトチョウ,,滋賀県犬上郡豊郷町
5291151,滋賀県,彦根市,楡町,シガケン,ヒコネシ,ニレチョウ,滋賀県彦根市楡町
5291152,滋賀県,彦根市,安食中町,シガケン,ヒコネシ,アンジキナカマチ,滋賀県彦根市安食中町
5291153,滋賀県,彦根市,太堂町,シガケン,ヒコネシ,タイドウチョウ,滋賀県彦根市太堂町
5291154,滋賀県,彦根市,千尋町,シガケン,ヒコネシ,チヒロチョウ,滋賀県彦根市千尋町
5291155,滋賀県,彦根市,賀田山町,シガケン,ヒコネシ,カタヤマチョウ,滋賀県彦根市賀田山町
5291156,滋賀県,彦根市,清崎町,シガケン,ヒコネシ,キヨサキチョウ,滋賀県彦根市清崎町
5291161,滋賀県,犬上郡豊郷町,四十九院,シガケン,イヌカミグントヨサトチョウ,シジュウクイン,滋賀県犬上郡豊郷町四十九院
5291162,滋賀県,犬上郡豊郷町,八町,シガケン,イヌカミグントヨサトチョウ,ハッチョウ,滋賀県犬上郡豊郷町八町
5291163,滋賀県,犬上郡豊郷町,雨降野,シガケン,イヌカミグントヨサトチョウ,アメフリノ,滋賀県犬上郡豊郷町雨降野
5291164,滋賀県,犬上郡豊郷町,日栄,シガケン,イヌカミグントヨサトチョウ,ヒエ,滋賀県犬上郡豊郷町日栄
5291165,滋賀県,犬上郡豊郷町,吉田,シガケン,イヌカミグントヨサトチョウ,ヨシダ,滋賀県犬上郡豊郷町吉田
5291166,滋賀県,犬上郡豊郷町,上枝,シガケン,イヌカミグントヨサトチョウ,カミエダ,滋賀県犬上郡豊郷町上枝
5291167,滋賀県,犬上郡豊郷町,杉,シガケン,イヌカミグントヨサトチョウ,スギ,滋賀県犬上郡豊郷町杉
5291168,滋賀県,犬上郡豊郷町,八目,シガケン,イヌカミグントヨサトチョウ,ハチメ,滋賀県犬上郡豊郷町八目
5291169,滋賀県,犬上郡豊郷町,石畑,シガケン,イヌカミグントヨサトチョウ,イシバタケ,滋賀県犬上郡豊郷町石畑
5291171,滋賀県,犬上郡豊郷町,安食西,シガケン,イヌカミグントヨサトチョウ,アンジキニシ,滋賀県犬上郡豊郷町安食西
5291172,滋賀県,犬上郡豊郷町,安食南,シガケン,イヌカミグントヨサトチョウ,アンジキミナミ,滋賀県犬上郡豊郷町安食南
5291173,滋賀県,犬上郡豊郷町,高野瀬,シガケン,イヌカミグントヨサトチョウ,タカノセ,滋賀県犬上郡豊郷町高野瀬
5291174,滋賀県,犬上郡豊郷町,下枝,シガケン,イヌカミグントヨサトチョウ,シモエダ,滋賀県犬上郡豊郷町下枝
5291175,滋賀県,犬上郡豊郷町,沢,シガケン,イヌカミグントヨサトチョウ,サワ,滋賀県犬上郡豊郷町沢
5291176,滋賀県,犬上郡豊郷町,大町,シガケン,イヌカミグントヨサトチョウ,オオマチ,滋賀県犬上郡豊郷町大町
5291177,滋賀県,犬上郡豊郷町,三ツ池,シガケン,イヌカミグントヨサトチョウ,ミツイケ,滋賀県犬上郡豊郷町三ツ池
5291201,滋賀県,愛知郡愛荘町,斧磨,シガケン,エチグンアイショウチョウ,ヨキトギ,滋賀県愛知郡愛荘町斧磨
5291202,滋賀県,愛知郡愛荘町,松尾寺,シガケン,エチグンアイショウチョウ,マツオジ,滋賀県愛知郡愛荘町松尾寺
5291203,滋賀県,愛知郡愛荘町,上蚊野,シガケン,エチグンアイショウチョウ,カミガノ,滋賀県愛知郡愛荘町上蚊野
5291204,滋賀県,愛知郡愛荘町,蚊野外,シガケン,エチグンアイショウチョウ,カノトノ,滋賀県愛知郡愛荘町蚊野外
5291205,滋賀県,愛知郡愛荘町,軽野,シガケン,エチグンアイショウチョウ,カルノ,滋賀県愛知郡愛荘町軽野
5291206,滋賀県,愛知郡愛荘町,蚊野,シガケン,エチグンアイショウチョウ,カノ,滋賀県愛知郡愛荘町蚊野
5291207,滋賀県,愛知郡愛荘町,岩倉,シガケン,エチグンアイショウチョウ,イワクラ,滋賀県愛知郡愛荘町岩倉
5291208,滋賀県,愛知郡愛荘町,竹原,シガケン,エチグンアイショウチョウ,タケハラ,滋賀県愛知郡愛荘町竹原
5291211,滋賀県,愛知郡愛荘町,香之庄,シガケン,エチグンアイショウチョウ,コノショウ,滋賀県愛知郡愛荘町香之庄
5291212,滋賀県,愛知郡愛荘町,元持,シガケン,エチグンアイショウチョウ,モトモチ,滋賀県愛知郡愛荘町元持
5291213,滋賀県,愛知郡愛荘町,沖,シガケン,エチグンアイショウチョウ,オキ,滋賀県愛知郡愛荘町沖
5291214,滋賀県,愛知郡愛荘町,宮後,シガケン,エチグンアイショウチョウ,ミヤウシロ,滋賀県愛知郡愛荘町宮後
5291221,滋賀県,愛知郡愛荘町,下八木,シガケン,エチグンアイショウチョウ,シモヤギ,滋賀県愛知郡愛荘町下八木
5291222,滋賀県,愛知郡愛荘町,北八木,シガケン,エチグンアイショウチョウ,キタヤギ,滋賀県愛知郡愛荘町北八木
5291223,滋賀県,愛知郡愛荘町,島川,シガケン,エチグンアイショウチョウ,シマガワ,滋賀県愛知郡愛荘町島川
5291224,滋賀県,愛知郡愛荘町,長塚,シガケン,エチグンアイショウチョウ,ナガツカ,滋賀県愛知郡愛荘町長塚
5291225,滋賀県,愛知郡愛荘町,栗田,シガケン,エチグンアイショウチョウ,クリタ,滋賀県愛知郡愛荘町栗田
5291226,滋賀県,愛知郡愛荘町,南野々目,シガケン,エチグンアイショウチョウ,ミナミノノメ,滋賀県愛知郡愛荘町南野々目
5291227,滋賀県,愛知郡愛荘町,野々目,シガケン,エチグンアイショウチョウ,ノノメ,滋賀県愛知郡愛荘町野々目
5291228,滋賀県,愛知郡愛荘町,矢守,シガケン,エチグンアイショウチョウ,ヤモリ,滋賀県愛知郡愛荘町矢守
5291231,滋賀県,愛知郡愛荘町,円城寺,シガケン,エチグンアイショウチョウ,エンジョウジ,滋賀県愛知郡愛荘町円城寺
5291232,滋賀県,愛知郡愛荘町,常安寺,シガケン,エチグンアイショウチョウ,ジョウアンジ,滋賀県愛知郡愛荘町常安寺
5291233,滋賀県,愛知郡愛荘町,東出,シガケン,エチグンアイショウチョウ,ヒガシデ,滋賀県愛知郡愛荘町東出
5291234,滋賀県,愛知郡愛荘町,安孫子,シガケン,エチグンアイショウチョウ,アビコ,滋賀県愛知郡愛荘町安孫子
5291235,滋賀県,愛知郡愛荘町,目加田,シガケン,エチグンアイショウチョウ,メカダ,滋賀県愛知郡愛荘町目加田
5291236,滋賀県,愛知郡愛荘町,深草,シガケン,エチグンアイショウチョウ,フコソ,滋賀県愛知郡愛荘町深草
5291237,滋賀県,愛知郡愛荘町,西出,シガケン,エチグンアイショウチョウ,ニシデ,滋賀県愛知郡愛荘町西出
5291300,滋賀県,愛知郡愛荘町,,シガケン,エチグンアイショウチョウ,,滋賀県愛知郡愛荘町
5291301,滋賀県,愛知郡愛荘町,山川原,シガケン,エチグンアイショウチョウ,ヤマガワラ,滋賀県愛知郡愛荘町山川原
5291302,滋賀県,愛知郡愛荘町,川原,シガケン,エチグンアイショウチョウ,カワラ,滋賀県愛知郡愛荘町川原
5291303,滋賀県,愛知郡愛荘町,長野,シガケン,エチグンアイショウチョウ,ナガノ,滋賀県愛知郡愛荘町長野
5291311,滋賀県,愛知郡愛荘町,石橋,シガケン,エチグンアイショウチョウ,イシハシ,滋賀県愛知郡愛荘町石橋
5291312,滋賀県,愛知郡愛荘町,川久保,シガケン,エチグンアイショウチョウ,カワクボ,滋賀県愛知郡愛荘町川久保
5291313,滋賀県,愛知郡愛荘町,市,シガケン,エチグンアイショウチョウ,イチ,滋賀県愛知郡愛荘町市
5291314,滋賀県,愛知郡愛荘町,中宿,シガケン,エチグンアイショウチョウ,ナカジュク,滋賀県愛知郡愛荘町中宿
5291315,滋賀県,愛知郡愛荘町,沓掛,シガケン,エチグンアイショウチョウ,クツカケ,滋賀県愛知郡愛荘町沓掛
5291321,滋賀県,愛知郡愛荘町,豊満,シガケン,エチグンアイショウチョウ,トヨミツ,滋賀県愛知郡愛荘町豊満
5291322,滋賀県,愛知郡愛荘町,平居,シガケン,エチグンアイショウチョウ,ヒライ,滋賀県愛知郡愛荘町平居
5291323,滋賀県,愛知郡愛荘町,畑田,シガケン,エチグンアイショウチョウ,ハタケダ,滋賀県愛知郡愛荘町畑田
5291324,滋賀県,愛知郡愛荘町,苅間,シガケン,エチグンアイショウチョウ,カリマ,滋賀県愛知郡愛荘町苅間
5291325,滋賀県,愛知郡愛荘町,東円堂,シガケン,エチグンアイショウチョウ,トウエンドウ,滋賀県愛知郡愛荘町東円堂
5291331,滋賀県,愛知郡愛荘町,愛知川,シガケン,エチグンアイショウチョウ,エチガワ,滋賀県愛知郡愛荘町愛知川
5291401,滋賀県,東近江市,五個荘石馬寺町,シガケン,ヒガシオウミシ,ゴカショウイシバジチョウ,滋賀県東近江市五個荘石馬寺町
5291402,滋賀県,東近江市,五個荘七里町,シガケン,ヒガシオウミシ,ゴカショウシチリチョウ,滋賀県東近江市五個荘七里町
5291403,滋賀県,東近江市,五個荘日吉町,シガケン,ヒガシオウミシ,ゴカショウヒヨシチョウ,滋賀県東近江市五個荘日吉町
5291404,滋賀県,東近江市,宮荘町,シガケン,ヒガシオウミシ,ミヤショウチョウ,滋賀県東近江市宮荘町
5291405,滋賀県,東近江市,五個荘金堂町,シガケン,ヒガシオウミシ,ゴカショウコンドウチョウ,滋賀県東近江市五個荘金堂町
5291411,滋賀県,東近江市,五個荘河曲町,シガケン,ヒガシオウミシ,ゴカショウカマガリチョウ,滋賀県東近江市五個荘河曲町
5291412,滋賀県,東近江市,五個荘和田町,シガケン,ヒガシオウミシ,ゴカショウワダチョウ,滋賀県東近江市五個荘和田町
5291413,滋賀県,東近江市,五個荘簗瀬町,シガケン,ヒガシオウミシ,ゴカショウヤナゼチョウ,滋賀県東近江市五個荘簗瀬町
5291414,滋賀県,東近江市,五個荘中町,シガケン,ヒガシオウミシ,ゴカショウナカチョウ,滋賀県東近江市五個荘中町
5291415,滋賀県,東近江市,五個荘五位田町,シガケン,ヒガシオウミシ,ゴカショウゴイデチョウ,滋賀県東近江市五個荘五位田町
5291421,滋賀県,東近江市,五個荘竜田町,シガケン,ヒガシオウミシ,ゴカショウタツタチョウ,滋賀県東近江市五個荘竜田町
5291422,滋賀県,東近江市,五個荘小幡町,シガケン,ヒガシオウミシ,ゴカショウオバタチョウ,滋賀県東近江市五個荘小幡町
5291423,滋賀県,東近江市,五個荘奥町,シガケン,ヒガシオウミシ,ゴカショウオクチョウ,滋賀県東近江市五個荘奥町
5291424,滋賀県,東近江市,五個荘三俣町,シガケン,ヒガシオウミシ,ゴカショウミツマタチョウ,滋賀県東近江市五個荘三俣町
5291425,滋賀県,東近江市,五個荘石川町,シガケン,ヒガシオウミシ,ゴカショウイシカワチョウ,滋賀県東近江市五個荘石川町
5291431,滋賀県,東近江市,五個荘山本町,シガケン,ヒガシオウミシ,ゴカショウヤマモトチョウ,滋賀県東近江市五個荘山本町
5291432,滋賀県,東近江市,五個荘新堂町,シガケン,ヒガシオウミシ,ゴカショウシンドウチョウ,滋賀県東近江市五個荘新堂町
5291433,滋賀県,東近江市,五個荘木流町,シガケン,ヒガシオウミシ,ゴカショウキナガセチョウ,滋賀県東近江市五個荘木流町
5291434,滋賀県,東近江市,五個荘平阪町,シガケン,ヒガシオウミシ,ゴカショウヒラサカチョウ,滋賀県東近江市五個荘平阪町
5291435,滋賀県,東近江市,五個荘伊野部町,シガケン,ヒガシオウミシ,ゴカショウイノベチョウ,滋賀県東近江市五個荘伊野部町
5291441,滋賀県,東近江市,五個荘川並町,シガケン,ヒガシオウミシ,ゴカショウカワナミチョウ,滋賀県東近江市五個荘川並町
5291442,滋賀県,東近江市,五個荘塚本町,シガケン,ヒガシオウミシ,ゴカショウツカモトチョウ,滋賀県東近江市五個荘塚本町
5291443,滋賀県,東近江市,五個荘北町屋町,シガケン,ヒガシオウミシ,ゴカショウキタマチヤチョウ,滋賀県東近江市五個荘北町屋町
5291444,滋賀県,東近江市,五個荘石塚町,シガケン,ヒガシオウミシ,ゴカショウイシヅカチョウ,滋賀県東近江市五個荘石塚町
5291445,滋賀県,東近江市,五個荘清水鼻町,シガケン,ヒガシオウミシ,ゴカショウシミズハナチョウ,滋賀県東近江市五個荘清水鼻町
5291501,滋賀県,東近江市,石塔町,シガケン,ヒガシオウミシ,イシドウチョウ,滋賀県東近江市石塔町
5291502,滋賀県,東近江市,平林町,シガケン,ヒガシオウミシ,ヒラバヤシチョウ,滋賀県東近江市平林町
5291503,滋賀県,東近江市,綺田町,シガケン,ヒガシオウミシ,カバタチョウ,滋賀県東近江市綺田町
5291504,滋賀県,東近江市,蒲生寺町,シガケン,ヒガシオウミシ,ガモウテラマチ,滋賀県東近江市蒲生寺町
5291511,滋賀県,東近江市,桜川東町,シガケン,ヒガシオウミシ,サクラガワヒガシチョウ,滋賀県東近江市桜川東町
5291512,滋賀県,東近江市,大塚町,シガケン,ヒガシオウミシ,オオツカチョウ,滋賀県東近江市大塚町
5291513,滋賀県,東近江市,田井町,シガケン,ヒガシオウミシ,タイチョウ,滋賀県東近江市田井町
5291514,滋賀県,東近江市,蒲生大森町,シガケン,ヒガシオウミシ,ガモウオオモリチョウ,滋賀県東近江市蒲生大森町
5291521,滋賀県,東近江市,蒲生岡本町,シガケン,ヒガシオウミシ,ガモウオカモトチョウ,滋賀県東近江市蒲生岡本町
5291522,滋賀県,東近江市,鋳物師町,シガケン,ヒガシオウミシ,イモノシチョウ,滋賀県東近江市鋳物師町
5291523,滋賀県,東近江市,上麻生町,シガケン,ヒガシオウミシ,カミアソウチョウ,滋賀県東近江市上麻生町
5291524,滋賀県,東近江市,下麻生町,シガケン,ヒガシオウミシ,シモアソウチョウ,滋賀県東近江市下麻生町
5291531,滋賀県,東近江市,市子川原町,シガケン,ヒガシオウミシ,イチコカワラチョウ,滋賀県東近江市市子川原町
5291532,滋賀県,東近江市,市子松井町,シガケン,ヒガシオウミシ,イチコマツイチョウ,滋賀県東近江市市子松井町
5291533,滋賀県,東近江市,市子沖町,シガケン,ヒガシオウミシ,イチコオキチョウ,滋賀県東近江市市子沖町
5291534,滋賀県,東近江市,鈴町,シガケン,ヒガシオウミシ,スズチョウ,滋賀県東近江市鈴町
5291535,滋賀県,東近江市,上南町,シガケン,ヒガシオウミシ,カミナチョウ,滋賀県東近江市上南町
5291536,滋賀県,東近江市,合戸町,シガケン,ヒガシオウミシ,ゴウドチョウ,滋賀県東近江市合戸町
5291537,滋賀県,東近江市,市子殿町,シガケン,ヒガシオウミシ,イチコトノチョウ,滋賀県東近江市市子殿町
5291541,滋賀県,東近江市,蒲生堂町,シガケン,ヒガシオウミシ,カモウドウチョウ,滋賀県東近江市蒲生堂町
5291551,滋賀県,東近江市,宮川町,シガケン,ヒガシオウミシ,ミヤガワチョウ,滋賀県東近江市宮川町
5291561,滋賀県,東近江市,稲垂町,シガケン,ヒガシオウミシ,イナタリチョウ,滋賀県東近江市稲垂町
5291562,滋賀県,東近江市,木村町,シガケン,ヒガシオウミシ,キムラチョウ,滋賀県東近江市木村町
5291563,滋賀県,東近江市,横山町,シガケン,ヒガシオウミシ,ヨコヤマチョウ,滋賀県東近江市横山町
5291564,滋賀県,東近江市,宮井町,シガケン,ヒガシオウミシ,ミヤイチョウ,滋賀県東近江市宮井町
5291565,滋賀県,東近江市,外原町,シガケン,ヒガシオウミシ,トノハラチョウ,滋賀県東近江市外原町
5291566,滋賀県,東近江市,葛巻町,シガケン,ヒガシオウミシ,カズラマキチョウ,滋賀県東近江市葛巻町
5291571,滋賀県,東近江市,川合町,シガケン,ヒガシオウミシ,カワイチョウ,滋賀県東近江市川合町
5291572,滋賀県,東近江市,桜川西町,シガケン,ヒガシオウミシ,サクラガワニシチョウ,滋賀県東近江市桜川西町
5291600,滋賀県,蒲生郡日野町,,シガケン,ガモウグンヒノチョウ,,滋賀県蒲生郡日野町
5291601,滋賀県,蒲生郡日野町,松尾,シガケン,ガモウグンヒノチョウ,マツオ,滋賀県蒲生郡日野町松尾
5291602,滋賀県,蒲生郡日野町,河原,シガケン,ガモウグンヒノチョウ,カワラ,滋賀県蒲生郡日野町河原
5291603,滋賀県,蒲生郡日野町,大窪,シガケン,ガモウグンヒノチョウ,オオクボ,滋賀県蒲生郡日野町大窪
5291604,滋賀県,蒲生郡日野町,村井,シガケン,ガモウグンヒノチョウ,ムライ,滋賀県蒲生郡日野町村井
5291605,滋賀県,蒲生郡日野町,小井口,シガケン,ガモウグンヒノチョウ,オイグチ,滋賀県蒲生郡日野町小井口
5291606,滋賀県,蒲生郡日野町,寺尻,シガケン,ガモウグンヒノチョウ,テラジリ,滋賀県蒲生郡日野町寺尻
5291607,滋賀県,蒲生郡日野町,木津,シガケン,ガモウグンヒノチョウ,キヅ,滋賀県蒲生郡日野町木津
5291608,滋賀県,蒲生郡日野町,大谷,シガケン,ガモウグンヒノチョウ,オオタニ,滋賀県蒲生郡日野町大谷
5291609,滋賀県,蒲生郡日野町,中道,シガケン,ガモウグンヒノチョウ,ナカミチ,滋賀県蒲生郡日野町中道
5291610,滋賀県,蒲生郡日野町,奥之池,シガケン,ガモウグンヒノチョウ,オクノイケ,滋賀県蒲生郡日野町奥之池
5291611,滋賀県,蒲生郡日野町,杣,シガケン,ガモウグンヒノチョウ,ソマ,滋賀県蒲生郡日野町杣
5291612,滋賀県,蒲生郡日野町,杉,シガケン,ガモウグンヒノチョウ,スギ,滋賀県蒲生郡日野町杉
5291613,滋賀県,蒲生郡日野町,川原,シガケン,ガモウグンヒノチョウ,カワラ,滋賀県蒲生郡日野町川原
5291614,滋賀県,蒲生郡日野町,原,シガケン,ガモウグンヒノチョウ,ハラ,滋賀県蒲生郡日野町原
5291615,滋賀県,蒲生郡日野町,小野,シガケン,ガモウグンヒノチョウ,コノ,滋賀県蒲生郡日野町小野
5291616,滋賀県,蒲生郡日野町,奥師,シガケン,ガモウグンヒノチョウ,オクシ,滋賀県蒲生郡日野町奥師
5291617,滋賀県,蒲生郡日野町,中之郷,シガケン,ガモウグンヒノチョウ,ナカノゴウ,滋賀県蒲生郡日野町中之郷
5291618,滋賀県,蒲生郡日野町,鳥居平,シガケン,ガモウグンヒノチョウ,トリイヒラ,滋賀県蒲生郡日野町鳥居平
5291619,滋賀県,蒲生郡日野町,佐久良,シガケン,ガモウグンヒノチョウ,サクラ,滋賀県蒲生郡日野町佐久良
5291621,滋賀県,蒲生郡日野町,西明寺,シガケン,ガモウグンヒノチョウ,サイミョウジ,滋賀県蒲生郡日野町西明寺
5291622,滋賀県,蒲生郡日野町,北畑,シガケン,ガモウグンヒノチョウ,キタバタ,滋賀県蒲生郡日野町北畑
5291623,滋賀県,蒲生郡日野町,熊野,シガケン,ガモウグンヒノチョウ,クマノ,滋賀県蒲生郡日野町熊野
5291624,滋賀県,蒲生郡日野町,平子,シガケン,ガモウグンヒノチョウ,ヒラコ,滋賀県蒲生郡日野町平子
5291625,滋賀県,蒲生郡日野町,蔵王,シガケン,ガモウグンヒノチョウ,ザオウ,滋賀県蒲生郡日野町蔵王
5291626,滋賀県,蒲生郡日野町,音羽,シガケン,ガモウグンヒノチョウ,オトワ,滋賀県蒲生郡日野町音羽
5291627,滋賀県,蒲生郡日野町,仁本木,シガケン,ガモウグンヒノチョウ,ニホンギ,滋賀県蒲生郡日野町仁本木
5291628,滋賀県,蒲生郡日野町,西大路,シガケン,ガモウグンヒノチョウ,ニシオオジ,滋賀県蒲生郡日野町西大路
5291631,滋賀県,蒲生郡日野町,鎌掛,シガケン,ガモウグンヒノチョウ,カイガケ,滋賀県蒲生郡日野町鎌掛
5291632,滋賀県,蒲生郡日野町,上駒月,シガケン,ガモウグンヒノチョウ,カミコマヅキ,滋賀県蒲生郡日野町上駒月
5291633,滋賀県,蒲生郡日野町,下駒月,シガケン,ガモウグンヒノチョウ,シモコマヅキ,滋賀県蒲生郡日野町下駒月
5291634,滋賀県,蒲生郡日野町,深山口,シガケン,ガモウグンヒノチョウ,ミヤマグチ,滋賀県蒲生郡日野町深山口
5291635,滋賀県,蒲生郡日野町,迫,シガケン,ガモウグンヒノチョウ,ハサマ,滋賀県蒲生郡日野町迫
5291636,滋賀県,蒲生郡日野町,清田,シガケン,ガモウグンヒノチョウ,キヨタ,滋賀県蒲生郡日野町清田
5291641,滋賀県,蒲生郡日野町,日田,シガケン,ガモウグンヒノチョウ,ヒダ,滋賀県蒲生郡日野町日田
5291642,滋賀県,蒲生郡日野町,上野田,シガケン,ガモウグンヒノチョウ,コウズケダ,滋賀県蒲生郡日野町上野田
5291643,滋賀県,蒲生郡日野町,里口,シガケン,ガモウグンヒノチョウ,サトグチ,滋賀県蒲生郡日野町里口
5291644,滋賀県,蒲生郡日野町,内池,シガケン,ガモウグンヒノチョウ,ウチイケ,滋賀県蒲生郡日野町内池
5291645,滋賀県,蒲生郡日野町,十禅師,シガケン,ガモウグンヒノチョウ,ジュウゼンジ,滋賀県蒲生郡日野町十禅師
5291646,滋賀県,蒲生郡日野町,猫田,シガケン,ガモウグンヒノチョウ,ネコダ,滋賀県蒲生郡日野町猫田
5291647,滋賀県,蒲生郡日野町,別所,シガケン,ガモウグンヒノチョウ,ベッシヨ,滋賀県蒲生郡日野町別所
5291648,滋賀県,蒲生郡日野町,いせの,シガケン,ガモウグンヒノチョウ,イセノ,滋賀県蒲生郡日野町いせの
5291651,滋賀県,蒲生郡日野町,山本,シガケン,ガモウグンヒノチョウ,ヤマモト,滋賀県蒲生郡日野町山本
5291652,滋賀県,蒲生郡日野町,小御門,シガケン,ガモウグンヒノチョウ,コミカド,滋賀県蒲生郡日野町小御門
5291653,滋賀県,蒲生郡日野町,三十坪,シガケン,ガモウグンヒノチョウ,ミソツ,滋賀県蒲生郡日野町三十坪
5291654,滋賀県,蒲生郡日野町,小谷,シガケン,ガモウグンヒノチョウ,コダニ,滋賀県蒲生郡日野町小谷
5291655,滋賀県,蒲生郡日野町,石原,シガケン,ガモウグンヒノチョウ,イシハラ,滋賀県蒲生郡日野町石原
5291656,滋賀県,蒲生郡日野町,増田,シガケン,ガモウグンヒノチョウ,マシダ,滋賀県蒲生郡日野町増田
5291657,滋賀県,蒲生郡日野町,豊田,シガケン,ガモウグンヒノチョウ,トヨタ,滋賀県蒲生郡日野町豊田
5291658,滋賀県,蒲生郡日野町,中山,シガケン,ガモウグンヒノチョウ,ナカヤマ,滋賀県蒲生郡日野町中山
5291661,滋賀県,蒲生郡日野町,安部居,シガケン,ガモウグンヒノチョウ,アベイ,滋賀県蒲生郡日野町安部居
5291662,滋賀県,蒲生郡日野町,中在寺,シガケン,ガモウグンヒノチョウ,ナカザイジ,滋賀県蒲生郡日野町中在寺
5291663,滋賀県,蒲生郡日野町,北脇,シガケン,ガモウグンヒノチョウ,キタワキ,滋賀県蒲生郡日野町北脇
5291664,滋賀県,蒲生郡日野町,蓮花寺,シガケン,ガモウグンヒノチョウ,レンゲジ,滋賀県蒲生郡日野町蓮花寺
5291665,滋賀県,蒲生郡日野町,野出,シガケン,ガモウグンヒノチョウ,ノデ,滋賀県蒲生郡日野町野出
5291801,滋賀県,甲賀市,信楽町宮町,シガケン,コウカシ,シガラキチョウミヤマチ,滋賀県甲賀市信楽町宮町
5291802,滋賀県,甲賀市,信楽町黄瀬,シガケン,コウカシ,シガラキチョウキノセ,滋賀県甲賀市信楽町黄瀬
5291803,滋賀県,甲賀市,信楽町牧,シガケン,コウカシ,シガラキチョウマキ,滋賀県甲賀市信楽町牧
5291804,滋賀県,甲賀市,信楽町勅旨,シガケン,コウカシ,シガラキチョウチョクシ,滋賀県甲賀市信楽町勅旨
5291811,滋賀県,甲賀市,信楽町江田,シガケン,コウカシ,シガラキチョウエダ,滋賀県甲賀市信楽町江田
5291812,滋賀県,甲賀市,信楽町神山,シガケン,コウカシ,シガラキチョウコウヤマ,滋賀県甲賀市信楽町神山
5291813,滋賀県,甲賀市,信楽町畑,シガケン,コウカシ,シガラキチョウハタ,滋賀県甲賀市信楽町畑
5291814,滋賀県,甲賀市,信楽町田代,シガケン,コウカシ,シガラキチョウタシロ,滋賀県甲賀市信楽町田代
5291821,滋賀県,甲賀市,信楽町多羅尾,シガケン,コウカシ,シガラキチョウタラオ,滋賀県甲賀市信楽町多羅尾
5291831,滋賀県,甲賀市,信楽町西,シガケン,コウカシ,シガラキチョウニシ,滋賀県甲賀市信楽町西
5291832,滋賀県,甲賀市,信楽町小川出,シガケン,コウカシ,シガラキチョウオガワデ,滋賀県甲賀市信楽町小川出
5291833,滋賀県,甲賀市,信楽町小川,シガケン,コウカシ,シガラキチョウオガワ,滋賀県甲賀市信楽町小川
5291834,滋賀県,甲賀市,信楽町杉山,シガケン,コウカシ,シガラキチョウスギヤマ,滋賀県甲賀市信楽町杉山
5291835,滋賀県,甲賀市,信楽町中野,シガケン,コウカシ,シガラキチョウナカノ,滋賀県甲賀市信楽町中野
5291836,滋賀県,甲賀市,信楽町柞原,シガケン,コウカシ,シガラキチョウホソハラ,滋賀県甲賀市信楽町柞原
5291841,滋賀県,甲賀市,信楽町上朝宮,シガケン,コウカシ,シガラキチョウカミアサミヤ,滋賀県甲賀市信楽町上朝宮
5291842,滋賀県,甲賀市,信楽町下朝宮,シガケン,コウカシ,シガラキチョウシモアサミヤ,滋賀県甲賀市信楽町下朝宮
5291843,滋賀県,甲賀市,信楽町宮尻,シガケン,コウカシ,シガラキチョウミヤジリ,滋賀県甲賀市信楽町宮尻
5291851,滋賀県,甲賀市,信楽町長野,シガケン,コウカシ,シガラキチョウナガノ,滋賀県甲賀市信楽町長野
