zipcode,prefecture_name,city,town,prefecture_kana,city_kana,town_kana,normalized_address
6300000,奈良県,奈良市,,ナラケン,ナラシ,,奈良県奈良市
6300000,奈良県,山辺郡山添村,,ナラケン,ヤマベグンヤマゾエムラ,,奈良県山辺郡山添村
6300101,奈良県,生駒市,高山町,ナラケン,イコマシ,タカヤマチョウ,奈良県生駒市高山町
6300111,奈良県,生駒市,鹿ノ台北,ナラケン,イコマシ,シカノダイキタ,奈良県生駒市鹿ノ台北
6300112,奈良県,生駒市,鹿ノ台東,ナラケン,イコマシ,シカノダイヒガシ,奈良県生駒市鹿ノ台東
6300113,奈良県,生駒市,鹿ノ台南,ナラケン,イコマシ,シカノダイミナミ,奈良県生駒市鹿ノ台南
6300114,奈良県,生駒市,鹿ノ台西,ナラケン,イコマシ,シカノダイニシ,奈良県生駒市鹿ノ台西
6300115,奈良県,生駒市,鹿畑町,ナラケン,イコマシ,シカハタチョウ,奈良県生駒市鹿畑町
6300116,奈良県,生駒市,美鹿の台,ナラケン,イコマシ,ミカノダイ,奈良県生駒市美鹿の台
6300121,奈良県,生駒市,北大和,ナラケン,イコマシ,キタヤマト,奈良県生駒市北大和
6300122,奈良県,生駒市,真弓,ナラケン,イコマシ,マユミ,奈良県生駒市真弓
6300123,奈良県,生駒市,真弓南,ナラケン,イコマシ,マユミミナミ,奈良県生駒市真弓南
6300131,奈良県,生駒市,上町,ナラケン,イコマシ,カミマチ,奈良県生駒市上町
6300132,奈良県,生駒市,あすか台,ナラケン,イコマシ,アスカダイ,奈良県生駒市あすか台
6300133,奈良県,生駒市,あすか野南,ナラケン,イコマシ,アスカノミナミ,奈良県生駒市あすか野南
6300134,奈良県,生駒市,あすか野北,ナラケン,イコマシ,アスカノキタ,奈良県生駒市あすか野北
6300135,奈良県,生駒市,南田原町,ナラケン,イコマシ,ミナミタワラチョウ,奈良県生駒市南田原町
6300136,奈良県,生駒市,白庭台,ナラケン,イコマシ,シラニワダイ,奈良県生駒市白庭台
6300137,奈良県,生駒市,西白庭台,ナラケン,イコマシ,ニシシラニワダイ,奈良県生駒市西白庭台
6300138,奈良県,生駒市,上町台,ナラケン,イコマシ,カミマチダイ,奈良県生駒市上町台
6300141,奈良県,生駒市,ひかりが丘,ナラケン,イコマシ,ヒカリガオカ,奈良県生駒市ひかりが丘
6300142,奈良県,生駒市,北田原町,ナラケン,イコマシ,キタタハラチョウ,奈良県生駒市北田原町
6300200,奈良県,生駒市,,ナラケン,イコマシ,,奈良県生駒市
6300201,奈良県,生駒市,小明町,ナラケン,イコマシ,コウミョウチョウ,奈良県生駒市小明町
6300202,奈良県,生駒市,生駒台南,ナラケン,イコマシ,イコマダイミナミ,奈良県生駒市生駒台南
6300203,奈良県,生駒市,生駒台北,ナラケン,イコマシ,イコマダイキタ,奈良県生駒市生駒台北
6300211,奈良県,生駒市,桜ケ丘,ナラケン,イコマシ,サクラガオカ,奈良県生駒市桜ケ丘
6300212,奈良県,生駒市,辻町,ナラケン,イコマシ,ツジマチ,奈良県生駒市辻町
6300213,奈良県,生駒市,東生駒,ナラケン,イコマシ,ヒガシイコマ,奈良県生駒市東生駒
6300214,奈良県,生駒市,東生駒月見町,ナラケン,イコマシ,ヒガシイコマツキミチョウ,奈良県生駒市東生駒月見町
6300215,奈良県,生駒市,東菜畑,ナラケン,イコマシ,ヒガシナバタ,奈良県生駒市東菜畑
6300221,奈良県,生駒市,さつき台,ナラケン,イコマシ,サツキダイ,奈良県生駒市さつき台
6300222,奈良県,生駒市,壱分町,ナラケン,イコマシ,イチブチョウ,奈良県生駒市壱分町
6300223,奈良県,生駒市,小瀬町,ナラケン,イコマシ,オゼチョウ,奈良県生駒市小瀬町
6300224,奈良県,生駒市,萩の台,ナラケン,イコマシ,ハギノダイ,奈良県生駒市萩の台
6300225,奈良県,生駒市,東山町,ナラケン,イコマシ,ヒガシヤマチョウ,奈良県生駒市東山町
6300226,奈良県,生駒市,小平尾町,ナラケン,イコマシ,コビラオチョウ,奈良県生駒市小平尾町
6300227,奈良県,生駒市,乙田町,ナラケン,イコマシ,オトダチョウ,奈良県生駒市乙田町
6300228,奈良県,生駒市,南山手台,ナラケン,イコマシ,ミナミヤマテダイ,奈良県生駒市南山手台
6300229,奈良県,生駒市,翠光台,ナラケン,イコマシ,スイコウダイ,奈良県生駒市翠光台
6300231,奈良県,生駒市,菜畑町,ナラケン,イコマシ,ナバタチョウ,奈良県生駒市菜畑町
6300232,奈良県,生駒市,小倉寺町,ナラケン,イコマシ,オグラジチョウ,奈良県生駒市小倉寺町
6300233,奈良県,生駒市,有里町,ナラケン,イコマシ,アリサトチョウ,奈良県生駒市有里町
6300234,奈良県,生駒市,萩原町,ナラケン,イコマシ,ハギハラチョウ,奈良県生駒市萩原町
6300235,奈良県,生駒市,藤尾町,ナラケン,イコマシ,フジオチョウ,奈良県生駒市藤尾町
6300236,奈良県,生駒市,西畑町,ナラケン,イコマシ,ニシハタチョウ,奈良県生駒市西畑町
6300237,奈良県,生駒市,鬼取町,ナラケン,イコマシ,オニトリチョウ,奈良県生駒市鬼取町
6300238,奈良県,生駒市,大門町,ナラケン,イコマシ,ダイモンチョウ,奈良県生駒市大門町
6300239,奈良県,生駒市,青山台,ナラケン,イコマシ,アオヤマダイ,奈良県生駒市青山台
6300241,奈良県,生駒市,松美台,ナラケン,イコマシ,マツミダイ,奈良県生駒市松美台
6300242,奈良県,生駒市,新生駒台,ナラケン,イコマシ,シンイコマダイ,奈良県生駒市新生駒台
6300243,奈良県,生駒市,俵口町,ナラケン,イコマシ,タワラグチチョウ,奈良県生駒市俵口町
6300244,奈良県,生駒市,東松ケ丘,ナラケン,イコマシ,ヒガシマツガオカ,奈良県生駒市東松ケ丘
6300245,奈良県,生駒市,北新町,ナラケン,イコマシ,キタシンマチ,奈良県生駒市北新町
6300246,奈良県,生駒市,西松ケ丘,ナラケン,イコマシ,ニシマツガオカ,奈良県生駒市西松ケ丘
6300247,奈良県,生駒市,光陽台,ナラケン,イコマシ,コウヨウダイ,奈良県生駒市光陽台
6300248,奈良県,生駒市,喜里が丘,ナラケン,イコマシ,キリガオカ,奈良県生駒市喜里が丘
6300251,奈良県,生駒市,谷田町,ナラケン,イコマシ,タニダチョウ,奈良県生駒市谷田町
6300252,奈良県,生駒市,山崎町,ナラケン,イコマシ,ヤマサキチョウ,奈良県生駒市山崎町
6300253,奈良県,生駒市,新旭ケ丘,ナラケン,イコマシ,シンアサヒガオカ,奈良県生駒市新旭ケ丘
6300254,奈良県,生駒市,東旭ケ丘,ナラケン,イコマシ,ヒガシアサヒガオカ,奈良県生駒市東旭ケ丘
6300255,奈良県,生駒市,山崎新町,ナラケン,イコマシ,ヤマサキシンマチ,奈良県生駒市山崎新町
6300256,奈良県,生駒市,本町,ナラケン,イコマシ,ホンマチ,奈良県生駒市本町
6300257,奈良県,生駒市,元町,ナラケン,イコマシ,モトマチ,奈良県生駒市元町
6300258,奈良県,生駒市,東新町,ナラケン,イコマシ,ヒガシシンマチ,奈良県生駒市東新町
6300261,奈良県,生駒市,西旭ケ丘,ナラケン,イコマシ,ニシアサヒガオカ,奈良県生駒市西旭ケ丘
6300262,奈良県,生駒市,緑ケ丘,ナラケン,イコマシ,ミドリガオカ,奈良県生駒市緑ケ丘
6300263,奈良県,生駒市,中菜畑,ナラケン,イコマシ,ナカナバタ,奈良県生駒市中菜畑
6300264,奈良県,生駒市,西菜畑町,ナラケン,イコマシ,ニシナバタチョウ,奈良県生駒市西菜畑町
6300265,奈良県,生駒市,軽井沢町,ナラケン,イコマシ,カルイザワチョウ,奈良県生駒市軽井沢町
6300266,奈良県,生駒市,門前町,ナラケン,イコマシ,モンゼンチョウ,奈良県生駒市門前町
6300267,奈良県,生駒市,仲之町,ナラケン,イコマシ,ナカノチョウ,奈良県生駒市仲之町
6301101,奈良県,奈良市,広岡町,ナラケン,ナラシ,ヒロオカチョウ,奈良県奈良市広岡町
6301102,奈良県,奈良市,下狭川町,ナラケン,ナラシ,シモサガワチョウ,奈良県奈良市下狭川町
6301103,奈良県,奈良市,狭川東町,ナラケン,ナラシ,サガワヒガシマチ,奈良県奈良市狭川東町
6301104,奈良県,奈良市,狭川両町,ナラケン,ナラシ,サガワリョウチョウ,奈良県奈良市狭川両町
6301105,奈良県,奈良市,西狭川町,ナラケン,ナラシ,ニシサガワチョウ,奈良県奈良市西狭川町
6301111,奈良県,奈良市,須川町,ナラケン,ナラシ,スガワチョウ,奈良県奈良市須川町
6301112,奈良県,奈良市,南庄町,ナラケン,ナラシ,ミナミショウチョウ,奈良県奈良市南庄町
6301113,奈良県,奈良市,北村町,ナラケン,ナラシ,キタムラチョウ,奈良県奈良市北村町
6301121,奈良県,奈良市,園田町,ナラケン,ナラシ,ソノダチョウ,奈良県奈良市園田町
6301122,奈良県,奈良市,平清水町,ナラケン,ナラシ,ヒラシミズチョウ,奈良県奈良市平清水町
6301123,奈良県,奈良市,生琉里町,ナラケン,ナラシ,フルサトチョウ,奈良県奈良市生琉里町
6301124,奈良県,奈良市,中ノ川町（１０６〜３０５、４０５−３、６３８）,ナラケン,ナラシ,ナカノカワチョウ(106-305、405-3、638),奈良県奈良市中ノ川町（106〜305、405-3、638）
6301125,奈良県,奈良市,東鳴川町,ナラケン,ナラシ,ヒガシナルカワチョウ,奈良県奈良市東鳴川町
6301126,奈良県,奈良市,法用町,ナラケン,ナラシ,ホウヨウチョウ,奈良県奈良市法用町
6301231,奈良県,奈良市,柳生下町,ナラケン,ナラシ,ヤギュウシモチョウ,奈良県奈良市柳生下町
6301232,奈良県,奈良市,興ヶ原町,ナラケン,ナラシ,オクガハラチョウ,奈良県奈良市興ヶ原町
6301233,奈良県,奈良市,邑地町,ナラケン,ナラシ,オオジチョウ,奈良県奈良市邑地町
6301234,奈良県,奈良市,北野山町,ナラケン,ナラシ,キタノヤマチョウ,奈良県奈良市北野山町
6301235,奈良県,奈良市,丹生町,ナラケン,ナラシ,ニュウチョウ,奈良県奈良市丹生町
6301236,奈良県,奈良市,大保町,ナラケン,ナラシ,オオボチョウ,奈良県奈良市大保町
6301237,奈良県,奈良市,柳生町,ナラケン,ナラシ,ヤギュウチョウ,奈良県奈良市柳生町
6301241,奈良県,奈良市,阪原町,ナラケン,ナラシ,サカハラチョウ,奈良県奈良市阪原町
6301242,奈良県,奈良市,大柳生町,ナラケン,ナラシ,オオヤギュウチョウ,奈良県奈良市大柳生町
6301243,奈良県,奈良市,大平尾町,ナラケン,ナラシ,オビラオチョウ,奈良県奈良市大平尾町
6301244,奈良県,奈良市,忍辱山町,ナラケン,ナラシ,ニンニクセンチョウ,奈良県奈良市忍辱山町
6301245,奈良県,奈良市,大慈仙町,ナラケン,ナラシ,ダイジセンチョウ,奈良県奈良市大慈仙町
6302151,奈良県,奈良市,水間町,ナラケン,ナラシ,ミマチョウ,奈良県奈良市水間町
6302152,奈良県,奈良市,杣ノ川町,ナラケン,ナラシ,ソマノカワチョウ,奈良県奈良市杣ノ川町
6302153,奈良県,奈良市,別所町,ナラケン,ナラシ,ベッシヨチョウ,奈良県奈良市別所町
6302161,奈良県,奈良市,大野町,ナラケン,ナラシ,オオノチョウ,奈良県奈良市大野町
6302162,奈良県,奈良市,中貫町,ナラケン,ナラシ,ナカヅラチョウ,奈良県奈良市中貫町
6302163,奈良県,奈良市,中之庄町,ナラケン,ナラシ,ナカノショウチョウ,奈良県奈良市中之庄町
6302164,奈良県,奈良市,南田原町,ナラケン,ナラシ,ミナミタワラチョウ,奈良県奈良市南田原町
6302165,奈良県,奈良市,長谷町,ナラケン,ナラシ,ナガタニチョウ,奈良県奈良市長谷町
6302166,奈良県,奈良市,矢田原町,ナラケン,ナラシ,ヤダワラチョウ,奈良県奈良市矢田原町
6302167,奈良県,奈良市,田原春日野町,ナラケン,ナラシ,タワラカスガノチョウ,奈良県奈良市田原春日野町
6302168,奈良県,奈良市,菩提山町（１７３〜２５７番地「鉢伏峠」）,ナラケン,ナラシ,ボダイセンチョウ(173-257バンチ<ハチブセトウゲ>),奈良県奈良市菩提山町（173〜257-「鉢伏峠」）
6302171,奈良県,奈良市,誓多林町,ナラケン,ナラシ,セタリンチョウ,奈良県奈良市誓多林町
6302172,奈良県,奈良市,沓掛町,ナラケン,ナラシ,クツカケチョウ,奈良県奈良市沓掛町
6302173,奈良県,奈良市,日笠町,ナラケン,ナラシ,ヒガサチョウ,奈良県奈良市日笠町
6302174,奈良県,奈良市,横田町,ナラケン,ナラシ,ヨコタチョウ,奈良県奈良市横田町
6302175,奈良県,奈良市,茗荷町,ナラケン,ナラシ,ミョウガチョウ,奈良県奈良市茗荷町
6302176,奈良県,奈良市,和田町,ナラケン,ナラシ,ワダチョウ,奈良県奈良市和田町
6302177,奈良県,奈良市,此瀬町,ナラケン,ナラシ,コノセチョウ,奈良県奈良市此瀬町
6302178,奈良県,奈良市,須山町,ナラケン,ナラシ,スヤマチョウ,奈良県奈良市須山町
6302201,奈良県,山辺郡山添村,峰寺,ナラケン,ヤマベグンヤマゾエムラ,ミネデラ,奈良県山辺郡山添村峰寺
6302202,奈良県,山辺郡山添村,的野,ナラケン,ヤマベグンヤマゾエムラ,マトノ,奈良県山辺郡山添村的野
6302203,奈良県,山辺郡山添村,松尾,ナラケン,ヤマベグンヤマゾエムラ,マツオ,奈良県山辺郡山添村松尾
6302204,奈良県,山辺郡山添村,室津,ナラケン,ヤマベグンヤマゾエムラ,ムロヅ,奈良県山辺郡山添村室津
6302205,奈良県,山辺郡山添村,桐山,ナラケン,ヤマベグンヤマゾエムラ,キリヤマ,奈良県山辺郡山添村桐山
6302211,奈良県,山辺郡山添村,北野,ナラケン,ヤマベグンヤマゾエムラ,キタノ,奈良県山辺郡山添村北野
6302212,奈良県,山辺郡山添村,大塩,ナラケン,ヤマベグンヤマゾエムラ,オオシオ,奈良県山辺郡山添村大塩
6302221,奈良県,山辺郡山添村,箕輪,ナラケン,ヤマベグンヤマゾエムラ,ミノワ,奈良県山辺郡山添村箕輪
6302222,奈良県,山辺郡山添村,堂前,ナラケン,ヤマベグンヤマゾエムラ,ドウマエ,奈良県山辺郡山添村堂前
6302223,奈良県,山辺郡山添村,三ケ谷,ナラケン,ヤマベグンヤマゾエムラ,ミカダニ,奈良県山辺郡山添村三ケ谷
6302224,奈良県,山辺郡山添村,助命,ナラケン,ヤマベグンヤマゾエムラ,ゼミョウ,奈良県山辺郡山添村助命
6302225,奈良県,山辺郡山添村,伏拝,ナラケン,ヤマベグンヤマゾエムラ,フシオガミ,奈良県山辺郡山添村伏拝
6302231,奈良県,山辺郡山添村,勝原,ナラケン,ヤマベグンヤマゾエムラ,カツハラ,奈良県山辺郡山添村勝原
6302232,奈良県,山辺郡山添村,岩屋,ナラケン,ヤマベグンヤマゾエムラ,イワヤ,奈良県山辺郡山添村岩屋
6302233,奈良県,山辺郡山添村,毛原,ナラケン,ヤマベグンヤマゾエムラ,ケハラ,奈良県山辺郡山添村毛原
6302234,奈良県,山辺郡山添村,切幡,ナラケン,ヤマベグンヤマゾエムラ,キリハタ,奈良県山辺郡山添村切幡
6302301,奈良県,奈良市,月ヶ瀬石打,ナラケン,ナラシ,ツキガセイシウチ,奈良県奈良市月ヶ瀬石打
6302302,奈良県,奈良市,月ヶ瀬尾山,ナラケン,ナラシ,ツキガセオヤマ,奈良県奈良市月ヶ瀬尾山
6302303,奈良県,奈良市,月ヶ瀬長引,ナラケン,ナラシ,ツキガセナガヒキ,奈良県奈良市月ヶ瀬長引
6302304,奈良県,奈良市,月ヶ瀬嵩,ナラケン,ナラシ,ツキガセダケ,奈良県奈良市月ヶ瀬嵩
6302305,奈良県,奈良市,月ヶ瀬月瀬,ナラケン,ナラシ,ツキガセツキセ,奈良県奈良市月ヶ瀬月瀬
6302306,奈良県,奈良市,月ヶ瀬桃香野,ナラケン,ナラシ,ツキガセモモガノ,奈良県奈良市月ヶ瀬桃香野
6302341,奈良県,山辺郡山添村,遅瀬,ナラケン,ヤマベグンヤマゾエムラ,オソセ,奈良県山辺郡山添村遅瀬
6302342,奈良県,山辺郡山添村,広代,ナラケン,ヤマベグンヤマゾエムラ,ヒロダイ,奈良県山辺郡山添村広代
6302343,奈良県,山辺郡山添村,春日,ナラケン,ヤマベグンヤマゾエムラ,カスガ,奈良県山辺郡山添村春日
6302344,奈良県,山辺郡山添村,大西,ナラケン,ヤマベグンヤマゾエムラ,オオニシ,奈良県山辺郡山添村大西
6302345,奈良県,山辺郡山添村,菅生,ナラケン,ヤマベグンヤマゾエムラ,スゴウ,奈良県山辺郡山添村菅生
6302346,奈良県,山辺郡山添村,西波多,ナラケン,ヤマベグンヤマゾエムラ,ニシハタ,奈良県山辺郡山添村西波多
6302351,奈良県,山辺郡山添村,中峰山,ナラケン,ヤマベグンヤマゾエムラ,チュウムザン,奈良県山辺郡山添村中峰山
6302352,奈良県,山辺郡山添村,中之庄,ナラケン,ヤマベグンヤマゾエムラ,ナカノショウ,奈良県山辺郡山添村中之庄
6302353,奈良県,山辺郡山添村,吉田,ナラケン,ヤマベグンヤマゾエムラ,ヨシダ,奈良県山辺郡山添村吉田
6302354,奈良県,山辺郡山添村,広瀬,ナラケン,ヤマベグンヤマゾエムラ,ヒロセ,奈良県山辺郡山添村広瀬
6302355,奈良県,山辺郡山添村,鵜山,ナラケン,ヤマベグンヤマゾエムラ,ウヤマ,奈良県山辺郡山添村鵜山
6302356,奈良県,山辺郡山添村,片平,ナラケン,ヤマベグンヤマゾエムラ,カタヒラ,奈良県山辺郡山添村片平
6302357,奈良県,山辺郡山添村,葛尾,ナラケン,ヤマベグンヤマゾエムラ,クズオ,奈良県山辺郡山添村葛尾
6308001,奈良県,奈良市,法華寺町,ナラケン,ナラシ,ホッケジチョウ,奈良県奈良市法華寺町
6308002,奈良県,奈良市,二条町,ナラケン,ナラシ,ニジョウチョウ,奈良県奈良市二条町
6308003,奈良県,奈良市,佐紀町,ナラケン,ナラシ,サキチョウ,奈良県奈良市佐紀町
6308011,奈良県,奈良市,北新町,ナラケン,ナラシ,キタシンマチ,奈良県奈良市北新町
6308012,奈良県,奈良市,二条大路南,ナラケン,ナラシ,ニジョウオオジミナミ,奈良県奈良市二条大路南
6308013,奈良県,奈良市,三条大路,ナラケン,ナラシ,サンジョウオオジ,奈良県奈良市三条大路
6308014,奈良県,奈良市,四条大路,ナラケン,ナラシ,シジョウオオジ,奈良県奈良市四条大路
6308015,奈良県,奈良市,四条大路南町,ナラケン,ナラシ,シジョウオオジミナミマチ,奈良県奈良市四条大路南町
6308016,奈良県,奈良市,南新町（５２〜２１２番地）,ナラケン,ナラシ,ミナミシンチョウ(52-212バンチ),奈良県奈良市南新町（52〜212-）
6308021,奈良県,奈良市,尼辻町,ナラケン,ナラシ,アマガツジチョウ,奈良県奈良市尼辻町
6308022,奈良県,奈良市,尼辻南町,ナラケン,ナラシ,アマガツジミナミマチ,奈良県奈良市尼辻南町
6308023,奈良県,奈良市,尼辻西町,ナラケン,ナラシ,アマガツジニシマチ,奈良県奈良市尼辻西町
6308024,奈良県,奈良市,尼辻中町,ナラケン,ナラシ,アマガツジナカマチ,奈良県奈良市尼辻中町
6308025,奈良県,奈良市,尼辻北町,ナラケン,ナラシ,アマガツジキタマチ,奈良県奈良市尼辻北町
6308031,奈良県,奈良市,柏木町,ナラケン,ナラシ,カシワギチョウ,奈良県奈良市柏木町
6308032,奈良県,奈良市,五条町,ナラケン,ナラシ,ゴジョウチョウ,奈良県奈良市五条町
6308033,奈良県,奈良市,五条,ナラケン,ナラシ,ゴジョウ,奈良県奈良市五条
6308034,奈良県,奈良市,五条西,ナラケン,ナラシ,ゴジョウニシ,奈良県奈良市五条西
6308035,奈良県,奈良市,赤膚町,ナラケン,ナラシ,アカハダチョウ,奈良県奈良市赤膚町
6308036,奈良県,奈良市,五条畑,ナラケン,ナラシ,ゴジョウバタ,奈良県奈良市五条畑
6308037,奈良県,奈良市,中町（５１１５〜５１４９、５１７１、５１８３、５１８６、,ナラケン,ナラシ,ナカマチ(5115-5149、5171、5183、5186、,奈良県奈良市中町（5115〜5149、5171、5183、5186、
6308041,奈良県,奈良市,六条町,ナラケン,ナラシ,ロクジョウチョウ,奈良県奈良市六条町
6308042,奈良県,奈良市,西ノ京町,ナラケン,ナラシ,ニシノキョウチョウ,奈良県奈良市西ノ京町
6308043,奈良県,奈良市,六条,ナラケン,ナラシ,ロクジョウ,奈良県奈良市六条
6308044,奈良県,奈良市,六条西,ナラケン,ナラシ,ロクジョウニシ,奈良県奈良市六条西
6308045,奈良県,奈良市,六条緑町,ナラケン,ナラシ,ロクジョウミドリマチ,奈良県奈良市六条緑町
6308051,奈良県,奈良市,七条町,ナラケン,ナラシ,シチジョウチョウ,奈良県奈良市七条町
6308052,奈良県,奈良市,七条東町,ナラケン,ナラシ,シチジョウヒガシマチ,奈良県奈良市七条東町
6308053,奈良県,奈良市,七条,ナラケン,ナラシ,シチジョウ,奈良県奈良市七条
6308054,奈良県,奈良市,七条西町,ナラケン,ナラシ,シチジョウニシマチ,奈良県奈良市七条西町
6308101,奈良県,奈良市,青山,ナラケン,ナラシ,アオヤマ,奈良県奈良市青山
6308102,奈良県,奈良市,般若寺町,ナラケン,ナラシ,ハンニャジチョウ,奈良県奈良市般若寺町
6308103,奈良県,奈良市,興善院町,ナラケン,ナラシ,コウゼンインチョウ,奈良県奈良市興善院町
6308104,奈良県,奈良市,奈良阪町,ナラケン,ナラシ,ナラザカチョウ,奈良県奈良市奈良阪町
6308105,奈良県,奈良市,佐保台,ナラケン,ナラシ,サホダイ,奈良県奈良市佐保台
6308106,奈良県,奈良市,佐保台西町,ナラケン,ナラシ,サホダイニシマチ,奈良県奈良市佐保台西町
6308107,奈良県,奈良市,奈保町,ナラケン,ナラシ,ナホチョウ,奈良県奈良市奈保町
6308108,奈良県,奈良市,法蓮佐保山,ナラケン,ナラシ,ホウレンサホヤマ,奈良県奈良市法蓮佐保山
6308111,奈良県,奈良市,半田開町,ナラケン,ナラシ,ハンダビラキチョウ,奈良県奈良市半田開町
6308112,奈良県,奈良市,多門町,ナラケン,ナラシ,タモンチョウ,奈良県奈良市多門町
6308113,奈良県,奈良市,法蓮町,ナラケン,ナラシ,ホウレンチョウ,奈良県奈良市法蓮町
6308114,奈良県,奈良市,芝辻町,ナラケン,ナラシ,シバツジチョウ,奈良県奈良市芝辻町
6308115,奈良県,奈良市,大宮町,ナラケン,ナラシ,オオミヤチョウ,奈良県奈良市大宮町
6308121,奈良県,奈良市,三条宮前町,ナラケン,ナラシ,サンジョウミヤマエチョウ,奈良県奈良市三条宮前町
6308122,奈良県,奈良市,三条本町,ナラケン,ナラシ,サンジョウホンマチ,奈良県奈良市三条本町
6308123,奈良県,奈良市,三条大宮町,ナラケン,ナラシ,サンジョウオオミヤチョウ,奈良県奈良市三条大宮町
6308124,奈良県,奈良市,三条桧町,ナラケン,ナラシ,サンジョウヒノキマチ,奈良県奈良市三条桧町
6308125,奈良県,奈良市,三条川西町,ナラケン,ナラシ,サンジョウカワニシチョウ,奈良県奈良市三条川西町
6308126,奈良県,奈良市,三条栄町,ナラケン,ナラシ,サンジョウサカエマチ,奈良県奈良市三条栄町
6308127,奈良県,奈良市,三条添川町,ナラケン,ナラシ,サンジョウソエカワチョウ,奈良県奈良市三条添川町
6308131,奈良県,奈良市,大森町,ナラケン,ナラシ,オオモリチョウ,奈良県奈良市大森町
6308132,奈良県,奈良市,大森西町,ナラケン,ナラシ,オオモリニシマチ,奈良県奈良市大森西町
6308133,奈良県,奈良市,大安寺,ナラケン,ナラシ,ダイアンジ,奈良県奈良市大安寺
6308134,奈良県,奈良市,大安寺町,ナラケン,ナラシ,ダイアンジチョウ,奈良県奈良市大安寺町
6308135,奈良県,奈良市,大安寺西,ナラケン,ナラシ,ダイアンジニシ,奈良県奈良市大安寺西
6308136,奈良県,奈良市,恋の窪,ナラケン,ナラシ,コイノクボ,奈良県奈良市恋の窪
6308137,奈良県,奈良市,恋の窪東町,ナラケン,ナラシ,コイノクボヒガシマチ,奈良県奈良市恋の窪東町
6308141,奈良県,奈良市,南京終町,ナラケン,ナラシ,ミナミキョウバテチョウ,奈良県奈良市南京終町
6308142,奈良県,奈良市,肘塚町,ナラケン,ナラシ,カイノヅカチョウ,奈良県奈良市肘塚町
6308143,奈良県,奈良市,桂木町,ナラケン,ナラシ,カツラギチョウ,奈良県奈良市桂木町
6308144,奈良県,奈良市,東九条町,ナラケン,ナラシ,トウクジョウチョウ,奈良県奈良市東九条町
6308145,奈良県,奈良市,八条,ナラケン,ナラシ,ハチジョウ,奈良県奈良市八条
6308146,奈良県,奈良市,八条町,ナラケン,ナラシ,ハチジョウチョウ,奈良県奈良市八条町
6308201,奈良県,奈良市,中ノ川町（その他）,ナラケン,ナラシ,ナカノカワチョウ(ソノタ),奈良県奈良市中ノ川町（その他）
6308202,奈良県,奈良市,川上町,ナラケン,ナラシ,カワカミチョウ,奈良県奈良市川上町
6308203,奈良県,奈良市,東之阪町,ナラケン,ナラシ,ヒガシノサカチョウ,奈良県奈良市東之阪町
6308204,奈良県,奈良市,北御門町,ナラケン,ナラシ,キタミカドチョウ,奈良県奈良市北御門町
6308205,奈良県,奈良市,今在家町,ナラケン,ナラシ,イマザイケチョウ,奈良県奈良市今在家町
6308206,奈良県,奈良市,手貝町,ナラケン,ナラシ,テガイチョウ,奈良県奈良市手貝町
6308207,奈良県,奈良市,今小路町,ナラケン,ナラシ,イマコウジチョウ,奈良県奈良市今小路町
6308208,奈良県,奈良市,水門町,ナラケン,ナラシ,スイモンチョウ,奈良県奈良市水門町
6308211,奈良県,奈良市,雑司町,ナラケン,ナラシ,ゾウシチョウ,奈良県奈良市雑司町
6308212,奈良県,奈良市,春日野町,ナラケン,ナラシ,カスガノチョウ,奈良県奈良市春日野町
6308213,奈良県,奈良市,登大路町,ナラケン,ナラシ,ノボリオオジチョウ,奈良県奈良市登大路町
6308214,奈良県,奈良市,東向北町,ナラケン,ナラシ,ヒガシムキキタマチ,奈良県奈良市東向北町
6308215,奈良県,奈良市,東向中町,ナラケン,ナラシ,ヒガシムキナカマチ,奈良県奈良市東向中町
6308216,奈良県,奈良市,東向南町,ナラケン,ナラシ,ヒガシムキミナミマチ,奈良県奈良市東向南町
6308217,奈良県,奈良市,橋本町,ナラケン,ナラシ,ハシモトチョウ,奈良県奈良市橋本町
6308218,奈良県,奈良市,樽井町,ナラケン,ナラシ,タルイチョウ,奈良県奈良市樽井町
6308221,奈良県,奈良市,元林院町,ナラケン,ナラシ,ガンリインチョウ,奈良県奈良市元林院町
6308222,奈良県,奈良市,餅飯殿町,ナラケン,ナラシ,モチイドノチョウ,奈良県奈良市餅飯殿町
6308223,奈良県,奈良市,角振新屋町,ナラケン,ナラシ,ツノフリシンヤチョウ,奈良県奈良市角振新屋町
6308224,奈良県,奈良市,角振町,ナラケン,ナラシ,ツノフリチョウ,奈良県奈良市角振町
6308225,奈良県,奈良市,西御門町,ナラケン,ナラシ,ニシミカドチョウ,奈良県奈良市西御門町
6308226,奈良県,奈良市,小西町,ナラケン,ナラシ,コニシチョウ,奈良県奈良市小西町
6308227,奈良県,奈良市,林小路町,ナラケン,ナラシ,ハヤシコウジチョウ,奈良県奈良市林小路町
6308228,奈良県,奈良市,上三条町,ナラケン,ナラシ,カミサンジョウチョウ,奈良県奈良市上三条町
6308231,奈良県,奈良市,本子守町,ナラケン,ナラシ,ホンコモリチョウ,奈良県奈良市本子守町
6308232,奈良県,奈良市,北向町,ナラケン,ナラシ,キタムキチョウ,奈良県奈良市北向町
6308233,奈良県,奈良市,小川町,ナラケン,ナラシ,オガワチョウ,奈良県奈良市小川町
6308234,奈良県,奈良市,寺町,ナラケン,ナラシ,テラマチ,奈良県奈良市寺町
6308235,奈良県,奈良市,奥子守町,ナラケン,ナラシ,オクコモリチョウ,奈良県奈良市奥子守町
6308236,奈良県,奈良市,下三条町,ナラケン,ナラシ,シモサンジョウチョウ,奈良県奈良市下三条町
6308237,奈良県,奈良市,中筋町,ナラケン,ナラシ,ナカスジチョウ,奈良県奈良市中筋町
6308238,奈良県,奈良市,高天市町,ナラケン,ナラシ,タカマイチチョウ,奈良県奈良市高天市町
6308241,奈良県,奈良市,高天町,ナラケン,ナラシ,タカマチョウ,奈良県奈良市高天町
6308242,奈良県,奈良市,漢国町,ナラケン,ナラシ,カンゴクチョウ,奈良県奈良市漢国町
6308243,奈良県,奈良市,今辻子町,ナラケン,ナラシ,イマヅシチョウ,奈良県奈良市今辻子町
6308244,奈良県,奈良市,三条町,ナラケン,ナラシ,サンジョウチョウ,奈良県奈良市三条町
6308245,奈良県,奈良市,西之阪町,ナラケン,ナラシ,ニシノサカチョウ,奈良県奈良市西之阪町
6308246,奈良県,奈良市,油阪地方町,ナラケン,ナラシ,アブラサカジカタチョウ,奈良県奈良市油阪地方町
6308247,奈良県,奈良市,油阪町,ナラケン,ナラシ,アブラサカチョウ,奈良県奈良市油阪町
6308248,奈良県,奈良市,西新在家町,ナラケン,ナラシ,ニシシンザイケチョウ,奈良県奈良市西新在家町
6308251,奈良県,奈良市,西新在家号所町,ナラケン,ナラシ,ニシシンザイケゴウショチョウ,奈良県奈良市西新在家号所町
6308252,奈良県,奈良市,北小路町,ナラケン,ナラシ,キタコウジチョウ,奈良県奈良市北小路町
6308253,奈良県,奈良市,内侍原町,ナラケン,ナラシ,ナシハラチョウ,奈良県奈良市内侍原町
6308254,奈良県,奈良市,菖蒲池町,ナラケン,ナラシ,ショウブイケチョウ,奈良県奈良市菖蒲池町
6308255,奈良県,奈良市,阪新屋町,ナラケン,ナラシ,サカノシンヤチョウ,奈良県奈良市阪新屋町
6308256,奈良県,奈良市,奥芝町,ナラケン,ナラシ,オクシバチョウ,奈良県奈良市奥芝町
6308257,奈良県,奈良市,畑中町,ナラケン,ナラシ,ハタケナカチョウ,奈良県奈良市畑中町
6308258,奈良県,奈良市,船橋町,ナラケン,ナラシ,フナハシチョウ,奈良県奈良市船橋町
6308261,奈良県,奈良市,北市町,ナラケン,ナラシ,キタイチチョウ,奈良県奈良市北市町
6308262,奈良県,奈良市,北袋町,ナラケン,ナラシ,キタフクロチョウ,奈良県奈良市北袋町
6308263,奈良県,奈良市,北魚屋西町,ナラケン,ナラシ,キタウオヤニシマチ,奈良県奈良市北魚屋西町
6308264,奈良県,奈良市,鍋屋町,ナラケン,ナラシ,ナベヤチョウ,奈良県奈良市鍋屋町
6308265,奈良県,奈良市,宿院町,ナラケン,ナラシ,シュクインチョウ,奈良県奈良市宿院町
6308266,奈良県,奈良市,花芝町,ナラケン,ナラシ,ハナシバチョウ,奈良県奈良市花芝町
6308267,奈良県,奈良市,大豆山突抜町,ナラケン,ナラシ,マメヤマツキヌケチョウ,奈良県奈良市大豆山突抜町
6308268,奈良県,奈良市,大豆山町,ナラケン,ナラシ,マメヤマチョウ,奈良県奈良市大豆山町
6308271,奈良県,奈良市,坊屋敷町,ナラケン,ナラシ,ボウヤシキチョウ,奈良県奈良市坊屋敷町
6308272,奈良県,奈良市,東新在家町,ナラケン,ナラシ,ヒガシシンザイケチョウ,奈良県奈良市東新在家町
6308273,奈良県,奈良市,押上町,ナラケン,ナラシ,オシアゲチョウ,奈良県奈良市押上町
6308274,奈良県,奈良市,北半田東町,ナラケン,ナラシ,キタハンダヒガシマチ,奈良県奈良市北半田東町
6308275,奈良県,奈良市,北半田中町,ナラケン,ナラシ,キタハンダナカマチ,奈良県奈良市北半田中町
6308276,奈良県,奈良市,北半田西町,ナラケン,ナラシ,キタハンダニシマチ,奈良県奈良市北半田西町
6308277,奈良県,奈良市,南半田東町,ナラケン,ナラシ,ミナミハンダヒガシマチ,奈良県奈良市南半田東町
6308281,奈良県,奈良市,南半田中町,ナラケン,ナラシ,ミナミハンダナカマチ,奈良県奈良市南半田中町
6308282,奈良県,奈良市,南半田西町,ナラケン,ナラシ,ミナミハンダニシマチ,奈良県奈良市南半田西町
6308283,奈良県,奈良市,油留木町,ナラケン,ナラシ,ユルギチョウ,奈良県奈良市油留木町
6308284,奈良県,奈良市,半田横町,ナラケン,ナラシ,ハンダヨコマチ,奈良県奈良市半田横町
6308285,奈良県,奈良市,北魚屋東町,ナラケン,ナラシ,キタウオヤヒガシマチ,奈良県奈良市北魚屋東町
6308286,奈良県,奈良市,東包永町,ナラケン,ナラシ,ヒガシカネナガチョウ,奈良県奈良市東包永町
6308287,奈良県,奈良市,西包永町,ナラケン,ナラシ,ニシカネナガチョウ,奈良県奈良市西包永町
6308288,奈良県,奈良市,東笹鉾町,ナラケン,ナラシ,ヒガシササボコチョウ,奈良県奈良市東笹鉾町
6308291,奈良県,奈良市,西笹鉾町,ナラケン,ナラシ,ニシササボコチョウ,奈良県奈良市西笹鉾町
6308292,奈良県,奈良市,中御門町,ナラケン,ナラシ,ナカミカドチョウ,奈良県奈良市中御門町
6308293,奈良県,奈良市,川久保町,ナラケン,ナラシ,カワクボチョウ,奈良県奈良市川久保町
6308294,奈良県,奈良市,押小路町,ナラケン,ナラシ,オシコウジチョウ,奈良県奈良市押小路町
6308295,奈良県,奈良市,半田突抜町,ナラケン,ナラシ,ハンダツキヌケチョウ,奈良県奈良市半田突抜町
6308296,奈良県,奈良市,後藤町,ナラケン,ナラシ,ゴトウチョウ,奈良県奈良市後藤町
6308297,奈良県,奈良市,北川端町,ナラケン,ナラシ,キタカワバタチョウ,奈良県奈良市北川端町
6308301,奈良県,奈良市,高畑町,ナラケン,ナラシ,タカバタケチョウ,奈良県奈良市高畑町
6308302,奈良県,奈良市,白毫寺町,ナラケン,ナラシ,ビャクゴウジチョウ,奈良県奈良市白毫寺町
6308303,奈良県,奈良市,南紀寺町,ナラケン,ナラシ,ミナミキデラチョウ,奈良県奈良市南紀寺町
6308304,奈良県,奈良市,南肘塚町,ナラケン,ナラシ,ミナミカイノヅカチョウ,奈良県奈良市南肘塚町
6308305,奈良県,奈良市,東紀寺町,ナラケン,ナラシ,ヒガシキデラチョウ,奈良県奈良市東紀寺町
6308306,奈良県,奈良市,紀寺町,ナラケン,ナラシ,キデラチョウ,奈良県奈良市紀寺町
6308307,奈良県,奈良市,西紀寺町,ナラケン,ナラシ,ニシキデラチョウ,奈良県奈良市西紀寺町
6308311,奈良県,奈良市,十輪院畑町,ナラケン,ナラシ,ジュウリインハタチョウ,奈良県奈良市十輪院畑町
6308312,奈良県,奈良市,十輪院町,ナラケン,ナラシ,ジュウリインチョウ,奈良県奈良市十輪院町
6308313,奈良県,奈良市,川之上町,ナラケン,ナラシ,カワノカミチョウ,奈良県奈良市川之上町
6308314,奈良県,奈良市,川之上突抜町,ナラケン,ナラシ,カワノカミツキヌケチョウ,奈良県奈良市川之上突抜町
6308315,奈良県,奈良市,中辻町,ナラケン,ナラシ,ナカツジチョウ,奈良県奈良市中辻町
6308316,奈良県,奈良市,築地之内町,ナラケン,ナラシ,ツジノウチチョウ,奈良県奈良市築地之内町
6308317,奈良県,奈良市,井上町,ナラケン,ナラシ,イノウエチョウ,奈良県奈良市井上町
6308318,奈良県,奈良市,納院町,ナラケン,ナラシ,ノウインチョウ,奈良県奈良市納院町
6308321,奈良県,奈良市,薬師堂町,ナラケン,ナラシ,ヤクシドウチョウ,奈良県奈良市薬師堂町
6308322,奈良県,奈良市,北京終町,ナラケン,ナラシ,キタキョウバテチョウ,奈良県奈良市北京終町
6308323,奈良県,奈良市,京終地方東側町,ナラケン,ナラシ,キョウバテジカタヒガシガワチョウ,奈良県奈良市京終地方東側町
6308324,奈良県,奈良市,京終地方西側町,ナラケン,ナラシ,キョウバテジカタニシガワチョウ,奈良県奈良市京終地方西側町
6308325,奈良県,奈良市,西木辻町,ナラケン,ナラシ,ニシキツジチョウ,奈良県奈良市西木辻町
6308326,奈良県,奈良市,瓦堂町,ナラケン,ナラシ,カワラドウチョウ,奈良県奈良市瓦堂町
6308327,奈良県,奈良市,東木辻町,ナラケン,ナラシ,ヒガシキツジチョウ,奈良県奈良市東木辻町
6308328,奈良県,奈良市,花園町,ナラケン,ナラシ,ハナゾノチョウ,奈良県奈良市花園町
6308331,奈良県,奈良市,三棟町,ナラケン,ナラシ,ミツムネチョウ,奈良県奈良市三棟町
6308332,奈良県,奈良市,元興寺町,ナラケン,ナラシ,ガンゴウジチョウ,奈良県奈良市元興寺町
6308333,奈良県,奈良市,中新屋町,ナラケン,ナラシ,ナカノシンヤチョウ,奈良県奈良市中新屋町
6308334,奈良県,奈良市,西新屋町,ナラケン,ナラシ,ニシノシンヤチョウ,奈良県奈良市西新屋町
6308335,奈良県,奈良市,鳴川町,ナラケン,ナラシ,ナルカワチョウ,奈良県奈良市鳴川町
6308336,奈良県,奈良市,高御門町,ナラケン,ナラシ,タカミカドチョウ,奈良県奈良市高御門町
6308337,奈良県,奈良市,脇戸町,ナラケン,ナラシ,ワキドチョウ,奈良県奈良市脇戸町
6308338,奈良県,奈良市,陰陽町,ナラケン,ナラシ,インヨウチョウ,奈良県奈良市陰陽町
6308341,奈良県,奈良市,南城戸町,ナラケン,ナラシ,ミナミジョウドチョウ,奈良県奈良市南城戸町
6308342,奈良県,奈良市,南袋町,ナラケン,ナラシ,ミナミフクロチョウ,奈良県奈良市南袋町
6308343,奈良県,奈良市,椿井町,ナラケン,ナラシ,ツバイチョウ,奈良県奈良市椿井町
6308344,奈良県,奈良市,東城戸町,ナラケン,ナラシ,ヒガシジョウドチョウ,奈良県奈良市東城戸町
6308345,奈良県,奈良市,西城戸町,ナラケン,ナラシ,ニシジョウドチョウ,奈良県奈良市西城戸町
6308346,奈良県,奈良市,阿字万字町,ナラケン,ナラシ,アゼマメチョウ,奈良県奈良市阿字万字町
6308347,奈良県,奈良市,南中町,ナラケン,ナラシ,ミナミナカマチ,奈良県奈良市南中町
6308348,奈良県,奈良市,小太郎町,ナラケン,ナラシ,コタロウマチ,奈良県奈良市小太郎町
6308351,奈良県,奈良市,南風呂町,ナラケン,ナラシ,ミナミフロチョウ,奈良県奈良市南風呂町
6308352,奈良県,奈良市,北風呂町,ナラケン,ナラシ,キタフロチョウ,奈良県奈良市北風呂町
6308353,奈良県,奈良市,柳町,ナラケン,ナラシ,ヤナギマチ,奈良県奈良市柳町
6308354,奈良県,奈良市,馬場町,ナラケン,ナラシ,ババチョウ,奈良県奈良市馬場町
6308355,奈良県,奈良市,南魚屋町,ナラケン,ナラシ,ミナミウオヤチョウ,奈良県奈良市南魚屋町
6308356,奈良県,奈良市,南新町（１〜３２番地）,ナラケン,ナラシ,ミナミシンマチ(1-32バンチ),奈良県奈良市南新町（1〜32-）
6308357,奈良県,奈良市,杉ヶ町,ナラケン,ナラシ,スルガマチ,奈良県奈良市杉ヶ町
6308361,奈良県,奈良市,池之町,ナラケン,ナラシ,イケノチョウ,奈良県奈良市池之町
6308362,奈良県,奈良市,東寺林町,ナラケン,ナラシ,ヒガシテラバヤシチョウ,奈良県奈良市東寺林町
6308363,奈良県,奈良市,勝南院町,ナラケン,ナラシ,ショウナミチョウ,奈良県奈良市勝南院町
6308364,奈良県,奈良市,北室町,ナラケン,ナラシ,キタムロチョウ,奈良県奈良市北室町
6308365,奈良県,奈良市,下御門町,ナラケン,ナラシ,シモミカドチョウ,奈良県奈良市下御門町
6308371,奈良県,奈良市,光明院町,ナラケン,ナラシ,コウミョウインチョウ,奈良県奈良市光明院町
6308372,奈良県,奈良市,西寺林町,ナラケン,ナラシ,ニシテラバヤシチョウ,奈良県奈良市西寺林町
6308373,奈良県,奈良市,南市町,ナラケン,ナラシ,ミナミイチチョウ,奈良県奈良市南市町
6308374,奈良県,奈良市,今御門町,ナラケン,ナラシ,イマミカドチョウ,奈良県奈良市今御門町
6308381,奈良県,奈良市,福智院町,ナラケン,ナラシ,フクチインチョウ,奈良県奈良市福智院町
6308382,奈良県,奈良市,公納堂町,ナラケン,ナラシ,クノウドウチョウ,奈良県奈良市公納堂町
6308383,奈良県,奈良市,毘沙門町,ナラケン,ナラシ,ビシャモンチョウ,奈良県奈良市毘沙門町
6308384,奈良県,奈良市,芝新屋町,ナラケン,ナラシ,シバノシンヤチョウ,奈良県奈良市芝新屋町
6308385,奈良県,奈良市,芝突抜町,ナラケン,ナラシ,シバツキヌケチョウ,奈良県奈良市芝突抜町
6308391,奈良県,奈良市,鵲町,ナラケン,ナラシ,カササギチョウ,奈良県奈良市鵲町
6308392,奈良県,奈良市,中院町,ナラケン,ナラシ,チュウインチョウ,奈良県奈良市中院町
6308393,奈良県,奈良市,鶴福院町,ナラケン,ナラシ,ツルフクインチョウ,奈良県奈良市鶴福院町
6308394,奈良県,奈良市,不審ヶ辻子町,ナラケン,ナラシ,フシガヅシチョウ,奈良県奈良市不審ヶ辻子町
6308401,奈良県,奈良市,中畑町,ナラケン,ナラシ,ナカハタチョウ,奈良県奈良市中畑町
6308402,奈良県,奈良市,米谷町,ナラケン,ナラシ,マイタニチョウ,奈良県奈良市米谷町
6308403,奈良県,奈良市,興隆寺町,ナラケン,ナラシ,コウリュウジチョウ,奈良県奈良市興隆寺町
6308404,奈良県,奈良市,南椿尾町,ナラケン,ナラシ,ミナミツバオチョウ,奈良県奈良市南椿尾町
6308405,奈良県,奈良市,北椿尾町,ナラケン,ナラシ,キタツバオチョウ,奈良県奈良市北椿尾町
6308411,奈良県,奈良市,高樋町,ナラケン,ナラシ,タカヒチョウ,奈良県奈良市高樋町
6308412,奈良県,奈良市,虚空蔵町,ナラケン,ナラシ,コクゾウチョウ,奈良県奈良市虚空蔵町
6308413,奈良県,奈良市,菩提山町（その他）,ナラケン,ナラシ,ボダイセンチョウ(ソノタ),奈良県奈良市菩提山町（その他）
6308414,奈良県,奈良市,鉢伏町,ナラケン,ナラシ,ハチブセチョウ,奈良県奈良市鉢伏町
6308421,奈良県,奈良市,藤原町,ナラケン,ナラシ,フジワラチョウ,奈良県奈良市藤原町
6308422,奈良県,奈良市,横井,ナラケン,ナラシ,ヨコイ,奈良県奈良市横井
6308422,奈良県,奈良市,横井町,ナラケン,ナラシ,ヨコイチョウ,奈良県奈良市横井町
6308423,奈良県,奈良市,出屋敷町,ナラケン,ナラシ,デヤシキチョウ,奈良県奈良市出屋敷町
6308424,奈良県,奈良市,古市町,ナラケン,ナラシ,フルイチチョウ,奈良県奈良市古市町
6308425,奈良県,奈良市,鹿野園町,ナラケン,ナラシ,ロクヤオンチョウ,奈良県奈良市鹿野園町
6308431,奈良県,奈良市,窪之庄町,ナラケン,ナラシ,クボノショウチョウ,奈良県奈良市窪之庄町
6308432,奈良県,奈良市,田中町,ナラケン,ナラシ,タナカチョウ,奈良県奈良市田中町
6308433,奈良県,奈良市,柴屋町,ナラケン,ナラシ,シバヤチョウ,奈良県奈良市柴屋町
6308434,奈良県,奈良市,山町,ナラケン,ナラシ,ヤマチョウ,奈良県奈良市山町
6308435,奈良県,奈良市,八島町,ナラケン,ナラシ,ヤシマチョウ,奈良県奈良市八島町
6308441,奈良県,奈良市,神殿町,ナラケン,ナラシ,コドノチョウ,奈良県奈良市神殿町
6308442,奈良県,奈良市,北永井町,ナラケン,ナラシ,キタナガイチョウ,奈良県奈良市北永井町
6308443,奈良県,奈良市,南永井町,ナラケン,ナラシ,ミナミナガイチョウ,奈良県奈良市南永井町
6308444,奈良県,奈良市,今市町,ナラケン,ナラシ,イマイチチョウ,奈良県奈良市今市町
6308445,奈良県,奈良市,池田町,ナラケン,ナラシ,イケダチョウ,奈良県奈良市池田町
6308451,奈良県,奈良市,北之庄町,ナラケン,ナラシ,キタノショウチョウ,奈良県奈良市北之庄町
6308452,奈良県,奈良市,北之庄西町,ナラケン,ナラシ,キタノショウニシマチ,奈良県奈良市北之庄西町
6308453,奈良県,奈良市,西九条町,ナラケン,ナラシ,サイクジョウチョウ,奈良県奈良市西九条町
6308454,奈良県,奈良市,杏町,ナラケン,ナラシ,カラモモチョウ,奈良県奈良市杏町
6310001,奈良県,奈良市,北登美ヶ丘,ナラケン,ナラシ,キタトミガオカ,奈良県奈良市北登美ヶ丘
6310002,奈良県,奈良市,東登美ヶ丘,ナラケン,ナラシ,ヒガシトミガオカ,奈良県奈良市東登美ヶ丘
6310003,奈良県,奈良市,中登美ヶ丘,ナラケン,ナラシ,ナカトミガオカ,奈良県奈良市中登美ヶ丘
6310004,奈良県,奈良市,登美ヶ丘,ナラケン,ナラシ,トミガオカ,奈良県奈良市登美ヶ丘
6310005,奈良県,奈良市,大渕町,ナラケン,ナラシ,オオブチチョウ,奈良県奈良市大渕町
6310006,奈良県,奈良市,西登美ヶ丘,ナラケン,ナラシ,ニシトミガオカ,奈良県奈良市西登美ヶ丘
6310007,奈良県,奈良市,松陽台,ナラケン,ナラシ,ショウヨウダイ,奈良県奈良市松陽台
6310008,奈良県,奈良市,二名町,ナラケン,ナラシ,ニミョウチョウ,奈良県奈良市二名町
6310011,奈良県,奈良市,押熊町,ナラケン,ナラシ,オシクマチョウ,奈良県奈良市押熊町
6310012,奈良県,奈良市,中山町,ナラケン,ナラシ,ナカヤマチョウ,奈良県奈良市中山町
6310013,奈良県,奈良市,中山町西,ナラケン,ナラシ,ナカヤマチョウニシ,奈良県奈良市中山町西
6310014,奈良県,奈良市,朝日町,ナラケン,ナラシ,アサヒチョウ,奈良県奈良市朝日町
6310015,奈良県,奈良市,学園朝日元町,ナラケン,ナラシ,ガクエンアサヒモトマチ,奈良県奈良市学園朝日元町
6310016,奈良県,奈良市,学園朝日町,ナラケン,ナラシ,ガクエンアサヒチョウ,奈良県奈良市学園朝日町
6310021,奈良県,奈良市,鶴舞東町,ナラケン,ナラシ,ツルマイヒガシマチ,奈良県奈良市鶴舞東町
6310022,奈良県,奈良市,鶴舞西町,ナラケン,ナラシ,ツルマイニシマチ,奈良県奈良市鶴舞西町
6310023,奈良県,奈良市,南登美ヶ丘,ナラケン,ナラシ,ミナミトミガオカ,奈良県奈良市南登美ヶ丘
6310024,奈良県,奈良市,百楽園,ナラケン,ナラシ,ヒャクラクエン,奈良県奈良市百楽園
6310025,奈良県,奈良市,学園新田町,ナラケン,ナラシ,ガクエンシンデンチョウ,奈良県奈良市学園新田町
6310026,奈良県,奈良市,学園緑ヶ丘,ナラケン,ナラシ,ガクエンミドリガオカ,奈良県奈良市学園緑ヶ丘
6310027,奈良県,奈良市,学園赤松町,ナラケン,ナラシ,ガクエンアカマツチョウ,奈良県奈良市学園赤松町
6310031,奈良県,奈良市,敷島町,ナラケン,ナラシ,シキシマチョウ,奈良県奈良市敷島町
6310032,奈良県,奈良市,あやめ池北,ナラケン,ナラシ,アヤメイケキタ,奈良県奈良市あやめ池北
6310033,奈良県,奈良市,あやめ池南,ナラケン,ナラシ,アヤメイケミナミ,奈良県奈良市あやめ池南
6310034,奈良県,奈良市,学園南,ナラケン,ナラシ,ガクエンミナミ,奈良県奈良市学園南
6310035,奈良県,奈良市,学園中,ナラケン,ナラシ,ガクエンナカ,奈良県奈良市学園中
6310036,奈良県,奈良市,学園北,ナラケン,ナラシ,ガクエンキタ,奈良県奈良市学園北
6310041,奈良県,奈良市,学園大和町,ナラケン,ナラシ,ガクエンダイワチョウ,奈良県奈良市学園大和町
6310042,奈良県,奈良市,大倭町,ナラケン,ナラシ,オオヤマトチョウ,奈良県奈良市大倭町
6310043,奈良県,奈良市,菅野台,ナラケン,ナラシ,スガノダイ,奈良県奈良市菅野台
6310044,奈良県,奈良市,藤ノ木台,ナラケン,ナラシ,フジノキダイ,奈良県奈良市藤ノ木台
6310045,奈良県,奈良市,千代ヶ丘,ナラケン,ナラシ,チヨガオカ,奈良県奈良市千代ヶ丘
6310046,奈良県,奈良市,西千代ヶ丘,ナラケン,ナラシ,ニシチヨガオカ,奈良県奈良市西千代ヶ丘
6310051,奈良県,奈良市,富雄泉ヶ丘,ナラケン,ナラシ,トミオイズミガオカ,奈良県奈良市富雄泉ヶ丘
6310052,奈良県,奈良市,中町（その他）,ナラケン,ナラシ,ナカマチ(ソノタ),奈良県奈良市中町（その他）
6310053,奈良県,奈良市,青垣台,ナラケン,ナラシ,アオガキダイ,奈良県奈良市青垣台
6310054,奈良県,奈良市,石木町,ナラケン,ナラシ,イシキチョウ,奈良県奈良市石木町
6310055,奈良県,奈良市,大和田町,ナラケン,ナラシ,オオワダチョウ,奈良県奈良市大和田町
6310056,奈良県,奈良市,丸山,ナラケン,ナラシ,マルヤマ,奈良県奈良市丸山
6310061,奈良県,奈良市,三碓,ナラケン,ナラシ,ミツガラス,奈良県奈良市三碓
6310061,奈良県,奈良市,三碓町,ナラケン,ナラシ,ミツガラスチョウ,奈良県奈良市三碓町
6310062,奈良県,奈良市,帝塚山,ナラケン,ナラシ,テヅカヤマ,奈良県奈良市帝塚山
6310063,奈良県,奈良市,帝塚山中町,ナラケン,ナラシ,テヅカヤマナカマチ,奈良県奈良市帝塚山中町
6310064,奈良県,奈良市,帝塚山南,ナラケン,ナラシ,テヅカヤマミナミ,奈良県奈良市帝塚山南
6310065,奈良県,奈良市,鳥見町,ナラケン,ナラシ,トリミチョウ,奈良県奈良市鳥見町
6310066,奈良県,奈良市,帝塚山西,ナラケン,ナラシ,テヅカヤマニシ,奈良県奈良市帝塚山西
6310071,奈良県,奈良市,二名平野,ナラケン,ナラシ,ニミョウヒラノ,奈良県奈良市二名平野
6310072,奈良県,奈良市,二名,ナラケン,ナラシ,ニミョウ,奈良県奈良市二名
6310073,奈良県,奈良市,二名東町,ナラケン,ナラシ,ニミョウヒガシマチ,奈良県奈良市二名東町
6310074,奈良県,奈良市,三松,ナラケン,ナラシ,ミマツ,奈良県奈良市三松
6310075,奈良県,奈良市,三松ヶ丘,ナラケン,ナラシ,ミマツガオカ,奈良県奈良市三松ヶ丘
6310076,奈良県,奈良市,富雄北,ナラケン,ナラシ,トミオキタ,奈良県奈良市富雄北
6310077,奈良県,奈良市,富雄川西,ナラケン,ナラシ,トミオカワニシ,奈良県奈良市富雄川西
6310078,奈良県,奈良市,富雄元町,ナラケン,ナラシ,トミオモトマチ,奈良県奈良市富雄元町
6310801,奈良県,奈良市,左京,ナラケン,ナラシ,サキョウ,奈良県奈良市左京
6310802,奈良県,奈良市,歌姫町,ナラケン,ナラシ,ウタヒメチョウ,奈良県奈良市歌姫町
6310803,奈良県,奈良市,山陵町,ナラケン,ナラシ,ミササギチョウ,奈良県奈良市山陵町
6310804,奈良県,奈良市,神功,ナラケン,ナラシ,ジングウ,奈良県奈良市神功
6310805,奈良県,奈良市,右京,ナラケン,ナラシ,ウキョウ,奈良県奈良市右京
6310806,奈良県,奈良市,朱雀,ナラケン,ナラシ,スザク,奈良県奈良市朱雀
6310811,奈良県,奈良市,秋篠町,ナラケン,ナラシ,アキシノチョウ,奈良県奈良市秋篠町
6310812,奈良県,奈良市,秋篠早月町,ナラケン,ナラシ,アキシノサツキチョウ,奈良県奈良市秋篠早月町
6310813,奈良県,奈良市,秋篠新町,ナラケン,ナラシ,アキシノシンマチ,奈良県奈良市秋篠新町
6310814,奈良県,奈良市,秋篠三和町,ナラケン,ナラシ,アキシノサンワチョウ,奈良県奈良市秋篠三和町
6310815,奈良県,奈良市,西大寺新町,ナラケン,ナラシ,サイダイジシンマチ,奈良県奈良市西大寺新町
6310816,奈良県,奈良市,西大寺本町,ナラケン,ナラシ,サイダイジホンマチ,奈良県奈良市西大寺本町
6310817,奈良県,奈良市,西大寺北町,ナラケン,ナラシ,サイダイジキタマチ,奈良県奈良市西大寺北町
6310818,奈良県,奈良市,西大寺赤田町,ナラケン,ナラシ,サイダイジアコダチョウ,奈良県奈良市西大寺赤田町
6310821,奈良県,奈良市,西大寺東町,ナラケン,ナラシ,サイダイジヒガシマチ,奈良県奈良市西大寺東町
6310822,奈良県,奈良市,西大寺栄町,ナラケン,ナラシ,サイダイジサカエマチ,奈良県奈良市西大寺栄町
6310823,奈良県,奈良市,西大寺国見町,ナラケン,ナラシ,サイダイジクニミチョウ,奈良県奈良市西大寺国見町
6310824,奈良県,奈良市,西大寺南町,ナラケン,ナラシ,サイダイジミナミマチ,奈良県奈良市西大寺南町
6310825,奈良県,奈良市,西大寺芝町,ナラケン,ナラシ,サイダイジシバマチ,奈良県奈良市西大寺芝町
6310826,奈良県,奈良市,西大寺町,ナラケン,ナラシ,サイダイジチョウ,奈良県奈良市西大寺町
6310827,奈良県,奈良市,西大寺小坊町,ナラケン,ナラシ,サイダイジコボウチョウ,奈良県奈良市西大寺小坊町
6310828,奈良県,奈良市,横領町,ナラケン,ナラシ,ヨコリョウチョウ,奈良県奈良市横領町
6310831,奈良県,奈良市,西大寺宝ヶ丘,ナラケン,ナラシ,サイダイジタカラガオカ,奈良県奈良市西大寺宝ヶ丘
6310832,奈良県,奈良市,西大寺新田町,ナラケン,ナラシ,サイダイジシンデンチョウ,奈良県奈良市西大寺新田町
6310833,奈良県,奈良市,西大寺野神町,ナラケン,ナラシ,サイダイジノガミチョウ,奈良県奈良市西大寺野神町
6310834,奈良県,奈良市,西大寺新池町,ナラケン,ナラシ,サイダイジシンイケチョウ,奈良県奈良市西大寺新池町
6310835,奈良県,奈良市,西大寺高塚町,ナラケン,ナラシ,サイダイジタカツカチョウ,奈良県奈良市西大寺高塚町
6310836,奈良県,奈良市,西大寺竜王町,ナラケン,ナラシ,サイダイジリュウオウチョウ,奈良県奈良市西大寺竜王町
6310837,奈良県,奈良市,若葉台,ナラケン,ナラシ,ワカバダイ,奈良県奈良市若葉台
6310841,奈良県,奈良市,青野町,ナラケン,ナラシ,アオノチョウ,奈良県奈良市青野町
6310842,奈良県,奈良市,菅原東,ナラケン,ナラシ,スガハラヒガシ,奈良県奈良市菅原東
6310842,奈良県,奈良市,菅原町,ナラケン,ナラシ,スガハラチョウ,奈良県奈良市菅原町
6310843,奈良県,奈良市,疋田町,ナラケン,ナラシ,ヒキダチョウ,奈良県奈良市疋田町
6310844,奈良県,奈良市,宝来町,ナラケン,ナラシ,ホウライチョウ,奈良県奈良市宝来町
6310845,奈良県,奈良市,宝来,ナラケン,ナラシ,ホウライ,奈良県奈良市宝来
6310846,奈良県,奈良市,平松,ナラケン,ナラシ,ヒラマツ,奈良県奈良市平松
6320000,奈良県,天理市,,ナラケン,テンリシ,,奈良県天理市
6320001,奈良県,天理市,中之庄町,ナラケン,テンリシ,ナカノショウチョウ,奈良県天理市中之庄町
6320002,奈良県,天理市,和爾町,ナラケン,テンリシ,ワニチョウ,奈良県天理市和爾町
6320003,奈良県,天理市,岩屋町,ナラケン,テンリシ,イワヤチョウ,奈良県天理市岩屋町
6320004,奈良県,天理市,櫟本町,ナラケン,テンリシ,イチノモトチョウ,奈良県天理市櫟本町
6320005,奈良県,天理市,楢町,ナラケン,テンリシ,ナラチョウ,奈良県天理市楢町
6320006,奈良県,天理市,蔵之庄町,ナラケン,テンリシ,クラノショウチョウ,奈良県天理市蔵之庄町
6320007,奈良県,天理市,森本町,ナラケン,テンリシ,モリモトチョウ,奈良県天理市森本町
6320011,奈良県,天理市,石上町,ナラケン,テンリシ,イソノカミチョウ,奈良県天理市石上町
6320012,奈良県,天理市,豊田町,ナラケン,テンリシ,トヨダチョウ,奈良県天理市豊田町
6320013,奈良県,天理市,豊井町,ナラケン,テンリシ,トヨイチョウ,奈良県天理市豊井町
6320014,奈良県,天理市,布留町,ナラケン,テンリシ,フルチョウ,奈良県天理市布留町
6320015,奈良県,天理市,三島町,ナラケン,テンリシ,ミシマチョウ,奈良県天理市三島町
6320016,奈良県,天理市,川原城町,ナラケン,テンリシ,カワハラジョウチョウ,奈良県天理市川原城町
6320017,奈良県,天理市,田部町,ナラケン,テンリシ,タベチョウ,奈良県天理市田部町
6320018,奈良県,天理市,別所町,ナラケン,テンリシ,ベッショチョウ,奈良県天理市別所町
6320021,奈良県,天理市,滝本町,ナラケン,テンリシ,タキモトチョウ,奈良県天理市滝本町
6320022,奈良県,天理市,苣原町,ナラケン,テンリシ,チシャワラチョウ,奈良県天理市苣原町
6320023,奈良県,天理市,下仁興町,ナラケン,テンリシ,シモニゴウチョウ,奈良県天理市下仁興町
6320024,奈良県,天理市,上仁興町,ナラケン,テンリシ,カミニゴウチョウ,奈良県天理市上仁興町
6320025,奈良県,天理市,藤井町,ナラケン,テンリシ,フジイチョウ,奈良県天理市藤井町
6320031,奈良県,天理市,内馬場町,ナラケン,テンリシ,ウチババチョウ,奈良県天理市内馬場町
6320032,奈良県,天理市,杣之内町,ナラケン,テンリシ,ソマノウチチョウ,奈良県天理市杣之内町
6320033,奈良県,天理市,勾田町,ナラケン,テンリシ,マガタチョウ,奈良県天理市勾田町
6320034,奈良県,天理市,丹波市町,ナラケン,テンリシ,タンバイチチョウ,奈良県天理市丹波市町
6320035,奈良県,天理市,守目堂町,ナラケン,テンリシ,モリメドウチョウ,奈良県天理市守目堂町
6320036,奈良県,天理市,御経野町,ナラケン,テンリシ,ゴキョウノチョウ,奈良県天理市御経野町
6320041,奈良県,天理市,竹之内町,ナラケン,テンリシ,タケノウチチョウ,奈良県天理市竹之内町
6320042,奈良県,天理市,萱生町,ナラケン,テンリシ,カヨウチョウ,奈良県天理市萱生町
6320043,奈良県,天理市,佐保庄町,ナラケン,テンリシ,サホノショウチョウ,奈良県天理市佐保庄町
6320044,奈良県,天理市,兵庫町,ナラケン,テンリシ,ヒョウゴチョウ,奈良県天理市兵庫町
6320045,奈良県,天理市,福知堂町,ナラケン,テンリシ,フクチドウチョウ,奈良県天理市福知堂町
6320046,奈良県,天理市,三昧田町,ナラケン,テンリシ,サンマイデンチョウ,奈良県天理市三昧田町
6320047,奈良県,天理市,乙木町,ナラケン,テンリシ,オトギチョウ,奈良県天理市乙木町
6320048,奈良県,天理市,園原町,ナラケン,テンリシ,ソノハラチョウ,奈良県天理市園原町
6320051,奈良県,天理市,中山町,ナラケン,テンリシ,ナカヤマチョウ,奈良県天理市中山町
6320052,奈良県,天理市,柳本町,ナラケン,テンリシ,ヤナギモトチョウ,奈良県天理市柳本町
6320053,奈良県,天理市,渋谷町,ナラケン,テンリシ,シブタニチョウ,奈良県天理市渋谷町
6320054,奈良県,天理市,檜垣町,ナラケン,テンリシ,ヒガイチョウ,奈良県天理市檜垣町
6320055,奈良県,天理市,遠田町,ナラケン,テンリシ,トオダチョウ,奈良県天理市遠田町
6320056,奈良県,天理市,岸田町,ナラケン,テンリシ,キシダチョウ,奈良県天理市岸田町
6320057,奈良県,天理市,新泉町,ナラケン,テンリシ,ニイズミチョウ,奈良県天理市新泉町
6320058,奈良県,天理市,成願寺町,ナラケン,テンリシ,ジョウガンジチョウ,奈良県天理市成願寺町
6320061,奈良県,天理市,永原町,ナラケン,テンリシ,ナガハラチョウ,奈良県天理市永原町
6320062,奈良県,天理市,長柄町,ナラケン,テンリシ,ナガラチョウ,奈良県天理市長柄町
6320063,奈良県,天理市,西長柄町,ナラケン,テンリシ,ニシナガラチョウ,奈良県天理市西長柄町
6320064,奈良県,天理市,海知町,ナラケン,テンリシ,カイチチョウ,奈良県天理市海知町
6320065,奈良県,天理市,武蔵町,ナラケン,テンリシ,ムサシチョウ,奈良県天理市武蔵町
6320066,奈良県,天理市,備前町,ナラケン,テンリシ,ビゼンチョウ,奈良県天理市備前町
6320067,奈良県,天理市,吉田町,ナラケン,テンリシ,ヨシダチョウ,奈良県天理市吉田町
6320068,奈良県,天理市,合場町,ナラケン,テンリシ,アイバチョウ,奈良県天理市合場町
6320069,奈良県,天理市,九条町,ナラケン,テンリシ,クジョウチョウ,奈良県天理市九条町
6320071,奈良県,天理市,田井庄町,ナラケン,テンリシ,タイノショウチョウ,奈良県天理市田井庄町
6320072,奈良県,天理市,富堂町,ナラケン,テンリシ,トミドウチョウ,奈良県天理市富堂町
6320073,奈良県,天理市,田町,ナラケン,テンリシ,タチョウ,奈良県天理市田町
6320074,奈良県,天理市,東井戸堂町,ナラケン,テンリシ,ヒガシイドウドウチョウ,奈良県天理市東井戸堂町
6320075,奈良県,天理市,西井戸堂町,ナラケン,テンリシ,ニシイドウドウチョウ,奈良県天理市西井戸堂町
6320076,奈良県,天理市,岩室町,ナラケン,テンリシ,イワムロチョウ,奈良県天理市岩室町
6320077,奈良県,天理市,平等坊町,ナラケン,テンリシ,ビョウドウボウチョウ,奈良県天理市平等坊町
6320078,奈良県,天理市,杉本町,ナラケン,テンリシ,スギモトチョウ,奈良県天理市杉本町
6320081,奈良県,天理市,二階堂上ノ庄町,ナラケン,テンリシ,ニカイドウカミノショウチョウ,奈良県天理市二階堂上ノ庄町
6320082,奈良県,天理市,荒蒔町,ナラケン,テンリシ,アラマキチョウ,奈良県天理市荒蒔町
6320083,奈良県,天理市,稲葉町,ナラケン,テンリシ,イナバチョウ,奈良県天理市稲葉町
6320084,奈良県,天理市,嘉幡町,ナラケン,テンリシ,カバタチョウ,奈良県天理市嘉幡町
6320085,奈良県,天理市,小島町,ナラケン,テンリシ,コジマチョウ,奈良県天理市小島町
6320086,奈良県,天理市,庵治町,ナラケン,テンリシ,オウジチョウ,奈良県天理市庵治町
6320087,奈良県,天理市,二階堂南菅田町,ナラケン,テンリシ,ニカイドウミナミスガタチョウ,奈良県天理市二階堂南菅田町
6320088,奈良県,天理市,二階堂北菅田町,ナラケン,テンリシ,ニカイドウキタスガタチョウ,奈良県天理市二階堂北菅田町
6320091,奈良県,天理市,上総町,ナラケン,テンリシ,カンサチョウ,奈良県天理市上総町
6320092,奈良県,天理市,小田中町,ナラケン,テンリシ,コダナカチョウ,奈良県天理市小田中町
6320093,奈良県,天理市,指柳町,ナラケン,テンリシ,サシヤナギチョウ,奈良県天理市指柳町
6320094,奈良県,天理市,前栽町,ナラケン,テンリシ,センザイチョウ,奈良県天理市前栽町
6320095,奈良県,天理市,喜殿町,ナラケン,テンリシ,キドノチョウ,奈良県天理市喜殿町
6320096,奈良県,天理市,小路町,ナラケン,テンリシ,ショウジチョウ,奈良県天理市小路町
6320097,奈良県,天理市,中町,ナラケン,テンリシ,ナカチョウ,奈良県天理市中町
6320098,奈良県,天理市,南六条町,ナラケン,テンリシ,ミナミロクジョウチョウ,奈良県天理市南六条町
6320101,奈良県,奈良市,下深川町,ナラケン,ナラシ,シモフカワチョウ,奈良県奈良市下深川町
6320102,奈良県,奈良市,上深川町,ナラケン,ナラシ,カミフカワチョウ,奈良県奈良市上深川町
6320103,奈良県,奈良市,荻町,ナラケン,ナラシ,オオギチョウ,奈良県奈良市荻町
6320111,奈良県,奈良市,小倉町,ナラケン,ナラシ,オグラチョウ,奈良県奈良市小倉町
6320112,奈良県,奈良市,針ヶ別所町,ナラケン,ナラシ,ハリガベッショチョウ,奈良県奈良市針ヶ別所町
6320113,奈良県,奈良市,都祁馬場町,ナラケン,ナラシ,ツゲババチョウ,奈良県奈良市都祁馬場町
6320121,奈良県,天理市,山田町,ナラケン,テンリシ,ヤマダチョウ,奈良県天理市山田町
6320122,奈良県,天理市,福住町,ナラケン,テンリシ,フクスミチョウ,奈良県天理市福住町
6320123,奈良県,天理市,長滝町,ナラケン,テンリシ,ナガタキチョウ,奈良県天理市長滝町
6320201,奈良県,宇陀市,室生下笠間,ナラケン,ウダシ,ムロウシモカサマ,奈良県宇陀市室生下笠間
6320202,奈良県,宇陀市,室生上笠間,ナラケン,ウダシ,ムロウカミカサマ,奈良県宇陀市室生上笠間
6320203,奈良県,宇陀市,室生深野,ナラケン,ウダシ,ムロウフカノ,奈良県宇陀市室生深野
6320204,奈良県,宇陀市,室生小原,ナラケン,ウダシ,ムロウオハラ,奈良県宇陀市室生小原
6320205,奈良県,宇陀市,室生染田,ナラケン,ウダシ,ムロウソメダ,奈良県宇陀市室生染田
6320206,奈良県,宇陀市,室生多田,ナラケン,ウダシ,ムロウタダ,奈良県宇陀市室生多田
6320207,奈良県,宇陀市,室生無山,ナラケン,ウダシ,ムロウムヤマ,奈良県宇陀市室生無山
6320221,奈良県,奈良市,都祁白石町,ナラケン,ナラシ,ツゲシライシチョウ,奈良県奈良市都祁白石町
6320231,奈良県,奈良市,都祁吐山町,ナラケン,ナラシ,ツゲハヤマチョウ,奈良県奈良市都祁吐山町
6320232,奈良県,奈良市,都祁こぶしが丘,ナラケン,ナラシ,ツゲコブシガオカ,奈良県奈良市都祁こぶしが丘
6320241,奈良県,奈良市,都祁南之庄町,ナラケン,ナラシ,ツゲミナミノショウチョウ,奈良県奈良市都祁南之庄町
6320242,奈良県,奈良市,都祁相河町,ナラケン,ナラシ,ツゲソウゴチョウ,奈良県奈良市都祁相河町
6320243,奈良県,奈良市,都祁小山戸町,ナラケン,ナラシ,ツゲオヤマトチョウ,奈良県奈良市都祁小山戸町
6320244,奈良県,奈良市,来迎寺町,ナラケン,ナラシ,ライコウジチョウ,奈良県奈良市来迎寺町
6320245,奈良県,奈良市,藺生町,ナラケン,ナラシ,イウチョウ,奈良県奈良市藺生町
6320246,奈良県,奈良市,都祁友田町,ナラケン,ナラシ,ツゲトモダチョウ,奈良県奈良市都祁友田町
6320247,奈良県,奈良市,都祁甲岡町,ナラケン,ナラシ,ツゲコウカチョウ,奈良県奈良市都祁甲岡町
6320251,奈良県,奈良市,針町,ナラケン,ナラシ,ハリチョウ,奈良県奈良市針町
6330000,奈良県,桜井市,,ナラケン,サクライシ,,奈良県桜井市
6330001,奈良県,桜井市,三輪,ナラケン,サクライシ,ミワ,奈良県桜井市三輪
6330002,奈良県,桜井市,金屋,ナラケン,サクライシ,カナヤ,奈良県桜井市金屋
6330003,奈良県,桜井市,朝倉台東,ナラケン,サクライシ,アサクラダイヒガシ,奈良県桜井市朝倉台東
6330004,奈良県,桜井市,朝倉台西,ナラケン,サクライシ,アサクラダイニシ,奈良県桜井市朝倉台西
6330005,奈良県,桜井市,忍阪,ナラケン,サクライシ,オッサカ,奈良県桜井市忍阪
6330006,奈良県,桜井市,赤尾,ナラケン,サクライシ,アカオ,奈良県桜井市赤尾
6330007,奈良県,桜井市,外山,ナラケン,サクライシ,トビ,奈良県桜井市外山
6330011,奈良県,桜井市,黒崎,ナラケン,サクライシ,クロザキ,奈良県桜井市黒崎
6330012,奈良県,桜井市,狛,ナラケン,サクライシ,コマ,奈良県桜井市狛
6330013,奈良県,桜井市,岩坂,ナラケン,サクライシ,イワサカ,奈良県桜井市岩坂
6330014,奈良県,桜井市,粟原,ナラケン,サクライシ,オオバラ,奈良県桜井市粟原
6330015,奈良県,桜井市,下り尾,ナラケン,サクライシ,サガリオ,奈良県桜井市下り尾
6330016,奈良県,桜井市,竜谷,ナラケン,サクライシ,リュウタニ,奈良県桜井市竜谷
6330017,奈良県,桜井市,慈恩寺,ナラケン,サクライシ,ジオンジ,奈良県桜井市慈恩寺
6330018,奈良県,桜井市,脇本,ナラケン,サクライシ,ワキモト,奈良県桜井市脇本
6330021,奈良県,桜井市,倉橋,ナラケン,サクライシ,クラハシ,奈良県桜井市倉橋
6330022,奈良県,桜井市,北音羽,ナラケン,サクライシ,キタオトワ,奈良県桜井市北音羽
6330023,奈良県,桜井市,南音羽,ナラケン,サクライシ,ミナミオトワ,奈良県桜井市南音羽
6330024,奈良県,桜井市,針道,ナラケン,サクライシ,ハリミチ,奈良県桜井市針道
6330025,奈良県,桜井市,八井内,ナラケン,サクライシ,ヤイナイ,奈良県桜井市八井内
6330026,奈良県,桜井市,飯盛塚,ナラケン,サクライシ,イイモリヅカ,奈良県桜井市飯盛塚
6330027,奈良県,桜井市,鹿路,ナラケン,サクライシ,ロクロ,奈良県桜井市鹿路
6330028,奈良県,桜井市,百市,ナラケン,サクライシ,モモノイチ,奈良県桜井市百市
6330031,奈良県,桜井市,下居,ナラケン,サクライシ,オリイ,奈良県桜井市下居
6330032,奈良県,桜井市,多武峰,ナラケン,サクライシ,トウノミネ,奈良県桜井市多武峰
6330033,奈良県,桜井市,西口,ナラケン,サクライシ,ニシグチ,奈良県桜井市西口
6330034,奈良県,桜井市,北山,ナラケン,サクライシ,キタヤマ,奈良県桜井市北山
6330035,奈良県,桜井市,今井谷,ナラケン,サクライシ,イマイダニ,奈良県桜井市今井谷
6330036,奈良県,桜井市,横柿,ナラケン,サクライシ,ヨコガキ,奈良県桜井市横柿
6330041,奈良県,桜井市,上之宮,ナラケン,サクライシ,ウエノミヤ,奈良県桜井市上之宮
6330042,奈良県,桜井市,下,ナラケン,サクライシ,シモ,奈良県桜井市下
6330043,奈良県,桜井市,高田,ナラケン,サクライシ,タカタ,奈良県桜井市高田
6330044,奈良県,桜井市,高家,ナラケン,サクライシ,タイエ,奈良県桜井市高家
6330045,奈良県,桜井市,山田,ナラケン,サクライシ,ヤマダ,奈良県桜井市山田
6330046,奈良県,桜井市,池之内,ナラケン,サクライシ,イケノウチ,奈良県桜井市池之内
6330047,奈良県,桜井市,橋本,ナラケン,サクライシ,ハシモト,奈良県桜井市橋本
6330048,奈良県,桜井市,生田,ナラケン,サクライシ,オイダ,奈良県桜井市生田
6330051,奈良県,桜井市,河西,ナラケン,サクライシ,カワニシ,奈良県桜井市河西
6330052,奈良県,桜井市,浅古,ナラケン,サクライシ,アサゴ,奈良県桜井市浅古
6330053,奈良県,桜井市,谷,ナラケン,サクライシ,タニ,奈良県桜井市谷
6330054,奈良県,桜井市,阿部,ナラケン,サクライシ,アベ,奈良県桜井市阿部
6330055,奈良県,桜井市,安倍木材団地,ナラケン,サクライシ,アベモクザイダンチ,奈良県桜井市安倍木材団地
6330061,奈良県,桜井市,上之庄,ナラケン,サクライシ,カミノショウ,奈良県桜井市上之庄
6330062,奈良県,桜井市,粟殿,ナラケン,サクライシ,オオドノ,奈良県桜井市粟殿
6330063,奈良県,桜井市,川合,ナラケン,サクライシ,カワイ,奈良県桜井市川合
6330064,奈良県,桜井市,戒重,ナラケン,サクライシ,カイジュウ,奈良県桜井市戒重
6330065,奈良県,桜井市,吉備,ナラケン,サクライシ,キビ,奈良県桜井市吉備
6330066,奈良県,桜井市,西之宮,ナラケン,サクライシ,ニシノミヤ,奈良県桜井市西之宮
6330067,奈良県,桜井市,大福,ナラケン,サクライシ,ダイフク,奈良県桜井市大福
6330068,奈良県,桜井市,東新堂,ナラケン,サクライシ,ヒガシシンドウ,奈良県桜井市東新堂
6330071,奈良県,桜井市,穴師,ナラケン,サクライシ,アナシ,奈良県桜井市穴師
6330072,奈良県,桜井市,箸中,ナラケン,サクライシ,ハシナカ,奈良県桜井市箸中
6330073,奈良県,桜井市,茅原,ナラケン,サクライシ,チワラ,奈良県桜井市茅原
6330074,奈良県,桜井市,芝,ナラケン,サクライシ,シバ,奈良県桜井市芝
6330075,奈良県,桜井市,新屋敷,ナラケン,サクライシ,シンヤシキ,奈良県桜井市新屋敷
6330076,奈良県,桜井市,大泉,ナラケン,サクライシ,オイズミ,奈良県桜井市大泉
6330077,奈良県,桜井市,大西,ナラケン,サクライシ,オオニシ,奈良県桜井市大西
6330078,奈良県,桜井市,豊前,ナラケン,サクライシ,ブンゼ,奈良県桜井市豊前
6330079,奈良県,桜井市,豊田,ナラケン,サクライシ,トヨダ,奈良県桜井市豊田
6330081,奈良県,桜井市,草川,ナラケン,サクライシ,クサカワ,奈良県桜井市草川
6330082,奈良県,桜井市,巻野内,ナラケン,サクライシ,マキノウチ,奈良県桜井市巻野内
6330083,奈良県,桜井市,辻,ナラケン,サクライシ,ツジ,奈良県桜井市辻
6330084,奈良県,桜井市,太田,ナラケン,サクライシ,オオタ,奈良県桜井市太田
6330085,奈良県,桜井市,東田,ナラケン,サクライシ,ヒガシダ,奈良県桜井市東田
6330086,奈良県,桜井市,江包,ナラケン,サクライシ,エツツミ,奈良県桜井市江包
6330087,奈良県,桜井市,大豆越,ナラケン,サクライシ,マメゴシ,奈良県桜井市大豆越
6330091,奈良県,桜井市,桜井,ナラケン,サクライシ,サクライ,奈良県桜井市桜井
6330101,奈良県,桜井市,小夫,ナラケン,サクライシ,オオブ,奈良県桜井市小夫
6330102,奈良県,桜井市,三谷,ナラケン,サクライシ,ミタニ,奈良県桜井市三谷
6330103,奈良県,桜井市,小夫嵩方,ナラケン,サクライシ,オオブダケホウ,奈良県桜井市小夫嵩方
6330104,奈良県,桜井市,芹井,ナラケン,サクライシ,セリイ,奈良県桜井市芹井
6330105,奈良県,桜井市,白木,ナラケン,サクライシ,シラキ,奈良県桜井市白木
6330106,奈良県,桜井市,萱森,ナラケン,サクライシ,カヤモリ,奈良県桜井市萱森
6330107,奈良県,桜井市,中谷,ナラケン,サクライシ,ナカタニ,奈良県桜井市中谷
6330108,奈良県,桜井市,滝倉,ナラケン,サクライシ,タキノクラ,奈良県桜井市滝倉
6330111,奈良県,桜井市,吉隠,ナラケン,サクライシ,ヨナバリ,奈良県桜井市吉隠
6330112,奈良県,桜井市,初瀬,ナラケン,サクライシ,ハセ,奈良県桜井市初瀬
6330121,奈良県,桜井市,白河,ナラケン,サクライシ,シラガ,奈良県桜井市白河
6330122,奈良県,桜井市,出雲,ナラケン,サクライシ,イズモ,奈良県桜井市出雲
6330131,奈良県,桜井市,修理枝,ナラケン,サクライシ,シュリエダ,奈良県桜井市修理枝
6330132,奈良県,桜井市,和田,ナラケン,サクライシ,ワダ,奈良県桜井市和田
6330133,奈良県,桜井市,笠,ナラケン,サクライシ,カサ,奈良県桜井市笠
6330200,奈良県,宇陀市,,ナラケン,ウダシ,,奈良県宇陀市
6330201,奈良県,宇陀市,榛原戒場,ナラケン,ウダシ,ハイバラカイバ,奈良県宇陀市榛原戒場
6330202,奈良県,宇陀市,榛原山辺三,ナラケン,ウダシ,ハイバラヤマベサン,奈良県宇陀市榛原山辺三
6330203,奈良県,宇陀市,榛原長峯,ナラケン,ウダシ,ハイバラナガミネ,奈良県宇陀市榛原長峯
6330204,奈良県,宇陀市,榛原福地,ナラケン,ウダシ,ハイバラフクチ,奈良県宇陀市榛原福地
6330205,奈良県,宇陀市,榛原天満台東,ナラケン,ウダシ,ハイバラテンマダイヒガシ,奈良県宇陀市榛原天満台東
6330206,奈良県,宇陀市,榛原天満台西,ナラケン,ウダシ,ハイバラテンマダイニシ,奈良県宇陀市榛原天満台西
6330207,奈良県,宇陀市,榛原赤瀬,ナラケン,ウダシ,ハイバラアカゼ,奈良県宇陀市榛原赤瀬
6330208,奈良県,宇陀市,榛原額井,ナラケン,ウダシ,ハイバラヌカイ,奈良県宇陀市榛原額井
6330211,奈良県,宇陀市,榛原荷阪,ナラケン,ウダシ,ハイバラニザカ,奈良県宇陀市榛原荷阪
6330212,奈良県,宇陀市,榛原高井,ナラケン,ウダシ,ハイバラタカイ,奈良県宇陀市榛原高井
6330213,奈良県,宇陀市,榛原赤埴,ナラケン,ウダシ,ハイバラアカバネ,奈良県宇陀市榛原赤埴
6330214,奈良県,宇陀市,榛原諸木野,ナラケン,ウダシ,ハイバラモロキノ,奈良県宇陀市榛原諸木野
6330215,奈良県,宇陀市,榛原内牧,ナラケン,ウダシ,ハイバラウチマキ,奈良県宇陀市榛原内牧
6330216,奈良県,宇陀市,榛原八滝,ナラケン,ウダシ,ハイバラヤタキ,奈良県宇陀市榛原八滝
6330217,奈良県,宇陀市,榛原自明,ナラケン,ウダシ,ハイバラジミョウ,奈良県宇陀市榛原自明
6330218,奈良県,宇陀市,榛原檜牧,ナラケン,ウダシ,ハイバラヒノマキ,奈良県宇陀市榛原檜牧
6330221,奈良県,宇陀市,榛原萩乃里,ナラケン,ウダシ,ハイバラハギノサト,奈良県宇陀市榛原萩乃里
6330222,奈良県,宇陀市,榛原上井足,ナラケン,ウダシ,ハイバラカミイダニ,奈良県宇陀市榛原上井足
6330223,奈良県,宇陀市,榛原石田,ナラケン,ウダシ,ハイバライシダ,奈良県宇陀市榛原石田
6330224,奈良県,宇陀市,榛原山路,ナラケン,ウダシ,ハイバラヤマジ,奈良県宇陀市榛原山路
6330225,奈良県,宇陀市,榛原大貝,ナラケン,ウダシ,ハイバラオオガイ,奈良県宇陀市榛原大貝
6330226,奈良県,宇陀市,榛原澤,ナラケン,ウダシ,ハイバラサワ,奈良県宇陀市榛原澤
6330227,奈良県,宇陀市,榛原三宮寺,ナラケン,ウダシ,ハイバラサングウジ,奈良県宇陀市榛原三宮寺
6330228,奈良県,宇陀市,榛原栗谷,ナラケン,ウダシ,ハイバラクリダニ,奈良県宇陀市榛原栗谷
6330231,奈良県,宇陀市,榛原足立,ナラケン,ウダシ,ハイバラアダチ,奈良県宇陀市榛原足立
6330232,奈良県,宇陀市,榛原池上,ナラケン,ウダシ,ハイバライケガミ,奈良県宇陀市榛原池上
6330233,奈良県,宇陀市,榛原福西,ナラケン,ウダシ,ハイバラフクニシ,奈良県宇陀市榛原福西
6330234,奈良県,宇陀市,榛原高塚,ナラケン,ウダシ,ハイバラタカツカ,奈良県宇陀市榛原高塚
6330235,奈良県,宇陀市,榛原比布,ナラケン,ウダシ,ハイバラヒフ,奈良県宇陀市榛原比布
6330236,奈良県,宇陀市,榛原母里,ナラケン,ウダシ,ハイバラモリ,奈良県宇陀市榛原母里
6330241,奈良県,宇陀市,榛原下井足,ナラケン,ウダシ,ハイバラシモイダニ,奈良県宇陀市榛原下井足
6330242,奈良県,宇陀市,榛原篠楽,ナラケン,ウダシ,ハイバラササガク,奈良県宇陀市榛原篠楽
6330243,奈良県,宇陀市,榛原雨師,ナラケン,ウダシ,ハイバラアメシ,奈良県宇陀市榛原雨師
6330244,奈良県,宇陀市,榛原安田,ナラケン,ウダシ,ハイバラヤスダ,奈良県宇陀市榛原安田
6330245,奈良県,宇陀市,榛原笠間,ナラケン,ウダシ,ハイバラカサマ,奈良県宇陀市榛原笠間
6330246,奈良県,宇陀市,榛原柳,ナラケン,ウダシ,ハイバラヤナギ,奈良県宇陀市榛原柳
6330251,奈良県,宇陀市,榛原ひのき坂,ナラケン,ウダシ,ハイバラヒノキザカ,奈良県宇陀市榛原ひのき坂
6330252,奈良県,宇陀市,榛原桜が丘,ナラケン,ウダシ,ハイバラサクラガオカ,奈良県宇陀市榛原桜が丘
6330253,奈良県,宇陀市,榛原萩原,ナラケン,ウダシ,ハイバラハギハラ,奈良県宇陀市榛原萩原
6330254,奈良県,宇陀市,榛原高萩台,ナラケン,ウダシ,ハイバラタカハギダイ,奈良県宇陀市榛原高萩台
6330255,奈良県,宇陀市,榛原角柄,ナラケン,ウダシ,ハイバラツノガワラ,奈良県宇陀市榛原角柄
6330256,奈良県,宇陀市,榛原あかね台,ナラケン,ウダシ,ハイバラアカネダイ,奈良県宇陀市榛原あかね台
6330257,奈良県,宇陀市,榛原榛見が丘,ナラケン,ウダシ,ハイバラハルミガオカ,奈良県宇陀市榛原榛見が丘
6330311,奈良県,宇陀市,室生龍口,ナラケン,ウダシ,ムロウリュウグチ,奈良県宇陀市室生龍口
6330312,奈良県,宇陀市,室生西谷,ナラケン,ウダシ,ムロウニシタニ,奈良県宇陀市室生西谷
6330313,奈良県,宇陀市,室生瀧谷,ナラケン,ウダシ,ムロウタキダニ,奈良県宇陀市室生瀧谷
6330314,奈良県,宇陀市,室生砥取,ナラケン,ウダシ,ムロウトトリ,奈良県宇陀市室生砥取
6330315,奈良県,宇陀市,室生大野,ナラケン,ウダシ,ムロウオオノ,奈良県宇陀市室生大野
6330316,奈良県,宇陀市,室生向渕,ナラケン,ウダシ,ムロウムコウヂ,奈良県宇陀市室生向渕
6330317,奈良県,宇陀市,室生三本松,ナラケン,ウダシ,ムロウサンボンマツ,奈良県宇陀市室生三本松
6330421,奈良県,宇陀市,室生,ナラケン,ウダシ,ムロウ,奈良県宇陀市室生
6330422,奈良県,宇陀市,室生下田口,ナラケン,ウダシ,ムロウシモタグチ,奈良県宇陀市室生下田口
6330423,奈良県,宇陀市,室生田口元角川,ナラケン,ウダシ,ムロウタグチモトツノガワ,奈良県宇陀市室生田口元角川
6330424,奈良県,宇陀市,室生田口元上田口,ナラケン,ウダシ,ムロウタグチモトカミタグチ,奈良県宇陀市室生田口元上田口
6330425,奈良県,宇陀市,室生黒岩,ナラケン,ウダシ,ムロウクロイワ,奈良県宇陀市室生黒岩
6331200,奈良県,宇陀郡曽爾村,,ナラケン,ウダグンソニムラ,,奈良県宇陀郡曽爾村
6331201,奈良県,宇陀郡曽爾村,伊賀見,ナラケン,ウダグンソニムラ,イガミ,奈良県宇陀郡曽爾村伊賀見
6331202,奈良県,宇陀郡曽爾村,太良路,ナラケン,ウダグンソニムラ,タロジ,奈良県宇陀郡曽爾村太良路
6331203,奈良県,宇陀郡曽爾村,葛,ナラケン,ウダグンソニムラ,カズラ,奈良県宇陀郡曽爾村葛
6331211,奈良県,宇陀郡曽爾村,塩井,ナラケン,ウダグンソニムラ,シオイ,奈良県宇陀郡曽爾村塩井
6331212,奈良県,宇陀郡曽爾村,今井,ナラケン,ウダグンソニムラ,イマイ,奈良県宇陀郡曽爾村今井
6331213,奈良県,宇陀郡曽爾村,小長尾,ナラケン,ウダグンソニムラ,コナガオ,奈良県宇陀郡曽爾村小長尾
6331214,奈良県,宇陀郡曽爾村,長野,ナラケン,ウダグンソニムラ,ナガノ,奈良県宇陀郡曽爾村長野
6331215,奈良県,宇陀郡曽爾村,掛,ナラケン,ウダグンソニムラ,カケ,奈良県宇陀郡曽爾村掛
6331216,奈良県,宇陀郡曽爾村,山粕,ナラケン,ウダグンソニムラ,ヤマガス,奈良県宇陀郡曽爾村山粕
6331300,奈良県,宇陀郡御杖村,,ナラケン,ウダグンミツエムラ,,奈良県宇陀郡御杖村
6331301,奈良県,宇陀郡御杖村,神末,ナラケン,ウダグンミツエムラ,コウズエ,奈良県宇陀郡御杖村神末
6331302,奈良県,宇陀郡御杖村,菅野,ナラケン,ウダグンミツエムラ,スガノ,奈良県宇陀郡御杖村菅野
6331303,奈良県,宇陀郡御杖村,土屋原,ナラケン,ウダグンミツエムラ,ツチヤハラ,奈良県宇陀郡御杖村土屋原
6331304,奈良県,宇陀郡御杖村,桃俣,ナラケン,ウダグンミツエムラ,モモノマタ,奈良県宇陀郡御杖村桃俣
6332101,奈良県,宇陀市,大宇陀五津,ナラケン,ウダシ,オオウダイツツ,奈良県宇陀市大宇陀五津
6332102,奈良県,宇陀市,大宇陀平尾,ナラケン,ウダシ,オオウダヒラオ,奈良県宇陀市大宇陀平尾
6332103,奈良県,宇陀市,大宇陀野依,ナラケン,ウダシ,オオウダノヨリ,奈良県宇陀市大宇陀野依
6332104,奈良県,宇陀市,大宇陀口今井,ナラケン,ウダシ,オオウダクチイマイ,奈良県宇陀市大宇陀口今井
6332105,奈良県,宇陀市,大宇陀麻生田,ナラケン,ウダシ,オオウダアソダ,奈良県宇陀市大宇陀麻生田
6332106,奈良県,宇陀市,大宇陀馬取柿,ナラケン,ウダシ,オオウダマトリガキ,奈良県宇陀市大宇陀馬取柿
6332107,奈良県,宇陀市,大宇陀嬉河原,ナラケン,ウダシ,オオウダウレシガワラ,奈良県宇陀市大宇陀嬉河原
6332108,奈良県,宇陀市,大宇陀半阪,ナラケン,ウダシ,オオウダハンサカ,奈良県宇陀市大宇陀半阪
6332111,奈良県,宇陀市,大宇陀内原,ナラケン,ウダシ,オオウダウチハラ,奈良県宇陀市大宇陀内原
6332112,奈良県,宇陀市,大宇陀小附,ナラケン,ウダシ,オオウダコウツケ,奈良県宇陀市大宇陀小附
6332113,奈良県,宇陀市,大宇陀下竹,ナラケン,ウダシ,オオウダシモタケ,奈良県宇陀市大宇陀下竹
6332114,奈良県,宇陀市,大宇陀春日,ナラケン,ウダシ,オオウダカスガ,奈良県宇陀市大宇陀春日
6332115,奈良県,宇陀市,大宇陀西山,ナラケン,ウダシ,オオウダニシヤマ,奈良県宇陀市大宇陀西山
6332116,奈良県,宇陀市,大宇陀岩室,ナラケン,ウダシ,オオウダイワムロ,奈良県宇陀市大宇陀岩室
6332117,奈良県,宇陀市,大宇陀芝生,ナラケン,ウダシ,オオウダシボウ,奈良県宇陀市大宇陀芝生
6332121,奈良県,宇陀市,大宇陀塚脇,ナラケン,ウダシ,オオウダツカワキ,奈良県宇陀市大宇陀塚脇
6332122,奈良県,宇陀市,大宇陀調子,ナラケン,ウダシ,オオウダチョウシ,奈良県宇陀市大宇陀調子
6332123,奈良県,宇陀市,大宇陀藤井,ナラケン,ウダシ,オオウダフジイ,奈良県宇陀市大宇陀藤井
6332124,奈良県,宇陀市,大宇陀才ケ辻,ナラケン,ウダシ,オオウダサイガツジ,奈良県宇陀市大宇陀才ケ辻
6332125,奈良県,宇陀市,大宇陀守道,ナラケン,ウダシ,オオウダモチ,奈良県宇陀市大宇陀守道
6332126,奈良県,宇陀市,大宇陀岩清水,ナラケン,ウダシ,オオウダイワシミズ,奈良県宇陀市大宇陀岩清水
6332131,奈良県,宇陀市,大宇陀和田,ナラケン,ウダシ,オオウダワダ,奈良県宇陀市大宇陀和田
6332132,奈良県,宇陀市,大宇陀下品,ナラケン,ウダシ,オオウダシモシナ,奈良県宇陀市大宇陀下品
6332133,奈良県,宇陀市,大宇陀上品,ナラケン,ウダシ,オオウダカミシナ,奈良県宇陀市大宇陀上品
6332134,奈良県,宇陀市,大宇陀小和田,ナラケン,ウダシ,オオウダコワダ,奈良県宇陀市大宇陀小和田
6332135,奈良県,宇陀市,大宇陀東平尾,ナラケン,ウダシ,オオウダヒガシヒラオ,奈良県宇陀市大宇陀東平尾
6332136,奈良県,宇陀市,大宇陀大熊,ナラケン,ウダシ,オオウダオオクマ,奈良県宇陀市大宇陀大熊
6332137,奈良県,宇陀市,大宇陀下片岡,ナラケン,ウダシ,オオウダシモカタオカ,奈良県宇陀市大宇陀下片岡
6332138,奈良県,宇陀市,大宇陀白鳥居,ナラケン,ウダシ,オオウダシラトリイ,奈良県宇陀市大宇陀白鳥居
6332139,奈良県,宇陀市,大宇陀山口,ナラケン,ウダシ,オオウダヤマグチ,奈良県宇陀市大宇陀山口
6332141,奈良県,宇陀市,大宇陀上片岡,ナラケン,ウダシ,オオウダカミカタオカ,奈良県宇陀市大宇陀上片岡
6332142,奈良県,宇陀市,大宇陀田原,ナラケン,ウダシ,オオウダタワラ,奈良県宇陀市大宇陀田原
6332143,奈良県,宇陀市,大宇陀牧,ナラケン,ウダシ,オオウダマキ,奈良県宇陀市大宇陀牧
6332144,奈良県,宇陀市,大宇陀栗野,ナラケン,ウダシ,オオウダクリノ,奈良県宇陀市大宇陀栗野
6332151,奈良県,宇陀市,大宇陀大東,ナラケン,ウダシ,オオウダダイトウ,奈良県宇陀市大宇陀大東
6332152,奈良県,宇陀市,大宇陀関戸,ナラケン,ウダシ,オオウダセキド,奈良県宇陀市大宇陀関戸
6332153,奈良県,宇陀市,大宇陀下宮奥,ナラケン,ウダシ,オオウダシモミヤノオク,奈良県宇陀市大宇陀下宮奥
6332154,奈良県,宇陀市,大宇陀宮奥,ナラケン,ウダシ,オオウダミヤノオク,奈良県宇陀市大宇陀宮奥
6332155,奈良県,宇陀市,大宇陀黒木,ナラケン,ウダシ,オオウダクロギ,奈良県宇陀市大宇陀黒木
6332156,奈良県,宇陀市,大宇陀本郷,ナラケン,ウダシ,オオウダホンゴウ,奈良県宇陀市大宇陀本郷
6332161,奈良県,宇陀市,大宇陀上新,ナラケン,ウダシ,オオウダカミシン,奈良県宇陀市大宇陀上新
6332162,奈良県,宇陀市,大宇陀出新,ナラケン,ウダシ,オオウダイデシン,奈良県宇陀市大宇陀出新
6332163,奈良県,宇陀市,大宇陀万六,ナラケン,ウダシ,オオウダマンロク,奈良県宇陀市大宇陀万六
6332164,奈良県,宇陀市,大宇陀拾生,ナラケン,ウダシ,オオウダヒロウ,奈良県宇陀市大宇陀拾生
6332165,奈良県,宇陀市,大宇陀中庄,ナラケン,ウダシ,オオウダナカノショウ,奈良県宇陀市大宇陀中庄
6332166,奈良県,宇陀市,大宇陀迫間,ナラケン,ウダシ,オオウダハサマ,奈良県宇陀市大宇陀迫間
6332170,奈良県,宇陀市,大宇陀下茶,ナラケン,ウダシ,オオウダシモチャ,奈良県宇陀市大宇陀下茶
6332171,奈良県,宇陀市,大宇陀上茶,ナラケン,ウダシ,オオウダカミチャ,奈良県宇陀市大宇陀上茶
6332172,奈良県,宇陀市,大宇陀上本,ナラケン,ウダシ,オオウダカミホン,奈良県宇陀市大宇陀上本
6332173,奈良県,宇陀市,大宇陀上中,ナラケン,ウダシ,オオウダカミナカ,奈良県宇陀市大宇陀上中
6332174,奈良県,宇陀市,大宇陀上,ナラケン,ウダシ,オオウダカミ,奈良県宇陀市大宇陀上
6332175,奈良県,宇陀市,大宇陀中新,ナラケン,ウダシ,オオウダナカシン,奈良県宇陀市大宇陀中新
6332176,奈良県,宇陀市,大宇陀小出口,ナラケン,ウダシ,オオウダコイデグチ,奈良県宇陀市大宇陀小出口
6332177,奈良県,宇陀市,大宇陀下出口,ナラケン,ウダシ,オオウダシモデグチ,奈良県宇陀市大宇陀下出口
6332178,奈良県,宇陀市,大宇陀下中,ナラケン,ウダシ,オオウダシモナカ,奈良県宇陀市大宇陀下中
6332179,奈良県,宇陀市,大宇陀下本,ナラケン,ウダシ,オオウダシモホン,奈良県宇陀市大宇陀下本
6332201,奈良県,宇陀市,菟田野平井,ナラケン,ウダシ,ウタノヒライ,奈良県宇陀市菟田野平井
6332202,奈良県,宇陀市,菟田野大神,ナラケン,ウダシ,ウタノオオガミ,奈良県宇陀市菟田野大神
6332203,奈良県,宇陀市,菟田野見田,ナラケン,ウダシ,ウタノミタ,奈良県宇陀市菟田野見田
6332204,奈良県,宇陀市,菟田野大澤,ナラケン,ウダシ,ウタノオオサワ,奈良県宇陀市菟田野大澤
6332205,奈良県,宇陀市,菟田野別所,ナラケン,ウダシ,ウタノベッショ,奈良県宇陀市菟田野別所
6332211,奈良県,宇陀市,菟田野入谷,ナラケン,ウダシ,ウタノニュウダニ,奈良県宇陀市菟田野入谷
6332212,奈良県,宇陀市,菟田野下芳野,ナラケン,ウダシ,ウタノシモホウノ,奈良県宇陀市菟田野下芳野
6332213,奈良県,宇陀市,菟田野上芳野,ナラケン,ウダシ,ウタノカミホウノ,奈良県宇陀市菟田野上芳野
6332214,奈良県,宇陀市,菟田野岩端,ナラケン,ウダシ,ウタノイワハシ,奈良県宇陀市菟田野岩端
6332215,奈良県,宇陀市,菟田野東郷,ナラケン,ウダシ,ウタノトウゴウ,奈良県宇陀市菟田野東郷
6332221,奈良県,宇陀市,菟田野松井,ナラケン,ウダシ,ウタノマツイ,奈良県宇陀市菟田野松井
6332222,奈良県,宇陀市,菟田野駒帰,ナラケン,ウダシ,ウタノコマガエリ,奈良県宇陀市菟田野駒帰
6332223,奈良県,宇陀市,菟田野宇賀志,ナラケン,ウダシ,ウタノウカシ,奈良県宇陀市菟田野宇賀志
6332224,奈良県,宇陀市,菟田野佐倉,ナラケン,ウダシ,ウタノサクラ,奈良県宇陀市菟田野佐倉
6332225,奈良県,宇陀市,菟田野稲戸,ナラケン,ウダシ,ウタノイナド,奈良県宇陀市菟田野稲戸
6332226,奈良県,宇陀市,菟田野古市場,ナラケン,ウダシ,ウタノフルイチバ,奈良県宇陀市菟田野古市場
6332227,奈良県,宇陀市,菟田野岩崎,ナラケン,ウダシ,ウタノイワサキ,奈良県宇陀市菟田野岩崎
6332301,奈良県,吉野郡東吉野村,滝野,ナラケン,ヨシノグンヒガシヨシノムラ,タキノ,奈良県吉野郡東吉野村滝野
6332302,奈良県,吉野郡東吉野村,谷尻,ナラケン,ヨシノグンヒガシヨシノムラ,タニジリ,奈良県吉野郡東吉野村谷尻
6332303,奈良県,吉野郡東吉野村,平野,ナラケン,ヨシノグンヒガシヨシノムラ,ヒラノ,奈良県吉野郡東吉野村平野
6332304,奈良県,吉野郡東吉野村,杉谷,ナラケン,ヨシノグンヒガシヨシノムラ,スギタニ,奈良県吉野郡東吉野村杉谷
6332311,奈良県,吉野郡東吉野村,木津,ナラケン,ヨシノグンヒガシヨシノムラ,コツ,奈良県吉野郡東吉野村木津
6332312,奈良県,吉野郡東吉野村,伊豆尾,ナラケン,ヨシノグンヒガシヨシノムラ,イズオ,奈良県吉野郡東吉野村伊豆尾
6332313,奈良県,吉野郡東吉野村,日裏,ナラケン,ヨシノグンヒガシヨシノムラ,ヒウラ,奈良県吉野郡東吉野村日裏
6332314,奈良県,吉野郡東吉野村,萩原,ナラケン,ヨシノグンヒガシヨシノムラ,ハギワラ,奈良県吉野郡東吉野村萩原
6332400,奈良県,吉野郡東吉野村,,ナラケン,ヨシノグンヒガシヨシノムラ,,奈良県吉野郡東吉野村
6332421,奈良県,吉野郡東吉野村,小川,ナラケン,ヨシノグンヒガシヨシノムラ,オガワ,奈良県吉野郡東吉野村小川
6332422,奈良県,吉野郡東吉野村,鷲家,ナラケン,ヨシノグンヒガシヨシノムラ,ワシカ,奈良県吉野郡東吉野村鷲家
6332423,奈良県,吉野郡東吉野村,小栗栖,ナラケン,ヨシノグンヒガシヨシノムラ,コグリス,奈良県吉野郡東吉野村小栗栖
6332424,奈良県,吉野郡東吉野村,中黒,ナラケン,ヨシノグンヒガシヨシノムラ,ナカグロ,奈良県吉野郡東吉野村中黒
6332431,奈良県,吉野郡東吉野村,小,ナラケン,ヨシノグンヒガシヨシノムラ,オムラ,奈良県吉野郡東吉野村小
6332432,奈良県,吉野郡東吉野村,木津川,ナラケン,ヨシノグンヒガシヨシノムラ,コツガワ,奈良県吉野郡東吉野村木津川
6332433,奈良県,吉野郡東吉野村,三尾,ナラケン,ヨシノグンヒガシヨシノムラ,ミオ,奈良県吉野郡東吉野村三尾
6332441,奈良県,吉野郡東吉野村,狭戸,ナラケン,ヨシノグンヒガシヨシノムラ,セバト,奈良県吉野郡東吉野村狭戸
6332442,奈良県,吉野郡東吉野村,大豆生,ナラケン,ヨシノグンヒガシヨシノムラ,マメオ,奈良県吉野郡東吉野村大豆生
6332443,奈良県,吉野郡東吉野村,麦谷,ナラケン,ヨシノグンヒガシヨシノムラ,ムギタニ,奈良県吉野郡東吉野村麦谷
6332444,奈良県,吉野郡東吉野村,大又,ナラケン,ヨシノグンヒガシヨシノムラ,オオマタ,奈良県吉野郡東吉野村大又
6340000,奈良県,橿原市,,ナラケン,カシハラシ,,奈良県橿原市
6340001,奈良県,橿原市,太田市町,ナラケン,カシハラシ,オダイチチョウ,奈良県橿原市太田市町
6340002,奈良県,橿原市,東竹田町,ナラケン,カシハラシ,ヒガシタケダチョウ,奈良県橿原市東竹田町
6340003,奈良県,橿原市,常盤町,ナラケン,カシハラシ,トキワチョウ,奈良県橿原市常盤町
6340004,奈良県,橿原市,木原町,ナラケン,カシハラシ,キハラチョウ,奈良県橿原市木原町
6340005,奈良県,橿原市,北八木町,ナラケン,カシハラシ,キタヤギチョウ,奈良県橿原市北八木町
6340006,奈良県,橿原市,新賀町,ナラケン,カシハラシ,シンガチョウ,奈良県橿原市新賀町
6340007,奈良県,橿原市,葛本町,ナラケン,カシハラシ,クズモトチョウ,奈良県橿原市葛本町
6340008,奈良県,橿原市,十市町,ナラケン,カシハラシ,トオイチチョウ,奈良県橿原市十市町
6340009,奈良県,橿原市,中町,ナラケン,カシハラシ,ナカチョウ,奈良県橿原市中町
6340011,奈良県,橿原市,出垣内町,ナラケン,カシハラシ,デガイトチョウ,奈良県橿原市出垣内町
6340012,奈良県,橿原市,膳夫町,ナラケン,カシハラシ,カシワテチョウ,奈良県橿原市膳夫町
6340013,奈良県,橿原市,出合町,ナラケン,カシハラシ,デアイチョウ,奈良県橿原市出合町
6340014,奈良県,橿原市,石原田町,ナラケン,カシハラシ,イシハラダチョウ,奈良県橿原市石原田町
6340021,奈良県,橿原市,東池尻町,ナラケン,カシハラシ,ヒガシイケジリチョウ,奈良県橿原市東池尻町
6340022,奈良県,橿原市,南浦町,ナラケン,カシハラシ,ミナミウラチョウ,奈良県橿原市南浦町
6340023,奈良県,橿原市,戒外町,ナラケン,カシハラシ,カイゲチョウ,奈良県橿原市戒外町
6340024,奈良県,橿原市,南山町,ナラケン,カシハラシ,ミナミヤマチョウ,奈良県橿原市南山町
6340025,奈良県,橿原市,木之本町,ナラケン,カシハラシ,キノモトチョウ,奈良県橿原市木之本町
6340026,奈良県,橿原市,別所町,ナラケン,カシハラシ,ベッシヨチョウ,奈良県橿原市別所町
6340027,奈良県,橿原市,高殿町,ナラケン,カシハラシ,タカドノチョウ,奈良県橿原市高殿町
6340028,奈良県,橿原市,法花寺町,ナラケン,カシハラシ,ホッケイジチョウ,奈良県橿原市法花寺町
6340029,奈良県,橿原市,下八釣町,ナラケン,カシハラシ,シモヤツリチョウ,奈良県橿原市下八釣町
6340031,奈良県,橿原市,上飛騨町,ナラケン,カシハラシ,カミヒダチョウ,奈良県橿原市上飛騨町
6340032,奈良県,橿原市,田中町,ナラケン,カシハラシ,タナカチョウ,奈良県橿原市田中町
6340033,奈良県,橿原市,城殿町,ナラケン,カシハラシ,キドノチョウ,奈良県橿原市城殿町
6340034,奈良県,橿原市,飛騨町,ナラケン,カシハラシ,ヒダチョウ,奈良県橿原市飛騨町
6340041,奈良県,橿原市,和田町,ナラケン,カシハラシ,ワダチョウ,奈良県橿原市和田町
6340042,奈良県,橿原市,菖蒲町,ナラケン,カシハラシ,ショウブチョウ,奈良県橿原市菖蒲町
6340043,奈良県,橿原市,五条野町,ナラケン,カシハラシ,ゴジョウノチョウ,奈良県橿原市五条野町
6340044,奈良県,橿原市,大軽町,ナラケン,カシハラシ,オオガルチョウ,奈良県橿原市大軽町
6340045,奈良県,橿原市,石川町,ナラケン,カシハラシ,イシカワチョウ,奈良県橿原市石川町
6340046,奈良県,橿原市,栄和町,ナラケン,カシハラシ,エイワチョウ,奈良県橿原市栄和町
6340051,奈良県,橿原市,白橿町,ナラケン,カシハラシ,シラカシチョウ,奈良県橿原市白橿町
6340052,奈良県,橿原市,南妙法寺町,ナラケン,カシハラシ,ミナミミョウホウジチョウ,奈良県橿原市南妙法寺町
6340061,奈良県,橿原市,大久保町,ナラケン,カシハラシ,オオクボチョウ,奈良県橿原市大久保町
6340062,奈良県,橿原市,御坊町,ナラケン,カシハラシ,ゴボウチョウ,奈良県橿原市御坊町
6340063,奈良県,橿原市,久米町,ナラケン,カシハラシ,クメチョウ,奈良県橿原市久米町
6340064,奈良県,橿原市,見瀬町,ナラケン,カシハラシ,ミセチョウ,奈良県橿原市見瀬町
6340065,奈良県,橿原市,畝傍町,ナラケン,カシハラシ,ウネビチョウ,奈良県橿原市畝傍町
6340071,奈良県,橿原市,山之坊町,ナラケン,カシハラシ,ヤマノボウチョウ,奈良県橿原市山之坊町
6340072,奈良県,橿原市,醍醐町,ナラケン,カシハラシ,ダイゴチョウ,奈良県橿原市醍醐町
6340073,奈良県,橿原市,縄手町,ナラケン,カシハラシ,ナワテチョウ,奈良県橿原市縄手町
6340074,奈良県,橿原市,四分町,ナラケン,カシハラシ,シブチョウ,奈良県橿原市四分町
6340075,奈良県,橿原市,小房町,ナラケン,カシハラシ,オウサチョウ,奈良県橿原市小房町
6340076,奈良県,橿原市,兵部町,ナラケン,カシハラシ,ヒョウブチョウ,奈良県橿原市兵部町
6340077,奈良県,橿原市,南八木町,ナラケン,カシハラシ,ミナミヤギチョウ,奈良県橿原市南八木町
6340078,奈良県,橿原市,八木町,ナラケン,カシハラシ,ヤギチョウ,奈良県橿原市八木町
6340100,奈良県,高市郡明日香村,,ナラケン,タカイチグンアスカムラ,,奈良県高市郡明日香村
6340101,奈良県,高市郡明日香村,小山,ナラケン,タカイチグンアスカムラ,コヤマ,奈良県高市郡明日香村小山
6340102,奈良県,高市郡明日香村,奥山,ナラケン,タカイチグンアスカムラ,オクヤマ,奈良県高市郡明日香村奥山
6340103,奈良県,高市郡明日香村,飛鳥,ナラケン,タカイチグンアスカムラ,アスカ,奈良県高市郡明日香村飛鳥
6340104,奈良県,高市郡明日香村,八釣,ナラケン,タカイチグンアスカムラ,ヤツリ,奈良県高市郡明日香村八釣
6340105,奈良県,高市郡明日香村,東山,ナラケン,タカイチグンアスカムラ,ヒガシヤマ,奈良県高市郡明日香村東山
6340106,奈良県,高市郡明日香村,小原,ナラケン,タカイチグンアスカムラ,オオハラ,奈良県高市郡明日香村小原
6340107,奈良県,高市郡明日香村,豊浦,ナラケン,タカイチグンアスカムラ,トヨウラ,奈良県高市郡明日香村豊浦
6340108,奈良県,高市郡明日香村,雷,ナラケン,タカイチグンアスカムラ,イカツチ,奈良県高市郡明日香村雷
6340111,奈良県,高市郡明日香村,岡,ナラケン,タカイチグンアスカムラ,オカ,奈良県高市郡明日香村岡
6340112,奈良県,高市郡明日香村,島庄,ナラケン,タカイチグンアスカムラ,シマショウ,奈良県高市郡明日香村島庄
6340113,奈良県,高市郡明日香村,上居,ナラケン,タカイチグンアスカムラ,ジョウゴ,奈良県高市郡明日香村上居
6340114,奈良県,高市郡明日香村,細川,ナラケン,タカイチグンアスカムラ,ホソカワ,奈良県高市郡明日香村細川
6340115,奈良県,高市郡明日香村,上,ナラケン,タカイチグンアスカムラ,カムラ,奈良県高市郡明日香村上
6340116,奈良県,高市郡明日香村,尾曽,ナラケン,タカイチグンアスカムラ,オオソ,奈良県高市郡明日香村尾曽
6340117,奈良県,高市郡明日香村,冬野,ナラケン,タカイチグンアスカムラ,フユノ,奈良県高市郡明日香村冬野
6340118,奈良県,高市郡明日香村,畑,ナラケン,タカイチグンアスカムラ,ハタ,奈良県高市郡明日香村畑
6340121,奈良県,高市郡明日香村,祝戸,ナラケン,タカイチグンアスカムラ,イワイド,奈良県高市郡明日香村祝戸
6340122,奈良県,高市郡明日香村,阪田,ナラケン,タカイチグンアスカムラ,サカダ,奈良県高市郡明日香村阪田
6340123,奈良県,高市郡明日香村,稲渕,ナラケン,タカイチグンアスカムラ,イナブチ,奈良県高市郡明日香村稲渕
6340124,奈良県,高市郡明日香村,栢森,ナラケン,タカイチグンアスカムラ,カヤモリ,奈良県高市郡明日香村栢森
6340125,奈良県,高市郡明日香村,入谷,ナラケン,タカイチグンアスカムラ,ニュウダニ,奈良県高市郡明日香村入谷
6340131,奈良県,高市郡明日香村,御園,ナラケン,タカイチグンアスカムラ,ミソノ,奈良県高市郡明日香村御園
6340132,奈良県,高市郡明日香村,栗原,ナラケン,タカイチグンアスカムラ,クリハラ,奈良県高市郡明日香村栗原
6340133,奈良県,高市郡明日香村,大根田,ナラケン,タカイチグンアスカムラ,オオネダ,奈良県高市郡明日香村大根田
6340134,奈良県,高市郡明日香村,阿部山,ナラケン,タカイチグンアスカムラ,アベヤマ,奈良県高市郡明日香村阿部山
6340135,奈良県,高市郡明日香村,檜前,ナラケン,タカイチグンアスカムラ,ヒノクマ,奈良県高市郡明日香村檜前
6340136,奈良県,高市郡明日香村,地ノ窪,ナラケン,タカイチグンアスカムラ,ジノクボ,奈良県高市郡明日香村地ノ窪
6340137,奈良県,高市郡明日香村,真弓,ナラケン,タカイチグンアスカムラ,マユミ,奈良県高市郡明日香村真弓
6340138,奈良県,高市郡明日香村,越,ナラケン,タカイチグンアスカムラ,コシ,奈良県高市郡明日香村越
6340141,奈良県,高市郡明日香村,川原,ナラケン,タカイチグンアスカムラ,カワハラ,奈良県高市郡明日香村川原
6340142,奈良県,高市郡明日香村,橘,ナラケン,タカイチグンアスカムラ,タチバナ,奈良県高市郡明日香村橘
6340143,奈良県,高市郡明日香村,立部,ナラケン,タカイチグンアスカムラ,タチベ,奈良県高市郡明日香村立部
6340144,奈良県,高市郡明日香村,平田,ナラケン,タカイチグンアスカムラ,ヒラタ,奈良県高市郡明日香村平田
6340145,奈良県,高市郡明日香村,野口,ナラケン,タカイチグンアスカムラ,ノグチ,奈良県高市郡明日香村野口
6340801,奈良県,橿原市,西新堂町,ナラケン,カシハラシ,ニシシンドウチョウ,奈良県橿原市西新堂町
6340802,奈良県,橿原市,新口町,ナラケン,カシハラシ,ニノクチチョウ,奈良県橿原市新口町
6340803,奈良県,橿原市,上品寺町,ナラケン,カシハラシ,ジョウボンジチョウ,奈良県橿原市上品寺町
6340804,奈良県,橿原市,内膳町,ナラケン,カシハラシ,ナイゼンチョウ,奈良県橿原市内膳町
6340805,奈良県,橿原市,地黄町,ナラケン,カシハラシ,ジオチョウ,奈良県橿原市地黄町
6340811,奈良県,橿原市,小綱町,ナラケン,カシハラシ,ショウコチョウ,奈良県橿原市小綱町
6340812,奈良県,橿原市,今井町,ナラケン,カシハラシ,イマイチョウ,奈良県橿原市今井町
6340813,奈良県,橿原市,四条町,ナラケン,カシハラシ,シジョウチョウ,奈良県橿原市四条町
6340814,奈良県,橿原市,山本町,ナラケン,カシハラシ,ヤマモトチョウ,奈良県橿原市山本町
6340815,奈良県,橿原市,大谷町,ナラケン,カシハラシ,オオタニチョウ,奈良県橿原市大谷町
6340816,奈良県,橿原市,慈明寺町,ナラケン,カシハラシ,ジミョウジチョウ,奈良県橿原市慈明寺町
6340817,奈良県,橿原市,寺田町,ナラケン,カシハラシ,テラダチョウ,奈良県橿原市寺田町
6340821,奈良県,橿原市,西池尻町,ナラケン,カシハラシ,ニシイケジリチョウ,奈良県橿原市西池尻町
6340822,奈良県,橿原市,鳥屋町,ナラケン,カシハラシ,トリヤチョウ,奈良県橿原市鳥屋町
6340823,奈良県,橿原市,北越智町,ナラケン,カシハラシ,キタオチチョウ,奈良県橿原市北越智町
6340824,奈良県,橿原市,一町,ナラケン,カシハラシ,カズチョウ,奈良県橿原市一町
6340825,奈良県,橿原市,観音寺町,ナラケン,カシハラシ,カンノンジチョウ,奈良県橿原市観音寺町
6340826,奈良県,橿原市,川西町,ナラケン,カシハラシ,カワニシチョウ,奈良県橿原市川西町
6340827,奈良県,橿原市,光陽町,ナラケン,カシハラシ,コウヨウチョウ,奈良県橿原市光陽町
6340828,奈良県,橿原市,古川町,ナラケン,カシハラシ,フルカワチョウ,奈良県橿原市古川町
6340829,奈良県,橿原市,吉田町,ナラケン,カシハラシ,ヨシダチョウ,奈良県橿原市吉田町
6340831,奈良県,橿原市,曽我町,ナラケン,カシハラシ,ソガチョウ,奈良県橿原市曽我町
6340832,奈良県,橿原市,五井町,ナラケン,カシハラシ,ゴイチョウ,奈良県橿原市五井町
6340833,奈良県,橿原市,忌部町,ナラケン,カシハラシ,インベチョウ,奈良県橿原市忌部町
6340834,奈良県,橿原市,雲梯町,ナラケン,カシハラシ,ウナテチョウ,奈良県橿原市雲梯町
6340835,奈良県,橿原市,東坊城町,ナラケン,カシハラシ,ヒガシボウジョウチョウ,奈良県橿原市東坊城町
6340836,奈良県,橿原市,新堂町,ナラケン,カシハラシ,シンドウチョウ,奈良県橿原市新堂町
6340837,奈良県,橿原市,曲川町,ナラケン,カシハラシ,マガリカワチョウ,奈良県橿原市曲川町
6340841,奈良県,橿原市,大垣町,ナラケン,カシハラシ,オオガキチョウ,奈良県橿原市大垣町
6340842,奈良県,橿原市,豊田町,ナラケン,カシハラシ,トヨダチョウ,奈良県橿原市豊田町
6340843,奈良県,橿原市,北妙法寺町,ナラケン,カシハラシ,キタミョウホウジチョウ,奈良県橿原市北妙法寺町
6340844,奈良県,橿原市,土橋町,ナラケン,カシハラシ,ツチハシチョウ,奈良県橿原市土橋町
6340845,奈良県,橿原市,中曽司町,ナラケン,カシハラシ,ナカゾシチョウ,奈良県橿原市中曽司町
6340846,奈良県,橿原市,小槻町,ナラケン,カシハラシ,オウヅクチョウ,奈良県橿原市小槻町
6340847,奈良県,橿原市,飯高町,ナラケン,カシハラシ,ヒダカチョウ,奈良県橿原市飯高町
6350000,奈良県,北葛城郡広陵町,,ナラケン,キタカツラギグンコウリョウチョウ,,奈良県北葛城郡広陵町
6350000,奈良県,大和高田市,,ナラケン,ヤマトタカダシ,,奈良県大和高田市
6350001,奈良県,大和高田市,松塚,ナラケン,ヤマトタカダシ,マツヅカ,奈良県大和高田市松塚
6350002,奈良県,大和高田市,土庫（丁目）,ナラケン,ヤマトタカダシ,ドンゴ(チョウメ),奈良県大和高田市土庫（丁目）
6350003,奈良県,大和高田市,土庫（番地）,ナラケン,ヤマトタカダシ,ドンゴ(バンチ),奈良県大和高田市土庫（番地）
6350004,奈良県,大和高田市,藤森,ナラケン,ヤマトタカダシ,フジノモリ,奈良県大和高田市藤森
6350011,奈良県,大和高田市,材木町,ナラケン,ヤマトタカダシ,ザイモクチョウ,奈良県大和高田市材木町
6350012,奈良県,大和高田市,曙町,ナラケン,ヤマトタカダシ,アケボノチョウ,奈良県大和高田市曙町
6350013,奈良県,大和高田市,昭和町,ナラケン,ヤマトタカダシ,ショウワチョウ,奈良県大和高田市昭和町
6350014,奈良県,大和高田市,三和町,ナラケン,ヤマトタカダシ,サンワチョウ,奈良県大和高田市三和町
6350015,奈良県,大和高田市,幸町,ナラケン,ヤマトタカダシ,サイワイチョウ,奈良県大和高田市幸町
6350016,奈良県,大和高田市,大東町,ナラケン,ヤマトタカダシ,オオヒガシチョウ,奈良県大和高田市大東町
6350017,奈良県,大和高田市,東雲町,ナラケン,ヤマトタカダシ,シノノメチョウ,奈良県大和高田市東雲町
6350021,奈良県,大和高田市,池尻,ナラケン,ヤマトタカダシ,イケジリ,奈良県大和高田市池尻
6350022,奈良県,大和高田市,日之出町,ナラケン,ヤマトタカダシ,ヒノデチョウ,奈良県大和高田市日之出町
6350022,奈良県,大和高田市,高田,ナラケン,ヤマトタカダシ,タカダ,奈良県大和高田市高田
6350023,奈良県,大和高田市,日之出東本町,ナラケン,ヤマトタカダシ,ヒノデヒガシホンマチ,奈良県大和高田市日之出東本町
6350024,奈良県,大和高田市,日之出西本町,ナラケン,ヤマトタカダシ,ヒノデニシホンマチ,奈良県大和高田市日之出西本町
6350025,奈良県,大和高田市,神楽（丁目）,ナラケン,ヤマトタカダシ,ジンラク(チョウメ),奈良県大和高田市神楽（丁目）
6350026,奈良県,大和高田市,神楽（番地）,ナラケン,ヤマトタカダシ,ジンラク(バンチ),奈良県大和高田市神楽（番地）
6350031,奈良県,大和高田市,今里,ナラケン,ヤマトタカダシ,イマザト,奈良県大和高田市今里
6350031,奈良県,大和高田市,今里町,ナラケン,ヤマトタカダシ,イマザトチョウ,奈良県大和高田市今里町
6350032,奈良県,大和高田市,今里川合方,ナラケン,ヤマトタカダシ,イマザトカワイホウ,奈良県大和高田市今里川合方
6350033,奈良県,大和高田市,南今里町,ナラケン,ヤマトタカダシ,ミナミイマザトチョウ,奈良県大和高田市南今里町
6350034,奈良県,大和高田市,東三倉堂町,ナラケン,ヤマトタカダシ,ヒガシミクラドウチョウ,奈良県大和高田市東三倉堂町
6350035,奈良県,大和高田市,旭南町,ナラケン,ヤマトタカダシ,アサヒミナミチョウ,奈良県大和高田市旭南町
6350036,奈良県,大和高田市,旭北町,ナラケン,ヤマトタカダシ,アサヒキタチョウ,奈良県大和高田市旭北町
6350037,奈良県,大和高田市,中今里町,ナラケン,ヤマトタカダシ,ナカイマザトチョウ,奈良県大和高田市中今里町
6350041,奈良県,大和高田市,田井,ナラケン,ヤマトタカダシ,タイ,奈良県大和高田市田井
6350042,奈良県,大和高田市,勝目,ナラケン,ヤマトタカダシ,カジメ,奈良県大和高田市勝目
6350043,奈良県,大和高田市,出,ナラケン,ヤマトタカダシ,イデ,奈良県大和高田市出
6350044,奈良県,大和高田市,蔵之宮町,ナラケン,ヤマトタカダシ,クラノミヤチョウ,奈良県大和高田市蔵之宮町
6350045,奈良県,大和高田市,中三倉堂,ナラケン,ヤマトタカダシ,ナカミクラドウ,奈良県大和高田市中三倉堂
6350046,奈良県,大和高田市,西三倉堂,ナラケン,ヤマトタカダシ,ニシミクラドウ,奈良県大和高田市西三倉堂
6350047,奈良県,大和高田市,田井新町,ナラケン,ヤマトタカダシ,タイシンマチ,奈良県大和高田市田井新町
6350051,奈良県,大和高田市,根成柿,ナラケン,ヤマトタカダシ,ネナリガキ,奈良県大和高田市根成柿
6350052,奈良県,大和高田市,奥田,ナラケン,ヤマトタカダシ,オクダ,奈良県大和高田市奥田
6350053,奈良県,大和高田市,秋吉,ナラケン,ヤマトタカダシ,アキヨシ,奈良県大和高田市秋吉
6350054,奈良県,大和高田市,曽大根（番地）,ナラケン,ヤマトタカダシ,ソオネ(バンチ),奈良県大和高田市曽大根（番地）
6350055,奈良県,大和高田市,曽大根（丁目）,ナラケン,ヤマトタカダシ,ソオネ(チョウメ),奈良県大和高田市曽大根（丁目）
6350056,奈良県,大和高田市,甘田町,ナラケン,ヤマトタカダシ,カンダチョウ,奈良県大和高田市甘田町
6350057,奈良県,大和高田市,南陽町,ナラケン,ヤマトタカダシ,ナンヨウチョウ,奈良県大和高田市南陽町
6350058,奈良県,大和高田市,西坊城,ナラケン,ヤマトタカダシ,ニシボウジョウ,奈良県大和高田市西坊城
6350059,奈良県,大和高田市,吉井,ナラケン,ヤマトタカダシ,ヨシイ,奈良県大和高田市吉井
6350061,奈良県,大和高田市,礒野東町,ナラケン,ヤマトタカダシ,イソノヒガシチョウ,奈良県大和高田市礒野東町
6350062,奈良県,大和高田市,礒野南町,ナラケン,ヤマトタカダシ,イソノミナミマチ,奈良県大和高田市礒野南町
6350063,奈良県,大和高田市,礒野新町,ナラケン,ヤマトタカダシ,イソノシンマチ,奈良県大和高田市礒野新町
6350064,奈良県,大和高田市,栄町,ナラケン,ヤマトタカダシ,サカエマチ,奈良県大和高田市栄町
6350065,奈良県,大和高田市,東中（丁目）,ナラケン,ヤマトタカダシ,ヒガシナカ(チョウメ),奈良県大和高田市東中（丁目）
6350066,奈良県,大和高田市,東中（番地）,ナラケン,ヤマトタカダシ,ヒガシナカ(バンチ),奈良県大和高田市東中（番地）
6350067,奈良県,大和高田市,春日町,ナラケン,ヤマトタカダシ,カスガチョウ,奈良県大和高田市春日町
6350071,奈良県,大和高田市,築山,ナラケン,ヤマトタカダシ,ツキヤマ,奈良県大和高田市築山
6350072,奈良県,大和高田市,有井,ナラケン,ヤマトタカダシ,アリイ,奈良県大和高田市有井
6350073,奈良県,大和高田市,岡崎,ナラケン,ヤマトタカダシ,オカザキ,奈良県大和高田市岡崎
6350074,奈良県,大和高田市,市場,ナラケン,ヤマトタカダシ,イチバ,奈良県大和高田市市場
6350075,奈良県,大和高田市,野口,ナラケン,ヤマトタカダシ,ノグチ,奈良県大和高田市野口
6350076,奈良県,大和高田市,大谷,ナラケン,ヤマトタカダシ,オオタニ,奈良県大和高田市大谷
6350077,奈良県,大和高田市,池田,ナラケン,ヤマトタカダシ,イケダ,奈良県大和高田市池田
6350081,奈良県,大和高田市,高砂町,ナラケン,ヤマトタカダシ,タカサゴチョウ,奈良県大和高田市高砂町
6350082,奈良県,大和高田市,本郷町,ナラケン,ヤマトタカダシ,ホンゴウチョウ,奈良県大和高田市本郷町
6350083,奈良県,大和高田市,永和町,ナラケン,ヤマトタカダシ,エイワチョウ,奈良県大和高田市永和町
6350084,奈良県,大和高田市,北片塩町,ナラケン,ヤマトタカダシ,キタカタシオチョウ,奈良県大和高田市北片塩町
6350085,奈良県,大和高田市,片塩町,ナラケン,ヤマトタカダシ,カタシオチョウ,奈良県大和高田市片塩町
6350086,奈良県,大和高田市,南本町,ナラケン,ヤマトタカダシ,ミナミホンマチ,奈良県大和高田市南本町
6350087,奈良県,大和高田市,内本町,ナラケン,ヤマトタカダシ,ウチホンマチ,奈良県大和高田市内本町
6350091,奈良県,大和高田市,大中東町,ナラケン,ヤマトタカダシ,オオナカヒガシチョウ,奈良県大和高田市大中東町
6350092,奈良県,大和高田市,大中南町,ナラケン,ヤマトタカダシ,オオナカミナミチョウ,奈良県大和高田市大中南町
6350093,奈良県,大和高田市,礒野,ナラケン,ヤマトタカダシ,イソノ,奈良県大和高田市礒野
6350093,奈良県,大和高田市,礒野町,ナラケン,ヤマトタカダシ,イソノチョウ,奈良県大和高田市礒野町
6350094,奈良県,大和高田市,礒野北町,ナラケン,ヤマトタカダシ,イソノキタチョウ,奈良県大和高田市礒野北町
6350095,奈良県,大和高田市,大中,ナラケン,ヤマトタカダシ,オオナカ,奈良県大和高田市大中
6350096,奈良県,大和高田市,西町,ナラケン,ヤマトタカダシ,ニシマチ,奈良県大和高田市西町
6350097,奈良県,大和高田市,北本町,ナラケン,ヤマトタカダシ,キタホンマチ,奈良県大和高田市北本町
6350100,奈良県,高市郡高取町,,ナラケン,タカイチグンタカトリチョウ,,奈良県高市郡高取町
6350101,奈良県,高市郡高取町,高取,ナラケン,タカイチグンタカトリチョウ,タカトリ,奈良県高市郡高取町高取
6350102,奈良県,高市郡高取町,壺阪,ナラケン,タカイチグンタカトリチョウ,ツボサカ,奈良県高市郡高取町壺阪
6350103,奈良県,高市郡高取町,清水谷,ナラケン,タカイチグンタカトリチョウ,シミズタニ,奈良県高市郡高取町清水谷
6350104,奈良県,高市郡高取町,上子島,ナラケン,タカイチグンタカトリチョウ,カミコシマ,奈良県高市郡高取町上子島
6350111,奈良県,高市郡高取町,松山,ナラケン,タカイチグンタカトリチョウ,マツヤマ,奈良県高市郡高取町松山
6350112,奈良県,高市郡高取町,藤井,ナラケン,タカイチグンタカトリチョウ,フジイ,奈良県高市郡高取町藤井
6350113,奈良県,高市郡高取町,羽内,ナラケン,タカイチグンタカトリチョウ,ホウチ,奈良県高市郡高取町羽内
6350121,奈良県,高市郡高取町,丹生谷,ナラケン,タカイチグンタカトリチョウ,ニウダニ,奈良県高市郡高取町丹生谷
6350122,奈良県,高市郡高取町,谷田,ナラケン,タカイチグンタカトリチョウ,ヤタ,奈良県高市郡高取町谷田
6350123,奈良県,高市郡高取町,市尾,ナラケン,タカイチグンタカトリチョウ,イチオ,奈良県高市郡高取町市尾
6350131,奈良県,高市郡高取町,佐田,ナラケン,タカイチグンタカトリチョウ,サダ,奈良県高市郡高取町佐田
6350132,奈良県,高市郡高取町,森,ナラケン,タカイチグンタカトリチョウ,モリ,奈良県高市郡高取町森
6350133,奈良県,高市郡高取町,吉備,ナラケン,タカイチグンタカトリチョウ,キビ,奈良県高市郡高取町吉備
6350134,奈良県,高市郡高取町,薩摩,ナラケン,タカイチグンタカトリチョウ,サツマ,奈良県高市郡高取町薩摩
6350135,奈良県,高市郡高取町,田井庄,ナラケン,タカイチグンタカトリチョウ,タイノショウ,奈良県高市郡高取町田井庄
6350136,奈良県,高市郡高取町,兵庫,ナラケン,タカイチグンタカトリチョウ,ヒョウゴ,奈良県高市郡高取町兵庫
6350141,奈良県,高市郡高取町,与楽,ナラケン,タカイチグンタカトリチョウ,ヨウラク,奈良県高市郡高取町与楽
6350142,奈良県,高市郡高取町,寺崎,ナラケン,タカイチグンタカトリチョウ,テラサキ,奈良県高市郡高取町寺崎
6350143,奈良県,高市郡高取町,車木,ナラケン,タカイチグンタカトリチョウ,クルマキ,奈良県高市郡高取町車木
6350144,奈良県,高市郡高取町,越智,ナラケン,タカイチグンタカトリチョウ,オチ,奈良県高市郡高取町越智
6350151,奈良県,高市郡高取町,下子島,ナラケン,タカイチグンタカトリチョウ,シモコシマ,奈良県高市郡高取町下子島
6350152,奈良県,高市郡高取町,上土佐,ナラケン,タカイチグンタカトリチョウ,カミトサ,奈良県高市郡高取町上土佐
6350153,奈良県,高市郡高取町,下土佐,ナラケン,タカイチグンタカトリチョウ,シモトサ,奈良県高市郡高取町下土佐
6350154,奈良県,高市郡高取町,観覚寺,ナラケン,タカイチグンタカトリチョウ,カンガクジ,奈良県高市郡高取町観覚寺
6350801,奈良県,北葛城郡広陵町,大場,ナラケン,キタカツラギグンコウリョウチョウ,オオバ,奈良県北葛城郡広陵町大場
6350802,奈良県,北葛城郡広陵町,的場,ナラケン,キタカツラギグンコウリョウチョウ,マトバ,奈良県北葛城郡広陵町的場
6350803,奈良県,北葛城郡広陵町,大野,ナラケン,キタカツラギグンコウリョウチョウ,オオノ,奈良県北葛城郡広陵町大野
6350804,奈良県,北葛城郡広陵町,沢,ナラケン,キタカツラギグンコウリョウチョウ,サワ,奈良県北葛城郡広陵町沢
6350805,奈良県,北葛城郡広陵町,萱野,ナラケン,キタカツラギグンコウリョウチョウ,カヤノ,奈良県北葛城郡広陵町萱野
6350811,奈良県,北葛城郡広陵町,弁財天,ナラケン,キタカツラギグンコウリョウチョウ,ベザイテン,奈良県北葛城郡広陵町弁財天
6350812,奈良県,北葛城郡広陵町,広瀬,ナラケン,キタカツラギグンコウリョウチョウ,ヒロセ,奈良県北葛城郡広陵町広瀬
6350813,奈良県,北葛城郡広陵町,百済,ナラケン,キタカツラギグンコウリョウチョウ,クダラ,奈良県北葛城郡広陵町百済
6350814,奈良県,北葛城郡広陵町,南郷,ナラケン,キタカツラギグンコウリョウチョウ,ナンゴウ,奈良県北葛城郡広陵町南郷
6350815,奈良県,北葛城郡広陵町,古寺,ナラケン,キタカツラギグンコウリョウチョウ,コデラ,奈良県北葛城郡広陵町古寺
6350816,奈良県,北葛城郡広陵町,中,ナラケン,キタカツラギグンコウリョウチョウ,ナカ,奈良県北葛城郡広陵町中
6350817,奈良県,北葛城郡広陵町,寺戸,ナラケン,キタカツラギグンコウリョウチョウ,テラド,奈良県北葛城郡広陵町寺戸
6350818,奈良県,北葛城郡広陵町,南,ナラケン,キタカツラギグンコウリョウチョウ,ミナミ,奈良県北葛城郡広陵町南
6350821,奈良県,北葛城郡広陵町,笠,ナラケン,キタカツラギグンコウリョウチョウ,カサ,奈良県北葛城郡広陵町笠
6350822,奈良県,北葛城郡広陵町,平尾,ナラケン,キタカツラギグンコウリョウチョウ,ヒラオ,奈良県北葛城郡広陵町平尾
6350823,奈良県,北葛城郡広陵町,三吉,ナラケン,キタカツラギグンコウリョウチョウ,ミツヨシ,奈良県北葛城郡広陵町三吉
6350824,奈良県,北葛城郡広陵町,疋相,ナラケン,キタカツラギグンコウリョウチョウ,ヒキソ,奈良県北葛城郡広陵町疋相
6350825,奈良県,北葛城郡広陵町,安部,ナラケン,キタカツラギグンコウリョウチョウ,アベ,奈良県北葛城郡広陵町安部
6350831,奈良県,北葛城郡広陵町,馬見北,ナラケン,キタカツラギグンコウリョウチョウ,ウマミキタ,奈良県北葛城郡広陵町馬見北
6350832,奈良県,北葛城郡広陵町,馬見中,ナラケン,キタカツラギグンコウリョウチョウ,ウマミナカ,奈良県北葛城郡広陵町馬見中
6350833,奈良県,北葛城郡広陵町,馬見南,ナラケン,キタカツラギグンコウリョウチョウ,ウマミミナミ,奈良県北葛城郡広陵町馬見南
6350834,奈良県,北葛城郡広陵町,大塚,ナラケン,キタカツラギグンコウリョウチョウ,オオツカ,奈良県北葛城郡広陵町大塚
6350835,奈良県,北葛城郡広陵町,みささぎ台,ナラケン,キタカツラギグンコウリョウチョウ,ミササギダイ,奈良県北葛城郡広陵町みささぎ台
6360000,奈良県,北葛城郡河合町,,ナラケン,キタカツラギグンカワイチョウ,,奈良県北葛城郡河合町
6360000,奈良県,北葛城郡王寺町,,ナラケン,キタカツラギグンオウジチョウ,,奈良県北葛城郡王寺町
6360000,奈良県,生駒郡三郷町,,ナラケン,イコマグンサンゴウチョウ,,奈良県生駒郡三郷町
6360000,奈良県,生駒郡平群町,,ナラケン,イコマグンヘグリチョウ,,奈良県生駒郡平群町
6360001,奈良県,北葛城郡王寺町,舟戸,ナラケン,キタカツラギグンオウジチョウ,フナト,奈良県北葛城郡王寺町舟戸
6360002,奈良県,北葛城郡王寺町,王寺,ナラケン,キタカツラギグンオウジチョウ,オウジ,奈良県北葛城郡王寺町王寺
6360003,奈良県,北葛城郡王寺町,久度,ナラケン,キタカツラギグンオウジチョウ,クド,奈良県北葛城郡王寺町久度
6360011,奈良県,北葛城郡王寺町,葛下,ナラケン,キタカツラギグンオウジチョウ,カツシモ,奈良県北葛城郡王寺町葛下
6360012,奈良県,北葛城郡王寺町,本町,ナラケン,キタカツラギグンオウジチョウ,ホンマチ,奈良県北葛城郡王寺町本町
6360013,奈良県,北葛城郡王寺町,元町,ナラケン,キタカツラギグンオウジチョウ,モトマチ,奈良県北葛城郡王寺町元町
6360014,奈良県,北葛城郡王寺町,藤井,ナラケン,キタカツラギグンオウジチョウ,フジイ,奈良県北葛城郡王寺町藤井
6360015,奈良県,北葛城郡王寺町,南元町,ナラケン,キタカツラギグンオウジチョウ,ミナミモトマチ,奈良県北葛城郡王寺町南元町
6360021,奈良県,北葛城郡王寺町,畠田,ナラケン,キタカツラギグンオウジチョウ,ハタケダ,奈良県北葛城郡王寺町畠田
6360022,奈良県,北葛城郡王寺町,明神,ナラケン,キタカツラギグンオウジチョウ,ミョウジン,奈良県北葛城郡王寺町明神
6360023,奈良県,北葛城郡王寺町,太子,ナラケン,キタカツラギグンオウジチョウ,タイシ,奈良県北葛城郡王寺町太子
6360051,奈良県,北葛城郡河合町,川合,ナラケン,キタカツラギグンカワイチョウ,カワイ,奈良県北葛城郡河合町川合
6360052,奈良県,北葛城郡河合町,長楽,ナラケン,キタカツラギグンカワイチョウ,チョウラク,奈良県北葛城郡河合町長楽
6360053,奈良県,北葛城郡河合町,池部,ナラケン,キタカツラギグンカワイチョウ,イケベ,奈良県北葛城郡河合町池部
6360054,奈良県,北葛城郡河合町,穴闇,ナラケン,キタカツラギグンカワイチョウ,ナグラ,奈良県北葛城郡河合町穴闇
6360055,奈良県,北葛城郡河合町,西穴闇,ナラケン,キタカツラギグンカワイチョウ,ニシナグラ,奈良県北葛城郡河合町西穴闇
6360056,奈良県,北葛城郡河合町,西山台,ナラケン,キタカツラギグンカワイチョウ,ニシヤマダイ,奈良県北葛城郡河合町西山台
6360057,奈良県,北葛城郡河合町,彩りの杜,ナラケン,キタカツラギグンカワイチョウ,イロドリノモリ,奈良県北葛城郡河合町彩りの杜
6360061,奈良県,北葛城郡河合町,山坊,ナラケン,キタカツラギグンカワイチョウ,ヤマノボウ,奈良県北葛城郡河合町山坊
6360062,奈良県,北葛城郡河合町,佐味田,ナラケン,キタカツラギグンカワイチョウ,サミタ,奈良県北葛城郡河合町佐味田
6360063,奈良県,北葛城郡河合町,久美ケ丘,ナラケン,キタカツラギグンカワイチョウ,クミガオカ,奈良県北葛城郡河合町久美ケ丘
6360071,奈良県,北葛城郡河合町,高塚台,ナラケン,キタカツラギグンカワイチョウ,タカツカダイ,奈良県北葛城郡河合町高塚台
6360072,奈良県,北葛城郡河合町,中山台,ナラケン,キタカツラギグンカワイチョウ,ナカヤマダイ,奈良県北葛城郡河合町中山台
6360073,奈良県,北葛城郡河合町,広瀬台,ナラケン,キタカツラギグンカワイチョウ,ヒロセダイ,奈良県北葛城郡河合町広瀬台
6360081,奈良県,北葛城郡河合町,星和台,ナラケン,キタカツラギグンカワイチョウ,セイワダイ,奈良県北葛城郡河合町星和台
6360082,奈良県,北葛城郡河合町,薬井,ナラケン,キタカツラギグンカワイチョウ,クスリイ,奈良県北葛城郡河合町薬井
6360091,奈良県,北葛城郡河合町,泉台,ナラケン,キタカツラギグンカワイチョウ,イズミダイ,奈良県北葛城郡河合町泉台
6360092,奈良県,北葛城郡河合町,城内,ナラケン,キタカツラギグンカワイチョウ,ジョウナイ,奈良県北葛城郡河合町城内
6360093,奈良県,北葛城郡河合町,大輪田,ナラケン,キタカツラギグンカワイチョウ,オオワダ,奈良県北葛城郡河合町大輪田
6360100,奈良県,生駒郡斑鳩町,,ナラケン,イコマグンイカルガチョウ,,奈良県生駒郡斑鳩町
6360101,奈良県,生駒郡斑鳩町,三井,ナラケン,イコマグンイカルガチョウ,ミイ,奈良県生駒郡斑鳩町三井
6360102,奈良県,生駒郡斑鳩町,岡本,ナラケン,イコマグンイカルガチョウ,オカモト,奈良県生駒郡斑鳩町岡本
6360103,奈良県,生駒郡斑鳩町,幸前,ナラケン,イコマグンイカルガチョウ,コウゼン,奈良県生駒郡斑鳩町幸前
6360104,奈良県,生駒郡斑鳩町,高安,ナラケン,イコマグンイカルガチョウ,タカヤス,奈良県生駒郡斑鳩町高安
6360105,奈良県,生駒郡斑鳩町,東福寺,ナラケン,イコマグンイカルガチョウ,トウフクジ,奈良県生駒郡斑鳩町東福寺
6360106,奈良県,生駒郡斑鳩町,高安西,ナラケン,イコマグンイカルガチョウ,タカヤスニシ,奈良県生駒郡斑鳩町高安西
6360111,奈良県,生駒郡斑鳩町,法隆寺北,ナラケン,イコマグンイカルガチョウ,ホウリュウジキタ,奈良県生駒郡斑鳩町法隆寺北
6360112,奈良県,生駒郡斑鳩町,法隆寺東,ナラケン,イコマグンイカルガチョウ,ホウリュウジヒガシ,奈良県生駒郡斑鳩町法隆寺東
6360113,奈良県,生駒郡斑鳩町,法隆寺南,ナラケン,イコマグンイカルガチョウ,ホウリュウジミナミ,奈良県生駒郡斑鳩町法隆寺南
6360114,奈良県,生駒郡斑鳩町,法隆寺西,ナラケン,イコマグンイカルガチョウ,ホウリュウジニシ,奈良県生駒郡斑鳩町法隆寺西
6360115,奈良県,生駒郡斑鳩町,法隆寺山内,ナラケン,イコマグンイカルガチョウ,ホウリュウジサンナイ,奈良県生駒郡斑鳩町法隆寺山内
6360116,奈良県,生駒郡斑鳩町,法隆寺,ナラケン,イコマグンイカルガチョウ,ホウリュウジ,奈良県生駒郡斑鳩町法隆寺
6360121,奈良県,生駒郡斑鳩町,興留東,ナラケン,イコマグンイカルガチョウ,オキドメヒガシ,奈良県生駒郡斑鳩町興留東
6360122,奈良県,生駒郡斑鳩町,阿波,ナラケン,イコマグンイカルガチョウ,アワ,奈良県生駒郡斑鳩町阿波
6360123,奈良県,生駒郡斑鳩町,興留,ナラケン,イコマグンイカルガチョウ,オキドメ,奈良県生駒郡斑鳩町興留
6360124,奈良県,生駒郡斑鳩町,五百井,ナラケン,イコマグンイカルガチョウ,イオイ,奈良県生駒郡斑鳩町五百井
6360131,奈良県,生駒郡斑鳩町,服部,ナラケン,イコマグンイカルガチョウ,ハットリ,奈良県生駒郡斑鳩町服部
6360132,奈良県,生駒郡斑鳩町,目安,ナラケン,イコマグンイカルガチョウ,メヤス,奈良県生駒郡斑鳩町目安
6360133,奈良県,生駒郡斑鳩町,目安北,ナラケン,イコマグンイカルガチョウ,メヤスキタ,奈良県生駒郡斑鳩町目安北
6360141,奈良県,生駒郡斑鳩町,稲葉車瀬,ナラケン,イコマグンイカルガチョウ,イナバクルマセ,奈良県生駒郡斑鳩町稲葉車瀬
6360142,奈良県,生駒郡斑鳩町,小吉田,ナラケン,イコマグンイカルガチョウ,コヨシダ,奈良県生駒郡斑鳩町小吉田
6360143,奈良県,生駒郡斑鳩町,神南,ナラケン,イコマグンイカルガチョウ,ジンナン,奈良県生駒郡斑鳩町神南
6360144,奈良県,生駒郡斑鳩町,稲葉西,ナラケン,イコマグンイカルガチョウ,イナバニシ,奈良県生駒郡斑鳩町稲葉西
6360151,奈良県,生駒郡斑鳩町,龍田北,ナラケン,イコマグンイカルガチョウ,タツタキタ,奈良県生駒郡斑鳩町龍田北
6360152,奈良県,生駒郡斑鳩町,龍田,ナラケン,イコマグンイカルガチョウ,タツタ,奈良県生駒郡斑鳩町龍田
6360153,奈良県,生駒郡斑鳩町,龍田南,ナラケン,イコマグンイカルガチョウ,タツタミナミ,奈良県生駒郡斑鳩町龍田南
6360154,奈良県,生駒郡斑鳩町,龍田西,ナラケン,イコマグンイカルガチョウ,タツタニシ,奈良県生駒郡斑鳩町龍田西
6360201,奈良県,磯城郡川西町,下永,ナラケン,シキグンカワニシチョウ,シモナガ,奈良県磯城郡川西町下永
6360202,奈良県,磯城郡川西町,結崎,ナラケン,シキグンカワニシチョウ,ユウザキ,奈良県磯城郡川西町結崎
6360203,奈良県,磯城郡川西町,梅戸,ナラケン,シキグンカワニシチョウ,ウメド,奈良県磯城郡川西町梅戸
6360204,奈良県,磯城郡川西町,唐院,ナラケン,シキグンカワニシチョウ,トウイン,奈良県磯城郡川西町唐院
6360205,奈良県,磯城郡川西町,保田,ナラケン,シキグンカワニシチョウ,ホタ,奈良県磯城郡川西町保田
6360206,奈良県,磯城郡川西町,吐田,ナラケン,シキグンカワニシチョウ,ハンダ,奈良県磯城郡川西町吐田
6360211,奈良県,磯城郡三宅町,三河,ナラケン,シキグンミヤケチョウ,ミカワ,奈良県磯城郡三宅町三河
6360212,奈良県,磯城郡三宅町,石見,ナラケン,シキグンミヤケチョウ,イワミ,奈良県磯城郡三宅町石見
6360213,奈良県,磯城郡三宅町,伴堂,ナラケン,シキグンミヤケチョウ,トモンドウ,奈良県磯城郡三宅町伴堂
6360214,奈良県,磯城郡三宅町,但馬,ナラケン,シキグンミヤケチョウ,タジマ,奈良県磯城郡三宅町但馬
6360215,奈良県,磯城郡三宅町,上但馬,ナラケン,シキグンミヤケチョウ,カミタジマ,奈良県磯城郡三宅町上但馬
6360216,奈良県,磯城郡三宅町,小柳,ナラケン,シキグンミヤケチョウ,オヤナギ,奈良県磯城郡三宅町小柳
6360217,奈良県,磯城郡三宅町,屏風,ナラケン,シキグンミヤケチョウ,ビョウブ,奈良県磯城郡三宅町屏風
6360221,奈良県,磯城郡田原本町,八田,ナラケン,シキグンタワラモトチョウ,ハッタ,奈良県磯城郡田原本町八田
6360222,奈良県,磯城郡田原本町,法貴寺,ナラケン,シキグンタワラモトチョウ,ホウキジ,奈良県磯城郡田原本町法貴寺
6360223,奈良県,磯城郡田原本町,鍵,ナラケン,シキグンタワラモトチョウ,カギ,奈良県磯城郡田原本町鍵
6360224,奈良県,磯城郡田原本町,今里,ナラケン,シキグンタワラモトチョウ,イマザト,奈良県磯城郡田原本町今里
6360225,奈良県,磯城郡田原本町,西代,ナラケン,シキグンタワラモトチョウ,ニシンダイ,奈良県磯城郡田原本町西代
6360226,奈良県,磯城郡田原本町,唐古,ナラケン,シキグンタワラモトチョウ,カラコ,奈良県磯城郡田原本町唐古
6360231,奈良県,磯城郡田原本町,為川北方,ナラケン,シキグンタワラモトチョウ,タメガワホッポウ,奈良県磯城郡田原本町為川北方
6360232,奈良県,磯城郡田原本町,金沢,ナラケン,シキグンタワラモトチョウ,カナザワ,奈良県磯城郡田原本町金沢
6360233,奈良県,磯城郡田原本町,為川南方,ナラケン,シキグンタワラモトチョウ,タメガワナンポウ,奈良県磯城郡田原本町為川南方
6360234,奈良県,磯城郡田原本町,蔵堂,ナラケン,シキグンタワラモトチョウ,クラドウ,奈良県磯城郡田原本町蔵堂
6360235,奈良県,磯城郡田原本町,東井上,ナラケン,シキグンタワラモトチョウ,ヒガシイネ,奈良県磯城郡田原本町東井上
6360236,奈良県,磯城郡田原本町,西井上,ナラケン,シキグンタワラモトチョウ,ニシイネ,奈良県磯城郡田原本町西井上
6360237,奈良県,磯城郡田原本町,小阪,ナラケン,シキグンタワラモトチョウ,コサカ,奈良県磯城郡田原本町小阪
6360241,奈良県,磯城郡田原本町,平田,ナラケン,シキグンタワラモトチョウ,ヒラタ,奈良県磯城郡田原本町平田
6360242,奈良県,磯城郡田原本町,大木,ナラケン,シキグンタワラモトチョウ,オオギ,奈良県磯城郡田原本町大木
6360243,奈良県,磯城郡田原本町,伊与戸,ナラケン,シキグンタワラモトチョウ,イヨド,奈良県磯城郡田原本町伊与戸
6360244,奈良県,磯城郡田原本町,笠形,ナラケン,シキグンタワラモトチョウ,カサガタ,奈良県磯城郡田原本町笠形
6360245,奈良県,磯城郡田原本町,味間,ナラケン,シキグンタワラモトチョウ,アジマ,奈良県磯城郡田原本町味間
6360246,奈良県,磯城郡田原本町,千代,ナラケン,シキグンタワラモトチョウ,チシロ,奈良県磯城郡田原本町千代
6360247,奈良県,磯城郡田原本町,阪手,ナラケン,シキグンタワラモトチョウ,サカテ,奈良県磯城郡田原本町阪手
6360248,奈良県,磯城郡田原本町,大安寺,ナラケン,シキグンタワラモトチョウ,ダイアンジ,奈良県磯城郡田原本町大安寺
6360300,奈良県,磯城郡三宅町,,ナラケン,シキグンミヤケチョウ,,奈良県磯城郡三宅町
6360300,奈良県,磯城郡川西町,,ナラケン,シキグンカワニシチョウ,,奈良県磯城郡川西町
6360300,奈良県,磯城郡田原本町,,ナラケン,シキグンタワラモトチョウ,,奈良県磯城郡田原本町
6360301,奈良県,磯城郡田原本町,黒田,ナラケン,シキグンタワラモトチョウ,クロダ,奈良県磯城郡田原本町黒田
6360302,奈良県,磯城郡田原本町,宮古,ナラケン,シキグンタワラモトチョウ,ミヤコ,奈良県磯城郡田原本町宮古
6360303,奈良県,磯城郡田原本町,保津,ナラケン,シキグンタワラモトチョウ,ホツ,奈良県磯城郡田原本町保津
6360304,奈良県,磯城郡田原本町,十六面,ナラケン,シキグンタワラモトチョウ,ジュウロクセン,奈良県磯城郡田原本町十六面
6360305,奈良県,磯城郡田原本町,平野,ナラケン,シキグンタワラモトチョウ,ヒラノ,奈良県磯城郡田原本町平野
6360306,奈良県,磯城郡田原本町,西竹田,ナラケン,シキグンタワラモトチョウ,ニシタケダ,奈良県磯城郡田原本町西竹田
6360307,奈良県,磯城郡田原本町,富本,ナラケン,シキグンタワラモトチョウ,トンモト,奈良県磯城郡田原本町富本
6360311,奈良県,磯城郡田原本町,八尾,ナラケン,シキグンタワラモトチョウ,ヤオ,奈良県磯城郡田原本町八尾
6360312,奈良県,磯城郡田原本町,新町,ナラケン,シキグンタワラモトチョウ,シンマチ,奈良県磯城郡田原本町新町
6360313,奈良県,磯城郡田原本町,旭町,ナラケン,シキグンタワラモトチョウ,アサヒマチ,奈良県磯城郡田原本町旭町
6360314,奈良県,磯城郡田原本町,戎通,ナラケン,シキグンタワラモトチョウ,エビスドオリ,奈良県磯城郡田原本町戎通
6360315,奈良県,磯城郡田原本町,幸町,ナラケン,シキグンタワラモトチョウ,サイワイマチ,奈良県磯城郡田原本町幸町
6360316,奈良県,磯城郡田原本町,室町,ナラケン,シキグンタワラモトチョウ,ムロマチ,奈良県磯城郡田原本町室町
6360317,奈良県,磯城郡田原本町,殿町,ナラケン,シキグンタワラモトチョウ,トノマチ,奈良県磯城郡田原本町殿町
6360321,奈良県,磯城郡田原本町,八幡町,ナラケン,シキグンタワラモトチョウ,ヤハタマチ,奈良県磯城郡田原本町八幡町
6360322,奈良県,磯城郡田原本町,郭内,ナラケン,シキグンタワラモトチョウ,カクナイ,奈良県磯城郡田原本町郭内
6360323,奈良県,磯城郡田原本町,根太口,ナラケン,シキグンタワラモトチョウ,ネブトグチ,奈良県磯城郡田原本町根太口
6360324,奈良県,磯城郡田原本町,三輪町,ナラケン,シキグンタワラモトチョウ,ミワマチ,奈良県磯城郡田原本町三輪町
6360325,奈良県,磯城郡田原本町,南町,ナラケン,シキグンタワラモトチョウ,ミナミマチ,奈良県磯城郡田原本町南町
6360326,奈良県,磯城郡田原本町,新地,ナラケン,シキグンタワラモトチョウ,シンチ,奈良県磯城郡田原本町新地
6360327,奈良県,磯城郡田原本町,堺町,ナラケン,シキグンタワラモトチョウ,サカイマチ,奈良県磯城郡田原本町堺町
6360328,奈良県,磯城郡田原本町,材木町,ナラケン,シキグンタワラモトチョウ,ザイモクマチ,奈良県磯城郡田原本町材木町
6360329,奈良県,磯城郡田原本町,味間町,ナラケン,シキグンタワラモトチョウ,アジママチ,奈良県磯城郡田原本町味間町
6360331,奈良県,磯城郡田原本町,魚町,ナラケン,シキグンタワラモトチョウ,ウオマチ,奈良県磯城郡田原本町魚町
6360332,奈良県,磯城郡田原本町,市町,ナラケン,シキグンタワラモトチョウ,イチマチ,奈良県磯城郡田原本町市町
6360333,奈良県,磯城郡田原本町,祗園町,ナラケン,シキグンタワラモトチョウ,ギオンマチ,奈良県磯城郡田原本町祗園町
6360334,奈良県,磯城郡田原本町,本町,ナラケン,シキグンタワラモトチョウ,ホンマチ,奈良県磯城郡田原本町本町
6360335,奈良県,磯城郡田原本町,大門東,ナラケン,シキグンタワラモトチョウ,ダイモンヒガシ,奈良県磯城郡田原本町大門東
6360336,奈良県,磯城郡田原本町,大門中,ナラケン,シキグンタワラモトチョウ,ダイモンナカ,奈良県磯城郡田原本町大門中
6360337,奈良県,磯城郡田原本町,大門西,ナラケン,シキグンタワラモトチョウ,ダイモンニシ,奈良県磯城郡田原本町大門西
6360338,奈良県,磯城郡田原本町,茶町,ナラケン,シキグンタワラモトチョウ,チャマチ,奈良県磯城郡田原本町茶町
6360339,奈良県,磯城郡田原本町,小室,ナラケン,シキグンタワラモトチョウ,コムロ,奈良県磯城郡田原本町小室
6360341,奈良県,磯城郡田原本町,薬王寺,ナラケン,シキグンタワラモトチョウ,ヤクオウジ,奈良県磯城郡田原本町薬王寺
6360342,奈良県,磯城郡田原本町,三笠,ナラケン,シキグンタワラモトチョウ,ミカサ,奈良県磯城郡田原本町三笠
6360343,奈良県,磯城郡田原本町,秦庄,ナラケン,シキグンタワラモトチョウ,ハタノショウ,奈良県磯城郡田原本町秦庄
6360344,奈良県,磯城郡田原本町,宮森,ナラケン,シキグンタワラモトチョウ,ミヤノモリ,奈良県磯城郡田原本町宮森
6360345,奈良県,磯城郡田原本町,多,ナラケン,シキグンタワラモトチョウ,オオ,奈良県磯城郡田原本町多
6360346,奈良県,磯城郡田原本町,矢部,ナラケン,シキグンタワラモトチョウ,ヤベ,奈良県磯城郡田原本町矢部
6360347,奈良県,磯城郡田原本町,新木,ナラケン,シキグンタワラモトチョウ,ニキ,奈良県磯城郡田原本町新木
6360351,奈良県,磯城郡田原本町,松本,ナラケン,シキグンタワラモトチョウ,マツモト,奈良県磯城郡田原本町松本
6360352,奈良県,磯城郡田原本町,金剛寺,ナラケン,シキグンタワラモトチョウ,コンゴウジ,奈良県磯城郡田原本町金剛寺
6360353,奈良県,磯城郡田原本町,大網,ナラケン,シキグンタワラモトチョウ,オオアミ,奈良県磯城郡田原本町大網
6360354,奈良県,磯城郡田原本町,満田,ナラケン,シキグンタワラモトチョウ,マンダ,奈良県磯城郡田原本町満田
6360355,奈良県,磯城郡田原本町,佐味,ナラケン,シキグンタワラモトチョウ,サミ,奈良県磯城郡田原本町佐味
6360801,奈良県,生駒郡三郷町,夕陽ケ丘,ナラケン,イコマグンサンゴウチョウ,ユウヒガオカ,奈良県生駒郡三郷町夕陽ケ丘
6360802,奈良県,生駒郡三郷町,三室,ナラケン,イコマグンサンゴウチョウ,ミムロ,奈良県生駒郡三郷町三室
6360803,奈良県,生駒郡三郷町,東信貴ケ丘,ナラケン,イコマグンサンゴウチョウ,ヒガシシギガオカ,奈良県生駒郡三郷町東信貴ケ丘
6360804,奈良県,生駒郡三郷町,美松ケ丘西,ナラケン,イコマグンサンゴウチョウ,ミマツガオカニシ,奈良県生駒郡三郷町美松ケ丘西
6360805,奈良県,生駒郡三郷町,美松ケ丘東,ナラケン,イコマグンサンゴウチョウ,ミマツガオカヒガシ,奈良県生駒郡三郷町美松ケ丘東
6360811,奈良県,生駒郡三郷町,勢野東,ナラケン,イコマグンサンゴウチョウ,セヤヒガシ,奈良県生駒郡三郷町勢野東
6360812,奈良県,生駒郡三郷町,勢野西,ナラケン,イコマグンサンゴウチョウ,セヤニシ,奈良県生駒郡三郷町勢野西
6360813,奈良県,生駒郡三郷町,信貴ケ丘,ナラケン,イコマグンサンゴウチョウ,シギガオカ,奈良県生駒郡三郷町信貴ケ丘
6360814,奈良県,生駒郡三郷町,勢野,ナラケン,イコマグンサンゴウチョウ,セヤ,奈良県生駒郡三郷町勢野
6360815,奈良県,生駒郡三郷町,勢野北,ナラケン,イコマグンサンゴウチョウ,セヤキタ,奈良県生駒郡三郷町勢野北
6360821,奈良県,生駒郡三郷町,立野北,ナラケン,イコマグンサンゴウチョウ,タツノキタ,奈良県生駒郡三郷町立野北
6360822,奈良県,生駒郡三郷町,立野南,ナラケン,イコマグンサンゴウチョウ,タツノミナミ,奈良県生駒郡三郷町立野南
6360823,奈良県,生駒郡三郷町,立野,ナラケン,イコマグンサンゴウチョウ,タツノ,奈良県生駒郡三郷町立野
6360824,奈良県,生駒郡三郷町,城山台,ナラケン,イコマグンサンゴウチョウ,シロヤマダイ,奈良県生駒郡三郷町城山台
6360831,奈良県,生駒郡三郷町,信貴山東,ナラケン,イコマグンサンゴウチョウ,シギサンヒガシ,奈良県生駒郡三郷町信貴山東
6360832,奈良県,生駒郡三郷町,信貴山西,ナラケン,イコマグンサンゴウチョウ,シギサンニシ,奈良県生駒郡三郷町信貴山西
6360833,奈良県,生駒郡三郷町,信貴南畑,ナラケン,イコマグンサンゴウチョウ,シギミナミハタ,奈良県生駒郡三郷町信貴南畑
6360834,奈良県,生駒郡三郷町,南畑,ナラケン,イコマグンサンゴウチョウ,ミナミハタ,奈良県生駒郡三郷町南畑
6360901,奈良県,生駒郡平群町,椣原,ナラケン,イコマグンヘグリチョウ,シデハラ,奈良県生駒郡平群町椣原
6360902,奈良県,生駒郡平群町,白石畑,ナラケン,イコマグンヘグリチョウ,シライシバタ,奈良県生駒郡平群町白石畑
6360903,奈良県,生駒郡平群町,平等寺,ナラケン,イコマグンヘグリチョウ,ビョウドウジ,奈良県生駒郡平群町平等寺
6360904,奈良県,生駒郡平群町,三里,ナラケン,イコマグンヘグリチョウ,ミサト,奈良県生駒郡平群町三里
6360905,奈良県,生駒郡平群町,上庄,ナラケン,イコマグンヘグリチョウ,カミショウ,奈良県生駒郡平群町上庄
6360906,奈良県,生駒郡平群町,菊美台,ナラケン,イコマグンヘグリチョウ,キクミダイ,奈良県生駒郡平群町菊美台
6360911,奈良県,生駒郡平群町,椿井,ナラケン,イコマグンヘグリチョウ,ツバイ,奈良県生駒郡平群町椿井
6360912,奈良県,生駒郡平群町,竜田川,ナラケン,イコマグンヘグリチョウ,タツタガワ,奈良県生駒郡平群町竜田川
6360913,奈良県,生駒郡平群町,北信貴ケ丘,ナラケン,イコマグンヘグリチョウ,キタシギガオカ,奈良県生駒郡平群町北信貴ケ丘
6360914,奈良県,生駒郡平群町,西宮,ナラケン,イコマグンヘグリチョウ,ニシノミヤ,奈良県生駒郡平群町西宮
6360915,奈良県,生駒郡平群町,春日丘,ナラケン,イコマグンヘグリチョウ,カスガオカ,奈良県生駒郡平群町春日丘
6360916,奈良県,生駒郡平群町,若井,ナラケン,イコマグンヘグリチョウ,ワカイ,奈良県生駒郡平群町若井
6360921,奈良県,生駒郡平群町,椹原,ナラケン,イコマグンヘグリチョウ,フシハラ,奈良県生駒郡平群町椹原
6360922,奈良県,生駒郡平群町,信貴畑,ナラケン,イコマグンヘグリチョウ,シギハタ,奈良県生駒郡平群町信貴畑
6360923,奈良県,生駒郡平群町,信貴山,ナラケン,イコマグンヘグリチョウ,シギサン,奈良県生駒郡平群町信貴山
6360924,奈良県,生駒郡平群町,久安寺,ナラケン,イコマグンヘグリチョウ,キュウアンジ,奈良県生駒郡平群町久安寺
6360925,奈良県,生駒郡平群町,越木塚,ナラケン,イコマグンヘグリチョウ,コシキヅカ,奈良県生駒郡平群町越木塚
6360931,奈良県,生駒郡平群町,梨本,ナラケン,イコマグンヘグリチョウ,ナシモト,奈良県生駒郡平群町梨本
6360932,奈良県,生駒郡平群町,吉新,ナラケン,イコマグンヘグリチョウ,ヨシシン,奈良県生駒郡平群町吉新
6360933,奈良県,生駒郡平群町,下垣内,ナラケン,イコマグンヘグリチョウ,シモガイト,奈良県生駒郡平群町下垣内
6360934,奈良県,生駒郡平群町,初香台,ナラケン,イコマグンヘグリチョウ,ハツカダイ,奈良県生駒郡平群町初香台
6360935,奈良県,生駒郡平群町,光ケ丘,ナラケン,イコマグンヘグリチョウ,ヒカリガオカ,奈良県生駒郡平群町光ケ丘
6360936,奈良県,生駒郡平群町,福貴,ナラケン,イコマグンヘグリチョウ,フキ,奈良県生駒郡平群町福貴
6360937,奈良県,生駒郡平群町,福貴畑,ナラケン,イコマグンヘグリチョウ,フキハタ,奈良県生駒郡平群町福貴畑
6360938,奈良県,生駒郡平群町,若葉台,ナラケン,イコマグンヘグリチョウ,ワカバダイ,奈良県生駒郡平群町若葉台
6360941,奈良県,生駒郡平群町,緑ケ丘,ナラケン,イコマグンヘグリチョウ,ミドリガオカ,奈良県生駒郡平群町緑ケ丘
6360942,奈良県,生駒郡平群町,西向,ナラケン,イコマグンヘグリチョウ,ニシムカイ,奈良県生駒郡平群町西向
6360943,奈良県,生駒郡平群町,椿台,ナラケン,イコマグンヘグリチョウ,ツバキダイ,奈良県生駒郡平群町椿台
6360944,奈良県,生駒郡平群町,櫟原,ナラケン,イコマグンヘグリチョウ,イチハラ,奈良県生駒郡平群町櫟原
6360945,奈良県,生駒郡平群町,鳴川,ナラケン,イコマグンヘグリチョウ,ナルカワ,奈良県生駒郡平群町鳴川
6370000,奈良県,五條市,,ナラケン,ゴジョウシ,,奈良県五條市
6370001,奈良県,五條市,西河内町,ナラケン,ゴジョウシ,ニシカワチチョウ,奈良県五條市西河内町
6370002,奈良県,五條市,三在町,ナラケン,ゴジョウシ,サンザイチョウ,奈良県五條市三在町
6370003,奈良県,五條市,宇野町,ナラケン,ゴジョウシ,ウノチョウ,奈良県五條市宇野町
6370004,奈良県,五條市,今井,ナラケン,ゴジョウシ,イマイ,奈良県五條市今井
6370004,奈良県,五條市,今井町,ナラケン,ゴジョウシ,イマイチョウ,奈良県五條市今井町
6370005,奈良県,五條市,須恵,ナラケン,ゴジョウシ,スエ,奈良県五條市須恵
6370006,奈良県,五條市,岡口,ナラケン,ゴジョウシ,オカグチ,奈良県五條市岡口
6370011,奈良県,五條市,出屋敷町,ナラケン,ゴジョウシ,デヤシキチョウ,奈良県五條市出屋敷町
6370012,奈良県,五條市,小山町,ナラケン,ゴジョウシ,コヤマチョウ,奈良県五條市小山町
6370013,奈良県,五條市,居伝町,ナラケン,ゴジョウシ,イデチョウ,奈良県五條市居伝町
6370014,奈良県,五條市,住川町,ナラケン,ゴジョウシ,スガワチョウ,奈良県五條市住川町
6370015,奈良県,五條市,大野新田町,ナラケン,ゴジョウシ,オオノシンデンチョウ,奈良県五條市大野新田町
6370016,奈良県,五條市,近内町,ナラケン,ゴジョウシ,チカウチチョウ,奈良県五條市近内町
6370017,奈良県,五條市,西久留野町,ナラケン,ゴジョウシ,ニシクルノチョウ,奈良県五條市西久留野町
6370018,奈良県,五條市,久留野町,ナラケン,ゴジョウシ,クルノチョウ,奈良県五條市久留野町
6370019,奈良県,五條市,小和町,ナラケン,ゴジョウシ,オワチョウ,奈良県五條市小和町
6370020,奈良県,五條市,西阿田町,ナラケン,ゴジョウシ,ニシアダチョウ,奈良県五條市西阿田町
6370021,奈良県,五條市,東阿田町,ナラケン,ゴジョウシ,ヒガシアダチョウ,奈良県五條市東阿田町
6370022,奈良県,五條市,八田町,ナラケン,ゴジョウシ,ハッタチョウ,奈良県五條市八田町
6370023,奈良県,五條市,南阿田町,ナラケン,ゴジョウシ,ミナミアダチョウ,奈良県五條市南阿田町
6370024,奈良県,五條市,滝町,ナラケン,ゴジョウシ,タキチョウ,奈良県五條市滝町
6370025,奈良県,五條市,車谷町,ナラケン,ゴジョウシ,クルマダニチョウ,奈良県五條市車谷町
6370026,奈良県,五條市,湯谷市塚町,ナラケン,ゴジョウシ,ユタニイチヅカチョウ,奈良県五條市湯谷市塚町
6370027,奈良県,五條市,島野町,ナラケン,ゴジョウシ,シマノチョウ,奈良県五條市島野町
6370028,奈良県,五條市,原町,ナラケン,ゴジョウシ,ハラチョウ,奈良県五條市原町
6370029,奈良県,五條市,山田町,ナラケン,ゴジョウシ,ヤマダチョウ,奈良県五條市山田町
6370031,奈良県,五條市,小島町,ナラケン,ゴジョウシ,コジマチョウ,奈良県五條市小島町
6370032,奈良県,五條市,六倉町,ナラケン,ゴジョウシ,ムツクラチョウ,奈良県五條市六倉町
6370033,奈良県,五條市,牧町,ナラケン,ゴジョウシ,マキチョウ,奈良県五條市牧町
6370034,奈良県,五條市,野原町,ナラケン,ゴジョウシ,ノハラチョウ,奈良県五條市野原町
6370035,奈良県,五條市,霊安寺町,ナラケン,ゴジョウシ,リョウアンジチョウ,奈良県五條市霊安寺町
6370036,奈良県,五條市,野原西,ナラケン,ゴジョウシ,ノハラニシ,奈良県五條市野原西
6370037,奈良県,五條市,野原中,ナラケン,ゴジョウシ,ノハラナカ,奈良県五條市野原中
6370038,奈良県,五條市,野原東,ナラケン,ゴジョウシ,ノハラヒガシ,奈良県五條市野原東
6370041,奈良県,五條市,本町,ナラケン,ゴジョウシ,ホンマチ,奈良県五條市本町
6370042,奈良県,五條市,五條,ナラケン,ゴジョウシ,ゴジョウ,奈良県五條市五條
6370043,奈良県,五條市,新町,ナラケン,ゴジョウシ,シンマチ,奈良県五條市新町
6370051,奈良県,五條市,御山町,ナラケン,ゴジョウシ,ミヤマチョウ,奈良県五條市御山町
6370052,奈良県,五條市,丹原町,ナラケン,ゴジョウシ,タンバラチョウ,奈良県五條市丹原町
6370053,奈良県,五條市,生子町,ナラケン,ゴジョウシ,オブスチョウ,奈良県五條市生子町
6370054,奈良県,五條市,樫辻町,ナラケン,ゴジョウシ,カシツジチョウ,奈良県五條市樫辻町
6370060,奈良県,五條市,大津町,ナラケン,ゴジョウシ,オオヅチョウ,奈良県五條市大津町
6370061,奈良県,五條市,中町,ナラケン,ゴジョウシ,ナカチョウ,奈良県五條市中町
6370062,奈良県,五條市,黒駒町,ナラケン,ゴジョウシ,クロマチョウ,奈良県五條市黒駒町
6370063,奈良県,五條市,大野町,ナラケン,ゴジョウシ,オオノチョウ,奈良県五條市大野町
6370064,奈良県,五條市,山陰町,ナラケン,ゴジョウシ,ヤマカゲチョウ,奈良県五條市山陰町
6370065,奈良県,五條市,阪合部新田町,ナラケン,ゴジョウシ,サカアイベシンデンチョウ,奈良県五條市阪合部新田町
6370066,奈良県,五條市,大深町,ナラケン,ゴジョウシ,オオブカチョウ,奈良県五條市大深町
6370067,奈良県,五條市,田殿町,ナラケン,ゴジョウシ,タドノチョウ,奈良県五條市田殿町
6370068,奈良県,五條市,火打町,ナラケン,ゴジョウシ,ヒウチチョウ,奈良県五條市火打町
6370069,奈良県,五條市,表野町,ナラケン,ゴジョウシ,ヒョウノチョウ,奈良県五條市表野町
6370071,奈良県,五條市,二見,ナラケン,ゴジョウシ,フタミ,奈良県五條市二見
6370072,奈良県,五條市,犬飼町,ナラケン,ゴジョウシ,イヌカイチョウ,奈良県五條市犬飼町
6370073,奈良県,五條市,上野町,ナラケン,ゴジョウシ,コウヅケチョウ,奈良県五條市上野町
6370074,奈良県,五條市,相谷町,ナラケン,ゴジョウシ,アイタニチョウ,奈良県五條市相谷町
6370075,奈良県,五條市,畑田町,ナラケン,ゴジョウシ,ハタケダチョウ,奈良県五條市畑田町
6370076,奈良県,五條市,木ノ原町,ナラケン,ゴジョウシ,キノハラチョウ,奈良県五條市木ノ原町
6370077,奈良県,五條市,大沢町,ナラケン,ゴジョウシ,オオザワチョウ,奈良県五條市大沢町
6370078,奈良県,五條市,なつみ台,ナラケン,ゴジョウシ,ナツミダイ,奈良県五條市なつみ台
6370081,奈良県,五條市,上之町,ナラケン,ゴジョウシ,カミノチョウ,奈良県五條市上之町
6370082,奈良県,五條市,中之町,ナラケン,ゴジョウシ,ナカノチョウ,奈良県五條市中之町
6370083,奈良県,五條市,下之町,ナラケン,ゴジョウシ,シモノチョウ,奈良県五條市下之町
6370084,奈良県,五條市,釜窪町,ナラケン,ゴジョウシ,カマノクボチョウ,奈良県五條市釜窪町
6370091,奈良県,五條市,北山町,ナラケン,ゴジョウシ,キタヤマチョウ,奈良県五條市北山町
6370092,奈良県,五條市,岡町,ナラケン,ゴジョウシ,オカチョウ,奈良県五條市岡町
6370093,奈良県,五條市,田園,ナラケン,ゴジョウシ,デンエン,奈良県五條市田園
6370101,奈良県,五條市,西吉野町大日川,ナラケン,ゴジョウシ,ニシヨシノチョウオビカワ,奈良県五條市西吉野町大日川
6370102,奈良県,五條市,西吉野町黒淵,ナラケン,ゴジョウシ,ニシヨシノチョウクロブチ,奈良県五條市西吉野町黒淵
6370103,奈良県,五條市,西吉野町向加名生,ナラケン,ゴジョウシ,ニシヨシノチョウムカイアノウ,奈良県五條市西吉野町向加名生
6370104,奈良県,五條市,西吉野町屋那瀬,ナラケン,ゴジョウシ,ニシヨシノチョウヤナセ,奈良県五條市西吉野町屋那瀬
6370105,奈良県,五條市,西吉野町湯塩,ナラケン,ゴジョウシ,ニシヨシノチョウユシオ,奈良県五條市西吉野町湯塩
6370111,奈良県,五條市,西吉野町江出,ナラケン,ゴジョウシ,ニシヨシノチョウエズル,奈良県五條市西吉野町江出
6370112,奈良県,五條市,西吉野町老野,ナラケン,ゴジョウシ,ニシヨシノチョウオイノ,奈良県五條市西吉野町老野
6370113,奈良県,五條市,西吉野町神野,ナラケン,ゴジョウシ,ニシヨシノチョウコウノ,奈良県五條市西吉野町神野
6370114,奈良県,五條市,西吉野町滝,ナラケン,ゴジョウシ,ニシヨシノチョウタキ,奈良県五條市西吉野町滝
6370115,奈良県,五條市,西吉野町北曽木,ナラケン,ゴジョウシ,ニシヨシノチョウホクソギ,奈良県五條市西吉野町北曽木
6370116,奈良県,五條市,西吉野町和田,ナラケン,ゴジョウシ,ニシヨシノチョウワダ,奈良県五條市西吉野町和田
6370117,奈良県,五條市,西吉野町賀名生,ナラケン,ゴジョウシ,ニシヨシノチョウアノウ,奈良県五條市西吉野町賀名生
6370221,奈良県,五條市,西吉野町永谷,ナラケン,ゴジョウシ,ニシヨシノチョウエイタニ,奈良県五條市西吉野町永谷
6370222,奈良県,五條市,西吉野町立川渡,ナラケン,ゴジョウシ,ニシヨシノチョウタテカワド,奈良県五條市西吉野町立川渡
6370223,奈良県,五條市,西吉野町本谷,ナラケン,ゴジョウシ,ニシヨシノチョウモトダニ,奈良県五條市西吉野町本谷
6370224,奈良県,五條市,西吉野町茄子原,ナラケン,ゴジョウシ,ニシヨシノチョウナスハラ,奈良県五條市西吉野町茄子原
6370225,奈良県,五條市,西吉野町川股,ナラケン,ゴジョウシ,ニシヨシノチョウカワマタ,奈良県五條市西吉野町川股
6370226,奈良県,五條市,西吉野町西日裏,ナラケン,ゴジョウシ,ニシヨシノチョウニシヒウラ,奈良県五條市西吉野町西日裏
6370227,奈良県,五條市,西吉野町勢井,ナラケン,ゴジョウシ,ニシヨシノチョウセイ,奈良県五條市西吉野町勢井
6370230,奈良県,五條市,西吉野町城戸,ナラケン,ゴジョウシ,ニシヨシノチョウジョウド,奈良県五條市西吉野町城戸
6370231,奈良県,五條市,西吉野町川岸,ナラケン,ゴジョウシ,ニシヨシノチョウカワギシ,奈良県五條市西吉野町川岸
6370232,奈良県,五條市,西吉野町津越,ナラケン,ゴジョウシ,ニシヨシノチョウツゴシ,奈良県五條市西吉野町津越
6370233,奈良県,五條市,西吉野町桧川迫,ナラケン,ゴジョウシ,ニシヨシノチョウヒカワセ,奈良県五條市西吉野町桧川迫
6370234,奈良県,五條市,西吉野町大峯,ナラケン,ゴジョウシ,ニシヨシノチョウオオミネ,奈良県五條市西吉野町大峯
6370235,奈良県,五條市,西吉野町平雄,ナラケン,ゴジョウシ,ニシヨシノチョウヒラオ,奈良県五條市西吉野町平雄
6370236,奈良県,五條市,西吉野町阪巻,ナラケン,ゴジョウシ,ニシヨシノチョウサカマキ,奈良県五條市西吉野町阪巻
6370237,奈良県,五條市,西吉野町宗川野,ナラケン,ゴジョウシ,ニシヨシノチョウムネガワノ,奈良県五條市西吉野町宗川野
6370238,奈良県,五條市,西吉野町西野,ナラケン,ゴジョウシ,ニシヨシノチョウニシノ,奈良県五條市西吉野町西野
6370239,奈良県,五條市,西吉野町陰地,ナラケン,ゴジョウシ,ニシヨシノチョウオンジ,奈良県五條市西吉野町陰地
6370401,奈良県,五條市,大塔町篠原,ナラケン,ゴジョウシ,オオトウチョウシノハラ,奈良県五條市大塔町篠原
6370402,奈良県,五條市,大塔町惣谷,ナラケン,ゴジョウシ,オオトウチョウソウタニ,奈良県五條市大塔町惣谷
6370403,奈良県,五條市,大塔町中井傍示,ナラケン,ゴジョウシ,オオトウチョウナカイホウジ,奈良県五條市大塔町中井傍示
6370404,奈良県,五條市,大塔町中峯,ナラケン,ゴジョウシ,オオトウチョウナカミネ,奈良県五條市大塔町中峯
6370405,奈良県,五條市,大塔町宇井,ナラケン,ゴジョウシ,オオトウチョウウイ,奈良県五條市大塔町宇井
6370406,奈良県,五條市,大塔町清水,ナラケン,ゴジョウシ,オオトウチョウシミズ,奈良県五條市大塔町清水
6370407,奈良県,五條市,大塔町閉君,ナラケン,ゴジョウシ,オオトウチョウトジキミ,奈良県五條市大塔町閉君
6370408,奈良県,五條市,大塔町辻堂,ナラケン,ゴジョウシ,オオトウチョウツジドウ,奈良県五條市大塔町辻堂
6370409,奈良県,五條市,大塔町殿野,ナラケン,ゴジョウシ,オオトウチョウトノノ,奈良県五條市大塔町殿野
6370411,奈良県,五條市,大塔町堂平,ナラケン,ゴジョウシ,オオトウチョウドウヒラ,奈良県五條市大塔町堂平
6370412,奈良県,五條市,大塔町飛養曽,ナラケン,ゴジョウシ,オオトウチョウヒヨソ,奈良県五條市大塔町飛養曽
6370413,奈良県,五條市,大塔町引土,ナラケン,ゴジョウシ,オオトウチョウヒキツチ,奈良県五條市大塔町引土
6370414,奈良県,五條市,大塔町猿谷,ナラケン,ゴジョウシ,オオトウチョウサルタニ,奈良県五條市大塔町猿谷
6370415,奈良県,五條市,大塔町中原,ナラケン,ゴジョウシ,オオトウチョウナカバラ,奈良県五條市大塔町中原
6370416,奈良県,五條市,大塔町小代,ナラケン,ゴジョウシ,オオトウチョウコダイ,奈良県五條市大塔町小代
6370417,奈良県,五條市,大塔町阪本,ナラケン,ゴジョウシ,オオトウチョウサカモト,奈良県五條市大塔町阪本
6370419,奈良県,五條市,大塔町簾,ナラケン,ゴジョウシ,オオトウチョウスダレ,奈良県五條市大塔町簾
6370421,奈良県,吉野郡野迫川村,今井,ナラケン,ヨシノグンノセガワムラ,イマイ,奈良県吉野郡野迫川村今井
6370422,奈良県,吉野郡野迫川村,平川,ナラケン,ヨシノグンノセガワムラ,ヒラカワ,奈良県吉野郡野迫川村平川
6370423,奈良県,吉野郡野迫川村,柞原,ナラケン,ヨシノグンノセガワムラ,ホソハラ,奈良県吉野郡野迫川村柞原
6370424,奈良県,吉野郡野迫川村,中,ナラケン,ヨシノグンノセガワムラ,ナカ,奈良県吉野郡野迫川村中
6370425,奈良県,吉野郡野迫川村,上,ナラケン,ヨシノグンノセガワムラ,カミ,奈良県吉野郡野迫川村上
6371101,奈良県,吉野郡十津川村,沼田原,ナラケン,ヨシノグントツカワムラ,ヌタノハラ,奈良県吉野郡十津川村沼田原
6371102,奈良県,吉野郡十津川村,旭,ナラケン,ヨシノグントツカワムラ,アサヒ,奈良県吉野郡十津川村旭
6371103,奈良県,吉野郡十津川村,上野地,ナラケン,ヨシノグントツカワムラ,ウエノジ,奈良県吉野郡十津川村上野地
6371104,奈良県,吉野郡十津川村,高津,ナラケン,ヨシノグントツカワムラ,タコウツ,奈良県吉野郡十津川村高津
6371105,奈良県,吉野郡十津川村,林,ナラケン,ヨシノグントツカワムラ,ハヤシ,奈良県吉野郡十津川村林
6371106,奈良県,吉野郡十津川村,谷瀬,ナラケン,ヨシノグントツカワムラ,タニゼ,奈良県吉野郡十津川村谷瀬
6371107,奈良県,吉野郡十津川村,宇宮原,ナラケン,ヨシノグントツカワムラ,ウグハラ,奈良県吉野郡十津川村宇宮原
6371108,奈良県,吉野郡十津川村,長殿,ナラケン,ヨシノグントツカワムラ,ナガトノ,奈良県吉野郡十津川村長殿
6371211,奈良県,吉野郡十津川村,滝川,ナラケン,ヨシノグントツカワムラ,タキガワ,奈良県吉野郡十津川村滝川
6371212,奈良県,吉野郡十津川村,内原,ナラケン,ヨシノグントツカワムラ,ナイバラ,奈良県吉野郡十津川村内原
6371213,奈良県,吉野郡十津川村,野尻,ナラケン,ヨシノグントツカワムラ,ノジリ,奈良県吉野郡十津川村野尻
6371214,奈良県,吉野郡十津川村,山崎,ナラケン,ヨシノグントツカワムラ,ヤマサキ,奈良県吉野郡十津川村山崎
6371215,奈良県,吉野郡十津川村,池穴,ナラケン,ヨシノグントツカワムラ,イケアナ,奈良県吉野郡十津川村池穴
6371216,奈良県,吉野郡十津川村,川津,ナラケン,ヨシノグントツカワムラ,カワツ,奈良県吉野郡十津川村川津
6371217,奈良県,吉野郡十津川村,風屋,ナラケン,ヨシノグントツカワムラ,カゼヤ,奈良県吉野郡十津川村風屋
6371221,奈良県,吉野郡十津川村,内野,ナラケン,ヨシノグントツカワムラ,ウチノ,奈良県吉野郡十津川村内野
6371222,奈良県,吉野郡十津川村,山天,ナラケン,ヨシノグントツカワムラ,ヤマテン,奈良県吉野郡十津川村山天
6371223,奈良県,吉野郡十津川村,三浦,ナラケン,ヨシノグントツカワムラ,ミウラ,奈良県吉野郡十津川村三浦
6371224,奈良県,吉野郡十津川村,五百瀬,ナラケン,ヨシノグントツカワムラ,イモゼ,奈良県吉野郡十津川村五百瀬
6371225,奈良県,吉野郡十津川村,杉清,ナラケン,ヨシノグントツカワムラ,スギセ,奈良県吉野郡十津川村杉清
6371331,奈良県,吉野郡十津川村,大野,ナラケン,ヨシノグントツカワムラ,オオノ,奈良県吉野郡十津川村大野
6371332,奈良県,吉野郡十津川村,武蔵,ナラケン,ヨシノグントツカワムラ,ムサシ,奈良県吉野郡十津川村武蔵
6371333,奈良県,吉野郡十津川村,小原,ナラケン,ヨシノグントツカワムラ,オハラ,奈良県吉野郡十津川村小原
6371334,奈良県,吉野郡十津川村,小森,ナラケン,ヨシノグントツカワムラ,コモリ,奈良県吉野郡十津川村小森
6371335,奈良県,吉野郡十津川村,湯之原,ナラケン,ヨシノグントツカワムラ,ユノハラ,奈良県吉野郡十津川村湯之原
6371336,奈良県,吉野郡十津川村,小井,ナラケン,ヨシノグントツカワムラ,コイ,奈良県吉野郡十津川村小井
6371441,奈良県,吉野郡十津川村,小川,ナラケン,ヨシノグントツカワムラ,オガワ,奈良県吉野郡十津川村小川
6371442,奈良県,吉野郡十津川村,高滝,ナラケン,ヨシノグントツカワムラ,タカタキ,奈良県吉野郡十津川村高滝
6371443,奈良県,吉野郡十津川村,折立,ナラケン,ヨシノグントツカワムラ,オリタチ,奈良県吉野郡十津川村折立
6371444,奈良県,吉野郡十津川村,山手谷,ナラケン,ヨシノグントツカワムラ,ヤマテダニ,奈良県吉野郡十津川村山手谷
6371445,奈良県,吉野郡十津川村,込之上,ナラケン,ヨシノグントツカワムラ,コミノウエ,奈良県吉野郡十津川村込之上
6371446,奈良県,吉野郡十津川村,樫原,ナラケン,ヨシノグントツカワムラ,カシワラ,奈良県吉野郡十津川村樫原
6371500,奈良県,吉野郡十津川村,,ナラケン,ヨシノグントツカワムラ,,奈良県吉野郡十津川村
6371551,奈良県,吉野郡十津川村,那知合,ナラケン,ヨシノグントツカワムラ,ナチアイ,奈良県吉野郡十津川村那知合
6371552,奈良県,吉野郡十津川村,谷垣内,ナラケン,ヨシノグントツカワムラ,タニガイト,奈良県吉野郡十津川村谷垣内
6371553,奈良県,吉野郡十津川村,山手,ナラケン,ヨシノグントツカワムラ,ヤマテ,奈良県吉野郡十津川村山手
6371554,奈良県,吉野郡十津川村,平谷,ナラケン,ヨシノグントツカワムラ,ヒラタニ,奈良県吉野郡十津川村平谷
6371555,奈良県,吉野郡十津川村,猿飼,ナラケン,ヨシノグントツカワムラ,サルカイ,奈良県吉野郡十津川村猿飼
6371556,奈良県,吉野郡十津川村,桑畑,ナラケン,ヨシノグントツカワムラ,クワハタ,奈良県吉野郡十津川村桑畑
6371557,奈良県,吉野郡十津川村,七色,ナラケン,ヨシノグントツカワムラ,ナナイロ,奈良県吉野郡十津川村七色
6371558,奈良県,吉野郡十津川村,出谷,ナラケン,ヨシノグントツカワムラ,デタニ,奈良県吉野郡十津川村出谷
6371559,奈良県,吉野郡十津川村,上湯川,ナラケン,ヨシノグントツカワムラ,カミユカワ,奈良県吉野郡十津川村上湯川
6371661,奈良県,吉野郡十津川村,重里,ナラケン,ヨシノグントツカワムラ,シゲサト,奈良県吉野郡十津川村重里
6371662,奈良県,吉野郡十津川村,永井,ナラケン,ヨシノグントツカワムラ,ナガイ,奈良県吉野郡十津川村永井
6371663,奈良県,吉野郡十津川村,玉垣内,ナラケン,ヨシノグントツカワムラ,タマガイト,奈良県吉野郡十津川村玉垣内
6371664,奈良県,吉野郡十津川村,今西,ナラケン,ヨシノグントツカワムラ,イマニシ,奈良県吉野郡十津川村今西
6371665,奈良県,吉野郡十津川村,西中,ナラケン,ヨシノグントツカワムラ,ニシナカ,奈良県吉野郡十津川村西中
6371666,奈良県,吉野郡十津川村,小山手,ナラケン,ヨシノグントツカワムラ,コヤマテ,奈良県吉野郡十津川村小山手
6371667,奈良県,吉野郡十津川村,小坪瀬,ナラケン,ヨシノグントツカワムラ,コツボセ,奈良県吉野郡十津川村小坪瀬
6371668,奈良県,吉野郡十津川村,迫西川,ナラケン,ヨシノグントツカワムラ,セニシガワ,奈良県吉野郡十津川村迫西川
6380000,奈良県,吉野郡下市町,,ナラケン,ヨシノグンシモイチチョウ,,奈良県吉野郡下市町
6380000,奈良県,吉野郡大淀町,,ナラケン,ヨシノグンオオヨドチョウ,,奈良県吉野郡大淀町
6380001,奈良県,吉野郡下市町,阿知賀,ナラケン,ヨシノグンシモイチチョウ,アチガ,奈良県吉野郡下市町阿知賀
6380002,奈良県,吉野郡下市町,小路,ナラケン,ヨシノグンシモイチチョウ,ショウジ,奈良県吉野郡下市町小路
6380003,奈良県,吉野郡下市町,善城,ナラケン,ヨシノグンシモイチチョウ,ゼンギ,奈良県吉野郡下市町善城
6380011,奈良県,吉野郡下市町,よ邑,ナラケン,ヨシノグンシモイチチョウ,ヨムラ,奈良県吉野郡下市町よ邑
6380012,奈良県,吉野郡下市町,岩森,ナラケン,ヨシノグンシモイチチョウ,イワモリ,奈良県吉野郡下市町岩森
6380013,奈良県,吉野郡下市町,立石,ナラケン,ヨシノグンシモイチチョウ,タテイシ,奈良県吉野郡下市町立石
6380014,奈良県,吉野郡下市町,才谷,ナラケン,ヨシノグンシモイチチョウ,サイタニ,奈良県吉野郡下市町才谷
6380015,奈良県,吉野郡下市町,広橋,ナラケン,ヨシノグンシモイチチョウ,ヒロハシ,奈良県吉野郡下市町広橋
6380021,奈良県,吉野郡下市町,長谷,ナラケン,ヨシノグンシモイチチョウ,ナガタニ,奈良県吉野郡下市町長谷
6380022,奈良県,吉野郡下市町,丹生,ナラケン,ヨシノグンシモイチチョウ,ニウ,奈良県吉野郡下市町丹生
6380023,奈良県,吉野郡下市町,黒木,ナラケン,ヨシノグンシモイチチョウ,クロギ,奈良県吉野郡下市町黒木
6380024,奈良県,吉野郡下市町,貝原,ナラケン,ヨシノグンシモイチチョウ,カイバラ,奈良県吉野郡下市町貝原
6380025,奈良県,吉野郡下市町,谷,ナラケン,ヨシノグンシモイチチョウ,タニ,奈良県吉野郡下市町谷
6380026,奈良県,吉野郡下市町,西山,ナラケン,ヨシノグンシモイチチョウ,ニシヤマ,奈良県吉野郡下市町西山
6380031,奈良県,吉野郡下市町,栃本,ナラケン,ヨシノグンシモイチチョウ,トチモト,奈良県吉野郡下市町栃本
6380032,奈良県,吉野郡下市町,原谷,ナラケン,ヨシノグンシモイチチョウ,ハラダニ,奈良県吉野郡下市町原谷
6380033,奈良県,吉野郡下市町,梨子堂,ナラケン,ヨシノグンシモイチチョウ,ナシドウ,奈良県吉野郡下市町梨子堂
6380034,奈良県,吉野郡下市町,平原,ナラケン,ヨシノグンシモイチチョウ,ヘイバラ,奈良県吉野郡下市町平原
6380035,奈良県,吉野郡下市町,栃原,ナラケン,ヨシノグンシモイチチョウ,トチハラ,奈良県吉野郡下市町栃原
6380041,奈良県,吉野郡下市町,下市,ナラケン,ヨシノグンシモイチチョウ,シモイチ,奈良県吉野郡下市町下市
6380042,奈良県,吉野郡下市町,栄町,ナラケン,ヨシノグンシモイチチョウ,サカエチョウ,奈良県吉野郡下市町栄町
6380043,奈良県,吉野郡下市町,大峯,ナラケン,ヨシノグンシモイチチョウ,オオミネ,奈良県吉野郡下市町大峯
6380044,奈良県,吉野郡下市町,田中,ナラケン,ヨシノグンシモイチチョウ,タナカ,奈良県吉野郡下市町田中
6380045,奈良県,吉野郡下市町,新住,ナラケン,ヨシノグンシモイチチョウ,アタラスミ,奈良県吉野郡下市町新住
6380200,奈良県,吉野郡黒滝村,,ナラケン,ヨシノグンクロタキムラ,,奈良県吉野郡黒滝村
6380201,奈良県,吉野郡黒滝村,槇尾,ナラケン,ヨシノグンクロタキムラ,マキオ,奈良県吉野郡黒滝村槇尾
6380202,奈良県,吉野郡黒滝村,脇川,ナラケン,ヨシノグンクロタキムラ,ワキガワ,奈良県吉野郡黒滝村脇川
6380203,奈良県,吉野郡黒滝村,鳥住,ナラケン,ヨシノグンクロタキムラ,トリスミ,奈良県吉野郡黒滝村鳥住
6380211,奈良県,吉野郡黒滝村,赤滝,ナラケン,ヨシノグンクロタキムラ,アカタキ,奈良県吉野郡黒滝村赤滝
6380221,奈良県,吉野郡黒滝村,中戸,ナラケン,ヨシノグンクロタキムラ,ナカト,奈良県吉野郡黒滝村中戸
6380231,奈良県,吉野郡黒滝村,笠木,ナラケン,ヨシノグンクロタキムラ,カサギ,奈良県吉野郡黒滝村笠木
6380232,奈良県,吉野郡黒滝村,桂原,ナラケン,ヨシノグンクロタキムラ,カツラハラ,奈良県吉野郡黒滝村桂原
6380233,奈良県,吉野郡黒滝村,長瀬,ナラケン,ヨシノグンクロタキムラ,ナガセ,奈良県吉野郡黒滝村長瀬
6380241,奈良県,吉野郡黒滝村,粟飯谷,ナラケン,ヨシノグンクロタキムラ,アワイダニ,奈良県吉野郡黒滝村粟飯谷
6380242,奈良県,吉野郡黒滝村,御吉野,ナラケン,ヨシノグンクロタキムラ,ミヨシノ,奈良県吉野郡黒滝村御吉野
6380243,奈良県,吉野郡黒滝村,堂原,ナラケン,ヨシノグンクロタキムラ,ドウバラ,奈良県吉野郡黒滝村堂原
6380251,奈良県,吉野郡黒滝村,寺戸,ナラケン,ヨシノグンクロタキムラ,テラド,奈良県吉野郡黒滝村寺戸
6380300,奈良県,吉野郡天川村,,ナラケン,ヨシノグンテンカワムラ,,奈良県吉野郡天川村
6380301,奈良県,吉野郡天川村,川合,ナラケン,ヨシノグンテンカワムラ,カワアイ,奈良県吉野郡天川村川合
6380302,奈良県,吉野郡天川村,中越,ナラケン,ヨシノグンテンカワムラ,ナカゴシ,奈良県吉野郡天川村中越
6380303,奈良県,吉野郡天川村,北角,ナラケン,ヨシノグンテンカワムラ,キトズミ,奈良県吉野郡天川村北角
6380304,奈良県,吉野郡天川村,南角,ナラケン,ヨシノグンテンカワムラ,ミノズミ,奈良県吉野郡天川村南角
6380305,奈良県,吉野郡天川村,沢谷,ナラケン,ヨシノグンテンカワムラ,サワタニ,奈良県吉野郡天川村沢谷
6380311,奈良県,吉野郡天川村,沖金,ナラケン,ヨシノグンテンカワムラ,オキガネ,奈良県吉野郡天川村沖金
6380312,奈良県,吉野郡天川村,中谷,ナラケン,ヨシノグンテンカワムラ,ナカタニ,奈良県吉野郡天川村中谷
6380313,奈良県,吉野郡天川村,北小原,ナラケン,ヨシノグンテンカワムラ,キタコバラ,奈良県吉野郡天川村北小原
6380314,奈良県,吉野郡天川村,五色,ナラケン,ヨシノグンテンカワムラ,ゴシキ,奈良県吉野郡天川村五色
6380315,奈良県,吉野郡天川村,沢原,ナラケン,ヨシノグンテンカワムラ,サワバラ,奈良県吉野郡天川村沢原
6380321,奈良県,吉野郡天川村,坪内,ナラケン,ヨシノグンテンカワムラ,ツボノウチ,奈良県吉野郡天川村坪内
6380322,奈良県,吉野郡天川村,南日裏,ナラケン,ヨシノグンテンカワムラ,ミナミヒウラ,奈良県吉野郡天川村南日裏
6380431,奈良県,吉野郡天川村,洞川,ナラケン,ヨシノグンテンカワムラ,ドロガワ,奈良県吉野郡天川村洞川
6380541,奈良県,吉野郡天川村,九尾,ナラケン,ヨシノグンテンカワムラ,ツヅラオ,奈良県吉野郡天川村九尾
6380542,奈良県,吉野郡天川村,栃尾,ナラケン,ヨシノグンテンカワムラ,トチオ,奈良県吉野郡天川村栃尾
6380543,奈良県,吉野郡天川村,和田,ナラケン,ヨシノグンテンカワムラ,ワダ,奈良県吉野郡天川村和田
6380551,奈良県,吉野郡天川村,籠山,ナラケン,ヨシノグンテンカワムラ,コモリヤマ,奈良県吉野郡天川村籠山
6380552,奈良県,吉野郡天川村,庵住,ナラケン,ヨシノグンテンカワムラ,イオスミ,奈良県吉野郡天川村庵住
6380553,奈良県,吉野郡天川村,山西,ナラケン,ヨシノグンテンカワムラ,ヤマニシ,奈良県吉野郡天川村山西
6380561,奈良県,吉野郡天川村,広瀬,ナラケン,ヨシノグンテンカワムラ,ヒロセ,奈良県吉野郡天川村広瀬
6380562,奈良県,吉野郡天川村,滝尾,ナラケン,ヨシノグンテンカワムラ,タキオ,奈良県吉野郡天川村滝尾
6380563,奈良県,吉野郡天川村,塩野,ナラケン,ヨシノグンテンカワムラ,シオノ,奈良県吉野郡天川村塩野
6380564,奈良県,吉野郡天川村,塩谷,ナラケン,ヨシノグンテンカワムラ,シオダニ,奈良県吉野郡天川村塩谷
6380641,奈良県,五條市,西吉野町百谷,ナラケン,ゴジョウシ,ニシヨシノチョウモモダニ,奈良県五條市西吉野町百谷
6380642,奈良県,五條市,西吉野町平沼田,ナラケン,ゴジョウシ,ニシヨシノチョウヒラヌマタ,奈良県五條市西吉野町平沼田
6380643,奈良県,五條市,西吉野町赤松,ナラケン,ゴジョウシ,ニシヨシノチョウアカマツ,奈良県五條市西吉野町赤松
6380644,奈良県,五條市,西吉野町湯川,ナラケン,ゴジョウシ,ニシヨシノチョウユカワ,奈良県五條市西吉野町湯川
6380651,奈良県,五條市,西吉野町唐戸,ナラケン,ゴジョウシ,ニシヨシノチョウカラト,奈良県五條市西吉野町唐戸
6380652,奈良県,五條市,西吉野町尼ケ生,ナラケン,ゴジョウシ,ニシヨシノチョウアマガショウ,奈良県五條市西吉野町尼ケ生
6380653,奈良県,五條市,西吉野町十日市,ナラケン,ゴジョウシ,ニシヨシノチョウトオカイチ,奈良県五條市西吉野町十日市
6380654,奈良県,五條市,西吉野町南山,ナラケン,ゴジョウシ,ニシヨシノチョウミナミヤマ,奈良県五條市西吉野町南山
6380655,奈良県,五條市,西吉野町小古田,ナラケン,ゴジョウシ,ニシヨシノチョウオブルタ,奈良県五條市西吉野町小古田
6380656,奈良県,五條市,西吉野町鹿場,ナラケン,ゴジョウシ,ニシヨシノチョウシシバ,奈良県五條市西吉野町鹿場
6380657,奈良県,五條市,西吉野町八ツ川,ナラケン,ゴジョウシ,ニシヨシノチョウヤツカワ,奈良県五條市西吉野町八ツ川
6380661,奈良県,五條市,西吉野町西新子,ナラケン,ゴジョウシ,ニシヨシノチョウニシアタラシ,奈良県五條市西吉野町西新子
6380662,奈良県,五條市,西吉野町夜中,ナラケン,ゴジョウシ,ニシヨシノチョウヨナカ,奈良県五條市西吉野町夜中
6380663,奈良県,五條市,西吉野町奥谷,ナラケン,ゴジョウシ,ニシヨシノチョウオクダニ,奈良県五條市西吉野町奥谷
6380801,奈良県,吉野郡大淀町,芦原,ナラケン,ヨシノグンオオヨドチョウ,アシハラ,奈良県吉野郡大淀町芦原
6380802,奈良県,吉野郡大淀町,畑屋,ナラケン,ヨシノグンオオヨドチョウ,ハタヤ,奈良県吉野郡大淀町畑屋
6380803,奈良県,吉野郡大淀町,越部,ナラケン,ヨシノグンオオヨドチョウ,コシベ,奈良県吉野郡大淀町越部
6380811,奈良県,吉野郡大淀町,土田,ナラケン,ヨシノグンオオヨドチョウ,ツチダ,奈良県吉野郡大淀町土田
6380812,奈良県,吉野郡大淀町,桧垣本,ナラケン,ヨシノグンオオヨドチョウ,ヒガイモト,奈良県吉野郡大淀町桧垣本
6380821,奈良県,吉野郡大淀町,下渕,ナラケン,ヨシノグンオオヨドチョウ,シモブチ,奈良県吉野郡大淀町下渕
6380831,奈良県,吉野郡大淀町,佐名伝,ナラケン,ヨシノグンオオヨドチョウ,サナテ,奈良県吉野郡大淀町佐名伝
6380832,奈良県,吉野郡大淀町,薬水,ナラケン,ヨシノグンオオヨドチョウ,クスリミズ,奈良県吉野郡大淀町薬水
6380833,奈良県,吉野郡大淀町,福神,ナラケン,ヨシノグンオオヨドチョウ,フクガミ,奈良県吉野郡大淀町福神
6380841,奈良県,吉野郡大淀町,今木,ナラケン,ヨシノグンオオヨドチョウ,イマキ,奈良県吉野郡大淀町今木
6380842,奈良県,吉野郡大淀町,大岩,ナラケン,ヨシノグンオオヨドチョウ,オオイワ,奈良県吉野郡大淀町大岩
6380843,奈良県,吉野郡大淀町,鉾立,ナラケン,ヨシノグンオオヨドチョウ,ホコタテ,奈良県吉野郡大淀町鉾立
6380851,奈良県,吉野郡大淀町,岩壺,ナラケン,ヨシノグンオオヨドチョウ,イワツボ,奈良県吉野郡大淀町岩壺
6380852,奈良県,吉野郡大淀町,持尾,ナラケン,ヨシノグンオオヨドチョウ,モチオ,奈良県吉野郡大淀町持尾
6380853,奈良県,吉野郡大淀町,矢走,ナラケン,ヨシノグンオオヨドチョウ,ヤバセ,奈良県吉野郡大淀町矢走
6390200,奈良県,北葛城郡上牧町,,ナラケン,キタカツラギグンカンマキチョウ,,奈良県北葛城郡上牧町
6390200,奈良県,香芝市,,ナラケン,カシバシ,,奈良県香芝市
6390201,奈良県,北葛城郡上牧町,片岡台,ナラケン,キタカツラギグンカンマキチョウ,カタオカダイ,奈良県北葛城郡上牧町片岡台
6390202,奈良県,北葛城郡上牧町,桜ケ丘,ナラケン,キタカツラギグンカンマキチョウ,サクラガオカ,奈良県北葛城郡上牧町桜ケ丘
6390203,奈良県,北葛城郡上牧町,友が丘,ナラケン,キタカツラギグンカンマキチョウ,トモガオカ,奈良県北葛城郡上牧町友が丘
6390204,奈良県,北葛城郡上牧町,緑ケ丘,ナラケン,キタカツラギグンカンマキチョウ,ミドリガオカ,奈良県北葛城郡上牧町緑ケ丘
6390205,奈良県,北葛城郡上牧町,下牧,ナラケン,キタカツラギグンカンマキチョウ,シモマキ,奈良県北葛城郡上牧町下牧
6390206,奈良県,北葛城郡上牧町,ゆりが丘,ナラケン,キタカツラギグンカンマキチョウ,ユリガオカ,奈良県北葛城郡上牧町ゆりが丘
6390211,奈良県,北葛城郡上牧町,滝川台,ナラケン,キタカツラギグンカンマキチョウ,タキガワダイ,奈良県北葛城郡上牧町滝川台
6390212,奈良県,北葛城郡上牧町,服部台,ナラケン,キタカツラギグンカンマキチョウ,ハットリダイ,奈良県北葛城郡上牧町服部台
6390213,奈良県,北葛城郡上牧町,米山台,ナラケン,キタカツラギグンカンマキチョウ,ヨネヤマダイ,奈良県北葛城郡上牧町米山台
6390214,奈良県,北葛城郡上牧町,上牧,ナラケン,キタカツラギグンカンマキチョウ,カンマキ,奈良県北葛城郡上牧町上牧
6390215,奈良県,北葛城郡上牧町,葛城台,ナラケン,キタカツラギグンカンマキチョウ,カツラギダイ,奈良県北葛城郡上牧町葛城台
6390216,奈良県,北葛城郡上牧町,松里園,ナラケン,キタカツラギグンカンマキチョウ,ショウリエン,奈良県北葛城郡上牧町松里園
6390217,奈良県,北葛城郡上牧町,中筋出作,ナラケン,キタカツラギグンカンマキチョウ,ナカスジシュツサク,奈良県北葛城郡上牧町中筋出作
6390218,奈良県,北葛城郡上牧町,ささゆり台,ナラケン,キタカツラギグンカンマキチョウ,ササユリダイ,奈良県北葛城郡上牧町ささゆり台
6390221,奈良県,香芝市,五ケ所,ナラケン,カシバシ,ゴカショ,奈良県香芝市五ケ所
6390222,奈良県,香芝市,西真美,ナラケン,カシバシ,ニシマミ,奈良県香芝市西真美
6390223,奈良県,香芝市,真美ケ丘,ナラケン,カシバシ,マミガオカ,奈良県香芝市真美ケ丘
6390224,奈良県,香芝市,別所,ナラケン,カシバシ,ベッシヨ,奈良県香芝市別所
6390225,奈良県,香芝市,瓦口,ナラケン,カシバシ,カワラグチ,奈良県香芝市瓦口
6390226,奈良県,香芝市,五位堂,ナラケン,カシバシ,ゴイドウ,奈良県香芝市五位堂
6390227,奈良県,香芝市,鎌田,ナラケン,カシバシ,カマダ,奈良県香芝市鎌田
6390231,奈良県,香芝市,下田西,ナラケン,カシバシ,シモダニシ,奈良県香芝市下田西
6390232,奈良県,香芝市,下田東,ナラケン,カシバシ,シモダヒガシ,奈良県香芝市下田東
6390233,奈良県,香芝市,下田,ナラケン,カシバシ,シモダ,奈良県香芝市下田
6390234,奈良県,香芝市,狐井,ナラケン,カシバシ,キツイ,奈良県香芝市狐井
6390235,奈良県,香芝市,良福寺,ナラケン,カシバシ,リョウフクジ,奈良県香芝市良福寺
6390236,奈良県,香芝市,磯壁,ナラケン,カシバシ,イソカベ,奈良県香芝市磯壁
6390237,奈良県,香芝市,すみれ野,ナラケン,カシバシ,スミレノ,奈良県香芝市すみれ野
6390241,奈良県,香芝市,高,ナラケン,カシバシ,タカ,奈良県香芝市高
6390242,奈良県,香芝市,北今市,ナラケン,カシバシ,キタイマイチ,奈良県香芝市北今市
6390243,奈良県,香芝市,藤山,ナラケン,カシバシ,フジヤマ,奈良県香芝市藤山
6390244,奈良県,香芝市,本町,ナラケン,カシバシ,ホンマチ,奈良県香芝市本町
6390245,奈良県,香芝市,畑,ナラケン,カシバシ,ハタ,奈良県香芝市畑
6390251,奈良県,香芝市,逢坂,ナラケン,カシバシ,オウサカ,奈良県香芝市逢坂
6390252,奈良県,香芝市,穴虫,ナラケン,カシバシ,アナムシ,奈良県香芝市穴虫
6390253,奈良県,香芝市,田尻,ナラケン,カシバシ,タジリ,奈良県香芝市田尻
6390254,奈良県,香芝市,関屋北,ナラケン,カシバシ,セキヤキタ,奈良県香芝市関屋北
6390255,奈良県,香芝市,関屋,ナラケン,カシバシ,セキヤ,奈良県香芝市関屋
6390256,奈良県,香芝市,高山台,ナラケン,カシバシ,タカヤマダイ,奈良県香芝市高山台
6390261,奈良県,香芝市,尼寺,ナラケン,カシバシ,ニンジ,奈良県香芝市尼寺
6390262,奈良県,香芝市,白鳳台,ナラケン,カシバシ,ハクホウダイ,奈良県香芝市白鳳台
6390263,奈良県,香芝市,平野,ナラケン,カシバシ,ヒラノ,奈良県香芝市平野
6390264,奈良県,香芝市,今泉,ナラケン,カシバシ,イマイズミ,奈良県香芝市今泉
6390265,奈良県,香芝市,上中,ナラケン,カシバシ,カミナカ,奈良県香芝市上中
6390266,奈良県,香芝市,旭ケ丘,ナラケン,カシバシ,アサヒガオカ,奈良県香芝市旭ケ丘
6390271,奈良県,葛城市,加守,ナラケン,カツラギシ,カモリ,奈良県葛城市加守
6390272,奈良県,葛城市,新在家,ナラケン,カツラギシ,シンザイケ,奈良県葛城市新在家
6390273,奈良県,葛城市,染野,ナラケン,カツラギシ,ソメノ,奈良県葛城市染野
6390274,奈良県,葛城市,今在家,ナラケン,カツラギシ,イマザイケ,奈良県葛城市今在家
6390275,奈良県,葛城市,勝根,ナラケン,カツラギシ,カツネ,奈良県葛城市勝根
6390276,奈良県,葛城市,當麻,ナラケン,カツラギシ,タイマ,奈良県葛城市當麻
6391001,奈良県,大和郡山市,九条町,ナラケン,ヤマトコオリヤマシ,クジョウチョウ,奈良県大和郡山市九条町
6391002,奈良県,大和郡山市,九条平野町,ナラケン,ヤマトコオリヤマシ,クジョウヒラノチョウ,奈良県大和郡山市九条平野町
6391003,奈良県,大和郡山市,代官町,ナラケン,ヤマトコオリヤマシ,ダイカンチョウ,奈良県大和郡山市代官町
6391004,奈良県,大和郡山市,城北町,ナラケン,ヤマトコオリヤマシ,ジョウホクチョウ,奈良県大和郡山市城北町
6391005,奈良県,大和郡山市,植槻町,ナラケン,ヤマトコオリヤマシ,ウエツキチョウ,奈良県大和郡山市植槻町
6391006,奈良県,大和郡山市,天理町,ナラケン,ヤマトコオリヤマシ,テンリチョウ,奈良県大和郡山市天理町
6391007,奈良県,大和郡山市,南郡山町,ナラケン,ヤマトコオリヤマシ,ミナミコオリヤマチョウ,奈良県大和郡山市南郡山町
6391008,奈良県,大和郡山市,城の台町,ナラケン,ヤマトコオリヤマシ,シロノダイチョウ,奈良県大和郡山市城の台町
6391011,奈良県,大和郡山市,城内町,ナラケン,ヤマトコオリヤマシ,ジョウナイチョウ,奈良県大和郡山市城内町
6391012,奈良県,大和郡山市,城見町,ナラケン,ヤマトコオリヤマシ,シロミチョウ,奈良県大和郡山市城見町
6391013,奈良県,大和郡山市,朝日町,ナラケン,ヤマトコオリヤマシ,アサヒチョウ,奈良県大和郡山市朝日町
6391014,奈良県,大和郡山市,西岡町,ナラケン,ヤマトコオリヤマシ,ニシオカチョウ,奈良県大和郡山市西岡町
6391015,奈良県,大和郡山市,箕山町,ナラケン,ヤマトコオリヤマシ,ミノヤマチョウ,奈良県大和郡山市箕山町
6391016,奈良県,大和郡山市,城南町,ナラケン,ヤマトコオリヤマシ,ジョウナンチョウ,奈良県大和郡山市城南町
6391017,奈良県,大和郡山市,藤原町,ナラケン,ヤマトコオリヤマシ,フジワラチョウ,奈良県大和郡山市藤原町
6391018,奈良県,大和郡山市,冠山町,ナラケン,ヤマトコオリヤマシ,カンザンチョウ,奈良県大和郡山市冠山町
6391019,奈良県,大和郡山市,永慶寺町,ナラケン,ヤマトコオリヤマシ,エイケイジチョウ,奈良県大和郡山市永慶寺町
6391021,奈良県,大和郡山市,新木町,ナラケン,ヤマトコオリヤマシ,ニキチョウ,奈良県大和郡山市新木町
6391022,奈良県,大和郡山市,豊浦町,ナラケン,ヤマトコオリヤマシ,トヨウラチョウ,奈良県大和郡山市豊浦町
6391023,奈良県,大和郡山市,小南町,ナラケン,ヤマトコオリヤマシ,コミナミチョウ,奈良県大和郡山市小南町
6391024,奈良県,大和郡山市,南井町,ナラケン,ヤマトコオリヤマシ,ミナミイチョウ,奈良県大和郡山市南井町
6391025,奈良県,大和郡山市,北西町,ナラケン,ヤマトコオリヤマシ,キタニシチョウ,奈良県大和郡山市北西町
6391026,奈良県,大和郡山市,小林町,ナラケン,ヤマトコオリヤマシ,コバヤシチョウ,奈良県大和郡山市小林町
6391027,奈良県,大和郡山市,池之内町,ナラケン,ヤマトコオリヤマシ,イケノウチチョウ,奈良県大和郡山市池之内町
6391028,奈良県,大和郡山市,田中町,ナラケン,ヤマトコオリヤマシ,タナカチョウ,奈良県大和郡山市田中町
6391031,奈良県,大和郡山市,今国府町,ナラケン,ヤマトコオリヤマシ,イマゴウチョウ,奈良県大和郡山市今国府町
6391032,奈良県,大和郡山市,池沢町,ナラケン,ヤマトコオリヤマシ,イケザワチョウ,奈良県大和郡山市池沢町
6391033,奈良県,大和郡山市,昭和町,ナラケン,ヤマトコオリヤマシ,ショウワチョウ,奈良県大和郡山市昭和町
6391034,奈良県,大和郡山市,柏木町,ナラケン,ヤマトコオリヤマシ,カシワギチョウ,奈良県大和郡山市柏木町
6391035,奈良県,大和郡山市,額田部南町,ナラケン,ヤマトコオリヤマシ,ヌカタベミナミチョウ,奈良県大和郡山市額田部南町
6391036,奈良県,大和郡山市,額田部寺町,ナラケン,ヤマトコオリヤマシ,ヌカタベテラマチ,奈良県大和郡山市額田部寺町
6391037,奈良県,大和郡山市,額田部北町,ナラケン,ヤマトコオリヤマシ,ヌカタベキタマチ,奈良県大和郡山市額田部北町
6391038,奈良県,大和郡山市,西町,ナラケン,ヤマトコオリヤマシ,ニシマチ,奈良県大和郡山市西町
6391039,奈良県,大和郡山市,椎木町,ナラケン,ヤマトコオリヤマシ,シギチョウ,奈良県大和郡山市椎木町
6391041,奈良県,大和郡山市,満願寺町,ナラケン,ヤマトコオリヤマシ,マンガンジチョウ,奈良県大和郡山市満願寺町
6391042,奈良県,大和郡山市,小泉町,ナラケン,ヤマトコオリヤマシ,コイズミチョウ,奈良県大和郡山市小泉町
6391043,奈良県,大和郡山市,西田中町,ナラケン,ヤマトコオリヤマシ,ニシタナカチョウ,奈良県大和郡山市西田中町
6391044,奈良県,大和郡山市,小泉町東,ナラケン,ヤマトコオリヤマシ,コイズミチョウヒガシ,奈良県大和郡山市小泉町東
6391045,奈良県,大和郡山市,小林町西,ナラケン,ヤマトコオリヤマシ,コバヤシチョウニシ,奈良県大和郡山市小林町西
6391051,奈良県,大和郡山市,城町,ナラケン,ヤマトコオリヤマシ,ジョウチョウ,奈良県大和郡山市城町
6391052,奈良県,大和郡山市,外川町,ナラケン,ヤマトコオリヤマシ,トガワチョウ,奈良県大和郡山市外川町
6391053,奈良県,大和郡山市,千日町,ナラケン,ヤマトコオリヤマシ,センニチチョウ,奈良県大和郡山市千日町
6391054,奈良県,大和郡山市,新町,ナラケン,ヤマトコオリヤマシ,シンマチ,奈良県大和郡山市新町
6391055,奈良県,大和郡山市,矢田山町,ナラケン,ヤマトコオリヤマシ,ヤタヤマチョウ,奈良県大和郡山市矢田山町
6391056,奈良県,大和郡山市,泉原町,ナラケン,ヤマトコオリヤマシ,イズミハラチョウ,奈良県大和郡山市泉原町
6391057,奈良県,大和郡山市,山田町,ナラケン,ヤマトコオリヤマシ,ヤマダチョウ,奈良県大和郡山市山田町
6391058,奈良県,大和郡山市,矢田町,ナラケン,ヤマトコオリヤマシ,ヤタチョウ,奈良県大和郡山市矢田町
6391061,奈良県,生駒郡安堵町,東安堵,ナラケン,イコマグンアンドチョウ,ヒガシアンド,奈良県生駒郡安堵町東安堵
6391062,奈良県,生駒郡安堵町,岡崎,ナラケン,イコマグンアンドチョウ,オカサキ,奈良県生駒郡安堵町岡崎
6391063,奈良県,生駒郡安堵町,かしの木台,ナラケン,イコマグンアンドチョウ,カシノキダイ,奈良県生駒郡安堵町かしの木台
6391064,奈良県,生駒郡安堵町,窪田,ナラケン,イコマグンアンドチョウ,クボタ,奈良県生駒郡安堵町窪田
6391065,奈良県,生駒郡安堵町,笠目,ナラケン,イコマグンアンドチョウ,カサメ,奈良県生駒郡安堵町笠目
6391066,奈良県,生駒郡安堵町,西安堵,ナラケン,イコマグンアンドチョウ,ニシアンド,奈良県生駒郡安堵町西安堵
6391100,奈良県,大和郡山市,,ナラケン,ヤマトコオリヤマシ,,奈良県大和郡山市
6391100,奈良県,生駒郡安堵町,,ナラケン,イコマグンアンドチョウ,,奈良県生駒郡安堵町
6391101,奈良県,大和郡山市,下三橋町,ナラケン,ヤマトコオリヤマシ,シモミツハシチョウ,奈良県大和郡山市下三橋町
6391102,奈良県,大和郡山市,上三橋町,ナラケン,ヤマトコオリヤマシ,カミミツハシチョウ,奈良県大和郡山市上三橋町
6391103,奈良県,大和郡山市,美濃庄町,ナラケン,ヤマトコオリヤマシ,ミノショウチョウ,奈良県大和郡山市美濃庄町
6391104,奈良県,大和郡山市,井戸野町,ナラケン,ヤマトコオリヤマシ,イドノチョウ,奈良県大和郡山市井戸野町
6391105,奈良県,大和郡山市,番匠田中町,ナラケン,ヤマトコオリヤマシ,バンジョウタナカチョウ,奈良県大和郡山市番匠田中町
6391106,奈良県,大和郡山市,大江町,ナラケン,ヤマトコオリヤマシ,オオエチョウ,奈良県大和郡山市大江町
6391107,奈良県,大和郡山市,若槻町,ナラケン,ヤマトコオリヤマシ,ワカツキチョウ,奈良県大和郡山市若槻町
6391108,奈良県,大和郡山市,稗田町,ナラケン,ヤマトコオリヤマシ,ヒエダチョウ,奈良県大和郡山市稗田町
6391111,奈良県,大和郡山市,石川町,ナラケン,ヤマトコオリヤマシ,イシカワチョウ,奈良県大和郡山市石川町
6391112,奈良県,大和郡山市,白土町,ナラケン,ヤマトコオリヤマシ,シラツチチョウ,奈良県大和郡山市白土町
6391113,奈良県,大和郡山市,櫟枝町,ナラケン,ヤマトコオリヤマシ,イチエダチョウ,奈良県大和郡山市櫟枝町
6391114,奈良県,大和郡山市,新庄町,ナラケン,ヤマトコオリヤマシ,シンジョウチョウ,奈良県大和郡山市新庄町
6391115,奈良県,大和郡山市,横田町,ナラケン,ヤマトコオリヤマシ,ヨコタチョウ,奈良県大和郡山市横田町
6391116,奈良県,大和郡山市,伊豆七条町,ナラケン,ヤマトコオリヤマシ,イズシチジョウチョウ,奈良県大和郡山市伊豆七条町
6391117,奈良県,大和郡山市,番条町,ナラケン,ヤマトコオリヤマシ,バンジョウチョウ,奈良県大和郡山市番条町
6391118,奈良県,大和郡山市,中城町,ナラケン,ヤマトコオリヤマシ,ナカジョウチョウ,奈良県大和郡山市中城町
6391119,奈良県,大和郡山市,発志院町,ナラケン,ヤマトコオリヤマシ,ハツシインチョウ,奈良県大和郡山市発志院町
6391121,奈良県,大和郡山市,杉町,ナラケン,ヤマトコオリヤマシ,スギチョウ,奈良県大和郡山市杉町
6391122,奈良県,大和郡山市,丹後庄町,ナラケン,ヤマトコオリヤマシ,タンゴノショウチョウ,奈良県大和郡山市丹後庄町
6391123,奈良県,大和郡山市,筒井町,ナラケン,ヤマトコオリヤマシ,ツツイチョウ,奈良県大和郡山市筒井町
6391124,奈良県,大和郡山市,馬司町,ナラケン,ヤマトコオリヤマシ,マツカサチョウ,奈良県大和郡山市馬司町
6391125,奈良県,大和郡山市,八条町,ナラケン,ヤマトコオリヤマシ,ハチジョウチョウ,奈良県大和郡山市八条町
6391126,奈良県,大和郡山市,宮堂町,ナラケン,ヤマトコオリヤマシ,ミヤドウチョウ,奈良県大和郡山市宮堂町
6391127,奈良県,大和郡山市,長安寺町,ナラケン,ヤマトコオリヤマシ,チョウアンジチョウ,奈良県大和郡山市長安寺町
6391131,奈良県,大和郡山市,野垣内町,ナラケン,ヤマトコオリヤマシ,ノガイトチョウ,奈良県大和郡山市野垣内町
6391132,奈良県,大和郡山市,高田町,ナラケン,ヤマトコオリヤマシ,タカダチョウ,奈良県大和郡山市高田町
6391133,奈良県,大和郡山市,高田口町,ナラケン,ヤマトコオリヤマシ,タカダグチチョウ,奈良県大和郡山市高田口町
6391134,奈良県,大和郡山市,柳,ナラケン,ヤマトコオリヤマシ,ヤナギ,奈良県大和郡山市柳
6391134,奈良県,大和郡山市,柳町,ナラケン,ヤマトコオリヤマシ,ヤナギマチ,奈良県大和郡山市柳町
6391135,奈良県,大和郡山市,天井町,ナラケン,ヤマトコオリヤマシ,テンジョウチョウ,奈良県大和郡山市天井町
6391136,奈良県,大和郡山市,本庄町,ナラケン,ヤマトコオリヤマシ,ホンジョウチョウ,奈良県大和郡山市本庄町
6391137,奈良県,大和郡山市,東岡町,ナラケン,ヤマトコオリヤマシ,ヒガシオカチョウ,奈良県大和郡山市東岡町
6391138,奈良県,大和郡山市,大宮町,ナラケン,ヤマトコオリヤマシ,オオミヤチョウ,奈良県大和郡山市大宮町
6391141,奈良県,大和郡山市,材木町,ナラケン,ヤマトコオリヤマシ,ザイモクマチ,奈良県大和郡山市材木町
6391142,奈良県,大和郡山市,矢田町通,ナラケン,ヤマトコオリヤマシ,ヤタマチドオリ,奈良県大和郡山市矢田町通
6391143,奈良県,大和郡山市,新紺屋町,ナラケン,ヤマトコオリヤマシ,シンコンヤマチ,奈良県大和郡山市新紺屋町
6391144,奈良県,大和郡山市,洞泉寺町,ナラケン,ヤマトコオリヤマシ,トウセンジチョウ,奈良県大和郡山市洞泉寺町
6391145,奈良県,大和郡山市,南大工町,ナラケン,ヤマトコオリヤマシ,ミナミダイクマチ,奈良県大和郡山市南大工町
6391146,奈良県,大和郡山市,北大工町,ナラケン,ヤマトコオリヤマシ,キタダイクマチ,奈良県大和郡山市北大工町
6391147,奈良県,大和郡山市,車町,ナラケン,ヤマトコオリヤマシ,クルママチ,奈良県大和郡山市車町
6391148,奈良県,大和郡山市,紺屋町,ナラケン,ヤマトコオリヤマシ,コンヤマチ,奈良県大和郡山市紺屋町
6391149,奈良県,大和郡山市,豆腐町,ナラケン,ヤマトコオリヤマシ,トウフマチ,奈良県大和郡山市豆腐町
6391150,奈良県,大和郡山市,雑穀町,ナラケン,ヤマトコオリヤマシ,ザコクマチ,奈良県大和郡山市雑穀町
6391151,奈良県,大和郡山市,本町,ナラケン,ヤマトコオリヤマシ,ホンマチ,奈良県大和郡山市本町
6391152,奈良県,大和郡山市,茶町,ナラケン,ヤマトコオリヤマシ,チャマチ,奈良県大和郡山市茶町
6391153,奈良県,大和郡山市,西野垣内町,ナラケン,ヤマトコオリヤマシ,ニシノガイトチョウ,奈良県大和郡山市西野垣内町
6391154,奈良県,大和郡山市,綿町,ナラケン,ヤマトコオリヤマシ,ワタマチ,奈良県大和郡山市綿町
6391155,奈良県,大和郡山市,今井町,ナラケン,ヤマトコオリヤマシ,イマイマチ,奈良県大和郡山市今井町
6391156,奈良県,大和郡山市,堺町,ナラケン,ヤマトコオリヤマシ,サカイチョウ,奈良県大和郡山市堺町
6391157,奈良県,大和郡山市,新中町,ナラケン,ヤマトコオリヤマシ,シンナカマチ,奈良県大和郡山市新中町
6391158,奈良県,大和郡山市,藺町,ナラケン,ヤマトコオリヤマシ,イノマチ,奈良県大和郡山市藺町
6391159,奈良県,大和郡山市,奈良町,ナラケン,ヤマトコオリヤマシ,ナラマチ,奈良県大和郡山市奈良町
6391160,奈良県,大和郡山市,北郡山町,ナラケン,ヤマトコオリヤマシ,キタコオリヤマチョウ,奈良県大和郡山市北郡山町
6391161,奈良県,大和郡山市,観音寺町,ナラケン,ヤマトコオリヤマシ,カンノンジチョウ,奈良県大和郡山市観音寺町
6391162,奈良県,大和郡山市,東奈良口町,ナラケン,ヤマトコオリヤマシ,ヒガシナラグチチョウ,奈良県大和郡山市東奈良口町
6391163,奈良県,大和郡山市,西奈良口町,ナラケン,ヤマトコオリヤマシ,ニシナラグチチョウ,奈良県大和郡山市西奈良口町
6391164,奈良県,大和郡山市,西観音寺町,ナラケン,ヤマトコオリヤマシ,ニシカンノンジチョウ,奈良県大和郡山市西観音寺町
6391165,奈良県,大和郡山市,北鍛冶町,ナラケン,ヤマトコオリヤマシ,キタカジマチ,奈良県大和郡山市北鍛冶町
6391166,奈良県,大和郡山市,中鍛冶町,ナラケン,ヤマトコオリヤマシ,ナカカジマチ,奈良県大和郡山市中鍛冶町
6391167,奈良県,大和郡山市,南鍛冶町,ナラケン,ヤマトコオリヤマシ,ミナミカジマチ,奈良県大和郡山市南鍛冶町
6391168,奈良県,大和郡山市,魚町,ナラケン,ヤマトコオリヤマシ,ウオマチ,奈良県大和郡山市魚町
6391169,奈良県,大和郡山市,塩町,ナラケン,ヤマトコオリヤマシ,シオマチ,奈良県大和郡山市塩町
6392100,奈良県,葛城市,,ナラケン,カツラギシ,,奈良県葛城市
6392101,奈良県,葛城市,疋田,ナラケン,カツラギシ,ヒキダ,奈良県葛城市疋田
6392102,奈良県,葛城市,東室,ナラケン,カツラギシ,ヒガシムロ,奈良県葛城市東室
6392103,奈良県,葛城市,西室,ナラケン,カツラギシ,ニシムロ,奈良県葛城市西室
6392111,奈良県,葛城市,柿本,ナラケン,カツラギシ,カキノモト,奈良県葛城市柿本
6392112,奈良県,葛城市,笛堂,ナラケン,カツラギシ,フエドウ,奈良県葛城市笛堂
6392113,奈良県,葛城市,北花内,ナラケン,カツラギシ,キタハナウチ,奈良県葛城市北花内
6392121,奈良県,葛城市,新村,ナラケン,カツラギシ,シムラ,奈良県葛城市新村
6392122,奈良県,葛城市,薑,ナラケン,カツラギシ,ハジカミ,奈良県葛城市薑
6392123,奈良県,葛城市,南新町,ナラケン,カツラギシ,ミナミシンマチ,奈良県葛城市南新町
6392123,奈良県,葛城市,忍海,ナラケン,カツラギシ,オシミ,奈良県葛城市忍海
6392124,奈良県,葛城市,脇田,ナラケン,カツラギシ,ワキダ,奈良県葛城市脇田
6392125,奈良県,葛城市,西辻,ナラケン,カツラギシ,ニシツジ,奈良県葛城市西辻
6392126,奈良県,葛城市,南花内,ナラケン,カツラギシ,ミナミハナウチ,奈良県葛城市南花内
6392127,奈良県,葛城市,新町,ナラケン,カツラギシ,シンマチ,奈良県葛城市新町
6392131,奈良県,葛城市,林堂,ナラケン,カツラギシ,ハヤシドウ,奈良県葛城市林堂
6392132,奈良県,葛城市,笛吹,ナラケン,カツラギシ,フエフキ,奈良県葛城市笛吹
6392133,奈良県,葛城市,梅室,ナラケン,カツラギシ,ウメムロ,奈良県葛城市梅室
6392134,奈良県,葛城市,山口,ナラケン,カツラギシ,ヤマグチ,奈良県葛城市山口
6392135,奈良県,葛城市,寺口,ナラケン,カツラギシ,テラグチ,奈良県葛城市寺口
6392136,奈良県,葛城市,平岡,ナラケン,カツラギシ,ヒラオカ,奈良県葛城市平岡
6392137,奈良県,葛城市,南藤井,ナラケン,カツラギシ,ミナミフジイ,奈良県葛城市南藤井
6392138,奈良県,葛城市,山田,ナラケン,カツラギシ,ヤマダ,奈良県葛城市山田
6392141,奈良県,葛城市,弁之庄,ナラケン,カツラギシ,ベンノショウ,奈良県葛城市弁之庄
6392142,奈良県,葛城市,北道穂,ナラケン,カツラギシ,キタミツボ,奈良県葛城市北道穂
6392143,奈良県,葛城市,南道穂,ナラケン,カツラギシ,ミナミミツボ,奈良県葛城市南道穂
6392144,奈良県,葛城市,葛木,ナラケン,カツラギシ,カツラギ,奈良県葛城市葛木
6392145,奈良県,葛城市,大屋,ナラケン,カツラギシ,オオヤ,奈良県葛城市大屋
6392146,奈良県,葛城市,中戸,ナラケン,カツラギシ,ナカト,奈良県葛城市中戸
6392147,奈良県,葛城市,新庄,ナラケン,カツラギシ,シンジョウ,奈良県葛城市新庄
6392151,奈良県,葛城市,南今市,ナラケン,カツラギシ,ミナミイマイチ,奈良県葛城市南今市
6392152,奈良県,葛城市,大畑,ナラケン,カツラギシ,オバタケ,奈良県葛城市大畑
6392153,奈良県,葛城市,太田,ナラケン,カツラギシ,オオタ,奈良県葛城市太田
6392154,奈良県,葛城市,兵家,ナラケン,カツラギシ,ヒョウゲ,奈良県葛城市兵家
6392155,奈良県,葛城市,竹内,ナラケン,カツラギシ,タケノウチ,奈良県葛城市竹内
6392161,奈良県,葛城市,木戸,ナラケン,カツラギシ,キド,奈良県葛城市木戸
6392162,奈良県,葛城市,尺土,ナラケン,カツラギシ,シャクド,奈良県葛城市尺土
6392163,奈良県,葛城市,八川,ナラケン,カツラギシ,ハチガワ,奈良県葛城市八川
6392164,奈良県,葛城市,長尾,ナラケン,カツラギシ,ナガオ,奈良県葛城市長尾
6392200,奈良県,御所市,,ナラケン,ゴセシ,,奈良県御所市
6392201,奈良県,御所市,柳原,ナラケン,ゴセシ,ヤナギハラ,奈良県御所市柳原
6392202,奈良県,御所市,出屋敷,ナラケン,ゴセシ,デヤシキ,奈良県御所市出屋敷
6392203,奈良県,御所市,北十三,ナラケン,ゴセシ,キタジュウソ,奈良県御所市北十三
6392204,奈良県,御所市,南十三,ナラケン,ゴセシ,ミナミジュウソ,奈良県御所市南十三
6392205,奈良県,御所市,東辻,ナラケン,ゴセシ,ヒガシツジ,奈良県御所市東辻
6392206,奈良県,御所市,竹田,ナラケン,ゴセシ,タケダ,奈良県御所市竹田
6392207,奈良県,御所市,今城,ナラケン,ゴセシ,イマンジョウ,奈良県御所市今城
6392211,奈良県,御所市,ＪＲ御所駅前通り,ナラケン,ゴセシ,ジェイアールゴセエキマエドオリ,奈良県御所市ＪＲ御所駅前通り
6392212,奈良県,御所市,中央通り,ナラケン,ゴセシ,チュウオウドオリ,奈良県御所市中央通り
6392213,奈良県,御所市,神宮町,ナラケン,ゴセシ,ジングウチョウ,奈良県御所市神宮町
6392214,奈良県,御所市,御堂魚棚町,ナラケン,ゴセシ,ミドウウオンタナチョウ,奈良県御所市御堂魚棚町
6392215,奈良県,御所市,西町,ナラケン,ゴセシ,ニシマチ,奈良県御所市西町
6392216,奈良県,御所市,御国通り,ナラケン,ゴセシ,ミクニドオリ,奈良県御所市御国通り
6392217,奈良県,御所市,新地町,ナラケン,ゴセシ,シンチマチ,奈良県御所市新地町
6392221,奈良県,御所市,栄町,ナラケン,ゴセシ,サカエマチ,奈良県御所市栄町
6392222,奈良県,御所市,六軒町,ナラケン,ゴセシ,ロッケンマチ,奈良県御所市六軒町
6392223,奈良県,御所市,本町,ナラケン,ゴセシ,ホンマチ,奈良県御所市本町
6392224,奈良県,御所市,西柏町,ナラケン,ゴセシ,サイカシチョウ,奈良県御所市西柏町
6392225,奈良県,御所市,中本町,ナラケン,ゴセシ,ナカホンマチ,奈良県御所市中本町
6392226,奈良県,御所市,南中町,ナラケン,ゴセシ,ミナミナカマチ,奈良県御所市南中町
6392227,奈良県,御所市,東久保町,ナラケン,ゴセシ,ヒガシクボチョウ,奈良県御所市東久保町
6392228,奈良県,御所市,西久保本町,ナラケン,ゴセシ,ニシクボホンマチ,奈良県御所市西久保本町
6392229,奈良県,御所市,鴨口町,ナラケン,ゴセシ,カモグチチョウ,奈良県御所市鴨口町
6392231,奈良県,御所市,柿ケ坪町,ナラケン,ゴセシ,カキガツボチョウ,奈良県御所市柿ケ坪町
6392232,奈良県,御所市,御門町,ナラケン,ゴセシ,ミカドチョウ,奈良県御所市御門町
6392233,奈良県,御所市,都町,ナラケン,ゴセシ,ミヤコマチ,奈良県御所市都町
6392234,奈良県,御所市,柳町,ナラケン,ゴセシ,ヤナギマチ,奈良県御所市柳町
6392235,奈良県,御所市,寺内町,ナラケン,ゴセシ,ジナイチョウ,奈良県御所市寺内町
6392236,奈良県,御所市,代官町,ナラケン,ゴセシ,ダイカンマチ,奈良県御所市代官町
6392237,奈良県,御所市,豊年橋通り,ナラケン,ゴセシ,ホウネンバシドオリ,奈良県御所市豊年橋通り
6392238,奈良県,御所市,大橋通り,ナラケン,ゴセシ,オオハシドオリ,奈良県御所市大橋通り
6392239,奈良県,御所市,旭町,ナラケン,ゴセシ,アサヒマチ,奈良県御所市旭町
6392241,奈良県,御所市,茅原,ナラケン,ゴセシ,チハラ,奈良県御所市茅原
6392242,奈良県,御所市,本馬,ナラケン,ゴセシ,ホンマ,奈良県御所市本馬
6392243,奈良県,御所市,東寺田,ナラケン,ゴセシ,ヒガシテラダ,奈良県御所市東寺田
6392244,奈良県,御所市,柏原,ナラケン,ゴセシ,カシハラ,奈良県御所市柏原
6392245,奈良県,御所市,今住,ナラケン,ゴセシ,イマズミ,奈良県御所市今住
6392246,奈良県,御所市,原谷,ナラケン,ゴセシ,ハラダニ,奈良県御所市原谷
6392247,奈良県,御所市,玉手,ナラケン,ゴセシ,タマデ,奈良県御所市玉手
6392248,奈良県,御所市,緑町,ナラケン,ゴセシ,ミドリマチ,奈良県御所市緑町
6392251,奈良県,御所市,戸毛,ナラケン,ゴセシ,トウゲ,奈良県御所市戸毛
6392252,奈良県,御所市,樋野,ナラケン,ゴセシ,ヒノ,奈良県御所市樋野
6392253,奈良県,御所市,奉膳,ナラケン,ゴセシ,ブンゼ,奈良県御所市奉膳
6392254,奈良県,御所市,古瀬,ナラケン,ゴセシ,コセ,奈良県御所市古瀬
6392255,奈良県,御所市,朝町,ナラケン,ゴセシ,アサマチ,奈良県御所市朝町
6392256,奈良県,御所市,栗阪,ナラケン,ゴセシ,クリサカ,奈良県御所市栗阪
6392257,奈良県,御所市,小殿,ナラケン,ゴセシ,オドノ,奈良県御所市小殿
6392258,奈良県,御所市,稲宿,ナラケン,ゴセシ,イナイド,奈良県御所市稲宿
6392261,奈良県,御所市,城山台,ナラケン,ゴセシ,シロヤマダイ,奈良県御所市城山台
6392262,奈良県,御所市,持田,ナラケン,ゴセシ,モッタ,奈良県御所市持田
6392262,奈良県,御所市,東持田,ナラケン,ゴセシ,ヒガシモッタ,奈良県御所市東持田
6392263,奈良県,御所市,鳥井戸,ナラケン,ゴセシ,トリイド,奈良県御所市鳥井戸
6392264,奈良県,御所市,五百家,ナラケン,ゴセシ,イウカ,奈良県御所市五百家
6392265,奈良県,御所市,新田,ナラケン,ゴセシ,シンデン,奈良県御所市新田
6392266,奈良県,御所市,重阪,ナラケン,ゴセシ,ヘイサカ,奈良県御所市重阪
6392267,奈良県,御所市,内谷,ナラケン,ゴセシ,ウチタニ,奈良県御所市内谷
6392268,奈良県,御所市,船路,ナラケン,ゴセシ,フナジ,奈良県御所市船路
6392271,奈良県,御所市,宮前町,ナラケン,ゴセシ,ミヤマエマチ,奈良県御所市宮前町
6392272,奈良県,御所市,蛇穴,ナラケン,ゴセシ,サラギ,奈良県御所市蛇穴
6392273,奈良県,御所市,池之内,ナラケン,ゴセシ,イケノウチ,奈良県御所市池之内
6392274,奈良県,御所市,冨田,ナラケン,ゴセシ,トミタ,奈良県御所市冨田
6392275,奈良県,御所市,出走,ナラケン,ゴセシ,デハシリ,奈良県御所市出走
6392276,奈良県,御所市,條,ナラケン,ゴセシ,ジョウ,奈良県御所市條
6392277,奈良県,御所市,室,ナラケン,ゴセシ,ムロ,奈良県御所市室
6392278,奈良県,御所市,緑ケ丘,ナラケン,ゴセシ,ミドリガオカ,奈良県御所市緑ケ丘
6392279,奈良県,御所市,今出,ナラケン,ゴセシ,イマデ,奈良県御所市今出
6392301,奈良県,御所市,元町,ナラケン,ゴセシ,モトマチ,奈良県御所市元町
6392302,奈良県,御所市,東松本,ナラケン,ゴセシ,ヒガシマツモト,奈良県御所市東松本
6392303,奈良県,御所市,末広町,ナラケン,ゴセシ,スエヒロチョウ,奈良県御所市末広町
6392304,奈良県,御所市,大広町,ナラケン,ゴセシ,オオヒロチョウ,奈良県御所市大広町
6392305,奈良県,御所市,柳田町,ナラケン,ゴセシ,ヤナギダチョウ,奈良県御所市柳田町
6392306,奈良県,御所市,三室,ナラケン,ゴセシ,ミムロ,奈良県御所市三室
6392311,奈良県,御所市,小林,ナラケン,ゴセシ,コバヤシ,奈良県御所市小林
6392312,奈良県,御所市,櫛羅,ナラケン,ゴセシ,クジラ,奈良県御所市櫛羅
6392313,奈良県,御所市,楢原,ナラケン,ゴセシ,ナラバラ,奈良県御所市楢原
6392314,奈良県,御所市,幸町,ナラケン,ゴセシ,サイワイチョウ,奈良県御所市幸町
6392315,奈良県,御所市,宮戸,ナラケン,ゴセシ,ミヤド,奈良県御所市宮戸
6392316,奈良県,御所市,西寺田,ナラケン,ゴセシ,ニシテラダ,奈良県御所市西寺田
6392317,奈良県,御所市,豊田,ナラケン,ゴセシ,トヨダ,奈良県御所市豊田
6392318,奈良県,御所市,森脇,ナラケン,ゴセシ,モリワキ,奈良県御所市森脇
6392321,奈良県,御所市,名柄,ナラケン,ゴセシ,ナガラ,奈良県御所市名柄
6392322,奈良県,御所市,東名柄,ナラケン,ゴセシ,ヒガシナガラ,奈良県御所市東名柄
6392323,奈良県,御所市,多田,ナラケン,ゴセシ,オイダ,奈良県御所市多田
6392324,奈良県,御所市,下茶屋,ナラケン,ゴセシ,シモノチャヤ,奈良県御所市下茶屋
6392325,奈良県,御所市,佐田,ナラケン,ゴセシ,サダ,奈良県御所市佐田
6392326,奈良県,御所市,井戸,ナラケン,ゴセシ,イド,奈良県御所市井戸
6392327,奈良県,御所市,増,ナラケン,ゴセシ,マシ,奈良県御所市増
6392328,奈良県,御所市,関屋,ナラケン,ゴセシ,セキヤ,奈良県御所市関屋
6392331,奈良県,御所市,南郷,ナラケン,ゴセシ,ナンゴウ,奈良県御所市南郷
6392332,奈良県,御所市,西持田,ナラケン,ゴセシ,ニシモッタ,奈良県御所市西持田
6392333,奈良県,御所市,林,ナラケン,ゴセシ,ハヤシ,奈良県御所市林
6392334,奈良県,御所市,北窪,ナラケン,ゴセシ,キタクボ,奈良県御所市北窪
6392335,奈良県,御所市,西北窪,ナラケン,ゴセシ,ニシキタクボ,奈良県御所市西北窪
6392336,奈良県,御所市,高天,ナラケン,ゴセシ,タカマ,奈良県御所市高天
6392337,奈良県,御所市,極楽寺,ナラケン,ゴセシ,ゴクラクジ,奈良県御所市極楽寺
6392341,奈良県,御所市,朝妻,ナラケン,ゴセシ,アサヅマ,奈良県御所市朝妻
6392342,奈良県,御所市,僧堂,ナラケン,ゴセシ,ソウドウ,奈良県御所市僧堂
6392343,奈良県,御所市,鴨神,ナラケン,ゴセシ,カモガミ,奈良県御所市鴨神
6392344,奈良県,御所市,東佐味,ナラケン,ゴセシ,ヒガシサビ,奈良県御所市東佐味
6392345,奈良県,御所市,西佐味,ナラケン,ゴセシ,ニシサビ,奈良県御所市西佐味
6392346,奈良県,御所市,伏見,ナラケン,ゴセシ,フシミ,奈良県御所市伏見
6393100,奈良県,吉野郡吉野町,,ナラケン,ヨシノグンヨシノチョウ,,奈良県吉野郡吉野町
6393101,奈良県,吉野郡吉野町,山口,ナラケン,ヨシノグンヨシノチョウ,ヤマグチ,奈良県吉野郡吉野町山口
6393102,奈良県,吉野郡吉野町,河原屋,ナラケン,ヨシノグンヨシノチョウ,カワハラヤ,奈良県吉野郡吉野町河原屋
6393102,奈良県,吉野郡吉野町,津風呂,ナラケン,ヨシノグンヨシノチョウ,ツブロ,奈良県吉野郡吉野町津風呂
6393103,奈良県,吉野郡吉野町,平尾,ナラケン,ヨシノグンヨシノチョウ,ヒラオ,奈良県吉野郡吉野町平尾
6393104,奈良県,吉野郡吉野町,峰寺,ナラケン,ヨシノグンヨシノチョウ,ミネデラ,奈良県吉野郡吉野町峰寺
6393105,奈良県,吉野郡吉野町,千股,ナラケン,ヨシノグンヨシノチョウ,チマタ,奈良県吉野郡吉野町千股
6393106,奈良県,吉野郡吉野町,志賀,ナラケン,ヨシノグンヨシノチョウ,シガ,奈良県吉野郡吉野町志賀
6393106,奈良県,吉野郡吉野町,滝畑,ナラケン,ヨシノグンヨシノチョウ,タキハタ,奈良県吉野郡吉野町滝畑
6393107,奈良県,吉野郡吉野町,佐々羅,ナラケン,ヨシノグンヨシノチョウ,ササラ,奈良県吉野郡吉野町佐々羅
6393108,奈良県,吉野郡吉野町,三津,ナラケン,ヨシノグンヨシノチョウ,ミヅ,奈良県吉野郡吉野町三津
6393108,奈良県,吉野郡吉野町,西谷,ナラケン,ヨシノグンヨシノチョウ,ニシタニ,奈良県吉野郡吉野町西谷
6393111,奈良県,吉野郡吉野町,上市,ナラケン,ヨシノグンヨシノチョウ,カミイチ,奈良県吉野郡吉野町上市
6393112,奈良県,吉野郡吉野町,立野,ナラケン,ヨシノグンヨシノチョウ,タチノ,奈良県吉野郡吉野町立野
6393113,奈良県,吉野郡吉野町,飯貝,ナラケン,ヨシノグンヨシノチョウ,イイガイ,奈良県吉野郡吉野町飯貝
6393114,奈良県,吉野郡吉野町,丹治,ナラケン,ヨシノグンヨシノチョウ,タンジ,奈良県吉野郡吉野町丹治
6393115,奈良県,吉野郡吉野町,吉野山,ナラケン,ヨシノグンヨシノチョウ,ヨシノヤマ,奈良県吉野郡吉野町吉野山
6393116,奈良県,吉野郡吉野町,六田,ナラケン,ヨシノグンヨシノチョウ,ムダ,奈良県吉野郡吉野町六田
6393117,奈良県,吉野郡吉野町,左曽,ナラケン,ヨシノグンヨシノチョウ,サソ,奈良県吉野郡吉野町左曽
6393118,奈良県,吉野郡吉野町,橋屋,ナラケン,ヨシノグンヨシノチョウ,ハシヤ,奈良県吉野郡吉野町橋屋
6393121,奈良県,吉野郡大淀町,西増,ナラケン,ヨシノグンオオヨドチョウ,ニシマシ,奈良県吉野郡大淀町西増
6393122,奈良県,吉野郡大淀町,中増,ナラケン,ヨシノグンオオヨドチョウ,ナカマシ,奈良県吉野郡大淀町中増
6393123,奈良県,吉野郡大淀町,増口,ナラケン,ヨシノグンオオヨドチョウ,マシグチ,奈良県吉野郡大淀町増口
6393124,奈良県,吉野郡大淀町,北六田,ナラケン,ヨシノグンオオヨドチョウ,キタムダ,奈良県吉野郡大淀町北六田
6393125,奈良県,吉野郡大淀町,北野,ナラケン,ヨシノグンオオヨドチョウ,キタノ,奈良県吉野郡大淀町北野
6393126,奈良県,吉野郡大淀町,新野,ナラケン,ヨシノグンオオヨドチョウ,ニノ,奈良県吉野郡大淀町新野
6393127,奈良県,吉野郡大淀町,馬佐,ナラケン,ヨシノグンオオヨドチョウ,バサ,奈良県吉野郡大淀町馬佐
6393128,奈良県,吉野郡大淀町,比曽,ナラケン,ヨシノグンオオヨドチョウ,ヒソ,奈良県吉野郡大淀町比曽
6393321,奈良県,吉野郡吉野町,三茶屋,ナラケン,ヨシノグンヨシノチョウ,ミツチャヤ,奈良県吉野郡吉野町三茶屋
6393322,奈良県,吉野郡吉野町,小名,ナラケン,ヨシノグンヨシノチョウ,コナ,奈良県吉野郡吉野町小名
6393323,奈良県,吉野郡吉野町,色生,ナラケン,ヨシノグンヨシノチョウ,イロウ,奈良県吉野郡吉野町色生
6393324,奈良県,吉野郡吉野町,香束,ナラケン,ヨシノグンヨシノチョウ,コウソク,奈良県吉野郡吉野町香束
6393325,奈良県,吉野郡吉野町,柳,ナラケン,ヨシノグンヨシノチョウ,ヤナギ,奈良県吉野郡吉野町柳
6393431,奈良県,吉野郡吉野町,入野,ナラケン,ヨシノグンヨシノチョウ,シオノ,奈良県吉野郡吉野町入野
6393432,奈良県,吉野郡吉野町,窪垣内,ナラケン,ヨシノグンヨシノチョウ,クボガイト,奈良県吉野郡吉野町窪垣内
6393433,奈良県,吉野郡吉野町,新子,ナラケン,ヨシノグンヨシノチョウ,アタラシ,奈良県吉野郡吉野町新子
6393434,奈良県,吉野郡吉野町,国栖,ナラケン,ヨシノグンヨシノチョウ,クズ,奈良県吉野郡吉野町国栖
6393435,奈良県,吉野郡吉野町,南国栖,ナラケン,ヨシノグンヨシノチョウ,ミナミクズ,奈良県吉野郡吉野町南国栖
6393436,奈良県,吉野郡吉野町,樫尾,ナラケン,ヨシノグンヨシノチョウ,カシオ,奈良県吉野郡吉野町樫尾
6393437,奈良県,吉野郡吉野町,南大野,ナラケン,ヨシノグンヨシノチョウ,ミナミオオノ,奈良県吉野郡吉野町南大野
6393441,奈良県,吉野郡吉野町,矢治,ナラケン,ヨシノグンヨシノチョウ,ヤジ,奈良県吉野郡吉野町矢治
6393442,奈良県,吉野郡吉野町,喜佐谷,ナラケン,ヨシノグンヨシノチョウ,キサダニ,奈良県吉野郡吉野町喜佐谷
6393443,奈良県,吉野郡吉野町,宮滝,ナラケン,ヨシノグンヨシノチョウ,ミヤタキ,奈良県吉野郡吉野町宮滝
6393444,奈良県,吉野郡吉野町,御園,ナラケン,ヨシノグンヨシノチョウ,ミソノ,奈良県吉野郡吉野町御園
6393445,奈良県,吉野郡吉野町,楢井,ナラケン,ヨシノグンヨシノチョウ,ナライ,奈良県吉野郡吉野町楢井
6393446,奈良県,吉野郡吉野町,菜摘,ナラケン,ヨシノグンヨシノチョウ,ナツミ,奈良県吉野郡吉野町菜摘
6393500,奈良県,吉野郡川上村,,ナラケン,ヨシノグンカワカミムラ,,奈良県吉野郡川上村
6393541,奈良県,吉野郡川上村,東川,ナラケン,ヨシノグンカワカミムラ,ウノガワ,奈良県吉野郡川上村東川
6393542,奈良県,吉野郡川上村,西河,ナラケン,ヨシノグンカワカミムラ,ニシガワ,奈良県吉野郡川上村西河
6393543,奈良県,吉野郡川上村,大滝,ナラケン,ヨシノグンカワカミムラ,オオタキ,奈良県吉野郡川上村大滝
6393551,奈良県,吉野郡川上村,寺尾,ナラケン,ヨシノグンカワカミムラ,テラオ,奈良県吉野郡川上村寺尾
6393552,奈良県,吉野郡川上村,北塩谷,ナラケン,ヨシノグンカワカミムラ,キタシオダニ,奈良県吉野郡川上村北塩谷
6393553,奈良県,吉野郡川上村,迫,ナラケン,ヨシノグンカワカミムラ,サコ,奈良県吉野郡川上村迫
6393554,奈良県,吉野郡川上村,高原,ナラケン,ヨシノグンカワカミムラ,タカハラ,奈良県吉野郡川上村高原
6393555,奈良県,吉野郡川上村,白屋,ナラケン,ヨシノグンカワカミムラ,シラヤ,奈良県吉野郡川上村白屋
6393556,奈良県,吉野郡川上村,高原土場,ナラケン,ヨシノグンカワカミムラ,タカハラドバ,奈良県吉野郡川上村高原土場
6393557,奈良県,吉野郡川上村,人知,ナラケン,ヨシノグンカワカミムラ,ヒトジ,奈良県吉野郡川上村人知
6393558,奈良県,吉野郡川上村,井戸（その他）,ナラケン,ヨシノグンカワカミムラ,イド(ソノタ),奈良県吉野郡川上村井戸（その他）
6393601,奈良県,吉野郡川上村,柏木,ナラケン,ヨシノグンカワカミムラ,カシワギ,奈良県吉野郡川上村柏木
6393602,奈良県,吉野郡川上村,上多古,ナラケン,ヨシノグンカワカミムラ,コウダコ,奈良県吉野郡川上村上多古
6393603,奈良県,吉野郡川上村,北和田,ナラケン,ヨシノグンカワカミムラ,キタワダ,奈良県吉野郡川上村北和田
6393604,奈良県,吉野郡川上村,上谷,ナラケン,ヨシノグンカワカミムラ,コウダニ,奈良県吉野郡川上村上谷
6393611,奈良県,吉野郡川上村,入之波,ナラケン,ヨシノグンカワカミムラ,シオノハ,奈良県吉野郡川上村入之波
6393612,奈良県,吉野郡川上村,大迫,ナラケン,ヨシノグンカワカミムラ,オオサコ,奈良県吉野郡川上村大迫
6393613,奈良県,吉野郡川上村,伯母谷,ナラケン,ヨシノグンカワカミムラ,オバタニ,奈良県吉野郡川上村伯母谷
6393621,奈良県,吉野郡川上村,下多古,ナラケン,ヨシノグンカワカミムラ,シモタコ,奈良県吉野郡川上村下多古
6393622,奈良県,吉野郡川上村,井戸（ネジ畑）,ナラケン,ヨシノグンカワカミムラ,イド(ネジバタ),奈良県吉野郡川上村井戸（ネジ畑）
6393622,奈良県,吉野郡川上村,武木,ナラケン,ヨシノグンカワカミムラ,タキギ,奈良県吉野郡川上村武木
6393623,奈良県,吉野郡川上村,井光,ナラケン,ヨシノグンカワカミムラ,イカリ,奈良県吉野郡川上村井光
6393631,奈良県,吉野郡川上村,白川渡,ナラケン,ヨシノグンカワカミムラ,シラカワド,奈良県吉野郡川上村白川渡
6393632,奈良県,吉野郡川上村,枌尾,ナラケン,ヨシノグンカワカミムラ,ソギオ,奈良県吉野郡川上村枌尾
6393633,奈良県,吉野郡川上村,中奥,ナラケン,ヨシノグンカワカミムラ,ナカオク,奈良県吉野郡川上村中奥
6393634,奈良県,吉野郡川上村,瀬戸,ナラケン,ヨシノグンカワカミムラ,セト,奈良県吉野郡川上村瀬戸
6393635,奈良県,吉野郡川上村,神之谷,ナラケン,ヨシノグンカワカミムラ,コウノタニ,奈良県吉野郡川上村神之谷
6393700,奈良県,吉野郡上北山村,,ナラケン,ヨシノグンカミキタヤマムラ,,奈良県吉野郡上北山村
6393701,奈良県,吉野郡上北山村,河合,ナラケン,ヨシノグンカミキタヤマムラ,カワイ,奈良県吉野郡上北山村河合
6393702,奈良県,吉野郡上北山村,小橡,ナラケン,ヨシノグンカミキタヤマムラ,コトチ,奈良県吉野郡上北山村小橡
6393703,奈良県,吉野郡上北山村,白川,ナラケン,ヨシノグンカミキタヤマムラ,シラカワ,奈良県吉野郡上北山村白川
6393704,奈良県,吉野郡上北山村,西原,ナラケン,ヨシノグンカミキタヤマムラ,ニシハラ,奈良県吉野郡上北山村西原
6393705,奈良県,吉野郡上北山村,東ノ川,ナラケン,ヨシノグンカミキタヤマムラ,ヒガシノカワ,奈良県吉野郡上北山村東ノ川
6393800,奈良県,吉野郡下北山村,,ナラケン,ヨシノグンシモキタヤマムラ,,奈良県吉野郡下北山村
6393801,奈良県,吉野郡下北山村,佐田,ナラケン,ヨシノグンシモキタヤマムラ,サダ,奈良県吉野郡下北山村佐田
6393802,奈良県,吉野郡下北山村,浦向,ナラケン,ヨシノグンシモキタヤマムラ,ウラムカイ,奈良県吉野郡下北山村浦向
6393803,奈良県,吉野郡下北山村,寺垣内,ナラケン,ヨシノグンシモキタヤマムラ,テラガイト,奈良県吉野郡下北山村寺垣内
6393804,奈良県,吉野郡下北山村,池峰,ナラケン,ヨシノグンシモキタヤマムラ,イケミネ,奈良県吉野郡下北山村池峰
6393805,奈良県,吉野郡下北山村,上池原,ナラケン,ヨシノグンシモキタヤマムラ,カミイケハラ,奈良県吉野郡下北山村上池原
6393806,奈良県,吉野郡下北山村,下池原,ナラケン,ヨシノグンシモキタヤマムラ,シモイケハラ,奈良県吉野郡下北山村下池原
6393807,奈良県,吉野郡下北山村,下桑原,ナラケン,ヨシノグンシモキタヤマムラ,シモクワハラ,奈良県吉野郡下北山村下桑原
6393808,奈良県,吉野郡下北山村,上桑原,ナラケン,ヨシノグンシモキタヤマムラ,カミクワハラ,奈良県吉野郡下北山村上桑原
6393809,奈良県,吉野郡下北山村,前鬼,ナラケン,ヨシノグンシモキタヤマムラ,ゼンキ,奈良県吉野郡下北山村前鬼
6471271,奈良県,吉野郡十津川村,竹筒,ナラケン,ヨシノグントツカワムラ,タケトウ,奈良県吉野郡十津川村竹筒
6471581,奈良県,吉野郡十津川村,神下,ナラケン,ヨシノグントツカワムラ,コウカ,奈良県吉野郡十津川村神下
6471582,奈良県,吉野郡十津川村,玉置川,ナラケン,ヨシノグントツカワムラ,タマイガワ,奈良県吉野郡十津川村玉置川
6471583,奈良県,吉野郡十津川村,東中,ナラケン,ヨシノグントツカワムラ,ヒガシナカ,奈良県吉野郡十津川村東中
6471584,奈良県,吉野郡十津川村,上葛川,ナラケン,ヨシノグントツカワムラ,カミクズガワ,奈良県吉野郡十津川村上葛川
6480300,奈良県,吉野郡野迫川村,,ナラケン,ヨシノグンノセガワムラ,,奈良県吉野郡野迫川村
6480301,奈良県,吉野郡野迫川村,池津川,ナラケン,ヨシノグンノセガワムラ,イケツカワ,奈良県吉野郡野迫川村池津川
6480302,奈良県,吉野郡野迫川村,紫園,ナラケン,ヨシノグンノセガワムラ,シオン,奈良県吉野郡野迫川村紫園
6480303,奈良県,吉野郡野迫川村,中津川,ナラケン,ヨシノグンノセガワムラ,ナカツガワ,奈良県吉野郡野迫川村中津川
6480304,奈良県,吉野郡野迫川村,立里,ナラケン,ヨシノグンノセガワムラ,タテリ,奈良県吉野郡野迫川村立里
6480305,奈良県,吉野郡野迫川村,北股,ナラケン,ヨシノグンノセガワムラ,キタマタ,奈良県吉野郡野迫川村北股
6480306,奈良県,吉野郡野迫川村,平,ナラケン,ヨシノグンノセガワムラ,タイラ,奈良県吉野郡野迫川村平
6480307,奈良県,吉野郡野迫川村,北今西,ナラケン,ヨシノグンノセガワムラ,キタイマニシ,奈良県吉野郡野迫川村北今西
6480308,奈良県,吉野郡野迫川村,桧股,ナラケン,ヨシノグンノセガワムラ,ヒノキマタ,奈良県吉野郡野迫川村桧股
6480309,奈良県,吉野郡野迫川村,弓手原,ナラケン,ヨシノグンノセガワムラ,ユミテハラ,奈良県吉野郡野迫川村弓手原
