zipcode,prefecture_name,city,town,prefecture_kana,city_kana,town_kana,normalized_address
0200000,岩手県,盛岡市,,イワテケン,モリオカシ,,岩手県盛岡市
0200001,岩手県,盛岡市,上米内,イワテケン,モリオカシ,カミヨナイ,岩手県盛岡市上米内
0200002,岩手県,盛岡市,桜台,イワテケン,モリオカシ,サクラダイ,岩手県盛岡市桜台
0200003,岩手県,盛岡市,下米内,イワテケン,モリオカシ,シモヨナイ,岩手県盛岡市下米内
0200004,岩手県,盛岡市,山岸,イワテケン,モリオカシ,ヤマギシ,岩手県盛岡市山岸
0200005,岩手県,盛岡市,紅葉が丘,イワテケン,モリオカシ,モミジガオカ,岩手県盛岡市紅葉が丘
0200011,岩手県,盛岡市,三ツ割,イワテケン,モリオカシ,ミツワリ,岩手県盛岡市三ツ割
0200012,岩手県,盛岡市,岩清水,イワテケン,モリオカシ,イワシミズ,岩手県盛岡市岩清水
0200013,岩手県,盛岡市,愛宕町,イワテケン,モリオカシ,アタゴチョウ,岩手県盛岡市愛宕町
0200014,岩手県,盛岡市,愛宕下,イワテケン,モリオカシ,アタゴシタ,岩手県盛岡市愛宕下
0200015,岩手県,盛岡市,本町通,イワテケン,モリオカシ,ホンチョウドオリ,岩手県盛岡市本町通
0200016,岩手県,盛岡市,名須川町,イワテケン,モリオカシ,ナスカワチョウ,岩手県盛岡市名須川町
0200021,岩手県,盛岡市,中央通,イワテケン,モリオカシ,チュウオウドオリ,岩手県盛岡市中央通
0200022,岩手県,盛岡市,大通,イワテケン,モリオカシ,オオドオリ,岩手県盛岡市大通
0200023,岩手県,盛岡市,内丸,イワテケン,モリオカシ,ウチマル,岩手県盛岡市内丸
0200024,岩手県,盛岡市,菜園,イワテケン,モリオカシ,サイエン,岩手県盛岡市菜園
0200025,岩手県,盛岡市,大沢川原,イワテケン,モリオカシ,オオサワカワラ,岩手県盛岡市大沢川原
0200026,岩手県,盛岡市,開運橋通,イワテケン,モリオカシ,カイウンバシドオリ,岩手県盛岡市開運橋通
0200031,岩手県,盛岡市,北夕顔瀬町,イワテケン,モリオカシ,キタユウガオセチョウ,岩手県盛岡市北夕顔瀬町
0200032,岩手県,盛岡市,夕顔瀬町,イワテケン,モリオカシ,ユウガオセチョウ,岩手県盛岡市夕顔瀬町
0200033,岩手県,盛岡市,盛岡駅前北通,イワテケン,モリオカシ,モリオカエキマエキタドオリ,岩手県盛岡市盛岡駅前北通
0200034,岩手県,盛岡市,盛岡駅前通,イワテケン,モリオカシ,モリオカエキマエドオリ,岩手県盛岡市盛岡駅前通
0200041,岩手県,盛岡市,境田町,イワテケン,モリオカシ,サカイダチョウ,岩手県盛岡市境田町
0200042,岩手県,盛岡市,新田町,イワテケン,モリオカシ,シンデンチョウ,岩手県盛岡市新田町
0200043,岩手県,盛岡市,中川町,イワテケン,モリオカシ,ナカガワチョウ,岩手県盛岡市中川町
0200044,岩手県,盛岡市,城西町,イワテケン,モリオカシ,ジョウセイチョウ,岩手県盛岡市城西町
0200045,岩手県,盛岡市,盛岡駅西通,イワテケン,モリオカシ,モリオカエキニシトオリ,岩手県盛岡市盛岡駅西通
0200051,岩手県,盛岡市,下太田,イワテケン,モリオカシ,シモオオタ,岩手県盛岡市下太田
0200052,岩手県,盛岡市,中太田,イワテケン,モリオカシ,ナカオオタ,岩手県盛岡市中太田
0200053,岩手県,盛岡市,上太田,イワテケン,モリオカシ,カミオオタ,岩手県盛岡市上太田
0200054,岩手県,盛岡市,猪去,イワテケン,モリオカシ,イサリ,岩手県盛岡市猪去
0200055,岩手県,盛岡市,繋,イワテケン,モリオカシ,ツナギ,岩手県盛岡市繋
0200061,岩手県,盛岡市,北山,イワテケン,モリオカシ,キタヤマ,岩手県盛岡市北山
0200062,岩手県,盛岡市,長田町,イワテケン,モリオカシ,ナガタチョウ,岩手県盛岡市長田町
0200063,岩手県,盛岡市,材木町,イワテケン,モリオカシ,ザイモクチョウ,岩手県盛岡市材木町
0200064,岩手県,盛岡市,梨木町,イワテケン,モリオカシ,ナシノキチョウ,岩手県盛岡市梨木町
0200065,岩手県,盛岡市,西下台町,イワテケン,モリオカシ,ニシシタダイチョウ,岩手県盛岡市西下台町
0200066,岩手県,盛岡市,上田（１〜４丁目、北山）,イワテケン,モリオカシ,ウエダ(1-4チョウメ、キタヤマ),岩手県盛岡市上田（1〜4-、北山）
0200101,岩手県,盛岡市,岩脇町,イワテケン,モリオカシ,イワワキチョウ,岩手県盛岡市岩脇町
0200102,岩手県,盛岡市,上田（その他）,イワテケン,モリオカシ,ウエダ(ソノタ),岩手県盛岡市上田（その他）
0200103,岩手県,盛岡市,西松園,イワテケン,モリオカシ,ニシマツゾノ,岩手県盛岡市西松園
0200104,岩手県,盛岡市,小鳥沢,イワテケン,モリオカシ,コトリザワ,岩手県盛岡市小鳥沢
0200105,岩手県,盛岡市,北松園,イワテケン,モリオカシ,キタマツゾノ,岩手県盛岡市北松園
0200106,岩手県,盛岡市,東松園,イワテケン,モリオカシ,ヒガシマツゾノ,岩手県盛岡市東松園
0200107,岩手県,盛岡市,松園,イワテケン,モリオカシ,マツゾノ,岩手県盛岡市松園
0200108,岩手県,盛岡市,東黒石野,イワテケン,モリオカシ,ヒガシクロイシノ,岩手県盛岡市東黒石野
0200111,岩手県,盛岡市,黒石野,イワテケン,モリオカシ,クロイシノ,岩手県盛岡市黒石野
0200112,岩手県,盛岡市,東緑が丘,イワテケン,モリオカシ,ヒガシミドリガオカ,岩手県盛岡市東緑が丘
0200113,岩手県,盛岡市,上田堤,イワテケン,モリオカシ,ウエダツツミ,岩手県盛岡市上田堤
0200114,岩手県,盛岡市,高松,イワテケン,モリオカシ,タカマツ,岩手県盛岡市高松
0200115,岩手県,盛岡市,館向町,イワテケン,モリオカシ,タテムカイチョウ,岩手県盛岡市館向町
0200116,岩手県,盛岡市,箱清水,イワテケン,モリオカシ,ハコシミズ,岩手県盛岡市箱清水
0200117,岩手県,盛岡市,緑が丘,イワテケン,モリオカシ,ミドリガオカ,岩手県盛岡市緑が丘
0200121,岩手県,盛岡市,月が丘,イワテケン,モリオカシ,ツキガオカ,岩手県盛岡市月が丘
0200122,岩手県,盛岡市,みたけ,イワテケン,モリオカシ,ミタケ,岩手県盛岡市みたけ
0200123,岩手県,盛岡市,下厨川,イワテケン,モリオカシ,シモクリヤガワ,岩手県盛岡市下厨川
0200124,岩手県,盛岡市,厨川,イワテケン,モリオカシ,クリヤガワ,岩手県盛岡市厨川
0200125,岩手県,盛岡市,上堂,イワテケン,モリオカシ,カミドウ,岩手県盛岡市上堂
0200126,岩手県,盛岡市,安倍館町,イワテケン,モリオカシ,アベタテチョウ,岩手県盛岡市安倍館町
0200127,岩手県,盛岡市,前九年,イワテケン,モリオカシ,ゼンクネン,岩手県盛岡市前九年
0200131,岩手県,盛岡市,中堤町,イワテケン,モリオカシ,ナカツツミチョウ,岩手県盛岡市中堤町
0200132,岩手県,盛岡市,西青山,イワテケン,モリオカシ,ニシアオヤマ,岩手県盛岡市西青山
0200133,岩手県,盛岡市,青山,イワテケン,モリオカシ,アオヤマ,岩手県盛岡市青山
0200134,岩手県,盛岡市,南青山町,イワテケン,モリオカシ,ミナミアオヤマチョウ,岩手県盛岡市南青山町
0200135,岩手県,盛岡市,大新町,イワテケン,モリオカシ,ダイシンチョウ,岩手県盛岡市大新町
0200136,岩手県,盛岡市,北天昌寺町,イワテケン,モリオカシ,キタテンショウジチョウ,岩手県盛岡市北天昌寺町
0200137,岩手県,盛岡市,天昌寺町,イワテケン,モリオカシ,テンショウジチョウ,岩手県盛岡市天昌寺町
0200141,岩手県,盛岡市,中屋敷町,イワテケン,モリオカシ,ナカヤシキチョウ,岩手県盛岡市中屋敷町
0200142,岩手県,盛岡市,稲荷町,イワテケン,モリオカシ,イナリチョウ,岩手県盛岡市稲荷町
0200143,岩手県,盛岡市,上厨川,イワテケン,モリオカシ,カミクリヤガワ,岩手県盛岡市上厨川
0200144,岩手県,盛岡市,土淵,イワテケン,モリオカシ,ツチブチ,岩手県盛岡市土淵
0200145,岩手県,盛岡市,平賀新田,イワテケン,モリオカシ,ヒラカシンデン,岩手県盛岡市平賀新田
0200146,岩手県,盛岡市,長橋町,イワテケン,モリオカシ,ナガハシチョウ,岩手県盛岡市長橋町
0200147,岩手県,盛岡市,大館町,イワテケン,モリオカシ,オオダテチョウ,岩手県盛岡市大館町
0200148,岩手県,盛岡市,前潟,イワテケン,モリオカシ,マエガタ,岩手県盛岡市前潟
0200201,岩手県,盛岡市,日戸,イワテケン,モリオカシ,ヒノト,岩手県盛岡市日戸
0200202,岩手県,盛岡市,玉山,イワテケン,モリオカシ,タマヤマ,岩手県盛岡市玉山
0200203,岩手県,盛岡市,川又,イワテケン,モリオカシ,カワマタ,岩手県盛岡市川又
0200204,岩手県,盛岡市,上田（糠森、小野松）,イワテケン,モリオカシ,ウエダ(ヌカモリ、オノマツ),岩手県盛岡市上田（糠森、小野松）
0200311,岩手県,盛岡市,簗川,イワテケン,モリオカシ,ヤナガワ,岩手県盛岡市簗川
0200312,岩手県,盛岡市,砂子沢,イワテケン,モリオカシ,イサゴザワ,岩手県盛岡市砂子沢
0200313,岩手県,盛岡市,根田茂,イワテケン,モリオカシ,ネダモ,岩手県盛岡市根田茂
0200401,岩手県,盛岡市,手代森,イワテケン,モリオカシ,テシロモリ,岩手県盛岡市手代森
0200402,岩手県,盛岡市,黒川,イワテケン,モリオカシ,クロカワ,岩手県盛岡市黒川
0200403,岩手県,盛岡市,乙部,イワテケン,モリオカシ,オトベ,岩手県盛岡市乙部
0200404,岩手県,盛岡市,大ケ生,イワテケン,モリオカシ,オオガユウ,岩手県盛岡市大ケ生
0200500,岩手県,岩手郡雫石町,,イワテケン,イワテグンシズクイシチョウ,,岩手県岩手郡雫石町
0200501,岩手県,岩手郡雫石町,仁佐瀬,イワテケン,イワテグンシズクイシチョウ,ニサセ,岩手県岩手郡雫石町仁佐瀬
0200502,岩手県,岩手郡雫石町,板橋,イワテケン,イワテグンシズクイシチョウ,イタバシ,岩手県岩手郡雫石町板橋
0200503,岩手県,岩手郡雫石町,七ツ森,イワテケン,イワテグンシズクイシチョウ,ナナツモリ,岩手県岩手郡雫石町七ツ森
0200504,岩手県,岩手郡雫石町,中沼,イワテケン,イワテグンシズクイシチョウ,ナカヌマ,岩手県岩手郡雫石町中沼
0200505,岩手県,岩手郡雫石町,中黒沢川,イワテケン,イワテグンシズクイシチョウ,ナカクロサワガワ,岩手県岩手郡雫石町中黒沢川
0200506,岩手県,岩手郡雫石町,沼返,イワテケン,イワテグンシズクイシチョウ,ヌマガエシ,岩手県岩手郡雫石町沼返
0200507,岩手県,岩手郡雫石町,丸谷地,イワテケン,イワテグンシズクイシチョウ,マルヤチ,岩手県岩手郡雫石町丸谷地
0200511,岩手県,岩手郡雫石町,長畑,イワテケン,イワテグンシズクイシチョウ,ナガハタ,岩手県岩手郡雫石町長畑
0200512,岩手県,岩手郡雫石町,塩ケ森,イワテケン,イワテグンシズクイシチョウ,シオガモリ,岩手県岩手郡雫石町塩ケ森
0200513,岩手県,岩手郡雫石町,下兎野,イワテケン,イワテグンシズクイシチョウ,シモウサギノ,岩手県岩手郡雫石町下兎野
0200514,岩手県,岩手郡雫石町,野中,イワテケン,イワテグンシズクイシチョウ,ノナカ,岩手県岩手郡雫石町野中
0200515,岩手県,岩手郡雫石町,下長根,イワテケン,イワテグンシズクイシチョウ,シモナガネ,岩手県岩手郡雫石町下長根
0200517,岩手県,岩手郡雫石町,黒沢川,イワテケン,イワテグンシズクイシチョウ,クロサワガワ,岩手県岩手郡雫石町黒沢川
0200520,岩手県,岩手郡雫石町,下町東,イワテケン,イワテグンシズクイシチョウ,シモマチヒガシ,岩手県岩手郡雫石町下町東
0200521,岩手県,岩手郡雫石町,麁津田,イワテケン,イワテグンシズクイシチョウ,ソツダ,岩手県岩手郡雫石町麁津田
0200522,岩手県,岩手郡雫石町,下久保,イワテケン,イワテグンシズクイシチョウ,シモクボ,岩手県岩手郡雫石町下久保
0200523,岩手県,岩手郡雫石町,根堀,イワテケン,イワテグンシズクイシチョウ,ネホリ,岩手県岩手郡雫石町根堀
0200524,岩手県,岩手郡雫石町,寺の下,イワテケン,イワテグンシズクイシチョウ,テラノシタ,岩手県岩手郡雫石町寺の下
0200525,岩手県,岩手郡雫石町,源大堂,イワテケン,イワテグンシズクイシチョウ,ゲンダイドウ,岩手県岩手郡雫石町源大堂
0200527,岩手県,岩手郡雫石町,中町,イワテケン,イワテグンシズクイシチョウ,ナカマチ,岩手県岩手郡雫石町中町
0200528,岩手県,岩手郡雫石町,下町,イワテケン,イワテグンシズクイシチョウ,シモマチ,岩手県岩手郡雫石町下町
0200529,岩手県,岩手郡雫石町,下町西,イワテケン,イワテグンシズクイシチョウ,シモマチニシ,岩手県岩手郡雫石町下町西
0200530,岩手県,岩手郡雫石町,上町南,イワテケン,イワテグンシズクイシチョウ,カミマチミナミ,岩手県岩手郡雫石町上町南
0200531,岩手県,岩手郡雫石町,麻見田,イワテケン,イワテグンシズクイシチョウ,マミダ,岩手県岩手郡雫石町麻見田
0200532,岩手県,岩手郡雫石町,払川,イワテケン,イワテグンシズクイシチョウ,ハライガワ,岩手県岩手郡雫石町払川
0200533,岩手県,岩手郡雫石町,林,イワテケン,イワテグンシズクイシチョウ,ハヤシ,岩手県岩手郡雫石町林
0200534,岩手県,岩手郡雫石町,川原,イワテケン,イワテグンシズクイシチョウ,カワハラ,岩手県岩手郡雫石町川原
0200535,岩手県,岩手郡雫石町,小日谷地,イワテケン,イワテグンシズクイシチョウ,コビヤチ,岩手県岩手郡雫石町小日谷地
0200536,岩手県,岩手郡雫石町,八卦,イワテケン,イワテグンシズクイシチョウ,ハツケ,岩手県岩手郡雫石町八卦
0200537,岩手県,岩手郡雫石町,上町西,イワテケン,イワテグンシズクイシチョウ,カミマチニシ,岩手県岩手郡雫石町上町西
0200538,岩手県,岩手郡雫石町,上町北,イワテケン,イワテグンシズクイシチョウ,カミマチキタ,岩手県岩手郡雫石町上町北
0200539,岩手県,岩手郡雫石町,上町東,イワテケン,イワテグンシズクイシチョウ,カミマチヒガシ,岩手県岩手郡雫石町上町東
0200541,岩手県,岩手郡雫石町,千刈田,イワテケン,イワテグンシズクイシチョウ,センガリダ,岩手県岩手郡雫石町千刈田
0200542,岩手県,岩手郡雫石町,万田渡,イワテケン,イワテグンシズクイシチョウ,マンダワタリ,岩手県岩手郡雫石町万田渡
0200543,岩手県,岩手郡雫石町,高前田,イワテケン,イワテグンシズクイシチョウ,タカマエダ,岩手県岩手郡雫石町高前田
0200544,岩手県,岩手郡雫石町,柿木,イワテケン,イワテグンシズクイシチョウ,カキキ,岩手県岩手郡雫石町柿木
0200545,岩手県,岩手郡雫石町,谷地,イワテケン,イワテグンシズクイシチョウ,ヤチ,岩手県岩手郡雫石町谷地
0200546,岩手県,岩手郡雫石町,稲荷下,イワテケン,イワテグンシズクイシチョウ,イナリシタ,岩手県岩手郡雫石町稲荷下
0200547,岩手県,岩手郡雫石町,晴山,イワテケン,イワテグンシズクイシチョウ,ハレヤマ,岩手県岩手郡雫石町晴山
0200551,岩手県,岩手郡雫石町,笹森,イワテケン,イワテグンシズクイシチョウ,ササモリ,岩手県岩手郡雫石町笹森
0200552,岩手県,岩手郡雫石町,下平,イワテケン,イワテグンシズクイシチョウ,シモダイラ,岩手県岩手郡雫石町下平
0200553,岩手県,岩手郡雫石町,下曽根田,イワテケン,イワテグンシズクイシチョウ,シモソネダ,岩手県岩手郡雫石町下曽根田
0200554,岩手県,岩手郡雫石町,町裏,イワテケン,イワテグンシズクイシチョウ,マチウラ,岩手県岩手郡雫石町町裏
0200555,岩手県,岩手郡雫石町,上曽根田,イワテケン,イワテグンシズクイシチョウ,カミソネダ,岩手県岩手郡雫石町上曽根田
0200556,岩手県,岩手郡雫石町,名子,イワテケン,イワテグンシズクイシチョウ,ナゴ,岩手県岩手郡雫石町名子
0200557,岩手県,岩手郡雫石町,上平,イワテケン,イワテグンシズクイシチョウ,カミダイラ,岩手県岩手郡雫石町上平
0200558,岩手県,岩手郡雫石町,下笹森,イワテケン,イワテグンシズクイシチョウ,シモササモリ,岩手県岩手郡雫石町下笹森
0200559,岩手県,岩手郡雫石町,上笹森,イワテケン,イワテグンシズクイシチョウ,カミササモリ,岩手県岩手郡雫石町上笹森
0200571,岩手県,岩手郡雫石町,繋,イワテケン,イワテグンシズクイシチョウ,ツナギ,岩手県岩手郡雫石町繋
0200572,岩手県,岩手郡雫石町,西安庭,イワテケン,イワテグンシズクイシチョウ,ニシアニワ,岩手県岩手郡雫石町西安庭
0200573,岩手県,岩手郡雫石町,南畑,イワテケン,イワテグンシズクイシチョウ,ミナミハタ,岩手県岩手郡雫石町南畑
0200574,岩手県,岩手郡雫石町,鴬宿,イワテケン,イワテグンシズクイシチョウ,オウシュク,岩手県岩手郡雫石町鴬宿
0200581,岩手県,岩手郡雫石町,御明神,イワテケン,イワテグンシズクイシチョウ,オミョウジン,岩手県岩手郡雫石町御明神
0200582,岩手県,岩手郡雫石町,橋場,イワテケン,イワテグンシズクイシチョウ,ハシバ,岩手県岩手郡雫石町橋場
0200583,岩手県,岩手郡雫石町,上野,イワテケン,イワテグンシズクイシチョウ,ウワノ,岩手県岩手郡雫石町上野
0200584,岩手県,岩手郡雫石町,西根,イワテケン,イワテグンシズクイシチョウ,ニシネ,岩手県岩手郡雫石町西根
0200585,岩手県,岩手郡雫石町,長山,イワテケン,イワテグンシズクイシチョウ,ナガヤマ,岩手県岩手郡雫石町長山
0200600,岩手県,滝沢市,,イワテケン,タキザワシ,,岩手県滝沢市
0200601,岩手県,滝沢市,後,イワテケン,タキザワシ,ウシロ,岩手県滝沢市後
0200602,岩手県,滝沢市,大森平,イワテケン,タキザワシ,オオモリダイラ,岩手県滝沢市大森平
0200603,岩手県,滝沢市,留が森,イワテケン,タキザワシ,トメガモリ,岩手県滝沢市留が森
0200604,岩手県,滝沢市,一本木,イワテケン,タキザワシ,イッポンギ,岩手県滝沢市一本木
0200605,岩手県,滝沢市,砂込,イワテケン,タキザワシ,スナコミ,岩手県滝沢市砂込
0200606,岩手県,滝沢市,加賀内,イワテケン,タキザワシ,カガナイ,岩手県滝沢市加賀内
0200607,岩手県,滝沢市,弥兵エ林,イワテケン,タキザワシ,ヤヘイバヤシ,岩手県滝沢市弥兵エ林
0200608,岩手県,滝沢市,長太郎林,イワテケン,タキザワシ,チョウタロウバヤシ,岩手県滝沢市長太郎林
0200609,岩手県,滝沢市,柳原,イワテケン,タキザワシ,ヤナギハラ,岩手県滝沢市柳原
0200611,岩手県,滝沢市,巣子,イワテケン,タキザワシ,スゴ,岩手県滝沢市巣子
0200612,岩手県,滝沢市,柳沢,イワテケン,タキザワシ,ヤナギサワ,岩手県滝沢市柳沢
0200613,岩手県,滝沢市,大石渡,イワテケン,タキザワシ,オオイシワタリ,岩手県滝沢市大石渡
0200614,岩手県,滝沢市,上中村,イワテケン,タキザワシ,カミナカムラ,岩手県滝沢市上中村
0200615,岩手県,滝沢市,卯遠坂,イワテケン,タキザワシ,ウトウザカ,岩手県滝沢市卯遠坂
0200616,岩手県,滝沢市,木賊川,イワテケン,タキザワシ,トクサガワ,岩手県滝沢市木賊川
0200617,岩手県,滝沢市,湯舟沢,イワテケン,タキザワシ,ユブネザワ,岩手県滝沢市湯舟沢
0200618,岩手県,滝沢市,岩手山,イワテケン,タキザワシ,イワテサン,岩手県滝沢市岩手山
0200619,岩手県,滝沢市,上岩手山,イワテケン,タキザワシ,カミイワテサン,岩手県滝沢市上岩手山
0200621,岩手県,滝沢市,大崎,イワテケン,タキザワシ,オオサキ,岩手県滝沢市大崎
0200622,岩手県,滝沢市,野沢,イワテケン,タキザワシ,ノザワ,岩手県滝沢市野沢
0200623,岩手県,滝沢市,楢の木沢,イワテケン,タキザワシ,ナラノキサワ,岩手県滝沢市楢の木沢
0200624,岩手県,滝沢市,妻の神,イワテケン,タキザワシ,サイノカミ,岩手県滝沢市妻の神
0200625,岩手県,滝沢市,葉の木沢山,イワテケン,タキザワシ,ハノキサワヤマ,岩手県滝沢市葉の木沢山
0200626,岩手県,滝沢市,明神平,イワテケン,タキザワシ,ミョウジンダイラ,岩手県滝沢市明神平
0200627,岩手県,滝沢市,狼久保,イワテケン,タキザワシ,オイノクボ,岩手県滝沢市狼久保
0200631,岩手県,滝沢市,根堀坂,イワテケン,タキザワシ,ネホリザカ,岩手県滝沢市根堀坂
0200632,岩手県,滝沢市,牧野林,イワテケン,タキザワシ,マキノバヤシ,岩手県滝沢市牧野林
0200633,岩手県,滝沢市,穴口,イワテケン,タキザワシ,アナグチ,岩手県滝沢市穴口
0200634,岩手県,滝沢市,室小路,イワテケン,タキザワシ,ムロコウジ,岩手県滝沢市室小路
0200635,岩手県,滝沢市,耳取山,イワテケン,タキザワシ,ミミトリヤマ,岩手県滝沢市耳取山
0200636,岩手県,滝沢市,大久保,イワテケン,タキザワシ,オオクボ,岩手県滝沢市大久保
0200637,岩手県,滝沢市,高屋敷平,イワテケン,タキザワシ,タカヤシキダイラ,岩手県滝沢市高屋敷平
0200638,岩手県,滝沢市,土沢,イワテケン,タキザワシ,ツチザワ,岩手県滝沢市土沢
0200641,岩手県,滝沢市,祢宜屋敷,イワテケン,タキザワシ,ネギヤシキ,岩手県滝沢市祢宜屋敷
0200642,岩手県,滝沢市,中村,イワテケン,タキザワシ,ナカムラ,岩手県滝沢市中村
0200643,岩手県,滝沢市,外山,イワテケン,タキザワシ,ソトヤマ,岩手県滝沢市外山
0200644,岩手県,滝沢市,平蔵沢,イワテケン,タキザワシ,ヘイゾウサワ,岩手県滝沢市平蔵沢
0200645,岩手県,滝沢市,高屋敷,イワテケン,タキザワシ,タカヤシキ,岩手県滝沢市高屋敷
0200646,岩手県,滝沢市,黒沢,イワテケン,タキザワシ,クロサワ,岩手県滝沢市黒沢
0200651,岩手県,滝沢市,鵜飼細谷地,イワテケン,タキザワシ,ウカイホソヤチ,岩手県滝沢市鵜飼細谷地
0200652,岩手県,滝沢市,鵜飼洞畑,イワテケン,タキザワシ,ウカイドウハタ,岩手県滝沢市鵜飼洞畑
0200653,岩手県,滝沢市,鵜飼迫,イワテケン,タキザワシ,ウカイハサマ,岩手県滝沢市鵜飼迫
0200654,岩手県,滝沢市,中鵜飼,イワテケン,タキザワシ,ナカウカイ,岩手県滝沢市中鵜飼
0200655,岩手県,滝沢市,鵜飼御庭田,イワテケン,タキザワシ,ウカイオニワダ,岩手県滝沢市鵜飼御庭田
0200656,岩手県,滝沢市,鵜飼上山,イワテケン,タキザワシ,ウカイカミノヤマ,岩手県滝沢市鵜飼上山
0200657,岩手県,滝沢市,鵜飼鰍森,イワテケン,タキザワシ,ウカイカジカモリ,岩手県滝沢市鵜飼鰍森
0200658,岩手県,滝沢市,鵜飼清水沢,イワテケン,タキザワシ,ウカイシミズサワ,岩手県滝沢市鵜飼清水沢
0200659,岩手県,滝沢市,鵜飼外久保,イワテケン,タキザワシ,ウカイソトクボ,岩手県滝沢市鵜飼外久保
0200661,岩手県,滝沢市,鵜飼白石,イワテケン,タキザワシ,ウカイシロイシ,岩手県滝沢市鵜飼白石
0200662,岩手県,滝沢市,鵜飼大緩,イワテケン,タキザワシ,ウカイオオダルミ,岩手県滝沢市鵜飼大緩
0200663,岩手県,滝沢市,鵜飼諸葛川,イワテケン,タキザワシ,ウカイモロクズガワ,岩手県滝沢市鵜飼諸葛川
0200664,岩手県,滝沢市,鵜飼笹森,イワテケン,タキザワシ,ウカイササモリ,岩手県滝沢市鵜飼笹森
0200665,岩手県,滝沢市,下鵜飼,イワテケン,タキザワシ,シモウカイ,岩手県滝沢市下鵜飼
0200666,岩手県,滝沢市,鵜飼先古川,イワテケン,タキザワシ,ウカイセンコガワ,岩手県滝沢市鵜飼先古川
0200667,岩手県,滝沢市,鵜飼向新田,イワテケン,タキザワシ,ウカイムカイシンデン,岩手県滝沢市鵜飼向新田
0200668,岩手県,滝沢市,鵜飼狐洞,イワテケン,タキザワシ,ウカイキツネホラ,岩手県滝沢市鵜飼狐洞
0200671,岩手県,滝沢市,鵜飼上高柳,イワテケン,タキザワシ,ウカイカミタカヤナギ,岩手県滝沢市鵜飼上高柳
0200672,岩手県,滝沢市,鵜飼下高柳,イワテケン,タキザワシ,ウカイシモタカヤナギ,岩手県滝沢市鵜飼下高柳
0200673,岩手県,滝沢市,鵜飼石留,イワテケン,タキザワシ,ウカイイシドメ,岩手県滝沢市鵜飼石留
0200674,岩手県,滝沢市,鵜飼高柳,イワテケン,タキザワシ,ウカイタカヤナギ,岩手県滝沢市鵜飼高柳
0200675,岩手県,滝沢市,鵜飼滝向,イワテケン,タキザワシ,ウカイタキムカイ,岩手県滝沢市鵜飼滝向
0200676,岩手県,滝沢市,鵜飼八人打,イワテケン,タキザワシ,ウカイハチニンウチ,岩手県滝沢市鵜飼八人打
0200677,岩手県,滝沢市,鵜飼樋の口,イワテケン,タキザワシ,ウカイトイノクチ,岩手県滝沢市鵜飼樋の口
0200678,岩手県,滝沢市,鵜飼年毛,イワテケン,タキザワシ,ウカイトシモウ,岩手県滝沢市鵜飼年毛
0200681,岩手県,滝沢市,鵜飼姥屋敷,イワテケン,タキザワシ,ウカイウバヤシキ,岩手県滝沢市鵜飼姥屋敷
0200682,岩手県,滝沢市,鵜飼臨安,イワテケン,タキザワシ,ウカイリンアン,岩手県滝沢市鵜飼臨安
0200683,岩手県,滝沢市,鵜飼花平,イワテケン,タキザワシ,ウカイハナダイラ,岩手県滝沢市鵜飼花平
0200684,岩手県,滝沢市,鵜飼沼森,イワテケン,タキザワシ,ウカイヌマモリ,岩手県滝沢市鵜飼沼森
0200685,岩手県,滝沢市,鵜飼安達,イワテケン,タキザワシ,ウカイアダチ,岩手県滝沢市鵜飼安達
0200686,岩手県,滝沢市,鵜飼鬼越,イワテケン,タキザワシ,ウカイオニコシ,岩手県滝沢市鵜飼鬼越
0200687,岩手県,滝沢市,上鵜飼,イワテケン,タキザワシ,カミウカイ,岩手県滝沢市上鵜飼
0200688,岩手県,滝沢市,鵜飼上前田,イワテケン,タキザワシ,ウカイカミマエダ,岩手県滝沢市鵜飼上前田
0200701,岩手県,滝沢市,大沢籠屋敷,イワテケン,タキザワシ,オオサワカゴヤシキ,岩手県滝沢市大沢籠屋敷
0200702,岩手県,滝沢市,大沢上鶴子,イワテケン,タキザワシ,オオサワカミツルコ,岩手県滝沢市大沢上鶴子
0200703,岩手県,滝沢市,大沢堰合,イワテケン,タキザワシ,オオサワセキアイ,岩手県滝沢市大沢堰合
0200704,岩手県,滝沢市,大沢谷地中,イワテケン,タキザワシ,オオサワヤチナカ,岩手県滝沢市大沢谷地中
0200705,岩手県,滝沢市,大沢二タ又,イワテケン,タキザワシ,オオサワフタマタ,岩手県滝沢市大沢二タ又
0200706,岩手県,滝沢市,大沢割田,イワテケン,タキザワシ,オオサワワッタ,岩手県滝沢市大沢割田
0200707,岩手県,滝沢市,大沢館,イワテケン,タキザワシ,オオサワタテ,岩手県滝沢市大沢館
0200708,岩手県,滝沢市,大沢箸木平,イワテケン,タキザワシ,オオサワハシギダイラ,岩手県滝沢市大沢箸木平
0200709,岩手県,滝沢市,大沢外山野,イワテケン,タキザワシ,オオサワトヤマノ,岩手県滝沢市大沢外山野
0200710,岩手県,滝沢市,大沢弥作畑,イワテケン,タキザワシ,オオサワヤサクハタ,岩手県滝沢市大沢弥作畑
0200711,岩手県,滝沢市,大沢谷地上,イワテケン,タキザワシ,オオサワヤチガミ,岩手県滝沢市大沢谷地上
0200712,岩手県,滝沢市,大沢長坪,イワテケン,タキザワシ,オオサワナガツボ,岩手県滝沢市大沢長坪
0200713,岩手県,滝沢市,大沢新道,イワテケン,タキザワシ,オオサワシンミチ,岩手県滝沢市大沢新道
0200714,岩手県,滝沢市,大沢舛村,イワテケン,タキザワシ,オオサワマスムラ,岩手県滝沢市大沢舛村
0200715,岩手県,滝沢市,大沢下屋敷,イワテケン,タキザワシ,オオサワシモヤシキ,岩手県滝沢市大沢下屋敷
0200716,岩手県,滝沢市,大沢米倉,イワテケン,タキザワシ,オオサワヨネクラ,岩手県滝沢市大沢米倉
0200717,岩手県,滝沢市,大沢四つ家,イワテケン,タキザワシ,オオサワヨツヤ,岩手県滝沢市大沢四つ家
0200718,岩手県,滝沢市,大沢小谷地,イワテケン,タキザワシ,オオサワコヤチ,岩手県滝沢市大沢小谷地
0200719,岩手県,滝沢市,大沢鶴子,イワテケン,タキザワシ,オオサワツルコ,岩手県滝沢市大沢鶴子
0200721,岩手県,滝沢市,篠木中村,イワテケン,タキザワシ,シノギナカムラ,岩手県滝沢市篠木中村
0200722,岩手県,滝沢市,篠木上綾織,イワテケン,タキザワシ,シノギカミアヤオリ,岩手県滝沢市篠木上綾織
0200723,岩手県,滝沢市,篠木綾織,イワテケン,タキザワシ,シノギアヤオリ,岩手県滝沢市篠木綾織
0200724,岩手県,滝沢市,篠木小谷地,イワテケン,タキザワシ,シノギコヤチ,岩手県滝沢市篠木小谷地
0200725,岩手県,滝沢市,篠木中屋敷,イワテケン,タキザワシ,シノギナカヤシキ,岩手県滝沢市篠木中屋敷
0200726,岩手県,滝沢市,篠木荒屋,イワテケン,タキザワシ,シノギアラヤ,岩手県滝沢市篠木荒屋
0200727,岩手県,滝沢市,篠木鳥谷平,イワテケン,タキザワシ,シノギトヤヒラ,岩手県滝沢市篠木鳥谷平
0200728,岩手県,滝沢市,篠木上篠木,イワテケン,タキザワシ,シノギカミシノギ,岩手県滝沢市篠木上篠木
0200731,岩手県,滝沢市,篠木明法,イワテケン,タキザワシ,シノギミョウホウ,岩手県滝沢市篠木明法
0200732,岩手県,滝沢市,篠木樋の口,イワテケン,タキザワシ,シノギトイノクチ,岩手県滝沢市篠木樋の口
0200733,岩手県,滝沢市,篠木待場,イワテケン,タキザワシ,シノギマチバ,岩手県滝沢市篠木待場
0200734,岩手県,滝沢市,篠木上黒畑,イワテケン,タキザワシ,シノギカミクロハタ,岩手県滝沢市篠木上黒畑
0200735,岩手県,滝沢市,篠木黒畑,イワテケン,タキザワシ,シノギクロハタ,岩手県滝沢市篠木黒畑
0200736,岩手県,滝沢市,篠木参郷,イワテケン,タキザワシ,シノギサンゴウ,岩手県滝沢市篠木参郷
0200737,岩手県,滝沢市,篠木堤,イワテケン,タキザワシ,シノギツツミ,岩手県滝沢市篠木堤
0200738,岩手県,滝沢市,篠木参郷の森,イワテケン,タキザワシ,シノギサンゴウノモリ,岩手県滝沢市篠木参郷の森
0200741,岩手県,滝沢市,篠木矢取森,イワテケン,タキザワシ,シノギヤトリモリ,岩手県滝沢市篠木矢取森
0200742,岩手県,滝沢市,篠木苧桶沢,イワテケン,タキザワシ,シノギオボケザワ,岩手県滝沢市篠木苧桶沢
0200743,岩手県,滝沢市,篠木外山,イワテケン,タキザワシ,シノギソトヤマ,岩手県滝沢市篠木外山
0200744,岩手県,滝沢市,篠木館が沢,イワテケン,タキザワシ,シノギタテガサワ,岩手県滝沢市篠木館が沢
0200745,岩手県,滝沢市,篠木大寺沢,イワテケン,タキザワシ,シノギオオテラサワ,岩手県滝沢市篠木大寺沢
0200746,岩手県,滝沢市,篠木仁沢瀬,イワテケン,タキザワシ,シノギニサワセ,岩手県滝沢市篠木仁沢瀬
0200751,岩手県,滝沢市,大釜千が窪,イワテケン,タキザワシ,オオガマセンガクボ,岩手県滝沢市大釜千が窪
0200752,岩手県,滝沢市,大釜白山,イワテケン,タキザワシ,オオガマシロヤマ,岩手県滝沢市大釜白山
0200753,岩手県,滝沢市,大釜細屋,イワテケン,タキザワシ,オオガマホソヤ,岩手県滝沢市大釜細屋
0200754,岩手県,滝沢市,大釜上釜,イワテケン,タキザワシ,オオガマウワガマ,岩手県滝沢市大釜上釜
0200755,岩手県,滝沢市,大釜釜口,イワテケン,タキザワシ,オオガマカマクチ,岩手県滝沢市大釜釜口
0200756,岩手県,滝沢市,大釜高森,イワテケン,タキザワシ,オオガマタカモリ,岩手県滝沢市大釜高森
0200757,岩手県,滝沢市,大釜風林,イワテケン,タキザワシ,オオガマカザバヤシ,岩手県滝沢市大釜風林
0200758,岩手県,滝沢市,大釜大清水,イワテケン,タキザワシ,オオガマオオシミズ,岩手県滝沢市大釜大清水
0200761,岩手県,滝沢市,大釜田の尻,イワテケン,タキザワシ,オオガマタノシリ,岩手県滝沢市大釜田の尻
0200762,岩手県,滝沢市,大釜外館,イワテケン,タキザワシ,オオガマトダテ,岩手県滝沢市大釜外館
0200763,岩手県,滝沢市,大釜大畑,イワテケン,タキザワシ,オオガマオオバタケ,岩手県滝沢市大釜大畑
0200764,岩手県,滝沢市,大釜土井尻,イワテケン,タキザワシ,オオガマドイジリ,岩手県滝沢市大釜土井尻
0200765,岩手県,滝沢市,大釜小屋敷,イワテケン,タキザワシ,オオガマコヤシキ,岩手県滝沢市大釜小屋敷
0200766,岩手県,滝沢市,大釜八幡前,イワテケン,タキザワシ,オオガマハチマンマエ,岩手県滝沢市大釜八幡前
0200767,岩手県,滝沢市,大釜中道,イワテケン,タキザワシ,オオガマナカミチ,岩手県滝沢市大釜中道
0200768,岩手県,滝沢市,大釜和田,イワテケン,タキザワシ,オオガマワダ,岩手県滝沢市大釜和田
0200769,岩手県,滝沢市,大釜荒屋敷,イワテケン,タキザワシ,オオガマアラヤシキ,岩手県滝沢市大釜荒屋敷
0200771,岩手県,滝沢市,大釜竹鼻,イワテケン,タキザワシ,オオガマタケハナ,岩手県滝沢市大釜竹鼻
0200772,岩手県,滝沢市,大釜中瀬,イワテケン,タキザワシ,オオガマナカセ,岩手県滝沢市大釜中瀬
0200773,岩手県,滝沢市,大釜上竹鼻,イワテケン,タキザワシ,オオガマカミタケハナ,岩手県滝沢市大釜上竹鼻
0200774,岩手県,滝沢市,大釜塩の森,イワテケン,タキザワシ,オオガマシオノモリ,岩手県滝沢市大釜塩の森
0200775,岩手県,滝沢市,大釜沼袋,イワテケン,タキザワシ,オオガマヌマブクロ,岩手県滝沢市大釜沼袋
0200776,岩手県,滝沢市,大釜鬼が滝,イワテケン,タキザワシ,オオガマオニガタキ,岩手県滝沢市大釜鬼が滝
0200777,岩手県,滝沢市,大釜仁沢瀬,イワテケン,タキザワシ,オオガマニサワセ,岩手県滝沢市大釜仁沢瀬
0200778,岩手県,滝沢市,大釜吉水,イワテケン,タキザワシ,オオガマヨシミズ,岩手県滝沢市大釜吉水
0200779,岩手県,滝沢市,大釜吉清水,イワテケン,タキザワシ,オオガマヨシミズ,岩手県滝沢市大釜吉清水
0200801,岩手県,盛岡市,浅岸,イワテケン,モリオカシ,アサギシ,岩手県盛岡市浅岸
0200802,岩手県,盛岡市,つつじが丘,イワテケン,モリオカシ,ツツジガオカ,岩手県盛岡市つつじが丘
0200803,岩手県,盛岡市,新庄,イワテケン,モリオカシ,シンジョウ,岩手県盛岡市新庄
0200804,岩手県,盛岡市,東桜山,イワテケン,モリオカシ,ヒガシサクラヤマ,岩手県盛岡市東桜山
0200805,岩手県,盛岡市,東新庄,イワテケン,モリオカシ,ヒガシシンジョウ,岩手県盛岡市東新庄
0200806,岩手県,盛岡市,新庄町,イワテケン,モリオカシ,シンジョウチョウ,岩手県盛岡市新庄町
0200807,岩手県,盛岡市,加賀野,イワテケン,モリオカシ,カガノ,岩手県盛岡市加賀野
0200811,岩手県,盛岡市,川目町,イワテケン,モリオカシ,カワメチョウ,岩手県盛岡市川目町
0200812,岩手県,盛岡市,川目,イワテケン,モリオカシ,カワメ,岩手県盛岡市川目
0200813,岩手県,盛岡市,東山,イワテケン,モリオカシ,ヒガシヤマ,岩手県盛岡市東山
0200814,岩手県,盛岡市,東中野町,イワテケン,モリオカシ,ヒガシナカノチョウ,岩手県盛岡市東中野町
0200815,岩手県,盛岡市,小杉山,イワテケン,モリオカシ,コスギヤマ,岩手県盛岡市小杉山
0200816,岩手県,盛岡市,中野,イワテケン,モリオカシ,ナカノ,岩手県盛岡市中野
0200817,岩手県,盛岡市,東中野,イワテケン,モリオカシ,ヒガシナカノ,岩手県盛岡市東中野
0200821,岩手県,盛岡市,山王町,イワテケン,モリオカシ,サンノウチョウ,岩手県盛岡市山王町
0200822,岩手県,盛岡市,茶畑,イワテケン,モリオカシ,チャバタケ,岩手県盛岡市茶畑
0200823,岩手県,盛岡市,門,イワテケン,モリオカシ,カド,岩手県盛岡市門
0200824,岩手県,盛岡市,東安庭,イワテケン,モリオカシ,ヒガシアニワ,岩手県盛岡市東安庭
0200825,岩手県,盛岡市,高崩,イワテケン,モリオカシ,タカクズレ,岩手県盛岡市高崩
0200826,岩手県,盛岡市,神子田町,イワテケン,モリオカシ,ミコダチョウ,岩手県盛岡市神子田町
0200827,岩手県,盛岡市,鉈屋町,イワテケン,モリオカシ,ナタヤチョウ,岩手県盛岡市鉈屋町
0200828,岩手県,盛岡市,大慈寺町,イワテケン,モリオカシ,ダイジジチョウ,岩手県盛岡市大慈寺町
0200831,岩手県,盛岡市,三本柳,イワテケン,モリオカシ,サンボンヤナギ,岩手県盛岡市三本柳
0200832,岩手県,盛岡市,東見前,イワテケン,モリオカシ,ヒガシミルマエ,岩手県盛岡市東見前
0200833,岩手県,盛岡市,西見前,イワテケン,モリオカシ,ニシミルマエ,岩手県盛岡市西見前
0200834,岩手県,盛岡市,永井,イワテケン,モリオカシ,ナガイ,岩手県盛岡市永井
0200835,岩手県,盛岡市,津志田,イワテケン,モリオカシ,ツシダ,岩手県盛岡市津志田
0200836,岩手県,盛岡市,津志田西,イワテケン,モリオカシ,ツシダニシ,岩手県盛岡市津志田西
0200837,岩手県,盛岡市,津志田町,イワテケン,モリオカシ,ツシダチョウ,岩手県盛岡市津志田町
0200838,岩手県,盛岡市,津志田中央,イワテケン,モリオカシ,ツシダチュウオウ,岩手県盛岡市津志田中央
0200839,岩手県,盛岡市,津志田南,イワテケン,モリオカシ,ツシダミナミ,岩手県盛岡市津志田南
0200841,岩手県,盛岡市,羽場,イワテケン,モリオカシ,ハバ,岩手県盛岡市羽場
0200842,岩手県,盛岡市,湯沢,イワテケン,モリオカシ,ユザワ,岩手県盛岡市湯沢
0200843,岩手県,盛岡市,湯沢西,イワテケン,モリオカシ,ユザワニシ,岩手県盛岡市湯沢西
0200844,岩手県,盛岡市,湯沢東,イワテケン,モリオカシ,ユザワヒガシ,岩手県盛岡市湯沢東
0200845,岩手県,盛岡市,湯沢南,イワテケン,モリオカシ,ユザワミナミ,岩手県盛岡市湯沢南
0200846,岩手県,盛岡市,流通センター北,イワテケン,モリオカシ,リュウツウセンターキタ,岩手県盛岡市流通センター北
0200851,岩手県,盛岡市,向中野,イワテケン,モリオカシ,ムカイナカノ,岩手県盛岡市向中野
0200852,岩手県,盛岡市,飯岡新田,イワテケン,モリオカシ,イイオカシンデン,岩手県盛岡市飯岡新田
0200853,岩手県,盛岡市,下飯岡,イワテケン,モリオカシ,シモイイオカ,岩手県盛岡市下飯岡
0200854,岩手県,盛岡市,上飯岡,イワテケン,モリオカシ,カミイイオカ,岩手県盛岡市上飯岡
0200855,岩手県,盛岡市,上鹿妻,イワテケン,モリオカシ,カミカヅマ,岩手県盛岡市上鹿妻
0200856,岩手県,盛岡市,下鹿妻,イワテケン,モリオカシ,シモカヅマ,岩手県盛岡市下鹿妻
0200857,岩手県,盛岡市,北飯岡,イワテケン,モリオカシ,キタイイオカ,岩手県盛岡市北飯岡
0200861,岩手県,盛岡市,仙北,イワテケン,モリオカシ,センボク,岩手県盛岡市仙北
0200862,岩手県,盛岡市,東仙北,イワテケン,モリオカシ,ヒガシセンボク,岩手県盛岡市東仙北
0200863,岩手県,盛岡市,南仙北,イワテケン,モリオカシ,ミナミセンボク,岩手県盛岡市南仙北
0200864,岩手県,盛岡市,西仙北,イワテケン,モリオカシ,ニシセンボク,岩手県盛岡市西仙北
0200865,岩手県,盛岡市,仙北町,イワテケン,モリオカシ,センボクチョウ,岩手県盛岡市仙北町
0200866,岩手県,盛岡市,本宮,イワテケン,モリオカシ,モトミヤ,岩手県盛岡市本宮
0200871,岩手県,盛岡市,中ノ橋通,イワテケン,モリオカシ,ナカノハシドオリ,岩手県盛岡市中ノ橋通
0200872,岩手県,盛岡市,八幡町,イワテケン,モリオカシ,ハチマンチョウ,岩手県盛岡市八幡町
0200873,岩手県,盛岡市,松尾町,イワテケン,モリオカシ,マツオチョウ,岩手県盛岡市松尾町
0200874,岩手県,盛岡市,南大通,イワテケン,モリオカシ,ミナミオオドオリ,岩手県盛岡市南大通
0200875,岩手県,盛岡市,清水町,イワテケン,モリオカシ,シミズチョウ,岩手県盛岡市清水町
0200876,岩手県,盛岡市,馬場町,イワテケン,モリオカシ,ババチョウ,岩手県盛岡市馬場町
0200877,岩手県,盛岡市,下ノ橋町,イワテケン,モリオカシ,シモノハシチョウ,岩手県盛岡市下ノ橋町
0200878,岩手県,盛岡市,肴町,イワテケン,モリオカシ,サカナチョウ,岩手県盛岡市肴町
0200881,岩手県,盛岡市,天神町,イワテケン,モリオカシ,テンジンチョウ,岩手県盛岡市天神町
0200882,岩手県,盛岡市,住吉町,イワテケン,モリオカシ,スミヨシチョウ,岩手県盛岡市住吉町
0200883,岩手県,盛岡市,志家町,イワテケン,モリオカシ,シケチョウ,岩手県盛岡市志家町
0200884,岩手県,盛岡市,神明町,イワテケン,モリオカシ,シンメイチョウ,岩手県盛岡市神明町
0200885,岩手県,盛岡市,紺屋町,イワテケン,モリオカシ,コンヤチョウ,岩手県盛岡市紺屋町
0200886,岩手県,盛岡市,若園町,イワテケン,モリオカシ,ワカソノチョウ,岩手県盛岡市若園町
0200887,岩手県,盛岡市,上ノ橋町,イワテケン,モリオカシ,カミノハシチョウ,岩手県盛岡市上ノ橋町
0200891,岩手県,紫波郡矢巾町,流通センター南,イワテケン,シワグンヤハバチョウ,リュウツウセンターミナミ,岩手県紫波郡矢巾町流通センター南
0210000,岩手県,一関市,,イワテケン,イチノセキシ,,岩手県一関市
0210001,岩手県,一関市,新町,イワテケン,イチノセキシ,シンマチ,岩手県一関市新町
0210002,岩手県,一関市,中里（その他）,イワテケン,イチノセキシ,ナカサト(ソノタ),岩手県一関市中里（その他）
0210003,岩手県,一関市,東五代,イワテケン,イチノセキシ,ヒガシゴダイ,岩手県一関市東五代
0210004,岩手県,一関市,町浦,イワテケン,イチノセキシ,マチウラ,岩手県一関市町浦
0210005,岩手県,一関市,中里（沢田）,イワテケン,イチノセキシ,ナカサト(サワダ),岩手県一関市中里（沢田）
0210006,岩手県,一関市,上坊,イワテケン,イチノセキシ,ジョウボウ,岩手県一関市上坊
0210007,岩手県,一関市,上日照,イワテケン,イチノセキシ,カミヒデリ,岩手県一関市上日照
0210008,岩手県,一関市,石畑,イワテケン,イチノセキシ,イシバタケ,岩手県一関市石畑
0210011,岩手県,一関市,山目町,イワテケン,イチノセキシ,ヤマノメマチ,岩手県一関市山目町
0210012,岩手県,一関市,宮前町,イワテケン,イチノセキシ,ミヤマエチョウ,岩手県一関市宮前町
0210013,岩手県,一関市,宮下町,イワテケン,イチノセキシ,ミヤシタチョウ,岩手県一関市宮下町
0210014,岩手県,一関市,蘭梅町,イワテケン,イチノセキシ,ランバイチョウ,岩手県一関市蘭梅町
0210021,岩手県,一関市,中央町,イワテケン,イチノセキシ,チュウオウチョウ,岩手県一関市中央町
0210022,岩手県,一関市,五代町,イワテケン,イチノセキシ,ゴダイチョウ,岩手県一関市五代町
0210023,岩手県,一関市,銅谷町,イワテケン,イチノセキシ,ドウヤチョウ,岩手県一関市銅谷町
0210024,岩手県,一関市,幸町,イワテケン,イチノセキシ,サイワイチョウ,岩手県一関市幸町
0210025,岩手県,一関市,山目（向野）,イワテケン,イチノセキシ,ヤマノメ(ムカイノ),岩手県一関市山目（向野）
0210026,岩手県,一関市,山目（前田）,イワテケン,イチノセキシ,ヤマノメ(マエダ),岩手県一関市山目（前田）
0210027,岩手県,一関市,竹山町,イワテケン,イチノセキシ,タケヤマチョウ,岩手県一関市竹山町
0210031,岩手県,一関市,青葉,イワテケン,イチノセキシ,アオバ,岩手県一関市青葉
0210032,岩手県,一関市,末広,イワテケン,イチノセキシ,スエヒロ,岩手県一関市末広
0210033,岩手県,一関市,山目（里前）,イワテケン,イチノセキシ,ヤマノメ(サトマエ),岩手県一関市山目（里前）
0210034,岩手県,一関市,山目（立沢）,イワテケン,イチノセキシ,ヤマノメ(タチザワ),岩手県一関市山目（立沢）
0210035,岩手県,一関市,山目（才天）,イワテケン,イチノセキシ,ヤマノメ(サイテン),岩手県一関市山目（才天）
0210036,岩手県,一関市,山目（十二神）,イワテケン,イチノセキシ,ヤマノメ(ジュウニジン),岩手県一関市山目（十二神）
0210041,岩手県,一関市,赤荻,イワテケン,イチノセキシ,アコオギ,岩手県一関市赤荻
0210051,岩手県,一関市,山目（三反田）,イワテケン,イチノセキシ,ヤマノメ(サンタンダ),岩手県一関市山目（三反田）
0210052,岩手県,一関市,寿町,イワテケン,イチノセキシ,コトブキチョウ,岩手県一関市寿町
0210053,岩手県,一関市,山目（中野）,イワテケン,イチノセキシ,ヤマノメ(ナカノ),岩手県一関市山目（中野）
0210054,岩手県,一関市,山目（境）,イワテケン,イチノセキシ,ヤマノメ(サカイ),岩手県一関市山目（境）
0210055,岩手県,一関市,山目（泥田）,イワテケン,イチノセキシ,ヤマノメ(ドロタ),岩手県一関市山目（泥田）
0210056,岩手県,一関市,山目（泥田山下）,イワテケン,イチノセキシ,ヤマノメ(ドロタヤマシタ),岩手県一関市山目（泥田山下）
0210061,岩手県,一関市,山目（館）,イワテケン,イチノセキシ,ヤマノメ(タテ),岩手県一関市山目（館）
0210062,岩手県,一関市,山目（寺前）,イワテケン,イチノセキシ,ヤマノメ(テラマエ),岩手県一関市山目（寺前）
0210063,岩手県,一関市,山目（大槻）,イワテケン,イチノセキシ,ヤマノメ(オオツキ),岩手県一関市山目（大槻）
0210064,岩手県,一関市,山目（沢内）,イワテケン,イチノセキシ,ヤマノメ(サワウチ),岩手県一関市山目（沢内）
0210101,岩手県,一関市,厳美町,イワテケン,イチノセキシ,ゲンビチョウ,岩手県一関市厳美町
0210102,岩手県,一関市,萩荘（赤猪子、芦ノ口、甘蕨、老流、大沢、上宇津野、上本郷、上要害、化粧,イワテケン,イチノセキシ,ハギショウ(アカイノコ、アシノクチ、アマワラビ、オイナガレ、オオサワ、カミウツノ、カミホンゴウ、カミヨウガイ、ケショウ,岩手県一関市萩荘（赤猪子、芦ノ口、甘蕨、老流、大沢、上宇津野、上本郷、上要害、化粧
0210221,岩手県,一関市,舞川,イワテケン,イチノセキシ,マイカワ,岩手県一関市舞川
0210801,岩手県,一関市,桜街,イワテケン,イチノセキシ,サクラコウジ,岩手県一関市桜街
0210802,岩手県,一関市,北十軒街,イワテケン,イチノセキシ,キタジュッケンコウジ,岩手県一関市北十軒街
0210803,岩手県,一関市,南十軒街,イワテケン,イチノセキシ,ミナミジュッケンコウジ,岩手県一関市南十軒街
0210804,岩手県,一関市,五十人町,イワテケン,イチノセキシ,ゴジュウニンマチ,岩手県一関市五十人町
0210805,岩手県,一関市,豊町,イワテケン,イチノセキシ,ユタカマチ,岩手県一関市豊町
0210806,岩手県,一関市,下大槻街,イワテケン,イチノセキシ,シモオオツキコウジ,岩手県一関市下大槻街
0210807,岩手県,一関市,東花王町,イワテケン,イチノセキシ,ヒガシカオウチョウ,岩手県一関市東花王町
0210811,岩手県,一関市,久保,イワテケン,イチノセキシ,クボ,岩手県一関市久保
0210812,岩手県,一関市,樋渡,イワテケン,イチノセキシ,ヒワタシ,岩手県一関市樋渡
0210813,岩手県,一関市,南ほうりょう,イワテケン,イチノセキシ,ミナミホウリョウ,岩手県一関市南ほうりょう
0210814,岩手県,一関市,北ほうりょう,イワテケン,イチノセキシ,キタホウリョウ,岩手県一関市北ほうりょう
0210815,岩手県,一関市,要害,イワテケン,イチノセキシ,ヨウガイ,岩手県一関市要害
0210821,岩手県,一関市,三関,イワテケン,イチノセキシ,サンノセキ,岩手県一関市三関
0210822,岩手県,一関市,東台,イワテケン,イチノセキシ,ヒガシダイ,岩手県一関市東台
0210831,岩手県,一関市,沼田,イワテケン,イチノセキシ,ヌマタ,岩手県一関市沼田
0210832,岩手県,一関市,散田,イワテケン,イチノセキシ,サンタ,岩手県一関市散田
0210833,岩手県,一関市,柄貝,イワテケン,イチノセキシ,カラカイ,岩手県一関市柄貝
0210834,岩手県,一関市,宇南,イワテケン,イチノセキシ,ウナン,岩手県一関市宇南
0210835,岩手県,一関市,二本木,イワテケン,イチノセキシ,ニホンギ,岩手県一関市二本木
0210836,岩手県,一関市,鳴神,イワテケン,イチノセキシ,ナルガミ,岩手県一関市鳴神
0210841,岩手県,一関市,吸川街,イワテケン,イチノセキシ,スイカワコウジ,岩手県一関市吸川街
0210842,岩手県,一関市,柳町,イワテケン,イチノセキシ,ヤナギマチ,岩手県一関市柳町
0210843,岩手県,一関市,深町,イワテケン,イチノセキシ,フカマチ,岩手県一関市深町
0210844,岩手県,一関市,反町,イワテケン,イチノセキシ,タンマチ,岩手県一関市反町
0210851,岩手県,一関市,関が丘,イワテケン,イチノセキシ,セキガオカ,岩手県一関市関が丘
0210852,岩手県,一関市,沢,イワテケン,イチノセキシ,サワ,岩手県一関市沢
0210853,岩手県,一関市,相去,イワテケン,イチノセキシ,アイサリ,岩手県一関市相去
0210854,岩手県,一関市,西沢,イワテケン,イチノセキシ,ニシザワ,岩手県一関市西沢
0210861,岩手県,一関市,機織山,イワテケン,イチノセキシ,ハタオリヤマ,岩手県一関市機織山
0210862,岩手県,一関市,千代田町,イワテケン,イチノセキシ,チヨダチョウ,岩手県一関市千代田町
0210863,岩手県,一関市,南町,イワテケン,イチノセキシ,ミナミマチ,岩手県一関市南町
0210864,岩手県,一関市,旭町,イワテケン,イチノセキシ,アサヒチョウ,岩手県一関市旭町
0210865,岩手県,一関市,新山,イワテケン,イチノセキシ,ニイヤマ,岩手県一関市新山
0210866,岩手県,一関市,南新町,イワテケン,イチノセキシ,ミナミシンマチ,岩手県一関市南新町
0210867,岩手県,一関市,駅前,イワテケン,イチノセキシ,エキマエ,岩手県一関市駅前
0210871,岩手県,一関市,八幡町,イワテケン,イチノセキシ,ハチマンチョウ,岩手県一関市八幡町
0210872,岩手県,一関市,宮坂町,イワテケン,イチノセキシ,ミヤサカチョウ,岩手県一関市宮坂町
0210873,岩手県,一関市,台町,イワテケン,イチノセキシ,ダイマチ,岩手県一関市台町
0210874,岩手県,一関市,釣山,イワテケン,イチノセキシ,ツリヤマ,岩手県一関市釣山
0210875,岩手県,一関市,高崎町,イワテケン,イチノセキシ,タカサキチョウ,岩手県一関市高崎町
0210876,岩手県,一関市,広街,イワテケン,イチノセキシ,ヒロコウジ,岩手県一関市広街
0210877,岩手県,一関市,城内,イワテケン,イチノセキシ,ジョウナイ,岩手県一関市城内
0210881,岩手県,一関市,大町,イワテケン,イチノセキシ,オオマチ,岩手県一関市大町
0210882,岩手県,一関市,上大槻街,イワテケン,イチノセキシ,カミオオツキコウジ,岩手県一関市上大槻街
0210883,岩手県,一関市,新大町,イワテケン,イチノセキシ,シンオオマチ,岩手県一関市新大町
0210884,岩手県,一関市,大手町,イワテケン,イチノセキシ,オオテマチ,岩手県一関市大手町
0210885,岩手県,一関市,田村町,イワテケン,イチノセキシ,タムラチョウ,岩手県一関市田村町
0210891,岩手県,一関市,桜木町,イワテケン,イチノセキシ,サクラギチョウ,岩手県一関市桜木町
0210892,岩手県,一関市,東地主町,イワテケン,イチノセキシ,ヒガシジシュマチ,岩手県一関市東地主町
0210893,岩手県,一関市,地主町,イワテケン,イチノセキシ,ジシュマチ,岩手県一関市地主町
0210894,岩手県,一関市,磐井町,イワテケン,イチノセキシ,イワイチョウ,岩手県一関市磐井町
0210901,岩手県,一関市,真柴,イワテケン,イチノセキシ,マシバ,岩手県一関市真柴
0210902,岩手県,一関市,萩荘（その他）,イワテケン,イチノセキシ,ハギショウ(ソノタ),岩手県一関市萩荘（その他）
0220000,岩手県,大船渡市,,イワテケン,オオフナトシ,,岩手県大船渡市
0220001,岩手県,大船渡市,末崎町,イワテケン,オオフナトシ,マッサキチョウ,岩手県大船渡市末崎町
0220002,岩手県,大船渡市,大船渡町,イワテケン,オオフナトシ,オオフナトチョウ,岩手県大船渡市大船渡町
0220003,岩手県,大船渡市,盛町,イワテケン,オオフナトシ,サカリチョウ,岩手県大船渡市盛町
0220004,岩手県,大船渡市,猪川町,イワテケン,オオフナトシ,イカワチョウ,岩手県大船渡市猪川町
0220005,岩手県,大船渡市,日頃市町,イワテケン,オオフナトシ,ヒコロイチチョウ,岩手県大船渡市日頃市町
0220006,岩手県,大船渡市,立根町,イワテケン,オオフナトシ,タッコンチョウ,岩手県大船渡市立根町
0220007,岩手県,大船渡市,赤崎町,イワテケン,オオフナトシ,アカサキチョウ,岩手県大船渡市赤崎町
0220101,岩手県,大船渡市,三陸町越喜来,イワテケン,オオフナトシ,サンリクチョウオキライ,岩手県大船渡市三陸町越喜来
0220102,岩手県,大船渡市,三陸町吉浜,イワテケン,オオフナトシ,サンリクチョウヨシハマ,岩手県大船渡市三陸町吉浜
0220211,岩手県,大船渡市,三陸町綾里,イワテケン,オオフナトシ,サンリクチョウリョウリ,岩手県大船渡市三陸町綾里
0230000,岩手県,奥州市,,イワテケン,オウシュウシ,,岩手県奥州市
0230001,岩手県,奥州市,水沢卸町,イワテケン,オウシュウシ,ミズサワオロシマチ,岩手県奥州市水沢卸町
0230002,岩手県,奥州市,水沢工業団地,イワテケン,オウシュウシ,ミズサワコウギョウダンチ,岩手県奥州市水沢工業団地
0230003,岩手県,奥州市,水沢佐倉河,イワテケン,オウシュウシ,ミズサワサクラカワ,岩手県奥州市水沢佐倉河
0230011,岩手県,奥州市,水沢稲荷田,イワテケン,オウシュウシ,ミズサワイナリダ,岩手県奥州市水沢稲荷田
0230012,岩手県,奥州市,水沢斉勝田,イワテケン,オウシュウシ,ミズサワサイカツダ,岩手県奥州市水沢斉勝田
0230013,岩手県,奥州市,水沢一本柳,イワテケン,オウシュウシ,ミズサワイッポンヤナギ,岩手県奥州市水沢一本柳
0230014,岩手県,奥州市,水沢地蔵田,イワテケン,オウシュウシ,ミズサワジゾウデン,岩手県奥州市水沢地蔵田
0230015,岩手県,奥州市,水沢五千刈,イワテケン,オウシュウシ,ミズサワゴセンガリ,岩手県奥州市水沢五千刈
0230016,岩手県,奥州市,水沢平沢,イワテケン,オウシュウシ,ミズサワヒラサワ,岩手県奥州市水沢平沢
0230017,岩手県,奥州市,水沢渋田,イワテケン,オウシュウシ,ミズサワシブタ,岩手県奥州市水沢渋田
0230018,岩手県,奥州市,水沢小中,イワテケン,オウシュウシ,ミズサワコナカ,岩手県奥州市水沢小中
0230019,岩手県,奥州市,水沢築舘,イワテケン,オウシュウシ,ミズサワツキダテ,岩手県奥州市水沢築舘
0230021,岩手県,奥州市,水沢欠ノ下,イワテケン,オウシュウシ,ミズサワカケノシタ,岩手県奥州市水沢欠ノ下
0230022,岩手県,奥州市,水沢中城,イワテケン,オウシュウシ,ミズサワナカシロ,岩手県奥州市水沢中城
0230023,岩手県,奥州市,水沢八反町,イワテケン,オウシュウシ,ミズサワハッタンマチ,岩手県奥州市水沢八反町
0230024,岩手県,奥州市,水沢名残,イワテケン,オウシュウシ,ミズサワナゴリ,岩手県奥州市水沢名残
0230025,岩手県,奥州市,水沢高網,イワテケン,オウシュウシ,ミズサワコウアミ,岩手県奥州市水沢高網
0230026,岩手県,奥州市,水沢里鎗,イワテケン,オウシュウシ,ミズサワサトヤリ,岩手県奥州市水沢里鎗
0230027,岩手県,奥州市,水沢幅下,イワテケン,オウシュウシ,ミズサワハバシタ,岩手県奥州市水沢幅下
0230031,岩手県,奥州市,水沢北丑沢,イワテケン,オウシュウシ,ミズサワキタウシザワ,岩手県奥州市水沢北丑沢
0230032,岩手県,奥州市,水沢多賀,イワテケン,オウシュウシ,ミズサワタガ,岩手県奥州市水沢多賀
0230033,岩手県,奥州市,水沢不断町,イワテケン,オウシュウシ,ミズサワフダンチョウ,岩手県奥州市水沢不断町
0230034,岩手県,奥州市,水沢川口町,イワテケン,オウシュウシ,ミズサワカワグチマチ,岩手県奥州市水沢川口町
0230035,岩手県,奥州市,水沢赤土田,イワテケン,オウシュウシ,ミズサワアカツチダ,岩手県奥州市水沢赤土田
0230036,岩手県,奥州市,水沢北栗林,イワテケン,オウシュウシ,ミズサワキタクリバヤシ,岩手県奥州市水沢北栗林
0230037,岩手県,奥州市,水沢南丑沢,イワテケン,オウシュウシ,ミズサワミナミウシザワ,岩手県奥州市水沢南丑沢
0230041,岩手県,奥州市,水沢秋葉町,イワテケン,オウシュウシ,ミズサワアキバチョウ,岩手県奥州市水沢秋葉町
0230042,岩手県,奥州市,水沢柳町,イワテケン,オウシュウシ,ミズサワヤナギマチ,岩手県奥州市水沢柳町
0230043,岩手県,奥州市,水沢道合,イワテケン,オウシュウシ,ミズサワミチアイ,岩手県奥州市水沢道合
0230044,岩手県,奥州市,水沢三本木,イワテケン,オウシュウシ,ミズサワサンボンギ,岩手県奥州市水沢三本木
0230045,岩手県,奥州市,水沢大町,イワテケン,オウシュウシ,ミズサワオオマチ,岩手県奥州市水沢大町
0230046,岩手県,奥州市,水沢川原小路,イワテケン,オウシュウシ,ミズサワカワラコウジ,岩手県奥州市水沢川原小路
0230047,岩手県,奥州市,水沢立町,イワテケン,オウシュウシ,ミズサワタチマチ,岩手県奥州市水沢立町
0230051,岩手県,奥州市,水沢勝手町,イワテケン,オウシュウシ,ミズサワカッテチョウ,岩手県奥州市水沢勝手町
0230052,岩手県,奥州市,水沢搦手丁,イワテケン,オウシュウシ,ミズサワカラメテチョウ,岩手県奥州市水沢搦手丁
0230053,岩手県,奥州市,水沢大手町,イワテケン,オウシュウシ,ミズサワオオテマチ,岩手県奥州市水沢大手町
0230054,岩手県,奥州市,水沢吉小路,イワテケン,オウシュウシ,ミズサワキチコウジ,岩手県奥州市水沢吉小路
0230055,岩手県,奥州市,水沢虚空蔵小路,イワテケン,オウシュウシ,ミズサワコクゾウコウジ,岩手県奥州市水沢虚空蔵小路
0230056,岩手県,奥州市,水沢久田,イワテケン,オウシュウシ,ミズサワキュウデン,岩手県奥州市水沢久田
0230057,岩手県,奥州市,水沢上町,イワテケン,オウシュウシ,ミズサワウワマチ,岩手県奥州市水沢上町
0230058,岩手県,奥州市,水沢堀ノ内,イワテケン,オウシュウシ,ミズサワホリノウチ,岩手県奥州市水沢堀ノ内
0230061,岩手県,奥州市,水沢長町,イワテケン,オウシュウシ,ミズサワナガマチ,岩手県奥州市水沢長町
0230062,岩手県,奥州市,水沢小石田,イワテケン,オウシュウシ,ミズサワコイシダ,岩手県奥州市水沢小石田
0230063,岩手県,奥州市,水沢聖天,イワテケン,オウシュウシ,ミズサワショウテン,岩手県奥州市水沢聖天
0230064,岩手県,奥州市,水沢土器田,イワテケン,オウシュウシ,ミズサワドキタ,岩手県奥州市水沢土器田
0230065,岩手県,奥州市,水沢水山,イワテケン,オウシュウシ,ミズサワミズヤマ,岩手県奥州市水沢水山
0230066,岩手県,奥州市,水沢前田袋,イワテケン,オウシュウシ,ミズサワマエタブクロ,岩手県奥州市水沢前田袋
0230067,岩手県,奥州市,水沢二反田,イワテケン,オウシュウシ,ミズサワニタンダ,岩手県奥州市水沢二反田
0230071,岩手県,奥州市,水沢黒子,イワテケン,オウシュウシ,ミズサワクロコ,岩手県奥州市水沢黒子
0230072,岩手県,奥州市,水沢樋渡,イワテケン,オウシュウシ,ミズサワヒワタシ,岩手県奥州市水沢樋渡
0230073,岩手県,奥州市,水沢寺領,イワテケン,オウシュウシ,ミズサワジリョウ,岩手県奥州市水沢寺領
0230074,岩手県,奥州市,水沢極楽,イワテケン,オウシュウシ,ミズサワゴクラク,岩手県奥州市水沢極楽
0230075,岩手県,奥州市,水沢水ノ口,イワテケン,オウシュウシ,ミズサワミノクチ,岩手県奥州市水沢水ノ口
0230076,岩手県,奥州市,水沢造道,イワテケン,オウシュウシ,ミズサワツクリミチ,岩手県奥州市水沢造道
0230077,岩手県,奥州市,水沢桑畑,イワテケン,オウシュウシ,ミズサワクワバタ,岩手県奥州市水沢桑畑
0230081,岩手県,奥州市,水沢橇町,イワテケン,オウシュウシ,ミズサワソリマチ,岩手県奥州市水沢橇町
0230082,岩手県,奥州市,水沢東半郷,イワテケン,オウシュウシ,ミズサワヒガシハンゴウ,岩手県奥州市水沢東半郷
0230083,岩手県,奥州市,水沢前郷,イワテケン,オウシュウシ,ミズサワゼンゴウ,岩手県奥州市水沢前郷
0230084,岩手県,奥州市,水沢大上,イワテケン,オウシュウシ,ミズサワオオガミ,岩手県奥州市水沢大上
0230085,岩手県,奥州市,水沢踊子,イワテケン,オウシュウシ,ミズサワオドリコ,岩手県奥州市水沢踊子
0230086,岩手県,奥州市,水沢谷地中,イワテケン,オウシュウシ,ミズサワヤチナカ,岩手県奥州市水沢谷地中
0230087,岩手県,奥州市,水沢高谷宿,イワテケン,オウシュウシ,ミズサワコウヤシュク,岩手県奥州市水沢高谷宿
0230091,岩手県,奥州市,水沢高山,イワテケン,オウシュウシ,ミズサワタカヤマ,岩手県奥州市水沢高山
0230092,岩手県,奥州市,水沢北半郷,イワテケン,オウシュウシ,ミズサワキタハンゴウ,岩手県奥州市水沢北半郷
0230093,岩手県,奥州市,水沢水神,イワテケン,オウシュウシ,ミズサワミズガミ,岩手県奥州市水沢水神
0230094,岩手県,奥州市,水沢五輪,イワテケン,オウシュウシ,ミズサワゴリン,岩手県奥州市水沢五輪
0230095,岩手県,奥州市,水沢雀田,イワテケン,オウシュウシ,ミズサワスズメダ,岩手県奥州市水沢雀田
0230096,岩手県,奥州市,水沢向田,イワテケン,オウシュウシ,ミズサワムカイダ,岩手県奥州市水沢向田
0230101,岩手県,奥州市,水沢黒石町,イワテケン,オウシュウシ,ミズサワクロイシチョウ,岩手県奥州市水沢黒石町
0230102,岩手県,奥州市,水沢羽田町駅東,イワテケン,オウシュウシ,ミズサワハダチョウエキヒガシ,岩手県奥州市水沢羽田町駅東
0230103,岩手県,奥州市,水沢羽田町駅南,イワテケン,オウシュウシ,ミズサワハダチョウエキミナミ,岩手県奥州市水沢羽田町駅南
0230104,岩手県,奥州市,水沢羽田町駅前,イワテケン,オウシュウシ,ミズサワハダチョウエキマエ,岩手県奥州市水沢羽田町駅前
0230105,岩手県,奥州市,水沢羽田町宝生,イワテケン,オウシュウシ,ミズサワハダチョウホウショウ,岩手県奥州市水沢羽田町宝生
0230106,岩手県,奥州市,水沢羽田町久保,イワテケン,オウシュウシ,ミズサワハダチョウクボ,岩手県奥州市水沢羽田町久保
0230107,岩手県,奥州市,水沢羽田町宝柳木,イワテケン,オウシュウシ,ミズサワハダチョウホウリュウギ,岩手県奥州市水沢羽田町宝柳木
0230108,岩手県,奥州市,水沢羽田町向畑,イワテケン,オウシュウシ,ミズサワハダチョウムカイハタ,岩手県奥州市水沢羽田町向畑
0230132,岩手県,奥州市,水沢羽田町（その他）,イワテケン,オウシュウシ,ミズサワハダチョウ(ソノタ),岩手県奥州市水沢羽田町（その他）
0230171,岩手県,奥州市,江刺田原,イワテケン,オウシュウシ,エサシタワラ,岩手県奥州市江刺田原
0230401,岩手県,奥州市,胆沢南都田,イワテケン,オウシュウシ,イサワナツタ,岩手県奥州市胆沢南都田
0230402,岩手県,奥州市,胆沢小山,イワテケン,オウシュウシ,イサワオヤマ,岩手県奥州市胆沢小山
0230403,岩手県,奥州市,胆沢若柳,イワテケン,オウシュウシ,イサワワカヤナギ,岩手県奥州市胆沢若柳
0230801,岩手県,奥州市,水沢横町,イワテケン,オウシュウシ,ミズサワヨコマチ,岩手県奥州市水沢横町
0230802,岩手県,奥州市,水沢大畑小路,イワテケン,オウシュウシ,ミズサワオオバタケコウジ,岩手県奥州市水沢大畑小路
0230803,岩手県,奥州市,水沢田小路,イワテケン,オウシュウシ,ミズサワタコウジ,岩手県奥州市水沢田小路
0230804,岩手県,奥州市,水沢谷地明円,イワテケン,オウシュウシ,ミズサワヤチミョウエン,岩手県奥州市水沢谷地明円
0230805,岩手県,奥州市,水沢斉の神,イワテケン,オウシュウシ,ミズサワサイノカミ,岩手県奥州市水沢斉の神
0230806,岩手県,奥州市,水沢日高西,イワテケン,オウシュウシ,ミズサワヒタカニシ,岩手県奥州市水沢日高西
0230807,岩手県,奥州市,水沢新小路,イワテケン,オウシュウシ,ミズサワシンコウジ,岩手県奥州市水沢新小路
0230808,岩手県,奥州市,水沢日高小路,イワテケン,オウシュウシ,ミズサワヒタカコウジ,岩手県奥州市水沢日高小路
0230811,岩手県,奥州市,水沢寺小路,イワテケン,オウシュウシ,ミズサワテラコウジ,岩手県奥州市水沢寺小路
0230812,岩手県,奥州市,水沢寺脇,イワテケン,オウシュウシ,ミズサワテラワキ,岩手県奥州市水沢寺脇
0230813,岩手県,奥州市,水沢中町,イワテケン,オウシュウシ,ミズサワナカマチ,岩手県奥州市水沢中町
0230814,岩手県,奥州市,水沢袋町,イワテケン,オウシュウシ,ミズサワフクロマチ,岩手県奥州市水沢袋町
0230815,岩手県,奥州市,水沢天文台通り,イワテケン,オウシュウシ,ミズサワテンモンダイドオリ,岩手県奥州市水沢天文台通り
0230816,岩手県,奥州市,水沢西町,イワテケン,オウシュウシ,ミズサワニシマチ,岩手県奥州市水沢西町
0230817,岩手県,奥州市,水沢宮下町,イワテケン,オウシュウシ,ミズサワミヤシタチョウ,岩手県奥州市水沢宮下町
0230818,岩手県,奥州市,水沢東町,イワテケン,オウシュウシ,ミズサワアズマチョウ,岩手県奥州市水沢東町
0230821,岩手県,奥州市,水沢神明町,イワテケン,オウシュウシ,ミズサワシンメイチョウ,岩手県奥州市水沢神明町
0230822,岩手県,奥州市,水沢東中通り,イワテケン,オウシュウシ,ミズサワヒガシナカドオリ,岩手県奥州市水沢東中通り
0230823,岩手県,奥州市,水沢朝日町,イワテケン,オウシュウシ,ミズサワアサヒチョウ,岩手県奥州市水沢朝日町
0230824,岩手県,奥州市,水沢泉町,イワテケン,オウシュウシ,ミズサワイズミチョウ,岩手県奥州市水沢泉町
0230825,岩手県,奥州市,水沢台町,イワテケン,オウシュウシ,ミズサワダイマチ,岩手県奥州市水沢台町
0230826,岩手県,奥州市,水沢中田町,イワテケン,オウシュウシ,ミズサワナカダチョウ,岩手県奥州市水沢中田町
0230827,岩手県,奥州市,水沢太日通り,イワテケン,オウシュウシ,ミズサワタイニチドオリ,岩手県奥州市水沢太日通り
0230828,岩手県,奥州市,水沢東大通り,イワテケン,オウシュウシ,ミズサワヒガシオオドオリ,岩手県奥州市水沢東大通り
0230829,岩手県,奥州市,水沢花園町,イワテケン,オウシュウシ,ミズサワハナゾノチョウ,岩手県奥州市水沢花園町
0230831,岩手県,奥州市,水沢姉体町,イワテケン,オウシュウシ,ミズサワアネタイチョウ,岩手県奥州市水沢姉体町
0230832,岩手県,奥州市,水沢羽田町（草井沼、下沼、谷木、元谷木）,イワテケン,オウシュウシ,ミズサワハダチョウ(クサイヌマ、シモヌマ、ヤギ、モトヤギ),岩手県奥州市水沢羽田町（草井沼、下沼、谷木、元谷木）
0230833,岩手県,奥州市,水沢上姉体,イワテケン,オウシュウシ,ミズサワカミアネタイ,岩手県奥州市水沢上姉体
0230841,岩手県,奥州市,水沢真城,イワテケン,オウシュウシ,ミズサワシンジョウ,岩手県奥州市水沢真城
0230842,岩手県,奥州市,水沢真城が丘,イワテケン,オウシュウシ,ミズサワシンジョウガオカ,岩手県奥州市水沢真城が丘
0230851,岩手県,奥州市,水沢南町,イワテケン,オウシュウシ,ミズサワミナミマチ,岩手県奥州市水沢南町
0230852,岩手県,奥州市,水沢山崎町,イワテケン,オウシュウシ,ミズサワヤマザキチョウ,岩手県奥州市水沢山崎町
0230853,岩手県,奥州市,水沢東上野町,イワテケン,オウシュウシ,ミズサワヒガシウワノチョウ,岩手県奥州市水沢東上野町
0230854,岩手県,奥州市,水沢大鐘町,イワテケン,オウシュウシ,ミズサワオオガネチョウ,岩手県奥州市水沢大鐘町
0230855,岩手県,奥州市,水沢南大鐘,イワテケン,オウシュウシ,ミズサワミナミオオガネ,岩手県奥州市水沢南大鐘
0230856,岩手県,奥州市,水沢西上野町,イワテケン,オウシュウシ,ミズサワニシウワノチョウ,岩手県奥州市水沢西上野町
0230857,岩手県,奥州市,水沢中上野町,イワテケン,オウシュウシ,ミズサワナカウワノチョウ,岩手県奥州市水沢中上野町
0230861,岩手県,奥州市,水沢星ガ丘町,イワテケン,オウシュウシ,ミズサワホシガオカチョウ,岩手県奥州市水沢星ガ丘町
0230862,岩手県,奥州市,水沢福吉町,イワテケン,オウシュウシ,ミズサワフクヨシチョウ,岩手県奥州市水沢福吉町
0230863,岩手県,奥州市,水沢川端,イワテケン,オウシュウシ,ミズサワカワバタ,岩手県奥州市水沢川端
0230864,岩手県,奥州市,水沢龍ヶ馬場,イワテケン,オウシュウシ,ミズサワリュウガババ,岩手県奥州市水沢龍ヶ馬場
0230865,岩手県,奥州市,水沢桜屋敷,イワテケン,オウシュウシ,ミズサワサクラヤシキ,岩手県奥州市水沢桜屋敷
0230866,岩手県,奥州市,水沢堰合,イワテケン,オウシュウシ,ミズサワセキアイ,岩手県奥州市水沢堰合
0230867,岩手県,奥州市,水沢大橋,イワテケン,オウシュウシ,ミズサワオオハシ,岩手県奥州市水沢大橋
0230871,岩手県,奥州市,水沢外谷地,イワテケン,オウシュウシ,ミズサワソトヤチ,岩手県奥州市水沢外谷地
0230872,岩手県,奥州市,水沢桜屋敷西,イワテケン,オウシュウシ,ミズサワサクラヤシキニシ,岩手県奥州市水沢桜屋敷西
0230873,岩手県,奥州市,水沢笹森谷地,イワテケン,オウシュウシ,ミズサワササモリヤチ,岩手県奥州市水沢笹森谷地
0230874,岩手県,奥州市,水沢見分森,イワテケン,オウシュウシ,ミズサワミワケモリ,岩手県奥州市水沢見分森
0230875,岩手県,奥州市,水沢森下,イワテケン,オウシュウシ,ミズサワモリシタ,岩手県奥州市水沢森下
0230876,岩手県,奥州市,水沢鶴淵,イワテケン,オウシュウシ,ミズサワツルブチ,岩手県奥州市水沢鶴淵
0230877,岩手県,奥州市,水沢袖谷地,イワテケン,オウシュウシ,ミズサワソデヤチ,岩手県奥州市水沢袖谷地
0230881,岩手県,奥州市,水沢北田,イワテケン,オウシュウシ,ミズサワキタダ,岩手県奥州市水沢北田
0230882,岩手県,奥州市,水沢福原,イワテケン,オウシュウシ,ミズサワフクワラ,岩手県奥州市水沢福原
0230883,岩手県,奥州市,水沢町裏,イワテケン,オウシュウシ,ミズサワマチウラ,岩手県奥州市水沢町裏
0230884,岩手県,奥州市,水沢前谷地,イワテケン,オウシュウシ,ミズサワマエヤチ,岩手県奥州市水沢前谷地
0230885,岩手県,奥州市,水沢西田,イワテケン,オウシュウシ,ミズサワニシダ,岩手県奥州市水沢西田
0230886,岩手県,奥州市,水沢南矢中,イワテケン,オウシュウシ,ミズサワミナミヤナカ,岩手県奥州市水沢南矢中
0230887,岩手県,奥州市,水沢矢中,イワテケン,オウシュウシ,ミズサワヤナカ,岩手県奥州市水沢矢中
0230888,岩手県,奥州市,水沢八反田,イワテケン,オウシュウシ,ミズサワハッタンダ,岩手県奥州市水沢八反田
0230889,岩手県,奥州市,水沢高屋敷,イワテケン,オウシュウシ,ミズサワタカヤシキ,岩手県奥州市水沢高屋敷
0230891,岩手県,奥州市,水沢内匠田,イワテケン,オウシュウシ,ミズサワタクミダ,岩手県奥州市水沢内匠田
0230892,岩手県,奥州市,水沢釜田,イワテケン,オウシュウシ,ミズサワカマタ,岩手県奥州市水沢釜田
0230893,岩手県,奥州市,水沢蓬田,イワテケン,オウシュウシ,ミズサワヨモギダ,岩手県奥州市水沢蓬田
0230894,岩手県,奥州市,水沢大明神,イワテケン,オウシュウシ,ミズサワダイミョウジン,岩手県奥州市水沢大明神
0230895,岩手県,奥州市,水沢足袋針,イワテケン,オウシュウシ,ミズサワタビハリ,岩手県奥州市水沢足袋針
0230896,岩手県,奥州市,水沢西光田,イワテケン,オウシュウシ,ミズサワニシコウデン,岩手県奥州市水沢西光田
0230897,岩手県,奥州市,水沢桜川,イワテケン,オウシュウシ,ミズサワサクラカワ,岩手県奥州市水沢桜川
0230898,岩手県,奥州市,水沢後田,イワテケン,オウシュウシ,ミズサワウシロダ,岩手県奥州市水沢後田
0231101,岩手県,奥州市,江刺岩谷堂,イワテケン,オウシュウシ,エサシイワヤドウ,岩手県奥州市江刺岩谷堂
0231102,岩手県,奥州市,江刺八日町,イワテケン,オウシュウシ,エサシヨウカマチ,岩手県奥州市江刺八日町
0231103,岩手県,奥州市,江刺西大通り,イワテケン,オウシュウシ,エサシニシオオドオリ,岩手県奥州市江刺西大通り
0231104,岩手県,奥州市,江刺豊田町,イワテケン,オウシュウシ,エサシトヨタチョウ,岩手県奥州市江刺豊田町
0231105,岩手県,奥州市,江刺杉ノ町,イワテケン,オウシュウシ,エサシスギノマチ,岩手県奥州市江刺杉ノ町
0231111,岩手県,奥州市,江刺大通り,イワテケン,オウシュウシ,エサシオオドオリ,岩手県奥州市江刺大通り
0231112,岩手県,奥州市,江刺南大通り,イワテケン,オウシュウシ,エサシミナミオオドオリ,岩手県奥州市江刺南大通り
0231113,岩手県,奥州市,江刺中町,イワテケン,オウシュウシ,エサシナカマチ,岩手県奥州市江刺中町
0231114,岩手県,奥州市,江刺川原町,イワテケン,オウシュウシ,エサシカワラマチ,岩手県奥州市江刺川原町
0231115,岩手県,奥州市,江刺本町,イワテケン,オウシュウシ,エサシホンチョウ,岩手県奥州市江刺本町
0231116,岩手県,奥州市,江刺重染寺,イワテケン,オウシュウシ,エサシチョウゼンジ,岩手県奥州市江刺重染寺
0231117,岩手県,奥州市,江刺南町,イワテケン,オウシュウシ,エサシミナミマチ,岩手県奥州市江刺南町
0231118,岩手県,奥州市,江刺栄町,イワテケン,オウシュウシ,エサシサカエチョウ,岩手県奥州市江刺栄町
0231121,岩手県,奥州市,江刺男石,イワテケン,オウシュウシ,エサシオトコイシ,岩手県奥州市江刺男石
0231122,岩手県,奥州市,江刺館山,イワテケン,オウシュウシ,エサシタテヤマ,岩手県奥州市江刺館山
0231123,岩手県,奥州市,江刺前田町,イワテケン,オウシュウシ,エサシマエダチョウ,岩手県奥州市江刺前田町
0231124,岩手県,奥州市,江刺六日町,イワテケン,オウシュウシ,エサシムイカマチ,岩手県奥州市江刺六日町
0231125,岩手県,奥州市,江刺銭町,イワテケン,オウシュウシ,エサシゼニマチ,岩手県奥州市江刺銭町
0231131,岩手県,奥州市,江刺愛宕,イワテケン,オウシュウシ,エサシオダキ,岩手県奥州市江刺愛宕
0231132,岩手県,奥州市,江刺稲瀬,イワテケン,オウシュウシ,エサシイナセ,岩手県奥州市江刺稲瀬
0231133,岩手県,奥州市,江刺広瀬,イワテケン,オウシュウシ,エサシヒロセ,岩手県奥州市江刺広瀬
0231134,岩手県,奥州市,江刺玉里,イワテケン,オウシュウシ,エサシタマサト,岩手県奥州市江刺玉里
0231341,岩手県,奥州市,江刺梁川,イワテケン,オウシュウシ,エサシヤナガワ,岩手県奥州市江刺梁川
0231551,岩手県,奥州市,江刺米里,イワテケン,オウシュウシ,エサシヨネサト,岩手県奥州市江刺米里
0231761,岩手県,奥州市,江刺伊手,イワテケン,オウシュウシ,エサシイデ,岩手県奥州市江刺伊手
0231762,岩手県,奥州市,江刺藤里,イワテケン,オウシュウシ,エサシフジサト,岩手県奥州市江刺藤里
0240000,岩手県,北上市,,イワテケン,キタカミシ,,岩手県北上市
0240001,岩手県,北上市,飯豊,イワテケン,キタカミシ,イイトヨ,岩手県北上市飯豊
0240002,岩手県,北上市,北工業団地（その他）,イワテケン,キタカミシ,キタコウギョウダンチ(ソノタ),岩手県北上市北工業団地（その他）
0240003,岩手県,北上市,成田,イワテケン,キタカミシ,ナリタ,岩手県北上市成田
0240004,岩手県,北上市,村崎野,イワテケン,キタカミシ,ムラサキノ,岩手県北上市村崎野
0240011,岩手県,北上市,堤ケ丘,イワテケン,キタカミシ,ツツミガオカ,岩手県北上市堤ケ丘
0240012,岩手県,北上市,常盤台,イワテケン,キタカミシ,トキワダイ,岩手県北上市常盤台
0240013,岩手県,北上市,藤沢,イワテケン,キタカミシ,フジサワ,岩手県北上市藤沢
0240014,岩手県,北上市,流通センター,イワテケン,キタカミシ,リュウツウセンター,岩手県北上市流通センター
0240021,岩手県,北上市,上野町,イワテケン,キタカミシ,ウエノチョウ,岩手県北上市上野町
0240022,岩手県,北上市,黒沢尻,イワテケン,キタカミシ,クロサワジリ,岩手県北上市黒沢尻
0240023,岩手県,北上市,里分,イワテケン,キタカミシ,サトブン,岩手県北上市里分
0240024,岩手県,北上市,中野町,イワテケン,キタカミシ,ナカノチョウ,岩手県北上市中野町
0240025,岩手県,北上市,孫屋敷,イワテケン,キタカミシ,マゴヤシキ,岩手県北上市孫屋敷
0240031,岩手県,北上市,青柳町,イワテケン,キタカミシ,アオヤギチョウ,岩手県北上市青柳町
0240032,岩手県,北上市,川岸,イワテケン,キタカミシ,カワギシ,岩手県北上市川岸
0240033,岩手県,北上市,幸町,イワテケン,キタカミシ,サイワイチョウ,岩手県北上市幸町
0240034,岩手県,北上市,諏訪町,イワテケン,キタカミシ,スワチョウ,岩手県北上市諏訪町
0240035,岩手県,北上市,花園町,イワテケン,キタカミシ,ハナゾノチョウ,岩手県北上市花園町
0240041,岩手県,北上市,稲瀬町,イワテケン,キタカミシ,イナセチョウ,岩手県北上市稲瀬町
0240042,岩手県,北上市,黒岩,イワテケン,キタカミシ,クロイワ,岩手県北上市黒岩
0240043,岩手県,北上市,立花,イワテケン,キタカミシ,タチバナ,岩手県北上市立花
0240044,岩手県,北上市,平沢,イワテケン,キタカミシ,ヒラサワ,岩手県北上市平沢
0240045,岩手県,北上市,湯沢,イワテケン,キタカミシ,ユザワ,岩手県北上市湯沢
0240051,岩手県,北上市,相去町,イワテケン,キタカミシ,アイサリチョウ,岩手県北上市相去町
0240052,岩手県,北上市,大堤北,イワテケン,キタカミシ,オオツツミキタ,岩手県北上市大堤北
0240053,岩手県,北上市,大堤西,イワテケン,キタカミシ,オオツツミニシ,岩手県北上市大堤西
0240054,岩手県,北上市,大堤東,イワテケン,キタカミシ,オオツツミヒガシ,岩手県北上市大堤東
0240055,岩手県,北上市,大堤南,イワテケン,キタカミシ,オオツツミミナミ,岩手県北上市大堤南
0240056,岩手県,北上市,鬼柳町,イワテケン,キタカミシ,オニヤナギチョウ,岩手県北上市鬼柳町
0240057,岩手県,北上市,上鬼柳,イワテケン,キタカミシ,カミオニヤナギ,岩手県北上市上鬼柳
0240058,岩手県,北上市,下鬼柳,イワテケン,キタカミシ,シモオニヤナギ,岩手県北上市下鬼柳
0240061,岩手県,北上市,大通り,イワテケン,キタカミシ,オオドオリ,岩手県北上市大通り
0240062,岩手県,北上市,鍛冶町,イワテケン,キタカミシ,カジマチ,岩手県北上市鍛冶町
0240063,岩手県,北上市,九年橋,イワテケン,キタカミシ,クネンバシ,岩手県北上市九年橋
0240064,岩手県,北上市,若宮町,イワテケン,キタカミシ,ワカミヤチョウ,岩手県北上市若宮町
0240071,岩手県,北上市,上江釣子,イワテケン,キタカミシ,カミエヅリコ,岩手県北上市上江釣子
0240072,岩手県,北上市,北鬼柳,イワテケン,キタカミシ,キタオニヤナギ,岩手県北上市北鬼柳
0240073,岩手県,北上市,下江釣子,イワテケン,キタカミシ,シモエヅリコ,岩手県北上市下江釣子
0240074,岩手県,北上市,滑田,イワテケン,キタカミシ,ナメシダ,岩手県北上市滑田
0240075,岩手県,北上市,新平,イワテケン,キタカミシ,ニツペイ,岩手県北上市新平
0240076,岩手県,北上市,鳩岡崎,イワテケン,キタカミシ,ハトオカザキ,岩手県北上市鳩岡崎
0240081,岩手県,北上市,有田町,イワテケン,キタカミシ,アリタチョウ,岩手県北上市有田町
0240082,岩手県,北上市,町分,イワテケン,キタカミシ,マチブン,岩手県北上市町分
0240083,岩手県,北上市,柳原町,イワテケン,キタカミシ,ヤナギハラチョウ,岩手県北上市柳原町
0240084,岩手県,北上市,さくら通り,イワテケン,キタカミシ,サクラドオリ,岩手県北上市さくら通り
0240091,岩手県,北上市,大曲町,イワテケン,キタカミシ,オオマガリチョウ,岩手県北上市大曲町
0240092,岩手県,北上市,新穀町,イワテケン,キタカミシ,シンコクチョウ,岩手県北上市新穀町
0240093,岩手県,北上市,本石町,イワテケン,キタカミシ,ホンゴクチョウ,岩手県北上市本石町
0240094,岩手県,北上市,本通り,イワテケン,キタカミシ,ホンドオリ,岩手県北上市本通り
0240095,岩手県,北上市,芳町,イワテケン,キタカミシ,ヨシチョウ,岩手県北上市芳町
0240101,岩手県,北上市,臥牛,イワテケン,キタカミシ,フシウシ,岩手県北上市臥牛
0240102,岩手県,北上市,北工業団地（３、５番地）,イワテケン,キタカミシ,キタコウギョウダンチ(3、5バンチ),岩手県北上市北工業団地（3、5-）
0240103,岩手県,北上市,更木,イワテケン,キタカミシ,サラキ,岩手県北上市更木
0240104,岩手県,北上市,二子町,イワテケン,キタカミシ,フタゴチョウ,岩手県北上市二子町
0240105,岩手県,北上市,小鳥崎,イワテケン,キタカミシ,コトリザキ,岩手県北上市小鳥崎
0240211,岩手県,北上市,口内町,イワテケン,キタカミシ,クチナイチョウ,岩手県北上市口内町
0240321,岩手県,北上市,和賀町岩崎,イワテケン,キタカミシ,ワガチョウイワサキ,岩手県北上市和賀町岩崎
0240322,岩手県,北上市,和賀町岩崎新田,イワテケン,キタカミシ,ワガチョウイワサキシンデン,岩手県北上市和賀町岩崎新田
0240323,岩手県,北上市,和賀町煤孫,イワテケン,キタカミシ,ワガチョウススマゴ,岩手県北上市和賀町煤孫
0240324,岩手県,北上市,和賀町山口,イワテケン,キタカミシ,ワガチョウヤマグチ,岩手県北上市和賀町山口
0240325,岩手県,北上市,和賀町岩沢,イワテケン,キタカミシ,ワガチョウイワサワ,岩手県北上市和賀町岩沢
0240326,岩手県,北上市,和賀町仙人,イワテケン,キタカミシ,ワガチョウセンニン,岩手県北上市和賀町仙人
0240331,岩手県,北上市,和賀町横川目,イワテケン,キタカミシ,ワガチョウヨコカワメ,岩手県北上市和賀町横川目
0240332,岩手県,北上市,和賀町竪川目,イワテケン,キタカミシ,ワガチョウタテカワメ,岩手県北上市和賀町竪川目
0240333,岩手県,北上市,和賀町長沼,イワテケン,キタカミシ,ワガチョウナガヌマ,岩手県北上市和賀町長沼
0240334,岩手県,北上市,和賀町藤根,イワテケン,キタカミシ,ワガチョウフジネ,岩手県北上市和賀町藤根
0240335,岩手県,北上市,和賀町後藤,イワテケン,キタカミシ,ワガチョウゴトウ,岩手県北上市和賀町後藤
0240341,岩手県,和賀郡西和賀町,杉名畑４４地割（湯田ダム管理事務所、後口山、当楽）,イワテケン,ワガグンニシワガマチ,スギナハタ44チワリ(ユダダムカンリジムショ、ウシログチヤマ、アテラク),岩手県和賀郡西和賀町杉名畑44-（湯田ダム管理事務所、後口山、当楽）
0250000,岩手県,花巻市,,イワテケン,ハナマキシ,,岩手県花巻市
0250001,岩手県,花巻市,天下田,イワテケン,ハナマキシ,テンカダ,岩手県花巻市天下田
0250002,岩手県,花巻市,西宮野目,イワテケン,ハナマキシ,ニシミヤノメ,岩手県花巻市西宮野目
0250003,岩手県,花巻市,東宮野目,イワテケン,ハナマキシ,ヒガシミヤノメ,岩手県花巻市東宮野目
0250004,岩手県,花巻市,葛,イワテケン,ハナマキシ,クズ,岩手県花巻市葛
0250005,岩手県,花巻市,田力,イワテケン,ハナマキシ,タチカラ,岩手県花巻市田力
0250006,岩手県,花巻市,下似内,イワテケン,ハナマキシ,シモニタナイ,岩手県花巻市下似内
0250007,岩手県,花巻市,上似内,イワテケン,ハナマキシ,カミニタナイ,岩手県花巻市上似内
0250008,岩手県,花巻市,空港南,イワテケン,ハナマキシ,クウコウミナミ,岩手県花巻市空港南
0250011,岩手県,花巻市,矢沢,イワテケン,ハナマキシ,ヤサワ,岩手県花巻市矢沢
0250012,岩手県,花巻市,胡四王,イワテケン,ハナマキシ,コシオウ,岩手県花巻市胡四王
0250013,岩手県,花巻市,幸田,イワテケン,ハナマキシ,コウダ,岩手県花巻市幸田
0250014,岩手県,花巻市,高松,イワテケン,ハナマキシ,タカマツ,岩手県花巻市高松
0250015,岩手県,花巻市,東十二丁目,イワテケン,ハナマキシ,ヒガシジュウニチョウメ,岩手県花巻市東十2
0250016,岩手県,花巻市,高木,イワテケン,ハナマキシ,タカキ,岩手県花巻市高木
0250021,岩手県,花巻市,南城,イワテケン,ハナマキシ,ナンジョウ,岩手県花巻市南城
0250022,岩手県,花巻市,十二丁目,イワテケン,ハナマキシ,ジュウニチョウメ,岩手県花巻市十2
0250023,岩手県,花巻市,成田,イワテケン,ハナマキシ,ナリタ,岩手県花巻市成田
0250024,岩手県,花巻市,山の神,イワテケン,ハナマキシ,ヤマノカミ,岩手県花巻市山の神
0250025,岩手県,花巻市,下根子,イワテケン,ハナマキシ,シモネコ,岩手県花巻市下根子
0250026,岩手県,花巻市,大谷地,イワテケン,ハナマキシ,オオヤチ,岩手県花巻市大谷地
0250031,岩手県,花巻市,不動,イワテケン,ハナマキシ,フドウ,岩手県花巻市不動
0250032,岩手県,花巻市,上諏訪,イワテケン,ハナマキシ,カミスワ,岩手県花巻市上諏訪
0250033,岩手県,花巻市,諏訪,イワテケン,ハナマキシ,スワ,岩手県花巻市諏訪
0250034,岩手県,花巻市,南諏訪町,イワテケン,ハナマキシ,ミナミスワチョウ,岩手県花巻市南諏訪町
0250035,岩手県,花巻市,実相寺,イワテケン,ハナマキシ,ジツソウジ,岩手県花巻市実相寺
0250036,岩手県,花巻市,中根子,イワテケン,ハナマキシ,ナカネコ,岩手県花巻市中根子
0250037,岩手県,花巻市,太田,イワテケン,ハナマキシ,オオタ,岩手県花巻市太田
0250038,岩手県,花巻市,不動町,イワテケン,ハナマキシ,フドウチョウ,岩手県花巻市不動町
0250039,岩手県,花巻市,諏訪町,イワテケン,ハナマキシ,スワチョウ,岩手県花巻市諏訪町
0250041,岩手県,花巻市,膝立,イワテケン,ハナマキシ,ヒザタテ,岩手県花巻市膝立
0250042,岩手県,花巻市,円万寺,イワテケン,ハナマキシ,エンマンジ,岩手県花巻市円万寺
0250043,岩手県,花巻市,上根子,イワテケン,ハナマキシ,カミネコ,岩手県花巻市上根子
0250044,岩手県,花巻市,湯口（石川原、田屋、二ツ堰、的場）,イワテケン,ハナマキシ,ユグチ(イシカワラ、タヤ、フタツゼキ、マトバ),岩手県花巻市湯口（石川原、田屋、二ツ堰、的場）
0250045,岩手県,花巻市,西晴山,イワテケン,ハナマキシ,ニシハレヤマ,岩手県花巻市西晴山
0250046,岩手県,花巻市,鍋倉,イワテケン,ハナマキシ,ナベクラ,岩手県花巻市鍋倉
0250051,岩手県,花巻市,南新田,イワテケン,ハナマキシ,ミナミシンデン,岩手県花巻市南新田
0250052,岩手県,花巻市,野田,イワテケン,ハナマキシ,ノダ,岩手県花巻市野田
0250053,岩手県,花巻市,中北万丁目,イワテケン,ハナマキシ,ナカキタマンチョウメ,岩手県花巻市中北万丁目
0250054,岩手県,花巻市,下北万丁目,イワテケン,ハナマキシ,シモキタマンチョウメ,岩手県花巻市下北万丁目
0250055,岩手県,花巻市,南万丁目,イワテケン,ハナマキシ,ミナミマンチョウメ,岩手県花巻市南万丁目
0250056,岩手県,花巻市,上北万丁目,イワテケン,ハナマキシ,カミキタマンチョウメ,岩手県花巻市上北万丁目
0250057,岩手県,花巻市,新田,イワテケン,ハナマキシ,シンデン,岩手県花巻市新田
0250058,岩手県,花巻市,一本杉,イワテケン,ハナマキシ,イッポンスギ,岩手県花巻市一本杉
0250061,岩手県,花巻市,本館,イワテケン,ハナマキシ,モトダテ,岩手県花巻市本館
0250062,岩手県,花巻市,上小舟渡,イワテケン,ハナマキシ,カミコブナト,岩手県花巻市上小舟渡
0250063,岩手県,花巻市,下小舟渡,イワテケン,ハナマキシ,シモコブナト,岩手県花巻市下小舟渡
0250064,岩手県,花巻市,桜台,イワテケン,ハナマキシ,サクラダイ,岩手県花巻市桜台
0250065,岩手県,花巻市,星が丘,イワテケン,ハナマキシ,ホシガオカ,岩手県花巻市星が丘
0250066,岩手県,花巻市,松園町,イワテケン,ハナマキシ,マツゾノチョウ,岩手県花巻市松園町
0250067,岩手県,花巻市,浅沢,イワテケン,ハナマキシ,アサザワ,岩手県花巻市浅沢
0250068,岩手県,花巻市,下幅,イワテケン,ハナマキシ,シタハバ,岩手県花巻市下幅
0250071,岩手県,花巻市,愛宕町,イワテケン,ハナマキシ,アタゴチョウ,岩手県花巻市愛宕町
0250072,岩手県,花巻市,四日町,イワテケン,ハナマキシ,ヨッカマチ,岩手県花巻市四日町
0250073,岩手県,花巻市,一日市,イワテケン,ハナマキシ,ヒトイチ,岩手県花巻市一日市
0250074,岩手県,花巻市,坂本町,イワテケン,ハナマキシ,サカモトチョウ,岩手県花巻市坂本町
0250075,岩手県,花巻市,花城町,イワテケン,ハナマキシ,カジョウマチ,岩手県花巻市花城町
0250076,岩手県,花巻市,城内,イワテケン,ハナマキシ,ジョウナイ,岩手県花巻市城内
0250077,岩手県,花巻市,仲町,イワテケン,ハナマキシ,ナカマチ,岩手県花巻市仲町
0250078,岩手県,花巻市,吹張町,イワテケン,ハナマキシ,フツパリチョウ,岩手県花巻市吹張町
0250079,岩手県,花巻市,末広町,イワテケン,ハナマキシ,スエヒロチョウ,岩手県花巻市末広町
0250081,岩手県,花巻市,里川口町,イワテケン,ハナマキシ,サトカワグチマチ,岩手県花巻市里川口町
0250082,岩手県,花巻市,御田屋町,イワテケン,ハナマキシ,オタヤチョウ,岩手県花巻市御田屋町
0250083,岩手県,花巻市,高田,イワテケン,ハナマキシ,タカダ,岩手県花巻市高田
0250084,岩手県,花巻市,桜町,イワテケン,ハナマキシ,サクラマチ,岩手県花巻市桜町
0250085,岩手県,花巻市,双葉町,イワテケン,ハナマキシ,フタバチョウ,岩手県花巻市双葉町
0250086,岩手県,花巻市,鍛治町,イワテケン,ハナマキシ,カジマチ,岩手県花巻市鍛治町
0250087,岩手県,花巻市,上町,イワテケン,ハナマキシ,カミチョウ,岩手県花巻市上町
0250088,岩手県,花巻市,東町,イワテケン,ハナマキシ,アズマチョウ,岩手県花巻市東町
0250089,岩手県,花巻市,豊沢町,イワテケン,ハナマキシ,トヨサワチョウ,岩手県花巻市豊沢町
0250091,岩手県,花巻市,西大通り,イワテケン,ハナマキシ,ニシオオドオリ,岩手県花巻市西大通り
0250092,岩手県,花巻市,大通り,イワテケン,ハナマキシ,オオドオリ,岩手県花巻市大通り
0250093,岩手県,花巻市,南川原町,イワテケン,ハナマキシ,ミナミカワラチョウ,岩手県花巻市南川原町
0250094,岩手県,花巻市,桜木町,イワテケン,ハナマキシ,サクラギチョウ,岩手県花巻市桜木町
0250095,岩手県,花巻市,石神町,イワテケン,ハナマキシ,イシガミチョウ,岩手県花巻市石神町
0250096,岩手県,花巻市,藤沢町,イワテケン,ハナマキシ,フジサワチョウ,岩手県花巻市藤沢町
0250097,岩手県,花巻市,若葉町,イワテケン,ハナマキシ,ワカバチョウ,岩手県花巻市若葉町
0250098,岩手県,花巻市,材木町,イワテケン,ハナマキシ,ザイモクチョウ,岩手県花巻市材木町
0250131,岩手県,花巻市,轟木,イワテケン,ハナマキシ,トドロキ,岩手県花巻市轟木
0250132,岩手県,花巻市,北笹間,イワテケン,ハナマキシ,キタササマ,岩手県花巻市北笹間
0250133,岩手県,花巻市,中笹間,イワテケン,ハナマキシ,ナカササマ,岩手県花巻市中笹間
0250134,岩手県,花巻市,南笹間,イワテケン,ハナマキシ,ミナミササマ,岩手県花巻市南笹間
0250135,岩手県,花巻市,栃内,イワテケン,ハナマキシ,トチナイ,岩手県花巻市栃内
0250136,岩手県,花巻市,横志田,イワテケン,ハナマキシ,ヨコシダ,岩手県花巻市横志田
0250137,岩手県,花巻市,尻平川,イワテケン,ハナマキシ,シリタイラガワ,岩手県花巻市尻平川
0250244,岩手県,花巻市,湯口（その他）,イワテケン,ハナマキシ,ユグチ(ソノタ),岩手県花巻市湯口（その他）
0250251,岩手県,花巻市,豊沢,イワテケン,ハナマキシ,トヨサワ,岩手県花巻市豊沢
0250252,岩手県,花巻市,鉛,イワテケン,ハナマキシ,ナマリ,岩手県花巻市鉛
0250253,岩手県,花巻市,下シ沢,イワテケン,ハナマキシ,クタシザワ,岩手県花巻市下シ沢
0250301,岩手県,花巻市,北湯口,イワテケン,ハナマキシ,キタユグチ,岩手県花巻市北湯口
0250302,岩手県,花巻市,糠塚,イワテケン,ハナマキシ,ヌカヅカ,岩手県花巻市糠塚
0250303,岩手県,花巻市,大畑,イワテケン,ハナマキシ,オオハタ,岩手県花巻市大畑
0250304,岩手県,花巻市,湯本,イワテケン,ハナマキシ,ユモト,岩手県花巻市湯本
0250305,岩手県,花巻市,台,イワテケン,ハナマキシ,ダイ,岩手県花巻市台
0250311,岩手県,花巻市,卸町,イワテケン,ハナマキシ,オロシマチ,岩手県花巻市卸町
0250312,岩手県,花巻市,二枚橋,イワテケン,ハナマキシ,ニマイバシ,岩手県花巻市二枚橋
0250313,岩手県,花巻市,二枚橋町北,イワテケン,ハナマキシ,ニマイバシマチキタ,岩手県花巻市二枚橋町北
0250314,岩手県,花巻市,二枚橋町大通り,イワテケン,ハナマキシ,ニマイバシマチオオドオリ,岩手県花巻市二枚橋町大通り
0250315,岩手県,花巻市,二枚橋町南,イワテケン,ハナマキシ,ニマイバシマチミナミ,岩手県花巻市二枚橋町南
0250321,岩手県,花巻市,金矢,イワテケン,ハナマキシ,カナヤ,岩手県花巻市金矢
0250322,岩手県,花巻市,狼沢,イワテケン,ハナマキシ,オオカミザワ,岩手県花巻市狼沢
0250323,岩手県,花巻市,椚ノ目,イワテケン,ハナマキシ,クヌギノメ,岩手県花巻市椚ノ目
0250324,岩手県,花巻市,小瀬川,イワテケン,ハナマキシ,コセガワ,岩手県花巻市小瀬川
0260000,岩手県,釜石市,,イワテケン,カマイシシ,,岩手県釜石市
0260001,岩手県,釜石市,平田,イワテケン,カマイシシ,ヘイタ,岩手県釜石市平田
0260002,岩手県,釜石市,大平町,イワテケン,カマイシシ,オオダイラチョウ,岩手県釜石市大平町
0260003,岩手県,釜石市,嬉石町,イワテケン,カマイシシ,ウレイシチョウ,岩手県釜石市嬉石町
0260004,岩手県,釜石市,松原町,イワテケン,カマイシシ,マツバラチョウ,岩手県釜石市松原町
0260005,岩手県,釜石市,平田町,イワテケン,カマイシシ,ヘイタチョウ,岩手県釜石市平田町
0260011,岩手県,釜石市,港町,イワテケン,カマイシシ,ミナトマチ,岩手県釜石市港町
0260012,岩手県,釜石市,魚河岸,イワテケン,カマイシシ,ウオガシ,岩手県釜石市魚河岸
0260013,岩手県,釜石市,浜町,イワテケン,カマイシシ,ハマチョウ,岩手県釜石市浜町
0260014,岩手県,釜石市,東前町,イワテケン,カマイシシ,ヒガシマエチョウ,岩手県釜石市東前町
0260015,岩手県,釜石市,新浜町,イワテケン,カマイシシ,シンハマチョウ,岩手県釜石市新浜町
0260021,岩手県,釜石市,只越町,イワテケン,カマイシシ,タダコエチョウ,岩手県釜石市只越町
0260022,岩手県,釜石市,大只越町,イワテケン,カマイシシ,オオタダコエチョウ,岩手県釜石市大只越町
0260023,岩手県,釜石市,天神町,イワテケン,カマイシシ,テンジンチョウ,岩手県釜石市天神町
0260024,岩手県,釜石市,大町,イワテケン,カマイシシ,オオマチ,岩手県釜石市大町
0260025,岩手県,釜石市,大渡町,イワテケン,カマイシシ,オオワタリチョウ,岩手県釜石市大渡町
0260026,岩手県,釜石市,釜石,イワテケン,カマイシシ,カマイシ,岩手県釜石市釜石
0260031,岩手県,釜石市,鈴子町,イワテケン,カマイシシ,スズコチョウ,岩手県釜石市鈴子町
0260032,岩手県,釜石市,千鳥町,イワテケン,カマイシシ,チドリチョウ,岩手県釜石市千鳥町
0260033,岩手県,釜石市,駒木町,イワテケン,カマイシシ,コマギチョウ,岩手県釜石市駒木町
0260034,岩手県,釜石市,中妻町,イワテケン,カマイシシ,ナカヅマチョウ,岩手県釜石市中妻町
0260035,岩手県,釜石市,八雲町,イワテケン,カマイシシ,ヤグモチョウ,岩手県釜石市八雲町
0260041,岩手県,釜石市,上中島町,イワテケン,カマイシシ,カミナカシマチョウ,岩手県釜石市上中島町
0260042,岩手県,釜石市,源太沢町,イワテケン,カマイシシ,ゲンタサワチョウ,岩手県釜石市源太沢町
0260043,岩手県,釜石市,新町,イワテケン,カマイシシ,シンマチ,岩手県釜石市新町
0260044,岩手県,釜石市,住吉町,イワテケン,カマイシシ,スミヨシチョウ,岩手県釜石市住吉町
0260045,岩手県,釜石市,小川町,イワテケン,カマイシシ,コガワチョウ,岩手県釜石市小川町
0260046,岩手県,釜石市,桜木町,イワテケン,カマイシシ,サクラギチョウ,岩手県釜石市桜木町
0260051,岩手県,釜石市,礼ケ口町,イワテケン,カマイシシ,レイガグチチョウ,岩手県釜石市礼ケ口町
0260052,岩手県,釜石市,小佐野町,イワテケン,カマイシシ,コサノチョウ,岩手県釜石市小佐野町
0260053,岩手県,釜石市,定内町,イワテケン,カマイシシ,サダナイチョウ,岩手県釜石市定内町
0260054,岩手県,釜石市,野田町,イワテケン,カマイシシ,ノダチョウ,岩手県釜石市野田町
0260055,岩手県,釜石市,甲子町,イワテケン,カマイシシ,カッシチョウ,岩手県釜石市甲子町
0260061,岩手県,釜石市,唐丹町（鍋倉）,イワテケン,カマイシシ,トウニチョウ(ナベクラ),岩手県釜石市唐丹町（鍋倉）
0260121,岩手県,釜石市,唐丹町（その他）,イワテケン,カマイシシ,トウニチョウ(ソノタ),岩手県釜石市唐丹町（その他）
0260301,岩手県,釜石市,鵜住居町,イワテケン,カマイシシ,ウノスマイチョウ,岩手県釜石市鵜住居町
0260302,岩手県,釜石市,片岸町,イワテケン,カマイシシ,カタギシチョウ,岩手県釜石市片岸町
0260303,岩手県,釜石市,箱崎町,イワテケン,カマイシシ,ハコザキチョウ,岩手県釜石市箱崎町
0260304,岩手県,釜石市,両石町,イワテケン,カマイシシ,リョウイシチョウ,岩手県釜石市両石町
0260411,岩手県,釜石市,橋野町,イワテケン,カマイシシ,ハシノチョウ,岩手県釜石市橋野町
0260412,岩手県,釜石市,栗林町,イワテケン,カマイシシ,クリバヤシチョウ,岩手県釜石市栗林町
0270000,岩手県,宮古市,,イワテケン,ミヤコシ,,岩手県宮古市
0270001,岩手県,宮古市,日立浜町,イワテケン,ミヤコシ,ヒタチハマチョウ,岩手県宮古市日立浜町
0270002,岩手県,宮古市,山根町,イワテケン,ミヤコシ,ヤマネチョウ,岩手県宮古市山根町
0270003,岩手県,宮古市,港町,イワテケン,ミヤコシ,ミナトマチ,岩手県宮古市港町
0270004,岩手県,宮古市,臨港通,イワテケン,ミヤコシ,リンコウドオリ,岩手県宮古市臨港通
0270005,岩手県,宮古市,光岸地,イワテケン,ミヤコシ,コウガンジ,岩手県宮古市光岸地
0270006,岩手県,宮古市,鍬ケ崎,イワテケン,ミヤコシ,クワガサキ,岩手県宮古市鍬ケ崎
0270007,岩手県,宮古市,日影町,イワテケン,ミヤコシ,ヒカゲチョウ,岩手県宮古市日影町
0270008,岩手県,宮古市,熊野町,イワテケン,ミヤコシ,クマノチョウ,岩手県宮古市熊野町
0270009,岩手県,宮古市,蛸の浜町,イワテケン,ミヤコシ,タコノハマチョウ,岩手県宮古市蛸の浜町
0270021,岩手県,宮古市,藤原,イワテケン,ミヤコシ,フジワラ,岩手県宮古市藤原
0270021,岩手県,宮古市,藤原上町,イワテケン,ミヤコシ,フジワラカミマチ,岩手県宮古市藤原上町
0270022,岩手県,宮古市,磯鶏石崎,イワテケン,ミヤコシ,ソケイイシザキ,岩手県宮古市磯鶏石崎
0270023,岩手県,宮古市,磯鶏沖,イワテケン,ミヤコシ,ソケイオキ,岩手県宮古市磯鶏沖
0270024,岩手県,宮古市,磯鶏,イワテケン,ミヤコシ,ソケイ,岩手県宮古市磯鶏
0270025,岩手県,宮古市,実田,イワテケン,ミヤコシ,ミタ,岩手県宮古市実田
0270026,岩手県,宮古市,上村,イワテケン,ミヤコシ,ワムラ,岩手県宮古市上村
0270027,岩手県,宮古市,磯鶏西,イワテケン,ミヤコシ,ソケイニシ,岩手県宮古市磯鶏西
0270028,岩手県,宮古市,神林,イワテケン,ミヤコシ,カンバヤシ,岩手県宮古市神林
0270029,岩手県,宮古市,藤の川,イワテケン,ミヤコシ,フジノカワ,岩手県宮古市藤の川
0270031,岩手県,宮古市,八木沢,イワテケン,ミヤコシ,ヤギサワ,岩手県宮古市八木沢
0270032,岩手県,宮古市,高浜,イワテケン,ミヤコシ,タカハマ,岩手県宮古市高浜
0270033,岩手県,宮古市,金浜,イワテケン,ミヤコシ,カネハマ,岩手県宮古市金浜
0270034,岩手県,宮古市,長沢,イワテケン,ミヤコシ,ナガサワ,岩手県宮古市長沢
0270035,岩手県,宮古市,花輪,イワテケン,ミヤコシ,ハナワ,岩手県宮古市花輪
0270036,岩手県,宮古市,田鎖,イワテケン,ミヤコシ,タクサリ,岩手県宮古市田鎖
0270037,岩手県,宮古市,松山,イワテケン,ミヤコシ,マツヤマ,岩手県宮古市松山
0270038,岩手県,宮古市,小山田,イワテケン,ミヤコシ,コヤマダ,岩手県宮古市小山田
0270039,岩手県,宮古市,河南,イワテケン,ミヤコシ,カナン,岩手県宮古市河南
0270041,岩手県,宮古市,西ケ丘,イワテケン,ミヤコシ,ニシガオカ,岩手県宮古市西ケ丘
0270042,岩手県,宮古市,神田沢町,イワテケン,ミヤコシ,カンダザワチョウ,岩手県宮古市神田沢町
0270043,岩手県,宮古市,千徳町,イワテケン,ミヤコシ,セントクマチ,岩手県宮古市千徳町
0270044,岩手県,宮古市,上鼻,イワテケン,ミヤコシ,カンパナ,岩手県宮古市上鼻
0270045,岩手県,宮古市,老木,イワテケン,ミヤコシ,ロウキ,岩手県宮古市老木
0270046,岩手県,宮古市,花原市,イワテケン,ミヤコシ,ケバライチ,岩手県宮古市花原市
0270047,岩手県,宮古市,根市,イワテケン,ミヤコシ,ネイチ,岩手県宮古市根市
0270048,岩手県,宮古市,板屋,イワテケン,ミヤコシ,イタヤ,岩手県宮古市板屋
0270051,岩手県,宮古市,南町,イワテケン,ミヤコシ,ミナミマチ,岩手県宮古市南町
0270052,岩手県,宮古市,宮町,イワテケン,ミヤコシ,ミヤマチ,岩手県宮古市宮町
0270053,岩手県,宮古市,長町,イワテケン,ミヤコシ,ナガマチ,岩手県宮古市長町
0270054,岩手県,宮古市,太田,イワテケン,ミヤコシ,オオタ,岩手県宮古市太田
0270055,岩手県,宮古市,長根,イワテケン,ミヤコシ,ナガネ,岩手県宮古市長根
0270056,岩手県,宮古市,近内,イワテケン,ミヤコシ,チカナイ,岩手県宮古市近内
0270058,岩手県,宮古市,千徳,イワテケン,ミヤコシ,セントク,岩手県宮古市千徳
0270061,岩手県,宮古市,西町,イワテケン,ミヤコシ,ニシマチ,岩手県宮古市西町
0270062,岩手県,宮古市,泉町,イワテケン,ミヤコシ,イズミチョウ,岩手県宮古市泉町
0270063,岩手県,宮古市,山口,イワテケン,ミヤコシ,ヤマグチ,岩手県宮古市山口
0270064,岩手県,宮古市,宮園,イワテケン,ミヤコシ,ミヤゾノ,岩手県宮古市宮園
0270065,岩手県,宮古市,黒森町,イワテケン,ミヤコシ,クロモリチョウ,岩手県宮古市黒森町
0270066,岩手県,宮古市,田の神,イワテケン,ミヤコシ,タノカミ,岩手県宮古市田の神
0270067,岩手県,宮古市,田代,イワテケン,ミヤコシ,タシロ,岩手県宮古市田代
0270071,岩手県,宮古市,小沢,イワテケン,ミヤコシ,コザワ,岩手県宮古市小沢
0270072,岩手県,宮古市,五月町,イワテケン,ミヤコシ,サツキチョウ,岩手県宮古市五月町
0270073,岩手県,宮古市,緑ケ丘,イワテケン,ミヤコシ,ミドリガオカ,岩手県宮古市緑ケ丘
0270074,岩手県,宮古市,保久田,イワテケン,ミヤコシ,ホクダ,岩手県宮古市保久田
0270075,岩手県,宮古市,和見町,イワテケン,ミヤコシ,ワミマチ,岩手県宮古市和見町
0270076,岩手県,宮古市,栄町,イワテケン,ミヤコシ,サカエチョウ,岩手県宮古市栄町
0270077,岩手県,宮古市,舘合町,イワテケン,ミヤコシ,タテアイチョウ,岩手県宮古市舘合町
0270078,岩手県,宮古市,鴨崎町,イワテケン,ミヤコシ,カモザキチョウ,岩手県宮古市鴨崎町
0270081,岩手県,宮古市,新川町,イワテケン,ミヤコシ,シンカワチョウ,岩手県宮古市新川町
0270082,岩手県,宮古市,向町,イワテケン,ミヤコシ,ムカイマチ,岩手県宮古市向町
0270083,岩手県,宮古市,大通,イワテケン,ミヤコシ,オオドオリ,岩手県宮古市大通
0270084,岩手県,宮古市,末広町,イワテケン,ミヤコシ,スエヒロチョウ,岩手県宮古市末広町
0270085,岩手県,宮古市,黒田町,イワテケン,ミヤコシ,クロタマチ,岩手県宮古市黒田町
0270086,岩手県,宮古市,新町,イワテケン,ミヤコシ,アラマチ,岩手県宮古市新町
0270087,岩手県,宮古市,横町,イワテケン,ミヤコシ,ヨコマチ,岩手県宮古市横町
0270088,岩手県,宮古市,沢田,イワテケン,ミヤコシ,サワダ,岩手県宮古市沢田
0270089,岩手県,宮古市,本町,イワテケン,ミヤコシ,モトマチ,岩手県宮古市本町
0270091,岩手県,宮古市,築地,イワテケン,ミヤコシ,ツキジ,岩手県宮古市築地
0270092,岩手県,宮古市,愛宕,イワテケン,ミヤコシ,アタゴ,岩手県宮古市愛宕
0270093,岩手県,宮古市,中里団地,イワテケン,ミヤコシ,ナカサトダンチ,岩手県宮古市中里団地
0270094,岩手県,宮古市,日の出町,イワテケン,ミヤコシ,ヒノデチョウ,岩手県宮古市日の出町
0270095,岩手県,宮古市,佐原,イワテケン,ミヤコシ,サバラ,岩手県宮古市佐原
0270096,岩手県,宮古市,崎鍬ケ崎,イワテケン,ミヤコシ,サキクワガサキ,岩手県宮古市崎鍬ケ崎
0270097,岩手県,宮古市,崎山,イワテケン,ミヤコシ,サキヤマ,岩手県宮古市崎山
0270111,岩手県,宮古市,重茂,イワテケン,ミヤコシ,オモエ,岩手県宮古市重茂
0270112,岩手県,宮古市,音部,イワテケン,ミヤコシ,オトベ,岩手県宮古市音部
0270201,岩手県,宮古市,白浜,イワテケン,ミヤコシ,シラハマ,岩手県宮古市白浜
0270202,岩手県,宮古市,赤前,イワテケン,ミヤコシ,アカマエ,岩手県宮古市赤前
0270203,岩手県,宮古市,津軽石,イワテケン,ミヤコシ,ツガルイシ,岩手県宮古市津軽石
0270301,岩手県,宮古市,田老館が森,イワテケン,ミヤコシ,タロウタテガモリ,岩手県宮古市田老館が森
0270302,岩手県,宮古市,田老田中,イワテケン,ミヤコシ,タロウタナカ,岩手県宮古市田老田中
0270303,岩手県,宮古市,田老田の沢,イワテケン,ミヤコシ,タロウタノサワ,岩手県宮古市田老田の沢
0270304,岩手県,宮古市,田老ケラス,イワテケン,ミヤコシ,タロウケラス,岩手県宮古市田老ケラス
0270305,岩手県,宮古市,田老荒谷,イワテケン,ミヤコシ,タロウアリヤ,岩手県宮古市田老荒谷
0270306,岩手県,宮古市,田老川向,イワテケン,ミヤコシ,タロウカワムカイ,岩手県宮古市田老川向
0270307,岩手県,宮古市,田老,イワテケン,ミヤコシ,タロウ,岩手県宮古市田老
0270311,岩手県,宮古市,田老和野,イワテケン,ミヤコシ,タロウワノ,岩手県宮古市田老和野
0270312,岩手県,宮古市,田老越田,イワテケン,ミヤコシ,タロウコシダ,岩手県宮古市田老越田
0270313,岩手県,宮古市,田老駿達,イワテケン,ミヤコシ,タロウシュンダツ,岩手県宮古市田老駿達
0270321,岩手県,宮古市,田老乙部,イワテケン,ミヤコシ,タロウオトベ,岩手県宮古市田老乙部
0270322,岩手県,宮古市,田老青砂里,イワテケン,ミヤコシ,タロウアオザリ,岩手県宮古市田老青砂里
0270323,岩手県,宮古市,田老野原,イワテケン,ミヤコシ,タロウノハラ,岩手県宮古市田老野原
0270324,岩手県,宮古市,田老向山,イワテケン,ミヤコシ,タロウムカイヤマ,岩手県宮古市田老向山
0270325,岩手県,宮古市,田老三王,イワテケン,ミヤコシ,タロウサンノウ,岩手県宮古市田老三王
0270331,岩手県,宮古市,田老西向山,イワテケン,ミヤコシ,タロウニシムカイヤマ,岩手県宮古市田老西向山
0270332,岩手県,宮古市,田老樫内,イワテケン,ミヤコシ,タロウカシナイ,岩手県宮古市田老樫内
0270333,岩手県,宮古市,田老古田,イワテケン,ミヤコシ,タロウフルタ,岩手県宮古市田老古田
0270341,岩手県,宮古市,田老養呂地,イワテケン,ミヤコシ,タロウヨウロチ,岩手県宮古市田老養呂地
0270342,岩手県,宮古市,田老小田代,イワテケン,ミヤコシ,タロウコダシロ,岩手県宮古市田老小田代
0270343,岩手県,宮古市,田老上小田代,イワテケン,ミヤコシ,タロウカミコダシロ,岩手県宮古市田老上小田代
0270344,岩手県,宮古市,田老辰の口,イワテケン,ミヤコシ,タロウタツノクチ,岩手県宮古市田老辰の口
0270345,岩手県,宮古市,田老篠倉,イワテケン,ミヤコシ,タロウシノクラ,岩手県宮古市田老篠倉
0270346,岩手県,宮古市,田老七滝,イワテケン,ミヤコシ,タロウナナタキ,岩手県宮古市田老七滝
0270347,岩手県,宮古市,田老笹見平,イワテケン,ミヤコシ,タロウササミタイラ,岩手県宮古市田老笹見平
0270351,岩手県,宮古市,田老小林,イワテケン,ミヤコシ,タロウコバヤシ,岩手県宮古市田老小林
0270352,岩手県,宮古市,田老八幡水神,イワテケン,ミヤコシ,タロウヤハタスイジン,岩手県宮古市田老八幡水神
0270353,岩手県,宮古市,田老和蒔,イワテケン,ミヤコシ,タロウワマキ,岩手県宮古市田老和蒔
0270354,岩手県,宮古市,田老森崎,イワテケン,ミヤコシ,タロウモリサキ,岩手県宮古市田老森崎
0270355,岩手県,宮古市,田老末前,イワテケン,ミヤコシ,タロウスエマエ,岩手県宮古市田老末前
0270356,岩手県,宮古市,田老和山,イワテケン,ミヤコシ,タロウワヤマ,岩手県宮古市田老和山
0270357,岩手県,宮古市,田老向桑畑,イワテケン,ミヤコシ,タロウムカイクワハタ,岩手県宮古市田老向桑畑
0270358,岩手県,宮古市,田老立腰,イワテケン,ミヤコシ,タロウタテコシ,岩手県宮古市田老立腰
0270359,岩手県,宮古市,田老青倉,イワテケン,ミヤコシ,タロウアオクラ,岩手県宮古市田老青倉
0270361,岩手県,宮古市,田老小堀内,イワテケン,ミヤコシ,タロウコボリナイ,岩手県宮古市田老小堀内
0270362,岩手県,宮古市,田老小堀内南,イワテケン,ミヤコシ,タロウコボリナイミナミ,岩手県宮古市田老小堀内南
0270363,岩手県,宮古市,田老長畑,イワテケン,ミヤコシ,タロウナガバタケ,岩手県宮古市田老長畑
0270364,岩手県,宮古市,田老新田,イワテケン,ミヤコシ,タロウシンデン,岩手県宮古市田老新田
0270365,岩手県,宮古市,田老滝の沢,イワテケン,ミヤコシ,タロウタキノサワ,岩手県宮古市田老滝の沢
0270366,岩手県,宮古市,田老新田平,イワテケン,ミヤコシ,タロウニッタダイラ,岩手県宮古市田老新田平
0270367,岩手県,宮古市,田老鈴子沢,イワテケン,ミヤコシ,タロウスズコサワ,岩手県宮古市田老鈴子沢
0270371,岩手県,宮古市,田老水沢,イワテケン,ミヤコシ,タロウミズサワ,岩手県宮古市田老水沢
0270372,岩手県,宮古市,田老水沢南,イワテケン,ミヤコシ,タロウミズサワミナミ,岩手県宮古市田老水沢南
0270373,岩手県,宮古市,田老向新田,イワテケン,ミヤコシ,タロウムカイシンデン,岩手県宮古市田老向新田
0270374,岩手県,宮古市,田老青野滝北,イワテケン,ミヤコシ,タロウアオノタキキタ,岩手県宮古市田老青野滝北
0270375,岩手県,宮古市,田老青野滝,イワテケン,ミヤコシ,タロウアオノタキ,岩手県宮古市田老青野滝
0270376,岩手県,宮古市,田老青野滝南,イワテケン,ミヤコシ,タロウアオノタキミナミ,岩手県宮古市田老青野滝南
0270377,岩手県,宮古市,田老重津部北,イワテケン,ミヤコシ,タロウオモツベキタ,岩手県宮古市田老重津部北
0270378,岩手県,宮古市,田老重津部,イワテケン,ミヤコシ,タロウオモツベ,岩手県宮古市田老重津部
0270379,岩手県,宮古市,田老乙部野,イワテケン,ミヤコシ,タロウオトベノ,岩手県宮古市田老乙部野
0270381,岩手県,宮古市,田老星山,イワテケン,ミヤコシ,タロウホシヤマ,岩手県宮古市田老星山
0270382,岩手県,宮古市,田老片巻,イワテケン,ミヤコシ,タロウカタマキ,岩手県宮古市田老片巻
0270383,岩手県,宮古市,田老上摂待,イワテケン,ミヤコシ,タロウカミセッタイ,岩手県宮古市田老上摂待
0270384,岩手県,宮古市,田老摂待,イワテケン,ミヤコシ,タロウセッタイ,岩手県宮古市田老摂待
0270385,岩手県,宮古市,田老下摂待,イワテケン,ミヤコシ,タロウシモセッタイ,岩手県宮古市田老下摂待
0270386,岩手県,宮古市,田老胡桃畑,イワテケン,ミヤコシ,タロウクルミハタ,岩手県宮古市田老胡桃畑
0270387,岩手県,宮古市,田老畑,イワテケン,ミヤコシ,タロウハタ,岩手県宮古市田老畑
0270388,岩手県,宮古市,田老上沖,イワテケン,ミヤコシ,タロウカミオキ,岩手県宮古市田老上沖
0270421,岩手県,下閉伊郡岩泉町,小本,イワテケン,シモヘイグンイワイズミチョウ,オモト,岩手県下閉伊郡岩泉町小本
0270422,岩手県,下閉伊郡岩泉町,中島,イワテケン,シモヘイグンイワイズミチョウ,ナカシマ,岩手県下閉伊郡岩泉町中島
0270423,岩手県,下閉伊郡岩泉町,中里,イワテケン,シモヘイグンイワイズミチョウ,ナカサト,岩手県下閉伊郡岩泉町中里
0270424,岩手県,下閉伊郡岩泉町,袰野,イワテケン,シモヘイグンイワイズミチョウ,ホロノ,岩手県下閉伊郡岩泉町袰野
0270500,岩手県,下閉伊郡岩泉町,,イワテケン,シモヘイグンイワイズミチョウ,,岩手県下閉伊郡岩泉町
0270501,岩手県,下閉伊郡岩泉町,岩泉,イワテケン,シモヘイグンイワイズミチョウ,イワイズミ,岩手県下閉伊郡岩泉町岩泉
0270502,岩手県,下閉伊郡岩泉町,乙茂,イワテケン,シモヘイグンイワイズミチョウ,オトモ,岩手県下閉伊郡岩泉町乙茂
0270503,岩手県,下閉伊郡岩泉町,猿沢,イワテケン,シモヘイグンイワイズミチョウ,サルサワ,岩手県下閉伊郡岩泉町猿沢
0270504,岩手県,下閉伊郡岩泉町,下有芸,イワテケン,シモヘイグンイワイズミチョウ,シモウゲイ,岩手県下閉伊郡岩泉町下有芸
0270505,岩手県,下閉伊郡岩泉町,上有芸,イワテケン,シモヘイグンイワイズミチョウ,カミウゲイ,岩手県下閉伊郡岩泉町上有芸
0270506,岩手県,下閉伊郡岩泉町,鼠入,イワテケン,シモヘイグンイワイズミチョウ,ソイリ,岩手県下閉伊郡岩泉町鼠入
0270507,岩手県,下閉伊郡岩泉町,二升石,イワテケン,シモヘイグンイワイズミチョウ,ニショウイシ,岩手県下閉伊郡岩泉町二升石
0270508,岩手県,下閉伊郡岩泉町,尼額,イワテケン,シモヘイグンイワイズミチョウ,アマヒタイ,岩手県下閉伊郡岩泉町尼額
0270611,岩手県,下閉伊郡岩泉町,安家,イワテケン,シモヘイグンイワイズミチョウ,アッカ,岩手県下閉伊郡岩泉町安家
0280000,岩手県,久慈市,,イワテケン,クジシ,,岩手県久慈市
0280001,岩手県,久慈市,夏井町,イワテケン,クジシ,ナツイチョウ,岩手県久慈市夏井町
0280011,岩手県,久慈市,湊町,イワテケン,クジシ,ミナトチョウ,岩手県久慈市湊町
0280012,岩手県,久慈市,新井田,イワテケン,クジシ,ニイダ,岩手県久慈市新井田
0280013,岩手県,久慈市,京の森,イワテケン,クジシ,キョウノモリ,岩手県久慈市京の森
0280014,岩手県,久慈市,旭町,イワテケン,クジシ,アサヒチョウ,岩手県久慈市旭町
0280015,岩手県,久慈市,源道,イワテケン,クジシ,ゲンドウ,岩手県久慈市源道
0280021,岩手県,久慈市,門前,イワテケン,クジシ,モンゼン,岩手県久慈市門前
0280022,岩手県,久慈市,田屋町,イワテケン,クジシ,タヤチョウ,岩手県久慈市田屋町
0280023,岩手県,久慈市,新中の橋,イワテケン,クジシ,シンナカノハシ,岩手県久慈市新中の橋
0280024,岩手県,久慈市,栄町,イワテケン,クジシ,サカエチョウ,岩手県久慈市栄町
0280031,岩手県,久慈市,天神堂,イワテケン,クジシ,テンジンドウ,岩手県久慈市天神堂
0280032,岩手県,久慈市,寺里,イワテケン,クジシ,テラサト,岩手県久慈市寺里
0280033,岩手県,久慈市,畑田,イワテケン,クジシ,ハタケダ,岩手県久慈市畑田
0280034,岩手県,久慈市,枝成沢,イワテケン,クジシ,エダナリサワ,岩手県久慈市枝成沢
0280035,岩手県,久慈市,沢里,イワテケン,クジシ,サワサト,岩手県久慈市沢里
0280041,岩手県,久慈市,長内町,イワテケン,クジシ,オサナイチョウ,岩手県久慈市長内町
0280051,岩手県,久慈市,川崎町,イワテケン,クジシ,カワサキチョウ,岩手県久慈市川崎町
0280052,岩手県,久慈市,本町,イワテケン,クジシ,ホンチョウ,岩手県久慈市本町
0280053,岩手県,久慈市,田高,イワテケン,クジシ,タコウ,岩手県久慈市田高
0280054,岩手県,久慈市,柏崎,イワテケン,クジシ,カシワザキ,岩手県久慈市柏崎
0280055,岩手県,久慈市,巽町,イワテケン,クジシ,タツミチョウ,岩手県久慈市巽町
0280056,岩手県,久慈市,中町,イワテケン,クジシ,ナカマチ,岩手県久慈市中町
0280061,岩手県,久慈市,中央,イワテケン,クジシ,チュウオウ,岩手県久慈市中央
0280062,岩手県,久慈市,二十八日町,イワテケン,クジシ,ニジュウハチニチマチ,岩手県久慈市二十八日町
0280063,岩手県,久慈市,荒町,イワテケン,クジシ,アラマチ,岩手県久慈市荒町
0280064,岩手県,久慈市,八日町,イワテケン,クジシ,ヨウカチョウ,岩手県久慈市八日町
0280065,岩手県,久慈市,十八日町,イワテケン,クジシ,ジュウハチニチマチ,岩手県久慈市十八日町
0280066,岩手県,久慈市,中の橋,イワテケン,クジシ,ナカノハシ,岩手県久慈市中の橋
0280071,岩手県,久慈市,小久慈町,イワテケン,クジシ,コクジチョウ,岩手県久慈市小久慈町
0280081,岩手県,久慈市,西の沢,イワテケン,クジシ,ニシノサワ,岩手県久慈市西の沢
0280082,岩手県,久慈市,川貫,イワテケン,クジシ,カワヌキ,岩手県久慈市川貫
0280083,岩手県,久慈市,大沢,イワテケン,クジシ,オオサワ,岩手県久慈市大沢
0280091,岩手県,久慈市,大川目町,イワテケン,クジシ,オオカワメチョウ,岩手県久慈市大川目町
0280101,岩手県,花巻市,東和町北前田,イワテケン,ハナマキシ,トウワチョウキタマエダ,岩手県花巻市東和町北前田
0280102,岩手県,花巻市,東和町北川目,イワテケン,ハナマキシ,トウワチョウキタカワメ,岩手県花巻市東和町北川目
0280103,岩手県,花巻市,東和町石鳩岡,イワテケン,ハナマキシ,トウワチョウイシハトオカ,岩手県花巻市東和町石鳩岡
0280104,岩手県,花巻市,東和町南川目,イワテケン,ハナマキシ,トウワチョウミナミカワメ,岩手県花巻市東和町南川目
0280105,岩手県,花巻市,東和町前田,イワテケン,ハナマキシ,トウワチョウマエダ,岩手県花巻市東和町前田
0280106,岩手県,花巻市,東和町外谷地,イワテケン,ハナマキシ,トウワチョウソトヤチ,岩手県花巻市東和町外谷地
0280107,岩手県,花巻市,東和町北小山田,イワテケン,ハナマキシ,トウワチョウキタオヤマダ,岩手県花巻市東和町北小山田
0280111,岩手県,花巻市,東和町百ノ沢,イワテケン,ハナマキシ,トウワチョウモモノサワ,岩手県花巻市東和町百ノ沢
0280112,岩手県,花巻市,東和町新地,イワテケン,ハナマキシ,トウワチョウシンジ,岩手県花巻市東和町新地
0280113,岩手県,花巻市,東和町東晴山,イワテケン,ハナマキシ,トウワチョウヒガシハルヤマ,岩手県花巻市東和町東晴山
0280114,岩手県,花巻市,東和町土沢,イワテケン,ハナマキシ,トウワチョウツチザワ,岩手県花巻市東和町土沢
0280115,岩手県,花巻市,東和町安俵,イワテケン,ハナマキシ,トウワチョウアヒョウ,岩手県花巻市東和町安俵
0280116,岩手県,花巻市,東和町北成島,イワテケン,ハナマキシ,トウワチョウキタナルシマ,岩手県花巻市東和町北成島
0280121,岩手県,花巻市,東和町小友,イワテケン,ハナマキシ,トウワチョウオトモ,岩手県花巻市東和町小友
0280122,岩手県,花巻市,東和町谷内,イワテケン,ハナマキシ,トウワチョウタニナイ,岩手県花巻市東和町谷内
0280123,岩手県,花巻市,東和町田瀬,イワテケン,ハナマキシ,トウワチョウタセ,岩手県花巻市東和町田瀬
0280131,岩手県,花巻市,東和町町井,イワテケン,ハナマキシ,トウワチョウマチイ,岩手県花巻市東和町町井
0280132,岩手県,花巻市,東和町舘迫,イワテケン,ハナマキシ,トウワチョウタテハサマ,岩手県花巻市東和町舘迫
0280133,岩手県,花巻市,東和町鷹巣堂,イワテケン,ハナマキシ,トウワチョウタカスドウ,岩手県花巻市東和町鷹巣堂
0280134,岩手県,花巻市,東和町砂子,イワテケン,ハナマキシ,トウワチョウイサゴ,岩手県花巻市東和町砂子
0280135,岩手県,花巻市,東和町倉沢,イワテケン,ハナマキシ,トウワチョウクラザワ,岩手県花巻市東和町倉沢
0280136,岩手県,花巻市,東和町小原,イワテケン,ハナマキシ,トウワチョウオバラ,岩手県花巻市東和町小原
0280141,岩手県,花巻市,東和町下浮田,イワテケン,ハナマキシ,トウワチョウシモウキタ,岩手県花巻市東和町下浮田
0280142,岩手県,花巻市,東和町駒籠,イワテケン,ハナマキシ,トウワチョウコマゴメ,岩手県花巻市東和町駒籠
0280143,岩手県,花巻市,東和町上浮田,イワテケン,ハナマキシ,トウワチョウカミウキタ,岩手県花巻市東和町上浮田
0280144,岩手県,花巻市,東和町宮田,イワテケン,ハナマキシ,トウワチョウミヤダ,岩手県花巻市東和町宮田
0280151,岩手県,花巻市,東和町落合,イワテケン,ハナマキシ,トウワチョウオチアイ,岩手県花巻市東和町落合
0280152,岩手県,花巻市,東和町毒沢,イワテケン,ハナマキシ,トウワチョウドクサワ,岩手県花巻市東和町毒沢
0280153,岩手県,花巻市,東和町中内,イワテケン,ハナマキシ,トウワチョウナカナイ,岩手県花巻市東和町中内
0280154,岩手県,花巻市,東和町石持,イワテケン,ハナマキシ,トウワチョウイシモチ,岩手県花巻市東和町石持
0280155,岩手県,花巻市,東和町南成島,イワテケン,ハナマキシ,トウワチョウミナミナルシマ,岩手県花巻市東和町南成島
0280156,岩手県,花巻市,東和町小通,イワテケン,ハナマキシ,トウワチョウコガヨウ,岩手県花巻市東和町小通
0280301,岩手県,遠野市,宮守町上宮守,イワテケン,トオノシ,ミヤモリチョウカミミヤモリ,岩手県遠野市宮守町上宮守
0280302,岩手県,遠野市,宮守町上鱒沢,イワテケン,トオノシ,ミヤモリチョウカミマスザワ,岩手県遠野市宮守町上鱒沢
0280303,岩手県,遠野市,宮守町下鱒沢,イワテケン,トオノシ,ミヤモリチョウシモマスザワ,岩手県遠野市宮守町下鱒沢
0280304,岩手県,遠野市,宮守町下宮守,イワテケン,トオノシ,ミヤモリチョウシモミヤモリ,岩手県遠野市宮守町下宮守
0280305,岩手県,遠野市,宮守町達曽部,イワテケン,トオノシ,ミヤモリチョウタッソベ,岩手県遠野市宮守町達曽部
0280481,岩手県,遠野市,小友町,イワテケン,トオノシ,オトモチョウ,岩手県遠野市小友町
0280500,岩手県,遠野市,,イワテケン,トオノシ,,岩手県遠野市
0280501,岩手県,遠野市,青笹町糠前,イワテケン,トオノシ,アオザサチョウヌカマエ,岩手県遠野市青笹町糠前
0280502,岩手県,遠野市,青笹町中沢,イワテケン,トオノシ,アオザサチョウナカザワ,岩手県遠野市青笹町中沢
0280503,岩手県,遠野市,青笹町青笹,イワテケン,トオノシ,アオザサチョウアオザサ,岩手県遠野市青笹町青笹
0280511,岩手県,遠野市,鶯崎町,イワテケン,トオノシ,ウグイスザキチョウ,岩手県遠野市鶯崎町
0280512,岩手県,遠野市,東上組町,イワテケン,トオノシ,ヒガシカミクミチョウ,岩手県遠野市東上組町
0280513,岩手県,遠野市,東穀町,イワテケン,トオノシ,ヒガシコクチョウ,岩手県遠野市東穀町
0280514,岩手県,遠野市,遠野町,イワテケン,トオノシ,トオノチョウ,岩手県遠野市遠野町
0280515,岩手県,遠野市,東舘町,イワテケン,トオノシ,ヒガシダテチョウ,岩手県遠野市東舘町
0280516,岩手県,遠野市,穀町,イワテケン,トオノシ,コクチョウ,岩手県遠野市穀町
0280517,岩手県,遠野市,上組町,イワテケン,トオノシ,カミクミチョウ,岩手県遠野市上組町
0280521,岩手県,遠野市,材木町,イワテケン,トオノシ,ザイモクチョウ,岩手県遠野市材木町
0280522,岩手県,遠野市,新穀町,イワテケン,トオノシ,シンコクチョウ,岩手県遠野市新穀町
0280523,岩手県,遠野市,中央通り,イワテケン,トオノシ,チュウオウドオリ,岩手県遠野市中央通り
0280524,岩手県,遠野市,新町,イワテケン,トオノシ,シンマチ,岩手県遠野市新町
0280525,岩手県,遠野市,六日町,イワテケン,トオノシ,ムイカマチ,岩手県遠野市六日町
0280526,岩手県,遠野市,下組町,イワテケン,トオノシ,シモクミチョウ,岩手県遠野市下組町
0280527,岩手県,遠野市,大工町,イワテケン,トオノシ,ダイクチョウ,岩手県遠野市大工町
0280531,岩手県,遠野市,綾織町新里,イワテケン,トオノシ,アヤオリチョウニッサト,岩手県遠野市綾織町新里
0280532,岩手県,遠野市,綾織町下綾織,イワテケン,トオノシ,アヤオリチョウシモアヤオリ,岩手県遠野市綾織町下綾織
0280533,岩手県,遠野市,綾織町上綾織,イワテケン,トオノシ,アヤオリチョウカミアヤオリ,岩手県遠野市綾織町上綾織
0280534,岩手県,遠野市,綾織町みさ崎,イワテケン,トオノシ,アヤオリチョウミサザキ,岩手県遠野市綾織町みさ崎
0280541,岩手県,遠野市,松崎町白岩,イワテケン,トオノシ,マツザキチョウシライワ,岩手県遠野市松崎町白岩
0280542,岩手県,遠野市,早瀬町,イワテケン,トオノシ,ハヤセチョウ,岩手県遠野市早瀬町
0280543,岩手県,遠野市,松崎町光興寺,イワテケン,トオノシ,マツザキチョウコウコウジ,岩手県遠野市松崎町光興寺
0280544,岩手県,遠野市,松崎町松崎,イワテケン,トオノシ,マツザキチョウマツザキ,岩手県遠野市松崎町松崎
0280545,岩手県,遠野市,松崎町駒木,イワテケン,トオノシ,マツザキチョウコマギ,岩手県遠野市松崎町駒木
0280551,岩手県,遠野市,土淵町栃内,イワテケン,トオノシ,ツチブチチョウトチナイ,岩手県遠野市土淵町栃内
0280552,岩手県,遠野市,土淵町山口,イワテケン,トオノシ,ツチブチチョウヤマグチ,岩手県遠野市土淵町山口
0280553,岩手県,遠野市,土淵町柏崎,イワテケン,トオノシ,ツチブチチョウカシワザキ,岩手県遠野市土淵町柏崎
0280554,岩手県,遠野市,土淵町飯豊,イワテケン,トオノシ,ツチブチチョウイイトヨ,岩手県遠野市土淵町飯豊
0280555,岩手県,遠野市,土淵町土淵,イワテケン,トオノシ,ツチブチチョウツチブチ,岩手県遠野市土淵町土淵
0280661,岩手県,遠野市,附馬牛町上附馬牛,イワテケン,トオノシ,ツキモウシチョウカミツキモウシ,岩手県遠野市附馬牛町上附馬牛
0280662,岩手県,遠野市,附馬牛町安居台,イワテケン,トオノシ,ツキモウシチョウアオダイ,岩手県遠野市附馬牛町安居台
0280663,岩手県,遠野市,附馬牛町下附馬牛,イワテケン,トオノシ,ツキモウシチョウシモツキモウシ,岩手県遠野市附馬牛町下附馬牛
0280664,岩手県,遠野市,附馬牛町東禅寺,イワテケン,トオノシ,ツキモウシチョウトウゼンジ,岩手県遠野市附馬牛町東禅寺
0280771,岩手県,遠野市,上郷町佐比内,イワテケン,トオノシ,カミゴウチョウサヒナイ,岩手県遠野市上郷町佐比内
0280772,岩手県,遠野市,上郷町細越,イワテケン,トオノシ,カミゴウチョウホソゴエ,岩手県遠野市上郷町細越
0280773,岩手県,遠野市,上郷町平野原,イワテケン,トオノシ,カミゴウチョウヒラノハラ,岩手県遠野市上郷町平野原
0280774,岩手県,遠野市,上郷町来内,イワテケン,トオノシ,カミゴウチョウライナイ,岩手県遠野市上郷町来内
0280775,岩手県,遠野市,上郷町平倉,イワテケン,トオノシ,カミゴウチョウヒラクラ,岩手県遠野市上郷町平倉
0280776,岩手県,遠野市,上郷町板沢,イワテケン,トオノシ,カミゴウチョウイタザワ,岩手県遠野市上郷町板沢
0281100,岩手県,上閉伊郡大槌町,,イワテケン,カミヘイグンオオツチチョウ,,岩手県上閉伊郡大槌町
0281101,岩手県,上閉伊郡大槌町,吉里吉里,イワテケン,カミヘイグンオオツチチョウ,キリキリ,岩手県上閉伊郡大槌町吉里吉里
0281102,岩手県,上閉伊郡大槌町,赤浜,イワテケン,カミヘイグンオオツチチョウ,アカハマ,岩手県上閉伊郡大槌町赤浜
0281103,岩手県,上閉伊郡大槌町,港町,イワテケン,カミヘイグンオオツチチョウ,ミナトマチ,岩手県上閉伊郡大槌町港町
0281104,岩手県,上閉伊郡大槌町,新港町,イワテケン,カミヘイグンオオツチチョウ,シンミナトマチ,岩手県上閉伊郡大槌町新港町
0281105,岩手県,上閉伊郡大槌町,安渡,イワテケン,カミヘイグンオオツチチョウ,アンド,岩手県上閉伊郡大槌町安渡
0281111,岩手県,上閉伊郡大槌町,新町,イワテケン,カミヘイグンオオツチチョウ,シンチョウ,岩手県上閉伊郡大槌町新町
0281112,岩手県,上閉伊郡大槌町,大町,イワテケン,カミヘイグンオオツチチョウ,オオマチ,岩手県上閉伊郡大槌町大町
0281113,岩手県,上閉伊郡大槌町,須賀町,イワテケン,カミヘイグンオオツチチョウ,スカチョウ,岩手県上閉伊郡大槌町須賀町
0281114,岩手県,上閉伊郡大槌町,栄町,イワテケン,カミヘイグンオオツチチョウ,サカエチョウ,岩手県上閉伊郡大槌町栄町
0281115,岩手県,上閉伊郡大槌町,上町,イワテケン,カミヘイグンオオツチチョウ,カミチョウ,岩手県上閉伊郡大槌町上町
0281116,岩手県,上閉伊郡大槌町,本町,イワテケン,カミヘイグンオオツチチョウ,ホンチョウ,岩手県上閉伊郡大槌町本町
0281117,岩手県,上閉伊郡大槌町,末広町,イワテケン,カミヘイグンオオツチチョウ,スエヒロチョウ,岩手県上閉伊郡大槌町末広町
0281121,岩手県,上閉伊郡大槌町,小鎚,イワテケン,カミヘイグンオオツチチョウ,コヅチ,岩手県上閉伊郡大槌町小鎚
0281122,岩手県,上閉伊郡大槌町,桜木町,イワテケン,カミヘイグンオオツチチョウ,サクラギチョウ,岩手県上閉伊郡大槌町桜木町
0281131,岩手県,上閉伊郡大槌町,大槌,イワテケン,カミヘイグンオオツチチョウ,オオツチ,岩手県上閉伊郡大槌町大槌
0281132,岩手県,上閉伊郡大槌町,大ケ口,イワテケン,カミヘイグンオオツチチョウ,オガクチ,岩手県上閉伊郡大槌町大ケ口
0281133,岩手県,上閉伊郡大槌町,金沢,イワテケン,カミヘイグンオオツチチョウ,カネザワ,岩手県上閉伊郡大槌町金沢
0281300,岩手県,下閉伊郡山田町,,イワテケン,シモヘイグンヤマダマチ,,岩手県下閉伊郡山田町
0281301,岩手県,下閉伊郡山田町,石峠,イワテケン,シモヘイグンヤマダマチ,イシトウゲ,岩手県下閉伊郡山田町石峠
0281302,岩手県,下閉伊郡山田町,豊間根,イワテケン,シモヘイグンヤマダマチ,トヨマネ,岩手県下閉伊郡山田町豊間根
0281303,岩手県,下閉伊郡山田町,荒川,イワテケン,シモヘイグンヤマダマチ,アラカワ,岩手県下閉伊郡山田町荒川
0281311,岩手県,下閉伊郡山田町,大沢,イワテケン,シモヘイグンヤマダマチ,オオサワ,岩手県下閉伊郡山田町大沢
0281321,岩手県,下閉伊郡山田町,山田,イワテケン,シモヘイグンヤマダマチ,ヤマダ,岩手県下閉伊郡山田町山田
0281331,岩手県,下閉伊郡山田町,北浜町,イワテケン,シモヘイグンヤマダマチ,キタハマチョウ,岩手県下閉伊郡山田町北浜町
0281332,岩手県,下閉伊郡山田町,中央町,イワテケン,シモヘイグンヤマダマチ,チュウオウチョウ,岩手県下閉伊郡山田町中央町
0281333,岩手県,下閉伊郡山田町,後楽町,イワテケン,シモヘイグンヤマダマチ,コウラクチョウ,岩手県下閉伊郡山田町後楽町
0281341,岩手県,下閉伊郡山田町,八幡町,イワテケン,シモヘイグンヤマダマチ,ハチマンチョウ,岩手県下閉伊郡山田町八幡町
0281342,岩手県,下閉伊郡山田町,川向町,イワテケン,シモヘイグンヤマダマチ,カワムカイチョウ,岩手県下閉伊郡山田町川向町
0281343,岩手県,下閉伊郡山田町,境田町,イワテケン,シモヘイグンヤマダマチ,サカイダチョウ,岩手県下閉伊郡山田町境田町
0281351,岩手県,下閉伊郡山田町,長崎,イワテケン,シモヘイグンヤマダマチ,ナガサキ,岩手県下閉伊郡山田町長崎
0281352,岩手県,下閉伊郡山田町,飯岡,イワテケン,シモヘイグンヤマダマチ,イイオカ,岩手県下閉伊郡山田町飯岡
0281361,岩手県,下閉伊郡山田町,織笠,イワテケン,シモヘイグンヤマダマチ,オリカサ,岩手県下閉伊郡山田町織笠
0281371,岩手県,下閉伊郡山田町,船越,イワテケン,シモヘイグンヤマダマチ,フナコシ,岩手県下閉伊郡山田町船越
0282101,岩手県,宮古市,茂市,イワテケン,ミヤコシ,モイチ,岩手県宮古市茂市
0282102,岩手県,宮古市,蟇目,イワテケン,ミヤコシ,ヒキメ,岩手県宮古市蟇目
0282103,岩手県,宮古市,腹帯,イワテケン,ミヤコシ,ハラタイ,岩手県宮古市腹帯
0282104,岩手県,宮古市,刈屋,イワテケン,ミヤコシ,カリヤ,岩手県宮古市刈屋
0282105,岩手県,宮古市,和井内,イワテケン,ミヤコシ,ワイナイ,岩手県宮古市和井内
0282231,岩手県,下閉伊郡岩泉町,浅内,イワテケン,シモヘイグンイワイズミチョウ,アサナイ,岩手県下閉伊郡岩泉町浅内
0282232,岩手県,下閉伊郡岩泉町,大川,イワテケン,シモヘイグンイワイズミチョウ,オオカワ,岩手県下閉伊郡岩泉町大川
0282233,岩手県,下閉伊郡岩泉町,釜津田（その他）,イワテケン,シモヘイグンイワイズミチョウ,カマツタ(ソノタ),岩手県下閉伊郡岩泉町釜津田（その他）
0282301,岩手県,宮古市,古田,イワテケン,ミヤコシ,フッタ,岩手県宮古市古田
0282302,岩手県,宮古市,川井（その他）,イワテケン,ミヤコシ,カワイ(ソノタ),岩手県宮古市川井（その他）
0282303,岩手県,宮古市,片巣,イワテケン,ミヤコシ,カタス,岩手県宮古市片巣
0282304,岩手県,宮古市,箱石（その他）,イワテケン,ミヤコシ,ハコイシ(ソノタ),岩手県宮古市箱石（その他）
0282402,岩手県,宮古市,川井（第９地割〜第１１地割）,イワテケン,ミヤコシ,カワイ(ダイ9チワリ-ダイ11チワリ),岩手県宮古市川井（第9-〜第11-）
0282421,岩手県,宮古市,江繋,イワテケン,ミヤコシ,エツナギ,岩手県宮古市江繋
0282422,岩手県,宮古市,小国,イワテケン,ミヤコシ,オグニ,岩手県宮古市小国
0282504,岩手県,宮古市,箱石（第２地割「７０〜１３６」〜第４地割「３〜１１」）,イワテケン,ミヤコシ,ハコイシ(ダイ2チワリ<70-136>-ダイ4チワリ<3-11>),岩手県宮古市箱石（第2-「70〜136」〜第4-「3〜11」）
0282511,岩手県,宮古市,夏屋,イワテケン,ミヤコシ,ナツヤ,岩手県宮古市夏屋
0282512,岩手県,宮古市,鈴久名,イワテケン,ミヤコシ,スズクナ,岩手県宮古市鈴久名
0282513,岩手県,宮古市,川内,イワテケン,ミヤコシ,カワウチ,岩手県宮古市川内
0282631,岩手県,宮古市,区界,イワテケン,ミヤコシ,クザカイ,岩手県宮古市区界
0282632,岩手県,宮古市,門馬,イワテケン,ミヤコシ,カドマ,岩手県宮古市門馬
0282633,岩手県,宮古市,平津戸,イワテケン,ミヤコシ,ヒラツト,岩手県宮古市平津戸
0282711,岩手県,盛岡市,薮川,イワテケン,モリオカシ,ヤブカワ,岩手県盛岡市薮川
0283101,岩手県,花巻市,石鳥谷町好地,イワテケン,ハナマキシ,イシドリヤチョウコウチ,岩手県花巻市石鳥谷町好地
0283102,岩手県,花巻市,石鳥谷町上口,イワテケン,ハナマキシ,イシドリヤチョウカミグチ,岩手県花巻市石鳥谷町上口
0283111,岩手県,花巻市,石鳥谷町新堀,イワテケン,ハナマキシ,イシドリヤチョウニイボリ,岩手県花巻市石鳥谷町新堀
0283121,岩手県,花巻市,石鳥谷町戸塚,イワテケン,ハナマキシ,イシドリヤチョウトヅカ,岩手県花巻市石鳥谷町戸塚
0283122,岩手県,花巻市,石鳥谷町滝田,イワテケン,ハナマキシ,イシドリヤチョウタキタ,岩手県花巻市石鳥谷町滝田
0283131,岩手県,花巻市,石鳥谷町猪鼻,イワテケン,ハナマキシ,イシドリヤチョウイノハナ,岩手県花巻市石鳥谷町猪鼻
0283132,岩手県,花巻市,石鳥谷町東中島,イワテケン,ハナマキシ,イシドリヤチョウヒガシナカシマ,岩手県花巻市石鳥谷町東中島
0283133,岩手県,花巻市,石鳥谷町関口,イワテケン,ハナマキシ,イシドリヤチョウセキグチ,岩手県花巻市石鳥谷町関口
0283141,岩手県,花巻市,石鳥谷町五大堂,イワテケン,ハナマキシ,イシドリヤチョウゴダイドウ,岩手県花巻市石鳥谷町五大堂
0283142,岩手県,花巻市,石鳥谷町八重畑,イワテケン,ハナマキシ,イシドリヤチョウヤエハタ,岩手県花巻市石鳥谷町八重畑
0283151,岩手県,花巻市,石鳥谷町江曽,イワテケン,ハナマキシ,イシドリヤチョウエソ,岩手県花巻市石鳥谷町江曽
0283152,岩手県,花巻市,石鳥谷町南寺林,イワテケン,ハナマキシ,イシドリヤチョウミナミテラバヤシ,岩手県花巻市石鳥谷町南寺林
0283153,岩手県,花巻市,石鳥谷町小森林,イワテケン,ハナマキシ,イシドリヤチョウコモリバヤシ,岩手県花巻市石鳥谷町小森林
0283161,岩手県,花巻市,石鳥谷町黒沼,イワテケン,ハナマキシ,イシドリヤチョウクロヌマ,岩手県花巻市石鳥谷町黒沼
0283162,岩手県,花巻市,石鳥谷町西中島,イワテケン,ハナマキシ,イシドリヤチョウニシナカジマ,岩手県花巻市石鳥谷町西中島
0283163,岩手県,花巻市,石鳥谷町八幡,イワテケン,ハナマキシ,イシドリヤチョウハチマン,岩手県花巻市石鳥谷町八幡
0283171,岩手県,花巻市,石鳥谷町中寺林,イワテケン,ハナマキシ,イシドリヤチョウナカテラバヤシ,岩手県花巻市石鳥谷町中寺林
0283172,岩手県,花巻市,石鳥谷町北寺林,イワテケン,ハナマキシ,イシドリヤチョウキタテラバヤシ,岩手県花巻市石鳥谷町北寺林
0283181,岩手県,花巻市,石鳥谷町大興寺,イワテケン,ハナマキシ,イシドリヤチョウダイコウジ,岩手県花巻市石鳥谷町大興寺
0283182,岩手県,花巻市,石鳥谷町松林寺,イワテケン,ハナマキシ,イシドリヤチョウショウリンジ,岩手県花巻市石鳥谷町松林寺
0283183,岩手県,花巻市,石鳥谷町長谷堂,イワテケン,ハナマキシ,イシドリヤチョウハセドウ,岩手県花巻市石鳥谷町長谷堂
0283184,岩手県,花巻市,石鳥谷町富沢,イワテケン,ハナマキシ,イシドリヤチョウトミサワ,岩手県花巻市石鳥谷町富沢
0283185,岩手県,花巻市,石鳥谷町大瀬川,イワテケン,ハナマキシ,イシドリヤチョウオオセガワ,岩手県花巻市石鳥谷町大瀬川
0283201,岩手県,花巻市,大迫町内川目,イワテケン,ハナマキシ,オオハサママチウチカワメ,岩手県花巻市大迫町内川目
0283202,岩手県,花巻市,大迫町外川目,イワテケン,ハナマキシ,オオハサママチソトカワメ,岩手県花巻市大迫町外川目
0283203,岩手県,花巻市,大迫町大迫,イワテケン,ハナマキシ,オオハサママチオオハサマ,岩手県花巻市大迫町大迫
0283204,岩手県,花巻市,大迫町亀ケ森,イワテケン,ハナマキシ,オオハサママチカメガモリ,岩手県花巻市大迫町亀ケ森
0283300,岩手県,紫波郡紫波町,,イワテケン,シワグンシワチョウ,,岩手県紫波郡紫波町
0283301,岩手県,紫波郡紫波町,中島,イワテケン,シワグンシワチョウ,ナカジマ,岩手県紫波郡紫波町中島
0283302,岩手県,紫波郡紫波町,陣ケ岡,イワテケン,シワグンシワチョウ,ジンガオカ,岩手県紫波郡紫波町陣ケ岡
0283303,岩手県,紫波郡紫波町,高水寺,イワテケン,シワグンシワチョウ,コウスイジ,岩手県紫波郡紫波町高水寺
0283304,岩手県,紫波郡紫波町,二日町,イワテケン,シワグンシワチョウ,フツカマチ,岩手県紫波郡紫波町二日町
0283305,岩手県,紫波郡紫波町,日詰,イワテケン,シワグンシワチョウ,ヒヅメ,岩手県紫波郡紫波町日詰
0283306,岩手県,紫波郡紫波町,日詰西,イワテケン,シワグンシワチョウ,ヒヅメニシ,岩手県紫波郡紫波町日詰西
0283307,岩手県,紫波郡紫波町,桜町,イワテケン,シワグンシワチョウ,サクラマチ,岩手県紫波郡紫波町桜町
0283308,岩手県,紫波郡紫波町,平沢,イワテケン,シワグンシワチョウ,ヒラサワ,岩手県紫波郡紫波町平沢
0283309,岩手県,紫波郡紫波町,北日詰,イワテケン,シワグンシワチョウ,キタヒヅメ,岩手県紫波郡紫波町北日詰
0283310,岩手県,紫波郡紫波町,日詰駅前,イワテケン,シワグンシワチョウ,ヒヅメエキマエ,岩手県紫波郡紫波町日詰駅前
0283311,岩手県,紫波郡紫波町,犬渕,イワテケン,シワグンシワチョウ,イヌブチ,岩手県紫波郡紫波町犬渕
0283312,岩手県,紫波郡紫波町,犬吠森,イワテケン,シワグンシワチョウ,イヌホエモリ,岩手県紫波郡紫波町犬吠森
0283313,岩手県,紫波郡紫波町,星山,イワテケン,シワグンシワチョウ,ホシヤマ,岩手県紫波郡紫波町星山
0283314,岩手県,紫波郡紫波町,大巻,イワテケン,シワグンシワチョウ,オオマキ,岩手県紫波郡紫波町大巻
0283315,岩手県,紫波郡紫波町,彦部,イワテケン,シワグンシワチョウ,ヒコベ,岩手県紫波郡紫波町彦部
0283316,岩手県,紫波郡紫波町,佐比内,イワテケン,シワグンシワチョウ,サヒナイ,岩手県紫波郡紫波町佐比内
0283317,岩手県,紫波郡紫波町,南日詰,イワテケン,シワグンシワチョウ,ミナミヒヅメ,岩手県紫波郡紫波町南日詰
0283318,岩手県,紫波郡紫波町,紫波中央駅前,イワテケン,シワグンシワチョウ,シワチュウオウエキマエ,岩手県紫波郡紫波町紫波中央駅前
0283321,岩手県,紫波郡紫波町,江柄,イワテケン,シワグンシワチョウ,エガラ,岩手県紫波郡紫波町江柄
0283322,岩手県,紫波郡紫波町,栃内,イワテケン,シワグンシワチョウ,トチナイ,岩手県紫波郡紫波町栃内
0283323,岩手県,紫波郡紫波町,北沢,イワテケン,シワグンシワチョウ,キタザワ,岩手県紫波郡紫波町北沢
0283324,岩手県,紫波郡紫波町,東長岡,イワテケン,シワグンシワチョウ,ヒガシナガオカ,岩手県紫波郡紫波町東長岡
0283325,岩手県,紫波郡紫波町,草刈,イワテケン,シワグンシワチョウ,クサカリ,岩手県紫波郡紫波町草刈
0283326,岩手県,紫波郡紫波町,西長岡,イワテケン,シワグンシワチョウ,ニシナガオカ,岩手県紫波郡紫波町西長岡
0283441,岩手県,紫波郡紫波町,上平沢,イワテケン,シワグンシワチョウ,カミヒラサワ,岩手県紫波郡紫波町上平沢
0283442,岩手県,紫波郡紫波町,升沢,イワテケン,シワグンシワチョウ,マスザワ,岩手県紫波郡紫波町升沢
0283443,岩手県,紫波郡紫波町,上松本,イワテケン,シワグンシワチョウ,カミマツモト,岩手県紫波郡紫波町上松本
0283444,岩手県,紫波郡紫波町,小屋敷,イワテケン,シワグンシワチョウ,コヤシキ,岩手県紫波郡紫波町小屋敷
0283445,岩手県,紫波郡紫波町,南伝法寺,イワテケン,シワグンシワチョウ,ミナミデンボウジ,岩手県紫波郡紫波町南伝法寺
0283446,岩手県,紫波郡紫波町,下松本,イワテケン,シワグンシワチョウ,シモマツモト,岩手県紫波郡紫波町下松本
0283447,岩手県,紫波郡紫波町,宮手,イワテケン,シワグンシワチョウ,ミヤデ,岩手県紫波郡紫波町宮手
0283448,岩手県,紫波郡紫波町,吉水,イワテケン,シワグンシワチョウ,ヨシミズ,岩手県紫波郡紫波町吉水
0283451,岩手県,紫波郡紫波町,稲藤,イワテケン,シワグンシワチョウ,イナフジ,岩手県紫波郡紫波町稲藤
0283452,岩手県,紫波郡紫波町,片寄,イワテケン,シワグンシワチョウ,カタヨセ,岩手県紫波郡紫波町片寄
0283453,岩手県,紫波郡紫波町,土舘,イワテケン,シワグンシワチョウ,ツチダテ,岩手県紫波郡紫波町土舘
0283531,岩手県,紫波郡紫波町,山屋,イワテケン,シワグンシワチョウ,ヤマヤ,岩手県紫波郡紫波町山屋
0283532,岩手県,紫波郡紫波町,船久保,イワテケン,シワグンシワチョウ,フナクボ,岩手県紫波郡紫波町船久保
0283533,岩手県,紫波郡紫波町,赤沢,イワテケン,シワグンシワチョウ,アカザワ,岩手県紫波郡紫波町赤沢
0283534,岩手県,紫波郡紫波町,紫野,イワテケン,シワグンシワチョウ,ムラサキノ,岩手県紫波郡紫波町紫野
0283535,岩手県,紫波郡紫波町,遠山,イワテケン,シワグンシワチョウ,トオヤマ,岩手県紫波郡紫波町遠山
0283536,岩手県,紫波郡紫波町,北田,イワテケン,シワグンシワチョウ,キタダ,岩手県紫波郡紫波町北田
0283600,岩手県,紫波郡矢巾町,,イワテケン,シワグンヤハバチョウ,,岩手県紫波郡矢巾町
0283601,岩手県,紫波郡矢巾町,高田,イワテケン,シワグンヤハバチョウ,タカタ,岩手県紫波郡矢巾町高田
0283602,岩手県,紫波郡矢巾町,藤沢,イワテケン,シワグンヤハバチョウ,フジサワ,岩手県紫波郡矢巾町藤沢
0283603,岩手県,紫波郡矢巾町,西徳田,イワテケン,シワグンヤハバチョウ,ニシトクタ,岩手県紫波郡矢巾町西徳田
0283604,岩手県,紫波郡矢巾町,東徳田,イワテケン,シワグンヤハバチョウ,ヒガシトクタ,岩手県紫波郡矢巾町東徳田
0283605,岩手県,紫波郡矢巾町,間野々,イワテケン,シワグンヤハバチョウ,アイノノ,岩手県紫波郡矢巾町間野々
0283606,岩手県,紫波郡矢巾町,土橋,イワテケン,シワグンヤハバチョウ,ツチハシ,岩手県紫波郡矢巾町土橋
0283607,岩手県,紫波郡矢巾町,高水寺,イワテケン,シワグンヤハバチョウ,コウスイジ,岩手県紫波郡矢巾町高水寺
0283608,岩手県,紫波郡矢巾町,北郡山,イワテケン,シワグンヤハバチョウ,キタコオリヤマ,岩手県紫波郡矢巾町北郡山
0283609,岩手県,紫波郡矢巾町,医大通,イワテケン,シワグンヤハバチョウ,イダイドオリ,岩手県紫波郡矢巾町医大通
0283611,岩手県,紫波郡矢巾町,赤林,イワテケン,シワグンヤハバチョウ,アカバヤシ,岩手県紫波郡矢巾町赤林
0283612,岩手県,紫波郡矢巾町,下矢次,イワテケン,シワグンヤハバチョウ,シモヤツギ,岩手県紫波郡矢巾町下矢次
0283613,岩手県,紫波郡矢巾町,北矢幅,イワテケン,シワグンヤハバチョウ,キタヤハバ,岩手県紫波郡矢巾町北矢幅
0283614,岩手県,紫波郡矢巾町,又兵エ新田,イワテケン,シワグンヤハバチョウ,マタベエシンデン,岩手県紫波郡矢巾町又兵エ新田
0283615,岩手県,紫波郡矢巾町,南矢幅,イワテケン,シワグンヤハバチョウ,ミナミヤハバ,岩手県紫波郡矢巾町南矢幅
0283616,岩手県,紫波郡矢巾町,白沢,イワテケン,シワグンヤハバチョウ,シラサワ,岩手県紫波郡矢巾町白沢
0283617,岩手県,紫波郡矢巾町,太田,イワテケン,シワグンヤハバチョウ,オオタ,岩手県紫波郡矢巾町太田
0283618,岩手県,紫波郡矢巾町,駅東,イワテケン,シワグンヤハバチョウ,エキヒガシ,岩手県紫波郡矢巾町駅東
0283621,岩手県,紫波郡矢巾町,広宮沢,イワテケン,シワグンヤハバチョウ,ヒロミヤサワ,岩手県紫波郡矢巾町広宮沢
0283622,岩手県,紫波郡矢巾町,上矢次,イワテケン,シワグンヤハバチョウ,カミヤツギ,岩手県紫波郡矢巾町上矢次
0283623,岩手県,紫波郡矢巾町,煙山,イワテケン,シワグンヤハバチョウ,ケムヤマ,岩手県紫波郡矢巾町煙山
0283624,岩手県,紫波郡矢巾町,北伝法寺,イワテケン,シワグンヤハバチョウ,キタデンポウジ,岩手県紫波郡矢巾町北伝法寺
0283625,岩手県,紫波郡矢巾町,室岡,イワテケン,シワグンヤハバチョウ,ムロオカ,岩手県紫波郡矢巾町室岡
0283626,岩手県,紫波郡矢巾町,岩清水,イワテケン,シワグンヤハバチョウ,イワシミズ,岩手県紫波郡矢巾町岩清水
0283627,岩手県,紫波郡矢巾町,和味,イワテケン,シワグンヤハバチョウ,ワミ,岩手県紫波郡矢巾町和味
0284121,岩手県,盛岡市,玉山永井,イワテケン,モリオカシ,タマヤマナガイ,岩手県盛岡市玉山永井
0284122,岩手県,盛岡市,寺林,イワテケン,モリオカシ,テラバヤシ,岩手県盛岡市寺林
0284123,岩手県,盛岡市,巻堀,イワテケン,モリオカシ,マキボリ,岩手県盛岡市巻堀
0284124,岩手県,盛岡市,玉山馬場,イワテケン,モリオカシ,タマヤマババ,岩手県盛岡市玉山馬場
0284125,岩手県,盛岡市,好摩,イワテケン,モリオカシ,コウマ,岩手県盛岡市好摩
0284131,岩手県,盛岡市,芋田,イワテケン,モリオカシ,イモダ,岩手県盛岡市芋田
0284132,岩手県,盛岡市,渋民,イワテケン,モリオカシ,シブタミ,岩手県盛岡市渋民
0284133,岩手県,盛岡市,門前寺,イワテケン,モリオカシ,モンゼンジ,岩手県盛岡市門前寺
0284134,岩手県,盛岡市,下田,イワテケン,モリオカシ,シモダ,岩手県盛岡市下田
0284135,岩手県,盛岡市,川崎,イワテケン,モリオカシ,カワサキ,岩手県盛岡市川崎
0284136,岩手県,盛岡市,松内,イワテケン,モリオカシ,マツナイ,岩手県盛岡市松内
0284211,岩手県,岩手郡岩手町,川口,イワテケン,イワテグンイワテマチ,カワグチ,岩手県岩手郡岩手町川口
0284300,岩手県,岩手郡岩手町,,イワテケン,イワテグンイワテマチ,,岩手県岩手郡岩手町
0284301,岩手県,岩手郡岩手町,沼宮内,イワテケン,イワテグンイワテマチ,ヌマクナイ,岩手県岩手郡岩手町沼宮内
0284302,岩手県,岩手郡岩手町,大坊,イワテケン,イワテグンイワテマチ,ダイボウ,岩手県岩手郡岩手町大坊
0284303,岩手県,岩手郡岩手町,江刈内,イワテケン,イワテグンイワテマチ,エカリナイ,岩手県岩手郡岩手町江刈内
0284304,岩手県,岩手郡岩手町,子抱,イワテケン,イワテグンイワテマチ,コダキ,岩手県岩手郡岩手町子抱
0284305,岩手県,岩手郡岩手町,久保,イワテケン,イワテグンイワテマチ,クボ,岩手県岩手郡岩手町久保
0284306,岩手県,岩手郡岩手町,御堂,イワテケン,イワテグンイワテマチ,ミドウ,岩手県岩手郡岩手町御堂
0284307,岩手県,岩手郡岩手町,五日市,イワテケン,イワテグンイワテマチ,イツカイチ,岩手県岩手郡岩手町五日市
0284421,岩手県,岩手郡岩手町,一方井,イワテケン,イワテグンイワテマチ,イッカタイ,岩手県岩手郡岩手町一方井
0284422,岩手県,岩手郡岩手町,坊,イワテケン,イワテグンイワテマチ,ボウ,岩手県岩手郡岩手町坊
0284423,岩手県,岩手郡岩手町,土川,イワテケン,イワテグンイワテマチ,ツチカワ,岩手県岩手郡岩手町土川
0284424,岩手県,岩手郡岩手町,黒石,イワテケン,イワテグンイワテマチ,クロイシ,岩手県岩手郡岩手町黒石
0284425,岩手県,岩手郡岩手町,葉木田,イワテケン,イワテグンイワテマチ,ハキタ,岩手県岩手郡岩手町葉木田
0284426,岩手県,岩手郡岩手町,黒内,イワテケン,イワテグンイワテマチ,クロナイ,岩手県岩手郡岩手町黒内
0285102,岩手県,岩手郡葛巻町,葛巻（第４０地割「５７番地１２５、１７６を除く」〜第４５地割）,イワテケン,イワテグンクズマキマチ,クズマキ(ダイ40チワリ<57バンチ125、176ヲノゾク>-ダイ45チワリ),岩手県岩手郡葛巻町葛巻（第40-「57-125、176を除く」〜第45-）
0285131,岩手県,二戸郡一戸町,宇別,イワテケン,ニノヘグンイチノヘマチ,ウベツ,岩手県二戸郡一戸町宇別
0285132,岩手県,二戸郡一戸町,小繋,イワテケン,ニノヘグンイチノヘマチ,コツナギ,岩手県二戸郡一戸町小繋
0285133,岩手県,二戸郡一戸町,中山（その他）,イワテケン,ニノヘグンイチノヘマチ,ナカヤマ(ソノタ),岩手県二戸郡一戸町中山（その他）
0285134,岩手県,二戸郡一戸町,奥中山,イワテケン,ニノヘグンイチノヘマチ,オクナカヤマ,岩手県二戸郡一戸町奥中山
0285221,岩手県,二戸郡一戸町,小鳥谷,イワテケン,ニノヘグンイチノヘマチ,コズヤ,岩手県二戸郡一戸町小鳥谷
0285222,岩手県,二戸郡一戸町,姉帯,イワテケン,ニノヘグンイチノヘマチ,アネタイ,岩手県二戸郡一戸町姉帯
0285223,岩手県,二戸郡一戸町,面岸,イワテケン,ニノヘグンイチノヘマチ,オモギシ,岩手県二戸郡一戸町面岸
0285224,岩手県,二戸郡一戸町,平糠,イワテケン,ニノヘグンイチノヘマチ,ヒラヌカ,岩手県二戸郡一戸町平糠
0285233,岩手県,二戸郡一戸町,中山（新田１７−２、３７番地、東火行１番地）,イワテケン,ニノヘグンイチノヘマチ,ナカヤマ(シンデン17-2、37バンチ、ヒガシヒギョウ1バンチ),岩手県二戸郡一戸町中山（新田17-2、37-、東火行1-）
0285300,岩手県,二戸郡一戸町,,イワテケン,ニノヘグンイチノヘマチ,,岩手県二戸郡一戸町
0285301,岩手県,二戸郡一戸町,西法寺,イワテケン,ニノヘグンイチノヘマチ,サイホウジ,岩手県二戸郡一戸町西法寺
0285302,岩手県,二戸郡一戸町,女鹿,イワテケン,ニノヘグンイチノヘマチ,メガ,岩手県二戸郡一戸町女鹿
0285303,岩手県,二戸郡一戸町,小友,イワテケン,ニノヘグンイチノヘマチ,オトモ,岩手県二戸郡一戸町小友
0285304,岩手県,二戸郡一戸町,出ル町,イワテケン,ニノヘグンイチノヘマチ,イズルマチ,岩手県二戸郡一戸町出ル町
0285305,岩手県,二戸郡一戸町,月舘,イワテケン,ニノヘグンイチノヘマチ,ツキダテ,岩手県二戸郡一戸町月舘
0285306,岩手県,二戸郡一戸町,中里,イワテケン,ニノヘグンイチノヘマチ,ナカサト,岩手県二戸郡一戸町中里
0285311,岩手県,二戸郡一戸町,高善寺,イワテケン,ニノヘグンイチノヘマチ,コウゼンジ,岩手県二戸郡一戸町高善寺
0285312,岩手県,二戸郡一戸町,一戸,イワテケン,ニノヘグンイチノヘマチ,イチノヘ,岩手県二戸郡一戸町一戸
0285313,岩手県,二戸郡一戸町,鳥越,イワテケン,ニノヘグンイチノヘマチ,トリゴエ,岩手県二戸郡一戸町鳥越
0285314,岩手県,二戸郡一戸町,楢山,イワテケン,ニノヘグンイチノヘマチ,ナラヤマ,岩手県二戸郡一戸町楢山
0285315,岩手県,二戸郡一戸町,根反,イワテケン,ニノヘグンイチノヘマチ,ネソリ,岩手県二戸郡一戸町根反
0285316,岩手県,二戸郡一戸町,岩舘,イワテケン,ニノヘグンイチノヘマチ,イワダテ,岩手県二戸郡一戸町岩舘
0285400,岩手県,岩手郡葛巻町,,イワテケン,イワテグンクズマキマチ,,岩手県岩手郡葛巻町
0285401,岩手県,岩手郡葛巻町,田部,イワテケン,イワテグンクズマキマチ,タベ,岩手県岩手郡葛巻町田部
0285402,岩手県,岩手郡葛巻町,葛巻（その他）,イワテケン,イワテグンクズマキマチ,クズマキ(ソノタ),岩手県岩手郡葛巻町葛巻（その他）
0285403,岩手県,岩手郡葛巻町,江刈,イワテケン,イワテグンクズマキマチ,エカリ,岩手県岩手郡葛巻町江刈
0285633,岩手県,下閉伊郡岩泉町,釜津田（上栗宿、栗宿、権現）,イワテケン,シモヘイグンイワイズミチョウ,カマツタ(カミクリヤド、クリヤド、ゴンゲン),岩手県下閉伊郡岩泉町釜津田（上栗宿、栗宿、権現）
0285641,岩手県,下閉伊郡岩泉町,門,イワテケン,シモヘイグンイワイズミチョウ,カド,岩手県下閉伊郡岩泉町門
0285642,岩手県,下閉伊郡岩泉町,穴沢,イワテケン,シモヘイグンイワイズミチョウ,アナザワ,岩手県下閉伊郡岩泉町穴沢
0285643,岩手県,下閉伊郡岩泉町,袰綿,イワテケン,シモヘイグンイワイズミチョウ,ホロワタ,岩手県下閉伊郡岩泉町袰綿
0285702,岩手県,二戸市,下斗米（外芹沢、月折、土橋）,イワテケン,ニノヘシ,シモトマイ(ソトセリサワ、ツキオリ、ツチバシ),岩手県二戸市下斗米（外芹沢、月折、土橋）
0285711,岩手県,二戸市,金田一,イワテケン,ニノヘシ,キンタイチ,岩手県二戸市金田一
0285712,岩手県,二戸市,野々上,イワテケン,ニノヘシ,ノノウエ,岩手県二戸市野々上
0285713,岩手県,二戸市,釜沢,イワテケン,ニノヘシ,カマザワ,岩手県二戸市釜沢
0286100,岩手県,二戸市,,イワテケン,ニノヘシ,,岩手県二戸市
0286101,岩手県,二戸市,福岡,イワテケン,ニノヘシ,フクオカ,岩手県二戸市福岡
0286102,岩手県,二戸市,下斗米（その他）,イワテケン,ニノヘシ,シモトマイ(ソノタ),岩手県二戸市下斗米（その他）
0286103,岩手県,二戸市,石切所,イワテケン,ニノヘシ,イシキリドコロ,岩手県二戸市石切所
0286104,岩手県,二戸市,米沢,イワテケン,ニノヘシ,マイサワ,岩手県二戸市米沢
0286105,岩手県,二戸市,堀野,イワテケン,ニノヘシ,ホリノ,岩手県二戸市堀野
0286106,岩手県,二戸市,仁左平,イワテケン,ニノヘシ,ニサタイ,岩手県二戸市仁左平
0286107,岩手県,二戸市,白鳥,イワテケン,ニノヘシ,シラトリ,岩手県二戸市白鳥
0286108,岩手県,二戸市,上斗米,イワテケン,ニノヘシ,カミトマイ,岩手県二戸市上斗米
0286221,岩手県,九戸郡軽米町,晴山,イワテケン,クノヘグンカルマイマチ,ハレヤマ,岩手県九戸郡軽米町晴山
0286222,岩手県,九戸郡軽米町,山内,イワテケン,クノヘグンカルマイマチ,サンナイ,岩手県九戸郡軽米町山内
0286223,岩手県,九戸郡軽米町,狄塚,イワテケン,クノヘグンカルマイマチ,エヅカ,岩手県九戸郡軽米町狄塚
0286300,岩手県,九戸郡軽米町,,イワテケン,クノヘグンカルマイマチ,,岩手県九戸郡軽米町
0286301,岩手県,九戸郡軽米町,上舘,イワテケン,クノヘグンカルマイマチ,カミダテ,岩手県九戸郡軽米町上舘
0286302,岩手県,九戸郡軽米町,軽米,イワテケン,クノヘグンカルマイマチ,カルマイ,岩手県九戸郡軽米町軽米
0286303,岩手県,九戸郡軽米町,高家,イワテケン,クノヘグンカルマイマチ,コウケ,岩手県九戸郡軽米町高家
0286304,岩手県,九戸郡軽米町,長倉,イワテケン,クノヘグンカルマイマチ,ナガクラ,岩手県九戸郡軽米町長倉
0286411,岩手県,九戸郡軽米町,小軽米,イワテケン,クノヘグンカルマイマチ,コカルマイ,岩手県九戸郡軽米町小軽米
0286412,岩手県,九戸郡軽米町,蛇口,イワテケン,クノヘグンカルマイマチ,ヘビクチ,岩手県九戸郡軽米町蛇口
0286413,岩手県,九戸郡軽米町,円子,イワテケン,クノヘグンカルマイマチ,マルコ,岩手県九戸郡軽米町円子
0286500,岩手県,九戸郡九戸村,,イワテケン,クノヘグンクノヘムラ,,岩手県九戸郡九戸村
0286501,岩手県,九戸郡九戸村,荒谷,イワテケン,クノヘグンクノヘムラ,アラヤ,岩手県九戸郡九戸村荒谷
0286502,岩手県,九戸郡九戸村,伊保内,イワテケン,クノヘグンクノヘムラ,イボナイ,岩手県九戸郡九戸村伊保内
0286503,岩手県,九戸郡九戸村,小倉,イワテケン,クノヘグンクノヘムラ,コグラ,岩手県九戸郡九戸村小倉
0286504,岩手県,九戸郡九戸村,長興寺,イワテケン,クノヘグンクノヘムラ,チョウコウジ,岩手県九戸郡九戸村長興寺
0286505,岩手県,九戸郡九戸村,江刺家,イワテケン,クノヘグンクノヘムラ,エサシカ,岩手県九戸郡九戸村江刺家
0286506,岩手県,九戸郡九戸村,山屋,イワテケン,クノヘグンクノヘムラ,ヤマヤ,岩手県九戸郡九戸村山屋
0286507,岩手県,九戸郡九戸村,雪屋,イワテケン,クノヘグンクノヘムラ,ユキヤ,岩手県九戸郡九戸村雪屋
0286611,岩手県,九戸郡九戸村,山根,イワテケン,クノヘグンクノヘムラ,サンネ,岩手県九戸郡九戸村山根
0286612,岩手県,九戸郡九戸村,戸田,イワテケン,クノヘグンクノヘムラ,トダ,岩手県九戸郡九戸村戸田
0286721,岩手県,二戸市,似鳥,イワテケン,ニノヘシ,ニタドリ,岩手県二戸市似鳥
0286722,岩手県,二戸市,福田,イワテケン,ニノヘシ,フクダ,岩手県二戸市福田
0286723,岩手県,二戸市,安比,イワテケン,ニノヘシ,アッピ,岩手県二戸市安比
0286724,岩手県,二戸市,足沢,イワテケン,ニノヘシ,タルサワ,岩手県二戸市足沢
0286811,岩手県,二戸市,浄法寺町手倉森,イワテケン,ニノヘシ,ジョウボウジマチテグラモリ,岩手県二戸市浄法寺町手倉森
0286812,岩手県,二戸市,浄法寺町下沢,イワテケン,ニノヘシ,ジョウボウジマチシモサワ,岩手県二戸市浄法寺町下沢
0286813,岩手県,二戸市,浄法寺町大平,イワテケン,ニノヘシ,ジョウボウジマチオオダイラ,岩手県二戸市浄法寺町大平
0286814,岩手県,二戸市,浄法寺町北村,イワテケン,ニノヘシ,ジョウボウジマチキタムラ,岩手県二戸市浄法寺町北村
0286815,岩手県,二戸市,浄法寺町八方口,イワテケン,ニノヘシ,ジョウボウジマチハッポウグチ,岩手県二戸市浄法寺町八方口
0286816,岩手県,二戸市,浄法寺町上谷地,イワテケン,ニノヘシ,ジョウボウジマチカミヤチ,岩手県二戸市浄法寺町上谷地
0286817,岩手県,二戸市,浄法寺町漆沢大久保,イワテケン,ニノヘシ,ジョウボウジマチウルシザワオオクボ,岩手県二戸市浄法寺町漆沢大久保
0286818,岩手県,二戸市,浄法寺町鏡田,イワテケン,ニノヘシ,ジョウボウジマチカガミタ,岩手県二戸市浄法寺町鏡田
0286819,岩手県,二戸市,浄法寺町馬洗場,イワテケン,ニノヘシ,ジョウボウジマチウマアライバ,岩手県二戸市浄法寺町馬洗場
0286821,岩手県,二戸市,浄法寺町小平,イワテケン,ニノヘシ,ジョウボウジマチコダイラ,岩手県二戸市浄法寺町小平
0286822,岩手県,二戸市,浄法寺町漆沢舘,イワテケン,ニノヘシ,ジョウボウジマチウルシザワタテ,岩手県二戸市浄法寺町漆沢舘
0286823,岩手県,二戸市,浄法寺町宮沢,イワテケン,ニノヘシ,ジョウボウジマチミヤザワ,岩手県二戸市浄法寺町宮沢
0286824,岩手県,二戸市,浄法寺町西ノ沢,イワテケン,ニノヘシ,ジョウボウジマチニシノサワ,岩手県二戸市浄法寺町西ノ沢
0286825,岩手県,二戸市,浄法寺町長坂,イワテケン,ニノヘシ,ジョウボウジマチナガサカ,岩手県二戸市浄法寺町長坂
0286826,岩手県,二戸市,浄法寺町川又,イワテケン,ニノヘシ,ジョウボウジマチカワマタ,岩手県二戸市浄法寺町川又
0286831,岩手県,二戸市,浄法寺町漆沢下平,イワテケン,ニノヘシ,ジョウボウジマチウルシザワシモタイラ,岩手県二戸市浄法寺町漆沢下平
0286832,岩手県,二戸市,浄法寺町漆沢上平,イワテケン,ニノヘシ,ジョウボウジマチウルシザワカミタイラ,岩手県二戸市浄法寺町漆沢上平
0286833,岩手県,二戸市,浄法寺町漆沢,イワテケン,ニノヘシ,ジョウボウジマチウルシザワ,岩手県二戸市浄法寺町漆沢
0286834,岩手県,二戸市,浄法寺町細田,イワテケン,ニノヘシ,ジョウボウジマチホソダ,岩手県二戸市浄法寺町細田
0286835,岩手県,二戸市,浄法寺町漆沢下モ前田,イワテケン,ニノヘシ,ジョウボウジマチウルシザワシモマエタ,岩手県二戸市浄法寺町漆沢下モ前田
0286836,岩手県,二戸市,浄法寺町関田,イワテケン,ニノヘシ,ジョウボウジマチセキタ,岩手県二戸市浄法寺町関田
0286837,岩手県,二戸市,浄法寺町荒屋敷,イワテケン,ニノヘシ,ジョウボウジマチアラヤシキ,岩手県二戸市浄法寺町荒屋敷
0286838,岩手県,二戸市,浄法寺町向田,イワテケン,ニノヘシ,ジョウボウジマチムカイダ,岩手県二戸市浄法寺町向田
0286841,岩手県,二戸市,浄法寺町松岡,イワテケン,ニノヘシ,ジョウボウジマチマツオカ,岩手県二戸市浄法寺町松岡
0286842,岩手県,二戸市,浄法寺町漆沢中前田,イワテケン,ニノヘシ,ジョウボウジマチウルシザワナカマエタ,岩手県二戸市浄法寺町漆沢中前田
0286843,岩手県,二戸市,浄法寺町堤口,イワテケン,ニノヘシ,ジョウボウジマチツツミグチ,岩手県二戸市浄法寺町堤口
0286844,岩手県,二戸市,浄法寺町岡本前田,イワテケン,ニノヘシ,ジョウボウジマチオカモトマエタ,岩手県二戸市浄法寺町岡本前田
0286845,岩手県,二戸市,浄法寺町漆沢上前田,イワテケン,ニノヘシ,ジョウボウジマチウルシザワカミマエタ,岩手県二戸市浄法寺町漆沢上前田
0286846,岩手県,二戸市,浄法寺町下タ前田,イワテケン,ニノヘシ,ジョウボウジマチシタマエタ,岩手県二戸市浄法寺町下タ前田
0286847,岩手県,二戸市,浄法寺町岩渕,イワテケン,ニノヘシ,ジョウボウジマチイワブチ,岩手県二戸市浄法寺町岩渕
0286848,岩手県,二戸市,浄法寺町ウト坂,イワテケン,ニノヘシ,ジョウボウジマチウトザカ,岩手県二戸市浄法寺町ウト坂
0286849,岩手県,二戸市,浄法寺町岡本,イワテケン,ニノヘシ,ジョウボウジマチオカモト,岩手県二戸市浄法寺町岡本
0286851,岩手県,二戸市,浄法寺町小池,イワテケン,ニノヘシ,ジョウボウジマチコイケ,岩手県二戸市浄法寺町小池
0286852,岩手県,二戸市,浄法寺町樋田,イワテケン,ニノヘシ,ジョウボウジマチトイダ,岩手県二戸市浄法寺町樋田
0286853,岩手県,二戸市,浄法寺町サイカツ田,イワテケン,ニノヘシ,ジョウボウジマチサイカツタ,岩手県二戸市浄法寺町サイカツ田
0286854,岩手県,二戸市,浄法寺町下前田,イワテケン,ニノヘシ,ジョウボウジマチシモマエタ,岩手県二戸市浄法寺町下前田
0286855,岩手県,二戸市,浄法寺町浄法寺,イワテケン,ニノヘシ,ジョウボウジマチジョウホウジ,岩手県二戸市浄法寺町浄法寺
0286856,岩手県,二戸市,浄法寺町上外野,イワテケン,ニノヘシ,ジョウボウジマチカミソトノ,岩手県二戸市浄法寺町上外野
0286857,岩手県,二戸市,浄法寺町合名沢,イワテケン,ニノヘシ,ジョウボウジマチアイナザワ,岩手県二戸市浄法寺町合名沢
0286861,岩手県,二戸市,浄法寺町上野,イワテケン,ニノヘシ,ジョウボウジマチウワノ,岩手県二戸市浄法寺町上野
0286862,岩手県,二戸市,浄法寺町寺ノ上,イワテケン,ニノヘシ,ジョウボウジマチテラノウエ,岩手県二戸市浄法寺町寺ノ上
0286863,岩手県,二戸市,浄法寺町八幡舘,イワテケン,ニノヘシ,ジョウボウジマチハチマンダテ,岩手県二戸市浄法寺町八幡舘
0286864,岩手県,二戸市,浄法寺町門前向,イワテケン,ニノヘシ,ジョウボウジマチモンゼンムカイ,岩手県二戸市浄法寺町門前向
0286865,岩手県,二戸市,浄法寺町野田,イワテケン,ニノヘシ,ジョウボウジマチノダ,岩手県二戸市浄法寺町野田
0286866,岩手県,二戸市,浄法寺町飯近,イワテケン,ニノヘシ,ジョウボウジマチイイヅカ,岩手県二戸市浄法寺町飯近
0286867,岩手県,二戸市,浄法寺町焼場,イワテケン,ニノヘシ,ジョウボウジマチヤキバ,岩手県二戸市浄法寺町焼場
0286868,岩手県,二戸市,浄法寺町長者花,イワテケン,ニノヘシ,ジョウボウジマチチョウジャバナ,岩手県二戸市浄法寺町長者花
0286871,岩手県,二戸市,浄法寺町安戸,イワテケン,ニノヘシ,ジョウボウジマチヤスド,岩手県二戸市浄法寺町安戸
0286872,岩手県,二戸市,浄法寺町里川目,イワテケン,ニノヘシ,ジョウボウジマチサトカワメ,岩手県二戸市浄法寺町里川目
0286873,岩手県,二戸市,浄法寺町大志田,イワテケン,ニノヘシ,ジョウボウジマチオオシタ,岩手県二戸市浄法寺町大志田
0286874,岩手県,二戸市,浄法寺町一反田,イワテケン,ニノヘシ,ジョウボウジマチイツタンダ,岩手県二戸市浄法寺町一反田
0286875,岩手県,二戸市,浄法寺町舘,イワテケン,ニノヘシ,ジョウボウジマチタテ,岩手県二戸市浄法寺町舘
0286876,岩手県,二戸市,浄法寺町田子内沢,イワテケン,ニノヘシ,ジョウボウジマチタコナイザワ,岩手県二戸市浄法寺町田子内沢
0286877,岩手県,二戸市,浄法寺町伊崎沢,イワテケン,ニノヘシ,ジョウボウジマチイサキザワ,岩手県二戸市浄法寺町伊崎沢
0286878,岩手県,二戸市,浄法寺町漆原,イワテケン,ニノヘシ,ジョウボウジマチウルシバラ,岩手県二戸市浄法寺町漆原
0286879,岩手県,二戸市,浄法寺町梅ノ木,イワテケン,ニノヘシ,ジョウボウジマチウメノキ,岩手県二戸市浄法寺町梅ノ木
0286881,岩手県,二戸市,浄法寺町渡ノ羽,イワテケン,ニノヘシ,ジョウボウジマチワタノハ,岩手県二戸市浄法寺町渡ノ羽
0286882,岩手県,二戸市,浄法寺町羽余内,イワテケン,ニノヘシ,ジョウボウジマチハヨナイ,岩手県二戸市浄法寺町羽余内
0286883,岩手県,二戸市,浄法寺町荒谷,イワテケン,ニノヘシ,ジョウボウジマチアラヤ,岩手県二戸市浄法寺町荒谷
0286884,岩手県,二戸市,浄法寺町新山,イワテケン,ニノヘシ,ジョウボウジマチシンザン,岩手県二戸市浄法寺町新山
0286885,岩手県,二戸市,浄法寺町森越,イワテケン,ニノヘシ,ジョウボウジマチモリコシ,岩手県二戸市浄法寺町森越
0286901,岩手県,二戸市,浄法寺町深堀,イワテケン,ニノヘシ,ジョウボウジマチフカボリ,岩手県二戸市浄法寺町深堀
0286902,岩手県,二戸市,浄法寺町明神沢,イワテケン,ニノヘシ,ジョウボウジマチミョウジンザワ,岩手県二戸市浄法寺町明神沢
0286903,岩手県,二戸市,浄法寺町坂本,イワテケン,ニノヘシ,ジョウボウジマチサカモト,岩手県二戸市浄法寺町坂本
0286904,岩手県,二戸市,浄法寺町里代,イワテケン,ニノヘシ,ジョウボウジマチサトシロ,岩手県二戸市浄法寺町里代
0286905,岩手県,二戸市,浄法寺町空久保,イワテケン,ニノヘシ,ジョウボウジマチソラクボ,岩手県二戸市浄法寺町空久保
0286906,岩手県,二戸市,浄法寺町上杉沢,イワテケン,ニノヘシ,ジョウボウジマチカミスギサワ,岩手県二戸市浄法寺町上杉沢
0286907,岩手県,二戸市,浄法寺町季ケ平,イワテケン,ニノヘシ,ジョウボウジマチシモガタイラ,岩手県二戸市浄法寺町季ケ平
0286908,岩手県,二戸市,浄法寺町野黒沢,イワテケン,ニノヘシ,ジョウボウジマチノグロサワ,岩手県二戸市浄法寺町野黒沢
0286911,岩手県,二戸市,浄法寺町上前田,イワテケン,ニノヘシ,ジョウボウジマチカミマエタ,岩手県二戸市浄法寺町上前田
0286912,岩手県,二戸市,浄法寺町中前田,イワテケン,ニノヘシ,ジョウボウジマチナカマエタ,岩手県二戸市浄法寺町中前田
0286913,岩手県,二戸市,浄法寺町下ノ沢,イワテケン,ニノヘシ,ジョウボウジマチシモノサワ,岩手県二戸市浄法寺町下ノ沢
0286914,岩手県,二戸市,浄法寺町和泉田,イワテケン,ニノヘシ,ジョウボウジマチワイズミタ,岩手県二戸市浄法寺町和泉田
0286915,岩手県,二戸市,浄法寺町霜屋敷,イワテケン,ニノヘシ,ジョウボウジマチシモヤシキ,岩手県二戸市浄法寺町霜屋敷
0286916,岩手県,二戸市,浄法寺町大清水下モ平,イワテケン,ニノヘシ,ジョウボウジマチオオシミズシモタイラ,岩手県二戸市浄法寺町大清水下モ平
0286917,岩手県,二戸市,浄法寺町大清水前田,イワテケン,ニノヘシ,ジョウボウジマチオオシミズマエタ,岩手県二戸市浄法寺町大清水前田
0286918,岩手県,二戸市,浄法寺町サイカツ平,イワテケン,ニノヘシ,ジョウボウジマチサイカツタイラ,岩手県二戸市浄法寺町サイカツ平
0286919,岩手県,二戸市,浄法寺町大清水荒屋,イワテケン,ニノヘシ,ジョウボウジマチオオシミズアラヤ,岩手県二戸市浄法寺町大清水荒屋
0286921,岩手県,二戸市,浄法寺町小泉,イワテケン,ニノヘシ,ジョウボウジマチコイズミ,岩手県二戸市浄法寺町小泉
0286922,岩手県,二戸市,浄法寺町下谷地,イワテケン,ニノヘシ,ジョウボウジマチシモヤチ,岩手県二戸市浄法寺町下谷地
0286923,岩手県,二戸市,浄法寺町下村,イワテケン,ニノヘシ,ジョウボウジマチシタムラ,岩手県二戸市浄法寺町下村
0286924,岩手県,二戸市,浄法寺町家ノ上,イワテケン,ニノヘシ,ジョウボウジマチイエノウエ,岩手県二戸市浄法寺町家ノ上
0286925,岩手県,二戸市,浄法寺町梅田,イワテケン,ニノヘシ,ジョウボウジマチバイタ,岩手県二戸市浄法寺町梅田
0286926,岩手県,二戸市,浄法寺町門崎,イワテケン,ニノヘシ,ジョウボウジマチカンザキ,岩手県二戸市浄法寺町門崎
0286927,岩手県,二戸市,浄法寺町湯沢,イワテケン,ニノヘシ,ジョウボウジマチユザワ,岩手県二戸市浄法寺町湯沢
0286928,岩手県,二戸市,浄法寺町山内,イワテケン,ニノヘシ,ジョウボウジマチサンナイ,岩手県二戸市浄法寺町山内
0286929,岩手県,二戸市,浄法寺町大清水空久保,イワテケン,ニノヘシ,ジョウボウジマチオオシミズソラクボ,岩手県二戸市浄法寺町大清水空久保
0286931,岩手県,二戸市,浄法寺町尻平,イワテケン,ニノヘシ,ジョウボウジマチシッペイ,岩手県二戸市浄法寺町尻平
0286932,岩手県,二戸市,浄法寺町松畑,イワテケン,ニノヘシ,ジョウボウジマチマツハタ,岩手県二戸市浄法寺町松畑
0286933,岩手県,二戸市,浄法寺町御山上野,イワテケン,ニノヘシ,ジョウボウジマチオンヤマウワノ,岩手県二戸市浄法寺町御山上野
0286934,岩手県,二戸市,浄法寺町沢田,イワテケン,ニノヘシ,ジョウボウジマチサワダ,岩手県二戸市浄法寺町沢田
0286935,岩手県,二戸市,浄法寺町御山下前田,イワテケン,ニノヘシ,ジョウボウジマチオンヤマシモマエタ,岩手県二戸市浄法寺町御山下前田
0286936,岩手県,二戸市,浄法寺町長渡路,イワテケン,ニノヘシ,ジョウボウジマチナガドロ,岩手県二戸市浄法寺町長渡路
0286937,岩手県,二戸市,浄法寺町大畑,イワテケン,ニノヘシ,ジョウボウジマチオオハタ,岩手県二戸市浄法寺町大畑
0286938,岩手県,二戸市,浄法寺町御山上平,イワテケン,ニノヘシ,ジョウボウジマチオンヤマウワダイ,岩手県二戸市浄法寺町御山上平
0286939,岩手県,二戸市,浄法寺町長流部,イワテケン,ニノヘシ,ジョウボウジマチオサルベ,岩手県二戸市浄法寺町長流部
0286941,岩手県,二戸市,浄法寺町御山中前田,イワテケン,ニノヘシ,ジョウボウジマチオンヤマナカマエタ,岩手県二戸市浄法寺町御山中前田
0286942,岩手県,二戸市,浄法寺町御山久保,イワテケン,ニノヘシ,ジョウボウジマチオヤマクボ,岩手県二戸市浄法寺町御山久保
0286943,岩手県,二戸市,浄法寺町後久保,イワテケン,ニノヘシ,ジョウボウジマチウシロクボ,岩手県二戸市浄法寺町後久保
0286944,岩手県,二戸市,浄法寺町飛鳥,イワテケン,ニノヘシ,ジョウボウジマチアスカ,岩手県二戸市浄法寺町飛鳥
0286945,岩手県,二戸市,浄法寺町飛鳥谷地,イワテケン,ニノヘシ,ジョウボウジマチアスカヤチ,岩手県二戸市浄法寺町飛鳥谷地
0286946,岩手県,二戸市,浄法寺町安比内,イワテケン,ニノヘシ,ジョウボウジマチアッピナイ,岩手県二戸市浄法寺町安比内
0286947,岩手県,二戸市,浄法寺町安比内沢,イワテケン,ニノヘシ,ジョウボウジマチアッピナイザワ,岩手県二戸市浄法寺町安比内沢
0286948,岩手県,二戸市,浄法寺町御山舘,イワテケン,ニノヘシ,ジョウボウジマチオンヤマタテ,岩手県二戸市浄法寺町御山舘
0286949,岩手県,二戸市,浄法寺町御山前田,イワテケン,ニノヘシ,ジョウボウジマチオンヤママエタ,岩手県二戸市浄法寺町御山前田
0286951,岩手県,二戸市,浄法寺町清水尻,イワテケン,ニノヘシ,ジョウボウジマチシミズジリ,岩手県二戸市浄法寺町清水尻
0286952,岩手県,二戸市,浄法寺町御山大久保,イワテケン,ニノヘシ,ジョウボウジマチオンヤマオオクボ,岩手県二戸市浄法寺町御山大久保
0286953,岩手県,二戸市,浄法寺町木沢畑向,イワテケン,ニノヘシ,ジョウボウジマチキサワバタムカイ,岩手県二戸市浄法寺町木沢畑向
0286954,岩手県,二戸市,浄法寺町早坂,イワテケン,ニノヘシ,ジョウボウジマチハヤサカ,岩手県二戸市浄法寺町早坂
0286955,岩手県,二戸市,浄法寺町桂平,イワテケン,ニノヘシ,ジョウボウジマチカツラダイ,岩手県二戸市浄法寺町桂平
0286956,岩手県,二戸市,浄法寺町大坊,イワテケン,ニノヘシ,ジョウボウジマチダイボウ,岩手県二戸市浄法寺町大坊
0286957,岩手県,二戸市,浄法寺町海上田,イワテケン,ニノヘシ,ジョウボウジマチカイショウダ,岩手県二戸市浄法寺町海上田
0286958,岩手県,二戸市,浄法寺町大手,イワテケン,ニノヘシ,ジョウボウジマチオオテ,岩手県二戸市浄法寺町大手
0286961,岩手県,二戸市,浄法寺町滝見橋,イワテケン,ニノヘシ,ジョウボウジマチタキミバシ,岩手県二戸市浄法寺町滝見橋
0286962,岩手県,二戸市,浄法寺町馬場向,イワテケン,ニノヘシ,ジョウボウジマチババムカイ,岩手県二戸市浄法寺町馬場向
0286963,岩手県,二戸市,浄法寺町小又,イワテケン,ニノヘシ,ジョウボウジマチコマタ,岩手県二戸市浄法寺町小又
0286964,岩手県,二戸市,浄法寺町沼久保,イワテケン,ニノヘシ,ジョウボウジマチヌマクボ,岩手県二戸市浄法寺町沼久保
0286965,岩手県,二戸市,浄法寺町谷地屋敷,イワテケン,ニノヘシ,ジョウボウジマチヤチヤシキ,岩手県二戸市浄法寺町谷地屋敷
0286966,岩手県,二戸市,浄法寺町海上,イワテケン,ニノヘシ,ジョウボウジマチカイショウ,岩手県二戸市浄法寺町海上
0286967,岩手県,二戸市,浄法寺町惣川原田,イワテケン,ニノヘシ,ジョウボウジマチソウガワラダ,岩手県二戸市浄法寺町惣川原田
0286968,岩手県,二戸市,浄法寺町海上前田,イワテケン,ニノヘシ,ジョウボウジマチカイショウマエタ,岩手県二戸市浄法寺町海上前田
0286969,岩手県,二戸市,浄法寺町端保口,イワテケン,ニノヘシ,ジョウボウジマチハホグチ,岩手県二戸市浄法寺町端保口
0286971,岩手県,二戸市,浄法寺町向川原,イワテケン,ニノヘシ,ジョウボウジマチムカイガワラ,岩手県二戸市浄法寺町向川原
0286972,岩手県,二戸市,浄法寺町桜田,イワテケン,ニノヘシ,ジョウボウジマチサクラダ,岩手県二戸市浄法寺町桜田
0286973,岩手県,二戸市,浄法寺町駒ケ嶺舘,イワテケン,ニノヘシ,ジョウボウジマチコマガミネタテ,岩手県二戸市浄法寺町駒ケ嶺舘
0286974,岩手県,二戸市,浄法寺町中畑,イワテケン,ニノヘシ,ジョウボウジマチナカハタ,岩手県二戸市浄法寺町中畑
0286975,岩手県,二戸市,浄法寺町田余内,イワテケン,ニノヘシ,ジョウボウジマチタヨナイ,岩手県二戸市浄法寺町田余内
0286976,岩手県,二戸市,浄法寺町樋口,イワテケン,ニノヘシ,ジョウボウジマチトイグチ,岩手県二戸市浄法寺町樋口
0286977,岩手県,二戸市,浄法寺町駒ケ嶺,イワテケン,ニノヘシ,ジョウボウジマチコマガミネ,岩手県二戸市浄法寺町駒ケ嶺
0286978,岩手県,二戸市,浄法寺町駒ケ嶺前田,イワテケン,ニノヘシ,ジョウボウジマチコマガミネマエタ,岩手県二戸市浄法寺町駒ケ嶺前田
0286979,岩手県,二戸市,浄法寺町駒ケ嶺野田,イワテケン,ニノヘシ,ジョウボウジマチコマガミネノダ,岩手県二戸市浄法寺町駒ケ嶺野田
0286981,岩手県,二戸市,浄法寺町五庵,イワテケン,ニノヘシ,ジョウボウジマチゴアン,岩手県二戸市浄法寺町五庵
0286982,岩手県,二戸市,浄法寺町焼切,イワテケン,ニノヘシ,ジョウボウジマチヤッキリ,岩手県二戸市浄法寺町焼切
0286983,岩手県,二戸市,浄法寺町下藤,イワテケン,ニノヘシ,ジョウボウジマチシモフジ,岩手県二戸市浄法寺町下藤
0286984,岩手県,二戸市,浄法寺町柿ノ木平,イワテケン,ニノヘシ,ジョウボウジマチカキノキタイラ,岩手県二戸市浄法寺町柿ノ木平
0286985,岩手県,二戸市,浄法寺町漆畑,イワテケン,ニノヘシ,ジョウボウジマチウルシバタ,岩手県二戸市浄法寺町漆畑
0287100,岩手県,八幡平市,,イワテケン,ハチマンタイシ,,岩手県八幡平市
0287111,岩手県,八幡平市,大更,イワテケン,ハチマンタイシ,オオブケ,岩手県八幡平市大更
0287112,岩手県,八幡平市,田頭,イワテケン,ハチマンタイシ,デンドウ,岩手県八幡平市田頭
0287113,岩手県,八幡平市,平笠,イワテケン,ハチマンタイシ,ヒラカサ,岩手県八幡平市平笠
0287301,岩手県,八幡平市,野駄,イワテケン,ハチマンタイシ,ノダ,岩手県八幡平市野駄
0287302,岩手県,八幡平市,八幡平温泉郷,イワテケン,ハチマンタイシ,ハチマンタイオンセンキョウ,岩手県八幡平市八幡平温泉郷
0287302,岩手県,八幡平市,松尾寄木,イワテケン,ハチマンタイシ,マツオヨリキ,岩手県八幡平市松尾寄木
0287302,岩手県,八幡平市,松川温泉,イワテケン,ハチマンタイシ,マツカワオンセン,岩手県八幡平市松川温泉
0287303,岩手県,八幡平市,柏台,イワテケン,ハチマンタイシ,カシワダイ,岩手県八幡平市柏台
0287303,岩手県,八幡平市,藤七温泉,イワテケン,ハチマンタイシ,トウシチオンセン,岩手県八幡平市藤七温泉
0287304,岩手県,八幡平市,緑ガ丘,イワテケン,ハチマンタイシ,ミドリガオカ,岩手県八幡平市緑ガ丘
0287305,岩手県,八幡平市,松尾,イワテケン,ハチマンタイシ,マツオ,岩手県八幡平市松尾
0287306,岩手県,八幡平市,安比高原,イワテケン,ハチマンタイシ,アッピコウゲン,岩手県八幡平市安比高原
0287401,岩手県,八幡平市,西根寺田,イワテケン,ハチマンタイシ,ニシネテラダ,岩手県八幡平市西根寺田
0287402,岩手県,八幡平市,帷子,イワテケン,ハチマンタイシ,カタビラ,岩手県八幡平市帷子
0287403,岩手県,八幡平市,上関,イワテケン,ハチマンタイシ,ウワセキ,岩手県八幡平市上関
0287404,岩手県,八幡平市,堀切,イワテケン,ハチマンタイシ,ホリキリ,岩手県八幡平市堀切
0287405,岩手県,八幡平市,平舘,イワテケン,ハチマンタイシ,タイラダテ,岩手県八幡平市平舘
0287406,岩手県,八幡平市,荒木田,イワテケン,ハチマンタイシ,アラキダ,岩手県八幡平市荒木田
0287501,岩手県,八幡平市,岩木向,イワテケン,ハチマンタイシ,イワキムカイ,岩手県八幡平市岩木向
0287502,岩手県,八幡平市,上岩木,イワテケン,ハチマンタイシ,カミイワキ,岩手県八幡平市上岩木
0287503,岩手県,八幡平市,中田,イワテケン,ハチマンタイシ,ナカダ,岩手県八幡平市中田
0287504,岩手県,八幡平市,前田,イワテケン,ハチマンタイシ,マエダ,岩手県八幡平市前田
0287505,岩手県,八幡平市,岩屋,イワテケン,ハチマンタイシ,イワヤ,岩手県八幡平市岩屋
0287506,岩手県,八幡平市,安代寺田,イワテケン,ハチマンタイシ,アシロテラダ,岩手県八幡平市安代寺田
0287511,岩手県,八幡平市,下の田,イワテケン,ハチマンタイシ,シモノタ,岩手県八幡平市下の田
0287512,岩手県,八幡平市,山岸,イワテケン,ハチマンタイシ,ヤマギシ,岩手県八幡平市山岸
0287513,岩手県,八幡平市,土沢,イワテケン,ハチマンタイシ,ツチザワ,岩手県八幡平市土沢
0287514,岩手県,八幡平市,中佐井,イワテケン,ハチマンタイシ,ナカサイ,岩手県八幡平市中佐井
0287515,岩手県,八幡平市,古屋敷,イワテケン,ハチマンタイシ,フルヤシキ,岩手県八幡平市古屋敷
0287516,岩手県,八幡平市,関沢口,イワテケン,ハチマンタイシ,セキサワグチ,岩手県八幡平市関沢口
0287521,岩手県,八幡平市,石神,イワテケン,ハチマンタイシ,イシガミ,岩手県八幡平市石神
0287522,岩手県,八幡平市,山口,イワテケン,ハチマンタイシ,ヤマグチ,岩手県八幡平市山口
0287523,岩手県,八幡平市,繋沢,イワテケン,ハチマンタイシ,ツナギサワ,岩手県八幡平市繋沢
0287524,岩手県,八幡平市,湯の沢,イワテケン,ハチマンタイシ,ユノサワ,岩手県八幡平市湯の沢
0287525,岩手県,八幡平市,日影,イワテケン,ハチマンタイシ,ヒカゲ,岩手県八幡平市日影
0287526,岩手県,八幡平市,赤子平,イワテケン,ハチマンタイシ,アカコタイ,岩手県八幡平市赤子平
0287527,岩手県,八幡平市,川原,イワテケン,ハチマンタイシ,カワラ,岩手県八幡平市川原
0287531,岩手県,八幡平市,上の山,イワテケン,ハチマンタイシ,ウエノヤマ,岩手県八幡平市上の山
0287532,岩手県,八幡平市,小柳田,イワテケン,ハチマンタイシ,コヤナギダ,岩手県八幡平市小柳田
0287533,岩手県,八幡平市,叺田,イワテケン,ハチマンタイシ,カマスダ,岩手県八幡平市叺田
0287534,岩手県,八幡平市,荒屋新町,イワテケン,ハチマンタイシ,アラヤシンマチ,岩手県八幡平市荒屋新町
0287535,岩手県,八幡平市,清水,イワテケン,ハチマンタイシ,シミズ,岩手県八幡平市清水
0287536,岩手県,八幡平市,打田内,イワテケン,ハチマンタイシ,ウツタナイ,岩手県八幡平市打田内
0287537,岩手県,八幡平市,曲田,イワテケン,ハチマンタイシ,マガタ,岩手県八幡平市曲田
0287541,岩手県,八幡平市,寺志田,イワテケン,ハチマンタイシ,テラシダ,岩手県八幡平市寺志田
0287542,岩手県,八幡平市,高畑,イワテケン,ハチマンタイシ,タカハタ,岩手県八幡平市高畑
0287543,岩手県,八幡平市,小屋畑,イワテケン,ハチマンタイシ,コヤノハタ,岩手県八幡平市小屋畑
0287544,岩手県,八幡平市,保戸坂,イワテケン,ハチマンタイシ,ホトザカ,岩手県八幡平市保戸坂
0287545,岩手県,八幡平市,松木田,イワテケン,ハチマンタイシ,マツキダ,岩手県八幡平市松木田
0287551,岩手県,八幡平市,新田,イワテケン,ハチマンタイシ,シンデン,岩手県八幡平市新田
0287552,岩手県,八幡平市,安代寄木,イワテケン,ハチマンタイシ,アシロヨリキ,岩手県八幡平市安代寄木
0287553,岩手県,八幡平市,扇畑,イワテケン,ハチマンタイシ,オウギハタ,岩手県八幡平市扇畑
0287554,岩手県,八幡平市,赤坂田,イワテケン,ハチマンタイシ,アカサカタ,岩手県八幡平市赤坂田
0287555,岩手県,八幡平市,黒沢,イワテケン,ハチマンタイシ,クロサワ,岩手県八幡平市黒沢
0287556,岩手県,八幡平市,星沢,イワテケン,ハチマンタイシ,ホシザワ,岩手県八幡平市星沢
0287557,岩手県,八幡平市,細野,イワテケン,ハチマンタイシ,ホソノ,岩手県八幡平市細野
0287561,岩手県,八幡平市,下町,イワテケン,ハチマンタイシ,シタマチ,岩手県八幡平市下町
0287562,岩手県,八幡平市,五日市,イワテケン,ハチマンタイシ,イツカイチ,岩手県八幡平市五日市
0287563,岩手県,八幡平市,田の沢,イワテケン,ハチマンタイシ,タノサワ,岩手県八幡平市田の沢
0287564,岩手県,八幡平市,谷地田,イワテケン,ハチマンタイシ,ヤチタ,岩手県八幡平市谷地田
0287565,岩手県,八幡平市,目名市,イワテケン,ハチマンタイシ,メナイチ,岩手県八幡平市目名市
0287566,岩手県,八幡平市,滝沢,イワテケン,ハチマンタイシ,タキザワ,岩手県八幡平市滝沢
0287567,岩手県,八幡平市,戸沢,イワテケン,ハチマンタイシ,トザワ,岩手県八幡平市戸沢
0287601,岩手県,八幡平市,田沢,イワテケン,ハチマンタイシ,タザワ,岩手県八幡平市田沢
0287602,岩手県,八幡平市,丑山,イワテケン,ハチマンタイシ,ウシヤマ,岩手県八幡平市丑山
0287603,岩手県,八幡平市,矢神,イワテケン,ハチマンタイシ,ヤガミ,岩手県八幡平市矢神
0287604,岩手県,八幡平市,丑山口,イワテケン,ハチマンタイシ,ウシヤマグチ,岩手県八幡平市丑山口
0287605,岩手県,八幡平市,鵜谷地,イワテケン,ハチマンタイシ,ウノドリヤチ,岩手県八幡平市鵜谷地
0287606,岩手県,八幡平市,姥子石,イワテケン,ハチマンタイシ,ウバコイシ,岩手県八幡平市姥子石
0287607,岩手県,八幡平市,大面平,イワテケン,ハチマンタイシ,オオツラタイラ,岩手県八幡平市大面平
0287608,岩手県,八幡平市,谷地中,イワテケン,ハチマンタイシ,ヤチナカ,岩手県八幡平市谷地中
0287611,岩手県,八幡平市,沖田表,イワテケン,ハチマンタイシ,オキタオモテ,岩手県八幡平市沖田表
0287612,岩手県,八幡平市,欠田,イワテケン,ハチマンタイシ,カケタ,岩手県八幡平市欠田
0287613,岩手県,八幡平市,亦戸川原,イワテケン,ハチマンタイシ,マタトカワラ,岩手県八幡平市亦戸川原
0287614,岩手県,八幡平市,石名坂下タ,イワテケン,ハチマンタイシ,イシナザカシタ,岩手県八幡平市石名坂下タ
0287615,岩手県,八幡平市,石名坂,イワテケン,ハチマンタイシ,イシナザカ,岩手県八幡平市石名坂
0287616,岩手県,八幡平市,二タ子,イワテケン,ハチマンタイシ,フタゴ,岩手県八幡平市二タ子
0287617,岩手県,八幡平市,折壁,イワテケン,ハチマンタイシ,オリカベ,岩手県八幡平市折壁
0287618,岩手県,八幡平市,蛇石,イワテケン,ハチマンタイシ,ジャイシ,岩手県八幡平市蛇石
0287619,岩手県,八幡平市,相沢,イワテケン,ハチマンタイシ,アイザワ,岩手県八幡平市相沢
0287621,岩手県,八幡平市,作平,イワテケン,ハチマンタイシ,サクヒラ,岩手県八幡平市作平
0287621,岩手県,八幡平市,兄川,イワテケン,ハチマンタイシ,アニカワ,岩手県八幡平市兄川
0287622,岩手県,八幡平市,兄畑中川原,イワテケン,ハチマンタイシ,アニハタナカカワラ,岩手県八幡平市兄畑中川原
0287623,岩手県,八幡平市,舘市,イワテケン,ハチマンタイシ,タテイチ,岩手県八幡平市舘市
0287624,岩手県,八幡平市,大又沢口,イワテケン,ハチマンタイシ,オオマタサワグチ,岩手県八幡平市大又沢口
0287625,岩手県,八幡平市,沖ノ平,イワテケン,ハチマンタイシ,オキノタイラ,岩手県八幡平市沖ノ平
0287626,岩手県,八幡平市,戸鎖,イワテケン,ハチマンタイシ,トクサリ,岩手県八幡平市戸鎖
0287627,岩手県,八幡平市,佐比内,イワテケン,ハチマンタイシ,サヒナイ,岩手県八幡平市佐比内
0287628,岩手県,八幡平市,小岩井,イワテケン,ハチマンタイシ,コイワイ,岩手県八幡平市小岩井
0287629,岩手県,八幡平市,白沢口,イワテケン,ハチマンタイシ,シラサワグチ,岩手県八幡平市白沢口
0287631,岩手県,八幡平市,瀬ノ沢,イワテケン,ハチマンタイシ,セノサワ,岩手県八幡平市瀬ノ沢
0287632,岩手県,八幡平市,小原道ノ上,イワテケン,ハチマンタイシ,コハラミチノウエ,岩手県八幡平市小原道ノ上
0287633,岩手県,八幡平市,日泥道ノ上,イワテケン,ハチマンタイシ,ヒドロミチノウエ,岩手県八幡平市日泥道ノ上
0287634,岩手県,八幡平市,和屋敷道ノ上,イワテケン,ハチマンタイシ,ワヤシキミチノウエ,岩手県八幡平市和屋敷道ノ上
0287635,岩手県,八幡平市,愛の山,イワテケン,ハチマンタイシ,アイノヤマ,岩手県八幡平市愛の山
0287636,岩手県,八幡平市,和屋敷道ノ下,イワテケン,ハチマンタイシ,ワヤシキミチノシタ,岩手県八幡平市和屋敷道ノ下
0287637,岩手県,八幡平市,日泥道ノ下,イワテケン,ハチマンタイシ,ヒドロミチノシタ,岩手県八幡平市日泥道ノ下
0287638,岩手県,八幡平市,小原道ノ下,イワテケン,ハチマンタイシ,コハラミチノシタ,岩手県八幡平市小原道ノ下
0287641,岩手県,八幡平市,比路平,イワテケン,ハチマンタイシ,ヒロビラ,岩手県八幡平市比路平
0287642,岩手県,八幡平市,勝善川原,イワテケン,ハチマンタイシ,ショウゼンカワラ,岩手県八幡平市勝善川原
0287643,岩手県,八幡平市,切通,イワテケン,ハチマンタイシ,キリトオシ,岩手県八幡平市切通
0287644,岩手県,八幡平市,雀長根,イワテケン,ハチマンタイシ,スズメナガネ,岩手県八幡平市雀長根
0287645,岩手県,八幡平市,下タ川原,イワテケン,ハチマンタイシ,シタカワラ,岩手県八幡平市下タ川原
0287651,岩手県,八幡平市,長者前,イワテケン,ハチマンタイシ,チョウジャマエ,岩手県八幡平市長者前
0287652,岩手県,八幡平市,根石,イワテケン,ハチマンタイシ,ネイシ,岩手県八幡平市根石
0287653,岩手県,八幡平市,平又,イワテケン,ハチマンタイシ,ヒラマタ,岩手県八幡平市平又
0287654,岩手県,八幡平市,小峠,イワテケン,ハチマンタイシ,コトウゲ,岩手県八幡平市小峠
0287655,岩手県,八幡平市,馬揚沢,イワテケン,ハチマンタイシ,ウマアゲサワ,岩手県八幡平市馬揚沢
0287656,岩手県,八幡平市,左妻,イワテケン,ハチマンタイシ,サヅマ,岩手県八幡平市左妻
0287657,岩手県,八幡平市,栗木田,イワテケン,ハチマンタイシ,クリキダ,岩手県八幡平市栗木田
0287661,岩手県,八幡平市,大沢,イワテケン,ハチマンタイシ,オオサワ,岩手県八幡平市大沢
0287662,岩手県,八幡平市,杉沢,イワテケン,ハチマンタイシ,スギサワ,岩手県八幡平市杉沢
0287663,岩手県,八幡平市,石森,イワテケン,ハチマンタイシ,イシモリ,岩手県八幡平市石森
0287664,岩手県,八幡平市,大沢田,イワテケン,ハチマンタイシ,オオサワダ,岩手県八幡平市大沢田
0287671,岩手県,八幡平市,馬場下,イワテケン,ハチマンタイシ,ババシタ,岩手県八幡平市馬場下
0287672,岩手県,八幡平市,田中下タ,イワテケン,ハチマンタイシ,タナカシタ,岩手県八幡平市田中下タ
0287673,岩手県,八幡平市,殿坂下タ,イワテケン,ハチマンタイシ,トノサカシタ,岩手県八幡平市殿坂下タ
0287674,岩手県,八幡平市,家ノ裏,イワテケン,ハチマンタイシ,イエノウラ,岩手県八幡平市家ノ裏
0287675,岩手県,八幡平市,下モ川原,イワテケン,ハチマンタイシ,シモカワラ,岩手県八幡平市下モ川原
0287676,岩手県,八幡平市,沢口,イワテケン,ハチマンタイシ,サワグチ,岩手県八幡平市沢口
0287677,岩手県,八幡平市,田山,イワテケン,ハチマンタイシ,タヤマ,岩手県八幡平市田山
0287678,岩手県,八幡平市,小森,イワテケン,ハチマンタイシ,コモリ,岩手県八幡平市小森
0287679,岩手県,八幡平市,足深,イワテケン,ハチマンタイシ,アシブカ,岩手県八幡平市足深
0287801,岩手県,久慈市,侍浜町,イワテケン,クジシ,サムライハマチョウ,岩手県久慈市侍浜町
0287900,岩手県,九戸郡洋野町,,イワテケン,クノヘグンヒロノチョウ,,岩手県九戸郡洋野町
0287901,岩手県,九戸郡洋野町,種市第８地割〜第１４地割（玉川、戸類家）,イワテケン,クノヘグンヒロノチョウ,タネイチダイ8チワリ-ダイ14チワリ(タマガワ、ヘルケ),岩手県九戸郡洋野町種市第8-〜第14-（玉川、戸類家）
0287902,岩手県,九戸郡洋野町,種市第４地割〜第７地割（宿戸）,イワテケン,クノヘグンヒロノチョウ,タネイチダイ4チワリ-ダイ7チワリ(シュクノヘ),岩手県九戸郡洋野町種市第4-〜第7-（宿戸）
0287903,岩手県,九戸郡洋野町,種市第１地割〜第３地割（八木南町、八木北町）,イワテケン,クノヘグンヒロノチョウ,タネイチダイ1チワリ-ダイ3チワリ(ヤギミナミマチ、ヤギキタマチ),岩手県九戸郡洋野町種市第1-〜第3-（八木南町、八木北町）
0287904,岩手県,九戸郡洋野町,小子内,イワテケン,クノヘグンヒロノチョウ,オコナイ,岩手県九戸郡洋野町小子内
0287905,岩手県,九戸郡洋野町,有家,イワテケン,クノヘグンヒロノチョウ,ウゲ,岩手県九戸郡洋野町有家
0287906,岩手県,九戸郡洋野町,中野,イワテケン,クノヘグンヒロノチョウ,ナカノ,岩手県九戸郡洋野町中野
0287911,岩手県,九戸郡洋野町,種市第３９地割〜第４５地割（角浜、伝吉）,イワテケン,クノヘグンヒロノチョウ,タネイチダイ39チワリ-ダイ45チワリ(カドノハマ、デンキチ),岩手県九戸郡洋野町種市第39-〜第45-（角浜、伝吉）
0287912,岩手県,九戸郡洋野町,種市第２６地割〜第３８地割（川尻、平内）,イワテケン,クノヘグンヒロノチョウ,タネイチダイ26チワリ-ダイ38チワリ(カワシリ、ヒラナイ),岩手県九戸郡洋野町種市第26-〜第38-（川尻、平内）
0287913,岩手県,九戸郡洋野町,種市第２４地割〜第２５地割（緑ケ丘町、横手）,イワテケン,クノヘグンヒロノチョウ,タネイチダイ24チワリ-ダイ25チワリ(ミドリガオカチョウ、ヨコテ),岩手県九戸郡洋野町種市第24-〜第25-（緑ケ丘町、横手）
0287914,岩手県,九戸郡洋野町,種市第２２地割〜第２３地割（一区、二区、三区、四区、大町、小橋、住吉町）,イワテケン,クノヘグンヒロノチョウ,タネイチダイ22チワリ-ダイ23チワリ(1ク、2ク、3ク、4ク、オオマチ、コバシ、スミヨシチョウ),岩手県九戸郡洋野町種市第22-〜第23-（一区、二区、三区、四区、大町、小橋、住吉町）
0287915,岩手県,九戸郡洋野町,種市第１５地割〜第２１地割（鹿糠、小路合、緑町、大久保、高取）,イワテケン,クノヘグンヒロノチョウ,タネイチダイ15チワリ-ダイ21チワリ(カヌカ、ショウジアイ、ミドリチョウ、オオクボ、タカトリ),岩手県九戸郡洋野町種市第15-〜第21-（鹿糠、小路合、緑町、大久保、高取）
0287916,岩手県,九戸郡洋野町,種市第７１地割〜第７４地割（大谷、和座）,イワテケン,クノヘグンヒロノチョウ,タネイチダイ71チワリ-ダイ74チワリ(オオヤ、ワザ),岩手県九戸郡洋野町種市第71-〜第74-（大谷、和座）
0287917,岩手県,九戸郡洋野町,種市第５０地割〜第７０地割（大沢、城内、滝沢）,イワテケン,クノヘグンヒロノチョウ,タネイチダイ50チワリ-ダイ70チワリ(オオサワ、ジョウナイ、タキサワ),岩手県九戸郡洋野町種市第50-〜第70-（大沢、城内、滝沢）
0287918,岩手県,九戸郡洋野町,種市第４６地割〜第４９地割（麦沢）,イワテケン,クノヘグンヒロノチョウ,タネイチダイ46チワリ-ダイ49チワリ(ムギサワ),岩手県九戸郡洋野町種市第46-〜第49-（麦沢）
0288111,岩手県,久慈市,宇部町,イワテケン,クジシ,ウベチョウ,岩手県久慈市宇部町
0288200,岩手県,九戸郡野田村,,イワテケン,クノヘグンノダムラ,,岩手県九戸郡野田村
0288201,岩手県,九戸郡野田村,野田,イワテケン,クノヘグンノダムラ,ノダ,岩手県九戸郡野田村野田
0288202,岩手県,九戸郡野田村,玉川,イワテケン,クノヘグンノダムラ,タマガワ,岩手県九戸郡野田村玉川
0288300,岩手県,下閉伊郡普代村,,イワテケン,シモヘイグンフダイムラ,,岩手県下閉伊郡普代村
0288301,岩手県,下閉伊郡普代村,馬場野,イワテケン,シモヘイグンフダイムラ,ババノ,岩手県下閉伊郡普代村馬場野
0288302,岩手県,下閉伊郡普代村,堀内,イワテケン,シモヘイグンフダイムラ,ホリナイ,岩手県下閉伊郡普代村堀内
0288303,岩手県,下閉伊郡普代村,沢向,イワテケン,シモヘイグンフダイムラ,サワムカイ,岩手県下閉伊郡普代村沢向
0288311,岩手県,下閉伊郡普代村,白井,イワテケン,シモヘイグンフダイムラ,シライ,岩手県下閉伊郡普代村白井
0288312,岩手県,下閉伊郡普代村,小谷地,イワテケン,シモヘイグンフダイムラ,コヤチ,岩手県下閉伊郡普代村小谷地
0288313,岩手県,下閉伊郡普代村,土取場,イワテケン,シモヘイグンフダイムラ,ツチトリバ,岩手県下閉伊郡普代村土取場
0288321,岩手県,下閉伊郡普代村,野胡桃,イワテケン,シモヘイグンフダイムラ,ノグルミ,岩手県下閉伊郡普代村野胡桃
0288322,岩手県,下閉伊郡普代村,天拝坂,イワテケン,シモヘイグンフダイムラ,テンバイザカ,岩手県下閉伊郡普代村天拝坂
0288323,岩手県,下閉伊郡普代村,鳥居,イワテケン,シモヘイグンフダイムラ,トリイ,岩手県下閉伊郡普代村鳥居
0288331,岩手県,下閉伊郡普代村,宇留部,イワテケン,シモヘイグンフダイムラ,ウルベ,岩手県下閉伊郡普代村宇留部
0288332,岩手県,下閉伊郡普代村,銅屋,イワテケン,シモヘイグンフダイムラ,ドウヤ,岩手県下閉伊郡普代村銅屋
0288333,岩手県,下閉伊郡普代村,羅賀,イワテケン,シモヘイグンフダイムラ,ラガ,岩手県下閉伊郡普代村羅賀
0288334,岩手県,下閉伊郡普代村,中村,イワテケン,シモヘイグンフダイムラ,ナカムラ,岩手県下閉伊郡普代村中村
0288335,岩手県,下閉伊郡普代村,普代,イワテケン,シモヘイグンフダイムラ,フダイ,岩手県下閉伊郡普代村普代
0288336,岩手県,下閉伊郡普代村,堤,イワテケン,シモヘイグンフダイムラ,ツツミ,岩手県下閉伊郡普代村堤
0288341,岩手県,下閉伊郡普代村,明神,イワテケン,シモヘイグンフダイムラ,ミョウジン,岩手県下閉伊郡普代村明神
0288342,岩手県,下閉伊郡普代村,和野山,イワテケン,シモヘイグンフダイムラ,ワノヤマ,岩手県下閉伊郡普代村和野山
0288343,岩手県,下閉伊郡普代村,上の山,イワテケン,シモヘイグンフダイムラ,ウエノヤマ,岩手県下閉伊郡普代村上の山
0288344,岩手県,下閉伊郡普代村,中山,イワテケン,シモヘイグンフダイムラ,ナカヤマ,岩手県下閉伊郡普代村中山
0288345,岩手県,下閉伊郡普代村,太田名部,イワテケン,シモヘイグンフダイムラ,オオタナベ,岩手県下閉伊郡普代村太田名部
0288351,岩手県,下閉伊郡普代村,下村,イワテケン,シモヘイグンフダイムラ,シモムラ,岩手県下閉伊郡普代村下村
0288352,岩手県,下閉伊郡普代村,上村,イワテケン,シモヘイグンフダイムラ,カミムラ,岩手県下閉伊郡普代村上村
0288353,岩手県,下閉伊郡普代村,黒崎,イワテケン,シモヘイグンフダイムラ,クロサキ,岩手県下閉伊郡普代村黒崎
0288361,岩手県,下閉伊郡普代村,北ノ股,イワテケン,シモヘイグンフダイムラ,キタノマタ,岩手県下閉伊郡普代村北ノ股
0288362,岩手県,下閉伊郡普代村,卯子酉,イワテケン,シモヘイグンフダイムラ,ウネドリ,岩手県下閉伊郡普代村卯子酉
0288363,岩手県,下閉伊郡普代村,茂市,イワテケン,シモヘイグンフダイムラ,モイチ,岩手県下閉伊郡普代村茂市
0288364,岩手県,下閉伊郡普代村,南股,イワテケン,シモヘイグンフダイムラ,ミナミノマタ,岩手県下閉伊郡普代村南股
0288365,岩手県,下閉伊郡普代村,芦渡,イワテケン,シモヘイグンフダイムラ,アシワタリ,岩手県下閉伊郡普代村芦渡
0288366,岩手県,下閉伊郡普代村,芦生,イワテケン,シモヘイグンフダイムラ,アシオイ,岩手県下閉伊郡普代村芦生
0288367,岩手県,下閉伊郡普代村,萩牛,イワテケン,シモヘイグンフダイムラ,ハギュウ,岩手県下閉伊郡普代村萩牛
0288368,岩手県,下閉伊郡普代村,柏木平,イワテケン,シモヘイグンフダイムラ,カシワギダイラ,岩手県下閉伊郡普代村柏木平
0288400,岩手県,下閉伊郡田野畑村,,イワテケン,シモヘイグンタノハタムラ,,岩手県下閉伊郡田野畑村
0288401,岩手県,下閉伊郡田野畑村,一の渡,イワテケン,シモヘイグンタノハタムラ,イチノワタリ,岩手県下閉伊郡田野畑村一の渡
0288401,岩手県,下閉伊郡田野畑村,三沢,イワテケン,シモヘイグンタノハタムラ,ミサワ,岩手県下閉伊郡田野畑村三沢
0288401,岩手県,下閉伊郡田野畑村,千丈,イワテケン,シモヘイグンタノハタムラ,センジョウ,岩手県下閉伊郡田野畑村千丈
0288401,岩手県,下閉伊郡田野畑村,千足,イワテケン,シモヘイグンタノハタムラ,センゾク,岩手県下閉伊郡田野畑村千足
0288401,岩手県,下閉伊郡田野畑村,大森,イワテケン,シモヘイグンタノハタムラ,オオモリ,岩手県下閉伊郡田野畑村大森
0288401,岩手県,下閉伊郡田野畑村,奥地,イワテケン,シモヘイグンタノハタムラ,オクチ,岩手県下閉伊郡田野畑村奥地
0288401,岩手県,下閉伊郡田野畑村,奥地向,イワテケン,シモヘイグンタノハタムラ,オクチムカイ,岩手県下閉伊郡田野畑村奥地向
0288401,岩手県,下閉伊郡田野畑村,姫松,イワテケン,シモヘイグンタノハタムラ,ヒメマツ,岩手県下閉伊郡田野畑村姫松
0288401,岩手県,下閉伊郡田野畑村,子木地,イワテケン,シモヘイグンタノハタムラ,ネギチ,岩手県下閉伊郡田野畑村子木地
0288401,岩手県,下閉伊郡田野畑村,子木屋敷,イワテケン,シモヘイグンタノハタムラ,ネギヤシキ,岩手県下閉伊郡田野畑村子木屋敷
0288401,岩手県,下閉伊郡田野畑村,尾肝要,イワテケン,シモヘイグンタノハタムラ,オカンヨウ,岩手県下閉伊郡田野畑村尾肝要
0288401,岩手県,下閉伊郡田野畑村,巣合,イワテケン,シモヘイグンタノハタムラ,スゴウ,岩手県下閉伊郡田野畑村巣合
0288401,岩手県,下閉伊郡田野畑村,日蔭,イワテケン,シモヘイグンタノハタムラ,ヒカゲ,岩手県下閉伊郡田野畑村日蔭
0288401,岩手県,下閉伊郡田野畑村,沼袋,イワテケン,シモヘイグンタノハタムラ,ヌマブクロ,岩手県下閉伊郡田野畑村沼袋
0288401,岩手県,下閉伊郡田野畑村,滝ノ沢,イワテケン,シモヘイグンタノハタムラ,タキノサワ,岩手県下閉伊郡田野畑村滝ノ沢
0288401,岩手県,下閉伊郡田野畑村,田代,イワテケン,シモヘイグンタノハタムラ,タシロ,岩手県下閉伊郡田野畑村田代
0288401,岩手県,下閉伊郡田野畑村,茅刈沢,イワテケン,シモヘイグンタノハタムラ,カヤカリサワ,岩手県下閉伊郡田野畑村茅刈沢
0288401,岩手県,下閉伊郡田野畑村,萩牛,イワテケン,シモヘイグンタノハタムラ,ハギュウ,岩手県下閉伊郡田野畑村萩牛
0288401,岩手県,下閉伊郡田野畑村,蝦夷森,イワテケン,シモヘイグンタノハタムラ,エゾモリ,岩手県下閉伊郡田野畑村蝦夷森
0288401,岩手県,下閉伊郡田野畑村,長根,イワテケン,シモヘイグンタノハタムラ,ナガネ,岩手県下閉伊郡田野畑村長根
0288402,岩手県,下閉伊郡田野畑村,北山,イワテケン,シモヘイグンタノハタムラ,キタヤマ,岩手県下閉伊郡田野畑村北山
0288402,岩手県,下閉伊郡田野畑村,明戸,イワテケン,シモヘイグンタノハタムラ,アケト,岩手県下閉伊郡田野畑村明戸
0288402,岩手県,下閉伊郡田野畑村,机,イワテケン,シモヘイグンタノハタムラ,ツクエ,岩手県下閉伊郡田野畑村机
0288403,岩手県,下閉伊郡田野畑村,羅賀,イワテケン,シモヘイグンタノハタムラ,ラガ,岩手県下閉伊郡田野畑村羅賀
0288404,岩手県,下閉伊郡田野畑村,島越,イワテケン,シモヘイグンタノハタムラ,シマノコシ,岩手県下閉伊郡田野畑村島越
0288404,岩手県,下閉伊郡田野畑村,松前沢,イワテケン,シモヘイグンタノハタムラ,マツマエサワ,岩手県下閉伊郡田野畑村松前沢
0288405,岩手県,下閉伊郡田野畑村,切牛,イワテケン,シモヘイグンタノハタムラ,キリウシ,岩手県下閉伊郡田野畑村切牛
0288405,岩手県,下閉伊郡田野畑村,南大芦,イワテケン,シモヘイグンタノハタムラ,ミナミオオアシ,岩手県下閉伊郡田野畑村南大芦
0288405,岩手県,下閉伊郡田野畑村,大芦,イワテケン,シモヘイグンタノハタムラ,オオアシ,岩手県下閉伊郡田野畑村大芦
0288405,岩手県,下閉伊郡田野畑村,浜岩泉,イワテケン,シモヘイグンタノハタムラ,ハマイワイズミ,岩手県下閉伊郡田野畑村浜岩泉
0288405,岩手県,下閉伊郡田野畑村,真木沢,イワテケン,シモヘイグンタノハタムラ,マギサワ,岩手県下閉伊郡田野畑村真木沢
0288406,岩手県,下閉伊郡田野畑村,七滝,イワテケン,シモヘイグンタノハタムラ,ナナタキ,岩手県下閉伊郡田野畑村七滝
0288406,岩手県,下閉伊郡田野畑村,室場,イワテケン,シモヘイグンタノハタムラ,ムロバ,岩手県下閉伊郡田野畑村室場
0288406,岩手県,下閉伊郡田野畑村,年呂部,イワテケン,シモヘイグンタノハタムラ,トシロベ,岩手県下閉伊郡田野畑村年呂部
0288406,岩手県,下閉伊郡田野畑村,猿山,イワテケン,シモヘイグンタノハタムラ,サルヤマ,岩手県下閉伊郡田野畑村猿山
0288406,岩手県,下閉伊郡田野畑村,目名,イワテケン,シモヘイグンタノハタムラ,メナ,岩手県下閉伊郡田野畑村目名
0288407,岩手県,下閉伊郡田野畑村,和野,イワテケン,シモヘイグンタノハタムラ,ワノ,岩手県下閉伊郡田野畑村和野
0288407,岩手県,下閉伊郡田野畑村,川平,イワテケン,シモヘイグンタノハタムラ,カワダイ,岩手県下閉伊郡田野畑村川平
0288407,岩手県,下閉伊郡田野畑村,田野畑,イワテケン,シモヘイグンタノハタムラ,タノハタ,岩手県下閉伊郡田野畑村田野畑
0288407,岩手県,下閉伊郡田野畑村,菅窪,イワテケン,シモヘイグンタノハタムラ,スゲノクボ,岩手県下閉伊郡田野畑村菅窪
0288521,岩手県,久慈市,山根町,イワテケン,クジシ,ヤマネチョウ,岩手県久慈市山根町
0288601,岩手県,久慈市,山形町戸呂町,イワテケン,クジシ,ヤマガタチョウヘロマチ,岩手県久慈市山形町戸呂町
0288602,岩手県,久慈市,山形町川井,イワテケン,クジシ,ヤマガタチョウカワイ,岩手県久慈市山形町川井
0288603,岩手県,久慈市,山形町荷軽部,イワテケン,クジシ,ヤマガタチョウニカルベ,岩手県久慈市山形町荷軽部
0288604,岩手県,久慈市,山形町日野沢,イワテケン,クジシ,ヤマガタチョウヒノサワ,岩手県久慈市山形町日野沢
0288605,岩手県,久慈市,山形町来内,イワテケン,クジシ,ヤマガタチョウライナイ,岩手県久慈市山形町来内
0288711,岩手県,久慈市,山形町繋,イワテケン,クジシ,ヤマガタチョウツナギ,岩手県久慈市山形町繋
0288712,岩手県,久慈市,山形町小国,イワテケン,クジシ,ヤマガタチョウオグニ,岩手県久慈市山形町小国
0288713,岩手県,久慈市,山形町霜畑,イワテケン,クジシ,ヤマガタチョウシモハタ,岩手県久慈市山形町霜畑
0288801,岩手県,九戸郡洋野町,上館,イワテケン,クノヘグンヒロノチョウ,カミダテ,岩手県九戸郡洋野町上館
0288802,岩手県,九戸郡洋野町,大野,イワテケン,クノヘグンヒロノチョウ,オオノ,岩手県九戸郡洋野町大野
0288803,岩手県,九戸郡洋野町,阿子木,イワテケン,クノヘグンヒロノチョウ,アコギ,岩手県九戸郡洋野町阿子木
0288804,岩手県,九戸郡洋野町,帯島,イワテケン,クノヘグンヒロノチョウ,タイシマ,岩手県九戸郡洋野町帯島
0288805,岩手県,九戸郡洋野町,水沢,イワテケン,クノヘグンヒロノチョウ,ミズサワ,岩手県九戸郡洋野町水沢
0290131,岩手県,一関市,狐禅寺,イワテケン,イチノセキシ,コゼンジ,岩手県一関市狐禅寺
0290132,岩手県,一関市,滝沢,イワテケン,イチノセキシ,タキザワ,岩手県一関市滝沢
0290201,岩手県,一関市,川崎町門崎,イワテケン,イチノセキシ,カワサキチョウカンザキ,岩手県一関市川崎町門崎
0290202,岩手県,一関市,川崎町薄衣,イワテケン,イチノセキシ,カワサキチョウウスギヌ,岩手県一関市川崎町薄衣
0290211,岩手県,一関市,弥栄,イワテケン,イチノセキシ,ヤサカエ,岩手県一関市弥栄
0290301,岩手県,一関市,東山町田河津,イワテケン,イチノセキシ,ヒガシヤマチョウタコウヅ,岩手県一関市東山町田河津
0290302,岩手県,一関市,東山町長坂,イワテケン,イチノセキシ,ヒガシヤマチョウナガサカ,岩手県一関市東山町長坂
0290303,岩手県,一関市,東山町松川,イワテケン,イチノセキシ,ヒガシヤマチョウマツカワ,岩手県一関市東山町松川
0290431,岩手県,一関市,大東町猿沢,イワテケン,イチノセキシ,ダイトウチョウサルサワ,岩手県一関市大東町猿沢
0290521,岩手県,一関市,大東町渋民,イワテケン,イチノセキシ,ダイトウチョウシブタミ,岩手県一関市大東町渋民
0290522,岩手県,一関市,大東町曽慶,イワテケン,イチノセキシ,ダイトウチョウソゲイ,岩手県一関市大東町曽慶
0290523,岩手県,一関市,大東町摺沢,イワテケン,イチノセキシ,ダイトウチョウスリサワ,岩手県一関市大東町摺沢
0290601,岩手県,一関市,大東町中川,イワテケン,イチノセキシ,ダイトウチョウナカガワ,岩手県一関市大東町中川
0290602,岩手県,一関市,大東町鳥海,イワテケン,イチノセキシ,ダイトウチョウトリウミ,岩手県一関市大東町鳥海
0290603,岩手県,一関市,大東町沖田,イワテケン,イチノセキシ,ダイトウチョウオキタ,岩手県一関市大東町沖田
0290711,岩手県,一関市,大東町大原,イワテケン,イチノセキシ,ダイトウチョウオオハラ,岩手県一関市大東町大原
0290801,岩手県,一関市,千厩町清田,イワテケン,イチノセキシ,センマヤチョウキヨタ,岩手県一関市千厩町清田
0290802,岩手県,一関市,千厩町小梨,イワテケン,イチノセキシ,センマヤチョウコナシ,岩手県一関市千厩町小梨
0290803,岩手県,一関市,千厩町千厩,イワテケン,イチノセキシ,センマヤチョウセンマヤ,岩手県一関市千厩町千厩
0290804,岩手県,一関市,千厩町磐清水,イワテケン,イチノセキシ,センマヤチョウイワシミズ,岩手県一関市千厩町磐清水
0291111,岩手県,一関市,千厩町奥玉,イワテケン,イチノセキシ,センマヤチョウオクタマ,岩手県一関市千厩町奥玉
0291201,岩手県,一関市,室根町折壁,イワテケン,イチノセキシ,ムロネチョウオリカベ,岩手県一関市室根町折壁
0291202,岩手県,一関市,室根町矢越,イワテケン,イチノセキシ,ムロネチョウヤゴシ,岩手県一関市室根町矢越
0291211,岩手県,一関市,室根町津谷川,イワテケン,イチノセキシ,ムロネチョウツヤガワ,岩手県一関市室根町津谷川
0292200,岩手県,陸前高田市,,イワテケン,リクゼンタカタシ,,岩手県陸前高田市
0292201,岩手県,陸前高田市,矢作町,イワテケン,リクゼンタカタシ,ヤハギチョウ,岩手県陸前高田市矢作町
0292202,岩手県,陸前高田市,横田町,イワテケン,リクゼンタカタシ,ヨコタチョウ,岩手県陸前高田市横田町
0292203,岩手県,陸前高田市,竹駒町,イワテケン,リクゼンタカタシ,タケコマチョウ,岩手県陸前高田市竹駒町
0292204,岩手県,陸前高田市,気仙町,イワテケン,リクゼンタカタシ,ケセンチョウ,岩手県陸前高田市気仙町
0292205,岩手県,陸前高田市,高田町,イワテケン,リクゼンタカタシ,タカタチョウ,岩手県陸前高田市高田町
0292206,岩手県,陸前高田市,米崎町,イワテケン,リクゼンタカタシ,ヨネサキチョウ,岩手県陸前高田市米崎町
0292207,岩手県,陸前高田市,小友町,イワテケン,リクゼンタカタシ,オトモチョウ,岩手県陸前高田市小友町
0292208,岩手県,陸前高田市,広田町,イワテケン,リクゼンタカタシ,ヒロタチョウ,岩手県陸前高田市広田町
0292300,岩手県,気仙郡住田町,,イワテケン,ケセングンスミタチョウ,,岩手県気仙郡住田町
0292311,岩手県,気仙郡住田町,世田米,イワテケン,ケセングンスミタチョウ,セタマイ,岩手県気仙郡住田町世田米
0292501,岩手県,気仙郡住田町,上有住,イワテケン,ケセングンスミタチョウ,カミアリス,岩手県気仙郡住田町上有住
0292502,岩手県,気仙郡住田町,下有住,イワテケン,ケセングンスミタチョウ,シモアリス,岩手県気仙郡住田町下有住
0293101,岩手県,一関市,花泉町花泉,イワテケン,イチノセキシ,ハナイズミチョウハナイズミ,岩手県一関市花泉町花泉
0293102,岩手県,一関市,花泉町金沢,イワテケン,イチノセキシ,ハナイズミチョウカザワ,岩手県一関市花泉町金沢
0293103,岩手県,一関市,花泉町老松,イワテケン,イチノセキシ,ハナイズミチョウオイマツ,岩手県一関市花泉町老松
0293104,岩手県,一関市,花泉町日形,イワテケン,イチノセキシ,ハナイズミチョウヒカタ,岩手県一関市花泉町日形
0293105,岩手県,一関市,花泉町涌津（一ノ町、二ノ町、上原、境、古川、道下）,イワテケン,イチノセキシ,ハナイズミチョウワクツ(イチノマチ、ニノマチ、カミハラ、サカイ、フルカワ、ミチシタ),岩手県一関市花泉町涌津（一ノ町、二ノ町、上原、境、古川、道下）
0293205,岩手県,一関市,花泉町涌津（その他）,イワテケン,イチノセキシ,ハナイズミチョウワクツ(ソノタ),岩手県一関市花泉町涌津（その他）
0293206,岩手県,一関市,花泉町永井,イワテケン,イチノセキシ,ハナイズミチョウナガイ,岩手県一関市花泉町永井
0293207,岩手県,一関市,花泉町油島,イワテケン,イチノセキシ,ハナイズミチョウユシマ,岩手県一関市花泉町油島
0293311,岩手県,一関市,藤沢町黄海,イワテケン,イチノセキシ,フジサワチョウキノミ,岩手県一関市藤沢町黄海
0293401,岩手県,一関市,藤沢町増沢,イワテケン,イチノセキシ,フジサワチョウマスザワ,岩手県一関市藤沢町増沢
0293402,岩手県,一関市,藤沢町新沼,イワテケン,イチノセキシ,フジサワチョウニイヌマ,岩手県一関市藤沢町新沼
0293403,岩手県,一関市,藤沢町砂子田,イワテケン,イチノセキシ,フジサワチョウスナゴタ,岩手県一関市藤沢町砂子田
0293404,岩手県,一関市,藤沢町徳田,イワテケン,イチノセキシ,フジサワチョウトクダ,岩手県一関市藤沢町徳田
0293405,岩手県,一関市,藤沢町藤沢,イワテケン,イチノセキシ,フジサワチョウフジサワ,岩手県一関市藤沢町藤沢
0293406,岩手県,一関市,藤沢町西口,イワテケン,イチノセキシ,フジサワチョウニシグチ,岩手県一関市藤沢町西口
0293521,岩手県,一関市,藤沢町保呂羽,イワテケン,イチノセキシ,フジサワチョウホロワ,岩手県一関市藤沢町保呂羽
0293522,岩手県,一関市,藤沢町大籠,イワテケン,イチノセキシ,フジサワチョウオオカゴ,岩手県一関市藤沢町大籠
0294100,岩手県,西磐井郡平泉町,,イワテケン,ニシイワイグンヒライズミチョウ,,岩手県西磐井郡平泉町
0294101,岩手県,西磐井郡平泉町,長島,イワテケン,ニシイワイグンヒライズミチョウ,ナガシマ,岩手県西磐井郡平泉町長島
0294102,岩手県,西磐井郡平泉町,平泉,イワテケン,ニシイワイグンヒライズミチョウ,ヒライズミ,岩手県西磐井郡平泉町平泉
0294201,岩手県,奥州市,前沢久田,イワテケン,オウシュウシ,マエサワキュウデン,岩手県奥州市前沢久田
0294201,岩手県,奥州市,前沢古城,イワテケン,オウシュウシ,マエサワコジョウ,岩手県奥州市前沢古城
0294201,岩手県,奥州市,前沢源氏ケ崎,イワテケン,オウシュウシ,マエサワゲンジガサキ,岩手県奥州市前沢源氏ケ崎
0294201,岩手県,奥州市,前沢阿部舘,イワテケン,オウシュウシ,マエサワアベタテ,岩手県奥州市前沢阿部舘
0294202,岩手県,奥州市,前沢白山,イワテケン,オウシュウシ,マエサワシラヤマ,岩手県奥州市前沢白山
0294203,岩手県,奥州市,前沢北久保,イワテケン,オウシュウシ,マエサワキタクボ,岩手県奥州市前沢北久保
0294203,岩手県,奥州市,前沢狐堂,イワテケン,オウシュウシ,マエサワキツネドウ,岩手県奥州市前沢狐堂
0294203,岩手県,奥州市,前沢生母,イワテケン,オウシュウシ,マエサワセイボ,岩手県奥州市前沢生母
0294204,岩手県,奥州市,前沢下谷起,イワテケン,オウシュウシ,マエサワシタヤギ,岩手県奥州市前沢下谷起
0294204,岩手県,奥州市,前沢中久保,イワテケン,オウシュウシ,マエサワナカクボ,岩手県奥州市前沢中久保
0294204,岩手県,奥州市,前沢中村,イワテケン,オウシュウシ,マエサワナカムラ,岩手県奥州市前沢中村
0294204,岩手県,奥州市,前沢八幡,イワテケン,オウシュウシ,マエサワヤワタ,岩手県奥州市前沢八幡
0294204,岩手県,奥州市,前沢八幡前,イワテケン,オウシュウシ,マエサワヤワタマエ,岩手県奥州市前沢八幡前
0294204,岩手県,奥州市,前沢南前沢,イワテケン,オウシュウシ,マエサワミナミマエサワ,岩手県奥州市前沢南前沢
0294204,岩手県,奥州市,前沢古川,イワテケン,オウシュウシ,マエサワフルカワ,岩手県奥州市前沢古川
0294204,岩手県,奥州市,前沢向田,イワテケン,オウシュウシ,マエサワムカイダ,岩手県奥州市前沢向田
0294204,岩手県,奥州市,前沢宿,イワテケン,オウシュウシ,マエサワシュク,岩手県奥州市前沢宿
0294204,岩手県,奥州市,前沢島,イワテケン,オウシュウシ,マエサワシマ,岩手県奥州市前沢島
0294204,岩手県,奥州市,前沢本杉,イワテケン,オウシュウシ,マエサワモトスギ,岩手県奥州市前沢本杉
0294204,岩手県,奥州市,前沢田中,イワテケン,オウシュウシ,マエサワタナカ,岩手県奥州市前沢田中
0294204,岩手県,奥州市,前沢谷地,イワテケン,オウシュウシ,マエサワヤチ,岩手県奥州市前沢谷地
0294204,岩手県,奥州市,前沢道場,イワテケン,オウシュウシ,マエサワドウバ,岩手県奥州市前沢道場
0294204,岩手県,奥州市,前沢長檀,イワテケン,オウシュウシ,マエサワナガダン,岩手県奥州市前沢長檀
0294204,岩手県,奥州市,前沢高畑,イワテケン,オウシュウシ,マエサワタカハタケ,岩手県奥州市前沢高畑
0294204,岩手県,奥州市,前沢鳥待小屋,イワテケン,オウシュウシ,マエサワトリマチゴヤ,岩手県奥州市前沢鳥待小屋
0294205,岩手県,奥州市,前沢うるし野,イワテケン,オウシュウシ,マエサワウルシノ,岩手県奥州市前沢うるし野
0294205,岩手県,奥州市,前沢一ノ沢,イワテケン,オウシュウシ,マエサワイチノサワ,岩手県奥州市前沢一ノ沢
0294205,岩手県,奥州市,前沢両手沢,イワテケン,オウシュウシ,マエサワモロテザワ,岩手県奥州市前沢両手沢
0294205,岩手県,奥州市,前沢中屋敷,イワテケン,オウシュウシ,マエサワナカヤシキ,岩手県奥州市前沢中屋敷
0294205,岩手県,奥州市,前沢二ノ沢,イワテケン,オウシュウシ,マエサワニノサワ,岩手県奥州市前沢二ノ沢
0294205,岩手県,奥州市,前沢六本松,イワテケン,オウシュウシ,マエサワロッポンマツ,岩手県奥州市前沢六本松
0294205,岩手県,奥州市,前沢前野,イワテケン,オウシュウシ,マエサワマエノ,岩手県奥州市前沢前野
0294205,岩手県,奥州市,前沢南中島,イワテケン,オウシュウシ,マエサワミナミナカジマ,岩手県奥州市前沢南中島
0294205,岩手県,奥州市,前沢南塔ケ崎,イワテケン,オウシュウシ,マエサワミナミトウガサキ,岩手県奥州市前沢南塔ケ崎
0294205,岩手県,奥州市,前沢南陣場,イワテケン,オウシュウシ,マエサワミナミジンバ,岩手県奥州市前沢南陣場
0294205,岩手県,奥州市,前沢合ノ沢,イワテケン,オウシュウシ,マエサワアイノサワ,岩手県奥州市前沢合ノ沢
0294205,岩手県,奥州市,前沢堤田,イワテケン,オウシュウシ,マエサワツツミダ,岩手県奥州市前沢堤田
0294205,岩手県,奥州市,前沢大袋,イワテケン,オウシュウシ,マエサワオオブクロ,岩手県奥州市前沢大袋
0294205,岩手県,奥州市,前沢安寺沢,イワテケン,オウシュウシ,マエサワアテラサワ,岩手県奥州市前沢安寺沢
0294205,岩手県,奥州市,前沢小沢口,イワテケン,オウシュウシ,マエサワオサワグチ,岩手県奥州市前沢小沢口
0294205,岩手県,奥州市,前沢川内,イワテケン,オウシュウシ,マエサワカワウチ,岩手県奥州市前沢川内
0294205,岩手県,奥州市,前沢干場,イワテケン,オウシュウシ,マエサワホシバ,岩手県奥州市前沢干場
0294205,岩手県,奥州市,前沢徳沢,イワテケン,オウシュウシ,マエサワトクサワ,岩手県奥州市前沢徳沢
0294205,岩手県,奥州市,前沢新城,イワテケン,オウシュウシ,マエサワシンジョウ,岩手県奥州市前沢新城
0294205,岩手県,奥州市,前沢日向,イワテケン,オウシュウシ,マエサワヒナタ,岩手県奥州市前沢日向
0294205,岩手県,奥州市,前沢櫓前,イワテケン,オウシュウシ,マエサワヤグラマエ,岩手県奥州市前沢櫓前
0294205,岩手県,奥州市,前沢永沢,イワテケン,オウシュウシ,マエサワナガサワ,岩手県奥州市前沢永沢
0294205,岩手県,奥州市,前沢沖田,イワテケン,オウシュウシ,マエサワオキタ,岩手県奥州市前沢沖田
0294205,岩手県,奥州市,前沢沼ノ沢,イワテケン,オウシュウシ,マエサワヌマノサワ,岩手県奥州市前沢沼ノ沢
0294205,岩手県,奥州市,前沢沼尻,イワテケン,オウシュウシ,マエサワヌマジリ,岩手県奥州市前沢沼尻
0294205,岩手県,奥州市,前沢浪洗,イワテケン,オウシュウシ,マエサワナミアライ,岩手県奥州市前沢浪洗
0294205,岩手県,奥州市,前沢清水,イワテケン,オウシュウシ,マエサワシミズ,岩手県奥州市前沢清水
0294205,岩手県,奥州市,前沢照井舘,イワテケン,オウシュウシ,マエサワテルイダテ,岩手県奥州市前沢照井舘
0294205,岩手県,奥州市,前沢白鳥舘,イワテケン,オウシュウシ,マエサワシロトリダテ,岩手県奥州市前沢白鳥舘
0294205,岩手県,奥州市,前沢石田,イワテケン,オウシュウシ,マエサワイシダ,岩手県奥州市前沢石田
0294205,岩手県,奥州市,前沢福養,イワテケン,オウシュウシ,マエサワフクヨウ,岩手県奥州市前沢福養
0294205,岩手県,奥州市,前沢箕輪,イワテケン,オウシュウシ,マエサワミノワ,岩手県奥州市前沢箕輪
0294205,岩手県,奥州市,前沢蛇ノ鼻,イワテケン,オウシュウシ,マエサワジャノハナ,岩手県奥州市前沢蛇ノ鼻
0294205,岩手県,奥州市,前沢衣関,イワテケン,オウシュウシ,マエサワキヌトメ,岩手県奥州市前沢衣関
0294205,岩手県,奥州市,前沢谷記,イワテケン,オウシュウシ,マエサワヤギ,岩手県奥州市前沢谷記
0294205,岩手県,奥州市,前沢谷記田,イワテケン,オウシュウシ,マエサワヤギタ,岩手県奥州市前沢谷記田
0294205,岩手県,奥州市,前沢谷起,イワテケン,オウシュウシ,マエサワヤギ,岩手県奥州市前沢谷起
0294205,岩手県,奥州市,前沢谷起田,イワテケン,オウシュウシ,マエサワヤギタ,岩手県奥州市前沢谷起田
0294205,岩手県,奥州市,前沢里,イワテケン,オウシュウシ,マエサワサト,岩手県奥州市前沢里
0294205,岩手県,奥州市,前沢長根,イワテケン,オウシュウシ,マエサワナガネ,岩手県奥州市前沢長根
0294205,岩手県,奥州市,前沢鵜ノ木,イワテケン,オウシュウシ,マエサワウノキ,岩手県奥州市前沢鵜ノ木
0294205,岩手県,奥州市,前沢鵜ノ木田,イワテケン,オウシュウシ,マエサワウノキダ,岩手県奥州市前沢鵜ノ木田
0294206,岩手県,奥州市,前沢太郎ケ沢,イワテケン,オウシュウシ,マエサワタロウガサワ,岩手県奥州市前沢太郎ケ沢
0294206,岩手県,奥州市,前沢日除松,イワテケン,オウシュウシ,マエサワヒヨケマツ,岩手県奥州市前沢日除松
0294206,岩手県,奥州市,前沢狐石,イワテケン,オウシュウシ,マエサワキツネイシ,岩手県奥州市前沢狐石
0294206,岩手県,奥州市,前沢簾森,イワテケン,オウシュウシ,マエサワミスモリ,岩手県奥州市前沢簾森
0294206,岩手県,奥州市,前沢裏新田,イワテケン,オウシュウシ,マエサワウラシンデン,岩手県奥州市前沢裏新田
0294206,岩手県,奥州市,前沢赤坂,イワテケン,オウシュウシ,マエサワアカサカ,岩手県奥州市前沢赤坂
0294206,岩手県,奥州市,前沢陣場,イワテケン,オウシュウシ,マエサワジンバ,岩手県奥州市前沢陣場
0294206,岩手県,奥州市,前沢養ケ森,イワテケン,オウシュウシ,マエサワヨウガモリ,岩手県奥州市前沢養ケ森
0294206,岩手県,奥州市,前沢駒水,イワテケン,オウシュウシ,マエサワコマスイ,岩手県奥州市前沢駒水
0294207,岩手県,奥州市,前沢一本杉,イワテケン,オウシュウシ,マエサワイッポンスギ,岩手県奥州市前沢一本杉
0294207,岩手県,奥州市,前沢三日町,イワテケン,オウシュウシ,マエサワミッカマチ,岩手県奥州市前沢三日町
0294207,岩手県,奥州市,前沢三日町新裏,イワテケン,オウシュウシ,マエサワミッカマチシンウラ,岩手県奥州市前沢三日町新裏
0294207,岩手県,奥州市,前沢三日町浦,イワテケン,オウシュウシ,マエサワミッカマチウラ,岩手県奥州市前沢三日町浦
0294207,岩手県,奥州市,前沢下小路,イワテケン,オウシュウシ,マエサワシモコウジ,岩手県奥州市前沢下小路
0294207,岩手県,奥州市,前沢五十人町,イワテケン,オウシュウシ,マエサワゴジュウニンマチ,岩手県奥州市前沢五十人町
0294207,岩手県,奥州市,前沢塔ケ崎,イワテケン,オウシュウシ,マエサワトウガサキ,岩手県奥州市前沢塔ケ崎
0294207,岩手県,奥州市,前沢大桜,イワテケン,オウシュウシ,マエサワオオザクラ,岩手県奥州市前沢大桜
0294207,岩手県,奥州市,前沢屋敷,イワテケン,オウシュウシ,マエサワヤシキ,岩手県奥州市前沢屋敷
0294207,岩手県,奥州市,前沢平前,イワテケン,オウシュウシ,マエサワタイラマエ,岩手県奥州市前沢平前
0294207,岩手県,奥州市,前沢平小路,イワテケン,オウシュウシ,マエサワタイラコウジ,岩手県奥州市前沢平小路
0294207,岩手県,奥州市,前沢泊ケ崎,イワテケン,オウシュウシ,マエサワトマリガサキ,岩手県奥州市前沢泊ケ崎
0294207,岩手県,奥州市,前沢赤面,イワテケン,オウシュウシ,マエサワアカツラ,岩手県奥州市前沢赤面
0294208,岩手県,奥州市,前沢七日町,イワテケン,オウシュウシ,マエサワナノカマチ,岩手県奥州市前沢七日町
0294208,岩手県,奥州市,前沢七日町裏,イワテケン,オウシュウシ,マエサワナノカマチウラ,岩手県奥州市前沢七日町裏
0294208,岩手県,奥州市,前沢中田,イワテケン,オウシュウシ,マエサワナカダ,岩手県奥州市前沢中田
0294208,岩手県,奥州市,前沢二十人町,イワテケン,オウシュウシ,マエサワニジュウニンマチ,岩手県奥州市前沢二十人町
0294208,岩手県,奥州市,前沢二十人町裏,イワテケン,オウシュウシ,マエサワニジュウニンマチウラ,岩手県奥州市前沢二十人町裏
0294208,岩手県,奥州市,前沢五合田,イワテケン,オウシュウシ,マエサワゴゴウタ,岩手県奥州市前沢五合田
0294208,岩手県,奥州市,前沢大林寺下,イワテケン,オウシュウシ,マエサワダイリンジシタ,岩手県奥州市前沢大林寺下
0294208,岩手県,奥州市,前沢山下,イワテケン,オウシュウシ,マエサワヤマシタ,岩手県奥州市前沢山下
0294208,岩手県,奥州市,前沢新町,イワテケン,オウシュウシ,マエサワシンマチ,岩手県奥州市前沢新町
0294208,岩手県,奥州市,前沢新町裏,イワテケン,オウシュウシ,マエサワシンマチウラ,岩手県奥州市前沢新町裏
0294208,岩手県,奥州市,前沢株樹,イワテケン,オウシュウシ,マエサワカブキ,岩手県奥州市前沢株樹
0294208,岩手県,奥州市,前沢河ノ畑,イワテケン,オウシュウシ,マエサワカノハタ,岩手県奥州市前沢河ノ畑
0294208,岩手県,奥州市,前沢田畠,イワテケン,オウシュウシ,マエサワタバタ,岩手県奥州市前沢田畠
0294208,岩手県,奥州市,前沢立石,イワテケン,オウシュウシ,マエサワタテイシ,岩手県奥州市前沢立石
0294208,岩手県,奥州市,前沢竹沢,イワテケン,オウシュウシ,マエサワタケザワ,岩手県奥州市前沢竹沢
0294208,岩手県,奥州市,前沢粟ケ島,イワテケン,オウシュウシ,マエサワアワガシマ,岩手県奥州市前沢粟ケ島
0294209,岩手県,奥州市,前沢あすか通,イワテケン,オウシュウシ,マエサワアスカドオリ,岩手県奥州市前沢あすか通
0294211,岩手県,奥州市,前沢駅東,イワテケン,オウシュウシ,マエサワエキヒガシ,岩手県奥州市前沢駅東
0294303,岩手県,奥州市,衣川衣原,イワテケン,オウシュウシ,コロモガワキヌハラ,岩手県奥州市衣川衣原
0294304,岩手県,奥州市,衣川外の沢,イワテケン,オウシュウシ,コロモガワソトノサワ,岩手県奥州市衣川外の沢
0294305,岩手県,奥州市,衣川長袋,イワテケン,オウシュウシ,コロモガワナガフクロ,岩手県奥州市衣川長袋
0294306,岩手県,奥州市,衣川小田,イワテケン,オウシュウシ,コロモガワコダ,岩手県奥州市衣川小田
0294307,岩手県,奥州市,衣川有浦,イワテケン,オウシュウシ,コロモガワアリウラ,岩手県奥州市衣川有浦
0294308,岩手県,奥州市,衣川大平,イワテケン,オウシュウシ,コロモガワオオダイラ,岩手県奥州市衣川大平
0294311,岩手県,奥州市,衣川古館,イワテケン,オウシュウシ,コロモガワフルダテ,岩手県奥州市衣川古館
0294312,岩手県,奥州市,衣川西窪,イワテケン,オウシュウシ,コロモガワニシクボ,岩手県奥州市衣川西窪
0294313,岩手県,奥州市,衣川石生,イワテケン,オウシュウシ,コロモガワイシュウ,岩手県奥州市衣川石生
0294314,岩手県,奥州市,衣川中屋敷,イワテケン,オウシュウシ,コロモガワナカヤシキ,岩手県奥州市衣川中屋敷
0294315,岩手県,奥州市,衣川天田,イワテケン,オウシュウシ,コロモガワアマダ,岩手県奥州市衣川天田
0294316,岩手県,奥州市,衣川苗代沢,イワテケン,オウシュウシ,コロモガワナワシロサワ,岩手県奥州市衣川苗代沢
0294317,岩手県,奥州市,衣川桑畑,イワテケン,オウシュウシ,コロモガワクワハタ,岩手県奥州市衣川桑畑
0294321,岩手県,奥州市,衣川雲南田,イワテケン,オウシュウシ,コロモガワウンナンダ,岩手県奥州市衣川雲南田
0294322,岩手県,奥州市,衣川板倉,イワテケン,オウシュウシ,コロモガワイタクラ,岩手県奥州市衣川板倉
0294323,岩手県,奥州市,衣川小安代,イワテケン,オウシュウシ,コロモガワコアンシロ,岩手県奥州市衣川小安代
0294324,岩手県,奥州市,衣川正板,イワテケン,オウシュウシ,コロモガワマサイタ,岩手県奥州市衣川正板
0294325,岩手県,奥州市,衣川小正板,イワテケン,オウシュウシ,コロモガワコマサイタ,岩手県奥州市衣川小正板
0294326,岩手県,奥州市,衣川懸田,イワテケン,オウシュウシ,コロモガワカケダ,岩手県奥州市衣川懸田
0294327,岩手県,奥州市,衣川馬懸,イワテケン,オウシュウシ,コロモガワマガケ,岩手県奥州市衣川馬懸
0294328,岩手県,奥州市,衣川下寺田,イワテケン,オウシュウシ,コロモガワシモテラダ,岩手県奥州市衣川下寺田
0294329,岩手県,奥州市,衣川上寺田,イワテケン,オウシュウシ,コロモガワカミテラダ,岩手県奥州市衣川上寺田
0294331,岩手県,奥州市,衣川深沢,イワテケン,オウシュウシ,コロモガワフカサワ,岩手県奥州市衣川深沢
0294332,岩手県,奥州市,衣川古戸,イワテケン,オウシュウシ,コロモガワフルド,岩手県奥州市衣川古戸
0294333,岩手県,奥州市,衣川駒場,イワテケン,オウシュウシ,コロモガワコマバ,岩手県奥州市衣川駒場
0294334,岩手県,奥州市,衣川百ヶ袋,イワテケン,オウシュウシ,コロモガワモガフクロ,岩手県奥州市衣川百ヶ袋
0294341,岩手県,奥州市,衣川六道,イワテケン,オウシュウシ,コロモガワロクドウ,岩手県奥州市衣川六道
0294342,岩手県,奥州市,衣川高保呂,イワテケン,オウシュウシ,コロモガワタカホロ,岩手県奥州市衣川高保呂
0294343,岩手県,奥州市,衣川能登屋敷,イワテケン,オウシュウシ,コロモガワノトヤシキ,岩手県奥州市衣川能登屋敷
0294344,岩手県,奥州市,衣川沢田,イワテケン,オウシュウシ,コロモガワサワダ,岩手県奥州市衣川沢田
0294345,岩手県,奥州市,衣川館城,イワテケン,オウシュウシ,コロモガワタテシロ,岩手県奥州市衣川館城
0294346,岩手県,奥州市,衣川豊巻,イワテケン,オウシュウシ,コロモガワトヨマキ,岩手県奥州市衣川豊巻
0294347,岩手県,奥州市,衣川大西,イワテケン,オウシュウシ,コロモガワオオニシ,岩手県奥州市衣川大西
0294348,岩手県,奥州市,衣川杉野,イワテケン,オウシュウシ,コロモガワスギノ,岩手県奥州市衣川杉野
0294351,岩手県,奥州市,衣川夏秋,イワテケン,オウシュウシ,コロモガワナツアキ,岩手県奥州市衣川夏秋
0294352,岩手県,奥州市,衣川岩の上,イワテケン,オウシュウシ,コロモガワイワノウエ,岩手県奥州市衣川岩の上
0294353,岩手県,奥州市,衣川旧殿,イワテケン,オウシュウシ,コロモガワキュウデン,岩手県奥州市衣川旧殿
0294354,岩手県,奥州市,衣川除,イワテケン,オウシュウシ,コロモガワノゾキ,岩手県奥州市衣川除
0294355,岩手県,奥州市,衣川山岸,イワテケン,オウシュウシ,コロモガワヤマギシ,岩手県奥州市衣川山岸
0294361,岩手県,奥州市,衣川長嚢,イワテケン,オウシュウシ,コロモガワナガフクロ,岩手県奥州市衣川長嚢
0294362,岩手県,奥州市,衣川小林山,イワテケン,オウシュウシ,コロモガワコバヤシヤマ,岩手県奥州市衣川小林山
0294363,岩手県,奥州市,衣川夏梨,イワテケン,オウシュウシ,コロモガワナツナシ,岩手県奥州市衣川夏梨
0294364,岩手県,奥州市,衣川西風山,イワテケン,オウシュウシ,コロモガワナレヤマ,岩手県奥州市衣川西風山
0294365,岩手県,奥州市,衣川天土,イワテケン,オウシュウシ,コロモガワアマツチ,岩手県奥州市衣川天土
0294371,岩手県,奥州市,衣川桧山沢,イワテケン,オウシュウシ,コロモガワヒヤマサワ,岩手県奥州市衣川桧山沢
0294372,岩手県,奥州市,衣川松林,イワテケン,オウシュウシ,コロモガワマツバヤシ,岩手県奥州市衣川松林
0294373,岩手県,奥州市,衣川山田,イワテケン,オウシュウシ,コロモガワヤマダ,岩手県奥州市衣川山田
0294374,岩手県,奥州市,衣川桧山沢山,イワテケン,オウシュウシ,コロモガワヒヤマサワヤマ,岩手県奥州市衣川桧山沢山
0294375,岩手県,奥州市,衣川鞍掛,イワテケン,オウシュウシ,コロモガワクラカケ,岩手県奥州市衣川鞍掛
0294376,岩手県,奥州市,衣川本巻,イワテケン,オウシュウシ,コロモガワモトマキ,岩手県奥州市衣川本巻
0294377,岩手県,奥州市,衣川後山,イワテケン,オウシュウシ,コロモガワウシロヤマ,岩手県奥州市衣川後山
0294378,岩手県,奥州市,衣川菖蒲平,イワテケン,オウシュウシ,コロモガワショウブダイラ,岩手県奥州市衣川菖蒲平
0294381,岩手県,奥州市,衣川石ヶ沢,イワテケン,オウシュウシ,コロモガワイシガサワ,岩手県奥州市衣川石ヶ沢
0294382,岩手県,奥州市,衣川関袋,イワテケン,オウシュウシ,コロモガワセキブクロ,岩手県奥州市衣川関袋
0294383,岩手県,奥州市,衣川沖の野,イワテケン,オウシュウシ,コロモガワオキノノ,岩手県奥州市衣川沖の野
0294384,岩手県,奥州市,衣川石神,イワテケン,オウシュウシ,コロモガワイシガミ,岩手県奥州市衣川石神
0294385,岩手県,奥州市,衣川富沢,イワテケン,オウシュウシ,コロモガワトミサワ,岩手県奥州市衣川富沢
0294386,岩手県,奥州市,衣川女石,イワテケン,オウシュウシ,コロモガワオンナイシ,岩手県奥州市衣川女石
0294387,岩手県,奥州市,衣川下大森,イワテケン,オウシュウシ,コロモガワシモオオモリ,岩手県奥州市衣川下大森
0294388,岩手県,奥州市,衣川上大森,イワテケン,オウシュウシ,コロモガワカミオオモリ,岩手県奥州市衣川上大森
0294389,岩手県,奥州市,衣川長板沢,イワテケン,オウシュウシ,コロモガワナガイタサワ,岩手県奥州市衣川長板沢
0294401,岩手県,奥州市,衣川張山,イワテケン,オウシュウシ,コロモガワハリヤマ,岩手県奥州市衣川張山
0294402,岩手県,奥州市,衣川星屋,イワテケン,オウシュウシ,コロモガワホシヤ,岩手県奥州市衣川星屋
0294403,岩手県,奥州市,衣川本田原,イワテケン,オウシュウシ,コロモガワホンダワラ,岩手県奥州市衣川本田原
0294404,岩手県,奥州市,衣川寺袋,イワテケン,オウシュウシ,コロモガワテラブクロ,岩手県奥州市衣川寺袋
0294405,岩手県,奥州市,衣川桑木谷地,イワテケン,オウシュウシ,コロモガワクワノキヤチ,岩手県奥州市衣川桑木谷地
0294406,岩手県,奥州市,衣川大坂,イワテケン,オウシュウシ,コロモガワオオザカ,岩手県奥州市衣川大坂
0294407,岩手県,奥州市,衣川金成,イワテケン,オウシュウシ,コロモガワカンナリ,岩手県奥州市衣川金成
0294408,岩手県,奥州市,衣川土屋,イワテケン,オウシュウシ,コロモガワツチヤ,岩手県奥州市衣川土屋
0294411,岩手県,奥州市,衣川上小路,イワテケン,オウシュウシ,コロモガワカミコウジ,岩手県奥州市衣川上小路
0294412,岩手県,奥州市,衣川富田,イワテケン,オウシュウシ,コロモガワトミタ,岩手県奥州市衣川富田
0294413,岩手県,奥州市,衣川堰下,イワテケン,オウシュウシ,コロモガワセキシタ,岩手県奥州市衣川堰下
0294414,岩手県,奥州市,衣川野田,イワテケン,オウシュウシ,コロモガワノダ,岩手県奥州市衣川野田
0294415,岩手県,奥州市,衣川向館谷起,イワテケン,オウシュウシ,コロモガワムカイダテヤギ,岩手県奥州市衣川向館谷起
0294416,岩手県,奥州市,衣川向館,イワテケン,オウシュウシ,コロモガワムカイダテ,岩手県奥州市衣川向館
0294417,岩手県,奥州市,衣川富田前,イワテケン,オウシュウシ,コロモガワトミタマエ,岩手県奥州市衣川富田前
0294418,岩手県,奥州市,衣川杉林,イワテケン,オウシュウシ,コロモガワスギバヤシ,岩手県奥州市衣川杉林
0294419,岩手県,奥州市,衣川大面,イワテケン,オウシュウシ,コロモガワオオツラ,岩手県奥州市衣川大面
0294421,岩手県,奥州市,衣川日向,イワテケン,オウシュウシ,コロモガワヒナタ,岩手県奥州市衣川日向
0294422,岩手県,奥州市,衣川瀬原,イワテケン,オウシュウシ,コロモガワセワラ,岩手県奥州市衣川瀬原
0294423,岩手県,奥州市,衣川瀬原西浦,イワテケン,オウシュウシ,コロモガワセワラニシウラ,岩手県奥州市衣川瀬原西浦
0294424,岩手県,奥州市,衣川九輪堂,イワテケン,オウシュウシ,コロモガワクリンドウ,岩手県奥州市衣川九輪堂
0294425,岩手県,奥州市,衣川采女沢,イワテケン,オウシュウシ,コロモガワウネメザワ,岩手県奥州市衣川采女沢
0294426,岩手県,奥州市,衣川愛宕下,イワテケン,オウシュウシ,コロモガワアタゴシタ,岩手県奥州市衣川愛宕下
0294427,岩手県,奥州市,衣川陣場下,イワテケン,オウシュウシ,コロモガワジンバシタ,岩手県奥州市衣川陣場下
0294431,岩手県,奥州市,衣川田中,イワテケン,オウシュウシ,コロモガワタナカ,岩手県奥州市衣川田中
0294432,岩手県,奥州市,衣川小林,イワテケン,オウシュウシ,コロモガワコバヤシ,岩手県奥州市衣川小林
0294433,岩手県,奥州市,衣川池田西,イワテケン,オウシュウシ,コロモガワイケダニシ,岩手県奥州市衣川池田西
0294434,岩手県,奥州市,衣川池田,イワテケン,オウシュウシ,コロモガワイケダ,岩手県奥州市衣川池田
0294435,岩手県,奥州市,衣川押切,イワテケン,オウシュウシ,コロモガワオシキリ,岩手県奥州市衣川押切
0294436,岩手県,奥州市,衣川大石ヶ沢,イワテケン,オウシュウシ,コロモガワオオイシガサワ,岩手県奥州市衣川大石ヶ沢
0294437,岩手県,奥州市,衣川唐金,イワテケン,オウシュウシ,コロモガワカラカネ,岩手県奥州市衣川唐金
0294438,岩手県,奥州市,衣川室の木,イワテケン,オウシュウシ,コロモガワムロノキ,岩手県奥州市衣川室の木
0294439,岩手県,奥州市,衣川田中西,イワテケン,オウシュウシ,コロモガワタナカニシ,岩手県奥州市衣川田中西
0294441,岩手県,奥州市,衣川並木前,イワテケン,オウシュウシ,コロモガワナミキマエ,岩手県奥州市衣川並木前
0294442,岩手県,奥州市,衣川上野,イワテケン,オウシュウシ,コロモガワウワノ,岩手県奥州市衣川上野
0294443,岩手県,奥州市,衣川六日市場,イワテケン,オウシュウシ,コロモガワムイカイチバ,岩手県奥州市衣川六日市場
0294444,岩手県,奥州市,衣川清水の上,イワテケン,オウシュウシ,コロモガワシミズノウエ,岩手県奥州市衣川清水の上
0294445,岩手県,奥州市,衣川七日市場,イワテケン,オウシュウシ,コロモガワナノカイチバ,岩手県奥州市衣川七日市場
0294446,岩手県,奥州市,衣川川端,イワテケン,オウシュウシ,コロモガワカワハタ,岩手県奥州市衣川川端
0294451,岩手県,奥州市,衣川東裏,イワテケン,オウシュウシ,コロモガワヒガシウラ,岩手県奥州市衣川東裏
0294452,岩手県,奥州市,衣川月山,イワテケン,オウシュウシ,コロモガワガッサン,岩手県奥州市衣川月山
0294453,岩手県,奥州市,衣川山口,イワテケン,オウシュウシ,コロモガワヤマグチ,岩手県奥州市衣川山口
0294454,岩手県,奥州市,衣川表,イワテケン,オウシュウシ,コロモガワオモテ,岩手県奥州市衣川表
0294455,岩手県,奥州市,衣川横道下,イワテケン,オウシュウシ,コロモガワヨコミチシタ,岩手県奥州市衣川横道下
0294456,岩手県,奥州市,衣川西裏,イワテケン,オウシュウシ,コロモガワニシウラ,岩手県奥州市衣川西裏
0294461,岩手県,奥州市,衣川平,イワテケン,オウシュウシ,コロモガワヒラ,岩手県奥州市衣川平
0294462,岩手県,奥州市,衣川八千,イワテケン,オウシュウシ,コロモガワハッセン,岩手県奥州市衣川八千
0294463,岩手県,奥州市,衣川葭ヶ沢,イワテケン,オウシュウシ,コロモガワヨシガサワ,岩手県奥州市衣川葭ヶ沢
0294464,岩手県,奥州市,衣川前滝の沢,イワテケン,オウシュウシ,コロモガワマエタキノサワ,岩手県奥州市衣川前滝の沢
0294465,岩手県,奥州市,衣川後滝の沢,イワテケン,オウシュウシ,コロモガワウシロタキノサワ,岩手県奥州市衣川後滝の沢
0294471,岩手県,奥州市,衣川下河内,イワテケン,オウシュウシ,コロモガワシモカワウチ,岩手県奥州市衣川下河内
0294472,岩手県,奥州市,衣川中河内,イワテケン,オウシュウシ,コロモガワナカカワウチ,岩手県奥州市衣川中河内
0294473,岩手県,奥州市,衣川向,イワテケン,オウシュウシ,コロモガワムカイ,岩手県奥州市衣川向
0294474,岩手県,奥州市,衣川上河内,イワテケン,オウシュウシ,コロモガワカミカワウチ,岩手県奥州市衣川上河内
0294475,岩手県,奥州市,衣川中山,イワテケン,オウシュウシ,コロモガワナカヤマ,岩手県奥州市衣川中山
0294481,岩手県,奥州市,衣川畦畑山,イワテケン,オウシュウシ,コロモガワウネハタヤマ,岩手県奥州市衣川畦畑山
0294482,岩手県,奥州市,衣川畦畑,イワテケン,オウシュウシ,コロモガワウネハタ,岩手県奥州市衣川畦畑
0294483,岩手県,奥州市,衣川沼野,イワテケン,オウシュウシ,コロモガワヌマノ,岩手県奥州市衣川沼野
0294484,岩手県,奥州市,衣川噌味,イワテケン,オウシュウシ,コロモガワソウミ,岩手県奥州市衣川噌味
0294485,岩手県,奥州市,衣川宝塔谷地,イワテケン,オウシュウシ,コロモガワホウトウヤチ,岩手県奥州市衣川宝塔谷地
0294486,岩手県,奥州市,衣川鷹の巣,イワテケン,オウシュウシ,コロモガワタカノス,岩手県奥州市衣川鷹の巣
0294487,岩手県,奥州市,衣川大原山,イワテケン,オウシュウシ,コロモガワオオハラヤマ,岩手県奥州市衣川大原山
0294488,岩手県,奥州市,衣川大原,イワテケン,オウシュウシ,コロモガワオオハラ,岩手県奥州市衣川大原
0294491,岩手県,奥州市,衣川上立沢,イワテケン,オウシュウシ,コロモガワカミタチサワ,岩手県奥州市衣川上立沢
0294492,岩手県,奥州市,衣川下立沢,イワテケン,オウシュウシ,コロモガワシモタチサワ,岩手県奥州市衣川下立沢
0294493,岩手県,奥州市,衣川野崎,イワテケン,オウシュウシ,コロモガワノザキ,岩手県奥州市衣川野崎
0294494,岩手県,奥州市,衣川楢原山,イワテケン,オウシュウシ,コロモガワナラハラヤマ,岩手県奥州市衣川楢原山
0294495,岩手県,奥州市,衣川楢原,イワテケン,オウシュウシ,コロモガワナラハラ,岩手県奥州市衣川楢原
0294496,岩手県,奥州市,衣川真打,イワテケン,オウシュウシ,コロモガワマウチ,岩手県奥州市衣川真打
0294497,岩手県,奥州市,衣川餅転,イワテケン,オウシュウシ,コロモガワモチコロバシ,岩手県奥州市衣川餅転
0294500,岩手県,胆沢郡金ケ崎町,,イワテケン,イサワグンカネガサキチョウ,,岩手県胆沢郡金ケ崎町
0294501,岩手県,胆沢郡金ケ崎町,六原,イワテケン,イサワグンカネガサキチョウ,ロクハラ,岩手県胆沢郡金ケ崎町六原
0294502,岩手県,胆沢郡金ケ崎町,三ケ尻,イワテケン,イサワグンカネガサキチョウ,ミカジリ,岩手県胆沢郡金ケ崎町三ケ尻
0294503,岩手県,胆沢郡金ケ崎町,西根,イワテケン,イサワグンカネガサキチョウ,ニシネ,岩手県胆沢郡金ケ崎町西根
0294504,岩手県,胆沢郡金ケ崎町,永沢,イワテケン,イサワグンカネガサキチョウ,ナガサワ,岩手県胆沢郡金ケ崎町永沢
0294505,岩手県,胆沢郡金ケ崎町,永栄,イワテケン,イサワグンカネガサキチョウ,ナガサカエ,岩手県胆沢郡金ケ崎町永栄
0295500,岩手県,和賀郡西和賀町,,イワテケン,ワガグンニシワガマチ,,岩手県和賀郡西和賀町
0295501,岩手県,和賀郡西和賀町,下左草７７地割〜下左草８０地割,イワテケン,ワガグンニシワガマチ,シモサソウ77チワリ-シモサソウ80チワリ,岩手県和賀郡西和賀町下左草77-〜下左草80
0295501,岩手県,和賀郡西和賀町,左草１地割〜左草６地割,イワテケン,ワガグンニシワガマチ,サソウ1チワリ-サソウ6チワリ,岩手県和賀郡西和賀町左草1-〜左草6
0295502,岩手県,和賀郡西和賀町,下前７地割〜下前１４地割,イワテケン,ワガグンニシワガマチ,シタマエ7チワリ-シタマエ14チワリ,岩手県和賀郡西和賀町下前7-〜下前14
0295502,岩手県,和賀郡西和賀町,寅沢１５地割,イワテケン,ワガグンニシワガマチ,トラサワ15チワリ,岩手県和賀郡西和賀町寅沢15
0295502,岩手県,和賀郡西和賀町,樺沢１６地割、樺沢１７地割,イワテケン,ワガグンニシワガマチ,カバサワ16チワリ、カバサワ17チワリ,岩手県和賀郡西和賀町樺沢16-、樺沢17
0295503,岩手県,和賀郡西和賀町,清水ケ野１８地割,イワテケン,ワガグンニシワガマチ,シミズガノ18チワリ,岩手県和賀郡西和賀町清水ケ野18
0295503,岩手県,和賀郡西和賀町,湯田１９地割〜湯田２１地割,イワテケン,ワガグンニシワガマチ,ユダ19チワリ-ユダ21チワリ,岩手県和賀郡西和賀町湯田19-〜湯田21
0295503,岩手県,和賀郡西和賀町,穴明２２地割、穴明２３地割,イワテケン,ワガグンニシワガマチ,アナアケ22チワリ、アナアケ23チワリ,岩手県和賀郡西和賀町穴明22-、穴明23
0295503,岩手県,和賀郡西和賀町,間木野２４地割,イワテケン,ワガグンニシワガマチ,マギノ24チワリ,岩手県和賀郡西和賀町間木野24
0295504,岩手県,和賀郡西和賀町,槻沢２５地割〜槻沢２８地割,イワテケン,ワガグンニシワガマチ,ツキザワ25チワリ-ツキザワ28チワリ,岩手県和賀郡西和賀町槻沢25-〜槻沢28
0295505,岩手県,和賀郡西和賀町,湯本２９地割、湯本３０地割,イワテケン,ワガグンニシワガマチ,ユモト29チワリ、ユモト30チワリ,岩手県和賀郡西和賀町湯本29-、湯本30
0295506,岩手県,和賀郡西和賀町,湯之沢３１地割〜湯之沢３５地割,イワテケン,ワガグンニシワガマチ,ユノサワ31チワリ-ユノサワ35チワリ,岩手県和賀郡西和賀町湯之沢31-〜湯之沢35
0295507,岩手県,和賀郡西和賀町,大沓３６地割,イワテケン,ワガグンニシワガマチ,オオクツ36チワリ,岩手県和賀郡西和賀町大沓36
0295511,岩手県,和賀郡西和賀町,上野々３９地割,イワテケン,ワガグンニシワガマチ,ウエノノ39チワリ,岩手県和賀郡西和賀町上野々39
0295512,岩手県,和賀郡西和賀町,川尻４０地割、川尻４１地割,イワテケン,ワガグンニシワガマチ,カワシリ40チワリ、カワシリ41チワリ,岩手県和賀郡西和賀町川尻40-、川尻41
0295513,岩手県,和賀郡西和賀町,本内４６地割,イワテケン,ワガグンニシワガマチ,ホンナイ46チワリ,岩手県和賀郡西和賀町本内46
0295513,岩手県,和賀郡西和賀町,本屋敷４８地割,イワテケン,ワガグンニシワガマチ,モトヤシキ48チワリ,岩手県和賀郡西和賀町本屋敷48
0295513,岩手県,和賀郡西和賀町,杉名畑４４地割（その他）,イワテケン,ワガグンニシワガマチ,スギナハタ44チワリ(ソノタ),岩手県和賀郡西和賀町杉名畑44-（その他）
0295513,岩手県,和賀郡西和賀町,甲子５１地割,イワテケン,ワガグンニシワガマチ,カッチ51チワリ,岩手県和賀郡西和賀町甲子51
0295513,岩手県,和賀郡西和賀町,耳取４９地割,イワテケン,ワガグンニシワガマチ,ミミドリ49チワリ,岩手県和賀郡西和賀町耳取49
0295513,岩手県,和賀郡西和賀町,草井沢４７地割,イワテケン,ワガグンニシワガマチ,クサイザワ47チワリ,岩手県和賀郡西和賀町草井沢47
0295513,岩手県,和賀郡西和賀町,鷲之巣５０地割,イワテケン,ワガグンニシワガマチ,ワシノス50チワリ,岩手県和賀郡西和賀町鷲之巣50
0295514,岩手県,和賀郡西和賀町,湯川５２地割、湯川５３地割,イワテケン,ワガグンニシワガマチ,ユガワ52チワリ、ユガワ53チワリ,岩手県和賀郡西和賀町湯川52-、湯川53
0295521,岩手県,和賀郡西和賀町,大渡５７地割,イワテケン,ワガグンニシワガマチ,オオワタリ57チワリ,岩手県和賀郡西和賀町大渡57
0295521,岩手県,和賀郡西和賀町,小繋沢５４地割〜小繋沢５６地割,イワテケン,ワガグンニシワガマチ,コツナギザワ54チワリ-コツナギザワ56チワリ,岩手県和賀郡西和賀町小繋沢54-〜小繋沢56
0295522,岩手県,和賀郡西和賀町,中村５８地割、中村５９地割,イワテケン,ワガグンニシワガマチ,ナカムラ58チワリ、ナカムラ59チワリ,岩手県和賀郡西和賀町中村58-、中村59
0295522,岩手県,和賀郡西和賀町,巣郷６３地割,イワテケン,ワガグンニシワガマチ,スゴウ63チワリ,岩手県和賀郡西和賀町巣郷63
0295522,岩手県,和賀郡西和賀町,野々宿６０地割〜野々宿６２地割,イワテケン,ワガグンニシワガマチ,ノノシュク60チワリ-ノノシュク62チワリ,岩手県和賀郡西和賀町野々宿60-〜野々宿62
0295523,岩手県,和賀郡西和賀町,柳沢７０地割、柳沢７１地割,イワテケン,ワガグンニシワガマチ,ヤナギザワ70チワリ、ヤナギザワ71チワリ,岩手県和賀郡西和賀町柳沢70-、柳沢71
0295523,岩手県,和賀郡西和賀町,桂子沢７５地割、桂子沢７６地割,イワテケン,ワガグンニシワガマチ,カツラゴザワ75チワリ、カツラゴザワ76チワリ,岩手県和賀郡西和賀町桂子沢75-、桂子沢76
0295523,岩手県,和賀郡西和賀町,沢中７３地割、沢中７４地割,イワテケン,ワガグンニシワガマチ,サワナカ73チワリ、サワナカ74チワリ,岩手県和賀郡西和賀町沢中73-、沢中74
0295523,岩手県,和賀郡西和賀町,白木野６７地割,イワテケン,ワガグンニシワガマチ,シロキノ67チワリ,岩手県和賀郡西和賀町白木野67
0295523,岩手県,和賀郡西和賀町,細内６８地割、細内６９地割,イワテケン,ワガグンニシワガマチ,ホソナイ68チワリ、ホソナイ69チワリ,岩手県和賀郡西和賀町細内68-、細内69
0295523,岩手県,和賀郡西和賀町,芦ケ沢７２地割,イワテケン,ワガグンニシワガマチ,ヨシガサワ72チワリ,岩手県和賀郡西和賀町芦ケ沢72
0295523,岩手県,和賀郡西和賀町,越中畑６４地割〜越中畑６６地割,イワテケン,ワガグンニシワガマチ,エッチュウハタ64チワリ-エッチュウハタ66チワリ,岩手県和賀郡西和賀町越中畑64-〜越中畑66
0295611,岩手県,和賀郡西和賀町,沢内新町,イワテケン,ワガグンニシワガマチ,サワウチシンマチ,岩手県和賀郡西和賀町沢内新町
0295612,岩手県,和賀郡西和賀町,沢内大野,イワテケン,ワガグンニシワガマチ,サワウチオオノ,岩手県和賀郡西和賀町沢内大野
0295613,岩手県,和賀郡西和賀町,沢内前郷,イワテケン,ワガグンニシワガマチ,サワウチマエゴウ,岩手県和賀郡西和賀町沢内前郷
0295614,岩手県,和賀郡西和賀町,沢内太田,イワテケン,ワガグンニシワガマチ,サワウチオオタ,岩手県和賀郡西和賀町沢内太田
0295615,岩手県,和賀郡西和賀町,沢内猿橋,イワテケン,ワガグンニシワガマチ,サワウチサルハシ,岩手県和賀郡西和賀町沢内猿橋
0295616,岩手県,和賀郡西和賀町,沢内泉沢,イワテケン,ワガグンニシワガマチ,サワウチイズミザワ,岩手県和賀郡西和賀町沢内泉沢
0295617,岩手県,和賀郡西和賀町,沢内長瀬野,イワテケン,ワガグンニシワガマチ,サワウチナガセノ,岩手県和賀郡西和賀町沢内長瀬野
0295618,岩手県,和賀郡西和賀町,沢内両沢,イワテケン,ワガグンニシワガマチ,サワウチリョウザワ,岩手県和賀郡西和賀町沢内両沢
0295619,岩手県,和賀郡西和賀町,沢内弁天,イワテケン,ワガグンニシワガマチ,サワウチベンテン,岩手県和賀郡西和賀町沢内弁天
0295621,岩手県,和賀郡西和賀町,沢内鍵飯,イワテケン,ワガグンニシワガマチ,サワウチケンパン,岩手県和賀郡西和賀町沢内鍵飯
0295701,岩手県,和賀郡西和賀町,沢内川舟,イワテケン,ワガグンニシワガマチ,サワウチカワフネ,岩手県和賀郡西和賀町沢内川舟
0295702,岩手県,和賀郡西和賀町,沢内若畑,イワテケン,ワガグンニシワガマチ,サワウチワカハタ,岩手県和賀郡西和賀町沢内若畑
0295703,岩手県,和賀郡西和賀町,沢内貝沢,イワテケン,ワガグンニシワガマチ,サワウチカイザワ,岩手県和賀郡西和賀町沢内貝沢
