zipcode,prefecture_name,city,town,prefecture_kana,city_kana,town_kana,normalized_address
6400000,和歌山県,和歌山市,,ワカヤマケン,ワカヤマシ,,和歌山県和歌山市
6400101,和歌山県,和歌山市,大川,ワカヤマケン,ワカヤマシ,オオカワ,和歌山県和歌山市大川
6400102,和歌山県,和歌山市,深山,ワカヤマケン,ワカヤマシ,ミヤマ,和歌山県和歌山市深山
6400103,和歌山県,和歌山市,加太,ワカヤマケン,ワカヤマシ,カダ,和歌山県和歌山市加太
6400111,和歌山県,和歌山市,日野,ワカヤマケン,ワカヤマシ,ヒノ,和歌山県和歌山市日野
6400112,和歌山県,和歌山市,西庄,ワカヤマケン,ワカヤマシ,ニシノショウ,和歌山県和歌山市西庄
6400113,和歌山県,和歌山市,本脇,ワカヤマケン,ワカヤマシ,モトワキ,和歌山県和歌山市本脇
6400114,和歌山県,和歌山市,磯の浦,ワカヤマケン,ワカヤマシ,イソノウラ,和歌山県和歌山市磯の浦
6400115,和歌山県,和歌山市,つつじが丘,ワカヤマケン,ワカヤマシ,ツツジガオカ,和歌山県和歌山市つつじが丘
6400301,和歌山県,和歌山市,木枕,ワカヤマケン,ワカヤマシ,コマクラ,和歌山県和歌山市木枕
6400302,和歌山県,和歌山市,永山,ワカヤマケン,ワカヤマシ,ナガヤマ,和歌山県和歌山市永山
6400303,和歌山県,和歌山市,山東中,ワカヤマケン,ワカヤマシ,サンドウナカ,和歌山県和歌山市山東中
6400304,和歌山県,和歌山市,平尾,ワカヤマケン,ワカヤマシ,ヒラオ,和歌山県和歌山市平尾
6400305,和歌山県,和歌山市,明王寺,ワカヤマケン,ワカヤマシ,ミョウオウジ,和歌山県和歌山市明王寺
6400306,和歌山県,和歌山市,塩ノ谷,ワカヤマケン,ワカヤマシ,シオノタニ,和歌山県和歌山市塩ノ谷
6400307,和歌山県,和歌山市,矢田,ワカヤマケン,ワカヤマシ,ヤタ,和歌山県和歌山市矢田
6400311,和歌山県,和歌山市,黒岩,ワカヤマケン,ワカヤマシ,クロイワ,和歌山県和歌山市黒岩
6400312,和歌山県,和歌山市,黒谷,ワカヤマケン,ワカヤマシ,クロダニ,和歌山県和歌山市黒谷
6400313,和歌山県,和歌山市,境原,ワカヤマケン,ワカヤマシ,サカイバラ,和歌山県和歌山市境原
6400314,和歌山県,和歌山市,頭陀寺,ワカヤマケン,ワカヤマシ,ズダジ,和歌山県和歌山市頭陀寺
6400315,和歌山県,和歌山市,南畑,ワカヤマケン,ワカヤマシ,ミナミバタ,和歌山県和歌山市南畑
6400316,和歌山県,和歌山市,大河内,ワカヤマケン,ワカヤマシ,オオカワチ,和歌山県和歌山市大河内
6400321,和歌山県,和歌山市,薬勝寺,ワカヤマケン,ワカヤマシ,ヤクショウジ,和歌山県和歌山市薬勝寺
6400322,和歌山県,和歌山市,仁井辺,ワカヤマケン,ワカヤマシ,ニイベ,和歌山県和歌山市仁井辺
6400323,和歌山県,和歌山市,小瀬田,ワカヤマケン,ワカヤマシ,コゼタ,和歌山県和歌山市小瀬田
6400324,和歌山県,和歌山市,本渡,ワカヤマケン,ワカヤマシ,モトワタリ,和歌山県和歌山市本渡
6400331,和歌山県,和歌山市,吉原,ワカヤマケン,ワカヤマシ,ヨシハラ,和歌山県和歌山市吉原
6400332,和歌山県,和歌山市,冬野,ワカヤマケン,ワカヤマシ,フユノ,和歌山県和歌山市冬野
6400333,和歌山県,和歌山市,広原,ワカヤマケン,ワカヤマシ,ヒロハラ,和歌山県和歌山市広原
6400341,和歌山県,和歌山市,相坂,ワカヤマケン,ワカヤマシ,ソウザカ,和歌山県和歌山市相坂
6400342,和歌山県,和歌山市,松原,ワカヤマケン,ワカヤマシ,マツバラ,和歌山県和歌山市松原
6400343,和歌山県,和歌山市,江南,ワカヤマケン,ワカヤマシ,エナ,和歌山県和歌山市江南
6400344,和歌山県,和歌山市,朝日,ワカヤマケン,ワカヤマシ,アサヒ,和歌山県和歌山市朝日
6400345,和歌山県,和歌山市,桑山,ワカヤマケン,ワカヤマシ,クワヤマ,和歌山県和歌山市桑山
6400351,和歌山県,和歌山市,吉礼,ワカヤマケン,ワカヤマシ,キレ,和歌山県和歌山市吉礼
6400352,和歌山県,和歌山市,井戸,ワカヤマケン,ワカヤマシ,イド,和歌山県和歌山市井戸
6400353,和歌山県,和歌山市,馬場,ワカヤマケン,ワカヤマシ,ババ,和歌山県和歌山市馬場
6400361,和歌山県,和歌山市,伊太祈曽,ワカヤマケン,ワカヤマシ,イダキソ,和歌山県和歌山市伊太祈曽
6400362,和歌山県,和歌山市,奥須佐,ワカヤマケン,ワカヤマシ,オクズサ,和歌山県和歌山市奥須佐
6400363,和歌山県,和歌山市,吉里,ワカヤマケン,ワカヤマシ,ヨシザト,和歌山県和歌山市吉里
6400364,和歌山県,和歌山市,口須佐,ワカヤマケン,ワカヤマシ,クチズサ,和歌山県和歌山市口須佐
6400401,和歌山県,紀の川市,貴志川町丸栖,ワカヤマケン,キノカワシ,キシガワチョウマルス,和歌山県紀の川市貴志川町丸栖
6400402,和歌山県,紀の川市,貴志川町北山,ワカヤマケン,キノカワシ,キシガワチョウキタヤマ,和歌山県紀の川市貴志川町北山
6400403,和歌山県,紀の川市,貴志川町尼寺,ワカヤマケン,キノカワシ,キシガワチョウアマテラ,和歌山県紀の川市貴志川町尼寺
6400404,和歌山県,紀の川市,貴志川町鳥居,ワカヤマケン,キノカワシ,キシガワチョウトリイ,和歌山県紀の川市貴志川町鳥居
6400405,和歌山県,紀の川市,貴志川町岸宮,ワカヤマケン,キノカワシ,キシガワチョウキシミヤ,和歌山県紀の川市貴志川町岸宮
6400406,和歌山県,紀の川市,貴志川町西山,ワカヤマケン,キノカワシ,キシガワチョウニシヤマ,和歌山県紀の川市貴志川町西山
6400411,和歌山県,紀の川市,貴志川町前田,ワカヤマケン,キノカワシ,キシガワチョウマエダ,和歌山県紀の川市貴志川町前田
6400412,和歌山県,紀の川市,貴志川町上野山,ワカヤマケン,キノカワシ,キシガワチョウウエノヤマ,和歌山県紀の川市貴志川町上野山
6400413,和歌山県,紀の川市,貴志川町神戸,ワカヤマケン,キノカワシ,キシガワチョウコウド,和歌山県紀の川市貴志川町神戸
6400414,和歌山県,紀の川市,貴志川町国主,ワカヤマケン,キノカワシ,キシガワチョウクニシ,和歌山県紀の川市貴志川町国主
6400415,和歌山県,紀の川市,貴志川町長原,ワカヤマケン,キノカワシ,キシガワチョウナガハラ,和歌山県紀の川市貴志川町長原
6400416,和歌山県,紀の川市,貴志川町長山,ワカヤマケン,キノカワシ,キシガワチョウナガヤマ,和歌山県紀の川市貴志川町長山
6400421,和歌山県,紀の川市,貴志川町北,ワカヤマケン,キノカワシ,キシガワチョウキタ,和歌山県紀の川市貴志川町北
6400422,和歌山県,紀の川市,貴志川町岸小野,ワカヤマケン,キノカワシ,キシガワチョウキシオノ,和歌山県紀の川市貴志川町岸小野
6400423,和歌山県,紀の川市,貴志川町高尾,ワカヤマケン,キノカワシ,キシガワチョウタカオ,和歌山県紀の川市貴志川町高尾
6400424,和歌山県,紀の川市,貴志川町井ノ口,ワカヤマケン,キノカワシ,キシガワチョウイノクチ,和歌山県紀の川市貴志川町井ノ口
6400441,和歌山県,海南市,七山,ワカヤマケン,カイナンシ,ナナヤマ,和歌山県海南市七山
6400442,和歌山県,海南市,原野,ワカヤマケン,カイナンシ,ハラノ,和歌山県海南市原野
6400443,和歌山県,海南市,下津野,ワカヤマケン,カイナンシ,シモツノ,和歌山県海南市下津野
6400451,和歌山県,海南市,高津,ワカヤマケン,カイナンシ,タカヅ,和歌山県海南市高津
6400452,和歌山県,海南市,孟子,ワカヤマケン,カイナンシ,モウコ,和歌山県海南市孟子
6400453,和歌山県,海南市,野尻,ワカヤマケン,カイナンシ,ノジリ,和歌山県海南市野尻
6400454,和歌山県,海南市,別院,ワカヤマケン,カイナンシ,ベツイン,和歌山県海南市別院
6401100,和歌山県,海草郡紀美野町,,ワカヤマケン,カイソウグンキミノチョウ,,和歌山県海草郡紀美野町
6401101,和歌山県,海草郡紀美野町,長谷,ワカヤマケン,カイソウグンキミノチョウ,ナガタニ,和歌山県海草郡紀美野町長谷
6401102,和歌山県,海草郡紀美野町,柴目,ワカヤマケン,カイソウグンキミノチョウ,シバメ,和歌山県海草郡紀美野町柴目
6401103,和歌山県,海草郡紀美野町,吉野,ワカヤマケン,カイソウグンキミノチョウ,ヨシノ,和歌山県海草郡紀美野町吉野
6401111,和歌山県,海草郡紀美野町,福井,ワカヤマケン,カイソウグンキミノチョウ,フクイ,和歌山県海草郡紀美野町福井
6401112,和歌山県,海草郡紀美野町,坂本,ワカヤマケン,カイソウグンキミノチョウ,サカモト,和歌山県海草郡紀美野町坂本
6401113,和歌山県,海草郡紀美野町,梅本,ワカヤマケン,カイソウグンキミノチョウ,ウメモト,和歌山県海草郡紀美野町梅本
6401114,和歌山県,海草郡紀美野町,中田,ワカヤマケン,カイソウグンキミノチョウ,ナカダ,和歌山県海草郡紀美野町中田
6401115,和歌山県,海草郡紀美野町,奥佐々,ワカヤマケン,カイソウグンキミノチョウ,オクササ,和歌山県海草郡紀美野町奥佐々
6401121,和歌山県,海草郡紀美野町,下佐々,ワカヤマケン,カイソウグンキミノチョウ,シモササ,和歌山県海草郡紀美野町下佐々
6401131,和歌山県,海草郡紀美野町,動木,ワカヤマケン,カイソウグンキミノチョウ,トドロキ,和歌山県海草郡紀美野町動木
6401141,和歌山県,海草郡紀美野町,小畑,ワカヤマケン,カイソウグンキミノチョウ,ショウバタ,和歌山県海草郡紀美野町小畑
6401161,和歌山県,海南市,野上新,ワカヤマケン,カイナンシ,ノカミシン,和歌山県海南市野上新
6401162,和歌山県,海南市,上谷,ワカヤマケン,カイナンシ,カミダニ,和歌山県海南市上谷
6401163,和歌山県,海南市,赤沼,ワカヤマケン,カイナンシ,アカヌマ,和歌山県海南市赤沼
6401164,和歌山県,海南市,海老谷,ワカヤマケン,カイナンシ,エビタニ,和歌山県海南市海老谷
6401165,和歌山県,海南市,ひや水,ワカヤマケン,カイナンシ,ヒヤミズ,和歌山県海南市ひや水
6401166,和歌山県,海南市,次ケ谷,ワカヤマケン,カイナンシ,ツゲダニ,和歌山県海南市次ケ谷
6401167,和歌山県,海南市,九品寺,ワカヤマケン,カイナンシ,クホンジ,和歌山県海南市九品寺
6401171,和歌山県,海南市,野上中,ワカヤマケン,カイナンシ,ノカミナカ,和歌山県海南市野上中
6401172,和歌山県,海南市,溝ノ口,ワカヤマケン,カイナンシ,ミゾノクチ,和歌山県海南市溝ノ口
6401173,和歌山県,海南市,椋木,ワカヤマケン,カイナンシ,ムクノキ,和歌山県海南市椋木
6401174,和歌山県,海南市,木津,ワカヤマケン,カイナンシ,キヅ,和歌山県海南市木津
6401175,和歌山県,海南市,沖野々,ワカヤマケン,カイナンシ,オキノノ,和歌山県海南市沖野々
6401201,和歌山県,海草郡紀美野町,北野,ワカヤマケン,カイソウグンキミノチョウ,キタノ,和歌山県海草郡紀美野町北野
6401202,和歌山県,海草郡紀美野町,初生谷,ワカヤマケン,カイソウグンキミノチョウ,ウイダニ,和歌山県海草郡紀美野町初生谷
6401203,和歌山県,海草郡紀美野町,花野原,ワカヤマケン,カイソウグンキミノチョウ,ハナノハラ,和歌山県海草郡紀美野町花野原
6401204,和歌山県,海草郡紀美野町,蓑津呂,ワカヤマケン,カイソウグンキミノチョウ,ミノツロ,和歌山県海草郡紀美野町蓑津呂
6401205,和歌山県,海草郡紀美野町,真国宮,ワカヤマケン,カイソウグンキミノチョウ,マクニミヤ,和歌山県海草郡紀美野町真国宮
6401206,和歌山県,海草郡紀美野町,蓑垣内,ワカヤマケン,カイソウグンキミノチョウ,ミノガイト,和歌山県海草郡紀美野町蓑垣内
6401207,和歌山県,海草郡紀美野町,井堰,ワカヤマケン,カイソウグンキミノチョウ,イセキ,和歌山県海草郡紀美野町井堰
6401211,和歌山県,海草郡紀美野町,桂瀬,ワカヤマケン,カイソウグンキミノチョウ,カツラセ,和歌山県海草郡紀美野町桂瀬
6401212,和歌山県,海草郡紀美野町,高畑,ワカヤマケン,カイソウグンキミノチョウ,タカハタ,和歌山県海草郡紀美野町高畑
6401213,和歌山県,海草郡紀美野町,赤木,ワカヤマケン,カイソウグンキミノチョウ,アカギ,和歌山県海草郡紀美野町赤木
6401214,和歌山県,海草郡紀美野町,明添,ワカヤマケン,カイソウグンキミノチョウ,ミョウゾエ,和歌山県海草郡紀美野町明添
6401215,和歌山県,海草郡紀美野町,鎌滝,ワカヤマケン,カイソウグンキミノチョウ,カマタキ,和歌山県海草郡紀美野町鎌滝
6401221,和歌山県,海草郡紀美野町,三尾川,ワカヤマケン,カイソウグンキミノチョウ,ミオガワ,和歌山県海草郡紀美野町三尾川
6401222,和歌山県,海草郡紀美野町,大角,ワカヤマケン,カイソウグンキミノチョウ,オオスミ,和歌山県海草郡紀美野町大角
6401223,和歌山県,海草郡紀美野町,津川,ワカヤマケン,カイソウグンキミノチョウ,ツガワ,和歌山県海草郡紀美野町津川
6401231,和歌山県,海草郡紀美野町,上ケ井,ワカヤマケン,カイソウグンキミノチョウ,アゲイ,和歌山県海草郡紀美野町上ケ井
6401232,和歌山県,海草郡紀美野町,箕六,ワカヤマケン,カイソウグンキミノチョウ,ミロク,和歌山県海草郡紀美野町箕六
6401233,和歌山県,海草郡紀美野町,南畑,ワカヤマケン,カイソウグンキミノチョウ,ミナミハタ,和歌山県海草郡紀美野町南畑
6401234,和歌山県,海草郡紀美野町,安井,ワカヤマケン,カイソウグンキミノチョウ,ヤスイ,和歌山県海草郡紀美野町安井
6401235,和歌山県,海草郡紀美野町,野中,ワカヤマケン,カイソウグンキミノチョウ,ノナカ,和歌山県海草郡紀美野町野中
6401241,和歌山県,海草郡紀美野町,永谷,ワカヤマケン,カイソウグンキミノチョウ,ナガタニ,和歌山県海草郡紀美野町永谷
6401242,和歌山県,海草郡紀美野町,樋下,ワカヤマケン,カイソウグンキミノチョウ,ヒノシタ,和歌山県海草郡紀美野町樋下
6401243,和歌山県,海草郡紀美野町,神野市場,ワカヤマケン,カイソウグンキミノチョウ,コウノイチバ,和歌山県海草郡紀美野町神野市場
6401244,和歌山県,海草郡紀美野町,福田,ワカヤマケン,カイソウグンキミノチョウ,フクダ,和歌山県海草郡紀美野町福田
6401251,和歌山県,海草郡紀美野町,国木原,ワカヤマケン,カイソウグンキミノチョウ,クニギハラ,和歌山県海草郡紀美野町国木原
6401252,和歌山県,海草郡紀美野町,西野,ワカヤマケン,カイソウグンキミノチョウ,ニシノ,和歌山県海草郡紀美野町西野
6401253,和歌山県,海草郡紀美野町,東野,ワカヤマケン,カイソウグンキミノチョウ,ヒガシノ,和歌山県海草郡紀美野町東野
6401254,和歌山県,海草郡紀美野町,松瀬,ワカヤマケン,カイソウグンキミノチョウ,マツセ,和歌山県海草郡紀美野町松瀬
6401255,和歌山県,海草郡紀美野町,釜滝,ワカヤマケン,カイソウグンキミノチョウ,カマタキ,和歌山県海草郡紀美野町釜滝
6401331,和歌山県,紀の川市,桃山町峯,ワカヤマケン,キノカワシ,モモヤマチョウミネ,和歌山県紀の川市桃山町峯
6401332,和歌山県,紀の川市,桃山町中畑,ワカヤマケン,キノカワシ,モモヤマチョウナカハタ,和歌山県紀の川市桃山町中畑
6401333,和歌山県,紀の川市,桃山町垣内,ワカヤマケン,キノカワシ,モモヤマチョウカイト,和歌山県紀の川市桃山町垣内
6401351,和歌山県,海草郡紀美野町,勝谷,ワカヤマケン,カイソウグンキミノチョウ,カチヤ,和歌山県海草郡紀美野町勝谷
6401352,和歌山県,海草郡紀美野町,谷,ワカヤマケン,カイソウグンキミノチョウ,タニ,和歌山県海草郡紀美野町谷
6401353,和歌山県,海草郡紀美野町,円明寺,ワカヤマケン,カイソウグンキミノチョウ,エンミョウジ,和歌山県海草郡紀美野町円明寺
6401354,和歌山県,海草郡紀美野町,四郷,ワカヤマケン,カイソウグンキミノチョウ,ヨゴウ,和歌山県海草郡紀美野町四郷
6401361,和歌山県,海草郡紀美野町,中,ワカヤマケン,カイソウグンキミノチョウ,ナカ,和歌山県海草郡紀美野町中
6401362,和歌山県,海草郡紀美野町,滝ノ川,ワカヤマケン,カイソウグンキミノチョウ,タキノガワ,和歌山県海草郡紀美野町滝ノ川
6401363,和歌山県,海草郡紀美野町,田,ワカヤマケン,カイソウグンキミノチョウ,タ,和歌山県海草郡紀美野町田
6401364,和歌山県,海草郡紀美野町,菅沢,ワカヤマケン,カイソウグンキミノチョウ,スゲザワ,和歌山県海草郡紀美野町菅沢
6401365,和歌山県,海草郡紀美野町,今西,ワカヤマケン,カイソウグンキミノチョウ,イマニシ,和歌山県海草郡紀美野町今西
6401366,和歌山県,海草郡紀美野町,松ケ峯,ワカヤマケン,カイソウグンキミノチョウ,マツガミネ,和歌山県海草郡紀美野町松ケ峯
6401471,和歌山県,海草郡紀美野町,長谷宮,ワカヤマケン,カイソウグンキミノチョウ,ハセミヤ,和歌山県海草郡紀美野町長谷宮
6401472,和歌山県,海草郡紀美野町,毛原上,ワカヤマケン,カイソウグンキミノチョウ,ケバラカミ,和歌山県海草郡紀美野町毛原上
6401473,和歌山県,海草郡紀美野町,毛原宮,ワカヤマケン,カイソウグンキミノチョウ,ケバラミヤ,和歌山県海草郡紀美野町毛原宮
6401474,和歌山県,海草郡紀美野町,毛原中,ワカヤマケン,カイソウグンキミノチョウ,ケバラナカ,和歌山県海草郡紀美野町毛原中
6401475,和歌山県,海草郡紀美野町,小西,ワカヤマケン,カイソウグンキミノチョウ,コニシ,和歌山県海草郡紀美野町小西
6401476,和歌山県,海草郡紀美野町,毛原下,ワカヤマケン,カイソウグンキミノチョウ,ケバラシモ,和歌山県海草郡紀美野町毛原下
6401481,和歌山県,伊都郡かつらぎ町,新城,ワカヤマケン,イトグンカツラギチョウ,シンジョウ,和歌山県伊都郡かつらぎ町新城
6408001,和歌山県,和歌山市,北新七軒丁,ワカヤマケン,ワカヤマシ,キタシンシチケンチョウ,和歌山県和歌山市北新七軒丁
6408002,和歌山県,和歌山市,北新,ワカヤマケン,ワカヤマシ,キタシン,和歌山県和歌山市北新
6408003,和歌山県,和歌山市,北新博労町,ワカヤマケン,ワカヤマシ,キタシンバクロウマチ,和歌山県和歌山市北新博労町
6408004,和歌山県,和歌山市,東旅籠町,ワカヤマケン,ワカヤマシ,ヒガシハタゴマチ,和歌山県和歌山市東旅籠町
6408005,和歌山県,和歌山市,元寺町南ノ丁,ワカヤマケン,ワカヤマシ,モトデラマチミナミノチョウ,和歌山県和歌山市元寺町南ノ丁
6408006,和歌山県,和歌山市,元寺町東ノ丁,ワカヤマケン,ワカヤマシ,モトデラマチヒガシノチョウ,和歌山県和歌山市元寺町東ノ丁
6408007,和歌山県,和歌山市,元寺町西ノ丁,ワカヤマケン,ワカヤマシ,モトデラマチニシノチョウ,和歌山県和歌山市元寺町西ノ丁
6408008,和歌山県,和歌山市,元寺町北ノ丁,ワカヤマケン,ワカヤマシ,モトデラマチキタノチョウ,和歌山県和歌山市元寺町北ノ丁
6408009,和歌山県,和歌山市,鍋屋町,ワカヤマケン,ワカヤマシ,ナベヤマチ,和歌山県和歌山市鍋屋町
6408011,和歌山県,和歌山市,北新元金屋丁,ワカヤマケン,ワカヤマシ,キタシンモトカナヤチョウ,和歌山県和歌山市北新元金屋丁
6408012,和歌山県,和歌山市,北新金屋丁,ワカヤマケン,ワカヤマシ,キタシンカナヤチョウ,和歌山県和歌山市北新金屋丁
6408013,和歌山県,和歌山市,東仲間町,ワカヤマケン,ワカヤマシ,ヒガシチュウゲンマチ,和歌山県和歌山市東仲間町
6408014,和歌山県,和歌山市,西仲間町,ワカヤマケン,ワカヤマシ,ニシチュウゲンマチ,和歌山県和歌山市西仲間町
6408015,和歌山県,和歌山市,北新桶屋町,ワカヤマケン,ワカヤマシ,キタシンオケヤマチ,和歌山県和歌山市北新桶屋町
6408016,和歌山県,和歌山市,北新中ノ丁,ワカヤマケン,ワカヤマシ,キタシンナカノチョウ,和歌山県和歌山市北新中ノ丁
6408017,和歌山県,和歌山市,北新戎ノ丁,ワカヤマケン,ワカヤマシ,キタシンエビスノチョウ,和歌山県和歌山市北新戎ノ丁
6408020,和歌山県,和歌山市,北桶屋町,ワカヤマケン,ワカヤマシ,キタオケヤマチ,和歌山県和歌山市北桶屋町
6408021,和歌山県,和歌山市,西旅籠町,ワカヤマケン,ワカヤマシ,ニシハタゴマチ,和歌山県和歌山市西旅籠町
6408022,和歌山県,和歌山市,住吉町,ワカヤマケン,ワカヤマシ,スミヨシマチ,和歌山県和歌山市住吉町
6408023,和歌山県,和歌山市,中ノ店北ノ丁,ワカヤマケン,ワカヤマシ,ナカノタナキタノチョウ,和歌山県和歌山市中ノ店北ノ丁
6408024,和歌山県,和歌山市,元寺町,ワカヤマケン,ワカヤマシ,モトデラマチ,和歌山県和歌山市元寺町
6408025,和歌山県,和歌山市,中ノ店中ノ丁,ワカヤマケン,ワカヤマシ,ナカノタナナカノチョウ,和歌山県和歌山市中ノ店中ノ丁
6408026,和歌山県,和歌山市,中ノ店南ノ丁,ワカヤマケン,ワカヤマシ,ナカノタナミナミノチョウ,和歌山県和歌山市中ノ店南ノ丁
6408027,和歌山県,和歌山市,米屋町,ワカヤマケン,ワカヤマシ,コメヤマチ,和歌山県和歌山市米屋町
6408028,和歌山県,和歌山市,匠町,ワカヤマケン,ワカヤマシ,タクミマチ,和歌山県和歌山市匠町
6408029,和歌山県,和歌山市,南桶屋町,ワカヤマケン,ワカヤマシ,ミナミオケヤマチ,和歌山県和歌山市南桶屋町
6408031,和歌山県,和歌山市,北大工町,ワカヤマケン,ワカヤマシ,キタダイクマチ,和歌山県和歌山市北大工町
6408032,和歌山県,和歌山市,南大工町,ワカヤマケン,ワカヤマシ,ミナミダイクマチ,和歌山県和歌山市南大工町
6408033,和歌山県,和歌山市,本町,ワカヤマケン,ワカヤマシ,ホンマチ,和歌山県和歌山市本町
6408034,和歌山県,和歌山市,駿河町,ワカヤマケン,ワカヤマシ,スルガマチ,和歌山県和歌山市駿河町
6408035,和歌山県,和歌山市,万町,ワカヤマケン,ワカヤマシ,ヨロズマチ,和歌山県和歌山市万町
6408036,和歌山県,和歌山市,東鍛冶屋町,ワカヤマケン,ワカヤマシ,ヒガシカジヤマチ,和歌山県和歌山市東鍛冶屋町
6408037,和歌山県,和歌山市,西大工町,ワカヤマケン,ワカヤマシ,ニシダイクマチ,和歌山県和歌山市西大工町
6408038,和歌山県,和歌山市,北町,ワカヤマケン,ワカヤマシ,キタマチ,和歌山県和歌山市北町
6408039,和歌山県,和歌山市,宇治袋町,ワカヤマケン,ワカヤマシ,ウジフクロマチ,和歌山県和歌山市宇治袋町
6408041,和歌山県,和歌山市,専光寺門前丁,ワカヤマケン,ワカヤマシ,センコウジモンゼンチョウ,和歌山県和歌山市専光寺門前丁
6408042,和歌山県,和歌山市,西ノ店,ワカヤマケン,ワカヤマシ,ニシノタナ,和歌山県和歌山市西ノ店
6408043,和歌山県,和歌山市,福町,ワカヤマケン,ワカヤマシ,フクマチ,和歌山県和歌山市福町
6408044,和歌山県,和歌山市,板屋町,ワカヤマケン,ワカヤマシ,イタヤマチ,和歌山県和歌山市板屋町
6408045,和歌山県,和歌山市,卜半町,ワカヤマケン,ワカヤマシ,ボクハンマチ,和歌山県和歌山市卜半町
6408046,和歌山県,和歌山市,西鍛冶屋町,ワカヤマケン,ワカヤマシ,ニシカジヤマチ,和歌山県和歌山市西鍛冶屋町
6408047,和歌山県,和歌山市,鷺ノ森南ノ丁,ワカヤマケン,ワカヤマシ,サギノモリミナミノチョウ,和歌山県和歌山市鷺ノ森南ノ丁
6408051,和歌山県,和歌山市,鷺ノ森東ノ丁,ワカヤマケン,ワカヤマシ,サギノモリヒガシノチョウ,和歌山県和歌山市鷺ノ森東ノ丁
6408052,和歌山県,和歌山市,鷺ノ森堂前丁,ワカヤマケン,ワカヤマシ,サギノモリドウマエチョウ,和歌山県和歌山市鷺ノ森堂前丁
6408053,和歌山県,和歌山市,鷺ノ森,ワカヤマケン,ワカヤマシ,サギノモリ,和歌山県和歌山市鷺ノ森
6408054,和歌山県,和歌山市,鷺ノ森片町,ワカヤマケン,ワカヤマシ,サギノモリカタマチ,和歌山県和歌山市鷺ノ森片町
6408055,和歌山県,和歌山市,九家ノ丁,ワカヤマケン,ワカヤマシ,クケノチョウ,和歌山県和歌山市九家ノ丁
6408056,和歌山県,和歌山市,鷺ノ森西ノ丁,ワカヤマケン,ワカヤマシ,サギノモリニシノチョウ,和歌山県和歌山市鷺ノ森西ノ丁
6408057,和歌山県,和歌山市,鷺ノ森新道,ワカヤマケン,ワカヤマシ,サギノモリシンミチ,和歌山県和歌山市鷺ノ森新道
6408058,和歌山県,和歌山市,鷺ノ森中ノ丁,ワカヤマケン,ワカヤマシ,サギノモリナカノチョウ,和歌山県和歌山市鷺ノ森中ノ丁
6408059,和歌山県,和歌山市,鷺ノ森明神丁,ワカヤマケン,ワカヤマシ,サギノモリミョウジンチョウ,和歌山県和歌山市鷺ノ森明神丁
6408060,和歌山県,和歌山市,四筋目,ワカヤマケン,ワカヤマシ,ヨスジメ,和歌山県和歌山市四筋目
6408061,和歌山県,和歌山市,畳屋町,ワカヤマケン,ワカヤマシ,タタミヤマチ,和歌山県和歌山市畳屋町
6408062,和歌山県,和歌山市,北釘貫丁,ワカヤマケン,ワカヤマシ,キタクギヌキチョウ,和歌山県和歌山市北釘貫丁
6408063,和歌山県,和歌山市,西釘貫丁,ワカヤマケン,ワカヤマシ,ニシクギヌキチョウ,和歌山県和歌山市西釘貫丁
6408064,和歌山県,和歌山市,東釘貫丁,ワカヤマケン,ワカヤマシ,ヒガシクギヌキチョウ,和歌山県和歌山市東釘貫丁
6408065,和歌山県,和歌山市,山吹丁,ワカヤマケン,ワカヤマシ,ヤマブキチョウ,和歌山県和歌山市山吹丁
6408066,和歌山県,和歌山市,東布経丁,ワカヤマケン,ワカヤマシ,ヒガシヌノエチョウ,和歌山県和歌山市東布経丁
6408067,和歌山県,和歌山市,一筋目,ワカヤマケン,ワカヤマシ,ヒトスジメ,和歌山県和歌山市一筋目
6408068,和歌山県,和歌山市,二筋目,ワカヤマケン,ワカヤマシ,フタスジメ,和歌山県和歌山市二筋目
6408069,和歌山県,和歌山市,三筋目,ワカヤマケン,ワカヤマシ,ミスジメ,和歌山県和歌山市三筋目
6408071,和歌山県,和歌山市,宇治薮下,ワカヤマケン,ワカヤマシ,ウジヤブシタ,和歌山県和歌山市宇治薮下
6408072,和歌山県,和歌山市,宇治家裏,ワカヤマケン,ワカヤマシ,ウジヤウラ,和歌山県和歌山市宇治家裏
6408073,和歌山県,和歌山市,嘉家作丁,ワカヤマケン,ワカヤマシ,カケヅクリチョウ,和歌山県和歌山市嘉家作丁
6408074,和歌山県,和歌山市,新魚町,ワカヤマケン,ワカヤマシ,シンギョマチ,和歌山県和歌山市新魚町
6408075,和歌山県,和歌山市,源蔵馬場,ワカヤマケン,ワカヤマシ,ゲンゾウババ,和歌山県和歌山市源蔵馬場
6408076,和歌山県,和歌山市,五筋目,ワカヤマケン,ワカヤマシ,イツスジメ,和歌山県和歌山市五筋目
6408077,和歌山県,和歌山市,六筋目,ワカヤマケン,ワカヤマシ,ムスジメ,和歌山県和歌山市六筋目
6408078,和歌山県,和歌山市,宇治鉄砲場,ワカヤマケン,ワカヤマシ,ウジテッポウバ,和歌山県和歌山市宇治鉄砲場
6408101,和歌山県,和歌山市,新雑賀町,ワカヤマケン,ワカヤマシ,シンサイカマチ,和歌山県和歌山市新雑賀町
6408102,和歌山県,和歌山市,南雑賀町,ワカヤマケン,ワカヤマシ,ミナミサイカマチ,和歌山県和歌山市南雑賀町
6408103,和歌山県,和歌山市,北休賀町,ワカヤマケン,ワカヤマシ,キタキュウカマチ,和歌山県和歌山市北休賀町
6408104,和歌山県,和歌山市,南休賀町,ワカヤマケン,ワカヤマシ,ミナミキュウカマチ,和歌山県和歌山市南休賀町
6408105,和歌山県,和歌山市,三木町南ノ丁,ワカヤマケン,ワカヤマシ,ミキマチミナミノチョウ,和歌山県和歌山市三木町南ノ丁
6408106,和歌山県,和歌山市,三木町中ノ丁,ワカヤマケン,ワカヤマシ,ミキマチナカノチョウ,和歌山県和歌山市三木町中ノ丁
6408107,和歌山県,和歌山市,三木町堀詰,ワカヤマケン,ワカヤマシ,ミキマチホリヅメ,和歌山県和歌山市三木町堀詰
6408108,和歌山県,和歌山市,雑賀町,ワカヤマケン,ワカヤマシ,サイカマチ,和歌山県和歌山市雑賀町
6408111,和歌山県,和歌山市,新通,ワカヤマケン,ワカヤマシ,シントオリ,和歌山県和歌山市新通
6408112,和歌山県,和歌山市,南材木丁,ワカヤマケン,ワカヤマシ,ミナミザイモクチョウ,和歌山県和歌山市南材木丁
6408113,和歌山県,和歌山市,広瀬通丁,ワカヤマケン,ワカヤマシ,ヒロセトオリチョウ,和歌山県和歌山市広瀬通丁
6408114,和歌山県,和歌山市,船場町,ワカヤマケン,ワカヤマシ,センバチョウ,和歌山県和歌山市船場町
6408115,和歌山県,和歌山市,東紺屋町,ワカヤマケン,ワカヤマシ,ヒガシコンヤマチ,和歌山県和歌山市東紺屋町
6408116,和歌山県,和歌山市,西紺屋町,ワカヤマケン,ワカヤマシ,ニシコンヤマチ,和歌山県和歌山市西紺屋町
6408117,和歌山県,和歌山市,南細工町,ワカヤマケン,ワカヤマシ,ミナミサイクマチ,和歌山県和歌山市南細工町
6408118,和歌山県,和歌山市,北細工町,ワカヤマケン,ワカヤマシ,キタサイクマチ,和歌山県和歌山市北細工町
6408119,和歌山県,和歌山市,和歌町,ワカヤマケン,ワカヤマシ,ワカマチ,和歌山県和歌山市和歌町
6408121,和歌山県,和歌山市,雑賀道,ワカヤマケン,ワカヤマシ,サイカミチ,和歌山県和歌山市雑賀道
6408122,和歌山県,和歌山市,汐見町,ワカヤマケン,ワカヤマシ,シオミチョウ,和歌山県和歌山市汐見町
6408123,和歌山県,和歌山市,三沢町,ワカヤマケン,ワカヤマシ,ミサワチョウ,和歌山県和歌山市三沢町
6408124,和歌山県,和歌山市,雄松町,ワカヤマケン,ワカヤマシ,オマツチョウ,和歌山県和歌山市雄松町
6408125,和歌山県,和歌山市,島崎町,ワカヤマケン,ワカヤマシ,シマザキチョウ,和歌山県和歌山市島崎町
6408126,和歌山県,和歌山市,南片原,ワカヤマケン,ワカヤマシ,ミナミカタハラ,和歌山県和歌山市南片原
6408127,和歌山県,和歌山市,元町奉行丁,ワカヤマケン,ワカヤマシ,モトマチブギョウチョウ,和歌山県和歌山市元町奉行丁
6408128,和歌山県,和歌山市,広瀬中ノ丁,ワカヤマケン,ワカヤマシ,ヒロセナカノチョウ,和歌山県和歌山市広瀬中ノ丁
6408131,和歌山県,和歌山市,弁財天丁,ワカヤマケン,ワカヤマシ,ベザイテンチョウ,和歌山県和歌山市弁財天丁
6408132,和歌山県,和歌山市,山蔭丁,ワカヤマケン,ワカヤマシ,ヤマカゲチョウ,和歌山県和歌山市山蔭丁
6408133,和歌山県,和歌山市,谷町,ワカヤマケン,ワカヤマシ,タニマチ,和歌山県和歌山市谷町
6408134,和歌山県,和歌山市,芦辺丁,ワカヤマケン,ワカヤマシ,アシベチョウ,和歌山県和歌山市芦辺丁
6408135,和歌山県,和歌山市,鷹匠町,ワカヤマケン,ワカヤマシ,タカジョウマチ,和歌山県和歌山市鷹匠町
6408136,和歌山県,和歌山市,堀止東,ワカヤマケン,ワカヤマシ,ホリドメヒガシ,和歌山県和歌山市堀止東
6408137,和歌山県,和歌山市,吹上,ワカヤマケン,ワカヤマシ,フキアゲ,和歌山県和歌山市吹上
6408138,和歌山県,和歌山市,薮ノ丁,ワカヤマケン,ワカヤマシ,ヤブノチョウ,和歌山県和歌山市薮ノ丁
6408139,和歌山県,和歌山市,片岡町,ワカヤマケン,ワカヤマシ,カタオカチョウ,和歌山県和歌山市片岡町
6408141,和歌山県,和歌山市,五番丁,ワカヤマケン,ワカヤマシ,ゴバンチョウ,和歌山県和歌山市五番丁
6408142,和歌山県,和歌山市,三番丁,ワカヤマケン,ワカヤマシ,サンバンチョウ,和歌山県和歌山市三番丁
6408143,和歌山県,和歌山市,二番丁,ワカヤマケン,ワカヤマシ,ニバンチョウ,和歌山県和歌山市二番丁
6408144,和歌山県,和歌山市,四番丁,ワカヤマケン,ワカヤマシ,ヨンバンチョウ,和歌山県和歌山市四番丁
6408145,和歌山県,和歌山市,岡山丁,ワカヤマケン,ワカヤマシ,オカヤマチョウ,和歌山県和歌山市岡山丁
6408146,和歌山県,和歌山市,一番丁,ワカヤマケン,ワカヤマシ,イチバンチョウ,和歌山県和歌山市一番丁
6408150,和歌山県,和歌山市,十三番丁,ワカヤマケン,ワカヤマシ,ジュウサンバンチョウ,和歌山県和歌山市十三番丁
6408151,和歌山県,和歌山市,屋形町,ワカヤマケン,ワカヤマシ,ヤカタマチ,和歌山県和歌山市屋形町
6408152,和歌山県,和歌山市,十番丁,ワカヤマケン,ワカヤマシ,ジュウバンチョウ,和歌山県和歌山市十番丁
6408153,和歌山県,和歌山市,三木町台所町,ワカヤマケン,ワカヤマシ,ミキマチダイドコロマチ,和歌山県和歌山市三木町台所町
6408154,和歌山県,和歌山市,六番丁,ワカヤマケン,ワカヤマシ,ロクバンチョウ,和歌山県和歌山市六番丁
6408155,和歌山県,和歌山市,九番丁,ワカヤマケン,ワカヤマシ,キュウバンチョウ,和歌山県和歌山市九番丁
6408156,和歌山県,和歌山市,七番丁,ワカヤマケン,ワカヤマシ,シチバンチョウ,和歌山県和歌山市七番丁
6408157,和歌山県,和歌山市,八番丁,ワカヤマケン,ワカヤマシ,ハチバンチョウ,和歌山県和歌山市八番丁
6408158,和歌山県,和歌山市,十二番丁,ワカヤマケン,ワカヤマシ,ジュウニバンチョウ,和歌山県和歌山市十二番丁
6408159,和歌山県,和歌山市,十一番丁,ワカヤマケン,ワカヤマシ,ジュウイチバンチョウ,和歌山県和歌山市十一番丁
6408201,和歌山県,和歌山市,石橋丁,ワカヤマケン,ワカヤマシ,イシバシチョウ,和歌山県和歌山市石橋丁
6408202,和歌山県,和歌山市,屏風丁,ワカヤマケン,ワカヤマシ,ビョウブチョウ,和歌山県和歌山市屏風丁
6408203,和歌山県,和歌山市,東蔵前丁,ワカヤマケン,ワカヤマシ,ヒガシクラマエチョウ,和歌山県和歌山市東蔵前丁
6408204,和歌山県,和歌山市,伝法橋南ノ丁,ワカヤマケン,ワカヤマシ,デンポウバシミナミノチョウ,和歌山県和歌山市伝法橋南ノ丁
6408205,和歌山県,和歌山市,西蔵前丁,ワカヤマケン,ワカヤマシ,ニシクラマエチョウ,和歌山県和歌山市西蔵前丁
6408206,和歌山県,和歌山市,徳田木丁,ワカヤマケン,ワカヤマシ,トクダギチョウ,和歌山県和歌山市徳田木丁
6408211,和歌山県,和歌山市,西布経丁,ワカヤマケン,ワカヤマシ,ニシヌノエチョウ,和歌山県和歌山市西布経丁
6408212,和歌山県,和歌山市,杉ノ馬場,ワカヤマケン,ワカヤマシ,スギノババ,和歌山県和歌山市杉ノ馬場
6408213,和歌山県,和歌山市,舟大工町,ワカヤマケン,ワカヤマシ,フナダイクマチ,和歌山県和歌山市舟大工町
6408214,和歌山県,和歌山市,寄合町,ワカヤマケン,ワカヤマシ,ヨリアイマチ,和歌山県和歌山市寄合町
6408215,和歌山県,和歌山市,橋丁,ワカヤマケン,ワカヤマシ,ハシチョウ,和歌山県和歌山市橋丁
6408216,和歌山県,和歌山市,元博労町,ワカヤマケン,ワカヤマシ,モトバクロウマチ,和歌山県和歌山市元博労町
6408220,和歌山県,和歌山市,下町,ワカヤマケン,ワカヤマシ,ゲノマチ,和歌山県和歌山市下町
6408221,和歌山県,和歌山市,湊紺屋町,ワカヤマケン,ワカヤマシ,ミナトコンヤマチ,和歌山県和歌山市湊紺屋町
6408222,和歌山県,和歌山市,湊本町,ワカヤマケン,ワカヤマシ,ミナトホンマチ,和歌山県和歌山市湊本町
6408223,和歌山県,和歌山市,湊北町,ワカヤマケン,ワカヤマシ,ミナトキタマチ,和歌山県和歌山市湊北町
6408224,和歌山県,和歌山市,小野町,ワカヤマケン,ワカヤマシ,オノマチ,和歌山県和歌山市小野町
6408225,和歌山県,和歌山市,久保丁,ワカヤマケン,ワカヤマシ,クボチョウ,和歌山県和歌山市久保丁
6408226,和歌山県,和歌山市,小人町,ワカヤマケン,ワカヤマシ,コビトマチ,和歌山県和歌山市小人町
6408227,和歌山県,和歌山市,西汀丁,ワカヤマケン,ワカヤマシ,ニシミギワチョウ,和歌山県和歌山市西汀丁
6408228,和歌山県,和歌山市,小人町南ノ丁,ワカヤマケン,ワカヤマシ,コビトマチミナミノチョウ,和歌山県和歌山市小人町南ノ丁
6408229,和歌山県,和歌山市,道場町,ワカヤマケン,ワカヤマシ,ドウジョウマチ,和歌山県和歌山市道場町
6408230,和歌山県,和歌山市,男野芝丁,ワカヤマケン,ワカヤマシ,オノシバチョウ,和歌山県和歌山市男野芝丁
6408231,和歌山県,和歌山市,北汀丁,ワカヤマケン,ワカヤマシ,キタミギワチョウ,和歌山県和歌山市北汀丁
6408232,和歌山県,和歌山市,南汀丁,ワカヤマケン,ワカヤマシ,ミナミミギワチョウ,和歌山県和歌山市南汀丁
6408233,和歌山県,和歌山市,北坂ノ上丁,ワカヤマケン,ワカヤマシ,キタサカノウエチョウ,和歌山県和歌山市北坂ノ上丁
6408234,和歌山県,和歌山市,西坂ノ上丁,ワカヤマケン,ワカヤマシ,ニシサカノウエチョウ,和歌山県和歌山市西坂ノ上丁
6408235,和歌山県,和歌山市,東長町,ワカヤマケン,ワカヤマシ,ヒガシナガマチ,和歌山県和歌山市東長町
6408236,和歌山県,和歌山市,七曲り,ワカヤマケン,ワカヤマシ,ナナマガリ,和歌山県和歌山市七曲り
6408237,和歌山県,和歌山市,材木丁,ワカヤマケン,ワカヤマシ,ザイモクチョウ,和歌山県和歌山市材木丁
6408238,和歌山県,和歌山市,網屋町,ワカヤマケン,ワカヤマシ,アミヤマチ,和歌山県和歌山市網屋町
6408239,和歌山県,和歌山市,上町,ワカヤマケン,ワカヤマシ,ウワマチ,和歌山県和歌山市上町
6408241,和歌山県,和歌山市,雑賀屋町東ノ丁,ワカヤマケン,ワカヤマシ,サイカヤマチヒガシノチョウ,和歌山県和歌山市雑賀屋町東ノ丁
6408242,和歌山県,和歌山市,上野町,ワカヤマケン,ワカヤマシ,ウエノマチ,和歌山県和歌山市上野町
6408243,和歌山県,和歌山市,徒町,ワカヤマケン,ワカヤマシ,カチマチ,和歌山県和歌山市徒町
6408244,和歌山県,和歌山市,久右衛門丁,ワカヤマケン,ワカヤマシ,キュウエモンチョウ,和歌山県和歌山市久右衛門丁
6408245,和歌山県,和歌山市,有田屋町南ノ丁,ワカヤマケン,ワカヤマシ,アリダヤマチミナミノチョウ,和歌山県和歌山市有田屋町南ノ丁
6408246,和歌山県,和歌山市,有田屋町西ノ丁,ワカヤマケン,ワカヤマシ,アリダヤマチニシノチョウ,和歌山県和歌山市有田屋町西ノ丁
6408247,和歌山県,和歌山市,東坂ノ上丁,ワカヤマケン,ワカヤマシ,ヒガシサカノウエチョウ,和歌山県和歌山市東坂ノ上丁
6408248,和歌山県,和歌山市,有田屋町,ワカヤマケン,ワカヤマシ,アリダヤマチ,和歌山県和歌山市有田屋町
6408249,和歌山県,和歌山市,雑賀屋町,ワカヤマケン,ワカヤマシ,サイカヤマチ,和歌山県和歌山市雑賀屋町
6408251,和歌山県,和歌山市,南中間町,ワカヤマケン,ワカヤマシ,ミナミチュウゲンマチ,和歌山県和歌山市南中間町
6408252,和歌山県,和歌山市,北田辺丁,ワカヤマケン,ワカヤマシ,キタタナベチョウ,和歌山県和歌山市北田辺丁
6408253,和歌山県,和歌山市,北相生丁,ワカヤマケン,ワカヤマシ,キタアイオイチョウ,和歌山県和歌山市北相生丁
6408254,和歌山県,和歌山市,南田辺丁,ワカヤマケン,ワカヤマシ,ミナミタナベチョウ,和歌山県和歌山市南田辺丁
6408255,和歌山県,和歌山市,舟津町,ワカヤマケン,ワカヤマシ,フナヅチョウ,和歌山県和歌山市舟津町
6408256,和歌山県,和歌山市,土佐町,ワカヤマケン,ワカヤマシ,トサマチ,和歌山県和歌山市土佐町
6408261,和歌山県,和歌山市,真砂丁,ワカヤマケン,ワカヤマシ,マサゴチョウ,和歌山県和歌山市真砂丁
6408262,和歌山県,和歌山市,湊通丁北,ワカヤマケン,ワカヤマシ,ミナトトオリチョウキタ,和歌山県和歌山市湊通丁北
6408263,和歌山県,和歌山市,茶屋ノ丁,ワカヤマケン,ワカヤマシ,チャヤノチョウ,和歌山県和歌山市茶屋ノ丁
6408264,和歌山県,和歌山市,湊桶屋町,ワカヤマケン,ワカヤマシ,ミナトオケヤマチ,和歌山県和歌山市湊桶屋町
6408265,和歌山県,和歌山市,小松原,ワカヤマケン,ワカヤマシ,コマツバラ,和歌山県和歌山市小松原
6408266,和歌山県,和歌山市,東長町中ノ丁,ワカヤマケン,ワカヤマシ,ヒガシナガマチナカノチョウ,和歌山県和歌山市東長町中ノ丁
6408267,和歌山県,和歌山市,芝ノ丁,ワカヤマケン,ワカヤマシ,シバノチョウ,和歌山県和歌山市芝ノ丁
6408268,和歌山県,和歌山市,広道,ワカヤマケン,ワカヤマシ,ヒロミチ,和歌山県和歌山市広道
6408269,和歌山県,和歌山市,小松原通,ワカヤマケン,ワカヤマシ,コマツバラドオリ,和歌山県和歌山市小松原通
6408271,和歌山県,和歌山市,尾崎丁,ワカヤマケン,ワカヤマシ,オザキチョウ,和歌山県和歌山市尾崎丁
6408272,和歌山県,和歌山市,砂山南,ワカヤマケン,ワカヤマシ,スナヤマミナミ,和歌山県和歌山市砂山南
6408273,和歌山県,和歌山市,葵町,ワカヤマケン,ワカヤマシ,アオイチョウ,和歌山県和歌山市葵町
6408274,和歌山県,和歌山市,金龍寺丁,ワカヤマケン,ワカヤマシ,キンリュウジチョウ,和歌山県和歌山市金龍寺丁
6408275,和歌山県,和歌山市,南相生丁,ワカヤマケン,ワカヤマシ,ミナミアイオイチョウ,和歌山県和歌山市南相生丁
6408276,和歌山県,和歌山市,作事丁,ワカヤマケン,ワカヤマシ,サクジチョウ,和歌山県和歌山市作事丁
6408281,和歌山県,和歌山市,湊通丁南,ワカヤマケン,ワカヤマシ,ミナトトオリチョウミナミ,和歌山県和歌山市湊通丁南
6408282,和歌山県,和歌山市,出口甲賀丁,ワカヤマケン,ワカヤマシ,デグチコウガチョウ,和歌山県和歌山市出口甲賀丁
6408283,和歌山県,和歌山市,出口中ノ丁,ワカヤマケン,ワカヤマシ,デグチナカノチョウ,和歌山県和歌山市出口中ノ丁
6408284,和歌山県,和歌山市,出口端ノ丁,ワカヤマケン,ワカヤマシ,デグチハシノチョウ,和歌山県和歌山市出口端ノ丁
6408285,和歌山県,和歌山市,出口新端ノ丁,ワカヤマケン,ワカヤマシ,デグチシンハシノチョウ,和歌山県和歌山市出口新端ノ丁
6408286,和歌山県,和歌山市,湊御殿,ワカヤマケン,ワカヤマシ,ミナトゴテン,和歌山県和歌山市湊御殿
6408287,和歌山県,和歌山市,築港,ワカヤマケン,ワカヤマシ,チッコウ,和歌山県和歌山市築港
6408288,和歌山県,和歌山市,加納町,ワカヤマケン,ワカヤマシ,カノウマチ,和歌山県和歌山市加納町
6408290,和歌山県,和歌山市,西長町,ワカヤマケン,ワカヤマシ,ニシナガマチ,和歌山県和歌山市西長町
6408291,和歌山県,和歌山市,北甚五兵衛丁,ワカヤマケン,ワカヤマシ,キタジンゴベエチョウ,和歌山県和歌山市北甚五兵衛丁
6408292,和歌山県,和歌山市,南甚五兵衛丁,ワカヤマケン,ワカヤマシ,ミナミジンゴベエチョウ,和歌山県和歌山市南甚五兵衛丁
6408293,和歌山県,和歌山市,駕町,ワカヤマケン,ワカヤマシ,カゴマチ,和歌山県和歌山市駕町
6408294,和歌山県,和歌山市,北中間町,ワカヤマケン,ワカヤマシ,キタチュウゲンマチ,和歌山県和歌山市北中間町
6408295,和歌山県,和歌山市,南牛町,ワカヤマケン,ワカヤマシ,ミナミウシマチ,和歌山県和歌山市南牛町
6408296,和歌山県,和歌山市,北土佐丁,ワカヤマケン,ワカヤマシ,キタトサチョウ,和歌山県和歌山市北土佐丁
6408297,和歌山県,和歌山市,西河岸町,ワカヤマケン,ワカヤマシ,ニシカワギシチョウ,和歌山県和歌山市西河岸町
6408298,和歌山県,和歌山市,植松丁,ワカヤマケン,ワカヤマシ,ウエマツチョウ,和歌山県和歌山市植松丁
6408299,和歌山県,和歌山市,北牛町,ワカヤマケン,ワカヤマシ,キタウシマチ,和歌山県和歌山市北牛町
6408301,和歌山県,和歌山市,岩橋,ワカヤマケン,ワカヤマシ,イワセ,和歌山県和歌山市岩橋
6408302,和歌山県,和歌山市,井辺,ワカヤマケン,ワカヤマシ,インベ,和歌山県和歌山市井辺
6408303,和歌山県,和歌山市,鳴神,ワカヤマケン,ワカヤマシ,ナルカミ,和歌山県和歌山市鳴神
6408304,和歌山県,和歌山市,松島,ワカヤマケン,ワカヤマシ,マツシマ,和歌山県和歌山市松島
6408305,和歌山県,和歌山市,栗栖,ワカヤマケン,ワカヤマシ,クルス,和歌山県和歌山市栗栖
6408306,和歌山県,和歌山市,出島,ワカヤマケン,ワカヤマシ,デジマ,和歌山県和歌山市出島
6408311,和歌山県,和歌山市,寺内,ワカヤマケン,ワカヤマシ,テラウチ,和歌山県和歌山市寺内
6408312,和歌山県,和歌山市,森小手穂,ワカヤマケン,ワカヤマシ,モリオテボ,和歌山県和歌山市森小手穂
6408313,和歌山県,和歌山市,西,ワカヤマケン,ワカヤマシ,ニシ,和歌山県和歌山市西
6408314,和歌山県,和歌山市,神前,ワカヤマケン,ワカヤマシ,コウザキ,和歌山県和歌山市神前
6408315,和歌山県,和歌山市,津秦,ワカヤマケン,ワカヤマシ,ツワダ,和歌山県和歌山市津秦
6408316,和歌山県,和歌山市,有家,ワカヤマケン,ワカヤマシ,アリエ,和歌山県和歌山市有家
6408317,和歌山県,和歌山市,北出島,ワカヤマケン,ワカヤマシ,キタデジマ,和歌山県和歌山市北出島
6408318,和歌山県,和歌山市,南出島,ワカヤマケン,ワカヤマシ,ミナミデジマ,和歌山県和歌山市南出島
6408319,和歌山県,和歌山市,手平,ワカヤマケン,ワカヤマシ,テビラ,和歌山県和歌山市手平
6408320,和歌山県,和歌山市,手平出島,ワカヤマケン,ワカヤマシ,テビラデジマ,和歌山県和歌山市手平出島
6408321,和歌山県,和歌山市,出水,ワカヤマケン,ワカヤマシ,デミズ,和歌山県和歌山市出水
6408322,和歌山県,和歌山市,秋月,ワカヤマケン,ワカヤマシ,アキヅキ,和歌山県和歌山市秋月
6408323,和歌山県,和歌山市,太田,ワカヤマケン,ワカヤマシ,オオダ,和歌山県和歌山市太田
6408324,和歌山県,和歌山市,吹屋町,ワカヤマケン,ワカヤマシ,フキヤチョウ,和歌山県和歌山市吹屋町
6408325,和歌山県,和歌山市,新生町,ワカヤマケン,ワカヤマシ,シンセイチョウ,和歌山県和歌山市新生町
6408326,和歌山県,和歌山市,新留丁,ワカヤマケン,ワカヤマシ,ニントメチョウ,和歌山県和歌山市新留丁
6408327,和歌山県,和歌山市,橋向丁,ワカヤマケン,ワカヤマシ,ハシムカイチョウ,和歌山県和歌山市橋向丁
6408328,和歌山県,和歌山市,木広町,ワカヤマケン,ワカヤマシ,キヒロチョウ,和歌山県和歌山市木広町
6408329,和歌山県,和歌山市,田中町,ワカヤマケン,ワカヤマシ,タナカマチ,和歌山県和歌山市田中町
6408331,和歌山県,和歌山市,美園町,ワカヤマケン,ワカヤマシ,ミソノチョウ,和歌山県和歌山市美園町
6408332,和歌山県,和歌山市,楠右衛門小路,ワカヤマケン,ワカヤマシ,クスエモンショウジ,和歌山県和歌山市楠右衛門小路
6408333,和歌山県,和歌山市,蔵小路,ワカヤマケン,ワカヤマシ,クラショウジ,和歌山県和歌山市蔵小路
6408334,和歌山県,和歌山市,茶屋町,ワカヤマケン,ワカヤマシ,チャヤマチ,和歌山県和歌山市茶屋町
6408335,和歌山県,和歌山市,餌差町,ワカヤマケン,ワカヤマシ,エサシマチ,和歌山県和歌山市餌差町
6408336,和歌山県,和歌山市,柳丁,ワカヤマケン,ワカヤマシ,ヤナギチョウ,和歌山県和歌山市柳丁
6408337,和歌山県,和歌山市,毛革屋丁,ワカヤマケン,ワカヤマシ,ケガワヤチョウ,和歌山県和歌山市毛革屋丁
6408341,和歌山県,和歌山市,黒田,ワカヤマケン,ワカヤマシ,クロダ,和歌山県和歌山市黒田
6408342,和歌山県,和歌山市,友田町,ワカヤマケン,ワカヤマシ,トモダチョウ,和歌山県和歌山市友田町
6408343,和歌山県,和歌山市,吉田,ワカヤマケン,ワカヤマシ,ヨシダ,和歌山県和歌山市吉田
6408344,和歌山県,和歌山市,納定,ワカヤマケン,ワカヤマシ,ノウジョウ,和歌山県和歌山市納定
6408345,和歌山県,和歌山市,新在家,ワカヤマケン,ワカヤマシ,シンザイケ,和歌山県和歌山市新在家
6408350,和歌山県,和歌山市,北ノ新地分銅丁,ワカヤマケン,ワカヤマシ,キタノシンチフンドウチョウ,和歌山県和歌山市北ノ新地分銅丁
6408351,和歌山県,和歌山市,新内,ワカヤマケン,ワカヤマシ,アロチ,和歌山県和歌山市新内
6408352,和歌山県,和歌山市,北ノ新地裏田町,ワカヤマケン,ワカヤマシ,キタノシンチウラタマチ,和歌山県和歌山市北ノ新地裏田町
6408353,和歌山県,和歌山市,北ノ新地榎丁,ワカヤマケン,ワカヤマシ,キタノシンチエノキチョウ,和歌山県和歌山市北ノ新地榎丁
6408354,和歌山県,和歌山市,北ノ新地東ノ丁,ワカヤマケン,ワカヤマシ,キタノシンチヒガシノチョウ,和歌山県和歌山市北ノ新地東ノ丁
6408355,和歌山県,和歌山市,北ノ新地,ワカヤマケン,ワカヤマシ,キタノシンチ,和歌山県和歌山市北ノ新地
6408356,和歌山県,和歌山市,北ノ新地上六軒丁,ワカヤマケン,ワカヤマシ,キタノシンチカミロッケンチョウ,和歌山県和歌山市北ノ新地上六軒丁
6408357,和歌山県,和歌山市,北ノ新地中六軒丁,ワカヤマケン,ワカヤマシ,キタノシンチナカロッケンチョウ,和歌山県和歌山市北ノ新地中六軒丁
6408358,和歌山県,和歌山市,北ノ新地下六軒丁,ワカヤマケン,ワカヤマシ,キタノシンチシモロッケンチョウ,和歌山県和歌山市北ノ新地下六軒丁
6408359,和歌山県,和歌山市,北ノ新地田町,ワカヤマケン,ワカヤマシ,キタノシンチタマチ,和歌山県和歌山市北ノ新地田町
6408361,和歌山県,和歌山市,岡円福院東ノ丁,ワカヤマケン,ワカヤマシ,オカエンプクインヒガシノチョウ,和歌山県和歌山市岡円福院東ノ丁
6408362,和歌山県,和歌山市,岡織屋小路,ワカヤマケン,ワカヤマシ,オカオリヤショウジ,和歌山県和歌山市岡織屋小路
6408363,和歌山県,和歌山市,岡南ノ丁,ワカヤマケン,ワカヤマシ,オカミナミノチョウ,和歌山県和歌山市岡南ノ丁
6408364,和歌山県,和歌山市,岡円福院西ノ丁,ワカヤマケン,ワカヤマシ,オカエンプクインニシノチョウ,和歌山県和歌山市岡円福院西ノ丁
6408365,和歌山県,和歌山市,岡北ノ丁,ワカヤマケン,ワカヤマシ,オカキタノチョウ,和歌山県和歌山市岡北ノ丁
6408371,和歌山県,和歌山市,新八百屋丁,ワカヤマケン,ワカヤマシ,シンヤオヤチョウ,和歌山県和歌山市新八百屋丁
6408372,和歌山県,和歌山市,新大工町,ワカヤマケン,ワカヤマシ,シンダイクマチ,和歌山県和歌山市新大工町
6408373,和歌山県,和歌山市,木挽丁,ワカヤマケン,ワカヤマシ,コビキチョウ,和歌山県和歌山市木挽丁
6408374,和歌山県,和歌山市,数寄屋丁,ワカヤマケン,ワカヤマシ,スキヤチョウ,和歌山県和歌山市数寄屋丁
6408375,和歌山県,和歌山市,坊主丁,ワカヤマケン,ワカヤマシ,ボウズチョウ,和歌山県和歌山市坊主丁
6408376,和歌山県,和歌山市,新中通,ワカヤマケン,ワカヤマシ,シンナカドオリ,和歌山県和歌山市新中通
6408377,和歌山県,和歌山市,新堺丁,ワカヤマケン,ワカヤマシ,シンサカイチョウ,和歌山県和歌山市新堺丁
6408378,和歌山県,和歌山市,鈴丸丁,ワカヤマケン,ワカヤマシ,スズマルチョウ,和歌山県和歌山市鈴丸丁
6408381,和歌山県,和歌山市,畑屋敷東ノ丁,ワカヤマケン,ワカヤマシ,ハタヤシキヒガシノチョウ,和歌山県和歌山市畑屋敷東ノ丁
6408382,和歌山県,和歌山市,畑屋敷榎丁,ワカヤマケン,ワカヤマシ,ハタヤシキエノキノチョウ,和歌山県和歌山市畑屋敷榎丁
6408383,和歌山県,和歌山市,畑屋敷円福院東ノ丁,ワカヤマケン,ワカヤマシ,ハタヤシキエンプクインヒガシノチョウ,和歌山県和歌山市畑屋敷円福院東ノ丁
6408384,和歌山県,和歌山市,畑屋敷葛屋丁,ワカヤマケン,ワカヤマシ,ハタヤシキクズヤチョウ,和歌山県和歌山市畑屋敷葛屋丁
6408385,和歌山県,和歌山市,畑屋敷円福院西ノ丁,ワカヤマケン,ワカヤマシ,ハタヤシキエンプクインニシノチョウ,和歌山県和歌山市畑屋敷円福院西ノ丁
6408386,和歌山県,和歌山市,畑屋敷雁木丁,ワカヤマケン,ワカヤマシ,ハタヤシキガンギチョウ,和歌山県和歌山市畑屋敷雁木丁
6408387,和歌山県,和歌山市,畑屋敷袋町,ワカヤマケン,ワカヤマシ,ハタヤシキフクロマチ,和歌山県和歌山市畑屋敷袋町
6408390,和歌山県,和歌山市,有本,ワカヤマケン,ワカヤマシ,アリモト,和歌山県和歌山市有本
6408391,和歌山県,和歌山市,加納,ワカヤマケン,ワカヤマシ,カノウ,和歌山県和歌山市加納
6408392,和歌山県,和歌山市,中之島,ワカヤマケン,ワカヤマシ,ナカノシマ,和歌山県和歌山市中之島
6408393,和歌山県,和歌山市,畑屋敷端ノ丁,ワカヤマケン,ワカヤマシ,ハタヤシキハシノチョウ,和歌山県和歌山市畑屋敷端ノ丁
6408394,和歌山県,和歌山市,畑屋敷千体仏丁,ワカヤマケン,ワカヤマシ,ハタヤシキセンタイブツチョウ,和歌山県和歌山市畑屋敷千体仏丁
6408395,和歌山県,和歌山市,畑屋敷中ノ丁,ワカヤマケン,ワカヤマシ,ハタヤシキナカノチョウ,和歌山県和歌山市畑屋敷中ノ丁
6408396,和歌山県,和歌山市,畑屋敷西ノ丁,ワカヤマケン,ワカヤマシ,ハタヤシキニシノチョウ,和歌山県和歌山市畑屋敷西ノ丁
6408397,和歌山県,和歌山市,畑屋敷新道丁,ワカヤマケン,ワカヤマシ,ハタヤシキシンミチチョウ,和歌山県和歌山市畑屋敷新道丁
6408398,和歌山県,和歌山市,畑屋敷松ケ枝丁,ワカヤマケン,ワカヤマシ,ハタヤシキマツガエチョウ,和歌山県和歌山市畑屋敷松ケ枝丁
6408399,和歌山県,和歌山市,畑屋敷兵庫ノ丁,ワカヤマケン,ワカヤマシ,ハタヤシキヒョウゴノチョウ,和歌山県和歌山市畑屋敷兵庫ノ丁
6408401,和歌山県,和歌山市,福島,ワカヤマケン,ワカヤマシ,フクシマ,和歌山県和歌山市福島
6408402,和歌山県,和歌山市,野崎,ワカヤマケン,ワカヤマシ,ノザキ,和歌山県和歌山市野崎
6408403,和歌山県,和歌山市,北島,ワカヤマケン,ワカヤマシ,キタジマ,和歌山県和歌山市北島
6408404,和歌山県,和歌山市,湊,ワカヤマケン,ワカヤマシ,ミナト,和歌山県和歌山市湊
6408411,和歌山県,和歌山市,梶取,ワカヤマケン,ワカヤマシ,カンドリ,和歌山県和歌山市梶取
6408412,和歌山県,和歌山市,狐島,ワカヤマケン,ワカヤマシ,キツネジマ,和歌山県和歌山市狐島
6408413,和歌山県,和歌山市,島橋東ノ丁,ワカヤマケン,ワカヤマシ,シマバシヒガシノチョウ,和歌山県和歌山市島橋東ノ丁
6408414,和歌山県,和歌山市,島橋西ノ丁,ワカヤマケン,ワカヤマシ,シマバシニシノチョウ,和歌山県和歌山市島橋西ノ丁
6408415,和歌山県,和歌山市,島橋南ノ丁,ワカヤマケン,ワカヤマシ,シマバシミナミノチョウ,和歌山県和歌山市島橋南ノ丁
6408416,和歌山県,和歌山市,島橋北ノ丁,ワカヤマケン,ワカヤマシ,シマバシキタノチョウ,和歌山県和歌山市島橋北ノ丁
6408421,和歌山県,和歌山市,松江,ワカヤマケン,ワカヤマシ,マツエ,和歌山県和歌山市松江
6408422,和歌山県,和歌山市,松江東,ワカヤマケン,ワカヤマシ,マツエヒガシ,和歌山県和歌山市松江東
6408423,和歌山県,和歌山市,松江中,ワカヤマケン,ワカヤマシ,マツエナカ,和歌山県和歌山市松江中
6408424,和歌山県,和歌山市,松江西,ワカヤマケン,ワカヤマシ,マツエニシ,和歌山県和歌山市松江西
6408425,和歌山県,和歌山市,松江北,ワカヤマケン,ワカヤマシ,マツエキタ,和歌山県和歌山市松江北
6408431,和歌山県,和歌山市,向,ワカヤマケン,ワカヤマシ,ムカイ,和歌山県和歌山市向
6408432,和歌山県,和歌山市,土入,ワカヤマケン,ワカヤマシ,ドウニュウ,和歌山県和歌山市土入
6408433,和歌山県,和歌山市,中野,ワカヤマケン,ワカヤマシ,ナカノ,和歌山県和歌山市中野
6408434,和歌山県,和歌山市,榎原,ワカヤマケン,ワカヤマシ,エノキハラ,和歌山県和歌山市榎原
6408435,和歌山県,和歌山市,古屋,ワカヤマケン,ワカヤマシ,コヤ,和歌山県和歌山市古屋
6408441,和歌山県,和歌山市,栄谷,ワカヤマケン,ワカヤマシ,サカエダニ,和歌山県和歌山市栄谷
6408442,和歌山県,和歌山市,平井,ワカヤマケン,ワカヤマシ,ヒライ,和歌山県和歌山市平井
6408443,和歌山県,和歌山市,延時,ワカヤマケン,ワカヤマシ,ノブトキ,和歌山県和歌山市延時
6408444,和歌山県,和歌山市,次郎丸,ワカヤマケン,ワカヤマシ,ジロマル,和歌山県和歌山市次郎丸
6408451,和歌山県,和歌山市,中,ワカヤマケン,ワカヤマシ,ナカ,和歌山県和歌山市中
6408452,和歌山県,和歌山市,梅原,ワカヤマケン,ワカヤマシ,ウメハラ,和歌山県和歌山市梅原
6408453,和歌山県,和歌山市,木ノ本,ワカヤマケン,ワカヤマシ,キノモト,和歌山県和歌山市木ノ本
6408461,和歌山県,和歌山市,船所,ワカヤマケン,ワカヤマシ,フナドコロ,和歌山県和歌山市船所
6408462,和歌山県,和歌山市,粟,ワカヤマケン,ワカヤマシ,アワ,和歌山県和歌山市粟
6408463,和歌山県,和歌山市,楠見中,ワカヤマケン,ワカヤマシ,クスミナカ,和歌山県和歌山市楠見中
6408464,和歌山県,和歌山市,市小路,ワカヤマケン,ワカヤマシ,イチショウジ,和歌山県和歌山市市小路
6408471,和歌山県,和歌山市,善明寺,ワカヤマケン,ワカヤマシ,ゼンミョウジ,和歌山県和歌山市善明寺
6408472,和歌山県,和歌山市,大谷,ワカヤマケン,ワカヤマシ,オオタニ,和歌山県和歌山市大谷
6408481,和歌山県,和歌山市,直川,ワカヤマケン,ワカヤマシ,ノウガワ,和歌山県和歌山市直川
6408482,和歌山県,和歌山市,六十谷,ワカヤマケン,ワカヤマシ,ムソタ,和歌山県和歌山市六十谷
6408483,和歌山県,和歌山市,園部,ワカヤマケン,ワカヤマシ,ソノベ,和歌山県和歌山市園部
6410001,和歌山県,和歌山市,杭ノ瀬,ワカヤマケン,ワカヤマシ,クイノセ,和歌山県和歌山市杭ノ瀬
6410002,和歌山県,和歌山市,新中島,ワカヤマケン,ワカヤマシ,シンナカジマ,和歌山県和歌山市新中島
6410003,和歌山県,和歌山市,坂田,ワカヤマケン,ワカヤマシ,サカダ,和歌山県和歌山市坂田
6410004,和歌山県,和歌山市,和田,ワカヤマケン,ワカヤマシ,ワダ,和歌山県和歌山市和田
6410005,和歌山県,和歌山市,田尻,ワカヤマケン,ワカヤマシ,タジリ,和歌山県和歌山市田尻
6410006,和歌山県,和歌山市,中島,ワカヤマケン,ワカヤマシ,ナカジマ,和歌山県和歌山市中島
6410007,和歌山県,和歌山市,小雑賀,ワカヤマケン,ワカヤマシ,コザイカ,和歌山県和歌山市小雑賀
6410008,和歌山県,和歌山市,北中島,ワカヤマケン,ワカヤマシ,キタナカジマ,和歌山県和歌山市北中島
6410011,和歌山県,和歌山市,三葛,ワカヤマケン,ワカヤマシ,ミカズラ,和歌山県和歌山市三葛
6410012,和歌山県,和歌山市,紀三井寺,ワカヤマケン,ワカヤマシ,キミイデラ,和歌山県和歌山市紀三井寺
6410013,和歌山県,和歌山市,内原,ワカヤマケン,ワカヤマシ,ウチハラ,和歌山県和歌山市内原
6410014,和歌山県,和歌山市,毛見,ワカヤマケン,ワカヤマシ,ケミ,和歌山県和歌山市毛見
6410015,和歌山県,和歌山市,布引,ワカヤマケン,ワカヤマシ,ヌノヒキ,和歌山県和歌山市布引
6410021,和歌山県,和歌山市,和歌浦東,ワカヤマケン,ワカヤマシ,ワカウラヒガシ,和歌山県和歌山市和歌浦東
6410022,和歌山県,和歌山市,和歌浦南,ワカヤマケン,ワカヤマシ,ワカウラミナミ,和歌山県和歌山市和歌浦南
6410023,和歌山県,和歌山市,新和歌浦,ワカヤマケン,ワカヤマシ,シンワカウラ,和歌山県和歌山市新和歌浦
6410024,和歌山県,和歌山市,和歌浦西,ワカヤマケン,ワカヤマシ,ワカウラニシ,和歌山県和歌山市和歌浦西
6410025,和歌山県,和歌山市,和歌浦中,ワカヤマケン,ワカヤマシ,ワカウラナカ,和歌山県和歌山市和歌浦中
6410031,和歌山県,和歌山市,西小二里,ワカヤマケン,ワカヤマシ,ニシコニリ,和歌山県和歌山市西小二里
6410032,和歌山県,和歌山市,東小二里町,ワカヤマケン,ワカヤマシ,ヒガシコニリチョウ,和歌山県和歌山市東小二里町
6410033,和歌山県,和歌山市,松ケ丘,ワカヤマケン,ワカヤマシ,マツガオカ,和歌山県和歌山市松ケ丘
6410034,和歌山県,和歌山市,新高町,ワカヤマケン,ワカヤマシ,ニイタカチョウ,和歌山県和歌山市新高町
6410035,和歌山県,和歌山市,関戸,ワカヤマケン,ワカヤマシ,セキド,和歌山県和歌山市関戸
6410036,和歌山県,和歌山市,西浜,ワカヤマケン,ワカヤマシ,ニシハマ,和歌山県和歌山市西浜
6410041,和歌山県,和歌山市,堀止南ノ丁,ワカヤマケン,ワカヤマシ,ホリドメミナミノチョウ,和歌山県和歌山市堀止南ノ丁
6410042,和歌山県,和歌山市,新堀東,ワカヤマケン,ワカヤマシ,シンボリヒガシ,和歌山県和歌山市新堀東
6410043,和歌山県,和歌山市,宇須,ワカヤマケン,ワカヤマシ,ウズ,和歌山県和歌山市宇須
6410044,和歌山県,和歌山市,今福,ワカヤマケン,ワカヤマシ,イマブク,和歌山県和歌山市今福
6410045,和歌山県,和歌山市,堀止西,ワカヤマケン,ワカヤマシ,ホリドメニシ,和歌山県和歌山市堀止西
6410051,和歌山県,和歌山市,西高松,ワカヤマケン,ワカヤマシ,ニシタカマツ,和歌山県和歌山市西高松
6410052,和歌山県,和歌山市,東高松,ワカヤマケン,ワカヤマシ,ヒガシタカマツ,和歌山県和歌山市東高松
6410053,和歌山県,和歌山市,打越町,ワカヤマケン,ワカヤマシ,ウチコシチョウ,和歌山県和歌山市打越町
6410054,和歌山県,和歌山市,塩屋,ワカヤマケン,ワカヤマシ,シオヤ,和歌山県和歌山市塩屋
6410055,和歌山県,和歌山市,和歌川町,ワカヤマケン,ワカヤマシ,ワカガワチョウ,和歌山県和歌山市和歌川町
6410056,和歌山県,和歌山市,秋葉町,ワカヤマケン,ワカヤマシ,アキバチョウ,和歌山県和歌山市秋葉町
6410061,和歌山県,和歌山市,田野,ワカヤマケン,ワカヤマシ,タノ,和歌山県和歌山市田野
6410062,和歌山県,和歌山市,雑賀崎,ワカヤマケン,ワカヤマシ,サイカザキ,和歌山県和歌山市雑賀崎
6420000,和歌山県,海南市,,ワカヤマケン,カイナンシ,,和歌山県海南市
6420001,和歌山県,海南市,船尾,ワカヤマケン,カイナンシ,フノオ,和歌山県海南市船尾
6420002,和歌山県,海南市,日方,ワカヤマケン,カイナンシ,ヒカタ,和歌山県海南市日方
6420003,和歌山県,海南市,山崎町,ワカヤマケン,カイナンシ,ヤマサキチョウ,和歌山県海南市山崎町
6420004,和歌山県,海南市,馬場町,ワカヤマケン,カイナンシ,ババチョウ,和歌山県海南市馬場町
6420011,和歌山県,海南市,黒江,ワカヤマケン,カイナンシ,クロエ,和歌山県海南市黒江
6420012,和歌山県,海南市,岡田,ワカヤマケン,カイナンシ,オカダ,和歌山県海南市岡田
6420013,和歌山県,海南市,多田,ワカヤマケン,カイナンシ,オオタ,和歌山県海南市多田
6420014,和歌山県,海南市,小野田,ワカヤマケン,カイナンシ,オノダ,和歌山県海南市小野田
6420015,和歌山県,海南市,且来,ワカヤマケン,カイナンシ,アッソ,和歌山県海南市且来
6420016,和歌山県,海南市,北赤坂,ワカヤマケン,カイナンシ,キタアカサカ,和歌山県海南市北赤坂
6420017,和歌山県,海南市,南赤坂,ワカヤマケン,カイナンシ,ミナミアカサカ,和歌山県海南市南赤坂
6420018,和歌山県,海南市,重根東,ワカヤマケン,カイナンシ,シコネヒガシ,和歌山県海南市重根東
6420019,和歌山県,海南市,重根西,ワカヤマケン,カイナンシ,シコネニシ,和歌山県海南市重根西
6420021,和歌山県,海南市,井田,ワカヤマケン,カイナンシ,イダ,和歌山県海南市井田
6420022,和歌山県,海南市,大野中,ワカヤマケン,カイナンシ,オオノナカ,和歌山県海南市大野中
6420023,和歌山県,海南市,重根,ワカヤマケン,カイナンシ,シコネ,和歌山県海南市重根
6420024,和歌山県,海南市,阪井,ワカヤマケン,カイナンシ,サカイ,和歌山県海南市阪井
6420025,和歌山県,海南市,東畑,ワカヤマケン,カイナンシ,ヒガシバタ,和歌山県海南市東畑
6420026,和歌山県,海南市,別所,ワカヤマケン,カイナンシ,ベッシヨ,和歌山県海南市別所
6420027,和歌山県,海南市,扱沢,ワカヤマケン,カイナンシ,グミザワ,和歌山県海南市扱沢
6420028,和歌山県,海南市,幡川,ワカヤマケン,カイナンシ,ハタガワ,和歌山県海南市幡川
6420029,和歌山県,海南市,山田,ワカヤマケン,カイナンシ,ヤマダ,和歌山県海南市山田
6420031,和歌山県,海南市,築地,ワカヤマケン,カイナンシ,ツキジ,和歌山県海南市築地
6420032,和歌山県,海南市,名高,ワカヤマケン,カイナンシ,ナタカ,和歌山県海南市名高
6420033,和歌山県,海南市,鳥居,ワカヤマケン,カイナンシ,トリイ,和歌山県海南市鳥居
6420034,和歌山県,海南市,藤白,ワカヤマケン,カイナンシ,フジシロ,和歌山県海南市藤白
6420035,和歌山県,海南市,冷水,ワカヤマケン,カイナンシ,シミズ,和歌山県海南市冷水
6430000,和歌山県,有田郡広川町,,ワカヤマケン,アリダグンヒロガワチョウ,,和歌山県有田郡広川町
6430000,和歌山県,有田郡有田川町,,ワカヤマケン,アリダグンアリダガワチョウ,,和歌山県有田郡有田川町
6430000,和歌山県,有田郡湯浅町,,ワカヤマケン,アリダグンユアサチョウ,,和歌山県有田郡湯浅町
6430001,和歌山県,有田郡湯浅町,山田,ワカヤマケン,アリダグンユアサチョウ,ヤマダ,和歌山県有田郡湯浅町山田
6430002,和歌山県,有田郡湯浅町,青木,ワカヤマケン,アリダグンユアサチョウ,アオキ,和歌山県有田郡湯浅町青木
6430003,和歌山県,有田郡湯浅町,別所,ワカヤマケン,アリダグンユアサチョウ,ベッシヨ,和歌山県有田郡湯浅町別所
6430004,和歌山県,有田郡湯浅町,湯浅,ワカヤマケン,アリダグンユアサチョウ,ユアサ,和歌山県有田郡湯浅町湯浅
6430005,和歌山県,有田郡湯浅町,栖原,ワカヤマケン,アリダグンユアサチョウ,スハラ,和歌山県有田郡湯浅町栖原
6430006,和歌山県,有田郡湯浅町,田,ワカヤマケン,アリダグンユアサチョウ,タ,和歌山県有田郡湯浅町田
6430007,和歌山県,有田郡湯浅町,吉川,ワカヤマケン,アリダグンユアサチョウ,ヨシカワ,和歌山県有田郡湯浅町吉川
6430021,和歌山県,有田郡有田川町,下津野,ワカヤマケン,アリダグンアリダガワチョウ,シモツノ,和歌山県有田郡有田川町下津野
6430022,和歌山県,有田郡有田川町,奥,ワカヤマケン,アリダグンアリダガワチョウ,オキ,和歌山県有田郡有田川町奥
6430023,和歌山県,有田郡有田川町,熊井,ワカヤマケン,アリダグンアリダガワチョウ,クマイ,和歌山県有田郡有田川町熊井
6430024,和歌山県,有田郡有田川町,水尻,ワカヤマケン,アリダグンアリダガワチョウ,ミズシリ,和歌山県有田郡有田川町水尻
6430025,和歌山県,有田郡有田川町,土生,ワカヤマケン,アリダグンアリダガワチョウ,ハブ,和歌山県有田郡有田川町土生
6430026,和歌山県,有田郡有田川町,植野,ワカヤマケン,アリダグンアリダガワチョウ,ウエノ,和歌山県有田郡有田川町植野
6430031,和歌山県,有田郡有田川町,野田,ワカヤマケン,アリダグンアリダガワチョウ,ノダ,和歌山県有田郡有田川町野田
6430032,和歌山県,有田郡有田川町,天満,ワカヤマケン,アリダグンアリダガワチョウ,テンマ,和歌山県有田郡有田川町天満
6430033,和歌山県,有田郡有田川町,明王寺,ワカヤマケン,アリダグンアリダガワチョウ,ミョウジ,和歌山県有田郡有田川町明王寺
6430034,和歌山県,有田郡有田川町,小島,ワカヤマケン,アリダグンアリダガワチョウ,オシマ,和歌山県有田郡有田川町小島
6430051,和歌山県,有田郡広川町,下津木,ワカヤマケン,アリダグンヒロガワチョウ,シモツギ,和歌山県有田郡広川町下津木
6430052,和歌山県,有田郡広川町,上津木,ワカヤマケン,アリダグンヒロガワチョウ,カミツギ,和歌山県有田郡広川町上津木
6430053,和歌山県,有田郡広川町,河瀬,ワカヤマケン,アリダグンヒロガワチョウ,ゴノセ,和歌山県有田郡広川町河瀬
6430054,和歌山県,有田郡広川町,前田,ワカヤマケン,アリダグンヒロガワチョウ,マエダ,和歌山県有田郡広川町前田
6430055,和歌山県,有田郡広川町,井関,ワカヤマケン,アリダグンヒロガワチョウ,イセキ,和歌山県有田郡広川町井関
6430061,和歌山県,有田郡広川町,柳瀬,ワカヤマケン,アリダグンヒロガワチョウ,ヤナセ,和歌山県有田郡広川町柳瀬
6430062,和歌山県,有田郡広川町,殿,ワカヤマケン,アリダグンヒロガワチョウ,トノ,和歌山県有田郡広川町殿
6430063,和歌山県,有田郡広川町,南金屋,ワカヤマケン,アリダグンヒロガワチョウ,ミナミカナヤ,和歌山県有田郡広川町南金屋
6430064,和歌山県,有田郡広川町,上中野,ワカヤマケン,アリダグンヒロガワチョウ,カミナカノ,和歌山県有田郡広川町上中野
6430065,和歌山県,有田郡広川町,東中,ワカヤマケン,アリダグンヒロガワチョウ,ヒガシナカ,和歌山県有田郡広川町東中
6430066,和歌山県,有田郡広川町,名島,ワカヤマケン,アリダグンヒロガワチョウ,ナシマ,和歌山県有田郡広川町名島
6430071,和歌山県,有田郡広川町,広,ワカヤマケン,アリダグンヒロガワチョウ,ヒロ,和歌山県有田郡広川町広
6430072,和歌山県,有田郡広川町,山本,ワカヤマケン,アリダグンヒロガワチョウ,ヤマモト,和歌山県有田郡広川町山本
6430073,和歌山県,有田郡広川町,唐尾,ワカヤマケン,アリダグンヒロガワチョウ,カロ,和歌山県有田郡広川町唐尾
6430074,和歌山県,有田郡広川町,西広,ワカヤマケン,アリダグンヒロガワチョウ,ニシヒロ,和歌山県有田郡広川町西広
6430075,和歌山県,有田郡広川町,和田,ワカヤマケン,アリダグンヒロガワチョウ,ワダ,和歌山県有田郡広川町和田
6430121,和歌山県,有田郡有田川町,彦ケ瀬,ワカヤマケン,アリダグンアリダガワチョウ,ヒコガセ,和歌山県有田郡有田川町彦ケ瀬
6430122,和歌山県,有田郡有田川町,瀬井,ワカヤマケン,アリダグンアリダガワチョウ,セイ,和歌山県有田郡有田川町瀬井
6430123,和歌山県,有田郡有田川町,中,ワカヤマケン,アリダグンアリダガワチョウ,ナカ,和歌山県有田郡有田川町中
6430124,和歌山県,有田郡有田川町,中峯,ワカヤマケン,アリダグンアリダガワチョウ,ナカミネ,和歌山県有田郡有田川町中峯
6430125,和歌山県,有田郡有田川町,沼田,ワカヤマケン,アリダグンアリダガワチョウ,ヌタダ,和歌山県有田郡有田川町沼田
6430126,和歌山県,有田郡有田川町,本堂,ワカヤマケン,アリダグンアリダガワチョウ,ホンドウ,和歌山県有田郡有田川町本堂
6430127,和歌山県,有田郡有田川町,有原,ワカヤマケン,アリダグンアリダガワチョウ,アリハラ,和歌山県有田郡有田川町有原
6430128,和歌山県,有田郡有田川町,西ケ峯,ワカヤマケン,アリダグンアリダガワチョウ,ニシガミネ,和歌山県有田郡有田川町西ケ峯
6430129,和歌山県,有田郡有田川町,畦田,ワカヤマケン,アリダグンアリダガワチョウ,アゼタ,和歌山県有田郡有田川町畦田
6430131,和歌山県,有田郡有田川町,生石,ワカヤマケン,アリダグンアリダガワチョウ,オイシ,和歌山県有田郡有田川町生石
6430132,和歌山県,有田郡有田川町,小原,ワカヤマケン,アリダグンアリダガワチョウ,オハラ,和歌山県有田郡有田川町小原
6430133,和歌山県,有田郡有田川町,尾上,ワカヤマケン,アリダグンアリダガワチョウ,オノウエ,和歌山県有田郡有田川町尾上
6430134,和歌山県,有田郡有田川町,大薗,ワカヤマケン,アリダグンアリダガワチョウ,オオソノ,和歌山県有田郡有田川町大薗
6430135,和歌山県,有田郡有田川町,大西,ワカヤマケン,アリダグンアリダガワチョウ,オオニシ,和歌山県有田郡有田川町大西
6430136,和歌山県,有田郡有田川町,青田,ワカヤマケン,アリダグンアリダガワチョウ,アオタ,和歌山県有田郡有田川町青田
6430137,和歌山県,有田郡有田川町,延坂,ワカヤマケン,アリダグンアリダガワチョウ,ノブサカ,和歌山県有田郡有田川町延坂
6430141,和歌山県,有田郡有田川町,伏羊,ワカヤマケン,アリダグンアリダガワチョウ,ブヨウ,和歌山県有田郡有田川町伏羊
6430142,和歌山県,有田郡有田川町,小川,ワカヤマケン,アリダグンアリダガワチョウ,オガワ,和歌山県有田郡有田川町小川
6430143,和歌山県,有田郡有田川町,中野,ワカヤマケン,アリダグンアリダガワチョウ,ナカノ,和歌山県有田郡有田川町中野
6430144,和歌山県,有田郡有田川町,市場,ワカヤマケン,アリダグンアリダガワチョウ,イチバ,和歌山県有田郡有田川町市場
6430151,和歌山県,有田郡有田川町,長谷川,ワカヤマケン,アリダグンアリダガワチョウ,ハセガワ,和歌山県有田郡有田川町長谷川
6430152,和歌山県,有田郡有田川町,金屋,ワカヤマケン,アリダグンアリダガワチョウ,カナヤ,和歌山県有田郡有田川町金屋
6430153,和歌山県,有田郡有田川町,中井原,ワカヤマケン,アリダグンアリダガワチョウ,ナカイバラ,和歌山県有田郡有田川町中井原
6430161,和歌山県,有田郡有田川町,歓喜寺,ワカヤマケン,アリダグンアリダガワチョウ,カンギジ,和歌山県有田郡有田川町歓喜寺
6430162,和歌山県,有田郡有田川町,松原,ワカヤマケン,アリダグンアリダガワチョウ,マツバラ,和歌山県有田郡有田川町松原
6430163,和歌山県,有田郡有田川町,修理川,ワカヤマケン,アリダグンアリダガワチョウ,スリガワ,和歌山県有田郡有田川町修理川
6430164,和歌山県,有田郡有田川町,宇井苔,ワカヤマケン,アリダグンアリダガワチョウ,ウイゴケ,和歌山県有田郡有田川町宇井苔
6430165,和歌山県,有田郡有田川町,糸川,ワカヤマケン,アリダグンアリダガワチョウ,イトガワ,和歌山県有田郡有田川町糸川
6430166,和歌山県,有田郡有田川町,吉原,ワカヤマケン,アリダグンアリダガワチョウ,ヨシハラ,和歌山県有田郡有田川町吉原
6430171,和歌山県,有田郡有田川町,上六川,ワカヤマケン,アリダグンアリダガワチョウ,カミムツガワ,和歌山県有田郡有田川町上六川
6430172,和歌山県,有田郡有田川町,黒松,ワカヤマケン,アリダグンアリダガワチョウ,クロマツ,和歌山県有田郡有田川町黒松
6430173,和歌山県,有田郡有田川町,下六川,ワカヤマケン,アリダグンアリダガワチョウ,シモムツガワ,和歌山県有田郡有田川町下六川
6430174,和歌山県,有田郡有田川町,糸野,ワカヤマケン,アリダグンアリダガワチョウ,イトノ,和歌山県有田郡有田川町糸野
6430175,和歌山県,有田郡有田川町,丹生,ワカヤマケン,アリダグンアリダガワチョウ,ニウ,和歌山県有田郡有田川町丹生
6430176,和歌山県,有田郡有田川町,釜中,ワカヤマケン,アリダグンアリダガワチョウ,カマナカ,和歌山県有田郡有田川町釜中
6430311,和歌山県,有田郡有田川町,谷,ワカヤマケン,アリダグンアリダガワチョウ,タニ,和歌山県有田郡有田川町谷
6430312,和歌山県,有田郡有田川町,岩野河,ワカヤマケン,アリダグンアリダガワチョウ,イワノガワ,和歌山県有田郡有田川町岩野河
6430313,和歌山県,有田郡有田川町,川口,ワカヤマケン,アリダグンアリダガワチョウ,カワグチ,和歌山県有田郡有田川町川口
6430314,和歌山県,有田郡有田川町,立石,ワカヤマケン,アリダグンアリダガワチョウ,タテイシ,和歌山県有田郡有田川町立石
6430361,和歌山県,有田郡有田川町,三瀬川,ワカヤマケン,アリダグンアリダガワチョウ,ミセガワ,和歌山県有田郡有田川町三瀬川
6430362,和歌山県,有田郡有田川町,北野川,ワカヤマケン,アリダグンアリダガワチョウ,キタノカワ,和歌山県有田郡有田川町北野川
6430363,和歌山県,有田郡有田川町,二沢,ワカヤマケン,アリダグンアリダガワチョウ,ニサワ,和歌山県有田郡有田川町二沢
6430364,和歌山県,有田郡有田川町,川合,ワカヤマケン,アリダグンアリダガワチョウ,カワイ,和歌山県有田郡有田川町川合
6430365,和歌山県,有田郡有田川町,中原,ワカヤマケン,アリダグンアリダガワチョウ,ナカハラ,和歌山県有田郡有田川町中原
6430366,和歌山県,有田郡有田川町,粟生,ワカヤマケン,アリダグンアリダガワチョウ,アオ,和歌山県有田郡有田川町粟生
6430511,和歌山県,有田郡有田川町,三田,ワカヤマケン,アリダグンアリダガワチョウ,ミタ,和歌山県有田郡有田川町三田
6430512,和歌山県,有田郡有田川町,宮川,ワカヤマケン,アリダグンアリダガワチョウ,ミヤガワ,和歌山県有田郡有田川町宮川
6430513,和歌山県,有田郡有田川町,大蔵,ワカヤマケン,アリダグンアリダガワチョウ,オオゾウ,和歌山県有田郡有田川町大蔵
6430514,和歌山県,有田郡有田川町,久野原,ワカヤマケン,アリダグンアリダガワチョウ,クノハラ,和歌山県有田郡有田川町久野原
6430515,和歌山県,有田郡有田川町,室川,ワカヤマケン,アリダグンアリダガワチョウ,ムロガワ,和歌山県有田郡有田川町室川
6430521,和歌山県,有田郡有田川町,清水,ワカヤマケン,アリダグンアリダガワチョウ,シミズ,和歌山県有田郡有田川町清水
6430522,和歌山県,有田郡有田川町,下湯川,ワカヤマケン,アリダグンアリダガワチョウ,シモユカワ,和歌山県有田郡有田川町下湯川
6430531,和歌山県,有田郡有田川町,楠本,ワカヤマケン,アリダグンアリダガワチョウ,クスモト,和歌山県有田郡有田川町楠本
6430532,和歌山県,有田郡有田川町,沼,ワカヤマケン,アリダグンアリダガワチョウ,ヌマ,和歌山県有田郡有田川町沼
6430533,和歌山県,有田郡有田川町,遠井,ワカヤマケン,アリダグンアリダガワチョウ,トイ,和歌山県有田郡有田川町遠井
6430541,和歌山県,有田郡有田川町,東大谷,ワカヤマケン,アリダグンアリダガワチョウ,ヒガシオオダニ,和歌山県有田郡有田川町東大谷
6430542,和歌山県,有田郡有田川町,二川,ワカヤマケン,アリダグンアリダガワチョウ,フタガワ,和歌山県有田郡有田川町二川
6430543,和歌山県,有田郡有田川町,日物川,ワカヤマケン,アリダグンアリダガワチョウ,ヒモノガワ,和歌山県有田郡有田川町日物川
6430544,和歌山県,有田郡有田川町,境川,ワカヤマケン,アリダグンアリダガワチョウ,サカイガワ,和歌山県有田郡有田川町境川
6430551,和歌山県,有田郡有田川町,上湯川,ワカヤマケン,アリダグンアリダガワチョウ,カミユカワ,和歌山県有田郡有田川町上湯川
6430601,和歌山県,有田郡有田川町,押手,ワカヤマケン,アリダグンアリダガワチョウ,オシテ,和歌山県有田郡有田川町押手
6430602,和歌山県,有田郡有田川町,杉野原,ワカヤマケン,アリダグンアリダガワチョウ,スギノハラ,和歌山県有田郡有田川町杉野原
6430603,和歌山県,有田郡有田川町,板尾,ワカヤマケン,アリダグンアリダガワチョウ,イタオ,和歌山県有田郡有田川町板尾
6430604,和歌山県,有田郡有田川町,井谷,ワカヤマケン,アリダグンアリダガワチョウ,イダニ,和歌山県有田郡有田川町井谷
6430605,和歌山県,有田郡有田川町,沼谷,ワカヤマケン,アリダグンアリダガワチョウ,ヌマタニ,和歌山県有田郡有田川町沼谷
6430611,和歌山県,伊都郡かつらぎ町,花園梁瀬,ワカヤマケン,イトグンカツラギチョウ,ハナゾノヤナセ,和歌山県伊都郡かつらぎ町花園梁瀬
6430612,和歌山県,伊都郡かつらぎ町,花園北寺,ワカヤマケン,イトグンカツラギチョウ,ハナゾノキタデラ,和歌山県伊都郡かつらぎ町花園北寺
6430613,和歌山県,伊都郡かつらぎ町,花園池ノ窪,ワカヤマケン,イトグンカツラギチョウ,ハナゾノイケノクボ,和歌山県伊都郡かつらぎ町花園池ノ窪
6430614,和歌山県,伊都郡かつらぎ町,花園新子,ワカヤマケン,イトグンカツラギチョウ,ハナゾノアタラシ,和歌山県伊都郡かつらぎ町花園新子
6430801,和歌山県,有田郡有田川町,徳田,ワカヤマケン,アリダグンアリダガワチョウ,トクダ,和歌山県有田郡有田川町徳田
6430802,和歌山県,有田郡有田川町,吉見,ワカヤマケン,アリダグンアリダガワチョウ,ヨシミ,和歌山県有田郡有田川町吉見
6430803,和歌山県,有田郡有田川町,東丹生図,ワカヤマケン,アリダグンアリダガワチョウ,ヒガシニュウノズ,和歌山県有田郡有田川町東丹生図
6430811,和歌山県,有田郡有田川町,庄,ワカヤマケン,アリダグンアリダガワチョウ,ショウ,和歌山県有田郡有田川町庄
6430812,和歌山県,有田郡有田川町,垣倉,ワカヤマケン,アリダグンアリダガワチョウ,カイグラ,和歌山県有田郡有田川町垣倉
6430813,和歌山県,有田郡有田川町,西丹生図,ワカヤマケン,アリダグンアリダガワチョウ,ニシニュウノズ,和歌山県有田郡有田川町西丹生図
6430841,和歌山県,有田郡有田川町,長谷,ワカヤマケン,アリダグンアリダガワチョウ,ナガタニ,和歌山県有田郡有田川町長谷
6430842,和歌山県,有田郡有田川町,船坂,ワカヤマケン,アリダグンアリダガワチョウ,フナサカ,和歌山県有田郡有田川町船坂
6430843,和歌山県,有田郡有田川町,賢,ワカヤマケン,アリダグンアリダガワチョウ,カシコ,和歌山県有田郡有田川町賢
6430844,和歌山県,有田郡有田川町,井口,ワカヤマケン,アリダグンアリダガワチョウ,イノクチ,和歌山県有田郡有田川町井口
6430845,和歌山県,有田郡有田川町,大谷,ワカヤマケン,アリダグンアリダガワチョウ,オオタニ,和歌山県有田郡有田川町大谷
6430846,和歌山県,有田郡有田川町,田口,ワカヤマケン,アリダグンアリダガワチョウ,タグチ,和歌山県有田郡有田川町田口
6430847,和歌山県,有田郡有田川町,大賀畑,ワカヤマケン,アリダグンアリダガワチョウ,オオカハタ,和歌山県有田郡有田川町大賀畑
6430848,和歌山県,有田郡有田川町,田角,ワカヤマケン,アリダグンアリダガワチョウ,タズミ,和歌山県有田郡有田川町田角
6430851,和歌山県,有田郡有田川町,出,ワカヤマケン,アリダグンアリダガワチョウ,イデ,和歌山県有田郡有田川町出
6430852,和歌山県,有田郡有田川町,尾中,ワカヤマケン,アリダグンアリダガワチョウ,オナカ,和歌山県有田郡有田川町尾中
6430853,和歌山県,有田郡有田川町,角,ワカヤマケン,アリダグンアリダガワチョウ,スミ,和歌山県有田郡有田川町角
6430854,和歌山県,有田郡有田川町,長田,ワカヤマケン,アリダグンアリダガワチョウ,ナガタ,和歌山県有田郡有田川町長田
6430855,和歌山県,有田郡有田川町,上中島,ワカヤマケン,アリダグンアリダガワチョウ,カミナカシマ,和歌山県有田郡有田川町上中島
6440000,和歌山県,御坊市,,ワカヤマケン,ゴボウシ,,和歌山県御坊市
6440000,和歌山県,日高郡美浜町,,ワカヤマケン,ヒダカグンミハマチョウ,,和歌山県日高郡美浜町
6440001,和歌山県,御坊市,御坊,ワカヤマケン,ゴボウシ,ゴボウ,和歌山県御坊市御坊
6440002,和歌山県,御坊市,薗,ワカヤマケン,ゴボウシ,ソノ,和歌山県御坊市薗
6440003,和歌山県,御坊市,島,ワカヤマケン,ゴボウシ,シマ,和歌山県御坊市島
6440004,和歌山県,御坊市,名屋,ワカヤマケン,ゴボウシ,ナヤ,和歌山県御坊市名屋
6440005,和歌山県,御坊市,名屋町,ワカヤマケン,ゴボウシ,ナヤチョウ,和歌山県御坊市名屋町
6440011,和歌山県,御坊市,湯川町財部,ワカヤマケン,ゴボウシ,ユカワチョウタカラ,和歌山県御坊市湯川町財部
6440012,和歌山県,御坊市,湯川町小松原,ワカヤマケン,ゴボウシ,ユカワチョウコマツバラ,和歌山県御坊市湯川町小松原
6440013,和歌山県,御坊市,湯川町丸山,ワカヤマケン,ゴボウシ,ユカワチョウマルヤマ,和歌山県御坊市湯川町丸山
6440014,和歌山県,御坊市,湯川町富安,ワカヤマケン,ゴボウシ,ユカワチョウトミヤス,和歌山県御坊市湯川町富安
6440015,和歌山県,御坊市,荊木,ワカヤマケン,ゴボウシ,イバラキ,和歌山県御坊市荊木
6440021,和歌山県,御坊市,名田町楠井,ワカヤマケン,ゴボウシ,ナダチョウクスイ,和歌山県御坊市名田町楠井
6440022,和歌山県,御坊市,名田町上野,ワカヤマケン,ゴボウシ,ナダチョウウエノ,和歌山県御坊市名田町上野
6440023,和歌山県,御坊市,名田町野島,ワカヤマケン,ゴボウシ,ナダチョウノシマ,和歌山県御坊市名田町野島
6440024,和歌山県,御坊市,塩屋町南塩屋,ワカヤマケン,ゴボウシ,シオヤチョウミナミシオヤ,和歌山県御坊市塩屋町南塩屋
6440025,和歌山県,御坊市,塩屋町北塩屋,ワカヤマケン,ゴボウシ,シオヤチョウキタシオヤ,和歌山県御坊市塩屋町北塩屋
6440031,和歌山県,御坊市,野口,ワカヤマケン,ゴボウシ,ノグチ,和歌山県御坊市野口
6440032,和歌山県,御坊市,岩内,ワカヤマケン,ゴボウシ,イワウチ,和歌山県御坊市岩内
6440033,和歌山県,御坊市,熊野,ワカヤマケン,ゴボウシ,イヤ,和歌山県御坊市熊野
6440034,和歌山県,御坊市,明神川,ワカヤマケン,ゴボウシ,ミョウジンガワ,和歌山県御坊市明神川
6440041,和歌山県,日高郡美浜町,田井,ワカヤマケン,ヒダカグンミハマチョウ,タイ,和歌山県日高郡美浜町田井
6440042,和歌山県,日高郡美浜町,浜ノ瀬,ワカヤマケン,ヒダカグンミハマチョウ,ハマノセ,和歌山県日高郡美浜町浜ノ瀬
6440043,和歌山県,日高郡美浜町,吉原,ワカヤマケン,ヒダカグンミハマチョウ,ヨシハラ,和歌山県日高郡美浜町吉原
6440044,和歌山県,日高郡美浜町,和田,ワカヤマケン,ヒダカグンミハマチョウ,ワダ,和歌山県日高郡美浜町和田
6440045,和歌山県,日高郡美浜町,三尾,ワカヤマケン,ヒダカグンミハマチョウ,ミオ,和歌山県日高郡美浜町三尾
6440201,和歌山県,日高郡印南町,川又,ワカヤマケン,ヒダカグンイナミチョウ,カワマタ,和歌山県日高郡印南町川又
6440202,和歌山県,日高郡印南町,上洞,ワカヤマケン,ヒダカグンイナミチョウ,カボラ,和歌山県日高郡印南町上洞
6440211,和歌山県,日高郡印南町,高串,ワカヤマケン,ヒダカグンイナミチョウ,タカクシ,和歌山県日高郡印南町高串
6440212,和歌山県,日高郡印南町,田ノ垣内,ワカヤマケン,ヒダカグンイナミチョウ,タノカイト,和歌山県日高郡印南町田ノ垣内
6440213,和歌山県,日高郡印南町,西神ノ川,ワカヤマケン,ヒダカグンイナミチョウ,ニシコウノガワ,和歌山県日高郡印南町西神ノ川
6440214,和歌山県,日高郡印南町,小原,ワカヤマケン,ヒダカグンイナミチョウ,コバラ,和歌山県日高郡印南町小原
6440215,和歌山県,日高郡印南町,皆瀬川,ワカヤマケン,ヒダカグンイナミチョウ,カイゼガワ,和歌山県日高郡印南町皆瀬川
6440216,和歌山県,日高郡印南町,崎ノ原,ワカヤマケン,ヒダカグンイナミチョウ,サキノハラ,和歌山県日高郡印南町崎ノ原
6440217,和歌山県,日高郡印南町,丹生,ワカヤマケン,ヒダカグンイナミチョウ,ニュウ,和歌山県日高郡印南町丹生
6440218,和歌山県,日高郡印南町,松原,ワカヤマケン,ヒダカグンイナミチョウ,マツバラ,和歌山県日高郡印南町松原
6441101,和歌山県,日高郡日高川町,藤野川,ワカヤマケン,ヒダカグンヒダカガワチョウ,トウノガワ,和歌山県日高郡日高川町藤野川
6441111,和歌山県,日高郡日高川町,船津,ワカヤマケン,ヒダカグンヒダカガワチョウ,フナツ,和歌山県日高郡日高川町船津
6441121,和歌山県,日高郡日高川町,西原,ワカヤマケン,ヒダカグンヒダカガワチョウ,ニシハラ,和歌山県日高郡日高川町西原
6441122,和歌山県,日高郡日高川町,高津尾,ワカヤマケン,ヒダカグンヒダカガワチョウ,タカツオ,和歌山県日高郡日高川町高津尾
6441123,和歌山県,日高郡日高川町,高津尾川,ワカヤマケン,ヒダカグンヒダカガワチョウ,タカツオガワ,和歌山県日高郡日高川町高津尾川
6441131,和歌山県,日高郡日高川町,三十井川,ワカヤマケン,ヒダカグンヒダカガワチョウ,ミソイガワ,和歌山県日高郡日高川町三十井川
6441132,和歌山県,日高郡日高川町,姉子,ワカヤマケン,ヒダカグンヒダカガワチョウ,アネコ,和歌山県日高郡日高川町姉子
6441133,和歌山県,日高郡日高川町,原日浦,ワカヤマケン,ヒダカグンヒダカガワチョウ,ハラビウラ,和歌山県日高郡日高川町原日浦
6441134,和歌山県,日高郡日高川町,三十木,ワカヤマケン,ヒダカグンヒダカガワチョウ,ミソギ,和歌山県日高郡日高川町三十木
6441141,和歌山県,日高郡日高川町,上田原,ワカヤマケン,ヒダカグンヒダカガワチョウ,カミタハラ,和歌山県日高郡日高川町上田原
6441142,和歌山県,日高郡日高川町,下田原,ワカヤマケン,ヒダカグンヒダカガワチョウ,シモタハラ,和歌山県日高郡日高川町下田原
6441143,和歌山県,日高郡日高川町,小釜本,ワカヤマケン,ヒダカグンヒダカガワチョウ,コカモト,和歌山県日高郡日高川町小釜本
6441151,和歌山県,日高郡日高川町,田尻,ワカヤマケン,ヒダカグンヒダカガワチョウ,タジリ,和歌山県日高郡日高川町田尻
6441152,和歌山県,日高郡日高川町,三佐,ワカヤマケン,ヒダカグンヒダカガワチョウ,ミザ,和歌山県日高郡日高川町三佐
6441161,和歌山県,日高郡日高川町,坂野川,ワカヤマケン,ヒダカグンヒダカガワチョウ,サカノガワ,和歌山県日高郡日高川町坂野川
6441162,和歌山県,日高郡日高川町,老星,ワカヤマケン,ヒダカグンヒダカガワチョウ,オイボシ,和歌山県日高郡日高川町老星
6441163,和歌山県,日高郡日高川町,大又,ワカヤマケン,ヒダカグンヒダカガワチョウ,オオマタ,和歌山県日高郡日高川町大又
6441164,和歌山県,日高郡日高川町,佐井,ワカヤマケン,ヒダカグンヒダカガワチョウ,サイ,和歌山県日高郡日高川町佐井
6441201,和歌山県,日高郡日高川町,川原河,ワカヤマケン,ヒダカグンヒダカガワチョウ,カワハラゴウ,和歌山県日高郡日高川町川原河
6441211,和歌山県,日高郡日高川町,弥谷,ワカヤマケン,ヒダカグンヒダカガワチョウ,イヤダニ,和歌山県日高郡日高川町弥谷
6441212,和歌山県,日高郡日高川町,皆瀬,ワカヤマケン,ヒダカグンヒダカガワチョウ,カイゼ,和歌山県日高郡日高川町皆瀬
6441213,和歌山県,日高郡日高川町,愛川,ワカヤマケン,ヒダカグンヒダカガワチョウ,アタイガワ,和歌山県日高郡日高川町愛川
6441214,和歌山県,日高郡日高川町,上初湯川,ワカヤマケン,ヒダカグンヒダカガワチョウ,カミウブユガワ,和歌山県日高郡日高川町上初湯川
6441221,和歌山県,日高郡日高川町,寒川,ワカヤマケン,ヒダカグンヒダカガワチョウ,ソウガワ,和歌山県日高郡日高川町寒川
6441222,和歌山県,日高郡日高川町,串本,ワカヤマケン,ヒダカグンヒダカガワチョウ,クシモト,和歌山県日高郡日高川町串本
6441231,和歌山県,日高郡日高川町,初湯川,ワカヤマケン,ヒダカグンヒダカガワチョウ,ウブユガワ,和歌山県日高郡日高川町初湯川
6441241,和歌山県,日高郡日高川町,滝頭,ワカヤマケン,ヒダカグンヒダカガワチョウ,タキガシラ,和歌山県日高郡日高川町滝頭
6441242,和歌山県,日高郡日高川町,熊野川,ワカヤマケン,ヒダカグンヒダカガワチョウ,クマノガワ,和歌山県日高郡日高川町熊野川
6441243,和歌山県,日高郡日高川町,浅間,ワカヤマケン,ヒダカグンヒダカガワチョウ,アサマ,和歌山県日高郡日高川町浅間
6441244,和歌山県,日高郡日高川町,上越方,ワカヤマケン,ヒダカグンヒダカガワチョウ,カミコシカタ,和歌山県日高郡日高川町上越方
6450000,和歌山県,日高郡みなべ町,,ワカヤマケン,ヒダカグンミナベチョウ,,和歌山県日高郡みなべ町
6450001,和歌山県,日高郡みなべ町,東吉田,ワカヤマケン,ヒダカグンミナベチョウ,ヒガシヨシダ,和歌山県日高郡みなべ町東吉田
6450002,和歌山県,日高郡みなべ町,芝,ワカヤマケン,ヒダカグンミナベチョウ,シバ,和歌山県日高郡みなべ町芝
6450003,和歌山県,日高郡みなべ町,堺,ワカヤマケン,ヒダカグンミナベチョウ,サカイ,和歌山県日高郡みなべ町堺
6450004,和歌山県,日高郡みなべ町,埴田,ワカヤマケン,ヒダカグンミナベチョウ,ハネタ,和歌山県日高郡みなべ町埴田
6450005,和歌山県,日高郡みなべ町,南道,ワカヤマケン,ヒダカグンミナベチョウ,ミナミドウ,和歌山県日高郡みなべ町南道
6450006,和歌山県,日高郡みなべ町,北道,ワカヤマケン,ヒダカグンミナベチョウ,キタドウ,和歌山県日高郡みなべ町北道
6450011,和歌山県,日高郡みなべ町,気佐藤,ワカヤマケン,ヒダカグンミナベチョウ,キサト,和歌山県日高郡みなべ町気佐藤
6450012,和歌山県,日高郡みなべ町,山内,ワカヤマケン,ヒダカグンミナベチョウ,ヤマウチ,和歌山県日高郡みなべ町山内
6450013,和歌山県,日高郡みなべ町,東岩代,ワカヤマケン,ヒダカグンミナベチョウ,ヒガシイワシロ,和歌山県日高郡みなべ町東岩代
6450014,和歌山県,日高郡みなべ町,西岩代,ワカヤマケン,ヒダカグンミナベチョウ,ニシイワシロ,和歌山県日高郡みなべ町西岩代
6450021,和歌山県,日高郡みなべ町,東本庄,ワカヤマケン,ヒダカグンミナベチョウ,ヒガシホンジョウ,和歌山県日高郡みなべ町東本庄
6450022,和歌山県,日高郡みなべ町,晩稲,ワカヤマケン,ヒダカグンミナベチョウ,オシネ,和歌山県日高郡みなべ町晩稲
6450023,和歌山県,日高郡みなべ町,熊岡,ワカヤマケン,ヒダカグンミナベチョウ,クマオカ,和歌山県日高郡みなべ町熊岡
6450024,和歌山県,日高郡みなべ町,徳蔵,ワカヤマケン,ヒダカグンミナベチョウ,トクゾウ,和歌山県日高郡みなべ町徳蔵
6450025,和歌山県,日高郡みなべ町,筋,ワカヤマケン,ヒダカグンミナベチョウ,スジ,和歌山県日高郡みなべ町筋
6450026,和歌山県,日高郡みなべ町,谷口,ワカヤマケン,ヒダカグンミナベチョウ,タニグチ,和歌山県日高郡みなべ町谷口
6450027,和歌山県,日高郡みなべ町,西本庄,ワカヤマケン,ヒダカグンミナベチョウ,ニシホンジョウ,和歌山県日高郡みなべ町西本庄
6450028,和歌山県,日高郡みなべ町,熊瀬川,ワカヤマケン,ヒダカグンミナベチョウ,クマセガワ,和歌山県日高郡みなべ町熊瀬川
6450201,和歌山県,日高郡みなべ町,清川,ワカヤマケン,ヒダカグンミナベチョウ,キヨカワ,和歌山県日高郡みなべ町清川
6450202,和歌山県,日高郡みなべ町,東神野川,ワカヤマケン,ヒダカグンミナベチョウ,ヒガシコウノガワ,和歌山県日高郡みなべ町東神野川
6450203,和歌山県,日高郡みなべ町,島之瀬,ワカヤマケン,ヒダカグンミナベチョウ,シマノセ,和歌山県日高郡みなべ町島之瀬
6450204,和歌山県,日高郡みなべ町,広野,ワカヤマケン,ヒダカグンミナベチョウ,ヒロノ,和歌山県日高郡みなべ町広野
6450205,和歌山県,日高郡みなべ町,滝,ワカヤマケン,ヒダカグンミナベチョウ,タキ,和歌山県日高郡みなべ町滝
6450206,和歌山県,日高郡みなべ町,土井,ワカヤマケン,ヒダカグンミナベチョウ,ドイ,和歌山県日高郡みなべ町土井
6450207,和歌山県,日高郡みなべ町,高野,ワカヤマケン,ヒダカグンミナベチョウ,タカノ,和歌山県日高郡みなべ町高野
6450208,和歌山県,日高郡みなべ町,市井川,ワカヤマケン,ヒダカグンミナベチョウ,イチイガワ,和歌山県日高郡みなべ町市井川
6450301,和歌山県,田辺市,龍神村福井,ワカヤマケン,タナベシ,リュウジンムラフクイ,和歌山県田辺市龍神村福井
6450302,和歌山県,田辺市,龍神村甲斐ノ川,ワカヤマケン,タナベシ,リュウジンムラカイノガワ,和歌山県田辺市龍神村甲斐ノ川
6450303,和歌山県,田辺市,龍神村小家,ワカヤマケン,タナベシ,リュウジンムラオイエ,和歌山県田辺市龍神村小家
6450411,和歌山県,田辺市,龍神村宮代,ワカヤマケン,タナベシ,リュウジンムラミヤシロ,和歌山県田辺市龍神村宮代
6450412,和歌山県,田辺市,龍神村丹生ノ川,ワカヤマケン,タナベシ,リュウジンムラニュウノガワ,和歌山県田辺市龍神村丹生ノ川
6450413,和歌山県,田辺市,龍神村殿原,ワカヤマケン,タナベシ,リュウジンムラトノハラ,和歌山県田辺市龍神村殿原
6450414,和歌山県,田辺市,龍神村東,ワカヤマケン,タナベシ,リュウジンムラヒガシ,和歌山県田辺市龍神村東
6450415,和歌山県,田辺市,龍神村西,ワカヤマケン,タナベシ,リュウジンムラニシ,和歌山県田辺市龍神村西
6450416,和歌山県,田辺市,龍神村安井,ワカヤマケン,タナベシ,リュウジンムラヤスイ,和歌山県田辺市龍神村安井
6450417,和歌山県,田辺市,龍神村柳瀬,ワカヤマケン,タナベシ,リュウジンムラヤナセ,和歌山県田辺市龍神村柳瀬
6450521,和歌山県,田辺市,龍神村小又川,ワカヤマケン,タナベシ,リュウジンムラコマタガワ,和歌山県田辺市龍神村小又川
6450522,和歌山県,田辺市,龍神村三ツ又,ワカヤマケン,タナベシ,リュウジンムラミツマタ,和歌山県田辺市龍神村三ツ又
6450523,和歌山県,田辺市,龍神村広井原,ワカヤマケン,タナベシ,リュウジンムラヒロイハラ,和歌山県田辺市龍神村広井原
6450524,和歌山県,田辺市,龍神村湯ノ又,ワカヤマケン,タナベシ,リュウジンムラユノマタ,和歌山県田辺市龍神村湯ノ又
6450525,和歌山県,田辺市,龍神村龍神,ワカヤマケン,タナベシ,リュウジンムラリュウジン,和歌山県田辺市龍神村龍神
6450551,和歌山県,日高郡日高川町,寒川（小川）,ワカヤマケン,ヒダカグンヒダカガワチョウ,ソウガワ(オガワ),和歌山県日高郡日高川町寒川（小川）
6460000,和歌山県,田辺市,,ワカヤマケン,タナベシ,,和歌山県田辺市
6460001,和歌山県,田辺市,上秋津,ワカヤマケン,タナベシ,カミアキヅ,和歌山県田辺市上秋津
6460002,和歌山県,田辺市,上万呂,ワカヤマケン,タナベシ,カミマロ,和歌山県田辺市上万呂
6460003,和歌山県,田辺市,中万呂,ワカヤマケン,タナベシ,ナカマロ,和歌山県田辺市中万呂
6460004,和歌山県,田辺市,下万呂,ワカヤマケン,タナベシ,シモマロ,和歌山県田辺市下万呂
6460005,和歌山県,田辺市,秋津町,ワカヤマケン,タナベシ,アキヅチョウ,和歌山県田辺市秋津町
6460011,和歌山県,田辺市,新庄町,ワカヤマケン,タナベシ,シンジョウチョウ,和歌山県田辺市新庄町
6460012,和歌山県,田辺市,神島台,ワカヤマケン,タナベシ,カシマダイ,和歌山県田辺市神島台
6460013,和歌山県,田辺市,南新万,ワカヤマケン,タナベシ,ミナミシンマン,和歌山県田辺市南新万
6460014,和歌山県,田辺市,新万,ワカヤマケン,タナベシ,シンマン,和歌山県田辺市新万
6460015,和歌山県,田辺市,たきない町,ワカヤマケン,タナベシ,タキナイチョウ,和歌山県田辺市たきない町
6460021,和歌山県,田辺市,あけぼの,ワカヤマケン,タナベシ,アケボノ,和歌山県田辺市あけぼの
6460022,和歌山県,田辺市,東山,ワカヤマケン,タナベシ,ヒガシヤマ,和歌山県田辺市東山
6460023,和歌山県,田辺市,文里,ワカヤマケン,タナベシ,モリ,和歌山県田辺市文里
6460024,和歌山県,田辺市,学園,ワカヤマケン,タナベシ,ガクエン,和歌山県田辺市学園
6460025,和歌山県,田辺市,神子浜,ワカヤマケン,タナベシ,ミコノハマ,和歌山県田辺市神子浜
6460026,和歌山県,田辺市,宝来町,ワカヤマケン,タナベシ,ホウライチョウ,和歌山県田辺市宝来町
6460027,和歌山県,田辺市,朝日ヶ丘,ワカヤマケン,タナベシ,アサヒガオカ,和歌山県田辺市朝日ヶ丘
6460028,和歌山県,田辺市,高雄,ワカヤマケン,タナベシ,タカオ,和歌山県田辺市高雄
6460029,和歌山県,田辺市,東陽,ワカヤマケン,タナベシ,トウヨウ,和歌山県田辺市東陽
6460031,和歌山県,田辺市,湊,ワカヤマケン,タナベシ,ミナト,和歌山県田辺市湊
6460032,和歌山県,田辺市,下屋敷町,ワカヤマケン,タナベシ,シモヤシキマチ,和歌山県田辺市下屋敷町
6460033,和歌山県,田辺市,新屋敷町,ワカヤマケン,タナベシ,シンヤシキマチ,和歌山県田辺市新屋敷町
6460034,和歌山県,田辺市,扇ケ浜,ワカヤマケン,タナベシ,オウギガハマ,和歌山県田辺市扇ケ浜
6460035,和歌山県,田辺市,中屋敷町,ワカヤマケン,タナベシ,ナカヤシキマチ,和歌山県田辺市中屋敷町
6460036,和歌山県,田辺市,上屋敷,ワカヤマケン,タナベシ,カミヤシキ,和歌山県田辺市上屋敷
6460037,和歌山県,田辺市,磯間,ワカヤマケン,タナベシ,イソマ,和歌山県田辺市磯間
6460038,和歌山県,田辺市,末広町,ワカヤマケン,タナベシ,スエヒロチョウ,和歌山県田辺市末広町
6460041,和歌山県,田辺市,北新町,ワカヤマケン,タナベシ,キタシンマチ,和歌山県田辺市北新町
6460042,和歌山県,田辺市,南新町,ワカヤマケン,タナベシ,ミナミシンマチ,和歌山県田辺市南新町
6460043,和歌山県,田辺市,今福町,ワカヤマケン,タナベシ,イマフクマチ,和歌山県田辺市今福町
6460044,和歌山県,田辺市,福路町,ワカヤマケン,タナベシ,フクロマチ,和歌山県田辺市福路町
6460045,和歌山県,田辺市,片町,ワカヤマケン,タナベシ,カタマチ,和歌山県田辺市片町
6460046,和歌山県,田辺市,本町,ワカヤマケン,タナベシ,ホンマチ,和歌山県田辺市本町
6460047,和歌山県,田辺市,紺屋町,ワカヤマケン,タナベシ,コンヤマチ,和歌山県田辺市紺屋町
6460048,和歌山県,田辺市,栄町,ワカヤマケン,タナベシ,サカエマチ,和歌山県田辺市栄町
6460050,和歌山県,田辺市,天神崎,ワカヤマケン,タナベシ,テンジンザキ,和歌山県田辺市天神崎
6460051,和歌山県,田辺市,稲成町,ワカヤマケン,タナベシ,イナリチョウ,和歌山県田辺市稲成町
6460052,和歌山県,田辺市,むつみ,ワカヤマケン,タナベシ,ムツミ,和歌山県田辺市むつみ
6460053,和歌山県,田辺市,元町,ワカヤマケン,タナベシ,モトマチ,和歌山県田辺市元町
6460054,和歌山県,田辺市,江川,ワカヤマケン,タナベシ,エガワ,和歌山県田辺市江川
6460056,和歌山県,田辺市,芳養町,ワカヤマケン,タナベシ,ハヤチョウ,和歌山県田辺市芳養町
6460057,和歌山県,田辺市,中芳養,ワカヤマケン,タナベシ,ナカハヤ,和歌山県田辺市中芳養
6460058,和歌山県,田辺市,目良,ワカヤマケン,タナベシ,メラ,和歌山県田辺市目良
6460059,和歌山県,田辺市,古尾,ワカヤマケン,タナベシ,フルオ,和歌山県田辺市古尾
6460061,和歌山県,田辺市,上の山,ワカヤマケン,タナベシ,ウエノヤマ,和歌山県田辺市上の山
6460062,和歌山県,田辺市,明洋,ワカヤマケン,タナベシ,メイヨウ,和歌山県田辺市明洋
6460063,和歌山県,田辺市,芳養松原,ワカヤマケン,タナベシ,ハヤマツバラ,和歌山県田辺市芳養松原
6460101,和歌山県,田辺市,上芳養,ワカヤマケン,タナベシ,カミハヤ,和歌山県田辺市上芳養
6460102,和歌山県,田辺市,秋津川,ワカヤマケン,タナベシ,アキヅガワ,和歌山県田辺市秋津川
6460211,和歌山県,田辺市,伏菟野,ワカヤマケン,タナベシ,フドノ,和歌山県田辺市伏菟野
6460212,和歌山県,田辺市,上野,ワカヤマケン,タナベシ,ウエノ,和歌山県田辺市上野
6460213,和歌山県,田辺市,長野,ワカヤマケン,タナベシ,ナガノ,和歌山県田辺市長野
6460214,和歌山県,田辺市,上三栖,ワカヤマケン,タナベシ,カミミス,和歌山県田辺市上三栖
6460215,和歌山県,田辺市,中三栖,ワカヤマケン,タナベシ,ナカミス,和歌山県田辺市中三栖
6460216,和歌山県,田辺市,下三栖,ワカヤマケン,タナベシ,シモミス,和歌山県田辺市下三栖
6460217,和歌山県,田辺市,城山台,ワカヤマケン,タナベシ,シロヤマダイ,和歌山県田辺市城山台
6460301,和歌山県,西牟婁郡白浜町,市鹿野,ワカヤマケン,ニシムログンシラハマチョウ,イチカノ,和歌山県西牟婁郡白浜町市鹿野
6460302,和歌山県,西牟婁郡白浜町,上露,ワカヤマケン,ニシムログンシラハマチョウ,コウヅユ,和歌山県西牟婁郡白浜町上露
6460303,和歌山県,西牟婁郡白浜町,大瀬,ワカヤマケン,ニシムログンシラハマチョウ,オオセ,和歌山県西牟婁郡白浜町大瀬
6460304,和歌山県,西牟婁郡白浜町,竹垣内,ワカヤマケン,ニシムログンシラハマチョウ,タケガイト,和歌山県西牟婁郡白浜町竹垣内
6460305,和歌山県,西牟婁郡白浜町,北谷,ワカヤマケン,ニシムログンシラハマチョウ,キタダニ,和歌山県西牟婁郡白浜町北谷
6460311,和歌山県,西牟婁郡白浜町,小房,ワカヤマケン,ニシムログンシラハマチョウ,オブサ,和歌山県西牟婁郡白浜町小房
6460312,和歌山県,西牟婁郡白浜町,大,ワカヤマケン,ニシムログンシラハマチョウ,オオ,和歌山県西牟婁郡白浜町大
6460313,和歌山県,西牟婁郡白浜町,玉伝,ワカヤマケン,ニシムログンシラハマチョウ,タマデ,和歌山県西牟婁郡白浜町玉伝
6460314,和歌山県,西牟婁郡白浜町,里谷,ワカヤマケン,ニシムログンシラハマチョウ,サトダニ,和歌山県西牟婁郡白浜町里谷
6461101,和歌山県,田辺市,鮎川,ワカヤマケン,タナベシ,アユカワ,和歌山県田辺市鮎川
6461211,和歌山県,田辺市,和田,ワカヤマケン,タナベシ,ワダ,和歌山県田辺市和田
6461212,和歌山県,田辺市,下川上,ワカヤマケン,タナベシ,シモガワカミ,和歌山県田辺市下川上
6461213,和歌山県,田辺市,下川下,ワカヤマケン,タナベシ,シモガワシモ,和歌山県田辺市下川下
6461214,和歌山県,田辺市,平瀬,ワカヤマケン,タナベシ,ヒラセ,和歌山県田辺市平瀬
6461321,和歌山県,田辺市,熊野,ワカヤマケン,タナベシ,イヤ,和歌山県田辺市熊野
6461322,和歌山県,田辺市,面川,ワカヤマケン,タナベシ,メンガワ,和歌山県田辺市面川
6461323,和歌山県,田辺市,向山,ワカヤマケン,タナベシ,ムカイヤマ,和歌山県田辺市向山
6461324,和歌山県,田辺市,竹ノ平,ワカヤマケン,タナベシ,タケノタイラ,和歌山県田辺市竹ノ平
6461325,和歌山県,田辺市,小谷,ワカヤマケン,タナベシ,コダニ,和歌山県田辺市小谷
6461326,和歌山県,田辺市,深谷,ワカヤマケン,タナベシ,フカタニ,和歌山県田辺市深谷
6461331,和歌山県,田辺市,木守,ワカヤマケン,タナベシ,コモリ,和歌山県田辺市木守
6461332,和歌山県,田辺市,五味,ワカヤマケン,タナベシ,ゴミ,和歌山県田辺市五味
6461333,和歌山県,田辺市,東伏菟野,ワカヤマケン,タナベシ,ヒガシフドノ,和歌山県田辺市東伏菟野
6461334,和歌山県,田辺市,九川,ワカヤマケン,タナベシ,クガワ,和歌山県田辺市九川
6461335,和歌山県,田辺市,串,ワカヤマケン,タナベシ,クシ,和歌山県田辺市串
6461336,和歌山県,田辺市,谷野口,ワカヤマケン,タナベシ,タニノクチ,和歌山県田辺市谷野口
6461337,和歌山県,田辺市,下露,ワカヤマケン,タナベシ,シモツユ,和歌山県田辺市下露
6461338,和歌山県,田辺市,合川,ワカヤマケン,タナベシ,ゴウガワ,和歌山県田辺市合川
6461339,和歌山県,田辺市,長瀬,ワカヤマケン,タナベシ,ナガセ,和歌山県田辺市長瀬
6461401,和歌山県,田辺市,中辺路町野中,ワカヤマケン,タナベシ,ナカヘチチョウノナカ,和歌山県田辺市中辺路町野中
6461402,和歌山県,田辺市,中辺路町近露,ワカヤマケン,タナベシ,ナカヘチチョウチカツユ,和歌山県田辺市中辺路町近露
6461411,和歌山県,田辺市,中辺路町大内川,ワカヤマケン,タナベシ,ナカヘチチョウオオウチガワ,和歌山県田辺市中辺路町大内川
6461412,和歌山県,田辺市,中辺路町石船,ワカヤマケン,タナベシ,ナカヘチチョウイシブリ,和歌山県田辺市中辺路町石船
6461413,和歌山県,田辺市,中辺路町北郡,ワカヤマケン,タナベシ,ナカヘチチョウホクソギ,和歌山県田辺市中辺路町北郡
6461414,和歌山県,田辺市,中辺路町西谷,ワカヤマケン,タナベシ,ナカヘチチョウニシダニ,和歌山県田辺市中辺路町西谷
6461415,和歌山県,田辺市,中辺路町真砂,ワカヤマケン,タナベシ,ナカヘチチョウマナゴ,和歌山県田辺市中辺路町真砂
6461416,和歌山県,田辺市,中辺路町高原,ワカヤマケン,タナベシ,ナカヘチチョウタカハラ,和歌山県田辺市中辺路町高原
6461417,和歌山県,田辺市,中辺路町川合,ワカヤマケン,タナベシ,ナカヘチチョウカワイ,和歌山県田辺市中辺路町川合
6461421,和歌山県,田辺市,中辺路町栗栖川,ワカヤマケン,タナベシ,ナカヘチチョウクリスガワ,和歌山県田辺市中辺路町栗栖川
6461431,和歌山県,田辺市,中辺路町小松原,ワカヤマケン,タナベシ,ナカヘチチョウコマツバラ,和歌山県田辺市中辺路町小松原
6461432,和歌山県,田辺市,中辺路町福定,ワカヤマケン,タナベシ,ナカヘチチョウフクサダ,和歌山県田辺市中辺路町福定
6461433,和歌山県,田辺市,中辺路町大川,ワカヤマケン,タナベシ,ナカヘチチョウオオカワ,和歌山県田辺市中辺路町大川
6461434,和歌山県,田辺市,中辺路町温川,ワカヤマケン,タナベシ,ナカヘチチョウヌルミガワ,和歌山県田辺市中辺路町温川
6461435,和歌山県,田辺市,中辺路町小皆,ワカヤマケン,タナベシ,ナカヘチチョウコカイ,和歌山県田辺市中辺路町小皆
6461436,和歌山県,田辺市,中辺路町熊野川,ワカヤマケン,タナベシ,ナカヘチチョウクマノガワ,和歌山県田辺市中辺路町熊野川
6461437,和歌山県,田辺市,中辺路町沢,ワカヤマケン,タナベシ,ナカヘチチョウサワ,和歌山県田辺市中辺路町沢
6461438,和歌山県,田辺市,中辺路町水上,ワカヤマケン,タナベシ,ナカヘチチョウミズカミ,和歌山県田辺市中辺路町水上
6461439,和歌山県,田辺市,中辺路町内井川,ワカヤマケン,タナベシ,ナカヘチチョウウチイガワ,和歌山県田辺市中辺路町内井川
6470000,和歌山県,新宮市,,ワカヤマケン,シングウシ,,和歌山県新宮市
6470001,和歌山県,新宮市,相筋,ワカヤマケン,シングウシ,アイスジ,和歌山県新宮市相筋
6470002,和歌山県,新宮市,船町,ワカヤマケン,シングウシ,フナマチ,和歌山県新宮市船町
6470003,和歌山県,新宮市,上本町,ワカヤマケン,シングウシ,カミホンマチ,和歌山県新宮市上本町
6470004,和歌山県,新宮市,大橋通,ワカヤマケン,シングウシ,オオハシドオリ,和歌山県新宮市大橋通
6470005,和歌山県,新宮市,元鍛治町,ワカヤマケン,シングウシ,モトカジチョウ,和歌山県新宮市元鍛治町
6470006,和歌山県,新宮市,薬師町,ワカヤマケン,シングウシ,ヤクシマチ,和歌山県新宮市薬師町
6470007,和歌山県,新宮市,別当屋敷町,ワカヤマケン,シングウシ,ベットウヤシキチョウ,和歌山県新宮市別当屋敷町
6470008,和歌山県,新宮市,馬町,ワカヤマケン,シングウシ,ウママチ,和歌山県新宮市馬町
6470010,和歌山県,新宮市,丹鶴,ワカヤマケン,シングウシ,タンカク,和歌山県新宮市丹鶴
6470011,和歌山県,新宮市,下本町,ワカヤマケン,シングウシ,シモホンマチ,和歌山県新宮市下本町
6470012,和歌山県,新宮市,伊佐田町,ワカヤマケン,シングウシ,イサダチョウ,和歌山県新宮市伊佐田町
6470013,和歌山県,新宮市,春日,ワカヤマケン,シングウシ,カスガ,和歌山県新宮市春日
6470014,和歌山県,新宮市,浮島,ワカヤマケン,シングウシ,ウキジマ,和歌山県新宮市浮島
6470015,和歌山県,新宮市,千穂,ワカヤマケン,シングウシ,チホ,和歌山県新宮市千穂
6470016,和歌山県,新宮市,谷王子町,ワカヤマケン,シングウシ,タニオウジチョウ,和歌山県新宮市谷王子町
6470017,和歌山県,新宮市,横町,ワカヤマケン,シングウシ,ヨコマチ,和歌山県新宮市横町
6470018,和歌山県,新宮市,仲之町,ワカヤマケン,シングウシ,ナカノチョウ,和歌山県新宮市仲之町
6470019,和歌山県,新宮市,新町,ワカヤマケン,シングウシ,シンマチ,和歌山県新宮市新町
6470020,和歌山県,新宮市,徐福,ワカヤマケン,シングウシ,ジョフク,和歌山県新宮市徐福
6470021,和歌山県,新宮市,池田,ワカヤマケン,シングウシ,イケダ,和歌山県新宮市池田
6470022,和歌山県,新宮市,阿須賀,ワカヤマケン,シングウシ,アスカ,和歌山県新宮市阿須賀
6470023,和歌山県,新宮市,蓬莱,ワカヤマケン,シングウシ,ホウライ,和歌山県新宮市蓬莱
6470024,和歌山県,新宮市,熊野地,ワカヤマケン,シングウシ,クマノジ,和歌山県新宮市熊野地
6470025,和歌山県,新宮市,あけぼの,ワカヤマケン,シングウシ,アケボノ,和歌山県新宮市あけぼの
6470031,和歌山県,新宮市,田鶴原町,ワカヤマケン,シングウシ,タズハラチョウ,和歌山県新宮市田鶴原町
6470032,和歌山県,新宮市,王子町,ワカヤマケン,シングウシ,オウジチョウ,和歌山県新宮市王子町
6470033,和歌山県,新宮市,清水元,ワカヤマケン,シングウシ,シミズモト,和歌山県新宮市清水元
6470034,和歌山県,新宮市,丸山,ワカヤマケン,シングウシ,マルヤマ,和歌山県新宮市丸山
6470041,和歌山県,新宮市,野田,ワカヤマケン,シングウシ,ノダ,和歌山県新宮市野田
6470042,和歌山県,新宮市,下田,ワカヤマケン,シングウシ,シモダ,和歌山県新宮市下田
6470043,和歌山県,新宮市,緑ケ丘,ワカヤマケン,シングウシ,ミドリガオカ,和歌山県新宮市緑ケ丘
6470044,和歌山県,新宮市,神倉,ワカヤマケン,シングウシ,カミクラ,和歌山県新宮市神倉
6470045,和歌山県,新宮市,井の沢,ワカヤマケン,シングウシ,イノサワ,和歌山県新宮市井の沢
6470051,和歌山県,新宮市,磐盾,ワカヤマケン,シングウシ,イワタテ,和歌山県新宮市磐盾
6470052,和歌山県,新宮市,橋本,ワカヤマケン,シングウシ,ハシモト,和歌山県新宮市橋本
6470053,和歌山県,新宮市,五新,ワカヤマケン,シングウシ,ゴシン,和歌山県新宮市五新
6470054,和歌山県,新宮市,南檜杖,ワカヤマケン,シングウシ,ミナミヒヅエ,和歌山県新宮市南檜杖
6470061,和歌山県,新宮市,三輪崎,ワカヤマケン,シングウシ,ミワサキ,和歌山県新宮市三輪崎
6470071,和歌山県,新宮市,佐野,ワカヤマケン,シングウシ,サノ,和歌山県新宮市佐野
6470072,和歌山県,新宮市,蜂伏,ワカヤマケン,シングウシ,ハチブセ,和歌山県新宮市蜂伏
6470073,和歌山県,新宮市,木ノ川,ワカヤマケン,シングウシ,キノカワ,和歌山県新宮市木ノ川
6470081,和歌山県,新宮市,新宮,ワカヤマケン,シングウシ,シングウ,和歌山県新宮市新宮
6471101,和歌山県,新宮市,高田,ワカヤマケン,シングウシ,タカタ,和歌山県新宮市高田
6471102,和歌山県,新宮市,相賀,ワカヤマケン,シングウシ,オウガ,和歌山県新宮市相賀
6471103,和歌山県,新宮市,南檜杖（土ノ河）,ワカヤマケン,シングウシ,ミナミヒヅエ(ツチノコ),和歌山県新宮市南檜杖（土ノ河）
6471201,和歌山県,新宮市,熊野川町上長井,ワカヤマケン,シングウシ,クマノガワチョウカミナガイ,和歌山県新宮市熊野川町上長井
6471202,和歌山県,新宮市,熊野川町東,ワカヤマケン,シングウシ,クマノガワチョウヒガシ,和歌山県新宮市熊野川町東
6471203,和歌山県,新宮市,熊野川町大山,ワカヤマケン,シングウシ,クマノガワチョウオオヤマ,和歌山県新宮市熊野川町大山
6471204,和歌山県,新宮市,熊野川町鎌塚,ワカヤマケン,シングウシ,クマノガワチョウカマヅカ,和歌山県新宮市熊野川町鎌塚
6471205,和歌山県,新宮市,熊野川町滝本,ワカヤマケン,シングウシ,クマノガワチョウタキモト,和歌山県新宮市熊野川町滝本
6471206,和歌山県,新宮市,熊野川町西,ワカヤマケン,シングウシ,クマノガワチョウニシ,和歌山県新宮市熊野川町西
6471207,和歌山県,新宮市,熊野川町畝畑,ワカヤマケン,シングウシ,クマノガワチョウウネハタ,和歌山県新宮市熊野川町畝畑
6471211,和歌山県,新宮市,熊野川町日足,ワカヤマケン,シングウシ,クマノガワチョウヒタリ,和歌山県新宮市熊野川町日足
6471212,和歌山県,新宮市,熊野川町田長,ワカヤマケン,シングウシ,クマノガワチョウタナゴ,和歌山県新宮市熊野川町田長
6471213,和歌山県,新宮市,熊野川町能城山本,ワカヤマケン,シングウシ,クマノガワチョウノキヤマモト,和歌山県新宮市熊野川町能城山本
6471214,和歌山県,新宮市,熊野川町赤木,ワカヤマケン,シングウシ,クマノガワチョウアカギ,和歌山県新宮市熊野川町赤木
6471215,和歌山県,新宮市,熊野川町椋井,ワカヤマケン,シングウシ,クマノガワチョウムクノイ,和歌山県新宮市熊野川町椋井
6471216,和歌山県,新宮市,熊野川町相須,ワカヤマケン,シングウシ,クマノガワチョウアイス,和歌山県新宮市熊野川町相須
6471221,和歌山県,新宮市,熊野川町西敷屋,ワカヤマケン,シングウシ,クマノガワチョウニシシキヤ,和歌山県新宮市熊野川町西敷屋
6471222,和歌山県,新宮市,熊野川町東敷屋,ワカヤマケン,シングウシ,クマノガワチョウヒガシシキヤ,和歌山県新宮市熊野川町東敷屋
6471223,和歌山県,新宮市,熊野川町篠尾,ワカヤマケン,シングウシ,クマノガワチョウササビ,和歌山県新宮市熊野川町篠尾
6471231,和歌山県,新宮市,熊野川町玉置口,ワカヤマケン,シングウシ,クマノガワチョウタマキグチ,和歌山県新宮市熊野川町玉置口
6471232,和歌山県,新宮市,熊野川町嶋津,ワカヤマケン,シングウシ,クマノガワチョウシマヅ,和歌山県新宮市熊野川町嶋津
6471233,和歌山県,新宮市,熊野川町九重,ワカヤマケン,シングウシ,クマノガワチョウクジュウ,和歌山県新宮市熊野川町九重
6471234,和歌山県,新宮市,熊野川町四滝,ワカヤマケン,シングウシ,クマノガワチョウシタキ,和歌山県新宮市熊野川町四滝
6471235,和歌山県,新宮市,熊野川町宮井,ワカヤマケン,シングウシ,クマノガワチョウミヤイ,和歌山県新宮市熊野川町宮井
6471600,和歌山県,東牟婁郡北山村,,ワカヤマケン,ヒガシムログンキタヤマムラ,,和歌山県東牟婁郡北山村
6471601,和歌山県,東牟婁郡北山村,七色,ワカヤマケン,ヒガシムログンキタヤマムラ,ナナイロ,和歌山県東牟婁郡北山村七色
6471602,和歌山県,東牟婁郡北山村,竹原,ワカヤマケン,ヒガシムログンキタヤマムラ,タケハラ,和歌山県東牟婁郡北山村竹原
6471603,和歌山県,東牟婁郡北山村,大沼,ワカヤマケン,ヒガシムログンキタヤマムラ,オオヌマ,和歌山県東牟婁郡北山村大沼
6471604,和歌山県,東牟婁郡北山村,下尾井,ワカヤマケン,ヒガシムログンキタヤマムラ,シモオイ,和歌山県東牟婁郡北山村下尾井
6471605,和歌山県,東牟婁郡北山村,小松,ワカヤマケン,ヒガシムログンキタヤマムラ,コマツ,和歌山県東牟婁郡北山村小松
6471701,和歌山県,田辺市,本宮町小津荷,ワカヤマケン,タナベシ,ホングウチョウコツガ,和歌山県田辺市本宮町小津荷
6471702,和歌山県,田辺市,本宮町大津荷,ワカヤマケン,タナベシ,ホングウチョウオオツガ,和歌山県田辺市本宮町大津荷
6471703,和歌山県,田辺市,本宮町請川,ワカヤマケン,タナベシ,ホングウチョウウケガワ,和歌山県田辺市本宮町請川
6471704,和歌山県,田辺市,本宮町耳打,ワカヤマケン,タナベシ,ホングウチョウミミウチ,和歌山県田辺市本宮町耳打
6471705,和歌山県,田辺市,本宮町高山,ワカヤマケン,タナベシ,ホングウチョウタカヤマ,和歌山県田辺市本宮町高山
6471711,和歌山県,田辺市,本宮町皆瀬川,ワカヤマケン,タナベシ,ホングウチョウミナセガワ,和歌山県田辺市本宮町皆瀬川
6471712,和歌山県,田辺市,本宮町田代,ワカヤマケン,タナベシ,ホングウチョウタシロ,和歌山県田辺市本宮町田代
6471713,和歌山県,田辺市,本宮町簑尾谷,ワカヤマケン,タナベシ,ホングウチョウミノオダニ,和歌山県田辺市本宮町簑尾谷
6471714,和歌山県,田辺市,本宮町静川,ワカヤマケン,タナベシ,ホングウチョウシズカワ,和歌山県田辺市本宮町静川
6471715,和歌山県,田辺市,本宮町東和田,ワカヤマケン,タナベシ,ホングウチョウヒガシワダ,和歌山県田辺市本宮町東和田
6471716,和歌山県,田辺市,本宮町上大野,ワカヤマケン,タナベシ,ホングウチョウカミオオノ,和歌山県田辺市本宮町上大野
6471717,和歌山県,田辺市,本宮町川湯,ワカヤマケン,タナベシ,ホングウチョウカワユ,和歌山県田辺市本宮町川湯
6471721,和歌山県,田辺市,本宮町檜葉,ワカヤマケン,タナベシ,ホングウチョウヒバ,和歌山県田辺市本宮町檜葉
6471722,和歌山県,田辺市,本宮町小々森,ワカヤマケン,タナベシ,ホングウチョウコゴモリ,和歌山県田辺市本宮町小々森
6471723,和歌山県,田辺市,本宮町皆地,ワカヤマケン,タナベシ,ホングウチョウミナチ,和歌山県田辺市本宮町皆地
6471724,和歌山県,田辺市,本宮町野竹,ワカヤマケン,タナベシ,ホングウチョウノダケ,和歌山県田辺市本宮町野竹
6471725,和歌山県,田辺市,本宮町大瀬,ワカヤマケン,タナベシ,ホングウチョウオオゼ,和歌山県田辺市本宮町大瀬
6471726,和歌山県,田辺市,本宮町武住,ワカヤマケン,タナベシ,ホングウチョウブジュウ,和歌山県田辺市本宮町武住
6471731,和歌山県,田辺市,本宮町本宮,ワカヤマケン,タナベシ,ホングウチョウホングウ,和歌山県田辺市本宮町本宮
6471732,和歌山県,田辺市,本宮町湯峯,ワカヤマケン,タナベシ,ホングウチョウユノミネ,和歌山県田辺市本宮町湯峯
6471733,和歌山県,田辺市,本宮町渡瀬,ワカヤマケン,タナベシ,ホングウチョウワタゼ,和歌山県田辺市本宮町渡瀬
6471734,和歌山県,田辺市,本宮町下湯川,ワカヤマケン,タナベシ,ホングウチョウシモユカワ,和歌山県田辺市本宮町下湯川
6471735,和歌山県,田辺市,本宮町曲川,ワカヤマケン,タナベシ,ホングウチョウマガリカワ,和歌山県田辺市本宮町曲川
6471736,和歌山県,田辺市,本宮町久保野,ワカヤマケン,タナベシ,ホングウチョウクボノ,和歌山県田辺市本宮町久保野
6471741,和歌山県,田辺市,本宮町大居,ワカヤマケン,タナベシ,ホングウチョウオオイ,和歌山県田辺市本宮町大居
6471742,和歌山県,田辺市,本宮町一本松,ワカヤマケン,タナベシ,ホングウチョウイッポンマツ,和歌山県田辺市本宮町一本松
6471743,和歌山県,田辺市,本宮町伏拝,ワカヤマケン,タナベシ,ホングウチョウフシオガミ,和歌山県田辺市本宮町伏拝
6471744,和歌山県,田辺市,本宮町三越,ワカヤマケン,タナベシ,ホングウチョウミコシ,和歌山県田辺市本宮町三越
6471751,和歌山県,田辺市,本宮町上切原,ワカヤマケン,タナベシ,ホングウチョウカミキリバラ,和歌山県田辺市本宮町上切原
6471752,和歌山県,田辺市,本宮町切畑,ワカヤマケン,タナベシ,ホングウチョウキリハタ,和歌山県田辺市本宮町切畑
6471753,和歌山県,田辺市,本宮町土河屋,ワカヤマケン,タナベシ,ホングウチョウツチゴヤ,和歌山県田辺市本宮町土河屋
6480000,和歌山県,橋本市,,ワカヤマケン,ハシモトシ,,和歌山県橋本市
6480001,和歌山県,橋本市,杉尾,ワカヤマケン,ハシモトシ,スギオ,和歌山県橋本市杉尾
6480002,和歌山県,橋本市,隅田町平野,ワカヤマケン,ハシモトシ,スダチョウヒラノ,和歌山県橋本市隅田町平野
6480003,和歌山県,橋本市,隅田町山内,ワカヤマケン,ハシモトシ,スダチョウヤマウチ,和歌山県橋本市隅田町山内
6480004,和歌山県,橋本市,隅田町霜草,ワカヤマケン,ハシモトシ,スダチョウシモクサ,和歌山県橋本市隅田町霜草
6480005,和歌山県,橋本市,小峰台,ワカヤマケン,ハシモトシ,オミネダイ,和歌山県橋本市小峰台
6480006,和歌山県,橋本市,境原,ワカヤマケン,ハシモトシ,サカイハラ,和歌山県橋本市境原
6480007,和歌山県,橋本市,紀ノ光台,ワカヤマケン,ハシモトシ,キノヒカリダイ,和歌山県橋本市紀ノ光台
6480011,和歌山県,橋本市,隅田町真土,ワカヤマケン,ハシモトシ,スダチョウマツチ,和歌山県橋本市隅田町真土
6480012,和歌山県,橋本市,隅田町芋生,ワカヤマケン,ハシモトシ,スダチョウイモウ,和歌山県橋本市隅田町芋生
6480013,和歌山県,橋本市,隅田町中下,ワカヤマケン,ハシモトシ,スダチョウチュウゲ,和歌山県橋本市隅田町中下
6480014,和歌山県,橋本市,隅田町上兵庫,ワカヤマケン,ハシモトシ,スダチョウカミヒョウゴ,和歌山県橋本市隅田町上兵庫
6480015,和歌山県,橋本市,隅田町河瀬,ワカヤマケン,ハシモトシ,スダチョウコウゼ,和歌山県橋本市隅田町河瀬
6480016,和歌山県,橋本市,隅田町下兵庫,ワカヤマケン,ハシモトシ,スダチョウシモヒョウゴ,和歌山県橋本市隅田町下兵庫
6480017,和歌山県,橋本市,隅田町中島,ワカヤマケン,ハシモトシ,スダチョウナカジマ,和歌山県橋本市隅田町中島
6480018,和歌山県,橋本市,隅田町垂井,ワカヤマケン,ハシモトシ,スダチョウタルイ,和歌山県橋本市隅田町垂井
6480019,和歌山県,橋本市,あやの台,ワカヤマケン,ハシモトシ,アヤノダイ,和歌山県橋本市あやの台
6480021,和歌山県,橋本市,恋野,ワカヤマケン,ハシモトシ,コイノ,和歌山県橋本市恋野
6480022,和歌山県,橋本市,赤塚,ワカヤマケン,ハシモトシ,アカツカ,和歌山県橋本市赤塚
6480023,和歌山県,橋本市,中道,ワカヤマケン,ハシモトシ,ナカドウ,和歌山県橋本市中道
6480024,和歌山県,橋本市,上田,ワカヤマケン,ハシモトシ,ウエダ,和歌山県橋本市上田
6480025,和歌山県,橋本市,向副,ワカヤマケン,ハシモトシ,ムカソイ,和歌山県橋本市向副
6480031,和歌山県,橋本市,只野,ワカヤマケン,ハシモトシ,タダノ,和歌山県橋本市只野
6480032,和歌山県,橋本市,谷奥深,ワカヤマケン,ハシモトシ,タニオブカ,和歌山県橋本市谷奥深
6480033,和歌山県,橋本市,北宿,ワカヤマケン,ハシモトシ,キタヤドリ,和歌山県橋本市北宿
6480034,和歌山県,橋本市,南宿,ワカヤマケン,ハシモトシ,ミナミヤドリ,和歌山県橋本市南宿
6480035,和歌山県,橋本市,彦谷,ワカヤマケン,ハシモトシ,ヒコタニ,和歌山県橋本市彦谷
6480036,和歌山県,橋本市,横座,ワカヤマケン,ハシモトシ,ヨコザ,和歌山県橋本市横座
6480037,和歌山県,橋本市,賢堂,ワカヤマケン,ハシモトシ,カシコド,和歌山県橋本市賢堂
6480038,和歌山県,橋本市,須河,ワカヤマケン,ハシモトシ,スゴウ,和歌山県橋本市須河
6480041,和歌山県,橋本市,清水,ワカヤマケン,ハシモトシ,シミズ,和歌山県橋本市清水
6480042,和歌山県,橋本市,西畑,ワカヤマケン,ハシモトシ,ニシハタ,和歌山県橋本市西畑
6480043,和歌山県,橋本市,学文路,ワカヤマケン,ハシモトシ,カムロ,和歌山県橋本市学文路
6480044,和歌山県,橋本市,南馬場,ワカヤマケン,ハシモトシ,ミナミババ,和歌山県橋本市南馬場
6480051,和歌山県,橋本市,細川,ワカヤマケン,ハシモトシ,ホソカワ,和歌山県橋本市細川
6480052,和歌山県,橋本市,紀見,ワカヤマケン,ハシモトシ,キミ,和歌山県橋本市紀見
6480053,和歌山県,橋本市,しらさぎ台,ワカヤマケン,ハシモトシ,シラサギダイ,和歌山県橋本市しらさぎ台
6480054,和歌山県,橋本市,城山台,ワカヤマケン,ハシモトシ,シロヤマダイ,和歌山県橋本市城山台
6480061,和歌山県,橋本市,北馬場,ワカヤマケン,ハシモトシ,キタババ,和歌山県橋本市北馬場
6480062,和歌山県,橋本市,妻,ワカヤマケン,ハシモトシ,ツマ,和歌山県橋本市妻
6480063,和歌山県,橋本市,原田,ワカヤマケン,ハシモトシ,ハラダ,和歌山県橋本市原田
6480064,和歌山県,橋本市,橋本,ワカヤマケン,ハシモトシ,ハシモト,和歌山県橋本市橋本
6480065,和歌山県,橋本市,古佐田,ワカヤマケン,ハシモトシ,コサダ,和歌山県橋本市古佐田
6480066,和歌山県,橋本市,胡麻生,ワカヤマケン,ハシモトシ,ゴモウ,和歌山県橋本市胡麻生
6480071,和歌山県,橋本市,小原田,ワカヤマケン,ハシモトシ,オハラタ,和歌山県橋本市小原田
6480072,和歌山県,橋本市,東家,ワカヤマケン,ハシモトシ,トウゲ,和歌山県橋本市東家
6480073,和歌山県,橋本市,市脇,ワカヤマケン,ハシモトシ,イチワキ,和歌山県橋本市市脇
6480074,和歌山県,橋本市,野,ワカヤマケン,ハシモトシ,ノ,和歌山県橋本市野
6480075,和歌山県,橋本市,さつき台,ワカヤマケン,ハシモトシ,サツキダイ,和歌山県橋本市さつき台
6480081,和歌山県,橋本市,山田,ワカヤマケン,ハシモトシ,ヤマダ,和歌山県橋本市山田
6480082,和歌山県,橋本市,菖蒲谷,ワカヤマケン,ハシモトシ,ショウブタニ,和歌山県橋本市菖蒲谷
6480083,和歌山県,橋本市,出塔,ワカヤマケン,ハシモトシ,デトウ,和歌山県橋本市出塔
6480084,和歌山県,橋本市,柏原,ワカヤマケン,ハシモトシ,カセバラ,和歌山県橋本市柏原
6480085,和歌山県,橋本市,岸上,ワカヤマケン,ハシモトシ,キシカミ,和歌山県橋本市岸上
6480086,和歌山県,橋本市,神野々,ワカヤマケン,ハシモトシ,コノノ,和歌山県橋本市神野々
6480087,和歌山県,橋本市,吉原,ワカヤマケン,ハシモトシ,ヨシハラ,和歌山県橋本市吉原
6480088,和歌山県,橋本市,みゆき台,ワカヤマケン,ハシモトシ,ミユキダイ,和歌山県橋本市みゆき台
6480091,和歌山県,橋本市,柱本,ワカヤマケン,ハシモトシ,ハシラモト,和歌山県橋本市柱本
6480092,和歌山県,橋本市,紀見ケ丘,ワカヤマケン,ハシモトシ,キミガオカ,和歌山県橋本市紀見ケ丘
6480093,和歌山県,橋本市,慶賀野,ワカヤマケン,ハシモトシ,ケガノ,和歌山県橋本市慶賀野
6480094,和歌山県,橋本市,三石台,ワカヤマケン,ハシモトシ,ミツイシダイ,和歌山県橋本市三石台
6480095,和歌山県,橋本市,橋谷,ワカヤマケン,ハシモトシ,ハシタニ,和歌山県橋本市橋谷
6480096,和歌山県,橋本市,御幸辻,ワカヤマケン,ハシモトシ,ミユキツジ,和歌山県橋本市御幸辻
6480097,和歌山県,橋本市,柿の木坂,ワカヤマケン,ハシモトシ,カキノキザカ,和歌山県橋本市柿の木坂
6480098,和歌山県,橋本市,矢倉脇,ワカヤマケン,ハシモトシ,ヤグラワキ,和歌山県橋本市矢倉脇
6480099,和歌山県,橋本市,光陽台,ワカヤマケン,ハシモトシ,コウヨウダイ,和歌山県橋本市光陽台
6480100,和歌山県,伊都郡九度山町,,ワカヤマケン,イトグンクドヤマチョウ,,和歌山県伊都郡九度山町
6480101,和歌山県,伊都郡九度山町,九度山,ワカヤマケン,イトグンクドヤマチョウ,クドヤマ,和歌山県伊都郡九度山町九度山
6480111,和歌山県,伊都郡九度山町,河根,ワカヤマケン,イトグンクドヤマチョウ,カネ,和歌山県伊都郡九度山町河根
6480121,和歌山県,伊都郡九度山町,丹生川,ワカヤマケン,イトグンクドヤマチョウ,ニュウカワ,和歌山県伊都郡九度山町丹生川
6480131,和歌山県,伊都郡九度山町,市平,ワカヤマケン,イトグンクドヤマチョウ,イチタイラ,和歌山県伊都郡九度山町市平
6480132,和歌山県,伊都郡九度山町,北又,ワカヤマケン,イトグンクドヤマチョウ,キタマタ,和歌山県伊都郡九度山町北又
6480133,和歌山県,伊都郡九度山町,東郷,ワカヤマケン,イトグンクドヤマチョウ,ヒガシゴウ,和歌山県伊都郡九度山町東郷
6480141,和歌山県,伊都郡九度山町,椎出,ワカヤマケン,イトグンクドヤマチョウ,シイデ,和歌山県伊都郡九度山町椎出
6480142,和歌山県,伊都郡九度山町,笠木,ワカヤマケン,イトグンクドヤマチョウ,カサギ,和歌山県伊都郡九度山町笠木
6480143,和歌山県,伊都郡九度山町,上古沢,ワカヤマケン,イトグンクドヤマチョウ,カミコサワ,和歌山県伊都郡九度山町上古沢
6480144,和歌山県,伊都郡九度山町,中古沢,ワカヤマケン,イトグンクドヤマチョウ,ナカコサワ,和歌山県伊都郡九度山町中古沢
6480145,和歌山県,伊都郡九度山町,下古沢,ワカヤマケン,イトグンクドヤマチョウ,シモコサワ,和歌山県伊都郡九度山町下古沢
6480151,和歌山県,伊都郡九度山町,慈尊院,ワカヤマケン,イトグンクドヤマチョウ,ジソンイン,和歌山県伊都郡九度山町慈尊院
6480161,和歌山県,伊都郡九度山町,入郷,ワカヤマケン,イトグンクドヤマチョウ,ニュウゴウ,和歌山県伊都郡九度山町入郷
6480171,和歌山県,伊都郡高野町,西郷（その他）,ワカヤマケン,イトグンコウヤチョウ,ニシゴウ(ソノタ),和歌山県伊都郡高野町西郷（その他）
6480200,和歌山県,伊都郡高野町,,ワカヤマケン,イトグンコウヤチョウ,,和歌山県伊都郡高野町
6480201,和歌山県,伊都郡かつらぎ町,花園久木,ワカヤマケン,イトグンカツラギチョウ,ハナゾノクキ,和歌山県伊都郡かつらぎ町花園久木
6480202,和歌山県,伊都郡かつらぎ町,花園中南,ワカヤマケン,イトグンカツラギチョウ,ハナゾノナカミナミ,和歌山県伊都郡かつらぎ町花園中南
6480211,和歌山県,伊都郡高野町,高野山,ワカヤマケン,イトグンコウヤチョウ,コウヤサン,和歌山県伊都郡高野町高野山
6480221,和歌山県,伊都郡高野町,西ケ峰,ワカヤマケン,イトグンコウヤチョウ,ニシガミネ,和歌山県伊都郡高野町西ケ峰
6480222,和歌山県,伊都郡高野町,南,ワカヤマケン,イトグンコウヤチョウ,ミナミ,和歌山県伊都郡高野町南
6480223,和歌山県,伊都郡高野町,林,ワカヤマケン,イトグンコウヤチョウ,ハヤシ,和歌山県伊都郡高野町林
6480224,和歌山県,伊都郡高野町,平原,ワカヤマケン,イトグンコウヤチョウ,ヒラハラ,和歌山県伊都郡高野町平原
6480225,和歌山県,伊都郡高野町,杖ケ薮,ワカヤマケン,イトグンコウヤチョウ,ツエガヤブ,和歌山県伊都郡高野町杖ケ薮
6480226,和歌山県,伊都郡高野町,東又,ワカヤマケン,イトグンコウヤチョウ,ヒガシマタ,和歌山県伊都郡高野町東又
6480227,和歌山県,伊都郡高野町,樫原,ワカヤマケン,イトグンコウヤチョウ,カシハラ,和歌山県伊都郡高野町樫原
6480231,和歌山県,伊都郡高野町,大滝,ワカヤマケン,イトグンコウヤチョウ,オオタキ,和歌山県伊都郡高野町大滝
6480241,和歌山県,伊都郡高野町,相ノ浦,ワカヤマケン,イトグンコウヤチョウ,アイノウラ,和歌山県伊都郡高野町相ノ浦
6480251,和歌山県,伊都郡高野町,湯川,ワカヤマケン,イトグンコウヤチョウ,ユカワ,和歌山県伊都郡高野町湯川
6480261,和歌山県,伊都郡高野町,西郷（神谷）,ワカヤマケン,イトグンコウヤチョウ,ニシゴウ(カミヤ),和歌山県伊都郡高野町西郷（神谷）
6480262,和歌山県,伊都郡高野町,細川,ワカヤマケン,イトグンコウヤチョウ,ホソカワ,和歌山県伊都郡高野町細川
6480263,和歌山県,伊都郡高野町,花坂,ワカヤマケン,イトグンコウヤチョウ,ハナサカ,和歌山県伊都郡高野町花坂
6480401,和歌山県,伊都郡高野町,西富貴,ワカヤマケン,イトグンコウヤチョウ,ニシフキ,和歌山県伊都郡高野町西富貴
6480402,和歌山県,伊都郡高野町,東富貴,ワカヤマケン,イトグンコウヤチョウ,ヒガシフキ,和歌山県伊都郡高野町東富貴
6480403,和歌山県,伊都郡高野町,上筒香,ワカヤマケン,イトグンコウヤチョウ,カミツツガ,和歌山県伊都郡高野町上筒香
6480404,和歌山県,伊都郡高野町,中筒香,ワカヤマケン,イトグンコウヤチョウ,ナカツツガ,和歌山県伊都郡高野町中筒香
6480405,和歌山県,伊都郡高野町,下筒香,ワカヤマケン,イトグンコウヤチョウ,シモツツガ,和歌山県伊都郡高野町下筒香
6490101,和歌山県,海南市,下津町下津,ワカヤマケン,カイナンシ,シモツチョウシモツ,和歌山県海南市下津町下津
6490111,和歌山県,海南市,下津町方,ワカヤマケン,カイナンシ,シモツチョウカタ,和歌山県海南市下津町方
6490112,和歌山県,海南市,下津町大崎,ワカヤマケン,カイナンシ,シモツチョウオオサキ,和歌山県海南市下津町大崎
6490121,和歌山県,海南市,下津町丸田,ワカヤマケン,カイナンシ,シモツチョウマルダ,和歌山県海南市下津町丸田
6490122,和歌山県,海南市,下津町黒田,ワカヤマケン,カイナンシ,シモツチョウクロダ,和歌山県海南市下津町黒田
6490123,和歌山県,海南市,下津町丁,ワカヤマケン,カイナンシ,シモツチョウヨロ,和歌山県海南市下津町丁
6490131,和歌山県,海南市,下津町塩津,ワカヤマケン,カイナンシ,シモツチョウシオツ,和歌山県海南市下津町塩津
6490132,和歌山県,海南市,下津町梅田,ワカヤマケン,カイナンシ,シモツチョウウメダ,和歌山県海南市下津町梅田
6490133,和歌山県,海南市,下津町下,ワカヤマケン,カイナンシ,シモツチョウシモ,和歌山県海南市下津町下
6490141,和歌山県,海南市,下津町小南,ワカヤマケン,カイナンシ,シモツチョウコミナミ,和歌山県海南市下津町小南
6490142,和歌山県,海南市,下津町中,ワカヤマケン,カイナンシ,シモツチョウナカ,和歌山県海南市下津町中
6490143,和歌山県,海南市,下津町小松原,ワカヤマケン,カイナンシ,シモツチョウコマツバラ,和歌山県海南市下津町小松原
6490144,和歌山県,海南市,下津町橘本,ワカヤマケン,カイナンシ,シモツチョウキツモト,和歌山県海南市下津町橘本
6490145,和歌山県,海南市,下津町市坪,ワカヤマケン,カイナンシ,シモツチョウイチツボ,和歌山県海南市下津町市坪
6490146,和歌山県,海南市,下津町沓掛,ワカヤマケン,カイナンシ,シモツチョウクツカケ,和歌山県海南市下津町沓掛
6490147,和歌山県,海南市,下津町青枝,ワカヤマケン,カイナンシ,シモツチョウアオシ,和歌山県海南市下津町青枝
6490151,和歌山県,海南市,下津町曽根田,ワカヤマケン,カイナンシ,シモツチョウソネダ,和歌山県海南市下津町曽根田
6490152,和歌山県,海南市,下津町引尾,ワカヤマケン,カイナンシ,シモツチョウヒキオ,和歌山県海南市下津町引尾
6490153,和歌山県,海南市,下津町興,ワカヤマケン,カイナンシ,シモツチョウオキ,和歌山県海南市下津町興
6490154,和歌山県,海南市,下津町笠畑,ワカヤマケン,カイナンシ,シモツチョウカサバタ,和歌山県海南市下津町笠畑
6490155,和歌山県,海南市,下津町大窪,ワカヤマケン,カイナンシ,シモツチョウオオクボ,和歌山県海南市下津町大窪
6490156,和歌山県,海南市,下津町百垣内,ワカヤマケン,カイナンシ,シモツチョウモモガイト,和歌山県海南市下津町百垣内
6490161,和歌山県,海南市,下津町小畑,ワカヤマケン,カイナンシ,シモツチョウコバタ,和歌山県海南市下津町小畑
6490162,和歌山県,海南市,下津町小原,ワカヤマケン,カイナンシ,シモツチョウオバラ,和歌山県海南市下津町小原
6490163,和歌山県,海南市,下津町鰈川,ワカヤマケン,カイナンシ,シモツチョウカレガワ,和歌山県海南市下津町鰈川
6490164,和歌山県,海南市,下津町上,ワカヤマケン,カイナンシ,シモツチョウカミ,和歌山県海南市下津町上
6490300,和歌山県,有田市,,ワカヤマケン,アリダシ,,和歌山県有田市
6490301,和歌山県,有田市,下中島,ワカヤマケン,アリダシ,シモナカシマ,和歌山県有田市下中島
6490302,和歌山県,有田市,山田原,ワカヤマケン,アリダシ,ヤマダハラ,和歌山県有田市山田原
6490303,和歌山県,有田市,新堂,ワカヤマケン,アリダシ,シンドウ,和歌山県有田市新堂
6490304,和歌山県,有田市,箕島,ワカヤマケン,アリダシ,ミノシマ,和歌山県有田市箕島
6490305,和歌山県,有田市,港町,ワカヤマケン,アリダシ,ミナトマチ,和歌山県有田市港町
6490306,和歌山県,有田市,初島町浜,ワカヤマケン,アリダシ,ハツシマチョウハマ,和歌山県有田市初島町浜
6490307,和歌山県,有田市,初島町里,ワカヤマケン,アリダシ,ハツシマチョウサト,和歌山県有田市初島町里
6490311,和歌山県,有田市,辻堂,ワカヤマケン,アリダシ,ツジドウ,和歌山県有田市辻堂
6490312,和歌山県,有田市,星尾,ワカヤマケン,アリダシ,ホシオ,和歌山県有田市星尾
6490313,和歌山県,有田市,千田,ワカヤマケン,アリダシ,チダ,和歌山県有田市千田
6490314,和歌山県,有田市,野,ワカヤマケン,アリダシ,ノ,和歌山県有田市野
6490315,和歌山県,有田市,山地,ワカヤマケン,アリダシ,ヤマチ,和歌山県有田市山地
6490316,和歌山県,有田市,宮崎町,ワカヤマケン,アリダシ,ミヤザキチョウ,和歌山県有田市宮崎町
6490317,和歌山県,有田市,古江見,ワカヤマケン,アリダシ,コエミ,和歌山県有田市古江見
6490421,和歌山県,有田市,糸我町中番,ワカヤマケン,アリダシ,イトガチョウナカバン,和歌山県有田市糸我町中番
6490422,和歌山県,有田市,糸我町西,ワカヤマケン,アリダシ,イトガチョウニシ,和歌山県有田市糸我町西
6490431,和歌山県,有田市,宮原町畑,ワカヤマケン,アリダシ,ミヤハラチョウハタ,和歌山県有田市宮原町畑
6490432,和歌山県,有田市,宮原町東,ワカヤマケン,アリダシ,ミヤハラチョウヒガシ,和歌山県有田市宮原町東
6490433,和歌山県,有田市,宮原町須谷,ワカヤマケン,アリダシ,ミヤハラチョウスガイ,和歌山県有田市宮原町須谷
6490434,和歌山県,有田市,宮原町新町,ワカヤマケン,アリダシ,ミヤハラチョウシンマチ,和歌山県有田市宮原町新町
6490435,和歌山県,有田市,宮原町滝川原,ワカヤマケン,アリダシ,ミヤハラチョウタキガハラ,和歌山県有田市宮原町滝川原
6490436,和歌山県,有田市,宮原町道,ワカヤマケン,アリダシ,ミヤハラチョウドウ,和歌山県有田市宮原町道
6490437,和歌山県,有田市,宮原町滝,ワカヤマケン,アリダシ,ミヤハラチョウタキ,和歌山県有田市宮原町滝
6491100,和歌山県,日高郡由良町,,ワカヤマケン,ヒダカグンユラチョウ,,和歌山県日高郡由良町
6491101,和歌山県,日高郡由良町,畑,ワカヤマケン,ヒダカグンユラチョウ,ハタ,和歌山県日高郡由良町畑
6491102,和歌山県,日高郡由良町,中,ワカヤマケン,ヒダカグンユラチョウ,ナカ,和歌山県日高郡由良町中
6491103,和歌山県,日高郡由良町,門前,ワカヤマケン,ヒダカグンユラチョウ,モンゼン,和歌山県日高郡由良町門前
6491104,和歌山県,日高郡由良町,江ノ駒,ワカヤマケン,ヒダカグンユラチョウ,エノコマ,和歌山県日高郡由良町江ノ駒
6491111,和歌山県,日高郡由良町,里,ワカヤマケン,ヒダカグンユラチョウ,サト,和歌山県日高郡由良町里
6491112,和歌山県,日高郡由良町,網代,ワカヤマケン,ヒダカグンユラチョウ,アジロ,和歌山県日高郡由良町網代
6491113,和歌山県,日高郡由良町,阿戸,ワカヤマケン,ヒダカグンユラチョウ,アト,和歌山県日高郡由良町阿戸
6491121,和歌山県,日高郡由良町,吹井,ワカヤマケン,ヒダカグンユラチョウ,フケイ,和歌山県日高郡由良町吹井
6491122,和歌山県,日高郡由良町,神谷,ワカヤマケン,ヒダカグンユラチョウ,カミヤ,和歌山県日高郡由良町神谷
6491123,和歌山県,日高郡由良町,大引,ワカヤマケン,ヒダカグンユラチョウ,オオビキ,和歌山県日高郡由良町大引
6491131,和歌山県,日高郡由良町,小引,ワカヤマケン,ヒダカグンユラチョウ,コビキ,和歌山県日高郡由良町小引
6491132,和歌山県,日高郡由良町,衣奈,ワカヤマケン,ヒダカグンユラチョウ,エナ,和歌山県日高郡由良町衣奈
6491133,和歌山県,日高郡由良町,三尾川,ワカヤマケン,ヒダカグンユラチョウ,ミオガワ,和歌山県日高郡由良町三尾川
6491134,和歌山県,日高郡由良町,戸津井,ワカヤマケン,ヒダカグンユラチョウ,トツイ,和歌山県日高郡由良町戸津井
6491200,和歌山県,日高郡日高町,,ワカヤマケン,ヒダカグンヒダカチョウ,,和歌山県日高郡日高町
6491201,和歌山県,日高郡日高町,原谷,ワカヤマケン,ヒダカグンヒダカチョウ,ハラダニ,和歌山県日高郡日高町原谷
6491202,和歌山県,日高郡日高町,萩原,ワカヤマケン,ヒダカグンヒダカチョウ,ハギワラ,和歌山県日高郡日高町萩原
6491203,和歌山県,日高郡日高町,池田,ワカヤマケン,ヒダカグンヒダカチョウ,イケダ,和歌山県日高郡日高町池田
6491211,和歌山県,日高郡日高町,荊木,ワカヤマケン,ヒダカグンヒダカチョウ,イバラキ,和歌山県日高郡日高町荊木
6491212,和歌山県,日高郡日高町,小中,ワカヤマケン,ヒダカグンヒダカチョウ,オナカ,和歌山県日高郡日高町小中
6491213,和歌山県,日高郡日高町,高家,ワカヤマケン,ヒダカグンヒダカチョウ,タイエ,和歌山県日高郡日高町高家
6491221,和歌山県,日高郡日高町,志賀,ワカヤマケン,ヒダカグンヒダカチョウ,シガ,和歌山県日高郡日高町志賀
6491222,和歌山県,日高郡日高町,小池,ワカヤマケン,ヒダカグンヒダカチョウ,オイケ,和歌山県日高郡日高町小池
6491223,和歌山県,日高郡日高町,小浦,ワカヤマケン,ヒダカグンヒダカチョウ,オウラ,和歌山県日高郡日高町小浦
6491224,和歌山県,日高郡日高町,津久野,ワカヤマケン,ヒダカグンヒダカチョウ,ツクノ,和歌山県日高郡日高町津久野
6491225,和歌山県,日高郡日高町,方杭,ワカヤマケン,ヒダカグンヒダカチョウ,カタクイ,和歌山県日高郡日高町方杭
6491231,和歌山県,日高郡日高町,小坂,ワカヤマケン,ヒダカグンヒダカチョウ,オサカ,和歌山県日高郡日高町小坂
6491232,和歌山県,日高郡日高町,阿尾,ワカヤマケン,ヒダカグンヒダカチョウ,アオ,和歌山県日高郡日高町阿尾
6491233,和歌山県,日高郡日高町,産湯,ワカヤマケン,ヒダカグンヒダカチョウ,ウブユ,和歌山県日高郡日高町産湯
6491234,和歌山県,日高郡日高町,比井,ワカヤマケン,ヒダカグンヒダカチョウ,ヒイ,和歌山県日高郡日高町比井
6491300,和歌山県,日高郡日高川町,,ワカヤマケン,ヒダカグンヒダカガワチョウ,,和歌山県日高郡日高川町
6491311,和歌山県,日高郡日高川町,平川,ワカヤマケン,ヒダカグンヒダカガワチョウ,ヒュウガワ,和歌山県日高郡日高川町平川
6491312,和歌山県,日高郡日高川町,三百瀬,ワカヤマケン,ヒダカグンヒダカガワチョウ,ミヨセ,和歌山県日高郡日高川町三百瀬
6491313,和歌山県,日高郡日高川町,伊藤川,ワカヤマケン,ヒダカグンヒダカガワチョウ,イトゴ,和歌山県日高郡日高川町伊藤川
6491314,和歌山県,日高郡日高川町,早藤,ワカヤマケン,ヒダカグンヒダカガワチョウ,ハイクズ,和歌山県日高郡日高川町早藤
6491315,和歌山県,日高郡日高川町,玄子,ワカヤマケン,ヒダカグンヒダカガワチョウ,ゲンゴ,和歌山県日高郡日高川町玄子
6491316,和歌山県,日高郡日高川町,蛇尾,ワカヤマケン,ヒダカグンヒダカガワチョウ,ヘビオ,和歌山県日高郡日高川町蛇尾
6491321,和歌山県,日高郡日高川町,入野,ワカヤマケン,ヒダカグンヒダカガワチョウ,ニュウノ,和歌山県日高郡日高川町入野
6491322,和歌山県,日高郡日高川町,若野,ワカヤマケン,ヒダカグンヒダカガワチョウ,ワカノ,和歌山県日高郡日高川町若野
6491323,和歌山県,日高郡日高川町,小熊,ワカヤマケン,ヒダカグンヒダカガワチョウ,コグマ,和歌山県日高郡日高川町小熊
6491324,和歌山県,日高郡日高川町,土生,ワカヤマケン,ヒダカグンヒダカガワチョウ,ハブ,和歌山県日高郡日高川町土生
6491325,和歌山県,日高郡日高川町,中津川,ワカヤマケン,ヒダカグンヒダカガワチョウ,ナカツカワ,和歌山県日高郡日高川町中津川
6491331,和歌山県,日高郡日高川町,鐘巻,ワカヤマケン,ヒダカグンヒダカガワチョウ,カネマキ,和歌山県日高郡日高川町鐘巻
6491332,和歌山県,日高郡日高川町,千津川,ワカヤマケン,ヒダカグンヒダカガワチョウ,センヅガワ,和歌山県日高郡日高川町千津川
6491341,和歌山県,御坊市,藤田町藤井,ワカヤマケン,ゴボウシ,フジタチョウフジイ,和歌山県御坊市藤田町藤井
6491342,和歌山県,御坊市,藤田町吉田,ワカヤマケン,ゴボウシ,フジタチョウヨシダ,和歌山県御坊市藤田町吉田
6491441,和歌山県,日高郡日高川町,山野,ワカヤマケン,ヒダカグンヒダカガワチョウ,サンヤ,和歌山県日高郡日高川町山野
6491442,和歌山県,日高郡日高川町,江川,ワカヤマケン,ヒダカグンヒダカガワチョウ,エカワ,和歌山県日高郡日高川町江川
6491443,和歌山県,日高郡日高川町,和佐,ワカヤマケン,ヒダカグンヒダカガワチョウ,ワサ,和歌山県日高郡日高川町和佐
6491444,和歌山県,日高郡日高川町,松瀬,ワカヤマケン,ヒダカグンヒダカガワチョウ,マツセ,和歌山県日高郡日高川町松瀬
6491500,和歌山県,日高郡印南町,,ワカヤマケン,ヒダカグンイナミチョウ,,和歌山県日高郡印南町
6491521,和歌山県,日高郡印南町,美里,ワカヤマケン,ヒダカグンイナミチョウ,ミサト,和歌山県日高郡印南町美里
6491522,和歌山県,日高郡印南町,古井,ワカヤマケン,ヒダカグンイナミチョウ,フルイ,和歌山県日高郡印南町古井
6491523,和歌山県,日高郡印南町,樮川,ワカヤマケン,ヒダカグンイナミチョウ,ホクソガワ,和歌山県日高郡印南町樮川
6491524,和歌山県,日高郡印南町,羽六,ワカヤマケン,ヒダカグンイナミチョウ,ハロク,和歌山県日高郡印南町羽六
6491525,和歌山県,日高郡印南町,古屋,ワカヤマケン,ヒダカグンイナミチョウ,フルヤ,和歌山県日高郡印南町古屋
6491526,和歌山県,日高郡印南町,宮ノ前,ワカヤマケン,ヒダカグンイナミチョウ,ミヤノマエ,和歌山県日高郡印南町宮ノ前
6491527,和歌山県,日高郡印南町,島田,ワカヤマケン,ヒダカグンイナミチョウ,シマダ,和歌山県日高郡印南町島田
6491528,和歌山県,日高郡印南町,西ノ地,ワカヤマケン,ヒダカグンイナミチョウ,ニシノジ,和歌山県日高郡印南町西ノ地
6491531,和歌山県,日高郡印南町,立石,ワカヤマケン,ヒダカグンイナミチョウ,タテイシ,和歌山県日高郡印南町立石
6491532,和歌山県,日高郡印南町,印南原,ワカヤマケン,ヒダカグンイナミチョウ,イナンバラ,和歌山県日高郡印南町印南原
6491533,和歌山県,日高郡印南町,山口,ワカヤマケン,ヒダカグンイナミチョウ,ヤマグチ,和歌山県日高郡印南町山口
6491534,和歌山県,日高郡印南町,印南,ワカヤマケン,ヒダカグンイナミチョウ,イナミ,和歌山県日高郡印南町印南
6491535,和歌山県,日高郡印南町,津井,ワカヤマケン,ヒダカグンイナミチョウ,ツイ,和歌山県日高郡印南町津井
6491536,和歌山県,日高郡印南町,南谷,ワカヤマケン,ヒダカグンイナミチョウ,ミナミダニ,和歌山県日高郡印南町南谷
6491537,和歌山県,日高郡印南町,明神川,ワカヤマケン,ヒダカグンイナミチョウ,ミョウジンガワ,和歌山県日高郡印南町明神川
6492100,和歌山県,西牟婁郡上富田町,,ワカヤマケン,ニシムログンカミトンダチョウ,,和歌山県西牟婁郡上富田町
6492101,和歌山県,西牟婁郡上富田町,岡,ワカヤマケン,ニシムログンカミトンダチョウ,オカ,和歌山県西牟婁郡上富田町岡
6492102,和歌山県,西牟婁郡上富田町,岩田,ワカヤマケン,ニシムログンカミトンダチョウ,イワダ,和歌山県西牟婁郡上富田町岩田
6492103,和歌山県,西牟婁郡上富田町,生馬,ワカヤマケン,ニシムログンカミトンダチョウ,イクマ,和歌山県西牟婁郡上富田町生馬
6492104,和歌山県,西牟婁郡上富田町,岩崎,ワカヤマケン,ニシムログンカミトンダチョウ,イワサキ,和歌山県西牟婁郡上富田町岩崎
6492105,和歌山県,西牟婁郡上富田町,朝来,ワカヤマケン,ニシムログンカミトンダチョウ,アッソ,和歌山県西牟婁郡上富田町朝来
6492106,和歌山県,西牟婁郡上富田町,南紀の台,ワカヤマケン,ニシムログンカミトンダチョウ,ナンキノダイ,和歌山県西牟婁郡上富田町南紀の台
6492107,和歌山県,西牟婁郡上富田町,市ノ瀬,ワカヤマケン,ニシムログンカミトンダチョウ,イチノセ,和歌山県西牟婁郡上富田町市ノ瀬
6492108,和歌山県,西牟婁郡上富田町,下鮎川,ワカヤマケン,ニシムログンカミトンダチョウ,シモアユカワ,和歌山県西牟婁郡上富田町下鮎川
6492200,和歌山県,西牟婁郡白浜町,,ワカヤマケン,ニシムログンシラハマチョウ,,和歌山県西牟婁郡白浜町
6492201,和歌山県,西牟婁郡白浜町,堅田,ワカヤマケン,ニシムログンシラハマチョウ,カタタ,和歌山県西牟婁郡白浜町堅田
6492211,和歌山県,西牟婁郡白浜町,,ワカヤマケン,ニシムログンシラハマチョウ,,和歌山県西牟婁郡白浜町
6492321,和歌山県,西牟婁郡白浜町,保呂,ワカヤマケン,ニシムログンシラハマチョウ,ホロ,和歌山県西牟婁郡白浜町保呂
6492322,和歌山県,西牟婁郡白浜町,内ノ川,ワカヤマケン,ニシムログンシラハマチョウ,ウチノカワ,和歌山県西牟婁郡白浜町内ノ川
6492323,和歌山県,西牟婁郡白浜町,庄川,ワカヤマケン,ニシムログンシラハマチョウ,シャガワ,和歌山県西牟婁郡白浜町庄川
6492324,和歌山県,西牟婁郡白浜町,十九渕,ワカヤマケン,ニシムログンシラハマチョウ,ツヅラフチ,和歌山県西牟婁郡白浜町十九渕
6492325,和歌山県,西牟婁郡白浜町,富田,ワカヤマケン,ニシムログンシラハマチョウ,トンダ,和歌山県西牟婁郡白浜町富田
6492326,和歌山県,西牟婁郡白浜町,椿,ワカヤマケン,ニシムログンシラハマチョウ,ツバキ,和歌山県西牟婁郡白浜町椿
6492331,和歌山県,西牟婁郡白浜町,平,ワカヤマケン,ニシムログンシラハマチョウ,タイラ,和歌山県西牟婁郡白浜町平
6492332,和歌山県,西牟婁郡白浜町,栄,ワカヤマケン,ニシムログンシラハマチョウ,サカエ,和歌山県西牟婁郡白浜町栄
6492333,和歌山県,西牟婁郡白浜町,中,ワカヤマケン,ニシムログンシラハマチョウ,ナカ,和歌山県西牟婁郡白浜町中
6492334,和歌山県,西牟婁郡白浜町,才野,ワカヤマケン,ニシムログンシラハマチョウ,サイノ,和歌山県西牟婁郡白浜町才野
6492511,和歌山県,西牟婁郡白浜町,日置,ワカヤマケン,ニシムログンシラハマチョウ,ヒキ,和歌山県西牟婁郡白浜町日置
6492521,和歌山県,西牟婁郡白浜町,大古,ワカヤマケン,ニシムログンシラハマチョウ,オオフル,和歌山県西牟婁郡白浜町大古
6492522,和歌山県,西牟婁郡白浜町,矢田,ワカヤマケン,ニシムログンシラハマチョウ,ヤタ,和歌山県西牟婁郡白浜町矢田
6492523,和歌山県,西牟婁郡白浜町,田野井,ワカヤマケン,ニシムログンシラハマチョウ,タノイ,和歌山県西牟婁郡白浜町田野井
6492524,和歌山県,西牟婁郡白浜町,安宅,ワカヤマケン,ニシムログンシラハマチョウ,アタギ,和歌山県西牟婁郡白浜町安宅
6492525,和歌山県,西牟婁郡白浜町,塩野,ワカヤマケン,ニシムログンシラハマチョウ,シオノ,和歌山県西牟婁郡白浜町塩野
6492531,和歌山県,西牟婁郡白浜町,口ケ谷,ワカヤマケン,ニシムログンシラハマチョウ,クチガタニ,和歌山県西牟婁郡白浜町口ケ谷
6492532,和歌山県,西牟婁郡白浜町,安居,ワカヤマケン,ニシムログンシラハマチョウ,アゴ,和歌山県西牟婁郡白浜町安居
6492533,和歌山県,西牟婁郡白浜町,中嶋,ワカヤマケン,ニシムログンシラハマチョウ,ナカジマ,和歌山県西牟婁郡白浜町中嶋
6492534,和歌山県,西牟婁郡白浜町,寺山,ワカヤマケン,ニシムログンシラハマチョウ,テラヤマ,和歌山県西牟婁郡白浜町寺山
6492535,和歌山県,西牟婁郡白浜町,向平,ワカヤマケン,ニシムログンシラハマチョウ,ムカイダイラ,和歌山県西牟婁郡白浜町向平
6492536,和歌山県,西牟婁郡白浜町,久木,ワカヤマケン,ニシムログンシラハマチョウ,ヒサギ,和歌山県西牟婁郡白浜町久木
6492537,和歌山県,西牟婁郡白浜町,宇津木,ワカヤマケン,ニシムログンシラハマチョウ,ウツギ,和歌山県西牟婁郡白浜町宇津木
6492538,和歌山県,西牟婁郡白浜町,小川,ワカヤマケン,ニシムログンシラハマチョウ,コガワ,和歌山県西牟婁郡白浜町小川
6492539,和歌山県,西牟婁郡白浜町,城,ワカヤマケン,ニシムログンシラハマチョウ,ジョウ,和歌山県西牟婁郡白浜町城
6492600,和歌山県,西牟婁郡すさみ町,,ワカヤマケン,ニシムログンスサミチョウ,,和歌山県西牟婁郡すさみ町
6492601,和歌山県,西牟婁郡すさみ町,小附,ワカヤマケン,ニシムログンスサミチョウ,コツキ,和歌山県西牟婁郡すさみ町小附
6492602,和歌山県,西牟婁郡すさみ町,大附,ワカヤマケン,ニシムログンスサミチョウ,オオツキ,和歌山県西牟婁郡すさみ町大附
6492603,和歌山県,西牟婁郡すさみ町,小河内,ワカヤマケン,ニシムログンスサミチョウ,オカウチ,和歌山県西牟婁郡すさみ町小河内
6492604,和歌山県,西牟婁郡すさみ町,矢野口,ワカヤマケン,ニシムログンスサミチョウ,ヤノクチ,和歌山県西牟婁郡すさみ町矢野口
6492611,和歌山県,西牟婁郡すさみ町,和深川,ワカヤマケン,ニシムログンスサミチョウ,ワブカガワ,和歌山県西牟婁郡すさみ町和深川
6492612,和歌山県,西牟婁郡すさみ町,口和深,ワカヤマケン,ニシムログンスサミチョウ,クチワブカ,和歌山県西牟婁郡すさみ町口和深
6492621,和歌山県,西牟婁郡すさみ町,周参見,ワカヤマケン,ニシムログンスサミチョウ,スサミ,和歌山県西牟婁郡すさみ町周参見
6492631,和歌山県,西牟婁郡すさみ町,太間川,ワカヤマケン,ニシムログンスサミチョウ,タイマガワ,和歌山県西牟婁郡すさみ町太間川
6493141,和歌山県,西牟婁郡すさみ町,見老津,ワカヤマケン,ニシムログンスサミチョウ,ミロヅ,和歌山県西牟婁郡すさみ町見老津
6493142,和歌山県,西牟婁郡すさみ町,江住,ワカヤマケン,ニシムログンスサミチョウ,エスミ,和歌山県西牟婁郡すさみ町江住
6493143,和歌山県,西牟婁郡すさみ町,里野,ワカヤマケン,ニシムログンスサミチョウ,サトノ,和歌山県西牟婁郡すさみ町里野
6493151,和歌山県,西牟婁郡すさみ町,大鎌,ワカヤマケン,ニシムログンスサミチョウ,オオガマ,和歌山県西牟婁郡すさみ町大鎌
6493152,和歌山県,西牟婁郡すさみ町,防己,ワカヤマケン,ニシムログンスサミチョウ,ツヅラ,和歌山県西牟婁郡すさみ町防己
6493153,和歌山県,西牟婁郡すさみ町,大谷,ワカヤマケン,ニシムログンスサミチョウ,オオタニ,和歌山県西牟婁郡すさみ町大谷
6493161,和歌山県,西牟婁郡すさみ町,佐本中,ワカヤマケン,ニシムログンスサミチョウ,サモトナカ,和歌山県西牟婁郡すさみ町佐本中
6493162,和歌山県,西牟婁郡すさみ町,佐本追川,ワカヤマケン,ニシムログンスサミチョウ,サモトオイガワ,和歌山県西牟婁郡すさみ町佐本追川
6493163,和歌山県,西牟婁郡すさみ町,佐本西栗垣内,ワカヤマケン,ニシムログンスサミチョウ,サモトニシクリガイト,和歌山県西牟婁郡すさみ町佐本西栗垣内
6493164,和歌山県,西牟婁郡すさみ町,佐本東栗垣内,ワカヤマケン,ニシムログンスサミチョウ,サモトヒガシクリガイト,和歌山県西牟婁郡すさみ町佐本東栗垣内
6493165,和歌山県,西牟婁郡すさみ町,佐本中野,ワカヤマケン,ニシムログンスサミチョウ,サモトナカノ,和歌山県西牟婁郡すさみ町佐本中野
6493166,和歌山県,西牟婁郡すさみ町,佐本西野川,ワカヤマケン,ニシムログンスサミチョウ,サモトニシノカワ,和歌山県西牟婁郡すさみ町佐本西野川
6493167,和歌山県,西牟婁郡すさみ町,佐本平野,ワカヤマケン,ニシムログンスサミチョウ,サモトヒラノ,和歌山県西牟婁郡すさみ町佐本平野
6493168,和歌山県,西牟婁郡すさみ町,佐本根倉,ワカヤマケン,ニシムログンスサミチョウ,サモトネクラ,和歌山県西牟婁郡すさみ町佐本根倉
6493169,和歌山県,西牟婁郡すさみ町,佐本深谷,ワカヤマケン,ニシムログンスサミチョウ,サモトフカタニ,和歌山県西牟婁郡すさみ町佐本深谷
6493500,和歌山県,東牟婁郡串本町,,ワカヤマケン,ヒガシムログンクシモトチョウ,,和歌山県東牟婁郡串本町
6493501,和歌山県,東牟婁郡串本町,出雲,ワカヤマケン,ヒガシムログンクシモトチョウ,イツモ,和歌山県東牟婁郡串本町出雲
6493502,和歌山県,東牟婁郡串本町,潮岬,ワカヤマケン,ヒガシムログンクシモトチョウ,シオノミサキ,和歌山県東牟婁郡串本町潮岬
6493503,和歌山県,東牟婁郡串本町,串本,ワカヤマケン,ヒガシムログンクシモトチョウ,クシモト,和歌山県東牟婁郡串本町串本
6493510,和歌山県,東牟婁郡串本町,サンゴ台,ワカヤマケン,ヒガシムログンクシモトチョウ,サンゴダイ,和歌山県東牟婁郡串本町サンゴ台
6493511,和歌山県,東牟婁郡串本町,鬮野川,ワカヤマケン,ヒガシムログンクシモトチョウ,クジノカワ,和歌山県東牟婁郡串本町鬮野川
6493512,和歌山県,東牟婁郡串本町,二色,ワカヤマケン,ヒガシムログンクシモトチョウ,ニシキ,和歌山県東牟婁郡串本町二色
6493513,和歌山県,東牟婁郡串本町,高富,ワカヤマケン,ヒガシムログンクシモトチョウ,タカトミ,和歌山県東牟婁郡串本町高富
6493514,和歌山県,東牟婁郡串本町,有田,ワカヤマケン,ヒガシムログンクシモトチョウ,アリダ,和歌山県東牟婁郡串本町有田
6493515,和歌山県,東牟婁郡串本町,田並,ワカヤマケン,ヒガシムログンクシモトチョウ,タナミ,和歌山県東牟婁郡串本町田並
6493516,和歌山県,東牟婁郡串本町,田並上,ワカヤマケン,ヒガシムログンクシモトチョウ,タナミカミ,和歌山県東牟婁郡串本町田並上
6493517,和歌山県,東牟婁郡串本町,吐生,ワカヤマケン,ヒガシムログンクシモトチョウ,ハブ,和歌山県東牟婁郡串本町吐生
6493518,和歌山県,東牟婁郡串本町,有田上,ワカヤマケン,ヒガシムログンクシモトチョウ,アリダカミ,和歌山県東牟婁郡串本町有田上
6493521,和歌山県,東牟婁郡串本町,江田,ワカヤマケン,ヒガシムログンクシモトチョウ,エダ,和歌山県東牟婁郡串本町江田
6493522,和歌山県,東牟婁郡串本町,田子,ワカヤマケン,ヒガシムログンクシモトチョウ,タコ,和歌山県東牟婁郡串本町田子
6493523,和歌山県,東牟婁郡串本町,和深,ワカヤマケン,ヒガシムログンクシモトチョウ,ワブカ,和歌山県東牟婁郡串本町和深
6493524,和歌山県,東牟婁郡串本町,里川,ワカヤマケン,ヒガシムログンクシモトチョウ,サトガワ,和歌山県東牟婁郡串本町里川
6493631,和歌山県,東牟婁郡串本町,樫野,ワカヤマケン,ヒガシムログンクシモトチョウ,カシノ,和歌山県東牟婁郡串本町樫野
6493632,和歌山県,東牟婁郡串本町,須江,ワカヤマケン,ヒガシムログンクシモトチョウ,スエ,和歌山県東牟婁郡串本町須江
6493633,和歌山県,東牟婁郡串本町,大島,ワカヤマケン,ヒガシムログンクシモトチョウ,オオシマ,和歌山県東牟婁郡串本町大島
6494100,和歌山県,東牟婁郡古座川町,,ワカヤマケン,ヒガシムログンコザガワチョウ,,和歌山県東牟婁郡古座川町
6494101,和歌山県,東牟婁郡古座川町,樫山,ワカヤマケン,ヒガシムログンコザガワチョウ,カシヤマ,和歌山県東牟婁郡古座川町樫山
6494102,和歌山県,東牟婁郡古座川町,楠,ワカヤマケン,ヒガシムログンコザガワチョウ,クス,和歌山県東牟婁郡古座川町楠
6494103,和歌山県,東牟婁郡古座川町,池野山,ワカヤマケン,ヒガシムログンコザガワチョウ,イケノヤマ,和歌山県東牟婁郡古座川町池野山
6494104,和歌山県,東牟婁郡古座川町,高池,ワカヤマケン,ヒガシムログンコザガワチョウ,タカイケ,和歌山県東牟婁郡古座川町高池
6494105,和歌山県,東牟婁郡古座川町,宇津木,ワカヤマケン,ヒガシムログンコザガワチョウ,ウツギ,和歌山県東牟婁郡古座川町宇津木
6494106,和歌山県,東牟婁郡古座川町,月野瀬,ワカヤマケン,ヒガシムログンコザガワチョウ,ツキノセ,和歌山県東牟婁郡古座川町月野瀬
6494111,和歌山県,東牟婁郡串本町,上田原,ワカヤマケン,ヒガシムログンクシモトチョウ,カミタワラ,和歌山県東牟婁郡串本町上田原
6494112,和歌山県,東牟婁郡串本町,田原,ワカヤマケン,ヒガシムログンクシモトチョウ,タワラ,和歌山県東牟婁郡串本町田原
6494113,和歌山県,東牟婁郡串本町,津荷,ワカヤマケン,ヒガシムログンクシモトチョウ,ツガ,和歌山県東牟婁郡串本町津荷
6494114,和歌山県,東牟婁郡串本町,上野山,ワカヤマケン,ヒガシムログンクシモトチョウ,ウエノヤマ,和歌山県東牟婁郡串本町上野山
6494115,和歌山県,東牟婁郡串本町,古座,ワカヤマケン,ヒガシムログンクシモトチョウ,コザ,和歌山県東牟婁郡串本町古座
6494116,和歌山県,東牟婁郡串本町,中湊,ワカヤマケン,ヒガシムログンクシモトチョウ,ナカミナト,和歌山県東牟婁郡串本町中湊
6494117,和歌山県,東牟婁郡串本町,佐部,ワカヤマケン,ヒガシムログンクシモトチョウ,サベ,和歌山県東牟婁郡串本町佐部
6494121,和歌山県,東牟婁郡串本町,古田,ワカヤマケン,ヒガシムログンクシモトチョウ,フルタ,和歌山県東牟婁郡串本町古田
6494122,和歌山県,東牟婁郡串本町,西向,ワカヤマケン,ヒガシムログンクシモトチョウ,ニシムカイ,和歌山県東牟婁郡串本町西向
6494123,和歌山県,東牟婁郡串本町,神野川,ワカヤマケン,ヒガシムログンクシモトチョウ,コノガワ,和歌山県東牟婁郡串本町神野川
6494124,和歌山県,東牟婁郡串本町,伊串,ワカヤマケン,ヒガシムログンクシモトチョウ,イクシ,和歌山県東牟婁郡串本町伊串
6494125,和歌山県,東牟婁郡串本町,姫,ワカヤマケン,ヒガシムログンクシモトチョウ,ヒメ,和歌山県東牟婁郡串本町姫
6494126,和歌山県,東牟婁郡串本町,姫川,ワカヤマケン,ヒガシムログンクシモトチョウ,ヒメガワ,和歌山県東牟婁郡串本町姫川
6494211,和歌山県,東牟婁郡古座川町,小森川,ワカヤマケン,ヒガシムログンコザガワチョウ,コモリガワ,和歌山県東牟婁郡古座川町小森川
6494212,和歌山県,東牟婁郡古座川町,田川,ワカヤマケン,ヒガシムログンコザガワチョウ,タガワ,和歌山県東牟婁郡古座川町田川
6494213,和歌山県,東牟婁郡古座川町,西赤木,ワカヤマケン,ヒガシムログンコザガワチョウ,ニシアカギ,和歌山県東牟婁郡古座川町西赤木
6494214,和歌山県,東牟婁郡古座川町,宇筒井,ワカヤマケン,ヒガシムログンコザガワチョウ,ウヅツイ,和歌山県東牟婁郡古座川町宇筒井
6494215,和歌山県,東牟婁郡古座川町,大桑,ワカヤマケン,ヒガシムログンコザガワチョウ,オオグワ,和歌山県東牟婁郡古座川町大桑
6494216,和歌山県,東牟婁郡古座川町,小川,ワカヤマケン,ヒガシムログンコザガワチョウ,コガワ,和歌山県東牟婁郡古座川町小川
6494217,和歌山県,東牟婁郡古座川町,山手,ワカヤマケン,ヒガシムログンコザガワチョウ,ヤマテ,和歌山県東牟婁郡古座川町山手
6494221,和歌山県,東牟婁郡古座川町,中崎,ワカヤマケン,ヒガシムログンコザガワチョウ,ナカザキ,和歌山県東牟婁郡古座川町中崎
6494222,和歌山県,東牟婁郡古座川町,直見,ワカヤマケン,ヒガシムログンコザガワチョウ,ヌクミ,和歌山県東牟婁郡古座川町直見
6494223,和歌山県,東牟婁郡古座川町,川口,ワカヤマケン,ヒガシムログンコザガワチョウ,カワグチ,和歌山県東牟婁郡古座川町川口
6494224,和歌山県,東牟婁郡古座川町,高瀬,ワカヤマケン,ヒガシムログンコザガワチョウ,タカセ,和歌山県東牟婁郡古座川町高瀬
6494225,和歌山県,東牟婁郡古座川町,潤野,ワカヤマケン,ヒガシムログンコザガワチョウ,ウルノ,和歌山県東牟婁郡古座川町潤野
6494226,和歌山県,東牟婁郡古座川町,明神,ワカヤマケン,ヒガシムログンコザガワチョウ,ミョウジン,和歌山県東牟婁郡古座川町明神
6494227,和歌山県,東牟婁郡古座川町,大柳,ワカヤマケン,ヒガシムログンコザガワチョウ,オオヤナギ,和歌山県東牟婁郡古座川町大柳
6494231,和歌山県,東牟婁郡古座川町,鶴川,ワカヤマケン,ヒガシムログンコザガワチョウ,ツルガワ,和歌山県東牟婁郡古座川町鶴川
6494232,和歌山県,東牟婁郡古座川町,一雨,ワカヤマケン,ヒガシムログンコザガワチョウ,イチブリ,和歌山県東牟婁郡古座川町一雨
6494233,和歌山県,東牟婁郡古座川町,立合,ワカヤマケン,ヒガシムログンコザガワチョウ,タチアイ,和歌山県東牟婁郡古座川町立合
6494234,和歌山県,東牟婁郡古座川町,峰,ワカヤマケン,ヒガシムログンコザガワチョウ,ミネ,和歌山県東牟婁郡古座川町峰
6494235,和歌山県,東牟婁郡古座川町,相瀬,ワカヤマケン,ヒガシムログンコザガワチョウ,アイセ,和歌山県東牟婁郡古座川町相瀬
6494236,和歌山県,東牟婁郡古座川町,立合川,ワカヤマケン,ヒガシムログンコザガワチョウ,タチアイガワ,和歌山県東牟婁郡古座川町立合川
6494441,和歌山県,東牟婁郡古座川町,添野川,ワカヤマケン,ヒガシムログンコザガワチョウ,ソイノガワ,和歌山県東牟婁郡古座川町添野川
6494442,和歌山県,東牟婁郡古座川町,佐田,ワカヤマケン,ヒガシムログンコザガワチョウ,サダ,和歌山県東牟婁郡古座川町佐田
6494443,和歌山県,東牟婁郡古座川町,真砂,ワカヤマケン,ヒガシムログンコザガワチョウ,マナゴ,和歌山県東牟婁郡古座川町真砂
6494444,和歌山県,東牟婁郡古座川町,長追,ワカヤマケン,ヒガシムログンコザガワチョウ,ナガオイ,和歌山県東牟婁郡古座川町長追
6494451,和歌山県,東牟婁郡古座川町,大川,ワカヤマケン,ヒガシムログンコザガワチョウ,オオカワ,和歌山県東牟婁郡古座川町大川
6494452,和歌山県,東牟婁郡古座川町,蔵土,ワカヤマケン,ヒガシムログンコザガワチョウ,クロズ,和歌山県東牟婁郡古座川町蔵土
6494453,和歌山県,東牟婁郡古座川町,洞尾,ワカヤマケン,ヒガシムログンコザガワチョウ,ウツオ,和歌山県東牟婁郡古座川町洞尾
6494454,和歌山県,東牟婁郡古座川町,南平,ワカヤマケン,ヒガシムログンコザガワチョウ,ナベラ,和歌山県東牟婁郡古座川町南平
6494455,和歌山県,東牟婁郡古座川町,三尾川,ワカヤマケン,ヒガシムログンコザガワチョウ,ミトガワ,和歌山県東牟婁郡古座川町三尾川
6494561,和歌山県,東牟婁郡古座川町,西川,ワカヤマケン,ヒガシムログンコザガワチョウ,ニシカワ,和歌山県東牟婁郡古座川町西川
6494562,和歌山県,東牟婁郡古座川町,下露,ワカヤマケン,ヒガシムログンコザガワチョウ,シモツユ,和歌山県東牟婁郡古座川町下露
6494563,和歌山県,東牟婁郡古座川町,平井,ワカヤマケン,ヒガシムログンコザガワチョウ,ヒライ,和歌山県東牟婁郡古座川町平井
6494564,和歌山県,東牟婁郡古座川町,松根,ワカヤマケン,ヒガシムログンコザガワチョウ,マツネ,和歌山県東牟婁郡古座川町松根
6494565,和歌山県,東牟婁郡古座川町,成川,ワカヤマケン,ヒガシムログンコザガワチョウ,ナルカワ,和歌山県東牟婁郡古座川町成川
6495100,和歌山県,東牟婁郡太地町,,ワカヤマケン,ヒガシムログンタイジチョウ,,和歌山県東牟婁郡太地町
6495131,和歌山県,東牟婁郡那智勝浦町,西中野川,ワカヤマケン,ヒガシムログンナチカツウラチョウ,ニシナカノカワ,和歌山県東牟婁郡那智勝浦町西中野川
6495132,和歌山県,東牟婁郡那智勝浦町,中ノ川,ワカヤマケン,ヒガシムログンナチカツウラチョウ,ナカノカワ,和歌山県東牟婁郡那智勝浦町中ノ川
6495133,和歌山県,東牟婁郡那智勝浦町,井鹿,ワカヤマケン,ヒガシムログンナチカツウラチョウ,イジシ,和歌山県東牟婁郡那智勝浦町井鹿
6495134,和歌山県,東牟婁郡那智勝浦町,南大居,ワカヤマケン,ヒガシムログンナチカツウラチョウ,ミナミオオイ,和歌山県東牟婁郡那智勝浦町南大居
6495135,和歌山県,東牟婁郡那智勝浦町,高遠井,ワカヤマケン,ヒガシムログンナチカツウラチョウ,コウドオイ,和歌山県東牟婁郡那智勝浦町高遠井
6495136,和歌山県,東牟婁郡那智勝浦町,長井,ワカヤマケン,ヒガシムログンナチカツウラチョウ,ナガイ,和歌山県東牟婁郡那智勝浦町長井
6495137,和歌山県,東牟婁郡那智勝浦町,小匠,ワカヤマケン,ヒガシムログンナチカツウラチョウ,コダクミ,和歌山県東牟婁郡那智勝浦町小匠
6495141,和歌山県,東牟婁郡那智勝浦町,市屋（その他）,ワカヤマケン,ヒガシムログンナチカツウラチョウ,イチヤ(ソノタ),和歌山県東牟婁郡那智勝浦町市屋（その他）
6495142,和歌山県,東牟婁郡那智勝浦町,下里,ワカヤマケン,ヒガシムログンナチカツウラチョウ,シモサト,和歌山県東牟婁郡那智勝浦町下里
6495143,和歌山県,東牟婁郡那智勝浦町,八尺鏡野,ワカヤマケン,ヒガシムログンナチカツウラチョウ,ヤタガノ,和歌山県東牟婁郡那智勝浦町八尺鏡野
6495144,和歌山県,東牟婁郡那智勝浦町,粉白,ワカヤマケン,ヒガシムログンナチカツウラチョウ,コノシロ,和歌山県東牟婁郡那智勝浦町粉白
6495145,和歌山県,東牟婁郡那智勝浦町,浦神,ワカヤマケン,ヒガシムログンナチカツウラチョウ,ウラガミ,和歌山県東牟婁郡那智勝浦町浦神
6495146,和歌山県,東牟婁郡那智勝浦町,中里,ワカヤマケン,ヒガシムログンナチカツウラチョウ,ナカサト,和歌山県東牟婁郡那智勝浦町中里
6495147,和歌山県,東牟婁郡那智勝浦町,庄,ワカヤマケン,ヒガシムログンナチカツウラチョウ,ショウ,和歌山県東牟婁郡那智勝浦町庄
6495148,和歌山県,東牟婁郡那智勝浦町,下和田,ワカヤマケン,ヒガシムログンナチカツウラチョウ,シモワダ,和歌山県東牟婁郡那智勝浦町下和田
6495171,和歌山県,東牟婁郡太地町,太地（その他）,ワカヤマケン,ヒガシムログンタイジチョウ,タイジ(ソノタ),和歌山県東牟婁郡太地町太地（その他）
6495172,和歌山県,東牟婁郡太地町,森浦,ワカヤマケン,ヒガシムログンタイジチョウ,モリウラ,和歌山県東牟婁郡太地町森浦
6495300,和歌山県,東牟婁郡那智勝浦町,,ワカヤマケン,ヒガシムログンナチカツウラチョウ,,和歌山県東牟婁郡那智勝浦町
6495301,和歌山県,東牟婁郡那智勝浦町,那智山,ワカヤマケン,ヒガシムログンナチカツウラチョウ,ナチサン,和歌山県東牟婁郡那智勝浦町那智山
6495302,和歌山県,東牟婁郡那智勝浦町,市野々,ワカヤマケン,ヒガシムログンナチカツウラチョウ,イチノノ,和歌山県東牟婁郡那智勝浦町市野々
6495303,和歌山県,東牟婁郡那智勝浦町,井関,ワカヤマケン,ヒガシムログンナチカツウラチョウ,イセキ,和歌山県東牟婁郡那智勝浦町井関
6495304,和歌山県,東牟婁郡那智勝浦町,川関,ワカヤマケン,ヒガシムログンナチカツウラチョウ,カワセキ,和歌山県東牟婁郡那智勝浦町川関
6495311,和歌山県,東牟婁郡那智勝浦町,高津気,ワカヤマケン,ヒガシムログンナチカツウラチョウ,コウヅケ,和歌山県東牟婁郡那智勝浦町高津気
6495312,和歌山県,東牟婁郡那智勝浦町,宇久井,ワカヤマケン,ヒガシムログンナチカツウラチョウ,ウグイ,和歌山県東牟婁郡那智勝浦町宇久井
6495313,和歌山県,東牟婁郡那智勝浦町,狗子ノ川,ワカヤマケン,ヒガシムログンナチカツウラチョウ,クジノカワ,和歌山県東牟婁郡那智勝浦町狗子ノ川
6495314,和歌山県,東牟婁郡那智勝浦町,浜ノ宮,ワカヤマケン,ヒガシムログンナチカツウラチョウ,ハマノミヤ,和歌山県東牟婁郡那智勝浦町浜ノ宮
6495331,和歌山県,東牟婁郡那智勝浦町,天満,ワカヤマケン,ヒガシムログンナチカツウラチョウ,テンマ,和歌山県東牟婁郡那智勝浦町天満
6495332,和歌山県,東牟婁郡那智勝浦町,朝日,ワカヤマケン,ヒガシムログンナチカツウラチョウ,アサヒ,和歌山県東牟婁郡那智勝浦町朝日
6495333,和歌山県,東牟婁郡那智勝浦町,北浜,ワカヤマケン,ヒガシムログンナチカツウラチョウ,キタハマ,和歌山県東牟婁郡那智勝浦町北浜
6495334,和歌山県,東牟婁郡那智勝浦町,勝浦,ワカヤマケン,ヒガシムログンナチカツウラチョウ,カツウラ,和歌山県東牟婁郡那智勝浦町勝浦
6495335,和歌山県,東牟婁郡那智勝浦町,築地,ワカヤマケン,ヒガシムログンナチカツウラチョウ,ツキジ,和歌山県東牟婁郡那智勝浦町築地
6495336,和歌山県,東牟婁郡那智勝浦町,湯川,ワカヤマケン,ヒガシムログンナチカツウラチョウ,ユカワ,和歌山県東牟婁郡那智勝浦町湯川
6495337,和歌山県,東牟婁郡那智勝浦町,橋ノ川,ワカヤマケン,ヒガシムログンナチカツウラチョウ,ハシノカワ,和歌山県東牟婁郡那智勝浦町橋ノ川
6495338,和歌山県,東牟婁郡那智勝浦町,二河,ワカヤマケン,ヒガシムログンナチカツウラチョウ,ニコウ,和歌山県東牟婁郡那智勝浦町二河
6495339,和歌山県,東牟婁郡那智勝浦町,市屋（大浦、１０５４−９）,ワカヤマケン,ヒガシムログンナチカツウラチョウ,イチヤ(オオウラ、1054-9),和歌山県東牟婁郡那智勝浦町市屋（大浦、1054-9）
6495371,和歌山県,東牟婁郡太地町,太地（３７７２〜３９０４番地）,ワカヤマケン,ヒガシムログンタイジチョウ,タイジ(3772-3904バンチ),和歌山県東牟婁郡太地町太地（3772〜3904-）
6495451,和歌山県,東牟婁郡那智勝浦町,口色川,ワカヤマケン,ヒガシムログンナチカツウラチョウ,クチイロカワ,和歌山県東牟婁郡那智勝浦町口色川
6495452,和歌山県,東牟婁郡那智勝浦町,小阪,ワカヤマケン,ヒガシムログンナチカツウラチョウ,コサカ,和歌山県東牟婁郡那智勝浦町小阪
6495453,和歌山県,東牟婁郡那智勝浦町,南平野,ワカヤマケン,ヒガシムログンナチカツウラチョウ,ミナミヒラノ,和歌山県東牟婁郡那智勝浦町南平野
6495454,和歌山県,東牟婁郡那智勝浦町,熊瀬川,ワカヤマケン,ヒガシムログンナチカツウラチョウ,クマセガワ,和歌山県東牟婁郡那智勝浦町熊瀬川
6495461,和歌山県,東牟婁郡那智勝浦町,大野,ワカヤマケン,ヒガシムログンナチカツウラチョウ,オオノ,和歌山県東牟婁郡那智勝浦町大野
6495462,和歌山県,東牟婁郡那智勝浦町,田垣内,ワカヤマケン,ヒガシムログンナチカツウラチョウ,タガイト,和歌山県東牟婁郡那智勝浦町田垣内
6495463,和歌山県,東牟婁郡那智勝浦町,高野,ワカヤマケン,ヒガシムログンナチカツウラチョウ,タカノ,和歌山県東牟婁郡那智勝浦町高野
6495464,和歌山県,東牟婁郡那智勝浦町,直柱,ワカヤマケン,ヒガシムログンナチカツウラチョウ,ヒタハシラ,和歌山県東牟婁郡那智勝浦町直柱
6495465,和歌山県,東牟婁郡那智勝浦町,坂足,ワカヤマケン,ヒガシムログンナチカツウラチョウ,サカアシ,和歌山県東牟婁郡那智勝浦町坂足
6495466,和歌山県,東牟婁郡那智勝浦町,樫原,ワカヤマケン,ヒガシムログンナチカツウラチョウ,カシワラ,和歌山県東牟婁郡那智勝浦町樫原
6496101,和歌山県,紀の川市,桃山町善田,ワカヤマケン,キノカワシ,モモヤマチョウゼンダ,和歌山県紀の川市桃山町善田
6496102,和歌山県,紀の川市,桃山町黒川,ワカヤマケン,キノカワシ,モモヤマチョウクロカワ,和歌山県紀の川市桃山町黒川
6496103,和歌山県,紀の川市,桃山町野田原,ワカヤマケン,キノカワシ,モモヤマチョウノタハラ,和歌山県紀の川市桃山町野田原
6496104,和歌山県,紀の川市,桃山町脇谷,ワカヤマケン,キノカワシ,モモヤマチョウワキダニ,和歌山県紀の川市桃山町脇谷
6496105,和歌山県,紀の川市,桃山町大原,ワカヤマケン,キノカワシ,モモヤマチョウオオバラ,和歌山県紀の川市桃山町大原
6496111,和歌山県,紀の川市,桃山町最上,ワカヤマケン,キノカワシ,モモヤマチョウモガミ,和歌山県紀の川市桃山町最上
6496112,和歌山県,紀の川市,桃山町調月,ワカヤマケン,キノカワシ,モモヤマチョウツカツキ,和歌山県紀の川市桃山町調月
6496121,和歌山県,紀の川市,桃山町段新田,ワカヤマケン,キノカワシ,モモヤマチョウダンシンデン,和歌山県紀の川市桃山町段新田
6496122,和歌山県,紀の川市,桃山町元,ワカヤマケン,キノカワシ,モモヤマチョウモト,和歌山県紀の川市桃山町元
6496123,和歌山県,紀の川市,桃山町神田,ワカヤマケン,キノカワシ,モモヤマチョウコウダ,和歌山県紀の川市桃山町神田
6496124,和歌山県,紀の川市,桃山町市場,ワカヤマケン,キノカワシ,モモヤマチョウイチバ,和歌山県紀の川市桃山町市場
6496125,和歌山県,紀の川市,桃山町段,ワカヤマケン,キノカワシ,モモヤマチョウダン,和歌山県紀の川市桃山町段
6496161,和歌山県,紀の川市,高野,ワカヤマケン,キノカワシ,タカノ,和歌山県紀の川市高野
6496162,和歌山県,紀の川市,竹房（４５１番地以上）,ワカヤマケン,キノカワシ,タケブサ(451バンチイジョウ),和歌山県紀の川市竹房（451-以上）
6496200,和歌山県,岩出市,,ワカヤマケン,イワデシ,,和歌山県岩出市
6496201,和歌山県,岩出市,押川,ワカヤマケン,イワデシ,オシガワ,和歌山県岩出市押川
6496202,和歌山県,岩出市,根来,ワカヤマケン,イワデシ,ネゴロ,和歌山県岩出市根来
6496203,和歌山県,岩出市,桜台,ワカヤマケン,イワデシ,サクラダイ,和歌山県岩出市桜台
6496204,和歌山県,岩出市,今中,ワカヤマケン,イワデシ,イマナカ,和歌山県岩出市今中
6496205,和歌山県,岩出市,森,ワカヤマケン,イワデシ,モリ,和歌山県岩出市森
6496206,和歌山県,岩出市,堀口,ワカヤマケン,イワデシ,ホリグチ,和歌山県岩出市堀口
6496207,和歌山県,岩出市,尼ケ辻,ワカヤマケン,イワデシ,アマガツジ,和歌山県岩出市尼ケ辻
6496208,和歌山県,岩出市,今畑,ワカヤマケン,イワデシ,イマハタ,和歌山県岩出市今畑
6496211,和歌山県,岩出市,東坂本,ワカヤマケン,イワデシ,ヒガシサカモト,和歌山県岩出市東坂本
6496212,和歌山県,岩出市,新田広芝,ワカヤマケン,イワデシ,シンデンヒロシバ,和歌山県岩出市新田広芝
6496213,和歌山県,岩出市,西国分,ワカヤマケン,イワデシ,ニシコクブ,和歌山県岩出市西国分
6496214,和歌山県,岩出市,水栖,ワカヤマケン,イワデシ,ミズス,和歌山県岩出市水栖
6496215,和歌山県,岩出市,中迫,ワカヤマケン,イワデシ,ナカブサ,和歌山県岩出市中迫
6496216,和歌山県,岩出市,野上野,ワカヤマケン,イワデシ,ノジョノ,和歌山県岩出市野上野
6496217,和歌山県,岩出市,山田,ワカヤマケン,イワデシ,ヤマダ,和歌山県岩出市山田
6496218,和歌山県,岩出市,南大池,ワカヤマケン,イワデシ,ミナミオイケ,和歌山県岩出市南大池
6496219,和歌山県,岩出市,北大池,ワカヤマケン,イワデシ,キタオイケ,和歌山県岩出市北大池
6496221,和歌山県,岩出市,溝川,ワカヤマケン,イワデシ,ミゾカワ,和歌山県岩出市溝川
6496222,和歌山県,岩出市,岡田,ワカヤマケン,イワデシ,オカダ,和歌山県岩出市岡田
6496223,和歌山県,岩出市,高塚,ワカヤマケン,イワデシ,タカツカ,和歌山県岩出市高塚
6496224,和歌山県,岩出市,山崎,ワカヤマケン,イワデシ,ヤマサキ,和歌山県岩出市山崎
6496225,和歌山県,岩出市,船戸,ワカヤマケン,イワデシ,フナト,和歌山県岩出市船戸
6496226,和歌山県,岩出市,宮,ワカヤマケン,イワデシ,ミヤ,和歌山県岩出市宮
6496227,和歌山県,岩出市,清水,ワカヤマケン,イワデシ,シミズ,和歌山県岩出市清水
6496228,和歌山県,岩出市,大町,ワカヤマケン,イワデシ,オオマチ,和歌山県岩出市大町
6496231,和歌山県,岩出市,川尻,ワカヤマケン,イワデシ,カワシリ,和歌山県岩出市川尻
6496232,和歌山県,岩出市,荊本,ワカヤマケン,イワデシ,イバラモト,和歌山県岩出市荊本
6496233,和歌山県,岩出市,備前,ワカヤマケン,イワデシ,ビゼン,和歌山県岩出市備前
6496234,和歌山県,岩出市,高瀬,ワカヤマケン,イワデシ,タカセ,和歌山県岩出市高瀬
6496235,和歌山県,岩出市,西野,ワカヤマケン,イワデシ,ニシノ,和歌山県岩出市西野
6496236,和歌山県,岩出市,曽屋,ワカヤマケン,イワデシ,ソウヤ,和歌山県岩出市曽屋
6496241,和歌山県,岩出市,波分,ワカヤマケン,イワデシ,ハブ,和歌山県岩出市波分
6496242,和歌山県,岩出市,赤垣内,ワカヤマケン,イワデシ,アカガイト,和歌山県岩出市赤垣内
6496243,和歌山県,岩出市,金屋,ワカヤマケン,イワデシ,カナヤ,和歌山県岩出市金屋
6496244,和歌山県,岩出市,畑毛,ワカヤマケン,イワデシ,ハタケ,和歌山県岩出市畑毛
6496245,和歌山県,岩出市,中島,ワカヤマケン,イワデシ,ナカジマ,和歌山県岩出市中島
6496246,和歌山県,岩出市,吉田,ワカヤマケン,イワデシ,ヨシダ,和歌山県岩出市吉田
6496248,和歌山県,岩出市,中黒,ワカヤマケン,イワデシ,ナカクロ,和歌山県岩出市中黒
6496248,和歌山県,岩出市,湯窪,ワカヤマケン,イワデシ,ユクボ,和歌山県岩出市湯窪
6496251,和歌山県,岩出市,境谷,ワカヤマケン,イワデシ,サカイダニ,和歌山県岩出市境谷
6496252,和歌山県,岩出市,安上,ワカヤマケン,イワデシ,アンジョウ,和歌山県岩出市安上
6496253,和歌山県,岩出市,紀泉台,ワカヤマケン,イワデシ,キセンダイ,和歌山県岩出市紀泉台
6496254,和歌山県,岩出市,原,ワカヤマケン,イワデシ,ハラ,和歌山県岩出市原
6496255,和歌山県,岩出市,西安上,ワカヤマケン,イワデシ,ニシアンジョウ,和歌山県岩出市西安上
6496256,和歌山県,岩出市,金池,ワカヤマケン,イワデシ,カナイケ,和歌山県岩出市金池
6496257,和歌山県,岩出市,相谷,ワカヤマケン,イワデシ,アイダニ,和歌山県岩出市相谷
6496258,和歌山県,岩出市,山,ワカヤマケン,イワデシ,ヤマ,和歌山県岩出市山
6496261,和歌山県,和歌山市,小倉,ワカヤマケン,ワカヤマシ,オグラ,和歌山県和歌山市小倉
6496262,和歌山県,和歌山市,上三毛,ワカヤマケン,ワカヤマシ,カミミケ,和歌山県和歌山市上三毛
6496263,和歌山県,和歌山市,下三毛,ワカヤマケン,ワカヤマシ,シモミケ,和歌山県和歌山市下三毛
6496264,和歌山県,和歌山市,新庄,ワカヤマケン,ワカヤマシ,シンジョウ,和歌山県和歌山市新庄
6496271,和歌山県,和歌山市,満屋,ワカヤマケン,ワカヤマシ,ミツヤ,和歌山県和歌山市満屋
6496272,和歌山県,和歌山市,大垣内,ワカヤマケン,ワカヤマシ,オオガイト,和歌山県和歌山市大垣内
6496273,和歌山県,和歌山市,東田中,ワカヤマケン,ワカヤマシ,ヒガシタナカ,和歌山県和歌山市東田中
6496274,和歌山県,和歌山市,金谷,ワカヤマケン,ワカヤマシ,カナヤ,和歌山県和歌山市金谷
6496275,和歌山県,和歌山市,吐前,ワカヤマケン,ワカヤマシ,ハンザキ,和歌山県和歌山市吐前
6496301,和歌山県,和歌山市,滝畑,ワカヤマケン,ワカヤマシ,タキハタ,和歌山県和歌山市滝畑
6496302,和歌山県,和歌山市,湯屋谷,ワカヤマケン,ワカヤマシ,ユヤダニ,和歌山県和歌山市湯屋谷
6496303,和歌山県,和歌山市,平岡,ワカヤマケン,ワカヤマシ,ヒラオカ,和歌山県和歌山市平岡
6496304,和歌山県,和歌山市,中筋日延,ワカヤマケン,ワカヤマシ,ナカスジヒノベ,和歌山県和歌山市中筋日延
6496305,和歌山県,和歌山市,谷,ワカヤマケン,ワカヤマシ,タニ,和歌山県和歌山市谷
6496306,和歌山県,和歌山市,上黒谷,ワカヤマケン,ワカヤマシ,カミクロダニ,和歌山県和歌山市上黒谷
6496307,和歌山県,和歌山市,北別所,ワカヤマケン,ワカヤマシ,キタベッシヨ,和歌山県和歌山市北別所
6496308,和歌山県,和歌山市,落合,ワカヤマケン,ワカヤマシ,オチアイ,和歌山県和歌山市落合
6496311,和歌山県,和歌山市,里,ワカヤマケン,ワカヤマシ,サト,和歌山県和歌山市里
6496312,和歌山県,和歌山市,川辺,ワカヤマケン,ワカヤマシ,カワナベ,和歌山県和歌山市川辺
6496313,和歌山県,和歌山市,楠本,ワカヤマケン,ワカヤマシ,クスモト,和歌山県和歌山市楠本
6496314,和歌山県,和歌山市,島,ワカヤマケン,ワカヤマシ,シマ,和歌山県和歌山市島
6496315,和歌山県,和歌山市,神波,ワカヤマケン,ワカヤマシ,コウナミ,和歌山県和歌山市神波
6496316,和歌山県,和歌山市,上野,ワカヤマケン,ワカヤマシ,ウエノ,和歌山県和歌山市上野
6496317,和歌山県,和歌山市,山口西,ワカヤマケン,ワカヤマシ,ヤマグチニシ,和歌山県和歌山市山口西
6496318,和歌山県,和歌山市,藤田,ワカヤマケン,ワカヤマシ,フジタ,和歌山県和歌山市藤田
6496321,和歌山県,和歌山市,布施屋,ワカヤマケン,ワカヤマシ,ホシヤ,和歌山県和歌山市布施屋
6496322,和歌山県,和歌山市,和佐関戸,ワカヤマケン,ワカヤマシ,ワサセキド,和歌山県和歌山市和佐関戸
6496323,和歌山県,和歌山市,井ノ口,ワカヤマケン,ワカヤマシ,イノクチ,和歌山県和歌山市井ノ口
6496324,和歌山県,和歌山市,祢宜,ワカヤマケン,ワカヤマシ,ネギ,和歌山県和歌山市祢宜
6496325,和歌山県,和歌山市,下和佐,ワカヤマケン,ワカヤマシ,シモワサ,和歌山県和歌山市下和佐
6496326,和歌山県,和歌山市,和佐中,ワカヤマケン,ワカヤマシ,ワサナカ,和歌山県和歌山市和佐中
6496331,和歌山県,和歌山市,北野,ワカヤマケン,ワカヤマシ,キタノ,和歌山県和歌山市北野
6496332,和歌山県,和歌山市,宇田森,ワカヤマケン,ワカヤマシ,ウダモリ,和歌山県和歌山市宇田森
6496333,和歌山県,和歌山市,永穂,ワカヤマケン,ワカヤマシ,ナンゴ,和歌山県和歌山市永穂
6496334,和歌山県,和歌山市,北,ワカヤマケン,ワカヤマシ,キタ,和歌山県和歌山市北
6496335,和歌山県,和歌山市,西田井,ワカヤマケン,ワカヤマシ,ニシタイ,和歌山県和歌山市西田井
6496336,和歌山県,和歌山市,小豆島,ワカヤマケン,ワカヤマシ,アズシマ,和歌山県和歌山市小豆島
6496337,和歌山県,和歌山市,田屋,ワカヤマケン,ワカヤマシ,タヤ,和歌山県和歌山市田屋
6496338,和歌山県,和歌山市,府中,ワカヤマケン,ワカヤマシ,フチュウ,和歌山県和歌山市府中
6496339,和歌山県,和歌山市,弘西,ワカヤマケン,ワカヤマシ,ヒロニシ,和歌山県和歌山市弘西
6496400,和歌山県,紀の川市,,ワカヤマケン,キノカワシ,,和歌山県紀の川市
6496401,和歌山県,紀の川市,重行,ワカヤマケン,キノカワシ,シゲキ,和歌山県紀の川市重行
6496402,和歌山県,紀の川市,北勢田,ワカヤマケン,キノカワシ,キタセイダ,和歌山県紀の川市北勢田
6496403,和歌山県,紀の川市,南勢田,ワカヤマケン,キノカワシ,ミナミセイダ,和歌山県紀の川市南勢田
6496404,和歌山県,紀の川市,赤尾,ワカヤマケン,キノカワシ,アカオ,和歌山県紀の川市赤尾
6496405,和歌山県,紀の川市,東大井,ワカヤマケン,キノカワシ,ヒガシオオイ,和歌山県紀の川市東大井
6496406,和歌山県,紀の川市,北大井,ワカヤマケン,キノカワシ,キタオオイ,和歌山県紀の川市北大井
6496407,和歌山県,紀の川市,池田新,ワカヤマケン,キノカワシ,イケダシン,和歌山県紀の川市池田新
6496411,和歌山県,紀の川市,広野,ワカヤマケン,キノカワシ,ヒロノ,和歌山県紀の川市広野
6496412,和歌山県,紀の川市,黒土,ワカヤマケン,キノカワシ,クロツチ,和歌山県紀の川市黒土
6496413,和歌山県,紀の川市,竹房（４５０番地以下）,ワカヤマケン,キノカワシ,タケブサ(450バンチイカ),和歌山県紀の川市竹房（450-以下）
6496414,和歌山県,紀の川市,打田,ワカヤマケン,キノカワシ,ウチタ,和歌山県紀の川市打田
6496415,和歌山県,紀の川市,窪,ワカヤマケン,キノカワシ,クボ,和歌山県紀の川市窪
6496416,和歌山県,紀の川市,上野,ワカヤマケン,キノカワシ,ウエノ,和歌山県紀の川市上野
6496417,和歌山県,紀の川市,西大井,ワカヤマケン,キノカワシ,ニシオオイ,和歌山県紀の川市西大井
6496418,和歌山県,紀の川市,久留壁,ワカヤマケン,キノカワシ,クルベキ,和歌山県紀の川市久留壁
6496421,和歌山県,紀の川市,田中馬場,ワカヤマケン,キノカワシ,タナカババ,和歌山県紀の川市田中馬場
6496422,和歌山県,紀の川市,花野,ワカヤマケン,キノカワシ,ケヤ,和歌山県紀の川市花野
6496423,和歌山県,紀の川市,尾崎,ワカヤマケン,キノカワシ,オザキ,和歌山県紀の川市尾崎
6496424,和歌山県,紀の川市,畑野上,ワカヤマケン,キノカワシ,ハタノウエ,和歌山県紀の川市畑野上
6496425,和歌山県,紀の川市,中井阪,ワカヤマケン,キノカワシ,ナカイサカ,和歌山県紀の川市中井阪
6496426,和歌山県,紀の川市,下井阪,ワカヤマケン,キノカワシ,シモイサカ,和歌山県紀の川市下井阪
6496427,和歌山県,紀の川市,西井阪,ワカヤマケン,キノカワシ,ニシイサカ,和歌山県紀の川市西井阪
6496428,和歌山県,紀の川市,東国分,ワカヤマケン,キノカワシ,ヒガシコクブ,和歌山県紀の川市東国分
6496431,和歌山県,紀の川市,南中,ワカヤマケン,キノカワシ,ミナミナカ,和歌山県紀の川市南中
6496432,和歌山県,紀の川市,古和田,ワカヤマケン,キノカワシ,フルワダ,和歌山県紀の川市古和田
6496433,和歌山県,紀の川市,西三谷,ワカヤマケン,キノカワシ,ニシミタニ,和歌山県紀の川市西三谷
6496434,和歌山県,紀の川市,中三谷,ワカヤマケン,キノカワシ,ナカミタニ,和歌山県紀の川市中三谷
6496435,和歌山県,紀の川市,東三谷,ワカヤマケン,キノカワシ,ヒガシミタニ,和歌山県紀の川市東三谷
6496441,和歌山県,紀の川市,東山田,ワカヤマケン,キノカワシ,ヒガシヤマダ,和歌山県紀の川市東山田
6496442,和歌山県,紀の川市,神領,ワカヤマケン,キノカワシ,ジンリョウ,和歌山県紀の川市神領
6496443,和歌山県,紀の川市,北中,ワカヤマケン,キノカワシ,キタナカ,和歌山県紀の川市北中
6496444,和歌山県,紀の川市,登尾,ワカヤマケン,キノカワシ,ノボリオ,和歌山県紀の川市登尾
6496445,和歌山県,紀の川市,豊田,ワカヤマケン,キノカワシ,トヨダ,和歌山県紀の川市豊田
6496446,和歌山県,紀の川市,枇杷谷,ワカヤマケン,キノカワシ,ビワダニ,和歌山県紀の川市枇杷谷
6496447,和歌山県,紀の川市,西山田,ワカヤマケン,キノカワシ,ニシヤマダ,和歌山県紀の川市西山田
6496451,和歌山県,紀の川市,神通,ワカヤマケン,キノカワシ,ジンヅウ,和歌山県紀の川市神通
6496452,和歌山県,紀の川市,中畑,ワカヤマケン,キノカワシ,ナカハタ,和歌山県紀の川市中畑
6496501,和歌山県,紀の川市,北志野,ワカヤマケン,キノカワシ,キタシノ,和歌山県紀の川市北志野
6496502,和歌山県,紀の川市,北長田,ワカヤマケン,キノカワシ,キタナガタ,和歌山県紀の川市北長田
6496503,和歌山県,紀の川市,長田中,ワカヤマケン,キノカワシ,ナガタナカ,和歌山県紀の川市長田中
6496504,和歌山県,紀の川市,南志野,ワカヤマケン,キノカワシ,ミナミシノ,和歌山県紀の川市南志野
6496511,和歌山県,紀の川市,猪垣,ワカヤマケン,キノカワシ,イノカケ,和歌山県紀の川市猪垣
6496512,和歌山県,紀の川市,東毛,ワカヤマケン,キノカワシ,トウゲ,和歌山県紀の川市東毛
6496513,和歌山県,紀の川市,中津川,ワカヤマケン,キノカワシ,ナカツガワ,和歌山県紀の川市中津川
6496514,和歌山県,紀の川市,藤井,ワカヤマケン,キノカワシ,フジイ,和歌山県紀の川市藤井
6496521,和歌山県,紀の川市,馬宿,ワカヤマケン,キノカワシ,ウマヤド,和歌山県紀の川市馬宿
6496522,和歌山県,紀の川市,上丹生谷,ワカヤマケン,キノカワシ,カミニュウヤ,和歌山県紀の川市上丹生谷
6496523,和歌山県,紀の川市,下丹生谷,ワカヤマケン,キノカワシ,シモニュウヤ,和歌山県紀の川市下丹生谷
6496524,和歌山県,紀の川市,西川原,ワカヤマケン,キノカワシ,ニシカワハラ,和歌山県紀の川市西川原
6496525,和歌山県,紀の川市,野上,ワカヤマケン,キノカワシ,ノガミ,和歌山県紀の川市野上
6496526,和歌山県,紀の川市,東川原,ワカヤマケン,キノカワシ,ヒガシカワハラ,和歌山県紀の川市東川原
6496531,和歌山県,紀の川市,粉河,ワカヤマケン,キノカワシ,コカワ,和歌山県紀の川市粉河
6496532,和歌山県,紀の川市,中山,ワカヤマケン,キノカワシ,ナカヤマ,和歌山県紀の川市中山
6496541,和歌山県,紀の川市,井田,ワカヤマケン,キノカワシ,イダ,和歌山県紀の川市井田
6496542,和歌山県,紀の川市,東野,ワカヤマケン,キノカワシ,ヒガシノ,和歌山県紀の川市東野
6496551,和歌山県,紀の川市,上田井,ワカヤマケン,キノカワシ,コウダイ,和歌山県紀の川市上田井
6496552,和歌山県,紀の川市,嶋,ワカヤマケン,キノカワシ,シマ,和歌山県紀の川市嶋
6496553,和歌山県,紀の川市,深田,ワカヤマケン,キノカワシ,フケダ,和歌山県紀の川市深田
6496554,和歌山県,紀の川市,別所,ワカヤマケン,キノカワシ,ベッシヨ,和歌山県紀の川市別所
6496555,和歌山県,紀の川市,松井,ワカヤマケン,キノカワシ,マツイ,和歌山県紀の川市松井
6496561,和歌山県,紀の川市,荒見,ワカヤマケン,キノカワシ,アラミ,和歌山県紀の川市荒見
6496562,和歌山県,紀の川市,遠方,ワカヤマケン,キノカワシ,オチカタ,和歌山県紀の川市遠方
6496563,和歌山県,紀の川市,風市,ワカヤマケン,キノカワシ,カザシ,和歌山県紀の川市風市
6496564,和歌山県,紀の川市,勝神,ワカヤマケン,キノカワシ,カスカミ,和歌山県紀の川市勝神
6496565,和歌山県,紀の川市,杉原,ワカヤマケン,キノカワシ,スイバラ,和歌山県紀の川市杉原
6496571,和歌山県,紀の川市,上鞆渕,ワカヤマケン,キノカワシ,カミトモブチ,和歌山県紀の川市上鞆渕
6496572,和歌山県,紀の川市,下鞆渕,ワカヤマケン,キノカワシ,シモトモブチ,和歌山県紀の川市下鞆渕
6496573,和歌山県,紀の川市,中鞆渕,ワカヤマケン,キノカワシ,ナカトモブチ,和歌山県紀の川市中鞆渕
6496601,和歌山県,紀の川市,名手上,ワカヤマケン,キノカワシ,ナテカミ,和歌山県紀の川市名手上
6496602,和歌山県,紀の川市,平野,ワカヤマケン,キノカワシ,ヒラノ,和歌山県紀の川市平野
6496603,和歌山県,紀の川市,名手下,ワカヤマケン,キノカワシ,ナテシモ,和歌山県紀の川市名手下
6496604,和歌山県,紀の川市,西野山,ワカヤマケン,キノカワシ,ニシノヤマ,和歌山県紀の川市西野山
6496605,和歌山県,紀の川市,江川中,ワカヤマケン,キノカワシ,エカワナカ,和歌山県紀の川市江川中
6496606,和歌山県,紀の川市,切畑,ワカヤマケン,キノカワシ,キリハタ,和歌山県紀の川市切畑
6496611,和歌山県,紀の川市,穴伏,ワカヤマケン,キノカワシ,アナブシ,和歌山県紀の川市穴伏
6496612,和歌山県,紀の川市,北涌,ワカヤマケン,キノカワシ,キタワキ,和歌山県紀の川市北涌
6496613,和歌山県,紀の川市,横谷,ワカヤマケン,キノカワシ,ヨコダニ,和歌山県紀の川市横谷
6496614,和歌山県,紀の川市,赤沼田,ワカヤマケン,キノカワシ,アカンタ,和歌山県紀の川市赤沼田
6496615,和歌山県,紀の川市,麻生津中,ワカヤマケン,キノカワシ,オウヅナカ,和歌山県紀の川市麻生津中
6496616,和歌山県,紀の川市,西脇,ワカヤマケン,キノカワシ,ニシワキ,和歌山県紀の川市西脇
6496621,和歌山県,紀の川市,名手西野,ワカヤマケン,キノカワシ,ナテニシノ,和歌山県紀の川市名手西野
6496622,和歌山県,紀の川市,後田,ワカヤマケン,キノカワシ,シレダ,和歌山県紀の川市後田
6496623,和歌山県,紀の川市,藤崎,ワカヤマケン,キノカワシ,フジサキ,和歌山県紀の川市藤崎
6496624,和歌山県,紀の川市,王子,ワカヤマケン,キノカワシ,オウジ,和歌山県紀の川市王子
6496631,和歌山県,紀の川市,名手市場,ワカヤマケン,キノカワシ,ナテイチバ,和歌山県紀の川市名手市場
6497100,和歌山県,伊都郡かつらぎ町,,ワカヤマケン,イトグンカツラギチョウ,,和歌山県伊都郡かつらぎ町
6497101,和歌山県,伊都郡かつらぎ町,東谷,ワカヤマケン,イトグンカツラギチョウ,ヒガシタニ,和歌山県伊都郡かつらぎ町東谷
6497102,和歌山県,伊都郡かつらぎ町,滝,ワカヤマケン,イトグンカツラギチョウ,タキ,和歌山県伊都郡かつらぎ町滝
6497103,和歌山県,伊都郡かつらぎ町,広口,ワカヤマケン,イトグンカツラギチョウ,ヒロクチ,和歌山県伊都郡かつらぎ町広口
6497104,和歌山県,伊都郡かつらぎ町,平,ワカヤマケン,イトグンカツラギチョウ,タイラ,和歌山県伊都郡かつらぎ町平
6497111,和歌山県,伊都郡かつらぎ町,大畑,ワカヤマケン,イトグンカツラギチョウ,オオハタ,和歌山県伊都郡かつらぎ町大畑
6497112,和歌山県,伊都郡かつらぎ町,中飯降,ワカヤマケン,イトグンカツラギチョウ,ナカイブリ,和歌山県伊都郡かつらぎ町中飯降
6497113,和歌山県,伊都郡かつらぎ町,妙寺,ワカヤマケン,イトグンカツラギチョウ,ミョウジ,和歌山県伊都郡かつらぎ町妙寺
6497114,和歌山県,伊都郡かつらぎ町,西飯降,ワカヤマケン,イトグンカツラギチョウ,ニシイブリ,和歌山県伊都郡かつらぎ町西飯降
6497115,和歌山県,伊都郡かつらぎ町,短野,ワカヤマケン,イトグンカツラギチョウ,ミジカノ,和歌山県伊都郡かつらぎ町短野
6497121,和歌山県,伊都郡かつらぎ町,丁ノ町,ワカヤマケン,イトグンカツラギチョウ,チョウノマチ,和歌山県伊都郡かつらぎ町丁ノ町
6497122,和歌山県,伊都郡かつらぎ町,新田,ワカヤマケン,イトグンカツラギチョウ,シンデン,和歌山県伊都郡かつらぎ町新田
6497123,和歌山県,伊都郡かつらぎ町,柏木,ワカヤマケン,イトグンカツラギチョウ,カシワギ,和歌山県伊都郡かつらぎ町柏木
6497131,和歌山県,伊都郡かつらぎ町,山崎,ワカヤマケン,イトグンカツラギチョウ,ヤマサキ,和歌山県伊都郡かつらぎ町山崎
6497132,和歌山県,伊都郡かつらぎ町,教良寺,ワカヤマケン,イトグンカツラギチョウ,キョウラジ,和歌山県伊都郡かつらぎ町教良寺
6497133,和歌山県,伊都郡かつらぎ町,三谷,ワカヤマケン,イトグンカツラギチョウ,ミタニ,和歌山県伊都郡かつらぎ町三谷
6497134,和歌山県,伊都郡かつらぎ町,宮本,ワカヤマケン,イトグンカツラギチョウ,ミヤモト,和歌山県伊都郡かつらぎ町宮本
6497135,和歌山県,伊都郡かつらぎ町,平沼田,ワカヤマケン,イトグンカツラギチョウ,ヒランタ,和歌山県伊都郡かつらぎ町平沼田
6497136,和歌山県,伊都郡かつらぎ町,寺尾,ワカヤマケン,イトグンカツラギチョウ,テラオ,和歌山県伊都郡かつらぎ町寺尾
6497137,和歌山県,伊都郡かつらぎ町,兄井,ワカヤマケン,イトグンカツラギチョウ,アニイ,和歌山県伊都郡かつらぎ町兄井
6497141,和歌山県,伊都郡かつらぎ町,上天野,ワカヤマケン,イトグンカツラギチョウ,カミアマノ,和歌山県伊都郡かつらぎ町上天野
6497142,和歌山県,伊都郡かつらぎ町,下天野,ワカヤマケン,イトグンカツラギチョウ,シモアマノ,和歌山県伊都郡かつらぎ町下天野
6497143,和歌山県,伊都郡かつらぎ町,神田,ワカヤマケン,イトグンカツラギチョウ,コウダ,和歌山県伊都郡かつらぎ町神田
6497144,和歌山県,伊都郡かつらぎ町,志賀,ワカヤマケン,イトグンカツラギチョウ,シガ,和歌山県伊都郡かつらぎ町志賀
6497145,和歌山県,伊都郡かつらぎ町,日高,ワカヤマケン,イトグンカツラギチョウ,ヒダカ,和歌山県伊都郡かつらぎ町日高
6497146,和歌山県,伊都郡かつらぎ町,星山,ワカヤマケン,イトグンカツラギチョウ,ホシヤマ,和歌山県伊都郡かつらぎ町星山
6497151,和歌山県,伊都郡かつらぎ町,東渋田,ワカヤマケン,イトグンカツラギチョウ,ヒガシシブタ,和歌山県伊都郡かつらぎ町東渋田
6497152,和歌山県,伊都郡かつらぎ町,星川,ワカヤマケン,イトグンカツラギチョウ,ホシカワ,和歌山県伊都郡かつらぎ町星川
6497153,和歌山県,伊都郡かつらぎ町,御所,ワカヤマケン,イトグンカツラギチョウ,ゴセ,和歌山県伊都郡かつらぎ町御所
6497154,和歌山県,伊都郡かつらぎ町,西渋田,ワカヤマケン,イトグンカツラギチョウ,ニシシブタ,和歌山県伊都郡かつらぎ町西渋田
6497155,和歌山県,伊都郡かつらぎ町,島,ワカヤマケン,イトグンカツラギチョウ,シマ,和歌山県伊都郡かつらぎ町島
6497161,和歌山県,伊都郡かつらぎ町,笠田東,ワカヤマケン,イトグンカツラギチョウ,カセダヒガシ,和歌山県伊都郡かつらぎ町笠田東
6497162,和歌山県,伊都郡かつらぎ町,笠田中,ワカヤマケン,イトグンカツラギチョウ,カセダナカ,和歌山県伊都郡かつらぎ町笠田中
6497163,和歌山県,伊都郡かつらぎ町,萩原,ワカヤマケン,イトグンカツラギチョウ,ハギハラ,和歌山県伊都郡かつらぎ町萩原
6497164,和歌山県,伊都郡かつらぎ町,窪,ワカヤマケン,イトグンカツラギチョウ,クボ,和歌山県伊都郡かつらぎ町窪
6497165,和歌山県,伊都郡かつらぎ町,背ノ山,ワカヤマケン,イトグンカツラギチョウ,セノヤマ,和歌山県伊都郡かつらぎ町背ノ山
6497166,和歌山県,伊都郡かつらぎ町,高田,ワカヤマケン,イトグンカツラギチョウ,タカダ,和歌山県伊都郡かつらぎ町高田
6497167,和歌山県,伊都郡かつらぎ町,移,ワカヤマケン,イトグンカツラギチョウ,ウツリ,和歌山県伊都郡かつらぎ町移
6497171,和歌山県,伊都郡かつらぎ町,大薮,ワカヤマケン,イトグンカツラギチョウ,オオヤブ,和歌山県伊都郡かつらぎ町大薮
6497172,和歌山県,伊都郡かつらぎ町,蛭子,ワカヤマケン,イトグンカツラギチョウ,エビス,和歌山県伊都郡かつらぎ町蛭子
6497173,和歌山県,伊都郡かつらぎ町,大谷,ワカヤマケン,イトグンカツラギチョウ,オオタニ,和歌山県伊都郡かつらぎ町大谷
6497174,和歌山県,伊都郡かつらぎ町,佐野,ワカヤマケン,イトグンカツラギチョウ,サヤ,和歌山県伊都郡かつらぎ町佐野
6497175,和歌山県,伊都郡かつらぎ町,広浦,ワカヤマケン,イトグンカツラギチョウ,ヒロウラ,和歌山県伊都郡かつらぎ町広浦
6497201,和歌山県,橋本市,高野口町応其,ワカヤマケン,ハシモトシ,コウヤグチチョウオウゴ,和歌山県橋本市高野口町応其
6497202,和歌山県,橋本市,高野口町伏原,ワカヤマケン,ハシモトシ,コウヤグチチョウフシハラ,和歌山県橋本市高野口町伏原
6497203,和歌山県,橋本市,高野口町名古曽,ワカヤマケン,ハシモトシ,コウヤグチチョウナゴソ,和歌山県橋本市高野口町名古曽
6497204,和歌山県,橋本市,高野口町小田,ワカヤマケン,ハシモトシ,コウヤグチチョウオダ,和歌山県橋本市高野口町小田
6497205,和歌山県,橋本市,高野口町名倉,ワカヤマケン,ハシモトシ,コウヤグチチョウナグラ,和歌山県橋本市高野口町名倉
6497206,和歌山県,橋本市,高野口町向島,ワカヤマケン,ハシモトシ,コウヤグチチョウムコウジマ,和歌山県橋本市高野口町向島
6497207,和歌山県,橋本市,高野口町大野,ワカヤマケン,ハシモトシ,コウヤグチチョウオオノ,和歌山県橋本市高野口町大野
6497211,和歌山県,橋本市,高野口町下中,ワカヤマケン,ハシモトシ,コウヤグチチョウシモナカ,和歌山県橋本市高野口町下中
6497212,和歌山県,橋本市,高野口町上中,ワカヤマケン,ハシモトシ,コウヤグチチョウカミナカ,和歌山県橋本市高野口町上中
6497213,和歌山県,橋本市,高野口町嵯峨谷,ワカヤマケン,ハシモトシ,コウヤグチチョウサガタニ,和歌山県橋本市高野口町嵯峨谷
6497214,和歌山県,橋本市,高野口町竹尾,ワカヤマケン,ハシモトシ,コウヤグチチョウタケオ,和歌山県橋本市高野口町竹尾
6497215,和歌山県,橋本市,高野口町九重,ワカヤマケン,ハシモトシ,コウヤグチチョウクジュウ,和歌山県橋本市高野口町九重
6497216,和歌山県,橋本市,高野口町田原,ワカヤマケン,ハシモトシ,コウヤグチチョウタハラ,和歌山県橋本市高野口町田原
