zipcode,prefecture_name,city,town,prefecture_kana,city_kana,town_kana,normalized_address
6800000,鳥取県,鳥取市,,トットリケン,トットリシ,,鳥取県鳥取市
6800001,鳥取県,鳥取市,浜坂,トットリケン,トットリシ,ハマサカ,鳥取県鳥取市浜坂
6800002,鳥取県,鳥取市,浜坂東,トットリケン,トットリシ,ハマサカヒガシ,鳥取県鳥取市浜坂東
6800003,鳥取県,鳥取市,覚寺,トットリケン,トットリシ,カクジ,鳥取県鳥取市覚寺
6800004,鳥取県,鳥取市,北園,トットリケン,トットリシ,キタゾノ,鳥取県鳥取市北園
6800005,鳥取県,鳥取市,円護寺,トットリケン,トットリシ,エンゴジ,鳥取県鳥取市円護寺
6800006,鳥取県,鳥取市,丸山町,トットリケン,トットリシ,マルヤマチョウ,鳥取県鳥取市丸山町
6800007,鳥取県,鳥取市,湯所町,トットリケン,トットリシ,ユトコロチョウ,鳥取県鳥取市湯所町
6800008,鳥取県,鳥取市,山城町,トットリケン,トットリシ,ヤマシロチョウ,鳥取県鳥取市山城町
6800011,鳥取県,鳥取市,東町,トットリケン,トットリシ,ヒガシマチ,鳥取県鳥取市東町
6800012,鳥取県,鳥取市,栗谷町,トットリケン,トットリシ,クリタニチョウ,鳥取県鳥取市栗谷町
6800013,鳥取県,鳥取市,江崎町,トットリケン,トットリシ,エザキチョウ,鳥取県鳥取市江崎町
6800014,鳥取県,鳥取市,馬場町,トットリケン,トットリシ,ババノチョウ,鳥取県鳥取市馬場町
6800015,鳥取県,鳥取市,上町,トットリケン,トットリシ,ウエマチ,鳥取県鳥取市上町
6800016,鳥取県,鳥取市,中町,トットリケン,トットリシ,ナカマチ,鳥取県鳥取市中町
6800017,鳥取県,鳥取市,尚徳町,トットリケン,トットリシ,ショウトクチョウ,鳥取県鳥取市尚徳町
6800021,鳥取県,鳥取市,材木町,トットリケン,トットリシ,ザイモクチョウ,鳥取県鳥取市材木町
6800022,鳥取県,鳥取市,西町,トットリケン,トットリシ,ニシマチ,鳥取県鳥取市西町
6800023,鳥取県,鳥取市,片原,トットリケン,トットリシ,カタハラ,鳥取県鳥取市片原
6800024,鳥取県,鳥取市,玄好町,トットリケン,トットリシ,ゲンコウチョウ,鳥取県鳥取市玄好町
6800031,鳥取県,鳥取市,本町,トットリケン,トットリシ,ホンマチ,鳥取県鳥取市本町
6800032,鳥取県,鳥取市,茶町,トットリケン,トットリシ,チャマチ,鳥取県鳥取市茶町
6800033,鳥取県,鳥取市,二階町,トットリケン,トットリシ,ニカイマチ,鳥取県鳥取市二階町
6800034,鳥取県,鳥取市,元魚町,トットリケン,トットリシ,モトウオマチ,鳥取県鳥取市元魚町
6800035,鳥取県,鳥取市,新町,トットリケン,トットリシ,シンマチ,鳥取県鳥取市新町
6800036,鳥取県,鳥取市,川端,トットリケン,トットリシ,カワバタ,鳥取県鳥取市川端
6800037,鳥取県,鳥取市,元町,トットリケン,トットリシ,モトマチ,鳥取県鳥取市元町
6800041,鳥取県,鳥取市,掛出町,トットリケン,トットリシ,カケダシチョウ,鳥取県鳥取市掛出町
6800042,鳥取県,鳥取市,庖丁人町,トットリケン,トットリシ,ホウチョウニンマチ,鳥取県鳥取市庖丁人町
6800043,鳥取県,鳥取市,大榎町,トットリケン,トットリシ,オオエノキチョウ,鳥取県鳥取市大榎町
6800044,鳥取県,鳥取市,御弓町,トットリケン,トットリシ,オユミノチョウ,鳥取県鳥取市御弓町
6800045,鳥取県,鳥取市,大工町頭,トットリケン,トットリシ,ダイクマチガシラ,鳥取県鳥取市大工町頭
6800046,鳥取県,鳥取市,元大工町,トットリケン,トットリシ,モトダイクマチ,鳥取県鳥取市元大工町
6800047,鳥取県,鳥取市,上魚町,トットリケン,トットリシ,カミウオマチ,鳥取県鳥取市上魚町
6800051,鳥取県,鳥取市,若桜町,トットリケン,トットリシ,ワカサマチ,鳥取県鳥取市若桜町
6800052,鳥取県,鳥取市,鍛冶町,トットリケン,トットリシ,カジマチ,鳥取県鳥取市鍛冶町
6800053,鳥取県,鳥取市,寺町,トットリケン,トットリシ,テラマチ,鳥取県鳥取市寺町
6800054,鳥取県,鳥取市,桶屋町,トットリケン,トットリシ,オケヤマチ,鳥取県鳥取市桶屋町
6800055,鳥取県,鳥取市,戎町,トットリケン,トットリシ,エビスマチ,鳥取県鳥取市戎町
6800056,鳥取県,鳥取市,職人町,トットリケン,トットリシ,ショクニンマチ,鳥取県鳥取市職人町
6800061,鳥取県,鳥取市,立川町,トットリケン,トットリシ,タチカワチョウ,鳥取県鳥取市立川町
6800062,鳥取県,鳥取市,吉方町,トットリケン,トットリシ,ヨシカタチョウ,鳥取県鳥取市吉方町
6800071,鳥取県,鳥取市,百谷,トットリケン,トットリシ,モモダニ,鳥取県鳥取市百谷
6800072,鳥取県,鳥取市,滝山,トットリケン,トットリシ,タキヤマ,鳥取県鳥取市滝山
6800073,鳥取県,鳥取市,小西谷,トットリケン,トットリシ,コザイ,鳥取県鳥取市小西谷
6800074,鳥取県,鳥取市,卯垣,トットリケン,トットリシ,ボウガキ,鳥取県鳥取市卯垣
6800081,鳥取県,鳥取市,岩倉,トットリケン,トットリシ,イワクラ,鳥取県鳥取市岩倉
6800131,鳥取県,鳥取市,国府町高岡,トットリケン,トットリシ,コクフチョウタカオカ,鳥取県鳥取市国府町高岡
6800132,鳥取県,鳥取市,国府町神垣,トットリケン,トットリシ,コクフチョウコウガケ,鳥取県鳥取市国府町神垣
6800133,鳥取県,鳥取市,国府町山根,トットリケン,トットリシ,コクフチョウヤマネ,鳥取県鳥取市国府町山根
6800134,鳥取県,鳥取市,国府町清水,トットリケン,トットリシ,コクフチョウスンズ,鳥取県鳥取市国府町清水
6800135,鳥取県,鳥取市,国府町谷,トットリケン,トットリシ,コクフチョウタニ,鳥取県鳥取市国府町谷
6800136,鳥取県,鳥取市,国府町糸谷,トットリケン,トットリシ,コクフチョウイトタニ,鳥取県鳥取市国府町糸谷
6800141,鳥取県,鳥取市,国府町美歎,トットリケン,トットリシ,コクフチョウミタニ,鳥取県鳥取市国府町美歎
6800142,鳥取県,鳥取市,国府町麻生,トットリケン,トットリシ,コクフチョウアソウ,鳥取県鳥取市国府町麻生
6800143,鳥取県,鳥取市,国府町玉鉾,トットリケン,トットリシ,コクフチョウタマボコ,鳥取県鳥取市国府町玉鉾
6800144,鳥取県,鳥取市,国府町岡益,トットリケン,トットリシ,コクフチョウオカマス,鳥取県鳥取市国府町岡益
6800145,鳥取県,鳥取市,国府町広西,トットリケン,トットリシ,コクフチョウヒロセ,鳥取県鳥取市国府町広西
6800146,鳥取県,鳥取市,国府町町屋,トットリケン,トットリシ,コクフチョウマチヤ,鳥取県鳥取市国府町町屋
6800151,鳥取県,鳥取市,国府町宮下,トットリケン,トットリシ,コクフチョウミヤノシタ,鳥取県鳥取市国府町宮下
6800152,鳥取県,鳥取市,国府町庁,トットリケン,トットリシ,コクフチョウチョウ,鳥取県鳥取市国府町庁
6800153,鳥取県,鳥取市,国府町法花寺,トットリケン,トットリシ,コクフチョウホッケジ,鳥取県鳥取市国府町法花寺
6800154,鳥取県,鳥取市,国府町三代寺,トットリケン,トットリシ,コクフチョウサンダイジ,鳥取県鳥取市国府町三代寺
6800155,鳥取県,鳥取市,国府町国分寺,トットリケン,トットリシ,コクフチョウコクブンジ,鳥取県鳥取市国府町国分寺
6800156,鳥取県,鳥取市,国府町中郷,トットリケン,トットリシ,コクフチョウチュウゴウ,鳥取県鳥取市国府町中郷
6800201,鳥取県,鳥取市,国府町雨滝,トットリケン,トットリシ,コクフチョウアメダキ,鳥取県鳥取市国府町雨滝
6800202,鳥取県,鳥取市,国府町石井谷,トットリケン,トットリシ,コクフチョウイワイダニ,鳥取県鳥取市国府町石井谷
6800203,鳥取県,鳥取市,国府町大石,トットリケン,トットリシ,コクフチョウオオイシ,鳥取県鳥取市国府町大石
6800204,鳥取県,鳥取市,国府町楠城,トットリケン,トットリシ,コクフチョウナワシロ,鳥取県鳥取市国府町楠城
6800205,鳥取県,鳥取市,国府町拾石,トットリケン,トットリシ,コクフチョウジッコク,鳥取県鳥取市国府町拾石
6800206,鳥取県,鳥取市,国府町栃本,トットリケン,トットリシ,コクフチョウトチモト,鳥取県鳥取市国府町栃本
6800207,鳥取県,鳥取市,国府町下木原,トットリケン,トットリシ,コクフチョウシモキハラ,鳥取県鳥取市国府町下木原
6800208,鳥取県,鳥取市,国府町木原,トットリケン,トットリシ,コクフチョウキハラ,鳥取県鳥取市国府町木原
6800211,鳥取県,鳥取市,国府町菅野,トットリケン,トットリシ,コクフチョウスガノ,鳥取県鳥取市国府町菅野
6800212,鳥取県,鳥取市,国府町上地,トットリケン,トットリシ,コクフチョウワジ,鳥取県鳥取市国府町上地
6800213,鳥取県,鳥取市,国府町上上地,トットリケン,トットリシ,コクフチョウカミワジ,鳥取県鳥取市国府町上上地
6800214,鳥取県,鳥取市,国府町上荒舟,トットリケン,トットリシ,コクフチョウカミアラフネ,鳥取県鳥取市国府町上荒舟
6800215,鳥取県,鳥取市,国府町山崎,トットリケン,トットリシ,コクフチョウヤマサキ,鳥取県鳥取市国府町山崎
6800216,鳥取県,鳥取市,国府町荒舟,トットリケン,トットリシ,コクフチョウアラフネ,鳥取県鳥取市国府町荒舟
6800221,鳥取県,鳥取市,国府町神護,トットリケン,トットリシ,コクフチョウカンゴ,鳥取県鳥取市国府町神護
6800222,鳥取県,鳥取市,国府町殿,トットリケン,トットリシ,コクフチョウトノ,鳥取県鳥取市国府町殿
6800223,鳥取県,鳥取市,国府町中河原,トットリケン,トットリシ,コクフチョウナカガワラ,鳥取県鳥取市国府町中河原
6800224,鳥取県,鳥取市,国府町松尾,トットリケン,トットリシ,コクフチョウマツオ,鳥取県鳥取市国府町松尾
6800225,鳥取県,鳥取市,国府町吉野,トットリケン,トットリシ,コクフチョウヨシノ,鳥取県鳥取市国府町吉野
6800226,鳥取県,鳥取市,国府町新井,トットリケン,トットリシ,コクフチョウニイ,鳥取県鳥取市国府町新井
6800301,鳥取県,八頭郡八頭町,姫路,トットリケン,ヤズグンヤズチョウ,ヒメジ,鳥取県八頭郡八頭町姫路
6800302,鳥取県,八頭郡八頭町,明辺,トットリケン,ヤズグンヤズチョウ,アケナベ,鳥取県八頭郡八頭町明辺
6800303,鳥取県,八頭郡八頭町,落岩,トットリケン,ヤズグンヤズチョウ,オチイワ,鳥取県八頭郡八頭町落岩
6800304,鳥取県,八頭郡八頭町,山志谷,トットリケン,ヤズグンヤズチョウ,ヤマシダニ,鳥取県八頭郡八頭町山志谷
6800305,鳥取県,八頭郡八頭町,麻生,トットリケン,ヤズグンヤズチョウ,アソウ,鳥取県八頭郡八頭町麻生
6800306,鳥取県,八頭郡八頭町,野町,トットリケン,ヤズグンヤズチョウ,ノマチ,鳥取県八頭郡八頭町野町
6800307,鳥取県,八頭郡八頭町,福地,トットリケン,ヤズグンヤズチョウ,フクチ,鳥取県八頭郡八頭町福地
6800311,鳥取県,八頭郡八頭町,市場,トットリケン,ヤズグンヤズチョウ,イチバ,鳥取県八頭郡八頭町市場
6800312,鳥取県,八頭郡八頭町,覚王寺,トットリケン,ヤズグンヤズチョウ,カクオウジ,鳥取県八頭郡八頭町覚王寺
6800313,鳥取県,八頭郡八頭町,上津黒,トットリケン,ヤズグンヤズチョウ,カミツグロ,鳥取県八頭郡八頭町上津黒
6800314,鳥取県,八頭郡八頭町,下津黒,トットリケン,ヤズグンヤズチョウ,シモツグロ,鳥取県八頭郡八頭町下津黒
6800315,鳥取県,八頭郡八頭町,別府,トットリケン,ヤズグンヤズチョウ,ベフ,鳥取県八頭郡八頭町別府
6800316,鳥取県,八頭郡八頭町,篠波,トットリケン,ヤズグンヤズチョウ,ササナミ,鳥取県八頭郡八頭町篠波
6800400,鳥取県,八頭郡八頭町,,トットリケン,ヤズグンヤズチョウ,,鳥取県八頭郡八頭町
6800401,鳥取県,八頭郡八頭町,上野,トットリケン,ヤズグンヤズチョウ,カミノ,鳥取県八頭郡八頭町上野
6800402,鳥取県,八頭郡八頭町,隼福,トットリケン,ヤズグンヤズチョウ,ハヤフク,鳥取県八頭郡八頭町隼福
6800403,鳥取県,八頭郡八頭町,福井,トットリケン,ヤズグンヤズチョウ,フクイ,鳥取県八頭郡八頭町福井
6800404,鳥取県,八頭郡八頭町,見槻中,トットリケン,ヤズグンヤズチョウ,ミヅキナカ,鳥取県八頭郡八頭町見槻中
6800405,鳥取県,八頭郡八頭町,隼郡家,トットリケン,ヤズグンヤズチョウ,ハヤブサコオゲ,鳥取県八頭郡八頭町隼郡家
6800406,鳥取県,八頭郡八頭町,見槻,トットリケン,ヤズグンヤズチョウ,ミヅキ,鳥取県八頭郡八頭町見槻
6800407,鳥取県,八頭郡八頭町,志子部,トットリケン,ヤズグンヤズチョウ,シコベ,鳥取県八頭郡八頭町志子部
6800408,鳥取県,八頭郡八頭町,西谷,トットリケン,ヤズグンヤズチョウ,ニシダニ,鳥取県八頭郡八頭町西谷
6800411,鳥取県,八頭郡八頭町,船岡殿,トットリケン,ヤズグンヤズチョウ,フナオカトノ,鳥取県八頭郡八頭町船岡殿
6800412,鳥取県,八頭郡八頭町,水口,トットリケン,ヤズグンヤズチョウ,ミナクチ,鳥取県八頭郡八頭町水口
6800413,鳥取県,八頭郡八頭町,塩上,トットリケン,ヤズグンヤズチョウ,シオノウエ,鳥取県八頭郡八頭町塩上
6800414,鳥取県,八頭郡八頭町,橋本,トットリケン,ヤズグンヤズチョウ,ハシモト,鳥取県八頭郡八頭町橋本
6800415,鳥取県,八頭郡八頭町,下野,トットリケン,ヤズグンヤズチョウ,シモツケ,鳥取県八頭郡八頭町下野
6800416,鳥取県,八頭郡八頭町,大江,トットリケン,ヤズグンヤズチョウ,オオエ,鳥取県八頭郡八頭町大江
6800421,鳥取県,八頭郡八頭町,下門尾,トットリケン,ヤズグンヤズチョウ,シモカドオ,鳥取県八頭郡八頭町下門尾
6800422,鳥取県,八頭郡八頭町,門尾,トットリケン,ヤズグンヤズチョウ,カドオ,鳥取県八頭郡八頭町門尾
6800423,鳥取県,八頭郡八頭町,堀越,トットリケン,ヤズグンヤズチョウ,ホリゴシ,鳥取県八頭郡八頭町堀越
6800424,鳥取県,八頭郡八頭町,稲荷,トットリケン,ヤズグンヤズチョウ,イナリ,鳥取県八頭郡八頭町稲荷
6800425,鳥取県,八頭郡八頭町,井古,トットリケン,ヤズグンヤズチョウ,イゴ,鳥取県八頭郡八頭町井古
6800426,鳥取県,八頭郡八頭町,下坂,トットリケン,ヤズグンヤズチョウ,オリサカ,鳥取県八頭郡八頭町下坂
6800427,鳥取県,八頭郡八頭町,奥谷,トットリケン,ヤズグンヤズチョウ,オクダニ,鳥取県八頭郡八頭町奥谷
6800431,鳥取県,八頭郡八頭町,下峰寺,トットリケン,ヤズグンヤズチョウ,シモミネデラ,鳥取県八頭郡八頭町下峰寺
6800432,鳥取県,八頭郡八頭町,上峰寺,トットリケン,ヤズグンヤズチョウ,カミミネデラ,鳥取県八頭郡八頭町上峰寺
6800433,鳥取県,八頭郡八頭町,山上,トットリケン,ヤズグンヤズチョウ,ヤマノウエ,鳥取県八頭郡八頭町山上
6800434,鳥取県,八頭郡八頭町,延命寺,トットリケン,ヤズグンヤズチョウ,エンメイジ,鳥取県八頭郡八頭町延命寺
6800435,鳥取県,八頭郡八頭町,大坪,トットリケン,ヤズグンヤズチョウ,オオツボ,鳥取県八頭郡八頭町大坪
6800436,鳥取県,八頭郡八頭町,山路,トットリケン,ヤズグンヤズチョウ,ヤマジ,鳥取県八頭郡八頭町山路
6800437,鳥取県,八頭郡八頭町,花原,トットリケン,ヤズグンヤズチョウ,ハナバラ,鳥取県八頭郡八頭町花原
6800438,鳥取県,八頭郡八頭町,山田,トットリケン,ヤズグンヤズチョウ,ヤマダ,鳥取県八頭郡八頭町山田
6800441,鳥取県,八頭郡八頭町,西御門,トットリケン,ヤズグンヤズチョウ,ニシミカド,鳥取県八頭郡八頭町西御門
6800442,鳥取県,八頭郡八頭町,市谷,トットリケン,ヤズグンヤズチョウ,イチノタニ,鳥取県八頭郡八頭町市谷
6800443,鳥取県,八頭郡八頭町,郡家殿,トットリケン,ヤズグンヤズチョウ,コウゲトノ,鳥取県八頭郡八頭町郡家殿
6800444,鳥取県,八頭郡八頭町,花,トットリケン,ヤズグンヤズチョウ,ハナ,鳥取県八頭郡八頭町花
6800445,鳥取県,八頭郡八頭町,大門,トットリケン,ヤズグンヤズチョウ,ダイモン,鳥取県八頭郡八頭町大門
6800451,鳥取県,八頭郡八頭町,久能寺,トットリケン,ヤズグンヤズチョウ,クノウジ,鳥取県八頭郡八頭町久能寺
6800452,鳥取県,八頭郡八頭町,池田,トットリケン,ヤズグンヤズチョウ,イケダ,鳥取県八頭郡八頭町池田
6800453,鳥取県,八頭郡八頭町,万代寺,トットリケン,ヤズグンヤズチョウ,マンタイジ,鳥取県八頭郡八頭町万代寺
6800454,鳥取県,八頭郡八頭町,石田百井,トットリケン,ヤズグンヤズチョウ,イシダモモイ,鳥取県八頭郡八頭町石田百井
6800455,鳥取県,八頭郡八頭町,土師百井,トットリケン,ヤズグンヤズチョウ,ハジモモイ,鳥取県八頭郡八頭町土師百井
6800456,鳥取県,八頭郡八頭町,米岡,トットリケン,ヤズグンヤズチョウ,ヨネオカ,鳥取県八頭郡八頭町米岡
6800457,鳥取県,八頭郡八頭町,国中,トットリケン,ヤズグンヤズチョウ,クニナカ,鳥取県八頭郡八頭町国中
6800461,鳥取県,八頭郡八頭町,郡家,トットリケン,ヤズグンヤズチョウ,コオゲ,鳥取県八頭郡八頭町郡家
6800462,鳥取県,八頭郡八頭町,福本,トットリケン,ヤズグンヤズチョウ,フクモト,鳥取県八頭郡八頭町福本
6800463,鳥取県,八頭郡八頭町,宮谷,トットリケン,ヤズグンヤズチョウ,ミヤダニ,鳥取県八頭郡八頭町宮谷
6800471,鳥取県,八頭郡八頭町,船岡,トットリケン,ヤズグンヤズチョウ,フナオカ,鳥取県八頭郡八頭町船岡
6800472,鳥取県,八頭郡八頭町,下濃,トットリケン,ヤズグンヤズチョウ,シモノ,鳥取県八頭郡八頭町下濃
6800473,鳥取県,八頭郡八頭町,坂田,トットリケン,ヤズグンヤズチョウ,サカダ,鳥取県八頭郡八頭町坂田
6800474,鳥取県,八頭郡八頭町,破岩,トットリケン,ヤズグンヤズチョウ,ワレイワ,鳥取県八頭郡八頭町破岩
6800521,鳥取県,八頭郡八頭町,安井宿,トットリケン,ヤズグンヤズチョウ,ヤスイシュク,鳥取県八頭郡八頭町安井宿
6800522,鳥取県,八頭郡八頭町,新興寺,トットリケン,ヤズグンヤズチョウ,シンゴウジ,鳥取県八頭郡八頭町新興寺
6800523,鳥取県,八頭郡八頭町,小別府,トットリケン,ヤズグンヤズチョウ,コベフ,鳥取県八頭郡八頭町小別府
6800524,鳥取県,八頭郡八頭町,茂田,トットリケン,ヤズグンヤズチョウ,モダ,鳥取県八頭郡八頭町茂田
6800525,鳥取県,八頭郡八頭町,横田,トットリケン,ヤズグンヤズチョウ,ヨコタ,鳥取県八頭郡八頭町横田
6800526,鳥取県,八頭郡八頭町,日下部,トットリケン,ヤズグンヤズチョウ,クサカベ,鳥取県八頭郡八頭町日下部
6800527,鳥取県,八頭郡八頭町,桜ヶ丘,トットリケン,ヤズグンヤズチョウ,サクラガオカ,鳥取県八頭郡八頭町桜ヶ丘
6800531,鳥取県,八頭郡八頭町,才代,トットリケン,ヤズグンヤズチョウ,サイタイ,鳥取県八頭郡八頭町才代
6800532,鳥取県,八頭郡八頭町,東,トットリケン,ヤズグンヤズチョウ,ヒガシ,鳥取県八頭郡八頭町東
6800533,鳥取県,八頭郡八頭町,皆原,トットリケン,ヤズグンヤズチョウ,カイハラ,鳥取県八頭郡八頭町皆原
6800534,鳥取県,八頭郡八頭町,鍛冶屋,トットリケン,ヤズグンヤズチョウ,カジヤ,鳥取県八頭郡八頭町鍛冶屋
6800535,鳥取県,八頭郡八頭町,三山口,トットリケン,ヤズグンヤズチョウ,ミヤマグチ,鳥取県八頭郡八頭町三山口
6800536,鳥取県,八頭郡八頭町,三浦,トットリケン,ヤズグンヤズチョウ,ミウラ,鳥取県八頭郡八頭町三浦
6800537,鳥取県,八頭郡八頭町,岩淵,トットリケン,ヤズグンヤズチョウ,イワブチ,鳥取県八頭郡八頭町岩淵
6800541,鳥取県,八頭郡八頭町,清徳,トットリケン,ヤズグンヤズチョウ,セイトク,鳥取県八頭郡八頭町清徳
6800542,鳥取県,八頭郡八頭町,茂谷,トットリケン,ヤズグンヤズチョウ,モタニ,鳥取県八頭郡八頭町茂谷
6800543,鳥取県,八頭郡八頭町,奥野,トットリケン,ヤズグンヤズチョウ,オクノ,鳥取県八頭郡八頭町奥野
6800544,鳥取県,八頭郡八頭町,佐崎,トットリケン,ヤズグンヤズチョウ,ササキ,鳥取県八頭郡八頭町佐崎
6800545,鳥取県,八頭郡八頭町,柿原,トットリケン,ヤズグンヤズチョウ,カキハラ,鳥取県八頭郡八頭町柿原
6800601,鳥取県,八頭郡八頭町,北山,トットリケン,ヤズグンヤズチョウ,キタヤマ,鳥取県八頭郡八頭町北山
6800602,鳥取県,八頭郡八頭町,用呂,トットリケン,ヤズグンヤズチョウ,ヨウロ,鳥取県八頭郡八頭町用呂
6800603,鳥取県,八頭郡八頭町,日田,トットリケン,ヤズグンヤズチョウ,ヒダ,鳥取県八頭郡八頭町日田
6800604,鳥取県,八頭郡八頭町,南,トットリケン,ヤズグンヤズチョウ,ミナミ,鳥取県八頭郡八頭町南
6800605,鳥取県,八頭郡八頭町,島,トットリケン,ヤズグンヤズチョウ,シマ,鳥取県八頭郡八頭町島
6800606,鳥取県,八頭郡八頭町,重枝,トットリケン,ヤズグンヤズチョウ,シゲエダ,鳥取県八頭郡八頭町重枝
6800607,鳥取県,八頭郡八頭町,徳丸,トットリケン,ヤズグンヤズチョウ,トクマル,鳥取県八頭郡八頭町徳丸
6800611,鳥取県,八頭郡八頭町,富枝,トットリケン,ヤズグンヤズチョウ,トミエダ,鳥取県八頭郡八頭町富枝
6800612,鳥取県,八頭郡八頭町,志谷,トットリケン,ヤズグンヤズチョウ,シタニ,鳥取県八頭郡八頭町志谷
6800613,鳥取県,八頭郡八頭町,稗谷,トットリケン,ヤズグンヤズチョウ,ヒエダニ,鳥取県八頭郡八頭町稗谷
6800614,鳥取県,八頭郡八頭町,中,トットリケン,ヤズグンヤズチョウ,ナカ,鳥取県八頭郡八頭町中
6800700,鳥取県,八頭郡若桜町,,トットリケン,ヤズグンワカサチョウ,,鳥取県八頭郡若桜町
6800701,鳥取県,八頭郡若桜町,若桜,トットリケン,ヤズグンワカサチョウ,ワカサ,鳥取県八頭郡若桜町若桜
6800711,鳥取県,八頭郡若桜町,三倉,トットリケン,ヤズグンワカサチョウ,ミクラ,鳥取県八頭郡若桜町三倉
6800712,鳥取県,八頭郡若桜町,高野,トットリケン,ヤズグンワカサチョウ,タカノ,鳥取県八頭郡若桜町高野
6800713,鳥取県,八頭郡若桜町,赤松,トットリケン,ヤズグンワカサチョウ,アカマツ,鳥取県八頭郡若桜町赤松
6800714,鳥取県,八頭郡若桜町,来見野,トットリケン,ヤズグンワカサチョウ,クルミノ,鳥取県八頭郡若桜町来見野
6800715,鳥取県,八頭郡若桜町,諸鹿,トットリケン,ヤズグンワカサチョウ,モロガ,鳥取県八頭郡若桜町諸鹿
6800721,鳥取県,八頭郡若桜町,屋堂羅,トットリケン,ヤズグンワカサチョウ,ヤドラ,鳥取県八頭郡若桜町屋堂羅
6800722,鳥取県,八頭郡若桜町,浅井,トットリケン,ヤズグンワカサチョウ,アサイ,鳥取県八頭郡若桜町浅井
6800723,鳥取県,八頭郡若桜町,香田,トットリケン,ヤズグンワカサチョウ,コウダ,鳥取県八頭郡若桜町香田
6800724,鳥取県,八頭郡若桜町,長砂,トットリケン,ヤズグンワカサチョウ,ナガスナ,鳥取県八頭郡若桜町長砂
6800725,鳥取県,八頭郡若桜町,湯原,トットリケン,ヤズグンワカサチョウ,ユワラ,鳥取県八頭郡若桜町湯原
6800726,鳥取県,八頭郡若桜町,淵見,トットリケン,ヤズグンワカサチョウ,フチミ,鳥取県八頭郡若桜町淵見
6800727,鳥取県,八頭郡若桜町,茗荷谷,トットリケン,ヤズグンワカサチョウ,ミョウガダニ,鳥取県八頭郡若桜町茗荷谷
6800728,鳥取県,八頭郡若桜町,つく米,トットリケン,ヤズグンワカサチョウ,ツクヨネ,鳥取県八頭郡若桜町つく米
6800731,鳥取県,八頭郡若桜町,岩屋堂,トットリケン,ヤズグンワカサチョウ,イワヤドウ,鳥取県八頭郡若桜町岩屋堂
6800732,鳥取県,八頭郡若桜町,中原,トットリケン,ヤズグンワカサチョウ,ナカハラ,鳥取県八頭郡若桜町中原
6800733,鳥取県,八頭郡若桜町,大野,トットリケン,ヤズグンワカサチョウ,オオノ,鳥取県八頭郡若桜町大野
6800734,鳥取県,八頭郡若桜町,小船,トットリケン,ヤズグンワカサチョウ,オブネ,鳥取県八頭郡若桜町小船
6800735,鳥取県,八頭郡若桜町,落折,トットリケン,ヤズグンワカサチョウ,オチオリ,鳥取県八頭郡若桜町落折
6800741,鳥取県,八頭郡若桜町,大炊,トットリケン,ヤズグンワカサチョウ,オオイ,鳥取県八頭郡若桜町大炊
6800742,鳥取県,八頭郡若桜町,岸野,トットリケン,ヤズグンワカサチョウ,キシノ,鳥取県八頭郡若桜町岸野
6800743,鳥取県,八頭郡若桜町,糸白見,トットリケン,ヤズグンワカサチョウ,イトシロミ,鳥取県八頭郡若桜町糸白見
6800744,鳥取県,八頭郡若桜町,根安,トットリケン,ヤズグンワカサチョウ,ネヤス,鳥取県八頭郡若桜町根安
6800745,鳥取県,八頭郡若桜町,須澄,トットリケン,ヤズグンワカサチョウ,ススミ,鳥取県八頭郡若桜町須澄
6800746,鳥取県,八頭郡若桜町,吉川,トットリケン,ヤズグンワカサチョウ,ヨシカワ,鳥取県八頭郡若桜町吉川
6800801,鳥取県,鳥取市,松並町,トットリケン,トットリシ,マツナミチョウ,鳥取県鳥取市松並町
6800802,鳥取県,鳥取市,青葉町,トットリケン,トットリシ,アオバチョウ,鳥取県鳥取市青葉町
6800803,鳥取県,鳥取市,田園町,トットリケン,トットリシ,デンエンチョウ,鳥取県鳥取市田園町
6800804,鳥取県,鳥取市,田島,トットリケン,トットリシ,タシマ,鳥取県鳥取市田島
6800805,鳥取県,鳥取市,相生町,トットリケン,トットリシ,アイオイチョウ,鳥取県鳥取市相生町
6800806,鳥取県,鳥取市,薬師町,トットリケン,トットリシ,ヤクシマチ,鳥取県鳥取市薬師町
6800811,鳥取県,鳥取市,西品治,トットリケン,トットリシ,ニシホンジ,鳥取県鳥取市西品治
6800812,鳥取県,鳥取市,新品治町,トットリケン,トットリシ,シンホンジチョウ,鳥取県鳥取市新品治町
6800813,鳥取県,鳥取市,寿町,トットリケン,トットリシ,コトブキチョウ,鳥取県鳥取市寿町
6800814,鳥取県,鳥取市,南町,トットリケン,トットリシ,ミナミマチ,鳥取県鳥取市南町
6800821,鳥取県,鳥取市,瓦町,トットリケン,トットリシ,カワラマチ,鳥取県鳥取市瓦町
6800822,鳥取県,鳥取市,今町,トットリケン,トットリシ,イママチ,鳥取県鳥取市今町
6800823,鳥取県,鳥取市,幸町,トットリケン,トットリシ,サイワイチョウ,鳥取県鳥取市幸町
6800824,鳥取県,鳥取市,行徳,トットリケン,トットリシ,ギョウトク,鳥取県鳥取市行徳
6800831,鳥取県,鳥取市,栄町,トットリケン,トットリシ,サカエマチ,鳥取県鳥取市栄町
6800832,鳥取県,鳥取市,弥生町,トットリケン,トットリシ,ヤヨイチョウ,鳥取県鳥取市弥生町
6800833,鳥取県,鳥取市,末広温泉町,トットリケン,トットリシ,スエヒロオンセンチョウ,鳥取県鳥取市末広温泉町
6800834,鳥取県,鳥取市,永楽温泉町,トットリケン,トットリシ,エイラクオンセンチョウ,鳥取県鳥取市永楽温泉町
6800835,鳥取県,鳥取市,東品治町,トットリケン,トットリシ,ヒガシホンジチョウ,鳥取県鳥取市東品治町
6800841,鳥取県,鳥取市,吉方温泉,トットリケン,トットリシ,ヨシカタオンセン,鳥取県鳥取市吉方温泉
6800842,鳥取県,鳥取市,吉方,トットリケン,トットリシ,ヨシカタ,鳥取県鳥取市吉方
6800843,鳥取県,鳥取市,南吉方,トットリケン,トットリシ,ミナミヨシカタ,鳥取県鳥取市南吉方
6800844,鳥取県,鳥取市,興南町,トットリケン,トットリシ,コウナンチョウ,鳥取県鳥取市興南町
6800845,鳥取県,鳥取市,富安,トットリケン,トットリシ,トミヤス,鳥取県鳥取市富安
6800846,鳥取県,鳥取市,扇町,トットリケン,トットリシ,オウギマチ,鳥取県鳥取市扇町
6800847,鳥取県,鳥取市,天神町,トットリケン,トットリシ,テンジンチョウ,鳥取県鳥取市天神町
6800851,鳥取県,鳥取市,大杙,トットリケン,トットリシ,オオクイ,鳥取県鳥取市大杙
6800852,鳥取県,鳥取市,東今在家,トットリケン,トットリシ,ヒガシイマザイケ,鳥取県鳥取市東今在家
6800853,鳥取県,鳥取市,桜谷,トットリケン,トットリシ,サクラダニ,鳥取県鳥取市桜谷
6800854,鳥取県,鳥取市,正蓮寺,トットリケン,トットリシ,ショウレンジ,鳥取県鳥取市正蓮寺
6800855,鳥取県,鳥取市,面影,トットリケン,トットリシ,オモカゲ,鳥取県鳥取市面影
6800861,鳥取県,鳥取市,新,トットリケン,トットリシ,シン,鳥取県鳥取市新
6800862,鳥取県,鳥取市,雲山,トットリケン,トットリシ,クモヤマ,鳥取県鳥取市雲山
6800863,鳥取県,鳥取市,大覚寺,トットリケン,トットリシ,ダイカクジ,鳥取県鳥取市大覚寺
6800864,鳥取県,鳥取市,吉成,トットリケン,トットリシ,ヨシナリ,鳥取県鳥取市吉成
6800865,鳥取県,鳥取市,古市,トットリケン,トットリシ,フルイチ,鳥取県鳥取市古市
6800871,鳥取県,鳥取市,吉成南町,トットリケン,トットリシ,ヨシナリミナミマチ,鳥取県鳥取市吉成南町
6800872,鳥取県,鳥取市,宮長,トットリケン,トットリシ,ミヤナガ,鳥取県鳥取市宮長
6800873,鳥取県,鳥取市,的場,トットリケン,トットリシ,マトバ,鳥取県鳥取市的場
6800874,鳥取県,鳥取市,叶,トットリケン,トットリシ,カノウ,鳥取県鳥取市叶
6800875,鳥取県,鳥取市,数津,トットリケン,トットリシ,スヅ,鳥取県鳥取市数津
6800901,鳥取県,鳥取市,江津,トットリケン,トットリシ,エヅ,鳥取県鳥取市江津
6800902,鳥取県,鳥取市,秋里,トットリケン,トットリシ,アキサト,鳥取県鳥取市秋里
6800903,鳥取県,鳥取市,南隈,トットリケン,トットリシ,ミナミガクマ,鳥取県鳥取市南隈
6800904,鳥取県,鳥取市,晩稲,トットリケン,トットリシ,オクテ,鳥取県鳥取市晩稲
6800905,鳥取県,鳥取市,賀露町,トットリケン,トットリシ,カロチョウ,鳥取県鳥取市賀露町
6800906,鳥取県,鳥取市,港町,トットリケン,トットリシ,ミナトマチ,鳥取県鳥取市港町
6800907,鳥取県,鳥取市,賀露町北,トットリケン,トットリシ,カロチョウキタ,鳥取県鳥取市賀露町北
6800908,鳥取県,鳥取市,賀露町西,トットリケン,トットリシ,カロチョウニシ,鳥取県鳥取市賀露町西
6800909,鳥取県,鳥取市,賀露町南,トットリケン,トットリシ,カロチョウミナミ,鳥取県鳥取市賀露町南
6800911,鳥取県,鳥取市,千代水,トットリケン,トットリシ,チヨミ,鳥取県鳥取市千代水
6800912,鳥取県,鳥取市,商栄町,トットリケン,トットリシ,ショウエイチョウ,鳥取県鳥取市商栄町
6800913,鳥取県,鳥取市,安長,トットリケン,トットリシ,ヤスナガ,鳥取県鳥取市安長
6800914,鳥取県,鳥取市,南安長,トットリケン,トットリシ,ミナミヤスナガ,鳥取県鳥取市南安長
6800915,鳥取県,鳥取市,緑ケ丘,トットリケン,トットリシ,ミドリガオカ,鳥取県鳥取市緑ケ丘
6800921,鳥取県,鳥取市,古海,トットリケン,トットリシ,フルミ,鳥取県鳥取市古海
6800922,鳥取県,鳥取市,菖蒲,トットリケン,トットリシ,ショウブ,鳥取県鳥取市菖蒲
6800923,鳥取県,鳥取市,服部,トットリケン,トットリシ,ハットリ,鳥取県鳥取市服部
6800924,鳥取県,鳥取市,野寺,トットリケン,トットリシ,ノデラ,鳥取県鳥取市野寺
6800931,鳥取県,鳥取市,岩吉,トットリケン,トットリシ,イワヨシ,鳥取県鳥取市岩吉
6800932,鳥取県,鳥取市,五反田町,トットリケン,トットリシ,ゴタンダチョウ,鳥取県鳥取市五反田町
6800933,鳥取県,鳥取市,徳吉,トットリケン,トットリシ,トクヨシ,鳥取県鳥取市徳吉
6800934,鳥取県,鳥取市,徳尾,トットリケン,トットリシ,トクノオ,鳥取県鳥取市徳尾
6800935,鳥取県,鳥取市,里仁,トットリケン,トットリシ,サトニ,鳥取県鳥取市里仁
6800941,鳥取県,鳥取市,湖山町北,トットリケン,トットリシ,コヤマチョウキタ,鳥取県鳥取市湖山町北
6800942,鳥取県,鳥取市,湖山町東,トットリケン,トットリシ,コヤマチョウヒガシ,鳥取県鳥取市湖山町東
6800943,鳥取県,鳥取市,足山,トットリケン,トットリシ,タリヤマ,鳥取県鳥取市足山
6800944,鳥取県,鳥取市,布勢,トットリケン,トットリシ,フセ,鳥取県鳥取市布勢
6800945,鳥取県,鳥取市,湖山町南,トットリケン,トットリシ,コヤマチョウミナミ,鳥取県鳥取市湖山町南
6800946,鳥取県,鳥取市,湖山町,トットリケン,トットリシ,コヤマチョウ,鳥取県鳥取市湖山町
6800947,鳥取県,鳥取市,湖山町西,トットリケン,トットリシ,コヤマチョウニシ,鳥取県鳥取市湖山町西
6801131,鳥取県,鳥取市,馬場,トットリケン,トットリシ,ババ,鳥取県鳥取市馬場
6801132,鳥取県,鳥取市,国安,トットリケン,トットリシ,クニヤス,鳥取県鳥取市国安
6801133,鳥取県,鳥取市,源太,トットリケン,トットリシ,ゲンタ,鳥取県鳥取市源太
6801141,鳥取県,鳥取市,蔵田,トットリケン,トットリシ,クラダ,鳥取県鳥取市蔵田
6801142,鳥取県,鳥取市,橋本,トットリケン,トットリシ,ハシモト,鳥取県鳥取市橋本
6801143,鳥取県,鳥取市,八坂,トットリケン,トットリシ,ハツサカ,鳥取県鳥取市八坂
6801144,鳥取県,鳥取市,円通寺,トットリケン,トットリシ,エンツウジ,鳥取県鳥取市円通寺
6801145,鳥取県,鳥取市,西円通寺,トットリケン,トットリシ,ニシエンツウジ,鳥取県鳥取市西円通寺
6801146,鳥取県,鳥取市,赤子田,トットリケン,トットリシ,アコダ,鳥取県鳥取市赤子田
6801151,鳥取県,鳥取市,倭文,トットリケン,トットリシ,シトリ,鳥取県鳥取市倭文
6801152,鳥取県,鳥取市,玉津,トットリケン,トットリシ,タマヅ,鳥取県鳥取市玉津
6801153,鳥取県,鳥取市,長谷,トットリケン,トットリシ,ハセ,鳥取県鳥取市長谷
6801154,鳥取県,鳥取市,下砂見,トットリケン,トットリシ,シモスナミ,鳥取県鳥取市下砂見
6801155,鳥取県,鳥取市,中砂見,トットリケン,トットリシ,ナカスナミ,鳥取県鳥取市中砂見
6801156,鳥取県,鳥取市,上砂見,トットリケン,トットリシ,カミスナミ,鳥取県鳥取市上砂見
6801157,鳥取県,鳥取市,岩坪,トットリケン,トットリシ,イワツボ,鳥取県鳥取市岩坪
6801161,鳥取県,鳥取市,向国安,トットリケン,トットリシ,ムコウグニヤス,鳥取県鳥取市向国安
6801162,鳥取県,鳥取市,竹生,トットリケン,トットリシ,タケナリ,鳥取県鳥取市竹生
6801163,鳥取県,鳥取市,横枕,トットリケン,トットリシ,ヨコマクラ,鳥取県鳥取市横枕
6801164,鳥取県,鳥取市,猪子,トットリケン,トットリシ,イノコ,鳥取県鳥取市猪子
6801165,鳥取県,鳥取市,下味野,トットリケン,トットリシ,シモアジノ,鳥取県鳥取市下味野
6801166,鳥取県,鳥取市,朝月,トットリケン,トットリシ,アサヅキ,鳥取県鳥取市朝月
6801167,鳥取県,鳥取市,上味野,トットリケン,トットリシ,カミアジノ,鳥取県鳥取市上味野
6801171,鳥取県,鳥取市,本高,トットリケン,トットリシ,モトダカ,鳥取県鳥取市本高
6801172,鳥取県,鳥取市,北村,トットリケン,トットリシ,キタムラ,鳥取県鳥取市北村
6801173,鳥取県,鳥取市,西今在家,トットリケン,トットリシ,ニシイマザイケ,鳥取県鳥取市西今在家
6801174,鳥取県,鳥取市,篠坂,トットリケン,トットリシ,シノザカ,鳥取県鳥取市篠坂
6801175,鳥取県,鳥取市,中村,トットリケン,トットリシ,ナカムラ,鳥取県鳥取市中村
6801176,鳥取県,鳥取市,有富,トットリケン,トットリシ,アリドメ,鳥取県鳥取市有富
6801177,鳥取県,鳥取市,高路,トットリケン,トットリシ,コウロ,鳥取県鳥取市高路
6801201,鳥取県,鳥取市,河原町袋河原,トットリケン,トットリシ,カワハラチョウフクロガワラ,鳥取県鳥取市河原町袋河原
6801202,鳥取県,鳥取市,河原町布袋,トットリケン,トットリシ,カワハラチョウホテイ,鳥取県鳥取市河原町布袋
6801203,鳥取県,鳥取市,河原町稲常,トットリケン,トットリシ,カワハラチョウイナツネ,鳥取県鳥取市河原町稲常
6801204,鳥取県,鳥取市,河原町片山,トットリケン,トットリシ,カワハラチョウカタヤマ,鳥取県鳥取市河原町片山
6801205,鳥取県,鳥取市,河原町今在家,トットリケン,トットリシ,カワハラチョウイマザイケ,鳥取県鳥取市河原町今在家
6801206,鳥取県,鳥取市,河原町三谷,トットリケン,トットリシ,カワハラチョウミタニ,鳥取県鳥取市河原町三谷
6801207,鳥取県,鳥取市,河原町郷原,トットリケン,トットリシ,カワハラチョウゴウバラ,鳥取県鳥取市河原町郷原
6801208,鳥取県,鳥取市,河原町鮎ケ丘,トットリケン,トットリシ,カワハラチョウアユガオカ,鳥取県鳥取市河原町鮎ケ丘
6801209,鳥取県,鳥取市,河原町西円通寺,トットリケン,トットリシ,カワハラチョウニシエンツウジ,鳥取県鳥取市河原町西円通寺
6801211,鳥取県,鳥取市,河原町山手,トットリケン,トットリシ,カワハラチョウヤマテ,鳥取県鳥取市河原町山手
6801212,鳥取県,鳥取市,河原町徳吉,トットリケン,トットリシ,カワハラチョウトクヨシ,鳥取県鳥取市河原町徳吉
6801213,鳥取県,鳥取市,河原町高福,トットリケン,トットリシ,カワハラチョウタカフク,鳥取県鳥取市河原町高福
6801214,鳥取県,鳥取市,河原町八日市,トットリケン,トットリシ,カワハラチョウヨウカイチ,鳥取県鳥取市河原町八日市
6801215,鳥取県,鳥取市,河原町和奈見,トットリケン,トットリシ,カワハラチョウワナミ,鳥取県鳥取市河原町和奈見
6801216,鳥取県,鳥取市,河原町釜口,トットリケン,トットリシ,カワハラチョウカマグチ,鳥取県鳥取市河原町釜口
6801221,鳥取県,鳥取市,河原町渡一木,トットリケン,トットリシ,カワハラチョウワタリヒトツギ,鳥取県鳥取市河原町渡一木
6801222,鳥取県,鳥取市,河原町曳田,トットリケン,トットリシ,カワハラチョウヒケタ,鳥取県鳥取市河原町曳田
6801223,鳥取県,鳥取市,河原町天神原,トットリケン,トットリシ,カワハラチョウテンジンバラ,鳥取県鳥取市河原町天神原
6801224,鳥取県,鳥取市,河原町中井,トットリケン,トットリシ,カワハラチョウナカイ,鳥取県鳥取市河原町中井
6801225,鳥取県,鳥取市,河原町牛戸,トットリケン,トットリシ,カワハラチョウウシト,鳥取県鳥取市河原町牛戸
6801231,鳥取県,鳥取市,河原町湯谷,トットリケン,トットリシ,カワハラチョウユダニ,鳥取県鳥取市河原町湯谷
6801232,鳥取県,鳥取市,河原町小畑,トットリケン,トットリシ,カワハラチョウオバタ,鳥取県鳥取市河原町小畑
6801233,鳥取県,鳥取市,河原町弓河内,トットリケン,トットリシ,カワハラチョウユミゴウチ,鳥取県鳥取市河原町弓河内
6801234,鳥取県,鳥取市,河原町北村,トットリケン,トットリシ,カワハラチョウキタムラ,鳥取県鳥取市河原町北村
6801241,鳥取県,鳥取市,河原町長瀬,トットリケン,トットリシ,カワハラチョウナガセ,鳥取県鳥取市河原町長瀬
6801242,鳥取県,鳥取市,河原町谷一木,トットリケン,トットリシ,カワハラチョウタニヒトツギ,鳥取県鳥取市河原町谷一木
6801243,鳥取県,鳥取市,河原町佐貫,トットリケン,トットリシ,カワハラチョウサヌキ,鳥取県鳥取市河原町佐貫
6801244,鳥取県,鳥取市,河原町水根,トットリケン,トットリシ,カワハラチョウミズネ,鳥取県鳥取市河原町水根
6801245,鳥取県,鳥取市,河原町小倉,トットリケン,トットリシ,カワハラチョウオグラ,鳥取県鳥取市河原町小倉
6801246,鳥取県,鳥取市,河原町山上,トットリケン,トットリシ,カワハラチョウヤマガミ,鳥取県鳥取市河原町山上
6801251,鳥取県,鳥取市,河原町河原,トットリケン,トットリシ,カワハラチョウカワハラ,鳥取県鳥取市河原町河原
6801252,鳥取県,鳥取市,河原町本鹿,トットリケン,トットリシ,カワハラチョウホンガ,鳥取県鳥取市河原町本鹿
6801253,鳥取県,鳥取市,河原町小河内,トットリケン,トットリシ,カワハラチョウオゴウチ,鳥取県鳥取市河原町小河内
6801254,鳥取県,鳥取市,河原町神馬,トットリケン,トットリシ,カワハラチョウカンバ,鳥取県鳥取市河原町神馬
6801411,鳥取県,鳥取市,嶋,トットリケン,トットリシ,シマ,鳥取県鳥取市嶋
6801412,鳥取県,鳥取市,宮谷,トットリケン,トットリシ,ミヤダニ,鳥取県鳥取市宮谷
6801413,鳥取県,鳥取市,野坂,トットリケン,トットリシ,ノサカ,鳥取県鳥取市野坂
6801414,鳥取県,鳥取市,下段,トットリケン,トットリシ,シモダン,鳥取県鳥取市下段
6801415,鳥取県,鳥取市,大塚,トットリケン,トットリシ,オオヅカ,鳥取県鳥取市大塚
6801416,鳥取県,鳥取市,高住,トットリケン,トットリシ,タカズミ,鳥取県鳥取市高住
6801417,鳥取県,鳥取市,桂見,トットリケン,トットリシ,カツラミ,鳥取県鳥取市桂見
6801418,鳥取県,鳥取市,大桷,トットリケン,トットリシ,ダイカク,鳥取県鳥取市大桷
6801421,鳥取県,鳥取市,上段,トットリケン,トットリシ,カミダン,鳥取県鳥取市上段
6801422,鳥取県,鳥取市,上原,トットリケン,トットリシ,ウエバラ,鳥取県鳥取市上原
6801423,鳥取県,鳥取市,松上,トットリケン,トットリシ,マツガミ,鳥取県鳥取市松上
6801424,鳥取県,鳥取市,槇原,トットリケン,トットリシ,マキバラ,鳥取県鳥取市槇原
6801425,鳥取県,鳥取市,河内,トットリケン,トットリシ,コウチ,鳥取県鳥取市河内
6801426,鳥取県,鳥取市,細見,トットリケン,トットリシ,ホソミ,鳥取県鳥取市細見
6801427,鳥取県,鳥取市,尾崎,トットリケン,トットリシ,オサキ,鳥取県鳥取市尾崎
6801428,鳥取県,鳥取市,三山口,トットリケン,トットリシ,ミヤマグチ,鳥取県鳥取市三山口
6801431,鳥取県,鳥取市,妙徳寺,トットリケン,トットリシ,ミョウトクジ,鳥取県鳥取市妙徳寺
6801432,鳥取県,鳥取市,双六原,トットリケン,トットリシ,ソウロクバラ,鳥取県鳥取市双六原
6801433,鳥取県,鳥取市,矢矯,トットリケン,トットリシ,ヤハギ,鳥取県鳥取市矢矯
6801434,鳥取県,鳥取市,洞谷,トットリケン,トットリシ,ホラダニ,鳥取県鳥取市洞谷
6801435,鳥取県,鳥取市,瀬田蔵,トットリケン,トットリシ,セタグラ,鳥取県鳥取市瀬田蔵
6801436,鳥取県,鳥取市,長柄,トットリケン,トットリシ,ナガラ,鳥取県鳥取市長柄
6801437,鳥取県,鳥取市,大畑,トットリケン,トットリシ,オオバタケ,鳥取県鳥取市大畑
6801438,鳥取県,鳥取市,福井,トットリケン,トットリシ,フクイ,鳥取県鳥取市福井
6801439,鳥取県,鳥取市,金沢,トットリケン,トットリシ,カナザワ,鳥取県鳥取市金沢
6801441,鳥取県,鳥取市,良田,トットリケン,トットリシ,ヨシダ,鳥取県鳥取市良田
6801442,鳥取県,鳥取市,吉岡温泉町,トットリケン,トットリシ,ヨシオカオンセンチョウ,鳥取県鳥取市吉岡温泉町
6801443,鳥取県,鳥取市,六反田,トットリケン,トットリシ,ロクタンダ,鳥取県鳥取市六反田
6801444,鳥取県,鳥取市,松原,トットリケン,トットリシ,マツバラ,鳥取県鳥取市松原
6808021,鳥取県,鳥取市,福部町久志羅（上野）,トットリケン,トットリシ,フクベチョウクジラ(ウエノ),鳥取県鳥取市福部町久志羅（上野）
6808022,鳥取県,鳥取市,福部町左近（上野）,トットリケン,トットリシ,フクベチョウサコ(ウエノ),鳥取県鳥取市福部町左近（上野）
6808062,鳥取県,鳥取市,国府町稲葉丘,トットリケン,トットリシ,コクフチョウイナバガオカ,鳥取県鳥取市国府町稲葉丘
6808063,鳥取県,鳥取市,国府町奥谷,トットリケン,トットリシ,コクフチョウオクダニ,鳥取県鳥取市国府町奥谷
6808064,鳥取県,鳥取市,国府町分上,トットリケン,トットリシ,コクフチョウブンジョウ,鳥取県鳥取市国府町分上
6808065,鳥取県,鳥取市,国府町新町,トットリケン,トットリシ,コクフチョウシンマチ,鳥取県鳥取市国府町新町
6808066,鳥取県,鳥取市,国府町新通り,トットリケン,トットリシ,コクフチョウシンドオリ,鳥取県鳥取市国府町新通り
6810000,鳥取県,岩美郡岩美町,,トットリケン,イワミグンイワミチョウ,,鳥取県岩美郡岩美町
6810001,鳥取県,岩美郡岩美町,牧谷,トットリケン,イワミグンイワミチョウ,マキダニ,鳥取県岩美郡岩美町牧谷
6810002,鳥取県,岩美郡岩美町,相谷,トットリケン,イワミグンイワミチョウ,アイダニ,鳥取県岩美郡岩美町相谷
6810003,鳥取県,岩美郡岩美町,浦富,トットリケン,イワミグンイワミチョウ,ウラドメ,鳥取県岩美郡岩美町浦富
6810011,鳥取県,岩美郡岩美町,陸上,トットリケン,イワミグンイワミチョウ,クガミ,鳥取県岩美郡岩美町陸上
6810012,鳥取県,岩美郡岩美町,田河内,トットリケン,イワミグンイワミチョウ,タノコウジ,鳥取県岩美郡岩美町田河内
6810013,鳥取県,岩美郡岩美町,小羽尾,トットリケン,イワミグンイワミチョウ,コバネオ,鳥取県岩美郡岩美町小羽尾
6810014,鳥取県,岩美郡岩美町,大羽尾,トットリケン,イワミグンイワミチョウ,オオバネオ,鳥取県岩美郡岩美町大羽尾
6810021,鳥取県,岩美郡岩美町,長谷,トットリケン,イワミグンイワミチョウ,ナガタニ,鳥取県岩美郡岩美町長谷
6810022,鳥取県,岩美郡岩美町,白地,トットリケン,イワミグンイワミチョウ,シラジ,鳥取県岩美郡岩美町白地
6810023,鳥取県,岩美郡岩美町,真名,トットリケン,イワミグンイワミチョウ,マナ,鳥取県岩美郡岩美町真名
6810024,鳥取県,岩美郡岩美町,岩井,トットリケン,イワミグンイワミチョウ,イワイ,鳥取県岩美郡岩美町岩井
6810025,鳥取県,岩美郡岩美町,宇治,トットリケン,イワミグンイワミチョウ,ウジ,鳥取県岩美郡岩美町宇治
6810031,鳥取県,岩美郡岩美町,蒲生,トットリケン,イワミグンイワミチョウ,ガモウ,鳥取県岩美郡岩美町蒲生
6810032,鳥取県,岩美郡岩美町,洗井,トットリケン,イワミグンイワミチョウ,アライ,鳥取県岩美郡岩美町洗井
6810033,鳥取県,岩美郡岩美町,鳥越,トットリケン,イワミグンイワミチョウ,トリゴエ,鳥取県岩美郡岩美町鳥越
6810034,鳥取県,岩美郡岩美町,銀山,トットリケン,イワミグンイワミチョウ,ギンザン,鳥取県岩美郡岩美町銀山
6810035,鳥取県,岩美郡岩美町,馬場,トットリケン,イワミグンイワミチョウ,ババ,鳥取県岩美郡岩美町馬場
6810036,鳥取県,岩美郡岩美町,相山,トットリケン,イワミグンイワミチョウ,アイヤマ,鳥取県岩美郡岩美町相山
6810041,鳥取県,岩美郡岩美町,黒谷,トットリケン,イワミグンイワミチョウ,クロダニ,鳥取県岩美郡岩美町黒谷
6810042,鳥取県,岩美郡岩美町,小田,トットリケン,イワミグンイワミチョウ,オダ,鳥取県岩美郡岩美町小田
6810043,鳥取県,岩美郡岩美町,大坂,トットリケン,イワミグンイワミチョウ,オオサカ,鳥取県岩美郡岩美町大坂
6810044,鳥取県,岩美郡岩美町,外邑,トットリケン,イワミグンイワミチョウ,トノムラ,鳥取県岩美郡岩美町外邑
6810045,鳥取県,岩美郡岩美町,唐川,トットリケン,イワミグンイワミチョウ,カラカワ,鳥取県岩美郡岩美町唐川
6810046,鳥取県,岩美郡岩美町,延興寺,トットリケン,イワミグンイワミチョウ,エンゴウジ,鳥取県岩美郡岩美町延興寺
6810047,鳥取県,岩美郡岩美町,池谷,トットリケン,イワミグンイワミチョウ,イケダニ,鳥取県岩美郡岩美町池谷
6810051,鳥取県,岩美郡岩美町,河崎,トットリケン,イワミグンイワミチョウ,カワサキ,鳥取県岩美郡岩美町河崎
6810052,鳥取県,岩美郡岩美町,岩常,トットリケン,イワミグンイワミチョウ,イワツネ,鳥取県岩美郡岩美町岩常
6810053,鳥取県,岩美郡岩美町,高住,トットリケン,イワミグンイワミチョウ,タカズミ,鳥取県岩美郡岩美町高住
6810054,鳥取県,岩美郡岩美町,院内,トットリケン,イワミグンイワミチョウ,インナイ,鳥取県岩美郡岩美町院内
6810055,鳥取県,岩美郡岩美町,荒金,トットリケン,イワミグンイワミチョウ,アラカネ,鳥取県岩美郡岩美町荒金
6810056,鳥取県,岩美郡岩美町,長郷,トットリケン,イワミグンイワミチョウ,チョウゴウ,鳥取県岩美郡岩美町長郷
6810061,鳥取県,岩美郡岩美町,高山,トットリケン,イワミグンイワミチョウ,タカヤマ,鳥取県岩美郡岩美町高山
6810062,鳥取県,岩美郡岩美町,恩志,トットリケン,イワミグンイワミチョウ,オンジ,鳥取県岩美郡岩美町恩志
6810063,鳥取県,岩美郡岩美町,太田,トットリケン,イワミグンイワミチョウ,オオタ,鳥取県岩美郡岩美町太田
6810064,鳥取県,岩美郡岩美町,本庄,トットリケン,イワミグンイワミチョウ,ホンジョウ,鳥取県岩美郡岩美町本庄
6810065,鳥取県,岩美郡岩美町,新井,トットリケン,イワミグンイワミチョウ,ニイ,鳥取県岩美郡岩美町新井
6810071,鳥取県,岩美郡岩美町,田後,トットリケン,イワミグンイワミチョウ,タジリ,鳥取県岩美郡岩美町田後
6810072,鳥取県,岩美郡岩美町,岩本,トットリケン,イワミグンイワミチョウ,イワモト,鳥取県岩美郡岩美町岩本
6810073,鳥取県,岩美郡岩美町,大谷,トットリケン,イワミグンイワミチョウ,オオタニ,鳥取県岩美郡岩美町大谷
6810074,鳥取県,岩美郡岩美町,網代,トットリケン,イワミグンイワミチョウ,アジロ,鳥取県岩美郡岩美町網代
6820000,鳥取県,倉吉市,,トットリケン,クラヨシシ,,鳥取県倉吉市
6820001,鳥取県,倉吉市,穴窪,トットリケン,クラヨシシ,アナクボ,鳥取県倉吉市穴窪
6820002,鳥取県,倉吉市,中江,トットリケン,クラヨシシ,ナカエ,鳥取県倉吉市中江
6820003,鳥取県,倉吉市,新田,トットリケン,クラヨシシ,シンデン,鳥取県倉吉市新田
6820004,鳥取県,倉吉市,古川沢,トットリケン,クラヨシシ,フルカワサワ,鳥取県倉吉市古川沢
6820005,鳥取県,倉吉市,下古川,トットリケン,クラヨシシ,シモフルカワ,鳥取県倉吉市下古川
6820006,鳥取県,倉吉市,井手畑,トットリケン,クラヨシシ,イデバタ,鳥取県倉吉市井手畑
6820011,鳥取県,倉吉市,大塚,トットリケン,クラヨシシ,オオツカ,鳥取県倉吉市大塚
6820012,鳥取県,倉吉市,清谷,トットリケン,クラヨシシ,セイダニ,鳥取県倉吉市清谷
6820013,鳥取県,倉吉市,福庭,トットリケン,クラヨシシ,フクバ,鳥取県倉吉市福庭
6820014,鳥取県,倉吉市,海田東町,トットリケン,クラヨシシ,カイダヒガシマチ,鳥取県倉吉市海田東町
6820015,鳥取県,倉吉市,海田南町,トットリケン,クラヨシシ,カイダミナミマチ,鳥取県倉吉市海田南町
6820016,鳥取県,倉吉市,海田西町,トットリケン,クラヨシシ,カイダニシマチ,鳥取県倉吉市海田西町
6820017,鳥取県,倉吉市,清谷町,トットリケン,クラヨシシ,セイダニチョウ,鳥取県倉吉市清谷町
6820018,鳥取県,倉吉市,福庭町,トットリケン,クラヨシシ,フクバチョウ,鳥取県倉吉市福庭町
6820021,鳥取県,倉吉市,上井,トットリケン,クラヨシシ,アゲイ,鳥取県倉吉市上井
6820022,鳥取県,倉吉市,上井町,トットリケン,クラヨシシ,アゲイチョウ,鳥取県倉吉市上井町
6820023,鳥取県,倉吉市,山根,トットリケン,クラヨシシ,ヤマネ,鳥取県倉吉市山根
6820024,鳥取県,倉吉市,伊木,トットリケン,クラヨシシ,イギ,鳥取県倉吉市伊木
6820025,鳥取県,倉吉市,八屋,トットリケン,クラヨシシ,ヤツヤ,鳥取県倉吉市八屋
6820031,鳥取県,倉吉市,下余戸,トットリケン,クラヨシシ,シモヨド,鳥取県倉吉市下余戸
6820032,鳥取県,倉吉市,上余戸,トットリケン,クラヨシシ,カミヨド,鳥取県倉吉市上余戸
6820033,鳥取県,倉吉市,栗尾,トットリケン,クラヨシシ,クリオ,鳥取県倉吉市栗尾
6820034,鳥取県,倉吉市,大原,トットリケン,クラヨシシ,オハラ,鳥取県倉吉市大原
6820035,鳥取県,倉吉市,広栄町,トットリケン,クラヨシシ,コウエイチョウ,鳥取県倉吉市広栄町
6820036,鳥取県,倉吉市,虹ケ丘町,トットリケン,クラヨシシ,ニジガオカチョウ,鳥取県倉吉市虹ケ丘町
6820041,鳥取県,倉吉市,河北町,トットリケン,クラヨシシ,カホクチョウ,鳥取県倉吉市河北町
6820042,鳥取県,倉吉市,大平町,トットリケン,クラヨシシ,オオヒラチョウ,鳥取県倉吉市大平町
6820043,鳥取県,倉吉市,天神町,トットリケン,クラヨシシ,テンジンチョウ,鳥取県倉吉市天神町
6820044,鳥取県,倉吉市,小田,トットリケン,クラヨシシ,コダ,鳥取県倉吉市小田
6820045,鳥取県,倉吉市,小田東,トットリケン,クラヨシシ,コダヒガシ,鳥取県倉吉市小田東
6820100,鳥取県,東伯郡三朝町,,トットリケン,トウハクグンミササチョウ,,鳥取県東伯郡三朝町
6820121,鳥取県,東伯郡三朝町,大瀬,トットリケン,トウハクグンミササチョウ,オオゼ,鳥取県東伯郡三朝町大瀬
6820122,鳥取県,東伯郡三朝町,山田,トットリケン,トウハクグンミササチョウ,ヤマダ,鳥取県東伯郡三朝町山田
6820123,鳥取県,東伯郡三朝町,三朝,トットリケン,トウハクグンミササチョウ,ミササ,鳥取県東伯郡三朝町三朝
6820123,鳥取県,東伯郡三朝町,恋谷,トットリケン,トウハクグンミササチョウ,コイダニ,鳥取県東伯郡三朝町恋谷
6820124,鳥取県,東伯郡三朝町,砂原,トットリケン,トウハクグンミササチョウ,スナワラ,鳥取県東伯郡三朝町砂原
6820125,鳥取県,東伯郡三朝町,徳本,トットリケン,トウハクグンミササチョウ,トクモト,鳥取県東伯郡三朝町徳本
6820125,鳥取県,東伯郡三朝町,横手,トットリケン,トウハクグンミササチョウ,ヨコテ,鳥取県東伯郡三朝町横手
6820131,鳥取県,東伯郡三朝町,俵原,トットリケン,トウハクグンミササチョウ,タワラ,鳥取県東伯郡三朝町俵原
6820132,鳥取県,東伯郡三朝町,三徳,トットリケン,トウハクグンミササチョウ,ミトク,鳥取県東伯郡三朝町三徳
6820133,鳥取県,東伯郡三朝町,吉田,トットリケン,トウハクグンミササチョウ,ヨシダ,鳥取県東伯郡三朝町吉田
6820133,鳥取県,東伯郡三朝町,桜ケ丘,トットリケン,トウハクグンミササチョウ,サクラガオカ,鳥取県東伯郡三朝町桜ケ丘
6820134,鳥取県,東伯郡三朝町,余戸,トットリケン,トウハクグンミササチョウ,ヨド,鳥取県東伯郡三朝町余戸
6820135,鳥取県,東伯郡三朝町,片柴,トットリケン,トウハクグンミササチョウ,カタシバ,鳥取県東伯郡三朝町片柴
6820136,鳥取県,東伯郡三朝町,坂本,トットリケン,トウハクグンミササチョウ,サカモト,鳥取県東伯郡三朝町坂本
6820141,鳥取県,東伯郡三朝町,中津,トットリケン,トウハクグンミササチョウ,ナカツ,鳥取県東伯郡三朝町中津
6820142,鳥取県,東伯郡三朝町,神倉,トットリケン,トウハクグンミササチョウ,カンノクラ,鳥取県東伯郡三朝町神倉
6820143,鳥取県,東伯郡三朝町,東小鹿,トットリケン,トウハクグンミササチョウ,ヒガシオシカ,鳥取県東伯郡三朝町東小鹿
6820144,鳥取県,東伯郡三朝町,西小鹿,トットリケン,トウハクグンミササチョウ,ニシオシカ,鳥取県東伯郡三朝町西小鹿
6820145,鳥取県,東伯郡三朝町,西尾,トットリケン,トウハクグンミササチョウ,ニシオ,鳥取県東伯郡三朝町西尾
6820146,鳥取県,東伯郡三朝町,高橋,トットリケン,トウハクグンミササチョウ,タカハシ,鳥取県東伯郡三朝町高橋
6820151,鳥取県,東伯郡三朝町,今泉,トットリケン,トウハクグンミササチョウ,イマイズミ,鳥取県東伯郡三朝町今泉
6820151,鳥取県,東伯郡三朝町,若宮,トットリケン,トウハクグンミササチョウ,ワカミヤ,鳥取県東伯郡三朝町若宮
6820152,鳥取県,東伯郡三朝町,本泉,トットリケン,トウハクグンミササチョウ,モトイズミ,鳥取県東伯郡三朝町本泉
6820153,鳥取県,東伯郡三朝町,天神,トットリケン,トウハクグンミササチョウ,テンジン,鳥取県東伯郡三朝町天神
6820153,鳥取県,東伯郡三朝町,森,トットリケン,トウハクグンミササチョウ,モリ,鳥取県東伯郡三朝町森
6820154,鳥取県,東伯郡三朝町,鎌田,トットリケン,トウハクグンミササチョウ,カマダ,鳥取県東伯郡三朝町鎌田
6820155,鳥取県,東伯郡三朝町,吉尾,トットリケン,トウハクグンミササチョウ,ヨシオ,鳥取県東伯郡三朝町吉尾
6820156,鳥取県,東伯郡三朝町,下谷,トットリケン,トウハクグンミササチョウ,シモダニ,鳥取県東伯郡三朝町下谷
6820157,鳥取県,東伯郡三朝町,小河内,トットリケン,トウハクグンミササチョウ,オゴチ,鳥取県東伯郡三朝町小河内
6820158,鳥取県,東伯郡三朝町,笏賀,トットリケン,トウハクグンミササチョウ,ツガ,鳥取県東伯郡三朝町笏賀
6820159,鳥取県,東伯郡三朝町,福田,トットリケン,トウハクグンミササチョウ,フクダ,鳥取県東伯郡三朝町福田
6820161,鳥取県,東伯郡三朝町,柿谷,トットリケン,トウハクグンミササチョウ,カキダニ,鳥取県東伯郡三朝町柿谷
6820162,鳥取県,東伯郡三朝町,鉛山,トットリケン,トウハクグンミササチョウ,ナマリヤマ,鳥取県東伯郡三朝町鉛山
6820163,鳥取県,東伯郡三朝町,福吉,トットリケン,トウハクグンミササチョウ,フクヨシ,鳥取県東伯郡三朝町福吉
6820171,鳥取県,東伯郡三朝町,湯谷,トットリケン,トウハクグンミササチョウ,ユタニ,鳥取県東伯郡三朝町湯谷
6820172,鳥取県,東伯郡三朝町,赤松,トットリケン,トウハクグンミササチョウ,アカマツ,鳥取県東伯郡三朝町赤松
6820173,鳥取県,東伯郡三朝町,恩地,トットリケン,トウハクグンミササチョウ,オンジ,鳥取県東伯郡三朝町恩地
6820176,鳥取県,東伯郡三朝町,助谷,トットリケン,トウハクグンミササチョウ,スケダニ,鳥取県東伯郡三朝町助谷
6820177,鳥取県,東伯郡三朝町,大柿,トットリケン,トウハクグンミササチョウ,オオガキ,鳥取県東伯郡三朝町大柿
6820178,鳥取県,東伯郡三朝町,牧,トットリケン,トウハクグンミササチョウ,マキ,鳥取県東伯郡三朝町牧
6820301,鳥取県,東伯郡三朝町,木地山,トットリケン,トウハクグンミササチョウ,キジヤマ,鳥取県東伯郡三朝町木地山
6820302,鳥取県,東伯郡三朝町,加谷,トットリケン,トウハクグンミササチョウ,カダニ,鳥取県東伯郡三朝町加谷
6820303,鳥取県,東伯郡三朝町,穴鴨,トットリケン,トウハクグンミササチョウ,アナガモ,鳥取県東伯郡三朝町穴鴨
6820311,鳥取県,東伯郡三朝町,福山,トットリケン,トウハクグンミササチョウ,フクヤマ,鳥取県東伯郡三朝町福山
6820312,鳥取県,東伯郡三朝町,下西谷,トットリケン,トウハクグンミササチョウ,シモニシダニ,鳥取県東伯郡三朝町下西谷
6820313,鳥取県,東伯郡三朝町,上西谷,トットリケン,トウハクグンミササチョウ,カミニシダニ,鳥取県東伯郡三朝町上西谷
6820314,鳥取県,東伯郡三朝町,田代,トットリケン,トウハクグンミササチョウ,タシロ,鳥取県東伯郡三朝町田代
6820315,鳥取県,東伯郡三朝町,大谷,トットリケン,トウハクグンミササチョウ,オオタニ,鳥取県東伯郡三朝町大谷
6820316,鳥取県,東伯郡三朝町,下畑,トットリケン,トウハクグンミササチョウ,シモバタ,鳥取県東伯郡三朝町下畑
6820317,鳥取県,東伯郡三朝町,福本,トットリケン,トウハクグンミササチョウ,フクモト,鳥取県東伯郡三朝町福本
6820374,鳥取県,東伯郡三朝町,曹源寺,トットリケン,トウハクグンミササチョウ,ソウゲンジ,鳥取県東伯郡三朝町曹源寺
6820375,鳥取県,東伯郡三朝町,久原,トットリケン,トウハクグンミササチョウ,クバラ,鳥取県東伯郡三朝町久原
6820401,鳥取県,倉吉市,関金町安歩,トットリケン,クラヨシシ,セキガネチョウアブ,鳥取県倉吉市関金町安歩
6820402,鳥取県,倉吉市,関金町大鳥居,トットリケン,クラヨシシ,セキガネチョウオオドリイ,鳥取県倉吉市関金町大鳥居
6820403,鳥取県,倉吉市,関金町松河原,トットリケン,クラヨシシ,セキガネチョウマツガワラ,鳥取県倉吉市関金町松河原
6820404,鳥取県,倉吉市,関金町泰久寺,トットリケン,クラヨシシ,セキガネチョウタイキュウジ,鳥取県倉吉市関金町泰久寺
6820411,鳥取県,倉吉市,関金町関金宿,トットリケン,クラヨシシ,セキガネチョウセキガネシュク,鳥取県倉吉市関金町関金宿
6820412,鳥取県,倉吉市,関金町山口,トットリケン,クラヨシシ,セキガネチョウヤマグチ,鳥取県倉吉市関金町山口
6820413,鳥取県,倉吉市,関金町郡家,トットリケン,クラヨシシ,セキガネチョウコオゲ,鳥取県倉吉市関金町郡家
6820421,鳥取県,倉吉市,関金町今西,トットリケン,クラヨシシ,セキガネチョウイマニシ,鳥取県倉吉市関金町今西
6820422,鳥取県,倉吉市,関金町堀,トットリケン,クラヨシシ,セキガネチョウホリ,鳥取県倉吉市関金町堀
6820423,鳥取県,倉吉市,関金町明高,トットリケン,クラヨシシ,セキガネチョウミョウコウ,鳥取県倉吉市関金町明高
6820431,鳥取県,倉吉市,関金町米富,トットリケン,クラヨシシ,セキガネチョウヨネドメ,鳥取県倉吉市関金町米富
6820432,鳥取県,倉吉市,関金町福原,トットリケン,クラヨシシ,セキガネチョウフクハラ,鳥取県倉吉市関金町福原
6820433,鳥取県,倉吉市,関金町小泉,トットリケン,クラヨシシ,セキガネチョウコイズミ,鳥取県倉吉市関金町小泉
6820434,鳥取県,倉吉市,関金町野添,トットリケン,クラヨシシ,セキガネチョウノゾエ,鳥取県倉吉市関金町野添
6820601,鳥取県,倉吉市,下米積,トットリケン,クラヨシシ,シモヨナヅミ,鳥取県倉吉市下米積
6820602,鳥取県,倉吉市,上米積,トットリケン,クラヨシシ,カミヨナヅミ,鳥取県倉吉市上米積
6820603,鳥取県,倉吉市,三江,トットリケン,クラヨシシ,ミエ,鳥取県倉吉市三江
6820604,鳥取県,倉吉市,福本,トットリケン,クラヨシシ,フクモト,鳥取県倉吉市福本
6820605,鳥取県,倉吉市,福富,トットリケン,クラヨシシ,フクドミ,鳥取県倉吉市福富
6820606,鳥取県,倉吉市,沢谷,トットリケン,クラヨシシ,サワダニ,鳥取県倉吉市沢谷
6820607,鳥取県,倉吉市,尾田,トットリケン,クラヨシシ,オダ,鳥取県倉吉市尾田
6820611,鳥取県,倉吉市,杉野,トットリケン,クラヨシシ,スギノ,鳥取県倉吉市杉野
6820612,鳥取県,倉吉市,中野,トットリケン,クラヨシシ,ナカノ,鳥取県倉吉市中野
6820613,鳥取県,倉吉市,志津,トットリケン,クラヨシシ,シツ,鳥取県倉吉市志津
6820615,鳥取県,倉吉市,森,トットリケン,クラヨシシ,モリ,鳥取県倉吉市森
6820621,鳥取県,倉吉市,忰谷,トットリケン,クラヨシシ,カセダニ,鳥取県倉吉市忰谷
6820622,鳥取県,倉吉市,長谷,トットリケン,クラヨシシ,ナガタニ,鳥取県倉吉市長谷
6820623,鳥取県,倉吉市,大河内,トットリケン,クラヨシシ,オオカチ,鳥取県倉吉市大河内
6820624,鳥取県,倉吉市,般若,トットリケン,クラヨシシ,ハンニャ,鳥取県倉吉市般若
6820625,鳥取県,倉吉市,椋波,トットリケン,クラヨシシ,モクナミ,鳥取県倉吉市椋波
6820626,鳥取県,倉吉市,立見,トットリケン,クラヨシシ,タテミ,鳥取県倉吉市立見
6820631,鳥取県,倉吉市,上大立,トットリケン,クラヨシシ,カミオオタチ,鳥取県倉吉市上大立
6820632,鳥取県,倉吉市,大立,トットリケン,クラヨシシ,オオタチ,鳥取県倉吉市大立
6820633,鳥取県,倉吉市,河来見,トットリケン,クラヨシシ,カワクルミ,鳥取県倉吉市河来見
6820634,鳥取県,倉吉市,桜,トットリケン,クラヨシシ,サクラ,鳥取県倉吉市桜
6820635,鳥取県,倉吉市,服部,トットリケン,クラヨシシ,ハットリ,鳥取県倉吉市服部
6820641,鳥取県,倉吉市,今在家,トットリケン,クラヨシシ,イマザイケ,鳥取県倉吉市今在家
6820642,鳥取県,倉吉市,上福田,トットリケン,クラヨシシ,カミフクダ,鳥取県倉吉市上福田
6820643,鳥取県,倉吉市,下福田,トットリケン,クラヨシシ,シモフクダ,鳥取県倉吉市下福田
6820644,鳥取県,倉吉市,福積,トットリケン,クラヨシシ,フクヅミ,鳥取県倉吉市福積
6820645,鳥取県,倉吉市,岡,トットリケン,クラヨシシ,オカ,鳥取県倉吉市岡
6820700,鳥取県,東伯郡湯梨浜町,,トットリケン,トウハクグンユリハマチョウ,,鳥取県東伯郡湯梨浜町
6820701,鳥取県,東伯郡湯梨浜町,宇野,トットリケン,トウハクグンユリハマチョウ,ウノ,鳥取県東伯郡湯梨浜町宇野
6820702,鳥取県,東伯郡湯梨浜町,橋津,トットリケン,トウハクグンユリハマチョウ,ハシヅ,鳥取県東伯郡湯梨浜町橋津
6820703,鳥取県,東伯郡湯梨浜町,上橋津,トットリケン,トウハクグンユリハマチョウ,カミハシヅ,鳥取県東伯郡湯梨浜町上橋津
6820704,鳥取県,東伯郡湯梨浜町,南谷,トットリケン,トウハクグンユリハマチョウ,ミナミダニ,鳥取県東伯郡湯梨浜町南谷
6820711,鳥取県,東伯郡湯梨浜町,下浅津,トットリケン,トウハクグンユリハマチョウ,シモアソヅ,鳥取県東伯郡湯梨浜町下浅津
6820712,鳥取県,東伯郡湯梨浜町,上浅津,トットリケン,トウハクグンユリハマチョウ,カミアソヅ,鳥取県東伯郡湯梨浜町上浅津
6820713,鳥取県,東伯郡湯梨浜町,光吉,トットリケン,トウハクグンユリハマチョウ,ミツヨシ,鳥取県東伯郡湯梨浜町光吉
6820714,鳥取県,東伯郡湯梨浜町,赤池,トットリケン,トウハクグンユリハマチョウ,アカイケ,鳥取県東伯郡湯梨浜町赤池
6820715,鳥取県,東伯郡湯梨浜町,はわい温泉,トットリケン,トウハクグンユリハマチョウ,ハワイオンセン,鳥取県東伯郡湯梨浜町はわい温泉
6820721,鳥取県,東伯郡湯梨浜町,田後,トットリケン,トウハクグンユリハマチョウ,タジリ,鳥取県東伯郡湯梨浜町田後
6820722,鳥取県,東伯郡湯梨浜町,はわい長瀬,トットリケン,トウハクグンユリハマチョウ,ハワイナガセ,鳥取県東伯郡湯梨浜町はわい長瀬
6820723,鳥取県,東伯郡湯梨浜町,久留,トットリケン,トウハクグンユリハマチョウ,ヒサドメ,鳥取県東伯郡湯梨浜町久留
6820724,鳥取県,東伯郡湯梨浜町,水下,トットリケン,トウハクグンユリハマチョウ,ミズオチ,鳥取県東伯郡湯梨浜町水下
6820801,鳥取県,倉吉市,巌城,トットリケン,クラヨシシ,イワキ,鳥取県倉吉市巌城
6820802,鳥取県,倉吉市,東巌城町,トットリケン,クラヨシシ,ヒガシイワキチョウ,鳥取県倉吉市東巌城町
6820803,鳥取県,倉吉市,見日町,トットリケン,クラヨシシ,ミルカチョウ,鳥取県倉吉市見日町
6820804,鳥取県,倉吉市,東昭和町,トットリケン,クラヨシシ,ヒガシショウワマチ,鳥取県倉吉市東昭和町
6820805,鳥取県,倉吉市,南昭和町,トットリケン,クラヨシシ,ミナミショウワマチ,鳥取県倉吉市南昭和町
6820806,鳥取県,倉吉市,昭和町,トットリケン,クラヨシシ,ショウワマチ,鳥取県倉吉市昭和町
6820807,鳥取県,倉吉市,幸町,トットリケン,クラヨシシ,サイワイマチ,鳥取県倉吉市幸町
6820811,鳥取県,倉吉市,上灘町,トットリケン,クラヨシシ,ウワナダチョウ,鳥取県倉吉市上灘町
6820812,鳥取県,倉吉市,下田中町,トットリケン,クラヨシシ,シモタナカチョウ,鳥取県倉吉市下田中町
6820813,鳥取県,倉吉市,円谷町,トットリケン,クラヨシシ,エンダニチョウ,鳥取県倉吉市円谷町
6820814,鳥取県,倉吉市,米田町,トットリケン,クラヨシシ,ヨネダチョウ,鳥取県倉吉市米田町
6820815,鳥取県,倉吉市,新陽町,トットリケン,クラヨシシ,シンヨウチョウ,鳥取県倉吉市新陽町
6820816,鳥取県,倉吉市,駄経寺町,トットリケン,クラヨシシ,ダキョウジチョウ,鳥取県倉吉市駄経寺町
6820817,鳥取県,倉吉市,住吉町,トットリケン,クラヨシシ,スミヨシチョウ,鳥取県倉吉市住吉町
6820821,鳥取県,倉吉市,魚町,トットリケン,クラヨシシ,ウオマチ,鳥取県倉吉市魚町
6820822,鳥取県,倉吉市,葵町,トットリケン,クラヨシシ,アオイマチ,鳥取県倉吉市葵町
6820823,鳥取県,倉吉市,東町,トットリケン,クラヨシシ,ヒガシマチ,鳥取県倉吉市東町
6820824,鳥取県,倉吉市,仲ノ町,トットリケン,クラヨシシ,ナカノチョウ,鳥取県倉吉市仲ノ町
6820825,鳥取県,倉吉市,西仲町,トットリケン,クラヨシシ,ニシナカマチ,鳥取県倉吉市西仲町
6820826,鳥取県,倉吉市,東仲町,トットリケン,クラヨシシ,ヒガシナカマチ,鳥取県倉吉市東仲町
6820831,鳥取県,倉吉市,八幡町,トットリケン,クラヨシシ,ハチマンチョウ,鳥取県倉吉市八幡町
6820832,鳥取県,倉吉市,富海,トットリケン,クラヨシシ,トドミ,鳥取県倉吉市富海
6820833,鳥取県,倉吉市,東鴨新町,トットリケン,クラヨシシ,ヒガシガモシンマチ,鳥取県倉吉市東鴨新町
6820834,鳥取県,倉吉市,東鴨,トットリケン,クラヨシシ,ヒガシガモ,鳥取県倉吉市東鴨
6820835,鳥取県,倉吉市,長坂町,トットリケン,クラヨシシ,ナガサカチョウ,鳥取県倉吉市長坂町
6820836,鳥取県,倉吉市,長坂新町,トットリケン,クラヨシシ,ナガサカシンマチ,鳥取県倉吉市長坂新町
6820837,鳥取県,倉吉市,下大江,トットリケン,クラヨシシ,シモオオエ,鳥取県倉吉市下大江
6820841,鳥取県,倉吉市,大宮,トットリケン,クラヨシシ,オオミヤ,鳥取県倉吉市大宮
6820842,鳥取県,倉吉市,岩倉,トットリケン,クラヨシシ,イワクラ,鳥取県倉吉市岩倉
6820843,鳥取県,倉吉市,菅原,トットリケン,クラヨシシ,スゲガハラ,鳥取県倉吉市菅原
6820844,鳥取県,倉吉市,広瀬,トットリケン,クラヨシシ,ヒロセ,鳥取県倉吉市広瀬
6820845,鳥取県,倉吉市,耳,トットリケン,クラヨシシ,ミミ,鳥取県倉吉市耳
6820846,鳥取県,倉吉市,鴨河内,トットリケン,クラヨシシ,カモゴウチ,鳥取県倉吉市鴨河内
6820847,鳥取県,倉吉市,福山,トットリケン,クラヨシシ,フクヤマ,鳥取県倉吉市福山
6820851,鳥取県,倉吉市,西倉吉町,トットリケン,クラヨシシ,ニシクラヨシチョウ,鳥取県倉吉市西倉吉町
6820852,鳥取県,倉吉市,丸山町,トットリケン,クラヨシシ,マルヤマチョウ,鳥取県倉吉市丸山町
6820853,鳥取県,倉吉市,余戸谷町,トットリケン,クラヨシシ,ヨドヤチョウ,鳥取県倉吉市余戸谷町
6820854,鳥取県,倉吉市,みどり町,トットリケン,クラヨシシ,ミドリマチ,鳥取県倉吉市みどり町
6820855,鳥取県,倉吉市,生田,トットリケン,クラヨシシ,イクタ,鳥取県倉吉市生田
6820856,鳥取県,倉吉市,中河原,トットリケン,クラヨシシ,ナカガワラ,鳥取県倉吉市中河原
6820857,鳥取県,倉吉市,北野,トットリケン,クラヨシシ,キタノ,鳥取県倉吉市北野
6820861,鳥取県,倉吉市,新町,トットリケン,クラヨシシ,シンマチ,鳥取県倉吉市新町
6820862,鳥取県,倉吉市,西町,トットリケン,クラヨシシ,ニシマチ,鳥取県倉吉市西町
6820863,鳥取県,倉吉市,瀬崎町,トットリケン,クラヨシシ,セサキマチ,鳥取県倉吉市瀬崎町
6820864,鳥取県,倉吉市,鍛冶町,トットリケン,クラヨシシ,カジマチ,鳥取県倉吉市鍛冶町
6820865,鳥取県,倉吉市,越中町,トットリケン,クラヨシシ,エッチュウマチ,鳥取県倉吉市越中町
6820866,鳥取県,倉吉市,広瀬町,トットリケン,クラヨシシ,ヒロセマチ,鳥取県倉吉市広瀬町
6820867,鳥取県,倉吉市,越殿町,トットリケン,クラヨシシ,コシドノチョウ,鳥取県倉吉市越殿町
6820871,鳥取県,倉吉市,旭田町,トットリケン,クラヨシシ,アサヒダチョウ,鳥取県倉吉市旭田町
6820872,鳥取県,倉吉市,福吉町,トットリケン,クラヨシシ,フクヨシチョウ,鳥取県倉吉市福吉町
6820873,鳥取県,倉吉市,東岩倉町,トットリケン,クラヨシシ,ヒガシイワクラマチ,鳥取県倉吉市東岩倉町
6820874,鳥取県,倉吉市,西岩倉町,トットリケン,クラヨシシ,ニシイワクラマチ,鳥取県倉吉市西岩倉町
6820875,鳥取県,倉吉市,金森町,トットリケン,クラヨシシ,カナモリチョウ,鳥取県倉吉市金森町
6820881,鳥取県,倉吉市,宮川町,トットリケン,クラヨシシ,ミヤガワチョウ,鳥取県倉吉市宮川町
6820882,鳥取県,倉吉市,湊町,トットリケン,クラヨシシ,ミナトマチ,鳥取県倉吉市湊町
6820883,鳥取県,倉吉市,荒神町,トットリケン,クラヨシシ,コウジンチョウ,鳥取県倉吉市荒神町
6820884,鳥取県,倉吉市,研屋町,トットリケン,クラヨシシ,トギヤマチ,鳥取県倉吉市研屋町
6820885,鳥取県,倉吉市,堺町,トットリケン,クラヨシシ,サカエマチ,鳥取県倉吉市堺町
6820886,鳥取県,倉吉市,大正町,トットリケン,クラヨシシ,タイショウマチ,鳥取県倉吉市大正町
6820887,鳥取県,倉吉市,明治町,トットリケン,クラヨシシ,メイジマチ,鳥取県倉吉市明治町
6820901,鳥取県,倉吉市,穴沢,トットリケン,クラヨシシ,アナザワ,鳥取県倉吉市穴沢
6820902,鳥取県,倉吉市,上神,トットリケン,クラヨシシ,カズワ,鳥取県倉吉市上神
6820903,鳥取県,倉吉市,北面,トットリケン,クラヨシシ,キタモ,鳥取県倉吉市北面
6820904,鳥取県,倉吉市,尾原,トットリケン,クラヨシシ,オワラ,鳥取県倉吉市尾原
6820905,鳥取県,倉吉市,別所,トットリケン,クラヨシシ,ベッシヨ,鳥取県倉吉市別所
6820911,鳥取県,倉吉市,寺谷,トットリケン,クラヨシシ,テラダニ,鳥取県倉吉市寺谷
6820912,鳥取県,倉吉市,和田,トットリケン,クラヨシシ,ワダ,鳥取県倉吉市和田
6820913,鳥取県,倉吉市,和田東町,トットリケン,クラヨシシ,ワダヒガシマチ,鳥取県倉吉市和田東町
6820914,鳥取県,倉吉市,馬場町,トットリケン,クラヨシシ,ババチョウ,鳥取県倉吉市馬場町
6820915,鳥取県,倉吉市,不入岡,トットリケン,クラヨシシ,フニオカ,鳥取県倉吉市不入岡
6820921,鳥取県,倉吉市,西福守町,トットリケン,クラヨシシ,ニシフクモリチョウ,鳥取県倉吉市西福守町
6820922,鳥取県,倉吉市,福守町,トットリケン,クラヨシシ,フクモリチョウ,鳥取県倉吉市福守町
6820923,鳥取県,倉吉市,鴨川町,トットリケン,クラヨシシ,カモガワチョウ,鳥取県倉吉市鴨川町
6820924,鳥取県,倉吉市,河原町,トットリケン,クラヨシシ,カワラマチ,鳥取県倉吉市河原町
6820925,鳥取県,倉吉市,秋喜,トットリケン,クラヨシシ,シュウキ,鳥取県倉吉市秋喜
6820926,鳥取県,倉吉市,秋喜西町,トットリケン,クラヨシシ,シュウキニシマチ,鳥取県倉吉市秋喜西町
6820931,鳥取県,倉吉市,小鴨,トットリケン,クラヨシシ,オガモ,鳥取県倉吉市小鴨
6820932,鳥取県,倉吉市,蔵内,トットリケン,クラヨシシ,クラウチ,鳥取県倉吉市蔵内
6820933,鳥取県,倉吉市,石塚,トットリケン,クラヨシシ,イシヅカ,鳥取県倉吉市石塚
6820934,鳥取県,倉吉市,上古川,トットリケン,クラヨシシ,カミフルカワ,鳥取県倉吉市上古川
6820941,鳥取県,倉吉市,大谷,トットリケン,クラヨシシ,オオタニ,鳥取県倉吉市大谷
6820942,鳥取県,倉吉市,国府,トットリケン,クラヨシシ,コウ,鳥取県倉吉市国府
6820943,鳥取県,倉吉市,国分寺,トットリケン,クラヨシシ,コクブンジ,鳥取県倉吉市国分寺
6820944,鳥取県,倉吉市,福光,トットリケン,クラヨシシ,フクミツ,鳥取県倉吉市福光
6820945,鳥取県,倉吉市,黒見,トットリケン,クラヨシシ,クロミ,鳥取県倉吉市黒見
6820946,鳥取県,倉吉市,横田,トットリケン,クラヨシシ,ヨコタ,鳥取県倉吉市横田
6820947,鳥取県,倉吉市,大沢,トットリケン,クラヨシシ,オオサワ,鳥取県倉吉市大沢
6820948,鳥取県,倉吉市,大谷茶屋,トットリケン,クラヨシシ,オオタニチャヤ,鳥取県倉吉市大谷茶屋
6820951,鳥取県,倉吉市,津原,トットリケン,クラヨシシ,ツワラ,鳥取県倉吉市津原
6820952,鳥取県,倉吉市,鋤,トットリケン,クラヨシシ,スキ,鳥取県倉吉市鋤
6820953,鳥取県,倉吉市,半坂,トットリケン,クラヨシシ,ハンザカ,鳥取県倉吉市半坂
6820954,鳥取県,倉吉市,谷,トットリケン,クラヨシシ,タニ,鳥取県倉吉市谷
6830000,鳥取県,米子市,,トットリケン,ヨナゴシ,,鳥取県米子市
6830001,鳥取県,米子市,皆生温泉,トットリケン,ヨナゴシ,カイケオンセン,鳥取県米子市皆生温泉
6830002,鳥取県,米子市,皆生新田,トットリケン,ヨナゴシ,カイケシンデン,鳥取県米子市皆生新田
6830003,鳥取県,米子市,皆生,トットリケン,ヨナゴシ,カイケ,鳥取県米子市皆生
6830004,鳥取県,米子市,上福原,トットリケン,ヨナゴシ,カミフクバラ,鳥取県米子市上福原
6830005,鳥取県,米子市,中島,トットリケン,ヨナゴシ,ナカシマ,鳥取県米子市中島
6830006,鳥取県,米子市,車尾,トットリケン,ヨナゴシ,クズモ,鳥取県米子市車尾
6830007,鳥取県,米子市,観音寺,トットリケン,ヨナゴシ,カンノンジ,鳥取県米子市観音寺
6830008,鳥取県,米子市,車尾南,トットリケン,ヨナゴシ,クズモミナミ,鳥取県米子市車尾南
6830009,鳥取県,米子市,観音寺新町,トットリケン,ヨナゴシ,カンノンジシンマチ,鳥取県米子市観音寺新町
6830011,鳥取県,米子市,福市,トットリケン,ヨナゴシ,フクイチ,鳥取県米子市福市
6830012,鳥取県,米子市,八幡,トットリケン,ヨナゴシ,ヤワタ,鳥取県米子市八幡
6830013,鳥取県,米子市,諏訪,トットリケン,ヨナゴシ,スワ,鳥取県米子市諏訪
6830014,鳥取県,米子市,永江,トットリケン,ヨナゴシ,ナガエ,鳥取県米子市永江
6830015,鳥取県,米子市,日原,トットリケン,ヨナゴシ,ヒバラ,鳥取県米子市日原
6830016,鳥取県,米子市,奥谷,トットリケン,ヨナゴシ,オクノタニ,鳥取県米子市奥谷
6830017,鳥取県,米子市,宗像,トットリケン,ヨナゴシ,ムナカタ,鳥取県米子市宗像
6830021,鳥取県,米子市,石井,トットリケン,ヨナゴシ,イシイ,鳥取県米子市石井
6830022,鳥取県,米子市,奈喜良,トットリケン,ヨナゴシ,ナギラ,鳥取県米子市奈喜良
6830023,鳥取県,米子市,橋本,トットリケン,ヨナゴシ,ハシモト,鳥取県米子市橋本
6830024,鳥取県,米子市,吉谷,トットリケン,ヨナゴシ,ヨシタニ,鳥取県米子市吉谷
6830025,鳥取県,米子市,古市,トットリケン,ヨナゴシ,フルイチ,鳥取県米子市古市
6830026,鳥取県,米子市,新山,トットリケン,ヨナゴシ,ニイヤマ,鳥取県米子市新山
6830027,鳥取県,米子市,陰田町,トットリケン,ヨナゴシ,インダチョウ,鳥取県米子市陰田町
6830031,鳥取県,米子市,東山町,トットリケン,ヨナゴシ,ヒガシヤマチョウ,鳥取県米子市東山町
6830032,鳥取県,米子市,陽田町,トットリケン,ヨナゴシ,ヨウデンチョウ,鳥取県米子市陽田町
6830033,鳥取県,米子市,長砂町,トットリケン,ヨナゴシ,ナガスナチョウ,鳥取県米子市長砂町
6830034,鳥取県,米子市,美吉,トットリケン,ヨナゴシ,ミヨシ,鳥取県米子市美吉
6830035,鳥取県,米子市,目久美町,トットリケン,ヨナゴシ,メグミチョウ,鳥取県米子市目久美町
6830036,鳥取県,米子市,弥生町,トットリケン,ヨナゴシ,ヤヨイチョウ,鳥取県米子市弥生町
6830037,鳥取県,米子市,昭和町,トットリケン,ヨナゴシ,ショウワチョウ,鳥取県米子市昭和町
6830041,鳥取県,米子市,茶町,トットリケン,ヨナゴシ,チャマチ,鳥取県米子市茶町
6830042,鳥取県,米子市,塩町,トットリケン,ヨナゴシ,シオマチ,鳥取県米子市塩町
6830043,鳥取県,米子市,末広町,トットリケン,ヨナゴシ,スエヒロチョウ,鳥取県米子市末広町
6830044,鳥取県,米子市,大工町,トットリケン,ヨナゴシ,ダイクマチ,鳥取県米子市大工町
6830045,鳥取県,米子市,大谷町,トットリケン,ヨナゴシ,オオダニチョウ,鳥取県米子市大谷町
6830046,鳥取県,米子市,愛宕町,トットリケン,ヨナゴシ,アタゴチョウ,鳥取県米子市愛宕町
6830047,鳥取県,米子市,祇園町,トットリケン,ヨナゴシ,ギオンチョウ,鳥取県米子市祇園町
6830051,鳥取県,米子市,勝田町,トットリケン,ヨナゴシ,カンダマチ,鳥取県米子市勝田町
6830052,鳥取県,米子市,博労町,トットリケン,ヨナゴシ,バクロウマチ,鳥取県米子市博労町
6830053,鳥取県,米子市,明治町,トットリケン,ヨナゴシ,メイジチョウ,鳥取県米子市明治町
6830054,鳥取県,米子市,糀町,トットリケン,ヨナゴシ,コウジマチ,鳥取県米子市糀町
6830055,鳥取県,米子市,冨士見町,トットリケン,ヨナゴシ,フジミチョウ,鳥取県米子市冨士見町
6830061,鳥取県,米子市,四日市町,トットリケン,ヨナゴシ,ヨッカイチマチ,鳥取県米子市四日市町
6830062,鳥取県,米子市,紺屋町,トットリケン,ヨナゴシ,コウヤマチ,鳥取県米子市紺屋町
6830063,鳥取県,米子市,法勝寺町,トットリケン,ヨナゴシ,ホツショウジマチ,鳥取県米子市法勝寺町
6830064,鳥取県,米子市,道笑町,トットリケン,ヨナゴシ,ドウショウマチ,鳥取県米子市道笑町
6830065,鳥取県,米子市,万能町,トットリケン,ヨナゴシ,マンノウチョウ,鳥取県米子市万能町
6830066,鳥取県,米子市,日野町,トットリケン,ヨナゴシ,ヒノマチ,鳥取県米子市日野町
6830067,鳥取県,米子市,東町,トットリケン,ヨナゴシ,ヒガシチョウ,鳥取県米子市東町
6830101,鳥取県,米子市,大篠津町,トットリケン,ヨナゴシ,オオシノヅチョウ,鳥取県米子市大篠津町
6830102,鳥取県,米子市,和田町,トットリケン,ヨナゴシ,ワダチョウ,鳥取県米子市和田町
6830103,鳥取県,米子市,富益町,トットリケン,ヨナゴシ,トミマスチョウ,鳥取県米子市富益町
6830104,鳥取県,米子市,大崎,トットリケン,ヨナゴシ,オオザキ,鳥取県米子市大崎
6830105,鳥取県,米子市,葭津,トットリケン,ヨナゴシ,ヨシヅ,鳥取県米子市葭津
6830201,鳥取県,西伯郡南部町,天万,トットリケン,サイハクグンナンブチョウ,テンマン,鳥取県西伯郡南部町天万
6830202,鳥取県,西伯郡南部町,寺内,トットリケン,サイハクグンナンブチョウ,テラウチ,鳥取県西伯郡南部町寺内
6830203,鳥取県,西伯郡南部町,三崎,トットリケン,サイハクグンナンブチョウ,ミサキ,鳥取県西伯郡南部町三崎
6830204,鳥取県,西伯郡南部町,福里,トットリケン,サイハクグンナンブチョウ,フクサト,鳥取県西伯郡南部町福里
6830211,鳥取県,西伯郡南部町,円山,トットリケン,サイハクグンナンブチョウ,マルヤマ,鳥取県西伯郡南部町円山
6830212,鳥取県,西伯郡南部町,諸木,トットリケン,サイハクグンナンブチョウ,モロギ,鳥取県西伯郡南部町諸木
6830213,鳥取県,西伯郡南部町,西原,トットリケン,サイハクグンナンブチョウ,ニシバラ,鳥取県西伯郡南部町西原
6830214,鳥取県,西伯郡南部町,田住,トットリケン,サイハクグンナンブチョウ,タスミ,鳥取県西伯郡南部町田住
6830215,鳥取県,西伯郡南部町,荻名,トットリケン,サイハクグンナンブチョウ,オギナ,鳥取県西伯郡南部町荻名
6830216,鳥取県,西伯郡南部町,朝金,トットリケン,サイハクグンナンブチョウ,アサカネ,鳥取県西伯郡南部町朝金
6830217,鳥取県,西伯郡南部町,鶴田,トットリケン,サイハクグンナンブチョウ,ツルダ,鳥取県西伯郡南部町鶴田
6830218,鳥取県,西伯郡南部町,池野,トットリケン,サイハクグンナンブチョウ,イケノ,鳥取県西伯郡南部町池野
6830221,鳥取県,西伯郡南部町,宮前,トットリケン,サイハクグンナンブチョウ,ミヤマエ,鳥取県西伯郡南部町宮前
6830222,鳥取県,西伯郡南部町,市山,トットリケン,サイハクグンナンブチョウ,イチヤマ,鳥取県西伯郡南部町市山
6830223,鳥取県,西伯郡南部町,井上,トットリケン,サイハクグンナンブチョウ,イノウエ,鳥取県西伯郡南部町井上
6830224,鳥取県,西伯郡南部町,金田,トットリケン,サイハクグンナンブチョウ,カネダ,鳥取県西伯郡南部町金田
6830225,鳥取県,西伯郡南部町,御内谷,トットリケン,サイハクグンナンブチョウ,ミウチダニ,鳥取県西伯郡南部町御内谷
6830226,鳥取県,西伯郡南部町,高姫,トットリケン,サイハクグンナンブチョウ,タカヒメ,鳥取県西伯郡南部町高姫
6830227,鳥取県,西伯郡南部町,浅井,トットリケン,サイハクグンナンブチョウ,アサイ,鳥取県西伯郡南部町浅井
6830251,鳥取県,米子市,兼久,トットリケン,ヨナゴシ,カネヒサ,鳥取県米子市兼久
6830252,鳥取県,米子市,青木,トットリケン,ヨナゴシ,アオキ,鳥取県米子市青木
6830253,鳥取県,米子市,下安曇,トットリケン,ヨナゴシ,シモアズマ,鳥取県米子市下安曇
6830254,鳥取県,米子市,別所,トットリケン,ヨナゴシ,ベッショ,鳥取県米子市別所
6830255,鳥取県,米子市,上安曇,トットリケン,ヨナゴシ,カミアズマ,鳥取県米子市上安曇
6830256,鳥取県,米子市,大袋,トットリケン,ヨナゴシ,オオブクロ,鳥取県米子市大袋
6830257,鳥取県,米子市,榎原,トットリケン,ヨナゴシ,エノキハラ,鳥取県米子市榎原
6830300,鳥取県,西伯郡南部町,,トットリケン,サイハクグンナンブチョウ,,鳥取県西伯郡南部町
6830301,鳥取県,西伯郡南部町,東町,トットリケン,サイハクグンナンブチョウ,ヒガシマチ,鳥取県西伯郡南部町東町
6830302,鳥取県,西伯郡南部町,西町,トットリケン,サイハクグンナンブチョウ,ニシマチ,鳥取県西伯郡南部町西町
6830311,鳥取県,西伯郡南部町,境,トットリケン,サイハクグンナンブチョウ,サカエ,鳥取県西伯郡南部町境
6830312,鳥取県,西伯郡南部町,福成,トットリケン,サイハクグンナンブチョウ,フクナリ,鳥取県西伯郡南部町福成
6830321,鳥取県,西伯郡南部町,清水川,トットリケン,サイハクグンナンブチョウ,シミズガワ,鳥取県西伯郡南部町清水川
6830322,鳥取県,西伯郡南部町,阿賀,トットリケン,サイハクグンナンブチョウ,アガ,鳥取県西伯郡南部町阿賀
6830323,鳥取県,西伯郡南部町,倭,トットリケン,サイハクグンナンブチョウ,ヤマト,鳥取県西伯郡南部町倭
6830331,鳥取県,西伯郡南部町,掛相,トットリケン,サイハクグンナンブチョウ,カケアイ,鳥取県西伯郡南部町掛相
6830332,鳥取県,西伯郡南部町,馬佐良,トットリケン,サイハクグンナンブチョウ,バサラ,鳥取県西伯郡南部町馬佐良
6830333,鳥取県,西伯郡南部町,八金,トットリケン,サイハクグンナンブチョウ,ヤカネ,鳥取県西伯郡南部町八金
6830334,鳥取県,西伯郡南部町,東上,トットリケン,サイハクグンナンブチョウ,トウジョウ,鳥取県西伯郡南部町東上
6830335,鳥取県,西伯郡南部町,中,トットリケン,サイハクグンナンブチョウ,ナカ,鳥取県西伯郡南部町中
6830336,鳥取県,西伯郡南部町,福頼,トットリケン,サイハクグンナンブチョウ,フクヨリ,鳥取県西伯郡南部町福頼
6830337,鳥取県,西伯郡南部町,落合,トットリケン,サイハクグンナンブチョウ,オチアイ,鳥取県西伯郡南部町落合
6830341,鳥取県,西伯郡南部町,鴨部,トットリケン,サイハクグンナンブチョウ,カモベ,鳥取県西伯郡南部町鴨部
6830342,鳥取県,西伯郡南部町,能竹,トットリケン,サイハクグンナンブチョウ,ノウジク,鳥取県西伯郡南部町能竹
6830343,鳥取県,西伯郡南部町,下中谷,トットリケン,サイハクグンナンブチョウ,シモナカタニ,鳥取県西伯郡南部町下中谷
6830344,鳥取県,西伯郡南部町,上中谷,トットリケン,サイハクグンナンブチョウ,カミナカタニ,鳥取県西伯郡南部町上中谷
6830345,鳥取県,西伯郡南部町,大木屋,トットリケン,サイハクグンナンブチョウ,オオキヤ,鳥取県西伯郡南部町大木屋
6830351,鳥取県,西伯郡南部町,法勝寺,トットリケン,サイハクグンナンブチョウ,ホッショウジ,鳥取県西伯郡南部町法勝寺
6830352,鳥取県,西伯郡南部町,馬場,トットリケン,サイハクグンナンブチョウ,ババ,鳥取県西伯郡南部町馬場
6830353,鳥取県,西伯郡南部町,徳長,トットリケン,サイハクグンナンブチョウ,トクナガ,鳥取県西伯郡南部町徳長
6830354,鳥取県,西伯郡南部町,武信,トットリケン,サイハクグンナンブチョウ,タケノブ,鳥取県西伯郡南部町武信
6830355,鳥取県,西伯郡南部町,道河内,トットリケン,サイハクグンナンブチョウ,ドウガワウチ,鳥取県西伯郡南部町道河内
6830356,鳥取県,西伯郡南部町,伐株,トットリケン,サイハクグンナンブチョウ,キリクイ,鳥取県西伯郡南部町伐株
6830361,鳥取県,西伯郡南部町,北方,トットリケン,サイハクグンナンブチョウ,キタガタ,鳥取県西伯郡南部町北方
6830362,鳥取県,西伯郡南部町,原,トットリケン,サイハクグンナンブチョウ,ハラ,鳥取県西伯郡南部町原
6830363,鳥取県,西伯郡南部町,西,トットリケン,サイハクグンナンブチョウ,ニシ,鳥取県西伯郡南部町西
6830364,鳥取県,西伯郡南部町,絹屋,トットリケン,サイハクグンナンブチョウ,キヌヤ,鳥取県西伯郡南部町絹屋
6830365,鳥取県,西伯郡南部町,鍋倉,トットリケン,サイハクグンナンブチョウ,ナベクラ,鳥取県西伯郡南部町鍋倉
6830366,鳥取県,西伯郡南部町,与一谷,トットリケン,サイハクグンナンブチョウ,ヨイチダニ,鳥取県西伯郡南部町与一谷
6830367,鳥取県,西伯郡南部町,猪小路,トットリケン,サイハクグンナンブチョウ,イノコウジ,鳥取県西伯郡南部町猪小路
6830801,鳥取県,米子市,新開,トットリケン,ヨナゴシ,シンカイ,鳥取県米子市新開
6830802,鳥取県,米子市,東福原,トットリケン,ヨナゴシ,ヒガシフクバラ,鳥取県米子市東福原
6830803,鳥取県,米子市,日ノ出町,トットリケン,ヨナゴシ,ヒノデチョウ,鳥取県米子市日ノ出町
6830804,鳥取県,米子市,米原,トットリケン,ヨナゴシ,ヨネハラ,鳥取県米子市米原
6830805,鳥取県,米子市,西福原,トットリケン,ヨナゴシ,ニシフクバラ,鳥取県米子市西福原
6830811,鳥取県,米子市,錦町,トットリケン,ヨナゴシ,ニシキチョウ,鳥取県米子市錦町
6830812,鳥取県,米子市,角盤町,トットリケン,ヨナゴシ,カクバンチョウ,鳥取県米子市角盤町
6830813,鳥取県,米子市,朝日町,トットリケン,ヨナゴシ,アサヒマチ,鳥取県米子市朝日町
6830814,鳥取県,米子市,尾高町,トットリケン,ヨナゴシ,オダカマチ,鳥取県米子市尾高町
6830815,鳥取県,米子市,東倉吉町,トットリケン,ヨナゴシ,ヒガシクラヨシマチ,鳥取県米子市東倉吉町
6830816,鳥取県,米子市,西倉吉町,トットリケン,ヨナゴシ,ニシクラヨシマチ,鳥取県米子市西倉吉町
6830821,鳥取県,米子市,天神町,トットリケン,ヨナゴシ,テンジンマチ,鳥取県米子市天神町
6830822,鳥取県,米子市,中町,トットリケン,ヨナゴシ,ナカマチ,鳥取県米子市中町
6830823,鳥取県,米子市,加茂町,トットリケン,ヨナゴシ,カモチョウ,鳥取県米子市加茂町
6830824,鳥取県,米子市,久米町,トットリケン,ヨナゴシ,クメチョウ,鳥取県米子市久米町
6830825,鳥取県,米子市,錦海町,トットリケン,ヨナゴシ,キンカイチョウ,鳥取県米子市錦海町
6830826,鳥取県,米子市,西町,トットリケン,ヨナゴシ,ニシチョウ,鳥取県米子市西町
6830831,鳥取県,米子市,寺町,トットリケン,ヨナゴシ,テラマチ,鳥取県米子市寺町
6830832,鳥取県,米子市,立町,トットリケン,ヨナゴシ,タテマチ,鳥取県米子市立町
6830833,鳥取県,米子市,岩倉町,トットリケン,ヨナゴシ,イワクラマチ,鳥取県米子市岩倉町
6830834,鳥取県,米子市,内町,トットリケン,ヨナゴシ,ウチマチ,鳥取県米子市内町
6830835,鳥取県,米子市,灘町,トットリケン,ヨナゴシ,ナダマチ,鳥取県米子市灘町
6830836,鳥取県,米子市,花園町,トットリケン,ヨナゴシ,ハナゾノチョウ,鳥取県米子市花園町
6830841,鳥取県,米子市,上後藤,トットリケン,ヨナゴシ,カミゴトウ,鳥取県米子市上後藤
6830842,鳥取県,米子市,三本松,トットリケン,ヨナゴシ,サンボンマツ,鳥取県米子市三本松
6830843,鳥取県,米子市,三旗町,トットリケン,ヨナゴシ,ミハタチョウ,鳥取県米子市三旗町
6830844,鳥取県,米子市,義方町,トットリケン,ヨナゴシ,ギホウチョウ,鳥取県米子市義方町
6830845,鳥取県,米子市,旗ヶ崎,トットリケン,ヨナゴシ,ハタガサキ,鳥取県米子市旗ヶ崎
6830846,鳥取県,米子市,安倍,トットリケン,ヨナゴシ,アベ,鳥取県米子市安倍
6830851,鳥取県,米子市,夜見町,トットリケン,ヨナゴシ,ヨミチョウ,鳥取県米子市夜見町
6830852,鳥取県,米子市,河崎,トットリケン,ヨナゴシ,カワサキ,鳥取県米子市河崎
6830853,鳥取県,米子市,両三柳,トットリケン,ヨナゴシ,リョウミツヤナギ,鳥取県米子市両三柳
6830854,鳥取県,米子市,彦名町,トットリケン,ヨナゴシ,ヒコナチョウ,鳥取県米子市彦名町
6830855,鳥取県,米子市,彦名新田,トットリケン,ヨナゴシ,ヒコナシンデン,鳥取県米子市彦名新田
6840000,鳥取県,境港市,,トットリケン,サカイミナトシ,,鳥取県境港市
6840001,鳥取県,境港市,清水町,トットリケン,サカイミナトシ,シミズチョウ,鳥取県境港市清水町
6840002,鳥取県,境港市,弥生町,トットリケン,サカイミナトシ,ヤヨイチョウ,鳥取県境港市弥生町
6840003,鳥取県,境港市,浜ノ町,トットリケン,サカイミナトシ,ハマノチョウ,鳥取県境港市浜ノ町
6840004,鳥取県,境港市,大正町,トットリケン,サカイミナトシ,タイショウマチ,鳥取県境港市大正町
6840005,鳥取県,境港市,松ケ枝町,トットリケン,サカイミナトシ,マツガエチョウ,鳥取県境港市松ケ枝町
6840006,鳥取県,境港市,栄町,トットリケン,サカイミナトシ,エイマチ,鳥取県境港市栄町
6840011,鳥取県,境港市,相生町,トットリケン,サカイミナトシ,アイオイチョウ,鳥取県境港市相生町
6840012,鳥取県,境港市,中町,トットリケン,サカイミナトシ,ナカマチ,鳥取県境港市中町
6840013,鳥取県,境港市,朝日町,トットリケン,サカイミナトシ,アサヒマチ,鳥取県境港市朝日町
6840014,鳥取県,境港市,入船町,トットリケン,サカイミナトシ,ニュウセンチョウ,鳥取県境港市入船町
6840015,鳥取県,境港市,東雲町,トットリケン,サカイミナトシ,シノノメチョウ,鳥取県境港市東雲町
6840016,鳥取県,境港市,花町,トットリケン,サカイミナトシ,ハナマチ,鳥取県境港市花町
6840017,鳥取県,境港市,岬町,トットリケン,サカイミナトシ,ミサキチョウ,鳥取県境港市岬町
6840021,鳥取県,境港市,馬場崎町,トットリケン,サカイミナトシ,ババサキチョウ,鳥取県境港市馬場崎町
6840022,鳥取県,境港市,明治町,トットリケン,サカイミナトシ,メイジマチ,鳥取県境港市明治町
6840023,鳥取県,境港市,京町,トットリケン,サカイミナトシ,キョウマチ,鳥取県境港市京町
6840024,鳥取県,境港市,日ノ出町,トットリケン,サカイミナトシ,ヒノデチョウ,鳥取県境港市日ノ出町
6840025,鳥取県,境港市,本町,トットリケン,サカイミナトシ,ホンマチ,鳥取県境港市本町
6840026,鳥取県,境港市,末広町,トットリケン,サカイミナトシ,スエヒロチョウ,鳥取県境港市末広町
6840027,鳥取県,境港市,東本町,トットリケン,サカイミナトシ,ヒガシホンマチ,鳥取県境港市東本町
6840031,鳥取県,境港市,湊町,トットリケン,サカイミナトシ,ミナトマチ,鳥取県境港市湊町
6840032,鳥取県,境港市,元町,トットリケン,サカイミナトシ,モトマチ,鳥取県境港市元町
6840033,鳥取県,境港市,上道町,トットリケン,サカイミナトシ,アガリミチチョウ,鳥取県境港市上道町
6840034,鳥取県,境港市,昭和町,トットリケン,サカイミナトシ,ショウワマチ,鳥取県境港市昭和町
6840041,鳥取県,境港市,中野町,トットリケン,サカイミナトシ,ナカノチョウ,鳥取県境港市中野町
6840042,鳥取県,境港市,福定町,トットリケン,サカイミナトシ,フクサダチョウ,鳥取県境港市福定町
6840043,鳥取県,境港市,竹内町,トットリケン,サカイミナトシ,タケノウチチョウ,鳥取県境港市竹内町
6840044,鳥取県,境港市,美保町,トットリケン,サカイミナトシ,ミホチョウ,鳥取県境港市美保町
6840045,鳥取県,境港市,高松町,トットリケン,サカイミナトシ,タカマツチョウ,鳥取県境港市高松町
6840046,鳥取県,境港市,竹内団地,トットリケン,サカイミナトシ,タケノウチダンチ,鳥取県境港市竹内団地
6840051,鳥取県,境港市,新屋町,トットリケン,サカイミナトシ,ニイヤチョウ,鳥取県境港市新屋町
6840052,鳥取県,境港市,麦垣町,トットリケン,サカイミナトシ,ムギカキチョウ,鳥取県境港市麦垣町
6840053,鳥取県,境港市,小篠津町,トットリケン,サカイミナトシ,コシノヅチョウ,鳥取県境港市小篠津町
6840054,鳥取県,境港市,財ノ木町,トットリケン,サカイミナトシ,サイノキチョウ,鳥取県境港市財ノ木町
6840055,鳥取県,境港市,佐斐神町,トットリケン,サカイミナトシ,サイノカミチョウ,鳥取県境港市佐斐神町
6840056,鳥取県,境港市,幸神町,トットリケン,サカイミナトシ,コウジンチョウ,鳥取県境港市幸神町
6840061,鳥取県,境港市,米川町,トットリケン,サカイミナトシ,ヨネガワチョウ,鳥取県境港市米川町
6840062,鳥取県,境港市,蓮池町,トットリケン,サカイミナトシ,ハスイケチョウ,鳥取県境港市蓮池町
6840063,鳥取県,境港市,誠道町,トットリケン,サカイミナトシ,セイドウチョウ,鳥取県境港市誠道町
6840064,鳥取県,境港市,三軒屋町,トットリケン,サカイミナトシ,サンゲンヤチョウ,鳥取県境港市三軒屋町
6840065,鳥取県,境港市,森岡町,トットリケン,サカイミナトシ,モリオカチョウ,鳥取県境港市森岡町
6840066,鳥取県,境港市,芝町,トットリケン,サカイミナトシ,シバチョウ,鳥取県境港市芝町
6840071,鳥取県,境港市,外江町,トットリケン,サカイミナトシ,トノエチョウ,鳥取県境港市外江町
6840072,鳥取県,境港市,渡町,トットリケン,サカイミナトシ,ワタリチョウ,鳥取県境港市渡町
6840073,鳥取県,境港市,中海干拓地,トットリケン,サカイミナトシ,ナカウミカンタクチ,鳥取県境港市中海干拓地
6840074,鳥取県,境港市,潮見町,トットリケン,サカイミナトシ,シオミチョウ,鳥取県境港市潮見町
6840075,鳥取県,境港市,西工業団地,トットリケン,サカイミナトシ,ニシコウギョウダンチ,鳥取県境港市西工業団地
6840076,鳥取県,境港市,夕日ケ丘,トットリケン,サカイミナトシ,ユウヒガオカ,鳥取県境港市夕日ケ丘
6890101,鳥取県,鳥取市,福部町岩戸,トットリケン,トットリシ,フクベチョウイワド,鳥取県鳥取市福部町岩戸
6890102,鳥取県,鳥取市,福部町細川,トットリケン,トットリシ,フクベチョウホソガワ,鳥取県鳥取市福部町細川
6890103,鳥取県,鳥取市,福部町高江,トットリケン,トットリシ,フクベチョウタカエ,鳥取県鳥取市福部町高江
6890104,鳥取県,鳥取市,福部町箭溪,トットリケン,トットリシ,フクベチョウヤダニ,鳥取県鳥取市福部町箭溪
6890105,鳥取県,鳥取市,福部町湯山,トットリケン,トットリシ,フクベチョウユヤマ,鳥取県鳥取市福部町湯山
6890106,鳥取県,鳥取市,福部町海士,トットリケン,トットリシ,フクベチョウアモウ,鳥取県鳥取市福部町海士
6890111,鳥取県,鳥取市,福部町栗谷,トットリケン,トットリシ,フクベチョウクリタニ,鳥取県鳥取市福部町栗谷
6890112,鳥取県,鳥取市,福部町蔵見,トットリケン,トットリシ,フクベチョウクラミ,鳥取県鳥取市福部町蔵見
6890113,鳥取県,鳥取市,福部町久志羅（その他）,トットリケン,トットリシ,フクベチョウクジラ(ソノタ),鳥取県鳥取市福部町久志羅（その他）
6890114,鳥取県,鳥取市,福部町左近（その他）,トットリケン,トットリシ,フクベチョウサコ(ソノタ),鳥取県鳥取市福部町左近（その他）
6890115,鳥取県,鳥取市,福部町八重原,トットリケン,トットリシ,フクベチョウヤエバラ,鳥取県鳥取市福部町八重原
6890116,鳥取県,鳥取市,福部町中,トットリケン,トットリシ,フクベチョウナカ,鳥取県鳥取市福部町中
6890117,鳥取県,鳥取市,福部町南田,トットリケン,トットリシ,フクベチョウノウダ,鳥取県鳥取市福部町南田
6890201,鳥取県,鳥取市,伏野,トットリケン,トットリシ,フシノ,鳥取県鳥取市伏野
6890202,鳥取県,鳥取市,美萩野,トットリケン,トットリシ,ミハギノ,鳥取県鳥取市美萩野
6890203,鳥取県,鳥取市,三津,トットリケン,トットリシ,ミツ,鳥取県鳥取市三津
6890204,鳥取県,鳥取市,御熊,トットリケン,トットリシ,ミクマ,鳥取県鳥取市御熊
6890205,鳥取県,鳥取市,内海中,トットリケン,トットリシ,ウツミナカ,鳥取県鳥取市内海中
6890206,鳥取県,鳥取市,白兎,トットリケン,トットリシ,ハクト,鳥取県鳥取市白兎
6890207,鳥取県,鳥取市,小沢見,トットリケン,トットリシ,コゾミ,鳥取県鳥取市小沢見
6890211,鳥取県,鳥取市,気高町奥沢見,トットリケン,トットリシ,ケタカチョウオクゾウミ,鳥取県鳥取市気高町奥沢見
6890212,鳥取県,鳥取市,気高町常松,トットリケン,トットリシ,ケタカチョウツネマツ,鳥取県鳥取市気高町常松
6890213,鳥取県,鳥取市,気高町下光元,トットリケン,トットリシ,ケタカチョウシモミツモト,鳥取県鳥取市気高町下光元
6890214,鳥取県,鳥取市,気高町上光,トットリケン,トットリシ,ケタカチョウカミミツ,鳥取県鳥取市気高町上光
6890215,鳥取県,鳥取市,気高町冨吉,トットリケン,トットリシ,ケタカチョウトミヨシ,鳥取県鳥取市気高町冨吉
6890216,鳥取県,鳥取市,気高町宝木,トットリケン,トットリシ,ケタカチョウホウギ,鳥取県鳥取市気高町宝木
6890217,鳥取県,鳥取市,気高町酒津,トットリケン,トットリシ,ケタカチョウサケノツ,鳥取県鳥取市気高町酒津
6890221,鳥取県,鳥取市,気高町下坂本,トットリケン,トットリシ,ケタカチョウシモサカモト,鳥取県鳥取市気高町下坂本
6890222,鳥取県,鳥取市,気高町日光,トットリケン,トットリシ,ケタカチョウニッコウ,鳥取県鳥取市気高町日光
6890223,鳥取県,鳥取市,気高町二本木,トットリケン,トットリシ,ケタカチョウニホンギ,鳥取県鳥取市気高町二本木
6890224,鳥取県,鳥取市,気高町重高,トットリケン,トットリシ,ケタカチョウシゲタカ,鳥取県鳥取市気高町重高
6890225,鳥取県,鳥取市,気高町土居,トットリケン,トットリシ,ケタカチョウドイ,鳥取県鳥取市気高町土居
6890226,鳥取県,鳥取市,気高町宿,トットリケン,トットリシ,ケタカチョウシュク,鳥取県鳥取市気高町宿
6890331,鳥取県,鳥取市,気高町浜村,トットリケン,トットリシ,ケタカチョウハマムラ,鳥取県鳥取市気高町浜村
6890332,鳥取県,鳥取市,気高町勝見,トットリケン,トットリシ,ケタカチョウカチミ,鳥取県鳥取市気高町勝見
6890333,鳥取県,鳥取市,気高町新町,トットリケン,トットリシ,ケタカチョウシンマチ,鳥取県鳥取市気高町新町
6890334,鳥取県,鳥取市,気高町北浜,トットリケン,トットリシ,ケタカチョウキタハマ,鳥取県鳥取市気高町北浜
6890341,鳥取県,鳥取市,気高町下石,トットリケン,トットリシ,ケタカチョウオロジ,鳥取県鳥取市気高町下石
6890342,鳥取県,鳥取市,気高町殿,トットリケン,トットリシ,ケタカチョウトノ,鳥取県鳥取市気高町殿
6890343,鳥取県,鳥取市,気高町飯里,トットリケン,トットリシ,ケタカチョウイイザト,鳥取県鳥取市気高町飯里
6890344,鳥取県,鳥取市,気高町上原,トットリケン,トットリシ,ケタカチョウカンバラ,鳥取県鳥取市気高町上原
6890345,鳥取県,鳥取市,気高町山宮,トットリケン,トットリシ,ケタカチョウヤマミヤ,鳥取県鳥取市気高町山宮
6890351,鳥取県,鳥取市,気高町八幡,トットリケン,トットリシ,ケタカチョウヤワタ,鳥取県鳥取市気高町八幡
6890352,鳥取県,鳥取市,気高町高江,トットリケン,トットリシ,ケタカチョウタカエ,鳥取県鳥取市気高町高江
6890353,鳥取県,鳥取市,気高町郡家,トットリケン,トットリシ,ケタカチョウコウゲ,鳥取県鳥取市気高町郡家
6890354,鳥取県,鳥取市,気高町睦逢,トットリケン,トットリシ,ケタカチョウムツオ,鳥取県鳥取市気高町睦逢
6890355,鳥取県,鳥取市,気高町会下,トットリケン,トットリシ,ケタカチョウエゲ,鳥取県鳥取市気高町会下
6890356,鳥取県,鳥取市,気高町下原,トットリケン,トットリシ,ケタカチョウシモバラ,鳥取県鳥取市気高町下原
6890357,鳥取県,鳥取市,気高町八束水,トットリケン,トットリシ,ケタカチョウヤツカミ,鳥取県鳥取市気高町八束水
6890401,鳥取県,鳥取市,鹿野町広木,トットリケン,トットリシ,シカノチョウヒロギ,鳥取県鳥取市鹿野町広木
6890402,鳥取県,鳥取市,鹿野町閉野,トットリケン,トットリシ,シカノチョウトジノ,鳥取県鳥取市鹿野町閉野
6890403,鳥取県,鳥取市,鹿野町末用,トットリケン,トットリシ,シカノチョウスエモチ,鳥取県鳥取市鹿野町末用
6890404,鳥取県,鳥取市,鹿野町水谷,トットリケン,トットリシ,シカノチョウミズタニ,鳥取県鳥取市鹿野町水谷
6890405,鳥取県,鳥取市,鹿野町鹿野,トットリケン,トットリシ,シカノチョウシカノ,鳥取県鳥取市鹿野町鹿野
6890411,鳥取県,鳥取市,鹿野町鷲峯,トットリケン,トットリシ,シカノチョウジュウボウ,鳥取県鳥取市鹿野町鷲峯
6890412,鳥取県,鳥取市,鹿野町河内,トットリケン,トットリシ,シカノチョウコウチ,鳥取県鳥取市鹿野町河内
6890413,鳥取県,鳥取市,鹿野町小別所,トットリケン,トットリシ,シカノチョウコベツシヨ,鳥取県鳥取市鹿野町小別所
6890421,鳥取県,鳥取市,鹿野町乙亥正,トットリケン,トットリシ,シカノチョウオツガセ,鳥取県鳥取市鹿野町乙亥正
6890422,鳥取県,鳥取市,鹿野町岡木,トットリケン,トットリシ,シカノチョウオカキ,鳥取県鳥取市鹿野町岡木
6890423,鳥取県,鳥取市,鹿野町中園,トットリケン,トットリシ,シカノチョウナカゾノ,鳥取県鳥取市鹿野町中園
6890424,鳥取県,鳥取市,鹿野町宮方,トットリケン,トットリシ,シカノチョウミヤカタ,鳥取県鳥取市鹿野町宮方
6890425,鳥取県,鳥取市,鹿野町今市,トットリケン,トットリシ,シカノチョウイマイチ,鳥取県鳥取市鹿野町今市
6890426,鳥取県,鳥取市,鹿野町寺内,トットリケン,トットリシ,シカノチョウテラウチ,鳥取県鳥取市鹿野町寺内
6890501,鳥取県,鳥取市,青谷町青谷,トットリケン,トットリシ,アオヤチョウアオヤ,鳥取県鳥取市青谷町青谷
6890511,鳥取県,鳥取市,青谷町善田,トットリケン,トットリシ,アオヤチョウヨシダ,鳥取県鳥取市青谷町善田
6890512,鳥取県,鳥取市,青谷町養郷,トットリケン,トットリシ,アオヤチョウヨウゴウ,鳥取県鳥取市青谷町養郷
6890513,鳥取県,鳥取市,青谷町蔵内,トットリケン,トットリシ,アオヤチョウクラウチ,鳥取県鳥取市青谷町蔵内
6890514,鳥取県,鳥取市,青谷町山根,トットリケン,トットリシ,アオヤチョウヤマネ,鳥取県鳥取市青谷町山根
6890515,鳥取県,鳥取市,青谷町河原,トットリケン,トットリシ,アオヤチョウカワラ,鳥取県鳥取市青谷町河原
6890516,鳥取県,鳥取市,青谷町小畑,トットリケン,トットリシ,アオヤチョウオバタ,鳥取県鳥取市青谷町小畑
6890517,鳥取県,鳥取市,青谷町早牛,トットリケン,トットリシ,アオヤチョウハヤウジ,鳥取県鳥取市青谷町早牛
6890518,鳥取県,鳥取市,青谷町大坪,トットリケン,トットリシ,アオヤチョウオオツボ,鳥取県鳥取市青谷町大坪
6890519,鳥取県,鳥取市,青谷町奥崎,トットリケン,トットリシ,アオヤチョウオクザキ,鳥取県鳥取市青谷町奥崎
6890521,鳥取県,鳥取市,青谷町露谷,トットリケン,トットリシ,アオヤチョウツユダニ,鳥取県鳥取市青谷町露谷
6890522,鳥取県,鳥取市,青谷町亀尻,トットリケン,トットリシ,アオヤチョウカメジリ,鳥取県鳥取市青谷町亀尻
6890523,鳥取県,鳥取市,青谷町山田,トットリケン,トットリシ,アオヤチョウヤマダ,鳥取県鳥取市青谷町山田
6890524,鳥取県,鳥取市,青谷町八葉寺,トットリケン,トットリシ,アオヤチョウハツショウジ,鳥取県鳥取市青谷町八葉寺
6890525,鳥取県,鳥取市,青谷町田原谷,トットリケン,トットリシ,アオヤチョウタワラダニ,鳥取県鳥取市青谷町田原谷
6890526,鳥取県,鳥取市,青谷町紙屋,トットリケン,トットリシ,アオヤチョウカミヤ,鳥取県鳥取市青谷町紙屋
6890527,鳥取県,鳥取市,青谷町楠根,トットリケン,トットリシ,アオヤチョウクスネ,鳥取県鳥取市青谷町楠根
6890528,鳥取県,鳥取市,青谷町澄水,トットリケン,トットリシ,アオヤチョウスンズ,鳥取県鳥取市青谷町澄水
6890529,鳥取県,鳥取市,青谷町桑原,トットリケン,トットリシ,アオヤチョウクワバラ,鳥取県鳥取市青谷町桑原
6890531,鳥取県,鳥取市,青谷町鳴滝,トットリケン,トットリシ,アオヤチョウナルタキ,鳥取県鳥取市青谷町鳴滝
6890532,鳥取県,鳥取市,青谷町北河原,トットリケン,トットリシ,アオヤチョウキタガワラ,鳥取県鳥取市青谷町北河原
6890533,鳥取県,鳥取市,青谷町絹見,トットリケン,トットリシ,アオヤチョウキヌミ,鳥取県鳥取市青谷町絹見
6890534,鳥取県,鳥取市,青谷町吉川,トットリケン,トットリシ,アオヤチョウヨシカワ,鳥取県鳥取市青谷町吉川
6890535,鳥取県,鳥取市,青谷町井手,トットリケン,トットリシ,アオヤチョウイデ,鳥取県鳥取市青谷町井手
6890536,鳥取県,鳥取市,青谷町長和瀬,トットリケン,トットリシ,アオヤチョウナガワセ,鳥取県鳥取市青谷町長和瀬
6890537,鳥取県,鳥取市,青谷町栄町,トットリケン,トットリシ,アオヤチョウサカエマチ,鳥取県鳥取市青谷町栄町
6890601,鳥取県,東伯郡湯梨浜町,泊,トットリケン,トウハクグンユリハマチョウ,トマリ,鳥取県東伯郡湯梨浜町泊
6890602,鳥取県,東伯郡湯梨浜町,石脇,トットリケン,トウハクグンユリハマチョウ,イシワキ,鳥取県東伯郡湯梨浜町石脇
6890603,鳥取県,東伯郡湯梨浜町,小浜,トットリケン,トウハクグンユリハマチョウ,コバマ,鳥取県東伯郡湯梨浜町小浜
6890604,鳥取県,東伯郡湯梨浜町,筒地,トットリケン,トウハクグンユリハマチョウ,ツツジ,鳥取県東伯郡湯梨浜町筒地
6890605,鳥取県,東伯郡湯梨浜町,園,トットリケン,トウハクグンユリハマチョウ,ソノ,鳥取県東伯郡湯梨浜町園
6890606,鳥取県,東伯郡湯梨浜町,原,トットリケン,トウハクグンユリハマチョウ,ハラ,鳥取県東伯郡湯梨浜町原
6890607,鳥取県,東伯郡湯梨浜町,宇谷,トットリケン,トウハクグンユリハマチョウ,ウタニ,鳥取県東伯郡湯梨浜町宇谷
6890701,鳥取県,東伯郡湯梨浜町,北福,トットリケン,トウハクグンユリハマチョウ,キタフク,鳥取県東伯郡湯梨浜町北福
6890702,鳥取県,東伯郡湯梨浜町,漆原,トットリケン,トウハクグンユリハマチョウ,ウルシバラ,鳥取県東伯郡湯梨浜町漆原
6890703,鳥取県,東伯郡湯梨浜町,方地,トットリケン,トウハクグンユリハマチョウ,ホウジ,鳥取県東伯郡湯梨浜町方地
6890704,鳥取県,東伯郡湯梨浜町,白石,トットリケン,トウハクグンユリハマチョウ,シライシ,鳥取県東伯郡湯梨浜町白石
6890705,鳥取県,東伯郡湯梨浜町,野方,トットリケン,トウハクグンユリハマチョウ,ノカタ,鳥取県東伯郡湯梨浜町野方
6890706,鳥取県,東伯郡湯梨浜町,藤津,トットリケン,トウハクグンユリハマチョウ,フジツ,鳥取県東伯郡湯梨浜町藤津
6890707,鳥取県,東伯郡湯梨浜町,宮内,トットリケン,トウハクグンユリハマチョウ,ミヤウチ,鳥取県東伯郡湯梨浜町宮内
6890711,鳥取県,東伯郡湯梨浜町,松崎,トットリケン,トウハクグンユリハマチョウ,マツザキ,鳥取県東伯郡湯梨浜町松崎
6890712,鳥取県,東伯郡湯梨浜町,中興寺,トットリケン,トウハクグンユリハマチョウ,チュウコウジ,鳥取県東伯郡湯梨浜町中興寺
6890713,鳥取県,東伯郡湯梨浜町,旭,トットリケン,トウハクグンユリハマチョウ,アサヒ,鳥取県東伯郡湯梨浜町旭
6890714,鳥取県,東伯郡湯梨浜町,龍島,トットリケン,トウハクグンユリハマチョウ,リュウトウ,鳥取県東伯郡湯梨浜町龍島
6890715,鳥取県,東伯郡湯梨浜町,引地,トットリケン,トウハクグンユリハマチョウ,ヒキジ,鳥取県東伯郡湯梨浜町引地
6890721,鳥取県,東伯郡湯梨浜町,麻畑,トットリケン,トウハクグンユリハマチョウ,アサバタケ,鳥取県東伯郡湯梨浜町麻畑
6890722,鳥取県,東伯郡湯梨浜町,川上,トットリケン,トウハクグンユリハマチョウ,カワカミ,鳥取県東伯郡湯梨浜町川上
6890723,鳥取県,東伯郡湯梨浜町,高辻,トットリケン,トウハクグンユリハマチョウ,タカツジ,鳥取県東伯郡湯梨浜町高辻
6890724,鳥取県,東伯郡湯梨浜町,方面,トットリケン,トウハクグンユリハマチョウ,カタモ,鳥取県東伯郡湯梨浜町方面
6890725,鳥取県,東伯郡湯梨浜町,別所,トットリケン,トウハクグンユリハマチョウ,ベッショ,鳥取県東伯郡湯梨浜町別所
6890726,鳥取県,東伯郡湯梨浜町,国信,トットリケン,トウハクグンユリハマチョウ,クニノブ,鳥取県東伯郡湯梨浜町国信
6890727,鳥取県,東伯郡湯梨浜町,田畑,トットリケン,トウハクグンユリハマチョウ,タバタケ,鳥取県東伯郡湯梨浜町田畑
6890728,鳥取県,東伯郡湯梨浜町,久見,トットリケン,トウハクグンユリハマチョウ,ヒサミ,鳥取県東伯郡湯梨浜町久見
6890729,鳥取県,東伯郡湯梨浜町,小鹿谷,トットリケン,トウハクグンユリハマチョウ,オシカダニ,鳥取県東伯郡湯梨浜町小鹿谷
6890731,鳥取県,東伯郡湯梨浜町,野花,トットリケン,トウハクグンユリハマチョウ,ノキョウ,鳥取県東伯郡湯梨浜町野花
6890732,鳥取県,東伯郡湯梨浜町,長和田,トットリケン,トウハクグンユリハマチョウ,ナゴウタ,鳥取県東伯郡湯梨浜町長和田
6890733,鳥取県,東伯郡湯梨浜町,羽衣石,トットリケン,トウハクグンユリハマチョウ,ウエシ,鳥取県東伯郡湯梨浜町羽衣石
6890734,鳥取県,東伯郡湯梨浜町,埴見,トットリケン,トウハクグンユリハマチョウ,ハナミ,鳥取県東伯郡湯梨浜町埴見
6890735,鳥取県,東伯郡湯梨浜町,佐美,トットリケン,トウハクグンユリハマチョウ,サビ,鳥取県東伯郡湯梨浜町佐美
6890736,鳥取県,東伯郡湯梨浜町,門田,トットリケン,トウハクグンユリハマチョウ,カドタ,鳥取県東伯郡湯梨浜町門田
6890737,鳥取県,東伯郡湯梨浜町,長江,トットリケン,トウハクグンユリハマチョウ,ナガエ,鳥取県東伯郡湯梨浜町長江
6891101,鳥取県,鳥取市,杉崎,トットリケン,トットリシ,スギザキ,鳥取県鳥取市杉崎
6891102,鳥取県,鳥取市,津ノ井,トットリケン,トットリシ,ツノイ,鳥取県鳥取市津ノ井
6891103,鳥取県,鳥取市,生山,トットリケン,トットリシ,ショウザン,鳥取県鳥取市生山
6891104,鳥取県,鳥取市,桂木,トットリケン,トットリシ,カツラギ,鳥取県鳥取市桂木
6891105,鳥取県,鳥取市,東大路,トットリケン,トットリシ,ヒガシオオロ,鳥取県鳥取市東大路
6891106,鳥取県,鳥取市,中大路,トットリケン,トットリシ,ナカオオロ,鳥取県鳥取市中大路
6891107,鳥取県,鳥取市,西大路,トットリケン,トットリシ,ニシオオロ,鳥取県鳥取市西大路
6891111,鳥取県,鳥取市,若葉台北,トットリケン,トットリシ,ワカバダイキタ,鳥取県鳥取市若葉台北
6891112,鳥取県,鳥取市,若葉台南,トットリケン,トットリシ,ワカバダイミナミ,鳥取県鳥取市若葉台南
6891113,鳥取県,鳥取市,祢宜谷,トットリケン,トットリシ,ネギダニ,鳥取県鳥取市祢宜谷
6891114,鳥取県,鳥取市,香取,トットリケン,トットリシ,カトリ,鳥取県鳥取市香取
6891115,鳥取県,鳥取市,紙子谷,トットリケン,トットリシ,カゴダニ,鳥取県鳥取市紙子谷
6891116,鳥取県,鳥取市,広岡,トットリケン,トットリシ,ヒロオカ,鳥取県鳥取市広岡
6891117,鳥取県,鳥取市,海蔵寺,トットリケン,トットリシ,カイゾウジ,鳥取県鳥取市海蔵寺
6891121,鳥取県,鳥取市,南栄町,トットリケン,トットリシ,ナンエイチョウ,鳥取県鳥取市南栄町
6891122,鳥取県,鳥取市,船木,トットリケン,トットリシ,フナキ,鳥取県鳥取市船木
6891123,鳥取県,鳥取市,久末,トットリケン,トットリシ,ヒサスエ,鳥取県鳥取市久末
6891124,鳥取県,鳥取市,越路,トットリケン,トットリシ,コイジ,鳥取県鳥取市越路
6891125,鳥取県,鳥取市,古郡家,トットリケン,トットリシ,ココオゲ,鳥取県鳥取市古郡家
6891126,鳥取県,鳥取市,美和,トットリケン,トットリシ,ミワ,鳥取県鳥取市美和
6891201,鳥取県,鳥取市,用瀬町用瀬,トットリケン,トットリシ,モチガセチョウモチガセ,鳥取県鳥取市用瀬町用瀬
6891211,鳥取県,鳥取市,用瀬町別府,トットリケン,トットリシ,モチガセチョウベフ,鳥取県鳥取市用瀬町別府
6891212,鳥取県,鳥取市,用瀬町美成,トットリケン,トットリシ,モチガセチョウミナリ,鳥取県鳥取市用瀬町美成
6891213,鳥取県,鳥取市,用瀬町鷹狩,トットリケン,トットリシ,モチガセチョウタカガリ,鳥取県鳥取市用瀬町鷹狩
6891214,鳥取県,鳥取市,用瀬町旭ケ丘,トットリケン,トットリシ,モチガセチョウアサヒガオカ,鳥取県鳥取市用瀬町旭ケ丘
6891215,鳥取県,鳥取市,用瀬町赤波,トットリケン,トットリシ,モチガセチョウアガナミ,鳥取県鳥取市用瀬町赤波
6891221,鳥取県,鳥取市,用瀬町古用瀬,トットリケン,トットリシ,モチガセチョウフルモチガセ,鳥取県鳥取市用瀬町古用瀬
6891222,鳥取県,鳥取市,用瀬町家奥,トットリケン,トットリシ,モチガセチョウイエオク,鳥取県鳥取市用瀬町家奥
6891223,鳥取県,鳥取市,用瀬町金屋,トットリケン,トットリシ,モチガセチョウカナヤ,鳥取県鳥取市用瀬町金屋
6891224,鳥取県,鳥取市,用瀬町樟原,トットリケン,トットリシ,モチガセチョウクヌギワラ,鳥取県鳥取市用瀬町樟原
6891225,鳥取県,鳥取市,用瀬町宮原,トットリケン,トットリシ,モチガセチョウミヤバラ,鳥取県鳥取市用瀬町宮原
6891226,鳥取県,鳥取市,用瀬町川中,トットリケン,トットリシ,モチガセチョウカワナカ,鳥取県鳥取市用瀬町川中
6891227,鳥取県,鳥取市,用瀬町安蔵,トットリケン,トットリシ,モチガセチョウアゾウ,鳥取県鳥取市用瀬町安蔵
6891228,鳥取県,鳥取市,用瀬町屋住,トットリケン,トットリシ,モチガセチョウヤズミ,鳥取県鳥取市用瀬町屋住
6891229,鳥取県,鳥取市,用瀬町江波,トットリケン,トットリシ,モチガセチョウエナミ,鳥取県鳥取市用瀬町江波
6891301,鳥取県,鳥取市,佐治町葛谷,トットリケン,トットリシ,サジチョウカズラタニ,鳥取県鳥取市佐治町葛谷
6891302,鳥取県,鳥取市,佐治町小原,トットリケン,トットリシ,サジチョウコバラ,鳥取県鳥取市佐治町小原
6891303,鳥取県,鳥取市,佐治町刈地,トットリケン,トットリシ,サジチョウカルチ,鳥取県鳥取市佐治町刈地
6891304,鳥取県,鳥取市,佐治町大井,トットリケン,トットリシ,サジチョウオオイ,鳥取県鳥取市佐治町大井
6891305,鳥取県,鳥取市,佐治町森坪,トットリケン,トットリシ,サジチョウモリツボ,鳥取県鳥取市佐治町森坪
6891306,鳥取県,鳥取市,佐治町古市,トットリケン,トットリシ,サジチョウフルイチ,鳥取県鳥取市佐治町古市
6891307,鳥取県,鳥取市,佐治町津無,トットリケン,トットリシ,サジチョウツナシ,鳥取県鳥取市佐治町津無
6891311,鳥取県,鳥取市,佐治町津野,トットリケン,トットリシ,サジチョウツノ,鳥取県鳥取市佐治町津野
6891312,鳥取県,鳥取市,佐治町高山,トットリケン,トットリシ,サジチョウタカヤマ,鳥取県鳥取市佐治町高山
6891313,鳥取県,鳥取市,佐治町加瀬木,トットリケン,トットリシ,サジチョウカセギ,鳥取県鳥取市佐治町加瀬木
6891314,鳥取県,鳥取市,佐治町加茂,トットリケン,トットリシ,サジチョウカモ,鳥取県鳥取市佐治町加茂
6891315,鳥取県,鳥取市,佐治町畑,トットリケン,トットリシ,サジチョウハタ,鳥取県鳥取市佐治町畑
6891316,鳥取県,鳥取市,佐治町福園,トットリケン,トットリシ,サジチョウフクゾノ,鳥取県鳥取市佐治町福園
6891321,鳥取県,鳥取市,佐治町河本,トットリケン,トットリシ,サジチョウカワモト,鳥取県鳥取市佐治町河本
6891322,鳥取県,鳥取市,佐治町つく谷,トットリケン,トットリシ,サジチョウツクダニ,鳥取県鳥取市佐治町つく谷
6891323,鳥取県,鳥取市,佐治町余戸,トットリケン,トットリシ,サジチョウヨド,鳥取県鳥取市佐治町余戸
6891324,鳥取県,鳥取市,佐治町尾際,トットリケン,トットリシ,サジチョウオワイ,鳥取県鳥取市佐治町尾際
6891325,鳥取県,鳥取市,佐治町中,トットリケン,トットリシ,サジチョウナカ,鳥取県鳥取市佐治町中
6891326,鳥取県,鳥取市,佐治町栃原,トットリケン,トットリシ,サジチョウトチワラ,鳥取県鳥取市佐治町栃原
6891400,鳥取県,八頭郡智頭町,,トットリケン,ヤズグンチヅチョウ,,鳥取県八頭郡智頭町
6891401,鳥取県,八頭郡智頭町,市瀬,トットリケン,ヤズグンチヅチョウ,イチノセ,鳥取県八頭郡智頭町市瀬
6891402,鳥取県,八頭郡智頭町,智頭,トットリケン,ヤズグンチヅチョウ,チズ,鳥取県八頭郡智頭町智頭
6891403,鳥取県,八頭郡智頭町,南方,トットリケン,ヤズグンチヅチョウ,ミナミガタ,鳥取県八頭郡智頭町南方
6891404,鳥取県,八頭郡智頭町,岩神,トットリケン,ヤズグンチヅチョウ,イワガミ,鳥取県八頭郡智頭町岩神
6891411,鳥取県,八頭郡智頭町,八河谷,トットリケン,ヤズグンチヅチョウ,ヤコウダニ,鳥取県八頭郡智頭町八河谷
6891412,鳥取県,八頭郡智頭町,芦津,トットリケン,ヤズグンチヅチョウ,アシヅ,鳥取県八頭郡智頭町芦津
6891413,鳥取県,八頭郡智頭町,大呂,トットリケン,ヤズグンチヅチョウ,オオロ,鳥取県八頭郡智頭町大呂
6891414,鳥取県,八頭郡智頭町,西野,トットリケン,ヤズグンチヅチョウ,ニシノ,鳥取県八頭郡智頭町西野
6891415,鳥取県,八頭郡智頭町,郷原,トットリケン,ヤズグンチヅチョウ,ゴウバラ,鳥取県八頭郡智頭町郷原
6891416,鳥取県,八頭郡智頭町,毛谷,トットリケン,ヤズグンチヅチョウ,ケダニ,鳥取県八頭郡智頭町毛谷
6891417,鳥取県,八頭郡智頭町,篠坂,トットリケン,ヤズグンチヅチョウ,シノザカ,鳥取県八頭郡智頭町篠坂
6891421,鳥取県,八頭郡智頭町,大内,トットリケン,ヤズグンチヅチョウ,オオチ,鳥取県八頭郡智頭町大内
6891422,鳥取県,八頭郡智頭町,尾見,トットリケン,ヤズグンチヅチョウ,オミ,鳥取県八頭郡智頭町尾見
6891423,鳥取県,八頭郡智頭町,中原,トットリケン,ヤズグンチヅチョウ,ナカバラ,鳥取県八頭郡智頭町中原
6891424,鳥取県,八頭郡智頭町,駒帰,トットリケン,ヤズグンチヅチョウ,コマガエリ,鳥取県八頭郡智頭町駒帰
6891425,鳥取県,八頭郡智頭町,福原,トットリケン,ヤズグンチヅチョウ,フクワラ,鳥取県八頭郡智頭町福原
6891426,鳥取県,八頭郡智頭町,西谷,トットリケン,ヤズグンチヅチョウ,ニシダニ,鳥取県八頭郡智頭町西谷
6891431,鳥取県,八頭郡智頭町,山根,トットリケン,ヤズグンチヅチョウ,ヤマネ,鳥取県八頭郡智頭町山根
6891432,鳥取県,八頭郡智頭町,穂見,トットリケン,ヤズグンチヅチョウ,ホノミ,鳥取県八頭郡智頭町穂見
6891433,鳥取県,八頭郡智頭町,埴師,トットリケン,ヤズグンチヅチョウ,ハニシ,鳥取県八頭郡智頭町埴師
6891434,鳥取県,八頭郡智頭町,三吉,トットリケン,ヤズグンチヅチョウ,ミヨシ,鳥取県八頭郡智頭町三吉
6891435,鳥取県,八頭郡智頭町,横田,トットリケン,ヤズグンチヅチョウ,ヨコタ,鳥取県八頭郡智頭町横田
6891436,鳥取県,八頭郡智頭町,木原,トットリケン,ヤズグンチヅチョウ,キハラ,鳥取県八頭郡智頭町木原
6891437,鳥取県,八頭郡智頭町,三田,トットリケン,ヤズグンチヅチョウ,ミタ,鳥取県八頭郡智頭町三田
6891441,鳥取県,八頭郡智頭町,慶所,トットリケン,ヤズグンチヅチョウ,ケイジョ,鳥取県八頭郡智頭町慶所
6891442,鳥取県,八頭郡智頭町,大屋,トットリケン,ヤズグンチヅチョウ,オオヤ,鳥取県八頭郡智頭町大屋
6891443,鳥取県,八頭郡智頭町,真鹿野,トットリケン,ヤズグンチヅチョウ,マガノ,鳥取県八頭郡智頭町真鹿野
6891444,鳥取県,八頭郡智頭町,野原,トットリケン,ヤズグンチヅチョウ,ノバラ,鳥取県八頭郡智頭町野原
6891445,鳥取県,八頭郡智頭町,早瀬,トットリケン,ヤズグンチヅチョウ,ハヤセ,鳥取県八頭郡智頭町早瀬
6891451,鳥取県,八頭郡智頭町,大背,トットリケン,ヤズグンチヅチョウ,オオセ,鳥取県八頭郡智頭町大背
6891452,鳥取県,八頭郡智頭町,奥本,トットリケン,ヤズグンチヅチョウ,オクモト,鳥取県八頭郡智頭町奥本
6891453,鳥取県,八頭郡智頭町,東宇塚,トットリケン,ヤズグンチヅチョウ,ヒガシウヅカ,鳥取県八頭郡智頭町東宇塚
6891454,鳥取県,八頭郡智頭町,河津原,トットリケン,ヤズグンチヅチョウ,コウヅワラ,鳥取県八頭郡智頭町河津原
6891455,鳥取県,八頭郡智頭町,西宇塚,トットリケン,ヤズグンチヅチョウ,ニシウヅカ,鳥取県八頭郡智頭町西宇塚
6891461,鳥取県,八頭郡智頭町,坂原,トットリケン,ヤズグンチヅチョウ,サカワラ,鳥取県八頭郡智頭町坂原
6891462,鳥取県,八頭郡智頭町,中田,トットリケン,ヤズグンチヅチョウ,ナカダ,鳥取県八頭郡智頭町中田
6891463,鳥取県,八頭郡智頭町,新見,トットリケン,ヤズグンチヅチョウ,ニイミ,鳥取県八頭郡智頭町新見
6891464,鳥取県,八頭郡智頭町,口宇波,トットリケン,ヤズグンチヅチョウ,クチウナミ,鳥取県八頭郡智頭町口宇波
6891465,鳥取県,八頭郡智頭町,宇波,トットリケン,ヤズグンチヅチョウ,ウナミ,鳥取県八頭郡智頭町宇波
6891466,鳥取県,八頭郡智頭町,波多,トットリケン,ヤズグンチヅチョウ,ハタ,鳥取県八頭郡智頭町波多
6891467,鳥取県,八頭郡智頭町,口波多,トットリケン,ヤズグンチヅチョウ,クチハタ,鳥取県八頭郡智頭町口波多
6891468,鳥取県,八頭郡智頭町,惣地,トットリケン,ヤズグンチヅチョウ,ソウチ,鳥取県八頭郡智頭町惣地
6892101,鳥取県,東伯郡北栄町,江北,トットリケン,トウハクグンホクエイチョウ,エキタ,鳥取県東伯郡北栄町江北
6892102,鳥取県,東伯郡北栄町,国坂,トットリケン,トウハクグンホクエイチョウ,クニサカ,鳥取県東伯郡北栄町国坂
6892103,鳥取県,東伯郡北栄町,田井,トットリケン,トウハクグンホクエイチョウ,タイ,鳥取県東伯郡北栄町田井
6892104,鳥取県,東伯郡北栄町,弓原,トットリケン,トウハクグンホクエイチョウ,ユミハラ,鳥取県東伯郡北栄町弓原
6892105,鳥取県,東伯郡北栄町,下神,トットリケン,トウハクグンホクエイチョウ,シモツワ,鳥取県東伯郡北栄町下神
6892106,鳥取県,東伯郡北栄町,松神,トットリケン,トウハクグンホクエイチョウ,マツガミ,鳥取県東伯郡北栄町松神
6892111,鳥取県,東伯郡北栄町,土下,トットリケン,トウハクグンホクエイチョウ,ハシタ,鳥取県東伯郡北栄町土下
6892112,鳥取県,東伯郡北栄町,北条島,トットリケン,トウハクグンホクエイチョウ,ホウジョウシマ,鳥取県東伯郡北栄町北条島
6892113,鳥取県,東伯郡北栄町,米里,トットリケン,トウハクグンホクエイチョウ,ヨネサト,鳥取県東伯郡北栄町米里
6892114,鳥取県,東伯郡北栄町,北尾,トットリケン,トウハクグンホクエイチョウ,キタオ,鳥取県東伯郡北栄町北尾
6892115,鳥取県,東伯郡北栄町,曲,トットリケン,トウハクグンホクエイチョウ,マガリ,鳥取県東伯郡北栄町曲
6892200,鳥取県,東伯郡北栄町,,トットリケン,トウハクグンホクエイチョウ,,鳥取県東伯郡北栄町
6892201,鳥取県,東伯郡北栄町,西園,トットリケン,トウハクグンホクエイチョウ,ニシソノ,鳥取県東伯郡北栄町西園
6892202,鳥取県,東伯郡北栄町,東園,トットリケン,トウハクグンホクエイチョウ,ヒガシソノ,鳥取県東伯郡北栄町東園
6892203,鳥取県,東伯郡北栄町,原,トットリケン,トウハクグンホクエイチョウ,ハラ,鳥取県東伯郡北栄町原
6892204,鳥取県,東伯郡北栄町,穂波,トットリケン,トウハクグンホクエイチョウ,ホナミ,鳥取県東伯郡北栄町穂波
6892205,鳥取県,東伯郡北栄町,瀬戸,トットリケン,トウハクグンホクエイチョウ,セト,鳥取県東伯郡北栄町瀬戸
6892206,鳥取県,東伯郡北栄町,大島,トットリケン,トウハクグンホクエイチョウ,オオシマ,鳥取県東伯郡北栄町大島
6892207,鳥取県,東伯郡北栄町,西穂波,トットリケン,トウハクグンホクエイチョウ,ニシホナミ,鳥取県東伯郡北栄町西穂波
6892208,鳥取県,東伯郡北栄町,六尾,トットリケン,トウハクグンホクエイチョウ,ムツオ,鳥取県東伯郡北栄町六尾
6892211,鳥取県,東伯郡北栄町,亀谷,トットリケン,トウハクグンホクエイチョウ,カメダニ,鳥取県東伯郡北栄町亀谷
6892212,鳥取県,東伯郡北栄町,下種,トットリケン,トウハクグンホクエイチョウ,シモダネ,鳥取県東伯郡北栄町下種
6892213,鳥取県,東伯郡北栄町,上種,トットリケン,トウハクグンホクエイチョウ,カミダネ,鳥取県東伯郡北栄町上種
6892214,鳥取県,東伯郡北栄町,東高尾,トットリケン,トウハクグンホクエイチョウ,ヒガシタカオ,鳥取県東伯郡北栄町東高尾
6892215,鳥取県,東伯郡北栄町,西高尾,トットリケン,トウハクグンホクエイチョウ,ニシタカオ,鳥取県東伯郡北栄町西高尾
6892216,鳥取県,東伯郡北栄町,岩坪,トットリケン,トウハクグンホクエイチョウ,イワツボ,鳥取県東伯郡北栄町岩坪
6892221,鳥取県,東伯郡北栄町,由良宿,トットリケン,トウハクグンホクエイチョウ,ユラシュク,鳥取県東伯郡北栄町由良宿
6892223,鳥取県,東伯郡北栄町,大谷,トットリケン,トウハクグンホクエイチョウ,オオダニ,鳥取県東伯郡北栄町大谷
6892224,鳥取県,東伯郡北栄町,妻波,トットリケン,トウハクグンホクエイチョウ,ツマナミ,鳥取県東伯郡北栄町妻波
6892300,鳥取県,東伯郡琴浦町,,トットリケン,トウハクグンコトウラチョウ,,鳥取県東伯郡琴浦町
6892301,鳥取県,東伯郡琴浦町,八橋,トットリケン,トウハクグンコトウラチョウ,ヤバセ,鳥取県東伯郡琴浦町八橋
6892302,鳥取県,東伯郡琴浦町,丸尾,トットリケン,トウハクグンコトウラチョウ,マルオ,鳥取県東伯郡琴浦町丸尾
6892303,鳥取県,東伯郡琴浦町,徳万,トットリケン,トウハクグンコトウラチョウ,トクマン,鳥取県東伯郡琴浦町徳万
6892304,鳥取県,東伯郡琴浦町,逢束,トットリケン,トウハクグンコトウラチョウ,オオツカ,鳥取県東伯郡琴浦町逢束
6892305,鳥取県,東伯郡琴浦町,槻下,トットリケン,トウハクグンコトウラチョウ,ツキノシタ,鳥取県東伯郡琴浦町槻下
6892306,鳥取県,東伯郡琴浦町,笠見,トットリケン,トウハクグンコトウラチョウ,カサミ,鳥取県東伯郡琴浦町笠見
6892311,鳥取県,東伯郡琴浦町,中尾,トットリケン,トウハクグンコトウラチョウ,ナカオ,鳥取県東伯郡琴浦町中尾
6892312,鳥取県,東伯郡琴浦町,金屋,トットリケン,トウハクグンコトウラチョウ,カナヤ,鳥取県東伯郡琴浦町金屋
6892313,鳥取県,東伯郡琴浦町,杉下,トットリケン,トウハクグンコトウラチョウ,スギシタ,鳥取県東伯郡琴浦町杉下
6892314,鳥取県,東伯郡琴浦町,下大江,トットリケン,トウハクグンコトウラチョウ,シモオオエ,鳥取県東伯郡琴浦町下大江
6892315,鳥取県,東伯郡琴浦町,上伊勢,トットリケン,トウハクグンコトウラチョウ,カミイセ,鳥取県東伯郡琴浦町上伊勢
6892316,鳥取県,東伯郡琴浦町,下伊勢,トットリケン,トウハクグンコトウラチョウ,シモイセ,鳥取県東伯郡琴浦町下伊勢
6892321,鳥取県,東伯郡琴浦町,森藤,トットリケン,トウハクグンコトウラチョウ,モリトウ,鳥取県東伯郡琴浦町森藤
6892322,鳥取県,東伯郡琴浦町,八反田,トットリケン,トウハクグンコトウラチョウ,ハッタンダ,鳥取県東伯郡琴浦町八反田
6892323,鳥取県,東伯郡琴浦町,宮場,トットリケン,トウハクグンコトウラチョウ,ミヤバ,鳥取県東伯郡琴浦町宮場
6892324,鳥取県,東伯郡琴浦町,矢下,トットリケン,トウハクグンコトウラチョウ,ヤジタ,鳥取県東伯郡琴浦町矢下
6892325,鳥取県,東伯郡琴浦町,法万,トットリケン,トウハクグンコトウラチョウ,ホウマン,鳥取県東伯郡琴浦町法万
6892326,鳥取県,東伯郡琴浦町,光好,トットリケン,トウハクグンコトウラチョウ,ミツヨシ,鳥取県東伯郡琴浦町光好
6892331,鳥取県,東伯郡琴浦町,杉地,トットリケン,トウハクグンコトウラチョウ,スギジ,鳥取県東伯郡琴浦町杉地
6892332,鳥取県,東伯郡琴浦町,古長,トットリケン,トウハクグンコトウラチョウ,フルナガ,鳥取県東伯郡琴浦町古長
6892333,鳥取県,東伯郡琴浦町,別宮,トットリケン,トウハクグンコトウラチョウ,ベツミヤ,鳥取県東伯郡琴浦町別宮
6892334,鳥取県,東伯郡琴浦町,三本杉,トットリケン,トウハクグンコトウラチョウ,サンボンスギ,鳥取県東伯郡琴浦町三本杉
6892335,鳥取県,東伯郡琴浦町,中津原,トットリケン,トウハクグンコトウラチョウ,ナカツハラ,鳥取県東伯郡琴浦町中津原
6892336,鳥取県,東伯郡琴浦町,野井倉,トットリケン,トウハクグンコトウラチョウ,ノイグラ,鳥取県東伯郡琴浦町野井倉
6892341,鳥取県,東伯郡琴浦町,倉坂,トットリケン,トウハクグンコトウラチョウ,クラサカ,鳥取県東伯郡琴浦町倉坂
6892342,鳥取県,東伯郡琴浦町,公文,トットリケン,トウハクグンコトウラチョウ,クモン,鳥取県東伯郡琴浦町公文
6892343,鳥取県,東伯郡琴浦町,山田,トットリケン,トウハクグンコトウラチョウ,ヤマタ,鳥取県東伯郡琴浦町山田
6892344,鳥取県,東伯郡琴浦町,大杉,トットリケン,トウハクグンコトウラチョウ,オオスギ,鳥取県東伯郡琴浦町大杉
6892345,鳥取県,東伯郡琴浦町,福永,トットリケン,トウハクグンコトウラチョウ,フクナガ,鳥取県東伯郡琴浦町福永
6892346,鳥取県,東伯郡琴浦町,野田,トットリケン,トウハクグンコトウラチョウ,ノタ,鳥取県東伯郡琴浦町野田
6892351,鳥取県,東伯郡琴浦町,保,トットリケン,トウハクグンコトウラチョウ,ホウ,鳥取県東伯郡琴浦町保
6892352,鳥取県,東伯郡琴浦町,浦安,トットリケン,トウハクグンコトウラチョウ,ウラヤス,鳥取県東伯郡琴浦町浦安
6892353,鳥取県,東伯郡琴浦町,三保,トットリケン,トウハクグンコトウラチョウ,ミホ,鳥取県東伯郡琴浦町三保
6892354,鳥取県,東伯郡琴浦町,美好,トットリケン,トウハクグンコトウラチョウ,ミヨシ,鳥取県東伯郡琴浦町美好
6892355,鳥取県,東伯郡琴浦町,釛,トットリケン,トウハクグンコトウラチョウ,コガネ,鳥取県東伯郡琴浦町釛
6892356,鳥取県,東伯郡琴浦町,田越,トットリケン,トウハクグンコトウラチョウ,タコエ,鳥取県東伯郡琴浦町田越
6892501,鳥取県,東伯郡琴浦町,赤碕,トットリケン,トウハクグンコトウラチョウ,アカサキ,鳥取県東伯郡琴浦町赤碕
6892502,鳥取県,東伯郡琴浦町,別所,トットリケン,トウハクグンコトウラチョウ,ベッショ,鳥取県東伯郡琴浦町別所
6892503,鳥取県,東伯郡琴浦町,松谷,トットリケン,トウハクグンコトウラチョウ,マツダニ,鳥取県東伯郡琴浦町松谷
6892511,鳥取県,東伯郡琴浦町,出上,トットリケン,トウハクグンコトウラチョウ,イデカミ,鳥取県東伯郡琴浦町出上
6892512,鳥取県,東伯郡琴浦町,勝田,トットリケン,トウハクグンコトウラチョウ,カツタ,鳥取県東伯郡琴浦町勝田
6892513,鳥取県,東伯郡琴浦町,西宮,トットリケン,トウハクグンコトウラチョウ,ニシミヤ,鳥取県東伯郡琴浦町西宮
6892521,鳥取県,東伯郡琴浦町,竹内,トットリケン,トウハクグンコトウラチョウ,タケウチ,鳥取県東伯郡琴浦町竹内
6892522,鳥取県,東伯郡琴浦町,宮木,トットリケン,トウハクグンコトウラチョウ,ミヤキ,鳥取県東伯郡琴浦町宮木
6892523,鳥取県,東伯郡琴浦町,高岡,トットリケン,トウハクグンコトウラチョウ,タカオカ,鳥取県東伯郡琴浦町高岡
6892524,鳥取県,東伯郡琴浦町,大父,トットリケン,トウハクグンコトウラチョウ,オオブ,鳥取県東伯郡琴浦町大父
6892525,鳥取県,東伯郡琴浦町,山川,トットリケン,トウハクグンコトウラチョウ,ヤマガワ,鳥取県東伯郡琴浦町山川
6892531,鳥取県,東伯郡琴浦町,佐崎,トットリケン,トウハクグンコトウラチョウ,サザキ,鳥取県東伯郡琴浦町佐崎
6892532,鳥取県,東伯郡琴浦町,太一垣,トットリケン,トウハクグンコトウラチョウ,タイチガキ,鳥取県東伯郡琴浦町太一垣
6892533,鳥取県,東伯郡琴浦町,中村,トットリケン,トウハクグンコトウラチョウ,ナカムラ,鳥取県東伯郡琴浦町中村
6892534,鳥取県,東伯郡琴浦町,光,トットリケン,トウハクグンコトウラチョウ,ミツ,鳥取県東伯郡琴浦町光
6892535,鳥取県,東伯郡琴浦町,尾張,トットリケン,トウハクグンコトウラチョウ,オワリ,鳥取県東伯郡琴浦町尾張
6892541,鳥取県,東伯郡琴浦町,八幡,トットリケン,トウハクグンコトウラチョウ,ヤワタ,鳥取県東伯郡琴浦町八幡
6892542,鳥取県,東伯郡琴浦町,湯坂,トットリケン,トウハクグンコトウラチョウ,ユザカ,鳥取県東伯郡琴浦町湯坂
6892543,鳥取県,東伯郡琴浦町,梅田,トットリケン,トウハクグンコトウラチョウ,ウメダ,鳥取県東伯郡琴浦町梅田
6892544,鳥取県,東伯郡琴浦町,箆津,トットリケン,トウハクグンコトウラチョウ,ノツ,鳥取県東伯郡琴浦町箆津
6893101,鳥取県,西伯郡大山町,潮音寺,トットリケン,サイハクグンダイセンチョウ,チョウオンジ,鳥取県西伯郡大山町潮音寺
6893102,鳥取県,西伯郡大山町,石井垣,トットリケン,サイハクグンダイセンチョウ,イワイガキ,鳥取県西伯郡大山町石井垣
6893103,鳥取県,西伯郡大山町,樋口,トットリケン,サイハクグンダイセンチョウ,ヒノクチ,鳥取県西伯郡大山町樋口
6893104,鳥取県,西伯郡大山町,八重,トットリケン,サイハクグンダイセンチョウ,ヤエ,鳥取県西伯郡大山町八重
6893105,鳥取県,西伯郡大山町,束積,トットリケン,サイハクグンダイセンチョウ,ツカヅミ,鳥取県西伯郡大山町束積
6893106,鳥取県,西伯郡大山町,羽田井,トットリケン,サイハクグンダイセンチョウ,ハタイ,鳥取県西伯郡大山町羽田井
6893111,鳥取県,西伯郡大山町,赤坂,トットリケン,サイハクグンダイセンチョウ,アカザカ,鳥取県西伯郡大山町赤坂
6893112,鳥取県,西伯郡大山町,下甲,トットリケン,サイハクグンダイセンチョウ,シモギ,鳥取県西伯郡大山町下甲
6893113,鳥取県,西伯郡大山町,御崎,トットリケン,サイハクグンダイセンチョウ,ミサキ,鳥取県西伯郡大山町御崎
6893114,鳥取県,西伯郡大山町,田中,トットリケン,サイハクグンダイセンチョウ,タナカ,鳥取県西伯郡大山町田中
6893115,鳥取県,西伯郡大山町,栄田,トットリケン,サイハクグンダイセンチョウ,サカエダ,鳥取県西伯郡大山町栄田
6893121,鳥取県,西伯郡大山町,岡,トットリケン,サイハクグンダイセンチョウ,オカ,鳥取県西伯郡大山町岡
6893122,鳥取県,西伯郡大山町,塩津,トットリケン,サイハクグンダイセンチョウ,シオツ,鳥取県西伯郡大山町塩津
6893123,鳥取県,西伯郡大山町,住吉,トットリケン,サイハクグンダイセンチョウ,スミヨシ,鳥取県西伯郡大山町住吉
6893124,鳥取県,西伯郡大山町,上市,トットリケン,サイハクグンダイセンチョウ,ウワイチ,鳥取県西伯郡大山町上市
6893125,鳥取県,西伯郡大山町,下市,トットリケン,サイハクグンダイセンチョウ,シモイチ,鳥取県西伯郡大山町下市
6893132,鳥取県,西伯郡大山町,松河原,トットリケン,サイハクグンダイセンチョウ,マツガワラ,鳥取県西伯郡大山町松河原
6893133,鳥取県,西伯郡大山町,退休寺,トットリケン,サイハクグンダイセンチョウ,タイキュウジ,鳥取県西伯郡大山町退休寺
6893134,鳥取県,西伯郡大山町,高橋,トットリケン,サイハクグンダイセンチョウ,タカハシ,鳥取県西伯郡大山町高橋
6893135,鳥取県,西伯郡大山町,殿河内,トットリケン,サイハクグンダイセンチョウ,トノガワチ,鳥取県西伯郡大山町殿河内
6893136,鳥取県,西伯郡大山町,長野,トットリケン,サイハクグンダイセンチョウ,ナガノ,鳥取県西伯郡大山町長野
6893200,鳥取県,西伯郡大山町,,トットリケン,サイハクグンダイセンチョウ,,鳥取県西伯郡大山町
6893201,鳥取県,西伯郡大山町,豊成,トットリケン,サイハクグンダイセンチョウ,トヨシゲ,鳥取県西伯郡大山町豊成
6893202,鳥取県,西伯郡大山町,倉谷,トットリケン,サイハクグンダイセンチョウ,クラダニ,鳥取県西伯郡大山町倉谷
6893203,鳥取県,西伯郡大山町,小竹,トットリケン,サイハクグンダイセンチョウ,コダケ,鳥取県西伯郡大山町小竹
6893204,鳥取県,西伯郡大山町,東坪,トットリケン,サイハクグンダイセンチョウ,ヒガシツボ,鳥取県西伯郡大山町東坪
6893205,鳥取県,西伯郡大山町,西坪,トットリケン,サイハクグンダイセンチョウ,ニシツボ,鳥取県西伯郡大山町西坪
6893211,鳥取県,西伯郡大山町,御来屋,トットリケン,サイハクグンダイセンチョウ,ミクリヤ,鳥取県西伯郡大山町御来屋
6893212,鳥取県,西伯郡大山町,名和,トットリケン,サイハクグンダイセンチョウ,ナワ,鳥取県西伯郡大山町名和
6893213,鳥取県,西伯郡大山町,門前,トットリケン,サイハクグンダイセンチョウ,モンゼン,鳥取県西伯郡大山町門前
6893214,鳥取県,西伯郡大山町,加茂,トットリケン,サイハクグンダイセンチョウ,カモ,鳥取県西伯郡大山町加茂
6893221,鳥取県,西伯郡大山町,富長,トットリケン,サイハクグンダイセンチョウ,トミナガ,鳥取県西伯郡大山町富長
6893222,鳥取県,西伯郡大山町,古御堂,トットリケン,サイハクグンダイセンチョウ,コミドウ,鳥取県西伯郡大山町古御堂
6893223,鳥取県,西伯郡大山町,茶畑,トットリケン,サイハクグンダイセンチョウ,チャバタ,鳥取県西伯郡大山町茶畑
6893224,鳥取県,西伯郡大山町,高田,トットリケン,サイハクグンダイセンチョウ,タカタ,鳥取県西伯郡大山町高田
6893225,鳥取県,西伯郡大山町,押平,トットリケン,サイハクグンダイセンチョウ,オシナラ,鳥取県西伯郡大山町押平
6893226,鳥取県,西伯郡大山町,大塚,トットリケン,サイハクグンダイセンチョウ,オオツカ,鳥取県西伯郡大山町大塚
6893301,鳥取県,西伯郡大山町,福尾,トットリケン,サイハクグンダイセンチョウ,フクオ,鳥取県西伯郡大山町福尾
6893302,鳥取県,西伯郡大山町,上野,トットリケン,サイハクグンダイセンチョウ,ウエノ,鳥取県西伯郡大山町上野
6893303,鳥取県,西伯郡大山町,所子,トットリケン,サイハクグンダイセンチョウ,トコロゴ,鳥取県西伯郡大山町所子
6893304,鳥取県,西伯郡大山町,平木,トットリケン,サイハクグンダイセンチョウ,ヒラギ,鳥取県西伯郡大山町平木
6893305,鳥取県,西伯郡大山町,神原,トットリケン,サイハクグンダイセンチョウ,カンバラ,鳥取県西伯郡大山町神原
6893306,鳥取県,西伯郡大山町,中高,トットリケン,サイハクグンダイセンチョウ,ナカダカ,鳥取県西伯郡大山町中高
6893307,鳥取県,西伯郡大山町,野田,トットリケン,サイハクグンダイセンチョウ,ノダ,鳥取県西伯郡大山町野田
6893308,鳥取県,西伯郡大山町,清原,トットリケン,サイハクグンダイセンチョウ,キヨハラ,鳥取県西伯郡大山町清原
6893309,鳥取県,西伯郡大山町,国信,トットリケン,サイハクグンダイセンチョウ,クニノブ,鳥取県西伯郡大山町国信
6893311,鳥取県,西伯郡大山町,宮内,トットリケン,サイハクグンダイセンチョウ,ミヤウチ,鳥取県西伯郡大山町宮内
6893312,鳥取県,西伯郡大山町,坊領,トットリケン,サイハクグンダイセンチョウ,ボウリョウ,鳥取県西伯郡大山町坊領
6893313,鳥取県,西伯郡大山町,佐摩,トットリケン,サイハクグンダイセンチョウ,サマ,鳥取県西伯郡大山町佐摩
6893314,鳥取県,西伯郡大山町,今在家,トットリケン,サイハクグンダイセンチョウ,イマザイケ,鳥取県西伯郡大山町今在家
6893315,鳥取県,西伯郡大山町,前,トットリケン,サイハクグンダイセンチョウ,マエ,鳥取県西伯郡大山町前
6893316,鳥取県,西伯郡大山町,豊房,トットリケン,サイハクグンダイセンチョウ,トヨフサ,鳥取県西伯郡大山町豊房
6893317,鳥取県,西伯郡大山町,鈑戸,トットリケン,サイハクグンダイセンチョウ,タタラド,鳥取県西伯郡大山町鈑戸
6893318,鳥取県,西伯郡大山町,大山,トットリケン,サイハクグンダイセンチョウ,ダイセン,鳥取県西伯郡大山町大山
6893319,鳥取県,西伯郡大山町,赤松,トットリケン,サイハクグンダイセンチョウ,アカマツ,鳥取県西伯郡大山町赤松
6893321,鳥取県,西伯郡大山町,平,トットリケン,サイハクグンダイセンチョウ,ヒラ,鳥取県西伯郡大山町平
6893322,鳥取県,西伯郡大山町,長田,トットリケン,サイハクグンダイセンチョウ,ナガタ,鳥取県西伯郡大山町長田
6893323,鳥取県,西伯郡大山町,荘田,トットリケン,サイハクグンダイセンチョウ,ショウダ,鳥取県西伯郡大山町荘田
6893324,鳥取県,西伯郡大山町,妻木,トットリケン,サイハクグンダイセンチョウ,ムキ,鳥取県西伯郡大山町妻木
6893325,鳥取県,西伯郡大山町,富岡,トットリケン,サイハクグンダイセンチョウ,トミオカ,鳥取県西伯郡大山町富岡
6893326,鳥取県,西伯郡大山町,安原,トットリケン,サイハクグンダイセンチョウ,ヤスハラ,鳥取県西伯郡大山町安原
6893327,鳥取県,西伯郡大山町,保田,トットリケン,サイハクグンダイセンチョウ,ヤスダ,鳥取県西伯郡大山町保田
6893331,鳥取県,西伯郡大山町,末吉,トットリケン,サイハクグンダイセンチョウ,スエヨシ,鳥取県西伯郡大山町末吉
6893332,鳥取県,西伯郡大山町,末長,トットリケン,サイハクグンダイセンチョウ,スエナガ,鳥取県西伯郡大山町末長
6893333,鳥取県,西伯郡大山町,唐王,トットリケン,サイハクグンダイセンチョウ,トウノウ,鳥取県西伯郡大山町唐王
6893334,鳥取県,西伯郡大山町,稲光,トットリケン,サイハクグンダイセンチョウ,イナミツ,鳥取県西伯郡大山町稲光
6893335,鳥取県,西伯郡大山町,上万,トットリケン,サイハクグンダイセンチョウ,ジョウマン,鳥取県西伯郡大山町上万
6893336,鳥取県,西伯郡大山町,平田,トットリケン,サイハクグンダイセンチョウ,ヒラダ,鳥取県西伯郡大山町平田
6893401,鳥取県,米子市,淀江町今津,トットリケン,ヨナゴシ,ヨドエチョウイマヅ,鳥取県米子市淀江町今津
6893402,鳥取県,米子市,淀江町淀江,トットリケン,ヨナゴシ,ヨドエチョウヨドエ,鳥取県米子市淀江町淀江
6893403,鳥取県,米子市,淀江町西原,トットリケン,ヨナゴシ,ヨドエチョウニシバラ,鳥取県米子市淀江町西原
6893411,鳥取県,米子市,淀江町福岡,トットリケン,ヨナゴシ,ヨドエチョウフクオカ,鳥取県米子市淀江町福岡
6893412,鳥取県,米子市,淀江町稲吉,トットリケン,ヨナゴシ,ヨドエチョウイナヨシ,鳥取県米子市淀江町稲吉
6893413,鳥取県,米子市,淀江町本宮,トットリケン,ヨナゴシ,ヨドエチョウホングウ,鳥取県米子市淀江町本宮
6893414,鳥取県,米子市,淀江町西尾原,トットリケン,ヨナゴシ,ヨドエチョウニシオハラ,鳥取県米子市淀江町西尾原
6893415,鳥取県,米子市,淀江町富繁,トットリケン,ヨナゴシ,ヨドエチョウトミシゲ,鳥取県米子市淀江町富繁
6893416,鳥取県,米子市,淀江町福井,トットリケン,ヨナゴシ,ヨドエチョウフクイ,鳥取県米子市淀江町福井
6893417,鳥取県,米子市,淀江町中西尾,トットリケン,ヨナゴシ,ヨドエチョウナカニシオ,鳥取県米子市淀江町中西尾
6893418,鳥取県,米子市,淀江町高井谷,トットリケン,ヨナゴシ,ヨドエチョウタカイダニ,鳥取県米子市淀江町高井谷
6893421,鳥取県,米子市,淀江町福頼,トットリケン,ヨナゴシ,ヨドエチョウフクヨリ,鳥取県米子市淀江町福頼
6893422,鳥取県,米子市,淀江町平岡,トットリケン,ヨナゴシ,ヨドエチョウヒラオカ,鳥取県米子市淀江町平岡
6893423,鳥取県,米子市,淀江町小波,トットリケン,ヨナゴシ,ヨドエチョウコナミ,鳥取県米子市淀江町小波
6893424,鳥取県,米子市,淀江町中間,トットリケン,ヨナゴシ,ヨドエチョウナカマ,鳥取県米子市淀江町中間
6893425,鳥取県,米子市,淀江町佐陀,トットリケン,ヨナゴシ,ヨドエチョウサダ,鳥取県米子市淀江町佐陀
6893500,鳥取県,西伯郡日吉津村,,トットリケン,サイハクグンヒエヅソン,,鳥取県西伯郡日吉津村
6893511,鳥取県,米子市,下郷,トットリケン,ヨナゴシ,シモノゴウ,鳥取県米子市下郷
6893512,鳥取県,米子市,泉,トットリケン,ヨナゴシ,イズミ,鳥取県米子市泉
6893513,鳥取県,米子市,岡成,トットリケン,ヨナゴシ,オカナリ,鳥取県米子市岡成
6893514,鳥取県,米子市,尾高,トットリケン,ヨナゴシ,オダカ,鳥取県米子市尾高
6893515,鳥取県,米子市,赤井手,トットリケン,ヨナゴシ,アカイデ,鳥取県米子市赤井手
6893521,鳥取県,米子市,河岡,トットリケン,ヨナゴシ,カワオカ,鳥取県米子市河岡
6893522,鳥取県,米子市,日下,トットリケン,ヨナゴシ,クサカ,鳥取県米子市日下
6893523,鳥取県,米子市,福万,トットリケン,ヨナゴシ,フクマン,鳥取県米子市福万
6893524,鳥取県,米子市,石州府,トットリケン,ヨナゴシ,セキシュウフ,鳥取県米子市石州府
6893531,鳥取県,米子市,下新印,トットリケン,ヨナゴシ,シモシイ,鳥取県米子市下新印
6893532,鳥取県,米子市,上新印,トットリケン,ヨナゴシ,カミシイ,鳥取県米子市上新印
6893533,鳥取県,米子市,一部,トットリケン,ヨナゴシ,イチブ,鳥取県米子市一部
6893534,鳥取県,米子市,水浜,トットリケン,ヨナゴシ,ミズハマ,鳥取県米子市水浜
6893535,鳥取県,米子市,東八幡,トットリケン,ヨナゴシ,ヒガシヤワタ,鳥取県米子市東八幡
6893536,鳥取県,米子市,高島,トットリケン,ヨナゴシ,タカシマ,鳥取県米子市高島
6893537,鳥取県,米子市,古豊千,トットリケン,ヨナゴシ,コホウチ,鳥取県米子市古豊千
6893541,鳥取県,米子市,二本木,トットリケン,ヨナゴシ,ニホンギ,鳥取県米子市二本木
6893542,鳥取県,米子市,今在家,トットリケン,ヨナゴシ,イマザイケ,鳥取県米子市今在家
6893543,鳥取県,米子市,蚊屋,トットリケン,ヨナゴシ,カヤ,鳥取県米子市蚊屋
6893544,鳥取県,米子市,浦津,トットリケン,ヨナゴシ,ウラツ,鳥取県米子市浦津
6893545,鳥取県,米子市,吉岡,トットリケン,ヨナゴシ,ヨシオカ,鳥取県米子市吉岡
6893546,鳥取県,米子市,熊党,トットリケン,ヨナゴシ,クマントウ,鳥取県米子市熊党
6893547,鳥取県,米子市,流通町,トットリケン,ヨナゴシ,リュウツウチョウ,鳥取県米子市流通町
6893551,鳥取県,西伯郡日吉津村,今吉,トットリケン,サイハクグンヒエヅソン,イマヨシ,鳥取県西伯郡日吉津村今吉
6893552,鳥取県,西伯郡日吉津村,富吉,トットリケン,サイハクグンヒエヅソン,トミヨシ,鳥取県西伯郡日吉津村富吉
6893553,鳥取県,西伯郡日吉津村,日吉津,トットリケン,サイハクグンヒエヅソン,ヒエヅ,鳥取県西伯郡日吉津村日吉津
6894100,鳥取県,西伯郡伯耆町,,トットリケン,サイハクグンホウキチョウ,,鳥取県西伯郡伯耆町
6894101,鳥取県,西伯郡伯耆町,小林,トットリケン,サイハクグンホウキチョウ,コバヤシ,鳥取県西伯郡伯耆町小林
6894102,鳥取県,西伯郡伯耆町,大原,トットリケン,サイハクグンホウキチョウ,オオハラ,鳥取県西伯郡伯耆町大原
6894103,鳥取県,西伯郡伯耆町,真野,トットリケン,サイハクグンホウキチョウ,マノ,鳥取県西伯郡伯耆町真野
6894104,鳥取県,西伯郡伯耆町,番原,トットリケン,サイハクグンホウキチョウ,バンバラ,鳥取県西伯郡伯耆町番原
6894105,鳥取県,西伯郡伯耆町,久古,トットリケン,サイハクグンホウキチョウ,クゴ,鳥取県西伯郡伯耆町久古
6894106,鳥取県,西伯郡伯耆町,口別所,トットリケン,サイハクグンホウキチョウ,クチベッシヨ,鳥取県西伯郡伯耆町口別所
6894107,鳥取県,西伯郡伯耆町,須村,トットリケン,サイハクグンホウキチョウ,スムラ,鳥取県西伯郡伯耆町須村
6894108,鳥取県,西伯郡伯耆町,丸山,トットリケン,サイハクグンホウキチョウ,マルヤマ,鳥取県西伯郡伯耆町丸山
6894111,鳥取県,西伯郡伯耆町,清原,トットリケン,サイハクグンホウキチョウ,キヨハラ,鳥取県西伯郡伯耆町清原
6894112,鳥取県,西伯郡伯耆町,上細見,トットリケン,サイハクグンホウキチョウ,カミホソミ,鳥取県西伯郡伯耆町上細見
6894113,鳥取県,西伯郡伯耆町,小野,トットリケン,サイハクグンホウキチョウ,オノ,鳥取県西伯郡伯耆町小野
6894114,鳥取県,西伯郡伯耆町,立岩,トットリケン,サイハクグンホウキチョウ,タテイワ,鳥取県西伯郡伯耆町立岩
6894115,鳥取県,西伯郡伯耆町,小町,トットリケン,サイハクグンホウキチョウ,コマチ,鳥取県西伯郡伯耆町小町
6894121,鳥取県,西伯郡伯耆町,大殿,トットリケン,サイハクグンホウキチョウ,オオトノ,鳥取県西伯郡伯耆町大殿
6894122,鳥取県,西伯郡伯耆町,坂長,トットリケン,サイハクグンホウキチョウ,サカチョウ,鳥取県西伯郡伯耆町坂長
6894123,鳥取県,西伯郡伯耆町,岩屋谷,トットリケン,サイハクグンホウキチョウ,イワヤダニ,鳥取県西伯郡伯耆町岩屋谷
6894131,鳥取県,西伯郡伯耆町,吉定,トットリケン,サイハクグンホウキチョウ,ヨシサダ,鳥取県西伯郡伯耆町吉定
6894132,鳥取県,西伯郡伯耆町,岸本,トットリケン,サイハクグンホウキチョウ,キシモト,鳥取県西伯郡伯耆町岸本
6894133,鳥取県,西伯郡伯耆町,吉長,トットリケン,サイハクグンホウキチョウ,ヨシナガ,鳥取県西伯郡伯耆町吉長
6894134,鳥取県,西伯郡伯耆町,遠藤,トットリケン,サイハクグンホウキチョウ,エンドウ,鳥取県西伯郡伯耆町遠藤
6894135,鳥取県,西伯郡伯耆町,押口,トットリケン,サイハクグンホウキチョウ,オサエグチ,鳥取県西伯郡伯耆町押口
6894136,鳥取県,西伯郡伯耆町,福岡原,トットリケン,サイハクグンホウキチョウ,フクオカハラ,鳥取県西伯郡伯耆町福岡原
6894201,鳥取県,西伯郡伯耆町,溝口,トットリケン,サイハクグンホウキチョウ,ミゾクチ,鳥取県西伯郡伯耆町溝口
6894202,鳥取県,西伯郡伯耆町,長山,トットリケン,サイハクグンホウキチョウ,ナガヤマ,鳥取県西伯郡伯耆町長山
6894203,鳥取県,西伯郡伯耆町,貴住,トットリケン,サイハクグンホウキチョウ,キズミ,鳥取県西伯郡伯耆町貴住
6894204,鳥取県,西伯郡伯耆町,谷川,トットリケン,サイハクグンホウキチョウ,タニガワ,鳥取県西伯郡伯耆町谷川
6894205,鳥取県,西伯郡伯耆町,大倉,トットリケン,サイハクグンホウキチョウ,オオクラ,鳥取県西伯郡伯耆町大倉
6894206,鳥取県,西伯郡伯耆町,宮原,トットリケン,サイハクグンホウキチョウ,ミヤバラ,鳥取県西伯郡伯耆町宮原
6894207,鳥取県,西伯郡伯耆町,宇代,トットリケン,サイハクグンホウキチョウ,ウダイ,鳥取県西伯郡伯耆町宇代
6894211,鳥取県,西伯郡伯耆町,大江,トットリケン,サイハクグンホウキチョウ,オオエ,鳥取県西伯郡伯耆町大江
6894212,鳥取県,西伯郡伯耆町,上野,トットリケン,サイハクグンホウキチョウ,ウエノ,鳥取県西伯郡伯耆町上野
6894213,鳥取県,西伯郡伯耆町,金屋谷,トットリケン,サイハクグンホウキチョウ,カナヤダニ,鳥取県西伯郡伯耆町金屋谷
6894214,鳥取県,西伯郡伯耆町,岩立,トットリケン,サイハクグンホウキチョウ,イワタテ,鳥取県西伯郡伯耆町岩立
6894215,鳥取県,西伯郡伯耆町,大内,トットリケン,サイハクグンホウキチョウ,オオウチ,鳥取県西伯郡伯耆町大内
6894216,鳥取県,西伯郡伯耆町,福兼,トットリケン,サイハクグンホウキチョウ,フクカネ,鳥取県西伯郡伯耆町福兼
6894217,鳥取県,西伯郡伯耆町,添谷,トットリケン,サイハクグンホウキチョウ,ソエダニ,鳥取県西伯郡伯耆町添谷
6894221,鳥取県,西伯郡伯耆町,富江,トットリケン,サイハクグンホウキチョウ,トミエ,鳥取県西伯郡伯耆町富江
6894222,鳥取県,西伯郡伯耆町,大滝,トットリケン,サイハクグンホウキチョウ,オオタキ,鳥取県西伯郡伯耆町大滝
6894223,鳥取県,西伯郡伯耆町,栃原,トットリケン,サイハクグンホウキチョウ,トチバラ,鳥取県西伯郡伯耆町栃原
6894224,鳥取県,西伯郡伯耆町,根雨原,トットリケン,サイハクグンホウキチョウ,ネウバラ,鳥取県西伯郡伯耆町根雨原
6894225,鳥取県,西伯郡伯耆町,白水,トットリケン,サイハクグンホウキチョウ,シラミ,鳥取県西伯郡伯耆町白水
6894226,鳥取県,西伯郡伯耆町,大坂,トットリケン,サイハクグンホウキチョウ,オオサカ,鳥取県西伯郡伯耆町大坂
6894231,鳥取県,西伯郡伯耆町,船越,トットリケン,サイハクグンホウキチョウ,フナコシ,鳥取県西伯郡伯耆町船越
6894232,鳥取県,西伯郡伯耆町,福島,トットリケン,サイハクグンホウキチョウ,フクジマ,鳥取県西伯郡伯耆町福島
6894233,鳥取県,西伯郡伯耆町,二部,トットリケン,サイハクグンホウキチョウ,ニブ,鳥取県西伯郡伯耆町二部
6894234,鳥取県,西伯郡伯耆町,畑池,トットリケン,サイハクグンホウキチョウ,ハタイケ,鳥取県西伯郡伯耆町畑池
6894235,鳥取県,西伯郡伯耆町,福岡,トットリケン,サイハクグンホウキチョウ,フクオカ,鳥取県西伯郡伯耆町福岡
6894236,鳥取県,西伯郡伯耆町,焼杉,トットリケン,サイハクグンホウキチョウ,ヤケスギ,鳥取県西伯郡伯耆町焼杉
6894237,鳥取県,西伯郡伯耆町,福居,トットリケン,サイハクグンホウキチョウ,フクイ,鳥取県西伯郡伯耆町福居
6894241,鳥取県,西伯郡伯耆町,中祖,トットリケン,サイハクグンホウキチョウ,ナカゾ,鳥取県西伯郡伯耆町中祖
6894242,鳥取県,西伯郡伯耆町,古市,トットリケン,サイハクグンホウキチョウ,フルイチ,鳥取県西伯郡伯耆町古市
6894243,鳥取県,西伯郡伯耆町,荘,トットリケン,サイハクグンホウキチョウ,ショウ,鳥取県西伯郡伯耆町荘
6894244,鳥取県,西伯郡伯耆町,父原,トットリケン,サイハクグンホウキチョウ,チチバラ,鳥取県西伯郡伯耆町父原
6894245,鳥取県,西伯郡伯耆町,福吉,トットリケン,サイハクグンホウキチョウ,フクヨシ,鳥取県西伯郡伯耆町福吉
6894246,鳥取県,西伯郡伯耆町,三部,トットリケン,サイハクグンホウキチョウ,サンブ,鳥取県西伯郡伯耆町三部
6894400,鳥取県,日野郡江府町,,トットリケン,ヒノグンコウフチョウ,,鳥取県日野郡江府町
6894401,鳥取県,日野郡江府町,江尾,トットリケン,ヒノグンコウフチョウ,エビ,鳥取県日野郡江府町江尾
6894402,鳥取県,日野郡江府町,小江尾,トットリケン,ヒノグンコウフチョウ,コエビ,鳥取県日野郡江府町小江尾
6894403,鳥取県,日野郡江府町,久連,トットリケン,ヒノグンコウフチョウ,クレ,鳥取県日野郡江府町久連
6894411,鳥取県,日野郡江府町,武庫,トットリケン,ヒノグンコウフチョウ,ムコ,鳥取県日野郡江府町武庫
6894412,鳥取県,日野郡江府町,下安井,トットリケン,ヒノグンコウフチョウ,シモヤスイ,鳥取県日野郡江府町下安井
6894413,鳥取県,日野郡江府町,洲河崎,トットリケン,ヒノグンコウフチョウ,スガサキ,鳥取県日野郡江府町洲河崎
6894414,鳥取県,日野郡江府町,俣野,トットリケン,ヒノグンコウフチョウ,マタノ,鳥取県日野郡江府町俣野
6894421,鳥取県,日野郡江府町,宮市,トットリケン,ヒノグンコウフチョウ,ミヤイチ,鳥取県日野郡江府町宮市
6894422,鳥取県,日野郡江府町,杉谷,トットリケン,ヒノグンコウフチョウ,スギタニ,鳥取県日野郡江府町杉谷
6894423,鳥取県,日野郡江府町,美用,トットリケン,ヒノグンコウフチョウ,ミヨウ,鳥取県日野郡江府町美用
6894424,鳥取県,日野郡江府町,御机,トットリケン,ヒノグンコウフチョウ,ミツクエ,鳥取県日野郡江府町御机
6894425,鳥取県,日野郡江府町,下蚊屋,トットリケン,ヒノグンコウフチョウ,サガリカヤ,鳥取県日野郡江府町下蚊屋
6894426,鳥取県,日野郡江府町,助沢,トットリケン,ヒノグンコウフチョウ,スケサワ,鳥取県日野郡江府町助沢
6894431,鳥取県,日野郡江府町,佐川,トットリケン,ヒノグンコウフチョウ,サガワ,鳥取県日野郡江府町佐川
6894432,鳥取県,日野郡江府町,柿原,トットリケン,ヒノグンコウフチョウ,カキバラ,鳥取県日野郡江府町柿原
6894433,鳥取県,日野郡江府町,吉原,トットリケン,ヒノグンコウフチョウ,ヨシハラ,鳥取県日野郡江府町吉原
6894434,鳥取県,日野郡江府町,大河原,トットリケン,ヒノグンコウフチョウ,オオカワラ,鳥取県日野郡江府町大河原
6894435,鳥取県,日野郡江府町,貝田,トットリケン,ヒノグンコウフチョウ,カイダ,鳥取県日野郡江府町貝田
6894500,鳥取県,日野郡日野町,,トットリケン,ヒノグンヒノチョウ,,鳥取県日野郡日野町
6894501,鳥取県,日野郡日野町,貝原,トットリケン,ヒノグンヒノチョウ,カイハラ,鳥取県日野郡日野町貝原
6894502,鳥取県,日野郡日野町,三谷,トットリケン,ヒノグンヒノチョウ,ミタニ,鳥取県日野郡日野町三谷
6894503,鳥取県,日野郡日野町,根雨,トットリケン,ヒノグンヒノチョウ,ネウ,鳥取県日野郡日野町根雨
6894504,鳥取県,日野郡日野町,野田,トットリケン,ヒノグンヒノチョウ,ノタ,鳥取県日野郡日野町野田
6894505,鳥取県,日野郡日野町,舟場,トットリケン,ヒノグンヒノチョウ,フナバ,鳥取県日野郡日野町舟場
6894511,鳥取県,日野郡日野町,高尾,トットリケン,ヒノグンヒノチョウ,コオ,鳥取県日野郡日野町高尾
6894512,鳥取県,日野郡日野町,金持,トットリケン,ヒノグンヒノチョウ,カモチ,鳥取県日野郡日野町金持
6894513,鳥取県,日野郡日野町,板井原,トットリケン,ヒノグンヒノチョウ,イタイバラ,鳥取県日野郡日野町板井原
6894514,鳥取県,日野郡日野町,三土,トットリケン,ヒノグンヒノチョウ,ミツチ,鳥取県日野郡日野町三土
6894515,鳥取県,日野郡日野町,秋縄,トットリケン,ヒノグンヒノチョウ,アキツナ,鳥取県日野郡日野町秋縄
6894516,鳥取県,日野郡日野町,門谷,トットリケン,ヒノグンヒノチョウ,カドタニ,鳥取県日野郡日野町門谷
6894517,鳥取県,日野郡日野町,濁谷,トットリケン,ヒノグンヒノチョウ,ニゴタニ,鳥取県日野郡日野町濁谷
6894521,鳥取県,日野郡日野町,津地,トットリケン,ヒノグンヒノチョウ,ツチ,鳥取県日野郡日野町津地
6894522,鳥取県,日野郡日野町,本郷,トットリケン,ヒノグンヒノチョウ,ホンゴウ,鳥取県日野郡日野町本郷
6894523,鳥取県,日野郡日野町,榎市,トットリケン,ヒノグンヒノチョウ,エノキイチ,鳥取県日野郡日野町榎市
6894524,鳥取県,日野郡日野町,別所,トットリケン,ヒノグンヒノチョウ,ベッショ,鳥取県日野郡日野町別所
6894525,鳥取県,日野郡日野町,小原,トットリケン,ヒノグンヒノチョウ,コバラ,鳥取県日野郡日野町小原
6894526,鳥取県,日野郡日野町,下榎,トットリケン,ヒノグンヒノチョウ,シモエノキ,鳥取県日野郡日野町下榎
6894527,鳥取県,日野郡日野町,安原,トットリケン,ヒノグンヒノチョウ,ヤスハラ,鳥取県日野郡日野町安原
6895131,鳥取県,日野郡日野町,黒坂,トットリケン,ヒノグンヒノチョウ,クロサカ,鳥取県日野郡日野町黒坂
6895132,鳥取県,日野郡日野町,久住,トットリケン,ヒノグンヒノチョウ,クスミ,鳥取県日野郡日野町久住
6895133,鳥取県,日野郡日野町,下黒坂,トットリケン,ヒノグンヒノチョウ,シモグロサカ,鳥取県日野郡日野町下黒坂
6895134,鳥取県,日野郡日野町,下菅,トットリケン,ヒノグンヒノチョウ,シモスゲ,鳥取県日野郡日野町下菅
6895135,鳥取県,日野郡日野町,中菅,トットリケン,ヒノグンヒノチョウ,ナカスゲ,鳥取県日野郡日野町中菅
6895136,鳥取県,日野郡日野町,小河内,トットリケン,ヒノグンヒノチョウ,オゴウジ,鳥取県日野郡日野町小河内
6895137,鳥取県,日野郡日野町,上菅,トットリケン,ヒノグンヒノチョウ,カミスゲ,鳥取県日野郡日野町上菅
6895137,鳥取県,日野郡日野町,福長,トットリケン,ヒノグンヒノチョウ,フクナガ,鳥取県日野郡日野町福長
6895200,鳥取県,日野郡日南町,,トットリケン,ヒノグンニチナンチョウ,,鳥取県日野郡日南町
6895211,鳥取県,日野郡日南町,生山,トットリケン,ヒノグンニチナンチョウ,ショウヤマ,鳥取県日野郡日南町生山
6895212,鳥取県,日野郡日南町,霞,トットリケン,ヒノグンニチナンチョウ,カスミ,鳥取県日野郡日南町霞
6895213,鳥取県,日野郡日南町,丸山,トットリケン,ヒノグンニチナンチョウ,マルヤマ,鳥取県日野郡日南町丸山
6895214,鳥取県,日野郡日南町,三栄,トットリケン,ヒノグンニチナンチョウ,ミサカエ,鳥取県日野郡日南町三栄
6895215,鳥取県,日野郡日南町,矢戸,トットリケン,ヒノグンニチナンチョウ,ヤト,鳥取県日野郡日南町矢戸
6895216,鳥取県,日野郡日南町,宮内,トットリケン,ヒノグンニチナンチョウ,ミヤウチ,鳥取県日野郡日南町宮内
6895221,鳥取県,日野郡日南町,河上,トットリケン,ヒノグンニチナンチョウ,カワカミ,鳥取県日野郡日南町河上
6895222,鳥取県,日野郡日南町,萩原,トットリケン,ヒノグンニチナンチョウ,ハギハラ,鳥取県日野郡日南町萩原
6895223,鳥取県,日野郡日南町,上萩山,トットリケン,ヒノグンニチナンチョウ,カミハギヤマ,鳥取県日野郡日南町上萩山
6895224,鳥取県,日野郡日南町,多里,トットリケン,ヒノグンニチナンチョウ,タリ,鳥取県日野郡日南町多里
6895225,鳥取県,日野郡日南町,新屋,トットリケン,ヒノグンニチナンチョウ,ニイヤ,鳥取県日野郡日南町新屋
6895226,鳥取県,日野郡日南町,湯河,トットリケン,ヒノグンニチナンチョウ,ユカワ,鳥取県日野郡日南町湯河
6895531,鳥取県,日野郡日南町,印賀,トットリケン,ヒノグンニチナンチョウ,インガ,鳥取県日野郡日南町印賀
6895532,鳥取県,日野郡日南町,菅沢,トットリケン,ヒノグンニチナンチョウ,スゲザワ,鳥取県日野郡日南町菅沢
6895533,鳥取県,日野郡日南町,宝谷,トットリケン,ヒノグンニチナンチョウ,タカラダニ,鳥取県日野郡日南町宝谷
6895534,鳥取県,日野郡日南町,折渡,トットリケン,ヒノグンニチナンチョウ,オリワタリ,鳥取県日野郡日南町折渡
6895541,鳥取県,日野郡日南町,佐木谷,トットリケン,ヒノグンニチナンチョウ,サギダニ,鳥取県日野郡日南町佐木谷
6895542,鳥取県,日野郡日南町,福万来,トットリケン,ヒノグンニチナンチョウ,フクマキ,鳥取県日野郡日南町福万来
6895543,鳥取県,日野郡日南町,笠木,トットリケン,ヒノグンニチナンチョウ,カサギ,鳥取県日野郡日南町笠木
6895544,鳥取県,日野郡日南町,茶屋,トットリケン,ヒノグンニチナンチョウ,チャヤ,鳥取県日野郡日南町茶屋
6895545,鳥取県,日野郡日南町,福寿実,トットリケン,ヒノグンニチナンチョウ,フクスミ,鳥取県日野郡日南町福寿実
6895551,鳥取県,日野郡日南町,阿毘縁,トットリケン,ヒノグンニチナンチョウ,アビレ,鳥取県日野郡日南町阿毘縁
6895552,鳥取県,日野郡日南町,下阿毘縁,トットリケン,ヒノグンニチナンチョウ,シモアビレ,鳥取県日野郡日南町下阿毘縁
6895661,鳥取県,日野郡日南町,花口,トットリケン,ヒノグンニチナンチョウ,ハナグチ,鳥取県日野郡日南町花口
6895662,鳥取県,日野郡日南町,神戸上,トットリケン,ヒノグンニチナンチョウ,カドノカミ,鳥取県日野郡日南町神戸上
6895663,鳥取県,日野郡日南町,上石見,トットリケン,ヒノグンニチナンチョウ,カミイワミ,鳥取県日野郡日南町上石見
6895664,鳥取県,日野郡日南町,中石見,トットリケン,ヒノグンニチナンチョウ,ナカイワミ,鳥取県日野郡日南町中石見
6895665,鳥取県,日野郡日南町,下石見,トットリケン,ヒノグンニチナンチョウ,シモイワミ,鳥取県日野郡日南町下石見
6895666,鳥取県,日野郡日南町,三吉,トットリケン,ヒノグンニチナンチョウ,ミヨシ,鳥取県日野郡日南町三吉
6895671,鳥取県,日野郡日南町,福塚,トットリケン,ヒノグンニチナンチョウ,フクヅカ,鳥取県日野郡日南町福塚
6895672,鳥取県,日野郡日南町,神福,トットリケン,ヒノグンニチナンチョウ,カミフク,鳥取県日野郡日南町神福
6895673,鳥取県,日野郡日南町,豊栄,トットリケン,ヒノグンニチナンチョウ,トヨサカエ,鳥取県日野郡日南町豊栄
