zipcode,prefecture_name,city,town,prefecture_kana,city_kana,town_kana,normalized_address
6840100,島根県,隠岐郡知夫村,,シマネケン,オキグンチブムラ,,島根県隠岐郡知夫村
6840101,島根県,隠岐郡知夫村,大江,シマネケン,オキグンチブムラ,オオエ,島根県隠岐郡知夫村大江
6840102,島根県,隠岐郡知夫村,郡,シマネケン,オキグンチブムラ,コオリ,島根県隠岐郡知夫村郡
6840103,島根県,隠岐郡知夫村,多沢,シマネケン,オキグンチブムラ,タタク,島根県隠岐郡知夫村多沢
6840104,島根県,隠岐郡知夫村,薄毛,シマネケン,オキグンチブムラ,ウスゲ,島根県隠岐郡知夫村薄毛
6840105,島根県,隠岐郡知夫村,仁夫,シマネケン,オキグンチブムラ,ニブ,島根県隠岐郡知夫村仁夫
6840106,島根県,隠岐郡知夫村,来居,シマネケン,オキグンチブムラ,クリイ,島根県隠岐郡知夫村来居
6840107,島根県,隠岐郡知夫村,古海,シマネケン,オキグンチブムラ,ウルミ,島根県隠岐郡知夫村古海
6840211,島根県,隠岐郡西ノ島町,浦郷,シマネケン,オキグンニシノシマチョウ,ウラゴウ,島根県隠岐郡西ノ島町浦郷
6840300,島根県,隠岐郡西ノ島町,,シマネケン,オキグンニシノシマチョウ,,島根県隠岐郡西ノ島町
6840301,島根県,隠岐郡西ノ島町,宇賀,シマネケン,オキグンニシノシマチョウ,ウカ,島根県隠岐郡西ノ島町宇賀
6840302,島根県,隠岐郡西ノ島町,別府,シマネケン,オキグンニシノシマチョウ,ベップ,島根県隠岐郡西ノ島町別府
6840303,島根県,隠岐郡西ノ島町,美田,シマネケン,オキグンニシノシマチョウ,ミタ,島根県隠岐郡西ノ島町美田
6840400,島根県,隠岐郡海士町,,シマネケン,オキグンアマチョウ,,島根県隠岐郡海士町
6840401,島根県,隠岐郡海士町,宇受賀,シマネケン,オキグンアマチョウ,ウズカ,島根県隠岐郡海士町宇受賀
6840402,島根県,隠岐郡海士町,豊田,シマネケン,オキグンアマチョウ,トヨダ,島根県隠岐郡海士町豊田
6840403,島根県,隠岐郡海士町,海士,シマネケン,オキグンアマチョウ,アマ,島根県隠岐郡海士町海士
6840404,島根県,隠岐郡海士町,福井,シマネケン,オキグンアマチョウ,フクイ,島根県隠岐郡海士町福井
6840411,島根県,隠岐郡海士町,知々井,シマネケン,オキグンアマチョウ,チチイ,島根県隠岐郡海士町知々井
6840412,島根県,隠岐郡海士町,御波,シマネケン,オキグンアマチョウ,ミナミ,島根県隠岐郡海士町御波
6840413,島根県,隠岐郡海士町,崎,シマネケン,オキグンアマチョウ,サキ,島根県隠岐郡海士町崎
6850000,島根県,隠岐郡隠岐の島町,,シマネケン,オキグンオキノシマチョウ,,島根県隠岐郡隠岐の島町
6850001,島根県,隠岐郡隠岐の島町,大久,シマネケン,オキグンオキノシマチョウ,オオク,島根県隠岐郡隠岐の島町大久
6850002,島根県,隠岐郡隠岐の島町,釜,シマネケン,オキグンオキノシマチョウ,カマ,島根県隠岐郡隠岐の島町釜
6850003,島根県,隠岐郡隠岐の島町,犬来,シマネケン,オキグンオキノシマチョウ,イヌグ,島根県隠岐郡隠岐の島町犬来
6850004,島根県,隠岐郡隠岐の島町,飯田,シマネケン,オキグンオキノシマチョウ,イイダ,島根県隠岐郡隠岐の島町飯田
6850005,島根県,隠岐郡隠岐の島町,東郷,シマネケン,オキグンオキノシマチョウ,トウゴウ,島根県隠岐郡隠岐の島町東郷
6850006,島根県,隠岐郡隠岐の島町,有木,シマネケン,オキグンオキノシマチョウ,アラキ,島根県隠岐郡隠岐の島町有木
6850007,島根県,隠岐郡隠岐の島町,池田,シマネケン,オキグンオキノシマチョウ,イケダ,島根県隠岐郡隠岐の島町池田
6850011,島根県,隠岐郡隠岐の島町,栄町,シマネケン,オキグンオキノシマチョウ,サカエマチ,島根県隠岐郡隠岐の島町栄町
6850012,島根県,隠岐郡隠岐の島町,東町,シマネケン,オキグンオキノシマチョウ,ヒガシマチ,島根県隠岐郡隠岐の島町東町
6850013,島根県,隠岐郡隠岐の島町,中町,シマネケン,オキグンオキノシマチョウ,ナカマチ,島根県隠岐郡隠岐の島町中町
6850014,島根県,隠岐郡隠岐の島町,西町,シマネケン,オキグンオキノシマチョウ,ニシマチ,島根県隠岐郡隠岐の島町西町
6850015,島根県,隠岐郡隠岐の島町,港町,シマネケン,オキグンオキノシマチョウ,ミナトマチ,島根県隠岐郡隠岐の島町港町
6850016,島根県,隠岐郡隠岐の島町,城北町,シマネケン,オキグンオキノシマチョウ,ジョウホクマチ,島根県隠岐郡隠岐の島町城北町
6850017,島根県,隠岐郡隠岐の島町,下西,シマネケン,オキグンオキノシマチョウ,シモニシ,島根県隠岐郡隠岐の島町下西
6850021,島根県,隠岐郡隠岐の島町,岬町,シマネケン,オキグンオキノシマチョウ,ミサキマチ,島根県隠岐郡隠岐の島町岬町
6850022,島根県,隠岐郡隠岐の島町,今津,シマネケン,オキグンオキノシマチョウ,イマヅ,島根県隠岐郡隠岐の島町今津
6850023,島根県,隠岐郡隠岐の島町,西田,シマネケン,オキグンオキノシマチョウ,ニシダ,島根県隠岐郡隠岐の島町西田
6850024,島根県,隠岐郡隠岐の島町,加茂,シマネケン,オキグンオキノシマチョウ,カモ,島根県隠岐郡隠岐の島町加茂
6850025,島根県,隠岐郡隠岐の島町,平,シマネケン,オキグンオキノシマチョウ,ヘイ,島根県隠岐郡隠岐の島町平
6850026,島根県,隠岐郡隠岐の島町,上西,シマネケン,オキグンオキノシマチョウ,カミニシ,島根県隠岐郡隠岐の島町上西
6850027,島根県,隠岐郡隠岐の島町,原田,シマネケン,オキグンオキノシマチョウ,ハラダ,島根県隠岐郡隠岐の島町原田
6850101,島根県,隠岐郡隠岐の島町,蔵田,シマネケン,オキグンオキノシマチョウ,クラタ,島根県隠岐郡隠岐の島町蔵田
6850102,島根県,隠岐郡隠岐の島町,油井,シマネケン,オキグンオキノシマチョウ,ユイ,島根県隠岐郡隠岐の島町油井
6850103,島根県,隠岐郡隠岐の島町,那久,シマネケン,オキグンオキノシマチョウ,ナグ,島根県隠岐郡隠岐の島町那久
6850104,島根県,隠岐郡隠岐の島町,都万,シマネケン,オキグンオキノシマチョウ,ツマ,島根県隠岐郡隠岐の島町都万
6850105,島根県,隠岐郡隠岐の島町,津戸,シマネケン,オキグンオキノシマチョウ,ツド,島根県隠岐郡隠岐の島町津戸
6850106,島根県,隠岐郡隠岐の島町,蛸木,シマネケン,オキグンオキノシマチョウ,タクギ,島根県隠岐郡隠岐の島町蛸木
6850301,島根県,隠岐郡隠岐の島町,北方,シマネケン,オキグンオキノシマチョウ,キタガタ,島根県隠岐郡隠岐の島町北方
6850302,島根県,隠岐郡隠岐の島町,苗代田,シマネケン,オキグンオキノシマチョウ,ナワシロダ,島根県隠岐郡隠岐の島町苗代田
6850303,島根県,隠岐郡隠岐の島町,南方,シマネケン,オキグンオキノシマチョウ,ミナミガタ,島根県隠岐郡隠岐の島町南方
6850304,島根県,隠岐郡隠岐の島町,代,シマネケン,オキグンオキノシマチョウ,シロ,島根県隠岐郡隠岐の島町代
6850305,島根県,隠岐郡隠岐の島町,久見,シマネケン,オキグンオキノシマチョウ,クミ,島根県隠岐郡隠岐の島町久見
6850306,島根県,隠岐郡隠岐の島町,伊後（向ケ丘）,シマネケン,オキグンオキノシマチョウ,イゴ(ムコウガオカ),島根県隠岐郡隠岐の島町伊後（向ケ丘）
6850311,島根県,隠岐郡隠岐の島町,郡,シマネケン,オキグンオキノシマチョウ,コオリ,島根県隠岐郡隠岐の島町郡
6850312,島根県,隠岐郡隠岐の島町,小路,シマネケン,オキグンオキノシマチョウ,コウジ,島根県隠岐郡隠岐の島町小路
6850313,島根県,隠岐郡隠岐の島町,那久路,シマネケン,オキグンオキノシマチョウ,ナグチ,島根県隠岐郡隠岐の島町那久路
6850314,島根県,隠岐郡隠岐の島町,山田,シマネケン,オキグンオキノシマチョウ,ヤマダ,島根県隠岐郡隠岐の島町山田
6850411,島根県,隠岐郡隠岐の島町,飯美,シマネケン,オキグンオキノシマチョウ,イイビ,島根県隠岐郡隠岐の島町飯美
6850412,島根県,隠岐郡隠岐の島町,布施,シマネケン,オキグンオキノシマチョウ,フセ,島根県隠岐郡隠岐の島町布施
6850413,島根県,隠岐郡隠岐の島町,卯敷,シマネケン,オキグンオキノシマチョウ,ウズキ,島根県隠岐郡隠岐の島町卯敷
6850431,島根県,隠岐郡隠岐の島町,伊後（その他）,シマネケン,オキグンオキノシマチョウ,イゴ(ソノタ),島根県隠岐郡隠岐の島町伊後（その他）
6850432,島根県,隠岐郡隠岐の島町,西村,シマネケン,オキグンオキノシマチョウ,ニシムラ,島根県隠岐郡隠岐の島町西村
6850433,島根県,隠岐郡隠岐の島町,湊,シマネケン,オキグンオキノシマチョウ,ミナト,島根県隠岐郡隠岐の島町湊
6850434,島根県,隠岐郡隠岐の島町,中村,シマネケン,オキグンオキノシマチョウ,ナカムラ,島根県隠岐郡隠岐の島町中村
6850435,島根県,隠岐郡隠岐の島町,元屋,シマネケン,オキグンオキノシマチョウ,ガンヤ,島根県隠岐郡隠岐の島町元屋
6900000,島根県,松江市,,シマネケン,マツエシ,,島根県松江市
6900001,島根県,松江市,東朝日町,シマネケン,マツエシ,ヒガシアサヒマチ,島根県松江市東朝日町
6900002,島根県,松江市,大正町,シマネケン,マツエシ,タイショウマチ,島根県松江市大正町
6900003,島根県,松江市,朝日町,シマネケン,マツエシ,アサヒマチ,島根県松江市朝日町
6900004,島根県,松江市,八軒屋町,シマネケン,マツエシ,ハチケンヤマチ,島根県松江市八軒屋町
6900005,島根県,松江市,和多見町,シマネケン,マツエシ,ワダミチョウ,島根県松江市和多見町
6900006,島根県,松江市,伊勢宮町,シマネケン,マツエシ,イセミヤチョウ,島根県松江市伊勢宮町
6900007,島根県,松江市,御手船場町,シマネケン,マツエシ,オテセンバチョウ,島根県松江市御手船場町
6900011,島根県,松江市,東津田町,シマネケン,マツエシ,ヒガシツダチョウ,島根県松江市東津田町
6900012,島根県,松江市,古志原,シマネケン,マツエシ,コシバラ,島根県松江市古志原
6900013,島根県,松江市,古志原町,シマネケン,マツエシ,コシバラチョウ,島根県松江市古志原町
6900014,島根県,松江市,八雲台,シマネケン,マツエシ,ヤクモダイ,島根県松江市八雲台
6900015,島根県,松江市,上乃木,シマネケン,マツエシ,アゲノギ,島根県松江市上乃木
6900017,島根県,松江市,西津田,シマネケン,マツエシ,ニシツダ,島根県松江市西津田
6900021,島根県,松江市,矢田町,シマネケン,マツエシ,ヤダチョウ,島根県松江市矢田町
6900022,島根県,松江市,青葉台,シマネケン,マツエシ,アオバダイ,島根県松江市青葉台
6900023,島根県,松江市,竹矢町,シマネケン,マツエシ,チクヤチョウ,島根県松江市竹矢町
6900024,島根県,松江市,馬潟町,シマネケン,マツエシ,マカタチョウ,島根県松江市馬潟町
6900025,島根県,松江市,八幡町,シマネケン,マツエシ,ヤワタチョウ,島根県松江市八幡町
6900026,島根県,松江市,富士見町,シマネケン,マツエシ,フジミチョウ,島根県松江市富士見町
6900027,島根県,松江市,意宇町,シマネケン,マツエシ,イウチョウ,島根県松江市意宇町
6900031,島根県,松江市,山代町,シマネケン,マツエシ,ヤマシロチョウ,島根県松江市山代町
6900032,島根県,松江市,大草町,シマネケン,マツエシ,オオクサチョウ,島根県松江市大草町
6900033,島根県,松江市,大庭町,シマネケン,マツエシ,オオバチョウ,島根県松江市大庭町
6900034,島根県,松江市,一の谷町,シマネケン,マツエシ,イチノタニチョウ,島根県松江市一の谷町
6900035,島根県,松江市,佐草町,シマネケン,マツエシ,サクサチョウ,島根県松江市佐草町
6900036,島根県,松江市,東忌部町,シマネケン,マツエシ,ヒガシインベチョウ,島根県松江市東忌部町
6900037,島根県,松江市,西忌部町,シマネケン,マツエシ,ニシインベチョウ,島根県松江市西忌部町
6900038,島根県,松江市,平成町,シマネケン,マツエシ,ヘイセイチョウ,島根県松江市平成町
6900041,島根県,松江市,幸町,シマネケン,マツエシ,サイワイマチ,島根県松江市幸町
6900042,島根県,松江市,栄町,シマネケン,マツエシ,サカエマチ,島根県松江市栄町
6900043,島根県,松江市,松尾町,シマネケン,マツエシ,マツオチョウ,島根県松江市松尾町
6900044,島根県,松江市,浜乃木,シマネケン,マツエシ,ハマノギ,島根県松江市浜乃木
6900045,島根県,松江市,乃白町,シマネケン,マツエシ,ノシラチョウ,島根県松江市乃白町
6900046,島根県,松江市,乃木福富町,シマネケン,マツエシ,ノギフクトミチョウ,島根県松江市乃木福富町
6900047,島根県,松江市,嫁島町,シマネケン,マツエシ,ヨメシマチョウ,島根県松江市嫁島町
6900048,島根県,松江市,西嫁島,シマネケン,マツエシ,ニシヨメシマ,島根県松江市西嫁島
6900049,島根県,松江市,袖師町,シマネケン,マツエシ,ソデシチョウ,島根県松江市袖師町
6900051,島根県,松江市,横浜町,シマネケン,マツエシ,ヨコバマチョウ,島根県松江市横浜町
6900052,島根県,松江市,竪町,シマネケン,マツエシ,タテマチ,島根県松江市竪町
6900053,島根県,松江市,本郷町,シマネケン,マツエシ,ホンゴウチョウ,島根県松江市本郷町
6900054,島根県,松江市,新雑賀町,シマネケン,マツエシ,シンサイカマチ,島根県松江市新雑賀町
6900055,島根県,松江市,津田町,シマネケン,マツエシ,ツダマチ,島根県松江市津田町
6900056,島根県,松江市,雑賀町,シマネケン,マツエシ,サイカマチ,島根県松江市雑賀町
6900057,島根県,松江市,新町,シマネケン,マツエシ,シンマチ,島根県松江市新町
6900058,島根県,松江市,田和山町,シマネケン,マツエシ,タワヤマチョウ,島根県松江市田和山町
6900061,島根県,松江市,白瀉本町,シマネケン,マツエシ,シラカタホンマチ,島根県松江市白瀉本町
6900062,島根県,松江市,魚町,シマネケン,マツエシ,ウオマチ,島根県松江市魚町
6900063,島根県,松江市,寺町,シマネケン,マツエシ,テラマチ,島根県松江市寺町
6900064,島根県,松江市,天神町,シマネケン,マツエシ,テンジンマチ,島根県松江市天神町
6900065,島根県,松江市,灘町,シマネケン,マツエシ,ナダマチ,島根県松江市灘町
6900121,島根県,松江市,古志町,シマネケン,マツエシ,コシチョウ,島根県松江市古志町
6900122,島根県,松江市,西浜佐陀町,シマネケン,マツエシ,ニシハマサダチョウ,島根県松江市西浜佐陀町
6900131,島根県,松江市,打出町,シマネケン,マツエシ,ウチデチョウ,島根県松江市打出町
6900132,島根県,松江市,西長江町,シマネケン,マツエシ,ニシナガエチョウ,島根県松江市西長江町
6900133,島根県,松江市,東長江町,シマネケン,マツエシ,ヒガシナガエチョウ,島根県松江市東長江町
6900141,島根県,松江市,荘成町,シマネケン,マツエシ,ショウジョウチョウ,島根県松江市荘成町
6900142,島根県,松江市,西谷町,シマネケン,マツエシ,ニシダニチョウ,島根県松江市西谷町
6900151,島根県,松江市,古曽志町,シマネケン,マツエシ,コソシチョウ,島根県松江市古曽志町
6900261,島根県,松江市,秋鹿町,シマネケン,マツエシ,アイカチョウ,島根県松江市秋鹿町
6900262,島根県,松江市,岡本町,シマネケン,マツエシ,オカモトチョウ,島根県松江市岡本町
6900263,島根県,松江市,大垣町,シマネケン,マツエシ,オオガキチョウ,島根県松江市大垣町
6900264,島根県,松江市,大野町,シマネケン,マツエシ,オオノチョウ,島根県松江市大野町
6900265,島根県,松江市,上大野町,シマネケン,マツエシ,カミオオノチョウ,島根県松江市上大野町
6900266,島根県,松江市,魚瀬町,シマネケン,マツエシ,オノゼチョウ,島根県松江市魚瀬町
6900321,島根県,松江市,鹿島町武代,シマネケン,マツエシ,カシマチョウタケダイ,島根県松江市鹿島町武代
6900322,島根県,松江市,鹿島町恵曇,シマネケン,マツエシ,カシマチョウエトモ,島根県松江市鹿島町恵曇
6900323,島根県,松江市,鹿島町手結,シマネケン,マツエシ,カシマチョウタユ,島根県松江市鹿島町手結
6900324,島根県,松江市,鹿島町片句,シマネケン,マツエシ,カシマチョウカタク,島根県松江市鹿島町片句
6900331,島根県,松江市,鹿島町佐陀宮内,シマネケン,マツエシ,カシマチョウサダミヤウチ,島根県松江市鹿島町佐陀宮内
6900332,島根県,松江市,鹿島町佐陀本郷,シマネケン,マツエシ,カシマチョウサダホンゴウ,島根県松江市鹿島町佐陀本郷
6900333,島根県,松江市,鹿島町古浦,シマネケン,マツエシ,カシマチョウコウラ,島根県松江市鹿島町古浦
6900401,島根県,松江市,島根町加賀,シマネケン,マツエシ,シマネチョウカカ,島根県松江市島根町加賀
6900402,島根県,松江市,島根町大芦,シマネケン,マツエシ,シマネチョウオワシ,島根県松江市島根町大芦
6900411,島根県,松江市,鹿島町御津,シマネケン,マツエシ,カシマチョウミツ,島根県松江市鹿島町御津
6900801,島根県,松江市,鹿島町上講武,シマネケン,マツエシ,カシマチョウカミコウブ,島根県松江市鹿島町上講武
6900802,島根県,松江市,鹿島町南講武,シマネケン,マツエシ,カシマチョウミナミコウブ,島根県松江市鹿島町南講武
6900803,島根県,松江市,鹿島町名分,シマネケン,マツエシ,カシマチョウミョウブン,島根県松江市鹿島町名分
6900804,島根県,松江市,鹿島町北講武,シマネケン,マツエシ,カシマチョウキタコウブ,島根県松江市鹿島町北講武
6900811,島根県,松江市,福原町,シマネケン,マツエシ,フクハラチョウ,島根県松江市福原町
6900812,島根県,松江市,川原町,シマネケン,マツエシ,カワハラチョウ,島根県松江市川原町
6900813,島根県,松江市,坂本町,シマネケン,マツエシ,サカモトチョウ,島根県松江市坂本町
6900814,島根県,松江市,東持田町,シマネケン,マツエシ,ヒガシモチダチョウ,島根県松江市東持田町
6900815,島根県,松江市,西持田町,シマネケン,マツエシ,ニシモチダチョウ,島根県松江市西持田町
6900816,島根県,松江市,北陵町,シマネケン,マツエシ,ホクリョウチョウ,島根県松江市北陵町
6900821,島根県,松江市,上東川津町,シマネケン,マツエシ,カミヒガシカワツチョウ,島根県松江市上東川津町
6900822,島根県,松江市,下東川津町,シマネケン,マツエシ,シモヒガシカワツチョウ,島根県松江市下東川津町
6900823,島根県,松江市,西川津町,シマネケン,マツエシ,ニシカワツチョウ,島根県松江市西川津町
6900824,島根県,松江市,菅田町,シマネケン,マツエシ,スガタチョウ,島根県松江市菅田町
6900825,島根県,松江市,学園,シマネケン,マツエシ,ガクエン,島根県松江市学園
6900826,島根県,松江市,学園南,シマネケン,マツエシ,ガクエンミナミ,島根県松江市学園南
6900831,島根県,松江市,大海崎町,シマネケン,マツエシ,オオミサキチョウ,島根県松江市大海崎町
6900832,島根県,松江市,大井町,シマネケン,マツエシ,オオイチョウ,島根県松江市大井町
6900833,島根県,松江市,福富町,シマネケン,マツエシ,フクトミチョウ,島根県松江市福富町
6900834,島根県,松江市,朝酌町,シマネケン,マツエシ,アサクミチョウ,島根県松江市朝酌町
6900835,島根県,松江市,西尾町,シマネケン,マツエシ,ニシオチョウ,島根県松江市西尾町
6900841,島根県,松江市,向島町,シマネケン,マツエシ,ムコウジマチョウ,島根県松江市向島町
6900842,島根県,松江市,東本町,シマネケン,マツエシ,ヒガシホンマチ,島根県松江市東本町
6900843,島根県,松江市,末次本町,シマネケン,マツエシ,スエツグホンマチ,島根県松江市末次本町
6900844,島根県,松江市,東茶町,シマネケン,マツエシ,ヒガシチャマチ,島根県松江市東茶町
6900845,島根県,松江市,西茶町,シマネケン,マツエシ,ニシチャマチ,島根県松江市西茶町
6900846,島根県,松江市,末次町,シマネケン,マツエシ,スエツグチョウ,島根県松江市末次町
6900847,島根県,松江市,片原町,シマネケン,マツエシ,カタハラチョウ,島根県松江市片原町
6900848,島根県,松江市,苧町,シマネケン,マツエシ,オマチ,島根県松江市苧町
6900851,島根県,松江市,堂形町,シマネケン,マツエシ,ドウガタチョウ,島根県松江市堂形町
6900852,島根県,松江市,千鳥町,シマネケン,マツエシ,チドリチョウ,島根県松江市千鳥町
6900854,島根県,松江市,南平台,シマネケン,マツエシ,ナンペイダイ,島根県松江市南平台
6900855,島根県,松江市,浜佐田町,シマネケン,マツエシ,ハマサダチョウ,島根県松江市浜佐田町
6900856,島根県,松江市,薦津町,シマネケン,マツエシ,コモヅチョウ,島根県松江市薦津町
6900859,島根県,松江市,国屋町,シマネケン,マツエシ,クヤチョウ,島根県松江市国屋町
6900860,島根県,松江市,西法吉町,シマネケン,マツエシ,ニシホッキチョウ,島根県松江市西法吉町
6900861,島根県,松江市,法吉町,シマネケン,マツエシ,ホッキチョウ,島根県松江市法吉町
6900862,島根県,松江市,比津が丘,シマネケン,マツエシ,ヒツガオカ,島根県松江市比津が丘
6900863,島根県,松江市,比津町,シマネケン,マツエシ,ヒツチョウ,島根県松江市比津町
6900864,島根県,松江市,東生馬町,シマネケン,マツエシ,ヒガシイクマチョウ,島根県松江市東生馬町
6900865,島根県,松江市,西生馬町,シマネケン,マツエシ,ニシイクマチョウ,島根県松江市西生馬町
6900866,島根県,松江市,下佐陀町,シマネケン,マツエシ,シモサダチョウ,島根県松江市下佐陀町
6900867,島根県,松江市,上佐陀町,シマネケン,マツエシ,カミサダチョウ,島根県松江市上佐陀町
6900868,島根県,松江市,淞北台,シマネケン,マツエシ,ショウホクダイ,島根県松江市淞北台
6900869,島根県,松江市,うぐいす台,シマネケン,マツエシ,ウグイスダイ,島根県松江市うぐいす台
6900871,島根県,松江市,東奥谷町,シマネケン,マツエシ,ヒガシオクダニチョウ,島根県松江市東奥谷町
6900872,島根県,松江市,奥谷町,シマネケン,マツエシ,オクダニチョウ,島根県松江市奥谷町
6900873,島根県,松江市,内中原町,シマネケン,マツエシ,ウチナカバラチョウ,島根県松江市内中原町
6900874,島根県,松江市,中原町,シマネケン,マツエシ,ナカハラチョウ,島根県松江市中原町
6900875,島根県,松江市,外中原町,シマネケン,マツエシ,ソトナカバラチョウ,島根県松江市外中原町
6900876,島根県,松江市,黒田町,シマネケン,マツエシ,クロダチョウ,島根県松江市黒田町
6900877,島根県,松江市,春日町,シマネケン,マツエシ,カスガチョウ,島根県松江市春日町
6900878,島根県,松江市,砂子町,シマネケン,マツエシ,スナゴチョウ,島根県松江市砂子町
6900881,島根県,松江市,石橋町,シマネケン,マツエシ,イシバシチョウ,島根県松江市石橋町
6900882,島根県,松江市,大輪町,シマネケン,マツエシ,ダイリンチョウ,島根県松江市大輪町
6900883,島根県,松江市,北田町,シマネケン,マツエシ,キタタマチ,島根県松江市北田町
6900884,島根県,松江市,南田町,シマネケン,マツエシ,ミナミタマチ,島根県松江市南田町
6900885,島根県,松江市,米子町,シマネケン,マツエシ,ヨナゴマチ,島根県松江市米子町
6900886,島根県,松江市,母衣町,シマネケン,マツエシ,ホロマチ,島根県松江市母衣町
6900887,島根県,松江市,殿町,シマネケン,マツエシ,トノマチ,島根県松江市殿町
6900888,島根県,松江市,北堀町,シマネケン,マツエシ,キタホリチョウ,島根県松江市北堀町
6901101,島根県,松江市,本庄町,シマネケン,マツエシ,ホンジョウチョウ,島根県松江市本庄町
6901102,島根県,松江市,上本庄町,シマネケン,マツエシ,カミホンジョウチョウ,島根県松江市上本庄町
6901103,島根県,松江市,新庄町,シマネケン,マツエシ,シンジョウチョウ,島根県松江市新庄町
6901104,島根県,松江市,上宇部尾町,シマネケン,マツエシ,カミウベオチョウ,島根県松江市上宇部尾町
6901111,島根県,松江市,枕木町,シマネケン,マツエシ,マクラギチョウ,島根県松江市枕木町
6901112,島根県,松江市,長海町,シマネケン,マツエシ,ナガミチョウ,島根県松江市長海町
6901113,島根県,松江市,手角町,シマネケン,マツエシ,タスミチョウ,島根県松江市手角町
6901114,島根県,松江市,野原町,シマネケン,マツエシ,ノバラチョウ,島根県松江市野原町
6901115,島根県,松江市,邑生町,シマネケン,マツエシ,オウチョウ,島根県松江市邑生町
6901211,島根県,松江市,島根町野井,シマネケン,マツエシ,シマネチョウノイ,島根県松江市島根町野井
6901212,島根県,松江市,島根町野波,シマネケン,マツエシ,シマネチョウノナミ,島根県松江市島根町野波
6901213,島根県,松江市,島根町多古,シマネケン,マツエシ,シマネチョウタコ,島根県松江市島根町多古
6901221,島根県,松江市,美保関町北浦,シマネケン,マツエシ,ミホノセキチョウキタウラ,島根県松江市美保関町北浦
6901222,島根県,松江市,美保関町千酌,シマネケン,マツエシ,ミホノセキチョウチクミ,島根県松江市美保関町千酌
6901223,島根県,松江市,美保関町笠浦,シマネケン,マツエシ,ミホノセキチョウカサウラ,島根県松江市美保関町笠浦
6901311,島根県,松江市,美保関町七類,シマネケン,マツエシ,ミホノセキチョウシチルイ,島根県松江市美保関町七類
6901312,島根県,松江市,美保関町森山（その他）,シマネケン,マツエシ,ミホノセキチョウモリヤマ(ソノタ),島根県松江市美保関町森山（その他）
6901313,島根県,松江市,美保関町下宇部尾,シマネケン,マツエシ,ミホノセキチョウシモウベオ,島根県松江市美保関町下宇部尾
6901314,島根県,松江市,美保関町菅浦,シマネケン,マツエシ,ミホノセキチョウスゲウラ,島根県松江市美保関町菅浦
6901315,島根県,松江市,美保関町片江,シマネケン,マツエシ,ミホノセキチョウカタエ,島根県松江市美保関町片江
6901401,島根県,松江市,八束町江島,シマネケン,マツエシ,ヤツカチョウエシマ,島根県松江市八束町江島
6901402,島根県,松江市,八束町馬渡,シマネケン,マツエシ,ヤツカチョウマワタシ,島根県松江市八束町馬渡
6901403,島根県,松江市,八束町遅江,シマネケン,マツエシ,ヤツカチョウオソエ,島根県松江市八束町遅江
6901404,島根県,松江市,八束町波入,シマネケン,マツエシ,ヤツカチョウハニュウ,島根県松江市八束町波入
6901405,島根県,松江市,八束町入江,シマネケン,マツエシ,ヤツカチョウニュウコウ,島根県松江市八束町入江
6901406,島根県,松江市,八束町二子,シマネケン,マツエシ,ヤツカチョウフタゴ,島根県松江市八束町二子
6901407,島根県,松江市,八束町寺津,シマネケン,マツエシ,ヤツカチョウテラヅ,島根県松江市八束町寺津
6901408,島根県,松江市,八束町亀尻,シマネケン,マツエシ,ヤツカチョウカメシリ,島根県松江市八束町亀尻
6901501,島根県,松江市,美保関町美保関,シマネケン,マツエシ,ミホノセキチョウミホノセキ,島根県松江市美保関町美保関
6901502,島根県,松江市,美保関町雲津,シマネケン,マツエシ,ミホノセキチョウクモヅ,島根県松江市美保関町雲津
6901503,島根県,松江市,美保関町諸喰,シマネケン,マツエシ,ミホノセキチョウモロクイ,島根県松江市美保関町諸喰
6901504,島根県,松江市,美保関町福浦,シマネケン,マツエシ,ミホノセキチョウフクウラ,島根県松江市美保関町福浦
6901505,島根県,松江市,美保関町森山（古金崎）,シマネケン,マツエシ,ミホノセキチョウモリヤマ(コガネザキ),島根県松江市美保関町森山（古金崎）
6902101,島根県,松江市,八雲町日吉,シマネケン,マツエシ,ヤクモチョウヒヨシ,島根県松江市八雲町日吉
6902102,島根県,松江市,八雲町東岩坂,シマネケン,マツエシ,ヤクモチョウヒガシイワサカ,島根県松江市八雲町東岩坂
6902103,島根県,松江市,八雲町西岩坂,シマネケン,マツエシ,ヤクモチョウニシイワサカ,島根県松江市八雲町西岩坂
6902104,島根県,松江市,八雲町熊野,シマネケン,マツエシ,ヤクモチョウクマノ,島根県松江市八雲町熊野
6902105,島根県,松江市,八雲町平原,シマネケン,マツエシ,ヤクモチョウヒラハラ,島根県松江市八雲町平原
6902311,島根県,雲南市,吉田町上山,シマネケン,ウンナンシ,ヨシダチョウウエヤマ,島根県雲南市吉田町上山
6902312,島根県,雲南市,吉田町曽木,シマネケン,ウンナンシ,ヨシダチョウソギ,島根県雲南市吉田町曽木
6902313,島根県,雲南市,吉田町深野,シマネケン,ウンナンシ,ヨシダチョウフカノ,島根県雲南市吉田町深野
6902314,島根県,雲南市,吉田町川手,シマネケン,ウンナンシ,ヨシダチョウカワテ,島根県雲南市吉田町川手
6902400,島根県,雲南市,,シマネケン,ウンナンシ,,島根県雲南市
6902401,島根県,雲南市,三刀屋町伊萱,シマネケン,ウンナンシ,ミトヤチョウイガヤ,島根県雲南市三刀屋町伊萱
6902402,島根県,雲南市,三刀屋町給下,シマネケン,ウンナンシ,ミトヤチョウキュウシタ,島根県雲南市三刀屋町給下
6902403,島根県,雲南市,三刀屋町下熊谷,シマネケン,ウンナンシ,ミトヤチョウシモクマタニ,島根県雲南市三刀屋町下熊谷
6902404,島根県,雲南市,三刀屋町三刀屋,シマネケン,ウンナンシ,ミトヤチョウミトヤ,島根県雲南市三刀屋町三刀屋
6902405,島根県,雲南市,三刀屋町古城,シマネケン,ウンナンシ,ミトヤチョウコジョウ,島根県雲南市三刀屋町古城
6902406,島根県,雲南市,三刀屋町高窪,シマネケン,ウンナンシ,ミトヤチョウタカクボ,島根県雲南市三刀屋町高窪
6902511,島根県,雲南市,三刀屋町上熊谷,シマネケン,ウンナンシ,ミトヤチョウカミクマタニ,島根県雲南市三刀屋町上熊谷
6902512,島根県,雲南市,三刀屋町多久和,シマネケン,ウンナンシ,ミトヤチョウタクワ,島根県雲南市三刀屋町多久和
6902513,島根県,雲南市,三刀屋町粟谷,シマネケン,ウンナンシ,ミトヤチョウアワダニ,島根県雲南市三刀屋町粟谷
6902521,島根県,雲南市,三刀屋町神代,シマネケン,ウンナンシ,ミトヤチョウコウジロ,島根県雲南市三刀屋町神代
6902522,島根県,雲南市,三刀屋町六重,シマネケン,ウンナンシ,ミトヤチョウムエ,島根県雲南市三刀屋町六重
6902523,島根県,雲南市,三刀屋町中野,シマネケン,ウンナンシ,ミトヤチョウナカノ,島根県雲南市三刀屋町中野
6902524,島根県,雲南市,三刀屋町須所,シマネケン,ウンナンシ,ミトヤチョウスゾ,島根県雲南市三刀屋町須所
6902525,島根県,雲南市,三刀屋町坂本（森谷）,シマネケン,ウンナンシ,ミトヤチョウサカモト(モリダニ),島根県雲南市三刀屋町坂本（森谷）
6902625,島根県,雲南市,三刀屋町坂本（その他）,シマネケン,ウンナンシ,ミトヤチョウサカモト(ソノタ),島根県雲南市三刀屋町坂本（その他）
6902631,島根県,雲南市,三刀屋町根波別所,シマネケン,ウンナンシ,ミトヤチョウネバベッシヨ,島根県雲南市三刀屋町根波別所
6902632,島根県,雲南市,三刀屋町里坊,シマネケン,ウンナンシ,ミトヤチョウサトボウ,島根県雲南市三刀屋町里坊
6902633,島根県,雲南市,三刀屋町殿河内,シマネケン,ウンナンシ,ミトヤチョウトノゴウチ,島根県雲南市三刀屋町殿河内
6902634,島根県,雲南市,三刀屋町乙加宮,シマネケン,ウンナンシ,ミトヤチョウオツカミヤ,島根県雲南市三刀屋町乙加宮
6902701,島根県,雲南市,掛合町掛合,シマネケン,ウンナンシ,カケヤチョウカケヤ,島根県雲南市掛合町掛合
6902702,島根県,雲南市,掛合町入間,シマネケン,ウンナンシ,カケヤチョウイルマ,島根県雲南市掛合町入間
6902703,島根県,雲南市,掛合町波多,シマネケン,ウンナンシ,カケヤチョウハタ,島根県雲南市掛合町波多
6902704,島根県,雲南市,掛合町穴見,シマネケン,ウンナンシ,カケヤチョウアナミ,島根県雲南市掛合町穴見
6902705,島根県,雲南市,掛合町松笠,シマネケン,ウンナンシ,カケヤチョウマツカサ,島根県雲南市掛合町松笠
6902706,島根県,雲南市,掛合町多根,シマネケン,ウンナンシ,カケヤチョウタネ,島根県雲南市掛合町多根
6902801,島根県,雲南市,吉田町吉田,シマネケン,ウンナンシ,ヨシダチョウヨシダ,島根県雲南市吉田町吉田
6902802,島根県,雲南市,吉田町民谷,シマネケン,ウンナンシ,ヨシダチョウミンダニ,島根県雲南市吉田町民谷
6903200,島根県,飯石郡飯南町,,シマネケン,イイシグンイイナンチョウ,,島根県飯石郡飯南町
6903203,島根県,飯石郡飯南町,都加賀,シマネケン,イイシグンイイナンチョウ,ツガカ,島根県飯石郡飯南町都加賀
6903204,島根県,飯石郡飯南町,佐見,シマネケン,イイシグンイイナンチョウ,サミ,島根県飯石郡飯南町佐見
6903205,島根県,飯石郡飯南町,長谷,シマネケン,イイシグンイイナンチョウ,ナガタニ,島根県飯石郡飯南町長谷
6903206,島根県,飯石郡飯南町,花栗,シマネケン,イイシグンイイナンチョウ,ハナグリ,島根県飯石郡飯南町花栗
6903207,島根県,飯石郡飯南町,頓原,シマネケン,イイシグンイイナンチョウ,トンバラ,島根県飯石郡飯南町頓原
6903311,島根県,飯石郡飯南町,獅子,シマネケン,イイシグンイイナンチョウ,シシ,島根県飯石郡飯南町獅子
6903312,島根県,飯石郡飯南町,八神,シマネケン,イイシグンイイナンチョウ,ハカミ,島根県飯石郡飯南町八神
6903313,島根県,飯石郡飯南町,志津見,シマネケン,イイシグンイイナンチョウ,シツミ,島根県飯石郡飯南町志津見
6903314,島根県,飯石郡飯南町,角井,シマネケン,イイシグンイイナンチョウ,ツノイ,島根県飯石郡飯南町角井
6903401,島根県,飯石郡飯南町,野萱,シマネケン,イイシグンイイナンチョウ,ノガヤ,島根県飯石郡飯南町野萱
6903402,島根県,飯石郡飯南町,下来島,シマネケン,イイシグンイイナンチョウ,シモキジマ,島根県飯石郡飯南町下来島
6903403,島根県,飯石郡飯南町,小田,シマネケン,イイシグンイイナンチョウ,オダ,島根県飯石郡飯南町小田
6903404,島根県,飯石郡飯南町,真木,シマネケン,イイシグンイイナンチョウ,マキ,島根県飯石郡飯南町真木
6903405,島根県,飯石郡飯南町,上来島,シマネケン,イイシグンイイナンチョウ,カミキジマ,島根県飯石郡飯南町上来島
6903511,島根県,飯石郡飯南町,赤名,シマネケン,イイシグンイイナンチョウ,アカナ,島根県飯石郡飯南町赤名
6903512,島根県,飯石郡飯南町,上赤名,シマネケン,イイシグンイイナンチョウ,カミアカナ,島根県飯石郡飯南町上赤名
6903513,島根県,飯石郡飯南町,下赤名,シマネケン,イイシグンイイナンチョウ,シモアカナ,島根県飯石郡飯南町下赤名
6903514,島根県,飯石郡飯南町,井戸谷,シマネケン,イイシグンイイナンチョウ,イドダニ,島根県飯石郡飯南町井戸谷
6903515,島根県,飯石郡飯南町,塩谷,シマネケン,イイシグンイイナンチョウ,シオダニ,島根県飯石郡飯南町塩谷
6903516,島根県,飯石郡飯南町,畑田,シマネケン,イイシグンイイナンチョウ,ハタタ,島根県飯石郡飯南町畑田
6910001,島根県,出雲市,平田町,シマネケン,イズモシ,ヒラタチョウ,島根県出雲市平田町
6910002,島根県,出雲市,西平田町,シマネケン,イズモシ,ニシヒラタチョウ,島根県出雲市西平田町
6910003,島根県,出雲市,灘分町,シマネケン,イズモシ,ナダブンチョウ,島根県出雲市灘分町
6910004,島根県,出雲市,島村町,シマネケン,イズモシ,シマムラチョウ,島根県出雲市島村町
6910011,島根県,出雲市,国富町,シマネケン,イズモシ,クニドミチョウ,島根県出雲市国富町
6910012,島根県,出雲市,西代町,シマネケン,イズモシ,ニシダイチョウ,島根県出雲市西代町
6910013,島根県,出雲市,美談町,シマネケン,イズモシ,ミダミチョウ,島根県出雲市美談町
6910014,島根県,出雲市,口宇賀町,シマネケン,イズモシ,クチウガチョウ,島根県出雲市口宇賀町
6910015,島根県,出雲市,西郷町,シマネケン,イズモシ,サイゴウチョウ,島根県出雲市西郷町
6910021,島根県,出雲市,奥宇賀町,シマネケン,イズモシ,オクウガチョウ,島根県出雲市奥宇賀町
6910022,島根県,出雲市,別所町,シマネケン,イズモシ,ベッシヨチョウ,島根県出雲市別所町
6910023,島根県,出雲市,唐川町,シマネケン,イズモシ,カラカワチョウ,島根県出雲市唐川町
6910024,島根県,出雲市,猪目町,シマネケン,イズモシ,イノメチョウ,島根県出雲市猪目町
6910025,島根県,出雲市,河下町,シマネケン,イズモシ,カワシモチョウ,島根県出雲市河下町
6910031,島根県,出雲市,東福町,シマネケン,イズモシ,トウフクチョウ,島根県出雲市東福町
6910032,島根県,出雲市,本庄町,シマネケン,イズモシ,ホンジョウチョウ,島根県出雲市本庄町
6910033,島根県,出雲市,万田町,シマネケン,イズモシ,マンダチョウ,島根県出雲市万田町
6910034,島根県,出雲市,久多見町,シマネケン,イズモシ,クタミチョウ,島根県出雲市久多見町
6910041,島根県,出雲市,小津町,シマネケン,イズモシ,コヅチョウ,島根県出雲市小津町
6910042,島根県,出雲市,十六島町,シマネケン,イズモシ,ウップルイチョウ,島根県出雲市十六島町
6910043,島根県,出雲市,釜浦町,シマネケン,イズモシ,カマウラチョウ,島根県出雲市釜浦町
6910044,島根県,出雲市,塩津町,シマネケン,イズモシ,シオツチョウ,島根県出雲市塩津町
6910045,島根県,出雲市,美保町,シマネケン,イズモシ,ミホチョウ,島根県出雲市美保町
6910051,島根県,出雲市,坂浦町,シマネケン,イズモシ,サカウラチョウ,島根県出雲市坂浦町
6910052,島根県,出雲市,小伊津町,シマネケン,イズモシ,コイヅチョウ,島根県出雲市小伊津町
6910053,島根県,出雲市,三津町,シマネケン,イズモシ,ミツチョウ,島根県出雲市三津町
6910061,島根県,出雲市,多久町,シマネケン,イズモシ,タクチョウ,島根県出雲市多久町
6910062,島根県,出雲市,多久谷町,シマネケン,イズモシ,タクダニチョウ,島根県出雲市多久谷町
6910063,島根県,出雲市,岡田町,シマネケン,イズモシ,オカダチョウ,島根県出雲市岡田町
6910064,島根県,出雲市,上岡田町,シマネケン,イズモシ,カミオカダチョウ,島根県出雲市上岡田町
6910065,島根県,出雲市,東郷町,シマネケン,イズモシ,トウゴウチョウ,島根県出雲市東郷町
6910066,島根県,出雲市,野石谷町,シマネケン,イズモシ,ノイシダニチョウ,島根県出雲市野石谷町
6910071,島根県,出雲市,地合町,シマネケン,イズモシ,チゴウチョウ,島根県出雲市地合町
6910072,島根県,出雲市,野郷町,シマネケン,イズモシ,ノザトチョウ,島根県出雲市野郷町
6910073,島根県,出雲市,美野町,シマネケン,イズモシ,ヨシノチョウ,島根県出雲市美野町
6910074,島根県,出雲市,小境町,シマネケン,イズモシ,コザカイチョウ,島根県出雲市小境町
6910075,島根県,出雲市,鹿園寺町,シマネケン,イズモシ,ロクオンジチョウ,島根県出雲市鹿園寺町
6910076,島根県,出雲市,園町,シマネケン,イズモシ,ソノチョウ,島根県出雲市園町
6920000,島根県,安来市,,シマネケン,ヤスギシ,,島根県安来市
6920001,島根県,安来市,赤江町,シマネケン,ヤスギシ,アカエチョウ,島根県安来市赤江町
6920002,島根県,安来市,上坂田町,シマネケン,ヤスギシ,カミサカダチョウ,島根県安来市上坂田町
6920003,島根県,安来市,西赤江町,シマネケン,ヤスギシ,ニシアカエチョウ,島根県安来市西赤江町
6920004,島根県,安来市,久白町,シマネケン,ヤスギシ,クジラチョウ,島根県安来市久白町
6920005,島根県,安来市,日白町,シマネケン,ヤスギシ,ヒジラチョウ,島根県安来市日白町
6920006,島根県,安来市,西荒島町,シマネケン,ヤスギシ,ニシアラシマチョウ,島根県安来市西荒島町
6920007,島根県,安来市,荒島町,シマネケン,ヤスギシ,アラシマチョウ,島根県安来市荒島町
6920011,島根県,安来市,安来町,シマネケン,ヤスギシ,ヤスギチョウ,島根県安来市安来町
6920012,島根県,安来市,宮内町,シマネケン,ヤスギシ,ミヤウチチョウ,島根県安来市宮内町
6920013,島根県,安来市,月坂町,シマネケン,ヤスギシ,ツキザカチョウ,島根県安来市月坂町
6920014,島根県,安来市,飯島町,シマネケン,ヤスギシ,ハシマチョウ,島根県安来市飯島町
6920015,島根県,安来市,今津町,シマネケン,ヤスギシ,イマヅチョウ,島根県安来市今津町
6920016,島根県,安来市,東赤江町,シマネケン,ヤスギシ,ヒガシアカエチョウ,島根県安来市東赤江町
6920017,島根県,安来市,下坂田町,シマネケン,ヤスギシ,シモサカダチョウ,島根県安来市下坂田町
6920021,島根県,安来市,新十神町,シマネケン,ヤスギシ,シントカミチョウ,島根県安来市新十神町
6920022,島根県,安来市,南十神町,シマネケン,ヤスギシ,ミナミトカミチョウ,島根県安来市南十神町
6920023,島根県,安来市,黒井田町,シマネケン,ヤスギシ,クロイダチョウ,島根県安来市黒井田町
6920024,島根県,安来市,島田町,シマネケン,ヤスギシ,シマタチョウ,島根県安来市島田町
6920025,島根県,安来市,穂日島町,シマネケン,ヤスギシ,ホヒジマチョウ,島根県安来市穂日島町
6920026,島根県,安来市,吉佐町,シマネケン,ヤスギシ,キサチョウ,島根県安来市吉佐町
6920027,島根県,安来市,門生町,シマネケン,ヤスギシ,カドウチョウ,島根県安来市門生町
6920028,島根県,安来市,汐手が丘,シマネケン,ヤスギシ,シオデガオカ,島根県安来市汐手が丘
6920031,島根県,安来市,佐久保町,シマネケン,ヤスギシ,サクボチョウ,島根県安来市佐久保町
6920032,島根県,安来市,九重町,シマネケン,ヤスギシ,クノウチョウ,島根県安来市九重町
6920033,島根県,安来市,清水町,シマネケン,ヤスギシ,キヨミズチョウ,島根県安来市清水町
6920034,島根県,安来市,宇賀荘町,シマネケン,ヤスギシ,ウカショウチョウ,島根県安来市宇賀荘町
6920035,島根県,安来市,清瀬町,シマネケン,ヤスギシ,キヨセチョウ,島根県安来市清瀬町
6920036,島根県,安来市,野方町,シマネケン,ヤスギシ,ノカタチョウ,島根県安来市野方町
6920037,島根県,安来市,吉岡町,シマネケン,ヤスギシ,ヨシオカチョウ,島根県安来市吉岡町
6920041,島根県,安来市,鳥木町,シマネケン,ヤスギシ,トリギチョウ,島根県安来市鳥木町
6920042,島根県,安来市,大塚町,シマネケン,ヤスギシ,オオツカチョウ,島根県安来市大塚町
6920043,島根県,安来市,上吉田町,シマネケン,ヤスギシ,カミヨシダチョウ,島根県安来市上吉田町
6920044,島根県,安来市,下吉田町,シマネケン,ヤスギシ,シモヨシダチョウ,島根県安来市下吉田町
6920045,島根県,安来市,柿谷町,シマネケン,ヤスギシ,カキダニチョウ,島根県安来市柿谷町
6920046,島根県,安来市,折坂町,シマネケン,ヤスギシ,オリサカチョウ,島根県安来市折坂町
6920047,島根県,安来市,早田町,シマネケン,ヤスギシ,ソウダチョウ,島根県安来市早田町
6920051,島根県,安来市,切川町,シマネケン,ヤスギシ,キレカワチョウ,島根県安来市切川町
6920052,島根県,安来市,赤崎町,シマネケン,ヤスギシ,アカサキチョウ,島根県安来市赤崎町
6920053,島根県,安来市,沢町,シマネケン,ヤスギシ,サワチョウ,島根県安来市沢町
6920054,島根県,安来市,利弘町,シマネケン,ヤスギシ,トシヒロチョウ,島根県安来市利弘町
6920055,島根県,安来市,飯生町,シマネケン,ヤスギシ,イナリチョウ,島根県安来市飯生町
6920056,島根県,安来市,清井町,シマネケン,ヤスギシ,キヨイチョウ,島根県安来市清井町
6920057,島根県,安来市,恵乃島町,シマネケン,ヤスギシ,エノシマチョウ,島根県安来市恵乃島町
6920058,島根県,安来市,西恵乃島町,シマネケン,ヤスギシ,ニシエノシマチョウ,島根県安来市西恵乃島町
6920061,島根県,安来市,中津町,シマネケン,ヤスギシ,ナカヅチョウ,島根県安来市中津町
6920062,島根県,安来市,実松町,シマネケン,ヤスギシ,サネマツチョウ,島根県安来市実松町
6920063,島根県,安来市,植田町,シマネケン,ヤスギシ,ウエダチョウ,島根県安来市植田町
6920064,島根県,安来市,古川町,シマネケン,ヤスギシ,フルカワチョウ,島根県安来市古川町
6920065,島根県,安来市,岩舟町,シマネケン,ヤスギシ,イワフネチョウ,島根県安来市岩舟町
6920066,島根県,安来市,飯梨町,シマネケン,ヤスギシ,イイナシチョウ,島根県安来市飯梨町
6920067,島根県,安来市,田頼町,シマネケン,ヤスギシ,タヨリチョウ,島根県安来市田頼町
6920071,島根県,安来市,亀島町,シマネケン,ヤスギシ,カメシマチョウ,島根県安来市亀島町
6920072,島根県,安来市,能義町,シマネケン,ヤスギシ,ノキチョウ,島根県安来市能義町
6920073,島根県,安来市,矢田町,シマネケン,ヤスギシ,ヤタチョウ,島根県安来市矢田町
6920074,島根県,安来市,中海町,シマネケン,ヤスギシ,ナカウミチョウ,島根県安来市中海町
6920075,島根県,安来市,神庭町,シマネケン,ヤスギシ,カンバチョウ,島根県安来市神庭町
6920077,島根県,安来市,西松井町,シマネケン,ヤスギシ,ニシマツイチョウ,島根県安来市西松井町
6920201,島根県,安来市,伯太町安田山形,シマネケン,ヤスギシ,ハクタチョウヤスダヤマガタ,島根県安来市伯太町安田山形
6920202,島根県,安来市,伯太町安田関,シマネケン,ヤスギシ,ハクタチョウヤスダセキ,島根県安来市伯太町安田関
6920203,島根県,安来市,伯太町未明,シマネケン,ヤスギシ,ハクタチョウホノカ,島根県安来市伯太町未明
6920204,島根県,安来市,伯太町安田宮内,シマネケン,ヤスギシ,ハクタチョウヤスダミヤウチ,島根県安来市伯太町安田宮内
6920205,島根県,安来市,伯太町安田中,シマネケン,ヤスギシ,ハクタチョウヤスダナカ,島根県安来市伯太町安田中
6920206,島根県,安来市,伯太町安田,シマネケン,ヤスギシ,ハクタチョウヤスダ,島根県安来市伯太町安田
6920207,島根県,安来市,伯太町東母里,シマネケン,ヤスギシ,ハクタチョウヒガシモリ,島根県安来市伯太町東母里
6920211,島根県,安来市,伯太町母里,シマネケン,ヤスギシ,ハクタチョウモリ,島根県安来市伯太町母里
6920212,島根県,安来市,伯太町西母里,シマネケン,ヤスギシ,ハクタチョウニシモリ,島根県安来市伯太町西母里
6920213,島根県,安来市,伯太町井尻,シマネケン,ヤスギシ,ハクタチョウイジリ,島根県安来市伯太町井尻
6920214,島根県,安来市,伯太町須山福冨,シマネケン,ヤスギシ,ハクタチョウスヤマフクドメ,島根県安来市伯太町須山福冨
6920215,島根県,安来市,伯太町高江寸次,シマネケン,ヤスギシ,ハクタチョウタカエスンジ,島根県安来市伯太町高江寸次
6920216,島根県,安来市,伯太町日次,シマネケン,ヤスギシ,ハクタチョウヒナミ,島根県安来市伯太町日次
6920217,島根県,安来市,伯太町横屋,シマネケン,ヤスギシ,ハクタチョウヨコヤ,島根県安来市伯太町横屋
6920218,島根県,安来市,伯太町峠之内,シマネケン,ヤスギシ,ハクタチョウタワノウチ,島根県安来市伯太町峠之内
6920321,島根県,安来市,伯太町赤屋,シマネケン,ヤスギシ,ハクタチョウアカヤ,島根県安来市伯太町赤屋
6920322,島根県,安来市,伯太町上小竹,シマネケン,ヤスギシ,ハクタチョウカミオダケ,島根県安来市伯太町上小竹
6920323,島根県,安来市,伯太町下小竹,シマネケン,ヤスギシ,ハクタチョウシモオダケ,島根県安来市伯太町下小竹
6920324,島根県,安来市,伯太町草野,シマネケン,ヤスギシ,ハクタチョウクサノ,島根県安来市伯太町草野
6920325,島根県,安来市,伯太町上十年畑,シマネケン,ヤスギシ,ハクタチョウカミジュウネンバタ,島根県安来市伯太町上十年畑
6920326,島根県,安来市,伯太町下十年畑,シマネケン,ヤスギシ,ハクタチョウシモジュウネンバタ,島根県安来市伯太町下十年畑
6920401,島根県,安来市,広瀬町石原,シマネケン,ヤスギシ,ヒロセチョウイシハラ,島根県安来市広瀬町石原
6920402,島根県,安来市,広瀬町町帳,シマネケン,ヤスギシ,ヒロセチョウマチチョウ,島根県安来市広瀬町町帳
6920403,島根県,安来市,広瀬町富田,シマネケン,ヤスギシ,ヒロセチョウトダ,島根県安来市広瀬町富田
6920404,島根県,安来市,広瀬町広瀬,シマネケン,ヤスギシ,ヒロセチョウヒロセ,島根県安来市広瀬町広瀬
6920405,島根県,安来市,広瀬町祖父谷,シマネケン,ヤスギシ,ヒロセチョウオジダニ,島根県安来市広瀬町祖父谷
6920411,島根県,安来市,広瀬町菅原（下田原）,シマネケン,ヤスギシ,ヒロセチョウスガハラ(シモタワラ),島根県安来市広瀬町菅原（下田原）
6920412,島根県,安来市,広瀬町下山佐,シマネケン,ヤスギシ,ヒロセチョウシモヤマサ,島根県安来市広瀬町下山佐
6920413,島根県,安来市,広瀬町上山佐,シマネケン,ヤスギシ,ヒロセチョウカミヤマサ,島根県安来市広瀬町上山佐
6920621,島根県,安来市,広瀬町菅原（その他）,シマネケン,ヤスギシ,ヒロセチョウスガハラ(ソノタ),島根県安来市広瀬町菅原（その他）
6920622,島根県,安来市,広瀬町宇波,シマネケン,ヤスギシ,ヒロセチョウウナミ,島根県安来市広瀬町宇波
6920623,島根県,安来市,広瀬町布部,シマネケン,ヤスギシ,ヒロセチョウフベ,島根県安来市広瀬町布部
6920624,島根県,安来市,広瀬町西谷,シマネケン,ヤスギシ,ヒロセチョウニシダニ,島根県安来市広瀬町西谷
6920625,島根県,安来市,広瀬町奥田原,シマネケン,ヤスギシ,ヒロセチョウオクタワラ,島根県安来市広瀬町奥田原
6920731,島根県,安来市,広瀬町西比田,シマネケン,ヤスギシ,ヒロセチョウニシヒダ,島根県安来市広瀬町西比田
6920732,島根県,安来市,広瀬町梶福留,シマネケン,ヤスギシ,ヒロセチョウカジフクドメ,島根県安来市広瀬町梶福留
6920733,島根県,安来市,広瀬町東比田,シマネケン,ヤスギシ,ヒロセチョウヒガシヒダ,島根県安来市広瀬町東比田
6930000,島根県,出雲市,,シマネケン,イズモシ,,島根県出雲市
6930001,島根県,出雲市,今市町,シマネケン,イズモシ,イマイチチョウ,島根県出雲市今市町
6930002,島根県,出雲市,今市町北本町,シマネケン,イズモシ,イマイチチョウキタホンマチ,島根県出雲市今市町北本町
6930003,島根県,出雲市,今市町南本町,シマネケン,イズモシ,イマイチチョウミナミホンマチ,島根県出雲市今市町南本町
6930004,島根県,出雲市,渡橋町,シマネケン,イズモシ,ワタリハシチョウ,島根県出雲市渡橋町
6930005,島根県,出雲市,天神町,シマネケン,イズモシ,テンジンチョウ,島根県出雲市天神町
6930006,島根県,出雲市,白枝町,シマネケン,イズモシ,シロエダチョウ,島根県出雲市白枝町
6930007,島根県,出雲市,駅北町,シマネケン,イズモシ,エキキタマチ,島根県出雲市駅北町
6930008,島根県,出雲市,駅南町,シマネケン,イズモシ,エキミナミマチ,島根県出雲市駅南町
6930011,島根県,出雲市,大津町,シマネケン,イズモシ,オオツチョウ,島根県出雲市大津町
6930012,島根県,出雲市,大津新崎町,シマネケン,イズモシ,オオツシンザキチョウ,島根県出雲市大津新崎町
6930013,島根県,出雲市,荻杼町,シマネケン,イズモシ,オギトチチョウ,島根県出雲市荻杼町
6930014,島根県,出雲市,武志町,シマネケン,イズモシ,タケシチョウ,島根県出雲市武志町
6930015,島根県,出雲市,大津朝倉,シマネケン,イズモシ,オオツアサクラ,島根県出雲市大津朝倉
6930017,島根県,出雲市,枝大津町,シマネケン,イズモシ,エダオオツチョウ,島根県出雲市枝大津町
6930021,島根県,出雲市,塩冶町,シマネケン,イズモシ,エンヤチョウ,島根県出雲市塩冶町
6930022,島根県,出雲市,上塩冶町,シマネケン,イズモシ,カミエンヤチョウ,島根県出雲市上塩冶町
6930023,島根県,出雲市,塩冶有原町,シマネケン,イズモシ,エンヤアリハラチョウ,島根県出雲市塩冶有原町
6930024,島根県,出雲市,塩冶神前,シマネケン,イズモシ,エンヤカンマエ,島根県出雲市塩冶神前
6930025,島根県,出雲市,塩冶町南町,シマネケン,イズモシ,エンヤチョウミナミマチ,島根県出雲市塩冶町南町
6930026,島根県,出雲市,塩冶原町,シマネケン,イズモシ,エンヤハラマチ,島根県出雲市塩冶原町
6930027,島根県,出雲市,医大南町,シマネケン,イズモシ,イダイミナミマチ,島根県出雲市医大南町
6930028,島根県,出雲市,塩冶善行町,シマネケン,イズモシ,エンヤゼンコウチョウ,島根県出雲市塩冶善行町
6930029,島根県,出雲市,築山新町,シマネケン,イズモシ,ツキヤマシンマチ,島根県出雲市築山新町
6930031,島根県,出雲市,古志町,シマネケン,イズモシ,コシチョウ,島根県出雲市古志町
6930032,島根県,出雲市,下古志町,シマネケン,イズモシ,シモコシチョウ,島根県出雲市下古志町
6930033,島根県,出雲市,知井宮町,シマネケン,イズモシ,チイミヤチョウ,島根県出雲市知井宮町
6930034,島根県,出雲市,神門町,シマネケン,イズモシ,カンドチョウ,島根県出雲市神門町
6930035,島根県,出雲市,芦渡町,シマネケン,イズモシ,アシワタチョウ,島根県出雲市芦渡町
6930036,島根県,出雲市,平成町,シマネケン,イズモシ,ヘイセイチョウ,島根県出雲市平成町
6930037,島根県,出雲市,西新町,シマネケン,イズモシ,ニシシンマチ,島根県出雲市西新町
6930041,島根県,出雲市,西園町,シマネケン,イズモシ,ニシゾノチョウ,島根県出雲市西園町
6930042,島根県,出雲市,外園町,シマネケン,イズモシ,ソトゾノチョウ,島根県出雲市外園町
6930043,島根県,出雲市,長浜町,シマネケン,イズモシ,ナガハマチョウ,島根県出雲市長浜町
6930044,島根県,出雲市,荒茅町,シマネケン,イズモシ,アラカヤチョウ,島根県出雲市荒茅町
6930045,島根県,出雲市,東園町,シマネケン,イズモシ,ヒガシゾノチョウ,島根県出雲市東園町
6930046,島根県,出雲市,下横町,シマネケン,イズモシ,シモヨコチョウ,島根県出雲市下横町
6930051,島根県,出雲市,小山町,シマネケン,イズモシ,オヤマチョウ,島根県出雲市小山町
6930052,島根県,出雲市,松寄下町,シマネケン,イズモシ,マツヨリシモチョウ,島根県出雲市松寄下町
6930053,島根県,出雲市,高松町,シマネケン,イズモシ,タカマツチョウ,島根県出雲市高松町
6930054,島根県,出雲市,浜町,シマネケン,イズモシ,ハマチョウ,島根県出雲市浜町
6930055,島根県,出雲市,八島町,シマネケン,イズモシ,ヤシマチョウ,島根県出雲市八島町
6930056,島根県,出雲市,江田町,シマネケン,イズモシ,エタチョウ,島根県出雲市江田町
6930057,島根県,出雲市,常松町,シマネケン,イズモシ,ツネマツチョウ,島根県出雲市常松町
6930058,島根県,出雲市,矢野町,シマネケン,イズモシ,ヤノチョウ,島根県出雲市矢野町
6930061,島根県,出雲市,姫原町,シマネケン,イズモシ,ヒメバラチョウ,島根県出雲市姫原町
6930062,島根県,出雲市,中野町,シマネケン,イズモシ,ナカノチョウ,島根県出雲市中野町
6930063,島根県,出雲市,大塚町,シマネケン,イズモシ,オオツカチョウ,島根県出雲市大塚町
6930064,島根県,出雲市,里方町,シマネケン,イズモシ,サトカタチョウ,島根県出雲市里方町
6930065,島根県,出雲市,平野町,シマネケン,イズモシ,ヒラノチョウ,島根県出雲市平野町
6930066,島根県,出雲市,高岡町,シマネケン,イズモシ,タカオカチョウ,島根県出雲市高岡町
6930067,島根県,出雲市,矢尾町,シマネケン,イズモシ,ヤビチョウ,島根県出雲市矢尾町
6930068,島根県,出雲市,姫原（１〜４丁目）,シマネケン,イズモシ,ヒメバラ(1-4チョウメ),島根県出雲市姫原（1〜4-）
6930071,島根県,出雲市,稲岡町,シマネケン,イズモシ,イナオカチョウ,島根県出雲市稲岡町
6930072,島根県,出雲市,日下町,シマネケン,イズモシ,クサカチョウ,島根県出雲市日下町
6930073,島根県,出雲市,西林木町,シマネケン,イズモシ,ニシハヤシギチョウ,島根県出雲市西林木町
6930074,島根県,出雲市,東林木町,シマネケン,イズモシ,ヒガシハヤシギチョウ,島根県出雲市東林木町
6930081,島根県,出雲市,中野美保北,シマネケン,イズモシ,ナカノミホキタ,島根県出雲市中野美保北
6930082,島根県,出雲市,中野美保南,シマネケン,イズモシ,ナカノミホミナミ,島根県出雲市中野美保南
6930101,島根県,出雲市,上島町,シマネケン,イズモシ,カミシマチョウ,島根県出雲市上島町
6930102,島根県,出雲市,西谷町,シマネケン,イズモシ,ニシダニチョウ,島根県出雲市西谷町
6930103,島根県,出雲市,野尻町,シマネケン,イズモシ,ノジリチョウ,島根県出雲市野尻町
6930104,島根県,出雲市,稗原町,シマネケン,イズモシ,ヒエバラチョウ,島根県出雲市稗原町
6930105,島根県,出雲市,宇那手町,シマネケン,イズモシ,ウナテチョウ,島根県出雲市宇那手町
6930106,島根県,出雲市,船津町,シマネケン,イズモシ,フナツチョウ,島根県出雲市船津町
6930211,島根県,出雲市,馬木北町,シマネケン,イズモシ,マキキタマチ,島根県出雲市馬木北町
6930212,島根県,出雲市,馬木町,シマネケン,イズモシ,マキチョウ,島根県出雲市馬木町
6930213,島根県,出雲市,朝山町,シマネケン,イズモシ,アサヤマチョウ,島根県出雲市朝山町
6930214,島根県,出雲市,所原町,シマネケン,イズモシ,トコロハラチョウ,島根県出雲市所原町
6930215,島根県,出雲市,見々久町,シマネケン,イズモシ,ミミクチョウ,島根県出雲市見々久町
6930216,島根県,出雲市,乙立町,シマネケン,イズモシ,オッタチチョウ,島根県出雲市乙立町
6930501,島根県,出雲市,佐田町朝原,シマネケン,イズモシ,サダチョウアザバラ,島根県出雲市佐田町朝原
6930502,島根県,出雲市,佐田町原田,シマネケン,イズモシ,サダチョウハラダ,島根県出雲市佐田町原田
6930503,島根県,出雲市,佐田町須佐,シマネケン,イズモシ,サダチョウスサ,島根県出雲市佐田町須佐
6930504,島根県,出雲市,佐田町大呂,シマネケン,イズモシ,サダチョウオオロ,島根県出雲市佐田町大呂
6930505,島根県,出雲市,佐田町吉野,シマネケン,イズモシ,サダチョウヨシノ,島根県出雲市佐田町吉野
6930506,島根県,出雲市,佐田町反辺,シマネケン,イズモシ,サダチョウタンベ,島根県出雲市佐田町反辺
6930511,島根県,出雲市,佐田町八幡原,シマネケン,イズモシ,サダチョウヤワタバラ,島根県出雲市佐田町八幡原
6930512,島根県,出雲市,佐田町東村,シマネケン,イズモシ,サダチョウヒガシムラ,島根県出雲市佐田町東村
6930521,島根県,出雲市,佐田町毛津,シマネケン,イズモシ,サダチョウケヅ,島根県出雲市佐田町毛津
6930522,島根県,出雲市,佐田町一窪田,シマネケン,イズモシ,サダチョウヒトクボタ,島根県出雲市佐田町一窪田
6930523,島根県,出雲市,佐田町佐津目,シマネケン,イズモシ,サダチョウサツメ,島根県出雲市佐田町佐津目
6930524,島根県,出雲市,佐田町高津屋,シマネケン,イズモシ,サダチョウタカツヤ,島根県出雲市佐田町高津屋
6930525,島根県,出雲市,佐田町下橋波,シマネケン,イズモシ,サダチョウシモハシナミ,島根県出雲市佐田町下橋波
6930526,島根県,出雲市,佐田町上橋波,シマネケン,イズモシ,サダチョウカミハシナミ,島根県出雲市佐田町上橋波
6940000,島根県,大田市,,シマネケン,オオダシ,,島根県大田市
6940001,島根県,大田市,山口町佐津目,シマネケン,オオダシ,ヤマグチチョウサツメ,島根県大田市山口町佐津目
6940002,島根県,大田市,山口町山口,シマネケン,オオダシ,ヤマグチチョウヤマグチ,島根県大田市山口町山口
6940003,島根県,大田市,三瓶町多根,シマネケン,オオダシ,サンベチョウタネ,島根県大田市三瓶町多根
6940004,島根県,大田市,三瓶町野城,シマネケン,オオダシ,サンベチョウノジロ,島根県大田市三瓶町野城
6940011,島根県,大田市,川合町川合,シマネケン,オオダシ,カワイチョウカワイ,島根県大田市川合町川合
6940012,島根県,大田市,川合町忍原,シマネケン,オオダシ,カワイチョウオシハラ,島根県大田市川合町忍原
6940013,島根県,大田市,川合町吉永,シマネケン,オオダシ,カワイチョウヨシナガ,島根県大田市川合町吉永
6940021,島根県,大田市,久利町行恒,シマネケン,オオダシ,クリチョウユキツネ,島根県大田市久利町行恒
6940022,島根県,大田市,久利町市原,シマネケン,オオダシ,クリチョウイチハラ,島根県大田市久利町市原
6940023,島根県,大田市,久利町佐摩,シマネケン,オオダシ,クリチョウサマ,島根県大田市久利町佐摩
6940024,島根県,大田市,久利町久利,シマネケン,オオダシ,クリチョウクリ,島根県大田市久利町久利
6940025,島根県,大田市,久利町松代,シマネケン,オオダシ,クリチョウマツシロ,島根県大田市久利町松代
6940031,島根県,大田市,静間町,シマネケン,オオダシ,シズマチョウ,島根県大田市静間町
6940032,島根県,大田市,大屋町鬼村,シマネケン,オオダシ,オオヤチョウオニムラ,島根県大田市大屋町鬼村
6940033,島根県,大田市,大屋町大国,シマネケン,オオダシ,オオヤチョウオオグニ,島根県大田市大屋町大国
6940034,島根県,大田市,大屋町大屋,シマネケン,オオダシ,オオヤチョウオオヤ,島根県大田市大屋町大屋
6940035,島根県,大田市,五十猛町,シマネケン,オオダシ,イソタケチョウ,島根県大田市五十猛町
6940041,島根県,大田市,長久町長久,シマネケン,オオダシ,ナガヒサチョウナガヒサ,島根県大田市長久町長久
6940042,島根県,大田市,長久町稲用,シマネケン,オオダシ,ナガヒサチョウイナモチ,島根県大田市長久町稲用
6940043,島根県,大田市,長久町延里,シマネケン,オオダシ,ナガヒサチョウノブサト,島根県大田市長久町延里
6940044,島根県,大田市,長久町土江,シマネケン,オオダシ,ナガヒサチョウツチエ,島根県大田市長久町土江
6940051,島根県,大田市,久手町波根西,シマネケン,オオダシ,クテチョウハネニシ,島根県大田市久手町波根西
6940052,島根県,大田市,久手町刺鹿,シマネケン,オオダシ,クテチョウサツカ,島根県大田市久手町刺鹿
6940053,島根県,大田市,鳥井町鳥越,シマネケン,オオダシ,トリイチョウトリゴエ,島根県大田市鳥井町鳥越
6940054,島根県,大田市,鳥井町鳥井,シマネケン,オオダシ,トリイチョウトリイ,島根県大田市鳥井町鳥井
6940061,島根県,大田市,富山町山中（押ケ峠）,シマネケン,オオダシ,トミヤマチョウヤマナカ(オシガト),島根県大田市富山町山中（押ケ峠）
6940062,島根県,大田市,大田町野城,シマネケン,オオダシ,オオダチョウノジロ,島根県大田市大田町野城
6940063,島根県,大田市,大田町吉永,シマネケン,オオダシ,オオダチョウヨシナガ,島根県大田市大田町吉永
6940064,島根県,大田市,大田町大田,シマネケン,オオダシ,オオダチョウオオダ,島根県大田市大田町大田
6940221,島根県,大田市,三瓶町上山,シマネケン,オオダシ,サンベチョウウヤマ,島根県大田市三瓶町上山
6940222,島根県,大田市,三瓶町志学,シマネケン,オオダシ,サンベチョウシガク,島根県大田市三瓶町志学
6940223,島根県,大田市,三瓶町池田,シマネケン,オオダシ,サンベチョウイケダ,島根県大田市三瓶町池田
6940224,島根県,大田市,三瓶町小屋原,シマネケン,オオダシ,サンベチョウコヤハラ,島根県大田市三瓶町小屋原
6940301,島根県,大田市,水上町荻原,シマネケン,オオダシ,ミナカミチョウオギハラ,島根県大田市水上町荻原
6940302,島根県,大田市,水上町福原,シマネケン,オオダシ,ミナカミチョウフクハラ,島根県大田市水上町福原
6940303,島根県,大田市,水上町白坏,シマネケン,オオダシ,ミナカミチョウシロツキ,島根県大田市水上町白坏
6940304,島根県,大田市,水上町三久須,シマネケン,オオダシ,ミナカミチョウミクス,島根県大田市水上町三久須
6940305,島根県,大田市,大森町,シマネケン,オオダシ,オオモリチョウ,島根県大田市大森町
6940431,島根県,大田市,祖式町,シマネケン,オオダシ,ソジキチョウ,島根県大田市祖式町
6940432,島根県,大田市,大代町新屋,シマネケン,オオダシ,オオシロチョウニイヤ,島根県大田市大代町新屋
6940433,島根県,大田市,大代町大家,シマネケン,オオダシ,オオシロチョウオオエ,島根県大田市大代町大家
6950000,島根県,江津市,,シマネケン,ゴウツシ,,島根県江津市
6950001,島根県,江津市,渡津町,シマネケン,ゴウツシ,ワタヅチョウ,島根県江津市渡津町
6950002,島根県,江津市,浅利町,シマネケン,ゴウツシ,アサリチョウ,島根県江津市浅利町
6950003,島根県,江津市,松川町下河戸,シマネケン,ゴウツシ,マツカワチョウシモカワド,島根県江津市松川町下河戸
6950004,島根県,江津市,松川町市村,シマネケン,ゴウツシ,マツカワチョウイチムラ,島根県江津市松川町市村
6950005,島根県,江津市,松川町長良,シマネケン,ゴウツシ,マツカワチョウナガラ,島根県江津市松川町長良
6950006,島根県,江津市,松川町八神,シマネケン,ゴウツシ,マツカワチョウヤカミ,島根県江津市松川町八神
6950007,島根県,江津市,松川町太田,シマネケン,ゴウツシ,マツカワチョウオオタ,島根県江津市松川町太田
6950011,島根県,江津市,江津町,シマネケン,ゴウツシ,ゴウツチョウ,島根県江津市江津町
6950012,島根県,江津市,金田町,シマネケン,ゴウツシ,カネタチョウ,島根県江津市金田町
6950013,島根県,江津市,川平町南川上,シマネケン,ゴウツシ,カワヒラチョウミナミカワノボリ,島根県江津市川平町南川上
6950014,島根県,江津市,川平町平田,シマネケン,ゴウツシ,カワヒラチョウヒラタ,島根県江津市川平町平田
6950015,島根県,江津市,島の星町,シマネケン,ゴウツシ,シマノホシチョウ,島根県江津市島の星町
6950016,島根県,江津市,嘉久志町,シマネケン,ゴウツシ,カクシチョウ,島根県江津市嘉久志町
6950017,島根県,江津市,和木町,シマネケン,ゴウツシ,ワキチョウ,島根県江津市和木町
6950021,島根県,江津市,都野津町,シマネケン,ゴウツシ,ツノヅチョウ,島根県江津市都野津町
6950022,島根県,江津市,二宮町羽代,シマネケン,ゴウツシ,ニノミヤチョウハシロ,島根県江津市二宮町羽代
6950023,島根県,江津市,二宮町神村,シマネケン,ゴウツシ,ニノミヤチョウカムラ,島根県江津市二宮町神村
6950024,島根県,江津市,二宮町神主,シマネケン,ゴウツシ,ニノミヤチョウカンヌシ,島根県江津市二宮町神主
6950101,島根県,浜田市,下有福町,シマネケン,ハマダシ,シモアリフクチョウ,島根県浜田市下有福町
6950102,島根県,浜田市,宇野町,シマネケン,ハマダシ,ウノチョウ,島根県浜田市宇野町
6950103,島根県,浜田市,大金町,シマネケン,ハマダシ,オオガネチョウ,島根県浜田市大金町
6950151,島根県,江津市,千田町,シマネケン,ゴウツシ,チダチョウ,島根県江津市千田町
6950152,島根県,江津市,跡市町,シマネケン,ゴウツシ,アトイチチョウ,島根県江津市跡市町
6950153,島根県,江津市,清見町,シマネケン,ゴウツシ,セイミチョウ,島根県江津市清見町
6950154,島根県,江津市,井沢町,シマネケン,ゴウツシ,イソウチョウ,島根県江津市井沢町
6950155,島根県,江津市,有福温泉町本明,シマネケン,ゴウツシ,アリフクオンセンチョウホンミョウ,島根県江津市有福温泉町本明
6950156,島根県,江津市,有福温泉町,シマネケン,ゴウツシ,アリフクオンセンチョウ,島根県江津市有福温泉町
6960000,島根県,邑智郡川本町,,シマネケン,オオチグンカワモトマチ,,島根県邑智郡川本町
6960001,島根県,邑智郡川本町,川本,シマネケン,オオチグンカワモトマチ,カワモト,島根県邑智郡川本町川本
6960002,島根県,邑智郡川本町,都賀行,シマネケン,オオチグンカワモトマチ,ツガユキ,島根県邑智郡川本町都賀行
6960003,島根県,邑智郡川本町,因原,シマネケン,オオチグンカワモトマチ,インバラ,島根県邑智郡川本町因原
6960004,島根県,邑智郡川本町,川下,シマネケン,オオチグンカワモトマチ,カワクダリ,島根県邑智郡川本町川下
6960005,島根県,邑智郡川本町,谷戸,シマネケン,オオチグンカワモトマチ,タンド,島根県邑智郡川本町谷戸
6960006,島根県,邑智郡川本町,久座仁,シマネケン,オオチグンカワモトマチ,クザニ,島根県邑智郡川本町久座仁
6960007,島根県,邑智郡川本町,多田,シマネケン,オオチグンカワモトマチ,タタ,島根県邑智郡川本町多田
6960011,島根県,邑智郡川本町,川内,シマネケン,オオチグンカワモトマチ,カワウチ,島根県邑智郡川本町川内
6960012,島根県,邑智郡川本町,小谷,シマネケン,オオチグンカワモトマチ,コタニ,島根県邑智郡川本町小谷
6960013,島根県,邑智郡川本町,馬野原,シマネケン,オオチグンカワモトマチ,マノハラ,島根県邑智郡川本町馬野原
6960100,島根県,邑智郡邑南町,,シマネケン,オオチグンオオナンチョウ,,島根県邑智郡邑南町
6960101,島根県,邑智郡邑南町,井原,シマネケン,オオチグンオオナンチョウ,イバラ,島根県邑智郡邑南町井原
6960102,島根県,邑智郡邑南町,中野,シマネケン,オオチグンオオナンチョウ,ナカノ,島根県邑智郡邑南町中野
6960103,島根県,邑智郡邑南町,矢上,シマネケン,オオチグンオオナンチョウ,ヤカミ,島根県邑智郡邑南町矢上
6960104,島根県,邑智郡邑南町,日和,シマネケン,オオチグンオオナンチョウ,ヒワ,島根県邑智郡邑南町日和
6960131,島根県,邑智郡邑南町,高水,シマネケン,オオチグンオオナンチョウ,コウズイ,島根県邑智郡邑南町高水
6960221,島根県,邑智郡邑南町,鱒渕,シマネケン,オオチグンオオナンチョウ,マスブチ,島根県邑智郡邑南町鱒渕
6960222,島根県,邑智郡邑南町,下田所,シマネケン,オオチグンオオナンチョウ,シモタドコロ,島根県邑智郡邑南町下田所
6960223,島根県,邑智郡邑南町,下亀谷,シマネケン,オオチグンオオナンチョウ,シモカメダニ,島根県邑智郡邑南町下亀谷
6960224,島根県,邑智郡邑南町,上亀谷,シマネケン,オオチグンオオナンチョウ,カミカメダニ,島根県邑智郡邑南町上亀谷
6960225,島根県,邑智郡邑南町,上田所,シマネケン,オオチグンオオナンチョウ,カミタドコロ,島根県邑智郡邑南町上田所
6960311,島根県,邑智郡邑南町,三日市,シマネケン,オオチグンオオナンチョウ,ミッカイチ,島根県邑智郡邑南町三日市
6960312,島根県,邑智郡邑南町,出羽,シマネケン,オオチグンオオナンチョウ,イズハ,島根県邑智郡邑南町出羽
6960313,島根県,邑智郡邑南町,山田,シマネケン,オオチグンオオナンチョウ,ヤマダ,島根県邑智郡邑南町山田
6960314,島根県,邑智郡邑南町,岩屋,シマネケン,オオチグンオオナンチョウ,イワヤ,島根県邑智郡邑南町岩屋
6960315,島根県,邑智郡邑南町,大林,シマネケン,オオチグンオオナンチョウ,オオバヤシ,島根県邑智郡邑南町大林
6960316,島根県,邑智郡邑南町,久喜,シマネケン,オオチグンオオナンチョウ,クキ,島根県邑智郡邑南町久喜
6960317,島根県,邑智郡邑南町,淀原,シマネケン,オオチグンオオナンチョウ,ヨドハラ,島根県邑智郡邑南町淀原
6960401,島根県,邑智郡邑南町,布施,シマネケン,オオチグンオオナンチョウ,フセ,島根県邑智郡邑南町布施
6960402,島根県,邑智郡邑南町,伏谷,シマネケン,オオチグンオオナンチョウ,フシタニ,島根県邑智郡邑南町伏谷
6960403,島根県,邑智郡邑南町,和田,シマネケン,オオチグンオオナンチョウ,ワダ,島根県邑智郡邑南町和田
6960404,島根県,邑智郡邑南町,原村,シマネケン,オオチグンオオナンチョウ,ハラムラ,島根県邑智郡邑南町原村
6960405,島根県,邑智郡邑南町,上原,シマネケン,オオチグンオオナンチョウ,カミハラ,島根県邑智郡邑南町上原
6960406,島根県,邑智郡邑南町,高見,シマネケン,オオチグンオオナンチョウ,タカミ,島根県邑智郡邑南町高見
6960407,島根県,邑智郡邑南町,八色石,シマネケン,オオチグンオオナンチョウ,ヤイロイシ,島根県邑智郡邑南町八色石
6960501,島根県,邑智郡邑南町,阿須那,シマネケン,オオチグンオオナンチョウ,アスナ,島根県邑智郡邑南町阿須那
6960502,島根県,邑智郡邑南町,木須田,シマネケン,オオチグンオオナンチョウ,キズタ,島根県邑智郡邑南町木須田
6960503,島根県,邑智郡邑南町,宇都井,シマネケン,オオチグンオオナンチョウ,ウヅイ,島根県邑智郡邑南町宇都井
6960504,島根県,邑智郡邑南町,今井,シマネケン,オオチグンオオナンチョウ,イマイ,島根県邑智郡邑南町今井
6960505,島根県,邑智郡邑南町,戸河内,シマネケン,オオチグンオオナンチョウ,トガウチ,島根県邑智郡邑南町戸河内
6960506,島根県,邑智郡邑南町,雪田,シマネケン,オオチグンオオナンチョウ,ユキタ,島根県邑智郡邑南町雪田
6960601,島根県,邑智郡邑南町,上田,シマネケン,オオチグンオオナンチョウ,ウエダ,島根県邑智郡邑南町上田
6960602,島根県,邑智郡邑南町,上口羽,シマネケン,オオチグンオオナンチョウ,カミクチバ,島根県邑智郡邑南町上口羽
6960603,島根県,邑智郡邑南町,下口羽,シマネケン,オオチグンオオナンチョウ,シモクチバ,島根県邑智郡邑南町下口羽
6960701,島根県,邑智郡美郷町,潮村,シマネケン,オオチグンミサトチョウ,ウシオムラ,島根県邑智郡美郷町潮村
6960702,島根県,邑智郡美郷町,上野,シマネケン,オオチグンミサトチョウ,カミノ,島根県邑智郡美郷町上野
6960703,島根県,邑智郡美郷町,都賀西,シマネケン,オオチグンミサトチョウ,ツガニシ,島根県邑智郡美郷町都賀西
6960704,島根県,邑智郡美郷町,都賀本郷,シマネケン,オオチグンミサトチョウ,ツガホンゴウ,島根県邑智郡美郷町都賀本郷
6960705,島根県,邑智郡美郷町,都賀行,シマネケン,オオチグンミサトチョウ,ツガユキ,島根県邑智郡美郷町都賀行
6960706,島根県,邑智郡美郷町,長藤,シマネケン,オオチグンミサトチョウ,ナガトウ,島根県邑智郡美郷町長藤
6960711,島根県,邑智郡美郷町,宮内,シマネケン,オオチグンミサトチョウ,ミヤウチ,島根県邑智郡美郷町宮内
6960712,島根県,邑智郡美郷町,比敷,シマネケン,オオチグンミサトチョウ,ヒジキ,島根県邑智郡美郷町比敷
6960713,島根県,邑智郡美郷町,村之郷,シマネケン,オオチグンミサトチョウ,ムラノゴウ,島根県邑智郡美郷町村之郷
6961131,島根県,邑智郡美郷町,別府,シマネケン,オオチグンミサトチョウ,ベップ,島根県邑智郡美郷町別府
6961132,島根県,邑智郡美郷町,志君,シマネケン,オオチグンミサトチョウ,シギミ,島根県邑智郡美郷町志君
6961133,島根県,邑智郡美郷町,小林,シマネケン,オオチグンミサトチョウ,コバヤシ,島根県邑智郡美郷町小林
6961134,島根県,邑智郡美郷町,惣森,シマネケン,オオチグンミサトチョウ,ソウモリ,島根県邑智郡美郷町惣森
6961135,島根県,邑智郡美郷町,小松地,シマネケン,オオチグンミサトチョウ,コマツジ,島根県邑智郡美郷町小松地
6961136,島根県,邑智郡美郷町,内田,シマネケン,オオチグンミサトチョウ,ウチダ,島根県邑智郡美郷町内田
6961137,島根県,邑智郡美郷町,櫨谷,シマネケン,オオチグンミサトチョウ,カタラガイ,島根県邑智郡美郷町櫨谷
6961141,島根県,邑智郡美郷町,京覧原,シマネケン,オオチグンミサトチョウ,キョランバラ,島根県邑智郡美郷町京覧原
6961142,島根県,邑智郡美郷町,久喜原,シマネケン,オオチグンミサトチョウ,クキバラ,島根県邑智郡美郷町久喜原
6961143,島根県,邑智郡美郷町,地頭所,シマネケン,オオチグンミサトチョウ,ジトウショ,島根県邑智郡美郷町地頭所
6961144,島根県,邑智郡美郷町,小谷,シマネケン,オオチグンミサトチョウ,コタニ,島根県邑智郡美郷町小谷
6961145,島根県,邑智郡美郷町,港,シマネケン,オオチグンミサトチョウ,ミナト,島根県邑智郡美郷町港
6961221,島根県,邑智郡川本町,北佐木,シマネケン,オオチグンカワモトマチ,キタサキ,島根県邑智郡川本町北佐木
6961222,島根県,邑智郡川本町,湯谷,シマネケン,オオチグンカワモトマチ,ユダニ,島根県邑智郡川本町湯谷
6961223,島根県,邑智郡川本町,三俣,シマネケン,オオチグンカワモトマチ,ミマタ,島根県邑智郡川本町三俣
6961224,島根県,邑智郡川本町,三原,シマネケン,オオチグンカワモトマチ,ミハラ,島根県邑智郡川本町三原
6961225,島根県,邑智郡川本町,南佐木,シマネケン,オオチグンカワモトマチ,ミナミサキ,島根県邑智郡川本町南佐木
6961226,島根県,邑智郡川本町,田窪,シマネケン,オオチグンカワモトマチ,タクボ,島根県邑智郡川本町田窪
6970000,島根県,浜田市,,シマネケン,ハマダシ,,島根県浜田市
6970001,島根県,浜田市,外ノ浦町,シマネケン,ハマダシ,トノウラチョウ,島根県浜田市外ノ浦町
6970002,島根県,浜田市,生湯町,シマネケン,ハマダシ,ウブユチョウ,島根県浜田市生湯町
6970003,島根県,浜田市,国分町,シマネケン,ハマダシ,コクブチョウ,島根県浜田市国分町
6970004,島根県,浜田市,久代町,シマネケン,ハマダシ,クシロチョウ,島根県浜田市久代町
6970005,島根県,浜田市,上府町,シマネケン,ハマダシ,カミコウチョウ,島根県浜田市上府町
6970006,島根県,浜田市,下府町,シマネケン,ハマダシ,シモコウチョウ,島根県浜田市下府町
6970007,島根県,浜田市,高佐町,シマネケン,ハマダシ,コウサチョウ,島根県浜田市高佐町
6970011,島根県,浜田市,後野町,シマネケン,ハマダシ,ウシロノチョウ,島根県浜田市後野町
6970012,島根県,浜田市,河内町,シマネケン,ハマダシ,コウチチョウ,島根県浜田市河内町
6970013,島根県,浜田市,三階町,シマネケン,ハマダシ,サンガイチョウ,島根県浜田市三階町
6970014,島根県,浜田市,長見町,シマネケン,ハマダシ,ナガミチョウ,島根県浜田市長見町
6970015,島根県,浜田市,竹迫町,シマネケン,ハマダシ,タケザコチョウ,島根県浜田市竹迫町
6970016,島根県,浜田市,野原町,シマネケン,ハマダシ,ノバラチョウ,島根県浜田市野原町
6970017,島根県,浜田市,原井町,シマネケン,ハマダシ,ハライチョウ,島根県浜田市原井町
6970021,島根県,浜田市,松原町,シマネケン,ハマダシ,マツバラチョウ,島根県浜田市松原町
6970022,島根県,浜田市,浅井町,シマネケン,ハマダシ,アサイチョウ,島根県浜田市浅井町
6970023,島根県,浜田市,長沢町,シマネケン,ハマダシ,ナガサワチョウ,島根県浜田市長沢町
6970024,島根県,浜田市,黒川町,シマネケン,ハマダシ,クロカワチョウ,島根県浜田市黒川町
6970025,島根県,浜田市,琵琶町,シマネケン,ハマダシ,ビワマチ,島根県浜田市琵琶町
6970026,島根県,浜田市,田町,シマネケン,ハマダシ,タマチ,島根県浜田市田町
6970027,島根県,浜田市,殿町,シマネケン,ハマダシ,トノマチ,島根県浜田市殿町
6970031,島根県,浜田市,紺屋町,シマネケン,ハマダシ,コンヤマチ,島根県浜田市紺屋町
6970032,島根県,浜田市,牛市町,シマネケン,ハマダシ,ウシイチチョウ,島根県浜田市牛市町
6970033,島根県,浜田市,朝日町,シマネケン,ハマダシ,アサヒマチ,島根県浜田市朝日町
6970034,島根県,浜田市,相生町,シマネケン,ハマダシ,アイオイチョウ,島根県浜田市相生町
6970035,島根県,浜田市,杉戸町,シマネケン,ハマダシ,スギドチョウ,島根県浜田市杉戸町
6970036,島根県,浜田市,天満町,シマネケン,ハマダシ,テンマチョウ,島根県浜田市天満町
6970037,島根県,浜田市,新町,シマネケン,ハマダシ,シンマチ,島根県浜田市新町
6970041,島根県,浜田市,片庭町,シマネケン,ハマダシ,カタニワチョウ,島根県浜田市片庭町
6970042,島根県,浜田市,錦町,シマネケン,ハマダシ,ニシキマチ,島根県浜田市錦町
6970043,島根県,浜田市,栄町,シマネケン,ハマダシ,サカエマチ,島根県浜田市栄町
6970044,島根県,浜田市,蛭子町,シマネケン,ハマダシ,エビスチョウ,島根県浜田市蛭子町
6970045,島根県,浜田市,京町,シマネケン,ハマダシ,キョウマチ,島根県浜田市京町
6970046,島根県,浜田市,真光町,シマネケン,ハマダシ,シンコウチョウ,島根県浜田市真光町
6970047,島根県,浜田市,清水町,シマネケン,ハマダシ,シミズチョウ,島根県浜田市清水町
6970051,島根県,浜田市,瀬戸ケ島町,シマネケン,ハマダシ,セトガシマチョウ,島根県浜田市瀬戸ケ島町
6970052,島根県,浜田市,港町,シマネケン,ハマダシ,ミナトマチ,島根県浜田市港町
6970053,島根県,浜田市,大辻町,シマネケン,ハマダシ,オオツジチョウ,島根県浜田市大辻町
6970054,島根県,浜田市,高田町,シマネケン,ハマダシ,タカタチョウ,島根県浜田市高田町
6970055,島根県,浜田市,元浜町,シマネケン,ハマダシ,モトハマチョウ,島根県浜田市元浜町
6970056,島根県,浜田市,原町,シマネケン,ハマダシ,ハラチョウ,島根県浜田市原町
6970057,島根県,浜田市,瀬戸見町,シマネケン,ハマダシ,セトミチョウ,島根県浜田市瀬戸見町
6970061,島根県,浜田市,笠柄町,シマネケン,ハマダシ,カサガラチョウ,島根県浜田市笠柄町
6970062,島根県,浜田市,熱田町,シマネケン,ハマダシ,アツタチョウ,島根県浜田市熱田町
6970063,島根県,浜田市,長浜町,シマネケン,ハマダシ,ナガハマチョウ,島根県浜田市長浜町
6970064,島根県,浜田市,内田町（百万騎）,シマネケン,ハマダシ,ウチダチョウ(ヒャクマンキ),島根県浜田市内田町（百万騎）
6970065,島根県,浜田市,内村町（十文字原）,シマネケン,ハマダシ,ナイムラチョウ(ジュウモンジバラ),島根県浜田市内村町（十文字原）
6970121,島根県,浜田市,金城町下来原,シマネケン,ハマダシ,カナギチョウシモクルバラ,島根県浜田市金城町下来原
6970122,島根県,浜田市,金城町上来原,シマネケン,ハマダシ,カナギチョウカミクルバラ,島根県浜田市金城町上来原
6970123,島根県,浜田市,金城町七条,シマネケン,ハマダシ,カナギチョウシチジョウ,島根県浜田市金城町七条
6970211,島根県,浜田市,金城町波佐,シマネケン,ハマダシ,カナギチョウハザ,島根県浜田市金城町波佐
6970212,島根県,浜田市,金城町長田,シマネケン,ハマダシ,カナギチョウナガタ,島根県浜田市金城町長田
6970213,島根県,浜田市,金城町小国,シマネケン,ハマダシ,カナギチョウオグニ,島根県浜田市金城町小国
6970301,島根県,浜田市,金城町追原,シマネケン,ハマダシ,カナギチョウオイバラ,島根県浜田市金城町追原
6970302,島根県,浜田市,金城町今福,シマネケン,ハマダシ,カナギチョウイマフク,島根県浜田市金城町今福
6970303,島根県,浜田市,金城町久佐,シマネケン,ハマダシ,カナギチョウクザ,島根県浜田市金城町久佐
6970304,島根県,浜田市,金城町宇津井,シマネケン,ハマダシ,カナギチョウウツイ,島根県浜田市金城町宇津井
6970305,島根県,浜田市,金城町入野,シマネケン,ハマダシ,カナギチョウイリノ,島根県浜田市金城町入野
6970311,島根県,浜田市,佐野町,シマネケン,ハマダシ,サノチョウ,島根県浜田市佐野町
6970312,島根県,浜田市,宇津井町,シマネケン,ハマダシ,ウツイチョウ,島根県浜田市宇津井町
6970421,島根県,浜田市,旭町山ノ内,シマネケン,ハマダシ,アサヒチョウヤマノウチ,島根県浜田市旭町山ノ内
6970422,島根県,浜田市,旭町本郷,シマネケン,ハマダシ,アサヒチョウホンゴウ,島根県浜田市旭町本郷
6970423,島根県,浜田市,旭町重富,シマネケン,ハマダシ,アサヒチョウシゲトミ,島根県浜田市旭町重富
6970424,島根県,浜田市,旭町和田,シマネケン,ハマダシ,アサヒチョウワダ,島根県浜田市旭町和田
6970425,島根県,浜田市,旭町今市,シマネケン,ハマダシ,アサヒチョウイマイチ,島根県浜田市旭町今市
6970426,島根県,浜田市,旭町丸原,シマネケン,ハマダシ,アサヒチョウマルバラ,島根県浜田市旭町丸原
6970427,島根県,浜田市,旭町木田,シマネケン,ハマダシ,アサヒチョウキタ,島根県浜田市旭町木田
6970431,島根県,浜田市,旭町坂本（その他）,シマネケン,ハマダシ,アサヒチョウサカモト(ソノタ),島根県浜田市旭町坂本（その他）
6970511,島根県,浜田市,旭町都川,シマネケン,ハマダシ,アサヒチョウツカワ,島根県浜田市旭町都川
6970512,島根県,浜田市,旭町来尾,シマネケン,ハマダシ,アサヒチョウキタオ,島根県浜田市旭町来尾
6970513,島根県,浜田市,旭町坂本（八ツ木）,シマネケン,ハマダシ,アサヒチョウサカモト(ヤツギ),島根県浜田市旭町坂本（八ツ木）
6970514,島根県,浜田市,旭町市木,シマネケン,ハマダシ,アサヒチョウイチギ,島根県浜田市旭町市木
6970631,島根県,邑智郡邑南町,市木,シマネケン,オオチグンオオナンチョウ,イチギ,島根県邑智郡邑南町市木
6971121,島根県,浜田市,弥栄町野坂,シマネケン,ハマダシ,ヤサカチョウノサカ,島根県浜田市弥栄町野坂
6971122,島根県,浜田市,弥栄町木都賀,シマネケン,ハマダシ,ヤサカチョウキツカ,島根県浜田市弥栄町木都賀
6971123,島根県,浜田市,弥栄町田野原,シマネケン,ハマダシ,ヤサカチョウタノハラ,島根県浜田市弥栄町田野原
6971201,島根県,浜田市,弥栄町栃木,シマネケン,ハマダシ,ヤサカチョウトチギ,島根県浜田市弥栄町栃木
6971202,島根県,浜田市,弥栄町小坂,シマネケン,ハマダシ,ヤサカチョウオサカ,島根県浜田市弥栄町小坂
6971203,島根県,浜田市,弥栄町高内,シマネケン,ハマダシ,ヤサカチョウタカウチ,島根県浜田市弥栄町高内
6971204,島根県,浜田市,弥栄町門田,シマネケン,ハマダシ,ヤサカチョウカドタ,島根県浜田市弥栄町門田
6971211,島根県,浜田市,弥栄町長安本郷,シマネケン,ハマダシ,ヤサカチョウナガヤスホンゴウ,島根県浜田市弥栄町長安本郷
6971212,島根県,浜田市,弥栄町三里,シマネケン,ハマダシ,ヤサカチョウミサト,島根県浜田市弥栄町三里
6971213,島根県,浜田市,弥栄町程原,シマネケン,ハマダシ,ヤサカチョウホドハラ,島根県浜田市弥栄町程原
6971214,島根県,浜田市,弥栄町大坪,シマネケン,ハマダシ,ヤサカチョウオオツボ,島根県浜田市弥栄町大坪
6971215,島根県,浜田市,弥栄町稲代,シマネケン,ハマダシ,ヤサカチョウイナシロ,島根県浜田市弥栄町稲代
6971321,島根県,浜田市,周布町,シマネケン,ハマダシ,スフチョウ,島根県浜田市周布町
6971322,島根県,浜田市,日脚町,シマネケン,ハマダシ,ヒナシチョウ,島根県浜田市日脚町
6971323,島根県,浜田市,内田町（その他）,シマネケン,ハマダシ,ウチダチョウ(ソノタ),島根県浜田市内田町（その他）
6971324,島根県,浜田市,穂出町,シマネケン,ハマダシ,ホノデチョウ,島根県浜田市穂出町
6971325,島根県,浜田市,吉地町,シマネケン,ハマダシ,ヨシジチョウ,島根県浜田市吉地町
6971326,島根県,浜田市,治和町,シマネケン,ハマダシ,チワチョウ,島根県浜田市治和町
6971327,島根県,浜田市,津摩町,シマネケン,ハマダシ,ツマチョウ,島根県浜田市津摩町
6971331,島根県,浜田市,内村町（その他）,シマネケン,ハマダシ,ナイムラチョウ(ソノタ),島根県浜田市内村町（その他）
6971332,島根県,浜田市,田橋町,シマネケン,ハマダシ,タバセチョウ,島根県浜田市田橋町
6971333,島根県,浜田市,鍋石町,シマネケン,ハマダシ,ナベイシチョウ,島根県浜田市鍋石町
6971334,島根県,浜田市,櫟田原町,シマネケン,ハマダシ,イチイタバラチョウ,島根県浜田市櫟田原町
6971335,島根県,浜田市,井野町,シマネケン,ハマダシ,イノチョウ,島根県浜田市井野町
6971336,島根県,浜田市,横山町,シマネケン,ハマダシ,ヨコヤマチョウ,島根県浜田市横山町
6971337,島根県,浜田市,西村町,シマネケン,ハマダシ,ニシムラチョウ,島根県浜田市西村町
6971338,島根県,浜田市,折居町,シマネケン,ハマダシ,オリイチョウ,島根県浜田市折居町
6980000,島根県,益田市,,シマネケン,マスダシ,,島根県益田市
6980001,島根県,益田市,久城町,シマネケン,マスダシ,クシロチョウ,島根県益田市久城町
6980002,島根県,益田市,下本郷町,シマネケン,マスダシ,シモホンゴウチョウ,島根県益田市下本郷町
6980003,島根県,益田市,乙吉町,シマネケン,マスダシ,オトヨシチョウ,島根県益田市乙吉町
6980004,島根県,益田市,東町,シマネケン,マスダシ,ヒガシマチ,島根県益田市東町
6980005,島根県,益田市,本町,シマネケン,マスダシ,ホンマチ,島根県益田市本町
6980006,島根県,益田市,三宅町,シマネケン,マスダシ,ミヤケチョウ,島根県益田市三宅町
6980007,島根県,益田市,昭和町,シマネケン,マスダシ,ショウワチョウ,島根県益田市昭和町
6980011,島根県,益田市,染羽町,シマネケン,マスダシ,ソメバチョウ,島根県益田市染羽町
6980012,島根県,益田市,大谷町,シマネケン,マスダシ,オオタニチョウ,島根県益田市大谷町
6980013,島根県,益田市,久々茂町,シマネケン,マスダシ,ククモチョウ,島根県益田市久々茂町
6980014,島根県,益田市,岩倉町,シマネケン,マスダシ,イワクラチョウ,島根県益田市岩倉町
6980015,島根県,益田市,栃山町,シマネケン,マスダシ,トチヤマチョウ,島根県益田市栃山町
6980016,島根県,益田市,土井町,シマネケン,マスダシ,ドイチョウ,島根県益田市土井町
6980017,島根県,益田市,七尾町,シマネケン,マスダシ,ナナオチョウ,島根県益田市七尾町
6980021,島根県,益田市,幸町,シマネケン,マスダシ,サイワイチョウ,島根県益田市幸町
6980022,島根県,益田市,有明町,シマネケン,マスダシ,アリアケチョウ,島根県益田市有明町
6980023,島根県,益田市,常盤町,シマネケン,マスダシ,トキワチョウ,島根県益田市常盤町
6980024,島根県,益田市,駅前町,シマネケン,マスダシ,エキマエチョウ,島根県益田市駅前町
6980025,島根県,益田市,あけぼの西町,シマネケン,マスダシ,アケボノニシマチ,島根県益田市あけぼの西町
6980026,島根県,益田市,あけぼの本町,シマネケン,マスダシ,アケボノホンマチ,島根県益田市あけぼの本町
6980027,島根県,益田市,あけぼの東町,シマネケン,マスダシ,アケボノヒガシマチ,島根県益田市あけぼの東町
6980031,島根県,益田市,多田町,シマネケン,マスダシ,タダチョウ,島根県益田市多田町
6980032,島根県,益田市,水分町,シマネケン,マスダシ,ミズワケチョウ,島根県益田市水分町
6980033,島根県,益田市,元町,シマネケン,マスダシ,モトマチ,島根県益田市元町
6980034,島根県,益田市,赤城町,シマネケン,マスダシ,アカギチョウ,島根県益田市赤城町
6980035,島根県,益田市,栄町,シマネケン,マスダシ,サカエマチ,島根県益田市栄町
6980036,島根県,益田市,須子町,シマネケン,マスダシ,スコチョウ,島根県益田市須子町
6980037,島根県,益田市,飯田町,シマネケン,マスダシ,イイダチョウ,島根県益田市飯田町
6980041,島根県,益田市,高津,シマネケン,マスダシ,タカツ,島根県益田市高津
6980041,島根県,益田市,高津町,シマネケン,マスダシ,タカツチョウ,島根県益田市高津町
6980042,島根県,益田市,中吉田町,シマネケン,マスダシ,ナカヨシダチョウ,島根県益田市中吉田町
6980043,島根県,益田市,中島町,シマネケン,マスダシ,ナカノシマチョウ,島根県益田市中島町
6980044,島根県,益田市,中須町,シマネケン,マスダシ,ナカズチョウ,島根県益田市中須町
6980045,島根県,益田市,かもしま北町,シマネケン,マスダシ,カモシマキタマチ,島根県益田市かもしま北町
6980046,島根県,益田市,かもしま東町,シマネケン,マスダシ,カモシマヒガシマチ,島根県益田市かもしま東町
6980047,島根県,益田市,かもしま西町,シマネケン,マスダシ,カモシマニシマチ,島根県益田市かもしま西町
6980051,島根県,益田市,内田町（石見空港）,シマネケン,マスダシ,ウチダチョウ(イワミクウコウ),島根県益田市内田町（石見空港）
6980201,島根県,益田市,美都町板井川,シマネケン,マスダシ,ミトチョウイタイガワ,島根県益田市美都町板井川
6980202,島根県,益田市,美都町宇津川,シマネケン,マスダシ,ミトチョウウヅカワ,島根県益田市美都町宇津川
6980203,島根県,益田市,美都町都茂,シマネケン,マスダシ,ミトチョウツモ,島根県益田市美都町都茂
6980204,島根県,益田市,美都町山本,シマネケン,マスダシ,ミトチョウヤマモト,島根県益田市美都町山本
6980205,島根県,益田市,美都町三谷,シマネケン,マスダシ,ミトチョウミタニ,島根県益田市美都町三谷
6980206,島根県,益田市,美都町久原,シマネケン,マスダシ,ミトチョウクバラ,島根県益田市美都町久原
6980207,島根県,益田市,美都町丸茂,シマネケン,マスダシ,ミトチョウマルモ,島根県益田市美都町丸茂
6980211,島根県,益田市,美都町小原,シマネケン,マスダシ,ミトチョウコバラ,島根県益田市美都町小原
6980212,島根県,益田市,美都町仙道,シマネケン,マスダシ,ミトチョウセンドウ,島根県益田市美都町仙道
6980213,島根県,益田市,美都町朝倉,シマネケン,マスダシ,ミトチョウアサクラ,島根県益田市美都町朝倉
6980214,島根県,益田市,美都町笹倉,シマネケン,マスダシ,ミトチョウササクラ,島根県益田市美都町笹倉
6980411,島根県,益田市,波田町,シマネケン,マスダシ,ハダチョウ,島根県益田市波田町
6980412,島根県,益田市,長沢町,シマネケン,マスダシ,ナガサワチョウ,島根県益田市長沢町
6980413,島根県,益田市,馬谷町,シマネケン,マスダシ,ウマダニチョウ,島根県益田市馬谷町
6980414,島根県,益田市,下波田町,シマネケン,マスダシ,シモハダチョウ,島根県益田市下波田町
6981201,島根県,益田市,匹見町道川,シマネケン,マスダシ,ヒキミチョウミチカワ,島根県益田市匹見町道川
6981211,島根県,益田市,匹見町匹見,シマネケン,マスダシ,ヒキミチョウヒキミ,島根県益田市匹見町匹見
6981212,島根県,益田市,匹見町紙祖,シマネケン,マスダシ,ヒキミチョウシソ,島根県益田市匹見町紙祖
6981213,島根県,益田市,匹見町落合,シマネケン,マスダシ,ヒキミチョウオチアイ,島根県益田市匹見町落合
6981221,島根県,益田市,匹見町澄川,シマネケン,マスダシ,ヒキミチョウスミカワ,島根県益田市匹見町澄川
6981222,島根県,益田市,匹見町広瀬,シマネケン,マスダシ,ヒキミチョウヒロセ,島根県益田市匹見町広瀬
6981223,島根県,益田市,匹見町石谷,シマネケン,マスダシ,ヒキミチョウイシタニ,島根県益田市匹見町石谷
6982141,島根県,益田市,白上町,シマネケン,マスダシ,シラカミチョウ,島根県益田市白上町
6982142,島根県,益田市,市原町,シマネケン,マスダシ,イチハラチョウ,島根県益田市市原町
6982143,島根県,益田市,内田町（その他）,シマネケン,マスダシ,ウチダチョウ(ソノタ),島根県益田市内田町（その他）
6982144,島根県,益田市,虫追町,シマネケン,マスダシ,ムソウチョウ,島根県益田市虫追町
6982145,島根県,益田市,川登町,シマネケン,マスダシ,カワノボリチョウ,島根県益田市川登町
6982146,島根県,益田市,中垣内町,シマネケン,マスダシ,ナカガウチチョウ,島根県益田市中垣内町
6982251,島根県,益田市,黒周町,シマネケン,マスダシ,クロスチョウ,島根県益田市黒周町
6982252,島根県,益田市,柏原町,シマネケン,マスダシ,カシバラチョウ,島根県益田市柏原町
6982253,島根県,益田市,愛栄町,シマネケン,マスダシ,アサカチョウ,島根県益田市愛栄町
6982254,島根県,益田市,桂平町,シマネケン,マスダシ,カツラヒラチョウ,島根県益田市桂平町
6982255,島根県,益田市,上黒谷町,シマネケン,マスダシ,カミクロダニチョウ,島根県益田市上黒谷町
6990101,島根県,松江市,東出雲町揖屋,シマネケン,マツエシ,ヒガシイズモチョウイヤ,島根県松江市東出雲町揖屋
6990102,島根県,松江市,東出雲町下意東,シマネケン,マツエシ,ヒガシイズモチョウシモイトウ,島根県松江市東出雲町下意東
6990103,島根県,松江市,東出雲町上意東,シマネケン,マツエシ,ヒガシイズモチョウカミイトウ,島根県松江市東出雲町上意東
6990104,島根県,松江市,東出雲町須田,シマネケン,マツエシ,ヒガシイズモチョウスタ,島根県松江市東出雲町須田
6990105,島根県,松江市,東出雲町内馬,シマネケン,マツエシ,ヒガシイズモチョウウチウマ,島根県松江市東出雲町内馬
6990106,島根県,松江市,東出雲町春日,シマネケン,マツエシ,ヒガシイズモチョウカスガ,島根県松江市東出雲町春日
6990107,島根県,松江市,東出雲町今宮,シマネケン,マツエシ,ヒガシイズモチョウイマミヤ,島根県松江市東出雲町今宮
6990108,島根県,松江市,東出雲町出雲郷,シマネケン,マツエシ,ヒガシイズモチョウアダカエ,島根県松江市東出雲町出雲郷
6990109,島根県,松江市,東出雲町錦浜,シマネケン,マツエシ,ヒガシイズモチョウニシキハマ,島根県松江市東出雲町錦浜
6990110,島根県,松江市,東出雲町錦新町,シマネケン,マツエシ,ヒガシイズモチョウニシキシンマチ,島根県松江市東出雲町錦新町
6990111,島根県,松江市,東出雲町意宇南,シマネケン,マツエシ,ヒガシイズモチョウイウナン,島根県松江市東出雲町意宇南
6990112,島根県,松江市,東出雲町意宇東,シマネケン,マツエシ,ヒガシイズモチョウイウヒガシ,島根県松江市東出雲町意宇東
6990201,島根県,松江市,玉湯町玉造,シマネケン,マツエシ,タマユチョウタマツクリ,島根県松江市玉湯町玉造
6990202,島根県,松江市,玉湯町湯町,シマネケン,マツエシ,タマユチョウユマチ,島根県松江市玉湯町湯町
6990203,島根県,松江市,玉湯町布志名,シマネケン,マツエシ,タマユチョウフジナ,島根県松江市玉湯町布志名
6990204,島根県,松江市,玉湯町林,シマネケン,マツエシ,タマユチョウハヤシ,島根県松江市玉湯町林
6990205,島根県,松江市,玉湯町大谷,シマネケン,マツエシ,タマユチョウオオダニ,島根県松江市玉湯町大谷
6990401,島根県,松江市,宍道町宍道,シマネケン,マツエシ,シンジチョウシンジ,島根県松江市宍道町宍道
6990402,島根県,松江市,宍道町白石,シマネケン,マツエシ,シンジチョウハクイシ,島根県松江市宍道町白石
6990403,島根県,松江市,宍道町西来待,シマネケン,マツエシ,シンジチョウニシキマチ,島根県松江市宍道町西来待
6990404,島根県,松江市,宍道町東来待,シマネケン,マツエシ,シンジチョウヒガシキマチ,島根県松江市宍道町東来待
6990405,島根県,松江市,宍道町上来待,シマネケン,マツエシ,シンジチョウカミキマチ,島根県松江市宍道町上来待
6990406,島根県,松江市,宍道町佐々布,シマネケン,マツエシ,シンジチョウサソウ,島根県松江市宍道町佐々布
6990407,島根県,松江市,宍道町伊志見,シマネケン,マツエシ,シンジチョウイジミ,島根県松江市宍道町伊志見
6990408,島根県,松江市,宍道町昭和,シマネケン,マツエシ,シンジチョウショウワ,島根県松江市宍道町昭和
6990501,島根県,出雲市,斐川町学頭,シマネケン,イズモシ,ヒカワチョウガクトウ,島根県出雲市斐川町学頭
6990502,島根県,出雲市,斐川町荘原,シマネケン,イズモシ,ヒカワチョウショウバラ,島根県出雲市斐川町荘原
6990503,島根県,出雲市,斐川町神庭,シマネケン,イズモシ,ヒカワチョウカンバ,島根県出雲市斐川町神庭
6990504,島根県,出雲市,斐川町三絡,シマネケン,イズモシ,ヒカワチョウミツガネ,島根県出雲市斐川町三絡
6990505,島根県,出雲市,斐川町上庄原,シマネケン,イズモシ,ヒカワチョウカミショウバラ,島根県出雲市斐川町上庄原
6990551,島根県,出雲市,斐川町沖洲,シマネケン,イズモシ,ヒカワチョウオキノス,島根県出雲市斐川町沖洲
6990552,島根県,出雲市,斐川町中洲,シマネケン,イズモシ,ヒカワチョウナカノス,島根県出雲市斐川町中洲
6990553,島根県,出雲市,斐川町黒目,シマネケン,イズモシ,ヒカワチョウクロメ,島根県出雲市斐川町黒目
6990554,島根県,出雲市,斐川町三分市,シマネケン,イズモシ,ヒカワチョウサンブイチ,島根県出雲市斐川町三分市
6990555,島根県,出雲市,斐川町坂田,シマネケン,イズモシ,ヒカワチョウサカダ,島根県出雲市斐川町坂田
6990611,島根県,出雲市,斐川町阿宮,シマネケン,イズモシ,ヒカワチョウアグ,島根県出雲市斐川町阿宮
6990612,島根県,出雲市,斐川町出西,シマネケン,イズモシ,ヒカワチョウシュッサイ,島根県出雲市斐川町出西
6990613,島根県,出雲市,斐川町神氷,シマネケン,イズモシ,ヒカワチョウカンピ,島根県出雲市斐川町神氷
6990614,島根県,出雲市,斐川町求院,シマネケン,イズモシ,ヒカワチョウグイ,島根県出雲市斐川町求院
6990615,島根県,出雲市,斐川町併川,シマネケン,イズモシ,ヒカワチョウアイカワ,島根県出雲市斐川町併川
6990621,島根県,出雲市,斐川町富村,シマネケン,イズモシ,ヒカワチョウトビムラ,島根県出雲市斐川町富村
6990622,島根県,出雲市,斐川町名島,シマネケン,イズモシ,ヒカワチョウナシマ,島根県出雲市斐川町名島
6990623,島根県,出雲市,斐川町鳥井,シマネケン,イズモシ,ヒカワチョウトリイ,島根県出雲市斐川町鳥井
6990624,島根県,出雲市,斐川町上直江,シマネケン,イズモシ,ヒカワチョウカミナオエ,島根県出雲市斐川町上直江
6990631,島根県,出雲市,斐川町直江,シマネケン,イズモシ,ヒカワチョウナオエ,島根県出雲市斐川町直江
6990641,島根県,出雲市,斐川町美南,シマネケン,イズモシ,ヒカワチョウミナミ,島根県出雲市斐川町美南
6990642,島根県,出雲市,斐川町福富,シマネケン,イズモシ,ヒカワチョウフクドミ,島根県出雲市斐川町福富
6990643,島根県,出雲市,斐川町原鹿,シマネケン,イズモシ,ヒカワチョウハラシカ,島根県出雲市斐川町原鹿
6990644,島根県,出雲市,斐川町今在家,シマネケン,イズモシ,ヒカワチョウイマザイケ,島根県出雲市斐川町今在家
6990701,島根県,出雲市,大社町杵築東,シマネケン,イズモシ,タイシャチョウキヅキヒガシ,島根県出雲市大社町杵築東
6990702,島根県,出雲市,大社町杵築北,シマネケン,イズモシ,タイシャチョウキヅキキタ,島根県出雲市大社町杵築北
6990711,島根県,出雲市,大社町杵築南,シマネケン,イズモシ,タイシャチョウキヅキミナミ,島根県出雲市大社町杵築南
6990721,島根県,出雲市,大社町修理免,シマネケン,イズモシ,タイシャチョウシュウリメン,島根県出雲市大社町修理免
6990722,島根県,出雲市,大社町北荒木,シマネケン,イズモシ,タイシャチョウキタアラキ,島根県出雲市大社町北荒木
6990731,島根県,出雲市,大社町遙堪,シマネケン,イズモシ,タイシャチョウヨウカン,島根県出雲市大社町遙堪
6990732,島根県,出雲市,大社町入南,シマネケン,イズモシ,タイシャチョウニュウナン,島根県出雲市大社町入南
6990733,島根県,出雲市,大社町菱根,シマネケン,イズモシ,タイシャチョウヒシネ,島根県出雲市大社町菱根
6990741,島根県,出雲市,大社町中荒木,シマネケン,イズモシ,タイシャチョウナカアラキ,島根県出雲市大社町中荒木
6990751,島根県,出雲市,大社町杵築西,シマネケン,イズモシ,タイシャチョウキヅキニシ,島根県出雲市大社町杵築西
6990761,島根県,出雲市,大社町鷺浦,シマネケン,イズモシ,タイシャチョウサギウラ,島根県出雲市大社町鷺浦
6990762,島根県,出雲市,大社町鵜峠,シマネケン,イズモシ,タイシャチョウウド,島根県出雲市大社町鵜峠
6990763,島根県,出雲市,大社町日御碕,シマネケン,イズモシ,タイシャチョウヒノミサキ,島根県出雲市大社町日御碕
6990764,島根県,出雲市,大社町宇龍,シマネケン,イズモシ,タイシャチョウウリュウ,島根県出雲市大社町宇龍
6990811,島根県,出雲市,湖陵町差海,シマネケン,イズモシ,コリョウチョウサシウミ,島根県出雲市湖陵町差海
6990812,島根県,出雲市,湖陵町二部,シマネケン,イズモシ,コリョウチョウニブ,島根県出雲市湖陵町二部
6990813,島根県,出雲市,湖陵町三部,シマネケン,イズモシ,コリョウチョウサンブ,島根県出雲市湖陵町三部
6990814,島根県,出雲市,湖陵町常楽寺,シマネケン,イズモシ,コリョウチョウジョウラクジ,島根県出雲市湖陵町常楽寺
6990815,島根県,出雲市,湖陵町畑村,シマネケン,イズモシ,コリョウチョウハタムラ,島根県出雲市湖陵町畑村
6990816,島根県,出雲市,湖陵町大池,シマネケン,イズモシ,コリョウチョウオオイケ,島根県出雲市湖陵町大池
6990817,島根県,出雲市,湖陵町板津,シマネケン,イズモシ,コリョウチョウイタヅ,島根県出雲市湖陵町板津
6990821,島根県,出雲市,大島町,シマネケン,イズモシ,オオジマチョウ,島根県出雲市大島町
6990822,島根県,出雲市,神西沖町,シマネケン,イズモシ,ジンザイオキチョウ,島根県出雲市神西沖町
6990823,島根県,出雲市,東神西町,シマネケン,イズモシ,ヒガシジンザイチョウ,島根県出雲市東神西町
6990824,島根県,出雲市,西神西町,シマネケン,イズモシ,ニシジンザイチョウ,島根県出雲市西神西町
6990825,島根県,出雲市,神西新町,シマネケン,イズモシ,ジンザイシンマチ,島根県出雲市神西新町
6990901,島根県,出雲市,多伎町久村,シマネケン,イズモシ,タキチョウクムラ,島根県出雲市多伎町久村
6990902,島根県,出雲市,多伎町多岐,シマネケン,イズモシ,タキチョウタキ,島根県出雲市多伎町多岐
6990903,島根県,出雲市,多伎町小田,シマネケン,イズモシ,タキチョウオダ,島根県出雲市多伎町小田
6990904,島根県,出雲市,多伎町口田儀,シマネケン,イズモシ,タキチョウクチタギ,島根県出雲市多伎町口田儀
6990905,島根県,出雲市,多伎町奥田儀,シマネケン,イズモシ,タキチョウオクタギ,島根県出雲市多伎町奥田儀
6990906,島根県,出雲市,多伎町神原,シマネケン,イズモシ,タキチョウカンバラ,島根県出雲市多伎町神原
6991101,島根県,雲南市,加茂町大西,シマネケン,ウンナンシ,カモチョウダイサイ,島根県雲南市加茂町大西
6991102,島根県,雲南市,加茂町立原,シマネケン,ウンナンシ,カモチョウタチバラ,島根県雲南市加茂町立原
6991103,島根県,雲南市,加茂町近松,シマネケン,ウンナンシ,カモチョウチカマツ,島根県雲南市加茂町近松
6991104,島根県,雲南市,加茂町南加茂,シマネケン,ウンナンシ,カモチョウミナミガモ,島根県雲南市加茂町南加茂
6991105,島根県,雲南市,加茂町宇治,シマネケン,ウンナンシ,カモチョウウジ,島根県雲南市加茂町宇治
6991106,島根県,雲南市,加茂町加茂中,シマネケン,ウンナンシ,カモチョウカモナカ,島根県雲南市加茂町加茂中
6991111,島根県,雲南市,加茂町砂子原,シマネケン,ウンナンシ,カモチョウスナゴハラ,島根県雲南市加茂町砂子原
6991112,島根県,雲南市,加茂町新宮,シマネケン,ウンナンシ,カモチョウシングウ,島根県雲南市加茂町新宮
6991113,島根県,雲南市,加茂町東谷,シマネケン,ウンナンシ,カモチョウヒガシダニ,島根県雲南市加茂町東谷
6991114,島根県,雲南市,加茂町猪尾,シマネケン,ウンナンシ,カモチョウイノオ,島根県雲南市加茂町猪尾
6991115,島根県,雲南市,加茂町岩倉,シマネケン,ウンナンシ,カモチョウイワクラ,島根県雲南市加茂町岩倉
6991121,島根県,雲南市,加茂町神原,シマネケン,ウンナンシ,カモチョウカンバラ,島根県雲南市加茂町神原
6991122,島根県,雲南市,加茂町三代,シマネケン,ウンナンシ,カモチョウミジロ,島根県雲南市加茂町三代
6991123,島根県,雲南市,加茂町大竹,シマネケン,ウンナンシ,カモチョウオオタケ,島根県雲南市加茂町大竹
6991124,島根県,雲南市,加茂町延野,シマネケン,ウンナンシ,カモチョウノブノ,島根県雲南市加茂町延野
6991125,島根県,雲南市,加茂町大崎,シマネケン,ウンナンシ,カモチョウオオサキ,島根県雲南市加茂町大崎
6991201,島根県,雲南市,大東町小河内,シマネケン,ウンナンシ,ダイトウチョウオガワウチ,島根県雲南市大東町小河内
6991202,島根県,雲南市,大東町刈畑,シマネケン,ウンナンシ,ダイトウチョウカリハタ,島根県雲南市大東町刈畑
6991203,島根県,雲南市,大東町北村,シマネケン,ウンナンシ,ダイトウチョウキタムラ,島根県雲南市大東町北村
6991204,島根県,雲南市,大東町薦澤,シマネケン,ウンナンシ,ダイトウチョウコモザワ,島根県雲南市大東町薦澤
6991205,島根県,雲南市,大東町須賀,シマネケン,ウンナンシ,ダイトウチョウスガ,島根県雲南市大東町須賀
6991206,島根県,雲南市,大東町南村,シマネケン,ウンナンシ,ダイトウチョウミナミムラ,島根県雲南市大東町南村
6991211,島根県,雲南市,大東町上久野,シマネケン,ウンナンシ,ダイトウチョウカミクノ,島根県雲南市大東町上久野
6991212,島根県,雲南市,大東町下久野,シマネケン,ウンナンシ,ダイトウチョウシモクノ,島根県雲南市大東町下久野
6991213,島根県,雲南市,大東町大ケ谷,シマネケン,ウンナンシ,ダイトウチョウオオカダニ,島根県雲南市大東町大ケ谷
6991214,島根県,雲南市,大東町上佐世,シマネケン,ウンナンシ,ダイトウチョウカミサセ,島根県雲南市大東町上佐世
6991215,島根県,雲南市,大東町下佐世,シマネケン,ウンナンシ,ダイトウチョウシモサセ,島根県雲南市大東町下佐世
6991216,島根県,雲南市,大東町西阿用,シマネケン,ウンナンシ,ダイトウチョウニシアヨウ,島根県雲南市大東町西阿用
6991221,島根県,雲南市,大東町岡村,シマネケン,ウンナンシ,ダイトウチョウオカムラ,島根県雲南市大東町岡村
6991221,島根県,雲南市,大東町飯田,シマネケン,ウンナンシ,ダイトウチョウイイダ,島根県雲南市大東町飯田
6991222,島根県,雲南市,大東町川井,シマネケン,ウンナンシ,ダイトウチョウカワイ,島根県雲南市大東町川井
6991223,島根県,雲南市,大東町下阿用,シマネケン,ウンナンシ,ダイトウチョウシモアヨウ,島根県雲南市大東町下阿用
6991224,島根県,雲南市,大東町東阿用,シマネケン,ウンナンシ,ダイトウチョウヒガシアヨウ,島根県雲南市大東町東阿用
6991231,島根県,雲南市,大東町遠所,シマネケン,ウンナンシ,ダイトウチョウエンジョ,島根県雲南市大東町遠所
6991232,島根県,雲南市,大東町仁和寺,シマネケン,ウンナンシ,ダイトウチョウニンナジ,島根県雲南市大東町仁和寺
6991233,島根県,雲南市,大東町幡屋,シマネケン,ウンナンシ,ダイトウチョウハタヤ,島根県雲南市大東町幡屋
6991234,島根県,雲南市,大東町前原,シマネケン,ウンナンシ,ダイトウチョウマエバラ,島根県雲南市大東町前原
6991241,島根県,雲南市,大東町山王寺,シマネケン,ウンナンシ,ダイトウチョウサンノウジ,島根県雲南市大東町山王寺
6991242,島根県,雲南市,大東町大東下分,シマネケン,ウンナンシ,ダイトウチョウダイトウシモブン,島根県雲南市大東町大東下分
6991243,島根県,雲南市,大東町畑鵯,シマネケン,ウンナンシ,ダイトウチョウハタヒヨドリ,島根県雲南市大東町畑鵯
6991244,島根県,雲南市,大東町山田,シマネケン,ウンナンシ,ダイトウチョウヤマダ,島根県雲南市大東町山田
6991245,島根県,雲南市,大東町養賀,シマネケン,ウンナンシ,ダイトウチョウヨウカ,島根県雲南市大東町養賀
6991251,島根県,雲南市,大東町大東,シマネケン,ウンナンシ,ダイトウチョウダイトウ,島根県雲南市大東町大東
6991251,島根県,雲南市,大東町新庄,シマネケン,ウンナンシ,ダイトウチョウシンジョウ,島根県雲南市大東町新庄
6991252,島根県,雲南市,大東町田中,シマネケン,ウンナンシ,ダイトウチョウタナカ,島根県雲南市大東町田中
6991253,島根県,雲南市,大東町中湯石,シマネケン,ウンナンシ,ダイトウチョウナカユイシ,島根県雲南市大東町中湯石
6991261,島根県,雲南市,大東町金成,シマネケン,ウンナンシ,ダイトウチョウカネナリ,島根県雲南市大東町金成
6991262,島根県,雲南市,大東町塩田,シマネケン,ウンナンシ,ダイトウチョウシオタ,島根県雲南市大東町塩田
6991263,島根県,雲南市,大東町篠淵,シマネケン,ウンナンシ,ダイトウチョウシノブチ,島根県雲南市大東町篠淵
6991264,島根県,雲南市,大東町清田,シマネケン,ウンナンシ,ダイトウチョウセイダ,島根県雲南市大東町清田
6991311,島根県,雲南市,木次町里方,シマネケン,ウンナンシ,キスキチョウサトガタ,島根県雲南市木次町里方
6991312,島根県,雲南市,木次町山方,シマネケン,ウンナンシ,キスキチョウヤマガタ,島根県雲南市木次町山方
6991321,島根県,雲南市,木次町宇谷,シマネケン,ウンナンシ,キスキチョウウダニ,島根県雲南市木次町宇谷
6991322,島根県,雲南市,木次町寺領,シマネケン,ウンナンシ,キスキチョウジリョウ,島根県雲南市木次町寺領
6991323,島根県,雲南市,木次町東日登,シマネケン,ウンナンシ,キスキチョウヒガシヒノボリ,島根県雲南市木次町東日登
6991324,島根県,雲南市,木次町西日登,シマネケン,ウンナンシ,キスキチョウニシヒノボリ,島根県雲南市木次町西日登
6991331,島根県,雲南市,木次町上熊谷,シマネケン,ウンナンシ,キスキチョウカミクマタニ,島根県雲南市木次町上熊谷
6991332,島根県,雲南市,木次町木次,シマネケン,ウンナンシ,キスキチョウキスキ,島根県雲南市木次町木次
6991333,島根県,雲南市,木次町下熊谷,シマネケン,ウンナンシ,キスキチョウシモクマタニ,島根県雲南市木次町下熊谷
6991334,島根県,雲南市,木次町新市,シマネケン,ウンナンシ,キスキチョウシンイチ,島根県雲南市木次町新市
6991341,島根県,雲南市,木次町北原（その他）,シマネケン,ウンナンシ,キスキチョウキタハラ(ソノタ),島根県雲南市木次町北原（その他）
6991342,島根県,雲南市,木次町平田,シマネケン,ウンナンシ,キスキチョウヒラタ,島根県雲南市木次町平田
6991343,島根県,雲南市,木次町湯村,シマネケン,ウンナンシ,キスキチョウユムラ,島根県雲南市木次町湯村
6991401,島根県,雲南市,木次町北原（尾白）,シマネケン,ウンナンシ,キスキチョウキタハラ(オジロ),島根県雲南市木次町北原（尾白）
6991431,島根県,仁多郡奥出雲町,上三所,シマネケン,ニタグンオクイズモチョウ,カミミトコロ,島根県仁多郡奥出雲町上三所
6991432,島根県,仁多郡奥出雲町,馬馳,シマネケン,ニタグンオクイズモチョウ,マバセ,島根県仁多郡奥出雲町馬馳
6991433,島根県,仁多郡奥出雲町,八代,シマネケン,ニタグンオクイズモチョウ,ヤシロ,島根県仁多郡奥出雲町八代
6991434,島根県,仁多郡奥出雲町,佐白,シマネケン,ニタグンオクイズモチョウ,サジロ,島根県仁多郡奥出雲町佐白
6991500,島根県,仁多郡奥出雲町,,シマネケン,ニタグンオクイズモチョウ,,島根県仁多郡奥出雲町
6991511,島根県,仁多郡奥出雲町,三成,シマネケン,ニタグンオクイズモチョウ,ミナリ,島根県仁多郡奥出雲町三成
6991512,島根県,仁多郡奥出雲町,高尾,シマネケン,ニタグンオクイズモチョウ,タカオ,島根県仁多郡奥出雲町高尾
6991513,島根県,仁多郡奥出雲町,三沢,シマネケン,ニタグンオクイズモチョウ,ミザワ,島根県仁多郡奥出雲町三沢
6991514,島根県,仁多郡奥出雲町,河内,シマネケン,ニタグンオクイズモチョウ,カワチ,島根県仁多郡奥出雲町河内
6991515,島根県,仁多郡奥出雲町,鴨倉,シマネケン,ニタグンオクイズモチョウ,カモクラ,島根県仁多郡奥出雲町鴨倉
6991516,島根県,仁多郡奥出雲町,三所,シマネケン,ニタグンオクイズモチョウ,ミトコロ,島根県仁多郡奥出雲町三所
6991517,島根県,仁多郡奥出雲町,下阿井（宇根路）,シマネケン,ニタグンオクイズモチョウ,シモアイ(ウネジ),島根県仁多郡奥出雲町下阿井（宇根路）
6991621,島根県,仁多郡奥出雲町,上阿井,シマネケン,ニタグンオクイズモチョウ,カミアイ,島根県仁多郡奥出雲町上阿井
6991622,島根県,仁多郡奥出雲町,下阿井（その他）,シマネケン,ニタグンオクイズモチョウ,シモアイ(ソノタ),島根県仁多郡奥出雲町下阿井（その他）
6991701,島根県,仁多郡奥出雲町,亀嵩,シマネケン,ニタグンオクイズモチョウ,カメダケ,島根県仁多郡奥出雲町亀嵩
6991702,島根県,仁多郡奥出雲町,郡,シマネケン,ニタグンオクイズモチョウ,コオリ,島根県仁多郡奥出雲町郡
6991703,島根県,仁多郡奥出雲町,高田,シマネケン,ニタグンオクイズモチョウ,タカタ,島根県仁多郡奥出雲町高田
6991801,島根県,仁多郡奥出雲町,竹崎,シマネケン,ニタグンオクイズモチョウ,タケザキ,島根県仁多郡奥出雲町竹崎
6991802,島根県,仁多郡奥出雲町,大呂,シマネケン,ニタグンオクイズモチョウ,オオロ,島根県仁多郡奥出雲町大呂
6991811,島根県,仁多郡奥出雲町,八川,シマネケン,ニタグンオクイズモチョウ,ヤカワ,島根県仁多郡奥出雲町八川
6991812,島根県,仁多郡奥出雲町,大谷,シマネケン,ニタグンオクイズモチョウ,オオタニ,島根県仁多郡奥出雲町大谷
6991821,島根県,仁多郡奥出雲町,稲原,シマネケン,ニタグンオクイズモチョウ,イナハラ,島根県仁多郡奥出雲町稲原
6991822,島根県,仁多郡奥出雲町,下横田,シマネケン,ニタグンオクイズモチョウ,シモヨコタ,島根県仁多郡奥出雲町下横田
6991831,島根県,仁多郡奥出雲町,中村,シマネケン,ニタグンオクイズモチョウ,ナカムラ,島根県仁多郡奥出雲町中村
6991832,島根県,仁多郡奥出雲町,横田,シマネケン,ニタグンオクイズモチョウ,ヨコタ,島根県仁多郡奥出雲町横田
6991941,島根県,仁多郡奥出雲町,大馬木,シマネケン,ニタグンオクイズモチョウ,オオマキ,島根県仁多郡奥出雲町大馬木
6991942,島根県,仁多郡奥出雲町,小馬木,シマネケン,ニタグンオクイズモチョウ,コマキ,島根県仁多郡奥出雲町小馬木
6992211,島根県,大田市,波根町,シマネケン,オオダシ,ハネチョウ,島根県大田市波根町
6992212,島根県,大田市,朝山町仙山,シマネケン,オオダシ,アサヤマチョウセンヤマ,島根県大田市朝山町仙山
6992213,島根県,大田市,朝山町朝倉,シマネケン,オオダシ,アサヤマチョウアサクラ,島根県大田市朝山町朝倉
6992214,島根県,大田市,富山町神原,シマネケン,オオダシ,トミヤマチョウカンバラ,島根県大田市富山町神原
6992215,島根県,大田市,富山町才坂,シマネケン,オオダシ,トミヤマチョウサイザカ,島根県大田市富山町才坂
6992216,島根県,大田市,富山町山中（その他）,シマネケン,オオダシ,トミヤマチョウヤマナカ(ソノタ),島根県大田市富山町山中（その他）
6992301,島根県,大田市,仁摩町仁万,シマネケン,オオダシ,ニマチョウニマ,島根県大田市仁摩町仁万
6992302,島根県,大田市,仁摩町宅野,シマネケン,オオダシ,ニマチョウタクノ,島根県大田市仁摩町宅野
6992303,島根県,大田市,仁摩町大国,シマネケン,オオダシ,ニマチョウオオグニ,島根県大田市仁摩町大国
6992304,島根県,大田市,仁摩町馬路,シマネケン,オオダシ,ニマチョウマジ,島根県大田市仁摩町馬路
6992305,島根県,大田市,仁摩町天河内,シマネケン,オオダシ,ニマチョウアマゴウチ,島根県大田市仁摩町天河内
6992501,島根県,大田市,温泉津町温泉津,シマネケン,オオダシ,ユノツチョウユノツ,島根県大田市温泉津町温泉津
6992502,島根県,大田市,温泉津町湯里,シマネケン,オオダシ,ユノツチョウユサト,島根県大田市温泉津町湯里
6992503,島根県,大田市,温泉津町西田,シマネケン,オオダシ,ユノツチョウニシタ,島根県大田市温泉津町西田
6992504,島根県,大田市,温泉津町荻村,シマネケン,オオダシ,ユノツチョウオギムラ,島根県大田市温泉津町荻村
6992505,島根県,大田市,温泉津町太田,シマネケン,オオダシ,ユノツチョウオオタ,島根県大田市温泉津町太田
6992506,島根県,大田市,温泉津町福田,シマネケン,オオダシ,ユノツチョウフクダ,島根県大田市温泉津町福田
6992507,島根県,大田市,温泉津町井田,シマネケン,オオダシ,ユノツチョウイダ,島根県大田市温泉津町井田
6992511,島根県,大田市,温泉津町小浜,シマネケン,オオダシ,ユノツチョウコハマ,島根県大田市温泉津町小浜
6992512,島根県,大田市,温泉津町飯原,シマネケン,オオダシ,ユノツチョウハンバラ,島根県大田市温泉津町飯原
6992513,島根県,大田市,温泉津町上村,シマネケン,オオダシ,ユノツチョウカミムラ,島根県大田市温泉津町上村
6992514,島根県,大田市,温泉津町福光,シマネケン,オオダシ,ユノツチョウフクミツ,島根県大田市温泉津町福光
6992515,島根県,大田市,温泉津町今浦,シマネケン,オオダシ,ユノツチョウイマウラ,島根県大田市温泉津町今浦
6992516,島根県,大田市,温泉津町吉浦,シマネケン,オオダシ,ユノツチョウヨシウラ,島根県大田市温泉津町吉浦
6992831,島根県,江津市,黒松町,シマネケン,ゴウツシ,クロマツチョウ,島根県江津市黒松町
6992832,島根県,江津市,波積町北,シマネケン,ゴウツシ,ハヅミチョウキタ,島根県江津市波積町北
6992833,島根県,江津市,波積町本郷,シマネケン,ゴウツシ,ハヅミチョウホンゴウ,島根県江津市波積町本郷
6992834,島根県,江津市,波積町南,シマネケン,ゴウツシ,ハヅミチョウミナミ,島根県江津市波積町南
6992835,島根県,江津市,松川町上津井,シマネケン,ゴウツシ,マツカワチョウカンヅイ,島根県江津市松川町上津井
6992836,島根県,江津市,松川町畑田,シマネケン,ゴウツシ,マツカワチョウハタダ,島根県江津市松川町畑田
6992837,島根県,江津市,松川町上河戸,シマネケン,ゴウツシ,マツカワチョウカミカワド,島根県江津市松川町上河戸
6992841,島根県,江津市,後地町,シマネケン,ゴウツシ,ウシロジチョウ,島根県江津市後地町
6992842,島根県,江津市,都治町,シマネケン,ゴウツシ,ツチチョウ,島根県江津市都治町
6993161,島根県,江津市,波子町,シマネケン,ゴウツシ,ハシチョウ,島根県江津市波子町
6993162,島根県,江津市,敬川町,シマネケン,ゴウツシ,ウヤガワチョウ,島根県江津市敬川町
6993211,島根県,浜田市,三隅町三隅,シマネケン,ハマダシ,ミスミチョウミスミ,島根県浜田市三隅町三隅
6993212,島根県,浜田市,三隅町向野田,シマネケン,ハマダシ,ミスミチョウムカイノタ,島根県浜田市三隅町向野田
6993213,島根県,浜田市,三隅町河内,シマネケン,ハマダシ,ミスミチョウコウチ,島根県浜田市三隅町河内
6993214,島根県,浜田市,三隅町矢原,シマネケン,ハマダシ,ミスミチョウヤバラ,島根県浜田市三隅町矢原
6993215,島根県,浜田市,三隅町下古和,シマネケン,ハマダシ,ミスミチョウシモコワ,島根県浜田市三隅町下古和
6993215,島根県,浜田市,三隅町井川,シマネケン,ハマダシ,ミスミチョウイガワ,島根県浜田市三隅町井川
6993216,島根県,浜田市,三隅町上古和,シマネケン,ハマダシ,ミスミチョウカミコワ,島根県浜田市三隅町上古和
6993217,島根県,浜田市,三隅町黒沢,シマネケン,ハマダシ,ミスミチョウクロサワ,島根県浜田市三隅町黒沢
6993221,島根県,浜田市,三隅町東平原,シマネケン,ハマダシ,ミスミチョウヒガシヒラバラ,島根県浜田市三隅町東平原
6993222,島根県,浜田市,三隅町折居,シマネケン,ハマダシ,ミスミチョウオリイ,島根県浜田市三隅町折居
6993223,島根県,浜田市,三隅町西河内,シマネケン,ハマダシ,ミスミチョウサイゴウチ,島根県浜田市三隅町西河内
6993224,島根県,浜田市,三隅町湊浦,シマネケン,ハマダシ,ミスミチョウミナトウラ,島根県浜田市三隅町湊浦
6993225,島根県,浜田市,三隅町古市場,シマネケン,ハマダシ,ミスミチョウフルイチバ,島根県浜田市三隅町古市場
6993226,島根県,浜田市,三隅町岡見,シマネケン,ハマダシ,ミスミチョウオカミ,島根県浜田市三隅町岡見
6993301,島根県,浜田市,三隅町井野,シマネケン,ハマダシ,ミスミチョウイノ,島根県浜田市三隅町井野
6993302,島根県,浜田市,三隅町芦谷,シマネケン,ハマダシ,ミスミチョウアシダニ,島根県浜田市三隅町芦谷
6993303,島根県,浜田市,三隅町室谷,シマネケン,ハマダシ,ミスミチョウムロダニ,島根県浜田市三隅町室谷
6993501,島根県,益田市,金山町,シマネケン,マスダシ,カネヤマチョウ,島根県益田市金山町
6993502,島根県,益田市,木部町,シマネケン,マスダシ,キベチョウ,島根県益田市木部町
6993503,島根県,益田市,下種町,シマネケン,マスダシ,シモタネチョウ,島根県益田市下種町
6993504,島根県,益田市,種村町,シマネケン,マスダシ,タネムラチョウ,島根県益田市種村町
6993505,島根県,益田市,土田町,シマネケン,マスダシ,ツチダチョウ,島根県益田市土田町
6993506,島根県,益田市,西平原町,シマネケン,マスダシ,ニシヒラバラチョウ,島根県益田市西平原町
6993671,島根県,益田市,津田町,シマネケン,マスダシ,ツダチョウ,島根県益田市津田町
6993672,島根県,益田市,赤雁町,シマネケン,マスダシ,アカガリチョウ,島根県益田市赤雁町
6993673,島根県,益田市,山折町,シマネケン,マスダシ,ヤマオリチョウ,島根県益田市山折町
6993674,島根県,益田市,大草町,シマネケン,マスダシ,オオクサチョウ,島根県益田市大草町
6993675,島根県,益田市,乙子町,シマネケン,マスダシ,オトコチョウ,島根県益田市乙子町
6993676,島根県,益田市,遠田町,シマネケン,マスダシ,トウダチョウ,島根県益田市遠田町
6993761,島根県,益田市,飯浦町,シマネケン,マスダシ,イイノウラチョウ,島根県益田市飯浦町
6993762,島根県,益田市,小浜町,シマネケン,マスダシ,コハマチョウ,島根県益田市小浜町
6993763,島根県,益田市,戸田町,シマネケン,マスダシ,トダチョウ,島根県益田市戸田町
6993764,島根県,益田市,喜阿弥町,シマネケン,マスダシ,キアミチョウ,島根県益田市喜阿弥町
6993765,島根県,益田市,有田町,シマネケン,マスダシ,アリタチョウ,島根県益田市有田町
6993766,島根県,益田市,美濃地町,シマネケン,マスダシ,ミノジチョウ,島根県益田市美濃地町
6994111,島根県,江津市,桜江町谷住郷,シマネケン,ゴウツシ,サクラエチョウタニジュウゴウ,島根県江津市桜江町谷住郷
6994221,島根県,江津市,桜江町市山,シマネケン,ゴウツシ,サクラエチョウイチヤマ,島根県江津市桜江町市山
6994222,島根県,江津市,桜江町今田,シマネケン,ゴウツシ,サクラエチョウイマダ,島根県江津市桜江町今田
6994223,島根県,江津市,桜江町後山,シマネケン,ゴウツシ,サクラエチョウウシロヤマ,島根県江津市桜江町後山
6994224,島根県,江津市,桜江町江尾,シマネケン,ゴウツシ,サクラエチョウエノオ,島根県江津市桜江町江尾
6994225,島根県,江津市,桜江町小田,シマネケン,ゴウツシ,サクラエチョウオダ,島根県江津市桜江町小田
6994226,島根県,江津市,桜江町川戸,シマネケン,ゴウツシ,サクラエチョウカワド,島根県江津市桜江町川戸
6994311,島根県,邑智郡邑南町,日貫,シマネケン,オオチグンオオナンチョウ,ヒヌイ,島根県邑智郡邑南町日貫
6994431,島根県,江津市,桜江町長谷,シマネケン,ゴウツシ,サクラエチョウナガタニ,島根県江津市桜江町長谷
6994432,島根県,江津市,桜江町八戸,シマネケン,ゴウツシ,サクラエチョウヤト,島根県江津市桜江町八戸
6994501,島根県,江津市,桜江町鹿賀,シマネケン,ゴウツシ,サクラエチョウシカガ,島根県江津市桜江町鹿賀
6994502,島根県,江津市,桜江町川越,シマネケン,ゴウツシ,サクラエチョウカワゴエ,島根県江津市桜江町川越
6994503,島根県,江津市,桜江町田津,シマネケン,ゴウツシ,サクラエチョウタヅ,島根県江津市桜江町田津
6994504,島根県,江津市,桜江町大貫,シマネケン,ゴウツシ,サクラエチョウオオヌキ,島根県江津市桜江町大貫
6994505,島根県,江津市,桜江町坂本,シマネケン,ゴウツシ,サクラエチョウサカモト,島根県江津市桜江町坂本
6994600,島根県,邑智郡美郷町,,シマネケン,オオチグンミサトチョウ,,島根県邑智郡美郷町
6994605,島根県,邑智郡美郷町,高山,シマネケン,オオチグンミサトチョウ,タカヤマ,島根県邑智郡美郷町高山
6994621,島根県,邑智郡美郷町,粕渕,シマネケン,オオチグンミサトチョウ,カスブチ,島根県邑智郡美郷町粕渕
6994622,島根県,邑智郡美郷町,久保,シマネケン,オオチグンミサトチョウ,クボ,島根県邑智郡美郷町久保
6994623,島根県,邑智郡美郷町,野井,シマネケン,オオチグンミサトチョウ,ノイ,島根県邑智郡美郷町野井
6994624,島根県,邑智郡美郷町,明塚,シマネケン,オオチグンミサトチョウ,アカツカ,島根県邑智郡美郷町明塚
6994625,島根県,邑智郡美郷町,簗瀬,シマネケン,オオチグンミサトチョウ,ヤナゼ,島根県邑智郡美郷町簗瀬
6994626,島根県,邑智郡美郷町,乙原,シマネケン,オオチグンミサトチョウ,オンバラ,島根県邑智郡美郷町乙原
6994627,島根県,邑智郡美郷町,吾郷,シマネケン,オオチグンミサトチョウ,アゴウ,島根県邑智郡美郷町吾郷
6994631,島根県,邑智郡美郷町,奥山,シマネケン,オオチグンミサトチョウ,オクヤマ,島根県邑智郡美郷町奥山
6994632,島根県,邑智郡美郷町,高畑,シマネケン,オオチグンミサトチョウ,タカハタ,島根県邑智郡美郷町高畑
6994633,島根県,邑智郡美郷町,湯抱,シマネケン,オオチグンミサトチョウ,ユガカイ,島根県邑智郡美郷町湯抱
6994701,島根県,邑智郡美郷町,浜原,シマネケン,オオチグンミサトチョウ,ハマハラ,島根県邑智郡美郷町浜原
6994702,島根県,邑智郡美郷町,上川戸,シマネケン,オオチグンミサトチョウ,カミカワド,島根県邑智郡美郷町上川戸
6994703,島根県,邑智郡美郷町,熊見,シマネケン,オオチグンミサトチョウ,クマミ,島根県邑智郡美郷町熊見
6994704,島根県,邑智郡美郷町,信喜,シマネケン,オオチグンミサトチョウ,シキ,島根県邑智郡美郷町信喜
6994706,島根県,邑智郡美郷町,滝原,シマネケン,オオチグンミサトチョウ,タキバラ,島根県邑智郡美郷町滝原
6994707,島根県,邑智郡美郷町,亀村,シマネケン,オオチグンミサトチョウ,カメムラ,島根県邑智郡美郷町亀村
6994711,島根県,邑智郡美郷町,千原,シマネケン,オオチグンミサトチョウ,チハラ,島根県邑智郡美郷町千原
6994712,島根県,邑智郡美郷町,九日市,シマネケン,オオチグンミサトチョウ,ココノカイチ,島根県邑智郡美郷町九日市
6994713,島根県,邑智郡美郷町,酒谷,シマネケン,オオチグンミサトチョウ,サケダニ,島根県邑智郡美郷町酒谷
6994714,島根県,邑智郡美郷町,片山,シマネケン,オオチグンミサトチョウ,カタヤマ,島根県邑智郡美郷町片山
6994715,島根県,邑智郡美郷町,石原,シマネケン,オオチグンミサトチョウ,イシハラ,島根県邑智郡美郷町石原
6995121,島根県,益田市,左ケ山町,シマネケン,マスダシ,ヒダリガヤマチョウ,島根県益田市左ケ山町
6995122,島根県,益田市,本俣賀町,シマネケン,マスダシ,ホンマタガチョウ,島根県益田市本俣賀町
6995123,島根県,益田市,猪木谷町,シマネケン,マスダシ,イノキダニチョウ,島根県益田市猪木谷町
6995124,島根県,益田市,薄原町,シマネケン,マスダシ,ススキバラチョウ,島根県益田市薄原町
6995125,島根県,益田市,白岩町,シマネケン,マスダシ,シライワチョウ,島根県益田市白岩町
6995126,島根県,益田市,隅村町,シマネケン,マスダシ,スミムラチョウ,島根県益田市隅村町
6995127,島根県,益田市,梅月町,シマネケン,マスダシ,ウメツキチョウ,島根県益田市梅月町
6995131,島根県,益田市,安富町,シマネケン,マスダシ,ヤスドミチョウ,島根県益田市安富町
6995132,島根県,益田市,横田町,シマネケン,マスダシ,ヨコタチョウ,島根県益田市横田町
6995133,島根県,益田市,神田町,シマネケン,マスダシ,カンダチョウ,島根県益田市神田町
6995134,島根県,益田市,向横田町,シマネケン,マスダシ,ムカイヨコタチョウ,島根県益田市向横田町
6995201,島根県,鹿足郡津和野町,商人（９２９〜１１１７、１３４３〜１７３４番地）,シマネケン,カノアシグンツワノチョウ,アキンド(929-1117、1343-1734バンチ),島根県鹿足郡津和野町商人（929〜1117、1343〜1734-）
6995202,島根県,鹿足郡津和野町,左鐙,シマネケン,カノアシグンツワノチョウ,サブミ,島根県鹿足郡津和野町左鐙
6995203,島根県,鹿足郡津和野町,相撲ケ原,シマネケン,カノアシグンツワノチョウ,スモウガハラ,島根県鹿足郡津和野町相撲ケ原
6995204,島根県,鹿足郡津和野町,須川,シマネケン,カノアシグンツワノチョウ,スガワ,島根県鹿足郡津和野町須川
6995205,島根県,鹿足郡津和野町,瀧谷,シマネケン,カノアシグンツワノチョウ,タキダニ,島根県鹿足郡津和野町瀧谷
6995206,島根県,鹿足郡津和野町,瀧元,シマネケン,カノアシグンツワノチョウ,タキモト,島根県鹿足郡津和野町瀧元
6995207,島根県,鹿足郡津和野町,枕瀬,シマネケン,カノアシグンツワノチョウ,マクラセ,島根県鹿足郡津和野町枕瀬
6995211,島根県,鹿足郡津和野町,青原,シマネケン,カノアシグンツワノチョウ,アオハラ,島根県鹿足郡津和野町青原
6995212,島根県,鹿足郡津和野町,河村,シマネケン,カノアシグンツワノチョウ,カワムラ,島根県鹿足郡津和野町河村
6995213,島根県,鹿足郡津和野町,添谷,シマネケン,カノアシグンツワノチョウ,ソエダニ,島根県鹿足郡津和野町添谷
6995214,島根県,鹿足郡津和野町,溪村,シマネケン,カノアシグンツワノチョウ,タニムラ,島根県鹿足郡津和野町溪村
6995215,島根県,鹿足郡津和野町,冨田,シマネケン,カノアシグンツワノチョウ,トミタ,島根県鹿足郡津和野町冨田
6995216,島根県,鹿足郡津和野町,池村,シマネケン,カノアシグンツワノチョウ,イケムラ,島根県鹿足郡津和野町池村
6995217,島根県,鹿足郡津和野町,柳村,シマネケン,カノアシグンツワノチョウ,ヤナギムラ,島根県鹿足郡津和野町柳村
6995221,島根県,鹿足郡津和野町,日原,シマネケン,カノアシグンツワノチョウ,ニチハラ,島根県鹿足郡津和野町日原
6995301,島根県,鹿足郡吉賀町,柿木,シマネケン,カノアシグンヨシカチョウ,カキノキ,島根県鹿足郡吉賀町柿木
6995302,島根県,鹿足郡吉賀町,福川,シマネケン,カノアシグンヨシカチョウ,フクガワ,島根県鹿足郡吉賀町福川
6995303,島根県,鹿足郡吉賀町,椛谷,シマネケン,カノアシグンヨシカチョウ,カバタニ,島根県鹿足郡吉賀町椛谷
6995304,島根県,鹿足郡吉賀町,白谷,シマネケン,カノアシグンヨシカチョウ,シラタニ,島根県鹿足郡吉賀町白谷
6995305,島根県,鹿足郡吉賀町,下須,シマネケン,カノアシグンヨシカチョウ,シモス,島根県鹿足郡吉賀町下須
6995306,島根県,鹿足郡吉賀町,大野原,シマネケン,カノアシグンヨシカチョウ,オオノバラ,島根県鹿足郡吉賀町大野原
6995307,島根県,鹿足郡吉賀町,木部谷,シマネケン,カノアシグンヨシカチョウ,キベダニ,島根県鹿足郡吉賀町木部谷
6995500,島根県,鹿足郡吉賀町,,シマネケン,カノアシグンヨシカチョウ,,島根県鹿足郡吉賀町
6995501,島根県,鹿足郡吉賀町,上高尻,シマネケン,カノアシグンヨシカチョウ,カミタカジリ,島根県鹿足郡吉賀町上高尻
6995502,島根県,鹿足郡吉賀町,田野原,シマネケン,カノアシグンヨシカチョウ,タノハラ,島根県鹿足郡吉賀町田野原
6995503,島根県,鹿足郡吉賀町,樋口,シマネケン,カノアシグンヨシカチョウ,ヒグチ,島根県鹿足郡吉賀町樋口
6995504,島根県,鹿足郡吉賀町,蔵木,シマネケン,カノアシグンヨシカチョウ,クラギ,島根県鹿足郡吉賀町蔵木
6995505,島根県,鹿足郡吉賀町,九郎原,シマネケン,カノアシグンヨシカチョウ,クロウバラ,島根県鹿足郡吉賀町九郎原
6995506,島根県,鹿足郡吉賀町,有飯,シマネケン,カノアシグンヨシカチョウ,アリイ,島根県鹿足郡吉賀町有飯
6995507,島根県,鹿足郡吉賀町,下高尻,シマネケン,カノアシグンヨシカチョウ,シモタカジリ,島根県鹿足郡吉賀町下高尻
6995511,島根県,鹿足郡吉賀町,立戸,シマネケン,カノアシグンヨシカチョウ,タチド,島根県鹿足郡吉賀町立戸
6995512,島根県,鹿足郡吉賀町,広石,シマネケン,カノアシグンヨシカチョウ,ヒロイシ,島根県鹿足郡吉賀町広石
6995513,島根県,鹿足郡吉賀町,六日市,シマネケン,カノアシグンヨシカチョウ,ムイカイチ,島根県鹿足郡吉賀町六日市
6995514,島根県,鹿足郡吉賀町,立河内,シマネケン,カノアシグンヨシカチョウ,タチゴウチ,島根県鹿足郡吉賀町立河内
6995515,島根県,鹿足郡吉賀町,幸地,シマネケン,カノアシグンヨシカチョウ,コウジ,島根県鹿足郡吉賀町幸地
6995516,島根県,鹿足郡吉賀町,沢田,シマネケン,カノアシグンヨシカチョウ,サワダ,島根県鹿足郡吉賀町沢田
6995517,島根県,鹿足郡吉賀町,注連川,シマネケン,カノアシグンヨシカチョウ,シメガワ,島根県鹿足郡吉賀町注連川
6995521,島根県,鹿足郡吉賀町,真田,シマネケン,カノアシグンヨシカチョウ,サナダ,島根県鹿足郡吉賀町真田
6995522,島根県,鹿足郡吉賀町,七日市,シマネケン,カノアシグンヨシカチョウ,ナヌカイチ,島根県鹿足郡吉賀町七日市
6995523,島根県,鹿足郡吉賀町,朝倉,シマネケン,カノアシグンヨシカチョウ,アサクラ,島根県鹿足郡吉賀町朝倉
6995524,島根県,鹿足郡吉賀町,蓼野,シマネケン,カノアシグンヨシカチョウ,タデノ,島根県鹿足郡吉賀町蓼野
6995525,島根県,鹿足郡吉賀町,抜月,シマネケン,カノアシグンヨシカチョウ,ヌクツキ,島根県鹿足郡吉賀町抜月
6995600,島根県,鹿足郡津和野町,,シマネケン,カノアシグンツワノチョウ,,島根県鹿足郡津和野町
6995601,島根県,鹿足郡津和野町,商人（その他）,シマネケン,カノアシグンツワノチョウ,アキンド(ソノタ),島根県鹿足郡津和野町商人（その他）
6995602,島根県,鹿足郡津和野町,直地,シマネケン,カノアシグンツワノチョウ,タダチ,島根県鹿足郡津和野町直地
6995603,島根県,鹿足郡津和野町,笹山,シマネケン,カノアシグンツワノチョウ,ササヤマ,島根県鹿足郡津和野町笹山
6995604,島根県,鹿足郡津和野町,森村,シマネケン,カノアシグンツワノチョウ,モリムラ,島根県鹿足郡津和野町森村
6995605,島根県,鹿足郡津和野町,後田,シマネケン,カノアシグンツワノチョウ,ウシロダ,島根県鹿足郡津和野町後田
6995606,島根県,鹿足郡津和野町,寺田,シマネケン,カノアシグンツワノチョウ,テラダ,島根県鹿足郡津和野町寺田
6995607,島根県,鹿足郡津和野町,耕田,シマネケン,カノアシグンツワノチョウ,コウダ,島根県鹿足郡津和野町耕田
6995611,島根県,鹿足郡津和野町,町田,シマネケン,カノアシグンツワノチョウ,マチダ,島根県鹿足郡津和野町町田
6995612,島根県,鹿足郡津和野町,中座,シマネケン,カノアシグンツワノチョウ,ナカザ,島根県鹿足郡津和野町中座
6995613,島根県,鹿足郡津和野町,鷲原,シマネケン,カノアシグンツワノチョウ,ワシバラ,島根県鹿足郡津和野町鷲原
6995614,島根県,鹿足郡津和野町,高峯,シマネケン,カノアシグンツワノチョウ,タカミネ,島根県鹿足郡津和野町高峯
6995615,島根県,鹿足郡津和野町,名賀,シマネケン,カノアシグンツワノチョウ,ナヨシ,島根県鹿足郡津和野町名賀
6995616,島根県,鹿足郡津和野町,部栄,シマネケン,カノアシグンツワノチョウ,ブサカ,島根県鹿足郡津和野町部栄
6995617,島根県,鹿足郡津和野町,田二穂,シマネケン,カノアシグンツワノチョウ,タニホ,島根県鹿足郡津和野町田二穂
6995621,島根県,鹿足郡津和野町,内美,シマネケン,カノアシグンツワノチョウ,ナイミ,島根県鹿足郡津和野町内美
6995622,島根県,鹿足郡津和野町,邑輝,シマネケン,カノアシグンツワノチョウ,ムラキ,島根県鹿足郡津和野町邑輝
6995631,島根県,鹿足郡津和野町,中山,シマネケン,カノアシグンツワノチョウ,ナカヤマ,島根県鹿足郡津和野町中山
6995632,島根県,鹿足郡津和野町,豊稼,シマネケン,カノアシグンツワノチョウ,トヨカ,島根県鹿足郡津和野町豊稼
6995633,島根県,鹿足郡津和野町,長福,シマネケン,カノアシグンツワノチョウ,ナガフク,島根県鹿足郡津和野町長福
6995634,島根県,鹿足郡津和野町,中川,シマネケン,カノアシグンツワノチョウ,ナカガワ,島根県鹿足郡津和野町中川
6995635,島根県,鹿足郡津和野町,山下,シマネケン,カノアシグンツワノチョウ,ヤマシタ,島根県鹿足郡津和野町山下
6995636,島根県,鹿足郡津和野町,中曽野,シマネケン,カノアシグンツワノチョウ,ナカソノ,島根県鹿足郡津和野町中曽野
6995637,島根県,鹿足郡津和野町,吹野,シマネケン,カノアシグンツワノチョウ,フキノ,島根県鹿足郡津和野町吹野
