zipcode,prefecture_name,city,town,prefecture_kana,city_kana,town_kana,normalized_address
7000000,岡山県,岡山市中区,,オカヤマケン,オカヤマシナカク,,岡山県岡山市中区
7000000,岡山県,岡山市北区,,オカヤマケン,オカヤマシキタク,,岡山県岡山市北区
7000000,岡山県,岡山市南区,,オカヤマケン,オカヤマシミナミク,,岡山県岡山市南区
7000000,岡山県,岡山市東区,,オカヤマケン,オカヤマシヒガシク,,岡山県岡山市東区
7000001,岡山県,岡山市北区,宿,オカヤマケン,オカヤマシキタク,シュク,岡山県岡山市北区宿
7000002,岡山県,岡山市北区,宿本町,オカヤマケン,オカヤマシキタク,シュクホンマチ,岡山県岡山市北区宿本町
7000003,岡山県,岡山市北区,半田町,オカヤマケン,オカヤマシキタク,ハンダチョウ,岡山県岡山市北区半田町
7000004,岡山県,岡山市北区,法界院,オカヤマケン,オカヤマシキタク,ホウカイイン,岡山県岡山市北区法界院
7000005,岡山県,岡山市北区,理大町,オカヤマケン,オカヤマシキタク,リダイチョウ,岡山県岡山市北区理大町
7000011,岡山県,岡山市北区,学南町,オカヤマケン,オカヤマシキタク,ガクナンチョウ,岡山県岡山市北区学南町
7000012,岡山県,岡山市北区,いずみ町,オカヤマケン,オカヤマシキタク,イズミチョウ,岡山県岡山市北区いずみ町
7000013,岡山県,岡山市北区,伊福町,オカヤマケン,オカヤマシキタク,イフクチョウ,岡山県岡山市北区伊福町
7000014,岡山県,岡山市北区,津倉町,オカヤマケン,オカヤマシキタク,ツクラチョウ,岡山県岡山市北区津倉町
7000015,岡山県,岡山市北区,京山,オカヤマケン,オカヤマシキタク,キョウヤマ,岡山県岡山市北区京山
7000016,岡山県,岡山市北区,伊島町,オカヤマケン,オカヤマシキタク,イシマチョウ,岡山県岡山市北区伊島町
7000017,岡山県,岡山市北区,伊島北町,オカヤマケン,オカヤマシキタク,イシマキタマチ,岡山県岡山市北区伊島北町
7000021,岡山県,岡山市北区,国体町,オカヤマケン,オカヤマシキタク,コクタイチョウ,岡山県岡山市北区国体町
7000022,岡山県,岡山市北区,岩田町,オカヤマケン,オカヤマシキタク,イワタチョウ,岡山県岡山市北区岩田町
7000023,岡山県,岡山市北区,駅前町,オカヤマケン,オカヤマシキタク,エキマエチョウ,岡山県岡山市北区駅前町
7000024,岡山県,岡山市北区,駅元町,オカヤマケン,オカヤマシキタク,エキモトマチ,岡山県岡山市北区駅元町
7000025,岡山県,岡山市北区,寿町,オカヤマケン,オカヤマシキタク,コトブキチョウ,岡山県岡山市北区寿町
7000026,岡山県,岡山市北区,奉還町,オカヤマケン,オカヤマシキタク,ホウカンチョウ,岡山県岡山市北区奉還町
7000027,岡山県,岡山市北区,清心町,オカヤマケン,オカヤマシキタク,セイシンチョウ,岡山県岡山市北区清心町
7000028,岡山県,岡山市北区,絵図町,オカヤマケン,オカヤマシキタク,エズチョウ,岡山県岡山市北区絵図町
7000031,岡山県,岡山市北区,富町,オカヤマケン,オカヤマシキタク,トミマチ,岡山県岡山市北区富町
7000032,岡山県,岡山市北区,昭和町,オカヤマケン,オカヤマシキタク,ショウワチョウ,岡山県岡山市北区昭和町
7000033,岡山県,岡山市北区,島田本町,オカヤマケン,オカヤマシキタク,シマダホンマチ,岡山県岡山市北区島田本町
7000034,岡山県,岡山市北区,高柳東町,オカヤマケン,オカヤマシキタク,タカヤナギヒガシマチ,岡山県岡山市北区高柳東町
7000035,岡山県,岡山市北区,高柳西町,オカヤマケン,オカヤマシキタク,タカヤナギニシマチ,岡山県岡山市北区高柳西町
7000041,岡山県,岡山市北区,岩井宮裏,オカヤマケン,オカヤマシキタク,イワイミヤウラ,岡山県岡山市北区岩井宮裏
7000042,岡山県,岡山市北区,三門東町,オカヤマケン,オカヤマシキタク,ミカドヒガシマチ,岡山県岡山市北区三門東町
7000043,岡山県,岡山市北区,三門中町,オカヤマケン,オカヤマシキタク,ミカドナカマチ,岡山県岡山市北区三門中町
7000044,岡山県,岡山市北区,三門西町,オカヤマケン,オカヤマシキタク,ミカドニシマチ,岡山県岡山市北区三門西町
7000045,岡山県,岡山市北区,葵町,オカヤマケン,オカヤマシキタク,アオイチョウ,岡山県岡山市北区葵町
7000046,岡山県,岡山市北区,岩井,オカヤマケン,オカヤマシキタク,イワイ,岡山県岡山市北区岩井
7000047,岡山県,岡山市北区,関西町,オカヤマケン,オカヤマシキタク,カンゼイチョウ,岡山県岡山市北区関西町
7000051,岡山県,岡山市北区,下伊福上町,オカヤマケン,オカヤマシキタク,シモイフクカミマチ,岡山県岡山市北区下伊福上町
7000052,岡山県,岡山市北区,下伊福,オカヤマケン,オカヤマシキタク,シモイフク,岡山県岡山市北区下伊福
7000053,岡山県,岡山市北区,下伊福本町,オカヤマケン,オカヤマシキタク,シモイフクホンマチ,岡山県岡山市北区下伊福本町
7000054,岡山県,岡山市北区,下伊福西町,オカヤマケン,オカヤマシキタク,シモイフクニシマチ,岡山県岡山市北区下伊福西町
7000055,岡山県,岡山市北区,西崎,オカヤマケン,オカヤマシキタク,ニシザキ,岡山県岡山市北区西崎
7000056,岡山県,岡山市北区,西崎本町,オカヤマケン,オカヤマシキタク,ニシザキホンマチ,岡山県岡山市北区西崎本町
7000061,岡山県,岡山市北区,大安寺西町,オカヤマケン,オカヤマシキタク,ダイアンジニシマチ,岡山県岡山市北区大安寺西町
7000062,岡山県,岡山市北区,大安寺中町,オカヤマケン,オカヤマシキタク,ダイアンジナカマチ,岡山県岡山市北区大安寺中町
7000063,岡山県,岡山市北区,大安寺東町,オカヤマケン,オカヤマシキタク,ダイアンジヒガシマチ,岡山県岡山市北区大安寺東町
7000064,岡山県,岡山市北区,大安寺南町,オカヤマケン,オカヤマシキタク,ダイアンジミナミマチ,岡山県岡山市北区大安寺南町
7000065,岡山県,岡山市北区,野殿東町,オカヤマケン,オカヤマシキタク,ノドノヒガシマチ,岡山県岡山市北区野殿東町
7000066,岡山県,岡山市北区,野殿西町,オカヤマケン,オカヤマシキタク,ノドノニシマチ,岡山県岡山市北区野殿西町
7000067,岡山県,岡山市北区,西野山町,オカヤマケン,オカヤマシキタク,ニシノヤマチョウ,岡山県岡山市北区西野山町
7000068,岡山県,岡山市北区,東野山町,オカヤマケン,オカヤマシキタク,ヒガシノヤマチョウ,岡山県岡山市北区東野山町
7000071,岡山県,岡山市北区,谷万成,オカヤマケン,オカヤマシキタク,タニマンナリ,岡山県岡山市北区谷万成
7000072,岡山県,岡山市北区,万成東町,オカヤマケン,オカヤマシキタク,マンナリヒガシマチ,岡山県岡山市北区万成東町
7000073,岡山県,岡山市北区,万成西町,オカヤマケン,オカヤマシキタク,マンナリニシマチ,岡山県岡山市北区万成西町
7000074,岡山県,岡山市北区,矢坂東町,オカヤマケン,オカヤマシキタク,ヤサカヒガシマチ,岡山県岡山市北区矢坂東町
7000075,岡山県,岡山市北区,矢坂本町,オカヤマケン,オカヤマシキタク,ヤサカホンマチ,岡山県岡山市北区矢坂本町
7000076,岡山県,岡山市北区,矢坂西町,オカヤマケン,オカヤマシキタク,ヤサカニシマチ,岡山県岡山市北区矢坂西町
7000080,岡山県,岡山市北区,津島福居,オカヤマケン,オカヤマシキタク,ツシマフクイ,岡山県岡山市北区津島福居
7000081,岡山県,岡山市北区,津島東,オカヤマケン,オカヤマシキタク,ツシマヒガシ,岡山県岡山市北区津島東
7000082,岡山県,岡山市北区,津島中,オカヤマケン,オカヤマシキタク,ツシマナカ,岡山県岡山市北区津島中
7000083,岡山県,岡山市北区,津島新野,オカヤマケン,オカヤマシキタク,ツシマニイノ,岡山県岡山市北区津島新野
7000084,岡山県,岡山市北区,津島桑の木町,オカヤマケン,オカヤマシキタク,ツシマクワノキチョウ,岡山県岡山市北区津島桑の木町
7000085,岡山県,岡山市北区,津島南,オカヤマケン,オカヤマシキタク,ツシマミナミ,岡山県岡山市北区津島南
7000086,岡山県,岡山市北区,津島西坂,オカヤマケン,オカヤマシキタク,ツシマニシザカ,岡山県岡山市北区津島西坂
7000087,岡山県,岡山市北区,津島京町,オカヤマケン,オカヤマシキタク,ツシマキョウマチ,岡山県岡山市北区津島京町
7000088,岡山県,岡山市北区,津島笹が瀬,オカヤマケン,オカヤマシキタク,ツシマササガセ,岡山県岡山市北区津島笹が瀬
7000089,岡山県,岡山市北区,津島本町,オカヤマケン,オカヤマシキタク,ツシマホンマチ,岡山県岡山市北区津島本町
7000801,岡山県,岡山市北区,三野本町,オカヤマケン,オカヤマシキタク,ミノホンマチ,岡山県岡山市北区三野本町
7000802,岡山県,岡山市北区,三野,オカヤマケン,オカヤマシキタク,ミノ,岡山県岡山市北区三野
7000803,岡山県,岡山市北区,北方,オカヤマケン,オカヤマシキタク,キタガタ,岡山県岡山市北区北方
7000804,岡山県,岡山市北区,中井町,オカヤマケン,オカヤマシキタク,ナカイチョウ,岡山県岡山市北区中井町
7000805,岡山県,岡山市北区,兵団,オカヤマケン,オカヤマシキタク,ヘイダン,岡山県岡山市北区兵団
7000806,岡山県,岡山市北区,広瀬町,オカヤマケン,オカヤマシキタク,ヒロセチョウ,岡山県岡山市北区広瀬町
7000807,岡山県,岡山市北区,南方,オカヤマケン,オカヤマシキタク,ミナミガタ,岡山県岡山市北区南方
7000808,岡山県,岡山市北区,大和町,オカヤマケン,オカヤマシキタク,ヤマトマチ,岡山県岡山市北区大和町
7000811,岡山県,岡山市北区,番町,オカヤマケン,オカヤマシキタク,バンチョウ,岡山県岡山市北区番町
7000812,岡山県,岡山市北区,出石町,オカヤマケン,オカヤマシキタク,イズシチョウ,岡山県岡山市北区出石町
7000813,岡山県,岡山市北区,石関町,オカヤマケン,オカヤマシキタク,イシゼキチョウ,岡山県岡山市北区石関町
7000814,岡山県,岡山市北区,天神町,オカヤマケン,オカヤマシキタク,テンジンチョウ,岡山県岡山市北区天神町
7000815,岡山県,岡山市北区,野田屋町,オカヤマケン,オカヤマシキタク,ノダヤチョウ,岡山県岡山市北区野田屋町
7000816,岡山県,岡山市北区,富田町,オカヤマケン,オカヤマシキタク,トンダチョウ,岡山県岡山市北区富田町
7000817,岡山県,岡山市北区,弓之町,オカヤマケン,オカヤマシキタク,ユミノチョウ,岡山県岡山市北区弓之町
7000818,岡山県,岡山市北区,蕃山町,オカヤマケン,オカヤマシキタク,バンザンチョウ,岡山県岡山市北区蕃山町
7000821,岡山県,岡山市北区,中山下,オカヤマケン,オカヤマシキタク,ナカサンゲ,岡山県岡山市北区中山下
7000822,岡山県,岡山市北区,表町,オカヤマケン,オカヤマシキタク,オモテチョウ,岡山県岡山市北区表町
7000823,岡山県,岡山市北区,丸の内,オカヤマケン,オカヤマシキタク,マルノウチ,岡山県岡山市北区丸の内
7000824,岡山県,岡山市北区,内山下,オカヤマケン,オカヤマシキタク,ウチサンゲ,岡山県岡山市北区内山下
7000825,岡山県,岡山市北区,田町,オカヤマケン,オカヤマシキタク,タマチ,岡山県岡山市北区田町
7000826,岡山県,岡山市北区,磨屋町,オカヤマケン,オカヤマシキタク,トギヤチョウ,岡山県岡山市北区磨屋町
7000827,岡山県,岡山市北区,平和町,オカヤマケン,オカヤマシキタク,ヘイワチョウ,岡山県岡山市北区平和町
7000831,岡山県,岡山市北区,京橋町,オカヤマケン,オカヤマシキタク,キョウバシチョウ,岡山県岡山市北区京橋町
7000832,岡山県,岡山市北区,京橋南町,オカヤマケン,オカヤマシキタク,キョウバシミナミマチ,岡山県岡山市北区京橋南町
7000833,岡山県,岡山市北区,天瀬,オカヤマケン,オカヤマシキタク,アマセ,岡山県岡山市北区天瀬
7000834,岡山県,岡山市北区,天瀬南町,オカヤマケン,オカヤマシキタク,アマセミナミマチ,岡山県岡山市北区天瀬南町
7000835,岡山県,岡山市北区,東中央町,オカヤマケン,オカヤマシキタク,ヒガシチュウオウチョウ,岡山県岡山市北区東中央町
7000836,岡山県,岡山市北区,中央町,オカヤマケン,オカヤマシキタク,チュウオウチョウ,岡山県岡山市北区中央町
7000837,岡山県,岡山市北区,南中央町,オカヤマケン,オカヤマシキタク,ミナミチュウオウチョウ,岡山県岡山市北区南中央町
7000838,岡山県,岡山市北区,京町,オカヤマケン,オカヤマシキタク,キョウマチ,岡山県岡山市北区京町
7000841,岡山県,岡山市北区,舟橋町,オカヤマケン,オカヤマシキタク,フナバシチョウ,岡山県岡山市北区舟橋町
7000842,岡山県,岡山市北区,船頭町,オカヤマケン,オカヤマシキタク,センドウチョウ,岡山県岡山市北区船頭町
7000843,岡山県,岡山市北区,二日市町,オカヤマケン,オカヤマシキタク,フツカイチマチ,岡山県岡山市北区二日市町
7000844,岡山県,岡山市北区,御舟入町,オカヤマケン,オカヤマシキタク,オフナイリチョウ,岡山県岡山市北区御舟入町
7000845,岡山県,岡山市南区,浜野,オカヤマケン,オカヤマシミナミク,ハマノ,岡山県岡山市南区浜野
7000846,岡山県,岡山市北区,下内田町,オカヤマケン,オカヤマシキタク,シモウチダチョウ,岡山県岡山市北区下内田町
7000847,岡山県,岡山市北区,山科町,オカヤマケン,オカヤマシキタク,ヤマシナチョウ,岡山県岡山市北区山科町
7000851,岡山県,岡山市北区,七日市西町,オカヤマケン,オカヤマシキタク,ナノカイチニシマチ,岡山県岡山市北区七日市西町
7000852,岡山県,岡山市北区,七日市東町,オカヤマケン,オカヤマシキタク,ナノカイチヒガシマチ,岡山県岡山市北区七日市東町
7000853,岡山県,岡山市南区,豊浜町,オカヤマケン,オカヤマシミナミク,トヨハマチョウ,岡山県岡山市南区豊浜町
7000854,岡山県,岡山市北区,十日市東町,オカヤマケン,オカヤマシキタク,トウカイチヒガシマチ,岡山県岡山市北区十日市東町
7000855,岡山県,岡山市北区,十日市中町,オカヤマケン,オカヤマシキタク,トウカイチナカマチ,岡山県岡山市北区十日市中町
7000856,岡山県,岡山市北区,十日市西町,オカヤマケン,オカヤマシキタク,トウカイチニシマチ,岡山県岡山市北区十日市西町
7000861,岡山県,岡山市北区,清輝橋,オカヤマケン,オカヤマシキタク,セイキバシ,岡山県岡山市北区清輝橋
7000862,岡山県,岡山市北区,清輝本町,オカヤマケン,オカヤマシキタク,セイキホンマチ,岡山県岡山市北区清輝本町
7000863,岡山県,岡山市北区,新道,オカヤマケン,オカヤマシキタク,シンミチ,岡山県岡山市北区新道
7000864,岡山県,岡山市北区,旭町,オカヤマケン,オカヤマシキタク,アサヒマチ,岡山県岡山市北区旭町
7000865,岡山県,岡山市北区,旭本町,オカヤマケン,オカヤマシキタク,アサヒホンマチ,岡山県岡山市北区旭本町
7000866,岡山県,岡山市北区,岡南町,オカヤマケン,オカヤマシキタク,コウナンチョウ,岡山県岡山市北区岡南町
7000867,岡山県,岡山市北区,岡町,オカヤマケン,オカヤマシキタク,オカマチ,岡山県岡山市北区岡町
7000901,岡山県,岡山市北区,本町,オカヤマケン,オカヤマシキタク,ホンマチ,岡山県岡山市北区本町
7000902,岡山県,岡山市北区,錦町,オカヤマケン,オカヤマシキタク,ニシキマチ,岡山県岡山市北区錦町
7000903,岡山県,岡山市北区,幸町,オカヤマケン,オカヤマシキタク,サイワイチョウ,岡山県岡山市北区幸町
7000904,岡山県,岡山市北区,柳町,オカヤマケン,オカヤマシキタク,ヤナギマチ,岡山県岡山市北区柳町
7000905,岡山県,岡山市北区,春日町,オカヤマケン,オカヤマシキタク,カスガチョウ,岡山県岡山市北区春日町
7000906,岡山県,岡山市北区,大学町,オカヤマケン,オカヤマシキタク,ダイガクチョウ,岡山県岡山市北区大学町
7000907,岡山県,岡山市北区,下石井,オカヤマケン,オカヤマシキタク,シモイシイ,岡山県岡山市北区下石井
7000911,岡山県,岡山市北区,大供本町,オカヤマケン,オカヤマシキタク,ダイクホンマチ,岡山県岡山市北区大供本町
7000912,岡山県,岡山市北区,大供表町,オカヤマケン,オカヤマシキタク,ダイクオモテマチ,岡山県岡山市北区大供表町
7000913,岡山県,岡山市北区,大供,オカヤマケン,オカヤマシキタク,ダイク,岡山県岡山市北区大供
7000914,岡山県,岡山市北区,鹿田町,オカヤマケン,オカヤマシキタク,シカタチョウ,岡山県岡山市北区鹿田町
7000915,岡山県,岡山市北区,鹿田本町,オカヤマケン,オカヤマシキタク,シカタホンマチ,岡山県岡山市北区鹿田本町
7000916,岡山県,岡山市北区,西之町,オカヤマケン,オカヤマシキタク,ニシノチョウ,岡山県岡山市北区西之町
7000921,岡山県,岡山市北区,東古松,オカヤマケン,オカヤマシキタク,ヒガシフルマツ,岡山県岡山市北区東古松
7000922,岡山県,岡山市北区,東古松南町,オカヤマケン,オカヤマシキタク,ヒガシフルマツミナミマチ,岡山県岡山市北区東古松南町
7000923,岡山県,岡山市北区,大元駅前,オカヤマケン,オカヤマシキタク,オオモトエキマエ,岡山県岡山市北区大元駅前
7000924,岡山県,岡山市北区,大元,オカヤマケン,オカヤマシキタク,オオモト,岡山県岡山市北区大元
7000925,岡山県,岡山市北区,大元上町,オカヤマケン,オカヤマシキタク,オオモトカミマチ,岡山県岡山市北区大元上町
7000926,岡山県,岡山市北区,西古松西町,オカヤマケン,オカヤマシキタク,ニシフルマツニシマチ,岡山県岡山市北区西古松西町
7000927,岡山県,岡山市北区,西古松,オカヤマケン,オカヤマシキタク,ニシフルマツ,岡山県岡山市北区西古松
7000931,岡山県,岡山市北区,奥田西町,オカヤマケン,オカヤマシキタク,オクダニシマチ,岡山県岡山市北区奥田西町
7000932,岡山県,岡山市北区,奥田本町,オカヤマケン,オカヤマシキタク,オクダホンマチ,岡山県岡山市北区奥田本町
7000933,岡山県,岡山市北区,奥田,オカヤマケン,オカヤマシキタク,オクダ,岡山県岡山市北区奥田
7000934,岡山県,岡山市北区,奥田南町,オカヤマケン,オカヤマシキタク,オクダミナミマチ,岡山県岡山市北区奥田南町
7000935,岡山県,岡山市北区,神田町,オカヤマケン,オカヤマシキタク,カンダチョウ,岡山県岡山市北区神田町
7000936,岡山県,岡山市北区,富田,オカヤマケン,オカヤマシキタク,トミタ,岡山県岡山市北区富田
7000941,岡山県,岡山市北区,青江,オカヤマケン,オカヤマシキタク,アオエ,岡山県岡山市北区青江
7000941,岡山県,岡山市南区,青江,オカヤマケン,オカヤマシミナミク,アオエ,岡山県岡山市南区青江
7000942,岡山県,岡山市南区,豊成,オカヤマケン,オカヤマシミナミク,トヨナリ,岡山県岡山市南区豊成
7000943,岡山県,岡山市南区,新福,オカヤマケン,オカヤマシミナミク,シンプク,岡山県岡山市南区新福
7000944,岡山県,岡山市南区,泉田,オカヤマケン,オカヤマシミナミク,イズミダ,岡山県岡山市南区泉田
7000945,岡山県,岡山市南区,新保,オカヤマケン,オカヤマシミナミク,シンボウ,岡山県岡山市南区新保
7000951,岡山県,岡山市北区,田中,オカヤマケン,オカヤマシキタク,タナカ,岡山県岡山市北区田中
7000952,岡山県,岡山市北区,平田,オカヤマケン,オカヤマシキタク,ヒラタ,岡山県岡山市北区平田
7000953,岡山県,岡山市北区,西市,オカヤマケン,オカヤマシキタク,ニシイチ,岡山県岡山市北区西市
7000953,岡山県,岡山市南区,西市,オカヤマケン,オカヤマシミナミク,ニシイチ,岡山県岡山市南区西市
7000954,岡山県,岡山市南区,米倉,オカヤマケン,オカヤマシミナミク,ヨネグラ,岡山県岡山市南区米倉
7000955,岡山県,岡山市南区,万倍,オカヤマケン,オカヤマシミナミク,マンバイ,岡山県岡山市南区万倍
7000956,岡山県,岡山市南区,当新田,オカヤマケン,オカヤマシミナミク,トウシンデン,岡山県岡山市南区当新田
7000961,岡山県,岡山市北区,北長瀬本町,オカヤマケン,オカヤマシキタク,キタナガセホンマチ,岡山県岡山市北区北長瀬本町
7000962,岡山県,岡山市北区,北長瀬表町,オカヤマケン,オカヤマシキタク,キタナガセオモテマチ,岡山県岡山市北区北長瀬表町
7000963,岡山県,岡山市北区,北長瀬,オカヤマケン,オカヤマシキタク,キタナガセ,岡山県岡山市北区北長瀬
7000964,岡山県,岡山市北区,中仙道,オカヤマケン,オカヤマシキタク,ナカセンドウ,岡山県岡山市北区中仙道
7000965,岡山県,岡山市北区,西長瀬,オカヤマケン,オカヤマシキタク,ニシナガセ,岡山県岡山市北区西長瀬
7000966,岡山県,岡山市北区,日吉町,オカヤマケン,オカヤマシキタク,ヒヨシチョウ,岡山県岡山市北区日吉町
7000971,岡山県,岡山市北区,野田,オカヤマケン,オカヤマシキタク,ノダ,岡山県岡山市北区野田
7000972,岡山県,岡山市北区,上中野,オカヤマケン,オカヤマシキタク,カミナカノ,岡山県岡山市北区上中野
7000973,岡山県,岡山市北区,下中野,オカヤマケン,オカヤマシキタク,シモナカノ,岡山県岡山市北区下中野
7000973,岡山県,岡山市南区,下中野,オカヤマケン,オカヤマシミナミク,シモナカノ,岡山県岡山市南区下中野
7000974,岡山県,岡山市北区,今村,オカヤマケン,オカヤマシキタク,イマムラ,岡山県岡山市北区今村
7000975,岡山県,岡山市北区,今,オカヤマケン,オカヤマシキタク,イマ,岡山県岡山市北区今
7000976,岡山県,岡山市北区,辰巳,オカヤマケン,オカヤマシキタク,タツミ,岡山県岡山市北区辰巳
7000977,岡山県,岡山市北区,問屋町,オカヤマケン,オカヤマシキタク,トイヤチョウ,岡山県岡山市北区問屋町
7000981,岡山県,岡山市北区,西島田町,オカヤマケン,オカヤマシキタク,ニシシマダチョウ,岡山県岡山市北区西島田町
7000982,岡山県,岡山市北区,中島田町,オカヤマケン,オカヤマシキタク,ナカシマダチョウ,岡山県岡山市北区中島田町
7000983,岡山県,岡山市北区,東島田町,オカヤマケン,オカヤマシキタク,ヒガシシマダチョウ,岡山県岡山市北区東島田町
7000984,岡山県,岡山市北区,桑田町,オカヤマケン,オカヤマシキタク,クワダチョウ,岡山県岡山市北区桑田町
7000985,岡山県,岡山市北区,厚生町,オカヤマケン,オカヤマシキタク,コウセイチョウ,岡山県岡山市北区厚生町
7000986,岡山県,岡山市北区,新屋敷町,オカヤマケン,オカヤマシキタク,シンヤシキチョウ,岡山県岡山市北区新屋敷町
7010101,岡山県,倉敷市,日畑,オカヤマケン,クラシキシ,ヒバタ,岡山県倉敷市日畑
7010102,岡山県,倉敷市,庄新町,オカヤマケン,クラシキシ,ショウシンマチ,岡山県倉敷市庄新町
7010103,岡山県,倉敷市,西尾,オカヤマケン,クラシキシ,ニシオ,岡山県倉敷市西尾
7010104,岡山県,倉敷市,山地,オカヤマケン,クラシキシ,ヤマジ,岡山県倉敷市山地
7010105,岡山県,倉敷市,矢部,オカヤマケン,クラシキシ,ヤベ,岡山県倉敷市矢部
7010111,岡山県,倉敷市,上東,オカヤマケン,クラシキシ,ジョウトウ,岡山県倉敷市上東
7010112,岡山県,倉敷市,下庄,オカヤマケン,クラシキシ,シモショウ,岡山県倉敷市下庄
7010113,岡山県,倉敷市,栗坂,オカヤマケン,クラシキシ,クリサカ,岡山県倉敷市栗坂
7010114,岡山県,倉敷市,松島,オカヤマケン,クラシキシ,マツシマ,岡山県倉敷市松島
7010115,岡山県,倉敷市,二子,オカヤマケン,クラシキシ,フタゴ,岡山県倉敷市二子
7010131,岡山県,岡山市北区,花尻みどり町,オカヤマケン,オカヤマシキタク,ハナジリミドリマチ,岡山県岡山市北区花尻みどり町
7010132,岡山県,岡山市北区,花尻ききょう町,オカヤマケン,オカヤマシキタク,ハナジリキキョウマチ,岡山県岡山市北区花尻ききょう町
7010133,岡山県,岡山市北区,花尻あかね町,オカヤマケン,オカヤマシキタク,ハナジリアカネマチ,岡山県岡山市北区花尻あかね町
7010134,岡山県,岡山市北区,花尻,オカヤマケン,オカヤマシキタク,ハナジリ,岡山県岡山市北区花尻
7010135,岡山県,岡山市北区,東花尻,オカヤマケン,オカヤマシキタク,ヒガシハナジリ,岡山県岡山市北区東花尻
7010136,岡山県,岡山市北区,西花尻,オカヤマケン,オカヤマシキタク,ニシハナジリ,岡山県岡山市北区西花尻
7010141,岡山県,岡山市北区,白石東新町,オカヤマケン,オカヤマシキタク,シライシヒガシシンマチ,岡山県岡山市北区白石東新町
7010142,岡山県,岡山市北区,白石西新町,オカヤマケン,オカヤマシキタク,シライシニシシンマチ,岡山県岡山市北区白石西新町
7010143,岡山県,岡山市北区,白石,オカヤマケン,オカヤマシキタク,シライシ,岡山県岡山市北区白石
7010144,岡山県,岡山市北区,久米,オカヤマケン,オカヤマシキタク,クメ,岡山県岡山市北区久米
7010145,岡山県,岡山市北区,今保,オカヤマケン,オカヤマシキタク,イマボウ,岡山県岡山市北区今保
7010151,岡山県,岡山市北区,平野,オカヤマケン,オカヤマシキタク,ヒラノ,岡山県岡山市北区平野
7010152,岡山県,岡山市北区,延友,オカヤマケン,オカヤマシキタク,ノブトモ,岡山県岡山市北区延友
7010153,岡山県,岡山市北区,庭瀬,オカヤマケン,オカヤマシキタク,ニワセ,岡山県岡山市北区庭瀬
7010161,岡山県,岡山市北区,川入,オカヤマケン,オカヤマシキタク,カワイリ,岡山県岡山市北区川入
7010162,岡山県,岡山市北区,納所,オカヤマケン,オカヤマシキタク,ノウソ,岡山県岡山市北区納所
7010163,岡山県,岡山市北区,中撫川,オカヤマケン,オカヤマシキタク,ナカナツカワ,岡山県岡山市北区中撫川
7010164,岡山県,岡山市北区,撫川,オカヤマケン,オカヤマシキタク,ナツカワ,岡山県岡山市北区撫川
7010165,岡山県,岡山市北区,大内田,オカヤマケン,オカヤマシキタク,オオウチダ,岡山県岡山市北区大内田
7010201,岡山県,岡山市南区,妹尾崎,オカヤマケン,オカヤマシミナミク,セノオザキ,岡山県岡山市南区妹尾崎
7010202,岡山県,岡山市南区,山田,オカヤマケン,オカヤマシミナミク,ヤマダ,岡山県岡山市南区山田
7010203,岡山県,岡山市南区,古新田,オカヤマケン,オカヤマシミナミク,コシンデン,岡山県岡山市南区古新田
7010204,岡山県,岡山市南区,大福,オカヤマケン,オカヤマシミナミク,オオフク,岡山県岡山市南区大福
7010205,岡山県,岡山市南区,妹尾,オカヤマケン,オカヤマシミナミク,セノオ,岡山県岡山市南区妹尾
7010206,岡山県,岡山市南区,箕島,オカヤマケン,オカヤマシミナミク,ミシマ,岡山県岡山市南区箕島
7010211,岡山県,岡山市南区,東畦,オカヤマケン,オカヤマシミナミク,ヒガシウネ,岡山県岡山市南区東畦
7010212,岡山県,岡山市南区,内尾,オカヤマケン,オカヤマシミナミク,ウチオ,岡山県岡山市南区内尾
7010213,岡山県,岡山市南区,中畦,オカヤマケン,オカヤマシミナミク,ナカウネ,岡山県岡山市南区中畦
7010214,岡山県,岡山市南区,曽根,オカヤマケン,オカヤマシミナミク,ソネ,岡山県岡山市南区曽根
7010215,岡山県,岡山市南区,西畦,オカヤマケン,オカヤマシミナミク,ニシウネ,岡山県岡山市南区西畦
7010221,岡山県,岡山市南区,藤田,オカヤマケン,オカヤマシミナミク,フジタ,岡山県岡山市南区藤田
7010300,岡山県,都窪郡早島町,,オカヤマケン,ツクボグンハヤシマチョウ,,岡山県都窪郡早島町
7010301,岡山県,都窪郡早島町,矢尾,オカヤマケン,ツクボグンハヤシマチョウ,ヤオ,岡山県都窪郡早島町矢尾
7010302,岡山県,都窪郡早島町,若宮,オカヤマケン,ツクボグンハヤシマチョウ,ワカミヤ,岡山県都窪郡早島町若宮
7010303,岡山県,都窪郡早島町,前潟,オカヤマケン,ツクボグンハヤシマチョウ,マエガタ,岡山県都窪郡早島町前潟
7010304,岡山県,都窪郡早島町,早島,オカヤマケン,ツクボグンハヤシマチョウ,ハヤシマ,岡山県都窪郡早島町早島
7011131,岡山県,岡山市北区,日応寺,オカヤマケン,オカヤマシキタク,ニチオウジ,岡山県岡山市北区日応寺
7011132,岡山県,岡山市北区,田原,オカヤマケン,オカヤマシキタク,タバラ,岡山県岡山市北区田原
7011133,岡山県,岡山市北区,富吉,オカヤマケン,オカヤマシキタク,トミヨシ,岡山県岡山市北区富吉
7011134,岡山県,岡山市北区,三和,オカヤマケン,オカヤマシキタク,ミト,岡山県岡山市北区三和
7011141,岡山県,岡山市北区,菅野,オカヤマケン,オカヤマシキタク,スガノ,岡山県岡山市北区菅野
7011142,岡山県,岡山市北区,高野,オカヤマケン,オカヤマシキタク,タカノ,岡山県岡山市北区高野
7011143,岡山県,岡山市北区,吉宗,オカヤマケン,オカヤマシキタク,ヨシムネ,岡山県岡山市北区吉宗
7011144,岡山県,岡山市北区,栢谷,オカヤマケン,オカヤマシキタク,カイダニ,岡山県岡山市北区栢谷
7011145,岡山県,岡山市北区,横井上,オカヤマケン,オカヤマシキタク,ヨコイカミ,岡山県岡山市北区横井上
7011151,岡山県,岡山市北区,津高台,オカヤマケン,オカヤマシキタク,ツダカダイ,岡山県岡山市北区津高台
7011152,岡山県,岡山市北区,津高,オカヤマケン,オカヤマシキタク,ツダカ,岡山県岡山市北区津高
7011153,岡山県,岡山市北区,富原,オカヤマケン,オカヤマシキタク,トミハラ,岡山県岡山市北区富原
7011154,岡山県,岡山市北区,田益,オカヤマケン,オカヤマシキタク,タマス,岡山県岡山市北区田益
7011201,岡山県,岡山市北区,首部,オカヤマケン,オカヤマシキタク,コウベ,岡山県岡山市北区首部
7011202,岡山県,岡山市北区,楢津,オカヤマケン,オカヤマシキタク,ナラヅ,岡山県岡山市北区楢津
7011203,岡山県,岡山市北区,一宮山崎,オカヤマケン,オカヤマシキタク,イチノミヤヤマサキ,岡山県岡山市北区一宮山崎
7011204,岡山県,岡山市北区,今岡,オカヤマケン,オカヤマシキタク,イマオカ,岡山県岡山市北区今岡
7011205,岡山県,岡山市北区,佐山,オカヤマケン,オカヤマシキタク,サヤマ,岡山県岡山市北区佐山
7011211,岡山県,岡山市北区,一宮,オカヤマケン,オカヤマシキタク,イチノミヤ,岡山県岡山市北区一宮
7011212,岡山県,岡山市北区,尾上,オカヤマケン,オカヤマシキタク,オノウエ,岡山県岡山市北区尾上
7011213,岡山県,岡山市北区,西辛川,オカヤマケン,オカヤマシキタク,ニシカラカワ,岡山県岡山市北区西辛川
7011214,岡山県,岡山市北区,辛川市場,オカヤマケン,オカヤマシキタク,カラカワイチバ,岡山県岡山市北区辛川市場
7011221,岡山県,岡山市北区,芳賀,オカヤマケン,オカヤマシキタク,ハガ,岡山県岡山市北区芳賀
7011222,岡山県,岡山市北区,松尾,オカヤマケン,オカヤマシキタク,マツオ,岡山県岡山市北区松尾
7011223,岡山県,岡山市北区,大窪,オカヤマケン,オカヤマシキタク,オオクボ,岡山県岡山市北区大窪
7011224,岡山県,岡山市北区,長野,オカヤマケン,オカヤマシキタク,ナガノ,岡山県岡山市北区長野
7011225,岡山県,岡山市北区,福谷,オカヤマケン,オカヤマシキタク,フクタニ,岡山県岡山市北区福谷
7011226,岡山県,岡山市北区,横尾,オカヤマケン,オカヤマシキタク,ヨコオ,岡山県岡山市北区横尾
7011331,岡山県,岡山市北区,高松稲荷,オカヤマケン,オカヤマシキタク,タカマツイナリ,岡山県岡山市北区高松稲荷
7011332,岡山県,岡山市北区,平山,オカヤマケン,オカヤマシキタク,ヒラヤマ,岡山県岡山市北区平山
7011333,岡山県,岡山市北区,立田,オカヤマケン,オカヤマシキタク,タツタ,岡山県岡山市北区立田
7011334,岡山県,岡山市北区,高松原古才,オカヤマケン,オカヤマシキタク,タカマツハラコサイ,岡山県岡山市北区高松原古才
7011335,岡山県,岡山市北区,高松,オカヤマケン,オカヤマシキタク,タカマツ,岡山県岡山市北区高松
7011336,岡山県,岡山市北区,大崎,オカヤマケン,オカヤマシキタク,オオザキ,岡山県岡山市北区大崎
7011337,岡山県,岡山市北区,和井元,オカヤマケン,オカヤマシキタク,ワイモト,岡山県岡山市北区和井元
7011341,岡山県,岡山市北区,吉備津,オカヤマケン,オカヤマシキタク,キビツ,岡山県岡山市北区吉備津
7011342,岡山県,岡山市北区,加茂,オカヤマケン,オカヤマシキタク,カモ,岡山県岡山市北区加茂
7011343,岡山県,岡山市北区,惣爪,オカヤマケン,オカヤマシキタク,ソウヅメ,岡山県岡山市北区惣爪
7011344,岡山県,岡山市北区,新庄下,オカヤマケン,オカヤマシキタク,シンジョウシモ,岡山県岡山市北区新庄下
7011345,岡山県,岡山市北区,新庄上,オカヤマケン,オカヤマシキタク,シンジョウカミ,岡山県岡山市北区新庄上
7011346,岡山県,岡山市北区,津寺,オカヤマケン,オカヤマシキタク,ツデラ,岡山県岡山市北区津寺
7011351,岡山県,岡山市北区,門前,オカヤマケン,オカヤマシキタク,モンゼン,岡山県岡山市北区門前
7011352,岡山県,岡山市北区,小山,オカヤマケン,オカヤマシキタク,コヤマ,岡山県岡山市北区小山
7011353,岡山県,岡山市北区,三手,オカヤマケン,オカヤマシキタク,ミテ,岡山県岡山市北区三手
7011354,岡山県,岡山市北区,高塚,オカヤマケン,オカヤマシキタク,タカツカ,岡山県岡山市北区高塚
7011355,岡山県,岡山市北区,高松田中,オカヤマケン,オカヤマシキタク,タカマツタナカ,岡山県岡山市北区高松田中
7011356,岡山県,岡山市北区,下土田,オカヤマケン,オカヤマシキタク,シモツチダ,岡山県岡山市北区下土田
7011357,岡山県,岡山市北区,福崎,オカヤマケン,オカヤマシキタク,フクザキ,岡山県岡山市北区福崎
7011461,岡山県,岡山市北区,粟井,オカヤマケン,オカヤマシキタク,アワイ,岡山県岡山市北区粟井
7011462,岡山県,岡山市北区,大井,オカヤマケン,オカヤマシキタク,オオイ,岡山県岡山市北区大井
7011463,岡山県,岡山市北区,足守,オカヤマケン,オカヤマシキタク,アシモリ,岡山県岡山市北区足守
7011464,岡山県,岡山市北区,下足守,オカヤマケン,オカヤマシキタク,シモアシモリ,岡山県岡山市北区下足守
7011465,岡山県,岡山市北区,上土田,オカヤマケン,オカヤマシキタク,カミツチダ,岡山県岡山市北区上土田
7011521,岡山県,岡山市北区,日近,オカヤマケン,オカヤマシキタク,ヒジカイ,岡山県岡山市北区日近
7011522,岡山県,岡山市北区,杉谷,オカヤマケン,オカヤマシキタク,スギタニ,岡山県岡山市北区杉谷
7011523,岡山県,岡山市北区,吉,オカヤマケン,オカヤマシキタク,ヨシ,岡山県岡山市北区吉
7011524,岡山県,岡山市北区,下高田,オカヤマケン,オカヤマシキタク,シモタカダ,岡山県岡山市北区下高田
7011525,岡山県,岡山市北区,上高田,オカヤマケン,オカヤマシキタク,カミタカダ,岡山県岡山市北区上高田
7011526,岡山県,岡山市北区,山上,オカヤマケン,オカヤマシキタク,ヤマノウエ,岡山県岡山市北区山上
7011527,岡山県,岡山市北区,石妻,オカヤマケン,オカヤマシキタク,イシヅマ,岡山県岡山市北区石妻
7011601,岡山県,岡山市北区,掛畑,オカヤマケン,オカヤマシキタク,カケハタ,岡山県岡山市北区掛畑
7011602,岡山県,岡山市北区,真星,オカヤマケン,オカヤマシキタク,マナボシ,岡山県岡山市北区真星
7011603,岡山県,岡山市北区,庄田,オカヤマケン,オカヤマシキタク,ショウダ,岡山県岡山市北区庄田
7011604,岡山県,岡山市北区,苔山,オカヤマケン,オカヤマシキタク,コケヤマ,岡山県岡山市北区苔山
7011605,岡山県,岡山市北区,河原,オカヤマケン,オカヤマシキタク,カワハラ,岡山県岡山市北区河原
7011611,岡山県,岡山市北区,東山内,オカヤマケン,オカヤマシキタク,ヒガシヤマノウチ,岡山県岡山市北区東山内
7011612,岡山県,岡山市北区,西山内,オカヤマケン,オカヤマシキタク,ニシヤマノウチ,岡山県岡山市北区西山内
7011613,岡山県,岡山市北区,間倉,オカヤマケン,オカヤマシキタク,マグラ,岡山県岡山市北区間倉
7012141,岡山県,岡山市北区,牟佐,オカヤマケン,オカヤマシキタク,ムサ,岡山県岡山市北区牟佐
7012142,岡山県,岡山市北区,玉柏,オカヤマケン,オカヤマシキタク,タマガシ,岡山県岡山市北区玉柏
7012143,岡山県,岡山市北区,下牧,オカヤマケン,オカヤマシキタク,シモマキ,岡山県岡山市北区下牧
7012144,岡山県,岡山市北区,中牧,オカヤマケン,オカヤマシキタク,ナカマキ,岡山県岡山市北区中牧
7012151,岡山県,岡山市北区,金山寺,オカヤマケン,オカヤマシキタク,カナヤマジ,岡山県岡山市北区金山寺
7012152,岡山県,岡山市北区,高野尻,オカヤマケン,オカヤマシキタク,コウヤジリ,岡山県岡山市北区高野尻
7012153,岡山県,岡山市北区,畑鮎,オカヤマケン,オカヤマシキタク,ハタアユ,岡山県岡山市北区畑鮎
7012154,岡山県,岡山市北区,原,オカヤマケン,オカヤマシキタク,ハラ,岡山県岡山市北区原
7012155,岡山県,岡山市北区,中原,オカヤマケン,オカヤマシキタク,ナカハラ,岡山県岡山市北区中原
7012201,岡山県,赤磐市,小原,オカヤマケン,アカイワシ,コバラ,岡山県赤磐市小原
7012202,岡山県,赤磐市,坂辺,オカヤマケン,アカイワシ,サカナベ,岡山県赤磐市坂辺
7012203,岡山県,赤磐市,惣分,オカヤマケン,アカイワシ,ソウブン,岡山県赤磐市惣分
7012204,岡山県,赤磐市,山手,オカヤマケン,アカイワシ,ヤマテ,岡山県赤磐市山手
7012205,岡山県,赤磐市,大屋,オカヤマケン,アカイワシ,オオヤ,岡山県赤磐市大屋
7012211,岡山県,赤磐市,北佐古田,オカヤマケン,アカイワシ,キタサコダ,岡山県赤磐市北佐古田
7012212,岡山県,赤磐市,南佐古田,オカヤマケン,アカイワシ,ミナミサコダ,岡山県赤磐市南佐古田
7012213,岡山県,赤磐市,今井,オカヤマケン,アカイワシ,イマイ,岡山県赤磐市今井
7012214,岡山県,赤磐市,東軽部,オカヤマケン,アカイワシ,ヒガシカルベ,岡山県赤磐市東軽部
7012215,岡山県,赤磐市,西軽部,オカヤマケン,アカイワシ,ニシカルベ,岡山県赤磐市西軽部
7012216,岡山県,赤磐市,多賀,オカヤマケン,アカイワシ,タガ,岡山県赤磐市多賀
7012221,岡山県,赤磐市,大苅田,オカヤマケン,アカイワシ,オオカンダ,岡山県赤磐市大苅田
7012222,岡山県,赤磐市,町苅田,オカヤマケン,アカイワシ,マチカンダ,岡山県赤磐市町苅田
7012223,岡山県,赤磐市,東窪田,オカヤマケン,アカイワシ,ヒガシクボタ,岡山県赤磐市東窪田
7012224,岡山県,赤磐市,西窪田,オカヤマケン,アカイワシ,ニシクボタ,岡山県赤磐市西窪田
7012225,岡山県,赤磐市,山口,オカヤマケン,アカイワシ,ヤマグチ,岡山県赤磐市山口
7012226,岡山県,赤磐市,由津里,オカヤマケン,アカイワシ,ユヅリ,岡山県赤磐市由津里
7012431,岡山県,赤磐市,戸津野,オカヤマケン,アカイワシ,トツノ,岡山県赤磐市戸津野
7012432,岡山県,赤磐市,塩木,オカヤマケン,アカイワシ,シオギ,岡山県赤磐市塩木
7012433,岡山県,赤磐市,平山,オカヤマケン,アカイワシ,ヒラヤマ,岡山県赤磐市平山
7012434,岡山県,赤磐市,仁堀東,オカヤマケン,アカイワシ,ニボリヒガシ,岡山県赤磐市仁堀東
7012435,岡山県,赤磐市,仁堀中,オカヤマケン,アカイワシ,ニボリナカ,岡山県赤磐市仁堀中
7012436,岡山県,赤磐市,仁堀西,オカヤマケン,アカイワシ,ニボリニシ,岡山県赤磐市仁堀西
7012437,岡山県,赤磐市,中勢実,オカヤマケン,アカイワシ,ナカセイジツ,岡山県赤磐市中勢実
7012441,岡山県,赤磐市,西勢実,オカヤマケン,アカイワシ,ニシセイジツ,岡山県赤磐市西勢実
7012442,岡山県,赤磐市,広戸,オカヤマケン,アカイワシ,ヒロド,岡山県赤磐市広戸
7012443,岡山県,赤磐市,合田,オカヤマケン,アカイワシ,アイダ,岡山県赤磐市合田
7012444,岡山県,赤磐市,中畑,オカヤマケン,アカイワシ,ナカハタ,岡山県赤磐市中畑
7012445,岡山県,赤磐市,石上,オカヤマケン,アカイワシ,イシカミ,岡山県赤磐市石上
7012446,岡山県,赤磐市,小鎌,オカヤマケン,アカイワシ,オガモ,岡山県赤磐市小鎌
7012501,岡山県,赤磐市,河原屋,オカヤマケン,アカイワシ,カワラヤ,岡山県赤磐市河原屋
7012502,岡山県,赤磐市,草生,オカヤマケン,アカイワシ,クソウ,岡山県赤磐市草生
7012503,岡山県,赤磐市,周匝,オカヤマケン,アカイワシ,スサイ,岡山県赤磐市周匝
7012504,岡山県,赤磐市,福田,オカヤマケン,アカイワシ,フクダ,岡山県赤磐市福田
7012511,岡山県,赤磐市,稲蒔,オカヤマケン,アカイワシ,イナマキ,岡山県赤磐市稲蒔
7012512,岡山県,赤磐市,暮田,オカヤマケン,アカイワシ,クレダ,岡山県赤磐市暮田
7012513,岡山県,赤磐市,八島田,オカヤマケン,アカイワシ,ヤシマダ,岡山県赤磐市八島田
7012514,岡山県,赤磐市,石,オカヤマケン,アカイワシ,イシ,岡山県赤磐市石
7012515,岡山県,赤磐市,光木,オカヤマケン,アカイワシ,コウキ,岡山県赤磐市光木
7012521,岡山県,赤磐市,黒本,オカヤマケン,アカイワシ,クロモト,岡山県赤磐市黒本
7012522,岡山県,赤磐市,黒沢,オカヤマケン,アカイワシ,クロサワ,岡山県赤磐市黒沢
7012523,岡山県,赤磐市,中山,オカヤマケン,アカイワシ,ナカヤマ,岡山県赤磐市中山
7012524,岡山県,赤磐市,滝山,オカヤマケン,アカイワシ,タキヤマ,岡山県赤磐市滝山
7012525,岡山県,赤磐市,是里,オカヤマケン,アカイワシ,コレサト,岡山県赤磐市是里
7012601,岡山県,美作市,尾谷,オカヤマケン,ミマサカシ,オタニ,岡山県美作市尾谷
7012602,岡山県,美作市,真神,オカヤマケン,ミマサカシ,マガミ,岡山県美作市真神
7012603,岡山県,美作市,三保原,オカヤマケン,ミマサカシ,ミホバラ,岡山県美作市三保原
7012604,岡山県,美作市,福本,オカヤマケン,ミマサカシ,フクモト,岡山県美作市福本
7012605,岡山県,美作市,奥,オカヤマケン,ミマサカシ,オク,岡山県美作市奥
7012606,岡山県,美作市,井口,オカヤマケン,ミマサカシ,イグチ,岡山県美作市井口
7012611,岡山県,美作市,北,オカヤマケン,ミマサカシ,キタ,岡山県美作市北
7012612,岡山県,美作市,滝宮,オカヤマケン,ミマサカシ,タキミヤ,岡山県美作市滝宮
7012613,岡山県,美作市,横尾,オカヤマケン,ミマサカシ,ヨコオ,岡山県美作市横尾
7012614,岡山県,美作市,上山,オカヤマケン,ミマサカシ,ウエヤマ,岡山県美作市上山
7012615,岡山県,美作市,中川,オカヤマケン,ミマサカシ,ナカガワ,岡山県美作市中川
7012616,岡山県,美作市,南,オカヤマケン,ミマサカシ,ミナミ,岡山県美作市南
7012621,岡山県,美作市,下山,オカヤマケン,ミマサカシ,シモヤマ,岡山県美作市下山
7012622,岡山県,美作市,鳥渕,オカヤマケン,ミマサカシ,トリブチ,岡山県美作市鳥渕
7012623,岡山県,美作市,英田青野,オカヤマケン,ミマサカシ,アイダアオノ,岡山県美作市英田青野
7012624,岡山県,美作市,中河内,オカヤマケン,ミマサカシ,ナカゴウチ,岡山県美作市中河内
7012625,岡山県,美作市,城田,オカヤマケン,ミマサカシ,ジョウデン,岡山県美作市城田
7013201,岡山県,備前市,日生町寺山,オカヤマケン,ビゼンシ,ヒナセチョウテラヤマ,岡山県備前市日生町寺山
7013202,岡山県,備前市,日生町寒河,オカヤマケン,ビゼンシ,ヒナセチョウソウゴ,岡山県備前市日生町寒河
7013203,岡山県,備前市,日生町大多府,オカヤマケン,ビゼンシ,ヒナセチョウオオタブ,岡山県備前市日生町大多府
7013204,岡山県,備前市,日生町日生,オカヤマケン,ビゼンシ,ヒナセチョウヒナセ,岡山県備前市日生町日生
7014200,岡山県,瀬戸内市,,オカヤマケン,セトウチシ,,岡山県瀬戸内市
7014211,岡山県,瀬戸内市,邑久町庄田,オカヤマケン,セトウチシ,オクチョウショウダ,岡山県瀬戸内市邑久町庄田
7014212,岡山県,瀬戸内市,邑久町尻海,オカヤマケン,セトウチシ,オクチョウシリミ,岡山県瀬戸内市邑久町尻海
7014213,岡山県,瀬戸内市,邑久町山手,オカヤマケン,セトウチシ,オクチョウヤマテ,岡山県瀬戸内市邑久町山手
7014214,岡山県,瀬戸内市,邑久町本庄,オカヤマケン,セトウチシ,オクチョウホンジョウ,岡山県瀬戸内市邑久町本庄
7014215,岡山県,瀬戸内市,邑久町上山田,オカヤマケン,セトウチシ,オクチョウカミヤマダ,岡山県瀬戸内市邑久町上山田
7014216,岡山県,瀬戸内市,邑久町下山田,オカヤマケン,セトウチシ,オクチョウシモヤマダ,岡山県瀬戸内市邑久町下山田
7014221,岡山県,瀬戸内市,邑久町尾張,オカヤマケン,セトウチシ,オクチョウオワリ,岡山県瀬戸内市邑久町尾張
7014222,岡山県,瀬戸内市,邑久町豊安,オカヤマケン,セトウチシ,オクチョウトヨヤス,岡山県瀬戸内市邑久町豊安
7014223,岡山県,瀬戸内市,邑久町豊原,オカヤマケン,セトウチシ,オクチョウトヨハラ,岡山県瀬戸内市邑久町豊原
7014224,岡山県,瀬戸内市,邑久町東谷,オカヤマケン,セトウチシ,オクチョウヒガシダニ,岡山県瀬戸内市邑久町東谷
7014231,岡山県,瀬戸内市,邑久町大窪,オカヤマケン,セトウチシ,オクチョウオオクボ,岡山県瀬戸内市邑久町大窪
7014232,岡山県,瀬戸内市,邑久町北島,オカヤマケン,セトウチシ,オクチョウキタシマ,岡山県瀬戸内市邑久町北島
7014233,岡山県,瀬戸内市,邑久町向山,オカヤマケン,セトウチシ,オクチョウムコウヤマ,岡山県瀬戸内市邑久町向山
7014234,岡山県,瀬戸内市,邑久町大富,オカヤマケン,セトウチシ,オクチョウオオドミ,岡山県瀬戸内市邑久町大富
7014241,岡山県,瀬戸内市,邑久町福元,オカヤマケン,セトウチシ,オクチョウフクモト,岡山県瀬戸内市邑久町福元
7014243,岡山県,瀬戸内市,邑久町宗三,オカヤマケン,セトウチシ,オクチョウソウサン,岡山県瀬戸内市邑久町宗三
7014244,岡山県,瀬戸内市,邑久町福中,オカヤマケン,セトウチシ,オクチョウフクナカ,岡山県瀬戸内市邑久町福中
7014245,岡山県,瀬戸内市,邑久町福山,オカヤマケン,セトウチシ,オクチョウフクヤマ,岡山県瀬戸内市邑久町福山
7014246,岡山県,瀬戸内市,邑久町山田庄,オカヤマケン,セトウチシ,オクチョウヤマダノショウ,岡山県瀬戸内市邑久町山田庄
7014247,岡山県,瀬戸内市,邑久町下笠加,オカヤマケン,セトウチシ,オクチョウシモガサカ,岡山県瀬戸内市邑久町下笠加
7014248,岡山県,瀬戸内市,邑久町百田,オカヤマケン,セトウチシ,オクチョウモモダ,岡山県瀬戸内市邑久町百田
7014251,岡山県,瀬戸内市,邑久町北池,オカヤマケン,セトウチシ,オクチョウキタイケ,岡山県瀬戸内市邑久町北池
7014252,岡山県,瀬戸内市,邑久町上笠加,オカヤマケン,セトウチシ,オクチョウカミガサカ,岡山県瀬戸内市邑久町上笠加
7014253,岡山県,瀬戸内市,邑久町箕輪,オカヤマケン,セトウチシ,オクチョウミノワ,岡山県瀬戸内市邑久町箕輪
7014254,岡山県,瀬戸内市,邑久町豆田,オカヤマケン,セトウチシ,オクチョウマメダ,岡山県瀬戸内市邑久町豆田
7014261,岡山県,瀬戸内市,長船町飯井,オカヤマケン,セトウチシ,オサフネチョウイイ,岡山県瀬戸内市長船町飯井
7014262,岡山県,瀬戸内市,長船町東須恵,オカヤマケン,セトウチシ,オサフネチョウヒガシスエ,岡山県瀬戸内市長船町東須恵
7014263,岡山県,瀬戸内市,長船町西須恵,オカヤマケン,セトウチシ,オサフネチョウニシスエ,岡山県瀬戸内市長船町西須恵
7014264,岡山県,瀬戸内市,長船町土師,オカヤマケン,セトウチシ,オサフネチョウハジ,岡山県瀬戸内市長船町土師
7014265,岡山県,瀬戸内市,長船町福岡,オカヤマケン,セトウチシ,オサフネチョウフクオカ,岡山県瀬戸内市長船町福岡
7014271,岡山県,瀬戸内市,長船町長船,オカヤマケン,セトウチシ,オサフネチョウオサフネ,岡山県瀬戸内市長船町長船
7014272,岡山県,瀬戸内市,長船町八日市,オカヤマケン,セトウチシ,オサフネチョウヨウカイチ,岡山県瀬戸内市長船町八日市
7014273,岡山県,瀬戸内市,長船町磯上,オカヤマケン,セトウチシ,オサフネチョウイソカミ,岡山県瀬戸内市長船町磯上
7014274,岡山県,瀬戸内市,長船町牛文,オカヤマケン,セトウチシ,オサフネチョウウシフミ,岡山県瀬戸内市長船町牛文
7014275,岡山県,瀬戸内市,長船町福里,オカヤマケン,セトウチシ,オサフネチョウフクサト,岡山県瀬戸内市長船町福里
7014276,岡山県,瀬戸内市,長船町服部,オカヤマケン,セトウチシ,オサフネチョウハットリ,岡山県瀬戸内市長船町服部
7014301,岡山県,瀬戸内市,牛窓町長浜,オカヤマケン,セトウチシ,ウシマドチョウナガハマ,岡山県瀬戸内市牛窓町長浜
7014302,岡山県,瀬戸内市,牛窓町牛窓,オカヤマケン,セトウチシ,ウシマドチョウウシマド,岡山県瀬戸内市牛窓町牛窓
7014303,岡山県,瀬戸内市,牛窓町鹿忍,オカヤマケン,セトウチシ,ウシマドチョウカシノ,岡山県瀬戸内市牛窓町鹿忍
7014304,岡山県,瀬戸内市,牛窓町千手,オカヤマケン,セトウチシ,ウシマドチョウセンズ,岡山県瀬戸内市牛窓町千手
7014501,岡山県,瀬戸内市,邑久町虫明,オカヤマケン,セトウチシ,オクチョウムシアゲ,岡山県瀬戸内市邑久町虫明
7014502,岡山県,瀬戸内市,邑久町福谷,オカヤマケン,セトウチシ,オクチョウフクタニ,岡山県瀬戸内市邑久町福谷
7028001,岡山県,岡山市中区,沖元,オカヤマケン,オカヤマシナカク,オキモト,岡山県岡山市中区沖元
7028002,岡山県,岡山市中区,桑野,オカヤマケン,オカヤマシナカク,クワノ,岡山県岡山市中区桑野
7028003,岡山県,岡山市中区,新築港,オカヤマケン,オカヤマシナカク,シンチッコウ,岡山県岡山市中区新築港
7028004,岡山県,岡山市中区,江並,オカヤマケン,オカヤマシナカク,エナミ,岡山県岡山市中区江並
7028005,岡山県,岡山市中区,江崎,オカヤマケン,オカヤマシナカク,エザキ,岡山県岡山市中区江崎
7028006,岡山県,岡山市中区,藤崎,オカヤマケン,オカヤマシナカク,フジサキ,岡山県岡山市中区藤崎
7028011,岡山県,岡山市南区,郡,オカヤマケン,オカヤマシミナミク,コオリ,岡山県岡山市南区郡
7028012,岡山県,岡山市南区,北浦,オカヤマケン,オカヤマシミナミク,キタウラ,岡山県岡山市南区北浦
7028013,岡山県,岡山市南区,飽浦,オカヤマケン,オカヤマシミナミク,アクラ,岡山県岡山市南区飽浦
7028014,岡山県,岡山市南区,宮浦,オカヤマケン,オカヤマシミナミク,ミヤウラ,岡山県岡山市南区宮浦
7028015,岡山県,岡山市南区,阿津,オカヤマケン,オカヤマシミナミク,アツ,岡山県岡山市南区阿津
7028016,岡山県,岡山市南区,小串,オカヤマケン,オカヤマシミナミク,コグシ,岡山県岡山市南区小串
7028021,岡山県,岡山市南区,福田,オカヤマケン,オカヤマシミナミク,フクダ,岡山県岡山市南区福田
7028022,岡山県,岡山市南区,福成,オカヤマケン,オカヤマシミナミク,フクナリ,岡山県岡山市南区福成
7028023,岡山県,岡山市南区,南輝,オカヤマケン,オカヤマシミナミク,ナンキ,岡山県岡山市南区南輝
7028024,岡山県,岡山市南区,浦安南町,オカヤマケン,オカヤマシミナミク,ウラヤスミナミマチ,岡山県岡山市南区浦安南町
7028025,岡山県,岡山市南区,浦安西町,オカヤマケン,オカヤマシミナミク,ウラヤスニシマチ,岡山県岡山市南区浦安西町
7028026,岡山県,岡山市南区,浦安本町,オカヤマケン,オカヤマシミナミク,ウラヤスホンマチ,岡山県岡山市南区浦安本町
7028027,岡山県,岡山市南区,芳泉,オカヤマケン,オカヤマシミナミク,ホウセン,岡山県岡山市南区芳泉
7028031,岡山県,岡山市南区,福富西,オカヤマケン,オカヤマシミナミク,フクトミニシ,岡山県岡山市南区福富西
7028032,岡山県,岡山市南区,福富中,オカヤマケン,オカヤマシミナミク,フクトミナカ,岡山県岡山市南区福富中
7028033,岡山県,岡山市南区,福富東,オカヤマケン,オカヤマシミナミク,フクトミヒガシ,岡山県岡山市南区福富東
7028034,岡山県,岡山市南区,福浜西町,オカヤマケン,オカヤマシミナミク,フクハマニシマチ,岡山県岡山市南区福浜西町
7028035,岡山県,岡山市南区,福浜町,オカヤマケン,オカヤマシミナミク,フクハマチョウ,岡山県岡山市南区福浜町
7028036,岡山県,岡山市南区,三浜町,オカヤマケン,オカヤマシミナミク,ミハマチョウ,岡山県岡山市南区三浜町
7028037,岡山県,岡山市南区,千鳥町,オカヤマケン,オカヤマシミナミク,チドリチョウ,岡山県岡山市南区千鳥町
7028038,岡山県,岡山市南区,松浜町,オカヤマケン,オカヤマシミナミク,マツハマチョウ,岡山県岡山市南区松浜町
7028041,岡山県,岡山市南区,富浜町,オカヤマケン,オカヤマシミナミク,トミハマチョウ,岡山県岡山市南区富浜町
7028042,岡山県,岡山市南区,洲崎,オカヤマケン,オカヤマシミナミク,スザキ,岡山県岡山市南区洲崎
7028043,岡山県,岡山市南区,平福,オカヤマケン,オカヤマシミナミク,ヒラフク,岡山県岡山市南区平福
7028044,岡山県,岡山市南区,福島,オカヤマケン,オカヤマシミナミク,フクシマ,岡山県岡山市南区福島
7028045,岡山県,岡山市南区,海岸通,オカヤマケン,オカヤマシミナミク,カイガンドオリ,岡山県岡山市南区海岸通
7028046,岡山県,岡山市南区,立川町,オカヤマケン,オカヤマシミナミク,タチカワチョウ,岡山県岡山市南区立川町
7028047,岡山県,岡山市南区,若葉町,オカヤマケン,オカヤマシミナミク,ワカバチョウ,岡山県岡山市南区若葉町
7028048,岡山県,岡山市南区,福吉町,オカヤマケン,オカヤマシミナミク,フクヨシチョウ,岡山県岡山市南区福吉町
7028051,岡山県,岡山市南区,築港元町,オカヤマケン,オカヤマシミナミク,チッコウモトマチ,岡山県岡山市南区築港元町
7028052,岡山県,岡山市南区,市場,オカヤマケン,オカヤマシミナミク,シジョウ,岡山県岡山市南区市場
7028053,岡山県,岡山市南区,築港栄町,オカヤマケン,オカヤマシミナミク,チッコウサカエマチ,岡山県岡山市南区築港栄町
7028054,岡山県,岡山市南区,築港ひかり町,オカヤマケン,オカヤマシミナミク,チッコウヒカリマチ,岡山県岡山市南区築港ひかり町
7028055,岡山県,岡山市南区,築港緑町,オカヤマケン,オカヤマシミナミク,チッコウミドリマチ,岡山県岡山市南区築港緑町
7028056,岡山県,岡山市南区,築港新町,オカヤマケン,オカヤマシミナミク,チッコウシンマチ,岡山県岡山市南区築港新町
7028057,岡山県,岡山市南区,あけぼの町,オカヤマケン,オカヤマシミナミク,アケボノチョウ,岡山県岡山市南区あけぼの町
7028058,岡山県,岡山市南区,並木町,オカヤマケン,オカヤマシミナミク,ナミキチョウ,岡山県岡山市南区並木町
7038201,岡山県,岡山市中区,四御神,オカヤマケン,オカヤマシナカク,シノゴゼ,岡山県岡山市中区四御神
7038202,岡山県,岡山市中区,湯迫,オカヤマケン,オカヤマシナカク,ユバ,岡山県岡山市中区湯迫
7038203,岡山県,岡山市中区,国府市場,オカヤマケン,オカヤマシナカク,コクフイチバ,岡山県岡山市中区国府市場
7038204,岡山県,岡山市中区,雄町,オカヤマケン,オカヤマシナカク,オマチ,岡山県岡山市中区雄町
7038205,岡山県,岡山市中区,中井,オカヤマケン,オカヤマシナカク,ナカイ,岡山県岡山市中区中井
7038206,岡山県,岡山市中区,賞田,オカヤマケン,オカヤマシナカク,ショウダ,岡山県岡山市中区賞田
7038207,岡山県,岡山市中区,祇園,オカヤマケン,オカヤマシナカク,ギオン,岡山県岡山市中区祇園
7038207,岡山県,岡山市北区,祇園,オカヤマケン,オカヤマシキタク,ギオン,岡山県岡山市北区祇園
7038208,岡山県,岡山市中区,今在家,オカヤマケン,オカヤマシナカク,イマザイケ,岡山県岡山市中区今在家
7038211,岡山県,岡山市東区,矢津,オカヤマケン,オカヤマシヒガシク,ヤヅ,岡山県岡山市東区矢津
7038212,岡山県,岡山市東区,古都宿,オカヤマケン,オカヤマシヒガシク,コズシュク,岡山県岡山市東区古都宿
7038213,岡山県,岡山市東区,藤井,オカヤマケン,オカヤマシヒガシク,フジイ,岡山県岡山市東区藤井
7038214,岡山県,岡山市東区,鉄,オカヤマケン,オカヤマシヒガシク,クロガネ,岡山県岡山市東区鉄
7038215,岡山県,岡山市東区,古都南方,オカヤマケン,オカヤマシヒガシク,コズミナミガタ,岡山県岡山市東区古都南方
7038216,岡山県,岡山市東区,宍甘,オカヤマケン,オカヤマシヒガシク,シジカイ,岡山県岡山市東区宍甘
7038217,岡山県,岡山市中区,土田,オカヤマケン,オカヤマシナカク,ツチダ,岡山県岡山市中区土田
7038221,岡山県,岡山市中区,長岡,オカヤマケン,オカヤマシナカク,ナガオカ,岡山県岡山市中区長岡
7038222,岡山県,岡山市中区,下,オカヤマケン,オカヤマシナカク,シモ,岡山県岡山市中区下
7038223,岡山県,岡山市中区,長利,オカヤマケン,オカヤマシナカク,ナガトシ,岡山県岡山市中区長利
7038224,岡山県,岡山市中区,米田,オカヤマケン,オカヤマシナカク,ヨネダ,岡山県岡山市中区米田
7038225,岡山県,岡山市中区,神下,オカヤマケン,オカヤマシナカク,コウシタ,岡山県岡山市中区神下
7038226,岡山県,岡山市中区,今谷,オカヤマケン,オカヤマシナカク,イマダニ,岡山県岡山市中区今谷
7038227,岡山県,岡山市中区,兼基,オカヤマケン,オカヤマシナカク,カネモト,岡山県岡山市中区兼基
7038228,岡山県,岡山市中区,乙多見,オカヤマケン,オカヤマシナカク,オタミ,岡山県岡山市中区乙多見
7038231,岡山県,岡山市中区,赤田,オカヤマケン,オカヤマシナカク,アコダ,岡山県岡山市中区赤田
7038232,岡山県,岡山市中区,関,オカヤマケン,オカヤマシナカク,セキ,岡山県岡山市中区関
7038233,岡山県,岡山市中区,高屋,オカヤマケン,オカヤマシナカク,タカヤ,岡山県岡山市中区高屋
7038234,岡山県,岡山市中区,沢田,オカヤマケン,オカヤマシナカク,サワダ,岡山県岡山市中区沢田
7038235,岡山県,岡山市中区,原尾島,オカヤマケン,オカヤマシナカク,ハラオシマ,岡山県岡山市中区原尾島
7038236,岡山県,岡山市中区,国富,オカヤマケン,オカヤマシナカク,クニトミ,岡山県岡山市中区国富
7038237,岡山県,岡山市中区,森下町,オカヤマケン,オカヤマシナカク,モリシタチョウ,岡山県岡山市中区森下町
7038238,岡山県,岡山市中区,住吉町,オカヤマケン,オカヤマシナカク,スミヨシチョウ,岡山県岡山市中区住吉町
7038241,岡山県,岡山市中区,高島新屋敷,オカヤマケン,オカヤマシナカク,タカシマシンヤシキ,岡山県岡山市中区高島新屋敷
7038242,岡山県,岡山市中区,高島,オカヤマケン,オカヤマシナカク,タカシマ,岡山県岡山市中区高島
7038243,岡山県,岡山市中区,清水,オカヤマケン,オカヤマシナカク,シミズ,岡山県岡山市中区清水
7038244,岡山県,岡山市中区,藤原西町,オカヤマケン,オカヤマシナカク,フジワラニシマチ,岡山県岡山市中区藤原西町
7038245,岡山県,岡山市中区,藤原,オカヤマケン,オカヤマシナカク,フジワラ,岡山県岡山市中区藤原
7038246,岡山県,岡山市中区,藤原光町,オカヤマケン,オカヤマシナカク,フジワラヒカリマチ,岡山県岡山市中区藤原光町
7038247,岡山県,岡山市中区,さい東町,オカヤマケン,オカヤマシナカク,サイヒガシマチ,岡山県岡山市中区さい東町
7038248,岡山県,岡山市中区,さい,オカヤマケン,オカヤマシナカク,サイ,岡山県岡山市中区さい
7038251,岡山県,岡山市中区,竹田,オカヤマケン,オカヤマシナカク,タケダ,岡山県岡山市中区竹田
7038252,岡山県,岡山市中区,中島,オカヤマケン,オカヤマシナカク,ナカシマ,岡山県岡山市中区中島
7038253,岡山県,岡山市中区,八幡東町,オカヤマケン,オカヤマシナカク,ヤハタヒガシマチ,岡山県岡山市中区八幡東町
7038254,岡山県,岡山市中区,八幡,オカヤマケン,オカヤマシナカク,ヤハタ,岡山県岡山市中区八幡
7038255,岡山県,岡山市中区,東川原,オカヤマケン,オカヤマシナカク,ヒガシガワラ,岡山県岡山市中区東川原
7038256,岡山県,岡山市中区,浜,オカヤマケン,オカヤマシナカク,ハマ,岡山県岡山市中区浜
7038257,岡山県,岡山市北区,後楽園,オカヤマケン,オカヤマシキタク,コウラクエン,岡山県岡山市北区後楽園
7038258,岡山県,岡山市中区,西川原,オカヤマケン,オカヤマシナカク,ニシガワラ,岡山県岡山市中区西川原
7038261,岡山県,岡山市中区,海吉,オカヤマケン,オカヤマシナカク,ミヨシ,岡山県岡山市中区海吉
7038262,岡山県,岡山市中区,福泊,オカヤマケン,オカヤマシナカク,フクドマリ,岡山県岡山市中区福泊
7038263,岡山県,岡山市中区,倉益,オカヤマケン,オカヤマシナカク,クラマス,岡山県岡山市中区倉益
7038264,岡山県,岡山市中区,倉富,オカヤマケン,オカヤマシナカク,クラトミ,岡山県岡山市中区倉富
7038265,岡山県,岡山市中区,倉田,オカヤマケン,オカヤマシナカク,クラタ,岡山県岡山市中区倉田
7038266,岡山県,岡山市中区,湊,オカヤマケン,オカヤマシナカク,ミナト,岡山県岡山市中区湊
7038267,岡山県,岡山市中区,山崎,オカヤマケン,オカヤマシナカク,ヤマサキ,岡山県岡山市中区山崎
7038271,岡山県,岡山市中区,円山,オカヤマケン,オカヤマシナカク,マルヤマ,岡山県岡山市中区円山
7038272,岡山県,岡山市中区,奥市,オカヤマケン,オカヤマシナカク,オクイチ,岡山県岡山市中区奥市
7038273,岡山県,岡山市中区,門田文化町,オカヤマケン,オカヤマシナカク,カドタブンカマチ,岡山県岡山市中区門田文化町
7038274,岡山県,岡山市中区,門田本町,オカヤマケン,オカヤマシナカク,カドタホンマチ,岡山県岡山市中区門田本町
7038275,岡山県,岡山市中区,門田屋敷,オカヤマケン,オカヤマシナカク,カドタヤシキ,岡山県岡山市中区門田屋敷
7038276,岡山県,岡山市中区,門田屋敷本町,オカヤマケン,オカヤマシナカク,カドタヤシキホンマチ,岡山県岡山市中区門田屋敷本町
7038277,岡山県,岡山市中区,御成町,オカヤマケン,オカヤマシナカク,オナリチョウ,岡山県岡山市中区御成町
7038278,岡山県,岡山市中区,古京町,オカヤマケン,オカヤマシナカク,フルギョウチョウ,岡山県岡山市中区古京町
7038281,岡山県,岡山市中区,東山,オカヤマケン,オカヤマシナカク,ヒガシヤマ,岡山県岡山市中区東山
7038282,岡山県,岡山市中区,平井,オカヤマケン,オカヤマシナカク,ヒライ,岡山県岡山市中区平井
7038283,岡山県,岡山市中区,赤坂南新町,オカヤマケン,オカヤマシナカク,アカサカミナミシンマチ,岡山県岡山市中区赤坂南新町
7038284,岡山県,岡山市中区,網浜,オカヤマケン,オカヤマシナカク,アミノハマ,岡山県岡山市中区網浜
7038285,岡山県,岡山市中区,桜橋,オカヤマケン,オカヤマシナカク,サクラバシ,岡山県岡山市中区桜橋
7038286,岡山県,岡山市中区,旭東町,オカヤマケン,オカヤマシナカク,キョクトウチョウ,岡山県岡山市中区旭東町
7038287,岡山県,岡山市中区,赤坂台,オカヤマケン,オカヤマシナカク,アカサカダイ,岡山県岡山市中区赤坂台
7038288,岡山県,岡山市中区,赤坂本町,オカヤマケン,オカヤマシナカク,アカサカホンマチ,岡山県岡山市中区赤坂本町
7038291,岡山県,岡山市中区,徳吉町,オカヤマケン,オカヤマシナカク,トクヨシチョウ,岡山県岡山市中区徳吉町
7038292,岡山県,岡山市中区,中納言町,オカヤマケン,オカヤマシナカク,チュウナゴンチョウ,岡山県岡山市中区中納言町
7038293,岡山県,岡山市中区,小橋町,オカヤマケン,オカヤマシナカク,コバシチョウ,岡山県岡山市中区小橋町
7038294,岡山県,岡山市中区,新京橋,オカヤマケン,オカヤマシナカク,シンキョウバシ,岡山県岡山市中区新京橋
7038295,岡山県,岡山市中区,御幸町,オカヤマケン,オカヤマシナカク,ミユキチョウ,岡山県岡山市中区御幸町
7038296,岡山県,岡山市中区,さくら住座,オカヤマケン,オカヤマシナカク,サクラジュウザ,岡山県岡山市中区さくら住座
7038297,岡山県,岡山市中区,東中島町,オカヤマケン,オカヤマシナカク,ヒガシナカジマチョウ,岡山県岡山市中区東中島町
7038298,岡山県,岡山市中区,西中島町,オカヤマケン,オカヤマシナカク,ニシナカジマチョウ,岡山県岡山市中区西中島町
7048101,岡山県,岡山市東区,西隆寺,オカヤマケン,オカヤマシヒガシク,サイリュウジ,岡山県岡山市東区西隆寺
7048102,岡山県,岡山市東区,久保,オカヤマケン,オカヤマシヒガシク,クボ,岡山県岡山市東区久保
7048103,岡山県,岡山市東区,河本町,オカヤマケン,オカヤマシヒガシク,コウモトチョウ,岡山県岡山市東区河本町
7048104,岡山県,岡山市東区,富崎,オカヤマケン,オカヤマシヒガシク,トミサキ,岡山県岡山市東区富崎
7048105,岡山県,岡山市東区,吉原,オカヤマケン,オカヤマシヒガシク,ヨシワラ,岡山県岡山市東区吉原
7048106,岡山県,岡山市東区,西庄,オカヤマケン,オカヤマシヒガシク,ニシショウ,岡山県岡山市東区西庄
7048107,岡山県,岡山市東区,福治,オカヤマケン,オカヤマシヒガシク,フクジ,岡山県岡山市東区福治
7048111,岡山県,岡山市東区,西大寺北,オカヤマケン,オカヤマシヒガシク,サイダイジキタ,岡山県岡山市東区西大寺北
7048112,岡山県,岡山市東区,西大寺上,オカヤマケン,オカヤマシヒガシク,サイダイジカミ,岡山県岡山市東区西大寺上
7048113,岡山県,岡山市東区,西大寺,オカヤマケン,オカヤマシヒガシク,サイダイジ,岡山県岡山市東区西大寺
7048114,岡山県,岡山市東区,西大寺東,オカヤマケン,オカヤマシヒガシク,サイダイジヒガシ,岡山県岡山市東区西大寺東
7048115,岡山県,岡山市東区,向州,オカヤマケン,オカヤマシヒガシク,ムコウス,岡山県岡山市東区向州
7048116,岡山県,岡山市東区,西大寺中,オカヤマケン,オカヤマシヒガシク,サイダイジナカ,岡山県岡山市東区西大寺中
7048117,岡山県,岡山市東区,西大寺南,オカヤマケン,オカヤマシヒガシク,サイダイジミナミ,岡山県岡山市東区西大寺南
7048121,岡山県,岡山市東区,西大寺射越,オカヤマケン,オカヤマシヒガシク,サイダイジイコシ,岡山県岡山市東区西大寺射越
7048122,岡山県,岡山市東区,西大寺新地,オカヤマケン,オカヤマシヒガシク,サイダイジシンチ,岡山県岡山市東区西大寺新地
7048123,岡山県,岡山市東区,西大寺門前,オカヤマケン,オカヤマシヒガシク,サイダイジモンゼン,岡山県岡山市東区西大寺門前
7048124,岡山県,岡山市東区,西大寺五明,オカヤマケン,オカヤマシヒガシク,サイダイジゴミョウ,岡山県岡山市東区西大寺五明
7048125,岡山県,岡山市東区,西大寺川口,オカヤマケン,オカヤマシヒガシク,サイダイジカワグチ,岡山県岡山市東区西大寺川口
7048126,岡山県,岡山市東区,西大寺浜,オカヤマケン,オカヤマシヒガシク,サイダイジハマ,岡山県岡山市東区西大寺浜
7048127,岡山県,岡山市東区,西大寺新,オカヤマケン,オカヤマシヒガシク,サイダイジシン,岡山県岡山市東区西大寺新
7048131,岡山県,岡山市東区,長沼,オカヤマケン,オカヤマシヒガシク,ナガヌマ,岡山県岡山市東区長沼
7048132,岡山県,岡山市東区,邑久郷,オカヤマケン,オカヤマシヒガシク,オクノゴウ,岡山県岡山市東区邑久郷
7048133,岡山県,岡山市東区,宿毛,オカヤマケン,オカヤマシヒガシク,シュクモ,岡山県岡山市東区宿毛
7048134,岡山県,岡山市東区,北幸田,オカヤマケン,オカヤマシヒガシク,キタコウダ,岡山県岡山市東区北幸田
7048135,岡山県,岡山市東区,東幸西,オカヤマケン,オカヤマシヒガシク,ヒガシコウザイ,岡山県岡山市東区東幸西
7048136,岡山県,岡山市東区,西幸西,オカヤマケン,オカヤマシヒガシク,ニシコウザイ,岡山県岡山市東区西幸西
7048137,岡山県,岡山市東区,乙子,オカヤマケン,オカヤマシヒガシク,オトゴ,岡山県岡山市東区乙子
7048138,岡山県,岡山市東区,神崎町,オカヤマケン,オカヤマシヒガシク,カンザキチョウ,岡山県岡山市東区神崎町
7048141,岡山県,岡山市東区,下阿知,オカヤマケン,オカヤマシヒガシク,シモアチ,岡山県岡山市東区下阿知
7048142,岡山県,岡山市東区,上阿知,オカヤマケン,オカヤマシヒガシク,カミアチ,岡山県岡山市東区上阿知
7048143,岡山県,岡山市東区,千手,オカヤマケン,オカヤマシヒガシク,センジュ,岡山県岡山市東区千手
7048144,岡山県,岡山市東区,西大寺一宮,オカヤマケン,オカヤマシヒガシク,サイダイジイチノミヤ,岡山県岡山市東区西大寺一宮
7048145,岡山県,岡山市東区,東幸崎,オカヤマケン,オカヤマシヒガシク,ヒガシコウザキ,岡山県岡山市東区東幸崎
7048146,岡山県,岡山市東区,南水門町,オカヤマケン,オカヤマシヒガシク,ミナミスイモンチョウ,岡山県岡山市東区南水門町
7048147,岡山県,岡山市東区,正儀,オカヤマケン,オカヤマシヒガシク,マサキ,岡山県岡山市東区正儀
7048148,岡山県,岡山市東区,水門町,オカヤマケン,オカヤマシヒガシク,スイモンチョウ,岡山県岡山市東区水門町
7048149,岡山県,岡山市東区,幸地崎町,オカヤマケン,オカヤマシヒガシク,コウチザキチョウ,岡山県岡山市東区幸地崎町
7048151,岡山県,岡山市東区,東片岡,オカヤマケン,オカヤマシヒガシク,ヒガシカタオカ,岡山県岡山市東区東片岡
7048152,岡山県,岡山市東区,宝伝,オカヤマケン,オカヤマシヒガシク,ホウデン,岡山県岡山市東区宝伝
7048153,岡山県,岡山市東区,犬島,オカヤマケン,オカヤマシヒガシク,イヌジマ,岡山県岡山市東区犬島
7048154,岡山県,岡山市東区,久々井,オカヤマケン,オカヤマシヒガシク,クグイ,岡山県岡山市東区久々井
7048155,岡山県,岡山市東区,西片岡,オカヤマケン,オカヤマシヒガシク,ニシカタオカ,岡山県岡山市東区西片岡
7048161,岡山県,岡山市東区,九蟠,オカヤマケン,オカヤマシヒガシク,クバン,岡山県岡山市東区九蟠
7048162,岡山県,岡山市東区,豊田,オカヤマケン,オカヤマシヒガシク,トヨタ,岡山県岡山市東区豊田
7048163,岡山県,岡山市東区,升田,オカヤマケン,オカヤマシヒガシク,マスダ,岡山県岡山市東区升田
7048164,岡山県,岡山市東区,光津,オカヤマケン,オカヤマシヒガシク,コウツ,岡山県岡山市東区光津
7048165,岡山県,岡山市東区,政津,オカヤマケン,オカヤマシヒガシク,マサツ,岡山県岡山市東区政津
7048166,岡山県,岡山市東区,君津,オカヤマケン,オカヤマシヒガシク,キミツ,岡山県岡山市東区君津
7048171,岡山県,岡山市東区,目黒町,オカヤマケン,オカヤマシヒガシク,メグロチョウ,岡山県岡山市東区目黒町
7048172,岡山県,岡山市東区,大多羅町,オカヤマケン,オカヤマシヒガシク,オオダラチョウ,岡山県岡山市東区大多羅町
7048173,岡山県,岡山市東区,可知,オカヤマケン,オカヤマシヒガシク,カチ,岡山県岡山市東区可知
7048174,岡山県,岡山市東区,松新町,オカヤマケン,オカヤマシヒガシク,マツシンチョウ,岡山県岡山市東区松新町
7048175,岡山県,岡山市東区,益野町,オカヤマケン,オカヤマシヒガシク,マスノチョウ,岡山県岡山市東区益野町
7048176,岡山県,岡山市東区,中川町,オカヤマケン,オカヤマシヒガシク,ナカガワチョウ,岡山県岡山市東区中川町
7048181,岡山県,岡山市東区,浅越,オカヤマケン,オカヤマシヒガシク,アサゴエ,岡山県岡山市東区浅越
7048182,岡山県,岡山市東区,広谷,オカヤマケン,オカヤマシヒガシク,ヒロタニ,岡山県岡山市東区広谷
7048183,岡山県,岡山市東区,西大寺松崎,オカヤマケン,オカヤマシヒガシク,サイダイジマツザキ,岡山県岡山市東区西大寺松崎
7048184,岡山県,岡山市東区,富士見町,オカヤマケン,オカヤマシヒガシク,フジミチョウ,岡山県岡山市東区富士見町
7048191,岡山県,岡山市東区,西大寺中野,オカヤマケン,オカヤマシヒガシク,サイダイジナカノ,岡山県岡山市東区西大寺中野
7048192,岡山県,岡山市東区,西大寺中野本町,オカヤマケン,オカヤマシヒガシク,サイダイジナカノホンマチ,岡山県岡山市東区西大寺中野本町
7048193,岡山県,岡山市東区,金岡西町,オカヤマケン,オカヤマシヒガシク,カナオカニシマチ,岡山県岡山市東区金岡西町
7048194,岡山県,岡山市東区,金岡東町,オカヤマケン,オカヤマシヒガシク,カナオカヒガシマチ,岡山県岡山市東区金岡東町
7048195,岡山県,岡山市東区,西大寺金岡,オカヤマケン,オカヤマシヒガシク,サイダイジカナオカ,岡山県岡山市東区西大寺金岡
7048196,岡山県,岡山市東区,金田,オカヤマケン,オカヤマシヒガシク,カナダ,岡山県岡山市東区金田
7050000,岡山県,備前市,,オカヤマケン,ビゼンシ,,岡山県備前市
7050001,岡山県,備前市,伊部,オカヤマケン,ビゼンシ,インベ,岡山県備前市伊部
7050002,岡山県,備前市,浦伊部,オカヤマケン,ビゼンシ,ウラインベ,岡山県備前市浦伊部
7050003,岡山県,備前市,大内,オカヤマケン,ビゼンシ,オオチ,岡山県備前市大内
7050011,岡山県,備前市,香登西,オカヤマケン,ビゼンシ,カガトニシ,岡山県備前市香登西
7050012,岡山県,備前市,香登本,オカヤマケン,ビゼンシ,カガトモト,岡山県備前市香登本
7050013,岡山県,備前市,福田,オカヤマケン,ビゼンシ,フクダ,岡山県備前市福田
7050014,岡山県,備前市,新庄,オカヤマケン,ビゼンシ,シンジョウ,岡山県備前市新庄
7050015,岡山県,備前市,畠田,オカヤマケン,ビゼンシ,ハタケダ,岡山県備前市畠田
7050016,岡山県,備前市,坂根,オカヤマケン,ビゼンシ,サカネ,岡山県備前市坂根
7050021,岡山県,備前市,西片上,オカヤマケン,ビゼンシ,ニシカタカミ,岡山県備前市西片上
7050022,岡山県,備前市,東片上,オカヤマケン,ビゼンシ,ヒガシカタカミ,岡山県備前市東片上
7050023,岡山県,備前市,伊里中,オカヤマケン,ビゼンシ,イリナカ,岡山県備前市伊里中
7050024,岡山県,備前市,久々井,オカヤマケン,ビゼンシ,クグイ,岡山県備前市久々井
7050025,岡山県,備前市,鶴海,オカヤマケン,ビゼンシ,ツルミ,岡山県備前市鶴海
7050026,岡山県,備前市,佐山,オカヤマケン,ビゼンシ,サヤマ,岡山県備前市佐山
7050031,岡山県,備前市,蕃山,オカヤマケン,ビゼンシ,シゲヤマ,岡山県備前市蕃山
7050032,岡山県,備前市,麻宇那,オカヤマケン,ビゼンシ,アソウナ,岡山県備前市麻宇那
7050033,岡山県,備前市,穂浪,オカヤマケン,ビゼンシ,ホナミ,岡山県備前市穂浪
7050034,岡山県,備前市,友延,オカヤマケン,ビゼンシ,トモノブ,岡山県備前市友延
7050035,岡山県,備前市,木谷,オカヤマケン,ビゼンシ,キダニ,岡山県備前市木谷
7050036,岡山県,備前市,閑谷,オカヤマケン,ビゼンシ,シズタニ,岡山県備前市閑谷
7050131,岡山県,備前市,野谷,オカヤマケン,ビゼンシ,ノダニ,岡山県備前市野谷
7050132,岡山県,備前市,三石,オカヤマケン,ビゼンシ,ミツイシ,岡山県備前市三石
7050133,岡山県,備前市,八木山,オカヤマケン,ビゼンシ,ヤキヤマ,岡山県備前市八木山
7060000,岡山県,玉野市,,オカヤマケン,タマノシ,,岡山県玉野市
7060001,岡山県,玉野市,田井,オカヤマケン,タマノシ,タイ,岡山県玉野市田井
7060002,岡山県,玉野市,築港,オカヤマケン,タマノシ,チッコウ,岡山県玉野市築港
7060011,岡山県,玉野市,宇野,オカヤマケン,タマノシ,ウノ,岡山県玉野市宇野
7060012,岡山県,玉野市,玉,オカヤマケン,タマノシ,タマ,岡山県玉野市玉
7060013,岡山県,玉野市,奥玉,オカヤマケン,タマノシ,オクタマ,岡山県玉野市奥玉
7060014,岡山県,玉野市,玉原,オカヤマケン,タマノシ,タマハラ,岡山県玉野市玉原
7060021,岡山県,玉野市,和田,オカヤマケン,タマノシ,ワダ,岡山県玉野市和田
7060022,岡山県,玉野市,向日比,オカヤマケン,タマノシ,ムカイヒビ,岡山県玉野市向日比
7060023,岡山県,玉野市,深井町,オカヤマケン,タマノシ,フカイチョウ,岡山県玉野市深井町
7060024,岡山県,玉野市,御崎,オカヤマケン,タマノシ,オンザキ,岡山県玉野市御崎
7060025,岡山県,玉野市,明神町,オカヤマケン,タマノシ,ミョウジンチョウ,岡山県玉野市明神町
7060026,岡山県,玉野市,羽根崎町,オカヤマケン,タマノシ,ハネザキチョウ,岡山県玉野市羽根崎町
7060027,岡山県,玉野市,日比,オカヤマケン,タマノシ,ヒビ,岡山県玉野市日比
7060028,岡山県,玉野市,渋川,オカヤマケン,タマノシ,シブカワ,岡山県玉野市渋川
7060131,岡山県,玉野市,東紅陽台,オカヤマケン,タマノシ,ヒガシコウヨウダイ,岡山県玉野市東紅陽台
7060132,岡山県,玉野市,用吉,オカヤマケン,タマノシ,モチヨシ,岡山県玉野市用吉
7060133,岡山県,玉野市,宇藤木,オカヤマケン,タマノシ,ウトウギ,岡山県玉野市宇藤木
7060134,岡山県,玉野市,東高崎,オカヤマケン,タマノシ,ヒガシタカサキ,岡山県玉野市東高崎
7060141,岡山県,玉野市,槌ケ原,オカヤマケン,タマノシ,ツチガハラ,岡山県玉野市槌ケ原
7060142,岡山県,玉野市,迫間,オカヤマケン,タマノシ,ハザマ,岡山県玉野市迫間
7060143,岡山県,玉野市,木目,オカヤマケン,タマノシ,モクメ,岡山県玉野市木目
7060144,岡山県,玉野市,小島地,オカヤマケン,タマノシ,コシマジ,岡山県玉野市小島地
7060151,岡山県,玉野市,長尾,オカヤマケン,タマノシ,ナガオ,岡山県玉野市長尾
7060152,岡山県,玉野市,永井,オカヤマケン,タマノシ,ナガイ,岡山県玉野市永井
7060153,岡山県,玉野市,滝,オカヤマケン,タマノシ,タキ,岡山県玉野市滝
7060154,岡山県,玉野市,広岡,オカヤマケン,タマノシ,ヒロオカ,岡山県玉野市広岡
7060221,岡山県,玉野市,八浜町八浜,オカヤマケン,タマノシ,ハチハマチョウハチハマ,岡山県玉野市八浜町八浜
7060222,岡山県,玉野市,八浜町見石,オカヤマケン,タマノシ,ハチハマチョウミイシ,岡山県玉野市八浜町見石
7060223,岡山県,玉野市,八浜町波知,オカヤマケン,タマノシ,ハチハマチョウハチ,岡山県玉野市八浜町波知
7060224,岡山県,玉野市,八浜町大崎,オカヤマケン,タマノシ,ハチハマチョウオオサキ,岡山県玉野市八浜町大崎
7060225,岡山県,玉野市,南七区,オカヤマケン,タマノシ,ミナミナナク,岡山県玉野市南七区
7060226,岡山県,玉野市,東七区,オカヤマケン,タマノシ,ヒガシナナク,岡山県玉野市東七区
7060301,岡山県,玉野市,北方,オカヤマケン,タマノシ,キタガタ,岡山県玉野市北方
7060302,岡山県,玉野市,下山坂,オカヤマケン,タマノシ,シモヤマサカ,岡山県玉野市下山坂
7060303,岡山県,玉野市,上山坂,オカヤマケン,タマノシ,カミヤマサカ,岡山県玉野市上山坂
7060304,岡山県,玉野市,番田,オカヤマケン,タマノシ,バンダ,岡山県玉野市番田
7060305,岡山県,玉野市,胸上,オカヤマケン,タマノシ,ムネアゲ,岡山県玉野市胸上
7060306,岡山県,玉野市,石島,オカヤマケン,タマノシ,イシマ,岡山県玉野市石島
7060311,岡山県,玉野市,梶岡,オカヤマケン,タマノシ,カジオカ,岡山県玉野市梶岡
7060312,岡山県,玉野市,東田井地,オカヤマケン,タマノシ,ヒガシタイジ,岡山県玉野市東田井地
7060313,岡山県,玉野市,西田井地,オカヤマケン,タマノシ,ニシタイジ,岡山県玉野市西田井地
7060314,岡山県,玉野市,山田,オカヤマケン,タマノシ,ヤマダ,岡山県玉野市山田
7060314,岡山県,玉野市,東野崎,オカヤマケン,タマノシ,ヒガシノザキ,岡山県玉野市東野崎
7060315,岡山県,玉野市,後閑,オカヤマケン,タマノシ,ゴカン,岡山県玉野市後閑
7060316,岡山県,玉野市,沼,オカヤマケン,タマノシ,ヌマ,岡山県玉野市沼
7060317,岡山県,玉野市,大薮,オカヤマケン,タマノシ,オオヤブ,岡山県玉野市大薮
7070000,岡山県,美作市,,オカヤマケン,ミマサカシ,,岡山県美作市
7070001,岡山県,美作市,上相,オカヤマケン,ミマサカシ,カミヤ,岡山県美作市上相
7070002,岡山県,美作市,中尾,オカヤマケン,ミマサカシ,ナカオ,岡山県美作市中尾
7070003,岡山県,美作市,明見,オカヤマケン,ミマサカシ,ミョウケン,岡山県美作市明見
7070004,岡山県,美作市,入田,オカヤマケン,ミマサカシ,ニュウタ,岡山県美作市入田
7070005,岡山県,美作市,大井が丘,オカヤマケン,ミマサカシ,オオイガオカ,岡山県美作市大井が丘
7070011,岡山県,美作市,和田,オカヤマケン,ミマサカシ,ワダ,岡山県美作市和田
7070012,岡山県,美作市,田殿,オカヤマケン,ミマサカシ,タドノ,岡山県美作市田殿
7070013,岡山県,美作市,吉,オカヤマケン,ミマサカシ,ヨシ,岡山県美作市吉
7070014,岡山県,美作市,北山,オカヤマケン,ミマサカシ,キタヤマ,岡山県美作市北山
7070015,岡山県,美作市,豊国原,オカヤマケン,ミマサカシ,トヨクニハラ,岡山県美作市豊国原
7070016,岡山県,美作市,下香山,オカヤマケン,ミマサカシ,シモカヤマ,岡山県美作市下香山
7070021,岡山県,美作市,楢原中,オカヤマケン,ミマサカシ,ナラハラナカ,岡山県美作市楢原中
7070022,岡山県,美作市,楢原上,オカヤマケン,ミマサカシ,ナラハラカミ,岡山県美作市楢原上
7070023,岡山県,美作市,平福,オカヤマケン,ミマサカシ,ヒラフク,岡山県美作市平福
7070024,岡山県,美作市,楢原下,オカヤマケン,ミマサカシ,ナラハラシモ,岡山県美作市楢原下
7070025,岡山県,美作市,栄町,オカヤマケン,ミマサカシ,サカエマチ,岡山県美作市栄町
7070031,岡山県,美作市,山口,オカヤマケン,ミマサカシ,ヤマグチ,岡山県美作市山口
7070032,岡山県,美作市,山外野,オカヤマケン,ミマサカシ,ヤマトノ,岡山県美作市山外野
7070033,岡山県,美作市,大原,オカヤマケン,ミマサカシ,オオバラ,岡山県美作市大原
7070034,岡山県,美作市,猪臥,オカヤマケン,ミマサカシ,イブシ,岡山県美作市猪臥
7070035,岡山県,美作市,平田,オカヤマケン,ミマサカシ,ヒラタ,岡山県美作市平田
7070036,岡山県,美作市,北原,オカヤマケン,ミマサカシ,キタバラ,岡山県美作市北原
7070037,岡山県,美作市,友野,オカヤマケン,ミマサカシ,トモノ,岡山県美作市友野
7070041,岡山県,美作市,林野,オカヤマケン,ミマサカシ,ハヤシノ,岡山県美作市林野
7070042,岡山県,美作市,朽木,オカヤマケン,ミマサカシ,クツギ,岡山県美作市朽木
7070043,岡山県,美作市,海内,オカヤマケン,ミマサカシ,ミウチ,岡山県美作市海内
7070044,岡山県,美作市,海田,オカヤマケン,ミマサカシ,カイタ,岡山県美作市海田
7070045,岡山県,美作市,巨勢,オカヤマケン,ミマサカシ,コセ,岡山県美作市巨勢
7070046,岡山県,美作市,三倉田,オカヤマケン,ミマサカシ,ミクラダ,岡山県美作市三倉田
7070051,岡山県,美作市,稲穂,オカヤマケン,ミマサカシ,イナホ,岡山県美作市稲穂
7070052,岡山県,美作市,位田,オカヤマケン,ミマサカシ,イデン,岡山県美作市位田
7070053,岡山県,美作市,安蘇,オカヤマケン,ミマサカシ,アソ,岡山県美作市安蘇
7070054,岡山県,美作市,岩見田,オカヤマケン,ミマサカシ,イワミダ,岡山県美作市岩見田
7070055,岡山県,美作市,金原,オカヤマケン,ミマサカシ,カナハラ,岡山県美作市金原
7070056,岡山県,美作市,長内,オカヤマケン,ミマサカシ,ナガウチ,岡山県美作市長内
7070057,岡山県,美作市,則平,オカヤマケン,ミマサカシ,ノリヒラ,岡山県美作市則平
7070061,岡山県,美作市,中山,オカヤマケン,ミマサカシ,ナカヤマ,岡山県美作市中山
7070062,岡山県,美作市,湯郷,オカヤマケン,ミマサカシ,ユノゴウ,岡山県美作市湯郷
7070063,岡山県,美作市,北坂,オカヤマケン,ミマサカシ,キタサカ,岡山県美作市北坂
7070064,岡山県,美作市,殿所,オカヤマケン,ミマサカシ,トノドコロ,岡山県美作市殿所
7070065,岡山県,美作市,青木,オカヤマケン,ミマサカシ,アオキ,岡山県美作市青木
7070066,岡山県,美作市,下大谷,オカヤマケン,ミマサカシ,シモオオタニ,岡山県美作市下大谷
7070067,岡山県,美作市,奥大谷,オカヤマケン,ミマサカシ,オクオオタニ,岡山県美作市奥大谷
7070111,岡山県,美作市,久賀,オカヤマケン,ミマサカシ,クガ,岡山県美作市久賀
7070112,岡山県,美作市,余野,オカヤマケン,ミマサカシ,ヨノ,岡山県美作市余野
7070113,岡山県,美作市,真加部,オカヤマケン,ミマサカシ,マカベ,岡山県美作市真加部
7070121,岡山県,美作市,長谷内,オカヤマケン,ミマサカシ,ハセウチ,岡山県美作市長谷内
7070122,岡山県,美作市,馬形,オカヤマケン,ミマサカシ,マガタ,岡山県美作市馬形
7070123,岡山県,美作市,宗掛,オカヤマケン,ミマサカシ,ムナカケ,岡山県美作市宗掛
7070124,岡山県,美作市,大町,オカヤマケン,ミマサカシ,オオマチ,岡山県美作市大町
7070131,岡山県,美作市,河内,オカヤマケン,ミマサカシ,コウチ,岡山県美作市河内
7070132,岡山県,美作市,小畑,オカヤマケン,ミマサカシ,オバタ,岡山県美作市小畑
7070133,岡山県,美作市,杉原,オカヤマケン,ミマサカシ,スギハラ,岡山県美作市杉原
7070134,岡山県,美作市,矢田,オカヤマケン,ミマサカシ,ヤタ,岡山県美作市矢田
7070201,岡山県,美作市,梶並,オカヤマケン,ミマサカシ,カジナミ,岡山県美作市梶並
7070202,岡山県,美作市,楮,オカヤマケン,ミマサカシ,コウゾ,岡山県美作市楮
7070203,岡山県,美作市,真殿,オカヤマケン,ミマサカシ,マトノ,岡山県美作市真殿
7070204,岡山県,美作市,右手,オカヤマケン,ミマサカシ,ウテ,岡山県美作市右手
7070205,岡山県,美作市,東谷上,オカヤマケン,ミマサカシ,ヒガシダニカミ,岡山県美作市東谷上
7070206,岡山県,美作市,東谷下,オカヤマケン,ミマサカシ,ヒガシダニシモ,岡山県美作市東谷下
7070401,岡山県,美作市,後山,オカヤマケン,ミマサカシ,ウシロヤマ,岡山県美作市後山
7070402,岡山県,美作市,中谷,オカヤマケン,ミマサカシ,ナカダニ,岡山県美作市中谷
7070403,岡山県,美作市,東青野,オカヤマケン,ミマサカシ,ヒガシアオノ,岡山県美作市東青野
7070404,岡山県,美作市,太田,オカヤマケン,ミマサカシ,オオタ,岡山県美作市太田
7070405,岡山県,美作市,野原,オカヤマケン,ミマサカシ,ノハラ,岡山県美作市野原
7070406,岡山県,美作市,東吉田,オカヤマケン,ミマサカシ,ヒガシヨシダ,岡山県美作市東吉田
7070407,岡山県,美作市,川東,オカヤマケン,ミマサカシ,カワヒガシ,岡山県美作市川東
7070411,岡山県,美作市,江ノ原,オカヤマケン,ミマサカシ,エノハラ,岡山県美作市江ノ原
7070412,岡山県,美作市,古町,オカヤマケン,ミマサカシ,フルマチ,岡山県美作市古町
7070413,岡山県,美作市,中町,オカヤマケン,ミマサカシ,ナカマチ,岡山県美作市中町
7070414,岡山県,美作市,西町,オカヤマケン,ミマサカシ,ニシマチ,岡山県美作市西町
7070415,岡山県,美作市,宮本,オカヤマケン,ミマサカシ,ミヤモト,岡山県美作市宮本
7070416,岡山県,美作市,今岡,オカヤマケン,ミマサカシ,イマオカ,岡山県美作市今岡
7070417,岡山県,美作市,下町,オカヤマケン,ミマサカシ,シモマチ,岡山県美作市下町
7070421,岡山県,美作市,川上,オカヤマケン,ミマサカシ,カワカミ,岡山県美作市川上
7070422,岡山県,美作市,笹岡,オカヤマケン,ミマサカシ,ササオカ,岡山県美作市笹岡
7070423,岡山県,美作市,小原田,オカヤマケン,ミマサカシ,オハラダ,岡山県美作市小原田
7070424,岡山県,美作市,野形,オカヤマケン,ミマサカシ,ノガタ,岡山県美作市野形
7070425,岡山県,美作市,下庄町,オカヤマケン,ミマサカシ,シモショウマチ,岡山県美作市下庄町
7070426,岡山県,美作市,桂坪,オカヤマケン,ミマサカシ,カツラツボ,岡山県美作市桂坪
7070427,岡山県,美作市,滝,オカヤマケン,ミマサカシ,タキ,岡山県美作市滝
7070431,岡山県,美作市,田井,オカヤマケン,ミマサカシ,タイ,岡山県美作市田井
7070432,岡山県,美作市,赤田,オカヤマケン,ミマサカシ,アカダ,岡山県美作市赤田
7070433,岡山県,美作市,立石,オカヤマケン,ミマサカシ,タテイシ,岡山県美作市立石
7070434,岡山県,美作市,壬生,オカヤマケン,ミマサカシ,ミブ,岡山県美作市壬生
7070435,岡山県,美作市,沢田,オカヤマケン,ミマサカシ,サワダ,岡山県美作市沢田
7070436,岡山県,美作市,川戸,オカヤマケン,ミマサカシ,カワト,岡山県美作市川戸
7070437,岡山県,美作市,粟野,オカヤマケン,ミマサカシ,アワノ,岡山県美作市粟野
7070500,岡山県,英田郡西粟倉村,,オカヤマケン,アイダグンニシアワクラソン,,岡山県英田郡西粟倉村
7070501,岡山県,英田郡西粟倉村,大茅,オカヤマケン,アイダグンニシアワクラソン,オオガヤ,岡山県英田郡西粟倉村大茅
7070502,岡山県,英田郡西粟倉村,坂根,オカヤマケン,アイダグンニシアワクラソン,サカネ,岡山県英田郡西粟倉村坂根
7070503,岡山県,英田郡西粟倉村,影石,オカヤマケン,アイダグンニシアワクラソン,カゲイシ,岡山県英田郡西粟倉村影石
7070504,岡山県,英田郡西粟倉村,長尾,オカヤマケン,アイダグンニシアワクラソン,ナガオ,岡山県英田郡西粟倉村長尾
7070505,岡山県,英田郡西粟倉村,筏津,オカヤマケン,アイダグンニシアワクラソン,イカダツ,岡山県英田郡西粟倉村筏津
7070506,岡山県,英田郡西粟倉村,知社,オカヤマケン,アイダグンニシアワクラソン,チシャ,岡山県英田郡西粟倉村知社
7080000,岡山県,津山市,,オカヤマケン,ツヤマシ,,岡山県津山市
7080001,岡山県,津山市,小原,オカヤマケン,ツヤマシ,オバラ,岡山県津山市小原
7080002,岡山県,津山市,上河原,オカヤマケン,ツヤマシ,カミガワラ,岡山県津山市上河原
7080003,岡山県,津山市,北園町,オカヤマケン,ツヤマシ,キタゾノチョウ,岡山県津山市北園町
7080004,岡山県,津山市,山北,オカヤマケン,ツヤマシ,ヤマキタ,岡山県津山市山北
7080005,岡山県,津山市,城代町,オカヤマケン,ツヤマシ,ジョウダイマチ,岡山県津山市城代町
7080006,岡山県,津山市,小田中,オカヤマケン,ツヤマシ,オダナカ,岡山県津山市小田中
7080007,岡山県,津山市,総社,オカヤマケン,ツヤマシ,ソウジャ,岡山県津山市総社
7080011,岡山県,津山市,上田邑,オカヤマケン,ツヤマシ,カミタノムラ,岡山県津山市上田邑
7080012,岡山県,津山市,下田邑,オカヤマケン,ツヤマシ,シモタノムラ,岡山県津山市下田邑
7080013,岡山県,津山市,二宮,オカヤマケン,ツヤマシ,ニノミヤ,岡山県津山市二宮
7080014,岡山県,津山市,院庄,オカヤマケン,ツヤマシ,インノショウ,岡山県津山市院庄
7080015,岡山県,津山市,神戸,オカヤマケン,ツヤマシ,ジンゴ,岡山県津山市神戸
7080016,岡山県,津山市,戸島,オカヤマケン,ツヤマシ,トシマ,岡山県津山市戸島
7080021,岡山県,津山市,北町,オカヤマケン,ツヤマシ,キタマチ,岡山県津山市北町
7080022,岡山県,津山市,山下,オカヤマケン,ツヤマシ,サンゲ,岡山県津山市山下
7080023,岡山県,津山市,大手町,オカヤマケン,ツヤマシ,オオテマチ,岡山県津山市大手町
7080024,岡山県,津山市,二階町,オカヤマケン,ツヤマシ,ニカイマチ,岡山県津山市二階町
7080031,岡山県,津山市,材木町,オカヤマケン,ツヤマシ,ザイモクマチ,岡山県津山市材木町
7080032,岡山県,津山市,伏見町,オカヤマケン,ツヤマシ,フシミチョウ,岡山県津山市伏見町
7080033,岡山県,津山市,河原町,オカヤマケン,ツヤマシ,カワラマチ,岡山県津山市河原町
7080034,岡山県,津山市,船頭町,オカヤマケン,ツヤマシ,センドウマチ,岡山県津山市船頭町
7080035,岡山県,津山市,吹屋町,オカヤマケン,ツヤマシ,フキヤマチ,岡山県津山市吹屋町
7080036,岡山県,津山市,南新座,オカヤマケン,ツヤマシ,ミナミシンザ,岡山県津山市南新座
7080037,岡山県,津山市,戸川町,オカヤマケン,ツヤマシ,トガワマチ,岡山県津山市戸川町
7080041,岡山県,津山市,鉄砲町,オカヤマケン,ツヤマシ,テッポウマチ,岡山県津山市鉄砲町
7080042,岡山県,津山市,新茅町,オカヤマケン,ツヤマシ,シンカヤマチ,岡山県津山市新茅町
7080043,岡山県,津山市,茅町,オカヤマケン,ツヤマシ,カヤマチ,岡山県津山市茅町
7080044,岡山県,津山市,安岡町,オカヤマケン,ツヤマシ,ヤスオカマチ,岡山県津山市安岡町
7080045,岡山県,津山市,西寺町,オカヤマケン,ツヤマシ,ニシテラマチ,岡山県津山市西寺町
7080046,岡山県,津山市,西今町,オカヤマケン,ツヤマシ,ニシイママチ,岡山県津山市西今町
7080047,岡山県,津山市,宮脇町,オカヤマケン,ツヤマシ,ミヤワキチョウ,岡山県津山市宮脇町
7080051,岡山県,津山市,椿高下,オカヤマケン,ツヤマシ,ツバキコウゲ,岡山県津山市椿高下
7080052,岡山県,津山市,田町,オカヤマケン,ツヤマシ,タマチ,岡山県津山市田町
7080053,岡山県,津山市,細工町,オカヤマケン,ツヤマシ,サイクノチョウ,岡山県津山市細工町
7080061,岡山県,津山市,元魚町,オカヤマケン,ツヤマシ,モトウオマチ,岡山県津山市元魚町
7080062,岡山県,津山市,京町,オカヤマケン,ツヤマシ,キョウマチ,岡山県津山市京町
7080063,岡山県,津山市,小性町,オカヤマケン,ツヤマシ,コショウマチ,岡山県津山市小性町
7080064,岡山県,津山市,堺町,オカヤマケン,ツヤマシ,サカイマチ,岡山県津山市堺町
7080065,岡山県,津山市,新魚町,オカヤマケン,ツヤマシ,シンウオマチ,岡山県津山市新魚町
7080066,岡山県,津山市,桶屋町,オカヤマケン,ツヤマシ,オケヤマチ,岡山県津山市桶屋町
7080067,岡山県,津山市,新職人町,オカヤマケン,ツヤマシ,シンショクニンマチ,岡山県津山市新職人町
7080071,岡山県,津山市,下紺屋町,オカヤマケン,ツヤマシ,シモコウヤマチ,岡山県津山市下紺屋町
7080072,岡山県,津山市,美濃町,オカヤマケン,ツヤマシ,ミノマチ,岡山県津山市美濃町
7080073,岡山県,津山市,本町,オカヤマケン,ツヤマシ,ホンマチ,岡山県津山市本町
7080074,岡山県,津山市,福渡町,オカヤマケン,ツヤマシ,フクワタリマチ,岡山県津山市福渡町
7080075,岡山県,津山市,坪井町,オカヤマケン,ツヤマシ,ツボイマチ,岡山県津山市坪井町
7080076,岡山県,津山市,上紺屋町,オカヤマケン,ツヤマシ,カミコウヤマチ,岡山県津山市上紺屋町
7080077,岡山県,津山市,鍛治町,オカヤマケン,ツヤマシ,カジマチ,岡山県津山市鍛治町
7080300,岡山県,苫田郡鏡野町,,オカヤマケン,トマタグンカガミノチョウ,,岡山県苫田郡鏡野町
7080301,岡山県,苫田郡鏡野町,越畑,オカヤマケン,トマタグンカガミノチョウ,コシワタ,岡山県苫田郡鏡野町越畑
7080302,岡山県,苫田郡鏡野町,岩屋,オカヤマケン,トマタグンカガミノチョウ,イワヤ,岡山県苫田郡鏡野町岩屋
7080303,岡山県,苫田郡鏡野町,大町,オカヤマケン,トマタグンカガミノチョウ,オオマチ,岡山県苫田郡鏡野町大町
7080304,岡山県,苫田郡鏡野町,真経,オカヤマケン,トマタグンカガミノチョウ,サネツネ,岡山県苫田郡鏡野町真経
7080305,岡山県,苫田郡鏡野町,百谷,オカヤマケン,トマタグンカガミノチョウ,モモダニ,岡山県苫田郡鏡野町百谷
7080311,岡山県,苫田郡鏡野町,寺和田,オカヤマケン,トマタグンカガミノチョウ,テラワダ,岡山県苫田郡鏡野町寺和田
7080312,岡山県,苫田郡鏡野町,香々美,オカヤマケン,トマタグンカガミノチョウ,カガミ,岡山県苫田郡鏡野町香々美
7080313,岡山県,苫田郡鏡野町,公保田,オカヤマケン,トマタグンカガミノチョウ,クホウデン,岡山県苫田郡鏡野町公保田
7080314,岡山県,苫田郡鏡野町,沢田,オカヤマケン,トマタグンカガミノチョウ,サワタ,岡山県苫田郡鏡野町沢田
7080315,岡山県,苫田郡鏡野町,市場,オカヤマケン,トマタグンカガミノチョウ,イチバ,岡山県苫田郡鏡野町市場
7080316,岡山県,苫田郡鏡野町,和田,オカヤマケン,トマタグンカガミノチョウ,ワダ,岡山県苫田郡鏡野町和田
7080317,岡山県,苫田郡鏡野町,土居,オカヤマケン,トマタグンカガミノチョウ,ドイ,岡山県苫田郡鏡野町土居
7080321,岡山県,苫田郡鏡野町,円宗寺,オカヤマケン,トマタグンカガミノチョウ,エンジュウジ,岡山県苫田郡鏡野町円宗寺
7080322,岡山県,苫田郡鏡野町,沖,オカヤマケン,トマタグンカガミノチョウ,オキ,岡山県苫田郡鏡野町沖
7080323,岡山県,苫田郡鏡野町,寺元,オカヤマケン,トマタグンカガミノチョウ,テラモト,岡山県苫田郡鏡野町寺元
7080324,岡山県,苫田郡鏡野町,竹田,オカヤマケン,トマタグンカガミノチョウ,タケダ,岡山県苫田郡鏡野町竹田
7080325,岡山県,苫田郡鏡野町,瀬戸,オカヤマケン,トマタグンカガミノチョウ,セト,岡山県苫田郡鏡野町瀬戸
7080331,岡山県,苫田郡鏡野町,布原,オカヤマケン,トマタグンカガミノチョウ,ヌノハラ,岡山県苫田郡鏡野町布原
7080332,岡山県,苫田郡鏡野町,吉原,オカヤマケン,トマタグンカガミノチョウ,ヨシハラ,岡山県苫田郡鏡野町吉原
7080333,岡山県,苫田郡鏡野町,古川,オカヤマケン,トマタグンカガミノチョウ,フルカワ,岡山県苫田郡鏡野町古川
7080334,岡山県,苫田郡鏡野町,宗枝,オカヤマケン,トマタグンカガミノチョウ,ムネダ,岡山県苫田郡鏡野町宗枝
7080335,岡山県,苫田郡鏡野町,真加部,オカヤマケン,トマタグンカガミノチョウ,マカベ,岡山県苫田郡鏡野町真加部
7080341,岡山県,苫田郡鏡野町,下原,オカヤマケン,トマタグンカガミノチョウ,シモバラ,岡山県苫田郡鏡野町下原
7080342,岡山県,苫田郡鏡野町,薪森原,オカヤマケン,トマタグンカガミノチョウ,タキギモリバラ,岡山県苫田郡鏡野町薪森原
7080343,岡山県,苫田郡鏡野町,河本,オカヤマケン,トマタグンカガミノチョウ,コウモト,岡山県苫田郡鏡野町河本
7080344,岡山県,苫田郡鏡野町,原,オカヤマケン,トマタグンカガミノチョウ,ハラ,岡山県苫田郡鏡野町原
7080345,岡山県,苫田郡鏡野町,高山,オカヤマケン,トマタグンカガミノチョウ,タカヤマ,岡山県苫田郡鏡野町高山
7080351,岡山県,苫田郡鏡野町,入,オカヤマケン,トマタグンカガミノチョウ,イリ,岡山県苫田郡鏡野町入
7080352,岡山県,苫田郡鏡野町,山城,オカヤマケン,トマタグンカガミノチョウ,ヤマシロ,岡山県苫田郡鏡野町山城
7080353,岡山県,苫田郡鏡野町,中谷,オカヤマケン,トマタグンカガミノチョウ,ナカダニ,岡山県苫田郡鏡野町中谷
7080361,岡山県,苫田郡鏡野町,上森原,オカヤマケン,トマタグンカガミノチョウ,カミモリバラ,岡山県苫田郡鏡野町上森原
7080362,岡山県,苫田郡鏡野町,貞永寺,オカヤマケン,トマタグンカガミノチョウ,テエジ,岡山県苫田郡鏡野町貞永寺
7080363,岡山県,苫田郡鏡野町,小座,オカヤマケン,トマタグンカガミノチョウ,オザ,岡山県苫田郡鏡野町小座
7080364,岡山県,苫田郡鏡野町,下森原,オカヤマケン,トマタグンカガミノチョウ,シモモリバラ,岡山県苫田郡鏡野町下森原
7080365,岡山県,苫田郡鏡野町,塚谷,オカヤマケン,トマタグンカガミノチョウ,ツカダニ,岡山県苫田郡鏡野町塚谷
7080366,岡山県,苫田郡鏡野町,馬場,オカヤマケン,トマタグンカガミノチョウ,ババ,岡山県苫田郡鏡野町馬場
7080421,岡山県,苫田郡鏡野町,井坂,オカヤマケン,トマタグンカガミノチョウ,イザカ,岡山県苫田郡鏡野町井坂
7080422,岡山県,苫田郡鏡野町,養野,オカヤマケン,トマタグンカガミノチョウ,ヨウノ,岡山県苫田郡鏡野町養野
7080423,岡山県,苫田郡鏡野町,女原,オカヤマケン,トマタグンカガミノチョウ,オナバラ,岡山県苫田郡鏡野町女原
7080424,岡山県,苫田郡鏡野町,杉,オカヤマケン,トマタグンカガミノチョウ,スギ,岡山県苫田郡鏡野町杉
7080425,岡山県,苫田郡鏡野町,箱,オカヤマケン,トマタグンカガミノチョウ,ハコ,岡山県苫田郡鏡野町箱
7080426,岡山県,苫田郡鏡野町,西屋,オカヤマケン,トマタグンカガミノチョウ,ニシヤ,岡山県苫田郡鏡野町西屋
7080427,岡山県,苫田郡鏡野町,至孝農,オカヤマケン,トマタグンカガミノチョウ,シコウノ,岡山県苫田郡鏡野町至孝農
7080431,岡山県,苫田郡鏡野町,河内,オカヤマケン,トマタグンカガミノチョウ,コウチ,岡山県苫田郡鏡野町河内
7080432,岡山県,苫田郡鏡野町,久田上原,オカヤマケン,トマタグンカガミノチョウ,クタカミノハラ,岡山県苫田郡鏡野町久田上原
7080433,岡山県,苫田郡鏡野町,久田下原,オカヤマケン,トマタグンカガミノチョウ,クタシモノハラ,岡山県苫田郡鏡野町久田下原
7080434,岡山県,苫田郡鏡野町,土生,オカヤマケン,トマタグンカガミノチョウ,ハブ,岡山県苫田郡鏡野町土生
7080435,岡山県,苫田郡鏡野町,黒木,オカヤマケン,トマタグンカガミノチョウ,クロギ,岡山県苫田郡鏡野町黒木
7080501,岡山県,苫田郡鏡野町,下斎原,オカヤマケン,トマタグンカガミノチョウ,シモサイバラ,岡山県苫田郡鏡野町下斎原
7080502,岡山県,苫田郡鏡野町,長藤,オカヤマケン,トマタグンカガミノチョウ,ナガトウ,岡山県苫田郡鏡野町長藤
7080503,岡山県,苫田郡鏡野町,奥津,オカヤマケン,トマタグンカガミノチョウ,オクツ,岡山県苫田郡鏡野町奥津
7080504,岡山県,苫田郡鏡野町,奥津川西,オカヤマケン,トマタグンカガミノチョウ,オクツカワニシ,岡山県苫田郡鏡野町奥津川西
7080511,岡山県,苫田郡鏡野町,羽出,オカヤマケン,トマタグンカガミノチョウ,ハデ,岡山県苫田郡鏡野町羽出
7080512,岡山県,苫田郡鏡野町,羽出西谷,オカヤマケン,トマタグンカガミノチョウ,ハデニシダニ,岡山県苫田郡鏡野町羽出西谷
7080601,岡山県,苫田郡鏡野町,上齋原,オカヤマケン,トマタグンカガミノチョウ,カミサイバラ,岡山県苫田郡鏡野町上齋原
7080701,岡山県,苫田郡鏡野町,富西谷,オカヤマケン,トマタグンカガミノチョウ,トミニシダニ,岡山県苫田郡鏡野町富西谷
7080702,岡山県,苫田郡鏡野町,富東谷,オカヤマケン,トマタグンカガミノチョウ,トミヒガシダニ,岡山県苫田郡鏡野町富東谷
7080703,岡山県,苫田郡鏡野町,富仲間,オカヤマケン,トマタグンカガミノチョウ,トミナカマ,岡山県苫田郡鏡野町富仲間
7080704,岡山県,苫田郡鏡野町,大,オカヤマケン,トマタグンカガミノチョウ,オオ,岡山県苫田郡鏡野町大
7080705,岡山県,苫田郡鏡野町,楠,オカヤマケン,トマタグンカガミノチョウ,クス,岡山県苫田郡鏡野町楠
7080801,岡山県,津山市,上横野,オカヤマケン,ツヤマシ,カミヨコノ,岡山県津山市上横野
7080802,岡山県,津山市,大篠,オカヤマケン,ツヤマシ,オオササ,岡山県津山市大篠
7080803,岡山県,津山市,籾保,オカヤマケン,ツヤマシ,モミホ,岡山県津山市籾保
7080804,岡山県,津山市,勝部,オカヤマケン,ツヤマシ,カツベ,岡山県津山市勝部
7080805,岡山県,津山市,紫保井,オカヤマケン,ツヤマシ,シボイ,岡山県津山市紫保井
7080806,岡山県,津山市,大田,オカヤマケン,ツヤマシ,オオダ,岡山県津山市大田
7080807,岡山県,津山市,下横野,オカヤマケン,ツヤマシ,シモヨコノ,岡山県津山市下横野
7080811,岡山県,津山市,西田辺,オカヤマケン,ツヤマシ,ニシタナベ,岡山県津山市西田辺
7080812,岡山県,津山市,東田辺,オカヤマケン,ツヤマシ,ヒガシタナベ,岡山県津山市東田辺
7080813,岡山県,津山市,山方,オカヤマケン,ツヤマシ,ヤマガタ,岡山県津山市山方
7080814,岡山県,津山市,東一宮,オカヤマケン,ツヤマシ,ヒガシイチノミヤ,岡山県津山市東一宮
7080815,岡山県,津山市,一宮,オカヤマケン,ツヤマシ,イチノミヤ,岡山県津山市一宮
7080821,岡山県,津山市,野介代,オカヤマケン,ツヤマシ,ノケダ,岡山県津山市野介代
7080822,岡山県,津山市,林田,オカヤマケン,ツヤマシ,ハイダ,岡山県津山市林田
7080823,岡山県,津山市,弥生町,オカヤマケン,ツヤマシ,ヤヨイチョウ,岡山県津山市弥生町
7080824,岡山県,津山市,沼,オカヤマケン,ツヤマシ,ヌマ,岡山県津山市沼
7080825,岡山県,津山市,志戸部,オカヤマケン,ツヤマシ,シトベ,岡山県津山市志戸部
7080831,岡山県,津山市,上之町,オカヤマケン,ツヤマシ,ウエノチョウ,岡山県津山市上之町
7080832,岡山県,津山市,東新町,オカヤマケン,ツヤマシ,ヒガシシンマチ,岡山県津山市東新町
7080833,岡山県,津山市,西新町,オカヤマケン,ツヤマシ,ニシシンマチ,岡山県津山市西新町
7080834,岡山県,津山市,中之町,オカヤマケン,ツヤマシ,ナカノチョウ,岡山県津山市中之町
7080835,岡山県,津山市,勝間田町,オカヤマケン,ツヤマシ,カツマダマチ,岡山県津山市勝間田町
7080836,岡山県,津山市,林田町,オカヤマケン,ツヤマシ,ハイダマチ,岡山県津山市林田町
7080837,岡山県,津山市,橋本町,オカヤマケン,ツヤマシ,ハシモトマチ,岡山県津山市橋本町
7080841,岡山県,津山市,川崎,オカヤマケン,ツヤマシ,カワサキ,岡山県津山市川崎
7080842,岡山県,津山市,河辺,オカヤマケン,ツヤマシ,カワナベ,岡山県津山市河辺
7080843,岡山県,津山市,国分寺,オカヤマケン,ツヤマシ,コクブンジ,岡山県津山市国分寺
7080844,岡山県,津山市,瓜生原,オカヤマケン,ツヤマシ,ウリュウバラ,岡山県津山市瓜生原
7080845,岡山県,津山市,日上,オカヤマケン,ツヤマシ,ヒカミ,岡山県津山市日上
7080851,岡山県,津山市,新田,オカヤマケン,ツヤマシ,ニイダ,岡山県津山市新田
7080852,岡山県,津山市,池ケ原,オカヤマケン,ツヤマシ,イケガハラ,岡山県津山市池ケ原
7080853,岡山県,津山市,堂尾,オカヤマケン,ツヤマシ,ドウノオ,岡山県津山市堂尾
7080854,岡山県,津山市,中原,オカヤマケン,ツヤマシ,ナカバラ,岡山県津山市中原
7080855,岡山県,津山市,金井,オカヤマケン,ツヤマシ,カナイ,岡山県津山市金井
7080856,岡山県,津山市,西吉田,オカヤマケン,ツヤマシ,ニシヨシダ,岡山県津山市西吉田
7080857,岡山県,津山市,福力,オカヤマケン,ツヤマシ,フクリキ,岡山県津山市福力
7080861,岡山県,津山市,八出,オカヤマケン,ツヤマシ,ヤイデ,岡山県津山市八出
7080862,岡山県,津山市,横山,オカヤマケン,ツヤマシ,ヨコヤマ,岡山県津山市横山
7080863,岡山県,津山市,小桁,オカヤマケン,ツヤマシ,オゲタ,岡山県津山市小桁
7080864,岡山県,津山市,金屋,オカヤマケン,ツヤマシ,カナヤ,岡山県津山市金屋
7080865,岡山県,津山市,押渕,オカヤマケン,ツヤマシ,オシブチ,岡山県津山市押渕
7080866,岡山県,津山市,荒神山,オカヤマケン,ツヤマシ,コウジンヤマ,岡山県津山市荒神山
7080871,岡山県,津山市,中島,オカヤマケン,ツヤマシ,ナカシマ,岡山県津山市中島
7080872,岡山県,津山市,平福,オカヤマケン,ツヤマシ,ヒラフク,岡山県津山市平福
7080873,岡山県,津山市,皿,オカヤマケン,ツヤマシ,サラ,岡山県津山市皿
7080874,岡山県,津山市,種,オカヤマケン,ツヤマシ,タネ,岡山県津山市種
7080875,岡山県,津山市,福田,オカヤマケン,ツヤマシ,フクダ,岡山県津山市福田
7080876,岡山県,津山市,高尾,オカヤマケン,ツヤマシ,タカオ,岡山県津山市高尾
7080881,岡山県,津山市,南町,オカヤマケン,ツヤマシ,ミナミマチ,岡山県津山市南町
7080882,岡山県,津山市,大谷,オカヤマケン,ツヤマシ,オオタニ,岡山県津山市大谷
7080883,岡山県,津山市,一方,オカヤマケン,ツヤマシ,イッポウ,岡山県津山市一方
7080884,岡山県,津山市,津山口,オカヤマケン,ツヤマシ,ツヤマグチ,岡山県津山市津山口
7080885,岡山県,津山市,井口,オカヤマケン,ツヤマシ,イノクチ,岡山県津山市井口
7080886,岡山県,津山市,昭和町,オカヤマケン,ツヤマシ,ショウワマチ,岡山県津山市昭和町
7081101,岡山県,津山市,三浦,オカヤマケン,ツヤマシ,ミウラ,岡山県津山市三浦
7081102,岡山県,津山市,妙原,オカヤマケン,ツヤマシ,ミョウバラ,岡山県津山市妙原
7081103,岡山県,津山市,堀坂,オカヤマケン,ツヤマシ,ホリサカ,岡山県津山市堀坂
7081104,岡山県,津山市,綾部,オカヤマケン,ツヤマシ,アヤベ,岡山県津山市綾部
7081105,岡山県,津山市,吉見,オカヤマケン,ツヤマシ,ヨシミ,岡山県津山市吉見
7081111,岡山県,津山市,楢,オカヤマケン,ツヤマシ,ナラ,岡山県津山市楢
7081112,岡山県,津山市,近長,オカヤマケン,ツヤマシ,チカナガ,岡山県津山市近長
7081113,岡山県,津山市,田熊,オカヤマケン,ツヤマシ,タノクマ,岡山県津山市田熊
7081114,岡山県,津山市,福井,オカヤマケン,ツヤマシ,フクイ,岡山県津山市福井
7081115,岡山県,津山市,河面,オカヤマケン,ツヤマシ,コウモ,岡山県津山市河面
7081116,岡山県,津山市,野村,オカヤマケン,ツヤマシ,ノムラ,岡山県津山市野村
7081117,岡山県,津山市,草加部,オカヤマケン,ツヤマシ,クサカベ,岡山県津山市草加部
7081121,岡山県,津山市,上高倉,オカヤマケン,ツヤマシ,カミタカクラ,岡山県津山市上高倉
7081122,岡山県,津山市,下高倉東,オカヤマケン,ツヤマシ,シモタカクラヒガシ,岡山県津山市下高倉東
7081123,岡山県,津山市,下高倉西,オカヤマケン,ツヤマシ,シモタカクラニシ,岡山県津山市下高倉西
7081124,岡山県,津山市,高野山西,オカヤマケン,ツヤマシ,タカノヤマニシ,岡山県津山市高野山西
7081125,岡山県,津山市,高野本郷,オカヤマケン,ツヤマシ,タカノホンゴウ,岡山県津山市高野本郷
7081126,岡山県,津山市,押入,オカヤマケン,ツヤマシ,オシイレ,岡山県津山市押入
7081201,岡山県,津山市,加茂町下津川（奥津川）,オカヤマケン,ツヤマシ,カモチョウシモツガワ(オクツガワ),岡山県津山市加茂町下津川（奥津川）
7081201,岡山県,津山市,奥津川,オカヤマケン,ツヤマシ,オクツガワ,岡山県津山市奥津川
7081202,岡山県,津山市,大岩,オカヤマケン,ツヤマシ,オオイワ,岡山県津山市大岩
7081203,岡山県,津山市,大吉,オカヤマケン,ツヤマシ,オオヨシ,岡山県津山市大吉
7081204,岡山県,津山市,日本原,オカヤマケン,ツヤマシ,ニホンバラ,岡山県津山市日本原
7081205,岡山県,津山市,新野東,オカヤマケン,ツヤマシ,ニイノヒガシ,岡山県津山市新野東
7081206,岡山県,津山市,市場,オカヤマケン,ツヤマシ,イチバ,岡山県津山市市場
7081211,岡山県,津山市,原,オカヤマケン,ツヤマシ,ハラ,岡山県津山市原
7081212,岡山県,津山市,安井,オカヤマケン,ツヤマシ,ヤスイ,岡山県津山市安井
7081213,岡山県,津山市,下野田,オカヤマケン,ツヤマシ,シモノダ,岡山県津山市下野田
7081214,岡山県,津山市,上野田,オカヤマケン,ツヤマシ,カミノダ,岡山県津山市上野田
7081215,岡山県,津山市,杉宮,オカヤマケン,ツヤマシ,スギノミヤ,岡山県津山市杉宮
7081216,岡山県,津山市,中村,オカヤマケン,ツヤマシ,ナカムラ,岡山県津山市中村
7081221,岡山県,津山市,西上,オカヤマケン,ツヤマシ,ニシカミ,岡山県津山市西上
7081222,岡山県,津山市,西中,オカヤマケン,ツヤマシ,ニシナカ,岡山県津山市西中
7081223,岡山県,津山市,坂上,オカヤマケン,ツヤマシ,サカウエ,岡山県津山市坂上
7081224,岡山県,津山市,上村,オカヤマケン,ツヤマシ,カミムラ,岡山県津山市上村
7081225,岡山県,津山市,西下,オカヤマケン,ツヤマシ,ニシシモ,岡山県津山市西下
7081226,岡山県,津山市,新野山形,オカヤマケン,ツヤマシ,ニイノヤマガタ,岡山県津山市新野山形
7081300,岡山県,勝田郡奈義町,,オカヤマケン,カツタグンナギチョウ,,岡山県勝田郡奈義町
7081301,岡山県,勝田郡奈義町,馬桑,オカヤマケン,カツタグンナギチョウ,マグワ,岡山県勝田郡奈義町馬桑
7081302,岡山県,勝田郡奈義町,小坂,オカヤマケン,カツタグンナギチョウ,オサカ,岡山県勝田郡奈義町小坂
7081303,岡山県,勝田郡奈義町,皆木,オカヤマケン,カツタグンナギチョウ,ミナギ,岡山県勝田郡奈義町皆木
7081304,岡山県,勝田郡奈義町,関本,オカヤマケン,カツタグンナギチョウ,セキモト,岡山県勝田郡奈義町関本
7081305,岡山県,勝田郡奈義町,行方,オカヤマケン,カツタグンナギチョウ,ギョウホウ,岡山県勝田郡奈義町行方
7081306,岡山県,勝田郡奈義町,西原,オカヤマケン,カツタグンナギチョウ,ニシバラ,岡山県勝田郡奈義町西原
7081307,岡山県,勝田郡奈義町,高円,オカヤマケン,カツタグンナギチョウ,コウエン,岡山県勝田郡奈義町高円
7081311,岡山県,勝田郡奈義町,久常,オカヤマケン,カツタグンナギチョウ,ヒサツネ,岡山県勝田郡奈義町久常
7081312,岡山県,勝田郡奈義町,柿,オカヤマケン,カツタグンナギチョウ,カキ,岡山県勝田郡奈義町柿
7081313,岡山県,勝田郡奈義町,中島東,オカヤマケン,カツタグンナギチョウ,ナカシマヒガシ,岡山県勝田郡奈義町中島東
7081314,岡山県,勝田郡奈義町,荒内西,オカヤマケン,カツタグンナギチョウ,アラウチニシ,岡山県勝田郡奈義町荒内西
7081315,岡山県,勝田郡奈義町,中島西,オカヤマケン,カツタグンナギチョウ,ナカシマニシ,岡山県勝田郡奈義町中島西
7081321,岡山県,勝田郡奈義町,宮内,オカヤマケン,カツタグンナギチョウ,ミヤウチ,岡山県勝田郡奈義町宮内
7081322,岡山県,勝田郡奈義町,成松,オカヤマケン,カツタグンナギチョウ,ナリマツ,岡山県勝田郡奈義町成松
7081323,岡山県,勝田郡奈義町,豊沢,オカヤマケン,カツタグンナギチョウ,トヨサワ,岡山県勝田郡奈義町豊沢
7081324,岡山県,勝田郡奈義町,広岡,オカヤマケン,カツタグンナギチョウ,ヒロオカ,岡山県勝田郡奈義町広岡
7081325,岡山県,勝田郡奈義町,滝本,オカヤマケン,カツタグンナギチョウ,タキモト,岡山県勝田郡奈義町滝本
7081326,岡山県,勝田郡奈義町,上町川,オカヤマケン,カツタグンナギチョウ,カミマチガワ,岡山県勝田郡奈義町上町川
7081501,岡山県,久米郡美咲町,安井,オカヤマケン,クメグンミサキチョウ,ヤスイ,岡山県久米郡美咲町安井
7081502,岡山県,久米郡美咲町,宮山,オカヤマケン,クメグンミサキチョウ,ミヤヤマ,岡山県久米郡美咲町宮山
7081503,岡山県,久米郡美咲町,塩気,オカヤマケン,クメグンミサキチョウ,シオケ,岡山県久米郡美咲町塩気
7081504,岡山県,久米郡美咲町,吉留,オカヤマケン,クメグンミサキチョウ,ヨシドメ,岡山県久米郡美咲町吉留
7081505,岡山県,久米郡美咲町,重藤,オカヤマケン,クメグンミサキチョウ,シゲトウ,岡山県久米郡美咲町重藤
7081506,岡山県,久米郡美咲町,上間,オカヤマケン,クメグンミサキチョウ,ウワマ,岡山県久米郡美咲町上間
7081507,岡山県,久米郡美咲町,百々,オカヤマケン,クメグンミサキチョウ,ドウドウ,岡山県久米郡美咲町百々
7081511,岡山県,久米郡美咲町,行信,オカヤマケン,クメグンミサキチョウ,ユキノブ,岡山県久米郡美咲町行信
7081512,岡山県,久米郡美咲町,松尾,オカヤマケン,クメグンミサキチョウ,マツオ,岡山県久米郡美咲町松尾
7081513,岡山県,久米郡美咲町,藤田下,オカヤマケン,クメグンミサキチョウ,フジタシモ,岡山県久米郡美咲町藤田下
7081514,岡山県,久米郡美咲町,藤田上,オカヤマケン,クメグンミサキチョウ,フジタカミ,岡山県久米郡美咲町藤田上
7081515,岡山県,久米郡美咲町,下谷,オカヤマケン,クメグンミサキチョウ,シモダニ,岡山県久米郡美咲町下谷
7081516,岡山県,久米郡美咲町,連石,オカヤマケン,クメグンミサキチョウ,レンジャク,岡山県久米郡美咲町連石
7081521,岡山県,久米郡美咲町,休石,オカヤマケン,クメグンミサキチョウ,ヤスミイシ,岡山県久米郡美咲町休石
7081522,岡山県,久米郡美咲町,惣田,オカヤマケン,クメグンミサキチョウ,ソウダ,岡山県久米郡美咲町惣田
7081523,岡山県,久米郡美咲町,吉ケ原,オカヤマケン,クメグンミサキチョウ,キチガハラ,岡山県久米郡美咲町吉ケ原
7081524,岡山県,久米郡美咲町,飯岡,オカヤマケン,クメグンミサキチョウ,ユウカ,岡山県久米郡美咲町飯岡
7081525,岡山県,久米郡美咲町,王子,オカヤマケン,クメグンミサキチョウ,オオジ,岡山県久米郡美咲町王子
7081526,岡山県,久米郡美咲町,高下,オカヤマケン,クメグンミサキチョウ,コウゲ,岡山県久米郡美咲町高下
7081527,岡山県,久米郡美咲町,柵原,オカヤマケン,クメグンミサキチョウ,ヤナハラ,岡山県久米郡美咲町柵原
7081531,岡山県,久米郡美咲町,栗子,オカヤマケン,クメグンミサキチョウ,クリゴ,岡山県久米郡美咲町栗子
7081532,岡山県,久米郡美咲町,小瀬,オカヤマケン,クメグンミサキチョウ,コセ,岡山県久米郡美咲町小瀬
7081533,岡山県,久米郡美咲町,久木,オカヤマケン,クメグンミサキチョウ,ヒサギ,岡山県久米郡美咲町久木
7081534,岡山県,久米郡美咲町,藤原,オカヤマケン,クメグンミサキチョウ,フジワラ,岡山県久米郡美咲町藤原
7081535,岡山県,久米郡美咲町,高城,オカヤマケン,クメグンミサキチョウ,タカシロ,岡山県久米郡美咲町高城
7081536,岡山県,久米郡美咲町,定宗,オカヤマケン,クメグンミサキチョウ,サダムネ,岡山県久米郡美咲町定宗
7081541,岡山県,久米郡美咲町,塚角,オカヤマケン,クメグンミサキチョウ,ツカツノ,岡山県久米郡美咲町塚角
7081542,岡山県,久米郡美咲町,羽仁,オカヤマケン,クメグンミサキチョウ,ハニ,岡山県久米郡美咲町羽仁
7081543,岡山県,久米郡美咲町,書副,オカヤマケン,クメグンミサキチョウ,カイゾエ,岡山県久米郡美咲町書副
7081544,岡山県,久米郡美咲町,周佐,オカヤマケン,クメグンミサキチョウ,スサ,岡山県久米郡美咲町周佐
7081545,岡山県,久米郡美咲町,大戸上,オカヤマケン,クメグンミサキチョウ,ダイトカミ,岡山県久米郡美咲町大戸上
7081546,岡山県,久米郡美咲町,大戸下,オカヤマケン,クメグンミサキチョウ,ダイトシモ,岡山県久米郡美咲町大戸下
7081547,岡山県,久米郡美咲町,八神,オカヤマケン,クメグンミサキチョウ,ネリガミ,岡山県久米郡美咲町八神
7090211,岡山県,備前市,吉永町高田,オカヤマケン,ビゼンシ,ヨシナガチョウタカタ,岡山県備前市吉永町高田
7090212,岡山県,備前市,吉永町神根本,オカヤマケン,ビゼンシ,ヨシナガチョウコウネホン,岡山県備前市吉永町神根本
7090213,岡山県,備前市,吉永町今崎,オカヤマケン,ビゼンシ,ヨシナガチョウイマサキ,岡山県備前市吉永町今崎
7090214,岡山県,備前市,吉永町和意谷,オカヤマケン,ビゼンシ,ヨシナガチョウワイダニ,岡山県備前市吉永町和意谷
7090221,岡山県,備前市,吉永町金谷,オカヤマケン,ビゼンシ,ヨシナガチョウカナダニ,岡山県備前市吉永町金谷
7090222,岡山県,備前市,吉永町福満,オカヤマケン,ビゼンシ,ヨシナガチョウフクミツ,岡山県備前市吉永町福満
7090223,岡山県,備前市,吉永町南方,オカヤマケン,ビゼンシ,ヨシナガチョウミナミガタ,岡山県備前市吉永町南方
7090224,岡山県,備前市,吉永町吉永中,オカヤマケン,ビゼンシ,ヨシナガチョウヨシナガナカ,岡山県備前市吉永町吉永中
7090225,岡山県,備前市,吉永町三股,オカヤマケン,ビゼンシ,ヨシナガチョウミツマタ,岡山県備前市吉永町三股
7090226,岡山県,備前市,吉永町岩崎,オカヤマケン,ビゼンシ,ヨシナガチョウイワサキ,岡山県備前市吉永町岩崎
7090301,岡山県,備前市,吉永町加賀美,オカヤマケン,ビゼンシ,ヨシナガチョウカガミ,岡山県備前市吉永町加賀美
7090302,岡山県,備前市,吉永町多麻,オカヤマケン,ビゼンシ,ヨシナガチョウタマ,岡山県備前市吉永町多麻
7090303,岡山県,備前市,吉永町都留岐,オカヤマケン,ビゼンシ,ヨシナガチョウツルギ,岡山県備前市吉永町都留岐
7090304,岡山県,備前市,吉永町笹目,オカヤマケン,ビゼンシ,ヨシナガチョウササメ,岡山県備前市吉永町笹目
7090400,岡山県,和気郡和気町,,オカヤマケン,ワケグンワケチョウ,,岡山県和気郡和気町
7090401,岡山県,和気郡和気町,保曽,オカヤマケン,ワケグンワケチョウ,ホソウ,岡山県和気郡和気町保曽
7090402,岡山県,和気郡和気町,日笠上,オカヤマケン,ワケグンワケチョウ,ヒカサカミ,岡山県和気郡和気町日笠上
7090403,岡山県,和気郡和気町,日笠下,オカヤマケン,ワケグンワケチョウ,ヒカサシモ,岡山県和気郡和気町日笠下
7090404,岡山県,和気郡和気町,木倉,オカヤマケン,ワケグンワケチョウ,キノクラ,岡山県和気郡和気町木倉
7090411,岡山県,和気郡和気町,吉田,オカヤマケン,ワケグンワケチョウ,ヨシダ,岡山県和気郡和気町吉田
7090412,岡山県,和気郡和気町,藤野,オカヤマケン,ワケグンワケチョウ,フジノ,岡山県和気郡和気町藤野
7090413,岡山県,和気郡和気町,泉,オカヤマケン,ワケグンワケチョウ,イズミ,岡山県和気郡和気町泉
7090414,岡山県,和気郡和気町,大田原,オカヤマケン,ワケグンワケチョウ,オオタワラ,岡山県和気郡和気町大田原
7090421,岡山県,和気郡和気町,日室,オカヤマケン,ワケグンワケチョウ,ヒムロ,岡山県和気郡和気町日室
7090422,岡山県,和気郡和気町,尺所,オカヤマケン,ワケグンワケチョウ,シャクソ,岡山県和気郡和気町尺所
7090431,岡山県,和気郡和気町,清水,オカヤマケン,ワケグンワケチョウ,シミズ,岡山県和気郡和気町清水
7090432,岡山県,和気郡和気町,大中山,オカヤマケン,ワケグンワケチョウ,オオナカヤマ,岡山県和気郡和気町大中山
7090441,岡山県,和気郡和気町,衣笠,オカヤマケン,ワケグンワケチョウ,キヌガサ,岡山県和気郡和気町衣笠
7090442,岡山県,和気郡和気町,福富,オカヤマケン,ワケグンワケチョウ,フクトミ,岡山県和気郡和気町福富
7090451,岡山県,和気郡和気町,和気,オカヤマケン,ワケグンワケチョウ,ワケ,岡山県和気郡和気町和気
7090452,岡山県,和気郡和気町,益原,オカヤマケン,ワケグンワケチョウ,マスバラ,岡山県和気郡和気町益原
7090461,岡山県,和気郡和気町,原,オカヤマケン,ワケグンワケチョウ,ハラ,岡山県和気郡和気町原
7090462,岡山県,和気郡和気町,本,オカヤマケン,ワケグンワケチョウ,ホン,岡山県和気郡和気町本
7090463,岡山県,和気郡和気町,田原上,オカヤマケン,ワケグンワケチョウ,タワラカミ,岡山県和気郡和気町田原上
7090464,岡山県,和気郡和気町,田原下,オカヤマケン,ワケグンワケチョウ,タワラシモ,岡山県和気郡和気町田原下
7090501,岡山県,和気郡和気町,奥塩田,オカヤマケン,ワケグンワケチョウ,オクシオタ,岡山県和気郡和気町奥塩田
7090502,岡山県,和気郡和気町,丸山,オカヤマケン,ワケグンワケチョウ,マルヤマ,岡山県和気郡和気町丸山
7090503,岡山県,和気郡和気町,南山方,オカヤマケン,ワケグンワケチョウ,ミナミヤマガタ,岡山県和気郡和気町南山方
7090504,岡山県,和気郡和気町,北山方,オカヤマケン,ワケグンワケチョウ,キタヤマガタ,岡山県和気郡和気町北山方
7090505,岡山県,和気郡和気町,苦木,オカヤマケン,ワケグンワケチョウ,ニガキ,岡山県和気郡和気町苦木
7090506,岡山県,和気郡和気町,塩田,オカヤマケン,ワケグンワケチョウ,シオタ,岡山県和気郡和気町塩田
7090511,岡山県,和気郡和気町,矢田,オカヤマケン,ワケグンワケチョウ,ヤタ,岡山県和気郡和気町矢田
7090512,岡山県,和気郡和気町,田土,オカヤマケン,ワケグンワケチョウ,タド,岡山県和気郡和気町田土
7090513,岡山県,和気郡和気町,岩戸,オカヤマケン,ワケグンワケチョウ,イワト,岡山県和気郡和気町岩戸
7090514,岡山県,和気郡和気町,佐伯,オカヤマケン,ワケグンワケチョウ,サエキ,岡山県和気郡和気町佐伯
7090515,岡山県,和気郡和気町,米澤,オカヤマケン,ワケグンワケチョウ,ヨネザワ,岡山県和気郡和気町米澤
7090516,岡山県,和気郡和気町,津瀬,オカヤマケン,ワケグンワケチョウ,ツゼ,岡山県和気郡和気町津瀬
7090521,岡山県,和気郡和気町,父井原,オカヤマケン,ワケグンワケチョウ,チチイバラ,岡山県和気郡和気町父井原
7090522,岡山県,和気郡和気町,加三方,オカヤマケン,ワケグンワケチョウ,カミガタ,岡山県和気郡和気町加三方
7090523,岡山県,和気郡和気町,小坂,オカヤマケン,ワケグンワケチョウ,コザカ,岡山県和気郡和気町小坂
7090524,岡山県,和気郡和気町,田賀,オカヤマケン,ワケグンワケチョウ,タガ,岡山県和気郡和気町田賀
7090525,岡山県,和気郡和気町,宇生,オカヤマケン,ワケグンワケチョウ,ウブ,岡山県和気郡和気町宇生
7090526,岡山県,和気郡和気町,矢田部,オカヤマケン,ワケグンワケチョウ,ヤタベ,岡山県和気郡和気町矢田部
7090601,岡山県,岡山市東区,吉井,オカヤマケン,オカヤマシヒガシク,ヨシイ,岡山県岡山市東区吉井
7090602,岡山県,岡山市東区,一日市,オカヤマケン,オカヤマシヒガシク,ヒトイチ,岡山県岡山市東区一日市
7090603,岡山県,岡山市東区,西祖,オカヤマケン,オカヤマシヒガシク,セイソ,岡山県岡山市東区西祖
7090604,岡山県,岡山市東区,寺山,オカヤマケン,オカヤマシヒガシク,テラヤマ,岡山県岡山市東区寺山
7090605,岡山県,岡山市東区,浅川,オカヤマケン,オカヤマシヒガシク,アサカワ,岡山県岡山市東区浅川
7090606,岡山県,岡山市東区,矢井,オカヤマケン,オカヤマシヒガシク,ヤイ,岡山県岡山市東区矢井
7090607,岡山県,岡山市東区,浦間,オカヤマケン,オカヤマシヒガシク,ウラマ,岡山県岡山市東区浦間
7090611,岡山県,岡山市東区,楢原,オカヤマケン,オカヤマシヒガシク,ナラバラ,岡山県岡山市東区楢原
7090612,岡山県,岡山市東区,内ケ原,オカヤマケン,オカヤマシヒガシク,ウチガハラ,岡山県岡山市東区内ケ原
7090613,岡山県,岡山市東区,百枝月,オカヤマケン,オカヤマシヒガシク,モモエヅキ,岡山県岡山市東区百枝月
7090614,岡山県,岡山市東区,竹原,オカヤマケン,オカヤマシヒガシク,タケワラ,岡山県岡山市東区竹原
7090615,岡山県,岡山市東区,才崎,オカヤマケン,オカヤマシヒガシク,サイザキ,岡山県岡山市東区才崎
7090621,岡山県,岡山市東区,沼,オカヤマケン,オカヤマシヒガシク,ヌマ,岡山県岡山市東区沼
7090622,岡山県,岡山市東区,城東台東,オカヤマケン,オカヤマシヒガシク,ジョウトウダイヒガシ,岡山県岡山市東区城東台東
7090623,岡山県,岡山市東区,城東台南,オカヤマケン,オカヤマシヒガシク,ジョウトウダイミナミ,岡山県岡山市東区城東台南
7090624,岡山県,岡山市東区,城東台西,オカヤマケン,オカヤマシヒガシク,ジョウトウダイニシ,岡山県岡山市東区城東台西
7090625,岡山県,岡山市東区,上道北方,オカヤマケン,オカヤマシヒガシク,ジョウトウキタガタ,岡山県岡山市東区上道北方
7090626,岡山県,岡山市東区,中尾,オカヤマケン,オカヤマシヒガシク,ナカオ,岡山県岡山市東区中尾
7090631,岡山県,岡山市東区,東平島,オカヤマケン,オカヤマシヒガシク,ヒガシヒラジマ,岡山県岡山市東区東平島
7090632,岡山県,岡山市東区,南古都,オカヤマケン,オカヤマシヒガシク,ミナミコズ,岡山県岡山市東区南古都
7090633,岡山県,岡山市東区,西平島,オカヤマケン,オカヤマシヒガシク,ニシヒラジマ,岡山県岡山市東区西平島
7090634,岡山県,岡山市東区,砂場,オカヤマケン,オカヤマシヒガシク,スナバ,岡山県岡山市東区砂場
7090635,岡山県,岡山市東区,草ケ部,オカヤマケン,オカヤマシヒガシク,クサカベ,岡山県岡山市東区草ケ部
7090636,岡山県,岡山市東区,谷尻,オカヤマケン,オカヤマシヒガシク,タニシリ,岡山県岡山市東区谷尻
7090701,岡山県,赤磐市,酌田,オカヤマケン,アカイワシ,シャクダ,岡山県赤磐市酌田
7090702,岡山県,赤磐市,岡,オカヤマケン,アカイワシ,オカ,岡山県赤磐市岡
7090703,岡山県,赤磐市,殿谷,オカヤマケン,アカイワシ,トノダニ,岡山県赤磐市殿谷
7090704,岡山県,赤磐市,沢原,オカヤマケン,アカイワシ,サワハラ,岡山県赤磐市沢原
7090705,岡山県,赤磐市,松木,オカヤマケン,アカイワシ,マツキ,岡山県赤磐市松木
7090706,岡山県,赤磐市,佐古,オカヤマケン,アカイワシ,サコ,岡山県赤磐市佐古
7090711,岡山県,赤磐市,円光寺,オカヤマケン,アカイワシ,エンコウジ,岡山県赤磐市円光寺
7090712,岡山県,赤磐市,吉原,オカヤマケン,アカイワシ,ヨシハラ,岡山県赤磐市吉原
7090713,岡山県,赤磐市,奥吉原,オカヤマケン,アカイワシ,オクヨシハラ,岡山県赤磐市奥吉原
7090714,岡山県,赤磐市,千躰,オカヤマケン,アカイワシ,センダ,岡山県赤磐市千躰
7090715,岡山県,赤磐市,勢力,オカヤマケン,アカイワシ,セイリキ,岡山県赤磐市勢力
7090716,岡山県,赤磐市,徳富,オカヤマケン,アカイワシ,トクドミ,岡山県赤磐市徳富
7090717,岡山県,赤磐市,小瀬木,オカヤマケン,アカイワシ,オセギ,岡山県赤磐市小瀬木
7090718,岡山県,赤磐市,釣井,オカヤマケン,アカイワシ,ツルイ,岡山県赤磐市釣井
7090719,岡山県,赤磐市,河田原,オカヤマケン,アカイワシ,カワタハラ,岡山県赤磐市河田原
7090721,岡山県,赤磐市,桜が丘東,オカヤマケン,アカイワシ,サクラガオカヒガシ,岡山県赤磐市桜が丘東
7090731,岡山県,赤磐市,石蓮寺,オカヤマケン,アカイワシ,シャクレンジ,岡山県赤磐市石蓮寺
7090732,岡山県,赤磐市,可真下,オカヤマケン,アカイワシ,カマシモ,岡山県赤磐市可真下
7090733,岡山県,赤磐市,可真上,オカヤマケン,アカイワシ,カマカミ,岡山県赤磐市可真上
7090734,岡山県,赤磐市,弥上,オカヤマケン,アカイワシ,ヤガミ,岡山県赤磐市弥上
7090735,岡山県,赤磐市,野間,オカヤマケン,アカイワシ,ノマ,岡山県赤磐市野間
7090736,岡山県,赤磐市,稗田,オカヤマケン,アカイワシ,ヒエダ,岡山県赤磐市稗田
7090800,岡山県,赤磐市,,オカヤマケン,アカイワシ,,岡山県赤磐市
7090801,岡山県,赤磐市,神田,オカヤマケン,アカイワシ,コウダ,岡山県赤磐市神田
7090802,岡山県,赤磐市,桜が丘西,オカヤマケン,アカイワシ,サクラガオカニシ,岡山県赤磐市桜が丘西
7090803,岡山県,赤磐市,中島,オカヤマケン,アカイワシ,ナカシマ,岡山県赤磐市中島
7090804,岡山県,赤磐市,日古木,オカヤマケン,アカイワシ,ヒコギ,岡山県赤磐市日古木
7090805,岡山県,赤磐市,二井,オカヤマケン,アカイワシ,フタイ,岡山県赤磐市二井
7090806,岡山県,赤磐市,尾谷,オカヤマケン,アカイワシ,オダニ,岡山県赤磐市尾谷
7090807,岡山県,赤磐市,津崎,オカヤマケン,アカイワシ,ツザキ,岡山県赤磐市津崎
7090811,岡山県,赤磐市,高屋,オカヤマケン,アカイワシ,タカヤ,岡山県赤磐市高屋
7090812,岡山県,赤磐市,沼田,オカヤマケン,アカイワシ,ヌタ,岡山県赤磐市沼田
7090813,岡山県,赤磐市,斎富,オカヤマケン,アカイワシ,サイドミ,岡山県赤磐市斎富
7090814,岡山県,赤磐市,南方,オカヤマケン,アカイワシ,ミナミガタ,岡山県赤磐市南方
7090815,岡山県,赤磐市,立川,オカヤマケン,アカイワシ,タツカワ,岡山県赤磐市立川
7090816,岡山県,赤磐市,下市,オカヤマケン,アカイワシ,シモイチ,岡山県赤磐市下市
7090817,岡山県,赤磐市,上市,オカヤマケン,アカイワシ,カミイチ,岡山県赤磐市上市
7090821,岡山県,赤磐市,河本,オカヤマケン,アカイワシ,コウモト,岡山県赤磐市河本
7090822,岡山県,赤磐市,岩田,オカヤマケン,アカイワシ,イワタ,岡山県赤磐市岩田
7090823,岡山県,赤磐市,長尾,オカヤマケン,アカイワシ,ナガオ,岡山県赤磐市長尾
7090824,岡山県,赤磐市,穂崎,オカヤマケン,アカイワシ,ホサキ,岡山県赤磐市穂崎
7090825,岡山県,赤磐市,馬屋,オカヤマケン,アカイワシ,マヤ,岡山県赤磐市馬屋
7090826,岡山県,赤磐市,和田,オカヤマケン,アカイワシ,ワダ,岡山県赤磐市和田
7090827,岡山県,赤磐市,山陽,オカヤマケン,アカイワシ,サンヨウ,岡山県赤磐市山陽
7090831,岡山県,赤磐市,五日市,オカヤマケン,アカイワシ,イツカイチ,岡山県赤磐市五日市
7090832,岡山県,赤磐市,正崎,オカヤマケン,アカイワシ,ショウザキ,岡山県赤磐市正崎
7090833,岡山県,赤磐市,熊崎,オカヤマケン,アカイワシ,クマザキ,岡山県赤磐市熊崎
7090834,岡山県,赤磐市,鴨前,オカヤマケン,アカイワシ,カモサキ,岡山県赤磐市鴨前
7090835,岡山県,赤磐市,西中,オカヤマケン,アカイワシ,ニシナカ,岡山県赤磐市西中
7090836,岡山県,赤磐市,下仁保,オカヤマケン,アカイワシ,シモニボ,岡山県赤磐市下仁保
7090837,岡山県,赤磐市,上仁保,オカヤマケン,アカイワシ,カミニボ,岡山県赤磐市上仁保
7090838,岡山県,赤磐市,斗有,オカヤマケン,アカイワシ,トアリ,岡山県赤磐市斗有
7090841,岡山県,岡山市東区,瀬戸町万富,オカヤマケン,オカヤマシヒガシク,セトチョウマントミ,岡山県岡山市東区瀬戸町万富
7090842,岡山県,岡山市東区,瀬戸町二日市,オカヤマケン,オカヤマシヒガシク,セトチョウフツカイチ,岡山県岡山市東区瀬戸町二日市
7090843,岡山県,岡山市東区,瀬戸町弓削,オカヤマケン,オカヤマシヒガシク,セトチョウユゲ,岡山県岡山市東区瀬戸町弓削
7090844,岡山県,岡山市東区,瀬戸町南方,オカヤマケン,オカヤマシヒガシク,セトチョウミナミガタ,岡山県岡山市東区瀬戸町南方
7090845,岡山県,岡山市東区,瀬戸町鍛冶屋,オカヤマケン,オカヤマシヒガシク,セトチョウカジヤ,岡山県岡山市東区瀬戸町鍛冶屋
7090846,岡山県,岡山市東区,瀬戸町大井,オカヤマケン,オカヤマシヒガシク,セトチョウダイイ,岡山県岡山市東区瀬戸町大井
7090851,岡山県,岡山市東区,瀬戸町大内,オカヤマケン,オカヤマシヒガシク,セトチョウオオチ,岡山県岡山市東区瀬戸町大内
7090852,岡山県,岡山市東区,瀬戸町肩脊,オカヤマケン,オカヤマシヒガシク,セトチョウカタセ,岡山県岡山市東区瀬戸町肩脊
7090853,岡山県,岡山市東区,瀬戸町旭ヶ丘,オカヤマケン,オカヤマシヒガシク,セトチョウアサヒガオカ,岡山県岡山市東区瀬戸町旭ヶ丘
7090854,岡山県,岡山市東区,瀬戸町江尻,オカヤマケン,オカヤマシヒガシク,セトチョウエジリ,岡山県岡山市東区瀬戸町江尻
7090855,岡山県,岡山市東区,瀬戸町沖,オカヤマケン,オカヤマシヒガシク,セトチョウオキ,岡山県岡山市東区瀬戸町沖
7090856,岡山県,岡山市東区,瀬戸町下,オカヤマケン,オカヤマシヒガシク,セトチョウシモ,岡山県岡山市東区瀬戸町下
7090861,岡山県,岡山市東区,瀬戸町瀬戸,オカヤマケン,オカヤマシヒガシク,セトチョウセト,岡山県岡山市東区瀬戸町瀬戸
7090862,岡山県,岡山市東区,瀬戸町笹岡,オカヤマケン,オカヤマシヒガシク,セトチョウササオカ,岡山県岡山市東区瀬戸町笹岡
7090863,岡山県,岡山市東区,瀬戸町観音寺,オカヤマケン,オカヤマシヒガシク,セトチョウカンオンジ,岡山県岡山市東区瀬戸町観音寺
7090864,岡山県,岡山市東区,瀬戸町宿奥,オカヤマケン,オカヤマシヒガシク,セトチョウシュクオク,岡山県岡山市東区瀬戸町宿奥
7090865,岡山県,岡山市東区,瀬戸町菊山,オカヤマケン,オカヤマシヒガシク,セトチョウキクヤマ,岡山県岡山市東区瀬戸町菊山
7090871,岡山県,岡山市東区,瀬戸町塩納,オカヤマケン,オカヤマシヒガシク,セトチョウシオノウ,岡山県岡山市東区瀬戸町塩納
7090872,岡山県,岡山市東区,瀬戸町宗堂,オカヤマケン,オカヤマシヒガシク,セトチョウソウドウ,岡山県岡山市東区瀬戸町宗堂
7090873,岡山県,岡山市東区,瀬戸町坂根,オカヤマケン,オカヤマシヒガシク,セトチョウサカネ,岡山県岡山市東区瀬戸町坂根
7090874,岡山県,岡山市東区,瀬戸町森末,オカヤマケン,オカヤマシヒガシク,セトチョウモリスエ,岡山県岡山市東区瀬戸町森末
7090875,岡山県,岡山市東区,瀬戸町寺地,オカヤマケン,オカヤマシヒガシク,セトチョウテラジ,岡山県岡山市東区瀬戸町寺地
7090876,岡山県,岡山市東区,瀬戸町光明谷,オカヤマケン,オカヤマシヒガシク,セトチョウコウミョウタニ,岡山県岡山市東区瀬戸町光明谷
7091201,岡山県,岡山市南区,北七区,オカヤマケン,オカヤマシミナミク,キタナナク,岡山県岡山市南区北七区
7091202,岡山県,岡山市南区,西七区,オカヤマケン,オカヤマシミナミク,ニシナナク,岡山県岡山市南区西七区
7091203,岡山県,岡山市南区,西紅陽台,オカヤマケン,オカヤマシミナミク,ニシコウヨウダイ,岡山県岡山市南区西紅陽台
7091204,岡山県,岡山市南区,西高崎,オカヤマケン,オカヤマシミナミク,ニシタカサキ,岡山県岡山市南区西高崎
7091211,岡山県,岡山市南区,迫川,オカヤマケン,オカヤマシミナミク,ハザカワ,岡山県岡山市南区迫川
7091212,岡山県,岡山市南区,奥迫川,オカヤマケン,オカヤマシミナミク,オクハザカワ,岡山県岡山市南区奥迫川
7091213,岡山県,岡山市南区,彦崎,オカヤマケン,オカヤマシミナミク,ヒコサキ,岡山県岡山市南区彦崎
7091214,岡山県,岡山市南区,川張,オカヤマケン,オカヤマシミナミク,カワハリ,岡山県岡山市南区川張
7091215,岡山県,岡山市南区,片岡,オカヤマケン,オカヤマシミナミク,カタオカ,岡山県岡山市南区片岡
7091216,岡山県,岡山市南区,宗津,オカヤマケン,オカヤマシミナミク,ソウヅ,岡山県岡山市南区宗津
7092101,岡山県,岡山市北区,御津石上,オカヤマケン,オカヤマシキタク,ミツイシカミ,岡山県岡山市北区御津石上
7092102,岡山県,岡山市北区,御津中畑,オカヤマケン,オカヤマシキタク,ミツナカハタ,岡山県岡山市北区御津中畑
7092103,岡山県,岡山市北区,御津矢知,オカヤマケン,オカヤマシキタク,ミツヤチ,岡山県岡山市北区御津矢知
7092104,岡山県,岡山市北区,御津平岡西,オカヤマケン,オカヤマシキタク,ミツヒラオカニシ,岡山県岡山市北区御津平岡西
7092105,岡山県,岡山市北区,御津伊田,オカヤマケン,オカヤマシキタク,ミツイタ,岡山県岡山市北区御津伊田
7092106,岡山県,岡山市北区,御津新庄,オカヤマケン,オカヤマシキタク,ミツシンジョウ,岡山県岡山市北区御津新庄
7092107,岡山県,岡山市北区,御津矢原,オカヤマケン,オカヤマシキタク,ミツヤバラ,岡山県岡山市北区御津矢原
7092111,岡山県,岡山市北区,御津川高,オカヤマケン,オカヤマシキタク,ミツカワタカ,岡山県岡山市北区御津川高
7092112,岡山県,岡山市北区,御津国ケ原,オカヤマケン,オカヤマシキタク,ミツクニガハラ,岡山県岡山市北区御津国ケ原
7092113,岡山県,岡山市北区,御津芳谷,オカヤマケン,オカヤマシキタク,ミツヨシタニ,岡山県岡山市北区御津芳谷
7092114,岡山県,岡山市北区,御津中牧,オカヤマケン,オカヤマシキタク,ミツナカマキ,岡山県岡山市北区御津中牧
7092115,岡山県,岡山市北区,御津北野,オカヤマケン,オカヤマシキタク,ミツキタノ,岡山県岡山市北区御津北野
7092116,岡山県,岡山市北区,御津中山,オカヤマケン,オカヤマシキタク,ミツナカヤマ,岡山県岡山市北区御津中山
7092117,岡山県,岡山市北区,御津野々口,オカヤマケン,オカヤマシキタク,ミツノノクチ,岡山県岡山市北区御津野々口
7092121,岡山県,岡山市北区,御津宇垣,オカヤマケン,オカヤマシキタク,ミツウガキ,岡山県岡山市北区御津宇垣
7092122,岡山県,岡山市北区,御津吉尾,オカヤマケン,オカヤマシキタク,ミツヨシオ,岡山県岡山市北区御津吉尾
7092123,岡山県,岡山市北区,御津河内,オカヤマケン,オカヤマシキタク,ミツコウチ,岡山県岡山市北区御津河内
7092124,岡山県,岡山市北区,御津高津,オカヤマケン,オカヤマシキタク,ミツタカヅ,岡山県岡山市北区御津高津
7092125,岡山県,岡山市北区,御津宇甘,オカヤマケン,オカヤマシキタク,ミツウカイ,岡山県岡山市北区御津宇甘
7092126,岡山県,岡山市北区,御津勝尾,オカヤマケン,オカヤマシキタク,ミツカツオ,岡山県岡山市北区御津勝尾
7092131,岡山県,岡山市北区,御津鹿瀬,オカヤマケン,オカヤマシキタク,ミツカセ,岡山県岡山市北区御津鹿瀬
7092132,岡山県,岡山市北区,御津草生,オカヤマケン,オカヤマシキタク,ミツクソウ,岡山県岡山市北区御津草生
7092133,岡山県,岡山市北区,御津金川,オカヤマケン,オカヤマシキタク,ミツカナガワ,岡山県岡山市北区御津金川
7092134,岡山県,岡山市北区,御津下田,オカヤマケン,オカヤマシキタク,ミツシモダ,岡山県岡山市北区御津下田
7092135,岡山県,岡山市北区,御津中泉,オカヤマケン,オカヤマシキタク,ミツナカイズミ,岡山県岡山市北区御津中泉
7092136,岡山県,岡山市北区,御津紙工,オカヤマケン,オカヤマシキタク,ミツシトリ,岡山県岡山市北区御津紙工
7092137,岡山県,岡山市北区,御津虎倉,オカヤマケン,オカヤマシキタク,ミツコグラ,岡山県岡山市北区御津虎倉
7092331,岡山県,加賀郡吉備中央町,下加茂,オカヤマケン,カガグンキビチュウオウチョウ,シモガモ,岡山県加賀郡吉備中央町下加茂
7092332,岡山県,加賀郡吉備中央町,高谷,オカヤマケン,カガグンキビチュウオウチョウ,タカヤ,岡山県加賀郡吉備中央町高谷
7092333,岡山県,加賀郡吉備中央町,加茂市場,オカヤマケン,カガグンキビチュウオウチョウ,カモイチバ,岡山県加賀郡吉備中央町加茂市場
7092334,岡山県,加賀郡吉備中央町,美原,オカヤマケン,カガグンキビチュウオウチョウ,ミハラ,岡山県加賀郡吉備中央町美原
7092341,岡山県,加賀郡吉備中央町,上加茂,オカヤマケン,カガグンキビチュウオウチョウ,カミガモ,岡山県加賀郡吉備中央町上加茂
7092342,岡山県,加賀郡吉備中央町,広面,オカヤマケン,カガグンキビチュウオウチョウ,ヒロモ,岡山県加賀郡吉備中央町広面
7092343,岡山県,加賀郡吉備中央町,竹部,オカヤマケン,カガグンキビチュウオウチョウ,タケベ,岡山県加賀郡吉備中央町竹部
7092344,岡山県,加賀郡吉備中央町,上野,オカヤマケン,カガグンキビチュウオウチョウ,ウエノ,岡山県加賀郡吉備中央町上野
7092345,岡山県,加賀郡吉備中央町,平岡,オカヤマケン,カガグンキビチュウオウチョウ,ヒラオカ,岡山県加賀郡吉備中央町平岡
7092401,岡山県,加賀郡吉備中央町,神瀬,オカヤマケン,カガグンキビチュウオウチョウ,カンセ,岡山県加賀郡吉備中央町神瀬
7092402,岡山県,加賀郡吉備中央町,高富,オカヤマケン,カガグンキビチュウオウチョウ,タカトミ,岡山県加賀郡吉備中央町高富
7092403,岡山県,加賀郡吉備中央町,案田,オカヤマケン,カガグンキビチュウオウチョウ,アンダ,岡山県加賀郡吉備中央町案田
7092404,岡山県,加賀郡吉備中央町,小森,オカヤマケン,カガグンキビチュウオウチョウ,コモリ,岡山県加賀郡吉備中央町小森
7092411,岡山県,加賀郡吉備中央町,上田東,オカヤマケン,カガグンキビチュウオウチョウ,ウエダヒガシ,岡山県加賀郡吉備中央町上田東
7092412,岡山県,加賀郡吉備中央町,円城,オカヤマケン,カガグンキビチュウオウチョウ,エンジョウ,岡山県加賀郡吉備中央町円城
7092413,岡山県,加賀郡吉備中央町,上田西,オカヤマケン,カガグンキビチュウオウチョウ,ウエダニシ,岡山県加賀郡吉備中央町上田西
7092421,岡山県,加賀郡吉備中央町,細田,オカヤマケン,カガグンキビチュウオウチョウ,ホソダ,岡山県加賀郡吉備中央町細田
7092422,岡山県,加賀郡吉備中央町,三納谷,オカヤマケン,カガグンキビチュウオウチョウ,ミノウタニ,岡山県加賀郡吉備中央町三納谷
7092551,岡山県,加賀郡吉備中央町,下土井,オカヤマケン,カガグンキビチュウオウチョウ,シモドイ,岡山県加賀郡吉備中央町下土井
7092552,岡山県,加賀郡吉備中央町,井原,オカヤマケン,カガグンキビチュウオウチョウ,イハラ,岡山県加賀郡吉備中央町井原
7092553,岡山県,加賀郡吉備中央町,富永,オカヤマケン,カガグンキビチュウオウチョウ,トミナガ,岡山県加賀郡吉備中央町富永
7092554,岡山県,加賀郡吉備中央町,和田,オカヤマケン,カガグンキビチュウオウチョウ,ワダ,岡山県加賀郡吉備中央町和田
7092661,岡山県,加賀郡吉備中央町,豊岡下,オカヤマケン,カガグンキビチュウオウチョウ,トヨオカシモ,岡山県加賀郡吉備中央町豊岡下
7092662,岡山県,加賀郡吉備中央町,三谷,オカヤマケン,カガグンキビチュウオウチョウ,ミタニ,岡山県加賀郡吉備中央町三谷
7092663,岡山県,加賀郡吉備中央町,大木,オカヤマケン,カガグンキビチュウオウチョウ,オオギ,岡山県加賀郡吉備中央町大木
7092664,岡山県,加賀郡吉備中央町,豊岡上,オカヤマケン,カガグンキビチュウオウチョウ,トヨオカカミ,岡山県加賀郡吉備中央町豊岡上
7092671,岡山県,加賀郡吉備中央町,杉谷,オカヤマケン,カガグンキビチュウオウチョウ,スギタニ,岡山県加賀郡吉備中央町杉谷
7092672,岡山県,加賀郡吉備中央町,粟井谷,オカヤマケン,カガグンキビチュウオウチョウ,アワイタニ,岡山県加賀郡吉備中央町粟井谷
7092673,岡山県,加賀郡吉備中央町,尾原,オカヤマケン,カガグンキビチュウオウチョウ,オバラ,岡山県加賀郡吉備中央町尾原
7092674,岡山県,加賀郡吉備中央町,笹目,オカヤマケン,カガグンキビチュウオウチョウ,ササメ,岡山県加賀郡吉備中央町笹目
7092675,岡山県,加賀郡吉備中央町,福沢,オカヤマケン,カガグンキビチュウオウチョウ,フクザワ,岡山県加賀郡吉備中央町福沢
7092676,岡山県,加賀郡吉備中央町,溝部,オカヤマケン,カガグンキビチュウオウチョウ,ミゾベ,岡山県加賀郡吉備中央町溝部
7093101,岡山県,岡山市北区,建部町鶴田,オカヤマケン,オカヤマシキタク,タケベチョウタヅタ,岡山県岡山市北区建部町鶴田
7093102,岡山県,岡山市北区,建部町和田南,オカヤマケン,オカヤマシキタク,タケベチョウワダミナミ,岡山県岡山市北区建部町和田南
7093103,岡山県,岡山市北区,建部町角石畝,オカヤマケン,オカヤマシキタク,タケベチョウツイシウネ,岡山県岡山市北区建部町角石畝
7093104,岡山県,岡山市北区,建部町角石谷,オカヤマケン,オカヤマシキタク,タケベチョウツイシダニ,岡山県岡山市北区建部町角石谷
7093105,岡山県,岡山市北区,建部町三明寺,オカヤマケン,オカヤマシキタク,タケベチョウサンミョウジ,岡山県岡山市北区建部町三明寺
7093111,岡山県,岡山市北区,建部町福渡,オカヤマケン,オカヤマシキタク,タケベチョウフクワタリ,岡山県岡山市北区建部町福渡
7093112,岡山県,岡山市北区,建部町川口,オカヤマケン,オカヤマシキタク,タケベチョウカワグチ,岡山県岡山市北区建部町川口
7093113,岡山県,岡山市北区,建部町下神目,オカヤマケン,オカヤマシキタク,タケベチョウシモコウメ,岡山県岡山市北区建部町下神目
7093114,岡山県,岡山市北区,建部町豊楽寺,オカヤマケン,オカヤマシキタク,タケベチョウブラクジ,岡山県岡山市北区建部町豊楽寺
7093121,岡山県,岡山市北区,建部町大田,オカヤマケン,オカヤマシキタク,タケベチョウオオダ,岡山県岡山市北区建部町大田
7093122,岡山県,岡山市北区,建部町吉田,オカヤマケン,オカヤマシキタク,タケベチョウヨシダ,岡山県岡山市北区建部町吉田
7093123,岡山県,岡山市北区,建部町土師方,オカヤマケン,オカヤマシキタク,タケベチョウハジカタ,岡山県岡山市北区建部町土師方
7093124,岡山県,岡山市北区,建部町小倉,オカヤマケン,オカヤマシキタク,タケベチョウオグラ,岡山県岡山市北区建部町小倉
7093131,岡山県,岡山市北区,建部町市場,オカヤマケン,オカヤマシキタク,タケベチョウイチバ,岡山県岡山市北区建部町市場
7093132,岡山県,岡山市北区,建部町中田,オカヤマケン,オカヤマシキタク,タケベチョウナカダ,岡山県岡山市北区建部町中田
7093133,岡山県,岡山市北区,建部町西原,オカヤマケン,オカヤマシキタク,タケベチョウニシバラ,岡山県岡山市北区建部町西原
7093134,岡山県,岡山市北区,建部町桜,オカヤマケン,オカヤマシキタク,タケベチョウサクラ,岡山県岡山市北区建部町桜
7093141,岡山県,岡山市北区,建部町品田,オカヤマケン,オカヤマシキタク,タケベチョウシナダ,岡山県岡山市北区建部町品田
7093142,岡山県,岡山市北区,建部町建部上,オカヤマケン,オカヤマシキタク,タケベチョウタケベカミ,岡山県岡山市北区建部町建部上
7093143,岡山県,岡山市北区,建部町宮地,オカヤマケン,オカヤマシキタク,タケベチョウミヤジ,岡山県岡山市北区建部町宮地
7093144,岡山県,岡山市北区,建部町富沢,オカヤマケン,オカヤマシキタク,タケベチョウトミサワ,岡山県岡山市北区建部町富沢
7093145,岡山県,岡山市北区,建部町田地子,オカヤマケン,オカヤマシキタク,タケベチョウタジコ,岡山県岡山市北区建部町田地子
7093401,岡山県,久米郡美咲町,北,オカヤマケン,クメグンミサキチョウ,キタ,岡山県久米郡美咲町北
7093402,岡山県,久米郡美咲町,南,オカヤマケン,クメグンミサキチョウ,ミナミ,岡山県久米郡美咲町南
7093403,岡山県,久米郡美咲町,里,オカヤマケン,クメグンミサキチョウ,サト,岡山県久米郡美咲町里
7093404,岡山県,久米郡美咲町,西川,オカヤマケン,クメグンミサキチョウ,ニシガワ,岡山県久米郡美咲町西川
7093405,岡山県,久米郡美咲町,西,オカヤマケン,クメグンミサキチョウ,ニシ,岡山県久米郡美咲町西
7093406,岡山県,久米郡美咲町,西川上,オカヤマケン,クメグンミサキチョウ,ニシガワカミ,岡山県久米郡美咲町西川上
7093407,岡山県,久米郡美咲町,中,オカヤマケン,クメグンミサキチョウ,ナカ,岡山県久米郡美咲町中
7093411,岡山県,久米郡美咲町,上口,オカヤマケン,クメグンミサキチョウ,ウエクチ,岡山県久米郡美咲町上口
7093412,岡山県,久米郡美咲町,小山,オカヤマケン,クメグンミサキチョウ,コヤマ,岡山県久米郡美咲町小山
7093413,岡山県,久米郡美咲町,栃原,オカヤマケン,クメグンミサキチョウ,トチバラ,岡山県久米郡美咲町栃原
7093414,岡山県,久米郡美咲町,西垪和,オカヤマケン,クメグンミサキチョウ,ニシハガ,岡山県久米郡美咲町西垪和
7093415,岡山県,久米郡美咲町,江与味,オカヤマケン,クメグンミサキチョウ,エヨミ,岡山県久米郡美咲町江与味
7093416,岡山県,久米郡美咲町,東垪和,オカヤマケン,クメグンミサキチョウ,ヒガシハガ,岡山県久米郡美咲町東垪和
7093417,岡山県,久米郡美咲町,中垪和,オカヤマケン,クメグンミサキチョウ,ナカハガ,岡山県久米郡美咲町中垪和
7093600,岡山県,久米郡久米南町,,オカヤマケン,クメグンクメナンチョウ,,岡山県久米郡久米南町
7093601,岡山県,久米郡久米南町,北庄,オカヤマケン,クメグンクメナンチョウ,キタショウ,岡山県久米郡久米南町北庄
7093602,岡山県,久米郡久米南町,里方,オカヤマケン,クメグンクメナンチョウ,サトガタ,岡山県久米郡久米南町里方
7093603,岡山県,久米郡久米南町,山ノ城,オカヤマケン,クメグンクメナンチョウ,ヤマノジョウ,岡山県久米郡久米南町山ノ城
7093604,岡山県,久米郡久米南町,南庄,オカヤマケン,クメグンクメナンチョウ,ミナミショウ,岡山県久米郡久米南町南庄
7093605,岡山県,久米郡久米南町,塩之内,オカヤマケン,クメグンクメナンチョウ,シオノウチ,岡山県久米郡久米南町塩之内
7093606,岡山県,久米郡久米南町,羽出木,オカヤマケン,クメグンクメナンチョウ,ハデギ,岡山県久米郡久米南町羽出木
7093611,岡山県,久米郡久米南町,松,オカヤマケン,クメグンクメナンチョウ,マツ,岡山県久米郡久米南町松
7093612,岡山県,久米郡久米南町,上弓削,オカヤマケン,クメグンクメナンチョウ,カミユゲ,岡山県久米郡久米南町上弓削
7093613,岡山県,久米郡久米南町,西山寺,オカヤマケン,クメグンクメナンチョウ,ニシヤマジ,岡山県久米郡久米南町西山寺
7093614,岡山県,久米郡久米南町,下弓削,オカヤマケン,クメグンクメナンチョウ,シモユゲ,岡山県久米郡久米南町下弓削
7093615,岡山県,久米郡久米南町,上二ケ,オカヤマケン,クメグンクメナンチョウ,カミニカ,岡山県久米郡久米南町上二ケ
7093616,岡山県,久米郡久米南町,全間,オカヤマケン,クメグンクメナンチョウ,マタマ,岡山県久米郡久米南町全間
7093617,岡山県,久米郡久米南町,下二ケ,オカヤマケン,クメグンクメナンチョウ,シモニカ,岡山県久米郡久米南町下二ケ
7093621,岡山県,久米郡久米南町,上籾,オカヤマケン,クメグンクメナンチョウ,カミモミ,岡山県久米郡久米南町上籾
7093622,岡山県,久米郡久米南町,仏教寺,オカヤマケン,クメグンクメナンチョウ,ブツキョウジ,岡山県久米郡久米南町仏教寺
7093623,岡山県,久米郡久米南町,中籾,オカヤマケン,クメグンクメナンチョウ,ナカモミ,岡山県久米郡久米南町中籾
7093624,岡山県,久米郡久米南町,下籾,オカヤマケン,クメグンクメナンチョウ,シモモミ,岡山県久米郡久米南町下籾
7093625,岡山県,久米郡久米南町,別所,オカヤマケン,クメグンクメナンチョウ,ベッシヨ,岡山県久米郡久米南町別所
7093626,岡山県,久米郡久米南町,上神目,オカヤマケン,クメグンクメナンチョウ,カミコウメ,岡山県久米郡久米南町上神目
7093627,岡山県,久米郡久米南町,神目中,オカヤマケン,クメグンクメナンチョウ,コウメナカ,岡山県久米郡久米南町神目中
7093631,岡山県,久米郡久米南町,宮地,オカヤマケン,クメグンクメナンチョウ,ミヤジ,岡山県久米郡久米南町宮地
7093632,岡山県,久米郡久米南町,山手,オカヤマケン,クメグンクメナンチョウ,ヤマテ,岡山県久米郡久米南町山手
7093633,岡山県,久米郡久米南町,峠,オカヤマケン,クメグンクメナンチョウ,トウゲ,岡山県久米郡久米南町峠
7093634,岡山県,久米郡久米南町,京尾,オカヤマケン,クメグンクメナンチョウ,キョウノオ,岡山県久米郡久米南町京尾
7093635,岡山県,久米郡久米南町,南畑,オカヤマケン,クメグンクメナンチョウ,ミナミハタ,岡山県久米郡久米南町南畑
7093636,岡山県,久米郡久米南町,安ケ乢,オカヤマケン,クメグンクメナンチョウ,ヤスガタワ,岡山県久米郡久米南町安ケ乢
7093700,岡山県,久米郡美咲町,,オカヤマケン,クメグンミサキチョウ,,岡山県久米郡美咲町
7093701,岡山県,久米郡美咲町,錦織,オカヤマケン,クメグンミサキチョウ,ニシコリ,岡山県久米郡美咲町錦織
7093702,岡山県,久米郡美咲町,打穴下,オカヤマケン,クメグンミサキチョウ,ウタノシモ,岡山県久米郡美咲町打穴下
7093703,岡山県,久米郡美咲町,打穴中,オカヤマケン,クメグンミサキチョウ,ウタノナカ,岡山県久米郡美咲町打穴中
7093704,岡山県,久米郡美咲町,打穴里,オカヤマケン,クメグンミサキチョウ,ウタノサト,岡山県久米郡美咲町打穴里
7093705,岡山県,久米郡美咲町,打穴上,オカヤマケン,クメグンミサキチョウ,ウタノカミ,岡山県久米郡美咲町打穴上
7093706,岡山県,久米郡美咲町,打穴北,オカヤマケン,クメグンミサキチョウ,ウタノキタ,岡山県久米郡美咲町打穴北
7093707,岡山県,久米郡美咲町,打穴西,オカヤマケン,クメグンミサキチョウ,ウタノニシ,岡山県久米郡美咲町打穴西
7093711,岡山県,久米郡美咲町,越尾,オカヤマケン,クメグンミサキチョウ,コヨオ,岡山県久米郡美咲町越尾
7093712,岡山県,久米郡美咲町,金堀,オカヤマケン,クメグンミサキチョウ,カナボリ,岡山県久米郡美咲町金堀
7093713,岡山県,久米郡美咲町,新城,オカヤマケン,クメグンミサキチョウ,シンジョウ,岡山県久米郡美咲町新城
7093714,岡山県,久米郡美咲町,小原,オカヤマケン,クメグンミサキチョウ,オバラ,岡山県久米郡美咲町小原
7093715,岡山県,久米郡美咲町,西幸,オカヤマケン,クメグンミサキチョウ,サイコウ,岡山県久米郡美咲町西幸
7093716,岡山県,久米郡美咲町,頼元,オカヤマケン,クメグンミサキチョウ,ヨリモト,岡山県久米郡美咲町頼元
7093717,岡山県,久米郡美咲町,原田,オカヤマケン,クメグンミサキチョウ,ハラダ,岡山県久米郡美咲町原田
7093721,岡山県,久米郡美咲町,両山寺,オカヤマケン,クメグンミサキチョウ,リョウサンジ,岡山県久米郡美咲町両山寺
7093722,岡山県,久米郡美咲町,大垪和東,オカヤマケン,クメグンミサキチョウ,オオハガヒガシ,岡山県久米郡美咲町大垪和東
7093723,岡山県,久米郡美咲町,境,オカヤマケン,クメグンミサキチョウ,サカイ,岡山県久米郡美咲町境
7093724,岡山県,久米郡美咲町,角石祖母,オカヤマケン,クメグンミサキチョウ,ツイシソボ,岡山県久米郡美咲町角石祖母
7093725,岡山県,久米郡美咲町,和田北,オカヤマケン,クメグンミサキチョウ,ワダキタ,岡山県久米郡美咲町和田北
7093726,岡山県,久米郡美咲町,大垪和西,オカヤマケン,クメグンミサキチョウ,オオハガニシ,岡山県久米郡美咲町大垪和西
7093901,岡山県,津山市,加茂町倉見,オカヤマケン,ツヤマシ,カモチョウクラミ,岡山県津山市加茂町倉見
7093902,岡山県,津山市,加茂町黒木,オカヤマケン,ツヤマシ,カモチョウクロギ,岡山県津山市加茂町黒木
7093903,岡山県,津山市,加茂町戸賀,オカヤマケン,ツヤマシ,カモチョウトカ,岡山県津山市加茂町戸賀
7093904,岡山県,津山市,加茂町斉野谷,オカヤマケン,ツヤマシ,カモチョウサイノタニ,岡山県津山市加茂町斉野谷
7093905,岡山県,津山市,加茂町塔中,オカヤマケン,ツヤマシ,カモチョウタツチュウ,岡山県津山市加茂町塔中
7093906,岡山県,津山市,加茂町小中原,オカヤマケン,ツヤマシ,カモチョウコナカバラ,岡山県津山市加茂町小中原
7093907,岡山県,津山市,加茂町宇野,オカヤマケン,ツヤマシ,カモチョウウノ,岡山県津山市加茂町宇野
7093908,岡山県,津山市,加茂町原口,オカヤマケン,ツヤマシ,カモチョウハラグチ,岡山県津山市加茂町原口
7093911,岡山県,津山市,加茂町物見,オカヤマケン,ツヤマシ,カモチョウモノミ,岡山県津山市加茂町物見
7093912,岡山県,津山市,加茂町河井,オカヤマケン,ツヤマシ,カモチョウカワイ,岡山県津山市加茂町河井
7093913,岡山県,津山市,加茂町山下,オカヤマケン,ツヤマシ,カモチョウサンゲ,岡山県津山市加茂町山下
7093914,岡山県,津山市,加茂町知和,オカヤマケン,ツヤマシ,カモチョウチワ,岡山県津山市加茂町知和
7093915,岡山県,津山市,加茂町青柳,オカヤマケン,ツヤマシ,カモチョウアオヤギ,岡山県津山市加茂町青柳
7093921,岡山県,津山市,加茂町公郷,オカヤマケン,ツヤマシ,カモチョウクゴウ,岡山県津山市加茂町公郷
7093922,岡山県,津山市,加茂町下津川,オカヤマケン,ツヤマシ,カモチョウシモツガワ,岡山県津山市加茂町下津川
7093923,岡山県,津山市,加茂町桑原,オカヤマケン,ツヤマシ,カモチョウクワバラ,岡山県津山市加茂町桑原
7093924,岡山県,津山市,加茂町小渕,オカヤマケン,ツヤマシ,カモチョウオブチ,岡山県津山市加茂町小渕
7093931,岡山県,津山市,加茂町中原,オカヤマケン,ツヤマシ,カモチョウナカバラ,岡山県津山市加茂町中原
7093932,岡山県,津山市,加茂町成安,オカヤマケン,ツヤマシ,カモチョウナリヤス,岡山県津山市加茂町成安
7093933,岡山県,津山市,加茂町行重,オカヤマケン,ツヤマシ,カモチョウユキシゲ,岡山県津山市加茂町行重
7093934,岡山県,津山市,加茂町楢井,オカヤマケン,ツヤマシ,カモチョウナライ,岡山県津山市加茂町楢井
7093935,岡山県,津山市,加茂町百々,オカヤマケン,ツヤマシ,カモチョウドウドウ,岡山県津山市加茂町百々
7093951,岡山県,津山市,阿波,オカヤマケン,ツヤマシ,アバ,岡山県津山市阿波
7094201,岡山県,美作市,小房,オカヤマケン,ミマサカシ,オブサ,岡山県美作市小房
7094202,岡山県,美作市,梶原,オカヤマケン,ミマサカシ,カジワラ,岡山県美作市梶原
7094203,岡山県,美作市,小野,オカヤマケン,ミマサカシ,オノ,岡山県美作市小野
7094204,岡山県,美作市,鷺巣,オカヤマケン,ミマサカシ,サギス,岡山県美作市鷺巣
7094205,岡山県,美作市,粟井中,オカヤマケン,ミマサカシ,アワイナカ,岡山県美作市粟井中
7094211,岡山県,美作市,五名,オカヤマケン,ミマサカシ,ゴミョウ,岡山県美作市五名
7094212,岡山県,美作市,宮原,オカヤマケン,ミマサカシ,ミヤバラ,岡山県美作市宮原
7094213,岡山県,美作市,大聖寺,オカヤマケン,ミマサカシ,ダイショウジ,岡山県美作市大聖寺
7094214,岡山県,美作市,豆田,オカヤマケン,ミマサカシ,マメダ,岡山県美作市豆田
7094215,岡山県,美作市,小ノ谷,オカヤマケン,ミマサカシ,オノタニ,岡山県美作市小ノ谷
7094216,岡山県,美作市,山手,オカヤマケン,ミマサカシ,ヤマテ,岡山県美作市山手
7094221,岡山県,美作市,瀬戸,オカヤマケン,ミマサカシ,セト,岡山県美作市瀬戸
7094222,岡山県,美作市,岩辺,オカヤマケン,ミマサカシ,イワナベ,岡山県美作市岩辺
7094223,岡山県,美作市,大内谷,オカヤマケン,ミマサカシ,オオウチダニ,岡山県美作市大内谷
7094224,岡山県,美作市,豊野,オカヤマケン,ミマサカシ,トヨノ,岡山県美作市豊野
7094225,岡山県,美作市,松脇,オカヤマケン,ミマサカシ,マツワキ,岡山県美作市松脇
7094226,岡山県,美作市,鯰,オカヤマケン,ミマサカシ,ナマズ,岡山県美作市鯰
7094227,岡山県,美作市,江見吉田,オカヤマケン,ミマサカシ,エミヨシダ,岡山県美作市江見吉田
7094231,岡山県,美作市,南海,オカヤマケン,ミマサカシ,ナンガイ,岡山県美作市南海
7094232,岡山県,美作市,芦河内,オカヤマケン,ミマサカシ,アシゴウチ,岡山県美作市芦河内
7094233,岡山県,美作市,藤生,オカヤマケン,ミマサカシ,フジュウ,岡山県美作市藤生
7094234,岡山県,美作市,江見,オカヤマケン,ミマサカシ,エミ,岡山県美作市江見
7094235,岡山県,美作市,原,オカヤマケン,ミマサカシ,ハラ,岡山県美作市原
7094236,岡山県,美作市,川北,オカヤマケン,ミマサカシ,カワギタ,岡山県美作市川北
7094241,岡山県,美作市,日指,オカヤマケン,ミマサカシ,ヒサシ,岡山県美作市日指
7094242,岡山県,美作市,田原,オカヤマケン,ミマサカシ,タワラ,岡山県美作市田原
7094243,岡山県,美作市,蓮花寺,オカヤマケン,ミマサカシ,レンゲジ,岡山県美作市蓮花寺
7094244,岡山県,美作市,土居,オカヤマケン,ミマサカシ,ドイ,岡山県美作市土居
7094245,岡山県,美作市,竹田,オカヤマケン,ミマサカシ,タケダ,岡山県美作市竹田
7094246,岡山県,美作市,上福原,オカヤマケン,ミマサカシ,カミフクハラ,岡山県美作市上福原
7094247,岡山県,美作市,山城,オカヤマケン,ミマサカシ,ヤマシロ,岡山県美作市山城
7094251,岡山県,美作市,白水,オカヤマケン,ミマサカシ,シラミズ,岡山県美作市白水
7094252,岡山県,美作市,角南,オカヤマケン,ミマサカシ,スナミ,岡山県美作市角南
7094253,岡山県,美作市,柿ケ原,オカヤマケン,ミマサカシ,カキガハラ,岡山県美作市柿ケ原
7094254,岡山県,美作市,万善,オカヤマケン,ミマサカシ,マンゼン,岡山県美作市万善
7094255,岡山県,美作市,国貞,オカヤマケン,ミマサカシ,クニサダ,岡山県美作市国貞
7094256,岡山県,美作市,鈴家,オカヤマケン,ミマサカシ,スズケ,岡山県美作市鈴家
7094257,岡山県,美作市,田渕,オカヤマケン,ミマサカシ,タブチ,岡山県美作市田渕
7094300,岡山県,勝田郡勝央町,,オカヤマケン,カツタグンショウオウチョウ,,岡山県勝田郡勝央町
7094301,岡山県,勝田郡勝央町,下町川,オカヤマケン,カツタグンショウオウチョウ,シモマチガワ,岡山県勝田郡勝央町下町川
7094302,岡山県,勝田郡勝央町,河原,オカヤマケン,カツタグンショウオウチョウ,カワラ,岡山県勝田郡勝央町河原
7094303,岡山県,勝田郡勝央町,豊久田,オカヤマケン,カツタグンショウオウチョウ,トヨクダ,岡山県勝田郡勝央町豊久田
7094304,岡山県,勝田郡勝央町,上香山,オカヤマケン,カツタグンショウオウチョウ,カミガヤマ,岡山県勝田郡勝央町上香山
7094305,岡山県,勝田郡勝央町,曽井,オカヤマケン,カツタグンショウオウチョウ,ソイ,岡山県勝田郡勝央町曽井
7094306,岡山県,勝田郡勝央町,美野,オカヤマケン,カツタグンショウオウチョウ,ミノ,岡山県勝田郡勝央町美野
7094307,岡山県,勝田郡勝央町,石生,オカヤマケン,カツタグンショウオウチョウ,イシュウ,岡山県勝田郡勝央町石生
7094311,岡山県,勝田郡勝央町,岡,オカヤマケン,カツタグンショウオウチョウ,オカ,岡山県勝田郡勝央町岡
7094312,岡山県,勝田郡勝央町,黒土,オカヤマケン,カツタグンショウオウチョウ,クロツチ,岡山県勝田郡勝央町黒土
7094313,岡山県,勝田郡勝央町,小矢田,オカヤマケン,カツタグンショウオウチョウ,オヤタ,岡山県勝田郡勝央町小矢田
7094314,岡山県,勝田郡勝央町,東吉田,オカヤマケン,カツタグンショウオウチョウ,ヒガシヨシダ,岡山県勝田郡勝央町東吉田
7094315,岡山県,勝田郡勝央町,畑屋,オカヤマケン,カツタグンショウオウチョウ,ハタヤ,岡山県勝田郡勝央町畑屋
7094316,岡山県,勝田郡勝央町,勝間田,オカヤマケン,カツタグンショウオウチョウ,カツマダ,岡山県勝田郡勝央町勝間田
7094321,岡山県,勝田郡勝央町,太平台,オカヤマケン,カツタグンショウオウチョウ,タイヘイダイ,岡山県勝田郡勝央町太平台
7094322,岡山県,勝田郡勝央町,福吉,オカヤマケン,カツタグンショウオウチョウ,フクヨシ,岡山県勝田郡勝央町福吉
7094323,岡山県,勝田郡勝央町,黒坂,オカヤマケン,カツタグンショウオウチョウ,クロサカ,岡山県勝田郡勝央町黒坂
7094324,岡山県,勝田郡勝央町,為本,オカヤマケン,カツタグンショウオウチョウ,タメモト,岡山県勝田郡勝央町為本
7094331,岡山県,勝田郡勝央町,植月北,オカヤマケン,カツタグンショウオウチョウ,ウエツキキタ,岡山県勝田郡勝央町植月北
7094332,岡山県,勝田郡勝央町,植月東,オカヤマケン,カツタグンショウオウチョウ,ウエツキヒガシ,岡山県勝田郡勝央町植月東
7094333,岡山県,勝田郡勝央町,田井,オカヤマケン,カツタグンショウオウチョウ,タイ,岡山県勝田郡勝央町田井
7094334,岡山県,勝田郡勝央町,平,オカヤマケン,カツタグンショウオウチョウ,タイラ,岡山県勝田郡勝央町平
7094335,岡山県,勝田郡勝央町,植月中,オカヤマケン,カツタグンショウオウチョウ,ウエツキナカ,岡山県勝田郡勝央町植月中
7094601,岡山県,津山市,宮部上,オカヤマケン,ツヤマシ,ミヤベカミ,岡山県津山市宮部上
7094602,岡山県,津山市,宮部下,オカヤマケン,ツヤマシ,ミヤベシモ,岡山県津山市宮部下
7094603,岡山県,津山市,中北下,オカヤマケン,ツヤマシ,ナカギタシモ,岡山県津山市中北下
7094604,岡山県,津山市,坪井下,オカヤマケン,ツヤマシ,ツボイシモ,岡山県津山市坪井下
7094605,岡山県,津山市,坪井上,オカヤマケン,ツヤマシ,ツボイカミ,岡山県津山市坪井上
7094606,岡山県,津山市,中北上,オカヤマケン,ツヤマシ,ナカギタカミ,岡山県津山市中北上
7094611,岡山県,津山市,領家,オカヤマケン,ツヤマシ,リョウケ,岡山県津山市領家
7094612,岡山県,津山市,くめ,オカヤマケン,ツヤマシ,クメ,岡山県津山市くめ
7094613,岡山県,津山市,宮尾,オカヤマケン,ツヤマシ,ミヤオ,岡山県津山市宮尾
7094614,岡山県,津山市,久米川南,オカヤマケン,ツヤマシ,クメカワミナミ,岡山県津山市久米川南
7094615,岡山県,津山市,一色,オカヤマケン,ツヤマシ,イシキ,岡山県津山市一色
7094616,岡山県,津山市,南方中,オカヤマケン,ツヤマシ,ミナミガタナカ,岡山県津山市南方中
7094621,岡山県,津山市,神代,オカヤマケン,ツヤマシ,コウジロ,岡山県津山市神代
7094622,岡山県,津山市,戸脇,オカヤマケン,ツヤマシ,トワキ,岡山県津山市戸脇
7094623,岡山県,津山市,桑下,オカヤマケン,ツヤマシ,クワシモ,岡山県津山市桑下
7094624,岡山県,津山市,桑上,オカヤマケン,ツヤマシ,クワカミ,岡山県津山市桑上
7094625,岡山県,津山市,里公文,オカヤマケン,ツヤマシ,サトクモン,岡山県津山市里公文
7094626,岡山県,津山市,里公文上,オカヤマケン,ツヤマシ,サトクモンカミ,岡山県津山市里公文上
7094631,岡山県,津山市,福田下,オカヤマケン,ツヤマシ,フクダシモ,岡山県津山市福田下
7094632,岡山県,津山市,八社,オカヤマケン,ツヤマシ,ヤサ,岡山県津山市八社
7094633,岡山県,津山市,油木上,オカヤマケン,ツヤマシ,ユキカミ,岡山県津山市油木上
7094634,岡山県,津山市,油木下,オカヤマケン,ツヤマシ,ユキシモ,岡山県津山市油木下
7094635,岡山県,津山市,油木北,オカヤマケン,ツヤマシ,ユキキタ,岡山県津山市油木北
7100000,岡山県,倉敷市,,オカヤマケン,クラシキシ,,岡山県倉敷市
7100001,岡山県,倉敷市,三田,オカヤマケン,クラシキシ,ミツダ,岡山県倉敷市三田
7100002,岡山県,倉敷市,生坂,オカヤマケン,クラシキシ,イクサカ,岡山県倉敷市生坂
7100003,岡山県,倉敷市,平田,オカヤマケン,クラシキシ,ヒラタ,岡山県倉敷市平田
7100004,岡山県,倉敷市,西坂,オカヤマケン,クラシキシ,ニシザカ,岡山県倉敷市西坂
7100005,岡山県,倉敷市,西岡,オカヤマケン,クラシキシ,ニシオカ,岡山県倉敷市西岡
7100006,岡山県,倉敷市,祐安,オカヤマケン,クラシキシ,スケヤス,岡山県倉敷市祐安
7100007,岡山県,倉敷市,浅原,オカヤマケン,クラシキシ,アサバラ,岡山県倉敷市浅原
7100011,岡山県,倉敷市,徳芳,オカヤマケン,クラシキシ,トクボウ,岡山県倉敷市徳芳
7100012,岡山県,倉敷市,鳥羽,オカヤマケン,クラシキシ,トバ,岡山県倉敷市鳥羽
7100013,岡山県,倉敷市,中帯江,オカヤマケン,クラシキシ,ナカオビエ,岡山県倉敷市中帯江
7100014,岡山県,倉敷市,黒崎,オカヤマケン,クラシキシ,クロサキ,岡山県倉敷市黒崎
7100015,岡山県,倉敷市,中庄団地,オカヤマケン,クラシキシ,ナカショウダンチ,岡山県倉敷市中庄団地
7100016,岡山県,倉敷市,中庄,オカヤマケン,クラシキシ,ナカショウ,岡山県倉敷市中庄
7100021,岡山県,倉敷市,高須賀,オカヤマケン,クラシキシ,タカスカ,岡山県倉敷市高須賀
7100022,岡山県,倉敷市,早高,オカヤマケン,クラシキシ,ハヤタカ,岡山県倉敷市早高
7100023,岡山県,倉敷市,帯高,オカヤマケン,クラシキシ,オビタカ,岡山県倉敷市帯高
7100024,岡山県,倉敷市,亀山,オカヤマケン,クラシキシ,カメヤマ,岡山県倉敷市亀山
7100025,岡山県,倉敷市,倉敷ハイツ,オカヤマケン,クラシキシ,クラシキハイツ,岡山県倉敷市倉敷ハイツ
7100026,岡山県,倉敷市,加須山,オカヤマケン,クラシキシ,カスヤマ,岡山県倉敷市加須山
7100027,岡山県,倉敷市,西田,オカヤマケン,クラシキシ,ニシダ,岡山県倉敷市西田
7100031,岡山県,倉敷市,有城,オカヤマケン,クラシキシ,アルキ,岡山県倉敷市有城
7100032,岡山県,倉敷市,東粒浦,オカヤマケン,クラシキシ,ヒガシツブウラ,岡山県倉敷市東粒浦
7100033,岡山県,倉敷市,粒江団地,オカヤマケン,クラシキシ,ツブエダンチ,岡山県倉敷市粒江団地
7100034,岡山県,倉敷市,粒江,オカヤマケン,クラシキシ,ツブエ,岡山県倉敷市粒江
7100035,岡山県,倉敷市,黒石,オカヤマケン,クラシキシ,クロイシ,岡山県倉敷市黒石
7100036,岡山県,倉敷市,粒浦,オカヤマケン,クラシキシ,ツブウラ,岡山県倉敷市粒浦
7100037,岡山県,倉敷市,八軒屋,オカヤマケン,クラシキシ,ハチケンヤ,岡山県倉敷市八軒屋
7100038,岡山県,倉敷市,新田,オカヤマケン,クラシキシ,シンデン,岡山県倉敷市新田
7100041,岡山県,倉敷市,五日市,オカヤマケン,クラシキシ,イツカイチ,岡山県倉敷市五日市
7100042,岡山県,倉敷市,二日市,オカヤマケン,クラシキシ,フツカイチ,岡山県倉敷市二日市
7100043,岡山県,倉敷市,羽島,オカヤマケン,クラシキシ,ハシマ,岡山県倉敷市羽島
7100044,岡山県,倉敷市,向山,オカヤマケン,クラシキシ,ムコウヤマ,岡山県倉敷市向山
7100045,岡山県,倉敷市,船倉町,オカヤマケン,クラシキシ,フナグラチョウ,岡山県倉敷市船倉町
7100046,岡山県,倉敷市,中央,オカヤマケン,クラシキシ,チュウオウ,岡山県倉敷市中央
7100047,岡山県,倉敷市,大島,オカヤマケン,クラシキシ,オオジマ,岡山県倉敷市大島
7100048,岡山県,倉敷市,福島,オカヤマケン,クラシキシ,フクシマ,岡山県倉敷市福島
7100051,岡山県,倉敷市,幸町,オカヤマケン,クラシキシ,サイワイチョウ,岡山県倉敷市幸町
7100052,岡山県,倉敷市,美和,オカヤマケン,クラシキシ,ミワ,岡山県倉敷市美和
7100053,岡山県,倉敷市,東町,オカヤマケン,クラシキシ,ヒガシマチ,岡山県倉敷市東町
7100054,岡山県,倉敷市,本町,オカヤマケン,クラシキシ,ホンマチ,岡山県倉敷市本町
7100055,岡山県,倉敷市,阿知,オカヤマケン,クラシキシ,アチ,岡山県倉敷市阿知
7100056,岡山県,倉敷市,鶴形,オカヤマケン,クラシキシ,ツルガタ,岡山県倉敷市鶴形
7100057,岡山県,倉敷市,昭和,オカヤマケン,クラシキシ,ショウワ,岡山県倉敷市昭和
7100061,岡山県,倉敷市,浜ノ茶屋,オカヤマケン,クラシキシ,ハマノチャヤ,岡山県倉敷市浜ノ茶屋
7100062,岡山県,倉敷市,浜町,オカヤマケン,クラシキシ,ハママチ,岡山県倉敷市浜町
7100063,岡山県,倉敷市,日ノ出町,オカヤマケン,クラシキシ,ヒノデチョウ,岡山県倉敷市日ノ出町
7100064,岡山県,倉敷市,青江,オカヤマケン,クラシキシ,アオエ,岡山県倉敷市青江
7100065,岡山県,倉敷市,宮前,オカヤマケン,クラシキシ,ミヤマエ,岡山県倉敷市宮前
7100131,岡山県,倉敷市,天城台,オカヤマケン,クラシキシ,アマキダイ,岡山県倉敷市天城台
7100132,岡山県,倉敷市,藤戸町天城,オカヤマケン,クラシキシ,フジトチョウアマキ,岡山県倉敷市藤戸町天城
7100133,岡山県,倉敷市,藤戸町藤戸,オカヤマケン,クラシキシ,フジトチョウフジト,岡山県倉敷市藤戸町藤戸
7100141,岡山県,倉敷市,串田,オカヤマケン,クラシキシ,クシダ,岡山県倉敷市串田
7100142,岡山県,倉敷市,林,オカヤマケン,クラシキシ,ハヤシ,岡山県倉敷市林
7100143,岡山県,倉敷市,木見,オカヤマケン,クラシキシ,キミ,岡山県倉敷市木見
7100144,岡山県,倉敷市,尾原,オカヤマケン,クラシキシ,オバラ,岡山県倉敷市尾原
7100145,岡山県,倉敷市,福江,オカヤマケン,クラシキシ,フクエ,岡山県倉敷市福江
7100146,岡山県,倉敷市,曽原,オカヤマケン,クラシキシ,ソバラ,岡山県倉敷市曽原
7100151,岡山県,岡山市南区,植松,オカヤマケン,オカヤマシミナミク,ウエマツ,岡山県岡山市南区植松
7100251,岡山県,倉敷市,玉島長尾,オカヤマケン,クラシキシ,タマシマナガオ,岡山県倉敷市玉島長尾
7100252,岡山県,倉敷市,玉島爪崎,オカヤマケン,クラシキシ,タマシマツマサキ,岡山県倉敷市玉島爪崎
7100253,岡山県,倉敷市,新倉敷駅前,オカヤマケン,クラシキシ,シンクラシキエキマエ,岡山県倉敷市新倉敷駅前
7100261,岡山県,倉敷市,船穂町船穂,オカヤマケン,クラシキシ,フナオチョウフナオ,岡山県倉敷市船穂町船穂
7100262,岡山県,倉敷市,船穂町水江,オカヤマケン,クラシキシ,フナオチョウミズエ,岡山県倉敷市船穂町水江
7100263,岡山県,倉敷市,船穂町柳井原,オカヤマケン,クラシキシ,フナオチョウヤナイハラ,岡山県倉敷市船穂町柳井原
7100801,岡山県,倉敷市,酒津,オカヤマケン,クラシキシ,サカヅ,岡山県倉敷市酒津
7100802,岡山県,倉敷市,水江,オカヤマケン,クラシキシ,ミズエ,岡山県倉敷市水江
7100803,岡山県,倉敷市,中島,オカヤマケン,クラシキシ,ナカシマ,岡山県倉敷市中島
7100804,岡山県,倉敷市,西阿知町新田,オカヤマケン,クラシキシ,ニシアチチョウシンデン,岡山県倉敷市西阿知町新田
7100805,岡山県,倉敷市,片島町,オカヤマケン,クラシキシ,カタシマチョウ,岡山県倉敷市片島町
7100806,岡山県,倉敷市,西阿知町西原,オカヤマケン,クラシキシ,ニシアチチョウニシバラ,岡山県倉敷市西阿知町西原
7100807,岡山県,倉敷市,西阿知町,オカヤマケン,クラシキシ,ニシアチチョウ,岡山県倉敷市西阿知町
7100811,岡山県,倉敷市,川入,オカヤマケン,クラシキシ,カワイリ,岡山県倉敷市川入
7100812,岡山県,倉敷市,北浜町,オカヤマケン,クラシキシ,キタハマチョウ,岡山県倉敷市北浜町
7100813,岡山県,倉敷市,寿町,オカヤマケン,クラシキシ,コトブキチョウ,岡山県倉敷市寿町
7100814,岡山県,倉敷市,石見町,オカヤマケン,クラシキシ,イワミチョウ,岡山県倉敷市石見町
7100815,岡山県,倉敷市,日吉町,オカヤマケン,クラシキシ,ヒヨセチョウ,岡山県倉敷市日吉町
7100816,岡山県,倉敷市,八王寺町,オカヤマケン,クラシキシ,ハチオウジチョウ,岡山県倉敷市八王寺町
7100817,岡山県,倉敷市,大内,オカヤマケン,クラシキシ,オオウチ,岡山県倉敷市大内
7100821,岡山県,倉敷市,川西町,オカヤマケン,クラシキシ,カワニシマチ,岡山県倉敷市川西町
7100822,岡山県,倉敷市,稲荷町,オカヤマケン,クラシキシ,イナリマチ,岡山県倉敷市稲荷町
7100823,岡山県,倉敷市,南町,オカヤマケン,クラシキシ,ミナミマチ,岡山県倉敷市南町
7100824,岡山県,倉敷市,白楽町,オカヤマケン,クラシキシ,バクロチョウ,岡山県倉敷市白楽町
7100825,岡山県,倉敷市,安江,オカヤマケン,クラシキシ,ヤスエ,岡山県倉敷市安江
7100826,岡山県,倉敷市,老松町,オカヤマケン,クラシキシ,オイマツチョウ,岡山県倉敷市老松町
7100831,岡山県,倉敷市,田ノ上,オカヤマケン,クラシキシ,タノウエ,岡山県倉敷市田ノ上
7100832,岡山県,倉敷市,田ノ上新町,オカヤマケン,クラシキシ,タノウエシンマチ,岡山県倉敷市田ノ上新町
7100833,岡山県,倉敷市,西中新田,オカヤマケン,クラシキシ,ニシナカシンデン,岡山県倉敷市西中新田
7100834,岡山県,倉敷市,笹沖,オカヤマケン,クラシキシ,ササオキ,岡山県倉敷市笹沖
7100835,岡山県,倉敷市,四十瀬,オカヤマケン,クラシキシ,シジュウセ,岡山県倉敷市四十瀬
7100836,岡山県,倉敷市,沖,オカヤマケン,クラシキシ,オキ,岡山県倉敷市沖
7100837,岡山県,倉敷市,沖新町,オカヤマケン,クラシキシ,オキシンマチ,岡山県倉敷市沖新町
7100841,岡山県,倉敷市,堀南,オカヤマケン,クラシキシ,ホリナン,岡山県倉敷市堀南
7100842,岡山県,倉敷市,吉岡,オカヤマケン,クラシキシ,ヨシオカ,岡山県倉敷市吉岡
7100843,岡山県,倉敷市,浦田,オカヤマケン,クラシキシ,ウラダ,岡山県倉敷市浦田
7100844,岡山県,倉敷市,福井,オカヤマケン,クラシキシ,フクイ,岡山県倉敷市福井
7100845,岡山県,倉敷市,西富井,オカヤマケン,クラシキシ,ニシトミイ,岡山県倉敷市西富井
7100846,岡山県,倉敷市,上富井,オカヤマケン,クラシキシ,カミトミイ,岡山県倉敷市上富井
7100847,岡山県,倉敷市,東富井,オカヤマケン,クラシキシ,ヒガシトミイ,岡山県倉敷市東富井
7101101,岡山県,倉敷市,茶屋町,オカヤマケン,クラシキシ,チャヤマチ,岡山県倉敷市茶屋町
7101102,岡山県,倉敷市,茶屋町早沖,オカヤマケン,クラシキシ,チャヤマチハヤオキ,岡山県倉敷市茶屋町早沖
7101201,岡山県,総社市,久代,オカヤマケン,ソウジャシ,クシロ,岡山県総社市久代
7101202,岡山県,総社市,山田,オカヤマケン,ソウジャシ,ヤマダ,岡山県総社市山田
7101203,岡山県,総社市,新本,オカヤマケン,ソウジャシ,シンポン,岡山県総社市新本
7101301,岡山県,倉敷市,真備町箭田,オカヤマケン,クラシキシ,マビチョウヤタ,岡山県倉敷市真備町箭田
7101302,岡山県,倉敷市,真備町服部,オカヤマケン,クラシキシ,マビチョウハットリ,岡山県倉敷市真備町服部
7101303,岡山県,倉敷市,真備町妹,オカヤマケン,クラシキシ,マビチョウセ,岡山県倉敷市真備町妹
7101304,岡山県,倉敷市,真備町尾崎,オカヤマケン,クラシキシ,マビチョウオサキ,岡山県倉敷市真備町尾崎
7101305,岡山県,倉敷市,真備町市場,オカヤマケン,クラシキシ,マビチョウイチバ,岡山県倉敷市真備町市場
7101306,岡山県,倉敷市,真備町有井,オカヤマケン,クラシキシ,マビチョウアリイ,岡山県倉敷市真備町有井
7101311,岡山県,倉敷市,真備町岡田,オカヤマケン,クラシキシ,マビチョウオカダ,岡山県倉敷市真備町岡田
7101312,岡山県,倉敷市,真備町辻田,オカヤマケン,クラシキシ,マビチョウツジタ,岡山県倉敷市真備町辻田
7101313,岡山県,倉敷市,真備町川辺,オカヤマケン,クラシキシ,マビチョウカワベ,岡山県倉敷市真備町川辺
7101314,岡山県,倉敷市,真備町下二万,オカヤマケン,クラシキシ,マビチョウシモニマ,岡山県倉敷市真備町下二万
7101315,岡山県,倉敷市,真備町上二万,オカヤマケン,クラシキシ,マビチョウカミニマ,岡山県倉敷市真備町上二万
7110901,岡山県,倉敷市,児島由加,オカヤマケン,クラシキシ,コジマユガ,岡山県倉敷市児島由加
7110902,岡山県,倉敷市,児島白尾,オカヤマケン,クラシキシ,コジマシロオ,岡山県倉敷市児島白尾
7110903,岡山県,倉敷市,児島田の口,オカヤマケン,クラシキシ,コジマタノクチ,岡山県倉敷市児島田の口
7110904,岡山県,倉敷市,児島唐琴,オカヤマケン,クラシキシ,コジマカラコト,岡山県倉敷市児島唐琴
7110905,岡山県,倉敷市,児島唐琴町,オカヤマケン,クラシキシ,コジマカラコトチョウ,岡山県倉敷市児島唐琴町
7110906,岡山県,倉敷市,児島下の町,オカヤマケン,クラシキシ,コジマシモノチョウ,岡山県倉敷市児島下の町
7110907,岡山県,倉敷市,児島上の町,オカヤマケン,クラシキシ,コジマカミノチョウ,岡山県倉敷市児島上の町
7110911,岡山県,倉敷市,児島小川,オカヤマケン,クラシキシ,コジマオガワ,岡山県倉敷市児島小川
7110912,岡山県,倉敷市,児島小川町,オカヤマケン,クラシキシ,コジマオガワチョウ,岡山県倉敷市児島小川町
7110913,岡山県,倉敷市,児島味野,オカヤマケン,クラシキシ,コジマアジノ,岡山県倉敷市児島味野
7110914,岡山県,倉敷市,児島味野城,オカヤマケン,クラシキシ,コジマアジノジョウ,岡山県倉敷市児島味野城
7110915,岡山県,倉敷市,児島味野山田町,オカヤマケン,クラシキシ,コジマアジノヤマダチョウ,岡山県倉敷市児島味野山田町
7110916,岡山県,倉敷市,児島味野城山,オカヤマケン,クラシキシ,コジマアジノシロヤマ,岡山県倉敷市児島味野城山
7110917,岡山県,倉敷市,児島味野上,オカヤマケン,クラシキシ,コジマアジノカミ,岡山県倉敷市児島味野上
7110921,岡山県,倉敷市,児島駅前,オカヤマケン,クラシキシ,コジマエキマエ,岡山県倉敷市児島駅前
7110922,岡山県,倉敷市,児島元浜町,オカヤマケン,クラシキシ,コジマモトハマチョウ,岡山県倉敷市児島元浜町
7110923,岡山県,倉敷市,児島阿津,オカヤマケン,クラシキシ,コジマアツ,岡山県倉敷市児島阿津
7110924,岡山県,倉敷市,大畠,オカヤマケン,クラシキシ,オオバタケ,岡山県倉敷市大畠
7110925,岡山県,倉敷市,下津井田之浦,オカヤマケン,クラシキシ,シモツイタノウラ,岡山県倉敷市下津井田之浦
7110926,岡山県,倉敷市,下津井吹上,オカヤマケン,クラシキシ,シモツイフキアゲ,岡山県倉敷市下津井吹上
7110927,岡山県,倉敷市,下津井,オカヤマケン,クラシキシ,シモツイ,岡山県倉敷市下津井
7110931,岡山県,倉敷市,児島赤崎,オカヤマケン,クラシキシ,コジマアカサキ,岡山県倉敷市児島赤崎
7110932,岡山県,倉敷市,菰池,オカヤマケン,クラシキシ,コモイケ,岡山県倉敷市菰池
7110933,岡山県,倉敷市,児島通生,オカヤマケン,クラシキシ,コジマカヨウ,岡山県倉敷市児島通生
7110934,岡山県,倉敷市,児島塩生,オカヤマケン,クラシキシ,コジマシオナス,岡山県倉敷市児島塩生
7110935,岡山県,倉敷市,児島宇野津,オカヤマケン,クラシキシ,コジマウノツ,岡山県倉敷市児島宇野津
7110936,岡山県,倉敷市,児島柳田町,オカヤマケン,クラシキシ,コジマヤナイダチョウ,岡山県倉敷市児島柳田町
7110937,岡山県,倉敷市,児島稗田町,オカヤマケン,クラシキシ,コジマヒエダチョウ,岡山県倉敷市児島稗田町
7128001,岡山県,倉敷市,連島町西之浦,オカヤマケン,クラシキシ,ツラジマチョウニシノウラ,岡山県倉敷市連島町西之浦
7128002,岡山県,倉敷市,連島町亀島新田,オカヤマケン,クラシキシ,ツラジマチョウカメジマシンデン,岡山県倉敷市連島町亀島新田
7128003,岡山県,倉敷市,水島明神町,オカヤマケン,クラシキシ,ミズシマミョウジンチョウ,岡山県倉敷市水島明神町
7128004,岡山県,倉敷市,水島南亀島町,オカヤマケン,クラシキシ,ミズシマミナミカメジマチョウ,岡山県倉敷市水島南亀島町
7128005,岡山県,倉敷市,水島北亀島町,オカヤマケン,クラシキシ,ミズシマキタカメジマチョウ,岡山県倉敷市水島北亀島町
7128006,岡山県,倉敷市,連島町鶴新田,オカヤマケン,クラシキシ,ツラジマチョウツルシンデン,岡山県倉敷市連島町鶴新田
7128007,岡山県,倉敷市,鶴の浦,オカヤマケン,クラシキシ,ツルノウラ,岡山県倉敷市鶴の浦
7128011,岡山県,倉敷市,連島町連島,オカヤマケン,クラシキシ,ツラジマチョウツラジマ,岡山県倉敷市連島町連島
7128012,岡山県,倉敷市,連島,オカヤマケン,クラシキシ,ツラジマ,岡山県倉敷市連島
7128013,岡山県,倉敷市,亀島,オカヤマケン,クラシキシ,カメジマ,岡山県倉敷市亀島
7128014,岡山県,倉敷市,連島中央,オカヤマケン,クラシキシ,ツラジマチュウオウ,岡山県倉敷市連島中央
7128015,岡山県,倉敷市,連島町矢柄,オカヤマケン,クラシキシ,ツラジマチョウヤガラ,岡山県倉敷市連島町矢柄
7128021,岡山県,倉敷市,水島東川町,オカヤマケン,クラシキシ,ミズシマヒガシガワチョウ,岡山県倉敷市水島東川町
7128022,岡山県,倉敷市,水島北緑町,オカヤマケン,クラシキシ,ミズシマキタミドリマチ,岡山県倉敷市水島北緑町
7128023,岡山県,倉敷市,水島南緑町,オカヤマケン,クラシキシ,ミズシマミナミミドリマチ,岡山県倉敷市水島南緑町
7128024,岡山県,倉敷市,水島北春日町,オカヤマケン,クラシキシ,ミズシマキタカスガチョウ,岡山県倉敷市水島北春日町
7128025,岡山県,倉敷市,水島南春日町,オカヤマケン,クラシキシ,ミズシマミナミカスガチョウ,岡山県倉敷市水島南春日町
7128026,岡山県,倉敷市,水島南瑞穂町,オカヤマケン,クラシキシ,ミズシマミナミミズホチョウ,岡山県倉敷市水島南瑞穂町
7128027,岡山県,倉敷市,水島北瑞穂町,オカヤマケン,クラシキシ,ミズシマキタミズホチョウ,岡山県倉敷市水島北瑞穂町
7128031,岡山県,倉敷市,福田町浦田,オカヤマケン,クラシキシ,フクダチョウウラダ,岡山県倉敷市福田町浦田
7128032,岡山県,倉敷市,北畝,オカヤマケン,クラシキシ,キタセ,岡山県倉敷市北畝
7128033,岡山県,倉敷市,水島東栄町,オカヤマケン,クラシキシ,ミズシマヒガシサカエマチ,岡山県倉敷市水島東栄町
7128034,岡山県,倉敷市,水島西栄町,オカヤマケン,クラシキシ,ミズシマニシサカエマチ,岡山県倉敷市水島西栄町
7128035,岡山県,倉敷市,水島東弥生町,オカヤマケン,クラシキシ,ミズシマヒガシヤヨイチョウ,岡山県倉敷市水島東弥生町
7128036,岡山県,倉敷市,水島西弥生町,オカヤマケン,クラシキシ,ミズシマニシヤヨイチョウ,岡山県倉敷市水島西弥生町
7128037,岡山県,倉敷市,水島東寿町,オカヤマケン,クラシキシ,ミズシマヒガシコトブキチョウ,岡山県倉敷市水島東寿町
7128038,岡山県,倉敷市,水島西寿町,オカヤマケン,クラシキシ,ミズシマニシコトブキチョウ,岡山県倉敷市水島西寿町
7128039,岡山県,倉敷市,水島相生町,オカヤマケン,クラシキシ,ミズシマアイオイチョウ,岡山県倉敷市水島相生町
7128041,岡山県,倉敷市,福田町福田,オカヤマケン,クラシキシ,フクダチョウフクダ,岡山県倉敷市福田町福田
7128042,岡山県,倉敷市,福田町広江,オカヤマケン,クラシキシ,フクダチョウヒロエ,岡山県倉敷市福田町広江
7128043,岡山県,倉敷市,広江,オカヤマケン,クラシキシ,ヒロエ,岡山県倉敷市広江
7128044,岡山県,倉敷市,東塚,オカヤマケン,クラシキシ,ヒガシヅカ,岡山県倉敷市東塚
7128045,岡山県,倉敷市,福田町東塚,オカヤマケン,クラシキシ,フクダチョウヒガシヅカ,岡山県倉敷市福田町東塚
7128046,岡山県,倉敷市,福田町古新田,オカヤマケン,クラシキシ,フクダチョウコシンデン,岡山県倉敷市福田町古新田
7128051,岡山県,倉敷市,中畝,オカヤマケン,クラシキシ,ナカセ,岡山県倉敷市中畝
7128052,岡山県,倉敷市,松江,オカヤマケン,クラシキシ,マツエ,岡山県倉敷市松江
7128053,岡山県,倉敷市,呼松,オカヤマケン,クラシキシ,ヨビマツ,岡山県倉敷市呼松
7128053,岡山県,倉敷市,呼松町,オカヤマケン,クラシキシ,ヨビマツチョウ,岡山県倉敷市呼松町
7128054,岡山県,倉敷市,潮通,オカヤマケン,クラシキシ,ウシオドオリ,岡山県倉敷市潮通
7128055,岡山県,倉敷市,南畝,オカヤマケン,クラシキシ,ミナミセ,岡山県倉敷市南畝
7128056,岡山県,倉敷市,水島福崎町,オカヤマケン,クラシキシ,ミズシマフクサキチョウ,岡山県倉敷市水島福崎町
7128057,岡山県,倉敷市,水島東千鳥町,オカヤマケン,クラシキシ,ミズシマヒガシチドリチョウ,岡山県倉敷市水島東千鳥町
7128058,岡山県,倉敷市,水島東常盤町,オカヤマケン,クラシキシ,ミズシマヒガシトキワチョウ,岡山県倉敷市水島東常盤町
7128059,岡山県,倉敷市,水島西常盤町,オカヤマケン,クラシキシ,ミズシマニシトキワチョウ,岡山県倉敷市水島西常盤町
7128061,岡山県,倉敷市,神田,オカヤマケン,クラシキシ,カンダ,岡山県倉敷市神田
7128062,岡山県,倉敷市,水島北幸町,オカヤマケン,クラシキシ,ミズシマキタサイワイチョウ,岡山県倉敷市水島北幸町
7128063,岡山県,倉敷市,水島南幸町,オカヤマケン,クラシキシ,ミズシマミナミサイワイチョウ,岡山県倉敷市水島南幸町
7128064,岡山県,倉敷市,水島青葉町,オカヤマケン,クラシキシ,ミズシマアオバチョウ,岡山県倉敷市水島青葉町
7128065,岡山県,倉敷市,水島西千鳥町,オカヤマケン,クラシキシ,ミズシマニシチドリチョウ,岡山県倉敷市水島西千鳥町
7128066,岡山県,倉敷市,水島高砂町,オカヤマケン,クラシキシ,ミズシマタカサゴチョウ,岡山県倉敷市水島高砂町
7128071,岡山県,倉敷市,水島海岸通,オカヤマケン,クラシキシ,ミズシマカイガンドオリ,岡山県倉敷市水島海岸通
7128072,岡山県,倉敷市,水島中通,オカヤマケン,クラシキシ,ミズシマナカドオリ,岡山県倉敷市水島中通
7128073,岡山県,倉敷市,水島西通,オカヤマケン,クラシキシ,ミズシマニシドオリ,岡山県倉敷市水島西通
7128074,岡山県,倉敷市,水島川崎通,オカヤマケン,クラシキシ,ミズシマカワサキドオリ,岡山県倉敷市水島川崎通
7138101,岡山県,倉敷市,玉島上成,オカヤマケン,クラシキシ,タマシマウワナリ,岡山県倉敷市玉島上成
7138102,岡山県,倉敷市,玉島,オカヤマケン,クラシキシ,タマシマ,岡山県倉敷市玉島
7138103,岡山県,倉敷市,玉島乙島,オカヤマケン,クラシキシ,タマシマオトシマ,岡山県倉敷市玉島乙島
7138111,岡山県,倉敷市,玉島服部,オカヤマケン,クラシキシ,タマシマハットリ,岡山県倉敷市玉島服部
7138112,岡山県,倉敷市,玉島陶,オカヤマケン,クラシキシ,タマシマスエ,岡山県倉敷市玉島陶
7138113,岡山県,倉敷市,玉島八島,オカヤマケン,クラシキシ,タマシマヤシマ,岡山県倉敷市玉島八島
7138114,岡山県,倉敷市,玉島道越,オカヤマケン,クラシキシ,タマシマミチゴエ,岡山県倉敷市玉島道越
7138115,岡山県,倉敷市,玉島道口,オカヤマケン,クラシキシ,タマシマミチグチ,岡山県倉敷市玉島道口
7138116,岡山県,倉敷市,玉島富,オカヤマケン,クラシキシ,タマシマトミ,岡山県倉敷市玉島富
7138121,岡山県,倉敷市,玉島阿賀崎,オカヤマケン,クラシキシ,タマシマアガサキ,岡山県倉敷市玉島阿賀崎
7138122,岡山県,倉敷市,玉島中央町,オカヤマケン,クラシキシ,タマシマチュウオウチョウ,岡山県倉敷市玉島中央町
7138123,岡山県,倉敷市,玉島柏島,オカヤマケン,クラシキシ,タマシマカシワジマ,岡山県倉敷市玉島柏島
7138124,岡山県,倉敷市,玉島柏台,オカヤマケン,クラシキシ,タマシマカシワダイ,岡山県倉敷市玉島柏台
7138125,岡山県,倉敷市,玉島勇崎,オカヤマケン,クラシキシ,タマシマユウザキ,岡山県倉敷市玉島勇崎
7138126,岡山県,倉敷市,玉島黒崎,オカヤマケン,クラシキシ,タマシマクロサキ,岡山県倉敷市玉島黒崎
7138127,岡山県,倉敷市,玉島黒崎新町,オカヤマケン,クラシキシ,タマシマクロサキシンマチ,岡山県倉敷市玉島黒崎新町
7140000,岡山県,笠岡市,,オカヤマケン,カサオカシ,,岡山県笠岡市
7140001,岡山県,笠岡市,走出,オカヤマケン,カサオカシ,ハシリデ,岡山県笠岡市走出
7140002,岡山県,笠岡市,甲弩,オカヤマケン,カサオカシ,コウノ,岡山県笠岡市甲弩
7140003,岡山県,笠岡市,尾坂,オカヤマケン,カサオカシ,オサカ,岡山県笠岡市尾坂
7140004,岡山県,笠岡市,関戸,オカヤマケン,カサオカシ,セキド,岡山県笠岡市関戸
7140005,岡山県,笠岡市,新賀,オカヤマケン,カサオカシ,シンガ,岡山県笠岡市新賀
7140006,岡山県,笠岡市,みの越,オカヤマケン,カサオカシ,ミノコシ,岡山県笠岡市みの越
7140007,岡山県,笠岡市,山口,オカヤマケン,カサオカシ,ヤマグチ,岡山県笠岡市山口
7140011,岡山県,笠岡市,吉田,オカヤマケン,カサオカシ,ヨシダ,岡山県笠岡市吉田
7140012,岡山県,笠岡市,小平井,オカヤマケン,カサオカシ,オビライ,岡山県笠岡市小平井
7140013,岡山県,笠岡市,大井南,オカヤマケン,カサオカシ,オオイミナミ,岡山県笠岡市大井南
7140014,岡山県,笠岡市,相生,オカヤマケン,カサオカシ,アイオイ,岡山県笠岡市相生
7140021,岡山県,笠岡市,園井,オカヤマケン,カサオカシ,ソノイ,岡山県笠岡市園井
7140022,岡山県,笠岡市,今立,オカヤマケン,カサオカシ,イマダテ,岡山県笠岡市今立
7140023,岡山県,笠岡市,広浜,オカヤマケン,カサオカシ,ヒロハマ,岡山県笠岡市広浜
7140024,岡山県,笠岡市,馬飼,オカヤマケン,カサオカシ,マカイ,岡山県笠岡市馬飼
7140025,岡山県,笠岡市,春日台,オカヤマケン,カサオカシ,カスガダイ,岡山県笠岡市春日台
7140031,岡山県,笠岡市,西大島新田,オカヤマケン,カサオカシ,ニシオオシマシンデン,岡山県笠岡市西大島新田
7140032,岡山県,笠岡市,西大島,オカヤマケン,カサオカシ,ニシオオシマ,岡山県笠岡市西大島
7140033,岡山県,笠岡市,大島中,オカヤマケン,カサオカシ,オオシマナカ,岡山県笠岡市大島中
7140034,岡山県,笠岡市,神島外浦,オカヤマケン,カサオカシ,コウノシマソトウラ,岡山県笠岡市神島外浦
7140035,岡山県,笠岡市,高島,オカヤマケン,カサオカシ,タカシマ,岡山県笠岡市高島
7140036,岡山県,笠岡市,白石島,オカヤマケン,カサオカシ,シライシジマ,岡山県笠岡市白石島
7140037,岡山県,笠岡市,真鍋島,オカヤマケン,カサオカシ,マナベシマ,岡山県笠岡市真鍋島
7140038,岡山県,笠岡市,六島,オカヤマケン,カサオカシ,ムシマ,岡山県笠岡市六島
7140041,岡山県,笠岡市,入江,オカヤマケン,カサオカシ,イリエ,岡山県笠岡市入江
7140042,岡山県,笠岡市,美の浜,オカヤマケン,カサオカシ,ミノハマ,岡山県笠岡市美の浜
7140043,岡山県,笠岡市,横島,オカヤマケン,カサオカシ,ヨコシマ,岡山県笠岡市横島
7140044,岡山県,笠岡市,神島,オカヤマケン,カサオカシ,コウノシマ,岡山県笠岡市神島
7140045,岡山県,笠岡市,港町,オカヤマケン,カサオカシ,ミナトチョウ,岡山県笠岡市港町
7140046,岡山県,笠岡市,カブト南町,オカヤマケン,カサオカシ,カブトミナミマチ,岡山県笠岡市カブト南町
7140047,岡山県,笠岡市,拓海町,オカヤマケン,カサオカシ,タクミチョウ,岡山県笠岡市拓海町
7140048,岡山県,笠岡市,緑町,オカヤマケン,カサオカシ,ミドリマチ,岡山県笠岡市緑町
7140051,岡山県,笠岡市,カブト東町,オカヤマケン,カサオカシ,カブトヒガシマチ,岡山県笠岡市カブト東町
7140052,岡山県,笠岡市,カブト中央町,オカヤマケン,カサオカシ,カブトチュウオウチョウ,岡山県笠岡市カブト中央町
7140053,岡山県,笠岡市,カブト西町,オカヤマケン,カサオカシ,カブトニシマチ,岡山県笠岡市カブト西町
7140054,岡山県,笠岡市,平成町,オカヤマケン,カサオカシ,ヘイセイチョウ,岡山県笠岡市平成町
7140055,岡山県,笠岡市,生江浜,オカヤマケン,カサオカシ,オエハマ,岡山県笠岡市生江浜
7140056,岡山県,笠岡市,旭が丘,オカヤマケン,カサオカシ,アサヒガオカ,岡山県笠岡市旭が丘
7140057,岡山県,笠岡市,金浦,オカヤマケン,カサオカシ,カナウラ,岡山県笠岡市金浦
7140061,岡山県,笠岡市,大げ,オカヤマケン,カサオカシ,オオゲ,岡山県笠岡市大げ
7140062,岡山県,笠岡市,茂平,オカヤマケン,カサオカシ,モビラ,岡山県笠岡市茂平
7140063,岡山県,笠岡市,鋼管町,オカヤマケン,カサオカシ,コウカンチョウ,岡山県笠岡市鋼管町
7140064,岡山県,笠岡市,西茂平,オカヤマケン,カサオカシ,ニシモビラ,岡山県笠岡市西茂平
7140065,岡山県,笠岡市,城見台,オカヤマケン,カサオカシ,シロミダイ,岡山県笠岡市城見台
7140066,岡山県,笠岡市,用之江,オカヤマケン,カサオカシ,モチノエ,岡山県笠岡市用之江
7140071,岡山県,笠岡市,東大戸,オカヤマケン,カサオカシ,ヒガシオオド,岡山県笠岡市東大戸
7140072,岡山県,笠岡市,西大戸,オカヤマケン,カサオカシ,ニシオオド,岡山県笠岡市西大戸
7140073,岡山県,笠岡市,大河,オカヤマケン,カサオカシ,オオコウ,岡山県笠岡市大河
7140074,岡山県,笠岡市,吉浜,オカヤマケン,カサオカシ,ヨシハマ,岡山県笠岡市吉浜
7140075,岡山県,笠岡市,有田,オカヤマケン,カサオカシ,アリダ,岡山県笠岡市有田
7140076,岡山県,笠岡市,押撫,オカヤマケン,カサオカシ,オシナデ,岡山県笠岡市押撫
7140077,岡山県,笠岡市,篠坂,オカヤマケン,カサオカシ,シノサカ,岡山県笠岡市篠坂
7140078,岡山県,笠岡市,入田,オカヤマケン,カサオカシ,ニュウタ,岡山県笠岡市入田
7140081,岡山県,笠岡市,笠岡,オカヤマケン,カサオカシ,カサオカ,岡山県笠岡市笠岡
7140082,岡山県,笠岡市,一番町,オカヤマケン,カサオカシ,イチバンチョウ,岡山県笠岡市一番町
7140083,岡山県,笠岡市,二番町,オカヤマケン,カサオカシ,ニバンチョウ,岡山県笠岡市二番町
7140084,岡山県,笠岡市,三番町,オカヤマケン,カサオカシ,サンバンチョウ,岡山県笠岡市三番町
7140085,岡山県,笠岡市,四番町,オカヤマケン,カサオカシ,ヨンバンチョウ,岡山県笠岡市四番町
7140086,岡山県,笠岡市,五番町,オカヤマケン,カサオカシ,ゴバンチョウ,岡山県笠岡市五番町
7140087,岡山県,笠岡市,六番町,オカヤマケン,カサオカシ,ロクバンチョウ,岡山県笠岡市六番町
7140088,岡山県,笠岡市,中央町,オカヤマケン,カサオカシ,チュウオウチョウ,岡山県笠岡市中央町
7140091,岡山県,笠岡市,絵師,オカヤマケン,カサオカシ,エシ,岡山県笠岡市絵師
7140092,岡山県,笠岡市,富岡,オカヤマケン,カサオカシ,トミオカ,岡山県笠岡市富岡
7140093,岡山県,笠岡市,新横島,オカヤマケン,カサオカシ,シンヨコシマ,岡山県笠岡市新横島
7140094,岡山県,笠岡市,七番町,オカヤマケン,カサオカシ,ナナバンチョウ,岡山県笠岡市七番町
7140095,岡山県,笠岡市,八番町,オカヤマケン,カサオカシ,ハチバンチョウ,岡山県笠岡市八番町
7140096,岡山県,笠岡市,九番町,オカヤマケン,カサオカシ,キュウバンチョウ,岡山県笠岡市九番町
7140097,岡山県,笠岡市,十番町,オカヤマケン,カサオカシ,ジュウバンチョウ,岡山県笠岡市十番町
7140098,岡山県,笠岡市,十一番町,オカヤマケン,カサオカシ,ジュウイチバンチョウ,岡山県笠岡市十一番町
7140101,岡山県,浅口市,寄島町,オカヤマケン,アサクチシ,ヨリシマチョウ,岡山県浅口市寄島町
7140301,岡山県,笠岡市,北木島町,オカヤマケン,カサオカシ,キタギシマチョウ,岡山県笠岡市北木島町
7140302,岡山県,笠岡市,飛島,オカヤマケン,カサオカシ,ヒシマ,岡山県笠岡市飛島
7141200,岡山県,小田郡矢掛町,,オカヤマケン,オダグンヤカゲチョウ,,岡山県小田郡矢掛町
7141201,岡山県,小田郡矢掛町,矢掛,オカヤマケン,オダグンヤカゲチョウ,ヤカゲ,岡山県小田郡矢掛町矢掛
7141202,岡山県,小田郡矢掛町,小林,オカヤマケン,オダグンヤカゲチョウ,オバヤシ,岡山県小田郡矢掛町小林
7141203,岡山県,小田郡矢掛町,上高末,オカヤマケン,オダグンヤカゲチョウ,カミコウズエ,岡山県小田郡矢掛町上高末
7141204,岡山県,小田郡矢掛町,下高末,オカヤマケン,オダグンヤカゲチョウ,シモコウズエ,岡山県小田郡矢掛町下高末
7141205,岡山県,小田郡矢掛町,宇角,オカヤマケン,オダグンヤカゲチョウ,ウズミ,岡山県小田郡矢掛町宇角
7141206,岡山県,小田郡矢掛町,内田,オカヤマケン,オダグンヤカゲチョウ,ウチダ,岡山県小田郡矢掛町内田
7141211,岡山県,小田郡矢掛町,東三成,オカヤマケン,オダグンヤカゲチョウ,ヒガシミナリ,岡山県小田郡矢掛町東三成
7141212,岡山県,小田郡矢掛町,横谷,オカヤマケン,オダグンヤカゲチョウ,ヨコダニ,岡山県小田郡矢掛町横谷
7141213,岡山県,小田郡矢掛町,里山田,オカヤマケン,オダグンヤカゲチョウ,サトヤマダ,岡山県小田郡矢掛町里山田
7141214,岡山県,小田郡矢掛町,南山田,オカヤマケン,オダグンヤカゲチョウ,ミナミヤマダ,岡山県小田郡矢掛町南山田
7141215,岡山県,小田郡矢掛町,中,オカヤマケン,オダグンヤカゲチョウ,ナカ,岡山県小田郡矢掛町中
7141221,岡山県,小田郡矢掛町,宇内,オカヤマケン,オダグンヤカゲチョウ,ウナイ,岡山県小田郡矢掛町宇内
7141222,岡山県,小田郡矢掛町,西川面,オカヤマケン,オダグンヤカゲチョウ,ニシカワモ,岡山県小田郡矢掛町西川面
7141223,岡山県,小田郡矢掛町,東川面,オカヤマケン,オダグンヤカゲチョウ,ヒガシカワモ,岡山県小田郡矢掛町東川面
7141224,岡山県,小田郡矢掛町,本堀,オカヤマケン,オダグンヤカゲチョウ,モトホリ,岡山県小田郡矢掛町本堀
7141225,岡山県,小田郡矢掛町,浅海,オカヤマケン,オダグンヤカゲチョウ,アスミ,岡山県小田郡矢掛町浅海
7141226,岡山県,小田郡矢掛町,江良,オカヤマケン,オダグンヤカゲチョウ,エラ,岡山県小田郡矢掛町江良
7141227,岡山県,小田郡矢掛町,小田,オカヤマケン,オダグンヤカゲチョウ,オダ,岡山県小田郡矢掛町小田
7141401,岡山県,井原市,美星町明治,オカヤマケン,イバラシ,ビセイチョウメイジ,岡山県井原市美星町明治
7141402,岡山県,井原市,美星町宇戸谷,オカヤマケン,イバラシ,ビセイチョウウトダニ,岡山県井原市美星町宇戸谷
7141403,岡山県,井原市,美星町上高末,オカヤマケン,イバラシ,ビセイチョウカミコウズエ,岡山県井原市美星町上高末
7141404,岡山県,井原市,美星町烏頭,オカヤマケン,イバラシ,ビセイチョウウトウ,岡山県井原市美星町烏頭
7141405,岡山県,井原市,美星町宇戸,オカヤマケン,イバラシ,ビセイチョウウト,岡山県井原市美星町宇戸
7141406,岡山県,井原市,美星町三山,オカヤマケン,イバラシ,ビセイチョウミヤマ,岡山県井原市美星町三山
7141407,岡山県,井原市,美星町黒忠,オカヤマケン,イバラシ,ビセイチョウクロタダ,岡山県井原市美星町黒忠
7141411,岡山県,井原市,美星町大倉,オカヤマケン,イバラシ,ビセイチョウオオクラ,岡山県井原市美星町大倉
7141412,岡山県,井原市,美星町東水砂,オカヤマケン,イバラシ,ビセイチョウヒガシミズスナ,岡山県井原市美星町東水砂
7141413,岡山県,井原市,美星町西水砂,オカヤマケン,イバラシ,ビセイチョウニシミズスナ,岡山県井原市美星町西水砂
7141414,岡山県,井原市,美星町黒木,オカヤマケン,イバラシ,ビセイチョウクロギ,岡山県井原市美星町黒木
7141415,岡山県,井原市,美星町星田,オカヤマケン,イバラシ,ビセイチョウホシダ,岡山県井原市美星町星田
7142101,岡山県,井原市,芳井町梶江,オカヤマケン,イバラシ,ヨシイチョウカジエ,岡山県井原市芳井町梶江
7142102,岡山県,井原市,芳井町与井,オカヤマケン,イバラシ,ヨシイチョウヨイ,岡山県井原市芳井町与井
7142103,岡山県,井原市,芳井町宇戸川,オカヤマケン,イバラシ,ヨシイチョウウトガワ,岡山県井原市芳井町宇戸川
7142104,岡山県,井原市,芳井町花滝,オカヤマケン,イバラシ,ヨシイチョウハナダキ,岡山県井原市芳井町花滝
7142111,岡山県,井原市,芳井町吉井,オカヤマケン,イバラシ,ヨシイチョウヨシイ,岡山県井原市芳井町吉井
7142112,岡山県,井原市,芳井町簗瀬,オカヤマケン,イバラシ,ヨシイチョウヤナセ,岡山県井原市芳井町簗瀬
7142113,岡山県,井原市,芳井町天神山,オカヤマケン,イバラシ,ヨシイチョウテンジンヤマ,岡山県井原市芳井町天神山
7142114,岡山県,井原市,芳井町川相,オカヤマケン,イバラシ,ヨシイチョウカワイ,岡山県井原市芳井町川相
7142121,岡山県,井原市,芳井町佐屋,オカヤマケン,イバラシ,ヨシイチョウサヤ,岡山県井原市芳井町佐屋
7142122,岡山県,井原市,芳井町種,オカヤマケン,イバラシ,ヨシイチョウタネ,岡山県井原市芳井町種
7142123,岡山県,井原市,芳井町片塚,オカヤマケン,イバラシ,ヨシイチョウカタヅカ,岡山県井原市芳井町片塚
7142124,岡山県,井原市,芳井町井山,オカヤマケン,イバラシ,ヨシイチョウイヤマ,岡山県井原市芳井町井山
7142125,岡山県,井原市,芳井町池谷,オカヤマケン,イバラシ,ヨシイチョウイケダニ,岡山県井原市芳井町池谷
7142231,岡山県,井原市,芳井町下鴫,オカヤマケン,イバラシ,ヨシイチョウシモシギ,岡山県井原市芳井町下鴫
7142232,岡山県,井原市,芳井町上鴫,オカヤマケン,イバラシ,ヨシイチョウカミシギ,岡山県井原市芳井町上鴫
7142233,岡山県,井原市,芳井町山村,オカヤマケン,イバラシ,ヨシイチョウヤマムラ,岡山県井原市芳井町山村
7142234,岡山県,井原市,芳井町西三原,オカヤマケン,イバラシ,ヨシイチョウニシミハラ,岡山県井原市芳井町西三原
7142341,岡山県,井原市,芳井町東三原,オカヤマケン,イバラシ,ヨシイチョウヒガシミハラ,岡山県井原市芳井町東三原
7150000,岡山県,井原市,,オカヤマケン,イバラシ,,岡山県井原市
7150001,岡山県,井原市,野上町,オカヤマケン,イバラシ,ノガミチョウ,岡山県井原市野上町
7150002,岡山県,井原市,神代町,オカヤマケン,イバラシ,コウジロチョウ,岡山県井原市神代町
7150003,岡山県,井原市,東江原町,オカヤマケン,イバラシ,ヒガシエバラチョウ,岡山県井原市東江原町
7150004,岡山県,井原市,木之子町,オカヤマケン,イバラシ,キノコチョウ,岡山県井原市木之子町
7150005,岡山県,井原市,門田町,オカヤマケン,イバラシ,モンデンチョウ,岡山県井原市門田町
7150006,岡山県,井原市,西江原町,オカヤマケン,イバラシ,ニシエバラチョウ,岡山県井原市西江原町
7150011,岡山県,井原市,稗原町,オカヤマケン,イバラシ,ヒエハラチョウ,岡山県井原市稗原町
7150012,岡山県,井原市,青野町,オカヤマケン,イバラシ,アオノチョウ,岡山県井原市青野町
7150013,岡山県,井原市,北山町,オカヤマケン,イバラシ,キタヤマチョウ,岡山県井原市北山町
7150014,岡山県,井原市,七日市町,オカヤマケン,イバラシ,ナヌカイチチョウ,岡山県井原市七日市町
7150015,岡山県,井原市,西方町,オカヤマケン,イバラシ,ニシガタチョウ,岡山県井原市西方町
7150016,岡山県,井原市,岩倉町,オカヤマケン,イバラシ,イワクラチョウ,岡山県井原市岩倉町
7150017,岡山県,井原市,下稲木町,オカヤマケン,イバラシ,シモイナギチョウ,岡山県井原市下稲木町
7150018,岡山県,井原市,上稲木町,オカヤマケン,イバラシ,カミイナギチョウ,岡山県井原市上稲木町
7150019,岡山県,井原市,井原町,オカヤマケン,イバラシ,イバラチョウ,岡山県井原市井原町
7150021,岡山県,井原市,上出部町,オカヤマケン,イバラシ,カミイズエチョウ,岡山県井原市上出部町
7150022,岡山県,井原市,下出部町,オカヤマケン,イバラシ,シモイズエチョウ,岡山県井原市下出部町
7150023,岡山県,井原市,大江町,オカヤマケン,イバラシ,オオエチョウ,岡山県井原市大江町
7150024,岡山県,井原市,高屋町,オカヤマケン,イバラシ,タカヤチョウ,岡山県井原市高屋町
7150025,岡山県,井原市,笹賀町,オカヤマケン,イバラシ,ササカチョウ,岡山県井原市笹賀町
7150026,岡山県,井原市,上出部町四季が丘,オカヤマケン,イバラシ,カミイズエチョウシキガオカ,岡山県井原市上出部町四季が丘
7160000,岡山県,高梁市,,オカヤマケン,タカハシシ,,岡山県高梁市
7160001,岡山県,高梁市,津川町八川,オカヤマケン,タカハシシ,ツガワチョウヤガワ,岡山県高梁市津川町八川
7160002,岡山県,高梁市,津川町今津,オカヤマケン,タカハシシ,ツガワチョウイマヅ,岡山県高梁市津川町今津
7160003,岡山県,高梁市,高倉町大瀬八長,オカヤマケン,タカハシシ,タカクラチョウオオセオナガ,岡山県高梁市高倉町大瀬八長
7160004,岡山県,高梁市,内山下,オカヤマケン,タカハシシ,ウチサンゲ,岡山県高梁市内山下
7160005,岡山県,高梁市,川端町,オカヤマケン,タカハシシ,カワバタチョウ,岡山県高梁市川端町
7160006,岡山県,高梁市,小高下町,オカヤマケン,タカハシシ,ココウゲチョウ,岡山県高梁市小高下町
7160007,岡山県,高梁市,奥万田町,オカヤマケン,タカハシシ,オクマンダチョウ,岡山県高梁市奥万田町
7160008,岡山県,高梁市,和田町,オカヤマケン,タカハシシ,ワダチョウ,岡山県高梁市和田町
7160009,岡山県,高梁市,間之町,オカヤマケン,タカハシシ,アイノマチ,岡山県高梁市間之町
7160011,岡山県,高梁市,本町,オカヤマケン,タカハシシ,ホンマチ,岡山県高梁市本町
7160012,岡山県,高梁市,新町,オカヤマケン,タカハシシ,シンマチ,岡山県高梁市新町
7160013,岡山県,高梁市,片原町,オカヤマケン,タカハシシ,カタハラチョウ,岡山県高梁市片原町
7160014,岡山県,高梁市,中之町,オカヤマケン,タカハシシ,ナカノチョウ,岡山県高梁市中之町
7160015,岡山県,高梁市,石火矢町,オカヤマケン,タカハシシ,イシビヤチョウ,岡山県高梁市石火矢町
7160016,岡山県,高梁市,頼久寺町,オカヤマケン,タカハシシ,ライキュウジチョウ,岡山県高梁市頼久寺町
7160017,岡山県,高梁市,御前町,オカヤマケン,タカハシシ,オンザキチョウ,岡山県高梁市御前町
7160018,岡山県,高梁市,伊賀町,オカヤマケン,タカハシシ,イガマチ,岡山県高梁市伊賀町
7160019,岡山県,高梁市,寺町,オカヤマケン,タカハシシ,テラマチ,岡山県高梁市寺町
7160021,岡山県,高梁市,中間町,オカヤマケン,タカハシシ,チュウゲンマチ,岡山県高梁市中間町
7160022,岡山県,高梁市,下町,オカヤマケン,タカハシシ,シモマチ,岡山県高梁市下町
7160023,岡山県,高梁市,鍜冶町,オカヤマケン,タカハシシ,カジマチ,岡山県高梁市鍜冶町
7160024,岡山県,高梁市,大工町,オカヤマケン,タカハシシ,ダイクチョウ,岡山県高梁市大工町
7160025,岡山県,高梁市,荒神町,オカヤマケン,タカハシシ,コウジンチョウ,岡山県高梁市荒神町
7160026,岡山県,高梁市,甲賀町,オカヤマケン,タカハシシ,コウガチョウ,岡山県高梁市甲賀町
7160027,岡山県,高梁市,八幡町,オカヤマケン,タカハシシ,ヤハタチョウ,岡山県高梁市八幡町
7160028,岡山県,高梁市,柿木町,オカヤマケン,タカハシシ,カキノキチョウ,岡山県高梁市柿木町
7160029,岡山県,高梁市,向町,オカヤマケン,タカハシシ,ムコウチョウ,岡山県高梁市向町
7160031,岡山県,高梁市,鉄砲町,オカヤマケン,タカハシシ,テッポウチョウ,岡山県高梁市鉄砲町
7160032,岡山県,高梁市,弓之町,オカヤマケン,タカハシシ,ユミノチョウ,岡山県高梁市弓之町
7160033,岡山県,高梁市,南町,オカヤマケン,タカハシシ,ミナミマチ,岡山県高梁市南町
7160034,岡山県,高梁市,東町,オカヤマケン,タカハシシ,ヒガシマチ,岡山県高梁市東町
7160035,岡山県,高梁市,栄町,オカヤマケン,タカハシシ,サカエマチ,岡山県高梁市栄町
7160036,岡山県,高梁市,松原通,オカヤマケン,タカハシシ,マツバラドオリ,岡山県高梁市松原通
7160037,岡山県,高梁市,正宗町,オカヤマケン,タカハシシ,マサムネチョウ,岡山県高梁市正宗町
7160038,岡山県,高梁市,浜町,オカヤマケン,タカハシシ,ハマチョウ,岡山県高梁市浜町
7160039,岡山県,高梁市,旭町,オカヤマケン,タカハシシ,アサヒマチ,岡山県高梁市旭町
7160041,岡山県,高梁市,上谷町,オカヤマケン,タカハシシ,カミダニチョウ,岡山県高梁市上谷町
7160042,岡山県,高梁市,下谷町,オカヤマケン,タカハシシ,シモダニチョウ,岡山県高梁市下谷町
7160043,岡山県,高梁市,原田北町,オカヤマケン,タカハシシ,ハラダキタチョウ,岡山県高梁市原田北町
7160044,岡山県,高梁市,原田南町,オカヤマケン,タカハシシ,ハラダミナミチョウ,岡山県高梁市原田南町
7160045,岡山県,高梁市,中原町,オカヤマケン,タカハシシ,ナカバラチョウ,岡山県高梁市中原町
7160046,岡山県,高梁市,横町,オカヤマケン,タカハシシ,ヨコチョウ,岡山県高梁市横町
7160047,岡山県,高梁市,段町,オカヤマケン,タカハシシ,ダンチョウ,岡山県高梁市段町
7160051,岡山県,高梁市,松山,オカヤマケン,タカハシシ,マツヤマ,岡山県高梁市松山
7160052,岡山県,高梁市,玉川町玉,オカヤマケン,タカハシシ,タマガワチョウタマ,岡山県高梁市玉川町玉
7160053,岡山県,高梁市,玉川町下切,オカヤマケン,タカハシシ,タマガワチョウシタギリ,岡山県高梁市玉川町下切
7160054,岡山県,高梁市,玉川町増原,オカヤマケン,タカハシシ,タマガワチョウマシハラ,岡山県高梁市玉川町増原
7160061,岡山県,高梁市,落合町阿部,オカヤマケン,タカハシシ,オチアイチョウアベ,岡山県高梁市落合町阿部
7160062,岡山県,高梁市,落合町近似,オカヤマケン,タカハシシ,オチアイチョウチカノリ,岡山県高梁市落合町近似
7160063,岡山県,高梁市,落合町原田,オカヤマケン,タカハシシ,オチアイチョウハラダ,岡山県高梁市落合町原田
7160064,岡山県,高梁市,落合町福地,オカヤマケン,タカハシシ,オチアイチョウシロチ,岡山県高梁市落合町福地
7160065,岡山県,高梁市,松原町大津寄,オカヤマケン,タカハシシ,マツバラチョウオオヅヨリ,岡山県高梁市松原町大津寄
7160066,岡山県,高梁市,松原町松岡,オカヤマケン,タカハシシ,マツバラチョウマツオカ,岡山県高梁市松原町松岡
7160067,岡山県,高梁市,松原町春木,オカヤマケン,タカハシシ,マツバラチョウハルキ,岡山県高梁市松原町春木
7160068,岡山県,高梁市,松原町神原,オカヤマケン,タカハシシ,マツバラチョウコウバラ,岡山県高梁市松原町神原
7160101,岡山県,高梁市,成羽町下日名,オカヤマケン,タカハシシ,ナリワチョウシモヒナ,岡山県高梁市成羽町下日名
7160102,岡山県,高梁市,成羽町上日名,オカヤマケン,タカハシシ,ナリワチョウカミヒナ,岡山県高梁市成羽町上日名
7160111,岡山県,高梁市,成羽町下原,オカヤマケン,タカハシシ,ナリワチョウシモハラ,岡山県高梁市成羽町下原
7160112,岡山県,高梁市,成羽町星原,オカヤマケン,タカハシシ,ナリワチョウホシバラ,岡山県高梁市成羽町星原
7160113,岡山県,高梁市,成羽町佐々木,オカヤマケン,タカハシシ,ナリワチョウササキ,岡山県高梁市成羽町佐々木
7160121,岡山県,高梁市,成羽町成羽,オカヤマケン,タカハシシ,ナリワチョウナリワ,岡山県高梁市成羽町成羽
7160122,岡山県,高梁市,成羽町羽山,オカヤマケン,タカハシシ,ナリワチョウハヤマ,岡山県高梁市成羽町羽山
7160201,岡山県,高梁市,川上町地頭,オカヤマケン,タカハシシ,カワカミチョウジトウ,岡山県高梁市川上町地頭
7160202,岡山県,高梁市,川上町七地,オカヤマケン,タカハシシ,カワカミチョウナナチ,岡山県高梁市川上町七地
7160203,岡山県,高梁市,川上町三沢,オカヤマケン,タカハシシ,カワカミチョウミサワ,岡山県高梁市川上町三沢
7160204,岡山県,高梁市,川上町領家,オカヤマケン,タカハシシ,カワカミチョウリョウケ,岡山県高梁市川上町領家
7160205,岡山県,高梁市,川上町臘数,オカヤマケン,タカハシシ,カワカミチョウシワス,岡山県高梁市川上町臘数
7160206,岡山県,高梁市,川上町吉木,オカヤマケン,タカハシシ,カワカミチョウヨシギ,岡山県高梁市川上町吉木
7160207,岡山県,高梁市,川上町仁賀,オカヤマケン,タカハシシ,カワカミチョウニカ,岡山県高梁市川上町仁賀
7160211,岡山県,高梁市,川上町上大竹,オカヤマケン,タカハシシ,カワカミチョウカミオオタケ,岡山県高梁市川上町上大竹
7160212,岡山県,高梁市,川上町下大竹,オカヤマケン,タカハシシ,カワカミチョウシモオオタケ,岡山県高梁市川上町下大竹
7160221,岡山県,高梁市,川上町高山市,オカヤマケン,タカハシシ,カワカミチョウコウヤマイチ,岡山県高梁市川上町高山市
7160222,岡山県,高梁市,川上町大原,オカヤマケン,タカハシシ,カワカミチョウオオバラ,岡山県高梁市川上町大原
7160223,岡山県,高梁市,川上町高山,オカヤマケン,タカハシシ,カワカミチョウコウヤマ,岡山県高梁市川上町高山
7160301,岡山県,高梁市,備中町志藤用瀬,オカヤマケン,タカハシシ,ビッチュウチョウシトウヨウゼ,岡山県高梁市備中町志藤用瀬
7160302,岡山県,高梁市,備中町布瀬,オカヤマケン,タカハシシ,ビッチュウチョウフセ,岡山県高梁市備中町布瀬
7160303,岡山県,高梁市,備中町長屋,オカヤマケン,タカハシシ,ビッチュウチョウナガヤ,岡山県高梁市備中町長屋
7160304,岡山県,高梁市,備中町布賀,オカヤマケン,タカハシシ,ビッチュウチョウフカ,岡山県高梁市備中町布賀
7160311,岡山県,高梁市,備中町平川,オカヤマケン,タカハシシ,ビッチュウチョウヒラカワ,岡山県高梁市備中町平川
7160321,岡山県,高梁市,備中町東油野,オカヤマケン,タカハシシ,ビッチュウチョウヒガシユノ,岡山県高梁市備中町東油野
7160322,岡山県,高梁市,備中町西油野,オカヤマケン,タカハシシ,ビッチュウチョウニシユノ,岡山県高梁市備中町西油野
7160323,岡山県,高梁市,備中町西山,オカヤマケン,タカハシシ,ビッチュウチョウニシヤマ,岡山県高梁市備中町西山
7160331,岡山県,高梁市,成羽町羽根,オカヤマケン,タカハシシ,ナリワチョウハネ,岡山県高梁市成羽町羽根
7160332,岡山県,高梁市,成羽町小泉,オカヤマケン,タカハシシ,ナリワチョウコイズミ,岡山県高梁市成羽町小泉
7160333,岡山県,高梁市,成羽町相坂,オカヤマケン,タカハシシ,ナリワチョウアイサカ,岡山県高梁市成羽町相坂
7160334,岡山県,高梁市,成羽町長地,オカヤマケン,タカハシシ,ナリワチョウオサジ,岡山県高梁市成羽町長地
7160335,岡山県,高梁市,成羽町布寄,オカヤマケン,タカハシシ,ナリワチョウフヨリ,岡山県高梁市成羽町布寄
7161100,岡山県,加賀郡吉備中央町,,オカヤマケン,カガグンキビチュウオウチョウ,,岡山県加賀郡吉備中央町
7161101,岡山県,加賀郡吉備中央町,豊野,オカヤマケン,カガグンキビチュウオウチョウ,トヨノ,岡山県加賀郡吉備中央町豊野
7161102,岡山県,加賀郡吉備中央町,黒土,オカヤマケン,カガグンキビチュウオウチョウ,クロツチ,岡山県加賀郡吉備中央町黒土
7161111,岡山県,加賀郡吉備中央町,田土,オカヤマケン,カガグンキビチュウオウチョウ,タド,岡山県加賀郡吉備中央町田土
7161112,岡山県,加賀郡吉備中央町,湯山,オカヤマケン,カガグンキビチュウオウチョウ,ユヤマ,岡山県加賀郡吉備中央町湯山
7161121,岡山県,加賀郡吉備中央町,納地,オカヤマケン,カガグンキビチュウオウチョウ,ノウチ,岡山県加賀郡吉備中央町納地
7161122,岡山県,加賀郡吉備中央町,竹荘,オカヤマケン,カガグンキビチュウオウチョウ,タケショウ,岡山県加賀郡吉備中央町竹荘
7161131,岡山県,加賀郡吉備中央町,上竹,オカヤマケン,カガグンキビチュウオウチョウ,カミタケ,岡山県加賀郡吉備中央町上竹
7161241,岡山県,加賀郡吉備中央町,吉川,オカヤマケン,カガグンキビチュウオウチョウ,ヨシカワ,岡山県加賀郡吉備中央町吉川
7161242,岡山県,加賀郡吉備中央町,黒山,オカヤマケン,カガグンキビチュウオウチョウ,クロヤマ,岡山県加賀郡吉備中央町黒山
7161311,岡山県,高梁市,巨瀬町,オカヤマケン,タカハシシ,コセチョウ,岡山県高梁市巨瀬町
7161321,岡山県,高梁市,有漢町有漢,オカヤマケン,タカハシシ,ウカンチョウウカン,岡山県高梁市有漢町有漢
7161322,岡山県,高梁市,有漢町上有漢,オカヤマケン,タカハシシ,ウカンチョウカミウカン,岡山県高梁市有漢町上有漢
7161401,岡山県,真庭市,五名,オカヤマケン,マニワシ,ゴミョウ,岡山県真庭市五名
7161402,岡山県,真庭市,山田,オカヤマケン,マニワシ,ヤマダ,岡山県真庭市山田
7161403,岡山県,真庭市,宮地,オカヤマケン,マニワシ,ミヤジ,岡山県真庭市宮地
7161411,岡山県,真庭市,上水田,オカヤマケン,マニワシ,カミミズタ,岡山県真庭市上水田
7161421,岡山県,真庭市,下中津井,オカヤマケン,マニワシ,シモナカツイ,岡山県真庭市下中津井
7161422,岡山県,真庭市,上中津井,オカヤマケン,マニワシ,カミナカツイ,岡山県真庭市上中津井
7161431,岡山県,真庭市,阿口,オカヤマケン,マニワシ,アクチ,岡山県真庭市阿口
7161432,岡山県,真庭市,上呰部,オカヤマケン,マニワシ,カミアザエ,岡山県真庭市上呰部
7161433,岡山県,真庭市,下呰部,オカヤマケン,マニワシ,シモアザエ,岡山県真庭市下呰部
7161551,岡山県,加賀郡吉備中央町,北,オカヤマケン,カガグンキビチュウオウチョウ,キタ,岡山県加賀郡吉備中央町北
7161552,岡山県,加賀郡吉備中央町,岨谷,オカヤマケン,カガグンキビチュウオウチョウ,スワタニ,岡山県加賀郡吉備中央町岨谷
7161553,岡山県,加賀郡吉備中央町,宮地,オカヤマケン,カガグンキビチュウオウチョウ,ミヤチ,岡山県加賀郡吉備中央町宮地
7161554,岡山県,加賀郡吉備中央町,西,オカヤマケン,カガグンキビチュウオウチョウ,ニシ,岡山県加賀郡吉備中央町西
7170001,岡山県,真庭市,星山,オカヤマケン,マニワシ,ホシヤマ,岡山県真庭市星山
7170002,岡山県,真庭市,菅谷,オカヤマケン,マニワシ,スガタニ,岡山県真庭市菅谷
7170003,岡山県,真庭市,竹原,オカヤマケン,マニワシ,タケバラ,岡山県真庭市竹原
7170004,岡山県,真庭市,神庭,オカヤマケン,マニワシ,カンバ,岡山県真庭市神庭
7170005,岡山県,真庭市,横部,オカヤマケン,マニワシ,ヨコベ,岡山県真庭市横部
7170006,岡山県,真庭市,組,オカヤマケン,マニワシ,クミ,岡山県真庭市組
7170007,岡山県,真庭市,本郷,オカヤマケン,マニワシ,ホンゴウ,岡山県真庭市本郷
7170011,岡山県,真庭市,見尾,オカヤマケン,マニワシ,ミオ,岡山県真庭市見尾
7170012,岡山県,真庭市,山久世,オカヤマケン,マニワシ,ヤマクセ,岡山県真庭市山久世
7170013,岡山県,真庭市,勝山,オカヤマケン,マニワシ,カツヤマ,岡山県真庭市勝山
7170014,岡山県,真庭市,柴原,オカヤマケン,マニワシ,シバラ,岡山県真庭市柴原
7170015,岡山県,真庭市,岡,オカヤマケン,マニワシ,オカ,岡山県真庭市岡
7170016,岡山県,真庭市,正吉,オカヤマケン,マニワシ,マサヨシ,岡山県真庭市正吉
7170017,岡山県,真庭市,真賀,オカヤマケン,マニワシ,マガ,岡山県真庭市真賀
7170021,岡山県,真庭市,福谷,オカヤマケン,マニワシ,フクタニ,岡山県真庭市福谷
7170022,岡山県,真庭市,三田,オカヤマケン,マニワシ,サンデン,岡山県真庭市三田
7170023,岡山県,真庭市,江川,オカヤマケン,マニワシ,エガワ,岡山県真庭市江川
7170024,岡山県,真庭市,月田,オカヤマケン,マニワシ,ツキダ,岡山県真庭市月田
7170025,岡山県,真庭市,後谷畝,オカヤマケン,マニワシ,ウシロダニウネ,岡山県真庭市後谷畝
7170026,岡山県,真庭市,荒田,オカヤマケン,マニワシ,アラタ,岡山県真庭市荒田
7170027,岡山県,真庭市,神代,オカヤマケン,マニワシ,コウジロ,岡山県真庭市神代
7170101,岡山県,真庭市,鉄山,オカヤマケン,マニワシ,カネヤマ,岡山県真庭市鉄山
7170102,岡山県,真庭市,黒田,オカヤマケン,マニワシ,クロダ,岡山県真庭市黒田
7170103,岡山県,真庭市,田口,オカヤマケン,マニワシ,タグチ,岡山県真庭市田口
7170104,岡山県,真庭市,延風,オカヤマケン,マニワシ,ノブカゼ,岡山県真庭市延風
7170105,岡山県,真庭市,美甘,オカヤマケン,マニワシ,ミカモ,岡山県真庭市美甘
7170201,岡山県,真庭郡新庄村,,オカヤマケン,マニワグンシンジョウソン,,岡山県真庭郡新庄村
7170401,岡山県,真庭市,田羽根,オカヤマケン,マニワシ,タバネ,岡山県真庭市田羽根
7170402,岡山県,真庭市,湯原温泉,オカヤマケン,マニワシ,ユバラオンセン,岡山県真庭市湯原温泉
7170403,岡山県,真庭市,下湯原,オカヤマケン,マニワシ,シモユバラ,岡山県真庭市下湯原
7170404,岡山県,真庭市,社,オカヤマケン,マニワシ,ヤシロ,岡山県真庭市社
7170405,岡山県,真庭市,久見,オカヤマケン,マニワシ,ヒサミ,岡山県真庭市久見
7170406,岡山県,真庭市,豊栄,オカヤマケン,マニワシ,トヨサカ,岡山県真庭市豊栄
7170411,岡山県,真庭市,見明戸,オカヤマケン,マニワシ,ミアケド,岡山県真庭市見明戸
7170412,岡山県,真庭市,本庄,オカヤマケン,マニワシ,ホンジョウ,岡山県真庭市本庄
7170413,岡山県,真庭市,禾津,オカヤマケン,マニワシ,イナツ,岡山県真庭市禾津
7170414,岡山県,真庭市,釘貫小川,オカヤマケン,マニワシ,クギヌキコガワ,岡山県真庭市釘貫小川
7170415,岡山県,真庭市,都喜足,オカヤマケン,マニワシ,ツギタル,岡山県真庭市都喜足
7170416,岡山県,真庭市,仲間,オカヤマケン,マニワシ,ナカマ,岡山県真庭市仲間
7170421,岡山県,真庭市,粟谷,オカヤマケン,マニワシ,アワダニ,岡山県真庭市粟谷
7170422,岡山県,真庭市,藤森,オカヤマケン,マニワシ,フジモリ,岡山県真庭市藤森
7170423,岡山県,真庭市,黒杭,オカヤマケン,マニワシ,クロクイ,岡山県真庭市黒杭
7170424,岡山県,真庭市,種,オカヤマケン,マニワシ,タネ,岡山県真庭市種
7170425,岡山県,真庭市,小童谷,オカヤマケン,マニワシ,ヒジヤ,岡山県真庭市小童谷
7170426,岡山県,真庭市,三世七原,オカヤマケン,マニワシ,ミセシチバラ,岡山県真庭市三世七原
7170501,岡山県,真庭市,蒜山中福田,オカヤマケン,マニワシ,ヒルゼンナカフクダ,岡山県真庭市蒜山中福田
7170502,岡山県,真庭市,蒜山富掛田,オカヤマケン,マニワシ,ヒルゼントミカケダ,岡山県真庭市蒜山富掛田
7170503,岡山県,真庭市,蒜山富山根,オカヤマケン,マニワシ,ヒルゼントミヤマネ,岡山県真庭市蒜山富山根
7170504,岡山県,真庭市,蒜山下福田,オカヤマケン,マニワシ,ヒルゼンシモフクダ,岡山県真庭市蒜山下福田
7170505,岡山県,真庭市,蒜山上長田,オカヤマケン,マニワシ,ヒルゼンカミナガタ,岡山県真庭市蒜山上長田
7170506,岡山県,真庭市,蒜山下長田,オカヤマケン,マニワシ,ヒルゼンシモナガタ,岡山県真庭市蒜山下長田
7170507,岡山県,真庭市,蒜山下見,オカヤマケン,マニワシ,ヒルゼンシモミ,岡山県真庭市蒜山下見
7170511,岡山県,真庭市,蒜山初和,オカヤマケン,マニワシ,ヒルゼンハツワ,岡山県真庭市蒜山初和
7170512,岡山県,真庭市,蒜山真加子,オカヤマケン,マニワシ,ヒルゼンマカゴ,岡山県真庭市蒜山真加子
7170513,岡山県,真庭市,蒜山下和,オカヤマケン,マニワシ,ヒルゼンシタオ,岡山県真庭市蒜山下和
7170514,岡山県,真庭市,蒜山吉田,オカヤマケン,マニワシ,ヒルゼンヨシダ,岡山県真庭市蒜山吉田
7170515,岡山県,真庭市,蒜山別所,オカヤマケン,マニワシ,ヒルゼンベッショ,岡山県真庭市蒜山別所
7170601,岡山県,真庭市,蒜山湯船,オカヤマケン,マニワシ,ヒルゼンユブネ,岡山県真庭市蒜山湯船
7170602,岡山県,真庭市,蒜山上福田,オカヤマケン,マニワシ,ヒルゼンカミフクダ,岡山県真庭市蒜山上福田
7170603,岡山県,真庭市,蒜山東茅部,オカヤマケン,マニワシ,ヒルゼンヒガシカヤベ,岡山県真庭市蒜山東茅部
7170604,岡山県,真庭市,蒜山西茅部,オカヤマケン,マニワシ,ヒルゼンニシカヤベ,岡山県真庭市蒜山西茅部
7170611,岡山県,真庭市,蒜山本茅部,オカヤマケン,マニワシ,ヒルゼンホンカヤベ,岡山県真庭市蒜山本茅部
7170612,岡山県,真庭市,蒜山上徳山,オカヤマケン,マニワシ,ヒルゼンカミトクヤマ,岡山県真庭市蒜山上徳山
7170613,岡山県,真庭市,蒜山下徳山,オカヤマケン,マニワシ,ヒルゼンシモトクヤマ,岡山県真庭市蒜山下徳山
7170731,岡山県,真庭市,曲り,オカヤマケン,マニワシ,マガリ,岡山県真庭市曲り
7170732,岡山県,真庭市,高田山上,オカヤマケン,マニワシ,タカタヤマウエ,岡山県真庭市高田山上
7170733,岡山県,真庭市,若代畝,オカヤマケン,マニワシ,ワカシロウネ,岡山県真庭市若代畝
7170734,岡山県,真庭市,野,オカヤマケン,マニワシ,ノ,岡山県真庭市野
7170735,岡山県,真庭市,下岩,オカヤマケン,マニワシ,シモイワ,岡山県真庭市下岩
7170736,岡山県,真庭市,古呂々尾中,オカヤマケン,マニワシ,コロロビナカ,岡山県真庭市古呂々尾中
7170737,岡山県,真庭市,清谷,オカヤマケン,マニワシ,セイタニ,岡山県真庭市清谷
7170741,岡山県,真庭市,若代,オカヤマケン,マニワシ,ワカシロ,岡山県真庭市若代
7170742,岡山県,真庭市,後谷,オカヤマケン,マニワシ,ウシロダニ,岡山県真庭市後谷
7170743,岡山県,真庭市,月田本,オカヤマケン,マニワシ,ツキダホン,岡山県真庭市月田本
7170744,岡山県,真庭市,岩井谷,オカヤマケン,マニワシ,イワイダニ,岡山県真庭市岩井谷
7170745,岡山県,真庭市,岩井畝,オカヤマケン,マニワシ,イワイウネ,岡山県真庭市岩井畝
7170746,岡山県,真庭市,上,オカヤマケン,マニワシ,カミ,岡山県真庭市上
7180000,岡山県,新見市,,オカヤマケン,ニイミシ,,岡山県新見市
7180001,岡山県,新見市,上熊谷,オカヤマケン,ニイミシ,カミクマタニ,岡山県新見市上熊谷
7180002,岡山県,新見市,下熊谷,オカヤマケン,ニイミシ,シモクマタニ,岡山県新見市下熊谷
7180003,岡山県,新見市,高尾,オカヤマケン,ニイミシ,タカオ,岡山県新見市高尾
7180004,岡山県,新見市,馬塚,オカヤマケン,ニイミシ,マヅカ,岡山県新見市馬塚
7180005,岡山県,新見市,上市,オカヤマケン,ニイミシ,カミイチ,岡山県新見市上市
7180006,岡山県,新見市,足立,オカヤマケン,ニイミシ,アシダチ,岡山県新見市足立
7180007,岡山県,新見市,坂本,オカヤマケン,ニイミシ,サカモト,岡山県新見市坂本
7180011,岡山県,新見市,新見,オカヤマケン,ニイミシ,ニイミ,岡山県新見市新見
7180012,岡山県,新見市,唐松,オカヤマケン,ニイミシ,カラマツ,岡山県新見市唐松
7180013,岡山県,新見市,正田,オカヤマケン,ニイミシ,ショウデン,岡山県新見市正田
7180014,岡山県,新見市,長屋,オカヤマケン,ニイミシ,ナガヤ,岡山県新見市長屋
7180015,岡山県,新見市,石蟹,オカヤマケン,ニイミシ,イシガ,岡山県新見市石蟹
7180016,岡山県,新見市,金谷,オカヤマケン,ニイミシ,カナヤ,岡山県新見市金谷
7180017,岡山県,新見市,西方,オカヤマケン,ニイミシ,ニシガタ,岡山県新見市西方
7180101,岡山県,新見市,千屋,オカヤマケン,ニイミシ,チヤ,岡山県新見市千屋
7180102,岡山県,新見市,千屋実,オカヤマケン,ニイミシ,チヤサネ,岡山県新見市千屋実
7180103,岡山県,新見市,千屋井原,オカヤマケン,ニイミシ,チヤイハラ,岡山県新見市千屋井原
7180104,岡山県,新見市,千屋花見,オカヤマケン,ニイミシ,チヤハナミ,岡山県新見市千屋花見
7180211,岡山県,新見市,菅生,オカヤマケン,ニイミシ,スゴウ,岡山県新見市菅生
7180301,岡山県,新見市,哲多町宮河内,オカヤマケン,ニイミシ,テッタチョウミヤゴウチ,岡山県新見市哲多町宮河内
7180302,岡山県,新見市,哲多町花木,オカヤマケン,ニイミシ,テッタチョウハナギ,岡山県新見市哲多町花木
7180303,岡山県,新見市,哲多町本郷,オカヤマケン,ニイミシ,テッタチョウホンゴウ,岡山県新見市哲多町本郷
7180304,岡山県,新見市,哲多町成松,オカヤマケン,ニイミシ,テッタチョウナリマツ,岡山県新見市哲多町成松
7180305,岡山県,新見市,哲多町荻尾,オカヤマケン,ニイミシ,テッタチョウオギョオ,岡山県新見市哲多町荻尾
7180306,岡山県,新見市,哲多町矢戸,オカヤマケン,ニイミシ,テッタチョウヤト,岡山県新見市哲多町矢戸
7180307,岡山県,新見市,哲多町老栄,オカヤマケン,ニイミシ,テッタチョウオイザコ,岡山県新見市哲多町老栄
7180311,岡山県,新見市,哲多町蚊家,オカヤマケン,ニイミシ,テッタチョウコウノイエ,岡山県新見市哲多町蚊家
7180312,岡山県,新見市,哲多町田淵,オカヤマケン,ニイミシ,テッタチョウタブチ,岡山県新見市哲多町田淵
7180313,岡山県,新見市,哲多町大野,オカヤマケン,ニイミシ,テッタチョウオオノ,岡山県新見市哲多町大野
7190101,岡山県,浅口市,金光町上竹（その他）,オカヤマケン,アサクチシ,コンコウチョウカミダケ(ソノタ),岡山県浅口市金光町上竹（その他）
7190102,岡山県,浅口市,金光町下竹,オカヤマケン,アサクチシ,コンコウチョウシモダケ,岡山県浅口市金光町下竹
7190103,岡山県,浅口市,金光町八重,オカヤマケン,アサクチシ,コンコウチョウヤエ,岡山県浅口市金光町八重
7190104,岡山県,浅口市,金光町占見新田,オカヤマケン,アサクチシ,コンコウチョウウラミシンデン,岡山県浅口市金光町占見新田
7190105,岡山県,浅口市,金光町占見,オカヤマケン,アサクチシ,コンコウチョウウラミ,岡山県浅口市金光町占見
7190106,岡山県,浅口市,金光町地頭下,オカヤマケン,アサクチシ,コンコウチョウジトウシモ,岡山県浅口市金光町地頭下
7190111,岡山県,浅口市,金光町大谷,オカヤマケン,アサクチシ,コンコウチョウオオタニ,岡山県浅口市金光町大谷
7190112,岡山県,浅口市,金光町須恵,オカヤマケン,アサクチシ,コンコウチョウスエ,岡山県浅口市金光町須恵
7190113,岡山県,浅口市,金光町佐方,オカヤマケン,アサクチシ,コンコウチョウサガタ,岡山県浅口市金光町佐方
7190200,岡山県,浅口市,,オカヤマケン,アサクチシ,,岡山県浅口市
7190221,岡山県,浅口市,金光町上竹（遙照山）,オカヤマケン,アサクチシ,コンコウチョウカミダケ(ヨウショウザン),岡山県浅口市金光町上竹（遙照山）
7190231,岡山県,浅口市,鴨方町小坂西,オカヤマケン,アサクチシ,カモガタチョウコサカニシ,岡山県浅口市鴨方町小坂西
7190232,岡山県,浅口市,鴨方町本庄,オカヤマケン,アサクチシ,カモガタチョウホンジョ,岡山県浅口市鴨方町本庄
7190233,岡山県,浅口市,鴨方町地頭上,オカヤマケン,アサクチシ,カモガタチョウヂトウカミ,岡山県浅口市鴨方町地頭上
7190234,岡山県,浅口市,鴨方町益坂,オカヤマケン,アサクチシ,カモガタチョウマスサカ,岡山県浅口市鴨方町益坂
7190241,岡山県,浅口市,鴨方町小坂東,オカヤマケン,アサクチシ,カモガタチョウコサカヒガシ,岡山県浅口市鴨方町小坂東
7190242,岡山県,浅口市,鴨方町みどりケ丘,オカヤマケン,アサクチシ,カモガタチョウミドリガオカ,岡山県浅口市鴨方町みどりケ丘
7190243,岡山県,浅口市,鴨方町鴨方,オカヤマケン,アサクチシ,カモガタチョウカモガタ,岡山県浅口市鴨方町鴨方
7190244,岡山県,浅口市,鴨方町深田,オカヤマケン,アサクチシ,カモガタチョウフカダ,岡山県浅口市鴨方町深田
7190251,岡山県,浅口市,鴨方町六条院西,オカヤマケン,アサクチシ,カモガタチョウロクジョウインニシ,岡山県浅口市鴨方町六条院西
7190252,岡山県,浅口市,鴨方町六条院中,オカヤマケン,アサクチシ,カモガタチョウロクジョウインナカ,岡山県浅口市鴨方町六条院中
7190253,岡山県,浅口市,鴨方町鳩ケ丘,オカヤマケン,アサクチシ,カモガタチョウハトガオカ,岡山県浅口市鴨方町鳩ケ丘
7190254,岡山県,浅口市,鴨方町六条院東,オカヤマケン,アサクチシ,カモガタチョウロクジョウインヒガシ,岡山県浅口市鴨方町六条院東
7190300,岡山県,浅口郡里庄町,,オカヤマケン,アサクチグンサトショウチョウ,,岡山県浅口郡里庄町
7190301,岡山県,浅口郡里庄町,里見,オカヤマケン,アサクチグンサトショウチョウ,サトミ,岡山県浅口郡里庄町里見
7190302,岡山県,浅口郡里庄町,新庄,オカヤマケン,アサクチグンサトショウチョウ,シンジョウ,岡山県浅口郡里庄町新庄
7190303,岡山県,浅口郡里庄町,浜中,オカヤマケン,アサクチグンサトショウチョウ,ハマナカ,岡山県浅口郡里庄町浜中
7190304,岡山県,浅口郡里庄町,新庄グリーンクレスト,オカヤマケン,アサクチグンサトショウチョウ,シンジョウグリーンクレスト,岡山県浅口郡里庄町新庄グリーンクレスト
7191100,岡山県,総社市,,オカヤマケン,ソウジャシ,,岡山県総社市
7191101,岡山県,総社市,奥坂,オカヤマケン,ソウジャシ,オクサカ,岡山県総社市奥坂
7191102,岡山県,総社市,東阿曽,オカヤマケン,ソウジャシ,ヒガシアゾ,岡山県総社市東阿曽
7191103,岡山県,総社市,西阿曽,オカヤマケン,ソウジャシ,ニシアゾ,岡山県総社市西阿曽
7191104,岡山県,総社市,久米,オカヤマケン,ソウジャシ,クメ,岡山県総社市久米
7191105,岡山県,総社市,黒尾,オカヤマケン,ソウジャシ,クロオ,岡山県総社市黒尾
7191106,岡山県,総社市,泉,オカヤマケン,ソウジャシ,イズミ,岡山県総社市泉
7191111,岡山県,総社市,長良,オカヤマケン,ソウジャシ,ナガラ,岡山県総社市長良
7191112,岡山県,総社市,窪木,オカヤマケン,ソウジャシ,クボキ,岡山県総社市窪木
7191113,岡山県,総社市,南溝手,オカヤマケン,ソウジャシ,ミナミミゾテ,岡山県総社市南溝手
7191114,岡山県,総社市,金井戸,オカヤマケン,ソウジャシ,カナイド,岡山県総社市金井戸
7191115,岡山県,総社市,福井,オカヤマケン,ソウジャシ,フクイ,岡山県総社市福井
7191116,岡山県,総社市,刑部,オカヤマケン,ソウジャシ,オシカベ,岡山県総社市刑部
7191117,岡山県,総社市,北溝手,オカヤマケン,ソウジャシ,キタミゾテ,岡山県総社市北溝手
7191121,岡山県,総社市,赤浜,オカヤマケン,ソウジャシ,アカハマ,岡山県総社市赤浜
7191122,岡山県,総社市,下林,オカヤマケン,ソウジャシ,シモバヤシ,岡山県総社市下林
7191123,岡山県,総社市,上林,オカヤマケン,ソウジャシ,カンバヤシ,岡山県総社市上林
7191124,岡山県,総社市,三須,オカヤマケン,ソウジャシ,ミス,岡山県総社市三須
7191125,岡山県,総社市,井手,オカヤマケン,ソウジャシ,イデ,岡山県総社市井手
7191126,岡山県,総社市,総社,オカヤマケン,ソウジャシ,ソウジャ,岡山県総社市総社
7191131,岡山県,総社市,中央,オカヤマケン,ソウジャシ,チュウオウ,岡山県総社市中央
7191132,岡山県,総社市,三輪,オカヤマケン,ソウジャシ,ミワ,岡山県総社市三輪
7191133,岡山県,総社市,中原,オカヤマケン,ソウジャシ,ナカバラ,岡山県総社市中原
7191134,岡山県,総社市,真壁,オカヤマケン,ソウジャシ,マカベ,岡山県総社市真壁
7191135,岡山県,総社市,溝口,オカヤマケン,ソウジャシ,ミゾクチ,岡山県総社市溝口
7191136,岡山県,総社市,駅前,オカヤマケン,ソウジャシ,エキマエ,岡山県総社市駅前
7191137,岡山県,総社市,駅南,オカヤマケン,ソウジャシ,エキナン,岡山県総社市駅南
7191141,岡山県,総社市,福谷,オカヤマケン,ソウジャシ,フクタニ,岡山県総社市福谷
7191142,岡山県,総社市,秦,オカヤマケン,ソウジャシ,ハダ,岡山県総社市秦
7191143,岡山県,総社市,上原,オカヤマケン,ソウジャシ,カンバラ,岡山県総社市上原
7191144,岡山県,総社市,富原,オカヤマケン,ソウジャシ,トンバラ,岡山県総社市富原
7191145,岡山県,総社市,下原,オカヤマケン,ソウジャシ,シモバラ,岡山県総社市下原
7191146,岡山県,総社市,八代,オカヤマケン,ソウジャシ,ヤシロ,岡山県総社市八代
7191151,岡山県,総社市,槇谷,オカヤマケン,ソウジャシ,マキダニ,岡山県総社市槇谷
7191152,岡山県,総社市,見延,オカヤマケン,ソウジャシ,ミノベ,岡山県総社市見延
7191153,岡山県,総社市,宍粟,オカヤマケン,ソウジャシ,シサワ,岡山県総社市宍粟
7191154,岡山県,総社市,井尻野,オカヤマケン,ソウジャシ,イジリノ,岡山県総社市井尻野
7191155,岡山県,総社市,小寺,オカヤマケン,ソウジャシ,コデラ,岡山県総社市小寺
7191156,岡山県,総社市,門田,オカヤマケン,ソウジャシ,モンデ,岡山県総社市門田
7191161,岡山県,総社市,宿,オカヤマケン,ソウジャシ,シュク,岡山県総社市宿
7191162,岡山県,総社市,岡谷,オカヤマケン,ソウジャシ,オカダニ,岡山県総社市岡谷
7191163,岡山県,総社市,地頭片山,オカヤマケン,ソウジャシ,ジトウカタヤマ,岡山県総社市地頭片山
7191164,岡山県,総社市,西郡,オカヤマケン,ソウジャシ,ニシゴオリ,岡山県総社市西郡
7191165,岡山県,総社市,西坂台,オカヤマケン,ソウジャシ,ニシサカダイ,岡山県総社市西坂台
7191171,岡山県,総社市,清音三因,オカヤマケン,ソウジャシ,キヨネミヨリ,岡山県総社市清音三因
7191172,岡山県,総社市,清音軽部,オカヤマケン,ソウジャシ,キヨネカルベ,岡山県総社市清音軽部
7191173,岡山県,総社市,清音黒田,オカヤマケン,ソウジャシ,キヨネクロタ,岡山県総社市清音黒田
7191174,岡山県,総社市,清音古地,オカヤマケン,ソウジャシ,キヨネコチ,岡山県総社市清音古地
7191175,岡山県,総社市,清音上中島,オカヤマケン,ソウジャシ,キヨネカミナカシマ,岡山県総社市清音上中島
7191176,岡山県,総社市,清音柿木,オカヤマケン,ソウジャシ,キヨネカキノキ,岡山県総社市清音柿木
7191311,岡山県,総社市,美袋,オカヤマケン,ソウジャシ,ミナギ,岡山県総社市美袋
7191312,岡山県,総社市,種井,オカヤマケン,ソウジャシ,タネイ,岡山県総社市種井
7191313,岡山県,総社市,槁,オカヤマケン,ソウジャシ,ケヤキ,岡山県総社市槁
7191314,岡山県,総社市,延原,オカヤマケン,ソウジャシ,ノブハラ,岡山県総社市延原
7191315,岡山県,総社市,宇山,オカヤマケン,ソウジャシ,ウヤマ,岡山県総社市宇山
7191316,岡山県,総社市,日羽,オカヤマケン,ソウジャシ,ヒワ,岡山県総社市日羽
7191321,岡山県,総社市,下倉,オカヤマケン,ソウジャシ,シタグラ,岡山県総社市下倉
7191322,岡山県,総社市,影,オカヤマケン,ソウジャシ,カゲ,岡山県総社市影
7191323,岡山県,総社市,中尾,オカヤマケン,ソウジャシ,ナカオ,岡山県総社市中尾
7191324,岡山県,総社市,原,オカヤマケン,ソウジャシ,ハラ,岡山県総社市原
7192121,岡山県,高梁市,川面町,オカヤマケン,タカハシシ,カワモチョウ,岡山県高梁市川面町
7192122,岡山県,高梁市,高倉町田井,オカヤマケン,タカハシシ,タカクラチョウタイ,岡山県高梁市高倉町田井
7192123,岡山県,高梁市,高倉町飯部,オカヤマケン,タカハシシ,タカクラチョウイイベ,岡山県高梁市高倉町飯部
7192231,岡山県,高梁市,宇治町遠原,オカヤマケン,タカハシシ,ウジチョウトオバラ,岡山県高梁市宇治町遠原
7192232,岡山県,高梁市,宇治町宇治,オカヤマケン,タカハシシ,ウジチョウウジ,岡山県高梁市宇治町宇治
7192233,岡山県,高梁市,宇治町穴田,オカヤマケン,タカハシシ,ウジチョウアナダ,岡山県高梁市宇治町穴田
7192234,岡山県,高梁市,宇治町本郷,オカヤマケン,タカハシシ,ウジチョウホンゴウ,岡山県高梁市宇治町本郷
7192341,岡山県,高梁市,成羽町吹屋,オカヤマケン,タカハシシ,ナリワチョウフキヤ,岡山県高梁市成羽町吹屋
7192342,岡山県,高梁市,成羽町中野,オカヤマケン,タカハシシ,ナリワチョウナカノ,岡山県高梁市成羽町中野
7192343,岡山県,高梁市,成羽町坂本,オカヤマケン,タカハシシ,ナリワチョウサカモト,岡山県高梁市成羽町坂本
7192401,岡山県,高梁市,中井町津々,オカヤマケン,タカハシシ,ナカイチョウツツ,岡山県高梁市中井町津々
7192402,岡山県,高梁市,中井町西方,オカヤマケン,タカハシシ,ナカイチョウニシガタ,岡山県高梁市中井町西方
7192551,岡山県,新見市,井倉,オカヤマケン,ニイミシ,イクラ,岡山県新見市井倉
7192552,岡山県,新見市,法曽,オカヤマケン,ニイミシ,ホウソ,岡山県新見市法曽
7192641,岡山県,新見市,草間（その他）,オカヤマケン,ニイミシ,クサマ(ソノタ),岡山県新見市草間（その他）
7192642,岡山県,新見市,足見,オカヤマケン,ニイミシ,タルミ,岡山県新見市足見
7192643,岡山県,新見市,土橋（その他）,オカヤマケン,ニイミシ,ツチハシ(ソノタ),岡山県新見市土橋（その他）
7192721,岡山県,新見市,豊永赤馬,オカヤマケン,ニイミシ,トヨナガアコウマ,岡山県新見市豊永赤馬
7192722,岡山県,新見市,豊永佐伏,オカヤマケン,ニイミシ,トヨナガサブシ,岡山県新見市豊永佐伏
7192723,岡山県,新見市,豊永宇山,オカヤマケン,ニイミシ,トヨナガウヤマ,岡山県新見市豊永宇山
7192731,岡山県,新見市,土橋（落方、寺内）,オカヤマケン,ニイミシ,ツチハシ(オチカタ、テラウチ),岡山県新見市土橋（落方、寺内）
7192732,岡山県,新見市,草間（下湯川、横畑）,オカヤマケン,ニイミシ,クサマ(シモユカワ、ヨコハタ),岡山県新見市草間（下湯川、横畑）
7192801,岡山県,新見市,神郷釜村,オカヤマケン,ニイミシ,シンゴウカマムラ,岡山県新見市神郷釜村
7192802,岡山県,新見市,神郷高瀬,オカヤマケン,ニイミシ,シンゴウタカセ,岡山県新見市神郷高瀬
7193100,岡山県,真庭市,,オカヤマケン,マニワシ,,岡山県真庭市
7193101,岡山県,真庭市,赤野,オカヤマケン,マニワシ,アカノ,岡山県真庭市赤野
7193102,岡山県,真庭市,大庭,オカヤマケン,マニワシ,オオバ,岡山県真庭市大庭
7193103,岡山県,真庭市,古見,オカヤマケン,マニワシ,コミ,岡山県真庭市古見
7193104,岡山県,真庭市,田原,オカヤマケン,マニワシ,タハラ,岡山県真庭市田原
7193105,岡山県,真庭市,西原,オカヤマケン,マニワシ,ニシバラ,岡山県真庭市西原
7193106,岡山県,真庭市,野川,オカヤマケン,マニワシ,ノガワ,岡山県真庭市野川
7193107,岡山県,真庭市,平松,オカヤマケン,マニワシ,ヒラマツ,岡山県真庭市平松
7193111,岡山県,真庭市,開田,オカヤマケン,マニワシ,カイデ,岡山県真庭市開田
7193112,岡山県,真庭市,影,オカヤマケン,マニワシ,カゲ,岡山県真庭市影
7193113,岡山県,真庭市,杉山,オカヤマケン,マニワシ,スギヤマ,岡山県真庭市杉山
7193114,岡山県,真庭市,高屋,オカヤマケン,マニワシ,タカヤ,岡山県真庭市高屋
7193115,岡山県,真庭市,中,オカヤマケン,マニワシ,ナカ,岡山県真庭市中
7193116,岡山県,真庭市,日名,オカヤマケン,マニワシ,ヒナ,岡山県真庭市日名
7193117,岡山県,真庭市,福田,オカヤマケン,マニワシ,フクダ,岡山県真庭市福田
7193121,岡山県,真庭市,上河内,オカヤマケン,マニワシ,カミゴウチ,岡山県真庭市上河内
7193122,岡山県,真庭市,下河内,オカヤマケン,マニワシ,シモゴウチ,岡山県真庭市下河内
7193123,岡山県,真庭市,下見,オカヤマケン,マニワシ,シモミ,岡山県真庭市下見
7193124,岡山県,真庭市,中河内,オカヤマケン,マニワシ,ナカゴウチ,岡山県真庭市中河内
7193125,岡山県,真庭市,法界寺,オカヤマケン,マニワシ,ホウカイジ,岡山県真庭市法界寺
7193126,岡山県,真庭市,向津矢,オカヤマケン,マニワシ,ムカツヤ,岡山県真庭市向津矢
7193131,岡山県,真庭市,上山,オカヤマケン,マニワシ,ウエヤマ,岡山県真庭市上山
7193132,岡山県,真庭市,田原山上,オカヤマケン,マニワシ,タハラサンジョウ,岡山県真庭市田原山上
7193133,岡山県,真庭市,旦土,オカヤマケン,マニワシ,ダンド,岡山県真庭市旦土
7193134,岡山県,真庭市,野原,オカヤマケン,マニワシ,ノハラ,岡山県真庭市野原
7193135,岡山県,真庭市,舞高,オカヤマケン,マニワシ,マイタカ,岡山県真庭市舞高
7193136,岡山県,真庭市,吉,オカヤマケン,マニワシ,ヨシ,岡山県真庭市吉
7193141,岡山県,真庭市,上市瀬,オカヤマケン,マニワシ,カミイチゼ,岡山県真庭市上市瀬
7193142,岡山県,真庭市,木山,オカヤマケン,マニワシ,キヤマ,岡山県真庭市木山
7193143,岡山県,真庭市,下市瀬,オカヤマケン,マニワシ,シモイチゼ,岡山県真庭市下市瀬
7193144,岡山県,真庭市,落合垂水,オカヤマケン,マニワシ,オチアイタルミ,岡山県真庭市落合垂水
7193145,岡山県,真庭市,西河内,オカヤマケン,マニワシ,ニシゴウチ,岡山県真庭市西河内
7193146,岡山県,真庭市,日野上,オカヤマケン,マニワシ,ヒノウエ,岡山県真庭市日野上
7193151,岡山県,真庭市,一色,オカヤマケン,マニワシ,イシキ,岡山県真庭市一色
7193152,岡山県,真庭市,鹿田,オカヤマケン,マニワシ,カツタ,岡山県真庭市鹿田
7193153,岡山県,真庭市,栗原,オカヤマケン,マニワシ,クリハラ,岡山県真庭市栗原
7193154,岡山県,真庭市,佐引,オカヤマケン,マニワシ,サビキ,岡山県真庭市佐引
7193155,岡山県,真庭市,下方,オカヤマケン,マニワシ,シモガタ,岡山県真庭市下方
7193156,岡山県,真庭市,関,オカヤマケン,マニワシ,セキ,岡山県真庭市関
7193157,岡山県,真庭市,別所,オカヤマケン,マニワシ,ベッシヨ,岡山県真庭市別所
7193201,岡山県,真庭市,久世,オカヤマケン,マニワシ,クセ,岡山県真庭市久世
7193202,岡山県,真庭市,中島,オカヤマケン,マニワシ,ナカシマ,岡山県真庭市中島
7193203,岡山県,真庭市,富尾,オカヤマケン,マニワシ,トミノオ,岡山県真庭市富尾
7193204,岡山県,真庭市,惣,オカヤマケン,マニワシ,ソウ,岡山県真庭市惣
7193205,岡山県,真庭市,草加部,オカヤマケン,マニワシ,クサカベ,岡山県真庭市草加部
7193206,岡山県,真庭市,神,オカヤマケン,マニワシ,コウ,岡山県真庭市神
7193211,岡山県,真庭市,樫西,オカヤマケン,マニワシ,カシニシ,岡山県真庭市樫西
7193212,岡山県,真庭市,三阪,オカヤマケン,マニワシ,ミサカ,岡山県真庭市三阪
7193213,岡山県,真庭市,多田,オカヤマケン,マニワシ,タダ,岡山県真庭市多田
7193214,岡山県,真庭市,鍋屋,オカヤマケン,マニワシ,ナベヤ,岡山県真庭市鍋屋
7193221,岡山県,真庭市,余野上,オカヤマケン,マニワシ,ヨノカミ,岡山県真庭市余野上
7193222,岡山県,真庭市,余野下,オカヤマケン,マニワシ,ヨノシモ,岡山県真庭市余野下
7193223,岡山県,真庭市,樫東,オカヤマケン,マニワシ,カシヒガシ,岡山県真庭市樫東
7193224,岡山県,真庭市,目木,オカヤマケン,マニワシ,メキ,岡山県真庭市目木
7193225,岡山県,真庭市,中原,オカヤマケン,マニワシ,ナカバラ,岡山県真庭市中原
7193226,岡山県,真庭市,三崎,オカヤマケン,マニワシ,ミサキ,岡山県真庭市三崎
7193227,岡山県,真庭市,台金屋,オカヤマケン,マニワシ,ダイカナヤ,岡山県真庭市台金屋
7193228,岡山県,真庭市,五反,オカヤマケン,マニワシ,ゴタン,岡山県真庭市五反
7193501,岡山県,新見市,大佐大井野,オカヤマケン,ニイミシ,オオサオオイノ,岡山県新見市大佐大井野
7193502,岡山県,新見市,大佐上刑部,オカヤマケン,ニイミシ,オオサカミオサカベ,岡山県新見市大佐上刑部
7193503,岡山県,新見市,大佐小阪部,オカヤマケン,ニイミシ,オオサオサカベ,岡山県新見市大佐小阪部
7193504,岡山県,新見市,大佐永富,オカヤマケン,ニイミシ,オオサナガドミ,岡山県新見市大佐永富
7193505,岡山県,新見市,大佐布瀬,オカヤマケン,ニイミシ,オオサフセ,岡山県新見市大佐布瀬
7193506,岡山県,新見市,大佐田治部,オカヤマケン,ニイミシ,オオサタジベ,岡山県新見市大佐田治部
7193507,岡山県,新見市,大佐小南,オカヤマケン,ニイミシ,オオサコミナミ,岡山県新見市大佐小南
7193611,岡山県,新見市,神郷下神代,オカヤマケン,ニイミシ,シンゴウシモコウジロ,岡山県新見市神郷下神代
7193612,岡山県,新見市,神郷油野,オカヤマケン,ニイミシ,シンゴウユノ,岡山県新見市神郷油野
7193701,岡山県,新見市,哲西町矢田,オカヤマケン,ニイミシ,テッセイチョウヤダ,岡山県新見市哲西町矢田
7193702,岡山県,新見市,哲西町上神代,オカヤマケン,ニイミシ,テッセイチョウカミコウジロ,岡山県新見市哲西町上神代
7193811,岡山県,新見市,哲西町大竹,オカヤマケン,ニイミシ,テッセイチョウオオタケ,岡山県新見市哲西町大竹
7193812,岡山県,新見市,哲西町畑木,オカヤマケン,ニイミシ,テッセイチョウハタキ,岡山県新見市哲西町畑木
7193813,岡山県,新見市,哲西町八鳥,オカヤマケン,ニイミシ,テッセイチョウハットリ,岡山県新見市哲西町八鳥
7193814,岡山県,新見市,哲西町大野部,オカヤマケン,ニイミシ,テッセイチョウオオノベ,岡山県新見市哲西町大野部
