zipcode,prefecture_name,city,town,prefecture_kana,city_kana,town_kana,normalized_address
7200001,広島県,福山市,御幸町上岩成,ヒロシマケン,フクヤマシ,ミユキチョウカミイワナリ,広島県福山市御幸町上岩成
7200002,広島県,福山市,御幸町下岩成,ヒロシマケン,フクヤマシ,ミユキチョウシモイワナリ,広島県福山市御幸町下岩成
7200003,広島県,福山市,御幸町森脇,ヒロシマケン,フクヤマシ,ミユキチョウモリワケ,広島県福山市御幸町森脇
7200004,広島県,福山市,御幸町中津原,ヒロシマケン,フクヤマシ,ミユキチョウナカツハラ,広島県福山市御幸町中津原
7200011,広島県,福山市,横尾町,ヒロシマケン,フクヤマシ,ヨコオチョウ,広島県福山市横尾町
7200013,広島県,福山市,千田町千田,ヒロシマケン,フクヤマシ,センダチョウセンダ,広島県福山市千田町千田
7200014,広島県,福山市,千田町薮路,ヒロシマケン,フクヤマシ,センダチョウヤブロ,広島県福山市千田町薮路
7200015,広島県,福山市,千田町坂田,ヒロシマケン,フクヤマシ,センダチョウサカタ,広島県福山市千田町坂田
7200016,広島県,福山市,千田町坂田北,ヒロシマケン,フクヤマシ,センダチョウサカタキタ,広島県福山市千田町坂田北
7200017,広島県,福山市,千田町,ヒロシマケン,フクヤマシ,センダチョウ,広島県福山市千田町
7200021,広島県,福山市,緑陽町,ヒロシマケン,フクヤマシ,リョクヨウチョウ,広島県福山市緑陽町
7200022,広島県,福山市,奈良津町,ヒロシマケン,フクヤマシ,ナラヅチョウ,広島県福山市奈良津町
7200023,広島県,福山市,北美台,ヒロシマケン,フクヤマシ,キタミダイ,広島県福山市北美台
7200024,広島県,福山市,高美台,ヒロシマケン,フクヤマシ,タカミダイ,広島県福山市高美台
7200025,広島県,福山市,清水ケ丘,ヒロシマケン,フクヤマシ,シミズガオカ,広島県福山市清水ケ丘
7200031,広島県,福山市,三吉町,ヒロシマケン,フクヤマシ,ミヨシチョウ,広島県福山市三吉町
7200032,広島県,福山市,三吉町南,ヒロシマケン,フクヤマシ,ミヨシチョウミナミ,広島県福山市三吉町南
7200033,広島県,福山市,旭町,ヒロシマケン,フクヤマシ,アサヒマチ,広島県福山市旭町
7200034,広島県,福山市,若松町,ヒロシマケン,フクヤマシ,ワカマツチョウ,広島県福山市若松町
7200041,広島県,福山市,寺町,ヒロシマケン,フクヤマシ,テラマチ,広島県福山市寺町
7200042,広島県,福山市,御船町,ヒロシマケン,フクヤマシ,ミフネチョウ,広島県福山市御船町
7200043,広島県,福山市,船町,ヒロシマケン,フクヤマシ,フナマチ,広島県福山市船町
7200044,広島県,福山市,笠岡町,ヒロシマケン,フクヤマシ,カサオカマチ,広島県福山市笠岡町
7200045,広島県,福山市,宝町,ヒロシマケン,フクヤマシ,タカラマチ,広島県福山市宝町
7200046,広島県,福山市,今町,ヒロシマケン,フクヤマシ,イママチ,広島県福山市今町
7200051,広島県,福山市,桜馬場町,ヒロシマケン,フクヤマシ,サクラババチョウ,広島県福山市桜馬場町
7200052,広島県,福山市,東町,ヒロシマケン,フクヤマシ,ヒガシマチ,広島県福山市東町
7200053,広島県,福山市,大黒町,ヒロシマケン,フクヤマシ,ダイコクマチ,広島県福山市大黒町
7200054,広島県,福山市,城見町,ヒロシマケン,フクヤマシ,シロミチョウ,広島県福山市城見町
7200055,広島県,福山市,胡町,ヒロシマケン,フクヤマシ,エビスマチ,広島県福山市胡町
7200056,広島県,福山市,本町,ヒロシマケン,フクヤマシ,ホンマチ,広島県福山市本町
7200061,広島県,福山市,丸之内,ヒロシマケン,フクヤマシ,マルノウチ,広島県福山市丸之内
7200062,広島県,福山市,伏見町,ヒロシマケン,フクヤマシ,フシミチョウ,広島県福山市伏見町
7200063,広島県,福山市,元町,ヒロシマケン,フクヤマシ,モトマチ,広島県福山市元町
7200064,広島県,福山市,延広町,ヒロシマケン,フクヤマシ,ノブヒロチョウ,広島県福山市延広町
7200065,広島県,福山市,東桜町,ヒロシマケン,フクヤマシ,ヒガシサクラマチ,広島県福山市東桜町
7200066,広島県,福山市,三之丸町,ヒロシマケン,フクヤマシ,サンノマルチョウ,広島県福山市三之丸町
7200067,広島県,福山市,西町,ヒロシマケン,フクヤマシ,ニシマチ,広島県福山市西町
7200071,広島県,福山市,東吉津町,ヒロシマケン,フクヤマシ,ヒガシヨシヅチョウ,広島県福山市東吉津町
7200072,広島県,福山市,吉津町,ヒロシマケン,フクヤマシ,ヨシヅチョウ,広島県福山市吉津町
7200073,広島県,福山市,北吉津町,ヒロシマケン,フクヤマシ,キタヨシヅチョウ,広島県福山市北吉津町
7200074,広島県,福山市,北本庄,ヒロシマケン,フクヤマシ,キタホンジョウ,広島県福山市北本庄
7200075,広島県,福山市,長者町,ヒロシマケン,フクヤマシ,チョウジャマチ,広島県福山市長者町
7200076,広島県,福山市,本庄町中,ヒロシマケン,フクヤマシ,ホンジョウチョウナカ,広島県福山市本庄町中
7200077,広島県,福山市,南本庄,ヒロシマケン,フクヤマシ,ミナミホンジョウ,広島県福山市南本庄
7200081,広島県,福山市,向陽町,ヒロシマケン,フクヤマシ,コウヨウチョウ,広島県福山市向陽町
7200082,広島県,福山市,木之庄町,ヒロシマケン,フクヤマシ,キノショウチョウ,広島県福山市木之庄町
7200083,広島県,福山市,久松台,ヒロシマケン,フクヤマシ,ヒサマツダイ,広島県福山市久松台
7200091,広島県,福山市,神島町,ヒロシマケン,フクヤマシ,カシマチョウ,広島県福山市神島町
7200092,広島県,福山市,山手町,ヒロシマケン,フクヤマシ,ヤマテチョウ,広島県福山市山手町
7200093,広島県,福山市,郷分町,ヒロシマケン,フクヤマシ,ゴウブンチョウ,広島県福山市郷分町
7200201,広島県,福山市,鞆町鞆,ヒロシマケン,フクヤマシ,トモチョウトモ,広島県福山市鞆町鞆
7200202,広島県,福山市,鞆町後地,ヒロシマケン,フクヤマシ,トモチョウウシロジ,広島県福山市鞆町後地
7200203,広島県,福山市,田尻町,ヒロシマケン,フクヤマシ,タジリチョウ,広島県福山市田尻町
7200204,広島県,福山市,走島町,ヒロシマケン,フクヤマシ,ハシリジマチョウ,広島県福山市走島町
7200311,広島県,福山市,沼隈町草深,ヒロシマケン,フクヤマシ,ヌマクマチョウクサブカ,広島県福山市沼隈町草深
7200312,広島県,福山市,沼隈町能登原,ヒロシマケン,フクヤマシ,ヌマクマチョウノトハラ,広島県福山市沼隈町能登原
7200313,広島県,福山市,沼隈町常石,ヒロシマケン,フクヤマシ,ヌマクマチョウツネイシ,広島県福山市沼隈町常石
7200401,広島県,福山市,沼隈町上山南,ヒロシマケン,フクヤマシ,ヌマクマチョウカミサンナ,広島県福山市沼隈町上山南
7200402,広島県,福山市,沼隈町中山南,ヒロシマケン,フクヤマシ,ヌマクマチョウナカサンナ,広島県福山市沼隈町中山南
7200403,広島県,福山市,沼隈町下山南,ヒロシマケン,フクヤマシ,ヌマクマチョウシモサンナ,広島県福山市沼隈町下山南
7200411,広島県,福山市,熊野町,ヒロシマケン,フクヤマシ,クマノチョウ,広島県福山市熊野町
7200541,広島県,福山市,金江町金見,ヒロシマケン,フクヤマシ,カナエチョウカナミ,広島県福山市金江町金見
7200542,広島県,福山市,金江町藁江,ヒロシマケン,フクヤマシ,カナエチョウワラエ,広島県福山市金江町藁江
7200543,広島県,福山市,藤江町,ヒロシマケン,フクヤマシ,フジエチョウ,広島県福山市藤江町
7200551,広島県,尾道市,浦崎町,ヒロシマケン,オノミチシ,ウラサキチョウ,広島県尾道市浦崎町
7200801,広島県,福山市,入船町,ヒロシマケン,フクヤマシ,イリフネチョウ,広島県福山市入船町
7200802,広島県,福山市,松浜町,ヒロシマケン,フクヤマシ,マツハマチョウ,広島県福山市松浜町
7200803,広島県,福山市,花園町,ヒロシマケン,フクヤマシ,ハナゾノチョウ,広島県福山市花園町
7200804,広島県,福山市,緑町,ヒロシマケン,フクヤマシ,ミドリマチ,広島県福山市緑町
7200805,広島県,福山市,御門町,ヒロシマケン,フクヤマシ,ミカドチョウ,広島県福山市御門町
7200806,広島県,福山市,南町,ヒロシマケン,フクヤマシ,ミナミマチ,広島県福山市南町
7200807,広島県,福山市,明治町,ヒロシマケン,フクヤマシ,メイジチョウ,広島県福山市明治町
7200808,広島県,福山市,昭和町,ヒロシマケン,フクヤマシ,ショウワチョウ,広島県福山市昭和町
7200809,広島県,福山市,住吉町,ヒロシマケン,フクヤマシ,スミヨシチョウ,広島県福山市住吉町
7200811,広島県,福山市,紅葉町,ヒロシマケン,フクヤマシ,モミジチョウ,広島県福山市紅葉町
7200812,広島県,福山市,霞町,ヒロシマケン,フクヤマシ,カスミチョウ,広島県福山市霞町
7200813,広島県,福山市,道三町,ヒロシマケン,フクヤマシ,ドウサンチョウ,広島県福山市道三町
7200814,広島県,福山市,光南町,ヒロシマケン,フクヤマシ,コウナンチョウ,広島県福山市光南町
7200815,広島県,福山市,野上町,ヒロシマケン,フクヤマシ,ノガミチョウ,広島県福山市野上町
7200816,広島県,福山市,地吹町,ヒロシマケン,フクヤマシ,ジブキチョウ,広島県福山市地吹町
7200817,広島県,福山市,古野上町,ヒロシマケン,フクヤマシ,フルノガミチョウ,広島県福山市古野上町
7200818,広島県,福山市,西桜町,ヒロシマケン,フクヤマシ,ニシサクラマチ,広島県福山市西桜町
7200821,広島県,福山市,東川口町,ヒロシマケン,フクヤマシ,ヒガシカワグチチョウ,広島県福山市東川口町
7200822,広島県,福山市,川口町,ヒロシマケン,フクヤマシ,カワグチチョウ,広島県福山市川口町
7200823,広島県,福山市,千代田町,ヒロシマケン,フクヤマシ,チヨダチョウ,広島県福山市千代田町
7200824,広島県,福山市,多治米町,ヒロシマケン,フクヤマシ,タジメチョウ,広島県福山市多治米町
7200825,広島県,福山市,沖野上町,ヒロシマケン,フクヤマシ,オキノガミチョウ,広島県福山市沖野上町
7200831,広島県,福山市,草戸町,ヒロシマケン,フクヤマシ,クサドチョウ,広島県福山市草戸町
7200832,広島県,福山市,水呑町,ヒロシマケン,フクヤマシ,ミノミチョウ,広島県福山市水呑町
7200833,広島県,福山市,水呑向丘,ヒロシマケン,フクヤマシ,ミノミムカイガオカ,広島県福山市水呑向丘
7200834,広島県,福山市,明王台,ヒロシマケン,フクヤマシ,ミョウオウダイ,広島県福山市明王台
7200835,広島県,福山市,佐波町,ヒロシマケン,フクヤマシ,サバチョウ,広島県福山市佐波町
7200836,広島県,福山市,瀬戸町長和,ヒロシマケン,フクヤマシ,セトチョウナガワ,広島県福山市瀬戸町長和
7200837,広島県,福山市,瀬戸町地頭分,ヒロシマケン,フクヤマシ,セトチョウジトウブ,広島県福山市瀬戸町地頭分
7200838,広島県,福山市,瀬戸町山北,ヒロシマケン,フクヤマシ,セトチョウサボク,広島県福山市瀬戸町山北
7200839,広島県,福山市,東明王台,ヒロシマケン,フクヤマシ,ヒガシミョウオウダイ,広島県福山市東明王台
7200841,広島県,福山市,津之郷町津之郷,ヒロシマケン,フクヤマシ,ツノゴウチョウツノゴウ,広島県福山市津之郷町津之郷
7200842,広島県,福山市,津之郷町加屋,ヒロシマケン,フクヤマシ,ツノゴウチョウカヤ,広島県福山市津之郷町加屋
7200843,広島県,福山市,赤坂町赤坂,ヒロシマケン,フクヤマシ,アカサカチョウアカサカ,広島県福山市赤坂町赤坂
7200844,広島県,福山市,赤坂町早戸,ヒロシマケン,フクヤマシ,アカサカチョウハヤト,広島県福山市赤坂町早戸
7200845,広島県,福山市,芦田町福田（３７６−１０「聖宝寺」）,ヒロシマケン,フクヤマシ,アシダチョウフクダ(376-10<セイホウジ>),広島県福山市芦田町福田（376-10「聖宝寺」）
7201131,広島県,福山市,駅家町万能倉,ヒロシマケン,フクヤマシ,エキヤチョウマナグラ,広島県福山市駅家町万能倉
7201132,広島県,福山市,駅家町倉光,ヒロシマケン,フクヤマシ,エキヤチョウクラミツ,広島県福山市駅家町倉光
7201133,広島県,福山市,駅家町近田,ヒロシマケン,フクヤマシ,エキヤチョウチカタ,広島県福山市駅家町近田
7201134,広島県,福山市,駅家町中島,ヒロシマケン,フクヤマシ,エキヤチョウナカシマ,広島県福山市駅家町中島
7201135,広島県,福山市,駅家町弥生ケ丘,ヒロシマケン,フクヤマシ,エキヤチョウヤヨイガオカ,広島県福山市駅家町弥生ケ丘
7201141,広島県,福山市,駅家町江良,ヒロシマケン,フクヤマシ,エキヤチョウエラ,広島県福山市駅家町江良
7201142,広島県,福山市,駅家町上山守,ヒロシマケン,フクヤマシ,エキヤチョウカミヤマモリ,広島県福山市駅家町上山守
7201143,広島県,福山市,駅家町下山守,ヒロシマケン,フクヤマシ,エキヤチョウシモヤマモリ,広島県福山市駅家町下山守
7201144,広島県,福山市,駅家町坊寺,ヒロシマケン,フクヤマシ,エキヤチョウボウジ,広島県福山市駅家町坊寺
7201145,広島県,福山市,駅家町今岡,ヒロシマケン,フクヤマシ,エキヤチョウイマオカ,広島県福山市駅家町今岡
7201146,広島県,福山市,駅家町大橋,ヒロシマケン,フクヤマシ,エキヤチョウオオハシ,広島県福山市駅家町大橋
7201147,広島県,福山市,駅家町向永谷,ヒロシマケン,フクヤマシ,エキヤチョウムカイナガタニ,広島県福山市駅家町向永谷
7201261,広島県,福山市,芦田町上有地,ヒロシマケン,フクヤマシ,アシダチョウカミアルジ,広島県福山市芦田町上有地
7201262,広島県,福山市,芦田町下有地,ヒロシマケン,フクヤマシ,アシダチョウシモアルジ,広島県福山市芦田町下有地
7201263,広島県,福山市,芦田町柞磨,ヒロシマケン,フクヤマシ,アシダチョウタルマ,広島県福山市芦田町柞磨
7201264,広島県,福山市,芦田町福田（３７６−１０を除く）,ヒロシマケン,フクヤマシ,アシダチョウフクダ(376-10ヲノゾク),広島県福山市芦田町福田（376-10を除く）
7201265,広島県,福山市,芦田町向陽台,ヒロシマケン,フクヤマシ,アシダチョウコウヨウダイ,広島県福山市芦田町向陽台
7201410,広島県,神石郡神石高原町,高蓋,ヒロシマケン,ジンセキグンジンセキコウゲンチョウ,タカフタ,広島県神石郡神石高原町高蓋
7201411,広島県,神石郡神石高原町,光信,ヒロシマケン,ジンセキグンジンセキコウゲンチョウ,ミツノブ,広島県神石郡神石高原町光信
7201412,広島県,神石郡神石高原町,光末,ヒロシマケン,ジンセキグンジンセキコウゲンチョウ,ミツスエ,広島県神石郡神石高原町光末
7201413,広島県,神石郡神石高原町,父木野,ヒロシマケン,ジンセキグンジンセキコウゲンチョウ,チチキノ,広島県神石郡神石高原町父木野
7201414,広島県,神石郡神石高原町,桑木,ヒロシマケン,ジンセキグンジンセキコウゲンチョウ,クワギ,広島県神石郡神石高原町桑木
7201415,広島県,神石郡神石高原町,階見,ヒロシマケン,ジンセキグンジンセキコウゲンチョウ,シナミ,広島県神石郡神石高原町階見
7201416,広島県,神石郡神石高原町,木津和,ヒロシマケン,ジンセキグンジンセキコウゲンチョウ,キツワ,広島県神石郡神石高原町木津和
7201521,広島県,神石郡神石高原町,阿下,ヒロシマケン,ジンセキグンジンセキコウゲンチョウ,アゲ,広島県神石郡神石高原町阿下
7201522,広島県,神石郡神石高原町,小畠,ヒロシマケン,ジンセキグンジンセキコウゲンチョウ,コバタケ,広島県神石郡神石高原町小畠
7201523,広島県,神石郡神石高原町,亀石,ヒロシマケン,ジンセキグンジンセキコウゲンチョウ,カメイシ,広島県神石郡神石高原町亀石
7201524,広島県,神石郡神石高原町,常光,ヒロシマケン,ジンセキグンジンセキコウゲンチョウ,ツネミツ,広島県神石郡神石高原町常光
7201525,広島県,神石郡神石高原町,上,ヒロシマケン,ジンセキグンジンセキコウゲンチョウ,カミ,広島県神石郡神石高原町上
7201601,広島県,神石郡神石高原町,大矢,ヒロシマケン,ジンセキグンジンセキコウゲンチョウ,オオヤ,広島県神石郡神石高原町大矢
7201602,広島県,神石郡神石高原町,井関,ヒロシマケン,ジンセキグンジンセキコウゲンチョウ,イセキ,広島県神石郡神石高原町井関
7201603,広島県,神石郡神石高原町,時安,ヒロシマケン,ジンセキグンジンセキコウゲンチョウ,トキヤス,広島県神石郡神石高原町時安
7201604,広島県,神石郡神石高原町,坂瀬川,ヒロシマケン,ジンセキグンジンセキコウゲンチョウ,サカセガワ,広島県神石郡神石高原町坂瀬川
7201621,広島県,神石郡神石高原町,李,ヒロシマケン,ジンセキグンジンセキコウゲンチョウ,スモモ,広島県神石郡神石高原町李
7201622,広島県,神石郡神石高原町,近田,ヒロシマケン,ジンセキグンジンセキコウゲンチョウ,チカダ,広島県神石郡神石高原町近田
7201623,広島県,神石郡神石高原町,花済,ヒロシマケン,ジンセキグンジンセキコウゲンチョウ,ハナズミ,広島県神石郡神石高原町花済
7201624,広島県,神石郡神石高原町,上野,ヒロシマケン,ジンセキグンジンセキコウゲンチョウ,ウエノ,広島県神石郡神石高原町上野
7201701,広島県,神石郡神石高原町,有木,ヒロシマケン,ジンセキグンジンセキコウゲンチョウ,アルギ,広島県神石郡神石高原町有木
7201702,広島県,神石郡神石高原町,上豊松,ヒロシマケン,ジンセキグンジンセキコウゲンチョウ,カミトヨマツ,広島県神石郡神石高原町上豊松
7201703,広島県,神石郡神石高原町,笹尾,ヒロシマケン,ジンセキグンジンセキコウゲンチョウ,ササオ,広島県神石郡神石高原町笹尾
7201704,広島県,神石郡神石高原町,下豊松,ヒロシマケン,ジンセキグンジンセキコウゲンチョウ,シモトヨマツ,広島県神石郡神石高原町下豊松
7201705,広島県,神石郡神石高原町,中平,ヒロシマケン,ジンセキグンジンセキコウゲンチョウ,ナカダイラ,広島県神石郡神石高原町中平
7201800,広島県,神石郡神石高原町,,ヒロシマケン,ジンセキグンジンセキコウゲンチョウ,,広島県神石郡神石高原町
7201811,広島県,神石郡神石高原町,安田,ヒロシマケン,ジンセキグンジンセキコウゲンチョウ,ヤスダ,広島県神石郡神石高原町安田
7201812,広島県,神石郡神石高原町,油木,ヒロシマケン,ジンセキグンジンセキコウゲンチョウ,ユキ,広島県神石郡神石高原町油木
7201901,広島県,神石郡神石高原町,小野,ヒロシマケン,ジンセキグンジンセキコウゲンチョウ,オノ,広島県神石郡神石高原町小野
7201902,広島県,神石郡神石高原町,新免,ヒロシマケン,ジンセキグンジンセキコウゲンチョウ,シンメン,広島県神石郡神石高原町新免
7202101,広島県,福山市,神辺町三谷,ヒロシマケン,フクヤマシ,カンナベチョウミタニ,広島県福山市神辺町三谷
7202102,広島県,福山市,神辺町東中条,ヒロシマケン,フクヤマシ,カンナベチョウヒガシチュウジョウ,広島県福山市神辺町東中条
7202103,広島県,福山市,神辺町西中条,ヒロシマケン,フクヤマシ,カンナベチョウニシチュウジョウ,広島県福山市神辺町西中条
7202104,広島県,福山市,神辺町道上,ヒロシマケン,フクヤマシ,カンナベチョウミチノウエ,広島県福山市神辺町道上
7202105,広島県,福山市,神辺町十三軒屋,ヒロシマケン,フクヤマシ,カンナベチョウジュウサンゲンヤ,広島県福山市神辺町十三軒屋
7202106,広島県,福山市,神辺町十九軒屋,ヒロシマケン,フクヤマシ,カンナベチョウジュウクケンヤ,広島県福山市神辺町十九軒屋
7202107,広島県,福山市,神辺町新道上,ヒロシマケン,フクヤマシ,カンナベチョウシンミチノウエ,広島県福山市神辺町新道上
7202108,広島県,福山市,神辺町新十九,ヒロシマケン,フクヤマシ,カンナベチョウシンジュウク,広島県福山市神辺町新十九
7202111,広島県,福山市,神辺町上御領,ヒロシマケン,フクヤマシ,カンナベチョウカミゴリョウ,広島県福山市神辺町上御領
7202112,広島県,福山市,神辺町八尋,ヒロシマケン,フクヤマシ,カンナベチョウヤヒロ,広島県福山市神辺町八尋
7202113,広島県,福山市,神辺町旭丘,ヒロシマケン,フクヤマシ,カンナベチョウアサヒオカ,広島県福山市神辺町旭丘
7202114,広島県,福山市,神辺町上竹田,ヒロシマケン,フクヤマシ,カンナベチョウカミタケダ,広島県福山市神辺町上竹田
7202115,広島県,福山市,神辺町下竹田,ヒロシマケン,フクヤマシ,カンナベチョウシモタケダ,広島県福山市神辺町下竹田
7202116,広島県,福山市,神辺町平野,ヒロシマケン,フクヤマシ,カンナベチョウヒラノ,広島県福山市神辺町平野
7202117,広島県,福山市,神辺町下御領,ヒロシマケン,フクヤマシ,カンナベチョウシモゴリョウ,広島県福山市神辺町下御領
7202121,広島県,福山市,神辺町湯野,ヒロシマケン,フクヤマシ,カンナベチョウユノ,広島県福山市神辺町湯野
7202122,広島県,福山市,神辺町新湯野,ヒロシマケン,フクヤマシ,カンナベチョウシンユノ,広島県福山市神辺町新湯野
7202123,広島県,福山市,神辺町川北,ヒロシマケン,フクヤマシ,カンナベチョウカワキタ,広島県福山市神辺町川北
7202124,広島県,福山市,神辺町川南,ヒロシマケン,フクヤマシ,カンナベチョウカワミナミ,広島県福山市神辺町川南
7202125,広島県,福山市,神辺町新徳田,ヒロシマケン,フクヤマシ,カンナベチョウシントクダ,広島県福山市神辺町新徳田
7202126,広島県,福山市,神辺町徳田,ヒロシマケン,フクヤマシ,カンナベチョウトクダ,広島県福山市神辺町徳田
7202127,広島県,福山市,神辺町箱田,ヒロシマケン,フクヤマシ,カンナベチョウハコダ,広島県福山市神辺町箱田
7202410,広島県,福山市,加茂町八軒屋,ヒロシマケン,フクヤマシ,カモチョウハチケンヤ,広島県福山市加茂町八軒屋
7202412,広島県,福山市,加茂町下加茂,ヒロシマケン,フクヤマシ,カモチョウシモガモ,広島県福山市加茂町下加茂
7202413,広島県,福山市,駅家町法成寺,ヒロシマケン,フクヤマシ,エキヤチョウホウジョウジ,広島県福山市駅家町法成寺
7202414,広島県,福山市,加茂町百谷,ヒロシマケン,フクヤマシ,カモチョウモモダニ,広島県福山市加茂町百谷
7202415,広島県,福山市,加茂町北山,ヒロシマケン,フクヤマシ,カモチョウキタヤマ,広島県福山市加茂町北山
7202416,広島県,福山市,加茂町粟根,ヒロシマケン,フクヤマシ,カモチョウアワネ,広島県福山市加茂町粟根
7202417,広島県,福山市,加茂町芦原,ヒロシマケン,フクヤマシ,カモチョウアシワラ,広島県福山市加茂町芦原
7202418,広島県,福山市,加茂町中野,ヒロシマケン,フクヤマシ,カモチョウナカノ,広島県福山市加茂町中野
7202419,広島県,福山市,加茂町上加茂,ヒロシマケン,フクヤマシ,カモチョウカミガモ,広島県福山市加茂町上加茂
7202521,広島県,福山市,駅家町服部本郷,ヒロシマケン,フクヤマシ,エキヤチョウハットリホンゴウ,広島県福山市駅家町服部本郷
7202522,広島県,福山市,駅家町服部永谷,ヒロシマケン,フクヤマシ,エキヤチョウハットリナガタニ,広島県福山市駅家町服部永谷
7202523,広島県,福山市,駅家町新山,ヒロシマケン,フクヤマシ,エキヤチョウニイヤマ,広島県福山市駅家町新山
7202524,広島県,福山市,駅家町助元,ヒロシマケン,フクヤマシ,エキヤチョウスケモト,広島県福山市駅家町助元
7202525,広島県,福山市,駅家町雨木,ヒロシマケン,フクヤマシ,エキヤチョウアメギ,広島県福山市駅家町雨木
7202601,広島県,福山市,山野町矢川,ヒロシマケン,フクヤマシ,ヤマノチョウヤカワ,広島県福山市山野町矢川
7202602,広島県,福山市,山野町山野,ヒロシマケン,フクヤマシ,ヤマノチョウヤマノ,広島県福山市山野町山野
7210000,広島県,福山市,,ヒロシマケン,フクヤマシ,,広島県福山市
7210901,広島県,福山市,春日町宇山,ヒロシマケン,フクヤマシ,カスガチョウウヤマ,広島県福山市春日町宇山
7210902,広島県,福山市,春日町浦上,ヒロシマケン,フクヤマシ,カスガチョウウラカミ,広島県福山市春日町浦上
7210903,広島県,福山市,坪生町,ヒロシマケン,フクヤマシ,ツボウチョウ,広島県福山市坪生町
7210904,広島県,福山市,坪生町南,ヒロシマケン,フクヤマシ,ツボウチョウミナミ,広島県福山市坪生町南
7210906,広島県,福山市,能島,ヒロシマケン,フクヤマシ,ノウジマ,広島県福山市能島
7210907,広島県,福山市,春日町,ヒロシマケン,フクヤマシ,カスガチョウ,広島県福山市春日町
7210908,広島県,福山市,春日町吉田,ヒロシマケン,フクヤマシ,カスガチョウヨシダ,広島県福山市春日町吉田
7210911,広島県,福山市,青葉台,ヒロシマケン,フクヤマシ,アオバダイ,広島県福山市青葉台
7210912,広島県,福山市,東陽台,ヒロシマケン,フクヤマシ,トウヨウダイ,広島県福山市東陽台
7210913,広島県,福山市,幕山台,ヒロシマケン,フクヤマシ,マクヤマダイ,広島県福山市幕山台
7210914,広島県,福山市,大谷台,ヒロシマケン,フクヤマシ,オオタニダイ,広島県福山市大谷台
7210915,広島県,福山市,伊勢丘,ヒロシマケン,フクヤマシ,イセガオカ,広島県福山市伊勢丘
7210916,広島県,福山市,春日台,ヒロシマケン,フクヤマシ,カスガダイ,広島県福山市春日台
7210917,広島県,福山市,春日池,ヒロシマケン,フクヤマシ,カスガイケ,広島県福山市春日池
7210921,広島県,福山市,大門町大門,ヒロシマケン,フクヤマシ,ダイモンチョウダイモン,広島県福山市大門町大門
7210922,広島県,福山市,大門町日之出丘,ヒロシマケン,フクヤマシ,ダイモンチョウヒノデオカ,広島県福山市大門町日之出丘
7210923,広島県,福山市,大門町野々浜,ヒロシマケン,フクヤマシ,ダイモンチョウノノハマ,広島県福山市大門町野々浜
7210924,広島県,福山市,大門町旭,ヒロシマケン,フクヤマシ,ダイモンチョウアサヒ,広島県福山市大門町旭
7210925,広島県,福山市,大門町坂里,ヒロシマケン,フクヤマシ,ダイモンチョウサカリ,広島県福山市大門町坂里
7210926,広島県,福山市,大門町,ヒロシマケン,フクヤマシ,ダイモンチョウ,広島県福山市大門町
7210927,広島県,福山市,大門町津之下,ヒロシマケン,フクヤマシ,ダイモンチョウツノシタ,広島県福山市大門町津之下
7210929,広島県,福山市,城興ケ丘,ヒロシマケン,フクヤマシ,ジョウコウガオカ,広島県福山市城興ケ丘
7210931,広島県,福山市,鋼管町,ヒロシマケン,フクヤマシ,コウカンチョウ,広島県福山市鋼管町
7210941,広島県,福山市,引野町北,ヒロシマケン,フクヤマシ,ヒキノチョウキタ,広島県福山市引野町北
7210942,広島県,福山市,引野町,ヒロシマケン,フクヤマシ,ヒキノチョウ,広島県福山市引野町
7210943,広島県,福山市,平成台,ヒロシマケン,フクヤマシ,ヘイセイダイ,広島県福山市平成台
7210944,広島県,福山市,引野町東,ヒロシマケン,フクヤマシ,ヒキノチョウヒガシ,広島県福山市引野町東
7210945,広島県,福山市,引野町南,ヒロシマケン,フクヤマシ,ヒキノチョウミナミ,広島県福山市引野町南
7210951,広島県,福山市,新浜町,ヒロシマケン,フクヤマシ,シンハマチョウ,広島県福山市新浜町
7210952,広島県,福山市,曙町,ヒロシマケン,フクヤマシ,アケボノチョウ,広島県福山市曙町
7210953,広島県,福山市,一文字町,ヒロシマケン,フクヤマシ,イチモンジチョウ,広島県福山市一文字町
7210954,広島県,福山市,卸町,ヒロシマケン,フクヤマシ,オロシマチ,広島県福山市卸町
7210955,広島県,福山市,新涯町,ヒロシマケン,フクヤマシ,シンガイチョウ,広島県福山市新涯町
7210956,広島県,福山市,箕沖町,ヒロシマケン,フクヤマシ,ミノオキチョウ,広島県福山市箕沖町
7210957,広島県,福山市,箕島町,ヒロシマケン,フクヤマシ,ミノシマチョウ,広島県福山市箕島町
7210958,広島県,福山市,西新涯町,ヒロシマケン,フクヤマシ,ニシシンガイチョウ,広島県福山市西新涯町
7210961,広島県,福山市,明神町,ヒロシマケン,フクヤマシ,ミョウジンチョウ,広島県福山市明神町
7210962,広島県,福山市,東手城町,ヒロシマケン,フクヤマシ,ヒガシテシロチョウ,広島県福山市東手城町
7210963,広島県,福山市,南手城町,ヒロシマケン,フクヤマシ,ミナミテシロチョウ,広島県福山市南手城町
7210964,広島県,福山市,港町,ヒロシマケン,フクヤマシ,ミナトマチ,広島県福山市港町
7210965,広島県,福山市,王子町,ヒロシマケン,フクヤマシ,オウジチョウ,広島県福山市王子町
7210966,広島県,福山市,手城町,ヒロシマケン,フクヤマシ,テシロチョウ,広島県福山市手城町
7210971,広島県,福山市,蔵王町,ヒロシマケン,フクヤマシ,ザオウチョウ,広島県福山市蔵王町
7210972,広島県,福山市,日吉台,ヒロシマケン,フクヤマシ,ヒヨシダイ,広島県福山市日吉台
7210973,広島県,福山市,南蔵王町,ヒロシマケン,フクヤマシ,ミナミザオウチョウ,広島県福山市南蔵王町
7210974,広島県,福山市,東深津町,ヒロシマケン,フクヤマシ,ヒガシフカツチョウ,広島県福山市東深津町
7210975,広島県,福山市,西深津町,ヒロシマケン,フクヤマシ,ニシフカツチョウ,広島県福山市西深津町
7220000,広島県,尾道市,,ヒロシマケン,オノミチシ,,広島県尾道市
7220001,広島県,尾道市,手崎町,ヒロシマケン,オノミチシ,テサキチョウ,広島県尾道市手崎町
7220002,広島県,尾道市,古浜町,ヒロシマケン,オノミチシ,コハマチョウ,広島県尾道市古浜町
7220003,広島県,尾道市,東元町,ヒロシマケン,オノミチシ,ヒガシモトマチ,広島県尾道市東元町
7220004,広島県,尾道市,正徳町,ヒロシマケン,オノミチシ,ショウトクチョウ,広島県尾道市正徳町
7220005,広島県,尾道市,福地町,ヒロシマケン,オノミチシ,フクチチョウ,広島県尾道市福地町
7220006,広島県,尾道市,沖側町,ヒロシマケン,オノミチシ,オキガワチョウ,広島県尾道市沖側町
7220007,広島県,尾道市,吉和西元町,ヒロシマケン,オノミチシ,ヨシワニシモトマチ,広島県尾道市吉和西元町
7220008,広島県,尾道市,吉和町,ヒロシマケン,オノミチシ,ヨシワチョウ,広島県尾道市吉和町
7220011,広島県,尾道市,桜町,ヒロシマケン,オノミチシ,サクラマチ,広島県尾道市桜町
7220012,広島県,尾道市,潮見町,ヒロシマケン,オノミチシ,シオミチョウ,広島県尾道市潮見町
7220013,広島県,尾道市,日比崎町,ヒロシマケン,オノミチシ,ヒビザキチョウ,広島県尾道市日比崎町
7220014,広島県,尾道市,新浜,ヒロシマケン,オノミチシ,シンハマ,広島県尾道市新浜
7220015,広島県,尾道市,吉浦町,ヒロシマケン,オノミチシ,ヨシウラチョウ,広島県尾道市吉浦町
7220016,広島県,尾道市,神田町,ヒロシマケン,オノミチシ,カンダチョウ,広島県尾道市神田町
7220017,広島県,尾道市,門田町,ヒロシマケン,オノミチシ,モンデンチョウ,広島県尾道市門田町
7220018,広島県,尾道市,平原,ヒロシマケン,オノミチシ,ヒラハラ,広島県尾道市平原
7220021,広島県,尾道市,久山田町,ヒロシマケン,オノミチシ,ヒサヤマダチョウ,広島県尾道市久山田町
7220022,広島県,尾道市,栗原町,ヒロシマケン,オノミチシ,クリハラチョウ,広島県尾道市栗原町
7220023,広島県,尾道市,東則末町,ヒロシマケン,オノミチシ,ヒガシノリスエチョウ,広島県尾道市東則末町
7220024,広島県,尾道市,西則末町,ヒロシマケン,オノミチシ,ニシノリスエチョウ,広島県尾道市西則末町
7220025,広島県,尾道市,栗原東,ヒロシマケン,オノミチシ,クリハラヒガシ,広島県尾道市栗原東
7220026,広島県,尾道市,栗原西,ヒロシマケン,オノミチシ,クリハラニシ,広島県尾道市栗原西
7220031,広島県,尾道市,三軒家町,ヒロシマケン,オノミチシ,サンゲンヤチョウ,広島県尾道市三軒家町
7220032,広島県,尾道市,西土堂町,ヒロシマケン,オノミチシ,ニシツチドウチョウ,広島県尾道市西土堂町
7220033,広島県,尾道市,東土堂町,ヒロシマケン,オノミチシ,ヒガシツチドウチョウ,広島県尾道市東土堂町
7220034,広島県,尾道市,十四日元町,ヒロシマケン,オノミチシ,トヨヒモトマチ,広島県尾道市十四日元町
7220035,広島県,尾道市,土堂,ヒロシマケン,オノミチシ,ツチドウ,広島県尾道市土堂
7220036,広島県,尾道市,東御所町,ヒロシマケン,オノミチシ,ヒガシゴショチョウ,広島県尾道市東御所町
7220037,広島県,尾道市,西御所町,ヒロシマケン,オノミチシ,ニシゴショチョウ,広島県尾道市西御所町
7220038,広島県,尾道市,天満町,ヒロシマケン,オノミチシ,テンマチョウ,広島県尾道市天満町
7220041,広島県,尾道市,防地町,ヒロシマケン,オノミチシ,ボウジチョウ,広島県尾道市防地町
7220042,広島県,尾道市,久保町,ヒロシマケン,オノミチシ,クボチョウ,広島県尾道市久保町
7220043,広島県,尾道市,東久保町,ヒロシマケン,オノミチシ,ヒガシクボチョウ,広島県尾道市東久保町
7220044,広島県,尾道市,西久保町,ヒロシマケン,オノミチシ,ニシクボチョウ,広島県尾道市西久保町
7220045,広島県,尾道市,久保,ヒロシマケン,オノミチシ,クボ,広島県尾道市久保
7220046,広島県,尾道市,長江,ヒロシマケン,オノミチシ,ナガエ,広島県尾道市長江
7220047,広島県,尾道市,十四日町,ヒロシマケン,オノミチシ,トヨヒチョウ,広島県尾道市十四日町
7220051,広島県,尾道市,東尾道,ヒロシマケン,オノミチシ,ヒガシオノミチ,広島県尾道市東尾道
7220052,広島県,尾道市,山波町,ヒロシマケン,オノミチシ,サンバチョウ,広島県尾道市山波町
7220053,広島県,尾道市,尾崎町,ヒロシマケン,オノミチシ,オザキチョウ,広島県尾道市尾崎町
7220054,広島県,尾道市,尾崎本町,ヒロシマケン,オノミチシ,オザキホンマチ,広島県尾道市尾崎本町
7220055,広島県,尾道市,新高山,ヒロシマケン,オノミチシ,シンタカヤマ,広島県尾道市新高山
7220061,広島県,尾道市,百島町,ヒロシマケン,オノミチシ,モモシマチョウ,広島県尾道市百島町
7220062,広島県,尾道市,向東町,ヒロシマケン,オノミチシ,ムカイヒガシチョウ,広島県尾道市向東町
7220071,広島県,尾道市,向島町立花,ヒロシマケン,オノミチシ,ムカイシマチョウタチバナ,広島県尾道市向島町立花
7220072,広島県,尾道市,向島町岩子島,ヒロシマケン,オノミチシ,ムカイシマチョウイワシジマ,広島県尾道市向島町岩子島
7220073,広島県,尾道市,向島町,ヒロシマケン,オノミチシ,ムカイシマチョウ,広島県尾道市向島町
7220201,広島県,尾道市,原田町小原,ヒロシマケン,オノミチシ,ハラダチョウオバラ,広島県尾道市原田町小原
7220202,広島県,尾道市,原田町梶山田,ヒロシマケン,オノミチシ,ハラダチョウカジヤマダ,広島県尾道市原田町梶山田
7220211,広島県,尾道市,美ノ郷町中野,ヒロシマケン,オノミチシ,ミノゴウチョウナカノ,広島県尾道市美ノ郷町中野
7220212,広島県,尾道市,美ノ郷町本郷,ヒロシマケン,オノミチシ,ミノゴウチョウホンゴウ,広島県尾道市美ノ郷町本郷
7220213,広島県,尾道市,美ノ郷町白江,ヒロシマケン,オノミチシ,ミノゴウチョウシロエ,広島県尾道市美ノ郷町白江
7220214,広島県,尾道市,美ノ郷町猪子迫,ヒロシマケン,オノミチシ,ミノゴウチョウイノコザコ,広島県尾道市美ノ郷町猪子迫
7220215,広島県,尾道市,美ノ郷町三成,ヒロシマケン,オノミチシ,ミノゴウチョウミナリ,広島県尾道市美ノ郷町三成
7220221,広島県,尾道市,長者原,ヒロシマケン,オノミチシ,チョウジャバラ,広島県尾道市長者原
7220231,広島県,尾道市,木ノ庄町畑,ヒロシマケン,オノミチシ,キノショウチョウハタ,広島県尾道市木ノ庄町畑
7220232,広島県,尾道市,木ノ庄町木門田,ヒロシマケン,オノミチシ,キノショウチョウキモンデン,広島県尾道市木ノ庄町木門田
7220233,広島県,尾道市,木ノ庄町市原,ヒロシマケン,オノミチシ,キノショウチョウイチバラ,広島県尾道市木ノ庄町市原
7220234,広島県,尾道市,木ノ庄町木梨,ヒロシマケン,オノミチシ,キノショウチョウキナシ,広島県尾道市木ノ庄町木梨
7220235,広島県,尾道市,木ノ庄町木梨山方,ヒロシマケン,オノミチシ,キノショウチョウキナシヤマガタ,広島県尾道市木ノ庄町木梨山方
7220311,広島県,尾道市,御調町市,ヒロシマケン,オノミチシ,ミツギチョウイチ,広島県尾道市御調町市
7220312,広島県,尾道市,御調町貝ケ原,ヒロシマケン,オノミチシ,ミツギチョウカイガハラ,広島県尾道市御調町貝ケ原
7220313,広島県,尾道市,御調町平,ヒロシマケン,オノミチシ,ミツギチョウヒラ,広島県尾道市御調町平
7220314,広島県,尾道市,御調町大町,ヒロシマケン,オノミチシ,ミツギチョウオオマチ,広島県尾道市御調町大町
7220315,広島県,尾道市,御調町釜窪,ヒロシマケン,オノミチシ,ミツギチョウカマクボ,広島県尾道市御調町釜窪
7220316,広島県,尾道市,御調町花尻,ヒロシマケン,オノミチシ,ミツギチョウハナジリ,広島県尾道市御調町花尻
7220321,広島県,尾道市,御調町本,ヒロシマケン,オノミチシ,ミツギチョウホン,広島県尾道市御調町本
7220322,広島県,尾道市,御調町三郎丸,ヒロシマケン,オノミチシ,ミツギチョウサブロウマル,広島県尾道市御調町三郎丸
7220323,広島県,尾道市,御調町大蔵,ヒロシマケン,オノミチシ,ミツギチョウダイゾウ,広島県尾道市御調町大蔵
7220324,広島県,尾道市,御調町白太,ヒロシマケン,オノミチシ,ミツギチョウハカタ,広島県尾道市御調町白太
7220325,広島県,尾道市,御調町中原,ヒロシマケン,オノミチシ,ミツギチョウナカバラ,広島県尾道市御調町中原
7220326,広島県,尾道市,御調町岩根,ヒロシマケン,オノミチシ,ミツギチョウイワネ,広島県尾道市御調町岩根
7220331,広島県,尾道市,御調町仁野,ヒロシマケン,オノミチシ,ミツギチョウニノ,広島県尾道市御調町仁野
7220332,広島県,尾道市,御調町平木,ヒロシマケン,オノミチシ,ミツギチョウヒラギ,広島県尾道市御調町平木
7220333,広島県,尾道市,御調町大塔,ヒロシマケン,オノミチシ,ミツギチョウダイトウ,広島県尾道市御調町大塔
7220334,広島県,尾道市,御調町菅,ヒロシマケン,オノミチシ,ミツギチョウスゲ,広島県尾道市御調町菅
7220335,広島県,尾道市,御調町国守,ヒロシマケン,オノミチシ,ミツギチョウクニモリ,広島県尾道市御調町国守
7220336,広島県,尾道市,御調町江田,ヒロシマケン,オノミチシ,ミツギチョウエタ,広島県尾道市御調町江田
7220341,広島県,尾道市,御調町神,ヒロシマケン,オノミチシ,ミツギチョウカミ,広島県尾道市御調町神
7220342,広島県,尾道市,御調町大田,ヒロシマケン,オノミチシ,ミツギチョウオオダ,広島県尾道市御調町大田
7220343,広島県,尾道市,御調町丸河南,ヒロシマケン,オノミチシ,ミツギチョウマルカナン,広島県尾道市御調町丸河南
7220344,広島県,尾道市,御調町丸門田,ヒロシマケン,オノミチシ,ミツギチョウマルモンデン,広島県尾道市御調町丸門田
7220345,広島県,尾道市,御調町徳永,ヒロシマケン,オノミチシ,ミツギチョウトクナガ,広島県尾道市御調町徳永
7220351,広島県,尾道市,御調町大原,ヒロシマケン,オノミチシ,ミツギチョウオオバラ,広島県尾道市御調町大原
7220352,広島県,尾道市,御調町公文,ヒロシマケン,オノミチシ,ミツギチョウクモン,広島県尾道市御調町公文
7220353,広島県,尾道市,御調町高尾,ヒロシマケン,オノミチシ,ミツギチョウタカオ,広島県尾道市御調町高尾
7220354,広島県,尾道市,御調町綾目,ヒロシマケン,オノミチシ,ミツギチョウアヤメ,広島県尾道市御調町綾目
7220355,広島県,尾道市,御調町山岡,ヒロシマケン,オノミチシ,ミツギチョウヤマオカ,広島県尾道市御調町山岡
7220401,広島県,尾道市,御調町千堂,ヒロシマケン,オノミチシ,ミツギチョウセンドウ,広島県尾道市御調町千堂
7220402,広島県,尾道市,御調町下山田,ヒロシマケン,オノミチシ,ミツギチョウシモヤマダ,広島県尾道市御調町下山田
7220403,広島県,尾道市,御調町大山田,ヒロシマケン,オノミチシ,ミツギチョウオオヤマダ,広島県尾道市御調町大山田
7220411,広島県,世羅郡世羅町,宇津戸,ヒロシマケン,セラグンセラチョウ,ウヅト,広島県世羅郡世羅町宇津戸
7220431,広島県,府中市,諸毛町,ヒロシマケン,フチュウシ,モロケチョウ,広島県府中市諸毛町
7220432,広島県,府中市,小国町,ヒロシマケン,フチュウシ,オグニチョウ,広島県府中市小国町
7221100,広島県,世羅郡世羅町,,ヒロシマケン,セラグンセラチョウ,,広島県世羅郡世羅町
7221111,広島県,世羅郡世羅町,寺町,ヒロシマケン,セラグンセラチョウ,テラマチ,広島県世羅郡世羅町寺町
7221112,広島県,世羅郡世羅町,本郷,ヒロシマケン,セラグンセラチョウ,ホンゴウ,広島県世羅郡世羅町本郷
7221113,広島県,世羅郡世羅町,井折,ヒロシマケン,セラグンセラチョウ,イオリ,広島県世羅郡世羅町井折
7221114,広島県,世羅郡世羅町,東神崎,ヒロシマケン,セラグンセラチョウ,ヒガシカンザキ,広島県世羅郡世羅町東神崎
7221115,広島県,世羅郡世羅町,西神崎,ヒロシマケン,セラグンセラチョウ,ニシカンザキ,広島県世羅郡世羅町西神崎
7221116,広島県,世羅郡世羅町,青山,ヒロシマケン,セラグンセラチョウ,アオヤマ,広島県世羅郡世羅町青山
7221117,広島県,世羅郡世羅町,三郎丸,ヒロシマケン,セラグンセラチョウ,サブロウマル,広島県世羅郡世羅町三郎丸
7221121,広島県,世羅郡世羅町,西上原,ヒロシマケン,セラグンセラチョウ,ニシウエハラ,広島県世羅郡世羅町西上原
7221122,広島県,世羅郡世羅町,小世良,ヒロシマケン,セラグンセラチョウ,オゼラ,広島県世羅郡世羅町小世良
7221123,広島県,世羅郡世羅町,甲山,ヒロシマケン,セラグンセラチョウ,コウザン,広島県世羅郡世羅町甲山
7221201,広島県,世羅郡世羅町,戸張,ヒロシマケン,セラグンセラチョウ,トバリ,広島県世羅郡世羅町戸張
7221202,広島県,世羅郡世羅町,安田,ヒロシマケン,セラグンセラチョウ,ヤスダ,広島県世羅郡世羅町安田
7221203,広島県,世羅郡世羅町,徳市,ヒロシマケン,セラグンセラチョウ,トクイチ,広島県世羅郡世羅町徳市
7221204,広島県,世羅郡世羅町,京丸（石川、水の別）,ヒロシマケン,セラグンセラチョウ,キョウマル(イシカワ、ミズノワカレ),広島県世羅郡世羅町京丸（石川、水の別）
7221301,広島県,三原市,久井町莇原,ヒロシマケン,ミハラシ,クイチョウアゾウバラ,広島県三原市久井町莇原
7221302,広島県,三原市,久井町吉田,ヒロシマケン,ミハラシ,クイチョウヨシダ,広島県三原市久井町吉田
7221303,広島県,三原市,久井町下津,ヒロシマケン,ミハラシ,クイチョウシモツ,広島県三原市久井町下津
7221304,広島県,三原市,久井町江木,ヒロシマケン,ミハラシ,クイチョウエギ,広島県三原市久井町江木
7221401,広島県,三原市,本郷町船木（芋堀）,ヒロシマケン,ミハラシ,ホンゴウチョウフナキ(イモホリ),広島県三原市本郷町船木（芋堀）
7221411,広島県,三原市,久井町泉,ヒロシマケン,ミハラシ,クイチョウイズミ,広島県三原市久井町泉
7221412,広島県,三原市,久井町和草,ヒロシマケン,ミハラシ,クイチョウワソウ,広島県三原市久井町和草
7221413,広島県,三原市,久井町羽倉,ヒロシマケン,ミハラシ,クイチョウハグラ,広島県三原市久井町羽倉
7221414,広島県,三原市,久井町坂井原,ヒロシマケン,ミハラシ,クイチョウサカイバラ,広島県三原市久井町坂井原
7221415,広島県,三原市,久井町土取,ヒロシマケン,ミハラシ,クイチョウツチトリ,広島県三原市久井町土取
7221416,広島県,三原市,久井町山中野,ヒロシマケン,ミハラシ,クイチョウヤマナカノ,広島県三原市久井町山中野
7221417,広島県,三原市,久井町小林,ヒロシマケン,ミハラシ,クイチョウコバヤシ,広島県三原市久井町小林
7221501,広島県,三原市,八幡町垣内,ヒロシマケン,ミハラシ,ヤハタチョウカイチ,広島県三原市八幡町垣内
7221511,広島県,三原市,八幡町篝,ヒロシマケン,ミハラシ,ヤハタチョウカガリ,広島県三原市八幡町篝
7221512,広島県,三原市,八幡町野串,ヒロシマケン,ミハラシ,ヤハタチョウノグシ,広島県三原市八幡町野串
7221513,広島県,三原市,八幡町宮内,ヒロシマケン,ミハラシ,ヤハタチョウミヤウチ,広島県三原市八幡町宮内
7221514,広島県,三原市,八幡町屋中,ヒロシマケン,ミハラシ,ヤハタチョウヤナカ,広島県三原市八幡町屋中
7221515,広島県,三原市,八幡町美生,ヒロシマケン,ミハラシ,ヤハタチョウミノウ,広島県三原市八幡町美生
7221516,広島県,三原市,八幡町本庄,ヒロシマケン,ミハラシ,ヤハタチョウホンジョウ,広島県三原市八幡町本庄
7221561,広島県,尾道市,御調町福井,ヒロシマケン,オノミチシ,ミツギチョウフクイ,広島県尾道市御調町福井
7221562,広島県,尾道市,御調町津蟹,ヒロシマケン,オノミチシ,ミツギチョウツガニ,広島県尾道市御調町津蟹
7221563,広島県,尾道市,御調町植野,ヒロシマケン,オノミチシ,ミツギチョウウエノ,広島県尾道市御調町植野
7221564,広島県,尾道市,御調町今田,ヒロシマケン,オノミチシ,ミツギチョウイマダ,広島県尾道市御調町今田
7221565,広島県,尾道市,御調町野間,ヒロシマケン,オノミチシ,ミツギチョウノマ,広島県尾道市御調町野間
7221621,広島県,世羅郡世羅町,京丸（その他）,ヒロシマケン,セラグンセラチョウ,キョウマル(ソノタ),広島県世羅郡世羅町京丸（その他）
7221622,広島県,世羅郡世羅町,堀越,ヒロシマケン,セラグンセラチョウ,ホリコシ,広島県世羅郡世羅町堀越
7221623,広島県,世羅郡世羅町,中原,ヒロシマケン,セラグンセラチョウ,ナカバラ,広島県世羅郡世羅町中原
7221624,広島県,世羅郡世羅町,田打,ヒロシマケン,セラグンセラチョウ,トウチ,広島県世羅郡世羅町田打
7221625,広島県,世羅郡世羅町,重永,ヒロシマケン,セラグンセラチョウ,シゲナガ,広島県世羅郡世羅町重永
7221626,広島県,世羅郡世羅町,賀茂,ヒロシマケン,セラグンセラチョウ,カモ,広島県世羅郡世羅町賀茂
7221627,広島県,世羅郡世羅町,青水,ヒロシマケン,セラグンセラチョウ,アオミズ,広島県世羅郡世羅町青水
7221701,広島県,世羅郡世羅町,小国,ヒロシマケン,セラグンセラチョウ,オグニ,広島県世羅郡世羅町小国
7221702,広島県,世羅郡世羅町,山中福田,ヒロシマケン,セラグンセラチョウ,ヤマナカフクダ,広島県世羅郡世羅町山中福田
7221731,広島県,世羅郡世羅町,津口,ヒロシマケン,セラグンセラチョウ,ツクチ,広島県世羅郡世羅町津口
7221732,広島県,世羅郡世羅町,黒渕,ヒロシマケン,セラグンセラチョウ,クロブチ,広島県世羅郡世羅町黒渕
7222101,広島県,尾道市,因島大浜町,ヒロシマケン,オノミチシ,インノシマオオハマチョウ,広島県尾道市因島大浜町
7222102,広島県,尾道市,因島重井町,ヒロシマケン,オノミチシ,インノシマシゲイチョウ,広島県尾道市因島重井町
7222211,広島県,尾道市,因島中庄町,ヒロシマケン,オノミチシ,インノシマナカノショウチョウ,広島県尾道市因島中庄町
7222212,広島県,尾道市,因島鏡浦町,ヒロシマケン,オノミチシ,インノシマカガミウラチョウ,広島県尾道市因島鏡浦町
7222213,広島県,尾道市,因島外浦町,ヒロシマケン,オノミチシ,インノシマトノウラチョウ,広島県尾道市因島外浦町
7222321,広島県,尾道市,因島椋浦町,ヒロシマケン,オノミチシ,インノシマムクノウラチョウ,広島県尾道市因島椋浦町
7222322,広島県,尾道市,因島三庄町,ヒロシマケン,オノミチシ,インノシマミツノショウチョウ,広島県尾道市因島三庄町
7222323,広島県,尾道市,因島土生町,ヒロシマケン,オノミチシ,インノシマハブチョウ,広島県尾道市因島土生町
7222324,広島県,尾道市,因島田熊町,ヒロシマケン,オノミチシ,インノシマタクマチョウ,広島県尾道市因島田熊町
7222401,広島県,尾道市,瀬戸田町御寺,ヒロシマケン,オノミチシ,セトダチョウミテラ,広島県尾道市瀬戸田町御寺
7222402,広島県,尾道市,瀬戸田町宮原,ヒロシマケン,オノミチシ,セトダチョウミヤバラ,広島県尾道市瀬戸田町宮原
7222403,広島県,尾道市,瀬戸田町荻,ヒロシマケン,オノミチシ,セトダチョウオギ,広島県尾道市瀬戸田町荻
7222404,広島県,尾道市,瀬戸田町垂水,ヒロシマケン,オノミチシ,セトダチョウタルミ,広島県尾道市瀬戸田町垂水
7222405,広島県,尾道市,瀬戸田町福田,ヒロシマケン,オノミチシ,セトダチョウフクダ,広島県尾道市瀬戸田町福田
7222411,広島県,尾道市,瀬戸田町瀬戸田,ヒロシマケン,オノミチシ,セトダチョウセトダ,広島県尾道市瀬戸田町瀬戸田
7222412,広島県,尾道市,瀬戸田町高根,ヒロシマケン,オノミチシ,セトダチョウコウネ,広島県尾道市瀬戸田町高根
7222413,広島県,尾道市,瀬戸田町沢,ヒロシマケン,オノミチシ,セトダチョウサワ,広島県尾道市瀬戸田町沢
7222414,広島県,尾道市,瀬戸田町鹿田原,ヒロシマケン,オノミチシ,セトダチョウシカタハラ,広島県尾道市瀬戸田町鹿田原
7222415,広島県,尾道市,瀬戸田町中野,ヒロシマケン,オノミチシ,セトダチョウナカノ,広島県尾道市瀬戸田町中野
7222416,広島県,尾道市,瀬戸田町林,ヒロシマケン,オノミチシ,セトダチョウハヤシ,広島県尾道市瀬戸田町林
7222417,広島県,尾道市,瀬戸田町名荷,ヒロシマケン,オノミチシ,セトダチョウミョウガ,広島県尾道市瀬戸田町名荷
7222431,広島県,尾道市,因島洲江町,ヒロシマケン,オノミチシ,インノシマスノエチョウ,広島県尾道市因島洲江町
7222432,広島県,尾道市,因島原町,ヒロシマケン,オノミチシ,インノシマハラチョウ,広島県尾道市因島原町
7222631,広島県,福山市,内海町イ,ヒロシマケン,フクヤマシ,ウツミチョウイ,広島県福山市内海町イ
7222632,広島県,福山市,内海町ロ,ヒロシマケン,フクヤマシ,ウツミチョウロ,広島県福山市内海町ロ
7222633,広島県,福山市,内海町ハ,ヒロシマケン,フクヤマシ,ウツミチョウハ,広島県福山市内海町ハ
7222641,広島県,福山市,内海町,ヒロシマケン,フクヤマシ,ウツミチョウ,広島県福山市内海町
7230000,広島県,三原市,,ヒロシマケン,ミハラシ,,広島県三原市
7230001,広島県,三原市,深町,ヒロシマケン,ミハラシ,フカマチ,広島県三原市深町
7230002,広島県,三原市,中之町南,ヒロシマケン,ミハラシ,ナカノチョウミナミ,広島県三原市中之町南
7230003,広島県,三原市,中之町,ヒロシマケン,ミハラシ,ナカノチョウ,広島県三原市中之町
7230004,広島県,三原市,館町,ヒロシマケン,ミハラシ,ヤカタマチ,広島県三原市館町
7230005,広島県,三原市,桜山町,ヒロシマケン,ミハラシ,サクラヤマチョウ,広島県三原市桜山町
7230006,広島県,三原市,駒ケ原町,ヒロシマケン,ミハラシ,コマガハラチョウ,広島県三原市駒ケ原町
7230007,広島県,三原市,中之町北,ヒロシマケン,ミハラシ,ナカノチョウキタ,広島県三原市中之町北
7230011,広島県,三原市,東町,ヒロシマケン,ミハラシ,ヒガシマチ,広島県三原市東町
7230012,広島県,三原市,旭町,ヒロシマケン,ミハラシ,アサヒマチ,広島県三原市旭町
7230013,広島県,三原市,古浜,ヒロシマケン,ミハラシ,コハマ,広島県三原市古浜
7230014,広島県,三原市,城町,ヒロシマケン,ミハラシ,シロマチ,広島県三原市城町
7230015,広島県,三原市,円一町,ヒロシマケン,ミハラシ,エンイチチョウ,広島県三原市円一町
7230016,広島県,三原市,宮沖,ヒロシマケン,ミハラシ,ミヤオキ,広島県三原市宮沖
7230017,広島県,三原市,港町,ヒロシマケン,ミハラシ,ミナトマチ,広島県三原市港町
7230021,広島県,三原市,鷺浦町須波,ヒロシマケン,ミハラシ,サギウラチョウスナミ,広島県三原市鷺浦町須波
7230022,広島県,三原市,鷺浦町向田野浦,ヒロシマケン,ミハラシ,サギウラチョウムコウタノウラ,広島県三原市鷺浦町向田野浦
7230031,広島県,三原市,須波,ヒロシマケン,ミハラシ,スナミ,広島県三原市須波
7230031,広島県,三原市,須波町,ヒロシマケン,ミハラシ,スナミチョウ,広島県三原市須波町
7230032,広島県,三原市,須波西,ヒロシマケン,ミハラシ,スナミニシ,広島県三原市須波西
7230032,広島県,三原市,須波西町,ヒロシマケン,ミハラシ,スナミニシマチ,広島県三原市須波西町
7230033,広島県,三原市,沖浦町,ヒロシマケン,ミハラシ,オキウラチョウ,広島県三原市沖浦町
7230034,広島県,三原市,登町,ヒロシマケン,ミハラシ,ノボリチョウ,広島県三原市登町
7230035,広島県,三原市,須波ハイツ,ヒロシマケン,ミハラシ,スナミハイツ,広島県三原市須波ハイツ
7230041,広島県,三原市,和田,ヒロシマケン,ミハラシ,ワダ,広島県三原市和田
7230042,広島県,三原市,和田沖町,ヒロシマケン,ミハラシ,ワダオキチョウ,広島県三原市和田沖町
7230043,広島県,三原市,貝野町,ヒロシマケン,ミハラシ,カイノチョウ,広島県三原市貝野町
7230044,広島県,三原市,宗郷,ヒロシマケン,ミハラシ,ソウゴウ,広島県三原市宗郷
7230045,広島県,三原市,田野浦,ヒロシマケン,ミハラシ,タノウラ,広島県三原市田野浦
7230046,広島県,三原市,明神,ヒロシマケン,ミハラシ,ミョウジン,広島県三原市明神
7230047,広島県,三原市,青葉台,ヒロシマケン,ミハラシ,アオバダイ,広島県三原市青葉台
7230051,広島県,三原市,宮浦,ヒロシマケン,ミハラシ,ミヤウラ,広島県三原市宮浦
7230052,広島県,三原市,皆実,ヒロシマケン,ミハラシ,ミナミ,広島県三原市皆実
7230053,広島県,三原市,学園町,ヒロシマケン,ミハラシ,ガクエンチョウ,広島県三原市学園町
7230054,広島県,三原市,頼兼,ヒロシマケン,ミハラシ,ヨリカネ,広島県三原市頼兼
7230061,広島県,三原市,八坂町,ヒロシマケン,ミハラシ,ヤサカチョウ,広島県三原市八坂町
7230062,広島県,三原市,本町,ヒロシマケン,ミハラシ,ホンマチ,広島県三原市本町
7230063,広島県,三原市,西町,ヒロシマケン,ミハラシ,ニシマチ,広島県三原市西町
7230064,広島県,三原市,西宮,ヒロシマケン,ミハラシ,ニシミヤ,広島県三原市西宮
7230065,広島県,三原市,西野,ヒロシマケン,ミハラシ,ニシノ,広島県三原市西野
7230066,広島県,三原市,大畑町,ヒロシマケン,ミハラシ,オオハタチョウ,広島県三原市大畑町
7230131,広島県,三原市,小坂町,ヒロシマケン,ミハラシ,オサカチョウ,広島県三原市小坂町
7230132,広島県,三原市,長谷,ヒロシマケン,ミハラシ,ナガタニ,広島県三原市長谷
7230132,広島県,三原市,長谷町,ヒロシマケン,ミハラシ,ナガタニチョウ,広島県三原市長谷町
7230133,広島県,三原市,沼田,ヒロシマケン,ミハラシ,ヌタ,広島県三原市沼田
7230133,広島県,三原市,沼田町,ヒロシマケン,ミハラシ,ヌタチョウ,広島県三原市沼田町
7230134,広島県,三原市,新倉,ヒロシマケン,ミハラシ,シンクラ,広島県三原市新倉
7230134,広島県,三原市,新倉町,ヒロシマケン,ミハラシ,シンクラチョウ,広島県三原市新倉町
7230141,広島県,三原市,沼田東町両名,ヒロシマケン,ミハラシ,ヌタヒガシチョウリョウミョウ,広島県三原市沼田東町両名
7230142,広島県,三原市,沼田東町末光,ヒロシマケン,ミハラシ,ヌタヒガシチョウスエミツ,広島県三原市沼田東町末光
7230143,広島県,三原市,沼田東町釜山,ヒロシマケン,ミハラシ,ヌタヒガシチョウカマヤマ,広島県三原市沼田東町釜山
7230144,広島県,三原市,沼田東町末広,ヒロシマケン,ミハラシ,ヌタヒガシチョウスエヒロ,広島県三原市沼田東町末広
7230145,広島県,三原市,沼田東町片島,ヒロシマケン,ミハラシ,ヌタヒガシチョウカタシマ,広島県三原市沼田東町片島
7230146,広島県,三原市,沼田東町納所,ヒロシマケン,ミハラシ,ヌタヒガシチョウノウソ,広島県三原市沼田東町納所
7230147,広島県,三原市,沼田東町本市,ヒロシマケン,ミハラシ,ヌタヒガシチョウホンイチ,広島県三原市沼田東町本市
7230148,広島県,三原市,沼田東町七宝,ヒロシマケン,ミハラシ,ヌタヒガシチョウシッポウ,広島県三原市沼田東町七宝
7250000,広島県,竹原市,,ヒロシマケン,タケハラシ,,広島県竹原市
7250001,広島県,竹原市,田万里町,ヒロシマケン,タケハラシ,タマリチョウ,広島県竹原市田万里町
7250002,広島県,竹原市,西野町,ヒロシマケン,タケハラシ,ニシノチョウ,広島県竹原市西野町
7250003,広島県,竹原市,新庄町,ヒロシマケン,タケハラシ,シンジョウチョウ,広島県竹原市新庄町
7250004,広島県,竹原市,東野町,ヒロシマケン,タケハラシ,ヒガシノチョウ,広島県竹原市東野町
7250005,広島県,竹原市,仁賀町,ヒロシマケン,タケハラシ,ニカチョウ,広島県竹原市仁賀町
7250011,広島県,竹原市,小梨町,ヒロシマケン,タケハラシ,オナシチョウ,広島県竹原市小梨町
7250012,広島県,竹原市,下野町,ヒロシマケン,タケハラシ,シモノチョウ,広島県竹原市下野町
7250013,広島県,竹原市,吉名町,ヒロシマケン,タケハラシ,ヨシナチョウ,広島県竹原市吉名町
7250021,広島県,竹原市,竹原町,ヒロシマケン,タケハラシ,タケハラチョウ,広島県竹原市竹原町
7250022,広島県,竹原市,本町,ヒロシマケン,タケハラシ,ホンマチ,広島県竹原市本町
7250023,広島県,竹原市,田ノ浦,ヒロシマケン,タケハラシ,タノウラ,広島県竹原市田ノ浦
7250024,広島県,竹原市,港町,ヒロシマケン,タケハラシ,ミナトマチ,広島県竹原市港町
7250025,広島県,竹原市,塩町,ヒロシマケン,タケハラシ,シオマチ,広島県竹原市塩町
7250026,広島県,竹原市,中央,ヒロシマケン,タケハラシ,チュウオウ,広島県竹原市中央
7250200,広島県,豊田郡大崎上島町,,ヒロシマケン,トヨタグンオオサキカミジマチョウ,,広島県豊田郡大崎上島町
7250231,広島県,豊田郡大崎上島町,東野,ヒロシマケン,トヨタグンオオサキカミジマチョウ,ヒガシノ,広島県豊田郡大崎上島町東野
7250301,広島県,豊田郡大崎上島町,中野,ヒロシマケン,トヨタグンオオサキカミジマチョウ,ナカノ,広島県豊田郡大崎上島町中野
7250302,広島県,豊田郡大崎上島町,原田,ヒロシマケン,トヨタグンオオサキカミジマチョウ,ハラダ,広島県豊田郡大崎上島町原田
7250303,広島県,豊田郡大崎上島町,大串,ヒロシマケン,トヨタグンオオサキカミジマチョウ,オオクシ,広島県豊田郡大崎上島町大串
7250401,広島県,豊田郡大崎上島町,木江,ヒロシマケン,トヨタグンオオサキカミジマチョウ,キノエ,広島県豊田郡大崎上島町木江
7250402,広島県,豊田郡大崎上島町,沖浦,ヒロシマケン,トヨタグンオオサキカミジマチョウ,オキウラ,広島県豊田郡大崎上島町沖浦
7250403,広島県,豊田郡大崎上島町,明石,ヒロシマケン,トヨタグンオオサキカミジマチョウ,アカシ,広島県豊田郡大崎上島町明石
7260000,広島県,府中市,,ヒロシマケン,フチュウシ,,広島県府中市
7260001,広島県,府中市,本山町,ヒロシマケン,フチュウシ,モトヤマチョウ,広島県府中市本山町
7260002,広島県,府中市,鵜飼町,ヒロシマケン,フチュウシ,ウカイチョウ,広島県府中市鵜飼町
7260003,広島県,府中市,元町,ヒロシマケン,フチュウシ,モトマチ,広島県府中市元町
7260004,広島県,府中市,府川町,ヒロシマケン,フチュウシ,フカワチョウ,広島県府中市府川町
7260005,広島県,府中市,府中町,ヒロシマケン,フチュウシ,フチュウチョウ,広島県府中市府中町
7260006,広島県,府中市,桜が丘,ヒロシマケン,フチュウシ,サクラガオカ,広島県府中市桜が丘
7260011,広島県,府中市,広谷町,ヒロシマケン,フチュウシ,ヒロタニチョウ,広島県府中市広谷町
7260012,広島県,府中市,中須町,ヒロシマケン,フチュウシ,ナカズチョウ,広島県府中市中須町
7260013,広島県,府中市,高木町,ヒロシマケン,フチュウシ,タカギチョウ,広島県府中市高木町
7260021,広島県,府中市,土生町,ヒロシマケン,フチュウシ,ハブチョウ,広島県府中市土生町
7260022,広島県,府中市,用土町,ヒロシマケン,フチュウシ,ヨウドチョウ,広島県府中市用土町
7260023,広島県,府中市,栗柄町,ヒロシマケン,フチュウシ,クリガラチョウ,広島県府中市栗柄町
7260024,広島県,府中市,僧殿町,ヒロシマケン,フチュウシ,ソウドノチョウ,広島県府中市僧殿町
7260025,広島県,府中市,河南町,ヒロシマケン,フチュウシ,カナンチョウ,広島県府中市河南町
7260026,広島県,府中市,三郎丸町,ヒロシマケン,フチュウシ,サブロウマルチョウ,広島県府中市三郎丸町
7260027,広島県,府中市,篠根町,ヒロシマケン,フチュウシ,シノネチョウ,広島県府中市篠根町
7260031,広島県,府中市,荒谷町,ヒロシマケン,フチュウシ,アラタニチョウ,広島県府中市荒谷町
7260032,広島県,府中市,出口町,ヒロシマケン,フチュウシ,デグチチョウ,広島県府中市出口町
7260033,広島県,府中市,目崎町,ヒロシマケン,フチュウシ,メサキチョウ,広島県府中市目崎町
7260034,広島県,府中市,上山町,ヒロシマケン,フチュウシ,ウヤマチョウ,広島県府中市上山町
7260035,広島県,府中市,父石町,ヒロシマケン,フチュウシ,チイシチョウ,広島県府中市父石町
7260036,広島県,府中市,河面町,ヒロシマケン,フチュウシ,コウモチョウ,広島県府中市河面町
7270000,広島県,庄原市,,ヒロシマケン,ショウバラシ,,広島県庄原市
7270001,広島県,庄原市,大久保町,ヒロシマケン,ショウバラシ,オオクボチョウ,広島県庄原市大久保町
7270002,広島県,庄原市,高門町,ヒロシマケン,ショウバラシ,タカカドチョウ,広島県庄原市高門町
7270003,広島県,庄原市,是松町,ヒロシマケン,ショウバラシ,コレマツチョウ,広島県庄原市是松町
7270004,広島県,庄原市,新庄町,ヒロシマケン,ショウバラシ,シンジョウチョウ,広島県庄原市新庄町
7270005,広島県,庄原市,川手町,ヒロシマケン,ショウバラシ,カワテマチ,広島県庄原市川手町
7270006,広島県,庄原市,本町,ヒロシマケン,ショウバラシ,ホンマチ,広島県庄原市本町
7270007,広島県,庄原市,宮内町,ヒロシマケン,ショウバラシ,ミヤウチチョウ,広島県庄原市宮内町
7270008,広島県,庄原市,永末町,ヒロシマケン,ショウバラシ,ナガスエチョウ,広島県庄原市永末町
7270011,広島県,庄原市,東本町,ヒロシマケン,ショウバラシ,ヒガシホンマチ,広島県庄原市東本町
7270012,広島県,庄原市,中本町,ヒロシマケン,ショウバラシ,ナカホンマチ,広島県庄原市中本町
7270013,広島県,庄原市,西本町,ヒロシマケン,ショウバラシ,ニシホンマチ,広島県庄原市西本町
7270014,広島県,庄原市,板橋町,ヒロシマケン,ショウバラシ,イタバシチョウ,広島県庄原市板橋町
7270015,広島県,庄原市,実留町,ヒロシマケン,ショウバラシ,サネドメチョウ,広島県庄原市実留町
7270016,広島県,庄原市,一木町,ヒロシマケン,ショウバラシ,ヒトツギチョウ,広島県庄原市一木町
7270017,広島県,庄原市,戸郷町,ヒロシマケン,ショウバラシ,トゴウチョウ,広島県庄原市戸郷町
7270021,広島県,庄原市,三日市町,ヒロシマケン,ショウバラシ,ミッカイチチョウ,広島県庄原市三日市町
7270022,広島県,庄原市,上原町,ヒロシマケン,ショウバラシ,カミハラチョウ,広島県庄原市上原町
7270023,広島県,庄原市,七塚町,ヒロシマケン,ショウバラシ,ナナツカチョウ,広島県庄原市七塚町
7270024,広島県,庄原市,田原町,ヒロシマケン,ショウバラシ,タワラチョウ,広島県庄原市田原町
7270025,広島県,庄原市,市町,ヒロシマケン,ショウバラシ,イチマチ,広島県庄原市市町
7270026,広島県,庄原市,掛田町,ヒロシマケン,ショウバラシ,カケダチョウ,広島県庄原市掛田町
7270111,広島県,庄原市,口和町湯木,ヒロシマケン,ショウバラシ,クチワチョウユキ,広島県庄原市口和町湯木
7270112,広島県,庄原市,口和町金田,ヒロシマケン,ショウバラシ,クチワチョウキンデ,広島県庄原市口和町金田
7270113,広島県,庄原市,口和町常定,ヒロシマケン,ショウバラシ,クチワチョウツネサダ,広島県庄原市口和町常定
7270114,広島県,庄原市,口和町永田,ヒロシマケン,ショウバラシ,クチワチョウナガタ,広島県庄原市口和町永田
7270201,広島県,庄原市,門田町,ヒロシマケン,ショウバラシ,モンデチョウ,広島県庄原市門田町
7270202,広島県,庄原市,濁川町,ヒロシマケン,ショウバラシ,ニゴリカワチョウ,広島県庄原市濁川町
7270203,広島県,庄原市,川北町,ヒロシマケン,ショウバラシ,カワキタチョウ,広島県庄原市川北町
7270301,広島県,庄原市,比和町比和,ヒロシマケン,ショウバラシ,ヒワチョウヒワ,広島県庄原市比和町比和
7270302,広島県,庄原市,比和町古頃,ヒロシマケン,ショウバラシ,ヒワチョウコゴロ,広島県庄原市比和町古頃
7270311,広島県,庄原市,比和町三河内,ヒロシマケン,ショウバラシ,ヒワチョウミツガイチ,広島県庄原市比和町三河内
7270312,広島県,庄原市,比和町木屋原,ヒロシマケン,ショウバラシ,ヒワチョウコヤバラ,広島県庄原市比和町木屋原
7270321,広島県,庄原市,比和町森脇,ヒロシマケン,ショウバラシ,ヒワチョウモリワキ,広島県庄原市比和町森脇
7270401,広島県,庄原市,高野町和南原,ヒロシマケン,ショウバラシ,タカノチョウワナンバラ,広島県庄原市高野町和南原
7270402,広島県,庄原市,高野町新市,ヒロシマケン,ショウバラシ,タカノチョウシンイチ,広島県庄原市高野町新市
7270403,広島県,庄原市,高野町岡大内,ヒロシマケン,ショウバラシ,タカノチョウオカオオウチ,広島県庄原市高野町岡大内
7270411,広島県,庄原市,高野町上湯川,ヒロシマケン,ショウバラシ,タカノチョウカミユカワ,広島県庄原市高野町上湯川
7270412,広島県,庄原市,高野町下湯川,ヒロシマケン,ショウバラシ,タカノチョウシモユカワ,広島県庄原市高野町下湯川
7270413,広島県,庄原市,高野町南,ヒロシマケン,ショウバラシ,タカノチョウミナミ,広島県庄原市高野町南
7270421,広島県,庄原市,高野町中門田,ヒロシマケン,ショウバラシ,タカノチョウナカモンデ,広島県庄原市高野町中門田
7270422,広島県,庄原市,高野町奥門田,ヒロシマケン,ショウバラシ,タカノチョウオクモンデ,広島県庄原市高野町奥門田
7270423,広島県,庄原市,高野町下門田,ヒロシマケン,ショウバラシ,タカノチョウシモンデ,広島県庄原市高野町下門田
7270424,広島県,庄原市,高野町高暮,ヒロシマケン,ショウバラシ,タカノチョウコウボ,広島県庄原市高野町高暮
7270425,広島県,庄原市,高野町上里原,ヒロシマケン,ショウバラシ,タカノチョウアガリハラ,広島県庄原市高野町上里原
7270621,広島県,庄原市,春田町,ヒロシマケン,ショウバラシ,シュンダチョウ,広島県庄原市春田町
7270622,広島県,庄原市,峰田町,ヒロシマケン,ショウバラシ,ミネタチョウ,広島県庄原市峰田町
7270623,広島県,庄原市,本村町,ヒロシマケン,ショウバラシ,ホンムラチョウ,広島県庄原市本村町
7270624,広島県,庄原市,上谷町,ヒロシマケン,ショウバラシ,ウエダニチョウ,広島県庄原市上谷町
7280000,広島県,三次市,,ヒロシマケン,ミヨシシ,,広島県三次市
7280001,広島県,三次市,山家町,ヒロシマケン,ミヨシシ,ヤマガマチ,広島県三次市山家町
7280002,広島県,三次市,西河内町,ヒロシマケン,ミヨシシ,ニシコウチマチ,広島県三次市西河内町
7280003,広島県,三次市,東河内町,ヒロシマケン,ミヨシシ,ヒガシコウチマチ,広島県三次市東河内町
7280004,広島県,三次市,穴笠町,ヒロシマケン,ミヨシシ,アナガサマチ,広島県三次市穴笠町
7280005,広島県,三次市,後山町,ヒロシマケン,ミヨシシ,ウシロヤママチ,広島県三次市後山町
7280006,広島県,三次市,畠敷町,ヒロシマケン,ミヨシシ,ハタジキマチ,広島県三次市畠敷町
7280007,広島県,三次市,小文町,ヒロシマケン,ミヨシシ,オブミマチ,広島県三次市小文町
7280011,広島県,三次市,十日市西,ヒロシマケン,ミヨシシ,トオカイチニシ,広島県三次市十日市西
7280012,広島県,三次市,十日市中,ヒロシマケン,ミヨシシ,トオカイチナカ,広島県三次市十日市中
7280013,広島県,三次市,十日市東,ヒロシマケン,ミヨシシ,トオカイチヒガシ,広島県三次市十日市東
7280014,広島県,三次市,十日市南,ヒロシマケン,ミヨシシ,トオカイチミナミ,広島県三次市十日市南
7280015,広島県,三次市,十日市町,ヒロシマケン,ミヨシシ,トオカイチマチ,広島県三次市十日市町
7280016,広島県,三次市,四拾貫町,ヒロシマケン,ミヨシシ,シジツカンマチ,広島県三次市四拾貫町
7280017,広島県,三次市,南畑敷町,ヒロシマケン,ミヨシシ,ミナミハタジキマチ,広島県三次市南畑敷町
7280021,広島県,三次市,三次町,ヒロシマケン,ミヨシシ,ミヨシマチ,広島県三次市三次町
7280022,広島県,三次市,西酒屋町,ヒロシマケン,ミヨシシ,ニシサケヤマチ,広島県三次市西酒屋町
7280023,広島県,三次市,東酒屋町,ヒロシマケン,ミヨシシ,ヒガシサケヤマチ,広島県三次市東酒屋町
7280024,広島県,三次市,青河町,ヒロシマケン,ミヨシシ,アオガマチ,広島県三次市青河町
7280025,広島県,三次市,粟屋町,ヒロシマケン,ミヨシシ,アワヤマチ,広島県三次市粟屋町
7280026,広島県,三次市,日下町,ヒロシマケン,ミヨシシ,ヒゲマチ,広島県三次市日下町
7280027,広島県,三次市,三原町,ヒロシマケン,ミヨシシ,ミハラマチ,広島県三次市三原町
7280101,広島県,三次市,作木町岡三渕,ヒロシマケン,ミヨシシ,サクギチョウオカミブチ,広島県三次市作木町岡三渕
7280111,広島県,三次市,作木町伊賀和志,ヒロシマケン,ミヨシシ,サクギチョウイカワシ,広島県三次市作木町伊賀和志
7280112,広島県,三次市,作木町森山西,ヒロシマケン,ミヨシシ,サクギチョウモリヤマニシ,広島県三次市作木町森山西
7280113,広島県,三次市,作木町森山東,ヒロシマケン,ミヨシシ,サクギチョウモリヤマヒガシ,広島県三次市作木町森山東
7280114,広島県,三次市,作木町森山中,ヒロシマケン,ミヨシシ,サクギチョウモリヤマナカ,広島県三次市作木町森山中
7280115,広島県,三次市,作木町大津,ヒロシマケン,ミヨシシ,サクギチョウオオツ,広島県三次市作木町大津
7280121,広島県,三次市,作木町大畠,ヒロシマケン,ミヨシシ,サクギチョウオオバタケ,広島県三次市作木町大畠
7280122,広島県,三次市,作木町西野,ヒロシマケン,ミヨシシ,サクギチョウニシノ,広島県三次市作木町西野
7280123,広島県,三次市,作木町上作木,ヒロシマケン,ミヨシシ,サクギチョウカミサクギ,広島県三次市作木町上作木
7280124,広島県,三次市,作木町下作木,ヒロシマケン,ミヨシシ,サクギチョウシモサクギ,広島県三次市作木町下作木
7280125,広島県,三次市,作木町光守,ヒロシマケン,ミヨシシ,サクギチョウミツモリ,広島県三次市作木町光守
7280131,広島県,三次市,作木町香淀,ヒロシマケン,ミヨシシ,サクギチョウコウヨド,広島県三次市作木町香淀
7280132,広島県,三次市,作木町大山,ヒロシマケン,ミヨシシ,サクギチョウオオヤマ,広島県三次市作木町大山
7280133,広島県,三次市,作木町門田,ヒロシマケン,ミヨシシ,サクギチョウモンデ,広島県三次市作木町門田
7280201,広島県,三次市,布野町上布野,ヒロシマケン,ミヨシシ,フノチョウカミフノ,広島県三次市布野町上布野
7280202,広島県,三次市,布野町下布野,ヒロシマケン,ミヨシシ,フノチョウシモフノ,広島県三次市布野町下布野
7280203,広島県,三次市,布野町戸河内,ヒロシマケン,ミヨシシ,フノチョウトゴウチ,広島県三次市布野町戸河内
7280211,広島県,三次市,布野町横谷,ヒロシマケン,ミヨシシ,フノチョウヨコタニ,広島県三次市布野町横谷
7280401,広島県,三次市,君田町東入君,ヒロシマケン,ミヨシシ,キミタチョウヒガシイリギミ,広島県三次市君田町東入君
7280402,広島県,三次市,君田町西入君,ヒロシマケン,ミヨシシ,キミタチョウニシイリギミ,広島県三次市君田町西入君
7280403,広島県,三次市,君田町藤兼,ヒロシマケン,ミヨシシ,キミタチョウフジカネ,広島県三次市君田町藤兼
7280404,広島県,三次市,君田町石原,ヒロシマケン,ミヨシシ,キミタチョウイシハラ,広島県三次市君田町石原
7280405,広島県,三次市,君田町泉吉田,ヒロシマケン,ミヨシシ,キミタチョウイズミヨシダ,広島県三次市君田町泉吉田
7280406,広島県,三次市,君田町櫃田,ヒロシマケン,ミヨシシ,キミタチョウヒツタ,広島県三次市君田町櫃田
7280407,広島県,三次市,君田町茂田,ヒロシマケン,ミヨシシ,キミタチョウモダ,広島県三次市君田町茂田
7280501,広島県,庄原市,口和町宮内,ヒロシマケン,ショウバラシ,クチワチョウミヤウチ,広島県庄原市口和町宮内
7280502,広島県,庄原市,口和町向泉,ヒロシマケン,ショウバラシ,クチワチョウムコウイズミ,広島県庄原市口和町向泉
7280503,広島県,庄原市,口和町大月,ヒロシマケン,ショウバラシ,クチワチョウオオツキ,広島県庄原市口和町大月
7280504,広島県,庄原市,口和町竹地谷,ヒロシマケン,ショウバラシ,クチワチョウタケチダニ,広島県庄原市口和町竹地谷
7280621,広島県,三次市,三若町,ヒロシマケン,ミヨシシ,ミワカマチ,広島県三次市三若町
7280622,広島県,三次市,海渡町,ヒロシマケン,ミヨシシ,ウトマチ,広島県三次市海渡町
7280623,広島県,三次市,石原町,ヒロシマケン,ミヨシシ,イシハラマチ,広島県三次市石原町
7280624,広島県,三次市,上田町,ヒロシマケン,ミヨシシ,ウエダマチ,広島県三次市上田町
7280625,広島県,三次市,有原町,ヒロシマケン,ミヨシシ,アリハラマチ,広島県三次市有原町
7290101,広島県,福山市,高西町川尻,ヒロシマケン,フクヤマシ,タカニシチョウカワジリ,広島県福山市高西町川尻
7290102,広島県,福山市,高西町真田,ヒロシマケン,フクヤマシ,タカニシチョウサナダ,広島県福山市高西町真田
7290103,広島県,福山市,高西町南,ヒロシマケン,フクヤマシ,タカニシチョウミナミ,広島県福山市高西町南
7290104,広島県,福山市,松永町,ヒロシマケン,フクヤマシ,マツナガチョウ,広島県福山市松永町
7290105,広島県,福山市,南松永町,ヒロシマケン,フクヤマシ,ミナミマツナガチョウ,広島県福山市南松永町
7290106,広島県,福山市,高西町,ヒロシマケン,フクヤマシ,タカニシチョウ,広島県福山市高西町
7290111,広島県,福山市,今津町,ヒロシマケン,フクヤマシ,イマヅチョウ,広島県福山市今津町
7290112,広島県,福山市,神村町,ヒロシマケン,フクヤマシ,カムラチョウ,広島県福山市神村町
7290113,広島県,福山市,宮前町,ヒロシマケン,フクヤマシ,ミヤマエチョウ,広島県福山市宮前町
7290114,広島県,福山市,柳津町,ヒロシマケン,フクヤマシ,ヤナイヅチョウ,広島県福山市柳津町
7290115,広島県,福山市,南今津町,ヒロシマケン,フクヤマシ,ミナミイマヅチョウ,広島県福山市南今津町
7290141,広島県,尾道市,高須町,ヒロシマケン,オノミチシ,タカスチョウ,広島県尾道市高須町
7290142,広島県,尾道市,西藤町,ヒロシマケン,オノミチシ,ニシフジチョウ,広島県尾道市西藤町
7290251,広島県,福山市,東村町,ヒロシマケン,フクヤマシ,ヒガシムラチョウ,広島県福山市東村町
7290252,広島県,福山市,本郷町,ヒロシマケン,フクヤマシ,ホンゴウチョウ,広島県福山市本郷町
7290321,広島県,三原市,木原,ヒロシマケン,ミハラシ,キハラ,広島県三原市木原
7290321,広島県,三原市,木原町,ヒロシマケン,ミハラシ,キハラチョウ,広島県三原市木原町
7290322,広島県,三原市,奥野山町,ヒロシマケン,ミハラシ,オクノヤマチョウ,広島県三原市奥野山町
7290323,広島県,三原市,鉢ケ峰町,ヒロシマケン,ミハラシ,ハチガミネチョウ,広島県三原市鉢ケ峰町
7290324,広島県,三原市,糸崎,ヒロシマケン,ミハラシ,イトサキ,広島県三原市糸崎
7290329,広島県,三原市,糸崎南,ヒロシマケン,ミハラシ,イトサキミナミ,広島県三原市糸崎南
7290411,広島県,三原市,本郷町船木（その他）,ヒロシマケン,ミハラシ,ホンゴウチョウフナキ(ソノタ),広島県三原市本郷町船木（その他）
7290412,広島県,三原市,本郷町本郷,ヒロシマケン,ミハラシ,ホンゴウチョウホンゴウ,広島県三原市本郷町本郷
7290413,広島県,三原市,本郷町南方,ヒロシマケン,ミハラシ,ホンゴウチョウミナミガタ,広島県三原市本郷町南方
7290414,広島県,三原市,下北方,ヒロシマケン,ミハラシ,シモキタガタ,広島県三原市下北方
7290414,広島県,三原市,本郷町下北方,ヒロシマケン,ミハラシ,ホンゴウチョウシモキタガタ,広島県三原市本郷町下北方
7290415,広島県,三原市,本郷町上北方,ヒロシマケン,ミハラシ,ホンゴウチョウカミキタガタ,広島県三原市本郷町上北方
7290416,広島県,三原市,本郷町善入寺,ヒロシマケン,ミハラシ,ホンゴウチョウゼンニュウジ,広島県三原市本郷町善入寺
7290417,広島県,三原市,本郷南,ヒロシマケン,ミハラシ,ホンゴウミナミ,広島県三原市本郷南
7290418,広島県,三原市,本郷北,ヒロシマケン,ミハラシ,ホンゴウキタ,広島県三原市本郷北
7290419,広島県,三原市,南方,ヒロシマケン,ミハラシ,ミナミガタ,広島県三原市南方
7290471,広島県,三原市,高坂町許山,ヒロシマケン,ミハラシ,タカサカチョウモトヤマ,広島県三原市高坂町許山
7290472,広島県,三原市,高坂町真良,ヒロシマケン,ミハラシ,タカサカチョウシンラ,広島県三原市高坂町真良
7290473,広島県,三原市,沼田西町小原,ヒロシマケン,ミハラシ,ヌタニシチョウオバラ,広島県三原市沼田西町小原
7290474,広島県,三原市,沼田西町惣定,ヒロシマケン,ミハラシ,ヌタニシチョウソウジョウ,広島県三原市沼田西町惣定
7290475,広島県,三原市,沼田西町松江,ヒロシマケン,ミハラシ,ヌタニシチョウマツエ,広島県三原市沼田西町松江
7291211,広島県,三原市,大和町大草,ヒロシマケン,ミハラシ,ダイワチョウオオグサ,広島県三原市大和町大草
7291212,広島県,三原市,大和町姥ケ原,ヒロシマケン,ミハラシ,ダイワチョウウバガハラ,広島県三原市大和町姥ケ原
7291213,広島県,三原市,大和町平坂,ヒロシマケン,ミハラシ,ダイワチョウヒラサカ,広島県三原市大和町平坂
7291321,広島県,三原市,大和町和木,ヒロシマケン,ミハラシ,ダイワチョウワキ,広島県三原市大和町和木
7291322,広島県,三原市,大和町箱川,ヒロシマケン,ミハラシ,ダイワチョウハコガワ,広島県三原市大和町箱川
7291323,広島県,三原市,大和町大具,ヒロシマケン,ミハラシ,ダイワチョウオオグ,広島県三原市大和町大具
7291331,広島県,三原市,大和町椋梨,ヒロシマケン,ミハラシ,ダイワチョウムクナシ,広島県三原市大和町椋梨
7291332,広島県,三原市,大和町上草井,ヒロシマケン,ミハラシ,ダイワチョウカミグサイ,広島県三原市大和町上草井
7291333,広島県,三原市,大和町下草井,ヒロシマケン,ミハラシ,ダイワチョウシモグサイ,広島県三原市大和町下草井
7291401,広島県,三原市,大和町蔵宗,ヒロシマケン,ミハラシ,ダイワチョウクラムネ,広島県三原市大和町蔵宗
7291402,広島県,三原市,大和町篠,ヒロシマケン,ミハラシ,ダイワチョウシノ,広島県三原市大和町篠
7291403,広島県,三原市,大和町萩原,ヒロシマケン,ミハラシ,ダイワチョウハイバラ,広島県三原市大和町萩原
7291404,広島県,三原市,大和町福田,ヒロシマケン,ミハラシ,ダイワチョウフクダ,広島県三原市大和町福田
7291405,広島県,三原市,大和町上徳良,ヒロシマケン,ミハラシ,ダイワチョウカミトクラ,広島県三原市大和町上徳良
7291406,広島県,三原市,大和町下徳良,ヒロシマケン,ミハラシ,ダイワチョウシモトクラ,広島県三原市大和町下徳良
7292251,広島県,三原市,幸崎久和喜,ヒロシマケン,ミハラシ,サイザキクワキ,広島県三原市幸崎久和喜
7292251,広島県,三原市,幸崎町久和喜,ヒロシマケン,ミハラシ,サイザキチョウクワキ,広島県三原市幸崎町久和喜
7292252,広島県,三原市,幸崎町能地,ヒロシマケン,ミハラシ,サイザキチョウノウジ,広島県三原市幸崎町能地
7292252,広島県,三原市,幸崎能地,ヒロシマケン,ミハラシ,サイザキノウジ,広島県三原市幸崎能地
7292253,広島県,三原市,幸崎渡瀬,ヒロシマケン,ミハラシ,サイザキワタセ,広島県三原市幸崎渡瀬
7292253,広島県,三原市,幸崎町渡瀬,ヒロシマケン,ミハラシ,サイザキチョウワタセ,広島県三原市幸崎町渡瀬
7292311,広島県,竹原市,忠海町,ヒロシマケン,タケハラシ,タダノウミチョウ,広島県竹原市忠海町
7292312,広島県,竹原市,福田町,ヒロシマケン,タケハラシ,フクダチョウ,広島県竹原市福田町
7292313,広島県,竹原市,高崎町,ヒロシマケン,タケハラシ,タカサキチョウ,広島県竹原市高崎町
7292314,広島県,竹原市,忠海床浦,ヒロシマケン,タケハラシ,タダノウミトコノウラ,広島県竹原市忠海床浦
7292315,広島県,竹原市,忠海長浜,ヒロシマケン,タケハラシ,タダノウミナガハマ,広島県竹原市忠海長浜
7292316,広島県,竹原市,忠海中町,ヒロシマケン,タケハラシ,タダノウミナカマチ,広島県竹原市忠海中町
7292317,広島県,竹原市,忠海東町,ヒロシマケン,タケハラシ,タダノウミヒガシマチ,広島県竹原市忠海東町
7292361,広島県,三原市,小泉町,ヒロシマケン,ミハラシ,コイズミチョウ,広島県三原市小泉町
7293101,広島県,福山市,新市町戸手,ヒロシマケン,フクヤマシ,シンイチチョウトデ,広島県福山市新市町戸手
7293102,広島県,福山市,新市町相方,ヒロシマケン,フクヤマシ,シンイチチョウサガタ,広島県福山市新市町相方
7293103,広島県,福山市,新市町新市,ヒロシマケン,フクヤマシ,シンイチチョウシンイチ,広島県福山市新市町新市
7293104,広島県,福山市,新市町宮内,ヒロシマケン,フクヤマシ,シンイチチョウミヤウチ,広島県福山市新市町宮内
7293105,広島県,福山市,新市町下安井,ヒロシマケン,フクヤマシ,シンイチチョウシモヤスイ,広島県福山市新市町下安井
7293106,広島県,福山市,新市町上安井,ヒロシマケン,フクヤマシ,シンイチチョウカミヤスイ,広島県福山市新市町上安井
7293107,広島県,福山市,新市町常,ヒロシマケン,フクヤマシ,シンイチチョウツネ,広島県福山市新市町常
7293111,広島県,福山市,新市町金丸,ヒロシマケン,フクヤマシ,シンイチチョウカネマル,広島県福山市新市町金丸
7293112,広島県,福山市,新市町藤尾,ヒロシマケン,フクヤマシ,シンイチチョウフジオ,広島県福山市新市町藤尾
7293201,広島県,府中市,斗升町,ヒロシマケン,フチュウシ,トマスチョウ,広島県府中市斗升町
7293202,広島県,府中市,行縢町,ヒロシマケン,フチュウシ,ムカバキチョウ,広島県府中市行縢町
7293211,広島県,府中市,木野山町,ヒロシマケン,フチュウシ,キノヤマチョウ,広島県府中市木野山町
7293212,広島県,府中市,阿字町,ヒロシマケン,フチュウシ,アジチョウ,広島県府中市阿字町
7293221,広島県,府中市,河佐町,ヒロシマケン,フチュウシ,カワサチョウ,広島県府中市河佐町
7293222,広島県,府中市,久佐町,ヒロシマケン,フチュウシ,クサチョウ,広島県府中市久佐町
7293301,広島県,世羅郡世羅町,小谷,ヒロシマケン,セラグンセラチョウ,オタニ,広島県世羅郡世羅町小谷
7293302,広島県,世羅郡世羅町,川尻,ヒロシマケン,セラグンセラチョウ,カワシリ,広島県世羅郡世羅町川尻
7293303,広島県,世羅郡世羅町,東上原,ヒロシマケン,セラグンセラチョウ,ヒガシウエハラ,広島県世羅郡世羅町東上原
7293304,広島県,世羅郡世羅町,赤屋,ヒロシマケン,セラグンセラチョウ,アカヤ,広島県世羅郡世羅町赤屋
7293305,広島県,世羅郡世羅町,別迫,ヒロシマケン,セラグンセラチョウ,ベッサコ,広島県世羅郡世羅町別迫
7293306,広島県,世羅郡世羅町,青近,ヒロシマケン,セラグンセラチョウ,アオチカ,広島県世羅郡世羅町青近
7293307,広島県,世羅郡世羅町,伊尾,ヒロシマケン,セラグンセラチョウ,イオ,広島県世羅郡世羅町伊尾
7293401,広島県,府中市,上下町小塚,ヒロシマケン,フチュウシ,ジョウゲチョウオヅカ,広島県府中市上下町小塚
7293402,広島県,府中市,上下町小堀,ヒロシマケン,フチュウシ,ジョウゲチョウコホリ,広島県府中市上下町小堀
7293403,広島県,府中市,上下町階見,ヒロシマケン,フチュウシ,ジョウゲチョウシナミ,広島県府中市上下町階見
7293404,広島県,府中市,上下町二森,ヒロシマケン,フチュウシ,ジョウゲチョウフタモリ,広島県府中市上下町二森
7293405,広島県,府中市,上下町有福,ヒロシマケン,フチュウシ,ジョウゲチョウアリフク,広島県府中市上下町有福
7293411,広島県,府中市,上下町井永,ヒロシマケン,フチュウシ,ジョウゲチョウイナガ,広島県府中市上下町井永
7293412,広島県,府中市,上下町岡屋,ヒロシマケン,フチュウシ,ジョウゲチョウオガヤ,広島県府中市上下町岡屋
7293413,広島県,府中市,上下町水永,ヒロシマケン,フチュウシ,ジョウゲチョウミズナガ,広島県府中市上下町水永
7293414,広島県,府中市,上下町佐倉,ヒロシマケン,フチュウシ,ジョウゲチョウサクラ,広島県府中市上下町佐倉
7293415,広島県,府中市,上下町矢多田,ヒロシマケン,フチュウシ,ジョウゲチョウヤタダ,広島県府中市上下町矢多田
7293421,広島県,府中市,上下町深江,ヒロシマケン,フチュウシ,ジョウゲチョウフカエ,広島県府中市上下町深江
7293422,広島県,府中市,上下町国留,ヒロシマケン,フチュウシ,ジョウゲチョウクニドメ,広島県府中市上下町国留
7293423,広島県,府中市,上下町矢野,ヒロシマケン,フチュウシ,ジョウゲチョウヤノ,広島県府中市上下町矢野
7293424,広島県,府中市,上下町松崎,ヒロシマケン,フチュウシ,ジョウゲチョウマツサキ,広島県府中市上下町松崎
7293431,広島県,府中市,上下町上下,ヒロシマケン,フチュウシ,ジョウゲチョウジョウゲ,広島県府中市上下町上下
7293511,広島県,神石郡神石高原町,高光,ヒロシマケン,ジンセキグンジンセキコウゲンチョウ,タカミツ,広島県神石郡神石高原町高光
7293512,広島県,神石郡神石高原町,草木,ヒロシマケン,ジンセキグンジンセキコウゲンチョウ,クサギ,広島県神石郡神石高原町草木
7293513,広島県,神石郡神石高原町,牧,ヒロシマケン,ジンセキグンジンセキコウゲンチョウ,マキ,広島県神石郡神石高原町牧
7293514,広島県,神石郡神石高原町,田頭,ヒロシマケン,ジンセキグンジンセキコウゲンチョウ,タンドウ,広島県神石郡神石高原町田頭
7293515,広島県,神石郡神石高原町,福永,ヒロシマケン,ジンセキグンジンセキコウゲンチョウ,フクナガ,広島県神石郡神石高原町福永
7293516,広島県,神石郡神石高原町,古川,ヒロシマケン,ジンセキグンジンセキコウゲンチョウ,フルカワ,広島県神石郡神石高原町古川
7293601,広島県,神石郡神石高原町,相渡,ヒロシマケン,ジンセキグンジンセキコウゲンチョウ,アイド,広島県神石郡神石高原町相渡
7293602,広島県,神石郡神石高原町,永野,ヒロシマケン,ジンセキグンジンセキコウゲンチョウ,ナガノ,広島県神石郡神石高原町永野
7293701,広島県,庄原市,総領町黒目,ヒロシマケン,ショウバラシ,ソウリョウチョウクロメ,広島県庄原市総領町黒目
7293702,広島県,庄原市,総領町亀谷,ヒロシマケン,ショウバラシ,ソウリョウチョウカメダニ,広島県庄原市総領町亀谷
7293703,広島県,庄原市,総領町下領家,ヒロシマケン,ショウバラシ,ソウリョウチョウシモリョウケ,広島県庄原市総領町下領家
7293711,広島県,庄原市,総領町五箇,ヒロシマケン,ショウバラシ,ソウリョウチョウゴカ,広島県庄原市総領町五箇
7293712,広島県,庄原市,総領町上領家,ヒロシマケン,ショウバラシ,ソウリョウチョウカミリョウケ,広島県庄原市総領町上領家
7293713,広島県,庄原市,総領町中領家,ヒロシマケン,ショウバラシ,ソウリョウチョウナカリョウケ,広島県庄原市総領町中領家
7293721,広島県,庄原市,総領町稲草,ヒロシマケン,ショウバラシ,ソウリョウチョウイナクサ,広島県庄原市総領町稲草
7293722,広島県,庄原市,総領町木屋,ヒロシマケン,ショウバラシ,ソウリョウチョウキヤ,広島県庄原市総領町木屋
7294101,広島県,三次市,甲奴町本郷,ヒロシマケン,ミヨシシ,コウヌチョウホンゴウ,広島県三次市甲奴町本郷
7294102,広島県,三次市,甲奴町西野,ヒロシマケン,ミヨシシ,コウヌチョウニシノ,広島県三次市甲奴町西野
7294103,広島県,三次市,甲奴町小童,ヒロシマケン,ミヨシシ,コウヌチョウヒチ,広島県三次市甲奴町小童
7294104,広島県,三次市,甲奴町宇賀,ヒロシマケン,ミヨシシ,コウヌチョウウガ,広島県三次市甲奴町宇賀
7294105,広島県,三次市,甲奴町梶田,ヒロシマケン,ミヨシシ,コウヌチョウカジタ,広島県三次市甲奴町梶田
7294106,広島県,三次市,甲奴町有田,ヒロシマケン,ミヨシシ,コウヌチョウアリダ,広島県三次市甲奴町有田
7294111,広島県,三次市,甲奴町福田,ヒロシマケン,ミヨシシ,コウヌチョウフクダ,広島県三次市甲奴町福田
7294112,広島県,三次市,甲奴町抜湯,ヒロシマケン,ミヨシシ,コウヌチョウヌクユ,広島県三次市甲奴町抜湯
7294113,広島県,三次市,甲奴町太郎丸,ヒロシマケン,ミヨシシ,コウヌチョウタロウマル,広島県三次市甲奴町太郎丸
7294201,広島県,三次市,吉舎町知和,ヒロシマケン,ミヨシシ,キサチョウチワ,広島県三次市吉舎町知和
7294202,広島県,三次市,吉舎町上安田,ヒロシマケン,ミヨシシ,キサチョウカミヤスダ,広島県三次市吉舎町上安田
7294203,広島県,三次市,吉舎町安田,ヒロシマケン,ミヨシシ,キサチョウヤスダ,広島県三次市吉舎町安田
7294204,広島県,三次市,吉舎町三玉,ヒロシマケン,ミヨシシ,キサチョウミタマ,広島県三次市吉舎町三玉
7294205,広島県,三次市,吉舎町海田原,ヒロシマケン,ミヨシシ,キサチョウカイダハラ,広島県三次市吉舎町海田原
7294206,広島県,三次市,吉舎町矢井,ヒロシマケン,ミヨシシ,キサチョウヤイ,広島県三次市吉舎町矢井
7294207,広島県,三次市,吉舎町敷地,ヒロシマケン,ミヨシシ,キサチョウシキジ,広島県三次市吉舎町敷地
7294208,広島県,三次市,吉舎町矢野地,ヒロシマケン,ミヨシシ,キサチョウヤノチ,広島県三次市吉舎町矢野地
7294211,広島県,三次市,吉舎町吉舎,ヒロシマケン,ミヨシシ,キサチョウキサ,広島県三次市吉舎町吉舎
7294221,広島県,三次市,吉舎町清綱,ヒロシマケン,ミヨシシ,キサチョウキヨツナ,広島県三次市吉舎町清綱
7294222,広島県,三次市,吉舎町丸田,ヒロシマケン,ミヨシシ,キサチョウマルダ,広島県三次市吉舎町丸田
7294223,広島県,三次市,吉舎町雲通,ヒロシマケン,ミヨシシ,キサチョウウヅイ,広島県三次市吉舎町雲通
7294224,広島県,三次市,吉舎町辻,ヒロシマケン,ミヨシシ,キサチョウツジ,広島県三次市吉舎町辻
7294225,広島県,三次市,吉舎町徳市,ヒロシマケン,ミヨシシ,キサチョウトクイチ,広島県三次市吉舎町徳市
7294226,広島県,三次市,吉舎町吉舎川之内,ヒロシマケン,ミヨシシ,キサチョウキサカワノウチ,広島県三次市吉舎町吉舎川之内
7294227,広島県,三次市,吉舎町檜,ヒロシマケン,ミヨシシ,キサチョウヒノキ,広島県三次市吉舎町檜
7294301,広島県,三次市,三良坂町光清,ヒロシマケン,ミヨシシ,ミラサカチョウミツキヨ,広島県三次市三良坂町光清
7294302,広島県,三次市,三良坂町仁賀,ヒロシマケン,ミヨシシ,ミラサカチョウニカ,広島県三次市三良坂町仁賀
7294303,広島県,三次市,三良坂町灰塚,ヒロシマケン,ミヨシシ,ミラサカチョウハイヅカ,広島県三次市三良坂町灰塚
7294304,広島県,三次市,三良坂町三良坂,ヒロシマケン,ミヨシシ,ミラサカチョウミラサカ,広島県三次市三良坂町三良坂
7294305,広島県,三次市,三良坂町長田,ヒロシマケン,ミヨシシ,ミラサカチョウナガタ,広島県三次市三良坂町長田
7294306,広島県,三次市,三良坂町岡田,ヒロシマケン,ミヨシシ,ミラサカチョウオカダ,広島県三次市三良坂町岡田
7294307,広島県,三次市,三良坂町皆瀬,ヒロシマケン,ミヨシシ,ミラサカチョウカイゼ,広島県三次市三良坂町皆瀬
7294308,広島県,三次市,三良坂町田利,ヒロシマケン,ミヨシシ,ミラサカチョウタリ,広島県三次市三良坂町田利
7295111,広島県,庄原市,東城町福代,ヒロシマケン,ショウバラシ,トウジョウチョウフクシロ,広島県庄原市東城町福代
7295112,広島県,庄原市,東城町新福代,ヒロシマケン,ショウバラシ,トウジョウチョウシンフクシロ,広島県庄原市東城町新福代
7295121,広島県,庄原市,東城町川東,ヒロシマケン,ショウバラシ,トウジョウチョウカワヒガシ,広島県庄原市東城町川東
7295122,広島県,庄原市,東城町久代,ヒロシマケン,ショウバラシ,トウジョウチョウクシロ,広島県庄原市東城町久代
7295123,広島県,庄原市,東城町戸宇,ヒロシマケン,ショウバラシ,トウジョウチョウトウ,広島県庄原市東城町戸宇
7295124,広島県,庄原市,東城町東城,ヒロシマケン,ショウバラシ,トウジョウチョウトウジョウ,広島県庄原市東城町東城
7295125,広島県,庄原市,東城町川西,ヒロシマケン,ショウバラシ,トウジョウチョウカワニシ,広島県庄原市東城町川西
7295126,広島県,庄原市,東城町竹森,ヒロシマケン,ショウバラシ,トウジョウチョウタケモリ,広島県庄原市東城町竹森
7295127,広島県,庄原市,東城町粟田,ヒロシマケン,ショウバラシ,トウジョウチョウアワタ,広島県庄原市東城町粟田
7295128,広島県,庄原市,東城町受原（隠地、中ノ谷）,ヒロシマケン,ショウバラシ,トウジョウチョウウケバラ(オンジ、ナカノタニ),広島県庄原市東城町受原（隠地、中ノ谷）
7295131,広島県,庄原市,東城町新免,ヒロシマケン,ショウバラシ,トウジョウチョウシンメン,広島県庄原市東城町新免
7295132,広島県,庄原市,東城町三坂,ヒロシマケン,ショウバラシ,トウジョウチョウミサカ,広島県庄原市東城町三坂
7295241,広島県,庄原市,東城町帝釈宇山,ヒロシマケン,ショウバラシ,トウジョウチョウタイシャクウヤマ,広島県庄原市東城町帝釈宇山
7295242,広島県,庄原市,東城町帝釈山中,ヒロシマケン,ショウバラシ,トウジョウチョウタイシャクヤマナカ,広島県庄原市東城町帝釈山中
7295243,広島県,庄原市,東城町帝釈始終,ヒロシマケン,ショウバラシ,トウジョウチョウタイシャクシシュウ,広島県庄原市東城町帝釈始終
7295244,広島県,庄原市,東城町帝釈未渡,ヒロシマケン,ショウバラシ,トウジョウチョウタイシャクミド,広島県庄原市東城町帝釈未渡
7295451,広島県,庄原市,東城町田黒,ヒロシマケン,ショウバラシ,トウジョウチョウタグロ,広島県庄原市東城町田黒
7295452,広島県,庄原市,東城町菅,ヒロシマケン,ショウバラシ,トウジョウチョウスゲ,広島県庄原市東城町菅
7295453,広島県,庄原市,東城町受原（その他）,ヒロシマケン,ショウバラシ,トウジョウチョウウケバラ(ソノタ),広島県庄原市東城町受原（その他）
7295454,広島県,庄原市,東城町川鳥,ヒロシマケン,ショウバラシ,トウジョウチョウカワトリ,広島県庄原市東城町川鳥
7295455,広島県,庄原市,東城町保田,ヒロシマケン,ショウバラシ,トウジョウチョウヤスダ,広島県庄原市東城町保田
7295456,広島県,庄原市,東城町森,ヒロシマケン,ショウバラシ,トウジョウチョウモリ,広島県庄原市東城町森
7295501,広島県,庄原市,東城町小奴可,ヒロシマケン,ショウバラシ,トウジョウチョウオヌカ,広島県庄原市東城町小奴可
7295502,広島県,庄原市,東城町内堀,ヒロシマケン,ショウバラシ,トウジョウチョウウツボリ,広島県庄原市東城町内堀
7295503,広島県,庄原市,東城町千鳥,ヒロシマケン,ショウバラシ,トウジョウチョウチドリ,広島県庄原市東城町千鳥
7295504,広島県,庄原市,東城町小串,ヒロシマケン,ショウバラシ,トウジョウチョウオグシ,広島県庄原市東城町小串
7295505,広島県,庄原市,東城町塩原,ヒロシマケン,ショウバラシ,トウジョウチョウシオハラ,広島県庄原市東城町塩原
7295506,広島県,庄原市,東城町加谷,ヒロシマケン,ショウバラシ,トウジョウチョウカダニ,広島県庄原市東城町加谷
7295601,広島県,庄原市,西城町小鳥原,ヒロシマケン,ショウバラシ,サイジョウチョウヒトトバラ,広島県庄原市西城町小鳥原
7295602,広島県,庄原市,西城町油木,ヒロシマケン,ショウバラシ,サイジョウチョウユキ,広島県庄原市西城町油木
7295603,広島県,庄原市,西城町熊野（上梶谷、下梶谷、落合、明賀）,ヒロシマケン,ショウバラシ,サイジョウチョウクマノ(カミカジダニ、シモカジダニ、オチアイ、ミョウガ),広島県庄原市西城町熊野（上梶谷、下梶谷、落合、明賀）
7295611,広島県,庄原市,西城町三坂,ヒロシマケン,ショウバラシ,サイジョウチョウミサカ,広島県庄原市西城町三坂
7295612,広島県,庄原市,西城町高尾,ヒロシマケン,ショウバラシ,サイジョウチョウコウオ,広島県庄原市西城町高尾
7295613,広島県,庄原市,西城町八鳥（明賀、杉ノ原、落合駅前、石塚、二重坂）,ヒロシマケン,ショウバラシ,サイジョウチョウハットリ(ミョウガ、スギノハラ、オチアイエキマエ、イシヅカ、ニジュウザカ),広島県庄原市西城町八鳥（明賀、杉ノ原、落合駅前、石塚、二重坂）
7295721,広島県,庄原市,西城町八鳥（その他）,ヒロシマケン,ショウバラシ,サイジョウチョウハットリ(ソノタ),広島県庄原市西城町八鳥（その他）
7295722,広島県,庄原市,西城町大佐,ヒロシマケン,ショウバラシ,サイジョウチョウオオサ,広島県庄原市西城町大佐
7295723,広島県,庄原市,西城町平子,ヒロシマケン,ショウバラシ,サイジョウチョウヒラコ,広島県庄原市西城町平子
7295731,広島県,庄原市,西城町西城,ヒロシマケン,ショウバラシ,サイジョウチョウサイジョウ,広島県庄原市西城町西城
7295732,広島県,庄原市,西城町栗,ヒロシマケン,ショウバラシ,サイジョウチョウクリ,広島県庄原市西城町栗
7295733,広島県,庄原市,西城町入江,ヒロシマケン,ショウバラシ,サイジョウチョウイリエ,広島県庄原市西城町入江
7295741,広島県,庄原市,西城町熊野（その他）,ヒロシマケン,ショウバラシ,サイジョウチョウクマノ(ソノタ),広島県庄原市西城町熊野（その他）
7295742,広島県,庄原市,西城町中野,ヒロシマケン,ショウバラシ,サイジョウチョウナカノ,広島県庄原市西城町中野
7295743,広島県,庄原市,西城町中迫,ヒロシマケン,ショウバラシ,サイジョウチョウナカザコ,広島県庄原市西城町中迫
7295744,広島県,庄原市,西城町大屋,ヒロシマケン,ショウバラシ,サイジョウチョウオオヤ,広島県庄原市西城町大屋
7295745,広島県,庄原市,西城町福山,ヒロシマケン,ショウバラシ,サイジョウチョウフクヤマ,広島県庄原市西城町福山
7295811,広島県,庄原市,高町,ヒロシマケン,ショウバラシ,タカマチ,広島県庄原市高町
7295812,広島県,庄原市,小用町,ヒロシマケン,ショウバラシ,オヨウチョウ,広島県庄原市小用町
7295813,広島県,庄原市,川西町,ヒロシマケン,ショウバラシ,カワニシチョウ,広島県庄原市川西町
7296131,広島県,庄原市,山内町,ヒロシマケン,ショウバラシ,ヤマノウチチョウ,広島県庄原市山内町
7296132,広島県,庄原市,本郷町,ヒロシマケン,ショウバラシ,ホンゴウチョウ,広島県庄原市本郷町
7296133,広島県,庄原市,殿垣内町,ヒロシマケン,ショウバラシ,トノゴウチチョウ,広島県庄原市殿垣内町
7296134,広島県,庄原市,木戸町,ヒロシマケン,ショウバラシ,キドチョウ,広島県庄原市木戸町
7296141,広島県,庄原市,水越町,ヒロシマケン,ショウバラシ,ミズコシチョウ,広島県庄原市水越町
7296142,広島県,庄原市,高茂町,ヒロシマケン,ショウバラシ,コウモチョウ,広島県庄原市高茂町
7296143,広島県,庄原市,尾引町,ヒロシマケン,ショウバラシ,オビキチョウ,広島県庄原市尾引町
7296144,広島県,庄原市,平和町,ヒロシマケン,ショウバラシ,ヘイワチョウ,広島県庄原市平和町
7296201,広島県,三次市,和知町,ヒロシマケン,ミヨシシ,ワチマチ,広島県三次市和知町
7296202,広島県,三次市,向江田町,ヒロシマケン,ミヨシシ,ムコウエタマチ,広島県三次市向江田町
7296203,広島県,三次市,志幸町,ヒロシマケン,ミヨシシ,シコウマチ,広島県三次市志幸町
7296204,広島県,三次市,木乗町,ヒロシマケン,ミヨシシ,キノリマチ,広島県三次市木乗町
7296205,広島県,三次市,塩町,ヒロシマケン,ミヨシシ,シオマチ,広島県三次市塩町
7296211,広島県,三次市,大田幸町,ヒロシマケン,ミヨシシ,オオダコウマチ,広島県三次市大田幸町
7296212,広島県,三次市,糸井町,ヒロシマケン,ミヨシシ,イトイマチ,広島県三次市糸井町
7296213,広島県,三次市,廻神町,ヒロシマケン,ミヨシシ,メグリカミマチ,広島県三次市廻神町
7296214,広島県,三次市,高杉町,ヒロシマケン,ミヨシシ,タカスギマチ,広島県三次市高杉町
7296215,広島県,三次市,江田川之内町,ヒロシマケン,ミヨシシ,エタカワノウチマチ,広島県三次市江田川之内町
7296216,広島県,三次市,小田幸町,ヒロシマケン,ミヨシシ,コダコウマチ,広島県三次市小田幸町
7296331,広島県,三次市,下志和地町,ヒロシマケン,ミヨシシ,シモシワチマチ,広島県三次市下志和地町
7296332,広島県,三次市,上志和地町,ヒロシマケン,ミヨシシ,カミシワチマチ,広島県三次市上志和地町
7296333,広島県,三次市,下川立町,ヒロシマケン,ミヨシシ,シモカワタチマチ,広島県三次市下川立町
7296334,広島県,三次市,上川立町,ヒロシマケン,ミヨシシ,カミカワタチマチ,広島県三次市上川立町
7296335,広島県,三次市,秋町,ヒロシマケン,ミヨシシ,アキマチ,広島県三次市秋町
7296611,広島県,三次市,三和町福田,ヒロシマケン,ミヨシシ,ミワチョウフクダ,広島県三次市三和町福田
7296612,広島県,三次市,三和町下板木,ヒロシマケン,ミヨシシ,ミワチョウシモイタキ,広島県三次市三和町下板木
7296612,広島県,三次市,三和町敷名（鉾畦）,ヒロシマケン,ミヨシシ,ミワチョウシキナ(ホコノウネ),広島県三次市三和町敷名（鉾畦）
7296613,広島県,三次市,三和町有原,ヒロシマケン,ミヨシシ,ミワチョウアリハラ,広島県三次市三和町有原
7296614,広島県,三次市,三和町羽出庭,ヒロシマケン,ミヨシシ,ミワチョウハデニワ,広島県三次市三和町羽出庭
7296615,広島県,三次市,三和町上板木,ヒロシマケン,ミヨシシ,ミワチョウカミイタキ,広島県三次市三和町上板木
7296616,広島県,三次市,三和町大力谷,ヒロシマケン,ミヨシシ,ミワチョウダイリキダニ,広島県三次市三和町大力谷
7296701,広島県,三次市,三和町上壱,ヒロシマケン,ミヨシシ,ミワチョウカミイチ,広島県三次市三和町上壱
7296701,広島県,三次市,三和町飯田,ヒロシマケン,ミヨシシ,ミワチョウイイダ,広島県三次市三和町飯田
7296702,広島県,三次市,三和町敷名（その他）,ヒロシマケン,ミヨシシ,ミワチョウシキナ(ソノタ),広島県三次市三和町敷名（その他）
7296711,広島県,世羅郡世羅町,黒川,ヒロシマケン,セラグンセラチョウ,クロガワ,広島県世羅郡世羅町黒川
7296712,広島県,世羅郡世羅町,吉原,ヒロシマケン,セラグンセラチョウ,ヨシワラ,広島県世羅郡世羅町吉原
7296713,広島県,世羅郡世羅町,中,ヒロシマケン,セラグンセラチョウ,ナカ,広島県世羅郡世羅町中
7296714,広島県,世羅郡世羅町,上津田,ヒロシマケン,セラグンセラチョウ,カミヅタ,広島県世羅郡世羅町上津田
7296715,広島県,世羅郡世羅町,下津田,ヒロシマケン,セラグンセラチョウ,シモヅタ,広島県世羅郡世羅町下津田
7296716,広島県,世羅郡世羅町,長田,ヒロシマケン,セラグンセラチョウ,ナガタ,広島県世羅郡世羅町長田
7300000,広島県,広島市中区,,ヒロシマケン,ヒロシマシナカク,,広島県広島市中区
7300001,広島県,広島市中区,白島北町,ヒロシマケン,ヒロシマシナカク,ハクシマキタマチ,広島県広島市中区白島北町
7300002,広島県,広島市中区,白島中町,ヒロシマケン,ヒロシマシナカク,ハクシマナカマチ,広島県広島市中区白島中町
7300003,広島県,広島市中区,白島九軒町,ヒロシマケン,ヒロシマシナカク,ハクシマクケンチョウ,広島県広島市中区白島九軒町
7300004,広島県,広島市中区,東白島町,ヒロシマケン,ヒロシマシナカク,ヒガシハクシマチョウ,広島県広島市中区東白島町
7300005,広島県,広島市中区,西白島町,ヒロシマケン,ヒロシマシナカク,ニシハクシマチョウ,広島県広島市中区西白島町
7300011,広島県,広島市中区,基町,ヒロシマケン,ヒロシマシナカク,モトマチ,広島県広島市中区基町
7300012,広島県,広島市中区,上八丁堀,ヒロシマケン,ヒロシマシナカク,カミハッチョウボリ,広島県広島市中区上八丁堀
7300013,広島県,広島市中区,八丁堀,ヒロシマケン,ヒロシマシナカク,ハッチョウボリ,広島県広島市中区八丁堀
7300014,広島県,広島市中区,上幟町,ヒロシマケン,ヒロシマシナカク,カミノボリチョウ,広島県広島市中区上幟町
7300015,広島県,広島市中区,橋本町,ヒロシマケン,ヒロシマシナカク,ハシモトチョウ,広島県広島市中区橋本町
7300016,広島県,広島市中区,幟町,ヒロシマケン,ヒロシマシナカク,ノボリチョウ,広島県広島市中区幟町
7300017,広島県,広島市中区,鉄砲町,ヒロシマケン,ヒロシマシナカク,テッポウチョウ,広島県広島市中区鉄砲町
7300021,広島県,広島市中区,胡町,ヒロシマケン,ヒロシマシナカク,エビスチョウ,広島県広島市中区胡町
7300022,広島県,広島市中区,銀山町,ヒロシマケン,ヒロシマシナカク,カナヤマチョウ,広島県広島市中区銀山町
7300023,広島県,広島市中区,弥生町,ヒロシマケン,ヒロシマシナカク,ヤヨイチョウ,広島県広島市中区弥生町
7300024,広島県,広島市中区,西平塚町,ヒロシマケン,ヒロシマシナカク,ニシヒラツカチョウ,広島県広島市中区西平塚町
7300025,広島県,広島市中区,東平塚町,ヒロシマケン,ヒロシマシナカク,ヒガシヒラツカチョウ,広島県広島市中区東平塚町
7300026,広島県,広島市中区,田中町,ヒロシマケン,ヒロシマシナカク,タナカマチ,広島県広島市中区田中町
7300027,広島県,広島市中区,薬研堀,ヒロシマケン,ヒロシマシナカク,ヤゲンボリ,広島県広島市中区薬研堀
7300028,広島県,広島市中区,流川町,ヒロシマケン,ヒロシマシナカク,ナガレカワチョウ,広島県広島市中区流川町
7300029,広島県,広島市中区,三川町,ヒロシマケン,ヒロシマシナカク,ミカワチョウ,広島県広島市中区三川町
7300031,広島県,広島市中区,紙屋町,ヒロシマケン,ヒロシマシナカク,カミヤチョウ,広島県広島市中区紙屋町
7300032,広島県,広島市中区,立町,ヒロシマケン,ヒロシマシナカク,タテマチ,広島県広島市中区立町
7300033,広島県,広島市中区,堀川町,ヒロシマケン,ヒロシマシナカク,ホリカワチョウ,広島県広島市中区堀川町
7300034,広島県,広島市中区,新天地,ヒロシマケン,ヒロシマシナカク,シンテンチ,広島県広島市中区新天地
7300035,広島県,広島市中区,本通,ヒロシマケン,ヒロシマシナカク,ホンドオリ,広島県広島市中区本通
7300036,広島県,広島市中区,袋町,ヒロシマケン,ヒロシマシナカク,フクロマチ,広島県広島市中区袋町
7300037,広島県,広島市中区,中町,ヒロシマケン,ヒロシマシナカク,ナカマチ,広島県広島市中区中町
7300041,広島県,広島市中区,小町,ヒロシマケン,ヒロシマシナカク,コマチ,広島県広島市中区小町
7300042,広島県,広島市中区,国泰寺町,ヒロシマケン,ヒロシマシナカク,コクタイジマチ,広島県広島市中区国泰寺町
7300043,広島県,広島市中区,富士見町,ヒロシマケン,ヒロシマシナカク,フジミチョウ,広島県広島市中区富士見町
7300044,広島県,広島市中区,宝町,ヒロシマケン,ヒロシマシナカク,タカラマチ,広島県広島市中区宝町
7300045,広島県,広島市中区,鶴見町,ヒロシマケン,ヒロシマシナカク,ツルミチョウ,広島県広島市中区鶴見町
7300046,広島県,広島市中区,昭和町,ヒロシマケン,ヒロシマシナカク,ショウワマチ,広島県広島市中区昭和町
7300047,広島県,広島市中区,平野町,ヒロシマケン,ヒロシマシナカク,ヒラノマチ,広島県広島市中区平野町
7300048,広島県,広島市中区,竹屋町,ヒロシマケン,ヒロシマシナカク,タケヤチョウ,広島県広島市中区竹屋町
7300049,広島県,広島市中区,南竹屋町,ヒロシマケン,ヒロシマシナカク,ミナミタケヤチョウ,広島県広島市中区南竹屋町
7300051,広島県,広島市中区,大手町,ヒロシマケン,ヒロシマシナカク,オオテマチ,広島県広島市中区大手町
7300052,広島県,広島市中区,千田町,ヒロシマケン,ヒロシマシナカク,センダマチ,広島県広島市中区千田町
7300053,広島県,広島市中区,東千田町,ヒロシマケン,ヒロシマシナカク,ヒガシセンダマチ,広島県広島市中区東千田町
7300054,広島県,広島市中区,南千田東町,ヒロシマケン,ヒロシマシナカク,ミナミセンダヒガシマチ,広島県広島市中区南千田東町
7300055,広島県,広島市中区,南千田西町,ヒロシマケン,ヒロシマシナカク,ミナミセンダニシマチ,広島県広島市中区南千田西町
7300801,広島県,広島市中区,寺町,ヒロシマケン,ヒロシマシナカク,テラマチ,広島県広島市中区寺町
7300802,広島県,広島市中区,本川町,ヒロシマケン,ヒロシマシナカク,ホンカワチョウ,広島県広島市中区本川町
7300803,広島県,広島市中区,広瀬北町,ヒロシマケン,ヒロシマシナカク,ヒロセキタマチ,広島県広島市中区広瀬北町
7300804,広島県,広島市中区,広瀬町,ヒロシマケン,ヒロシマシナカク,ヒロセマチ,広島県広島市中区広瀬町
7300805,広島県,広島市中区,十日市町,ヒロシマケン,ヒロシマシナカク,トウカイチマチ,広島県広島市中区十日市町
7300806,広島県,広島市中区,西十日市町,ヒロシマケン,ヒロシマシナカク,ニシトウカイチマチ,広島県広島市中区西十日市町
7300811,広島県,広島市中区,中島町,ヒロシマケン,ヒロシマシナカク,ナカジマチョウ,広島県広島市中区中島町
7300812,広島県,広島市中区,加古町,ヒロシマケン,ヒロシマシナカク,カコマチ,広島県広島市中区加古町
7300813,広島県,広島市中区,住吉町,ヒロシマケン,ヒロシマシナカク,スミヨシチョウ,広島県広島市中区住吉町
7300814,広島県,広島市中区,羽衣町,ヒロシマケン,ヒロシマシナカク,ハゴロモチョウ,広島県広島市中区羽衣町
7300821,広島県,広島市中区,吉島町,ヒロシマケン,ヒロシマシナカク,ヨシジマチョウ,広島県広島市中区吉島町
7300822,広島県,広島市中区,吉島東,ヒロシマケン,ヒロシマシナカク,ヨシジマヒガシ,広島県広島市中区吉島東
7300823,広島県,広島市中区,吉島西,ヒロシマケン,ヒロシマシナカク,ヨシジマニシ,広島県広島市中区吉島西
7300824,広島県,広島市中区,吉島新町,ヒロシマケン,ヒロシマシナカク,ヨシジマシンマチ,広島県広島市中区吉島新町
7300825,広島県,広島市中区,光南,ヒロシマケン,ヒロシマシナカク,コウナン,広島県広島市中区光南
7300826,広島県,広島市中区,南吉島,ヒロシマケン,ヒロシマシナカク,ミナミヨシジマ,広島県広島市中区南吉島
7300831,広島県,広島市中区,江波西,ヒロシマケン,ヒロシマシナカク,エバニシ,広島県広島市中区江波西
7300832,広島県,広島市中区,江波東,ヒロシマケン,ヒロシマシナカク,エバヒガシ,広島県広島市中区江波東
7300833,広島県,広島市中区,江波本町,ヒロシマケン,ヒロシマシナカク,エバホンマチ,広島県広島市中区江波本町
7300834,広島県,広島市中区,江波二本松,ヒロシマケン,ヒロシマシナカク,エバニホンマツ,広島県広島市中区江波二本松
7300835,広島県,広島市中区,江波南,ヒロシマケン,ヒロシマシナカク,エバミナミ,広島県広島市中区江波南
7300836,広島県,広島市中区,江波栄町,ヒロシマケン,ヒロシマシナカク,エバサカエマチ,広島県広島市中区江波栄町
7300837,広島県,広島市中区,江波沖町,ヒロシマケン,ヒロシマシナカク,エバオキマチ,広島県広島市中区江波沖町
7300841,広島県,広島市中区,舟入町,ヒロシマケン,ヒロシマシナカク,フナイリマチ,広島県広島市中区舟入町
7300842,広島県,広島市中区,舟入中町,ヒロシマケン,ヒロシマシナカク,フナイリナカマチ,広島県広島市中区舟入中町
7300843,広島県,広島市中区,舟入本町,ヒロシマケン,ヒロシマシナカク,フナイリホンマチ,広島県広島市中区舟入本町
7300844,広島県,広島市中区,舟入幸町,ヒロシマケン,ヒロシマシナカク,フナイリサイワイチョウ,広島県広島市中区舟入幸町
7300845,広島県,広島市中区,舟入川口町,ヒロシマケン,ヒロシマシナカク,フナイリカワグチチョウ,広島県広島市中区舟入川口町
7300846,広島県,広島市中区,西川口町,ヒロシマケン,ヒロシマシナカク,ニシカワグチチョウ,広島県広島市中区西川口町
7300847,広島県,広島市中区,舟入南,ヒロシマケン,ヒロシマシナカク,フナイリミナミ,広島県広島市中区舟入南
7300851,広島県,広島市中区,榎町,ヒロシマケン,ヒロシマシナカク,エノマチ,広島県広島市中区榎町
7300852,広島県,広島市中区,猫屋町,ヒロシマケン,ヒロシマシナカク,ネコヤチョウ,広島県広島市中区猫屋町
7300853,広島県,広島市中区,堺町,ヒロシマケン,ヒロシマシナカク,サカイマチ,広島県広島市中区堺町
7300854,広島県,広島市中区,土橋町,ヒロシマケン,ヒロシマシナカク,ドハシチョウ,広島県広島市中区土橋町
7300855,広島県,広島市中区,小網町,ヒロシマケン,ヒロシマシナカク,コアミチョウ,広島県広島市中区小網町
7300856,広島県,広島市中区,河原町,ヒロシマケン,ヒロシマシナカク,カワラマチ,広島県広島市中区河原町
7310100,広島県,広島市安佐南区,,ヒロシマケン,ヒロシマシアサミナミク,,広島県広島市安佐南区
7310101,広島県,広島市安佐南区,八木,ヒロシマケン,ヒロシマシアサミナミク,ヤギ,広島県広島市安佐南区八木
7310101,広島県,広島市安佐南区,八木町,ヒロシマケン,ヒロシマシアサミナミク,ヤギチョウ,広島県広島市安佐南区八木町
7310102,広島県,広島市安佐南区,川内,ヒロシマケン,ヒロシマシアサミナミク,カワウチ,広島県広島市安佐南区川内
7310103,広島県,広島市安佐南区,緑井,ヒロシマケン,ヒロシマシアサミナミク,ミドリイ,広島県広島市安佐南区緑井
7310111,広島県,広島市安佐南区,東野,ヒロシマケン,ヒロシマシアサミナミク,ヒガシノ,広島県広島市安佐南区東野
7310112,広島県,広島市安佐南区,東原,ヒロシマケン,ヒロシマシアサミナミク,ヒガシハラ,広島県広島市安佐南区東原
7310113,広島県,広島市安佐南区,西原,ヒロシマケン,ヒロシマシアサミナミク,ニシハラ,広島県広島市安佐南区西原
7310121,広島県,広島市安佐南区,中須,ヒロシマケン,ヒロシマシアサミナミク,ナカス,広島県広島市安佐南区中須
7310122,広島県,広島市安佐南区,中筋,ヒロシマケン,ヒロシマシアサミナミク,ナカスジ,広島県広島市安佐南区中筋
7310123,広島県,広島市安佐南区,古市,ヒロシマケン,ヒロシマシアサミナミク,フルイチ,広島県広島市安佐南区古市
7310124,広島県,広島市安佐南区,大町東,ヒロシマケン,ヒロシマシアサミナミク,オオマチヒガシ,広島県広島市安佐南区大町東
7310125,広島県,広島市安佐南区,大町西,ヒロシマケン,ヒロシマシアサミナミク,オオマチニシ,広島県広島市安佐南区大町西
7310126,広島県,広島市安佐南区,大町,ヒロシマケン,ヒロシマシアサミナミク,オオマチ,広島県広島市安佐南区大町
7310135,広島県,広島市安佐南区,長束,ヒロシマケン,ヒロシマシアサミナミク,ナガツカ,広島県広島市安佐南区長束
7310136,広島県,広島市安佐南区,長束西,ヒロシマケン,ヒロシマシアサミナミク,ナガツカニシ,広島県広島市安佐南区長束西
7310137,広島県,広島市安佐南区,山本,ヒロシマケン,ヒロシマシアサミナミク,ヤマモト,広島県広島市安佐南区山本
7310137,広島県,広島市安佐南区,山本町,ヒロシマケン,ヒロシマシアサミナミク,ヤマモトチョウ,広島県広島市安佐南区山本町
7310138,広島県,広島市安佐南区,祇園,ヒロシマケン,ヒロシマシアサミナミク,ギオン,広島県広島市安佐南区祇園
7310139,広島県,広島市安佐南区,山本新町,ヒロシマケン,ヒロシマシアサミナミク,ヤマモトシンマチ,広島県広島市安佐南区山本新町
7310141,広島県,広島市安佐南区,相田,ヒロシマケン,ヒロシマシアサミナミク,アイタ,広島県広島市安佐南区相田
7310142,広島県,広島市安佐南区,高取南,ヒロシマケン,ヒロシマシアサミナミク,タカトリミナミ,広島県広島市安佐南区高取南
7310142,広島県,広島市安佐南区,高取南町,ヒロシマケン,ヒロシマシアサミナミク,タカトリミナミマチ,広島県広島市安佐南区高取南町
7310143,広島県,広島市安佐南区,長楽寺,ヒロシマケン,ヒロシマシアサミナミク,チョウラクジ,広島県広島市安佐南区長楽寺
7310143,広島県,広島市安佐南区,長楽寺町,ヒロシマケン,ヒロシマシアサミナミク,チョウラクジチョウ,広島県広島市安佐南区長楽寺町
7310144,広島県,広島市安佐南区,高取北,ヒロシマケン,ヒロシマシアサミナミク,タカトリキタ,広島県広島市安佐南区高取北
7310151,広島県,広島市安佐南区,毘沙門台東,ヒロシマケン,ヒロシマシアサミナミク,ビシャモンダイヒガシ,広島県広島市安佐南区毘沙門台東
7310152,広島県,広島市安佐南区,毘沙門台,ヒロシマケン,ヒロシマシアサミナミク,ビシャモンダイ,広島県広島市安佐南区毘沙門台
7310153,広島県,広島市安佐南区,安東,ヒロシマケン,ヒロシマシアサミナミク,ヤスヒガシ,広島県広島市安佐南区安東
7310154,広島県,広島市安佐南区,上安,ヒロシマケン,ヒロシマシアサミナミク,カミヤス,広島県広島市安佐南区上安
7310154,広島県,広島市安佐南区,上安町,ヒロシマケン,ヒロシマシアサミナミク,カミヤスチョウ,広島県広島市安佐南区上安町
7310201,広島県,広島市安佐北区,大林,ヒロシマケン,ヒロシマシアサキタク,オオバヤシ,広島県広島市安佐北区大林
7310202,広島県,広島市安佐北区,大林町,ヒロシマケン,ヒロシマシアサキタク,オオバヤシチョウ,広島県広島市安佐北区大林町
7310211,広島県,広島市安佐北区,三入,ヒロシマケン,ヒロシマシアサキタク,ミイリ,広島県広島市安佐北区三入
7310212,広島県,広島市安佐北区,三入東,ヒロシマケン,ヒロシマシアサキタク,ミイリヒガシ,広島県広島市安佐北区三入東
7310213,広島県,広島市安佐北区,三入南,ヒロシマケン,ヒロシマシアサキタク,ミイリミナミ,広島県広島市安佐北区三入南
7310214,広島県,広島市安佐北区,可部町桐原,ヒロシマケン,ヒロシマシアサキタク,カベチョウトゲ,広島県広島市安佐北区可部町桐原
7310215,広島県,広島市安佐北区,可部町南原,ヒロシマケン,ヒロシマシアサキタク,カベチョウナバラ,広島県広島市安佐北区可部町南原
7310216,広島県,広島市安佐北区,可部町上町屋,ヒロシマケン,ヒロシマシアサキタク,カベチョウカミマチヤ,広島県広島市安佐北区可部町上町屋
7310217,広島県,広島市安佐北区,可部町下町屋,ヒロシマケン,ヒロシマシアサキタク,カベチョウシモマチヤ,広島県広島市安佐北区可部町下町屋
7310221,広島県,広島市安佐北区,可部,ヒロシマケン,ヒロシマシアサキタク,カベ,広島県広島市安佐北区可部
7310222,広島県,広島市安佐北区,可部東,ヒロシマケン,ヒロシマシアサキタク,カベヒガシ,広島県広島市安佐北区可部東
7310223,広島県,広島市安佐北区,可部南,ヒロシマケン,ヒロシマシアサキタク,カベミナミ,広島県広島市安佐北区可部南
7310224,広島県,広島市安佐北区,可部町中島,ヒロシマケン,ヒロシマシアサキタク,カベチョウナカシマ,広島県広島市安佐北区可部町中島
7310225,広島県,広島市安佐北区,可部町上原,ヒロシマケン,ヒロシマシアサキタク,カベチョウウエバラ,広島県広島市安佐北区可部町上原
7310231,広島県,広島市安佐北区,亀山,ヒロシマケン,ヒロシマシアサキタク,カメヤマ,広島県広島市安佐北区亀山
7310232,広島県,広島市安佐北区,亀山南,ヒロシマケン,ヒロシマシアサキタク,カメヤマミナミ,広島県広島市安佐北区亀山南
7310233,広島県,広島市安佐北区,亀山西,ヒロシマケン,ヒロシマシアサキタク,カメヤマニシ,広島県広島市安佐北区亀山西
7310234,広島県,広島市安佐北区,可部町今井田,ヒロシマケン,ヒロシマシアサキタク,カベチョウイマイダ,広島県広島市安佐北区可部町今井田
7310235,広島県,広島市安佐北区,可部町勝木,ヒロシマケン,ヒロシマシアサキタク,カベチョウカツギ,広島県広島市安佐北区可部町勝木
7310236,広島県,広島市安佐北区,可部町綾ケ谷,ヒロシマケン,ヒロシマシアサキタク,カベチョウアヤガタニ,広島県広島市安佐北区可部町綾ケ谷
7310301,広島県,安芸高田市,八千代町土師,ヒロシマケン,アキタカタシ,ヤチヨチョウハジ,広島県安芸高田市八千代町土師
7310302,広島県,安芸高田市,八千代町勝田,ヒロシマケン,アキタカタシ,ヤチヨチョウカッタ,広島県安芸高田市八千代町勝田
7310303,広島県,安芸高田市,八千代町佐々井,ヒロシマケン,アキタカタシ,ヤチヨチョウササイ,広島県安芸高田市八千代町佐々井
7310304,広島県,安芸高田市,八千代町下根,ヒロシマケン,アキタカタシ,ヤチヨチョウシモネ,広島県安芸高田市八千代町下根
7310305,広島県,安芸高田市,八千代町上根,ヒロシマケン,アキタカタシ,ヤチヨチョウカミネ,広島県安芸高田市八千代町上根
7310306,広島県,安芸高田市,八千代町向山,ヒロシマケン,アキタカタシ,ヤチヨチョウムカイヤマ,広島県安芸高田市八千代町向山
7310500,広島県,安芸高田市,,ヒロシマケン,アキタカタシ,,広島県安芸高田市
7310501,広島県,安芸高田市,吉田町吉田,ヒロシマケン,アキタカタシ,ヨシダチョウヨシダ,広島県安芸高田市吉田町吉田
7310502,広島県,安芸高田市,吉田町国司,ヒロシマケン,アキタカタシ,ヨシダチョウクニシ,広島県安芸高田市吉田町国司
7310511,広島県,安芸高田市,吉田町竹原,ヒロシマケン,アキタカタシ,ヨシダチョウタケハラ,広島県安芸高田市吉田町竹原
7310512,広島県,安芸高田市,吉田町小山,ヒロシマケン,アキタカタシ,ヨシダチョウオヤマ,広島県安芸高田市吉田町小山
7310513,広島県,安芸高田市,吉田町福原,ヒロシマケン,アキタカタシ,ヨシダチョウフクバラ,広島県安芸高田市吉田町福原
7310521,広島県,安芸高田市,吉田町常友,ヒロシマケン,アキタカタシ,ヨシダチョウツネトモ,広島県安芸高田市吉田町常友
7310522,広島県,安芸高田市,吉田町常楽寺,ヒロシマケン,アキタカタシ,ヨシダチョウジョウラクジ,広島県安芸高田市吉田町常楽寺
7310523,広島県,安芸高田市,吉田町山手,ヒロシマケン,アキタカタシ,ヨシダチョウヤマテ,広島県安芸高田市吉田町山手
7310524,広島県,安芸高田市,吉田町川本,ヒロシマケン,アキタカタシ,ヨシダチョウカワモト,広島県安芸高田市吉田町川本
7310525,広島県,安芸高田市,吉田町中馬,ヒロシマケン,アキタカタシ,ヨシダチョウチュウマ,広島県安芸高田市吉田町中馬
7310531,広島県,安芸高田市,吉田町下入江,ヒロシマケン,アキタカタシ,ヨシダチョウシモイリエ,広島県安芸高田市吉田町下入江
7310532,広島県,安芸高田市,吉田町上入江,ヒロシマケン,アキタカタシ,ヨシダチョウカミイリエ,広島県安芸高田市吉田町上入江
7310533,広島県,安芸高田市,吉田町長屋,ヒロシマケン,アキタカタシ,ヨシダチョウナガヤ,広島県安芸高田市吉田町長屋
7310534,広島県,安芸高田市,吉田町桂,ヒロシマケン,アキタカタシ,ヨシダチョウカツラ,広島県安芸高田市吉田町桂
7310535,広島県,安芸高田市,吉田町高野,ヒロシマケン,アキタカタシ,ヨシダチョウコウヤ,広島県安芸高田市吉田町高野
7310541,広島県,安芸高田市,吉田町山部,ヒロシマケン,アキタカタシ,ヨシダチョウヤンベ,広島県安芸高田市吉田町山部
7310542,広島県,安芸高田市,吉田町相合,ヒロシマケン,アキタカタシ,ヨシダチョウアイオウ,広島県安芸高田市吉田町相合
7310543,広島県,安芸高田市,吉田町西浦,ヒロシマケン,アキタカタシ,ヨシダチョウニシウラ,広島県安芸高田市吉田町西浦
7310544,広島県,安芸高田市,吉田町多治比,ヒロシマケン,アキタカタシ,ヨシダチョウタジヒ,広島県安芸高田市吉田町多治比
7310611,広島県,安芸高田市,美土里町横田,ヒロシマケン,アキタカタシ,ミドリチョウヨコタ,広島県安芸高田市美土里町横田
7310612,広島県,安芸高田市,美土里町本郷,ヒロシマケン,アキタカタシ,ミドリチョウホンゴウ,広島県安芸高田市美土里町本郷
7310701,広島県,安芸高田市,美土里町北,ヒロシマケン,アキタカタシ,ミドリチョウキタ,広島県安芸高田市美土里町北
7310702,広島県,安芸高田市,美土里町桑田,ヒロシマケン,アキタカタシ,ミドリチョウクワタ,広島県安芸高田市美土里町桑田
7310703,広島県,安芸高田市,美土里町生田,ヒロシマケン,アキタカタシ,ミドリチョウイケダ,広島県安芸高田市美土里町生田
7311141,広島県,広島市安佐北区,安佐町鈴張,ヒロシマケン,ヒロシマシアサキタク,アサチョウスズハリ,広島県広島市安佐北区安佐町鈴張
7311142,広島県,広島市安佐北区,安佐町飯室,ヒロシマケン,ヒロシマシアサキタク,アサチョウイムロ,広島県広島市安佐北区安佐町飯室
7311171,広島県,広島市安佐北区,安佐町小河内,ヒロシマケン,ヒロシマシアサキタク,アサチョウオガウチ,広島県広島市安佐北区安佐町小河内
7311221,広島県,山県郡北広島町,今吉田,ヒロシマケン,ヤマガタグンキタヒロシマチョウ,イマヨシダ,広島県山県郡北広島町今吉田
7311222,広島県,山県郡北広島町,阿坂,ヒロシマケン,ヤマガタグンキタヒロシマチョウ,アザカ,広島県山県郡北広島町阿坂
7311223,広島県,山県郡北広島町,吉木（その他）,ヒロシマケン,ヤマガタグンキタヒロシマチョウ,ヨシキ(ソノタ),広島県山県郡北広島町吉木（その他）
7311500,広島県,山県郡北広島町,,ヒロシマケン,ヤマガタグンキタヒロシマチョウ,,広島県山県郡北広島町
7311501,広島県,山県郡北広島町,川戸,ヒロシマケン,ヤマガタグンキタヒロシマチョウ,カワド,広島県山県郡北広島町川戸
7311502,広島県,山県郡北広島町,蔵迫,ヒロシマケン,ヤマガタグンキタヒロシマチョウ,クラザコ,広島県山県郡北広島町蔵迫
7311503,広島県,山県郡北広島町,有間,ヒロシマケン,ヤマガタグンキタヒロシマチョウ,アリマ,広島県山県郡北広島町有間
7311504,広島県,山県郡北広島町,寺原,ヒロシマケン,ヤマガタグンキタヒロシマチョウ,テラバラ,広島県山県郡北広島町寺原
7311505,広島県,山県郡北広島町,舞綱,ヒロシマケン,ヤマガタグンキタヒロシマチョウ,モウツナ,広島県山県郡北広島町舞綱
7311506,広島県,山県郡北広島町,中山,ヒロシマケン,ヤマガタグンキタヒロシマチョウ,ナカヤマ,広島県山県郡北広島町中山
7311511,広島県,山県郡北広島町,惣森,ヒロシマケン,ヤマガタグンキタヒロシマチョウ,ソウモリ,広島県山県郡北広島町惣森
7311512,広島県,山県郡北広島町,川東,ヒロシマケン,ヤマガタグンキタヒロシマチョウ,カワヒガシ,広島県山県郡北広島町川東
7311513,広島県,山県郡北広島町,川井,ヒロシマケン,ヤマガタグンキタヒロシマチョウ,カワイ,広島県山県郡北広島町川井
7311514,広島県,山県郡北広島町,新氏神,ヒロシマケン,ヤマガタグンキタヒロシマチョウ,シンウジガミ,広島県山県郡北広島町新氏神
7311515,広島県,山県郡北広島町,壬生,ヒロシマケン,ヤマガタグンキタヒロシマチョウ,ミブ,広島県山県郡北広島町壬生
7311516,広島県,山県郡北広島町,川西,ヒロシマケン,ヤマガタグンキタヒロシマチョウ,カワニシ,広島県山県郡北広島町川西
7311521,広島県,山県郡北広島町,丁保余原,ヒロシマケン,ヤマガタグンキタヒロシマチョウ,ヨオロホヨバラ,広島県山県郡北広島町丁保余原
7311522,広島県,山県郡北広島町,新郷,ヒロシマケン,ヤマガタグンキタヒロシマチョウ,シンゴウ,広島県山県郡北広島町新郷
7311523,広島県,山県郡北広島町,南方,ヒロシマケン,ヤマガタグンキタヒロシマチョウ,ミナミガタ,広島県山県郡北広島町南方
7311524,広島県,山県郡北広島町,木次,ヒロシマケン,ヤマガタグンキタヒロシマチョウ,キツギ,広島県山県郡北広島町木次
7311525,広島県,山県郡北広島町,石井谷,ヒロシマケン,ヤマガタグンキタヒロシマチョウ,イシイダニ,広島県山県郡北広島町石井谷
7311526,広島県,山県郡北広島町,本地,ヒロシマケン,ヤマガタグンキタヒロシマチョウ,ホンジ,広島県山県郡北広島町本地
7311531,広島県,山県郡北広島町,春木,ヒロシマケン,ヤマガタグンキタヒロシマチョウ,ハルキ,広島県山県郡北広島町春木
7311532,広島県,山県郡北広島町,古保利,ヒロシマケン,ヤマガタグンキタヒロシマチョウ,コホリ,広島県山県郡北広島町古保利
7311533,広島県,山県郡北広島町,有田,ヒロシマケン,ヤマガタグンキタヒロシマチョウ,アリダ,広島県山県郡北広島町有田
7311534,広島県,山県郡北広島町,後有田,ヒロシマケン,ヤマガタグンキタヒロシマチョウ,ウシロアリダ,広島県山県郡北広島町後有田
7311535,広島県,山県郡北広島町,今田,ヒロシマケン,ヤマガタグンキタヒロシマチョウ,イマダ,広島県山県郡北広島町今田
7311701,広島県,山県郡北広島町,志路原,ヒロシマケン,ヤマガタグンキタヒロシマチョウ,シジハラ,広島県山県郡北広島町志路原
7311702,広島県,山県郡北広島町,上石,ヒロシマケン,ヤマガタグンキタヒロシマチョウ,カミイシ,広島県山県郡北広島町上石
7311703,広島県,山県郡北広島町,海応寺,ヒロシマケン,ヤマガタグンキタヒロシマチョウ,カイオウジ,広島県山県郡北広島町海応寺
7311704,広島県,山県郡北広島町,下石,ヒロシマケン,ヤマガタグンキタヒロシマチョウ,シモイシ,広島県山県郡北広島町下石
7311705,広島県,山県郡北広島町,西宗,ヒロシマケン,ヤマガタグンキタヒロシマチョウ,ニシムネ,広島県山県郡北広島町西宗
7311706,広島県,山県郡北広島町,中原,ヒロシマケン,ヤマガタグンキタヒロシマチョウ,ナカバラ,広島県山県郡北広島町中原
7311711,広島県,山県郡北広島町,戸谷,ヒロシマケン,ヤマガタグンキタヒロシマチョウ,トダニ,広島県山県郡北広島町戸谷
7311712,広島県,山県郡北広島町,都志見,ヒロシマケン,ヤマガタグンキタヒロシマチョウ,ツシミ,広島県山県郡北広島町都志見
7311713,広島県,山県郡北広島町,長笹,ヒロシマケン,ヤマガタグンキタヒロシマチョウ,ナガササ,広島県山県郡北広島町長笹
7311714,広島県,山県郡北広島町,吉木（水根）,ヒロシマケン,ヤマガタグンキタヒロシマチョウ,ヨシキ(ミノネ),広島県山県郡北広島町吉木（水根）
7312101,広島県,山県郡北広島町,宮迫,ヒロシマケン,ヤマガタグンキタヒロシマチョウ,ミヤザコ,広島県山県郡北広島町宮迫
7312102,広島県,山県郡北広島町,岩戸,ヒロシマケン,ヤマガタグンキタヒロシマチョウ,イワド,広島県山県郡北広島町岩戸
7312103,広島県,山県郡北広島町,新庄,ヒロシマケン,ヤマガタグンキタヒロシマチョウ,シンジョウ,広島県山県郡北広島町新庄
7312104,広島県,山県郡北広島町,大朝,ヒロシマケン,ヤマガタグンキタヒロシマチョウ,オオアサ,広島県山県郡北広島町大朝
7312105,広島県,山県郡北広島町,田原,ヒロシマケン,ヤマガタグンキタヒロシマチョウ,タワラ,広島県山県郡北広島町田原
7312106,広島県,山県郡北広島町,筏津,ヒロシマケン,ヤマガタグンキタヒロシマチョウ,イカダツ,広島県山県郡北広島町筏津
7312107,広島県,山県郡北広島町,大塚,ヒロシマケン,ヤマガタグンキタヒロシマチョウ,オオツカ,広島県山県郡北広島町大塚
7312201,広島県,山県郡北広島町,高野,ヒロシマケン,ヤマガタグンキタヒロシマチョウ,タカノ,広島県山県郡北広島町高野
7312202,広島県,山県郡北広島町,溝口,ヒロシマケン,ヤマガタグンキタヒロシマチョウ,ミゾグチ,広島県山県郡北広島町溝口
7312203,広島県,山県郡北広島町,小原,ヒロシマケン,ヤマガタグンキタヒロシマチョウ,コバラ,広島県山県郡北広島町小原
7312204,広島県,山県郡北広島町,大暮,ヒロシマケン,ヤマガタグンキタヒロシマチョウ,オオグレ,広島県山県郡北広島町大暮
7312205,広島県,山県郡北広島町,米沢,ヒロシマケン,ヤマガタグンキタヒロシマチョウ,ヨネザワ,広島県山県郡北広島町米沢
7312206,広島県,山県郡北広島町,移原,ヒロシマケン,ヤマガタグンキタヒロシマチョウ,ウツノハラ,広島県山県郡北広島町移原
7312311,広島県,山県郡北広島町,土橋,ヒロシマケン,ヤマガタグンキタヒロシマチョウ,ツチハシ,広島県山県郡北広島町土橋
7312312,広島県,山県郡北広島町,奥原,ヒロシマケン,ヤマガタグンキタヒロシマチョウ,オクハラ,広島県山県郡北広島町奥原
7312313,広島県,山県郡北広島町,草安,ヒロシマケン,ヤマガタグンキタヒロシマチョウ,クサヤス,広島県山県郡北広島町草安
7312314,広島県,山県郡北広島町,才乙,ヒロシマケン,ヤマガタグンキタヒロシマチョウ,サヨオト,広島県山県郡北広島町才乙
7312315,広島県,山県郡北広島町,大利原,ヒロシマケン,ヤマガタグンキタヒロシマチョウ,オオトシバラ,広島県山県郡北広島町大利原
7312316,広島県,山県郡北広島町,南門原,ヒロシマケン,ヤマガタグンキタヒロシマチョウ,ナモンバラ,広島県山県郡北広島町南門原
7312317,広島県,山県郡北広島町,苅屋形,ヒロシマケン,ヤマガタグンキタヒロシマチョウ,カリヤガタ,広島県山県郡北広島町苅屋形
7312321,広島県,山県郡北広島町,板村,ヒロシマケン,ヤマガタグンキタヒロシマチョウ,イタムラ,広島県山県郡北広島町板村
7312322,広島県,山県郡北広島町,細見（その他）,ヒロシマケン,ヤマガタグンキタヒロシマチョウ,ホソミ(ソノタ),広島県山県郡北広島町細見（その他）
7312323,広島県,山県郡北広島町,川小田,ヒロシマケン,ヤマガタグンキタヒロシマチョウ,カワコダ,広島県山県郡北広島町川小田
7312324,広島県,山県郡北広島町,奥中原,ヒロシマケン,ヤマガタグンキタヒロシマチョウ,オクナカバラ,広島県山県郡北広島町奥中原
7312431,広島県,山県郡北広島町,荒神原,ヒロシマケン,ヤマガタグンキタヒロシマチョウ,コウジンバラ,広島県山県郡北広島町荒神原
7312432,広島県,山県郡北広島町,中祖,ヒロシマケン,ヤマガタグンキタヒロシマチョウ,ナカソ,広島県山県郡北広島町中祖
7312433,広島県,山県郡北広島町,吉見坂,ヒロシマケン,ヤマガタグンキタヒロシマチョウ,ヨシミザカ,広島県山県郡北広島町吉見坂
7312434,広島県,山県郡北広島町,橋山,ヒロシマケン,ヤマガタグンキタヒロシマチョウ,ハシヤマ,広島県山県郡北広島町橋山
7312435,広島県,山県郡北広島町,空城,ヒロシマケン,ヤマガタグンキタヒロシマチョウ,ソラジョウ,広島県山県郡北広島町空城
7312436,広島県,山県郡北広島町,政所,ヒロシマケン,ヤマガタグンキタヒロシマチョウ,マンドコロ,広島県山県郡北広島町政所
7312437,広島県,山県郡北広島町,大元,ヒロシマケン,ヤマガタグンキタヒロシマチョウ,オオモト,広島県山県郡北広島町大元
7312441,広島県,山県郡北広島町,宮地,ヒロシマケン,ヤマガタグンキタヒロシマチョウ,ミヤジ,広島県山県郡北広島町宮地
7312442,広島県,山県郡北広島町,雲耕,ヒロシマケン,ヤマガタグンキタヒロシマチョウ,ウズノウ,広島県山県郡北広島町雲耕
7312551,広島県,山県郡北広島町,東八幡原,ヒロシマケン,ヤマガタグンキタヒロシマチョウ,ヒガシヤワタハラ,広島県山県郡北広島町東八幡原
7312552,広島県,山県郡北広島町,西八幡原,ヒロシマケン,ヤマガタグンキタヒロシマチョウ,ニシヤワタハラ,広島県山県郡北広島町西八幡原
7313161,広島県,広島市安佐南区,沼田町伴,ヒロシマケン,ヒロシマシアサミナミク,ヌマタチョウトモ,広島県広島市安佐南区沼田町伴
7313163,広島県,広島市安佐南区,伴北,ヒロシマケン,ヒロシマシアサミナミク,トモキタ,広島県広島市安佐南区伴北
7313164,広島県,広島市安佐南区,伴東,ヒロシマケン,ヒロシマシアサミナミク,トモヒガシ,広島県広島市安佐南区伴東
7313165,広島県,広島市安佐南区,伴中央,ヒロシマケン,ヒロシマシアサミナミク,トモチュウオウ,広島県広島市安佐南区伴中央
7313166,広島県,広島市安佐南区,大塚東,ヒロシマケン,ヒロシマシアサミナミク,オオヅカヒガシ,広島県広島市安佐南区大塚東
7313167,広島県,広島市安佐南区,大塚西,ヒロシマケン,ヒロシマシアサミナミク,オオヅカニシ,広島県広島市安佐南区大塚西
7313168,広島県,広島市安佐南区,伴南,ヒロシマケン,ヒロシマシアサミナミク,トモミナミ,広島県広島市安佐南区伴南
7313169,広島県,広島市安佐南区,伴西,ヒロシマケン,ヒロシマシアサミナミク,トモニシ,広島県広島市安佐南区伴西
7313171,広島県,広島市安佐南区,伴北町,ヒロシマケン,ヒロシマシアサミナミク,トモキタマチ,広島県広島市安佐南区伴北町
7313172,広島県,広島市安佐南区,伴東町,ヒロシマケン,ヒロシマシアサミナミク,トモヒガシマチ,広島県広島市安佐南区伴東町
7313173,広島県,広島市安佐南区,大塚東町,ヒロシマケン,ヒロシマシアサミナミク,オオヅカヒガシマチ,広島県広島市安佐南区大塚東町
7313174,広島県,広島市安佐南区,大塚西町,ヒロシマケン,ヒロシマシアサミナミク,オオヅカニシマチ,広島県広島市安佐南区大塚西町
7313175,広島県,広島市安佐南区,伴西町,ヒロシマケン,ヒロシマシアサミナミク,トモニシマチ,広島県広島市安佐南区伴西町
7313271,広島県,広島市安佐南区,沼田町阿戸,ヒロシマケン,ヒロシマシアサミナミク,ヌマタチョウアト,広島県広島市安佐南区沼田町阿戸
7313272,広島県,広島市安佐南区,沼田町吉山,ヒロシマケン,ヒロシマシアサミナミク,ヌマタチョウヨシヤマ,広島県広島市安佐南区沼田町吉山
7313351,広島県,広島市安佐北区,安佐町毛木,ヒロシマケン,ヒロシマシアサキタク,アサチョウケギ,広島県広島市安佐北区安佐町毛木
7313352,広島県,広島市安佐北区,安佐町後山,ヒロシマケン,ヒロシマシアサキタク,アサチョウウシロヤマ,広島県広島市安佐北区安佐町後山
7313353,広島県,広島市安佐北区,安佐町宮野,ヒロシマケン,ヒロシマシアサキタク,アサチョウミヤノ,広島県広島市安佐北区安佐町宮野
7313354,広島県,広島市安佐北区,安佐町筒瀬,ヒロシマケン,ヒロシマシアサキタク,アサチョウツツセ,広島県広島市安佐北区安佐町筒瀬
7313355,広島県,広島市安佐北区,安佐町動物園,ヒロシマケン,ヒロシマシアサキタク,アサチョウドウブツエン,広島県広島市安佐北区安佐町動物園
7313361,広島県,広島市安佐北区,あさひが丘,ヒロシマケン,ヒロシマシアサキタク,アサヒガオカ,広島県広島市安佐北区あさひが丘
7313362,広島県,広島市安佐北区,安佐町久地,ヒロシマケン,ヒロシマシアサキタク,アサチョウクチ,広島県広島市安佐北区安佐町久地
7313363,広島県,広島市安佐北区,安佐町くすの木台,ヒロシマケン,ヒロシマシアサキタク,アサチョウクスノキダイ,広島県広島市安佐北区安佐町くすの木台
7313411,広島県,山県郡安芸太田町,穴,ヒロシマケン,ヤマガタグンアキオオタチョウ,アナ,広島県山県郡安芸太田町穴
7313412,広島県,山県郡安芸太田町,坪野,ヒロシマケン,ヤマガタグンアキオオタチョウ,ツボノ,広島県山県郡安芸太田町坪野
7313500,広島県,山県郡安芸太田町,,ヒロシマケン,ヤマガタグンアキオオタチョウ,,広島県山県郡安芸太田町
7313501,広島県,山県郡安芸太田町,加計,ヒロシマケン,ヤマガタグンアキオオタチョウ,カケ,広島県山県郡安芸太田町加計
7313502,広島県,山県郡安芸太田町,津浪,ヒロシマケン,ヤマガタグンアキオオタチョウ,ツナミ,広島県山県郡安芸太田町津浪
7313503,広島県,山県郡安芸太田町,観音,ヒロシマケン,ヤマガタグンアキオオタチョウ,カンノン,広島県山県郡安芸太田町観音
7313551,広島県,山県郡安芸太田町,猪山,ヒロシマケン,ヤマガタグンアキオオタチョウ,イノシヤマ,広島県山県郡安芸太田町猪山
7313552,広島県,山県郡安芸太田町,平見谷,ヒロシマケン,ヤマガタグンアキオオタチョウ,ヒラミダニ,広島県山県郡安芸太田町平見谷
7313561,広島県,山県郡北広島町,細見（下山）,ヒロシマケン,ヤマガタグンキタヒロシマチョウ,ホソミ(シモヤマ),広島県山県郡北広島町細見（下山）
7313621,広島県,山県郡安芸太田町,下筒賀,ヒロシマケン,ヤマガタグンアキオオタチョウ,シモツツガ,広島県山県郡安芸太田町下筒賀
7313622,広島県,山県郡安芸太田町,下殿河内,ヒロシマケン,ヤマガタグンアキオオタチョウ,シモトノゴウチ,広島県山県郡安芸太田町下殿河内
7313664,広島県,山県郡安芸太田町,上殿,ヒロシマケン,ヤマガタグンアキオオタチョウ,カミトノ,広島県山県郡安芸太田町上殿
7313701,広島県,山県郡安芸太田町,上筒賀,ヒロシマケン,ヤマガタグンアキオオタチョウ,カミツツガ,広島県山県郡安芸太田町上筒賀
7313702,広島県,山県郡安芸太田町,中筒賀,ヒロシマケン,ヤマガタグンアキオオタチョウ,ナカツツガ,広島県山県郡安芸太田町中筒賀
7313801,広島県,山県郡安芸太田町,横川,ヒロシマケン,ヤマガタグンアキオオタチョウ,ヨコゴウ,広島県山県郡安芸太田町横川
7313810,広島県,山県郡安芸太田町,戸河内,ヒロシマケン,ヤマガタグンアキオオタチョウ,トゴウチ,広島県山県郡安芸太田町戸河内
7313812,広島県,山県郡安芸太田町,遊谷,ヒロシマケン,ヤマガタグンアキオオタチョウ,アゾウダニ,広島県山県郡安芸太田町遊谷
7313813,広島県,山県郡安芸太田町,柴木,ヒロシマケン,ヤマガタグンアキオオタチョウ,シワギ,広島県山県郡安芸太田町柴木
7313821,広島県,山県郡安芸太田町,土居,ヒロシマケン,ヤマガタグンアキオオタチョウ,ドイ,広島県山県郡安芸太田町土居
7313824,広島県,山県郡安芸太田町,寺領,ヒロシマケン,ヤマガタグンアキオオタチョウ,ジリョウ,広島県山県郡安芸太田町寺領
7313831,広島県,山県郡安芸太田町,川手,ヒロシマケン,ヤマガタグンアキオオタチョウ,カワテ,広島県山県郡安芸太田町川手
7313832,広島県,山県郡安芸太田町,梶ノ木,ヒロシマケン,ヤマガタグンアキオオタチョウ,カジノキ,広島県山県郡安芸太田町梶ノ木
7313833,広島県,山県郡安芸太田町,板ケ谷,ヒロシマケン,ヤマガタグンアキオオタチョウ,イタガタニ,広島県山県郡安芸太田町板ケ谷
7313834,広島県,山県郡安芸太田町,松原,ヒロシマケン,ヤマガタグンアキオオタチョウ,マツバラ,広島県山県郡安芸太田町松原
7313835,広島県,山県郡安芸太田町,小板,ヒロシマケン,ヤマガタグンアキオオタチョウ,コイタ,広島県山県郡安芸太田町小板
7313842,広島県,山県郡安芸太田町,田吹,ヒロシマケン,ヤマガタグンアキオオタチョウ,タブキ,広島県山県郡安芸太田町田吹
7313843,広島県,山県郡安芸太田町,吉和郷,ヒロシマケン,ヤマガタグンアキオオタチョウ,ヨシワゴウ,広島県山県郡安芸太田町吉和郷
7313844,広島県,山県郡安芸太田町,打梨,ヒロシマケン,ヤマガタグンアキオオタチョウ,ウツナシ,広島県山県郡安芸太田町打梨
7313845,広島県,山県郡安芸太田町,那須,ヒロシマケン,ヤマガタグンアキオオタチョウ,ナス,広島県山県郡安芸太田町那須
7314200,広島県,安芸郡熊野町,,ヒロシマケン,アキグンクマノチョウ,,広島県安芸郡熊野町
7314211,広島県,安芸郡熊野町,新宮,ヒロシマケン,アキグンクマノチョウ,シングウ,広島県安芸郡熊野町新宮
7314212,広島県,安芸郡熊野町,初神,ヒロシマケン,アキグンクマノチョウ,ハツカミ,広島県安芸郡熊野町初神
7314213,広島県,安芸郡熊野町,萩原,ヒロシマケン,アキグンクマノチョウ,ハギワラ,広島県安芸郡熊野町萩原
7314214,広島県,安芸郡熊野町,中溝,ヒロシマケン,アキグンクマノチョウ,ナカミゾ,広島県安芸郡熊野町中溝
7314215,広島県,安芸郡熊野町,城之堀,ヒロシマケン,アキグンクマノチョウ,ジョウノホリ,広島県安芸郡熊野町城之堀
7314221,広島県,安芸郡熊野町,出来庭,ヒロシマケン,アキグンクマノチョウ,デキニワ,広島県安芸郡熊野町出来庭
7314222,広島県,安芸郡熊野町,呉地,ヒロシマケン,アキグンクマノチョウ,クレジ,広島県安芸郡熊野町呉地
7314223,広島県,安芸郡熊野町,川角,ヒロシマケン,アキグンクマノチョウ,カワスミ,広島県安芸郡熊野町川角
7314224,広島県,安芸郡熊野町,神田,ヒロシマケン,アキグンクマノチョウ,カンダ,広島県安芸郡熊野町神田
7314225,広島県,安芸郡熊野町,石神,ヒロシマケン,アキグンクマノチョウ,イシガミ,広島県安芸郡熊野町石神
7314226,広島県,安芸郡熊野町,東山,ヒロシマケン,アキグンクマノチョウ,ヒガシヤマ,広島県安芸郡熊野町東山
7314227,広島県,安芸郡熊野町,貴船,ヒロシマケン,アキグンクマノチョウ,キフネ,広島県安芸郡熊野町貴船
7314228,広島県,安芸郡熊野町,柿迫,ヒロシマケン,アキグンクマノチョウ,カキサコ,広島県安芸郡熊野町柿迫
7314229,広島県,安芸郡熊野町,平谷,ヒロシマケン,アキグンクマノチョウ,ヒラダニ,広島県安芸郡熊野町平谷
7314231,広島県,広島市安芸区,阿戸町,ヒロシマケン,ヒロシマシアキク,アトチョウ,広島県広島市安芸区阿戸町
7314300,広島県,安芸郡坂町,,ヒロシマケン,アキグンサカチョウ,,広島県安芸郡坂町
7314301,広島県,安芸郡坂町,,ヒロシマケン,アキグンサカチョウ,,広島県安芸郡坂町
7314311,広島県,安芸郡坂町,北新地,ヒロシマケン,アキグンサカチョウ,キタシンチ,広島県安芸郡坂町北新地
7314312,広島県,安芸郡坂町,平成ケ浜,ヒロシマケン,アキグンサカチョウ,ヘイセイガハマ,広島県安芸郡坂町平成ケ浜
7314313,広島県,安芸郡坂町,坂東,ヒロシマケン,アキグンサカチョウ,サカヒガシ,広島県安芸郡坂町坂東
7314314,広島県,安芸郡坂町,坂西,ヒロシマケン,アキグンサカチョウ,サカニシ,広島県安芸郡坂町坂西
7314321,広島県,安芸郡坂町,植田,ヒロシマケン,アキグンサカチョウ,ウエダ,広島県安芸郡坂町植田
7314322,広島県,安芸郡坂町,横浜東,ヒロシマケン,アキグンサカチョウ,ヨコハマヒガシ,広島県安芸郡坂町横浜東
7314323,広島県,安芸郡坂町,横浜中央,ヒロシマケン,アキグンサカチョウ,ヨコハマチュウオウ,広島県安芸郡坂町横浜中央
7314324,広島県,安芸郡坂町,横浜西,ヒロシマケン,アキグンサカチョウ,ヨコハマニシ,広島県安芸郡坂町横浜西
7314325,広島県,安芸郡坂町,鯛尾,ヒロシマケン,アキグンサカチョウ,タイビ,広島県安芸郡坂町鯛尾
7314331,広島県,安芸郡坂町,小屋浦,ヒロシマケン,アキグンサカチョウ,コヤウラ,広島県安芸郡坂町小屋浦
7315100,広島県,広島市佐伯区,,ヒロシマケン,ヒロシマシサエキク,,広島県広島市佐伯区
7315101,広島県,広島市佐伯区,五月が丘,ヒロシマケン,ヒロシマシサエキク,サツキガオカ,広島県広島市佐伯区五月が丘
7315102,広島県,広島市佐伯区,五日市町石内,ヒロシマケン,ヒロシマシサエキク,イツカイチチョウイシウチ,広島県広島市佐伯区五日市町石内
7315103,広島県,広島市佐伯区,藤の木,ヒロシマケン,ヒロシマシサエキク,フジノキ,広島県広島市佐伯区藤の木
7315104,広島県,広島市佐伯区,五日市町上小深川,ヒロシマケン,ヒロシマシサエキク,イツカイチチョウカミコブカワ,広島県広島市佐伯区五日市町上小深川
7315105,広島県,広島市佐伯区,五日市町下小深川,ヒロシマケン,ヒロシマシサエキク,イツカイチチョウシモコブカワ,広島県広島市佐伯区五日市町下小深川
7315106,広島県,広島市佐伯区,利松,ヒロシマケン,ヒロシマシサエキク,トシマツ,広島県広島市佐伯区利松
7315107,広島県,広島市佐伯区,石内上,ヒロシマケン,ヒロシマシサエキク,イシウチカミ,広島県広島市佐伯区石内上
7315108,広島県,広島市佐伯区,石内南,ヒロシマケン,ヒロシマシサエキク,イシウチミナミ,広島県広島市佐伯区石内南
7315109,広島県,広島市佐伯区,石内北,ヒロシマケン,ヒロシマシサエキク,イシウチキタ,広島県広島市佐伯区石内北
7315111,広島県,広島市佐伯区,美鈴が丘東,ヒロシマケン,ヒロシマシサエキク,ミスズガオカヒガシ,広島県広島市佐伯区美鈴が丘東
7315112,広島県,広島市佐伯区,美鈴が丘南,ヒロシマケン,ヒロシマシサエキク,ミスズガオカミナミ,広島県広島市佐伯区美鈴が丘南
7315113,広島県,広島市佐伯区,美鈴が丘緑,ヒロシマケン,ヒロシマシサエキク,ミスズガオカミドリ,広島県広島市佐伯区美鈴が丘緑
7315114,広島県,広島市佐伯区,美鈴が丘西,ヒロシマケン,ヒロシマシサエキク,ミスズガオカニシ,広島県広島市佐伯区美鈴が丘西
7315115,広島県,広島市佐伯区,五日市町中地,ヒロシマケン,ヒロシマシサエキク,イツカイチチョウナカジ,広島県広島市佐伯区五日市町中地
7315115,広島県,広島市佐伯区,八幡東,ヒロシマケン,ヒロシマシサエキク,ヤハタヒガシ,広島県広島市佐伯区八幡東
7315116,広島県,広島市佐伯区,五日市町寺田,ヒロシマケン,ヒロシマシサエキク,イツカイチチョウテラダ,広島県広島市佐伯区五日市町寺田
7315116,広島県,広島市佐伯区,八幡,ヒロシマケン,ヒロシマシサエキク,ヤハタ,広島県広島市佐伯区八幡
7315117,広島県,広島市佐伯区,八幡が丘,ヒロシマケン,ヒロシマシサエキク,ヤハタガオカ,広島県広島市佐伯区八幡が丘
7315121,広島県,広島市佐伯区,五日市町美鈴園,ヒロシマケン,ヒロシマシサエキク,イツカイチチョウミスズエン,広島県広島市佐伯区五日市町美鈴園
7315122,広島県,広島市佐伯区,五日市町皆賀,ヒロシマケン,ヒロシマシサエキク,イツカイチチョウミナガ,広島県広島市佐伯区五日市町皆賀
7315123,広島県,広島市佐伯区,五日市町昭和台,ヒロシマケン,ヒロシマシサエキク,イツカイチチョウショウワダイ,広島県広島市佐伯区五日市町昭和台
7315124,広島県,広島市佐伯区,皆賀,ヒロシマケン,ヒロシマシサエキク,ミナガ,広島県広島市佐伯区皆賀
7315125,広島県,広島市佐伯区,五日市駅前,ヒロシマケン,ヒロシマシサエキク,イツカイチエキマエ,広島県広島市佐伯区五日市駅前
7315126,広島県,広島市佐伯区,新宮苑,ヒロシマケン,ヒロシマシサエキク,シングウエン,広島県広島市佐伯区新宮苑
7315127,広島県,広島市佐伯区,五日市,ヒロシマケン,ヒロシマシサエキク,イツカイチ,広島県広島市佐伯区五日市
7315128,広島県,広島市佐伯区,五日市中央,ヒロシマケン,ヒロシマシサエキク,イツカイチチュウオウ,広島県広島市佐伯区五日市中央
7315131,広島県,広島市佐伯区,藤垂園,ヒロシマケン,ヒロシマシサエキク,トウスイエン,広島県広島市佐伯区藤垂園
7315132,広島県,広島市佐伯区,吉見園,ヒロシマケン,ヒロシマシサエキク,ヨシミエン,広島県広島市佐伯区吉見園
7315133,広島県,広島市佐伯区,旭園,ヒロシマケン,ヒロシマシサエキク,アサヒエン,広島県広島市佐伯区旭園
7315134,広島県,広島市佐伯区,海老山町,ヒロシマケン,ヒロシマシサエキク,カイロウヤマチョウ,広島県広島市佐伯区海老山町
7315135,広島県,広島市佐伯区,海老園,ヒロシマケン,ヒロシマシサエキク,カイロウエン,広島県広島市佐伯区海老園
7315136,広島県,広島市佐伯区,楽々園,ヒロシマケン,ヒロシマシサエキク,ラクラクエン,広島県広島市佐伯区楽々園
7315137,広島県,広島市佐伯区,美の里,ヒロシマケン,ヒロシマシサエキク,ミノリ,広島県広島市佐伯区美の里
7315138,広島県,広島市佐伯区,海老山南,ヒロシマケン,ヒロシマシサエキク,カイロウヤマミナミ,広島県広島市佐伯区海老山南
7315141,広島県,広島市佐伯区,千同,ヒロシマケン,ヒロシマシサエキク,センドウ,広島県広島市佐伯区千同
7315142,広島県,広島市佐伯区,坪井,ヒロシマケン,ヒロシマシサエキク,ツボイ,広島県広島市佐伯区坪井
7315142,広島県,広島市佐伯区,坪井町,ヒロシマケン,ヒロシマシサエキク,ツボイチョウ,広島県広島市佐伯区坪井町
7315143,広島県,広島市佐伯区,三宅,ヒロシマケン,ヒロシマシサエキク,ミヤケ,広島県広島市佐伯区三宅
7315143,広島県,広島市佐伯区,三宅町,ヒロシマケン,ヒロシマシサエキク,ミヤケチョウ,広島県広島市佐伯区三宅町
7315144,広島県,広島市佐伯区,三筋,ヒロシマケン,ヒロシマシサエキク,ミスジ,広島県広島市佐伯区三筋
7315145,広島県,広島市佐伯区,隅の浜,ヒロシマケン,ヒロシマシサエキク,スミノハマ,広島県広島市佐伯区隅の浜
7315146,広島県,広島市佐伯区,屋代,ヒロシマケン,ヒロシマシサエキク,ヤシロ,広島県広島市佐伯区屋代
7315147,広島県,広島市佐伯区,屋代町,ヒロシマケン,ヒロシマシサエキク,ヤシロチョウ,広島県広島市佐伯区屋代町
7315151,広島県,広島市佐伯区,五日市町上河内,ヒロシマケン,ヒロシマシサエキク,イツカイチチョウカミゴウチ,広島県広島市佐伯区五日市町上河内
7315152,広島県,広島市佐伯区,五日市町下河内,ヒロシマケン,ヒロシマシサエキク,イツカイチチョウシモゴウチ,広島県広島市佐伯区五日市町下河内
7315153,広島県,広島市佐伯区,河内南,ヒロシマケン,ヒロシマシサエキク,コウチミナミ,広島県広島市佐伯区河内南
7315154,広島県,広島市佐伯区,薬師が丘,ヒロシマケン,ヒロシマシサエキク,ヤクシガオカ,広島県広島市佐伯区薬師が丘
7315155,広島県,広島市佐伯区,城山,ヒロシマケン,ヒロシマシサエキク,ジョウヤマ,広島県広島市佐伯区城山
7315156,広島県,広島市佐伯区,倉重,ヒロシマケン,ヒロシマシサエキク,クラシゲ,広島県広島市佐伯区倉重
7315157,広島県,広島市佐伯区,観音台,ヒロシマケン,ヒロシマシサエキク,カンノンダイ,広島県広島市佐伯区観音台
7315161,広島県,広島市佐伯区,五日市港,ヒロシマケン,ヒロシマシサエキク,イツカイチコウ,広島県広島市佐伯区五日市港
7315162,広島県,広島市佐伯区,石内東,ヒロシマケン,ヒロシマシサエキク,イシウチヒガシ,広島県広島市佐伯区石内東
7320000,広島県,広島市東区,,ヒロシマケン,ヒロシマシヒガシク,,広島県広島市東区
7320001,広島県,広島市東区,戸坂惣田,ヒロシマケン,ヒロシマシヒガシク,ヘサカソウダ,広島県広島市東区戸坂惣田
7320002,広島県,広島市東区,戸坂山根,ヒロシマケン,ヒロシマシヒガシク,ヘサカヤマネ,広島県広島市東区戸坂山根
7320003,広島県,広島市東区,戸坂中町,ヒロシマケン,ヒロシマシヒガシク,ヘサカナカマチ,広島県広島市東区戸坂中町
7320004,広島県,広島市東区,戸坂山崎町,ヒロシマケン,ヒロシマシヒガシク,ヘサカヤマサキチョウ,広島県広島市東区戸坂山崎町
7320005,広島県,広島市東区,戸坂桜東町,ヒロシマケン,ヒロシマシヒガシク,ヘサカサクラヒガシマチ,広島県広島市東区戸坂桜東町
7320006,広島県,広島市東区,戸坂桜西町,ヒロシマケン,ヒロシマシヒガシク,ヘサカサクラニシマチ,広島県広島市東区戸坂桜西町
7320007,広島県,広島市東区,戸坂桜上町,ヒロシマケン,ヒロシマシヒガシク,ヘサカサクラウエマチ,広島県広島市東区戸坂桜上町
7320008,広島県,広島市東区,戸坂くるめ木,ヒロシマケン,ヒロシマシヒガシク,ヘサカクルメギ,広島県広島市東区戸坂くるめ木
7320009,広島県,広島市東区,戸坂千足,ヒロシマケン,ヒロシマシヒガシク,ヘサカセンゾク,広島県広島市東区戸坂千足
7320011,広島県,広島市東区,戸坂町,ヒロシマケン,ヒロシマシヒガシク,ヘサカチョウ,広島県広島市東区戸坂町
7320012,広島県,広島市東区,戸坂新町,ヒロシマケン,ヒロシマシヒガシク,ヘサカシンマチ,広島県広島市東区戸坂新町
7320013,広島県,広島市東区,戸坂南,ヒロシマケン,ヒロシマシヒガシク,ヘサカミナミ,広島県広島市東区戸坂南
7320014,広島県,広島市東区,戸坂大上,ヒロシマケン,ヒロシマシヒガシク,ヘサカオオアゲ,広島県広島市東区戸坂大上
7320015,広島県,広島市東区,戸坂城山町,ヒロシマケン,ヒロシマシヒガシク,ヘサカシロヤマチョウ,広島県広島市東区戸坂城山町
7320016,広島県,広島市東区,戸坂出江,ヒロシマケン,ヒロシマシヒガシク,ヘサカイヅエ,広島県広島市東区戸坂出江
7320017,広島県,広島市東区,戸坂数甲,ヒロシマケン,ヒロシマシヒガシク,ヘサカカズコウ,広島県広島市東区戸坂数甲
7320018,広島県,広島市東区,戸坂長尾台,ヒロシマケン,ヒロシマシヒガシク,ヘサカナガオダイ,広島県広島市東区戸坂長尾台
7320021,広島県,広島市東区,中山新町,ヒロシマケン,ヒロシマシヒガシク,ナカヤマシンマチ,広島県広島市東区中山新町
7320022,広島県,広島市東区,中山鏡が丘,ヒロシマケン,ヒロシマシヒガシク,ナカヤマカガミガオカ,広島県広島市東区中山鏡が丘
7320023,広島県,広島市東区,中山東,ヒロシマケン,ヒロシマシヒガシク,ナカヤマヒガシ,広島県広島市東区中山東
7320024,広島県,広島市東区,中山南,ヒロシマケン,ヒロシマシヒガシク,ナカヤマミナミ,広島県広島市東区中山南
7320025,広島県,広島市東区,中山西,ヒロシマケン,ヒロシマシヒガシク,ナカヤマニシ,広島県広島市東区中山西
7320026,広島県,広島市東区,中山中町,ヒロシマケン,ヒロシマシヒガシク,ナカヤマナカマチ,広島県広島市東区中山中町
7320027,広島県,広島市東区,中山上,ヒロシマケン,ヒロシマシヒガシク,ナカヤマカミ,広島県広島市東区中山上
7320028,広島県,広島市東区,中山北町,ヒロシマケン,ヒロシマシヒガシク,ナカヤマキタマチ,広島県広島市東区中山北町
7320029,広島県,広島市東区,福田,ヒロシマケン,ヒロシマシヒガシク,フクダ,広島県広島市東区福田
7320031,広島県,広島市東区,馬木,ヒロシマケン,ヒロシマシヒガシク,ウマキ,広島県広島市東区馬木
7320032,広島県,広島市東区,上温品,ヒロシマケン,ヒロシマシヒガシク,カミヌクシナ,広島県広島市東区上温品
7320033,広島県,広島市東区,温品,ヒロシマケン,ヒロシマシヒガシク,ヌクシナ,広島県広島市東区温品
7320034,広島県,広島市東区,温品町,ヒロシマケン,ヒロシマシヒガシク,ヌクシナチョウ,広島県広島市東区温品町
7320035,広島県,広島市東区,馬木町,ヒロシマケン,ヒロシマシヒガシク,ウマキチョウ,広島県広島市東区馬木町
7320036,広島県,広島市東区,福田町,ヒロシマケン,ヒロシマシヒガシク,フクダチョウ,広島県広島市東区福田町
7320041,広島県,広島市東区,矢賀町,ヒロシマケン,ヒロシマシヒガシク,ヤガマチ,広島県広島市東区矢賀町
7320042,広島県,広島市東区,矢賀,ヒロシマケン,ヒロシマシヒガシク,ヤガ,広島県広島市東区矢賀
7320043,広島県,広島市東区,東山町,ヒロシマケン,ヒロシマシヒガシク,ヒガシヤマチョウ,広島県広島市東区東山町
7320044,広島県,広島市東区,矢賀新町,ヒロシマケン,ヒロシマシヒガシク,ヤガシンマチ,広島県広島市東区矢賀新町
7320045,広島県,広島市東区,曙,ヒロシマケン,ヒロシマシヒガシク,アケボノ,広島県広島市東区曙
7320046,広島県,広島市東区,尾長東,ヒロシマケン,ヒロシマシヒガシク,オナガヒガシ,広島県広島市東区尾長東
7320047,広島県,広島市東区,尾長西,ヒロシマケン,ヒロシマシヒガシク,オナガニシ,広島県広島市東区尾長西
7320048,広島県,広島市東区,山根町,ヒロシマケン,ヒロシマシヒガシク,ヤマネチョウ,広島県広島市東区山根町
7320049,広島県,広島市東区,尾長町,ヒロシマケン,ヒロシマシヒガシク,オナガマチ,広島県広島市東区尾長町
7320051,広島県,広島市東区,光が丘,ヒロシマケン,ヒロシマシヒガシク,ヒカリガオカ,広島県広島市東区光が丘
7320052,広島県,広島市東区,光町,ヒロシマケン,ヒロシマシヒガシク,ヒカリマチ,広島県広島市東区光町
7320053,広島県,広島市東区,若草町,ヒロシマケン,ヒロシマシヒガシク,ワカクサチョウ,広島県広島市東区若草町
7320054,広島県,広島市東区,愛宕町,ヒロシマケン,ヒロシマシヒガシク,アタゴマチ,広島県広島市東区愛宕町
7320055,広島県,広島市東区,東蟹屋町,ヒロシマケン,ヒロシマシヒガシク,ヒガシカニヤチョウ,広島県広島市東区東蟹屋町
7320056,広島県,広島市東区,上大須賀町,ヒロシマケン,ヒロシマシヒガシク,カミオオスガチョウ,広島県広島市東区上大須賀町
7320057,広島県,広島市東区,二葉の里,ヒロシマケン,ヒロシマシヒガシク,フタバノサト,広島県広島市東区二葉の里
7320061,広島県,広島市東区,牛田山,ヒロシマケン,ヒロシマシヒガシク,ウシタヤマ,広島県広島市東区牛田山
7320062,広島県,広島市東区,牛田早稲田,ヒロシマケン,ヒロシマシヒガシク,ウシタワセダ,広島県広島市東区牛田早稲田
7320063,広島県,広島市東区,牛田東,ヒロシマケン,ヒロシマシヒガシク,ウシタヒガシ,広島県広島市東区牛田東
7320064,広島県,広島市東区,牛田南,ヒロシマケン,ヒロシマシヒガシク,ウシタミナミ,広島県広島市東区牛田南
7320065,広島県,広島市東区,牛田中,ヒロシマケン,ヒロシマシヒガシク,ウシタナカ,広島県広島市東区牛田中
7320066,広島県,広島市東区,牛田本町,ヒロシマケン,ヒロシマシヒガシク,ウシタホンマチ,広島県広島市東区牛田本町
7320067,広島県,広島市東区,牛田旭,ヒロシマケン,ヒロシマシヒガシク,ウシタアサヒ,広島県広島市東区牛田旭
7320068,広島県,広島市東区,牛田新町,ヒロシマケン,ヒロシマシヒガシク,ウシタシンマチ,広島県広島市東区牛田新町
7320801,広島県,広島市南区,東駅町,ヒロシマケン,ヒロシマシミナミク,ヒガシエキマチ,広島県広島市南区東駅町
7320802,広島県,広島市南区,大州,ヒロシマケン,ヒロシマシミナミク,オオズ,広島県広島市南区大州
7320803,広島県,広島市南区,南蟹屋,ヒロシマケン,ヒロシマシミナミク,ミナミカニヤ,広島県広島市南区南蟹屋
7320804,広島県,広島市南区,西蟹屋,ヒロシマケン,ヒロシマシミナミク,ニシカニヤ,広島県広島市南区西蟹屋
7320805,広島県,広島市南区,東荒神町,ヒロシマケン,ヒロシマシミナミク,ヒガシコウジンマチ,広島県広島市南区東荒神町
7320806,広島県,広島市南区,西荒神町,ヒロシマケン,ヒロシマシミナミク,ニシコウジンマチ,広島県広島市南区西荒神町
7320807,広島県,広島市南区,荒神町,ヒロシマケン,ヒロシマシミナミク,コウジンマチ,広島県広島市南区荒神町
7320811,広島県,広島市南区,段原,ヒロシマケン,ヒロシマシミナミク,ダンバラ,広島県広島市南区段原
7320814,広島県,広島市南区,段原南,ヒロシマケン,ヒロシマシミナミク,ダンバラミナミ,広島県広島市南区段原南
7320815,広島県,広島市南区,比治山公園,ヒロシマケン,ヒロシマシミナミク,ヒジヤマコウエン,広島県広島市南区比治山公園
7320816,広島県,広島市南区,比治山本町,ヒロシマケン,ヒロシマシミナミク,ヒジヤマホンマチ,広島県広島市南区比治山本町
7320817,広島県,広島市南区,比治山町,ヒロシマケン,ヒロシマシミナミク,ヒジヤマチョウ,広島県広島市南区比治山町
7320818,広島県,広島市南区,段原日出,ヒロシマケン,ヒロシマシミナミク,ダンバラヒノデ,広島県広島市南区段原日出
7320819,広島県,広島市南区,段原山崎,ヒロシマケン,ヒロシマシミナミク,ダンバラヤマサキ,広島県広島市南区段原山崎
7320821,広島県,広島市南区,大須賀町,ヒロシマケン,ヒロシマシミナミク,オオスガチョウ,広島県広島市南区大須賀町
7320822,広島県,広島市南区,松原町,ヒロシマケン,ヒロシマシミナミク,マツバラチョウ,広島県広島市南区松原町
7320823,広島県,広島市南区,猿猴橋町,ヒロシマケン,ヒロシマシミナミク,エンコウバシチョウ,広島県広島市南区猿猴橋町
7320824,広島県,広島市南区,的場町,ヒロシマケン,ヒロシマシミナミク,マトバチョウ,広島県広島市南区的場町
7320825,広島県,広島市南区,金屋町,ヒロシマケン,ヒロシマシミナミク,キンヤチョウ,広島県広島市南区金屋町
7320826,広島県,広島市南区,松川町,ヒロシマケン,ヒロシマシミナミク,マツカワチョウ,広島県広島市南区松川町
7320827,広島県,広島市南区,稲荷町,ヒロシマケン,ヒロシマシミナミク,イナリマチ,広島県広島市南区稲荷町
7320828,広島県,広島市南区,京橋町,ヒロシマケン,ヒロシマシミナミク,キョウバシチョウ,広島県広島市南区京橋町
7330000,広島県,広島市西区,,ヒロシマケン,ヒロシマシニシク,,広島県広島市西区
7330001,広島県,広島市西区,大芝,ヒロシマケン,ヒロシマシニシク,オオシバ,広島県広島市西区大芝
7330002,広島県,広島市西区,楠木町,ヒロシマケン,ヒロシマシニシク,クスノキチョウ,広島県広島市西区楠木町
7330003,広島県,広島市西区,三篠町,ヒロシマケン,ヒロシマシニシク,ミササマチ,広島県広島市西区三篠町
7330004,広島県,広島市西区,打越町,ヒロシマケン,ヒロシマシニシク,ウチコシチョウ,広島県広島市西区打越町
7330005,広島県,広島市西区,三滝町,ヒロシマケン,ヒロシマシニシク,ミタキマチ,広島県広島市西区三滝町
7330006,広島県,広島市西区,三篠北町,ヒロシマケン,ヒロシマシニシク,ミササキタマチ,広島県広島市西区三篠北町
7330007,広島県,広島市西区,大宮,ヒロシマケン,ヒロシマシニシク,オオミヤ,広島県広島市西区大宮
7330011,広島県,広島市西区,横川町,ヒロシマケン,ヒロシマシニシク,ヨコガワチョウ,広島県広島市西区横川町
7330012,広島県,広島市西区,中広町,ヒロシマケン,ヒロシマシニシク,ナカヒロマチ,広島県広島市西区中広町
7330013,広島県,広島市西区,横川新町,ヒロシマケン,ヒロシマシニシク,ヨコガワシンマチ,広島県広島市西区横川新町
7330021,広島県,広島市西区,上天満町,ヒロシマケン,ヒロシマシニシク,カミテンマチョウ,広島県広島市西区上天満町
7330022,広島県,広島市西区,天満町,ヒロシマケン,ヒロシマシニシク,テンマチョウ,広島県広島市西区天満町
7330023,広島県,広島市西区,都町,ヒロシマケン,ヒロシマシニシク,ミヤコマチ,広島県広島市西区都町
7330024,広島県,広島市西区,福島町,ヒロシマケン,ヒロシマシニシク,フクシマチョウ,広島県広島市西区福島町
7330025,広島県,広島市西区,小河内町,ヒロシマケン,ヒロシマシニシク,オガワチマチ,広島県広島市西区小河内町
7330031,広島県,広島市西区,観音町,ヒロシマケン,ヒロシマシニシク,カンオンマチ,広島県広島市西区観音町
7330032,広島県,広島市西区,東観音町,ヒロシマケン,ヒロシマシニシク,ヒガシカンオンマチ,広島県広島市西区東観音町
7330033,広島県,広島市西区,観音本町,ヒロシマケン,ヒロシマシニシク,カンオンホンマチ,広島県広島市西区観音本町
7330034,広島県,広島市西区,南観音町,ヒロシマケン,ヒロシマシニシク,ミナミカンオンマチ,広島県広島市西区南観音町
7330035,広島県,広島市西区,南観音,ヒロシマケン,ヒロシマシニシク,ミナミカンオン,広島県広島市西区南観音
7330036,広島県,広島市西区,観音新町,ヒロシマケン,ヒロシマシニシク,カンオンシンマチ,広島県広島市西区観音新町
7330037,広島県,広島市西区,西観音町,ヒロシマケン,ヒロシマシニシク,ニシカンオンマチ,広島県広島市西区西観音町
7330801,広島県,広島市西区,新庄町,ヒロシマケン,ヒロシマシニシク,シンジョウチョウ,広島県広島市西区新庄町
7330802,広島県,広島市西区,三滝本町,ヒロシマケン,ヒロシマシニシク,ミタキホンマチ,広島県広島市西区三滝本町
7330803,広島県,広島市西区,竜王町,ヒロシマケン,ヒロシマシニシク,リュウオウチョウ,広島県広島市西区竜王町
7330804,広島県,広島市西区,山手町,ヒロシマケン,ヒロシマシニシク,ヤマテチョウ,広島県広島市西区山手町
7330805,広島県,広島市西区,三滝山,ヒロシマケン,ヒロシマシニシク,ミタキヤマ,広島県広島市西区三滝山
7330811,広島県,広島市西区,己斐東,ヒロシマケン,ヒロシマシニシク,コイヒガシ,広島県広島市西区己斐東
7330812,広島県,広島市西区,己斐本町,ヒロシマケン,ヒロシマシニシク,コイホンマチ,広島県広島市西区己斐本町
7330813,広島県,広島市西区,己斐中,ヒロシマケン,ヒロシマシニシク,コイナカ,広島県広島市西区己斐中
7330814,広島県,広島市西区,己斐西町,ヒロシマケン,ヒロシマシニシク,コイニシマチ,広島県広島市西区己斐西町
7330815,広島県,広島市西区,己斐上,ヒロシマケン,ヒロシマシニシク,コイウエ,広島県広島市西区己斐上
7330816,広島県,広島市西区,己斐大迫,ヒロシマケン,ヒロシマシニシク,コイオオサコ,広島県広島市西区己斐大迫
7330821,広島県,広島市西区,庚午北,ヒロシマケン,ヒロシマシニシク,コウゴキタ,広島県広島市西区庚午北
7330822,広島県,広島市西区,庚午中,ヒロシマケン,ヒロシマシニシク,コウゴナカ,広島県広島市西区庚午中
7330823,広島県,広島市西区,庚午南,ヒロシマケン,ヒロシマシニシク,コウゴミナミ,広島県広島市西区庚午南
7330831,広島県,広島市西区,扇,ヒロシマケン,ヒロシマシニシク,オオギ,広島県広島市西区扇
7330832,広島県,広島市西区,草津港,ヒロシマケン,ヒロシマシニシク,クサツコウ,広島県広島市西区草津港
7330833,広島県,広島市西区,商工センター,ヒロシマケン,ヒロシマシニシク,ショウコウセンター,広島県広島市西区商工センター
7330834,広島県,広島市西区,草津新町,ヒロシマケン,ヒロシマシニシク,クサツシンマチ,広島県広島市西区草津新町
7330841,広島県,広島市西区,井口明神,ヒロシマケン,ヒロシマシニシク,イノクチミョウジン,広島県広島市西区井口明神
7330842,広島県,広島市西区,井口,ヒロシマケン,ヒロシマシニシク,イノクチ,広島県広島市西区井口
7330843,広島県,広島市西区,井口鈴が台,ヒロシマケン,ヒロシマシニシク,イノクチスズガダイ,広島県広島市西区井口鈴が台
7330844,広島県,広島市西区,井口台,ヒロシマケン,ヒロシマシニシク,イノクチダイ,広島県広島市西区井口台
7330845,広島県,広島市西区,井口町,ヒロシマケン,ヒロシマシニシク,イノクチチョウ,広島県広島市西区井口町
7330851,広島県,広島市西区,田方,ヒロシマケン,ヒロシマシニシク,タカタ,広島県広島市西区田方
7330852,広島県,広島市西区,鈴が峰町,ヒロシマケン,ヒロシマシニシク,スズガミネチョウ,広島県広島市西区鈴が峰町
7330853,広島県,広島市西区,山田新町,ヒロシマケン,ヒロシマシニシク,ヤマダシンマチ,広島県広島市西区山田新町
7330854,広島県,広島市西区,山田町,ヒロシマケン,ヒロシマシニシク,ヤマダチョウ,広島県広島市西区山田町
7330861,広島県,広島市西区,草津東,ヒロシマケン,ヒロシマシニシク,クサツヒガシ,広島県広島市西区草津東
7330862,広島県,広島市西区,草津浜町,ヒロシマケン,ヒロシマシニシク,クサツハママチ,広島県広島市西区草津浜町
7330863,広島県,広島市西区,草津南,ヒロシマケン,ヒロシマシニシク,クサツミナミ,広島県広島市西区草津南
7330864,広島県,広島市西区,草津梅が台,ヒロシマケン,ヒロシマシニシク,クサツウメガダイ,広島県広島市西区草津梅が台
7330865,広島県,広島市西区,草津本町,ヒロシマケン,ヒロシマシニシク,クサツホンマチ,広島県広島市西区草津本町
7330871,広島県,広島市西区,高須,ヒロシマケン,ヒロシマシニシク,タカス,広島県広島市西区高須
7330872,広島県,広島市西区,古江東町,ヒロシマケン,ヒロシマシニシク,フルエヒガシマチ,広島県広島市西区古江東町
7330873,広島県,広島市西区,古江新町,ヒロシマケン,ヒロシマシニシク,フルエシンマチ,広島県広島市西区古江新町
7330874,広島県,広島市西区,古江西町,ヒロシマケン,ヒロシマシニシク,フルエニシマチ,広島県広島市西区古江西町
7330875,広島県,広島市西区,古江上,ヒロシマケン,ヒロシマシニシク,フルエウエ,広島県広島市西区古江上
7330876,広島県,広島市西区,高須台,ヒロシマケン,ヒロシマシニシク,タカスダイ,広島県広島市西区高須台
7330877,広島県,広島市西区,古田台,ヒロシマケン,ヒロシマシニシク,フルタダイ,広島県広島市西区古田台
7340000,広島県,広島市南区,,ヒロシマケン,ヒロシマシミナミク,,広島県広島市南区
7340001,広島県,広島市南区,出汐,ヒロシマケン,ヒロシマシミナミク,デシオ,広島県広島市南区出汐
7340002,広島県,広島市南区,西旭町,ヒロシマケン,ヒロシマシミナミク,ニシアサヒマチ,広島県広島市南区西旭町
7340003,広島県,広島市南区,宇品東,ヒロシマケン,ヒロシマシミナミク,ウジナヒガシ,広島県広島市南区宇品東
7340004,広島県,広島市南区,宇品神田,ヒロシマケン,ヒロシマシミナミク,ウジナカンダ,広島県広島市南区宇品神田
7340005,広島県,広島市南区,翠,ヒロシマケン,ヒロシマシミナミク,ミドリ,広島県広島市南区翠
7340006,広島県,広島市南区,西翠町,ヒロシマケン,ヒロシマシミナミク,ニシミドリマチ,広島県広島市南区西翠町
7340007,広島県,広島市南区,皆実町,ヒロシマケン,ヒロシマシミナミク,ミナミマチ,広島県広島市南区皆実町
7340011,広島県,広島市南区,宇品海岸,ヒロシマケン,ヒロシマシミナミク,ウジナカイガン,広島県広島市南区宇品海岸
7340012,広島県,広島市南区,元宇品町,ヒロシマケン,ヒロシマシミナミク,モトウジナマチ,広島県広島市南区元宇品町
7340013,広島県,広島市南区,出島,ヒロシマケン,ヒロシマシミナミク,デジマ,広島県広島市南区出島
7340014,広島県,広島市南区,宇品西,ヒロシマケン,ヒロシマシミナミク,ウジナニシ,広島県広島市南区宇品西
7340015,広島県,広島市南区,宇品御幸,ヒロシマケン,ヒロシマシミナミク,ウジナミユキ,広島県広島市南区宇品御幸
7340016,広島県,広島市南区,宇品町,ヒロシマケン,ヒロシマシミナミク,ウジナマチ,広島県広島市南区宇品町
7340017,広島県,広島市南区,似島町,ヒロシマケン,ヒロシマシミナミク,ニノシマチョウ,広島県広島市南区似島町
7340021,広島県,広島市南区,上東雲町,ヒロシマケン,ヒロシマシミナミク,カミシノノメチョウ,広島県広島市南区上東雲町
7340022,広島県,広島市南区,東雲,ヒロシマケン,ヒロシマシミナミク,シノノメ,広島県広島市南区東雲
7340023,広島県,広島市南区,東雲本町,ヒロシマケン,ヒロシマシミナミク,シノノメホンマチ,広島県広島市南区東雲本町
7340024,広島県,広島市南区,仁保新町,ヒロシマケン,ヒロシマシミナミク,ニホシンマチ,広島県広島市南区仁保新町
7340025,広島県,広島市南区,東本浦町,ヒロシマケン,ヒロシマシミナミク,ヒガシホンウラチョウ,広島県広島市南区東本浦町
7340026,広島県,広島市南区,仁保,ヒロシマケン,ヒロシマシミナミク,ニホ,広島県広島市南区仁保
7340027,広島県,広島市南区,仁保南,ヒロシマケン,ヒロシマシミナミク,ニホミナミ,広島県広島市南区仁保南
7340031,広島県,広島市南区,日宇那町,ヒロシマケン,ヒロシマシミナミク,ヒウナチョウ,広島県広島市南区日宇那町
7340032,広島県,広島市南区,楠那町,ヒロシマケン,ヒロシマシミナミク,クスナチョウ,広島県広島市南区楠那町
7340033,広島県,広島市南区,丹那新町,ヒロシマケン,ヒロシマシミナミク,タンナシンマチ,広島県広島市南区丹那新町
7340034,広島県,広島市南区,丹那町,ヒロシマケン,ヒロシマシミナミク,タンナチョウ,広島県広島市南区丹那町
7340035,広島県,広島市南区,山城町,ヒロシマケン,ヒロシマシミナミク,ヤマシロチョウ,広島県広島市南区山城町
7340036,広島県,広島市南区,旭,ヒロシマケン,ヒロシマシミナミク,アサヒ,広島県広島市南区旭
7340037,広島県,広島市南区,霞,ヒロシマケン,ヒロシマシミナミク,カスミ,広島県広島市南区霞
7340041,広島県,広島市南区,黄金山町,ヒロシマケン,ヒロシマシミナミク,オウゴンザンチョウ,広島県広島市南区黄金山町
7340042,広島県,広島市南区,北大河町,ヒロシマケン,ヒロシマシミナミク,キタオオコウチョウ,広島県広島市南区北大河町
7340043,広島県,広島市南区,南大河町,ヒロシマケン,ヒロシマシミナミク,ミナミオオコウチョウ,広島県広島市南区南大河町
7340044,広島県,広島市南区,西霞町,ヒロシマケン,ヒロシマシミナミク,ニシカスミチョウ,広島県広島市南区西霞町
7340045,広島県,広島市南区,西本浦町,ヒロシマケン,ヒロシマシミナミク,ニシホンウラチョウ,広島県広島市南区西本浦町
7340046,広島県,広島市南区,東霞町,ヒロシマケン,ヒロシマシミナミク,ヒガシカスミチョウ,広島県広島市南区東霞町
7340047,広島県,広島市南区,本浦町,ヒロシマケン,ヒロシマシミナミク,ホンウラチョウ,広島県広島市南区本浦町
7340051,広島県,広島市南区,東青崎町,ヒロシマケン,ヒロシマシミナミク,ヒガシアオサキチョウ,広島県広島市南区東青崎町
7340052,広島県,広島市南区,堀越,ヒロシマケン,ヒロシマシミナミク,ホリコシ,広島県広島市南区堀越
7340053,広島県,広島市南区,青崎,ヒロシマケン,ヒロシマシミナミク,アオサキ,広島県広島市南区青崎
7340054,広島県,広島市南区,月見町,ヒロシマケン,ヒロシマシミナミク,ツキミチョウ,広島県広島市南区月見町
7340055,広島県,広島市南区,向洋新町,ヒロシマケン,ヒロシマシミナミク,ムカイナダシンマチ,広島県広島市南区向洋新町
7340056,広島県,広島市南区,向洋沖町,ヒロシマケン,ヒロシマシミナミク,ムカイナダオキマチ,広島県広島市南区向洋沖町
7340057,広島県,広島市南区,仁保沖町,ヒロシマケン,ヒロシマシミナミク,ニホオキマチ,広島県広島市南区仁保沖町
7340061,広島県,広島市南区,向洋中町,ヒロシマケン,ヒロシマシミナミク,ムカイナダナカマチ,広島県広島市南区向洋中町
7340062,広島県,広島市南区,向洋本町,ヒロシマケン,ヒロシマシミナミク,ムカイナダホンマチ,広島県広島市南区向洋本町
7340063,広島県,広島市南区,向洋大原町,ヒロシマケン,ヒロシマシミナミク,ムカイナダオオハラチョウ,広島県広島市南区向洋大原町
7340064,広島県,広島市南区,小磯町,ヒロシマケン,ヒロシマシミナミク,コイソチョウ,広島県広島市南区小磯町
7340101,広島県,呉市,豊浜町豊島,ヒロシマケン,クレシ,トヨハマチョウトヨシマ,広島県呉市豊浜町豊島
7340102,広島県,呉市,豊浜町大浜,ヒロシマケン,クレシ,トヨハマチョウオオハマ,広島県呉市豊浜町大浜
7340103,広島県,呉市,豊浜町斎島,ヒロシマケン,クレシ,トヨハマチョウイツキシマ,広島県呉市豊浜町斎島
7340301,広島県,呉市,豊町大長,ヒロシマケン,クレシ,ユタカマチオオチョウ,広島県呉市豊町大長
7340302,広島県,呉市,豊町御手洗,ヒロシマケン,クレシ,ユタカマチミタライ,広島県呉市豊町御手洗
7340303,広島県,呉市,豊町沖友,ヒロシマケン,クレシ,ユタカマチオキトモ,広島県呉市豊町沖友
7340304,広島県,呉市,豊町久比,ヒロシマケン,クレシ,ユタカマチクビ,広島県呉市豊町久比
7350000,広島県,安芸郡府中町,,ヒロシマケン,アキグンフチュウチョウ,,広島県安芸郡府中町
7350001,広島県,安芸郡府中町,桜ケ丘,ヒロシマケン,アキグンフチュウチョウ,サクラガオカ,広島県安芸郡府中町桜ケ丘
7350002,広島県,安芸郡府中町,清水ケ丘,ヒロシマケン,アキグンフチュウチョウ,シミズガオカ,広島県安芸郡府中町清水ケ丘
7350003,広島県,安芸郡府中町,みくまり,ヒロシマケン,アキグンフチュウチョウ,ミクマリ,広島県安芸郡府中町みくまり
7350004,広島県,安芸郡府中町,山田,ヒロシマケン,アキグンフチュウチョウ,ヤマダ,広島県安芸郡府中町山田
7350005,広島県,安芸郡府中町,宮の町,ヒロシマケン,アキグンフチュウチョウ,ミヤノマチ,広島県安芸郡府中町宮の町
7350006,広島県,安芸郡府中町,本町,ヒロシマケン,アキグンフチュウチョウ,ホンマチ,広島県安芸郡府中町本町
7350007,広島県,安芸郡府中町,石井城,ヒロシマケン,アキグンフチュウチョウ,イシイジョウ,広島県安芸郡府中町石井城
7350008,広島県,安芸郡府中町,鶴江,ヒロシマケン,アキグンフチュウチョウ,ツルエ,広島県安芸郡府中町鶴江
7350009,広島県,安芸郡府中町,城ケ丘,ヒロシマケン,アキグンフチュウチョウ,ジョウガオカ,広島県安芸郡府中町城ケ丘
7350011,広島県,安芸郡府中町,瀬戸ハイム,ヒロシマケン,アキグンフチュウチョウ,セトハイム,広島県安芸郡府中町瀬戸ハイム
7350012,広島県,安芸郡府中町,八幡,ヒロシマケン,アキグンフチュウチョウ,ヤハタ,広島県安芸郡府中町八幡
7350013,広島県,安芸郡府中町,浜田,ヒロシマケン,アキグンフチュウチョウ,ハマダ,広島県安芸郡府中町浜田
7350014,広島県,安芸郡府中町,柳ケ丘,ヒロシマケン,アキグンフチュウチョウ,ヤナギガオカ,広島県安芸郡府中町柳ケ丘
7350015,広島県,安芸郡府中町,青崎東,ヒロシマケン,アキグンフチュウチョウ,アオサキヒガシ,広島県安芸郡府中町青崎東
7350016,広島県,安芸郡府中町,青崎中,ヒロシマケン,アキグンフチュウチョウ,アオサキナカ,広島県安芸郡府中町青崎中
7350017,広島県,安芸郡府中町,青崎南,ヒロシマケン,アキグンフチュウチョウ,アオサキミナミ,広島県安芸郡府中町青崎南
7350021,広島県,安芸郡府中町,大須,ヒロシマケン,アキグンフチュウチョウ,オオス,広島県安芸郡府中町大須
7350022,広島県,安芸郡府中町,大通,ヒロシマケン,アキグンフチュウチョウ,オオドオリ,広島県安芸郡府中町大通
7350023,広島県,安芸郡府中町,浜田本町,ヒロシマケン,アキグンフチュウチョウ,ハマダホンマチ,広島県安芸郡府中町浜田本町
7350024,広島県,安芸郡府中町,緑ケ丘,ヒロシマケン,アキグンフチュウチョウ,ミドリガオカ,広島県安芸郡府中町緑ケ丘
7350025,広島県,安芸郡府中町,鹿籠,ヒロシマケン,アキグンフチュウチョウ,コゴモリ,広島県安芸郡府中町鹿籠
7350026,広島県,安芸郡府中町,桃山,ヒロシマケン,アキグンフチュウチョウ,モモヤマ,広島県安芸郡府中町桃山
7350027,広島県,安芸郡府中町,千代,ヒロシマケン,アキグンフチュウチョウ,センダイ,広島県安芸郡府中町千代
7350028,広島県,安芸郡府中町,新地,ヒロシマケン,アキグンフチュウチョウ,シンチ,広島県安芸郡府中町新地
7350029,広島県,安芸郡府中町,茂陰,ヒロシマケン,アキグンフチュウチョウ,モカゲ,広島県安芸郡府中町茂陰
7360000,広島県,安芸郡海田町,,ヒロシマケン,アキグンカイタチョウ,,広島県安芸郡海田町
7360000,広島県,広島市安芸区,,ヒロシマケン,ヒロシマシアキク,,広島県広島市安芸区
7360001,広島県,安芸郡海田町,砂走,ヒロシマケン,アキグンカイタチョウ,スナバシリ,広島県安芸郡海田町砂走
7360002,広島県,安芸郡海田町,国信,ヒロシマケン,アキグンカイタチョウ,クニノブ,広島県安芸郡海田町国信
7360003,広島県,安芸郡海田町,曽田,ヒロシマケン,アキグンカイタチョウ,ソダ,広島県安芸郡海田町曽田
7360004,広島県,安芸郡海田町,石原,ヒロシマケン,アキグンカイタチョウ,イシハラ,広島県安芸郡海田町石原
7360005,広島県,安芸郡海田町,畝,ヒロシマケン,アキグンカイタチョウ,ウネ,広島県安芸郡海田町畝
7360011,広島県,安芸郡海田町,寺迫,ヒロシマケン,アキグンカイタチョウ,テラサコ,広島県安芸郡海田町寺迫
7360012,広島県,安芸郡海田町,稲葉,ヒロシマケン,アキグンカイタチョウ,イナバ,広島県安芸郡海田町稲葉
7360013,広島県,安芸郡海田町,東,ヒロシマケン,アキグンカイタチョウ,ヒガシ,広島県安芸郡海田町東
7360014,広島県,安芸郡海田町,三迫,ヒロシマケン,アキグンカイタチョウ,ミサコ,広島県安芸郡海田町三迫
7360021,広島県,安芸郡海田町,成本,ヒロシマケン,アキグンカイタチョウ,ナリモト,広島県安芸郡海田町成本
7360022,広島県,安芸郡海田町,蟹原,ヒロシマケン,アキグンカイタチョウ,カニハラ,広島県安芸郡海田町蟹原
7360023,広島県,安芸郡海田町,浜角,ヒロシマケン,アキグンカイタチョウ,ハマカド,広島県安芸郡海田町浜角
7360024,広島県,安芸郡海田町,西浜,ヒロシマケン,アキグンカイタチョウ,ニシハマ,広島県安芸郡海田町西浜
7360025,広島県,安芸郡海田町,大立町,ヒロシマケン,アキグンカイタチョウ,オオダテマチ,広島県安芸郡海田町大立町
7360026,広島県,安芸郡海田町,幸町,ヒロシマケン,アキグンカイタチョウ,サイワイマチ,広島県安芸郡海田町幸町
7360031,広島県,安芸郡海田町,曙町,ヒロシマケン,アキグンカイタチョウ,アケボノマチ,広島県安芸郡海田町曙町
7360032,広島県,安芸郡海田町,南幸町,ヒロシマケン,アキグンカイタチョウ,ミナミサイワイマチ,広島県安芸郡海田町南幸町
7360033,広島県,安芸郡海田町,南本町,ヒロシマケン,アキグンカイタチョウ,ミナミホンマチ,広島県安芸郡海田町南本町
7360034,広島県,安芸郡海田町,月見町,ヒロシマケン,アキグンカイタチョウ,ツキミマチ,広島県安芸郡海田町月見町
7360035,広島県,安芸郡海田町,日の出町,ヒロシマケン,アキグンカイタチョウ,ヒノデマチ,広島県安芸郡海田町日の出町
7360041,広島県,安芸郡海田町,大正町,ヒロシマケン,アキグンカイタチョウ,タイショウマチ,広島県安芸郡海田町大正町
7360042,広島県,安芸郡海田町,南大正町,ヒロシマケン,アキグンカイタチョウ,ミナミタイショウマチ,広島県安芸郡海田町南大正町
7360043,広島県,安芸郡海田町,栄町,ヒロシマケン,アキグンカイタチョウ,サカエマチ,広島県安芸郡海田町栄町
7360044,広島県,安芸郡海田町,南堀川町,ヒロシマケン,アキグンカイタチョウ,ミナミホリカワマチ,広島県安芸郡海田町南堀川町
7360045,広島県,安芸郡海田町,堀川町,ヒロシマケン,アキグンカイタチョウ,ホリカワマチ,広島県安芸郡海田町堀川町
7360046,広島県,安芸郡海田町,窪町,ヒロシマケン,アキグンカイタチョウ,クボマチ,広島県安芸郡海田町窪町
7360051,広島県,安芸郡海田町,つくも町,ヒロシマケン,アキグンカイタチョウ,ツクモマチ,広島県安芸郡海田町つくも町
7360052,広島県,安芸郡海田町,南つくも町,ヒロシマケン,アキグンカイタチョウ,ミナミツクモマチ,広島県安芸郡海田町南つくも町
7360053,広島県,安芸郡海田町,寿町,ヒロシマケン,アキグンカイタチョウ,コトブキマチ,広島県安芸郡海田町寿町
7360054,広島県,安芸郡海田町,西明神町,ヒロシマケン,アキグンカイタチョウ,ニシミョウジンマチ,広島県安芸郡海田町西明神町
7360055,広島県,安芸郡海田町,南明神町,ヒロシマケン,アキグンカイタチョウ,ミナミミョウジンマチ,広島県安芸郡海田町南明神町
7360056,広島県,安芸郡海田町,明神町,ヒロシマケン,アキグンカイタチョウ,ミョウジンマチ,広島県安芸郡海田町明神町
7360061,広島県,安芸郡海田町,上市,ヒロシマケン,アキグンカイタチョウ,カミイチ,広島県安芸郡海田町上市
7360062,広島県,安芸郡海田町,昭和町,ヒロシマケン,アキグンカイタチョウ,ショウワマチ,広島県安芸郡海田町昭和町
7360063,広島県,安芸郡海田町,東昭和町,ヒロシマケン,アキグンカイタチョウ,ヒガシショウワマチ,広島県安芸郡海田町東昭和町
7360064,広島県,安芸郡海田町,昭和中町,ヒロシマケン,アキグンカイタチョウ,ショウワナカマチ,広島県安芸郡海田町昭和中町
7360065,広島県,安芸郡海田町,南昭和町,ヒロシマケン,アキグンカイタチョウ,ミナミショウワマチ,広島県安芸郡海田町南昭和町
7360066,広島県,安芸郡海田町,中店,ヒロシマケン,アキグンカイタチョウ,ナカミセ,広島県安芸郡海田町中店
7360067,広島県,安芸郡海田町,稲荷町,ヒロシマケン,アキグンカイタチョウ,イナリマチ,広島県安芸郡海田町稲荷町
7360068,広島県,安芸郡海田町,新町,ヒロシマケン,アキグンカイタチョウ,シンマチ,広島県安芸郡海田町新町
7360071,広島県,安芸郡海田町,東海田,ヒロシマケン,アキグンカイタチョウ,ヒガシカイタ,広島県安芸郡海田町東海田
7360081,広島県,広島市安芸区,船越,ヒロシマケン,ヒロシマシアキク,フナコシ,広島県広島市安芸区船越
7360082,広島県,広島市安芸区,船越南,ヒロシマケン,ヒロシマシアキク,フナコシミナミ,広島県広島市安芸区船越南
7360083,広島県,広島市安芸区,矢野東,ヒロシマケン,ヒロシマシアキク,ヤノヒガシ,広島県広島市安芸区矢野東
7360084,広島県,広島市安芸区,矢野新町,ヒロシマケン,ヒロシマシアキク,ヤノシンマチ,広島県広島市安芸区矢野新町
7360085,広島県,広島市安芸区,矢野西,ヒロシマケン,ヒロシマシアキク,ヤノニシ,広島県広島市安芸区矢野西
7360086,広島県,広島市安芸区,矢野南,ヒロシマケン,ヒロシマシアキク,ヤノミナミ,広島県広島市安芸区矢野南
7360087,広島県,広島市安芸区,矢野町,ヒロシマケン,ヒロシマシアキク,ヤノチョウ,広島県広島市安芸区矢野町
7360088,広島県,広島市安芸区,畑賀,ヒロシマケン,ヒロシマシアキク,ハタカ,広島県広島市安芸区畑賀
7360089,広島県,広島市安芸区,畑賀町,ヒロシマケン,ヒロシマシアキク,ハタカチョウ,広島県広島市安芸区畑賀町
7370000,広島県,呉市,,ヒロシマケン,クレシ,,広島県呉市
7370001,広島県,呉市,阿賀北,ヒロシマケン,クレシ,アガキタ,広島県呉市阿賀北
7370002,広島県,呉市,広町（大空山）,ヒロシマケン,クレシ,ヒロマチ(オオゾラヤマ),広島県呉市広町（大空山）
7370003,広島県,呉市,阿賀中央,ヒロシマケン,クレシ,アガチュウオウ,広島県呉市阿賀中央
7370004,広島県,呉市,阿賀南,ヒロシマケン,クレシ,アガミナミ,広島県呉市阿賀南
7370005,広島県,呉市,阿賀町,ヒロシマケン,クレシ,アガマチ,広島県呉市阿賀町
7370011,広島県,呉市,見晴,ヒロシマケン,クレシ,ミハラシ,広島県呉市見晴
7370012,広島県,呉市,警固屋,ヒロシマケン,クレシ,ケゴヤ,広島県呉市警固屋
7370013,広島県,呉市,的場,ヒロシマケン,クレシ,マトバ,広島県呉市的場
7370014,広島県,呉市,坪ノ内町,ヒロシマケン,クレシ,ツボノウチチョウ,広島県呉市坪ノ内町
7370015,広島県,呉市,船見町,ヒロシマケン,クレシ,フナミチョウ,広島県呉市船見町
7370021,広島県,呉市,三和町,ヒロシマケン,クレシ,サンワチョウ,広島県呉市三和町
7370022,広島県,呉市,清水,ヒロシマケン,クレシ,シミズ,広島県呉市清水
7370023,広島県,呉市,青山町,ヒロシマケン,クレシ,アオヤマチョウ,広島県呉市青山町
7370024,広島県,呉市,宮原,ヒロシマケン,クレシ,ミヤハラ,広島県呉市宮原
7370025,広島県,呉市,室瀬町,ヒロシマケン,クレシ,ムロセチョウ,広島県呉市室瀬町
7370026,広島県,呉市,神原町,ヒロシマケン,クレシ,カンバラチョウ,広島県呉市神原町
7370027,広島県,呉市,昭和町,ヒロシマケン,クレシ,ショウワチョウ,広島県呉市昭和町
7370028,広島県,呉市,幸町,ヒロシマケン,クレシ,サイワイチョウ,広島県呉市幸町
7370029,広島県,呉市,宝町,ヒロシマケン,クレシ,タカラマチ,広島県呉市宝町
7370031,広島県,呉市,上長迫町,ヒロシマケン,クレシ,カミナガサコチョウ,広島県呉市上長迫町
7370032,広島県,呉市,本町,ヒロシマケン,クレシ,ホンマチ,広島県呉市本町
7370033,広島県,呉市,寺本町,ヒロシマケン,クレシ,テラモトチョウ,広島県呉市寺本町
7370034,広島県,呉市,溝路町,ヒロシマケン,クレシ,ミゾロチョウ,広島県呉市溝路町
7370035,広島県,呉市,長迫町,ヒロシマケン,クレシ,ナガサコチョウ,広島県呉市長迫町
7370041,広島県,呉市,和庄,ヒロシマケン,クレシ,ワショウ,広島県呉市和庄
7370042,広島県,呉市,和庄本町,ヒロシマケン,クレシ,ワショウホンマチ,広島県呉市和庄本町
7370043,広島県,呉市,和庄登町,ヒロシマケン,クレシ,ワショウノボリマチ,広島県呉市和庄登町
7370044,広島県,呉市,八幡町,ヒロシマケン,クレシ,ヤハタチョウ,広島県呉市八幡町
7370045,広島県,呉市,本通,ヒロシマケン,クレシ,ホンドオリ,広島県呉市本通
7370046,広島県,呉市,中通,ヒロシマケン,クレシ,ナカドオリ,広島県呉市中通
7370051,広島県,呉市,中央,ヒロシマケン,クレシ,チュウオウ,広島県呉市中央
7370052,広島県,呉市,東中央,ヒロシマケン,クレシ,ヒガシチュウオウ,広島県呉市東中央
7370053,広島県,呉市,長ノ木町,ヒロシマケン,クレシ,ナガノキチョウ,広島県呉市長ノ木町
7370054,広島県,呉市,上山田町,ヒロシマケン,クレシ,カミヤマダチョウ,広島県呉市上山田町
7370055,広島県,呉市,下山田町,ヒロシマケン,クレシ,シモヤマダチョウ,広島県呉市下山田町
7370056,広島県,呉市,朝日町,ヒロシマケン,クレシ,アサヒマチ,広島県呉市朝日町
7370061,広島県,呉市,畝原町,ヒロシマケン,クレシ,ウネハラチョウ,広島県呉市畝原町
7370062,広島県,呉市,西惣付町,ヒロシマケン,クレシ,ニシソウヅケチョウ,広島県呉市西惣付町
7370063,広島県,呉市,東惣付町,ヒロシマケン,クレシ,ヒガシソウヅケチョウ,広島県呉市東惣付町
7370064,広島県,呉市,西谷町,ヒロシマケン,クレシ,ニシタニチョウ,広島県呉市西谷町
7370065,広島県,呉市,望地町,ヒロシマケン,クレシ,ボウジチョウ,広島県呉市望地町
7370071,広島県,呉市,上畑町,ヒロシマケン,クレシ,カミハタチョウ,広島県呉市上畑町
7370072,広島県,呉市,東畑,ヒロシマケン,クレシ,ヒガシハタ,広島県呉市東畑
7370073,広島県,呉市,東鹿田町,ヒロシマケン,クレシ,ヒガシシカタチョウ,広島県呉市東鹿田町
7370074,広島県,呉市,西鹿田,ヒロシマケン,クレシ,ニシシカタ,広島県呉市西鹿田
7370075,広島県,呉市,西畑町,ヒロシマケン,クレシ,ニシハタチョウ,広島県呉市西畑町
7370076,広島県,呉市,吾妻,ヒロシマケン,クレシ,アヅマ,広島県呉市吾妻
7370077,広島県,呉市,伏原,ヒロシマケン,クレシ,フシハラ,広島県呉市伏原
7370078,広島県,呉市,平原町,ヒロシマケン,クレシ,ヒラバラチョウ,広島県呉市平原町
7370079,広島県,呉市,上平原町,ヒロシマケン,クレシ,カミヒラバラチョウ,広島県呉市上平原町
7370101,広島県,呉市,広石内,ヒロシマケン,クレシ,ヒロイシウチ,広島県呉市広石内
7370102,広島県,呉市,広徳丸町,ヒロシマケン,クレシ,ヒロトクマルチョウ,広島県呉市広徳丸町
7370103,広島県,呉市,広塩焼,ヒロシマケン,クレシ,ヒロシヤケ,広島県呉市広塩焼
7370104,広島県,呉市,広町田,ヒロシマケン,クレシ,ヒロマチダ,広島県呉市広町田
7370105,広島県,呉市,広中迫町,ヒロシマケン,クレシ,ヒロナカサコチョウ,広島県呉市広中迫町
7370106,広島県,呉市,広三芦,ヒロシマケン,クレシ,ヒロミアシ,広島県呉市広三芦
7370107,広島県,呉市,広弁天橋町,ヒロシマケン,クレシ,ヒロベンテンバシチョウ,広島県呉市広弁天橋町
7370111,広島県,呉市,広大広,ヒロシマケン,クレシ,ヒロオオビロ,広島県呉市広大広
7370112,広島県,呉市,広古新開,ヒロシマケン,クレシ,ヒロコシンガイ,広島県呉市広古新開
7370113,広島県,呉市,広横路,ヒロシマケン,クレシ,ヒロヨコロ,広島県呉市広横路
7370114,広島県,呉市,広文化町,ヒロシマケン,クレシ,ヒロブンカチョウ,広島県呉市広文化町
7370115,広島県,呉市,広町（その他）,ヒロシマケン,クレシ,ヒロマチ(ソノタ),広島県呉市広町（その他）
7370121,広島県,呉市,広吉松,ヒロシマケン,クレシ,ヒロヨシマツ,広島県呉市広吉松
7370122,広島県,呉市,広杭本町,ヒロシマケン,クレシ,ヒロクイモトチョウ,広島県呉市広杭本町
7370123,広島県,呉市,広両谷,ヒロシマケン,クレシ,ヒロリョウタニ,広島県呉市広両谷
7370124,広島県,呉市,広中新開,ヒロシマケン,クレシ,ヒロナカシンガイ,広島県呉市広中新開
7370125,広島県,呉市,広本町,ヒロシマケン,クレシ,ヒロホンマチ,広島県呉市広本町
7370131,広島県,呉市,広中町,ヒロシマケン,クレシ,ヒロナカチョウ,広島県呉市広中町
7370132,広島県,呉市,広名田,ヒロシマケン,クレシ,ヒロナダ,広島県呉市広名田
7370133,広島県,呉市,広末広,ヒロシマケン,クレシ,ヒロスエヒロ,広島県呉市広末広
7370134,広島県,呉市,広多賀谷,ヒロシマケン,クレシ,ヒロタガヤ,広島県呉市広多賀谷
7370135,広島県,呉市,広津久茂町,ヒロシマケン,クレシ,ヒロツクモチョウ,広島県呉市広津久茂町
7370136,広島県,呉市,広長浜,ヒロシマケン,クレシ,ヒロナガハマ,広島県呉市広長浜
7370137,広島県,呉市,広小坪,ヒロシマケン,クレシ,ヒロコツボ,広島県呉市広小坪
7370138,広島県,呉市,広黄幡町,ヒロシマケン,クレシ,ヒロオウバンチョウ,広島県呉市広黄幡町
7370141,広島県,呉市,広大新開,ヒロシマケン,クレシ,ヒロオオシンガイ,広島県呉市広大新開
7370142,広島県,呉市,広駅前,ヒロシマケン,クレシ,ヒロエキマエ,広島県呉市広駅前
7370143,広島県,呉市,広白石,ヒロシマケン,クレシ,ヒロシライシ,広島県呉市広白石
7370144,広島県,呉市,広白岳,ヒロシマケン,クレシ,ヒロシラタケ,広島県呉市広白岳
7370145,広島県,呉市,仁方西神町,ヒロシマケン,クレシ,ニガタニシガミチョウ,広島県呉市仁方西神町
7370146,広島県,呉市,仁方宮上町,ヒロシマケン,クレシ,ニガタミヤガミチョウ,広島県呉市仁方宮上町
7370151,広島県,呉市,仁方中筋町,ヒロシマケン,クレシ,ニガタナカスジチョウ,広島県呉市仁方中筋町
7370152,広島県,呉市,仁方本町,ヒロシマケン,クレシ,ニガタホンマチ,広島県呉市仁方本町
7370153,広島県,呉市,仁方大歳町,ヒロシマケン,クレシ,ニガタオオトシチョウ,広島県呉市仁方大歳町
7370154,広島県,呉市,仁方桟橋通,ヒロシマケン,クレシ,ニガタサンバシドオリ,広島県呉市仁方桟橋通
7370155,広島県,呉市,仁方錦町,ヒロシマケン,クレシ,ニガタニシキマチ,広島県呉市仁方錦町
7370156,広島県,呉市,仁方皆実町,ヒロシマケン,クレシ,ニガタミナミチョウ,広島県呉市仁方皆実町
7370157,広島県,呉市,仁方町（その他）,ヒロシマケン,クレシ,ニガタチョウ(ソノタ),広島県呉市仁方町（その他）
7370161,広島県,呉市,郷原町,ヒロシマケン,クレシ,ゴウハラチョウ,広島県呉市郷原町
7370162,広島県,呉市,郷原学びの丘,ヒロシマケン,クレシ,ゴウハラマナビノオカ,広島県呉市郷原学びの丘
7370163,広島県,呉市,郷原野路の里,ヒロシマケン,クレシ,ゴウハラノロノサト,広島県呉市郷原野路の里
7370301,広島県,呉市,下蒲刈町三之瀬,ヒロシマケン,クレシ,シモカマガリチョウサンノセ,広島県呉市下蒲刈町三之瀬
7370302,広島県,呉市,下蒲刈町大地蔵,ヒロシマケン,クレシ,シモカマガリチョウオオジゾウ,広島県呉市下蒲刈町大地蔵
7370303,広島県,呉市,下蒲刈町下島,ヒロシマケン,クレシ,シモカマガリチョウシモジマ,広島県呉市下蒲刈町下島
7370311,広島県,呉市,蒲刈町向,ヒロシマケン,クレシ,カマガリチョウムカイ,広島県呉市蒲刈町向
7370401,広島県,呉市,蒲刈町宮盛,ヒロシマケン,クレシ,カマガリチョウミヤザカリ,広島県呉市蒲刈町宮盛
7370402,広島県,呉市,蒲刈町大浦,ヒロシマケン,クレシ,カマガリチョウオオウラ,広島県呉市蒲刈町大浦
7370403,広島県,呉市,蒲刈町田戸,ヒロシマケン,クレシ,カマガリチョウタド,広島県呉市蒲刈町田戸
7370801,広島県,呉市,東辰川町,ヒロシマケン,クレシ,ヒガシタツカワチョウ,広島県呉市東辰川町
7370802,広島県,呉市,南辰川町,ヒロシマケン,クレシ,ミナミタツカワチョウ,広島県呉市南辰川町
7370803,広島県,呉市,郷町,ヒロシマケン,クレシ,ゴウマチ,広島県呉市郷町
7370804,広島県,呉市,内神町,ヒロシマケン,クレシ,ウチガミチョウ,広島県呉市内神町
7370805,広島県,呉市,東片山町,ヒロシマケン,クレシ,ヒガシカタヤマチョウ,広島県呉市東片山町
7370806,広島県,呉市,西片山町,ヒロシマケン,クレシ,ニシカタヤマチョウ,広島県呉市西片山町
7370807,広島県,呉市,江原町,ヒロシマケン,クレシ,エバラチョウ,広島県呉市江原町
7370808,広島県,呉市,上内神町,ヒロシマケン,クレシ,カミウチガミチョウ,広島県呉市上内神町
7370809,広島県,呉市,西辰川,ヒロシマケン,クレシ,ニシタツカワ,広島県呉市西辰川
7370811,広島県,呉市,西中央,ヒロシマケン,クレシ,ニシチュウオウ,広島県呉市西中央
7370812,広島県,呉市,西三津田町,ヒロシマケン,クレシ,ニシミツタチョウ,広島県呉市西三津田町
7370813,広島県,呉市,東三津田町,ヒロシマケン,クレシ,ヒガシミツタチョウ,広島県呉市東三津田町
7370814,広島県,呉市,山手,ヒロシマケン,クレシ,ヤマテ,広島県呉市山手
7370815,広島県,呉市,荘山田村（二河山）,ヒロシマケン,クレシ,ソウヤマダムラ(フタカワヤマ),広島県呉市荘山田村（二河山）
7370816,広島県,呉市,二河峡町,ヒロシマケン,クレシ,ニコウキョウチョウ,広島県呉市二河峡町
7370817,広島県,呉市,上二河町,ヒロシマケン,クレシ,カミニコウチョウ,広島県呉市上二河町
7370818,広島県,呉市,二河町,ヒロシマケン,クレシ,ニコウチョウ,広島県呉市二河町
7370821,広島県,呉市,三条,ヒロシマケン,クレシ,サンジョウ,広島県呉市三条
7370822,広島県,呉市,築地町,ヒロシマケン,クレシ,ツキジチョウ,広島県呉市築地町
7370823,広島県,呉市,海岸,ヒロシマケン,クレシ,カイガン,広島県呉市海岸
7370824,広島県,呉市,東川原石町,ヒロシマケン,クレシ,ヒガシカワライシチョウ,広島県呉市東川原石町
7370825,広島県,呉市,西川原石町,ヒロシマケン,クレシ,ニシカワライシチョウ,広島県呉市西川原石町
7370826,広島県,呉市,両城,ヒロシマケン,クレシ,リョウジョウ,広島県呉市両城
7370827,広島県,呉市,西愛宕町,ヒロシマケン,クレシ,ニシアタゴチョウ,広島県呉市西愛宕町
7370828,広島県,呉市,東愛宕町,ヒロシマケン,クレシ,ヒガシアタゴチョウ,広島県呉市東愛宕町
7370831,広島県,呉市,光町,ヒロシマケン,クレシ,ヒカリマチ,広島県呉市光町
7370832,広島県,呉市,若葉町,ヒロシマケン,クレシ,ワカバチョウ,広島県呉市若葉町
7370833,広島県,呉市,晴海町,ヒロシマケン,クレシ,ハルミチョウ,広島県呉市晴海町
7370834,広島県,呉市,瀬戸見町,ヒロシマケン,クレシ,セトミチョウ,広島県呉市瀬戸見町
7370835,広島県,呉市,新宮町,ヒロシマケン,クレシ,シングウチョウ,広島県呉市新宮町
7370836,広島県,呉市,北塩屋町,ヒロシマケン,クレシ,キタシオヤチョウ,広島県呉市北塩屋町
7370837,広島県,呉市,東塩屋町,ヒロシマケン,クレシ,ヒガシシオヤチョウ,広島県呉市東塩屋町
7370838,広島県,呉市,西塩屋町,ヒロシマケン,クレシ,ニシシオヤチョウ,広島県呉市西塩屋町
7370841,広島県,呉市,吉浦神賀町,ヒロシマケン,クレシ,ヨシウラジンガチョウ,広島県呉市吉浦神賀町
7370842,広島県,呉市,吉浦東町,ヒロシマケン,クレシ,ヨシウラヒガシマチ,広島県呉市吉浦東町
7370843,広島県,呉市,吉浦潭鼓町,ヒロシマケン,クレシ,ヨシウラタンコチョウ,広島県呉市吉浦潭鼓町
7370844,広島県,呉市,吉浦池ノ浦町,ヒロシマケン,クレシ,ヨシウライケノウラチョウ,広島県呉市吉浦池ノ浦町
7370845,広島県,呉市,吉浦新町,ヒロシマケン,クレシ,ヨシウラシンマチ,広島県呉市吉浦新町
7370846,広島県,呉市,吉浦町（乙廻り）,ヒロシマケン,クレシ,ヨシウラチョウ(オトマワリ),広島県呉市吉浦町（乙廻り）
7370851,広島県,呉市,吉浦新出町,ヒロシマケン,クレシ,ヨシウラシンデチョウ,広島県呉市吉浦新出町
7370852,広島県,呉市,吉浦東本町,ヒロシマケン,クレシ,ヨシウラヒガシホンマチ,広島県呉市吉浦東本町
7370853,広島県,呉市,吉浦中町,ヒロシマケン,クレシ,ヨシウラナカマチ,広島県呉市吉浦中町
7370854,広島県,呉市,吉浦町（その他）,ヒロシマケン,クレシ,ヨシウラチョウ(ソノタ),広島県呉市吉浦町（その他）
7370861,広島県,呉市,吉浦本町,ヒロシマケン,クレシ,ヨシウラホンマチ,広島県呉市吉浦本町
7370862,広島県,呉市,狩留賀町,ヒロシマケン,クレシ,カルガチョウ,広島県呉市狩留賀町
7370863,広島県,呉市,吉浦宮花町,ヒロシマケン,クレシ,ヨシウラミヤハナチョウ,広島県呉市吉浦宮花町
7370864,広島県,呉市,吉浦西城町,ヒロシマケン,クレシ,ヨシウラニシジョウチョウ,広島県呉市吉浦西城町
7370865,広島県,呉市,吉浦岩神町,ヒロシマケン,クレシ,ヨシウライワガミチョウ,広島県呉市吉浦岩神町
7370866,広島県,呉市,吉浦松葉町,ヒロシマケン,クレシ,ヨシウラマツバチョウ,広島県呉市吉浦松葉町
7370867,広島県,呉市,吉浦上城町,ヒロシマケン,クレシ,ヨシウラカミジョウチョウ,広島県呉市吉浦上城町
7370871,広島県,呉市,長谷町,ヒロシマケン,クレシ,ナガタニチョウ,広島県呉市長谷町
7370872,広島県,呉市,梅木町,ヒロシマケン,クレシ,ウメキチョウ,広島県呉市梅木町
7370873,広島県,呉市,汐見町,ヒロシマケン,クレシ,シオミチョウ,広島県呉市汐見町
7370874,広島県,呉市,天応南町,ヒロシマケン,クレシ,テンノウミナミマチ,広島県呉市天応南町
7370875,広島県,呉市,天応大浜,ヒロシマケン,クレシ,テンノウオオハマ,広島県呉市天応大浜
7370876,広島県,呉市,天応宮町,ヒロシマケン,クレシ,テンノウミヤマチ,広島県呉市天応宮町
7370877,広島県,呉市,弥生町,ヒロシマケン,クレシ,ヤヨイチョウ,広島県呉市弥生町
7370878,広島県,呉市,大山町,ヒロシマケン,クレシ,オオヤマチョウ,広島県呉市大山町
7370881,広島県,呉市,天応塩谷町,ヒロシマケン,クレシ,テンノウシオヤチョウ,広島県呉市天応塩谷町
7370882,広島県,呉市,天応東久保,ヒロシマケン,クレシ,テンノウヒガシクボ,広島県呉市天応東久保
7370883,広島県,呉市,天応西条,ヒロシマケン,クレシ,テンノウニシジョウ,広島県呉市天応西条
7370884,広島県,呉市,天応伝十原町,ヒロシマケン,クレシ,テンノウデンジュウバラチョウ,広島県呉市天応伝十原町
7370885,広島県,呉市,天応福浦町,ヒロシマケン,クレシ,テンノウフクウラチョウ,広島県呉市天応福浦町
7370901,広島県,呉市,焼山ひばりケ丘町,ヒロシマケン,クレシ,ヤケヤマヒバリガオカチョウ,広島県呉市焼山ひばりケ丘町
7370902,広島県,呉市,焼山此原町,ヒロシマケン,クレシ,ヤケヤマコノハラチョウ,広島県呉市焼山此原町
7370903,広島県,呉市,焼山西,ヒロシマケン,クレシ,ヤケヤマニシ,広島県呉市焼山西
7370904,広島県,呉市,焼山（打田）,ヒロシマケン,クレシ,ヤケヤマ(ウチダ),広島県呉市焼山（打田）
7370905,広島県,呉市,焼山町（山の神）,ヒロシマケン,クレシ,ヤケヤマチョウ(ヤマノカミ),広島県呉市焼山町（山の神）
7370906,広島県,呉市,焼山町（野登呂）,ヒロシマケン,クレシ,ヤケヤマチョウ(ノトロ),広島県呉市焼山町（野登呂）
7370907,広島県,呉市,焼山町（その他）,ヒロシマケン,クレシ,ヤケヤマチョウ(ソノタ),広島県呉市焼山町（その他）
7370908,広島県,呉市,焼山宮ケ迫,ヒロシマケン,クレシ,ヤケヤマミヤガサコ,広島県呉市焼山宮ケ迫
7370911,広島県,呉市,焼山北,ヒロシマケン,クレシ,ヤケヤマキタ,広島県呉市焼山北
7370912,広島県,呉市,焼山本庄,ヒロシマケン,クレシ,ヤケヤマホンジョウ,広島県呉市焼山本庄
7370913,広島県,呉市,焼山泉ケ丘,ヒロシマケン,クレシ,ヤケヤマイズミガオカ,広島県呉市焼山泉ケ丘
7370914,広島県,呉市,押込西平町,ヒロシマケン,クレシ,オシゴメニシヒラチョウ,広島県呉市押込西平町
7370915,広島県,呉市,押込,ヒロシマケン,クレシ,オシゴメ,広島県呉市押込
7370921,広島県,呉市,苗代町,ヒロシマケン,クレシ,ナエシロチョウ,広島県呉市苗代町
7370922,広島県,呉市,栃原町,ヒロシマケン,クレシ,トチバラチョウ,広島県呉市栃原町
7370923,広島県,呉市,神山,ヒロシマケン,クレシ,ジンヤマ,広島県呉市神山
7370924,広島県,呉市,焼山南,ヒロシマケン,クレシ,ヤケヤマミナミ,広島県呉市焼山南
7370931,広島県,呉市,焼山三ツ石町,ヒロシマケン,クレシ,ヤケヤマミツイシチョウ,広島県呉市焼山三ツ石町
7370932,広島県,呉市,焼山松ケ丘,ヒロシマケン,クレシ,ヤケヤママツガオカ,広島県呉市焼山松ケ丘
7370933,広島県,呉市,焼山桜ケ丘,ヒロシマケン,クレシ,ヤケヤマサクラガオカ,広島県呉市焼山桜ケ丘
7370934,広島県,呉市,焼山政畝,ヒロシマケン,クレシ,ヤケヤママサウネ,広島県呉市焼山政畝
7370935,広島県,呉市,焼山中央,ヒロシマケン,クレシ,ヤケヤマチュウオウ,広島県呉市焼山中央
7370936,広島県,呉市,焼山東,ヒロシマケン,クレシ,ヤケヤマヒガシ,広島県呉市焼山東
7371201,広島県,呉市,音戸町坪井,ヒロシマケン,クレシ,オンドチョウツボイ,広島県呉市音戸町坪井
7371202,広島県,呉市,音戸町引地,ヒロシマケン,クレシ,オンドチョウヒキジ,広島県呉市音戸町引地
7371203,広島県,呉市,音戸町鰯浜,ヒロシマケン,クレシ,オンドチョウイワシハマ,広島県呉市音戸町鰯浜
7371204,広島県,呉市,音戸町北隠渡,ヒロシマケン,クレシ,オンドチョウキタオンド,広島県呉市音戸町北隠渡
7371205,広島県,呉市,音戸町南隠渡,ヒロシマケン,クレシ,オンドチョウミナミオンド,広島県呉市音戸町南隠渡
7371206,広島県,呉市,音戸町高須,ヒロシマケン,クレシ,オンドチョウタカス,広島県呉市音戸町高須
7371207,広島県,呉市,音戸町波多見,ヒロシマケン,クレシ,オンドチョウハタミ,広島県呉市音戸町波多見
7371211,広島県,呉市,音戸町畑,ヒロシマケン,クレシ,オンドチョウハタ,広島県呉市音戸町畑
7371212,広島県,呉市,音戸町有清,ヒロシマケン,クレシ,オンドチョウアリキヨ,広島県呉市音戸町有清
7371213,広島県,呉市,音戸町先奥,ヒロシマケン,クレシ,オンドチョウサキオク,広島県呉市音戸町先奥
7371214,広島県,呉市,音戸町藤脇,ヒロシマケン,クレシ,オンドチョウフジノワキ,広島県呉市音戸町藤脇
7371215,広島県,呉市,音戸町早瀬,ヒロシマケン,クレシ,オンドチョウハヤセ,広島県呉市音戸町早瀬
7371216,広島県,呉市,音戸町田原,ヒロシマケン,クレシ,オンドチョウタハラ,広島県呉市音戸町田原
7371217,広島県,呉市,音戸町渡子,ヒロシマケン,クレシ,オンドチョウトノコ,広島県呉市音戸町渡子
7371377,広島県,呉市,倉橋町,ヒロシマケン,クレシ,クラハシチョウ,広島県呉市倉橋町
7372100,広島県,江田島市,,ヒロシマケン,エタジマシ,,広島県江田島市
7372101,広島県,江田島市,大柿町飛渡瀬,ヒロシマケン,エタジマシ,オオガキチョウヒトノセ,広島県江田島市大柿町飛渡瀬
7372111,広島県,江田島市,江田島町切串,ヒロシマケン,エタジマシ,エタジマチョウキリクシ,広島県江田島市江田島町切串
7372112,広島県,江田島市,江田島町幸ノ浦,ヒロシマケン,エタジマシ,エタジマチョウコウノウラ,広島県江田島市江田島町幸ノ浦
7372113,広島県,江田島市,江田島町大須,ヒロシマケン,エタジマシ,エタジマチョウオオズ,広島県江田島市江田島町大須
7372121,広島県,江田島市,江田島町小用,ヒロシマケン,エタジマシ,エタジマチョウコヨウ,広島県江田島市江田島町小用
7372122,広島県,江田島市,江田島町中央,ヒロシマケン,エタジマシ,エタジマチョウチュウオウ,広島県江田島市江田島町中央
7372123,広島県,江田島市,江田島町国有無番地,ヒロシマケン,エタジマシ,エタジマチョウコクユウムバンチ,広島県江田島市江田島町国有無番地
7372124,広島県,江田島市,江田島町宮ノ原,ヒロシマケン,エタジマシ,エタジマチョウミヤノハラ,広島県江田島市江田島町宮ノ原
7372125,広島県,江田島市,江田島町大原特借宿舎,ヒロシマケン,エタジマシ,エタジマチョウオオハラトッカリシュクシャ,広島県江田島市江田島町大原特借宿舎
7372126,広島県,江田島市,江田島町津久茂,ヒロシマケン,エタジマシ,エタジマチョウツクモ,広島県江田島市江田島町津久茂
7372131,広島県,江田島市,江田島町秋月,ヒロシマケン,エタジマシ,エタジマチョウアキヅキ,広島県江田島市江田島町秋月
7372132,広島県,江田島市,江田島町江南,ヒロシマケン,エタジマシ,エタジマチョウコウナン,広島県江田島市江田島町江南
7372133,広島県,江田島市,江田島町鷲部,ヒロシマケン,エタジマシ,エタジマチョウワシベ,広島県江田島市江田島町鷲部
7372211,広島県,江田島市,大柿町柿浦,ヒロシマケン,エタジマシ,オオガキチョウカキウラ,広島県江田島市大柿町柿浦
7372212,広島県,江田島市,大柿町大君,ヒロシマケン,エタジマシ,オオガキチョウオオキミ,広島県江田島市大柿町大君
7372213,広島県,江田島市,大柿町大原,ヒロシマケン,エタジマシ,オオガキチョウオオバラ,広島県江田島市大柿町大原
7372214,広島県,江田島市,大柿町深江,ヒロシマケン,エタジマシ,オオガキチョウフカエ,広島県江田島市大柿町深江
7372215,広島県,江田島市,大柿町小古江,ヒロシマケン,エタジマシ,オオガキチョウオブレ,広島県江田島市大柿町小古江
7372301,広島県,江田島市,能美町中町,ヒロシマケン,エタジマシ,ノウミチョウナカマチ,広島県江田島市能美町中町
7372302,広島県,江田島市,能美町鹿川,ヒロシマケン,エタジマシ,ノウミチョウカノカワ,広島県江田島市能美町鹿川
7372303,広島県,江田島市,能美町高田,ヒロシマケン,エタジマシ,ノウミチョウタカタ,広島県江田島市能美町高田
7372311,広島県,江田島市,沖美町岡大王,ヒロシマケン,エタジマシ,オキミチョウオカダイオウ,広島県江田島市沖美町岡大王
7372312,広島県,江田島市,沖美町畑,ヒロシマケン,エタジマシ,オキミチョウハタ,広島県江田島市沖美町畑
7372313,広島県,江田島市,沖美町是長,ヒロシマケン,エタジマシ,オキミチョウコレナガ,広島県江田島市沖美町是長
7372314,広島県,江田島市,沖美町美能,ヒロシマケン,エタジマシ,オキミチョウミノウ,広島県江田島市沖美町美能
7372315,広島県,江田島市,沖美町高祖,ヒロシマケン,エタジマシ,オキミチョウコウソ,広島県江田島市沖美町高祖
7372316,広島県,江田島市,沖美町三吉,ヒロシマケン,エタジマシ,オキミチョウミヨシ,広島県江田島市沖美町三吉
7372501,広島県,呉市,安浦町女子畑,ヒロシマケン,クレシ,ヤスウラチョウオナゴバタ,広島県呉市安浦町女子畑
7372502,広島県,呉市,安浦町三津口,ヒロシマケン,クレシ,ヤスウラチョウミツグチ,広島県呉市安浦町三津口
7372503,広島県,呉市,安浦町安登,ヒロシマケン,クレシ,ヤスウラチョウアト,広島県呉市安浦町安登
7372504,広島県,呉市,安浦町中切（その他）,ヒロシマケン,クレシ,ヤスウラチョウナカギリ(ソノタ),広島県呉市安浦町中切（その他）
7372505,広島県,呉市,安浦町内平,ヒロシマケン,クレシ,ヤスウラチョウウチヒラ,広島県呉市安浦町内平
7372506,広島県,呉市,安浦町原畑,ヒロシマケン,クレシ,ヤスウラチョウハラハタ,広島県呉市安浦町原畑
7372507,広島県,呉市,安浦町内海,ヒロシマケン,クレシ,ヤスウラチョウウチノウミ,広島県呉市安浦町内海
7372508,広島県,呉市,安浦町中畑（その他）,ヒロシマケン,クレシ,ヤスウラチョウナカハタ(ソノタ),広島県呉市安浦町中畑（その他）
7372509,広島県,呉市,安浦町下垣内,ヒロシマケン,クレシ,ヤスウラチョウシモガウチ,広島県呉市安浦町下垣内
7372511,広島県,呉市,安浦町赤向坂,ヒロシマケン,クレシ,ヤスウラチョウアコウザカ,広島県呉市安浦町赤向坂
7372512,広島県,呉市,安浦町安登西,ヒロシマケン,クレシ,ヤスウラチョウアトニシ,広島県呉市安浦町安登西
7372513,広島県,呉市,安浦町安登東,ヒロシマケン,クレシ,ヤスウラチョウアトヒガシ,広島県呉市安浦町安登東
7372514,広島県,呉市,安浦町中央ハイツ,ヒロシマケン,クレシ,ヤスウラチョウチュウオウハイツ,広島県呉市安浦町中央ハイツ
7372515,広島県,呉市,安浦町中央北,ヒロシマケン,クレシ,ヤスウラチョウチュウオウキタ,広島県呉市安浦町中央北
7372516,広島県,呉市,安浦町中央,ヒロシマケン,クレシ,ヤスウラチョウチュウオウ,広島県呉市安浦町中央
7372517,広島県,呉市,安浦町水尻,ヒロシマケン,クレシ,ヤスウラチョウミズシリ,広島県呉市安浦町水尻
7372518,広島県,呉市,安浦町内海北,ヒロシマケン,クレシ,ヤスウラチョウウチノウミキタ,広島県呉市安浦町内海北
7372519,広島県,呉市,安浦町内海南,ヒロシマケン,クレシ,ヤスウラチョウウチノウミミナミ,広島県呉市安浦町内海南
7372601,広島県,呉市,川尻町原山,ヒロシマケン,クレシ,カワジリチョウハラヤマ,広島県呉市川尻町原山
7372602,広島県,呉市,川尻町森,ヒロシマケン,クレシ,カワジリチョウモリ,広島県呉市川尻町森
7372603,広島県,呉市,川尻町西,ヒロシマケン,クレシ,カワジリチョウニシ,広島県呉市川尻町西
7372604,広島県,呉市,川尻町小仁方,ヒロシマケン,クレシ,カワジリチョウコニガタ,広島県呉市川尻町小仁方
7372605,広島県,呉市,川尻町久俊,ヒロシマケン,クレシ,カワジリチョウクドシ,広島県呉市川尻町久俊
7372606,広島県,呉市,川尻町久筋,ヒロシマケン,クレシ,カワジリチョウクスジ,広島県呉市川尻町久筋
7372607,広島県,呉市,川尻町東,ヒロシマケン,クレシ,カワジリチョウヒガシ,広島県呉市川尻町東
7372608,広島県,呉市,川尻町小用,ヒロシマケン,クレシ,カワジリチョウコヨウ,広島県呉市川尻町小用
7372609,広島県,呉市,仁方町（蕨谷）,ヒロシマケン,クレシ,ニガタチョウ(ワラビタニ),広島県呉市仁方町（蕨谷）
7372609,広島県,呉市,安浦町中切（奥野原）,ヒロシマケン,クレシ,ヤスウラチョウナカギリ(オクノハラ),広島県呉市安浦町中切（奥野原）
7372609,広島県,呉市,安浦町中畑（中央）,ヒロシマケン,クレシ,ヤスウラチョウナカハタ(チュウオウ),広島県呉市安浦町中畑（中央）
7372609,広島県,呉市,安浦町中畑（侍屋敷）,ヒロシマケン,クレシ,ヤスウラチョウナカハタ(サムライヤシキ),広島県呉市安浦町中畑（侍屋敷）
7372609,広島県,呉市,安浦町中畑（東）,ヒロシマケン,クレシ,ヤスウラチョウナカハタ(ヒガシ),広島県呉市安浦町中畑（東）
7372609,広島県,呉市,安浦町中畑（立小路）,ヒロシマケン,クレシ,ヤスウラチョウナカハタ(タテコウジ),広島県呉市安浦町中畑（立小路）
7372609,広島県,呉市,安浦町中畑（膳棚山）,ヒロシマケン,クレシ,ヤスウラチョウナカハタ(ゼンタナヤマ),広島県呉市安浦町中畑（膳棚山）
7372609,広島県,呉市,安浦町中畑（鹿条原）,ヒロシマケン,クレシ,ヤスウラチョウナカハタ(カジョウハラ),広島県呉市安浦町中畑（鹿条原）
7372609,広島県,呉市,安浦町野呂山,ヒロシマケン,クレシ,ヤスウラチョウノロサン,広島県呉市安浦町野呂山
7372609,広島県,呉市,川尻町野呂山,ヒロシマケン,クレシ,カワジリチョウノロサン,広島県呉市川尻町野呂山
7372609,広島県,呉市,広町（一本杉）,ヒロシマケン,クレシ,ヒロマチ(イッポンスギ),広島県呉市広町（一本杉）
7372609,広島県,呉市,野呂山,ヒロシマケン,クレシ,ノロサン,広島県呉市野呂山
7372614,広島県,呉市,川尻町大原,ヒロシマケン,クレシ,カワジリチョウオオバラ,広島県呉市川尻町大原
7372615,広島県,呉市,川尻町真光地,ヒロシマケン,クレシ,カワジリチョウシンコウチ,広島県呉市川尻町真光地
7372616,広島県,呉市,川尻町水落,ヒロシマケン,クレシ,カワジリチョウミズオチ,広島県呉市川尻町水落
7372617,広島県,呉市,川尻町小畑,ヒロシマケン,クレシ,カワジリチョウコバタ,広島県呉市川尻町小畑
7372631,広島県,呉市,川尻町板休,ヒロシマケン,クレシ,カワジリチョウイタヤスミ,広島県呉市川尻町板休
7372632,広島県,呉市,川尻町上畑,ヒロシマケン,クレシ,カワジリチョウカンバタ,広島県呉市川尻町上畑
7372633,広島県,呉市,川尻町沖田,ヒロシマケン,クレシ,カワジリチョウオキダ,広島県呉市川尻町沖田
7372634,広島県,呉市,川尻町岩戸,ヒロシマケン,クレシ,カワジリチョウイワド,広島県呉市川尻町岩戸
7372635,広島県,呉市,川尻町柳迫,ヒロシマケン,クレシ,カワジリチョウヤナギサコ,広島県呉市川尻町柳迫
7372636,広島県,呉市,川尻町才野谷,ヒロシマケン,クレシ,カワジリチョウサイノタニ,広島県呉市川尻町才野谷
7372637,広島県,呉市,川尻町後懸,ヒロシマケン,クレシ,カワジリチョウウシロガケ,広島県呉市川尻町後懸
7380000,広島県,廿日市市,,ヒロシマケン,ハツカイチシ,,広島県廿日市市
7380001,広島県,廿日市市,佐方,ヒロシマケン,ハツカイチシ,サガタ,広島県廿日市市佐方
7380002,広島県,廿日市市,山陽園,ヒロシマケン,ハツカイチシ,サンヨウエン,広島県廿日市市山陽園
7380003,広島県,廿日市市,佐方本町,ヒロシマケン,ハツカイチシ,サガタホンマチ,広島県廿日市市佐方本町
7380004,広島県,廿日市市,桜尾,ヒロシマケン,ハツカイチシ,サクラオ,広島県廿日市市桜尾
7380005,広島県,廿日市市,桜尾本町,ヒロシマケン,ハツカイチシ,サクラオホンマチ,広島県廿日市市桜尾本町
7380006,広島県,廿日市市,大東,ヒロシマケン,ハツカイチシ,オオヒガシ,広島県廿日市市大東
7380007,広島県,廿日市市,城内,ヒロシマケン,ハツカイチシ,ジョウナイ,広島県廿日市市城内
7380011,広島県,廿日市市,駅前,ヒロシマケン,ハツカイチシ,エキマエ,広島県廿日市市駅前
7380012,広島県,廿日市市,天神,ヒロシマケン,ハツカイチシ,テンジン,広島県廿日市市天神
7380013,広島県,廿日市市,廿日市,ヒロシマケン,ハツカイチシ,ハツカイチ,広島県廿日市市廿日市
7380014,広島県,廿日市市,住吉,ヒロシマケン,ハツカイチシ,スミヨシ,広島県廿日市市住吉
7380015,広島県,廿日市市,本町,ヒロシマケン,ハツカイチシ,ホンマチ,広島県廿日市市本町
7380016,広島県,廿日市市,可愛,ヒロシマケン,ハツカイチシ,カアイ,広島県廿日市市可愛
7380017,広島県,廿日市市,須賀,ヒロシマケン,ハツカイチシ,スカ,広島県廿日市市須賀
7380021,広島県,廿日市市,木材港北,ヒロシマケン,ハツカイチシ,モクザイコウキタ,広島県廿日市市木材港北
7380022,広島県,廿日市市,木材港南,ヒロシマケン,ハツカイチシ,モクザイコウミナミ,広島県廿日市市木材港南
7380023,広島県,廿日市市,下平良,ヒロシマケン,ハツカイチシ,シモヘラ,広島県廿日市市下平良
7380024,広島県,廿日市市,新宮,ヒロシマケン,ハツカイチシ,シングウ,広島県廿日市市新宮
7380025,広島県,廿日市市,平良,ヒロシマケン,ハツカイチシ,ヘラ,広島県廿日市市平良
7380026,広島県,廿日市市,上平良,ヒロシマケン,ハツカイチシ,カミヘラ,広島県廿日市市上平良
7380027,広島県,廿日市市,平良山手,ヒロシマケン,ハツカイチシ,ヘラヤマテ,広島県廿日市市平良山手
7380031,広島県,廿日市市,原,ヒロシマケン,ハツカイチシ,ハラ,広島県廿日市市原
7380032,広島県,廿日市市,峰高,ヒロシマケン,ハツカイチシ,ミネタカ,広島県廿日市市峰高
7380033,広島県,廿日市市,串戸,ヒロシマケン,ハツカイチシ,クシド,広島県廿日市市串戸
7380034,広島県,廿日市市,宮内,ヒロシマケン,ハツカイチシ,ミヤウチ,広島県廿日市市宮内
7380035,広島県,廿日市市,宮園,ヒロシマケン,ハツカイチシ,ミヤゾノ,広島県廿日市市宮園
7380036,広島県,廿日市市,四季が丘,ヒロシマケン,ハツカイチシ,シキガオカ,広島県廿日市市四季が丘
7380037,広島県,廿日市市,宮園上,ヒロシマケン,ハツカイチシ,ミヤゾノカミ,広島県廿日市市宮園上
7380038,広島県,廿日市市,四季が丘上,ヒロシマケン,ハツカイチシ,シキガオカカミ,広島県廿日市市四季が丘上
7380039,広島県,廿日市市,宮内工業団地,ヒロシマケン,ハツカイチシ,ミヤウチコウギョウダンチ,広島県廿日市市宮内工業団地
7380041,広島県,廿日市市,六本松,ヒロシマケン,ハツカイチシ,ロッポンマツ,広島県廿日市市六本松
7380042,広島県,廿日市市,地御前,ヒロシマケン,ハツカイチシ,ジゴゼン,広島県廿日市市地御前
7380043,広島県,廿日市市,地御前北,ヒロシマケン,ハツカイチシ,ジゴゼンキタ,広島県廿日市市地御前北
7380051,広島県,廿日市市,阿品台北,ヒロシマケン,ハツカイチシ,アジナダイキタ,広島県廿日市市阿品台北
7380052,広島県,廿日市市,阿品台東,ヒロシマケン,ハツカイチシ,アジナダイヒガシ,広島県廿日市市阿品台東
7380053,広島県,廿日市市,阿品台,ヒロシマケン,ハツカイチシ,アジナダイ,広島県廿日市市阿品台
7380054,広島県,廿日市市,阿品,ヒロシマケン,ハツカイチシ,アジナ,広島県廿日市市阿品
7380055,広島県,廿日市市,阿品台西,ヒロシマケン,ハツカイチシ,アジナダイニシ,広島県廿日市市阿品台西
7380056,広島県,廿日市市,阿品台山の手,ヒロシマケン,ハツカイチシ,アジナダイヤマノテ,広島県廿日市市阿品台山の手
7380060,広島県,廿日市市,陽光台,ヒロシマケン,ハツカイチシ,ヨウコウダイ,広島県廿日市市陽光台
7380201,広島県,廿日市市,永原,ヒロシマケン,ハツカイチシ,ナガハラ,広島県廿日市市永原
7380202,広島県,廿日市市,峠,ヒロシマケン,ハツカイチシ,トウゲ,広島県廿日市市峠
7380203,広島県,廿日市市,友田,ヒロシマケン,ハツカイチシ,トモタ,広島県廿日市市友田
7380204,広島県,廿日市市,河津原,ヒロシマケン,ハツカイチシ,カワヅハラ,広島県廿日市市河津原
7380205,広島県,廿日市市,玖島,ヒロシマケン,ハツカイチシ,クジマ,広島県廿日市市玖島
7380221,広島県,廿日市市,虫所山,ヒロシマケン,ハツカイチシ,ムシトコロヤマ,広島県廿日市市虫所山
7380222,広島県,廿日市市,津田,ヒロシマケン,ハツカイチシ,ツタ,広島県廿日市市津田
7380223,広島県,廿日市市,浅原,ヒロシマケン,ハツカイチシ,アサハラ,広島県廿日市市浅原
7380224,広島県,廿日市市,栗栖,ヒロシマケン,ハツカイチシ,クリス,広島県廿日市市栗栖
7380225,広島県,廿日市市,中道,ヒロシマケン,ハツカイチシ,ナカミチ,広島県廿日市市中道
7380226,広島県,廿日市市,飯山,ヒロシマケン,ハツカイチシ,イイノヤマ,広島県廿日市市飯山
7380281,広島県,廿日市市,大野鴉ケ岡,ヒロシマケン,ハツカイチシ,オオノカラスガオカ,広島県廿日市市大野鴉ケ岡
7380282,広島県,廿日市市,大野渡ノ瀬,ヒロシマケン,ハツカイチシ,オオノワタノセ,広島県廿日市市大野渡ノ瀬
7380301,広島県,廿日市市,吉和,ヒロシマケン,ハツカイチシ,ヨシワ,広島県廿日市市吉和
7380511,広島県,広島市佐伯区,湯来町葛原,ヒロシマケン,ヒロシマシサエキク,ユキチョウツヅラハラ,広島県広島市佐伯区湯来町葛原
7380512,広島県,広島市佐伯区,湯来町白砂,ヒロシマケン,ヒロシマシサエキク,ユキチョウシラサゴ,広島県広島市佐伯区湯来町白砂
7380513,広島県,広島市佐伯区,湯来町伏谷,ヒロシマケン,ヒロシマシサエキク,ユキチョウフシダニ,広島県広島市佐伯区湯来町伏谷
7380513,広島県,広島市佐伯区,湯来町菅沢（黒谷）,ヒロシマケン,ヒロシマシサエキク,ユキチョウスガサワ(クロダニ),広島県広島市佐伯区湯来町菅沢（黒谷）
7380514,広島県,広島市佐伯区,杉並台,ヒロシマケン,ヒロシマシサエキク,スギナミダイ,広島県広島市佐伯区杉並台
7380601,広島県,広島市佐伯区,湯来町和田,ヒロシマケン,ヒロシマシサエキク,ユキチョウワダ,広島県広島市佐伯区湯来町和田
7380602,広島県,広島市佐伯区,湯来町麦谷,ヒロシマケン,ヒロシマシサエキク,ユキチョウムギタニ,広島県広島市佐伯区湯来町麦谷
7380603,広島県,広島市佐伯区,湯来町下,ヒロシマケン,ヒロシマシサエキク,ユキチョウシモ,広島県広島市佐伯区湯来町下
7380721,広島県,広島市佐伯区,湯来町多田,ヒロシマケン,ヒロシマシサエキク,ユキチョウタダ,広島県広島市佐伯区湯来町多田
7380722,広島県,広島市佐伯区,湯来町菅沢（その他）,ヒロシマケン,ヒロシマシサエキク,ユキチョウスガサワ(ソノタ),広島県広島市佐伯区湯来町菅沢（その他）
7390000,広島県,東広島市,,ヒロシマケン,ヒガシヒロシマシ,,広島県東広島市
7390001,広島県,東広島市,西条町西条,ヒロシマケン,ヒガシヒロシマシ,サイジョウチョウサイジョウ,広島県東広島市西条町西条
7390002,広島県,東広島市,西条町吉行,ヒロシマケン,ヒガシヒロシマシ,サイジョウチョウヨシユキ,広島県東広島市西条町吉行
7390003,広島県,東広島市,西条町土与丸,ヒロシマケン,ヒガシヒロシマシ,サイジョウチョウドヨマル,広島県東広島市西条町土与丸
7390004,広島県,東広島市,西条末広町,ヒロシマケン,ヒガシヒロシマシ,サイジョウスエヒロチョウ,広島県東広島市西条末広町
7390005,広島県,東広島市,西条大坪町,ヒロシマケン,ヒガシヒロシマシ,サイジョウオオツボチョウ,広島県東広島市西条大坪町
7390006,広島県,東広島市,西条上市町,ヒロシマケン,ヒガシヒロシマシ,サイジョウカミイチチョウ,広島県東広島市西条上市町
7390007,広島県,東広島市,西条土与丸,ヒロシマケン,ヒガシヒロシマシ,サイジョウドヨマル,広島県東広島市西条土与丸
7390008,広島県,東広島市,西条吉行東,ヒロシマケン,ヒガシヒロシマシ,サイジョウヨシユキヒガシ,広島県東広島市西条吉行東
7390011,広島県,東広島市,西条本町,ヒロシマケン,ヒガシヒロシマシ,サイジョウホンマチ,広島県東広島市西条本町
7390012,広島県,東広島市,西条朝日町,ヒロシマケン,ヒガシヒロシマシ,サイジョウアサヒマチ,広島県東広島市西条朝日町
7390013,広島県,東広島市,西条御条町,ヒロシマケン,ヒガシヒロシマシ,サイジョウゴジョウチョウ,広島県東広島市西条御条町
7390014,広島県,東広島市,西条昭和町,ヒロシマケン,ヒガシヒロシマシ,サイジョウショウワマチ,広島県東広島市西条昭和町
7390015,広島県,東広島市,西条栄町,ヒロシマケン,ヒガシヒロシマシ,サイジョウサカエマチ,広島県東広島市西条栄町
7390016,広島県,東広島市,西条岡町,ヒロシマケン,ヒガシヒロシマシ,サイジョウオカマチ,広島県東広島市西条岡町
7390021,広島県,東広島市,西条町助実,ヒロシマケン,ヒガシヒロシマシ,サイジョウチョウスケザネ,広島県東広島市西条町助実
7390022,広島県,東広島市,西条町上三永,ヒロシマケン,ヒガシヒロシマシ,サイジョウチョウカミミナガ,広島県東広島市西条町上三永
7390023,広島県,東広島市,西条町下三永,ヒロシマケン,ヒガシヒロシマシ,サイジョウチョウシモミナガ,広島県東広島市西条町下三永
7390024,広島県,東広島市,西条町御薗宇,ヒロシマケン,ヒガシヒロシマシ,サイジョウチョウミソノウ,広島県東広島市西条町御薗宇
7390025,広島県,東広島市,西条中央,ヒロシマケン,ヒガシヒロシマシ,サイジョウチュウオウ,広島県東広島市西条中央
7390026,広島県,東広島市,三永,ヒロシマケン,ヒガシヒロシマシ,ミナガ,広島県東広島市三永
7390031,広島県,東広島市,西条町福本,ヒロシマケン,ヒガシヒロシマシ,サイジョウチョウフクモト,広島県東広島市西条町福本
7390032,広島県,東広島市,西条町森近,ヒロシマケン,ヒガシヒロシマシ,サイジョウチョウモリチカ,広島県東広島市西条町森近
7390033,広島県,東広島市,西条町馬木,ヒロシマケン,ヒガシヒロシマシ,サイジョウチョウウマキ,広島県東広島市西条町馬木
7390034,広島県,東広島市,西条町大沢,ヒロシマケン,ヒガシヒロシマシ,サイジョウチョウオオサワ,広島県東広島市西条町大沢
7390035,広島県,東広島市,西条町郷曽,ヒロシマケン,ヒガシヒロシマシ,サイジョウチョウゴウソ,広島県東広島市西条町郷曽
7390036,広島県,東広島市,西条町田口,ヒロシマケン,ヒガシヒロシマシ,サイジョウチョウタグチ,広島県東広島市西条町田口
7390037,広島県,東広島市,西大沢,ヒロシマケン,ヒガシヒロシマシ,ニシオオサワ,広島県東広島市西大沢
7390038,広島県,東広島市,田口研究団地,ヒロシマケン,ヒガシヒロシマシ,タグチケンキュウダンチ,広島県東広島市田口研究団地
7390040,広島県,東広島市,寺家駅前,ヒロシマケン,ヒガシヒロシマシ,ジケエキマエ,広島県東広島市寺家駅前
7390041,広島県,東広島市,西条町寺家,ヒロシマケン,ヒガシヒロシマシ,サイジョウチョウジケ,広島県東広島市西条町寺家
7390042,広島県,東広島市,西条町西条東,ヒロシマケン,ヒガシヒロシマシ,サイジョウチョウサイジョウヒガシ,広島県東広島市西条町西条東
7390043,広島県,東広島市,西条西本町,ヒロシマケン,ヒガシヒロシマシ,サイジョウニシホンマチ,広島県東広島市西条西本町
7390044,広島県,東広島市,西条町下見,ヒロシマケン,ヒガシヒロシマシ,サイジョウチョウシタミ,広島県東広島市西条町下見
7390045,広島県,東広島市,鏡山北,ヒロシマケン,ヒガシヒロシマシ,カガミヤマキタ,広島県東広島市鏡山北
7390046,広島県,東広島市,鏡山,ヒロシマケン,ヒガシヒロシマシ,カガミヤマ,広島県東広島市鏡山
7390047,広島県,東広島市,西条下見,ヒロシマケン,ヒガシヒロシマシ,サイジョウシタミ,広島県東広島市西条下見
7390048,広島県,東広島市,西条東北町,ヒロシマケン,ヒガシヒロシマシ,サイジョウヒガシキタマチ,広島県東広島市西条東北町
7390049,広島県,東広島市,寺家産業団地,ヒロシマケン,ヒガシヒロシマシ,ジケサンギョウダンチ,広島県東広島市寺家産業団地
7390131,広島県,東広島市,八本松町篠,ヒロシマケン,ヒガシヒロシマシ,ハチホンマツチョウササ,広島県東広島市八本松町篠
7390132,広島県,東広島市,八本松町正力,ヒロシマケン,ヒガシヒロシマシ,ハチホンマツチョウショウリキ,広島県東広島市八本松町正力
7390133,広島県,東広島市,八本松町米満,ヒロシマケン,ヒガシヒロシマシ,ハチホンマツチョウヨネミツ,広島県東広島市八本松町米満
7390141,広島県,東広島市,八本松町飯田,ヒロシマケン,ヒガシヒロシマシ,ハチホンマツチョウイイダ,広島県東広島市八本松町飯田
7390142,広島県,東広島市,八本松東,ヒロシマケン,ヒガシヒロシマシ,ハチホンマツヒガシ,広島県東広島市八本松東
7390144,広島県,東広島市,八本松南,ヒロシマケン,ヒガシヒロシマシ,ハチホンマツミナミ,広島県東広島市八本松南
7390145,広島県,東広島市,八本松町宗吉,ヒロシマケン,ヒガシヒロシマシ,ハチホンマツチョウムネヨシ,広島県東広島市八本松町宗吉
7390146,広島県,東広島市,八本松飯田,ヒロシマケン,ヒガシヒロシマシ,ハチホンマツイイダ,広島県東広島市八本松飯田
7390147,広島県,東広島市,八本松西,ヒロシマケン,ヒガシヒロシマシ,ハチホンマツニシ,広島県東広島市八本松西
7390151,広島県,東広島市,八本松町原,ヒロシマケン,ヒガシヒロシマシ,ハチホンマツチョウハラ,広島県東広島市八本松町原
7390152,広島県,東広島市,八本松町吉川,ヒロシマケン,ヒガシヒロシマシ,ハチホンマツチョウヨシカワ,広島県東広島市八本松町吉川
7390153,広島県,東広島市,吉川工業団地,ヒロシマケン,ヒガシヒロシマシ,ヨシカワコウギョウダンチ,広島県東広島市吉川工業団地
7390261,広島県,東広島市,志和町内,ヒロシマケン,ヒガシヒロシマシ,シワチョウウチ,広島県東広島市志和町内
7390262,広島県,東広島市,志和町志和東,ヒロシマケン,ヒガシヒロシマシ,シワチョウシワヒガシ,広島県東広島市志和町志和東
7390263,広島県,東広島市,志和流通,ヒロシマケン,ヒガシヒロシマシ,シワリュウツウ,広島県東広島市志和流通
7390264,広島県,東広島市,志和町七条椛坂,ヒロシマケン,ヒガシヒロシマシ,シワチョウシチジョウカブサカ,広島県東広島市志和町七条椛坂
7390265,広島県,東広島市,志和町冠,ヒロシマケン,ヒガシヒロシマシ,シワチョウカンムリ,広島県東広島市志和町冠
7390266,広島県,東広島市,志和町奥屋,ヒロシマケン,ヒガシヒロシマシ,シワチョウオクヤ,広島県東広島市志和町奥屋
7390267,広島県,東広島市,志和町別府,ヒロシマケン,ヒガシヒロシマシ,シワチョウベフ,広島県東広島市志和町別府
7390268,広島県,東広島市,志和町志和西,ヒロシマケン,ヒガシヒロシマシ,シワチョウシワニシ,広島県東広島市志和町志和西
7390269,広島県,東広島市,志和町志和堀,ヒロシマケン,ヒガシヒロシマシ,シワチョウシワホリ,広島県東広島市志和町志和堀
7390301,広島県,広島市安芸区,上瀬野,ヒロシマケン,ヒロシマシアキク,カミセノ,広島県広島市安芸区上瀬野
7390302,広島県,広島市安芸区,上瀬野町,ヒロシマケン,ヒロシマシアキク,カミセノチョウ,広島県広島市安芸区上瀬野町
7390303,広島県,広島市安芸区,上瀬野南,ヒロシマケン,ヒロシマシアキク,カミセノミナミ,広島県広島市安芸区上瀬野南
7390311,広島県,広島市安芸区,瀬野,ヒロシマケン,ヒロシマシアキク,セノ,広島県広島市安芸区瀬野
7390312,広島県,広島市安芸区,瀬野町,ヒロシマケン,ヒロシマシアキク,セノチョウ,広島県広島市安芸区瀬野町
7390313,広島県,広島市安芸区,瀬野西,ヒロシマケン,ヒロシマシアキク,セノニシ,広島県広島市安芸区瀬野西
7390314,広島県,広島市安芸区,瀬野南,ヒロシマケン,ヒロシマシアキク,セノミナミ,広島県広島市安芸区瀬野南
7390315,広島県,広島市安芸区,瀬野南町,ヒロシマケン,ヒロシマシアキク,セノミナミマチ,広島県広島市安芸区瀬野南町
7390321,広島県,広島市安芸区,中野,ヒロシマケン,ヒロシマシアキク,ナカノ,広島県広島市安芸区中野
7390322,広島県,広島市安芸区,中野町,ヒロシマケン,ヒロシマシアキク,ナカノチョウ,広島県広島市安芸区中野町
7390323,広島県,広島市安芸区,中野東,ヒロシマケン,ヒロシマシアキク,ナカノヒガシ,広島県広島市安芸区中野東
7390324,広島県,広島市安芸区,中野東町,ヒロシマケン,ヒロシマシアキク,ナカノヒガシマチ,広島県広島市安芸区中野東町
7390401,広島県,廿日市市,福面,ヒロシマケン,ハツカイチシ,フクメン,広島県廿日市市福面
7390402,広島県,廿日市市,対厳山,ヒロシマケン,ハツカイチシ,タイゲンザン,広島県廿日市市対厳山
7390403,広島県,廿日市市,大野下更地,ヒロシマケン,ハツカイチシ,オオノシモサラジ,広島県廿日市市大野下更地
7390404,広島県,廿日市市,大野十郎原,ヒロシマケン,ハツカイチシ,オオノジュウロウバラ,広島県廿日市市大野十郎原
7390405,広島県,廿日市市,大野戸石川,ヒロシマケン,ハツカイチシ,オオノトイシガワ,広島県廿日市市大野戸石川
7390406,広島県,廿日市市,大野中山,ヒロシマケン,ハツカイチシ,オオノナカヤマ,広島県廿日市市大野中山
7390407,広島県,廿日市市,大野上更地,ヒロシマケン,ハツカイチシ,オオノカミサラジ,広島県廿日市市大野上更地
7390408,広島県,廿日市市,大野鯛ノ原,ヒロシマケン,ハツカイチシ,オオノタイノハラ,広島県廿日市市大野鯛ノ原
7390411,広島県,廿日市市,宮島口,ヒロシマケン,ハツカイチシ,ミヤジマグチ,広島県廿日市市宮島口
7390412,広島県,廿日市市,宮島口西,ヒロシマケン,ハツカイチシ,ミヤジマグチニシ,広島県廿日市市宮島口西
7390413,広島県,廿日市市,宮島口上,ヒロシマケン,ハツカイチシ,ミヤジマグチウエ,広島県廿日市市宮島口上
7390414,広島県,廿日市市,宮島口東,ヒロシマケン,ハツカイチシ,ミヤジマグチヒガシ,広島県廿日市市宮島口東
7390421,広島県,廿日市市,深江,ヒロシマケン,ハツカイチシ,フカエ,広島県廿日市市深江
7390422,広島県,廿日市市,大野早時,ヒロシマケン,ハツカイチシ,オオノソウトキ,広島県廿日市市大野早時
7390423,広島県,廿日市市,大野賀撫津,ヒロシマケン,ハツカイチシ,オオノガブツ,広島県廿日市市大野賀撫津
7390424,広島県,廿日市市,前空,ヒロシマケン,ハツカイチシ,マエゾラ,広島県廿日市市前空
7390425,広島県,廿日市市,物見西,ヒロシマケン,ハツカイチシ,モノミニシ,広島県廿日市市物見西
7390426,広島県,廿日市市,物見東,ヒロシマケン,ハツカイチシ,モノミヒガシ,広島県廿日市市物見東
7390432,広島県,廿日市市,上の浜,ヒロシマケン,ハツカイチシ,カミノハマ,広島県廿日市市上の浜
7390433,広島県,廿日市市,下の浜,ヒロシマケン,ハツカイチシ,シモノハマ,広島県廿日市市下の浜
7390434,広島県,廿日市市,大野（１、２丁目）,ヒロシマケン,ハツカイチシ,オオノ(1、2チョウメ),広島県廿日市市大野（1、2-）
7390437,広島県,廿日市市,大野中央,ヒロシマケン,ハツカイチシ,オオノチュウオウ,広島県廿日市市大野中央
7390441,広島県,廿日市市,大野原,ヒロシマケン,ハツカイチシ,オオノハラ,広島県廿日市市大野原
7390442,広島県,廿日市市,梅原,ヒロシマケン,ハツカイチシ,ウメハラ,広島県廿日市市梅原
7390443,広島県,廿日市市,沖塩屋,ヒロシマケン,ハツカイチシ,オキシオヤ,広島県廿日市市沖塩屋
7390444,広島県,廿日市市,林が原,ヒロシマケン,ハツカイチシ,ハヤシガハラ,広島県廿日市市林が原
7390445,広島県,廿日市市,塩屋,ヒロシマケン,ハツカイチシ,シオヤ,広島県廿日市市塩屋
7390446,広島県,廿日市市,大野小山,ヒロシマケン,ハツカイチシ,オオノコヤマ,広島県廿日市市大野小山
7390452,広島県,廿日市市,丸石,ヒロシマケン,ハツカイチシ,マルイシ,広島県廿日市市丸石
7390454,広島県,廿日市市,宮浜温泉,ヒロシマケン,ハツカイチシ,ミヤハマオンセン,広島県廿日市市宮浜温泉
7390455,広島県,廿日市市,八坂,ヒロシマケン,ハツカイチシ,ハッサカ,広島県廿日市市八坂
7390456,広島県,廿日市市,大野垣ノ浦,ヒロシマケン,ハツカイチシ,オオノカキノウラ,広島県廿日市市大野垣ノ浦
7390457,広島県,廿日市市,大野下灘,ヒロシマケン,ハツカイチシ,オオノシモナダ,広島県廿日市市大野下灘
7390458,広島県,廿日市市,大野鳴川,ヒロシマケン,ハツカイチシ,オオノナルカワ,広島県廿日市市大野鳴川
7390459,広島県,廿日市市,大野四十八坂,ヒロシマケン,ハツカイチシ,オオノシジュウハッサカ,広島県廿日市市大野四十八坂
7390461,広島県,廿日市市,大野郷,ヒロシマケン,ハツカイチシ,オオノゴウ,広島県廿日市市大野郷
7390462,広島県,廿日市市,大野陣場,ヒロシマケン,ハツカイチシ,オオノジンバ,広島県廿日市市大野陣場
7390463,広島県,廿日市市,大野小田ノ口,ヒロシマケン,ハツカイチシ,オオノオダノクチ,広島県廿日市市大野小田ノ口
7390464,広島県,廿日市市,大野水ノ越,ヒロシマケン,ハツカイチシ,オオノミノコシ,広島県廿日市市大野水ノ越
7390466,広島県,廿日市市,大野滝ノ下,ヒロシマケン,ハツカイチシ,オオノタキノシタ,広島県廿日市市大野滝ノ下
7390467,広島県,廿日市市,大野中津岡,ヒロシマケン,ハツカイチシ,オオノナカツオカ,広島県廿日市市大野中津岡
7390471,広島県,廿日市市,大野別府,ヒロシマケン,ハツカイチシ,オオノベフ,広島県廿日市市大野別府
7390472,広島県,廿日市市,大野棚田,ヒロシマケン,ハツカイチシ,オオノタナダ,広島県廿日市市大野棚田
7390473,広島県,廿日市市,大野田屋,ヒロシマケン,ハツカイチシ,オオノタヤ,広島県廿日市市大野田屋
7390474,広島県,廿日市市,大野土井,ヒロシマケン,ハツカイチシ,オオノドイ,広島県廿日市市大野土井
7390475,広島県,廿日市市,大野高畑,ヒロシマケン,ハツカイチシ,オオノタカバタケ,広島県廿日市市大野高畑
7390476,広島県,廿日市市,大野高見,ヒロシマケン,ハツカイチシ,オオノタカミ,広島県廿日市市大野高見
7390477,広島県,廿日市市,大野水口,ヒロシマケン,ハツカイチシ,オオノミズグチ,広島県廿日市市大野水口
7390478,広島県,廿日市市,大野筏津,ヒロシマケン,ハツカイチシ,オオノイカナヅ,広島県廿日市市大野筏津
7390479,広島県,廿日市市,大野池田,ヒロシマケン,ハツカイチシ,オオノイケダ,広島県廿日市市大野池田
7390488,広島県,廿日市市,大野（その他）,ヒロシマケン,ハツカイチシ,オオノ(ソノタ),広島県廿日市市大野（その他）
7390501,広島県,廿日市市,宮島町（杉之浦）,ヒロシマケン,ハツカイチシ,ミヤジマチョウ(スギノウラ),広島県廿日市市宮島町（杉之浦）
7390502,広島県,廿日市市,宮島町（杉之浦住宅）,ヒロシマケン,ハツカイチシ,ミヤジマチョウ(スギノウラジュウタク),広島県廿日市市宮島町（杉之浦住宅）
7390503,広島県,廿日市市,宮島町（ひの木団地）,ヒロシマケン,ハツカイチシ,ミヤジマチョウ(ヒノキダンチ),広島県廿日市市宮島町（ひの木団地）
7390504,広島県,廿日市市,宮島町（港町）,ヒロシマケン,ハツカイチシ,ミヤジマチョウ(ミナトマチ),広島県廿日市市宮島町（港町）
7390505,広島県,廿日市市,宮島町（胡町）,ヒロシマケン,ハツカイチシ,ミヤジマチョウ(エビスマチ),広島県廿日市市宮島町（胡町）
7390506,広島県,廿日市市,宮島町（緑町）,ヒロシマケン,ハツカイチシ,ミヤジマチョウ(ミドリマチ),広島県廿日市市宮島町（緑町）
7390507,広島県,廿日市市,宮島町（大砂利）,ヒロシマケン,ハツカイチシ,ミヤジマチョウ(オオジャリ),広島県廿日市市宮島町（大砂利）
7390511,広島県,廿日市市,宮島町（伊勢町）,ヒロシマケン,ハツカイチシ,ミヤジマチョウ(イセマチ),広島県廿日市市宮島町（伊勢町）
7390512,広島県,廿日市市,宮島町（新町）,ヒロシマケン,ハツカイチシ,ミヤジマチョウ(シンマチ),広島県廿日市市宮島町（新町）
7390513,広島県,廿日市市,宮島町（上西連町）,ヒロシマケン,ハツカイチシ,ミヤジマチョウ(カミサイレンチョウ),広島県廿日市市宮島町（上西連町）
7390514,広島県,廿日市市,宮島町（東西連町）,ヒロシマケン,ハツカイチシ,ミヤジマチョウ(ヒガシサイレンチョウ),広島県廿日市市宮島町（東西連町）
7390515,広島県,廿日市市,宮島町（魚之棚町）,ヒロシマケン,ハツカイチシ,ミヤジマチョウ(ウオノタナチョウ),広島県廿日市市宮島町（魚之棚町）
7390516,広島県,廿日市市,宮島町（桜町）,ヒロシマケン,ハツカイチシ,ミヤジマチョウ(サクラマチ),広島県廿日市市宮島町（桜町）
7390517,広島県,廿日市市,宮島町（大和町）,ヒロシマケン,ハツカイチシ,ミヤジマチョウ(ヤマトマチ),広島県廿日市市宮島町（大和町）
7390518,広島県,廿日市市,宮島町（下西連町）,ヒロシマケン,ハツカイチシ,ミヤジマチョウ(シモサイレンチョウ),広島県廿日市市宮島町（下西連町）
7390521,広島県,廿日市市,宮島町（大町）,ヒロシマケン,ハツカイチシ,ミヤジマチョウ(オオマチ),広島県廿日市市宮島町（大町）
7390522,広島県,廿日市市,宮島町（南町）,ヒロシマケン,ハツカイチシ,ミヤジマチョウ(ミナミマチ),広島県廿日市市宮島町（南町）
7390523,広島県,廿日市市,宮島町（中江町）,ヒロシマケン,ハツカイチシ,ミヤジマチョウ(チュウエマチ),広島県廿日市市宮島町（中江町）
7390524,広島県,廿日市市,宮島町（滝町）,ヒロシマケン,ハツカイチシ,ミヤジマチョウ(タキマチ),広島県廿日市市宮島町（滝町）
7390525,広島県,廿日市市,宮島町（久保町）,ヒロシマケン,ハツカイチシ,ミヤジマチョウ(クボマチ),広島県廿日市市宮島町（久保町）
7390531,広島県,廿日市市,宮島町（上中西町）,ヒロシマケン,ハツカイチシ,ミヤジマチョウ(カミナカニシチョウ),広島県廿日市市宮島町（上中西町）
7390532,広島県,廿日市市,宮島町（東大西町）,ヒロシマケン,ハツカイチシ,ミヤジマチョウ(ヒガシオオニシチョウ),広島県廿日市市宮島町（東大西町）
7390533,広島県,廿日市市,宮島町（南大西町）,ヒロシマケン,ハツカイチシ,ミヤジマチョウ(ミナミオオニシチョウ),広島県廿日市市宮島町（南大西町）
7390534,広島県,廿日市市,宮島町（西大西町）,ヒロシマケン,ハツカイチシ,ミヤジマチョウ(ニシオオニシチョウ),広島県廿日市市宮島町（西大西町）
7390535,広島県,廿日市市,宮島町（北大西町）,ヒロシマケン,ハツカイチシ,ミヤジマチョウ(キタオオニシチョウ),広島県廿日市市宮島町（北大西町）
7390536,広島県,廿日市市,宮島町（下中西町）,ヒロシマケン,ハツカイチシ,ミヤジマチョウ(シモナカニシチョウ),広島県廿日市市宮島町（下中西町）
7390541,広島県,廿日市市,宮島町（網之浦）,ヒロシマケン,ハツカイチシ,ミヤジマチョウ(アミノウラ),広島県廿日市市宮島町（網之浦）
7390542,広島県,廿日市市,宮島町（多々良潟）,ヒロシマケン,ハツカイチシ,ミヤジマチョウ(タタラガタ),広島県廿日市市宮島町（多々良潟）
7390543,広島県,廿日市市,宮島町（室浜）,ヒロシマケン,ハツカイチシ,ミヤジマチョウ(ムロハマ),広島県廿日市市宮島町（室浜）
7390550,広島県,廿日市市,宮島町（浜之町）,ヒロシマケン,ハツカイチシ,ミヤジマチョウ(ハマノチョウ),広島県廿日市市宮島町（浜之町）
7390551,広島県,廿日市市,宮島町（北之町東表）,ヒロシマケン,ハツカイチシ,ミヤジマチョウ(キタノチョウヒガシオモテ),広島県廿日市市宮島町（北之町東表）
7390552,広島県,廿日市市,宮島町（北之町西表）,ヒロシマケン,ハツカイチシ,ミヤジマチョウ(キタノチョウニシオモテ),広島県廿日市市宮島町（北之町西表）
7390553,広島県,廿日市市,宮島町（中之町表）,ヒロシマケン,ハツカイチシ,ミヤジマチョウ(ナカノチョウオモテ),広島県廿日市市宮島町（中之町表）
7390554,広島県,廿日市市,宮島町（幸町東表）,ヒロシマケン,ハツカイチシ,ミヤジマチョウ(サイワイチョウヒガシオモテ),広島県廿日市市宮島町（幸町東表）
7390555,広島県,廿日市市,宮島町（幸町西表）,ヒロシマケン,ハツカイチシ,ミヤジマチョウ(サイワイチョウニシオモテ),広島県廿日市市宮島町（幸町西表）
7390556,広島県,廿日市市,宮島町（幸町西浜）,ヒロシマケン,ハツカイチシ,ミヤジマチョウ(サイワイチョウニシハマ),広島県廿日市市宮島町（幸町西浜）
7390557,広島県,廿日市市,宮島町（幸町東浜）,ヒロシマケン,ハツカイチシ,ミヤジマチョウ(サイワイチョウヒガシハマ),広島県廿日市市宮島町（幸町東浜）
7390558,広島県,廿日市市,宮島町（中之町浜）,ヒロシマケン,ハツカイチシ,ミヤジマチョウ(ナカノチョウハマ),広島県廿日市市宮島町（中之町浜）
7390559,広島県,廿日市市,宮島町（北之町浜）,ヒロシマケン,ハツカイチシ,ミヤジマチョウ(キタノチョウハマ),広島県廿日市市宮島町（北之町浜）
7390588,広島県,廿日市市,宮島町（その他）,ヒロシマケン,ハツカイチシ,ミヤジマチョウ(ソノタ),広島県廿日市市宮島町（その他）
7390600,広島県,大竹市,,ヒロシマケン,オオタケシ,,広島県大竹市
7390601,広島県,大竹市,東栄,ヒロシマケン,オオタケシ,ヒガシサカエ,広島県大竹市東栄
7390602,広島県,大竹市,南栄,ヒロシマケン,オオタケシ,ミナミサカエ,広島県大竹市南栄
7390603,広島県,大竹市,西栄,ヒロシマケン,オオタケシ,ニシサカエ,広島県大竹市西栄
7390604,広島県,大竹市,北栄,ヒロシマケン,オオタケシ,キタサカエ,広島県大竹市北栄
7390605,広島県,大竹市,立戸,ヒロシマケン,オオタケシ,タチド,広島県大竹市立戸
7390606,広島県,大竹市,御幸町,ヒロシマケン,オオタケシ,ミユキチョウ,広島県大竹市御幸町
7390607,広島県,大竹市,阿多田,ヒロシマケン,オオタケシ,アタタ,広島県大竹市阿多田
7390611,広島県,大竹市,新町,ヒロシマケン,オオタケシ,シンマチ,広島県大竹市新町
7390612,広島県,大竹市,油見,ヒロシマケン,オオタケシ,ユウミ,広島県大竹市油見
7390613,広島県,大竹市,本町,ヒロシマケン,オオタケシ,ホンマチ,広島県大竹市本町
7390614,広島県,大竹市,白石,ヒロシマケン,オオタケシ,シライシ,広島県大竹市白石
7390615,広島県,大竹市,元町,ヒロシマケン,オオタケシ,モトマチ,広島県大竹市元町
7390616,広島県,大竹市,木野,ヒロシマケン,オオタケシ,コノ,広島県大竹市木野
7390621,広島県,大竹市,港町,ヒロシマケン,オオタケシ,ミナトマチ,広島県大竹市港町
7390622,広島県,大竹市,晴海,ヒロシマケン,オオタケシ,ハルミ,広島県大竹市晴海
7390623,広島県,大竹市,小方,ヒロシマケン,オオタケシ,オガタ,広島県大竹市小方
7390624,広島県,大竹市,御園,ヒロシマケン,オオタケシ,ミソノ,広島県大竹市御園
7390625,広島県,大竹市,御園台,ヒロシマケン,オオタケシ,ミソノダイ,広島県大竹市御園台
7390626,広島県,大竹市,三ツ石町,ヒロシマケン,オオタケシ,ミツイシチョウ,広島県大竹市三ツ石町
7390627,広島県,大竹市,小方町小方,ヒロシマケン,オオタケシ,オガタチョウオガタ,広島県大竹市小方町小方
7390628,広島県,大竹市,小方ケ丘,ヒロシマケン,オオタケシ,オガタガオカ,広島県大竹市小方ケ丘
7390631,広島県,大竹市,防鹿,ヒロシマケン,オオタケシ,ボウロク,広島県大竹市防鹿
7390632,広島県,大竹市,穂仁原,ヒロシマケン,オオタケシ,オニハラ,広島県大竹市穂仁原
7390633,広島県,大竹市,比作,ヒロシマケン,オオタケシ,ヒッツクリ,広島県大竹市比作
7390634,広島県,大竹市,安条,ヒロシマケン,オオタケシ,アンジョウ,広島県大竹市安条
7390635,広島県,大竹市,八丁,ヒロシマケン,オオタケシ,ハッチョウ,広島県大竹市八丁
7390636,広島県,大竹市,前飯谷,ヒロシマケン,オオタケシ,マエイイタニ,広島県大竹市前飯谷
7390637,広島県,大竹市,後飯谷,ヒロシマケン,オオタケシ,ウシロイイタニ,広島県大竹市後飯谷
7390641,広島県,大竹市,栗谷町広原,ヒロシマケン,オオタケシ,クリタニチョウヒロハラ,広島県大竹市栗谷町広原
7390642,広島県,大竹市,栗谷町奥谷尻,ヒロシマケン,オオタケシ,クリタニチョウオクタニジリ,広島県大竹市栗谷町奥谷尻
7390643,広島県,大竹市,栗谷町谷和,ヒロシマケン,オオタケシ,クリタニチョウタニワ,広島県大竹市栗谷町谷和
7390644,広島県,大竹市,栗谷町後原,ヒロシマケン,オオタケシ,クリタニチョウウシロバラ,広島県大竹市栗谷町後原
7390645,広島県,大竹市,栗谷町小栗林,ヒロシマケン,オオタケシ,クリタニチョウコクリバヤシ,広島県大竹市栗谷町小栗林
7390646,広島県,大竹市,栗谷町大栗林,ヒロシマケン,オオタケシ,クリタニチョウオオクリバヤシ,広島県大竹市栗谷町大栗林
7390651,広島県,大竹市,玖波,ヒロシマケン,オオタケシ,クバ,広島県大竹市玖波
7390652,広島県,大竹市,明治新開,ヒロシマケン,オオタケシ,メイジシンガイ,広島県大竹市明治新開
7390653,広島県,大竹市,黒川,ヒロシマケン,オオタケシ,クロカワ,広島県大竹市黒川
7390654,広島県,大竹市,小方町黒川,ヒロシマケン,オオタケシ,オガタチョウクロカワ,広島県大竹市小方町黒川
7390655,広島県,大竹市,湯舟町,ヒロシマケン,オオタケシ,ユブネチョウ,広島県大竹市湯舟町
7390656,広島県,大竹市,玖波町,ヒロシマケン,オオタケシ,クバチョウ,広島県大竹市玖波町
7390657,広島県,大竹市,松ケ原町,ヒロシマケン,オオタケシ,マツガハラチョウ,広島県大竹市松ケ原町
7390661,広島県,廿日市市,大野経小屋,ヒロシマケン,ハツカイチシ,オオノキョウゴヤ,広島県廿日市市大野経小屋
7390663,広島県,廿日市市,大野奴メリ谷,ヒロシマケン,ハツカイチシ,オオノヌメリダニ,広島県廿日市市大野奴メリ谷
7390664,広島県,廿日市市,大野嵐谷,ヒロシマケン,ハツカイチシ,オオノアラシダニ,広島県廿日市市大野嵐谷
7390665,広島県,廿日市市,大野横撫,ヒロシマケン,ハツカイチシ,オオノヨコナデ,広島県廿日市市大野横撫
7390667,広島県,廿日市市,大野猪ノウツ,ヒロシマケン,ハツカイチシ,オオノイノウツ,広島県廿日市市大野猪ノウツ
7391101,広島県,安芸高田市,甲田町高田原,ヒロシマケン,アキタカタシ,コウダチョウタカタバラ,広島県安芸高田市甲田町高田原
7391102,広島県,安芸高田市,甲田町上小原,ヒロシマケン,アキタカタシ,コウダチョウカミオバラ,広島県安芸高田市甲田町上小原
7391103,広島県,安芸高田市,甲田町下小原,ヒロシマケン,アキタカタシ,コウダチョウシモオバラ,広島県安芸高田市甲田町下小原
7391104,広島県,安芸高田市,甲田町上甲立,ヒロシマケン,アキタカタシ,コウダチョウカミコウタチ,広島県安芸高田市甲田町上甲立
7391105,広島県,安芸高田市,甲田町下甲立,ヒロシマケン,アキタカタシ,コウダチョウシモコウタチ,広島県安芸高田市甲田町下甲立
7391106,広島県,安芸高田市,甲田町浅塚,ヒロシマケン,アキタカタシ,コウダチョウアサツカ,広島県安芸高田市甲田町浅塚
7391107,広島県,安芸高田市,甲田町糘地,ヒロシマケン,アキタカタシ,コウダチョウスクモジ,広島県安芸高田市甲田町糘地
7391108,広島県,安芸高田市,甲田町深瀬,ヒロシマケン,アキタカタシ,コウダチョウフカセ,広島県安芸高田市甲田町深瀬
7391201,広島県,安芸高田市,向原町坂,ヒロシマケン,アキタカタシ,ムカイハラチョウサカ,広島県安芸高田市向原町坂
7391202,広島県,安芸高田市,向原町戸島,ヒロシマケン,アキタカタシ,ムカイハラチョウトシマ,広島県安芸高田市向原町戸島
7391203,広島県,安芸高田市,向原町長田,ヒロシマケン,アキタカタシ,ムカイハラチョウナガタ,広島県安芸高田市向原町長田
7391204,広島県,安芸高田市,向原町有留,ヒロシマケン,アキタカタシ,ムカイハラチョウアリドメ,広島県安芸高田市向原町有留
7391205,広島県,安芸高田市,向原町保垣,ヒロシマケン,アキタカタシ,ムカイハラチョウホガキ,広島県安芸高田市向原町保垣
7391301,広島県,広島市安佐北区,白木町井原,ヒロシマケン,ヒロシマシアサキタク,シラキチョウイバラ,広島県広島市安佐北区白木町井原
7391302,広島県,広島市安佐北区,白木町古屋,ヒロシマケン,ヒロシマシアサキタク,シラキチョウコヤ,広島県広島市安佐北区白木町古屋
7391303,広島県,広島市安佐北区,白木町志路,ヒロシマケン,ヒロシマシアサキタク,シラキチョウシジ,広島県広島市安佐北区白木町志路
7391411,広島県,広島市安佐北区,白木町市川,ヒロシマケン,ヒロシマシアサキタク,シラキチョウイチカワ,広島県広島市安佐北区白木町市川
7391412,広島県,広島市安佐北区,白木町小越,ヒロシマケン,ヒロシマシアサキタク,シラキチョウオコエ,広島県広島市安佐北区白木町小越
7391413,広島県,広島市安佐北区,白木町有留,ヒロシマケン,ヒロシマシアサキタク,シラキチョウアリドメ,広島県広島市安佐北区白木町有留
7391414,広島県,広島市安佐北区,白木町秋山,ヒロシマケン,ヒロシマシアサキタク,シラキチョウアキヤマ,広島県広島市安佐北区白木町秋山
7391521,広島県,広島市安佐北区,白木町三田,ヒロシマケン,ヒロシマシアサキタク,シラキチョウミタ,広島県広島市安佐北区白木町三田
7391700,広島県,広島市安佐北区,,ヒロシマケン,ヒロシマシアサキタク,,広島県広島市安佐北区
7391731,広島県,広島市安佐北区,落合,ヒロシマケン,ヒロシマシアサキタク,オチアイ,広島県広島市安佐北区落合
7391732,広島県,広島市安佐北区,落合南,ヒロシマケン,ヒロシマシアサキタク,オチアイミナミ,広島県広島市安佐北区落合南
7391732,広島県,広島市安佐北区,落合南町,ヒロシマケン,ヒロシマシアサキタク,オチアイミナミマチ,広島県広島市安佐北区落合南町
7391733,広島県,広島市安佐北区,口田南,ヒロシマケン,ヒロシマシアサキタク,クチタミナミ,広島県広島市安佐北区口田南
7391733,広島県,広島市安佐北区,口田南町,ヒロシマケン,ヒロシマシアサキタク,クチタミナミマチ,広島県広島市安佐北区口田南町
7391734,広島県,広島市安佐北区,口田,ヒロシマケン,ヒロシマシアサキタク,クチタ,広島県広島市安佐北区口田
7391734,広島県,広島市安佐北区,口田町,ヒロシマケン,ヒロシマシアサキタク,クチタチョウ,広島県広島市安佐北区口田町
7391741,広島県,広島市安佐北区,真亀,ヒロシマケン,ヒロシマシアサキタク,マガメ,広島県広島市安佐北区真亀
7391742,広島県,広島市安佐北区,亀崎,ヒロシマケン,ヒロシマシアサキタク,カメザキ,広島県広島市安佐北区亀崎
7391743,広島県,広島市安佐北区,倉掛,ヒロシマケン,ヒロシマシアサキタク,クラカケ,広島県広島市安佐北区倉掛
7391751,広島県,広島市安佐北区,深川,ヒロシマケン,ヒロシマシアサキタク,フカワ,広島県広島市安佐北区深川
7391751,広島県,広島市安佐北区,深川町,ヒロシマケン,ヒロシマシアサキタク,フカワチョウ,広島県広島市安佐北区深川町
7391752,広島県,広島市安佐北区,上深川町,ヒロシマケン,ヒロシマシアサキタク,カミフカワチョウ,広島県広島市安佐北区上深川町
7391753,広島県,広島市安佐北区,狩留家町,ヒロシマケン,ヒロシマシアサキタク,カルガチョウ,広島県広島市安佐北区狩留家町
7391754,広島県,広島市安佐北区,小河原町,ヒロシマケン,ヒロシマシアサキタク,オガワラチョウ,広島県広島市安佐北区小河原町
7391801,広島県,安芸高田市,高宮町川根,ヒロシマケン,アキタカタシ,タカミヤチョウカワネ,広島県安芸高田市高宮町川根
7391802,広島県,安芸高田市,高宮町佐々部,ヒロシマケン,アキタカタシ,タカミヤチョウササベ,広島県安芸高田市高宮町佐々部
7391803,広島県,安芸高田市,高宮町船木,ヒロシマケン,アキタカタシ,タカミヤチョウフナキ,広島県安芸高田市高宮町船木
7391804,広島県,安芸高田市,高宮町房後,ヒロシマケン,アキタカタシ,タカミヤチョウボウゴ,広島県安芸高田市高宮町房後
7391805,広島県,安芸高田市,高宮町原田,ヒロシマケン,アキタカタシ,タカミヤチョウハラダ,広島県安芸高田市高宮町原田
7391806,広島県,安芸高田市,高宮町来女木,ヒロシマケン,アキタカタシ,タカミヤチョウクルメギ,広島県安芸高田市高宮町来女木
7391807,広島県,安芸高田市,高宮町羽佐竹,ヒロシマケン,アキタカタシ,タカミヤチョウハサダケ,広島県安芸高田市高宮町羽佐竹
7392101,広島県,東広島市,高屋町造賀,ヒロシマケン,ヒガシヒロシマシ,タカヤチョウゾウカ,広島県東広島市高屋町造賀
7392102,広島県,東広島市,高屋町杵原,ヒロシマケン,ヒガシヒロシマシ,タカヤチョウキネハラ,広島県東広島市高屋町杵原
7392103,広島県,東広島市,高屋町宮領,ヒロシマケン,ヒガシヒロシマシ,タカヤチョウミヤリョウ,広島県東広島市高屋町宮領
7392104,広島県,東広島市,高屋町大畠,ヒロシマケン,ヒガシヒロシマシ,タカヤチョウオオバタケ,広島県東広島市高屋町大畠
7392105,広島県,東広島市,高屋町檜山,ヒロシマケン,ヒガシヒロシマシ,タカヤチョウヒヤマ,広島県東広島市高屋町檜山
7392106,広島県,東広島市,高屋町稲木,ヒロシマケン,ヒガシヒロシマシ,タカヤチョウイナキ,広島県東広島市高屋町稲木
7392111,広島県,東広島市,高屋町高屋堀,ヒロシマケン,ヒガシヒロシマシ,タカヤチョウタカヤホリ,広島県東広島市高屋町高屋堀
7392112,広島県,東広島市,高屋町貞重,ヒロシマケン,ヒガシヒロシマシ,タカヤチョウサダシゲ,広島県東広島市高屋町貞重
7392113,広島県,東広島市,高屋町高屋東,ヒロシマケン,ヒガシヒロシマシ,タカヤチョウタカヤヒガシ,広島県東広島市高屋町高屋東
7392114,広島県,東広島市,高屋町白市,ヒロシマケン,ヒガシヒロシマシ,タカヤチョウシライチ,広島県東広島市高屋町白市
7392115,広島県,東広島市,高屋高美が丘,ヒロシマケン,ヒガシヒロシマシ,タカヤタカミガオカ,広島県東広島市高屋高美が丘
7392116,広島県,東広島市,高屋うめの辺,ヒロシマケン,ヒガシヒロシマシ,タカヤウメノベ,広島県東広島市高屋うめの辺
7392117,広島県,東広島市,高屋台,ヒロシマケン,ヒガシヒロシマシ,タカヤダイ,広島県東広島市高屋台
7392121,広島県,東広島市,高屋町小谷,ヒロシマケン,ヒガシヒロシマシ,タカヤチョウコダニ,広島県東広島市高屋町小谷
7392122,広島県,東広島市,高屋町重兼,ヒロシマケン,ヒガシヒロシマシ,タカヤチョウシゲカネ,広島県東広島市高屋町重兼
7392123,広島県,東広島市,高屋町溝口,ヒロシマケン,ヒガシヒロシマシ,タカヤチョウミゾグチ,広島県東広島市高屋町溝口
7392124,広島県,東広島市,高屋町郷,ヒロシマケン,ヒガシヒロシマシ,タカヤチョウゴウ,広島県東広島市高屋町郷
7392125,広島県,東広島市,高屋町中島,ヒロシマケン,ヒガシヒロシマシ,タカヤチョウナカシマ,広島県東広島市高屋町中島
7392201,広島県,東広島市,河内町中河内,ヒロシマケン,ヒガシヒロシマシ,コウチチョウナカゴウチ,広島県東広島市河内町中河内
7392202,広島県,東広島市,河内町下河内,ヒロシマケン,ヒガシヒロシマシ,コウチチョウシモゴウチ,広島県東広島市河内町下河内
7392203,広島県,東広島市,河内町上河内,ヒロシマケン,ヒガシヒロシマシ,コウチチョウカミゴウチ,広島県東広島市河内町上河内
7392204,広島県,東広島市,河内町河戸,ヒロシマケン,ヒガシヒロシマシ,コウチチョウコウド,広島県東広島市河内町河戸
7392205,広島県,東広島市,河内町戸野,ヒロシマケン,ヒガシヒロシマシ,コウチチョウトノ,広島県東広島市河内町戸野
7392206,広島県,東広島市,河内町宇山,ヒロシマケン,ヒガシヒロシマシ,コウチチョウウヤマ,広島県東広島市河内町宇山
7392207,広島県,東広島市,河内町小田,ヒロシマケン,ヒガシヒロシマシ,コウチチョウオダ,広島県東広島市河内町小田
7392208,広島県,東広島市,河内町入野,ヒロシマケン,ヒガシヒロシマシ,コウチチョウニュウノ,広島県東広島市河内町入野
7392209,広島県,東広島市,入野中山台,ヒロシマケン,ヒガシヒロシマシ,ニュウノナカヤマダイ,広島県東広島市入野中山台
7392211,広島県,東広島市,河内臨空団地,ヒロシマケン,ヒガシヒロシマシ,コウチリンクウダンチ,広島県東広島市河内臨空団地
7392301,広島県,東広島市,福富町上竹仁,ヒロシマケン,ヒガシヒロシマシ,フクトミチョウカミダケニ,広島県東広島市福富町上竹仁
7392302,広島県,東広島市,福富町下竹仁,ヒロシマケン,ヒガシヒロシマシ,フクトミチョウシモダケニ,広島県東広島市福富町下竹仁
7392303,広島県,東広島市,福富町久芳,ヒロシマケン,ヒガシヒロシマシ,フクトミチョウクバ,広島県東広島市福富町久芳
7392304,広島県,東広島市,福富町上戸野,ヒロシマケン,ヒガシヒロシマシ,フクトミチョウカミトノ,広島県東広島市福富町上戸野
7392311,広島県,東広島市,豊栄町乃美,ヒロシマケン,ヒガシヒロシマシ,トヨサカチョウノミ,広島県東広島市豊栄町乃美
7392312,広島県,東広島市,豊栄町別府,ヒロシマケン,ヒガシヒロシマシ,トヨサカチョウベフ,広島県東広島市豊栄町別府
7392313,広島県,東広島市,豊栄町清武,ヒロシマケン,ヒガシヒロシマシ,トヨサカチョウキヨタケ,広島県東広島市豊栄町清武
7392314,広島県,東広島市,豊栄町飯田,ヒロシマケン,ヒガシヒロシマシ,トヨサカチョウイイダ,広島県東広島市豊栄町飯田
7392315,広島県,東広島市,豊栄町吉原,ヒロシマケン,ヒガシヒロシマシ,トヨサカチョウヨシワラ,広島県東広島市豊栄町吉原
7392316,広島県,東広島市,豊栄町安宿,ヒロシマケン,ヒガシヒロシマシ,トヨサカチョウアスカ,広島県東広島市豊栄町安宿
7392317,広島県,東広島市,豊栄町鍛冶屋,ヒロシマケン,ヒガシヒロシマシ,トヨサカチョウカジヤ,広島県東広島市豊栄町鍛冶屋
7392318,広島県,東広島市,豊栄町能良,ヒロシマケン,ヒガシヒロシマシ,トヨサカチョウノウラ,広島県東広島市豊栄町能良
7392401,広島県,東広島市,安芸津町木谷,ヒロシマケン,ヒガシヒロシマシ,アキツチョウキダニ,広島県東広島市安芸津町木谷
7392402,広島県,東広島市,安芸津町三津,ヒロシマケン,ヒガシヒロシマシ,アキツチョウミツ,広島県東広島市安芸津町三津
7392403,広島県,東広島市,安芸津町風早,ヒロシマケン,ヒガシヒロシマシ,アキツチョウカザハヤ,広島県東広島市安芸津町風早
7392404,広島県,東広島市,安芸津町大田,ヒロシマケン,ヒガシヒロシマシ,アキツチョウオオダ,広島県東広島市安芸津町大田
7392405,広島県,東広島市,安芸津町小松原,ヒロシマケン,ヒガシヒロシマシ,アキツチョウコマツバラ,広島県東広島市安芸津町小松原
7392501,広島県,東広島市,黒瀬町小多田,ヒロシマケン,ヒガシヒロシマシ,クロセチョウオタダ,広島県東広島市黒瀬町小多田
7392502,広島県,東広島市,黒瀬町国近,ヒロシマケン,ヒガシヒロシマシ,クロセチョウクニチカ,広島県東広島市黒瀬町国近
7392503,広島県,東広島市,黒瀬町南方,ヒロシマケン,ヒガシヒロシマシ,クロセチョウミナミガタ,広島県東広島市黒瀬町南方
7392504,広島県,東広島市,黒瀬町宗近柳国,ヒロシマケン,ヒガシヒロシマシ,クロセチョウムネチカヤナクニ,広島県東広島市黒瀬町宗近柳国
7392611,広島県,東広島市,黒瀬町大多田,ヒロシマケン,ヒガシヒロシマシ,クロセチョウオオタダ,広島県東広島市黒瀬町大多田
7392612,広島県,東広島市,黒瀬町丸山,ヒロシマケン,ヒガシヒロシマシ,クロセチョウマルヤマ,広島県東広島市黒瀬町丸山
7392613,広島県,東広島市,黒瀬町楢原,ヒロシマケン,ヒガシヒロシマシ,クロセチョウナラハラ,広島県東広島市黒瀬町楢原
7392614,広島県,東広島市,黒瀬松ケ丘,ヒロシマケン,ヒガシヒロシマシ,クロセマツガオカ,広島県東広島市黒瀬松ケ丘
7392615,広島県,東広島市,黒瀬春日野,ヒロシマケン,ヒガシヒロシマシ,クロセカスガノ,広島県東広島市黒瀬春日野
7392616,広島県,東広島市,黒瀬町兼広,ヒロシマケン,ヒガシヒロシマシ,クロセチョウカネヒロ,広島県東広島市黒瀬町兼広
7392617,広島県,東広島市,黒瀬町切田,ヒロシマケン,ヒガシヒロシマシ,クロセチョウキリタ,広島県東広島市黒瀬町切田
7392618,広島県,東広島市,黒瀬桜が丘,ヒロシマケン,ヒガシヒロシマシ,クロセサクラガオカ,広島県東広島市黒瀬桜が丘
7392619,広島県,東広島市,黒瀬切田が丘,ヒロシマケン,ヒガシヒロシマシ,クロセキリタガオカ,広島県東広島市黒瀬切田が丘
7392621,広島県,東広島市,黒瀬町南方（賀茂精神医療センター）,ヒロシマケン,ヒガシヒロシマシ,クロセチョウミナミガタ(カモセイシンイリョウセンター),広島県東広島市黒瀬町南方（賀茂精神医療センター）
7392622,広島県,東広島市,黒瀬町乃美尾,ヒロシマケン,ヒガシヒロシマシ,クロセチョウノミノオ,広島県東広島市黒瀬町乃美尾
7392623,広島県,東広島市,黒瀬町川角,ヒロシマケン,ヒガシヒロシマシ,クロセチョウカワスミ,広島県東広島市黒瀬町川角
7392624,広島県,東広島市,黒瀬町菅田,ヒロシマケン,ヒガシヒロシマシ,クロセチョウスゲタ,広島県東広島市黒瀬町菅田
7392625,広島県,東広島市,黒瀬町上保田,ヒロシマケン,ヒガシヒロシマシ,クロセチョウカミボウダ,広島県東広島市黒瀬町上保田
7392626,広島県,東広島市,黒瀬町市飯田,ヒロシマケン,ヒガシヒロシマシ,クロセチョウイチイイダ,広島県東広島市黒瀬町市飯田
7392627,広島県,東広島市,黒瀬楢原北,ヒロシマケン,ヒガシヒロシマシ,クロセナラハラキタ,広島県東広島市黒瀬楢原北
7392628,広島県,東広島市,黒瀬楢原東,ヒロシマケン,ヒガシヒロシマシ,クロセナラハラヒガシ,広島県東広島市黒瀬楢原東
7392629,広島県,東広島市,黒瀬楢原西,ヒロシマケン,ヒガシヒロシマシ,クロセナラハラニシ,広島県東広島市黒瀬楢原西
7392631,広島県,東広島市,黒瀬学園台,ヒロシマケン,ヒガシヒロシマシ,クロセガクエンダイ,広島県東広島市黒瀬学園台
7392731,広島県,東広島市,黒瀬町兼沢,ヒロシマケン,ヒガシヒロシマシ,クロセチョウカネサワ,広島県東広島市黒瀬町兼沢
7392732,広島県,東広島市,黒瀬町津江,ヒロシマケン,ヒガシヒロシマシ,クロセチョウツエ,広島県東広島市黒瀬町津江
