zipcode,prefecture_name,city,town,prefecture_kana,city_kana,town_kana,normalized_address
7400000,山口県,岩国市,,ヤマグチケン,イワクニシ,,山口県岩国市
7400000,山口県,玖珂郡和木町,,ヤマグチケン,クガグンワキチョウ,,山口県玖珂郡和木町
7400001,山口県,岩国市,装束町,ヤマグチケン,イワクニシ,ショウゾクマチ,山口県岩国市装束町
7400002,山口県,岩国市,新港町,ヤマグチケン,イワクニシ,シンミナトマチ,山口県岩国市新港町
7400003,山口県,岩国市,飯田町,ヤマグチケン,イワクニシ,イイダマチ,山口県岩国市飯田町
7400004,山口県,岩国市,昭和町,ヤマグチケン,イワクニシ,ショウワマチ,山口県岩国市昭和町
7400011,山口県,岩国市,立石町,ヤマグチケン,イワクニシ,タテイシマチ,山口県岩国市立石町
7400012,山口県,岩国市,元町,ヤマグチケン,イワクニシ,モトマチ,山口県岩国市元町
7400013,山口県,岩国市,桂町,ヤマグチケン,イワクニシ,カツラマチ,山口県岩国市桂町
7400014,山口県,岩国市,日の出町,ヤマグチケン,イワクニシ,ヒノデマチ,山口県岩国市日の出町
7400015,山口県,岩国市,川口町,ヤマグチケン,イワクニシ,カワグチマチ,山口県岩国市川口町
7400016,山口県,岩国市,三笠町,ヤマグチケン,イワクニシ,ミカサマチ,山口県岩国市三笠町
7400017,山口県,岩国市,今津町,ヤマグチケン,イワクニシ,イマヅマチ,山口県岩国市今津町
7400018,山口県,岩国市,麻里布町,ヤマグチケン,イワクニシ,マリフマチ,山口県岩国市麻里布町
7400019,山口県,岩国市,砂山町,ヤマグチケン,イワクニシ,スナヤママチ,山口県岩国市砂山町
7400021,山口県,岩国市,室の木町,ヤマグチケン,イワクニシ,ムロノキマチ,山口県岩国市室の木町
7400022,山口県,岩国市,山手町,ヤマグチケン,イワクニシ,ヤマテマチ,山口県岩国市山手町
7400023,山口県,岩国市,川下町,ヤマグチケン,イワクニシ,カワシモマチ,山口県岩国市川下町
7400024,山口県,岩国市,旭町,ヤマグチケン,イワクニシ,アサヒマチ,山口県岩国市旭町
7400025,山口県,岩国市,三角町,ヤマグチケン,イワクニシ,ミスミマチ,山口県岩国市三角町
7400026,山口県,岩国市,車町,ヤマグチケン,イワクニシ,クルママチ,山口県岩国市車町
7400027,山口県,岩国市,中津町,ヤマグチケン,イワクニシ,ナカヅマチ,山口県岩国市中津町
7400028,山口県,岩国市,楠町,ヤマグチケン,イワクニシ,クスノキマチ,山口県岩国市楠町
7400031,山口県,岩国市,門前町,ヤマグチケン,イワクニシ,モンゼンマチ,山口県岩国市門前町
7400032,山口県,岩国市,尾津町,ヤマグチケン,イワクニシ,オヅマチ,山口県岩国市尾津町
7400033,山口県,岩国市,灘町,ヤマグチケン,イワクニシ,ナダマチ,山口県岩国市灘町
7400034,山口県,岩国市,南岩国町,ヤマグチケン,イワクニシ,ミナミイワクニマチ,山口県岩国市南岩国町
7400035,山口県,岩国市,海土路町,ヤマグチケン,イワクニシ,ミドロマチ,山口県岩国市海土路町
7400036,山口県,岩国市,藤生町,ヤマグチケン,イワクニシ,フジュウマチ,山口県岩国市藤生町
7400037,山口県,岩国市,愛宕町,ヤマグチケン,イワクニシ,アタゴマチ,山口県岩国市愛宕町
7400041,山口県,岩国市,黒磯町,ヤマグチケン,イワクニシ,クロイソマチ,山口県岩国市黒磯町
7400042,山口県,岩国市,青木町,ヤマグチケン,イワクニシ,オオギマチ,山口県岩国市青木町
7400043,山口県,岩国市,保津町,ヤマグチケン,イワクニシ,ホウヅマチ,山口県岩国市保津町
7400044,山口県,岩国市,通津,ヤマグチケン,イワクニシ,ツヅ,山口県岩国市通津
7400045,山口県,岩国市,長野,ヤマグチケン,イワクニシ,ナガノ,山口県岩国市長野
7400051,山口県,岩国市,柱島,ヤマグチケン,イワクニシ,ハシラジマ,山口県岩国市柱島
7400061,山口県,玖珂郡和木町,和木,ヤマグチケン,クガグンワキチョウ,ワキ,山口県玖珂郡和木町和木
7400062,山口県,玖珂郡和木町,瀬田,ヤマグチケン,クガグンワキチョウ,セタ,山口県玖珂郡和木町瀬田
7400063,山口県,玖珂郡和木町,関ケ浜,ヤマグチケン,クガグンワキチョウ,セキガハマ,山口県玖珂郡和木町関ケ浜
7400301,山口県,岩国市,行波,ヤマグチケン,イワクニシ,ユカバ,山口県岩国市行波
7400302,山口県,岩国市,下,ヤマグチケン,イワクニシ,シモ,山口県岩国市下
7400303,山口県,岩国市,杭名,ヤマグチケン,イワクニシ,クイナ,山口県岩国市杭名
7400304,山口県,岩国市,相ノ谷,ヤマグチケン,イワクニシ,アイノタニ,山口県岩国市相ノ谷
7400305,山口県,岩国市,二鹿,ヤマグチケン,イワクニシ,フタシカ,山口県岩国市二鹿
7400306,山口県,岩国市,天尾,ヤマグチケン,イワクニシ,テンノオ,山口県岩国市天尾
7400311,山口県,岩国市,瓦谷,ヤマグチケン,イワクニシ,カワラダニ,山口県岩国市瓦谷
7400312,山口県,岩国市,守内,ヤマグチケン,イワクニシ,シュウチ,山口県岩国市守内
7400313,山口県,岩国市,保木,ヤマグチケン,イワクニシ,ホウキ,山口県岩国市保木
7400314,山口県,岩国市,寺山,ヤマグチケン,イワクニシ,テラヤマ,山口県岩国市寺山
7400315,山口県,岩国市,近延,ヤマグチケン,イワクニシ,チカノブ,山口県岩国市近延
7400316,山口県,岩国市,行正,ヤマグチケン,イワクニシ,ユキマサ,山口県岩国市行正
7400317,山口県,岩国市,上田,ヤマグチケン,イワクニシ,ウエダ,山口県岩国市上田
7400321,山口県,岩国市,入野,ヤマグチケン,イワクニシ,イリノ,山口県岩国市入野
7400322,山口県,岩国市,廿木,ヤマグチケン,イワクニシ,ハタキ,山口県岩国市廿木
7400323,山口県,岩国市,大山,ヤマグチケン,イワクニシ,オオヤマ,山口県岩国市大山
7400324,山口県,岩国市,伊房,ヤマグチケン,イワクニシ,イフサ,山口県岩国市伊房
7400325,山口県,岩国市,竹安,ヤマグチケン,イワクニシ,タケヤス,山口県岩国市竹安
7400326,山口県,岩国市,土生,ヤマグチケン,イワクニシ,ハブ,山口県岩国市土生
7400327,山口県,岩国市,角,ヤマグチケン,イワクニシ,スミ,山口県岩国市角
7400501,山口県,岩国市,美川町小川,ヤマグチケン,イワクニシ,ミカワマチコガワ,山口県岩国市美川町小川
7400502,山口県,岩国市,美川町四馬神,ヤマグチケン,イワクニシ,ミカワマチシメガミ,山口県岩国市美川町四馬神
7400503,山口県,岩国市,美川町添谷,ヤマグチケン,イワクニシ,ミカワマチソエダニ,山口県岩国市美川町添谷
7400504,山口県,岩国市,美川町南桑,ヤマグチケン,イワクニシ,ミカワマチナグワ,山口県岩国市美川町南桑
7400505,山口県,岩国市,美川町根笠,ヤマグチケン,イワクニシ,ミカワマチネカサ,山口県岩国市美川町根笠
7400601,山口県,岩国市,本郷町本谷,ヤマグチケン,イワクニシ,ホンゴウマチホンダニ,山口県岩国市本郷町本谷
7400602,山口県,岩国市,本郷町本郷,ヤマグチケン,イワクニシ,ホンゴウマチホンゴウ,山口県岩国市本郷町本郷
7400603,山口県,岩国市,本郷町波野,ヤマグチケン,イワクニシ,ホンゴウマチハノ,山口県岩国市本郷町波野
7400604,山口県,岩国市,本郷町宇塚,ヤマグチケン,イワクニシ,ホンゴウマチウヅカ,山口県岩国市本郷町宇塚
7400605,山口県,岩国市,本郷町西黒沢,ヤマグチケン,イワクニシ,ホンゴウマチニシクロザワ,山口県岩国市本郷町西黒沢
7400721,山口県,岩国市,錦町大野,ヤマグチケン,イワクニシ,ニシキマチオオノ,山口県岩国市錦町大野
7400722,山口県,岩国市,錦町中ノ瀬,ヤマグチケン,イワクニシ,ニシキマチナカノセ,山口県岩国市錦町中ノ瀬
7400723,山口県,岩国市,錦町府谷,ヤマグチケン,イワクニシ,ニシキマチフノタニ,山口県岩国市錦町府谷
7400724,山口県,岩国市,錦町広瀬,ヤマグチケン,イワクニシ,ニシキマチヒロセ,山口県岩国市錦町広瀬
7400725,山口県,岩国市,錦町野谷,ヤマグチケン,イワクニシ,ニシキマチノタニ,山口県岩国市錦町野谷
7400811,山口県,岩国市,錦町須川,ヤマグチケン,イワクニシ,ニシキマチスガワ,山口県岩国市錦町須川
7400812,山口県,岩国市,錦町深川,ヤマグチケン,イワクニシ,ニシキマチフカガワ,山口県岩国市錦町深川
7400901,山口県,岩国市,錦町宇佐,ヤマグチケン,イワクニシ,ニシキマチウサ,山口県岩国市錦町宇佐
7400902,山口県,岩国市,錦町宇佐郷（その他）,ヤマグチケン,イワクニシ,ニシキマチウサゴウ(ソノタ),山口県岩国市錦町宇佐郷（その他）
7400903,山口県,岩国市,錦町大原,ヤマグチケン,イワクニシ,ニシキマチオオハラ,山口県岩国市錦町大原
7400904,山口県,岩国市,錦町宇佐郷（向峠）,ヤマグチケン,イワクニシ,ニシキマチウサゴウ(ムカタオ),山口県岩国市錦町宇佐郷（向峠）
7401201,山口県,岩国市,美和町秋掛,ヤマグチケン,イワクニシ,ミワマチアキガケ,山口県岩国市美和町秋掛
7401202,山口県,岩国市,美和町北中山,ヤマグチケン,イワクニシ,ミワマチキタナカヤマ,山口県岩国市美和町北中山
7401211,山口県,岩国市,美和町釜ケ原,ヤマグチケン,イワクニシ,ミワマチカマガハラ,山口県岩国市美和町釜ケ原
7401212,山口県,岩国市,美和町黒沢,ヤマグチケン,イワクニシ,ミワマチクロサワ,山口県岩国市美和町黒沢
7401213,山口県,岩国市,美和町岸根,ヤマグチケン,イワクニシ,ミワマチガンネ,山口県岩国市美和町岸根
7401214,山口県,岩国市,美和町百合谷,ヤマグチケン,イワクニシ,ミワマチユリタニ,山口県岩国市美和町百合谷
7401215,山口県,岩国市,美和町長谷,ヤマグチケン,イワクニシ,ミワマチナガタニ,山口県岩国市美和町長谷
7401216,山口県,岩国市,美和町日宛,ヤマグチケン,イワクニシ,ミワマチヒナタ,山口県岩国市美和町日宛
7401217,山口県,岩国市,美和町大根川,ヤマグチケン,イワクニシ,ミワマチオオネガワ,山口県岩国市美和町大根川
7401218,山口県,岩国市,美和町中垣内,ヤマグチケン,イワクニシ,ミワマチナカガウチ,山口県岩国市美和町中垣内
7401219,山口県,岩国市,美和町瀬戸ノ内,ヤマグチケン,イワクニシ,ミワマチセトノウチ,山口県岩国市美和町瀬戸ノ内
7401221,山口県,岩国市,美和町上駄床,ヤマグチケン,イワクニシ,ミワマチカミダトコ,山口県岩国市美和町上駄床
7401222,山口県,岩国市,美和町田ノ口,ヤマグチケン,イワクニシ,ミワマチタノクチ,山口県岩国市美和町田ノ口
7401223,山口県,岩国市,美和町滑,ヤマグチケン,イワクニシ,ミワマチナメラ,山口県岩国市美和町滑
7401224,山口県,岩国市,美和町佐坂,ヤマグチケン,イワクニシ,ミワマチサザカ,山口県岩国市美和町佐坂
7401225,山口県,岩国市,美和町渋前,ヤマグチケン,イワクニシ,ミワマチシブクマ,山口県岩国市美和町渋前
7401231,山口県,岩国市,美和町生見,ヤマグチケン,イワクニシ,ミワマチイキミ,山口県岩国市美和町生見
7401232,山口県,岩国市,美和町西畑,ヤマグチケン,イワクニシ,ミワマチニシバタ,山口県岩国市美和町西畑
7401241,山口県,岩国市,美和町阿賀,ヤマグチケン,イワクニシ,ミワマチアカ,山口県岩国市美和町阿賀
7401242,山口県,岩国市,美和町下畑,ヤマグチケン,イワクニシ,ミワマチシモバタ,山口県岩国市美和町下畑
7401401,山口県,岩国市,由宇町（寺迫）,ヤマグチケン,イワクニシ,ユウマチ(テラザコ),山口県岩国市由宇町（寺迫）
7401402,山口県,岩国市,由宇町（小槇）,ヤマグチケン,イワクニシ,ユウマチ(ショウシン),山口県岩国市由宇町（小槇）
7401403,山口県,岩国市,由宇町（中倉）,ヤマグチケン,イワクニシ,ユウマチ(ナカクラ),山口県岩国市由宇町（中倉）
7401404,山口県,岩国市,由宇町（西区）,ヤマグチケン,イワクニシ,ユウマチ(ニシク),山口県岩国市由宇町（西区）
7401405,山口県,岩国市,由宇町（笠塚）,ヤマグチケン,イワクニシ,ユウマチ(カサヅカ),山口県岩国市由宇町（笠塚）
7401406,山口県,岩国市,由宇町（峇清）,ヤマグチケン,イワクニシ,ユウマチ(ゴウセイ),山口県岩国市由宇町（峇清）
7401407,山口県,岩国市,由宇町（横道）,ヤマグチケン,イワクニシ,ユウマチ(ヨコミチ),山口県岩国市由宇町（横道）
7401411,山口県,岩国市,由宇町（清水）,ヤマグチケン,イワクニシ,ユウマチ(シミズ),山口県岩国市由宇町（清水）
7401412,山口県,岩国市,由宇町（中村）,ヤマグチケン,イワクニシ,ユウマチ(ナカムラ),山口県岩国市由宇町（中村）
7401413,山口県,岩国市,由宇町（上北）,ヤマグチケン,イワクニシ,ユウマチ(カミキタ),山口県岩国市由宇町（上北）
7401424,山口県,岩国市,由宇町港,ヤマグチケン,イワクニシ,ユウマチミナト,山口県岩国市由宇町港
7401425,山口県,岩国市,由宇町南沖,ヤマグチケン,イワクニシ,ユウマチミナミオキ,山口県岩国市由宇町南沖
7401426,山口県,岩国市,由宇町由宇崎,ヤマグチケン,イワクニシ,ユウマチユウサキ,山口県岩国市由宇町由宇崎
7401428,山口県,岩国市,由宇町中央,ヤマグチケン,イワクニシ,ユウマチチュウオウ,山口県岩国市由宇町中央
7401431,山口県,岩国市,由宇町（有家）,ヤマグチケン,イワクニシ,ユウマチ(アラケ),山口県岩国市由宇町（有家）
7401432,山口県,岩国市,由宇町神東,ヤマグチケン,イワクニシ,ユウマチシントウ,山口県岩国市由宇町神東
7401441,山口県,岩国市,由宇町千鳥ケ丘,ヤマグチケン,イワクニシ,ユウマチチドリガオカ,山口県岩国市由宇町千鳥ケ丘
7401451,山口県,岩国市,由宇町南,ヤマグチケン,イワクニシ,ユウマチミナミ,山口県岩国市由宇町南
7401452,山口県,岩国市,由宇町（正南）,ヤマグチケン,イワクニシ,ユウマチ(セイナン),山口県岩国市由宇町（正南）
7401454,山口県,岩国市,由宇町西,ヤマグチケン,イワクニシ,ユウマチニシ,山口県岩国市由宇町西
7401455,山口県,岩国市,由宇町北,ヤマグチケン,イワクニシ,ユウマチキタ,山口県岩国市由宇町北
7401488,山口県,岩国市,由宇町（その他）,ヤマグチケン,イワクニシ,ユウマチ(ソノタ),山口県岩国市由宇町（その他）
7410061,山口県,岩国市,錦見,ヤマグチケン,イワクニシ,ニシミ,山口県岩国市錦見
7410062,山口県,岩国市,岩国,ヤマグチケン,イワクニシ,イワクニ,山口県岩国市岩国
7410063,山口県,岩国市,関戸,ヤマグチケン,イワクニシ,セキド,山口県岩国市関戸
7410071,山口県,岩国市,牛野谷町,ヤマグチケン,イワクニシ,ウシノヤマチ,山口県岩国市牛野谷町
7410072,山口県,岩国市,平田,ヤマグチケン,イワクニシ,ヒラタ,山口県岩国市平田
7410073,山口県,岩国市,柱野,ヤマグチケン,イワクニシ,ハシラノ,山口県岩国市柱野
7410074,山口県,岩国市,六呂師,ヤマグチケン,イワクニシ,ロクロシ,山口県岩国市六呂師
7410075,山口県,岩国市,叶木,ヤマグチケン,イワクニシ,カノウギ,山口県岩国市叶木
7410081,山口県,岩国市,横山,ヤマグチケン,イワクニシ,ヨコヤマ,山口県岩国市横山
7410082,山口県,岩国市,川西,ヤマグチケン,イワクニシ,カワニシ,山口県岩国市川西
7410083,山口県,岩国市,御庄,ヤマグチケン,イワクニシ,ミショウ,山口県岩国市御庄
7410084,山口県,岩国市,大谷,ヤマグチケン,イワクニシ,オオタニ,山口県岩国市大谷
7410085,山口県,岩国市,持国,ヤマグチケン,イワクニシ,モチクニ,山口県岩国市持国
7410091,山口県,岩国市,小瀬,ヤマグチケン,イワクニシ,オゼ,山口県岩国市小瀬
7410092,山口県,岩国市,多田,ヤマグチケン,イワクニシ,タダ,山口県岩国市多田
7410093,山口県,岩国市,田原,ヤマグチケン,イワクニシ,タワラ,山口県岩国市田原
7410094,山口県,岩国市,阿品,ヤマグチケン,イワクニシ,アジナ,山口県岩国市阿品
7420000,山口県,柳井市,,ヤマグチケン,ヤナイシ,,山口県柳井市
7420001,山口県,柳井市,姫田,ヤマグチケン,ヤナイシ,ヒメダ,山口県柳井市姫田
7420002,山口県,柳井市,山根,ヤマグチケン,ヤナイシ,ヤマネ,山口県柳井市山根
7420003,山口県,柳井市,片野西,ヤマグチケン,ヤナイシ,カタノニシ,山口県柳井市片野西
7420004,山口県,柳井市,土手町,ヤマグチケン,ヤナイシ,ドテマチ,山口県柳井市土手町
7420005,山口県,柳井市,天神,ヤマグチケン,ヤナイシ,テンジン,山口県柳井市天神
7420006,山口県,柳井市,新天地,ヤマグチケン,ヤナイシ,シンテンチ,山口県柳井市新天地
7420007,山口県,柳井市,東土手,ヤマグチケン,ヤナイシ,ヒガシドテ,山口県柳井市東土手
7420008,山口県,柳井市,新市北,ヤマグチケン,ヤナイシ,シンイチキタ,山口県柳井市新市北
7420009,山口県,柳井市,新市,ヤマグチケン,ヤナイシ,シンイチ,山口県柳井市新市
7420010,山口県,柳井市,新市南,ヤマグチケン,ヤナイシ,シンイチミナミ,山口県柳井市新市南
7420011,山口県,柳井市,新市沖,ヤマグチケン,ヤナイシ,シンイチオキ,山口県柳井市新市沖
7420012,山口県,柳井市,北浜,ヤマグチケン,ヤナイシ,キタハマ,山口県柳井市北浜
7420021,山口県,柳井市,柳井,ヤマグチケン,ヤナイシ,ヤナイ,山口県柳井市柳井
7420022,山口県,柳井市,柳井津,ヤマグチケン,ヤナイシ,ヤナイツ,山口県柳井市柳井津
7420023,山口県,柳井市,南浜,ヤマグチケン,ヤナイシ,ミナミハマ,山口県柳井市南浜
7420024,山口県,柳井市,ニュータウン南町,ヤマグチケン,ヤナイシ,ニュータウンミナミマチ,山口県柳井市ニュータウン南町
7420031,山口県,柳井市,南町,ヤマグチケン,ヤナイシ,ミナミマチ,山口県柳井市南町
7420032,山口県,柳井市,古開作,ヤマグチケン,ヤナイシ,コガイサク,山口県柳井市古開作
7420033,山口県,柳井市,新庄,ヤマグチケン,ヤナイシ,シンジョウ,山口県柳井市新庄
7420034,山口県,柳井市,余田,ヤマグチケン,ヤナイシ,ヨタ,山口県柳井市余田
7420035,山口県,柳井市,中央,ヤマグチケン,ヤナイシ,チュウオウ,山口県柳井市中央
7420036,山口県,柳井市,駅南,ヤマグチケン,ヤナイシ,エキナン,山口県柳井市駅南
7420041,山口県,柳井市,平郡,ヤマグチケン,ヤナイシ,ヘイグン,山口県柳井市平郡
7420111,山口県,柳井市,日積,ヤマグチケン,ヤナイシ,ヒヅミ,山口県柳井市日積
7420201,山口県,柳井市,伊陸,ヤマグチケン,ヤナイシ,イカチ,山口県柳井市伊陸
7420301,山口県,岩国市,周東町祖生,ヤマグチケン,イワクニシ,シュウトウマチソオ,山口県岩国市周東町祖生
7420311,山口県,岩国市,玖珂町（欽明路）,ヤマグチケン,イワクニシ,クガマチ(キンメイジ),山口県岩国市玖珂町（欽明路）
7420312,山口県,岩国市,玖珂町（上谷）,ヤマグチケン,イワクニシ,クガマチ(カミダニ),山口県岩国市玖珂町（上谷）
7420313,山口県,岩国市,玖珂町（下谷）,ヤマグチケン,イワクニシ,クガマチ(シモダニ),山口県岩国市玖珂町（下谷）
7420314,山口県,岩国市,玖珂町（野口）,ヤマグチケン,イワクニシ,クガマチ(ノグチ),山口県岩国市玖珂町（野口）
7420315,山口県,岩国市,玖珂町（瀬田）,ヤマグチケン,イワクニシ,クガマチ(セダ),山口県岩国市玖珂町（瀬田）
7420321,山口県,岩国市,玖珂町（市頭）,ヤマグチケン,イワクニシ,クガマチ(イチガシラ),山口県岩国市玖珂町（市頭）
7420322,山口県,岩国市,玖珂町（上市）,ヤマグチケン,イワクニシ,クガマチ(ウワイチ),山口県岩国市玖珂町（上市）
7420323,山口県,岩国市,玖珂町（谷津）,ヤマグチケン,イワクニシ,クガマチ(ヤツ),山口県岩国市玖珂町（谷津）
7420324,山口県,岩国市,玖珂町（駅通）,ヤマグチケン,イワクニシ,クガマチ(エキドオリ),山口県岩国市玖珂町（駅通）
7420325,山口県,岩国市,玖珂町（本町）,ヤマグチケン,イワクニシ,クガマチ(ホンマチ),山口県岩国市玖珂町（本町）
7420326,山口県,岩国市,玖珂町（同道）,ヤマグチケン,イワクニシ,クガマチ(ドウドウ),山口県岩国市玖珂町（同道）
7420331,山口県,岩国市,玖珂町（鞍掛）,ヤマグチケン,イワクニシ,クガマチ(クラカケ),山口県岩国市玖珂町（鞍掛）
7420332,山口県,岩国市,玖珂町（阿山）,ヤマグチケン,イワクニシ,クガマチ(アヤマ),山口県岩国市玖珂町（阿山）
7420333,山口県,岩国市,玖珂町（千束）,ヤマグチケン,イワクニシ,クガマチ(センゾク),山口県岩国市玖珂町（千束）
7420334,山口県,岩国市,玖珂町（臼田）,ヤマグチケン,イワクニシ,クガマチ(ウスダ),山口県岩国市玖珂町（臼田）
7420335,山口県,岩国市,玖珂町（新町）,ヤマグチケン,イワクニシ,クガマチ(シンマチ),山口県岩国市玖珂町（新町）
7420336,山口県,岩国市,玖珂町（新市）,ヤマグチケン,イワクニシ,クガマチ(シンイチ),山口県岩国市玖珂町（新市）
7420337,山口県,岩国市,玖珂町（久門給）,ヤマグチケン,イワクニシ,クガマチ(クモンキュウ),山口県岩国市玖珂町（久門給）
7420338,山口県,岩国市,玖珂町（有延）,ヤマグチケン,イワクニシ,クガマチ(アリノブ),山口県岩国市玖珂町（有延）
7420341,山口県,岩国市,玖珂町（柳井田）,ヤマグチケン,イワクニシ,クガマチ(ヤナイダ),山口県岩国市玖珂町（柳井田）
7420342,山口県,岩国市,玖珂町（大田）,ヤマグチケン,イワクニシ,クガマチ(オオタ),山口県岩国市玖珂町（大田）
7420343,山口県,岩国市,玖珂町（野地）,ヤマグチケン,イワクニシ,クガマチ(ノジ),山口県岩国市玖珂町（野地）
7420344,山口県,岩国市,玖珂町（番地のみ）,ヤマグチケン,イワクニシ,クガマチ(バンチノミ),山口県岩国市玖珂町（番地のみ）
7420411,山口県,岩国市,周東町明見谷,ヤマグチケン,イワクニシ,シュウトウマチアケミダニ,山口県岩国市周東町明見谷
7420412,山口県,岩国市,周東町川上,ヤマグチケン,イワクニシ,シュウトウマチカワカミ,山口県岩国市周東町川上
7420413,山口県,岩国市,周東町上久原,ヤマグチケン,イワクニシ,シュウトウマチカミクバラ,山口県岩国市周東町上久原
7420414,山口県,岩国市,周東町田尻,ヤマグチケン,イワクニシ,シュウトウマチタジリ,山口県岩国市周東町田尻
7420415,山口県,岩国市,周東町中山,ヤマグチケン,イワクニシ,シュウトウマチナカヤマ,山口県岩国市周東町中山
7420416,山口県,岩国市,周東町用田,ヤマグチケン,イワクニシ,シュウトウマチヨウダ,山口県岩国市周東町用田
7420417,山口県,岩国市,周東町下久原,ヤマグチケン,イワクニシ,シュウトウマチシモクバラ,山口県岩国市周東町下久原
7420421,山口県,岩国市,周東町三瀬川,ヤマグチケン,イワクニシ,シュウトウマチサンゼガワ,山口県岩国市周東町三瀬川
7420422,山口県,岩国市,周東町獺越,ヤマグチケン,イワクニシ,シュウトウマチオソゴエ,山口県岩国市周東町獺越
7420423,山口県,岩国市,周東町下須通,ヤマグチケン,イワクニシ,シュウトウマチシモスドオリ,山口県岩国市周東町下須通
7420424,山口県,岩国市,周東町差川,ヤマグチケン,イワクニシ,シュウトウマチサスガワ,山口県岩国市周東町差川
7420425,山口県,岩国市,周東町西長野,ヤマグチケン,イワクニシ,シュウトウマチニシナガノ,山口県岩国市周東町西長野
7420426,山口県,岩国市,周東町上須通,ヤマグチケン,イワクニシ,シュウトウマチカミスドオリ,山口県岩国市周東町上須通
7420427,山口県,岩国市,周東町樋余地,ヤマグチケン,イワクニシ,シュウトウマチヒヨジ,山口県岩国市周東町樋余地
7421100,山口県,熊毛郡平生町,,ヤマグチケン,クマゲグンヒラオチョウ,,山口県熊毛郡平生町
7421101,山口県,熊毛郡平生町,平生町,ヤマグチケン,クマゲグンヒラオチョウ,ヒラオマチ,山口県熊毛郡平生町平生町
7421102,山口県,熊毛郡平生町,平生村,ヤマグチケン,クマゲグンヒラオチョウ,ヒラオムラ,山口県熊毛郡平生町平生村
7421103,山口県,熊毛郡平生町,竪ケ浜,ヤマグチケン,クマゲグンヒラオチョウ,タテガハマ,山口県熊毛郡平生町竪ケ浜
7421104,山口県,熊毛郡平生町,宇佐木,ヤマグチケン,クマゲグンヒラオチョウ,ウサナギ,山口県熊毛郡平生町宇佐木
7421105,山口県,熊毛郡平生町,大野北,ヤマグチケン,クマゲグンヒラオチョウ,オオノキタ,山口県熊毛郡平生町大野北
7421106,山口県,熊毛郡平生町,大野南,ヤマグチケン,クマゲグンヒラオチョウ,オオノミナミ,山口県熊毛郡平生町大野南
7421107,山口県,熊毛郡平生町,曽根,ヤマグチケン,クマゲグンヒラオチョウ,ソネ,山口県熊毛郡平生町曽根
7421111,山口県,熊毛郡平生町,佐賀,ヤマグチケン,クマゲグンヒラオチョウ,サガ,山口県熊毛郡平生町佐賀
7421112,山口県,熊毛郡平生町,小郡,ヤマグチケン,クマゲグンヒラオチョウ,オグニ,山口県熊毛郡平生町小郡
7421113,山口県,熊毛郡平生町,尾国,ヤマグチケン,クマゲグンヒラオチョウ,オクニ,山口県熊毛郡平生町尾国
7421114,山口県,熊毛郡平生町,佐合島,ヤマグチケン,クマゲグンヒラオチョウ,サゴウジマ,山口県熊毛郡平生町佐合島
7421351,山口県,柳井市,旭ケ丘,ヤマグチケン,ヤナイシ,アサヒガオカ,山口県柳井市旭ケ丘
7421352,山口県,柳井市,伊保庄,ヤマグチケン,ヤナイシ,イホノショウ,山口県柳井市伊保庄
7421353,山口県,柳井市,阿月,ヤマグチケン,ヤナイシ,アツキ,山口県柳井市阿月
7421400,山口県,熊毛郡上関町,,ヤマグチケン,クマゲグンカミノセキチョウ,,山口県熊毛郡上関町
7421401,山口県,熊毛郡上関町,祝島,ヤマグチケン,クマゲグンカミノセキチョウ,イワイシマ,山口県熊毛郡上関町祝島
7421402,山口県,熊毛郡上関町,長島,ヤマグチケン,クマゲグンカミノセキチョウ,ナガシマ,山口県熊毛郡上関町長島
7421403,山口県,熊毛郡上関町,室津,ヤマグチケン,クマゲグンカミノセキチョウ,ムロツ,山口県熊毛郡上関町室津
7421404,山口県,熊毛郡上関町,八島,ヤマグチケン,クマゲグンカミノセキチョウ,ヤシマ,山口県熊毛郡上関町八島
7421500,山口県,熊毛郡田布施町,,ヤマグチケン,クマゲグンタブセチョウ,,山口県熊毛郡田布施町
7421501,山口県,熊毛郡田布施町,大波野,ヤマグチケン,クマゲグンタブセチョウ,オオハノ,山口県熊毛郡田布施町大波野
7421502,山口県,熊毛郡田布施町,波野,ヤマグチケン,クマゲグンタブセチョウ,ハノ,山口県熊毛郡田布施町波野
7421503,山口県,熊毛郡田布施町,宿井,ヤマグチケン,クマゲグンタブセチョウ,シュクイ,山口県熊毛郡田布施町宿井
7421504,山口県,熊毛郡田布施町,川西,ヤマグチケン,クマゲグンタブセチョウ,カワニシ,山口県熊毛郡田布施町川西
7421511,山口県,熊毛郡田布施町,下田布施,ヤマグチケン,クマゲグンタブセチョウ,シモタブセ,山口県熊毛郡田布施町下田布施
7421512,山口県,熊毛郡田布施町,麻郷奥,ヤマグチケン,クマゲグンタブセチョウ,オゴウオク,山口県熊毛郡田布施町麻郷奥
7421513,山口県,熊毛郡田布施町,麻郷,ヤマグチケン,クマゲグンタブセチョウ,オゴウ,山口県熊毛郡田布施町麻郷
7421513,山口県,熊毛郡田布施町,麻郷団地,ヤマグチケン,クマゲグンタブセチョウ,オゴウダンチ,山口県熊毛郡田布施町麻郷団地
7421514,山口県,熊毛郡田布施町,別府,ヤマグチケン,クマゲグンタブセチョウ,ベフ,山口県熊毛郡田布施町別府
7421515,山口県,熊毛郡田布施町,上田布施,ヤマグチケン,クマゲグンタブセチョウ,カミタブセ,山口県熊毛郡田布施町上田布施
7421516,山口県,熊毛郡田布施町,馬島,ヤマグチケン,クマゲグンタブセチョウ,ウマシマ,山口県熊毛郡田布施町馬島
7421517,山口県,熊毛郡田布施町,中央南,ヤマグチケン,クマゲグンタブセチョウ,チュウオウミナミ,山口県熊毛郡田布施町中央南
7422100,山口県,大島郡周防大島町,,ヤマグチケン,オオシマグンスオウオオシマチョウ,,山口県大島郡周防大島町
7422101,山口県,大島郡周防大島町,西三蒲,ヤマグチケン,オオシマグンスオウオオシマチョウ,ニシミガマ,山口県大島郡周防大島町西三蒲
7422102,山口県,大島郡周防大島町,東三蒲,ヤマグチケン,オオシマグンスオウオオシマチョウ,ヒガシミガマ,山口県大島郡周防大島町東三蒲
7422103,山口県,大島郡周防大島町,西屋代,ヤマグチケン,オオシマグンスオウオオシマチョウ,ニシヤシロ,山口県大島郡周防大島町西屋代
7422104,山口県,大島郡周防大島町,志佐,ヤマグチケン,オオシマグンスオウオオシマチョウ,シサ,山口県大島郡周防大島町志佐
7422105,山口県,大島郡周防大島町,小松開作,ヤマグチケン,オオシマグンスオウオオシマチョウ,コマツカイサク,山口県大島郡周防大島町小松開作
7422106,山口県,大島郡周防大島町,小松,ヤマグチケン,オオシマグンスオウオオシマチョウ,コマツ,山口県大島郡周防大島町小松
7422107,山口県,大島郡周防大島町,東屋代,ヤマグチケン,オオシマグンスオウオオシマチョウ,ヒガシヤシロ,山口県大島郡周防大島町東屋代
7422108,山口県,大島郡周防大島町,笠佐島,ヤマグチケン,オオシマグンスオウオオシマチョウ,カササジマ,山口県大島郡周防大島町笠佐島
7422301,山口県,大島郡周防大島町,久賀,ヤマグチケン,オオシマグンスオウオオシマチョウ,クカ,山口県大島郡周防大島町久賀
7422302,山口県,大島郡周防大島町,椋野,ヤマグチケン,オオシマグンスオウオオシマチョウ,ムクノ,山口県大島郡周防大島町椋野
7422511,山口県,大島郡周防大島町,片添,ヤマグチケン,オオシマグンスオウオオシマチョウ,カタゾエ,山口県大島郡周防大島町片添
7422512,山口県,大島郡周防大島町,平野,ヤマグチケン,オオシマグンスオウオオシマチョウ,ヒラノ,山口県大島郡周防大島町平野
7422513,山口県,大島郡周防大島町,森,ヤマグチケン,オオシマグンスオウオオシマチョウ,モリ,山口県大島郡周防大島町森
7422514,山口県,大島郡周防大島町,神浦,ヤマグチケン,オオシマグンスオウオオシマチョウ,コウノウラ,山口県大島郡周防大島町神浦
7422515,山口県,大島郡周防大島町,内入,ヤマグチケン,オオシマグンスオウオオシマチョウ,ウチノニュウ,山口県大島郡周防大島町内入
7422516,山口県,大島郡周防大島町,和田,ヤマグチケン,オオシマグンスオウオオシマチョウ,ワダ,山口県大島郡周防大島町和田
7422517,山口県,大島郡周防大島町,小泊,ヤマグチケン,オオシマグンスオウオオシマチョウ,コドマリ,山口県大島郡周防大島町小泊
7422518,山口県,大島郡周防大島町,和佐,ヤマグチケン,オオシマグンスオウオオシマチョウ,ワサ,山口県大島郡周防大島町和佐
7422601,山口県,大島郡周防大島町,伊保田,ヤマグチケン,オオシマグンスオウオオシマチョウ,イホタ,山口県大島郡周防大島町伊保田
7422601,山口県,大島郡周防大島町,伊保田（両源田）,ヤマグチケン,オオシマグンスオウオオシマチョウ,イホタ(リョウゲンダ),山口県大島郡周防大島町伊保田（両源田）
7422601,山口県,大島郡周防大島町,伊保田（小伊保田）,ヤマグチケン,オオシマグンスオウオオシマチョウ,イホタ(コイホタ),山口県大島郡周防大島町伊保田（小伊保田）
7422601,山口県,大島郡周防大島町,伊保田（情島）,ヤマグチケン,オオシマグンスオウオオシマチョウ,イホタ(ナサケジマ),山口県大島郡周防大島町伊保田（情島）
7422601,山口県,大島郡周防大島町,伊保田（雨振）,ヤマグチケン,オオシマグンスオウオオシマチョウ,イホタ(アマフリ),山口県大島郡周防大島町伊保田（雨振）
7422602,山口県,大島郡周防大島町,油宇,ヤマグチケン,オオシマグンスオウオオシマチョウ,ユウ,山口県大島郡周防大島町油宇
7422602,山口県,大島郡周防大島町,油宇（日向泊）,ヤマグチケン,オオシマグンスオウオオシマチョウ,ユウ(ヒュウガドマリ),山口県大島郡周防大島町油宇（日向泊）
7422602,山口県,大島郡周防大島町,油宇（馬ケ原）,ヤマグチケン,オオシマグンスオウオオシマチョウ,ユウ(ウマガハラ),山口県大島郡周防大島町油宇（馬ケ原）
7422711,山口県,大島郡周防大島町,家房,ヤマグチケン,オオシマグンスオウオオシマチョウ,カボウ,山口県大島郡周防大島町家房
7422712,山口県,大島郡周防大島町,出井,ヤマグチケン,オオシマグンスオウオオシマチョウ,イズイ,山口県大島郡周防大島町出井
7422713,山口県,大島郡周防大島町,津海木,ヤマグチケン,オオシマグンスオウオオシマチョウ,ツノウギ,山口県大島郡周防大島町津海木
7422714,山口県,大島郡周防大島町,戸田,ヤマグチケン,オオシマグンスオウオオシマチョウ,ヘタ,山口県大島郡周防大島町戸田
7422715,山口県,大島郡周防大島町,横見,ヤマグチケン,オオシマグンスオウオオシマチョウ,ヨコミ,山口県大島郡周防大島町横見
7422716,山口県,大島郡周防大島町,日見,ヤマグチケン,オオシマグンスオウオオシマチョウ,ヒミ,山口県大島郡周防大島町日見
7422801,山口県,大島郡周防大島町,浮島,ヤマグチケン,オオシマグンスオウオオシマチョウ,ウカシマ,山口県大島郡周防大島町浮島
7422802,山口県,大島郡周防大島町,油良,ヤマグチケン,オオシマグンスオウオオシマチョウ,ユラ,山口県大島郡周防大島町油良
7422803,山口県,大島郡周防大島町,土居,ヤマグチケン,オオシマグンスオウオオシマチョウ,ドイ,山口県大島郡周防大島町土居
7422804,山口県,大島郡周防大島町,日前,ヤマグチケン,オオシマグンスオウオオシマチョウ,ヒクマ,山口県大島郡周防大島町日前
7422805,山口県,大島郡周防大島町,東安下庄,ヤマグチケン,オオシマグンスオウオオシマチョウ,ヒガシアゲノショウ,山口県大島郡周防大島町東安下庄
7422806,山口県,大島郡周防大島町,西安下庄,ヤマグチケン,オオシマグンスオウオオシマチョウ,ニシアゲノショウ,山口県大島郡周防大島町西安下庄
7422807,山口県,大島郡周防大島町,秋,ヤマグチケン,オオシマグンスオウオオシマチョウ,アキ,山口県大島郡周防大島町秋
7422921,山口県,大島郡周防大島町,西方,ヤマグチケン,オオシマグンスオウオオシマチョウ,ニシガタ,山口県大島郡周防大島町西方
7422921,山口県,大島郡周防大島町,西方（下田）,ヤマグチケン,オオシマグンスオウオオシマチョウ,ニシガタ(シタタ),山口県大島郡周防大島町西方（下田）
7422921,山口県,大島郡周防大島町,西方（大積）,ヤマグチケン,オオシマグンスオウオオシマチョウ,ニシガタ(オオツミ),山口県大島郡周防大島町西方（大積）
7422921,山口県,大島郡周防大島町,西方（小積）,ヤマグチケン,オオシマグンスオウオオシマチョウ,ニシガタ(オツミ),山口県大島郡周防大島町西方（小積）
7422921,山口県,大島郡周防大島町,西方（船越）,ヤマグチケン,オオシマグンスオウオオシマチョウ,ニシガタ(フナコシ),山口県大島郡周防大島町西方（船越）
7422921,山口県,大島郡周防大島町,西方（長崎）,ヤマグチケン,オオシマグンスオウオオシマチョウ,ニシガタ(ナガサキ),山口県大島郡周防大島町西方（長崎）
7422922,山口県,大島郡周防大島町,沖家室島,ヤマグチケン,オオシマグンスオウオオシマチョウ,オキカムロジマ,山口県大島郡周防大島町沖家室島
7422923,山口県,大島郡周防大島町,地家室,ヤマグチケン,オオシマグンスオウオオシマチョウ,ジカムロ,山口県大島郡周防大島町地家室
7422923,山口県,大島郡周防大島町,地家室（佐連）,ヤマグチケン,オオシマグンスオウオオシマチョウ,ジカムロ(サレ),山口県大島郡周防大島町地家室（佐連）
7422924,山口県,大島郡周防大島町,外入,ヤマグチケン,オオシマグンスオウオオシマチョウ,トノニュウ,山口県大島郡周防大島町外入
7422924,山口県,大島郡周防大島町,外入（伊崎）,ヤマグチケン,オオシマグンスオウオオシマチョウ,トノニュウ(イザキ),山口県大島郡周防大島町外入（伊崎）
7430000,山口県,光市,,ヤマグチケン,ヒカリシ,,山口県光市
7430001,山口県,光市,室積村,ヤマグチケン,ヒカリシ,ムロヅミムラ,山口県光市室積村
7430002,山口県,光市,室積浦,ヤマグチケン,ヒカリシ,ムロヅミウラ,山口県光市室積浦
7430003,山口県,光市,牛島,ヤマグチケン,ヒカリシ,ウシマ,山口県光市牛島
7430004,山口県,光市,室積市延,ヤマグチケン,ヒカリシ,ムロヅミイチノベ,山口県光市室積市延
7430005,山口県,光市,室積東ノ庄,ヤマグチケン,ヒカリシ,ムロヅミヒガシノショウ,山口県光市室積東ノ庄
7430006,山口県,光市,室積神田,ヤマグチケン,ヒカリシ,ムロヅミジンデン,山口県光市室積神田
7430007,山口県,光市,室積,ヤマグチケン,ヒカリシ,ムロヅミ,山口県光市室積
7430008,山口県,光市,室積中央町,ヤマグチケン,ヒカリシ,ムロヅミチュウオウチョウ,山口県光市室積中央町
7430009,山口県,光市,室積松原,ヤマグチケン,ヒカリシ,ムロヅミマツバラ,山口県光市室積松原
7430011,山口県,光市,光井,ヤマグチケン,ヒカリシ,ミツイ,山口県光市光井
7430012,山口県,光市,千坊台,ヤマグチケン,ヒカリシ,センボウダイ,山口県光市千坊台
7430013,山口県,光市,中央,ヤマグチケン,ヒカリシ,チュウオウ,山口県光市中央
7430021,山口県,光市,浅江,ヤマグチケン,ヒカリシ,アサエ,山口県光市浅江
7430022,山口県,光市,虹ケ浜,ヤマグチケン,ヒカリシ,ニジガハマ,山口県光市虹ケ浜
7430023,山口県,光市,光ケ丘,ヤマグチケン,ヒカリシ,ヒカリガオカ,山口県光市光ケ丘
7430031,山口県,光市,虹ケ丘,ヤマグチケン,ヒカリシ,ニジガオカ,山口県光市虹ケ丘
7430041,山口県,光市,丸山町,ヤマグチケン,ヒカリシ,マルヤマチョウ,山口県光市丸山町
7430042,山口県,光市,宝町,ヤマグチケン,ヒカリシ,タカラマチ,山口県光市宝町
7430043,山口県,光市,協和町,ヤマグチケン,ヒカリシ,キョウワチョウ,山口県光市協和町
7430044,山口県,光市,和田町,ヤマグチケン,ヒカリシ,ワダチョウ,山口県光市和田町
7430045,山口県,光市,宮ノ下町,ヤマグチケン,ヒカリシ,ミヤノシタチョウ,山口県光市宮ノ下町
7430046,山口県,光市,木園,ヤマグチケン,ヒカリシ,キゾノ,山口県光市木園
7430047,山口県,光市,花園,ヤマグチケン,ヒカリシ,ハナゾノ,山口県光市花園
7430048,山口県,光市,中村町,ヤマグチケン,ヒカリシ,ナカムラチョウ,山口県光市中村町
7430051,山口県,光市,岩狩,ヤマグチケン,ヒカリシ,イワガリ,山口県光市岩狩
7430052,山口県,光市,三井,ヤマグチケン,ヒカリシ,ミイ,山口県光市三井
7430061,山口県,光市,小周防,ヤマグチケン,ヒカリシ,コズオウ,山口県光市小周防
7430062,山口県,光市,立野,ヤマグチケン,ヒカリシ,タテノ,山口県光市立野
7430063,山口県,光市,島田,ヤマグチケン,ヒカリシ,シマタ,山口県光市島田
7430064,山口県,光市,中島田,ヤマグチケン,ヒカリシ,ナカシマタ,山口県光市中島田
7430065,山口県,光市,上島田,ヤマグチケン,ヒカリシ,カミシマタ,山口県光市上島田
7430071,山口県,光市,室積新開,ヤマグチケン,ヒカリシ,ムロヅミシンカイ,山口県光市室積新開
7430072,山口県,光市,室積大町,ヤマグチケン,ヒカリシ,ムロヅミオオマチ,山口県光市室積大町
7430073,山口県,光市,室積正木,ヤマグチケン,ヒカリシ,ムロヅミマサキ,山口県光市室積正木
7430074,山口県,光市,室積西ノ庄,ヤマグチケン,ヒカリシ,ムロヅミニシノショウ,山口県光市室積西ノ庄
7430075,山口県,光市,室積沖田,ヤマグチケン,ヒカリシ,ムロヅミオキタ,山口県光市室積沖田
7430101,山口県,光市,塩田,ヤマグチケン,ヒカリシ,シオタ,山口県光市塩田
7430102,山口県,光市,三輪,ヤマグチケン,ヒカリシ,ミワ,山口県光市三輪
7430103,山口県,光市,岩田,ヤマグチケン,ヒカリシ,イワタ,山口県光市岩田
7430104,山口県,光市,岩田立野,ヤマグチケン,ヒカリシ,イワタタテノ,山口県光市岩田立野
7430105,山口県,光市,束荷,ヤマグチケン,ヒカリシ,ツカリ,山口県光市束荷
7440000,山口県,下松市,,ヤマグチケン,クダマツシ,,山口県下松市
7440001,山口県,下松市,笠戸島,ヤマグチケン,クダマツシ,カサドシマ,山口県下松市笠戸島
7440001,山口県,下松市,笠戸島（大松ケ浦）,ヤマグチケン,クダマツシ,カサドシマ(オオマツガウラ),山口県下松市笠戸島（大松ケ浦）
7440001,山口県,下松市,笠戸島（小深浦）,ヤマグチケン,クダマツシ,カサドシマ(コブカウラ),山口県下松市笠戸島（小深浦）
7440001,山口県,下松市,笠戸島（尾泊）,ヤマグチケン,クダマツシ,カサドシマ(オドマリ),山口県下松市笠戸島（尾泊）
7440001,山口県,下松市,笠戸島（尾郷）,ヤマグチケン,クダマツシ,カサドシマ(オゴウ),山口県下松市笠戸島（尾郷）
7440001,山口県,下松市,笠戸島（本浦）,ヤマグチケン,クダマツシ,カサドシマ(ホンウラ),山口県下松市笠戸島（本浦）
7440001,山口県,下松市,笠戸島（江ノ浦）,ヤマグチケン,クダマツシ,カサドシマ(エノウラ),山口県下松市笠戸島（江ノ浦）
7440001,山口県,下松市,笠戸島（深浦）,ヤマグチケン,クダマツシ,カサドシマ(フカウラ),山口県下松市笠戸島（深浦）
7440001,山口県,下松市,笠戸島（瀬戸）,ヤマグチケン,クダマツシ,カサドシマ(セト),山口県下松市笠戸島（瀬戸）
7440002,山口県,下松市,東豊井,ヤマグチケン,クダマツシ,ヒガシトヨイ,山口県下松市東豊井
7440002,山口県,下松市,東豊井（上豊井）,ヤマグチケン,クダマツシ,ヒガシトヨイ(カミトヨイ),山口県下松市東豊井（上豊井）
7440002,山口県,下松市,東豊井（下豊井）,ヤマグチケン,クダマツシ,ヒガシトヨイ(シモトヨイ),山口県下松市東豊井（下豊井）
7440002,山口県,下松市,東豊井（二宮町）,ヤマグチケン,クダマツシ,ヒガシトヨイ(ニノミヤチョウ),山口県下松市東豊井（二宮町）
7440002,山口県,下松市,東豊井（住吉町）,ヤマグチケン,クダマツシ,ヒガシトヨイ(スミヨシチョウ),山口県下松市東豊井（住吉町）
7440002,山口県,下松市,東豊井（寺迫半上）,ヤマグチケン,クダマツシ,ヒガシトヨイ(テラサコハンジョウ),山口県下松市東豊井（寺迫半上）
7440002,山口県,下松市,東豊井（寺迫）,ヤマグチケン,クダマツシ,ヒガシトヨイ(テラサコ),山口県下松市東豊井（寺迫）
7440002,山口県,下松市,東豊井（恋ケ浜）,ヤマグチケン,クダマツシ,ヒガシトヨイ(コイガハマ),山口県下松市東豊井（恋ケ浜）
7440002,山口県,下松市,東豊井（新町）,ヤマグチケン,クダマツシ,ヒガシトヨイ(シンマチ),山口県下松市東豊井（新町）
7440002,山口県,下松市,東豊井（東海岸通り）,ヤマグチケン,クダマツシ,ヒガシトヨイ(ヒガシカイガンドオリ),山口県下松市東豊井（東海岸通り）
7440002,山口県,下松市,東豊井（東豊井開作）,ヤマグチケン,クダマツシ,ヒガシトヨイ(ヒガシトヨイカイサク),山口県下松市東豊井（東豊井開作）
7440002,山口県,下松市,東豊井（松神町）,ヤマグチケン,クダマツシ,ヒガシトヨイ(マツガミチョウ),山口県下松市東豊井（松神町）
7440002,山口県,下松市,東豊井（江口）,ヤマグチケン,クダマツシ,ヒガシトヨイ(エグチ),山口県下松市東豊井（江口）
7440002,山口県,下松市,東豊井（洲鼻）,ヤマグチケン,クダマツシ,ヒガシトヨイ(スバナ),山口県下松市東豊井（洲鼻）
7440002,山口県,下松市,東豊井（神田町）,ヤマグチケン,クダマツシ,ヒガシトヨイ(カンダマチ),山口県下松市東豊井（神田町）
7440002,山口県,下松市,東豊井（花垣）,ヤマグチケン,クダマツシ,ヒガシトヨイ(ハナガキ),山口県下松市東豊井（花垣）
7440003,山口県,下松市,琴平町,ヤマグチケン,クダマツシ,コトヒラチョウ,山口県下松市琴平町
7440004,山口県,下松市,青柳,ヤマグチケン,クダマツシ,アオヤギ,山口県下松市青柳
7440005,山口県,下松市,古川町,ヤマグチケン,クダマツシ,フルカワチョウ,山口県下松市古川町
7440006,山口県,下松市,旗岡,ヤマグチケン,クダマツシ,ハタオカ,山口県下松市旗岡
7440007,山口県,下松市,駅南,ヤマグチケン,クダマツシ,エキミナミ,山口県下松市駅南
7440008,山口県,下松市,新川,ヤマグチケン,クダマツシ,シンカワ,山口県下松市新川
7440011,山口県,下松市,西豊井,ヤマグチケン,クダマツシ,ニシトヨイ,山口県下松市西豊井
7440011,山口県,下松市,西豊井（元町東）,ヤマグチケン,クダマツシ,ニシトヨイ(モトマチヒガシ),山口県下松市西豊井（元町東）
7440011,山口県,下松市,西豊井（元町西）,ヤマグチケン,クダマツシ,ニシトヨイ(モトマチニシ),山口県下松市西豊井（元町西）
7440011,山口県,下松市,西豊井（幸町）,ヤマグチケン,クダマツシ,ニシトヨイ(サイワイチョウ),山口県下松市西豊井（幸町）
7440011,山口県,下松市,西豊井（所田）,ヤマグチケン,クダマツシ,ニシトヨイ(トコロダ),山口県下松市西豊井（所田）
7440011,山口県,下松市,西豊井（旭町）,ヤマグチケン,クダマツシ,ニシトヨイ(アサヒマチ),山口県下松市西豊井（旭町）
7440011,山口県,下松市,西豊井（本町）,ヤマグチケン,クダマツシ,ニシトヨイ(ホンマチ),山口県下松市西豊井（本町）
7440011,山口県,下松市,西豊井（汐見町）,ヤマグチケン,クダマツシ,ニシトヨイ(シオミチョウ),山口県下松市西豊井（汐見町）
7440011,山口県,下松市,西豊井（相生町）,ヤマグチケン,クダマツシ,ニシトヨイ(アイオイチョウ),山口県下松市西豊井（相生町）
7440011,山口県,下松市,西豊井（都町）,ヤマグチケン,クダマツシ,ニシトヨイ(ミヤコマチ),山口県下松市西豊井（都町）
7440011,山口県,下松市,西豊井（高砂町）,ヤマグチケン,クダマツシ,ニシトヨイ(タカサゴチョウ),山口県下松市西豊井（高砂町）
7440012,山口県,下松市,北斗町,ヤマグチケン,クダマツシ,ホクトチョウ,山口県下松市北斗町
7440013,山口県,下松市,栄町,ヤマグチケン,クダマツシ,サカエマチ,山口県下松市栄町
7440014,山口県,下松市,中市,ヤマグチケン,クダマツシ,ナカイチ,山口県下松市中市
7440015,山口県,下松市,大手町,ヤマグチケン,クダマツシ,オオテマチ,山口県下松市大手町
7440017,山口県,下松市,東柳,ヤマグチケン,クダマツシ,ヒガシヤナギ,山口県下松市東柳
7440018,山口県,下松市,西柳,ヤマグチケン,クダマツシ,ニシヤナギ,山口県下松市西柳
7440019,山口県,下松市,桜町,ヤマグチケン,クダマツシ,サクラチョウ,山口県下松市桜町
7440021,山口県,下松市,平田,ヤマグチケン,クダマツシ,ヒラタ,山口県下松市平田
7440021,山口県,下松市,平田（東開作）,ヤマグチケン,クダマツシ,ヒラタ(ヒガシガイサク),山口県下松市平田（東開作）
7440021,山口県,下松市,平田（西開作）,ヤマグチケン,クダマツシ,ヒラタ(ニシガイサク),山口県下松市平田（西開作）
7440022,山口県,下松市,末武下,ヤマグチケン,クダマツシ,スエタケシモ,山口県下松市末武下
7440022,山口県,下松市,末武下（あけぼの町）,ヤマグチケン,クダマツシ,スエタケシモ(アケボノチョウ),山口県下松市末武下（あけぼの町）
7440022,山口県,下松市,末武下（弥生町）,ヤマグチケン,クダマツシ,スエタケシモ(ヤヨイチョウ),山口県下松市末武下（弥生町）
7440022,山口県,下松市,末武下（松中町）,ヤマグチケン,クダマツシ,スエタケシモ(マツナカチョウ),山口県下松市末武下（松中町）
7440023,山口県,下松市,末武中,ヤマグチケン,クダマツシ,スエタケナカ,山口県下松市末武中
7440023,山口県,下松市,末武中（向香力）,ヤマグチケン,クダマツシ,スエタケナカ(ムカイコウリキ),山口県下松市末武中（向香力）
7440023,山口県,下松市,末武中（和田）,ヤマグチケン,クダマツシ,スエタケナカ(ワダ),山口県下松市末武中（和田）
7440023,山口県,下松市,末武中（山根）,ヤマグチケン,クダマツシ,スエタケナカ(ヤマネ),山口県下松市末武中（山根）
7440023,山口県,下松市,末武中（広石）,ヤマグチケン,クダマツシ,スエタケナカ(ヒロイシ),山口県下松市末武中（広石）
7440023,山口県,下松市,末武中（朝日台）,ヤマグチケン,クダマツシ,スエタケナカ(アサヒダイ),山口県下松市末武中（朝日台）
7440023,山口県,下松市,末武中（東中村）,ヤマグチケン,クダマツシ,スエタケナカ(ヒガシナカムラ),山口県下松市末武中（東中村）
7440023,山口県,下松市,末武中（荒神）,ヤマグチケン,クダマツシ,スエタケナカ(コウジン),山口県下松市末武中（荒神）
7440023,山口県,下松市,末武中（西河原）,ヤマグチケン,クダマツシ,スエタケナカ(ニシガハラ),山口県下松市末武中（西河原）
7440024,山口県,下松市,末武上,ヤマグチケン,クダマツシ,スエタケカミ,山口県下松市末武上
7440024,山口県,下松市,末武上（上地）,ヤマグチケン,クダマツシ,スエタケカミ(アゲヂ),山口県下松市末武上（上地）
7440024,山口県,下松市,末武上（下高塚）,ヤマグチケン,クダマツシ,スエタケカミ(シモタカツカ),山口県下松市末武上（下高塚）
7440024,山口県,下松市,末武上（中市）,ヤマグチケン,クダマツシ,スエタケカミ(ナカイチ),山口県下松市末武上（中市）
7440024,山口県,下松市,末武上（南花岡）,ヤマグチケン,クダマツシ,スエタケカミ(ミナミハナオカ),山口県下松市末武上（南花岡）
7440024,山口県,下松市,末武上（大黒町）,ヤマグチケン,クダマツシ,スエタケカミ(ダイコクチョウ),山口県下松市末武上（大黒町）
7440024,山口県,下松市,末武上（常森）,ヤマグチケン,クダマツシ,スエタケカミ(ツネモリ),山口県下松市末武上（常森）
7440024,山口県,下松市,末武上（戎町）,ヤマグチケン,クダマツシ,スエタケカミ(エビスマチ),山口県下松市末武上（戎町）
7440024,山口県,下松市,末武上（昭和）,ヤマグチケン,クダマツシ,スエタケカミ(ショウワ),山口県下松市末武上（昭和）
7440024,山口県,下松市,末武上（東町）,ヤマグチケン,クダマツシ,スエタケカミ(ヒガシマチ),山口県下松市末武上（東町）
7440024,山口県,下松市,末武上（浴）,ヤマグチケン,クダマツシ,スエタケカミ(エキ),山口県下松市末武上（浴）
7440024,山口県,下松市,末武上（緑ケ丘）,ヤマグチケン,クダマツシ,スエタケカミ(ミドリガオカ),山口県下松市末武上（緑ケ丘）
7440024,山口県,下松市,末武上（華陵）,ヤマグチケン,クダマツシ,スエタケカミ(カリョウ),山口県下松市末武上（華陵）
7440024,山口県,下松市,末武上（西町）,ヤマグチケン,クダマツシ,スエタケカミ(ニシマチ),山口県下松市末武上（西町）
7440024,山口県,下松市,末武上（高橋）,ヤマグチケン,クダマツシ,スエタケカミ(タカハシ),山口県下松市末武上（高橋）
7440025,山口県,下松市,中央町,ヤマグチケン,クダマツシ,チュウオウチョウ,山口県下松市中央町
7440027,山口県,下松市,南花岡,ヤマグチケン,クダマツシ,ミナミハナオカ,山口県下松市南花岡
7440028,山口県,下松市,藤光町,ヤマグチケン,クダマツシ,トウミツチョウ,山口県下松市藤光町
7440029,山口県,下松市,楠木町,ヤマグチケン,クダマツシ,クスノキチョウ,山口県下松市楠木町
7440031,山口県,下松市,生野屋,ヤマグチケン,クダマツシ,イクノヤ,山口県下松市生野屋
7440031,山口県,下松市,生野屋（万ノ木町）,ヤマグチケン,クダマツシ,イクノヤ(マンノキチョウ),山口県下松市生野屋（万ノ木町）
7440031,山口県,下松市,生野屋（上時宗）,ヤマグチケン,クダマツシ,イクノヤ(カミトキムネ),山口県下松市生野屋（上時宗）
7440031,山口県,下松市,生野屋（下村）,ヤマグチケン,クダマツシ,イクノヤ(シモムラ),山口県下松市生野屋（下村）
7440031,山口県,下松市,生野屋（中村）,ヤマグチケン,クダマツシ,イクノヤ(ナカムラ),山口県下松市生野屋（中村）
7440031,山口県,下松市,生野屋（大王団地）,ヤマグチケン,クダマツシ,イクノヤ(ダイオウダンチ),山口県下松市生野屋（大王団地）
7440031,山口県,下松市,生野屋（宮本）,ヤマグチケン,クダマツシ,イクノヤ(ミヤモト),山口県下松市生野屋（宮本）
7440031,山口県,下松市,生野屋（時宗）,ヤマグチケン,クダマツシ,イクノヤ(トキムネ),山口県下松市生野屋（時宗）
7440031,山口県,下松市,生野屋（時政）,ヤマグチケン,クダマツシ,イクノヤ(トキマサ),山口県下松市生野屋（時政）
7440031,山口県,下松市,生野屋（東万ノ木団地）,ヤマグチケン,クダマツシ,イクノヤ(ヒガシマンノキダンチ),山口県下松市生野屋（東万ノ木団地）
7440031,山口県,下松市,生野屋（東時宗）,ヤマグチケン,クダマツシ,イクノヤ(ヒガシトキムネ),山口県下松市生野屋（東時宗）
7440031,山口県,下松市,生野屋（為弘）,ヤマグチケン,クダマツシ,イクノヤ(タメヒロ),山口県下松市生野屋（為弘）
7440031,山口県,下松市,生野屋（猪ノ尻）,ヤマグチケン,クダマツシ,イクノヤ(イノシリ),山口県下松市生野屋（猪ノ尻）
7440031,山口県,下松市,生野屋（田園調布）,ヤマグチケン,クダマツシ,イクノヤ(デンエンチョウフ),山口県下松市生野屋（田園調布）
7440031,山口県,下松市,生野屋（羽根田町）,ヤマグチケン,クダマツシ,イクノヤ(ハネダチョウ),山口県下松市生野屋（羽根田町）
7440031,山口県,下松市,生野屋（藤立）,ヤマグチケン,クダマツシ,イクノヤ(トウリュウ),山口県下松市生野屋（藤立）
7440031,山口県,下松市,生野屋（西時宗）,ヤマグチケン,クダマツシ,イクノヤ(ニシトキムネ),山口県下松市生野屋（西時宗）
7440031,山口県,下松市,生野屋（西村団地）,ヤマグチケン,クダマツシ,イクノヤ(ニシムラダンチ),山口県下松市生野屋（西村団地）
7440031,山口県,下松市,生野屋（西村）,ヤマグチケン,クダマツシ,イクノヤ(ニシムラ),山口県下松市生野屋（西村）
7440031,山口県,下松市,生野屋（高垣団地）,ヤマグチケン,クダマツシ,イクノヤ(コウガキダンチ),山口県下松市生野屋（高垣団地）
7440032,山口県,下松市,生野屋西,ヤマグチケン,クダマツシ,イクノヤニシ,山口県下松市生野屋西
7440033,山口県,下松市,生野屋南,ヤマグチケン,クダマツシ,イクノヤミナミ,山口県下松市生野屋南
7440041,山口県,下松市,山田,ヤマグチケン,クダマツシ,ヤマダ,山口県下松市山田
7440041,山口県,下松市,山田（山田上）,ヤマグチケン,クダマツシ,ヤマダ(ヤマダカミ),山口県下松市山田（山田上）
7440041,山口県,下松市,山田（山田下）,ヤマグチケン,クダマツシ,ヤマダ(ヤマダシモ),山口県下松市山田（山田下）
7440041,山口県,下松市,山田（梅ノ木原）,ヤマグチケン,クダマツシ,ヤマダ(ウメノキハラ),山口県下松市山田（梅ノ木原）
7440041,山口県,下松市,山田（浴条）,ヤマグチケン,クダマツシ,ヤマダ(エキジョウ),山口県下松市山田（浴条）
7440042,山口県,下松市,切山,ヤマグチケン,クダマツシ,キリヤマ,山口県下松市切山
7440042,山口県,下松市,切山（中）,ヤマグチケン,クダマツシ,キリヤマ(ナカ),山口県下松市切山（中）
7440042,山口県,下松市,切山（切山上）,ヤマグチケン,クダマツシ,キリヤマ(キリヤマカミ),山口県下松市切山（切山上）
7440042,山口県,下松市,切山（切山下）,ヤマグチケン,クダマツシ,キリヤマ(キリヤマシモ),山口県下松市切山（切山下）
7440042,山口県,下松市,切山（切山中）,ヤマグチケン,クダマツシ,キリヤマ(キリヤマナカ),山口県下松市切山（切山中）
7440043,山口県,下松市,東陽,ヤマグチケン,クダマツシ,トウヨウ,山口県下松市東陽
7440051,山口県,下松市,来巻,ヤマグチケン,クダマツシ,クルマキ,山口県下松市来巻
7440051,山口県,下松市,来巻（東）,ヤマグチケン,クダマツシ,クルマキ(ヒガシ),山口県下松市来巻（東）
7440051,山口県,下松市,来巻（西）,ヤマグチケン,クダマツシ,クルマキ(ニシ),山口県下松市来巻（西）
7440052,山口県,下松市,桃山町,ヤマグチケン,クダマツシ,モモヤマチョウ,山口県下松市桃山町
7440053,山口県,下松市,東和,ヤマグチケン,クダマツシ,トウワ,山口県下松市東和
7440061,山口県,下松市,河内,ヤマグチケン,クダマツシ,コウチ,山口県下松市河内
7440061,山口県,下松市,河内（つつじケ丘）,ヤマグチケン,クダマツシ,コウチ(ツツジガオカ),山口県下松市河内（つつじケ丘）
7440061,山口県,下松市,河内（下松セントシティ）,ヤマグチケン,クダマツシ,コウチ(クダマツセントシティ),山口県下松市河内（下松セントシティ）
7440061,山口県,下松市,河内（中戸原）,ヤマグチケン,クダマツシ,コウチ(ナカトハラ),山口県下松市河内（中戸原）
7440061,山口県,下松市,河内（久保市）,ヤマグチケン,クダマツシ,コウチ(クボイチ),山口県下松市河内（久保市）
7440061,山口県,下松市,河内（久保）,ヤマグチケン,クダマツシ,コウチ(クボ),山口県下松市河内（久保）
7440061,山口県,下松市,河内（二ノ瀬）,ヤマグチケン,クダマツシ,コウチ(ニノセ),山口県下松市河内（二ノ瀬）
7440061,山口県,下松市,河内（出合）,ヤマグチケン,クダマツシ,コウチ(デアイ),山口県下松市河内（出合）
7440061,山口県,下松市,河内（吉原）,ヤマグチケン,クダマツシ,コウチ(ヨシワラ),山口県下松市河内（吉原）
7440061,山口県,下松市,河内（城山台）,ヤマグチケン,クダマツシ,コウチ(ジョウヤマダイ),山口県下松市河内（城山台）
7440061,山口県,下松市,河内（大河内）,ヤマグチケン,クダマツシ,コウチ(オオコウチ),山口県下松市河内（大河内）
7440061,山口県,下松市,河内（小野）,ヤマグチケン,クダマツシ,コウチ(コノ),山口県下松市河内（小野）
7440061,山口県,下松市,河内（岡ノ原町）,ヤマグチケン,クダマツシ,コウチ(オカノハラチョウ),山口県下松市河内（岡ノ原町）
7440061,山口県,下松市,河内（岡市）,ヤマグチケン,クダマツシ,コウチ(オカイチ),山口県下松市河内（岡市）
7440061,山口県,下松市,河内（川瀬）,ヤマグチケン,クダマツシ,コウチ(カワセ),山口県下松市河内（川瀬）
7440061,山口県,下松市,河内（幸ケ丘）,ヤマグチケン,クダマツシ,コウチ(サチガオカ),山口県下松市河内（幸ケ丘）
7440061,山口県,下松市,河内（成川）,ヤマグチケン,クダマツシ,コウチ(ナルカワ),山口県下松市河内（成川）
7440061,山口県,下松市,河内（日ノ出町）,ヤマグチケン,クダマツシ,コウチ(ヒノデチョウ),山口県下松市河内（日ノ出町）
7440061,山口県,下松市,河内（昭和通り）,ヤマグチケン,クダマツシ,コウチ(ショウワドオリ),山口県下松市河内（昭和通り）
7440061,山口県,下松市,河内（殿ケ浴）,ヤマグチケン,クダマツシ,コウチ(トノガエキ),山口県下松市河内（殿ケ浴）
7440061,山口県,下松市,河内（素通り）,ヤマグチケン,クダマツシ,コウチ(スドオリ),山口県下松市河内（素通り）
7440061,山口県,下松市,河内（葉山）,ヤマグチケン,クダマツシ,コウチ(ハヤマ),山口県下松市河内（葉山）
7440061,山口県,下松市,河内（谷）,ヤマグチケン,クダマツシ,コウチ(タニ),山口県下松市河内（谷）
7440061,山口県,下松市,河内（青葉台）,ヤマグチケン,クダマツシ,コウチ(アオバダイ),山口県下松市河内（青葉台）
7440061,山口県,下松市,河内（黒杭）,ヤマグチケン,クダマツシ,コウチ(クロクイ),山口県下松市河内（黒杭）
7440062,山口県,下松市,昭和町,ヤマグチケン,クダマツシ,ショウワマチ,山口県下松市昭和町
7440063,山口県,下松市,若宮町,ヤマグチケン,クダマツシ,ワカミヤチョウ,山口県下松市若宮町
7440065,山口県,下松市,星が丘,ヤマグチケン,クダマツシ,ホシガオカ,山口県下松市星が丘
7440071,山口県,下松市,清瀬町,ヤマグチケン,クダマツシ,キヨセチョウ,山口県下松市清瀬町
7440072,山口県,下松市,望町,ヤマグチケン,クダマツシ,ノゾミチョウ,山口県下松市望町
7440073,山口県,下松市,美里町,ヤマグチケン,クダマツシ,ミサトチョウ,山口県下松市美里町
7440074,山口県,下松市,潮音町,ヤマグチケン,クダマツシ,シオネチョウ,山口県下松市潮音町
7440075,山口県,下松市,瑞穂町,ヤマグチケン,クダマツシ,ミズホチョウ,山口県下松市瑞穂町
7440076,山口県,下松市,せせらぎ町,ヤマグチケン,クダマツシ,セセラギチョウ,山口県下松市せせらぎ町
7440077,山口県,下松市,中島町,ヤマグチケン,クダマツシ,ナカシマチョウ,山口県下松市中島町
7440078,山口県,下松市,西市,ヤマグチケン,クダマツシ,ニシイチ,山口県下松市西市
7440271,山口県,下松市,下谷,ヤマグチケン,クダマツシ,クダタニ,山口県下松市下谷
7440271,山口県,下松市,下谷（下谷一区）,ヤマグチケン,クダマツシ,クダタニ(クダタニ1ク),山口県下松市下谷（下谷一区）
7440271,山口県,下松市,下谷（下谷三区）,ヤマグチケン,クダマツシ,クダタニ(クダタニ3ク),山口県下松市下谷（下谷三区）
7440271,山口県,下松市,下谷（下谷二区）,ヤマグチケン,クダマツシ,クダタニ(クダタニ2ク),山口県下松市下谷（下谷二区）
7440271,山口県,下松市,下谷（中原）,ヤマグチケン,クダマツシ,クダタニ(ナカバラ),山口県下松市下谷（中原）
7440271,山口県,下松市,下谷（中瀬）,ヤマグチケン,クダマツシ,クダタニ(ナカセ),山口県下松市下谷（中瀬）
7440271,山口県,下松市,下谷（山高）,ヤマグチケン,クダマツシ,クダタニ(ヤマタカ),山口県下松市下谷（山高）
7440271,山口県,下松市,下谷（清若）,ヤマグチケン,クダマツシ,クダタニ(キヨワカ),山口県下松市下谷（清若）
7440271,山口県,下松市,下谷（西平谷）,ヤマグチケン,クダマツシ,クダタニ(ニシヒラダニ),山口県下松市下谷（西平谷）
7440271,山口県,下松市,下谷（赤谷）,ヤマグチケン,クダマツシ,クダタニ(アカダニ),山口県下松市下谷（赤谷）
7440272,山口県,下松市,大藤谷,ヤマグチケン,クダマツシ,オオフジダニ,山口県下松市大藤谷
7440273,山口県,下松市,瀬戸,ヤマグチケン,クダマツシ,セト,山口県下松市瀬戸
7440273,山口県,下松市,瀬戸（中原）,ヤマグチケン,クダマツシ,セト(ナカバラ),山口県下松市瀬戸（中原）
7440273,山口県,下松市,瀬戸（中瀬）,ヤマグチケン,クダマツシ,セト(ナカセ),山口県下松市瀬戸（中瀬）
7440273,山口県,下松市,瀬戸（後山）,ヤマグチケン,クダマツシ,セト(ウシロヤマ),山口県下松市瀬戸（後山）
7440273,山口県,下松市,瀬戸（高橋）,ヤマグチケン,クダマツシ,セト(タカハシ),山口県下松市瀬戸（高橋）
7440274,山口県,下松市,温見,ヤマグチケン,クダマツシ,ヌクミ,山口県下松市温見
7440274,山口県,下松市,温見（後山）,ヤマグチケン,クダマツシ,ヌクミ(ウシロヤマ),山口県下松市温見（後山）
7440274,山口県,下松市,温見（道谷）,ヤマグチケン,クダマツシ,ヌクミ(ミチダニ),山口県下松市温見（道谷）
7440275,山口県,下松市,中須南,ヤマグチケン,クダマツシ,ナカスミナミ,山口県下松市中須南
7440276,山口県,下松市,米川,ヤマグチケン,クダマツシ,ヨネガワ,山口県下松市米川
7450000,山口県,周南市,,ヤマグチケン,シュウナンシ,,山口県周南市
7450001,山口県,周南市,辻町,ヤマグチケン,シュウナンシ,ツジマチ,山口県周南市辻町
7450002,山口県,周南市,二番町,ヤマグチケン,シュウナンシ,ニバンチョウ,山口県周南市二番町
7450003,山口県,周南市,三番町,ヤマグチケン,シュウナンシ,サンバンチョウ,山口県周南市三番町
7450004,山口県,周南市,毛利町,ヤマグチケン,シュウナンシ,モウリチョウ,山口県周南市毛利町
7450005,山口県,周南市,児玉町,ヤマグチケン,シュウナンシ,コダマチョウ,山口県周南市児玉町
7450006,山口県,周南市,花畠町,ヤマグチケン,シュウナンシ,ハナバタケチョウ,山口県周南市花畠町
7450007,山口県,周南市,岐南町,ヤマグチケン,シュウナンシ,キナンチョウ,山口県周南市岐南町
7450011,山口県,周南市,桜馬場通り,ヤマグチケン,シュウナンシ,サクラババドオリ,山口県周南市桜馬場通り
7450012,山口県,周南市,川端町,ヤマグチケン,シュウナンシ,カワバタチョウ,山口県周南市川端町
7450013,山口県,周南市,昭和通り,ヤマグチケン,シュウナンシ,ショウワドオリ,山口県周南市昭和通り
7450014,山口県,周南市,飯島町,ヤマグチケン,シュウナンシ,イイジマチョウ,山口県周南市飯島町
7450015,山口県,周南市,平和通り,ヤマグチケン,シュウナンシ,ヘイワドオリ,山口県周南市平和通り
7450016,山口県,周南市,若宮町,ヤマグチケン,シュウナンシ,ワカミヤチョウ,山口県周南市若宮町
7450017,山口県,周南市,新町,ヤマグチケン,シュウナンシ,シンマチ,山口県周南市新町
7450021,山口県,周南市,柳町,ヤマグチケン,シュウナンシ,ヤナギマチ,山口県周南市柳町
7450022,山口県,周南市,橋本町,ヤマグチケン,シュウナンシ,ハシモトチョウ,山口県周南市橋本町
7450023,山口県,周南市,那智町,ヤマグチケン,シュウナンシ,ナチチョウ,山口県周南市那智町
7450024,山口県,周南市,晴海町,ヤマグチケン,シュウナンシ,ハルミチョウ,山口県周南市晴海町
7450025,山口県,周南市,築港町,ヤマグチケン,シュウナンシ,チッコウチョウ,山口県周南市築港町
7450026,山口県,周南市,住崎町,ヤマグチケン,シュウナンシ,スミザキチョウ,山口県周南市住崎町
7450027,山口県,周南市,糀町,ヤマグチケン,シュウナンシ,コウジマチ,山口県周南市糀町
7450031,山口県,周南市,銀南街,ヤマグチケン,シュウナンシ,ギンナンガイ,山口県周南市銀南街
7450032,山口県,周南市,銀座,ヤマグチケン,シュウナンシ,ギンザ,山口県周南市銀座
7450033,山口県,周南市,みなみ銀座,ヤマグチケン,シュウナンシ,ミナミギンザ,山口県周南市みなみ銀座
7450034,山口県,周南市,御幸通り,ヤマグチケン,シュウナンシ,ミユキドオリ,山口県周南市御幸通り
7450035,山口県,周南市,有楽町,ヤマグチケン,シュウナンシ,ユウラクチョウ,山口県周南市有楽町
7450036,山口県,周南市,本町,ヤマグチケン,シュウナンシ,ホンマチ,山口県周南市本町
7450037,山口県,周南市,栄町,ヤマグチケン,シュウナンシ,サカエマチ,山口県周南市栄町
7450041,山口県,周南市,戎町,ヤマグチケン,シュウナンシ,エビスマチ,山口県周南市戎町
7450042,山口県,周南市,野上町,ヤマグチケン,シュウナンシ,ノガミチョウ,山口県周南市野上町
7450043,山口県,周南市,都町,ヤマグチケン,シュウナンシ,ミヤコマチ,山口県周南市都町
7450044,山口県,周南市,千代田町,ヤマグチケン,シュウナンシ,チヨダチョウ,山口県周南市千代田町
7450045,山口県,周南市,徳山港町,ヤマグチケン,シュウナンシ,トクヤマミナトマチ,山口県周南市徳山港町
7450046,山口県,周南市,権現町,ヤマグチケン,シュウナンシ,ゴンゲンチョウ,山口県周南市権現町
7450047,山口県,周南市,入船町,ヤマグチケン,シュウナンシ,イリフネチョウ,山口県周南市入船町
7450051,山口県,周南市,沖見町,ヤマグチケン,シュウナンシ,オキミチョウ,山口県周南市沖見町
7450052,山口県,周南市,初音町,ヤマグチケン,シュウナンシ,ハツネチョウ,山口県周南市初音町
7450053,山口県,周南市,御影町,ヤマグチケン,シュウナンシ,ミカゲチョウ,山口県周南市御影町
7450054,山口県,周南市,西松原,ヤマグチケン,シュウナンシ,ニシマツバラ,山口県周南市西松原
7450055,山口県,周南市,相生町,ヤマグチケン,シュウナンシ,アイオイチョウ,山口県周南市相生町
7450056,山口県,周南市,新宿通,ヤマグチケン,シュウナンシ,シンジュクドオリ,山口県周南市新宿通
7450057,山口県,周南市,大津島,ヤマグチケン,シュウナンシ,オオヅシマ,山口県周南市大津島
7450061,山口県,周南市,鐘楼町,ヤマグチケン,シュウナンシ,ショウロウチョウ,山口県周南市鐘楼町
7450062,山口県,周南市,月丘町,ヤマグチケン,シュウナンシ,ツキオカチョウ,山口県周南市月丘町
7450063,山口県,周南市,今住町,ヤマグチケン,シュウナンシ,イマズミチョウ,山口県周南市今住町
7450064,山口県,周南市,住吉町,ヤマグチケン,シュウナンシ,スミヨシチョウ,山口県周南市住吉町
7450065,山口県,周南市,原宿町,ヤマグチケン,シュウナンシ,ハラジュクチョウ,山口県周南市原宿町
7450066,山口県,周南市,岡田町,ヤマグチケン,シュウナンシ,オカダチョウ,山口県周南市岡田町
7450071,山口県,周南市,岐山通り,ヤマグチケン,シュウナンシ,キサンドオリ,山口県周南市岐山通り
7450072,山口県,周南市,弥生町,ヤマグチケン,シュウナンシ,ヤヨイチョウ,山口県周南市弥生町
7450073,山口県,周南市,代々木通り,ヤマグチケン,シュウナンシ,ヨヨギドオリ,山口県周南市代々木通り
7450074,山口県,周南市,今宿町,ヤマグチケン,シュウナンシ,イマジュクチョウ,山口県周南市今宿町
7450075,山口県,周南市,緑町,ヤマグチケン,シュウナンシ,ミドリマチ,山口県周南市緑町
7450076,山口県,周南市,梅園町,ヤマグチケン,シュウナンシ,ウメゾノチョウ,山口県周南市梅園町
7450121,山口県,周南市,須々万奥,ヤマグチケン,シュウナンシ,ススマオク,山口県周南市須々万奥
7450122,山口県,周南市,須々万本郷,ヤマグチケン,シュウナンシ,ススマホンゴウ,山口県周南市須々万本郷
7450123,山口県,周南市,徳山（杉ケ峠）,ヤマグチケン,シュウナンシ,トクヤマ(スギガトウゲ),山口県周南市徳山（杉ケ峠）
7450124,山口県,周南市,莇地,ヤマグチケン,シュウナンシ,アドウジ,山口県周南市莇地
7450125,山口県,周南市,長穂,ヤマグチケン,シュウナンシ,ナガホ,山口県周南市長穂
7450241,山口県,周南市,大向,ヤマグチケン,シュウナンシ,オオムカイ,山口県周南市大向
7450242,山口県,周南市,大道理,ヤマグチケン,シュウナンシ,オオドウリ,山口県周南市大道理
7450301,山口県,周南市,大潮,ヤマグチケン,シュウナンシ,オオシオ,山口県周南市大潮
7450302,山口県,周南市,鹿野上,ヤマグチケン,シュウナンシ,カノカミ,山口県周南市鹿野上
7450303,山口県,周南市,鹿野中,ヤマグチケン,シュウナンシ,カノナカ,山口県周南市鹿野中
7450304,山口県,周南市,鹿野下,ヤマグチケン,シュウナンシ,カノシモ,山口県周南市鹿野下
7450401,山口県,周南市,須万,ヤマグチケン,シュウナンシ,スマ,山口県周南市須万
7450402,山口県,周南市,金峰,ヤマグチケン,シュウナンシ,ミタケ,山口県周南市金峰
7450501,山口県,周南市,八代,ヤマグチケン,シュウナンシ,ヤシロ,山口県周南市八代
7450511,山口県,周南市,中須北,ヤマグチケン,シュウナンシ,ナカズキタ,山口県周南市中須北
7450512,山口県,周南市,中須南,ヤマグチケン,シュウナンシ,ナカズミナミ,山口県周南市中須南
7450611,山口県,周南市,奥関屋,ヤマグチケン,シュウナンシ,オクセキヤ,山口県周南市奥関屋
7450612,山口県,周南市,呼坂,ヤマグチケン,シュウナンシ,ヨビサカ,山口県周南市呼坂
7450613,山口県,周南市,夢ケ丘,ヤマグチケン,シュウナンシ,ユメガオカ,山口県周南市夢ケ丘
7450614,山口県,周南市,御所尾原,ヤマグチケン,シュウナンシ,ゴショオバラ,山口県周南市御所尾原
7450615,山口県,周南市,勝間ヶ丘,ヤマグチケン,シュウナンシ,カツマガオカ,山口県周南市勝間ヶ丘
7450616,山口県,周南市,緑ケ丘,ヤマグチケン,シュウナンシ,ミドリガオカ,山口県周南市緑ケ丘
7450617,山口県,周南市,勝間原,ヤマグチケン,シュウナンシ,カツマバラ,山口県周南市勝間原
7450618,山口県,周南市,藤ヶ台,ヤマグチケン,シュウナンシ,フジガダイ,山口県周南市藤ヶ台
7450621,山口県,周南市,原,ヤマグチケン,シュウナンシ,ハラ,山口県周南市原
7450622,山口県,周南市,樋口,ヤマグチケン,シュウナンシ,ヒグチ,山口県周南市樋口
7450623,山口県,周南市,清尾,ヤマグチケン,シュウナンシ,セイノオ,山口県周南市清尾
7450631,山口県,周南市,安田,ヤマグチケン,シュウナンシ,ヤスダ,山口県周南市安田
7450632,山口県,周南市,鶴見台,ヤマグチケン,シュウナンシ,ツルミダイ,山口県周南市鶴見台
7450641,山口県,周南市,小松原,ヤマグチケン,シュウナンシ,コマツバラ,山口県周南市小松原
7450642,山口県,周南市,中村,ヤマグチケン,シュウナンシ,ナカムラ,山口県周南市中村
7450643,山口県,周南市,新清光台,ヤマグチケン,シュウナンシ,シンセイコウダイ,山口県周南市新清光台
7450651,山口県,周南市,大河内,ヤマグチケン,シュウナンシ,オオカワチ,山口県周南市大河内
7450652,山口県,周南市,幸ケ丘,ヤマグチケン,シュウナンシ,サチガオカ,山口県周南市幸ケ丘
7450653,山口県,周南市,清光台町,ヤマグチケン,シュウナンシ,セイコウダイチョウ,山口県周南市清光台町
7450654,山口県,周南市,自由ケ丘,ヤマグチケン,シュウナンシ,ジユウガオカ,山口県周南市自由ケ丘
7450661,山口県,周南市,呼坂本町,ヤマグチケン,シュウナンシ,ヨビサカホンマチ,山口県周南市呼坂本町
7450662,山口県,周南市,高水原,ヤマグチケン,シュウナンシ,タカミズハラ,山口県周南市高水原
7450663,山口県,周南市,熊毛中央町,ヤマグチケン,シュウナンシ,クマゲチュウオウチョウ,山口県周南市熊毛中央町
7450801,山口県,周南市,久米,ヤマグチケン,シュウナンシ,クメ,山口県周南市久米
7450802,山口県,周南市,栗屋,ヤマグチケン,シュウナンシ,クリヤ,山口県周南市栗屋
7450803,山口県,周南市,大島,ヤマグチケン,シュウナンシ,オオシマ,山口県周南市大島
7450804,山口県,周南市,粭島,ヤマグチケン,シュウナンシ,スクモジマ,山口県周南市粭島
7450805,山口県,周南市,櫛ヶ浜,ヤマグチケン,シュウナンシ,クシガハマ,山口県周南市櫛ヶ浜
7450806,山口県,周南市,桜木,ヤマグチケン,シュウナンシ,サクラギ,山口県周南市桜木
7450807,山口県,周南市,城ケ丘,ヤマグチケン,シュウナンシ,ジョウガオカ,山口県周南市城ケ丘
7450808,山口県,周南市,平原町,ヤマグチケン,シュウナンシ,ヒラバラチョウ,山口県周南市平原町
7450809,山口県,周南市,久米中央,ヤマグチケン,シュウナンシ,クメチュウオウ,山口県周南市久米中央
7450811,山口県,周南市,五月町,ヤマグチケン,シュウナンシ,サツキチョウ,山口県周南市五月町
7450812,山口県,周南市,横浜町,ヤマグチケン,シュウナンシ,ヨコハマチョウ,山口県周南市横浜町
7450813,山口県,周南市,由加町,ヤマグチケン,シュウナンシ,ユカチョウ,山口県周南市由加町
7450814,山口県,周南市,鼓海,ヤマグチケン,シュウナンシ,コカイ,山口県周南市鼓海
7450815,山口県,周南市,宮前町,ヤマグチケン,シュウナンシ,ミヤマエチョウ,山口県周南市宮前町
7450816,山口県,周南市,遠石,ヤマグチケン,シュウナンシ,トイシ,山口県周南市遠石
7450817,山口県,周南市,上遠石町,ヤマグチケン,シュウナンシ,カミトイシチョウ,山口県周南市上遠石町
7450821,山口県,周南市,曙町,ヤマグチケン,シュウナンシ,アケボノチョウ,山口県周南市曙町
7450822,山口県,周南市,孝田町,ヤマグチケン,シュウナンシ,コウダチョウ,山口県周南市孝田町
7450823,山口県,周南市,周陽,ヤマグチケン,シュウナンシ,シュウヨウ,山口県周南市周陽
7450824,山口県,周南市,大内町,ヤマグチケン,シュウナンシ,オオウチチョウ,山口県周南市大内町
7450825,山口県,周南市,秋月,ヤマグチケン,シュウナンシ,アキヅキ,山口県周南市秋月
7450826,山口県,周南市,江の宮町,ヤマグチケン,シュウナンシ,エノミヤチョウ,山口県周南市江の宮町
7450827,山口県,周南市,瀬戸見町,ヤマグチケン,シュウナンシ,セトミチョウ,山口県周南市瀬戸見町
7450831,山口県,周南市,楠木,ヤマグチケン,シュウナンシ,クスノキ,山口県周南市楠木
7450832,山口県,周南市,扇町,ヤマグチケン,シュウナンシ,オウギチョウ,山口県周南市扇町
7450833,山口県,周南市,泉原町,ヤマグチケン,シュウナンシ,イズミバラチョウ,山口県周南市泉原町
7450834,山口県,周南市,清水町,ヤマグチケン,シュウナンシ,シミズチョウ,山口県周南市清水町
7450835,山口県,周南市,舞車町,ヤマグチケン,シュウナンシ,マイグルマチョウ,山口県周南市舞車町
7450836,山口県,周南市,慶万町,ヤマグチケン,シュウナンシ,ケイマンチョウ,山口県周南市慶万町
7450837,山口県,周南市,譲羽,ヤマグチケン,シュウナンシ,ユズリハ,山口県周南市譲羽
7450841,山口県,周南市,若草町,ヤマグチケン,シュウナンシ,ワカクサチョウ,山口県周南市若草町
7450842,山口県,周南市,青山町,ヤマグチケン,シュウナンシ,アオヤマチョウ,山口県周南市青山町
7450843,山口県,周南市,新宮町,ヤマグチケン,シュウナンシ,シングウチョウ,山口県周南市新宮町
7450844,山口県,周南市,速玉町,ヤマグチケン,シュウナンシ,ハヤタマチョウ,山口県周南市速玉町
7450845,山口県,周南市,河東町,ヤマグチケン,シュウナンシ,カワヒガシチョウ,山口県周南市河東町
7450846,山口県,周南市,東山町,ヤマグチケン,シュウナンシ,ヒガシヤマチョウ,山口県周南市東山町
7450847,山口県,周南市,松保町,ヤマグチケン,シュウナンシ,マツホチョウ,山口県周南市松保町
7450851,山口県,周南市,徳山（その他）,ヤマグチケン,シュウナンシ,トクヤマ(ソノタ),山口県周南市徳山（その他）
7450852,山口県,周南市,川曲,ヤマグチケン,シュウナンシ,カワマガリ,山口県周南市川曲
7450853,山口県,周南市,上村,ヤマグチケン,シュウナンシ,ジョウソン,山口県周南市上村
7450854,山口県,周南市,中野,ヤマグチケン,シュウナンシ,ナカノ,山口県周南市中野
7450855,山口県,周南市,川上,ヤマグチケン,シュウナンシ,カワカミ,山口県周南市川上
7450856,山口県,周南市,浦山,ヤマグチケン,シュウナンシ,ウラヤマ,山口県周南市浦山
7450857,山口県,周南市,浦山開作,ヤマグチケン,シュウナンシ,ウラヤマカイサク,山口県周南市浦山開作
7450858,山口県,周南市,花陽,ヤマグチケン,シュウナンシ,カヨウ,山口県周南市花陽
7450861,山口県,周南市,新地,ヤマグチケン,シュウナンシ,シンチ,山口県周南市新地
7450862,山口県,周南市,江口,ヤマグチケン,シュウナンシ,エグチ,山口県周南市江口
7450863,山口県,周南市,御山町,ヤマグチケン,シュウナンシ,ミヤマチョウ,山口県周南市御山町
7450864,山口県,周南市,北山,ヤマグチケン,シュウナンシ,キタヤマ,山口県周南市北山
7450865,山口県,周南市,蓮ヶ浴,ヤマグチケン,シュウナンシ,ハスガエキ,山口県周南市蓮ヶ浴
7450866,山口県,周南市,土越,ヤマグチケン,シュウナンシ,ヒジコシ,山口県周南市土越
7450867,山口県,周南市,新堀,ヤマグチケン,シュウナンシ,シンボリ,山口県周南市新堀
7450868,山口県,周南市,南浦山町,ヤマグチケン,シュウナンシ,ミナミウラヤマチョウ,山口県周南市南浦山町
7450869,山口県,周南市,東北山,ヤマグチケン,シュウナンシ,ヒガシキタヤマ,山口県周南市東北山
7450871,山口県,周南市,御弓町,ヤマグチケン,シュウナンシ,オユミチョウ,山口県周南市御弓町
7450872,山口県,周南市,一番丁,ヤマグチケン,シュウナンシ,イチバンチョウ,山口県周南市一番丁
7450873,山口県,周南市,三田川,ヤマグチケン,シュウナンシ,ミタガワ,山口県周南市三田川
7450874,山口県,周南市,公園区,ヤマグチケン,シュウナンシ,コウエンク,山口県周南市公園区
7450875,山口県,周南市,西金剛山,ヤマグチケン,シュウナンシ,ニシコンゴウザン,山口県周南市西金剛山
7450876,山口県,周南市,中金剛山,ヤマグチケン,シュウナンシ,ナカコンゴウザン,山口県周南市中金剛山
7450877,山口県,周南市,東金剛山,ヤマグチケン,シュウナンシ,ヒガシコンゴウザン,山口県周南市東金剛山
7450878,山口県,周南市,幸の台,ヤマグチケン,シュウナンシ,コウノダイ,山口県周南市幸の台
7450881,山口県,周南市,東辻,ヤマグチケン,シュウナンシ,ヒガシツジ,山口県周南市東辻
7450882,山口県,周南市,一ノ井手,ヤマグチケン,シュウナンシ,イチノイデ,山口県周南市一ノ井手
7450883,山口県,周南市,栄谷,ヤマグチケン,シュウナンシ,サカエダニ,山口県周南市栄谷
7450884,山口県,周南市,二ノ井手,ヤマグチケン,シュウナンシ,ニノイデ,山口県周南市二ノ井手
7450885,山口県,周南市,高尾団地,ヤマグチケン,シュウナンシ,タカオダンチ,山口県周南市高尾団地
7450886,山口県,周南市,黒岩町,ヤマグチケン,シュウナンシ,クロイワチョウ,山口県周南市黒岩町
7450887,山口県,周南市,馬屋,ヤマグチケン,シュウナンシ,ウマヤ,山口県周南市馬屋
7451131,山口県,周南市,戸田,ヤマグチケン,シュウナンシ,ヘタ,山口県周南市戸田
7451132,山口県,周南市,湯野,ヤマグチケン,シュウナンシ,ユノ,山口県周南市湯野
7460001,山口県,周南市,川崎,ヤマグチケン,シュウナンシ,カワサキ,山口県周南市川崎
7460002,山口県,周南市,西千代田町,ヤマグチケン,シュウナンシ,ニシチヨダチョウ,山口県周南市西千代田町
7460003,山口県,周南市,道源町,ヤマグチケン,シュウナンシ,ドウゲンチョウ,山口県周南市道源町
7460004,山口県,周南市,三笹町,ヤマグチケン,シュウナンシ,ミササチョウ,山口県周南市三笹町
7460005,山口県,周南市,渚町,ヤマグチケン,シュウナンシ,ナギサチョウ,山口県周南市渚町
7460006,山口県,周南市,開成町,ヤマグチケン,シュウナンシ,カイセイチョウ,山口県周南市開成町
7460007,山口県,周南市,竹島町,ヤマグチケン,シュウナンシ,タケシマチョウ,山口県周南市竹島町
7460008,山口県,周南市,椎木町,ヤマグチケン,シュウナンシ,シイギチョウ,山口県周南市椎木町
7460009,山口県,周南市,川手,ヤマグチケン,シュウナンシ,カワテ,山口県周南市川手
7460011,山口県,周南市,土井,ヤマグチケン,シュウナンシ,ドイ,山口県周南市土井
7460012,山口県,周南市,政所,ヤマグチケン,シュウナンシ,マドコロ,山口県周南市政所
7460013,山口県,周南市,桶川町,ヤマグチケン,シュウナンシ,オケガワチョウ,山口県周南市桶川町
7460014,山口県,周南市,古川町,ヤマグチケン,シュウナンシ,フルカワチョウ,山口県周南市古川町
7460015,山口県,周南市,清水,ヤマグチケン,シュウナンシ,シミズ,山口県周南市清水
7460016,山口県,周南市,中央町,ヤマグチケン,シュウナンシ,チュウオウチョウ,山口県周南市中央町
7460017,山口県,周南市,宮の前,ヤマグチケン,シュウナンシ,ミヤノマエ,山口県周南市宮の前
7460018,山口県,周南市,大神,ヤマグチケン,シュウナンシ,ダイジン,山口県周南市大神
7460019,山口県,周南市,臨海町,ヤマグチケン,シュウナンシ,リンカイチョウ,山口県周南市臨海町
7460021,山口県,周南市,花園町,ヤマグチケン,シュウナンシ,ハナゾノチョウ,山口県周南市花園町
7460022,山口県,周南市,野村,ヤマグチケン,シュウナンシ,ノムラ,山口県周南市野村
7460023,山口県,周南市,野村南町,ヤマグチケン,シュウナンシ,ノムラミナミマチ,山口県周南市野村南町
7460024,山口県,周南市,古泉,ヤマグチケン,シュウナンシ,コイズミ,山口県周南市古泉
7460025,山口県,周南市,古市,ヤマグチケン,シュウナンシ,フルイチ,山口県周南市古市
7460026,山口県,周南市,浜田,ヤマグチケン,シュウナンシ,ハマダ,山口県周南市浜田
7460027,山口県,周南市,小川屋町,ヤマグチケン,シュウナンシ,オガワヤチョウ,山口県周南市小川屋町
7460028,山口県,周南市,港町,ヤマグチケン,シュウナンシ,ミナトマチ,山口県周南市港町
7460029,山口県,周南市,平野,ヤマグチケン,シュウナンシ,ヒラノ,山口県周南市平野
7460031,山口県,周南市,坂根町,ヤマグチケン,シュウナンシ,サカネチョウ,山口県周南市坂根町
7460032,山口県,周南市,河内町,ヤマグチケン,シュウナンシ,コウチチョウ,山口県周南市河内町
7460033,山口県,周南市,新堤町,ヤマグチケン,シュウナンシ,シンヅツミチョウ,山口県周南市新堤町
7460034,山口県,周南市,富田,ヤマグチケン,シュウナンシ,トンダ,山口県周南市富田
7460035,山口県,周南市,日地町,ヤマグチケン,シュウナンシ,ヒジチョウ,山口県周南市日地町
7460036,山口県,周南市,温田,ヤマグチケン,シュウナンシ,オンダ,山口県周南市温田
7460037,山口県,周南市,丸山町,ヤマグチケン,シュウナンシ,マルヤマチョウ,山口県周南市丸山町
7460038,山口県,周南市,福川,ヤマグチケン,シュウナンシ,フクガワ,山口県周南市福川
7460041,山口県,周南市,社地町,ヤマグチケン,シュウナンシ,シャチチョウ,山口県周南市社地町
7460042,山口県,周南市,福川南町,ヤマグチケン,シュウナンシ,フクガワミナミマチ,山口県周南市福川南町
7460043,山口県,周南市,新田,ヤマグチケン,シュウナンシ,シンデン,山口県周南市新田
7460044,山口県,周南市,西桝町,ヤマグチケン,シュウナンシ,ニシマスチョウ,山口県周南市西桝町
7460045,山口県,周南市,新地町,ヤマグチケン,シュウナンシ,シンチチョウ,山口県周南市新地町
7460051,山口県,周南市,御姫町,ヤマグチケン,シュウナンシ,オヒメチョウ,山口県周南市御姫町
7460052,山口県,周南市,中畷町,ヤマグチケン,シュウナンシ,ナカナワテチョウ,山口県周南市中畷町
7460053,山口県,周南市,室尾,ヤマグチケン,シュウナンシ,ムロオ,山口県周南市室尾
7460054,山口県,周南市,長田町,ヤマグチケン,シュウナンシ,ナガタチョウ,山口県周南市長田町
7460055,山口県,周南市,かせ河原町,ヤマグチケン,シュウナンシ,カセガワラチョウ,山口県周南市かせ河原町
7460056,山口県,周南市,羽島,ヤマグチケン,シュウナンシ,ハジマ,山口県周南市羽島
7460061,山口県,周南市,皿山町,ヤマグチケン,シュウナンシ,サラヤマチョウ,山口県周南市皿山町
7460062,山口県,周南市,福川中市町,ヤマグチケン,シュウナンシ,フクガワナカイチチョウ,山口県周南市福川中市町
7460063,山口県,周南市,本陣町,ヤマグチケン,シュウナンシ,ホンジンチョウ,山口県周南市本陣町
7460064,山口県,周南市,若山,ヤマグチケン,シュウナンシ,ワカヤマ,山口県周南市若山
7460065,山口県,周南市,上迫町,ヤマグチケン,シュウナンシ,カミサコチョウ,山口県周南市上迫町
7460081,山口県,周南市,四熊,ヤマグチケン,シュウナンシ,シクマ,山口県周南市四熊
7460082,山口県,周南市,下上,ヤマグチケン,シュウナンシ,シモカミ,山口県周南市下上
7460083,山口県,周南市,小畑,ヤマグチケン,シュウナンシ,オバタ,山口県周南市小畑
7460084,山口県,周南市,夜市,ヤマグチケン,シュウナンシ,ヤジ,山口県周南市夜市
7460101,山口県,周南市,高瀬,ヤマグチケン,シュウナンシ,タカセ,山口県周南市高瀬
7460102,山口県,周南市,夏切,ヤマグチケン,シュウナンシ,ナツキリ,山口県周南市夏切
7460103,山口県,周南市,垰,ヤマグチケン,シュウナンシ,タオ,山口県周南市垰
7460104,山口県,周南市,米光,ヤマグチケン,シュウナンシ,ヨネミツ,山口県周南市米光
7460105,山口県,周南市,馬神,ヤマグチケン,シュウナンシ,ウマガミ,山口県周南市馬神
7470000,山口県,防府市,,ヤマグチケン,ホウフシ,,山口県防府市
7470001,山口県,防府市,岩畠,ヤマグチケン,ホウフシ,イワバタケ,山口県防府市岩畠
7470002,山口県,防府市,酢貝,ヤマグチケン,ホウフシ,スガイ,山口県防府市酢貝
7470003,山口県,防府市,牟礼柳,ヤマグチケン,ホウフシ,ムレヤナギ,山口県防府市牟礼柳
7470004,山口県,防府市,牟礼,ヤマグチケン,ホウフシ,ムレ,山口県防府市牟礼
7470005,山口県,防府市,中西,ヤマグチケン,ホウフシ,ナカニシ,山口県防府市中西
7470006,山口県,防府市,敷山町,ヤマグチケン,ホウフシ,シキヤマチョウ,山口県防府市敷山町
7470011,山口県,防府市,岸津,ヤマグチケン,ホウフシ,キシヅ,山口県防府市岸津
7470012,山口県,防府市,牟礼今宿,ヤマグチケン,ホウフシ,ムレイマジュク,山口県防府市牟礼今宿
7470013,山口県,防府市,沖今宿,ヤマグチケン,ホウフシ,オキイマジュク,山口県防府市沖今宿
7470014,山口県,防府市,江泊,ヤマグチケン,ホウフシ,エドマリ,山口県防府市江泊
7470021,山口県,防府市,国分寺町,ヤマグチケン,ホウフシ,コクブンジチョウ,山口県防府市国分寺町
7470022,山口県,防府市,惣社町,ヤマグチケン,ホウフシ,ソウシャチョウ,山口県防府市惣社町
7470023,山口県,防府市,多々良,ヤマグチケン,ホウフシ,タタラ,山口県防府市多々良
7470024,山口県,防府市,国衙,ヤマグチケン,ホウフシ,コクガ,山口県防府市国衙
7470025,山口県,防府市,美和町,ヤマグチケン,ホウフシ,ミワチョウ,山口県防府市美和町
7470026,山口県,防府市,緑町,ヤマグチケン,ホウフシ,ミドリマチ,山口県防府市緑町
7470027,山口県,防府市,南松崎町,ヤマグチケン,ホウフシ,ミナミマツザキチョウ,山口県防府市南松崎町
7470028,山口県,防府市,東松崎町,ヤマグチケン,ホウフシ,ヒガシマツザキチョウ,山口県防府市東松崎町
7470029,山口県,防府市,松崎町,ヤマグチケン,ホウフシ,マツザキチョウ,山口県防府市松崎町
7470031,山口県,防府市,迫戸町,ヤマグチケン,ホウフシ,セバトチョウ,山口県防府市迫戸町
7470032,山口県,防府市,宮市町,ヤマグチケン,ホウフシ,ミヤチチョウ,山口県防府市宮市町
7470033,山口県,防府市,上天神町,ヤマグチケン,ホウフシ,カミテンジンマチ,山口県防府市上天神町
7470034,山口県,防府市,天神,ヤマグチケン,ホウフシ,テンジン,山口県防府市天神
7470035,山口県,防府市,栄町,ヤマグチケン,ホウフシ,サカエマチ,山口県防府市栄町
7470036,山口県,防府市,戎町,ヤマグチケン,ホウフシ,エビスマチ,山口県防府市戎町
7470037,山口県,防府市,八王子,ヤマグチケン,ホウフシ,ハチオウジ,山口県防府市八王子
7470041,山口県,防府市,本橋町,ヤマグチケン,ホウフシ,モトバシチョウ,山口県防府市本橋町
7470042,山口県,防府市,今市町,ヤマグチケン,ホウフシ,イマイチチョウ,山口県防府市今市町
7470043,山口県,防府市,平和町,ヤマグチケン,ホウフシ,ヘイワマチ,山口県防府市平和町
7470044,山口県,防府市,佐波,ヤマグチケン,ホウフシ,サバ,山口県防府市佐波
7470045,山口県,防府市,高倉,ヤマグチケン,ホウフシ,タカクラ,山口県防府市高倉
7470046,山口県,防府市,千日,ヤマグチケン,ホウフシ,センニチ,山口県防府市千日
7470047,山口県,防府市,新橋町,ヤマグチケン,ホウフシ,シンバシチョウ,山口県防府市新橋町
7470051,山口県,防府市,泉町,ヤマグチケン,ホウフシ,イズミチョウ,山口県防府市泉町
7470052,山口県,防府市,開出,ヤマグチケン,ホウフシ,カイデ,山口県防府市開出
7470053,山口県,防府市,開出本町,ヤマグチケン,ホウフシ,カイデホンマチ,山口県防府市開出本町
7470054,山口県,防府市,開出西町,ヤマグチケン,ホウフシ,カイデニシマチ,山口県防府市開出西町
7470055,山口県,防府市,中泉町,ヤマグチケン,ホウフシ,ナカイズミチョウ,山口県防府市中泉町
7470056,山口県,防府市,古祖原,ヤマグチケン,ホウフシ,コソバラ,山口県防府市古祖原
7470061,山口県,防府市,東佐波令,ヤマグチケン,ホウフシ,ヒガシサバリョウ,山口県防府市東佐波令
7470062,山口県,防府市,上右田,ヤマグチケン,ホウフシ,カミミギタ,山口県防府市上右田
7470063,山口県,防府市,下右田,ヤマグチケン,ホウフシ,シモミギタ,山口県防府市下右田
7470064,山口県,防府市,高井,ヤマグチケン,ホウフシ,タカイ,山口県防府市高井
7470065,山口県,防府市,大崎,ヤマグチケン,ホウフシ,オオサキ,山口県防府市大崎
7470066,山口県,防府市,自由ケ丘,ヤマグチケン,ホウフシ,ジユウガオカ,山口県防府市自由ケ丘
7470067,山口県,防府市,佐野,ヤマグチケン,ホウフシ,サノ,山口県防府市佐野
7470101,山口県,防府市,奥畑,ヤマグチケン,ホウフシ,オクハタ,山口県防府市奥畑
7470102,山口県,防府市,久兼,ヤマグチケン,ホウフシ,ヒサカネ,山口県防府市久兼
7470103,山口県,防府市,和字,ヤマグチケン,ホウフシ,ワジ,山口県防府市和字
7470104,山口県,防府市,真尾,ヤマグチケン,ホウフシ,マナオ,山口県防府市真尾
7470105,山口県,防府市,鈴屋,ヤマグチケン,ホウフシ,スズヤ,山口県防府市鈴屋
7470106,山口県,防府市,奈美,ヤマグチケン,ホウフシ,ナミ,山口県防府市奈美
7470107,山口県,防府市,中山,ヤマグチケン,ホウフシ,ナカヤマ,山口県防府市中山
7470231,山口県,山口市,徳地堀,ヤマグチケン,ヤマグチシ,トクヂホリ,山口県山口市徳地堀
7470232,山口県,山口市,徳地伊賀地,ヤマグチケン,ヤマグチシ,トクヂイカジ,山口県山口市徳地伊賀地
7470233,山口県,山口市,徳地岸見,ヤマグチケン,ヤマグチシ,トクヂキシミ,山口県山口市徳地岸見
7470234,山口県,山口市,徳地小古祖,ヤマグチケン,ヤマグチシ,トクヂオゴソ,山口県山口市徳地小古祖
7470235,山口県,山口市,徳地深谷,ヤマグチケン,ヤマグチシ,トクヂフカダニ,山口県山口市徳地深谷
7470341,山口県,山口市,徳地引谷,ヤマグチケン,ヤマグチシ,トクヂヒクタニ,山口県山口市徳地引谷
7470342,山口県,山口市,徳地船路,ヤマグチケン,ヤマグチシ,トクヂフナジ,山口県山口市徳地船路
7470343,山口県,山口市,徳地三谷,ヤマグチケン,ヤマグチシ,トクヂミタニ,山口県山口市徳地三谷
7470344,山口県,山口市,徳地八坂,ヤマグチケン,ヤマグチシ,トクヂヤサカ,山口県山口市徳地八坂
7470401,山口県,山口市,徳地野谷,ヤマグチケン,ヤマグチシ,トクヂノタニ,山口県山口市徳地野谷
7470402,山口県,山口市,徳地柚木,ヤマグチケン,ヤマグチシ,トクヂユノキ,山口県山口市徳地柚木
7470521,山口県,山口市,徳地山畑,ヤマグチケン,ヤマグチシ,トクヂヤマハタ,山口県山口市徳地山畑
7470522,山口県,山口市,徳地島地,ヤマグチケン,ヤマグチシ,トクヂシマジ,山口県山口市徳地島地
7470523,山口県,山口市,徳地上村,ヤマグチケン,ヤマグチシ,トクヂカミムラ,山口県山口市徳地上村
7470524,山口県,山口市,徳地藤木,ヤマグチケン,ヤマグチシ,トクヂフジキ,山口県山口市徳地藤木
7470611,山口県,山口市,徳地鯖河内,ヤマグチケン,ヤマグチシ,トクヂサバゴウチ,山口県山口市徳地鯖河内
7470612,山口県,山口市,徳地串,ヤマグチケン,ヤマグチシ,トクヂクシ,山口県山口市徳地串
7470621,山口県,周南市,巣山,ヤマグチケン,シュウナンシ,スヤマ,山口県周南市巣山
7470801,山口県,防府市,駅南町,ヤマグチケン,ホウフシ,エキミナミマチ,山口県防府市駅南町
7470802,山口県,防府市,中央町,ヤマグチケン,ホウフシ,チュウオウチョウ,山口県防府市中央町
7470803,山口県,防府市,岡村町,ヤマグチケン,ホウフシ,オカムラチョウ,山口県防府市岡村町
7470804,山口県,防府市,松原町,ヤマグチケン,ホウフシ,マツバラチョウ,山口県防府市松原町
7470805,山口県,防府市,鞠生町,ヤマグチケン,ホウフシ,マリフチョウ,山口県防府市鞠生町
7470806,山口県,防府市,石が口,ヤマグチケン,ホウフシ,イシガグチ,山口県防府市石が口
7470807,山口県,防府市,桑南,ヤマグチケン,ホウフシ,ソウナン,山口県防府市桑南
7470808,山口県,防府市,桑山,ヤマグチケン,ホウフシ,クワノヤマ,山口県防府市桑山
7470809,山口県,防府市,寿町,ヤマグチケン,ホウフシ,コトブキチョウ,山口県防府市寿町
7470811,山口県,防府市,車塚町,ヤマグチケン,ホウフシ,クルマヅカチョウ,山口県防府市車塚町
7470812,山口県,防府市,鋳物師町,ヤマグチケン,ホウフシ,イモジチョウ,山口県防府市鋳物師町
7470813,山口県,防府市,東三田尻,ヤマグチケン,ホウフシ,ヒガシミタジリ,山口県防府市東三田尻
7470814,山口県,防府市,三田尻,ヤマグチケン,ホウフシ,ミタジリ,山口県防府市三田尻
7470815,山口県,防府市,協和町,ヤマグチケン,ホウフシ,キョウワチョウ,山口県防府市協和町
7470816,山口県,防府市,華浦,ヤマグチケン,ホウフシ,カホ,山口県防府市華浦
7470817,山口県,防府市,自力町,ヤマグチケン,ホウフシ,ジリキチョウ,山口県防府市自力町
7470818,山口県,防府市,三田尻本町,ヤマグチケン,ホウフシ,ミタジリホンマチ,山口県防府市三田尻本町
7470819,山口県,防府市,お茶屋町,ヤマグチケン,ホウフシ,オチャヤマチ,山口県防府市お茶屋町
7470821,山口県,防府市,警固町,ヤマグチケン,ホウフシ,ケイゴマチ,山口県防府市警固町
7470822,山口県,防府市,勝間,ヤマグチケン,ホウフシ,カツマ,山口県防府市勝間
7470823,山口県,防府市,鐘紡町,ヤマグチケン,ホウフシ,カネボウチョウ,山口県防府市鐘紡町
7470824,山口県,防府市,新築地町,ヤマグチケン,ホウフシ,シンツキジチョウ,山口県防府市新築地町
7470825,山口県,防府市,新田,ヤマグチケン,ホウフシ,シンデン,山口県防府市新田
7470831,山口県,防府市,向島,ヤマグチケン,ホウフシ,ムコウシマ,山口県防府市向島
7470832,山口県,防府市,野島,ヤマグチケン,ホウフシ,ノシマ,山口県防府市野島
7470833,山口県,防府市,浜方,ヤマグチケン,ホウフシ,ハマカタ,山口県防府市浜方
7470834,山口県,防府市,田島,ヤマグチケン,ホウフシ,タジマ,山口県防府市田島
7470835,山口県,防府市,西浦,ヤマグチケン,ホウフシ,ニシノウラ,山口県防府市西浦
7470836,山口県,防府市,植松,ヤマグチケン,ホウフシ,ウエマツ,山口県防府市植松
7470841,山口県,防府市,仁井令町,ヤマグチケン,ホウフシ,ニイリョウチョウ,山口県防府市仁井令町
7470842,山口県,防府市,清水町,ヤマグチケン,ホウフシ,シミズチョウ,山口県防府市清水町
7470843,山口県,防府市,東仁井令町,ヤマグチケン,ホウフシ,ヒガシニイリョウチョウ,山口県防府市東仁井令町
7470844,山口県,防府市,華園町,ヤマグチケン,ホウフシ,ハナゾノチョウ,山口県防府市華園町
7470845,山口県,防府市,仁井令,ヤマグチケン,ホウフシ,ニイリョウ,山口県防府市仁井令
7470846,山口県,防府市,伊佐江,ヤマグチケン,ホウフシ,イサエ,山口県防府市伊佐江
7470847,山口県,防府市,伊佐江町,ヤマグチケン,ホウフシ,イサエチョウ,山口県防府市伊佐江町
7470848,山口県,防府市,華城中央,ヤマグチケン,ホウフシ,ハナギチュウオウ,山口県防府市華城中央
7470849,山口県,防府市,西仁井令,ヤマグチケン,ホウフシ,ニシニイリョウ,山口県防府市西仁井令
7471111,山口県,防府市,富海,ヤマグチケン,ホウフシ,トノミ,山口県防府市富海
7471221,山口県,山口市,鋳銭司,ヤマグチケン,ヤマグチシ,スゼンジ,山口県山口市鋳銭司
7471231,山口県,防府市,切畑,ヤマグチケン,ホウフシ,キリハタ,山口県防府市切畑
7471232,山口県,防府市,台道,ヤマグチケン,ホウフシ,ダイドウ,山口県防府市台道
7490101,山口県,柳井市,神代,ヤマグチケン,ヤナイシ,コウジロ,山口県柳井市神代
7490102,山口県,柳井市,大畠,ヤマグチケン,ヤナイシ,オオバタケ,山口県柳井市大畠
7490103,山口県,柳井市,遠崎,ヤマグチケン,ヤナイシ,トオザキ,山口県柳井市遠崎
7500000,山口県,下関市,,ヤマグチケン,シモノセキシ,,山口県下関市
7500001,山口県,下関市,幸町,ヤマグチケン,シモノセキシ,サイワイマチ,山口県下関市幸町
7500002,山口県,下関市,宮田町,ヤマグチケン,シモノセキシ,ミヤダマチ,山口県下関市宮田町
7500003,山口県,下関市,阿弥陀寺町,ヤマグチケン,シモノセキシ,アミダイジチョウ,山口県下関市阿弥陀寺町
7500004,山口県,下関市,中之町,ヤマグチケン,シモノセキシ,ナカノチョウ,山口県下関市中之町
7500005,山口県,下関市,唐戸町,ヤマグチケン,シモノセキシ,カラトチョウ,山口県下関市唐戸町
7500006,山口県,下関市,南部町,ヤマグチケン,シモノセキシ,ナベチョウ,山口県下関市南部町
7500007,山口県,下関市,赤間町,ヤマグチケン,シモノセキシ,アカマチョウ,山口県下関市赤間町
7500008,山口県,下関市,田中町,ヤマグチケン,シモノセキシ,タナカマチ,山口県下関市田中町
7500009,山口県,下関市,上田中町,ヤマグチケン,シモノセキシ,カミタナカマチ,山口県下関市上田中町
7500011,山口県,下関市,名池町,ヤマグチケン,シモノセキシ,メイチチョウ,山口県下関市名池町
7500012,山口県,下関市,観音崎町,ヤマグチケン,シモノセキシ,カンノンザキチョウ,山口県下関市観音崎町
7500013,山口県,下関市,入江町,ヤマグチケン,シモノセキシ,イリエチョウ,山口県下関市入江町
7500014,山口県,下関市,岬之町,ヤマグチケン,シモノセキシ,ハナノチョウ,山口県下関市岬之町
7500015,山口県,下関市,西入江町,ヤマグチケン,シモノセキシ,ニシイリエチョウ,山口県下関市西入江町
7500016,山口県,下関市,細江町,ヤマグチケン,シモノセキシ,ホソエチョウ,山口県下関市細江町
7500017,山口県,下関市,細江新町,ヤマグチケン,シモノセキシ,ホソエシンマチ,山口県下関市細江新町
7500018,山口県,下関市,豊前田町,ヤマグチケン,シモノセキシ,ブゼンダチョウ,山口県下関市豊前田町
7500019,山口県,下関市,丸山町,ヤマグチケン,シモノセキシ,マルヤマチョウ,山口県下関市丸山町
7500021,山口県,下関市,長崎中央町,ヤマグチケン,シモノセキシ,ナガサキチュウオウチョウ,山口県下関市長崎中央町
7500022,山口県,下関市,関西本町,ヤマグチケン,シモノセキシ,カンセイホンマチ,山口県下関市関西本町
7500023,山口県,下関市,長崎新町,ヤマグチケン,シモノセキシ,ナガサキシンマチ,山口県下関市長崎新町
7500024,山口県,下関市,笹山町,ヤマグチケン,シモノセキシ,ササヤマチョウ,山口県下関市笹山町
7500025,山口県,下関市,竹崎町,ヤマグチケン,シモノセキシ,タケザキチョウ,山口県下関市竹崎町
7500026,山口県,下関市,長門町,ヤマグチケン,シモノセキシ,ナガトマチ,山口県下関市長門町
7500027,山口県,下関市,上条町,ヤマグチケン,シモノセキシ,ウエジョウチョウ,山口県下関市上条町
7500028,山口県,下関市,長崎本町,ヤマグチケン,シモノセキシ,ナガサキホンマチ,山口県下関市長崎本町
7500029,山口県,下関市,長崎町,ヤマグチケン,シモノセキシ,ナガサキチョウ,山口県下関市長崎町
7500031,山口県,下関市,春日町,ヤマグチケン,シモノセキシ,カスガチョウ,山口県下関市春日町
7500032,山口県,下関市,関西町,ヤマグチケン,シモノセキシ,カンセイチョウ,山口県下関市関西町
7500033,山口県,下関市,山手町,ヤマグチケン,シモノセキシ,ヤマテチョウ,山口県下関市山手町
7500034,山口県,下関市,西神田町,ヤマグチケン,シモノセキシ,ニシカンダチョウ,山口県下関市西神田町
7500035,山口県,下関市,桜山町,ヤマグチケン,シモノセキシ,サクラヤマチョウ,山口県下関市桜山町
7500036,山口県,下関市,あるかぽーと,ヤマグチケン,シモノセキシ,アルカポート,山口県下関市あるかぽーと
7500041,山口県,下関市,向洋町,ヤマグチケン,シモノセキシ,コウヨウチョウ,山口県下関市向洋町
7500042,山口県,下関市,中央町,ヤマグチケン,シモノセキシ,チュウオウチョウ,山口県下関市中央町
7500043,山口県,下関市,東神田町,ヤマグチケン,シモノセキシ,ヒガシカンダチョウ,山口県下関市東神田町
7500044,山口県,下関市,神田町,ヤマグチケン,シモノセキシ,カンダチョウ,山口県下関市神田町
7500045,山口県,下関市,元町,ヤマグチケン,シモノセキシ,モトマチ,山口県下関市元町
7500046,山口県,下関市,羽山町,ヤマグチケン,シモノセキシ,ハヤマチョウ,山口県下関市羽山町
7500047,山口県,下関市,向山町,ヤマグチケン,シモノセキシ,ムカイヤマチョウ,山口県下関市向山町
7500048,山口県,下関市,東向山町,ヤマグチケン,シモノセキシ,ヒガシムカイヤマチョウ,山口県下関市東向山町
7500049,山口県,下関市,栄町,ヤマグチケン,シモノセキシ,サカエマチ,山口県下関市栄町
7500051,山口県,下関市,大坪本町,ヤマグチケン,シモノセキシ,オオツボホンマチ,山口県下関市大坪本町
7500052,山口県,下関市,藤附町,ヤマグチケン,シモノセキシ,フジツクチョウ,山口県下関市藤附町
7500053,山口県,下関市,大平町,ヤマグチケン,シモノセキシ,タイヘイチョウ,山口県下関市大平町
7500054,山口県,下関市,西大坪町,ヤマグチケン,シモノセキシ,ニシオオツボチョウ,山口県下関市西大坪町
7500055,山口県,下関市,南大坪町,ヤマグチケン,シモノセキシ,ミナミオオツボチョウ,山口県下関市南大坪町
7500056,山口県,下関市,筋ケ浜町,ヤマグチケン,シモノセキシ,スジガハマチョウ,山口県下関市筋ケ浜町
7500057,山口県,下関市,筋川町,ヤマグチケン,シモノセキシ,スジカワチョウ,山口県下関市筋川町
7500058,山口県,下関市,金比羅町,ヤマグチケン,シモノセキシ,コンピラチョウ,山口県下関市金比羅町
7500059,山口県,下関市,汐入町,ヤマグチケン,シモノセキシ,シオイリチョウ,山口県下関市汐入町
7500061,山口県,下関市,上新地町,ヤマグチケン,シモノセキシ,カミシンチチョウ,山口県下関市上新地町
7500062,山口県,下関市,新地西町,ヤマグチケン,シモノセキシ,シンチニシマチ,山口県下関市新地西町
7500063,山口県,下関市,新地町,ヤマグチケン,シモノセキシ,シンチチョウ,山口県下関市新地町
7500064,山口県,下関市,今浦町,ヤマグチケン,シモノセキシ,イマウラチョウ,山口県下関市今浦町
7500065,山口県,下関市,伊崎町,ヤマグチケン,シモノセキシ,イザキチョウ,山口県下関市伊崎町
7500066,山口県,下関市,東大和町,ヤマグチケン,シモノセキシ,ヒガシヤマトマチ,山口県下関市東大和町
7500067,山口県,下関市,大和町,ヤマグチケン,シモノセキシ,ヤマトマチ,山口県下関市大和町
7500071,山口県,下関市,彦島海士郷町,ヤマグチケン,シモノセキシ,ヒコシマアマノゴウチョウ,山口県下関市彦島海士郷町
7500072,山口県,下関市,彦島老町,ヤマグチケン,シモノセキシ,ヒコシマオイマチ,山口県下関市彦島老町
7500073,山口県,下関市,彦島老の山公園,ヤマグチケン,シモノセキシ,ヒコシマオイノヤマコウエン,山口県下関市彦島老の山公園
7500074,山口県,下関市,彦島本村町,ヤマグチケン,シモノセキシ,ヒコシマホンムラチョウ,山口県下関市彦島本村町
7500075,山口県,下関市,彦島江の浦町,ヤマグチケン,シモノセキシ,ヒコシマエノウラチョウ,山口県下関市彦島江の浦町
7500076,山口県,下関市,彦島弟子待町,ヤマグチケン,シモノセキシ,ヒコシマデシマツチョウ,山口県下関市彦島弟子待町
7500077,山口県,下関市,彦島弟子待東町,ヤマグチケン,シモノセキシ,ヒコシマデシマツヒガシマチ,山口県下関市彦島弟子待東町
7500078,山口県,下関市,彦島杉田町,ヤマグチケン,シモノセキシ,ヒコシマスギタチョウ,山口県下関市彦島杉田町
7500081,山口県,下関市,彦島角倉町,ヤマグチケン,シモノセキシ,ヒコシマスマクラチョウ,山口県下関市彦島角倉町
7500082,山口県,下関市,彦島山中町,ヤマグチケン,シモノセキシ,ヒコシマヤマナカチョウ,山口県下関市彦島山中町
7500083,山口県,下関市,彦島桜ケ丘町,ヤマグチケン,シモノセキシ,ヒコシマサクラガオカチョウ,山口県下関市彦島桜ケ丘町
7500084,山口県,下関市,彦島向井町,ヤマグチケン,シモノセキシ,ヒコシマムカイチョウ,山口県下関市彦島向井町
7500085,山口県,下関市,彦島田の首町,ヤマグチケン,シモノセキシ,ヒコシマタノクビチョウ,山口県下関市彦島田の首町
7500086,山口県,下関市,彦島塩浜町,ヤマグチケン,シモノセキシ,ヒコシマシオハマチョウ,山口県下関市彦島塩浜町
7500087,山口県,下関市,彦島福浦町,ヤマグチケン,シモノセキシ,ヒコシマフクウラチョウ,山口県下関市彦島福浦町
7500091,山口県,下関市,彦島緑町,ヤマグチケン,シモノセキシ,ヒコシマミドリチョウ,山口県下関市彦島緑町
7500092,山口県,下関市,彦島迫町,ヤマグチケン,シモノセキシ,ヒコシマサコマチ,山口県下関市彦島迫町
7500093,山口県,下関市,彦島西山町,ヤマグチケン,シモノセキシ,ヒコシマニシヤマチョウ,山口県下関市彦島西山町
7500094,山口県,下関市,彦島竹ノ子島町,ヤマグチケン,シモノセキシ,ヒコシマタケノコジマチョウ,山口県下関市彦島竹ノ子島町
7500095,山口県,下関市,六連島,ヤマグチケン,シモノセキシ,ムツレジマ,山口県下関市六連島
7500251,山口県,下関市,植田,ヤマグチケン,シモノセキシ,ウエダ,山口県下関市植田
7500252,山口県,下関市,内日上,ヤマグチケン,シモノセキシ,ウツイカミ,山口県下関市内日上
7500253,山口県,下関市,内日下,ヤマグチケン,シモノセキシ,ウツイシモ,山口県下関市内日下
7500301,山口県,下関市,菊川町西中山,ヤマグチケン,シモノセキシ,キクガワチョウニシナカヤマ,山口県下関市菊川町西中山
7500302,山口県,下関市,菊川町東中山,ヤマグチケン,シモノセキシ,キクガワチョウヒガシナカヤマ,山口県下関市菊川町東中山
7500303,山口県,下関市,菊川町樅ノ木,ヤマグチケン,シモノセキシ,キクガワチョウモミノキ,山口県下関市菊川町樅ノ木
7500304,山口県,下関市,菊川町道市,ヤマグチケン,シモノセキシ,キクガワチョウミチイチ,山口県下関市菊川町道市
7500305,山口県,下関市,菊川町轡井,ヤマグチケン,シモノセキシ,キクガワチョウクツワイ,山口県下関市菊川町轡井
7500306,山口県,下関市,菊川町下保木,ヤマグチケン,シモノセキシ,キクガワチョウシモホキ,山口県下関市菊川町下保木
7500307,山口県,下関市,菊川町上保木,ヤマグチケン,シモノセキシ,キクガワチョウカミホキ,山口県下関市菊川町上保木
7500311,山口県,下関市,菊川町上大野,ヤマグチケン,シモノセキシ,キクガワチョウカミオオノ,山口県下関市菊川町上大野
7500312,山口県,下関市,菊川町下大野,ヤマグチケン,シモノセキシ,キクガワチョウシモオオノ,山口県下関市菊川町下大野
7500313,山口県,下関市,菊川町田部,ヤマグチケン,シモノセキシ,キクガワチョウタベ,山口県下関市菊川町田部
7500314,山口県,下関市,菊川町上田部,ヤマグチケン,シモノセキシ,キクガワチョウカミタベ,山口県下関市菊川町上田部
7500315,山口県,下関市,菊川町七見,ヤマグチケン,シモノセキシ,キクガワチョウナナミ,山口県下関市菊川町七見
7500316,山口県,下関市,菊川町吉賀,ヤマグチケン,シモノセキシ,キクガワチョウヨシカ,山口県下関市菊川町吉賀
7500317,山口県,下関市,菊川町下岡枝,ヤマグチケン,シモノセキシ,キクガワチョウシモオカエダ,山口県下関市菊川町下岡枝
7500321,山口県,下関市,菊川町上岡枝,ヤマグチケン,シモノセキシ,キクガワチョウカミオカエダ,山口県下関市菊川町上岡枝
7500322,山口県,下関市,菊川町楢崎,ヤマグチケン,シモノセキシ,キクガワチョウナラザキ,山口県下関市菊川町楢崎
7500323,山口県,下関市,菊川町日新,ヤマグチケン,シモノセキシ,キクガワチョウニッシン,山口県下関市菊川町日新
7500324,山口県,下関市,菊川町久野,ヤマグチケン,シモノセキシ,キクガワチョウクノ,山口県下関市菊川町久野
7500325,山口県,下関市,菊川町貴飯,ヤマグチケン,シモノセキシ,キクガワチョウキバ,山口県下関市菊川町貴飯
7500401,山口県,下関市,豊田町殿居,ヤマグチケン,シモノセキシ,トヨタチョウトノイ,山口県下関市豊田町殿居
7500402,山口県,下関市,豊田町佐野,ヤマグチケン,シモノセキシ,トヨタチョウサノ,山口県下関市豊田町佐野
7500403,山口県,下関市,豊田町一ノ俣,ヤマグチケン,シモノセキシ,トヨタチョウイチノマタ,山口県下関市豊田町一ノ俣
7500404,山口県,下関市,豊田町荒木,ヤマグチケン,シモノセキシ,トヨタチョウアラキ,山口県下関市豊田町荒木
7500405,山口県,下関市,豊田町杢路子,ヤマグチケン,シモノセキシ,トヨタチョウムクロウジ,山口県下関市豊田町杢路子
7500411,山口県,下関市,豊田町宇内,ヤマグチケン,シモノセキシ,トヨタチョウウナイ,山口県下関市豊田町宇内
7500412,山口県,下関市,豊田町稲見,ヤマグチケン,シモノセキシ,トヨタチョウイナミ,山口県下関市豊田町稲見
7500413,山口県,下関市,豊田町金道,ヤマグチケン,シモノセキシ,トヨタチョウキンドウ,山口県下関市豊田町金道
7500414,山口県,下関市,豊田町八道,ヤマグチケン,シモノセキシ,トヨタチョウヤジ,山口県下関市豊田町八道
7500415,山口県,下関市,豊田町浮石,ヤマグチケン,シモノセキシ,トヨタチョウウキイシ,山口県下関市豊田町浮石
7500416,山口県,下関市,豊田町鷹子,ヤマグチケン,シモノセキシ,トヨタチョウタカノコ,山口県下関市豊田町鷹子
7500421,山口県,下関市,豊田町殿敷,ヤマグチケン,シモノセキシ,トヨタチョウトノシキ,山口県下関市豊田町殿敷
7500422,山口県,下関市,豊田町楢原,ヤマグチケン,シモノセキシ,トヨタチョウナラワラ,山口県下関市豊田町楢原
7500423,山口県,下関市,豊田町西市,ヤマグチケン,シモノセキシ,トヨタチョウニシイチ,山口県下関市豊田町西市
7500424,山口県,下関市,豊田町矢田,ヤマグチケン,シモノセキシ,トヨタチョウヤタ,山口県下関市豊田町矢田
7500425,山口県,下関市,豊田町庭田,ヤマグチケン,シモノセキシ,トヨタチョウニワタ,山口県下関市豊田町庭田
7500431,山口県,下関市,豊田町今出,ヤマグチケン,シモノセキシ,トヨタチョウイマデ,山口県下関市豊田町今出
7500432,山口県,下関市,豊田町地吉,ヤマグチケン,シモノセキシ,トヨタチョウジヨシ,山口県下関市豊田町地吉
7500433,山口県,下関市,豊田町大河内,ヤマグチケン,シモノセキシ,トヨタチョウオオカワチ,山口県下関市豊田町大河内
7500441,山口県,下関市,豊田町中村,ヤマグチケン,シモノセキシ,トヨタチョウナカムラ,山口県下関市豊田町中村
7500442,山口県,下関市,豊田町稲光,ヤマグチケン,シモノセキシ,トヨタチョウイナミツ,山口県下関市豊田町稲光
7500443,山口県,下関市,豊田町日野,ヤマグチケン,シモノセキシ,トヨタチョウヒノ,山口県下関市豊田町日野
7500444,山口県,下関市,豊田町萩原,ヤマグチケン,シモノセキシ,トヨタチョウハギワラ,山口県下関市豊田町萩原
7500445,山口県,下関市,豊田町東長野,ヤマグチケン,シモノセキシ,トヨタチョウヒガシナガノ,山口県下関市豊田町東長野
7500446,山口県,下関市,豊田町高山,ヤマグチケン,シモノセキシ,トヨタチョウタカヤマ,山口県下関市豊田町高山
7500451,山口県,下関市,豊田町阿座上,ヤマグチケン,シモノセキシ,トヨタチョウアザカミ,山口県下関市豊田町阿座上
7500452,山口県,下関市,豊田町江良,ヤマグチケン,シモノセキシ,トヨタチョウエラ,山口県下関市豊田町江良
7500453,山口県,下関市,豊田町手洗,ヤマグチケン,シモノセキシ,トヨタチョウタライ,山口県下関市豊田町手洗
7500454,山口県,下関市,豊田町西長野,ヤマグチケン,シモノセキシ,トヨタチョウニシナガノ,山口県下関市豊田町西長野
7500455,山口県,下関市,豊田町城戸,ヤマグチケン,シモノセキシ,トヨタチョウキド,山口県下関市豊田町城戸
7500601,山口県,美祢市,豊田前町麻生上,ヤマグチケン,ミネシ,トヨタマエチョウアソウカミ,山口県美祢市豊田前町麻生上
7500602,山口県,美祢市,豊田前町麻生下,ヤマグチケン,ミネシ,トヨタマエチョウアソウシモ,山口県美祢市豊田前町麻生下
7500603,山口県,美祢市,豊田前町今山,ヤマグチケン,ミネシ,トヨタマエチョウイマヤマ,山口県美祢市豊田前町今山
7500604,山口県,美祢市,豊田前町保々,ヤマグチケン,ミネシ,トヨタマエチョウホウホウ,山口県美祢市豊田前町保々
7500605,山口県,美祢市,豊田前町古烏帽子,ヤマグチケン,ミネシ,トヨタマエチョウフルエボシ,山口県美祢市豊田前町古烏帽子
7500606,山口県,美祢市,豊田前町嶽,ヤマグチケン,ミネシ,トヨタマエチョウダケ,山口県美祢市豊田前町嶽
7501101,山口県,下関市,吉田,ヤマグチケン,シモノセキシ,ヨシダ,山口県下関市吉田
7501102,山口県,下関市,吉田地方,ヤマグチケン,シモノセキシ,ヨシダジカタ,山口県下関市吉田地方
7501111,山口県,下関市,宇津井,ヤマグチケン,シモノセキシ,ウヅイ,山口県下関市宇津井
7501112,山口県,下関市,木屋川本町,ヤマグチケン,シモノセキシ,コヤガワホンマチ,山口県下関市木屋川本町
7501113,山口県,下関市,木屋川南町,ヤマグチケン,シモノセキシ,コヤガワミナミマチ,山口県下関市木屋川南町
7501114,山口県,下関市,王喜本町,ヤマグチケン,シモノセキシ,オウキホンマチ,山口県下関市王喜本町
7501115,山口県,下関市,王喜宇津井,ヤマグチケン,シモノセキシ,オウキウヅイ,山口県下関市王喜宇津井
7501116,山口県,下関市,白崎,ヤマグチケン,シモノセキシ,シラサキ,山口県下関市白崎
7501121,山口県,下関市,松屋,ヤマグチケン,シモノセキシ,マツヤ,山口県下関市松屋
7501122,山口県,下関市,松屋上町,ヤマグチケン,シモノセキシ,マツヤカミマチ,山口県下関市松屋上町
7501123,山口県,下関市,松屋東町,ヤマグチケン,シモノセキシ,マツヤヒガシマチ,山口県下関市松屋東町
7501124,山口県,下関市,松屋本町,ヤマグチケン,シモノセキシ,マツヤホンマチ,山口県下関市松屋本町
7501131,山口県,下関市,小月町,ヤマグチケン,シモノセキシ,オヅキチョウ,山口県下関市小月町
7501132,山口県,下関市,小月宮の町,ヤマグチケン,シモノセキシ,オヅキミヤノマチ,山口県下関市小月宮の町
7501133,山口県,下関市,小月高雄町,ヤマグチケン,シモノセキシ,オヅキタカオチョウ,山口県下関市小月高雄町
7501134,山口県,下関市,小月京泊,ヤマグチケン,シモノセキシ,オヅキキョウドマリ,山口県下関市小月京泊
7501135,山口県,下関市,小月西の台,ヤマグチケン,シモノセキシ,オヅキニシノダイ,山口県下関市小月西の台
7501136,山口県,下関市,小月小島,ヤマグチケン,シモノセキシ,オヅキコジマ,山口県下関市小月小島
7501137,山口県,下関市,小月南町,ヤマグチケン,シモノセキシ,オヅキミナミマチ,山口県下関市小月南町
7501141,山口県,下関市,小月幸町,ヤマグチケン,シモノセキシ,オヅキサイワイマチ,山口県下関市小月幸町
7501142,山口県,下関市,小月本町,ヤマグチケン,シモノセキシ,オヅキホンマチ,山口県下関市小月本町
7501143,山口県,下関市,小月駅前,ヤマグチケン,シモノセキシ,オヅキエキマエ,山口県下関市小月駅前
7501144,山口県,下関市,小月茶屋,ヤマグチケン,シモノセキシ,オヅキチャヤ,山口県下関市小月茶屋
7501145,山口県,下関市,小月杉迫,ヤマグチケン,シモノセキシ,オヅキスギサコ,山口県下関市小月杉迫
7501146,山口県,下関市,小月公園町,ヤマグチケン,シモノセキシ,オヅキコウエンチョウ,山口県下関市小月公園町
7501147,山口県,下関市,小月市原町,ヤマグチケン,シモノセキシ,オヅキイチハラチョウ,山口県下関市小月市原町
7501151,山口県,下関市,清末,ヤマグチケン,シモノセキシ,キヨスエ,山口県下関市清末
7501152,山口県,下関市,清末陣屋,ヤマグチケン,シモノセキシ,キヨスエジンヤ,山口県下関市清末陣屋
7501153,山口県,下関市,清末鞍馬,ヤマグチケン,シモノセキシ,キヨスエクラマ,山口県下関市清末鞍馬
7501154,山口県,下関市,清末本町,ヤマグチケン,シモノセキシ,キヨスエホンマチ,山口県下関市清末本町
7501155,山口県,下関市,清末中町,ヤマグチケン,シモノセキシ,キヨスエナカマチ,山口県下関市清末中町
7501156,山口県,下関市,清末東町,ヤマグチケン,シモノセキシ,キヨスエヒガシマチ,山口県下関市清末東町
7501161,山口県,下関市,清末西町,ヤマグチケン,シモノセキシ,キヨスエニシマチ,山口県下関市清末西町
7501162,山口県,下関市,清末五毛,ヤマグチケン,シモノセキシ,キヨスエゴモウ,山口県下関市清末五毛
7501163,山口県,下関市,清末千房,ヤマグチケン,シモノセキシ,キヨスエセンボウ,山口県下関市清末千房
7501164,山口県,下関市,清末大門,ヤマグチケン,シモノセキシ,キヨスエダイモン,山口県下関市清末大門
7501171,山口県,下関市,阿内,ヤマグチケン,シモノセキシ,オウチ,山口県下関市阿内
7510801,山口県,下関市,勝谷,ヤマグチケン,シモノセキシ,ショウヤ,山口県下関市勝谷
7510802,山口県,下関市,勝谷新町,ヤマグチケン,シモノセキシ,ショウヤシンマチ,山口県下関市勝谷新町
7510803,山口県,下関市,前勝谷町,ヤマグチケン,シモノセキシ,マエショウヤチョウ,山口県下関市前勝谷町
7510804,山口県,下関市,楠乃,ヤマグチケン,シモノセキシ,クスノ,山口県下関市楠乃
7510805,山口県,下関市,一の宮住吉,ヤマグチケン,シモノセキシ,イチノミヤスミヨシ,山口県下関市一の宮住吉
7510806,山口県,下関市,一の宮町,ヤマグチケン,シモノセキシ,イチノミヤチョウ,山口県下関市一の宮町
7510807,山口県,下関市,一の宮学園町,ヤマグチケン,シモノセキシ,イチノミヤガクエンチョウ,山口県下関市一の宮学園町
7510808,山口県,下関市,一の宮本町,ヤマグチケン,シモノセキシ,イチノミヤホンマチ,山口県下関市一の宮本町
7510809,山口県,下関市,一の宮東町,ヤマグチケン,シモノセキシ,イチノミヤヒガシマチ,山口県下関市一の宮東町
7510811,山口県,下関市,藤ケ谷町,ヤマグチケン,シモノセキシ,フジガタニチョウ,山口県下関市藤ケ谷町
7510812,山口県,下関市,椋野上町,ヤマグチケン,シモノセキシ,ムクノカミマチ,山口県下関市椋野上町
7510813,山口県,下関市,みもすそ川町,ヤマグチケン,シモノセキシ,ミモスソガワチョウ,山口県下関市みもすそ川町
7510814,山口県,下関市,壇之浦町,ヤマグチケン,シモノセキシ,ダンノウラチョウ,山口県下関市壇之浦町
7510815,山口県,下関市,本町,ヤマグチケン,シモノセキシ,ホンマチ,山口県下関市本町
7510816,山口県,下関市,椋野町,ヤマグチケン,シモノセキシ,ムクノチョウ,山口県下関市椋野町
7510817,山口県,下関市,一の宮卸本町,ヤマグチケン,シモノセキシ,イチノミヤオロシホンマチ,山口県下関市一の宮卸本町
7510818,山口県,下関市,卸新町,ヤマグチケン,シモノセキシ,オロシシンマチ,山口県下関市卸新町
7510819,山口県,下関市,武久西原台,ヤマグチケン,シモノセキシ,タケヒサニシハラダイ,山口県下関市武久西原台
7510820,山口県,下関市,新椋野,ヤマグチケン,シモノセキシ,シンムクノ,山口県下関市新椋野
7510821,山口県,下関市,三河町,ヤマグチケン,シモノセキシ,ミカワチョウ,山口県下関市三河町
7510822,山口県,下関市,宝町,ヤマグチケン,シモノセキシ,タカラマチ,山口県下関市宝町
7510823,山口県,下関市,貴船町,ヤマグチケン,シモノセキシ,キブネマチ,山口県下関市貴船町
7510824,山口県,下関市,山の口町,ヤマグチケン,シモノセキシ,ヤマノクチチョウ,山口県下関市山の口町
7510825,山口県,下関市,石神町,ヤマグチケン,シモノセキシ,イシガミチョウ,山口県下関市石神町
7510826,山口県,下関市,後田町,ヤマグチケン,シモノセキシ,ウシロダチョウ,山口県下関市後田町
7510827,山口県,下関市,幡生本町,ヤマグチケン,シモノセキシ,ハタブホンマチ,山口県下関市幡生本町
7510828,山口県,下関市,幡生町,ヤマグチケン,シモノセキシ,ハタブチョウ,山口県下関市幡生町
7510829,山口県,下関市,幡生宮の下町,ヤマグチケン,シモノセキシ,ハタブミヤノシタチョウ,山口県下関市幡生宮の下町
7510830,山口県,下関市,幡生新町,ヤマグチケン,シモノセキシ,ハタブシンマチ,山口県下関市幡生新町
7510831,山口県,下関市,大学町,ヤマグチケン,シモノセキシ,ダイガクチョウ,山口県下関市大学町
7510832,山口県,下関市,生野町,ヤマグチケン,シモノセキシ,イクノチョウ,山口県下関市生野町
7510833,山口県,下関市,武久町,ヤマグチケン,シモノセキシ,タケヒサチョウ,山口県下関市武久町
7510834,山口県,下関市,山の田東町,ヤマグチケン,シモノセキシ,ヤマノタヒガシマチ,山口県下関市山の田東町
7510835,山口県,下関市,山の田南町,ヤマグチケン,シモノセキシ,ヤマノタミナミマチ,山口県下関市山の田南町
7510836,山口県,下関市,山の田西町,ヤマグチケン,シモノセキシ,ヤマノタニシマチ,山口県下関市山の田西町
7510837,山口県,下関市,山の田中央町,ヤマグチケン,シモノセキシ,ヤマノタチュウオウチョウ,山口県下関市山の田中央町
7510838,山口県,下関市,山の田本町,ヤマグチケン,シモノセキシ,ヤマノタホンマチ,山口県下関市山の田本町
7510839,山口県,下関市,山の田北町,ヤマグチケン,シモノセキシ,ヤマノタキタマチ,山口県下関市山の田北町
7510840,山口県,下関市,長州出島,ヤマグチケン,シモノセキシ,チョウシュウデジマ,山口県下関市長州出島
7510841,山口県,下関市,垢田町,ヤマグチケン,シモノセキシ,アカダチョウ,山口県下関市垢田町
7510842,山口県,下関市,新垢田南町,ヤマグチケン,シモノセキシ,シンアカダミナミマチ,山口県下関市新垢田南町
7510843,山口県,下関市,新垢田東町,ヤマグチケン,シモノセキシ,シンアカダヒガシマチ,山口県下関市新垢田東町
7510844,山口県,下関市,新垢田西町,ヤマグチケン,シモノセキシ,シンアカダニシマチ,山口県下関市新垢田西町
7510845,山口県,下関市,新垢田北町,ヤマグチケン,シモノセキシ,シンアカダキタマチ,山口県下関市新垢田北町
7510846,山口県,下関市,垢田,ヤマグチケン,シモノセキシ,アカダ,山口県下関市垢田
7510847,山口県,下関市,古屋町,ヤマグチケン,シモノセキシ,フルヤチョウ,山口県下関市古屋町
7510848,山口県,下関市,綾羅木南町,ヤマグチケン,シモノセキシ,アヤラギミナミマチ,山口県下関市綾羅木南町
7510849,山口県,下関市,綾羅木本町,ヤマグチケン,シモノセキシ,アヤラギホンマチ,山口県下関市綾羅木本町
7510851,山口県,下関市,熊野西町,ヤマグチケン,シモノセキシ,クマノニシマチ,山口県下関市熊野西町
7510852,山口県,下関市,熊野町,ヤマグチケン,シモノセキシ,クマノチョウ,山口県下関市熊野町
7510853,山口県,下関市,川中豊町,ヤマグチケン,シモノセキシ,カワナカユタカマチ,山口県下関市川中豊町
7510854,山口県,下関市,稗田南町,ヤマグチケン,シモノセキシ,ヒエダミナミマチ,山口県下関市稗田南町
7510855,山口県,下関市,稗田西町,ヤマグチケン,シモノセキシ,ヒエダニシマチ,山口県下関市稗田西町
7510856,山口県,下関市,稗田中町,ヤマグチケン,シモノセキシ,ヒエダナカマチ,山口県下関市稗田中町
7510857,山口県,下関市,稗田北町,ヤマグチケン,シモノセキシ,ヒエダキタマチ,山口県下関市稗田北町
7510858,山口県,下関市,稗田町,ヤマグチケン,シモノセキシ,ヒエダチョウ,山口県下関市稗田町
7510859,山口県,下関市,川中本町,ヤマグチケン,シモノセキシ,カワナカホンマチ,山口県下関市川中本町
7510861,山口県,下関市,伊倉東町,ヤマグチケン,シモノセキシ,イクラヒガシマチ,山口県下関市伊倉東町
7510862,山口県,下関市,伊倉,ヤマグチケン,シモノセキシ,イクラ,山口県下関市伊倉
7510863,山口県,下関市,伊倉本町,ヤマグチケン,シモノセキシ,イクラホンマチ,山口県下関市伊倉本町
7510864,山口県,下関市,伊倉町,ヤマグチケン,シモノセキシ,イクラチョウ,山口県下関市伊倉町
7510865,山口県,下関市,綾羅木新町,ヤマグチケン,シモノセキシ,アヤラギシンマチ,山口県下関市綾羅木新町
7510866,山口県,下関市,綾羅木,ヤマグチケン,シモノセキシ,アヤラギ,山口県下関市綾羅木
7510867,山口県,下関市,延行,ヤマグチケン,シモノセキシ,ノブユキ,山口県下関市延行
7510868,山口県,下関市,有冨,ヤマグチケン,シモノセキシ,アリドミ,山口県下関市有冨
7510869,山口県,下関市,伊倉新町,ヤマグチケン,シモノセキシ,イクラシンマチ,山口県下関市伊倉新町
7510871,山口県,下関市,秋根,ヤマグチケン,シモノセキシ,アキネ,山口県下関市秋根
7510872,山口県,下関市,秋根南町,ヤマグチケン,シモノセキシ,アキネミナミマチ,山口県下関市秋根南町
7510873,山口県,下関市,秋根西町,ヤマグチケン,シモノセキシ,アキネニシマチ,山口県下関市秋根西町
7510874,山口県,下関市,秋根新町,ヤマグチケン,シモノセキシ,アキネシンマチ,山口県下関市秋根新町
7510875,山口県,下関市,秋根本町,ヤマグチケン,シモノセキシ,アキネホンマチ,山口県下関市秋根本町
7510876,山口県,下関市,秋根北町,ヤマグチケン,シモノセキシ,アキネキタマチ,山口県下関市秋根北町
7510877,山口県,下関市,秋根東町,ヤマグチケン,シモノセキシ,アキネヒガシマチ,山口県下関市秋根東町
7510878,山口県,下関市,秋根上町,ヤマグチケン,シモノセキシ,アキネカミマチ,山口県下関市秋根上町
7510879,山口県,下関市,東勝谷,ヤマグチケン,シモノセキシ,ヒガシショウヤ,山口県下関市東勝谷
7510881,山口県,下関市,井田,ヤマグチケン,シモノセキシ,イダ,山口県下関市井田
7510882,山口県,下関市,田倉御殿町,ヤマグチケン,シモノセキシ,タクラゴテンマチ,山口県下関市田倉御殿町
7510883,山口県,下関市,田倉,ヤマグチケン,シモノセキシ,タクラ,山口県下関市田倉
7510884,山口県,下関市,形山,ヤマグチケン,シモノセキシ,カタチヤマ,山口県下関市形山
7510885,山口県,下関市,形山みどり町,ヤマグチケン,シモノセキシ,カタチヤマミドリマチ,山口県下関市形山みどり町
7510886,山口県,下関市,石原,ヤマグチケン,シモノセキシ,イシハラ,山口県下関市石原
7510887,山口県,下関市,小野,ヤマグチケン,シモノセキシ,オノ,山口県下関市小野
7510888,山口県,下関市,形山町,ヤマグチケン,シモノセキシ,カタチヤマチョウ,山口県下関市形山町
7520901,山口県,下関市,山田,ヤマグチケン,シモノセキシ,ヤマダ,山口県下関市山田
7520902,山口県,下関市,赤池町,ヤマグチケン,シモノセキシ,アカイケチョウ,山口県下関市赤池町
7520903,山口県,下関市,員光町,ヤマグチケン,シモノセキシ,カズミツチョウ,山口県下関市員光町
7520904,山口県,下関市,員光,ヤマグチケン,シモノセキシ,カズミツ,山口県下関市員光
7520905,山口県,下関市,西観音町,ヤマグチケン,シモノセキシ,ニシカンノンチョウ,山口県下関市西観音町
7520906,山口県,下関市,東観音町,ヤマグチケン,シモノセキシ,ヒガシカンノンチョウ,山口県下関市東観音町
7520907,山口県,下関市,神田,ヤマグチケン,シモノセキシ,カンダ,山口県下関市神田
7520911,山口県,下関市,王司神田,ヤマグチケン,シモノセキシ,オウジカンダ,山口県下関市王司神田
7520912,山口県,下関市,王司川端,ヤマグチケン,シモノセキシ,オウジカワバタ,山口県下関市王司川端
7520913,山口県,下関市,乃木浜,ヤマグチケン,シモノセキシ,ノギハマ,山口県下関市乃木浜
7520914,山口県,下関市,千鳥浜町,ヤマグチケン,シモノセキシ,チドリハマチョウ,山口県下関市千鳥浜町
7520915,山口県,下関市,王司本町,ヤマグチケン,シモノセキシ,オウジホンマチ,山口県下関市王司本町
7520916,山口県,下関市,王司上町,ヤマグチケン,シモノセキシ,オウジカミマチ,山口県下関市王司上町
7520921,山口県,下関市,才川,ヤマグチケン,シモノセキシ,サイガワ,山口県下関市才川
7520922,山口県,下関市,千鳥ケ丘町,ヤマグチケン,シモノセキシ,チドリガオカチョウ,山口県下関市千鳥ケ丘町
7520923,山口県,下関市,宇部,ヤマグチケン,シモノセキシ,ウベ,山口県下関市宇部
7520924,山口県,下関市,王司南町,ヤマグチケン,シモノセキシ,オウジミナミマチ,山口県下関市王司南町
7520925,山口県,下関市,亀浜町,ヤマグチケン,シモノセキシ,カメハマチョウ,山口県下関市亀浜町
7520926,山口県,下関市,ゆめタウン,ヤマグチケン,シモノセキシ,ユメタウン,山口県下関市ゆめタウン
7520927,山口県,下関市,長府扇町,ヤマグチケン,シモノセキシ,チョウフオオギマチ,山口県下関市長府扇町
7520928,山口県,下関市,長府才川,ヤマグチケン,シモノセキシ,チョウフサイガワ,山口県下関市長府才川
7520931,山口県,下関市,松小田,ヤマグチケン,シモノセキシ,マツオダ,山口県下関市松小田
7520932,山口県,下関市,長府松小田北町,ヤマグチケン,シモノセキシ,チョウフマツオダキタマチ,山口県下関市長府松小田北町
7520933,山口県,下関市,長府松小田本町,ヤマグチケン,シモノセキシ,チョウフマツオダホンマチ,山口県下関市長府松小田本町
7520934,山口県,下関市,長府松小田東町,ヤマグチケン,シモノセキシ,チョウフマツオダヒガシマチ,山口県下関市長府松小田東町
7520935,山口県,下関市,長府松小田中町,ヤマグチケン,シモノセキシ,チョウフマツオダナカマチ,山口県下関市長府松小田中町
7520936,山口県,下関市,長府松小田南町,ヤマグチケン,シモノセキシ,チョウフマツオダミナミマチ,山口県下関市長府松小田南町
7520937,山口県,下関市,長府松小田西町,ヤマグチケン,シモノセキシ,チョウフマツオダニシマチ,山口県下関市長府松小田西町
7520941,山口県,下関市,長府新四王司町,ヤマグチケン,シモノセキシ,チョウフシンシオウジチョウ,山口県下関市長府新四王司町
7520942,山口県,下関市,長府四王司町,ヤマグチケン,シモノセキシ,チョウフシオウジチョウ,山口県下関市長府四王司町
7520943,山口県,下関市,長府豊城町,ヤマグチケン,シモノセキシ,チョウフホウジョウチョウ,山口県下関市長府豊城町
7520944,山口県,下関市,長府中六波町,ヤマグチケン,シモノセキシ,チョウフナカロッパチョウ,山口県下関市長府中六波町
7520945,山口県,下関市,長府豊浦町,ヤマグチケン,シモノセキシ,チョウフトヨラチョウ,山口県下関市長府豊浦町
7520946,山口県,下関市,長府中尾町,ヤマグチケン,シモノセキシ,チョウフナカオチョウ,山口県下関市長府中尾町
7520947,山口県,下関市,長府満珠町,ヤマグチケン,シモノセキシ,チョウフマンジュチョウ,山口県下関市長府満珠町
7520948,山口県,下関市,長府満珠新町,ヤマグチケン,シモノセキシ,チョウフマンジュシンマチ,山口県下関市長府満珠新町
7520951,山口県,下関市,長府日の出町,ヤマグチケン,シモノセキシ,チョウフヒノデチョウ,山口県下関市長府日の出町
7520952,山口県,下関市,長府江下町,ヤマグチケン,シモノセキシ,チョウフエゲマチ,山口県下関市長府江下町
7520953,山口県,下関市,長府港町,ヤマグチケン,シモノセキシ,チョウフミナトマチ,山口県下関市長府港町
7520954,山口県,下関市,長府古城町,ヤマグチケン,シモノセキシ,チョウフコジョウチョウ,山口県下関市長府古城町
7520955,山口県,下関市,長府八幡町,ヤマグチケン,シモノセキシ,チョウフヤハタチョウ,山口県下関市長府八幡町
7520956,山口県,下関市,長府前八幡町,ヤマグチケン,シモノセキシ,チョウフマエヤハタチョウ,山口県下関市長府前八幡町
7520957,山口県,下関市,長府印内町,ヤマグチケン,シモノセキシ,チョウフインナイチョウ,山口県下関市長府印内町
7520958,山口県,下関市,長府金屋浜町,ヤマグチケン,シモノセキシ,チョウフカナヤハマチョウ,山口県下関市長府金屋浜町
7520959,山口県,下関市,長府金屋町,ヤマグチケン,シモノセキシ,チョウフカナヤチョウ,山口県下関市長府金屋町
7520961,山口県,下関市,長府珠の浦町,ヤマグチケン,シモノセキシ,チョウフタマノウラチョウ,山口県下関市長府珠の浦町
7520962,山口県,下関市,長府安養寺,ヤマグチケン,シモノセキシ,チョウフアンヨウジ,山口県下関市長府安養寺
7520963,山口県,下関市,長府中土居北町,ヤマグチケン,シモノセキシ,チョウフナカドイキタマチ,山口県下関市長府中土居北町
7520964,山口県,下関市,長府中土居本町,ヤマグチケン,シモノセキシ,チョウフナカドイホンマチ,山口県下関市長府中土居本町
7520965,山口県,下関市,長府三島町,ヤマグチケン,シモノセキシ,チョウフミシマチョウ,山口県下関市長府三島町
7520966,山口県,下関市,長府亀の甲,ヤマグチケン,シモノセキシ,チョウフカメノコウ,山口県下関市長府亀の甲
7520967,山口県,下関市,長府宮の内町,ヤマグチケン,シモノセキシ,チョウフミヤノウチチョウ,山口県下関市長府宮の内町
7520968,山口県,下関市,長府紺屋町,ヤマグチケン,シモノセキシ,チョウフコンヤチョウ,山口県下関市長府紺屋町
7520970,山口県,下関市,長府惣社町,ヤマグチケン,シモノセキシ,チョウフソウシャマチ,山口県下関市長府惣社町
7520971,山口県,下関市,長府逢坂町,ヤマグチケン,シモノセキシ,チョウフオウサカチョウ,山口県下関市長府逢坂町
7520972,山口県,下関市,長府古江小路町,ヤマグチケン,シモノセキシ,チョウフフルエショウジチョウ,山口県下関市長府古江小路町
7520973,山口県,下関市,長府中之町,ヤマグチケン,シモノセキシ,チョウフナカノチョウ,山口県下関市長府中之町
7520974,山口県,下関市,長府土居の内町,ヤマグチケン,シモノセキシ,チョウフドイノウチチョウ,山口県下関市長府土居の内町
7520975,山口県,下関市,長府中浜町,ヤマグチケン,シモノセキシ,チョウフナカハマチョウ,山口県下関市長府中浜町
7520976,山口県,下関市,長府南之町,ヤマグチケン,シモノセキシ,チョウフミナミノチョウ,山口県下関市長府南之町
7520977,山口県,下関市,長府東侍町,ヤマグチケン,シモノセキシ,チョウフヒガシサムライマチ,山口県下関市長府東侍町
7520978,山口県,下関市,長府侍町,ヤマグチケン,シモノセキシ,チョウフサムライマチ,山口県下関市長府侍町
7520979,山口県,下関市,長府川端,ヤマグチケン,シモノセキシ,チョウフカワバタ,山口県下関市長府川端
7520980,山口県,下関市,長府黒門町,ヤマグチケン,シモノセキシ,チョウフクロモンチョウ,山口県下関市長府黒門町
7520981,山口県,下関市,豊浦村,ヤマグチケン,シモノセキシ,トヨウラムラ,山口県下関市豊浦村
7520982,山口県,下関市,長府新松原町,ヤマグチケン,シモノセキシ,チョウフシンマツバラチョウ,山口県下関市長府新松原町
7520983,山口県,下関市,長府松原町,ヤマグチケン,シモノセキシ,チョウフマツバラチョウ,山口県下関市長府松原町
7520984,山口県,下関市,長府宮崎町,ヤマグチケン,シモノセキシ,チョウフミヤザキチョウ,山口県下関市長府宮崎町
7520985,山口県,下関市,長府外浦町,ヤマグチケン,シモノセキシ,チョウフソトウラチョウ,山口県下関市長府外浦町
7520986,山口県,下関市,長府黒門東町,ヤマグチケン,シモノセキシ,チョウフクロモンヒガシマチ,山口県下関市長府黒門東町
7520987,山口県,下関市,長府羽衣町,ヤマグチケン,シモノセキシ,チョウフハゴロモチョウ,山口県下関市長府羽衣町
7520988,山口県,下関市,長府羽衣南町,ヤマグチケン,シモノセキシ,チョウフハゴロモミナミマチ,山口県下関市長府羽衣南町
7520989,山口県,下関市,長府黒門南町,ヤマグチケン,シモノセキシ,チョウフクロモンミナミマチ,山口県下関市長府黒門南町
7520991,山口県,下関市,高畑,ヤマグチケン,シモノセキシ,タカハタ,山口県下関市高畑
7520992,山口県,下関市,長府野久留米町,ヤマグチケン,シモノセキシ,チョウフノグルメチョウ,山口県下関市長府野久留米町
7520993,山口県,下関市,長府浜浦町,ヤマグチケン,シモノセキシ,チョウフハマウラチョウ,山口県下関市長府浜浦町
7520994,山口県,下関市,長府高場町,ヤマグチケン,シモノセキシ,チョウフタカバチョウ,山口県下関市長府高場町
7520995,山口県,下関市,長府浜浦南町,ヤマグチケン,シモノセキシ,チョウフハマウラミナミマチ,山口県下関市長府浜浦南町
7520996,山口県,下関市,長府向田町,ヤマグチケン,シモノセキシ,チョウフムカイダチョウ,山口県下関市長府向田町
7520997,山口県,下関市,前田,ヤマグチケン,シモノセキシ,マエダ,山口県下関市前田
7520998,山口県,下関市,長府浜浦西町,ヤマグチケン,シモノセキシ,チョウフハマウラニシマチ,山口県下関市長府浜浦西町
7530000,山口県,山口市,,ヤマグチケン,ヤマグチシ,,山口県山口市
7530001,山口県,山口市,宮野上,ヤマグチケン,ヤマグチシ,ミヤノカミ,山口県山口市宮野上
7530011,山口県,山口市,宮野下,ヤマグチケン,ヤマグチシ,ミヤノシモ,山口県山口市宮野下
7530012,山口県,山口市,青葉台,ヤマグチケン,ヤマグチシ,アオバダイ,山口県山口市青葉台
7530015,山口県,山口市,平野,ヤマグチケン,ヤマグチシ,ヒラノ,山口県山口市平野
7530016,山口県,山口市,緑ヶ丘,ヤマグチケン,ヤマグチシ,ミドリガオカ,山口県山口市緑ヶ丘
7530017,山口県,山口市,江良,ヤマグチケン,ヤマグチシ,エラ,山口県山口市江良
7530018,山口県,山口市,七尾台,ヤマグチケン,ヤマグチシ,ナナオダイ,山口県山口市七尾台
7530021,山口県,山口市,桜畠,ヤマグチケン,ヤマグチシ,サクラバタケ,山口県山口市桜畠
7530022,山口県,山口市,折本,ヤマグチケン,ヤマグチシ,オリモト,山口県山口市折本
7530023,山口県,山口市,三の宮,ヤマグチケン,ヤマグチシ,サンノミヤ,山口県山口市三の宮
7530024,山口県,山口市,金古曽町,ヤマグチケン,ヤマグチシ,カナコソチョウ,山口県山口市金古曽町
7530025,山口県,山口市,芝崎町,ヤマグチケン,ヤマグチシ,シバサキチョウ,山口県山口市芝崎町
7530031,山口県,山口市,古熊,ヤマグチケン,ヤマグチシ,フルクマ,山口県山口市古熊
7530032,山口県,山口市,堂の前町,ヤマグチケン,ヤマグチシ,ドウノマエチョウ,山口県山口市堂の前町
7530033,山口県,山口市,大市町,ヤマグチケン,ヤマグチシ,オオイチチョウ,山口県山口市大市町
7530034,山口県,山口市,下竪小路,ヤマグチケン,ヤマグチシ,シモタテコウジ,山口県山口市下竪小路
7530035,山口県,山口市,上竪小路,ヤマグチケン,ヤマグチシ,カミタテコウジ,山口県山口市上竪小路
7530036,山口県,山口市,円政寺,ヤマグチケン,ヤマグチシ,エンセイジ,山口県山口市円政寺
7530036,山口県,山口市,円政寺町,ヤマグチケン,ヤマグチシ,エンセイジチョウ,山口県山口市円政寺町
7530037,山口県,山口市,道祖町,ヤマグチケン,ヤマグチシ,ドウソチョウ,山口県山口市道祖町
7530038,山口県,山口市,石観音町,ヤマグチケン,ヤマグチシ,イシガンノンチョウ,山口県山口市石観音町
7530041,山口県,山口市,東山,ヤマグチケン,ヤマグチシ,ヒガシヤマ,山口県山口市東山
7530042,山口県,山口市,惣太夫町,ヤマグチケン,ヤマグチシ,ソウダユウチョウ,山口県山口市惣太夫町
7530043,山口県,山口市,宮島町,ヤマグチケン,ヤマグチシ,ミヤジマチョウ,山口県山口市宮島町
7530044,山口県,山口市,鰐石町,ヤマグチケン,ヤマグチシ,ワニイシチョウ,山口県山口市鰐石町
7530045,山口県,山口市,黄金町,ヤマグチケン,ヤマグチシ,コガネチョウ,山口県山口市黄金町
7530046,山口県,山口市,本町,ヤマグチケン,ヤマグチシ,ホンマチ,山口県山口市本町
7530047,山口県,山口市,道場門前,ヤマグチケン,ヤマグチシ,ドウジョウモンゼン,山口県山口市道場門前
7530048,山口県,山口市,駅通り,ヤマグチケン,ヤマグチシ,エキドオリ,山口県山口市駅通り
7530051,山口県,山口市,旭通り,ヤマグチケン,ヤマグチシ,アサヒドオリ,山口県山口市旭通り
7530052,山口県,山口市,三和町,ヤマグチケン,ヤマグチシ,サンワチョウ,山口県山口市三和町
7530053,山口県,山口市,松美町,ヤマグチケン,ヤマグチシ,マツミチョウ,山口県山口市松美町
7530054,山口県,山口市,富田原町,ヤマグチケン,ヤマグチシ,トミタバラチョウ,山口県山口市富田原町
7530055,山口県,山口市,今井町,ヤマグチケン,ヤマグチシ,イマイチョウ,山口県山口市今井町
7530056,山口県,山口市,湯田温泉,ヤマグチケン,ヤマグチシ,ユダオンセン,山口県山口市湯田温泉
7530057,山口県,山口市,前町,ヤマグチケン,ヤマグチシ,マエマチ,山口県山口市前町
7530058,山口県,山口市,下市町,ヤマグチケン,ヤマグチシ,シモイチチョウ,山口県山口市下市町
7530061,山口県,山口市,朝倉町,ヤマグチケン,ヤマグチシ,アサクラチョウ,山口県山口市朝倉町
7530062,山口県,山口市,荻町,ヤマグチケン,ヤマグチシ,オギチョウ,山口県山口市荻町
7530063,山口県,山口市,元町,ヤマグチケン,ヤマグチシ,モトマチ,山口県山口市元町
7530064,山口県,山口市,神田町,ヤマグチケン,ヤマグチシ,カンダチョウ,山口県山口市神田町
7530065,山口県,山口市,楠木町,ヤマグチケン,ヤマグチシ,クスノキチョウ,山口県山口市楠木町
7530066,山口県,山口市,泉町,ヤマグチケン,ヤマグチシ,イズミチョウ,山口県山口市泉町
7530067,山口県,山口市,赤妻町,ヤマグチケン,ヤマグチシ,アカヅマチョウ,山口県山口市赤妻町
7530068,山口県,山口市,錦町,ヤマグチケン,ヤマグチシ,ニシキチョウ,山口県山口市錦町
7530070,山口県,山口市,白石,ヤマグチケン,ヤマグチシ,シライシ,山口県山口市白石
7530071,山口県,山口市,滝町,ヤマグチケン,ヤマグチシ,タキマチ,山口県山口市滝町
7530072,山口県,山口市,大手町,ヤマグチケン,ヤマグチシ,オオテマチ,山口県山口市大手町
7530073,山口県,山口市,春日町,ヤマグチケン,ヤマグチシ,カスガチョウ,山口県山口市春日町
7530074,山口県,山口市,中央,ヤマグチケン,ヤマグチシ,チュウオウ,山口県山口市中央
7530075,山口県,山口市,中園町,ヤマグチケン,ヤマグチシ,ナカゾノチョウ,山口県山口市中園町
7530076,山口県,山口市,泉都町,ヤマグチケン,ヤマグチシ,セントチョウ,山口県山口市泉都町
7530077,山口県,山口市,熊野町,ヤマグチケン,ヤマグチシ,クマノチョウ,山口県山口市熊野町
7530078,山口県,山口市,緑町,ヤマグチケン,ヤマグチシ,ミドリチョウ,山口県山口市緑町
7530079,山口県,山口市,糸米,ヤマグチケン,ヤマグチシ,イトヨネ,山口県山口市糸米
7530081,山口県,山口市,香山町,ヤマグチケン,ヤマグチシ,コウザンチョウ,山口県山口市香山町
7530082,山口県,山口市,水の上町,ヤマグチケン,ヤマグチシ,ミズノウエチョウ,山口県山口市水の上町
7530083,山口県,山口市,後河原,ヤマグチケン,ヤマグチシ,ウシロガワラ,山口県山口市後河原
7530084,山口県,山口市,久保小路,ヤマグチケン,ヤマグチシ,クボショウジ,山口県山口市久保小路
7530084,山口県,山口市,諸願小路,ヤマグチケン,ヤマグチシ,ショガンショウジ,山口県山口市諸願小路
7530084,山口県,山口市,銭湯小路,ヤマグチケン,ヤマグチシ,セントウショウジ,山口県山口市銭湯小路
7530085,山口県,山口市,新馬場,ヤマグチケン,ヤマグチシ,シンババ,山口県山口市新馬場
7530086,山口県,山口市,中市町,ヤマグチケン,ヤマグチシ,ナカイチチョウ,山口県山口市中市町
7530087,山口県,山口市,米屋町,ヤマグチケン,ヤマグチシ,コメヤチョウ,山口県山口市米屋町
7530088,山口県,山口市,中河原,ヤマグチケン,ヤマグチシ,ナカガワラ,山口県山口市中河原
7530088,山口県,山口市,中河原町,ヤマグチケン,ヤマグチシ,ナカガワラチョウ,山口県山口市中河原町
7530089,山口県,山口市,亀山町,ヤマグチケン,ヤマグチシ,カメヤマチョウ,山口県山口市亀山町
7530091,山口県,山口市,上宇野令,ヤマグチケン,ヤマグチシ,カミウノレイ,山口県山口市上宇野令
7530091,山口県,山口市,天花,ヤマグチケン,ヤマグチシ,テンゲ,山口県山口市天花
7530092,山口県,山口市,八幡馬場,ヤマグチケン,ヤマグチシ,ヤワタノババ,山口県山口市八幡馬場
7530093,山口県,山口市,大殿大路,ヤマグチケン,ヤマグチシ,オオドノオオジ,山口県山口市大殿大路
7530094,山口県,山口市,野田,ヤマグチケン,ヤマグチシ,ノダ,山口県山口市野田
7530095,山口県,山口市,木町,ヤマグチケン,ヤマグチシ,キマチ,山口県山口市木町
7530101,山口県,萩市,佐々並,ヤマグチケン,ハギシ,ササナミ,山口県萩市佐々並
7530211,山口県,山口市,大内長野,ヤマグチケン,ヤマグチシ,オオウチナガノ,山口県山口市大内長野
7530212,山口県,山口市,下小鯖,ヤマグチケン,ヤマグチシ,シモオサバ,山口県山口市下小鯖
7530213,山口県,山口市,上小鯖,ヤマグチケン,ヤマグチシ,カミオサバ,山口県山口市上小鯖
7530214,山口県,山口市,大内御堀,ヤマグチケン,ヤマグチシ,オオウチミホリ,山口県山口市大内御堀
7530215,山口県,山口市,大内矢田,ヤマグチケン,ヤマグチシ,オオウチヤタ,山口県山口市大内矢田
7530221,山口県,山口市,大内矢田北,ヤマグチケン,ヤマグチシ,オオウチヤタキタ,山口県山口市大内矢田北
7530222,山口県,山口市,大内矢田南,ヤマグチケン,ヤマグチシ,オオウチヤタミナミ,山口県山口市大内矢田南
7530231,山口県,山口市,大内氷上,ヤマグチケン,ヤマグチシ,オオウチヒカミ,山口県山口市大内氷上
7530241,山口県,山口市,大内問田,ヤマグチケン,ヤマグチシ,オオウチトイダ,山口県山口市大内問田
7530242,山口県,山口市,大内小京都,ヤマグチケン,ヤマグチシ,オオウチショウキョウト,山口県山口市大内小京都
7530243,山口県,山口市,大内姫山台,ヤマグチケン,ヤマグチシ,オオウチヒメヤマダイ,山口県山口市大内姫山台
7530251,山口県,山口市,大内千坊,ヤマグチケン,ヤマグチシ,オオウチセンボウ,山口県山口市大内千坊
7530252,山口県,山口市,大内中央,ヤマグチケン,ヤマグチシ,オオウチチュウオウ,山口県山口市大内中央
7530301,山口県,山口市,仁保上郷,ヤマグチケン,ヤマグチシ,ニホカミゴウ,山口県山口市仁保上郷
7530302,山口県,山口市,仁保中郷,ヤマグチケン,ヤマグチシ,ニホナカゴウ,山口県山口市仁保中郷
7530303,山口県,山口市,仁保下郷,ヤマグチケン,ヤマグチシ,ニホシモゴウ,山口県山口市仁保下郷
7530801,山口県,山口市,中尾,ヤマグチケン,ヤマグチシ,ナカオ,山口県山口市中尾
7530811,山口県,山口市,吉敷,ヤマグチケン,ヤマグチシ,ヨシキ,山口県山口市吉敷
7530812,山口県,山口市,宝町,ヤマグチケン,ヤマグチシ,タカラチョウ,山口県山口市宝町
7530813,山口県,山口市,吉敷中東,ヤマグチケン,ヤマグチシ,ヨシキナカヒガシ,山口県山口市吉敷中東
7530814,山口県,山口市,吉敷下東,ヤマグチケン,ヤマグチシ,ヨシキシモヒガシ,山口県山口市吉敷下東
7530815,山口県,山口市,維新公園,ヤマグチケン,ヤマグチシ,イシンコウエン,山口県山口市維新公園
7530816,山口県,山口市,吉敷佐畑,ヤマグチケン,ヤマグチシ,ヨシキサバタ,山口県山口市吉敷佐畑
7530817,山口県,山口市,吉敷赤田,ヤマグチケン,ヤマグチシ,ヨシキアカダ,山口県山口市吉敷赤田
7530818,山口県,山口市,吉敷上東,ヤマグチケン,ヤマグチシ,ヨシキカミヒガシ,山口県山口市吉敷上東
7530821,山口県,山口市,葵,ヤマグチケン,ヤマグチシ,アオイ,山口県山口市葵
7530822,山口県,山口市,周布町,ヤマグチケン,ヤマグチシ,スフチョウ,山口県山口市周布町
7530823,山口県,山口市,若宮町,ヤマグチケン,ヤマグチシ,ワカミヤチョウ,山口県山口市若宮町
7530824,山口県,山口市,穂積町,ヤマグチケン,ヤマグチシ,ホヅミチョウ,山口県山口市穂積町
7530825,山口県,山口市,矢原町,ヤマグチケン,ヤマグチシ,ヤバラチョウ,山口県山口市矢原町
7530826,山口県,山口市,幸町,ヤマグチケン,ヤマグチシ,サイワイチョウ,山口県山口市幸町
7530831,山口県,山口市,平井,ヤマグチケン,ヤマグチシ,ヒライ,山口県山口市平井
7530841,山口県,山口市,吉田,ヤマグチケン,ヤマグチシ,ヨシダ,山口県山口市吉田
7530851,山口県,山口市,黒川,ヤマグチケン,ヤマグチシ,クロカワ,山口県山口市黒川
7530861,山口県,山口市,矢原,ヤマグチケン,ヤマグチシ,ヤバラ,山口県山口市矢原
7530871,山口県,山口市,朝田,ヤマグチケン,ヤマグチシ,アサダ,山口県山口市朝田
7530872,山口県,山口市,小郡上郷流通センター,ヤマグチケン,ヤマグチシ,オゴオリカミゴウリュウツウセンター,山口県山口市小郡上郷流通センター
7530872,山口県,山口市,山口県流通センター,ヤマグチケン,ヤマグチシ,ヤマグチケンリュウツウセンター,山口県山口市山口県流通センター
7530872,山口県,山口市,朝田流通センター,ヤマグチケン,ヤマグチシ,アサダリュウツウセンター,山口県山口市朝田流通センター
7530891,山口県,山口市,上天花町,ヤマグチケン,ヤマグチシ,カミテンゲマチ,山口県山口市上天花町
7540001,山口県,山口市,小郡上郷,ヤマグチケン,ヤマグチシ,オゴオリカミゴウ,山口県山口市小郡上郷
7540002,山口県,山口市,小郡下郷,ヤマグチケン,ヤマグチシ,オゴオリシモゴウ,山口県山口市小郡下郷
7540003,山口県,山口市,小郡真名,ヤマグチケン,ヤマグチシ,オゴオリマナ,山口県山口市小郡真名
7540004,山口県,山口市,小郡金堀町,ヤマグチケン,ヤマグチシ,オゴオリカナホリチョウ,山口県山口市小郡金堀町
7540005,山口県,山口市,小郡山手上町,ヤマグチケン,ヤマグチシ,オゴオリヤマテカミマチ,山口県山口市小郡山手上町
7540006,山口県,山口市,小郡尾崎町,ヤマグチケン,ヤマグチシ,オゴオリオザキチョウ,山口県山口市小郡尾崎町
7540007,山口県,山口市,小郡円座東町,ヤマグチケン,ヤマグチシ,オゴオリエンザヒガシチョウ,山口県山口市小郡円座東町
7540008,山口県,山口市,小郡円座西町,ヤマグチケン,ヤマグチシ,オゴオリエンザニシチョウ,山口県山口市小郡円座西町
7540011,山口県,山口市,小郡御幸町,ヤマグチケン,ヤマグチシ,オゴオリミユキマチ,山口県山口市小郡御幸町
7540012,山口県,山口市,小郡船倉町,ヤマグチケン,ヤマグチシ,オゴオリフナクラマチ,山口県山口市小郡船倉町
7540013,山口県,山口市,小郡緑町,ヤマグチケン,ヤマグチシ,オゴオリミドリマチ,山口県山口市小郡緑町
7540014,山口県,山口市,小郡高砂町,ヤマグチケン,ヤマグチシ,オゴオリタカサゴマチ,山口県山口市小郡高砂町
7540015,山口県,山口市,小郡大江町,ヤマグチケン,ヤマグチシ,オゴオリオオエマチ,山口県山口市小郡大江町
7540020,山口県,山口市,小郡平成町,ヤマグチケン,ヤマグチシ,オゴオリヘイセイマチ,山口県山口市小郡平成町
7540021,山口県,山口市,小郡黄金町,ヤマグチケン,ヤマグチシ,オゴオリコガネマチ,山口県山口市小郡黄金町
7540022,山口県,山口市,小郡花園町,ヤマグチケン,ヤマグチシ,オゴオリハナゾノマチ,山口県山口市小郡花園町
7540023,山口県,山口市,小郡前田町,ヤマグチケン,ヤマグチシ,オゴオリマエダマチ,山口県山口市小郡前田町
7540024,山口県,山口市,小郡若草町,ヤマグチケン,ヤマグチシ,オゴオリワカクサマチ,山口県山口市小郡若草町
7540025,山口県,山口市,小郡平砂町,ヤマグチケン,ヤマグチシ,オゴオリヒラサマチ,山口県山口市小郡平砂町
7540026,山口県,山口市,小郡栄町,ヤマグチケン,ヤマグチシ,オゴオリサカエマチ,山口県山口市小郡栄町
7540027,山口県,山口市,小郡三軒屋町,ヤマグチケン,ヤマグチシ,オゴオリサンゲンヤマチ,山口県山口市小郡三軒屋町
7540028,山口県,山口市,小郡給領町,ヤマグチケン,ヤマグチシ,オゴオリキュウリョウマチ,山口県山口市小郡給領町
7540029,山口県,山口市,小郡維新町,ヤマグチケン,ヤマグチシ,オゴオリイシンマチ,山口県山口市小郡維新町
7540031,山口県,山口市,小郡新町,ヤマグチケン,ヤマグチシ,オゴオリシンマチ,山口県山口市小郡新町
7540032,山口県,山口市,小郡みらい町,ヤマグチケン,ヤマグチシ,オゴオリミライマチ,山口県山口市小郡みらい町
7540033,山口県,山口市,小郡光が丘,ヤマグチケン,ヤマグチシ,オゴオリヒカリガオカ,山口県山口市小郡光が丘
7540034,山口県,山口市,小郡かぜの丘,ヤマグチケン,ヤマグチシ,オゴオリカゼノオカ,山口県山口市小郡かぜの丘
7540041,山口県,山口市,小郡令和,ヤマグチケン,ヤマグチシ,オゴオリレイワ,山口県山口市小郡令和
7540042,山口県,山口市,小郡長谷,ヤマグチケン,ヤマグチシ,オゴオリナガタニ,山口県山口市小郡長谷
7540043,山口県,山口市,小郡明治,ヤマグチケン,ヤマグチシ,オゴオリメイジ,山口県山口市小郡明治
7540044,山口県,山口市,小郡大正町,ヤマグチケン,ヤマグチシ,オゴオリタイショウマチ,山口県山口市小郡大正町
7540121,山口県,美祢市,美東町長田,ヤマグチケン,ミネシ,ミトウチョウナガタ,山口県美祢市美東町長田
7540122,山口県,美祢市,美東町真名,ヤマグチケン,ミネシ,ミトウチョウマナ,山口県美祢市美東町真名
7540123,山口県,美祢市,美東町小野,ヤマグチケン,ミネシ,ミトウチョウオノ,山口県美祢市美東町小野
7540211,山口県,美祢市,美東町大田,ヤマグチケン,ミネシ,ミトウチョウオオダ,山口県美祢市美東町大田
7540212,山口県,美祢市,美東町綾木,ヤマグチケン,ミネシ,ミトウチョウアヤギ,山口県美祢市美東町綾木
7540213,山口県,美祢市,美東町長登,ヤマグチケン,ミネシ,ミトウチョウナガノボリ,山口県美祢市美東町長登
7540214,山口県,美祢市,美東町（その他）,ヤマグチケン,ミネシ,ミトウチョウ(ソノタ),山口県美祢市美東町（その他）
7540301,山口県,美祢市,美東町絵堂,ヤマグチケン,ミネシ,ミトウチョウエドウ,山口県美祢市美東町絵堂
7540302,山口県,美祢市,美東町赤,ヤマグチケン,ミネシ,ミトウチョウアカ,山口県美祢市美東町赤
7540411,山口県,萩市,明木,ヤマグチケン,ハギシ,アキラギ,山口県萩市明木
7540511,山口県,美祢市,秋芳町秋吉,ヤマグチケン,ミネシ,シュウホウチョウアキヨシ,山口県美祢市秋芳町秋吉
7540512,山口県,美祢市,秋芳町岩永本郷,ヤマグチケン,ミネシ,シュウホウチョウイワナガホンゴウ,山口県美祢市秋芳町岩永本郷
7540513,山口県,美祢市,秋芳町岩永下郷,ヤマグチケン,ミネシ,シュウホウチョウイワナガシモゴウ,山口県美祢市秋芳町岩永下郷
7540514,山口県,美祢市,秋芳町（その他）,ヤマグチケン,ミネシ,シュウホウチョウ(ソノタ),山口県美祢市秋芳町（その他）
7540601,山口県,美祢市,秋芳町嘉万,ヤマグチケン,ミネシ,シュウホウチョウカマ,山口県美祢市秋芳町嘉万
7540602,山口県,美祢市,秋芳町青景,ヤマグチケン,ミネシ,シュウホウチョウアオカゲ,山口県美祢市秋芳町青景
7540603,山口県,美祢市,秋芳町別府,ヤマグチケン,ミネシ,シュウホウチョウベップ,山口県美祢市秋芳町別府
7540891,山口県,山口市,陶,ヤマグチケン,ヤマグチシ,スエ,山口県山口市陶
7540892,山口県,山口市,名田島,ヤマグチケン,ヤマグチシ,ナタジマ,山口県山口市名田島
7540893,山口県,山口市,秋穂二島,ヤマグチケン,ヤマグチシ,アイオフタジマ,山口県山口市秋穂二島
7540894,山口県,山口市,佐山,ヤマグチケン,ヤマグチシ,サヤマ,山口県山口市佐山
7540895,山口県,山口市,深溝,ヤマグチケン,ヤマグチシ,フカミゾ,山口県山口市深溝
7540896,山口県,山口市,江崎,ヤマグチケン,ヤマグチシ,エザキ,山口県山口市江崎
7540897,山口県,山口市,嘉川,ヤマグチケン,ヤマグチシ,カガワ,山口県山口市嘉川
7541101,山口県,山口市,秋穂東,ヤマグチケン,ヤマグチシ,アイオヒガシ,山口県山口市秋穂東
7541102,山口県,山口市,秋穂西,ヤマグチケン,ヤマグチシ,アイオニシ,山口県山口市秋穂西
7541277,山口県,山口市,阿知須,ヤマグチケン,ヤマグチシ,アジス,山口県山口市阿知須
7541311,山口県,宇部市,小野,ヤマグチケン,ウベシ,オノ,山口県宇部市小野
7541312,山口県,宇部市,棯小野,ヤマグチケン,ウベシ,ウツギオノ,山口県宇部市棯小野
7541313,山口県,宇部市,藤河内,ヤマグチケン,ウベシ,フジゴウチ,山口県宇部市藤河内
7541314,山口県,宇部市,櫟原,ヤマグチケン,ウベシ,イチイバラ,山口県宇部市櫟原
7541315,山口県,宇部市,如意寺,ヤマグチケン,ウベシ,ニョイジ,山口県宇部市如意寺
7550000,山口県,宇部市,,ヤマグチケン,ウベシ,,山口県宇部市
7550001,山口県,宇部市,沖宇部,ヤマグチケン,ウベシ,オキウベ,山口県宇部市沖宇部
7550002,山口県,宇部市,亀浦,ヤマグチケン,ウベシ,カメウラ,山口県宇部市亀浦
7550003,山口県,宇部市,則貞,ヤマグチケン,ウベシ,ノリサダ,山口県宇部市則貞
7550004,山口県,宇部市,草江,ヤマグチケン,ウベシ,クサエ,山口県宇部市草江
7550005,山口県,宇部市,五十目山町,ヤマグチケン,ウベシ,ゴジュウメヤマチョウ,山口県宇部市五十目山町
7550006,山口県,宇部市,岬町,ヤマグチケン,ウベシ,ミサキチョウ,山口県宇部市岬町
7550007,山口県,宇部市,八王子町,ヤマグチケン,ウベシ,ハチオウジチョウ,山口県宇部市八王子町
7550008,山口県,宇部市,明神町,ヤマグチケン,ウベシ,ミョウジンチョウ,山口県宇部市明神町
7550009,山口県,宇部市,東見初町,ヤマグチケン,ウベシ,ヒガシミゾメチョウ,山口県宇部市東見初町
7550011,山口県,宇部市,昭和町,ヤマグチケン,ウベシ,ショウワチョウ,山口県宇部市昭和町
7550012,山口県,宇部市,幸町,ヤマグチケン,ウベシ,サイワイマチ,山口県宇部市幸町
7550013,山口県,宇部市,明治町,ヤマグチケン,ウベシ,メイジマチ,山口県宇部市明治町
7550014,山口県,宇部市,末広町,ヤマグチケン,ウベシ,スエヒロチョウ,山口県宇部市末広町
7550015,山口県,宇部市,笹山町,ヤマグチケン,ウベシ,ササヤマチョウ,山口県宇部市笹山町
7550016,山口県,宇部市,東芝中町,ヤマグチケン,ウベシ,ヒガシシバナカチョウ,山口県宇部市東芝中町
7550017,山口県,宇部市,芝中町,ヤマグチケン,ウベシ,シバナカチョウ,山口県宇部市芝中町
7550018,山口県,宇部市,錦町,ヤマグチケン,ウベシ,ニシキチョウ,山口県宇部市錦町
7550019,山口県,宇部市,東新川町,ヤマグチケン,ウベシ,ヒガシシンカワチョウ,山口県宇部市東新川町
7550021,山口県,宇部市,常藤町,ヤマグチケン,ウベシ,ツネフジチョウ,山口県宇部市常藤町
7550022,山口県,宇部市,神原町,ヤマグチケン,ウベシ,カミハラチョウ,山口県宇部市神原町
7550023,山口県,宇部市,恩田町,ヤマグチケン,ウベシ,オンダチョウ,山口県宇部市恩田町
7550024,山口県,宇部市,野原,ヤマグチケン,ウベシ,ノバラ,山口県宇部市野原
7550025,山口県,宇部市,野中,ヤマグチケン,ウベシ,ノナカ,山口県宇部市野中
7550026,山口県,宇部市,松山町,ヤマグチケン,ウベシ,マツヤマチョウ,山口県宇部市松山町
7550027,山口県,宇部市,港町,ヤマグチケン,ウベシ,ミナトマチ,山口県宇部市港町
7550028,山口県,宇部市,東本町,ヤマグチケン,ウベシ,ヒガシホンマチ,山口県宇部市東本町
7550029,山口県,宇部市,新天町,ヤマグチケン,ウベシ,シンテンチョウ,山口県宇部市新天町
7550031,山口県,宇部市,常盤町,ヤマグチケン,ウベシ,トキワチョウ,山口県宇部市常盤町
7550032,山口県,宇部市,寿町,ヤマグチケン,ウベシ,コトブキチョウ,山口県宇部市寿町
7550033,山口県,宇部市,琴芝町,ヤマグチケン,ウベシ,コトシバチョウ,山口県宇部市琴芝町
7550034,山口県,宇部市,東琴芝,ヤマグチケン,ウベシ,ヒガシコトシバ,山口県宇部市東琴芝
7550035,山口県,宇部市,西琴芝,ヤマグチケン,ウベシ,ニシコトシバ,山口県宇部市西琴芝
7550036,山口県,宇部市,北琴芝,ヤマグチケン,ウベシ,キタコトシバ,山口県宇部市北琴芝
7550037,山口県,宇部市,西梶返,ヤマグチケン,ウベシ,ニシカジガエシ,山口県宇部市西梶返
7550038,山口県,宇部市,海南町,ヤマグチケン,ウベシ,カイナンチョウ,山口県宇部市海南町
7550039,山口県,宇部市,東梶返,ヤマグチケン,ウベシ,ヒガシカジガエシ,山口県宇部市東梶返
7550041,山口県,宇部市,朝日町,ヤマグチケン,ウベシ,アサヒマチ,山口県宇部市朝日町
7550042,山口県,宇部市,松島町,ヤマグチケン,ウベシ,マツシマチョウ,山口県宇部市松島町
7550043,山口県,宇部市,相生町,ヤマグチケン,ウベシ,アイオイチョウ,山口県宇部市相生町
7550044,山口県,宇部市,新町,ヤマグチケン,ウベシ,シンマチ,山口県宇部市新町
7550045,山口県,宇部市,中央町,ヤマグチケン,ウベシ,チュウオウチョウ,山口県宇部市中央町
7550046,山口県,宇部市,南小串,ヤマグチケン,ウベシ,ミナミコグシ,山口県宇部市南小串
7550047,山口県,宇部市,島,ヤマグチケン,ウベシ,シマ,山口県宇部市島
7550048,山口県,宇部市,下条,ヤマグチケン,ウベシ,シモジョウ,山口県宇部市下条
7550049,山口県,宇部市,西小串,ヤマグチケン,ウベシ,ニシコグシ,山口県宇部市西小串
7550051,山口県,宇部市,上町,ヤマグチケン,ウベシ,ウエマチ,山口県宇部市上町
7550052,山口県,宇部市,西本町,ヤマグチケン,ウベシ,ニシホンマチ,山口県宇部市西本町
7550053,山口県,宇部市,西中町,ヤマグチケン,ウベシ,ニシナカチョウ,山口県宇部市西中町
7550054,山口県,宇部市,助田町,ヤマグチケン,ウベシ,スケダチョウ,山口県宇部市助田町
7550055,山口県,宇部市,居能町,ヤマグチケン,ウベシ,イノウチョウ,山口県宇部市居能町
7550056,山口県,宇部市,文京町,ヤマグチケン,ウベシ,ブンキョウチョウ,山口県宇部市文京町
7550057,山口県,宇部市,藤曲,ヤマグチケン,ウベシ,フジマガリ,山口県宇部市藤曲
7550058,山口県,宇部市,中山,ヤマグチケン,ウベシ,ナカヤマ,山口県宇部市中山
7550061,山口県,宇部市,若松町,ヤマグチケン,ウベシ,ワカマツチョウ,山口県宇部市若松町
7550062,山口県,宇部市,鵜の島町,ヤマグチケン,ウベシ,ウノシマチョウ,山口県宇部市鵜の島町
7550063,山口県,宇部市,南浜町,ヤマグチケン,ウベシ,ミナミハマチョウ,山口県宇部市南浜町
7550064,山口県,宇部市,鍋倉町,ヤマグチケン,ウベシ,ナベクラチョウ,山口県宇部市鍋倉町
7550065,山口県,宇部市,浜町,ヤマグチケン,ウベシ,ハマチョウ,山口県宇部市浜町
7550066,山口県,宇部市,小松原町,ヤマグチケン,ウベシ,コマツバラチョウ,山口県宇部市小松原町
7550067,山口県,宇部市,小串,ヤマグチケン,ウベシ,コグシ,山口県宇部市小串
7550068,山口県,宇部市,東小串,ヤマグチケン,ウベシ,ヒガシコグシ,山口県宇部市東小串
7550069,山口県,宇部市,西桃山,ヤマグチケン,ウベシ,ニシモモヤマ,山口県宇部市西桃山
7550071,山口県,宇部市,宮地町,ヤマグチケン,ウベシ,ミヤジチョウ,山口県宇部市宮地町
7550072,山口県,宇部市,中村,ヤマグチケン,ウベシ,ナカムラ,山口県宇部市中村
7550073,山口県,宇部市,中尾,ヤマグチケン,ウベシ,ナカオ,山口県宇部市中尾
7550074,山口県,宇部市,川添,ヤマグチケン,ウベシ,カワゾエ,山口県宇部市川添
7550075,山口県,宇部市,琴崎町,ヤマグチケン,ウベシ,コトザキチョウ,山口県宇部市琴崎町
7550076,山口県,宇部市,大小路,ヤマグチケン,ウベシ,オオショウジ,山口県宇部市大小路
7550077,山口県,宇部市,山門,ヤマグチケン,ウベシ,ヤマカド,山口県宇部市山門
7550078,山口県,宇部市,寺の前町,ヤマグチケン,ウベシ,テラノマエチョウ,山口県宇部市寺の前町
7550081,山口県,宇部市,北小羽山町,ヤマグチケン,ウベシ,キタオバヤマチョウ,山口県宇部市北小羽山町
7550082,山口県,宇部市,東小羽山町,ヤマグチケン,ウベシ,ヒガシオバヤマチョウ,山口県宇部市東小羽山町
7550083,山口県,宇部市,南小羽山町,ヤマグチケン,ウベシ,ミナミオバヤマチョウ,山口県宇部市南小羽山町
7550084,山口県,宇部市,川上,ヤマグチケン,ウベシ,カワカミ,山口県宇部市川上
7550085,山口県,宇部市,沼,ヤマグチケン,ウベシ,ヌマ,山口県宇部市沼
7550086,山口県,宇部市,中宇部,ヤマグチケン,ウベシ,ナカウベ,山口県宇部市中宇部
7550091,山口県,宇部市,上宇部,ヤマグチケン,ウベシ,カミウベ,山口県宇部市上宇部
7550092,山口県,宇部市,上野中町,ヤマグチケン,ウベシ,カミノナカチョウ,山口県宇部市上野中町
7550093,山口県,宇部市,北迫新町,ヤマグチケン,ウベシ,キタサコシンマチ,山口県宇部市北迫新町
7550094,山口県,宇部市,ひらき台,ヤマグチケン,ウベシ,ヒラキダイ,山口県宇部市ひらき台
7550095,山口県,宇部市,風呂ケ迫町,ヤマグチケン,ウベシ,フロガサコチョウ,山口県宇部市風呂ケ迫町
7550096,山口県,宇部市,開,ヤマグチケン,ウベシ,ヒラキ,山口県宇部市開
7550097,山口県,宇部市,常盤台,ヤマグチケン,ウベシ,トキワダイ,山口県宇部市常盤台
7550151,山口県,宇部市,西岐波,ヤマグチケン,ウベシ,ニシキワ,山口県宇部市西岐波
7550152,山口県,宇部市,あすとぴあ,ヤマグチケン,ウベシ,アストピア,山口県宇部市あすとぴあ
7550153,山口県,宇部市,床波,ヤマグチケン,ウベシ,トコナミ,山口県宇部市床波
7550154,山口県,宇部市,今村南,ヤマグチケン,ウベシ,イマムラミナミ,山口県宇部市今村南
7550155,山口県,宇部市,今村北,ヤマグチケン,ウベシ,イマムラキタ,山口県宇部市今村北
7550241,山口県,宇部市,東岐波,ヤマグチケン,ウベシ,ヒガシキワ,山口県宇部市東岐波
7550801,山口県,宇部市,上条,ヤマグチケン,ウベシ,アゲジョウ,山口県宇部市上条
7550802,山口県,宇部市,北条,ヤマグチケン,ウベシ,キタジョウ,山口県宇部市北条
7550803,山口県,宇部市,東藤曲,ヤマグチケン,ウベシ,ヒガシフジマガリ,山口県宇部市東藤曲
7550804,山口県,宇部市,南中山町,ヤマグチケン,ウベシ,ミナミナカヤマチョウ,山口県宇部市南中山町
7550805,山口県,宇部市,文京台,ヤマグチケン,ウベシ,ブンキョウダイ,山口県宇部市文京台
7550806,山口県,宇部市,浜田,ヤマグチケン,ウベシ,ハマダ,山口県宇部市浜田
7550807,山口県,宇部市,東平原,ヤマグチケン,ウベシ,ヒガシヒラバラ,山口県宇部市東平原
7550808,山口県,宇部市,西平原,ヤマグチケン,ウベシ,ニシヒラバラ,山口県宇部市西平原
7550809,山口県,宇部市,松崎町,ヤマグチケン,ウベシ,マツザキチョウ,山口県宇部市松崎町
7550810,山口県,宇部市,岩鼻町,ヤマグチケン,ウベシ,イワハナチョウ,山口県宇部市岩鼻町
7560000,山口県,山陽小野田市,,ヤマグチケン,サンヨウオノダシ,,山口県山陽小野田市
7560001,山口県,山陽小野田市,大休,ヤマグチケン,サンヨウオノダシ,タイキュウ,山口県山陽小野田市大休
7560003,山口県,山陽小野田市,有帆新町,ヤマグチケン,サンヨウオノダシ,アリホシンマチ,山口県山陽小野田市有帆新町
7560004,山口県,山陽小野田市,中里,ヤマグチケン,サンヨウオノダシ,ナカザト,山口県山陽小野田市中里
7560005,山口県,山陽小野田市,中村,ヤマグチケン,サンヨウオノダシ,ナカムラ,山口県山陽小野田市中村
7560007,山口県,山陽小野田市,北真土郷,ヤマグチケン,サンヨウオノダシ,キタマツチゴウ,山口県山陽小野田市北真土郷
7560008,山口県,山陽小野田市,大休団地,ヤマグチケン,サンヨウオノダシ,タイキュウダンチ,山口県山陽小野田市大休団地
7560009,山口県,山陽小野田市,有帆上町,ヤマグチケン,サンヨウオノダシ,アリホウエマチ,山口県山陽小野田市有帆上町
7560010,山口県,山陽小野田市,新有帆町,ヤマグチケン,サンヨウオノダシ,シンアリホチョウ,山口県山陽小野田市新有帆町
7560011,山口県,山陽小野田市,共和台,ヤマグチケン,サンヨウオノダシ,キョウワダイ,山口県山陽小野田市共和台
7560012,山口県,山陽小野田市,角石,ヤマグチケン,サンヨウオノダシ,カドイシ,山口県山陽小野田市角石
7560013,山口県,山陽小野田市,片山,ヤマグチケン,サンヨウオノダシ,カタヤマ,山口県山陽小野田市片山
7560014,山口県,山陽小野田市,彼岸田,ヤマグチケン,サンヨウオノダシ,ヒガンダ,山口県山陽小野田市彼岸田
7560015,山口県,山陽小野田市,ひがんだ団地,ヤマグチケン,サンヨウオノダシ,ヒガンダダンチ,山口県山陽小野田市ひがんだ団地
7560016,山口県,山陽小野田市,南平台,ヤマグチケン,サンヨウオノダシ,ナンペイダイ,山口県山陽小野田市南平台
7560017,山口県,山陽小野田市,仁保の上,ヤマグチケン,サンヨウオノダシ,ニホノウエ,山口県山陽小野田市仁保の上
7560018,山口県,山陽小野田市,東町,ヤマグチケン,サンヨウオノダシ,ヒガシマチ,山口県山陽小野田市東町
7560019,山口県,山陽小野田市,南真土郷,ヤマグチケン,サンヨウオノダシ,ミナミマツチゴウ,山口県山陽小野田市南真土郷
7560021,山口県,山陽小野田市,高畑,ヤマグチケン,サンヨウオノダシ,タカハタ,山口県山陽小野田市高畑
7560022,山口県,山陽小野田市,千崎西,ヤマグチケン,サンヨウオノダシ,チザキニシ,山口県山陽小野田市千崎西
7560023,山口県,山陽小野田市,千崎東,ヤマグチケン,サンヨウオノダシ,チザキヒガシ,山口県山陽小野田市千崎東
7560024,山口県,山陽小野田市,萩森,ヤマグチケン,サンヨウオノダシ,ハギモリ,山口県山陽小野田市萩森
7560025,山口県,山陽小野田市,烏帽子岩,ヤマグチケン,サンヨウオノダシ,エボシイワ,山口県山陽小野田市烏帽子岩
7560026,山口県,山陽小野田市,烏帽子岩団地,ヤマグチケン,サンヨウオノダシ,エボシイワダンチ,山口県山陽小野田市烏帽子岩団地
7560027,山口県,山陽小野田市,烏帽子岩前,ヤマグチケン,サンヨウオノダシ,エボシイワマエ,山口県山陽小野田市烏帽子岩前
7560028,山口県,山陽小野田市,共和町,ヤマグチケン,サンヨウオノダシ,キョウワチョウ,山口県山陽小野田市共和町
7560029,山口県,山陽小野田市,船越,ヤマグチケン,サンヨウオノダシ,フナコシ,山口県山陽小野田市船越
7560030,山口県,山陽小野田市,青葉台,ヤマグチケン,サンヨウオノダシ,アオバダイ,山口県山陽小野田市青葉台
7560031,山口県,山陽小野田市,平和町,ヤマグチケン,サンヨウオノダシ,ヘイワチョウ,山口県山陽小野田市平和町
7560032,山口県,山陽小野田市,平生町,ヤマグチケン,サンヨウオノダシ,ヒラオチョウ,山口県山陽小野田市平生町
7560033,山口県,山陽小野田市,若草町,ヤマグチケン,サンヨウオノダシ,ワカクサチョウ,山口県山陽小野田市若草町
7560034,山口県,山陽小野田市,緑が丘,ヤマグチケン,サンヨウオノダシ,ミドリガオカ,山口県山陽小野田市緑が丘
7560035,山口県,山陽小野田市,平原,ヤマグチケン,サンヨウオノダシ,ヒラバラ,山口県山陽小野田市平原
7560036,山口県,山陽小野田市,大塚団地,ヤマグチケン,サンヨウオノダシ,オオツカダンチ,山口県山陽小野田市大塚団地
7560037,山口県,山陽小野田市,小松尾,ヤマグチケン,サンヨウオノダシ,コマツオ,山口県山陽小野田市小松尾
7560038,山口県,山陽小野田市,有帆,ヤマグチケン,サンヨウオノダシ,アリホ,山口県山陽小野田市有帆
7560039,山口県,山陽小野田市,千崎,ヤマグチケン,サンヨウオノダシ,チザキ,山口県山陽小野田市千崎
7560041,山口県,山陽小野田市,上の郷,ヤマグチケン,サンヨウオノダシ,カミノゴウ,山口県山陽小野田市上の郷
7560042,山口県,山陽小野田市,大塚,ヤマグチケン,サンヨウオノダシ,オオツカ,山口県山陽小野田市大塚
7560043,山口県,山陽小野田市,浜,ヤマグチケン,サンヨウオノダシ,ハマ,山口県山陽小野田市浜
7560044,山口県,山陽小野田市,郷,ヤマグチケン,サンヨウオノダシ,ゴウ,山口県山陽小野田市郷
7560045,山口県,山陽小野田市,南高泊,ヤマグチケン,サンヨウオノダシ,ミナミタカトマリ,山口県山陽小野田市南高泊
7560046,山口県,山陽小野田市,西の郷,ヤマグチケン,サンヨウオノダシ,ニシノゴウ,山口県山陽小野田市西の郷
7560047,山口県,山陽小野田市,高浜,ヤマグチケン,サンヨウオノダシ,タカハマ,山口県山陽小野田市高浜
7560048,山口県,山陽小野田市,後潟下,ヤマグチケン,サンヨウオノダシ,ウシロガタシモ,山口県山陽小野田市後潟下
7560049,山口県,山陽小野田市,後潟上,ヤマグチケン,サンヨウオノダシ,ウシロガタカミ,山口県山陽小野田市後潟上
7560051,山口県,山陽小野田市,杵築,ヤマグチケン,サンヨウオノダシ,キズキ,山口県山陽小野田市杵築
7560052,山口県,山陽小野田市,浜田町,ヤマグチケン,サンヨウオノダシ,ハマダチョウ,山口県山陽小野田市浜田町
7560053,山口県,山陽小野田市,下木屋,ヤマグチケン,サンヨウオノダシ,シモゴヤ,山口県山陽小野田市下木屋
7560054,山口県,山陽小野田市,旦東,ヤマグチケン,サンヨウオノダシ,ダンヒガシ,山口県山陽小野田市旦東
7560055,山口県,山陽小野田市,旦西,ヤマグチケン,サンヨウオノダシ,ダンニシ,山口県山陽小野田市旦西
7560056,山口県,山陽小野田市,上木屋,ヤマグチケン,サンヨウオノダシ,カミゴヤ,山口県山陽小野田市上木屋
7560057,山口県,山陽小野田市,西高泊,ヤマグチケン,サンヨウオノダシ,ニシタカドマリ,山口県山陽小野田市西高泊
7560060,山口県,山陽小野田市,高千帆,ヤマグチケン,サンヨウオノダシ,タカチホ,山口県山陽小野田市高千帆
7560063,山口県,山陽小野田市,石井手,ヤマグチケン,サンヨウオノダシ,イシイデ,山口県山陽小野田市石井手
7560067,山口県,山陽小野田市,柿の木坂,ヤマグチケン,サンヨウオノダシ,カキノキザカ,山口県山陽小野田市柿の木坂
7560071,山口県,山陽小野田市,目出文化町,ヤマグチケン,サンヨウオノダシ,メデブンカチョウ,山口県山陽小野田市目出文化町
7560072,山口県,山陽小野田市,目出緑町,ヤマグチケン,サンヨウオノダシ,メデミドリマチ,山口県山陽小野田市目出緑町
7560073,山口県,山陽小野田市,目出幸町,ヤマグチケン,サンヨウオノダシ,メデサイワイマチ,山口県山陽小野田市目出幸町
7560074,山口県,山陽小野田市,目出湖畔町,ヤマグチケン,サンヨウオノダシ,メデコハンチョウ,山口県山陽小野田市目出湖畔町
7560075,山口県,山陽小野田市,亀の甲,ヤマグチケン,サンヨウオノダシ,カメノコウ,山口県山陽小野田市亀の甲
7560076,山口県,山陽小野田市,目出,ヤマグチケン,サンヨウオノダシ,メデ,山口県山陽小野田市目出
7560077,山口県,山陽小野田市,目出新町,ヤマグチケン,サンヨウオノダシ,メデシンマチ,山口県山陽小野田市目出新町
7560080,山口県,山陽小野田市,くし山,ヤマグチケン,サンヨウオノダシ,クシヤマ,山口県山陽小野田市くし山
7560086,山口県,山陽小野田市,神帆町,ヤマグチケン,サンヨウオノダシ,カミホチョウ,山口県山陽小野田市神帆町
7560087,山口県,山陽小野田市,高須,ヤマグチケン,サンヨウオノダシ,タカス,山口県山陽小野田市高須
7560088,山口県,山陽小野田市,東高泊,ヤマグチケン,サンヨウオノダシ,ヒガシタカドマリ,山口県山陽小野田市東高泊
7560091,山口県,山陽小野田市,日の出,ヤマグチケン,サンヨウオノダシ,ヒノデ,山口県山陽小野田市日の出
7560092,山口県,山陽小野田市,新生,ヤマグチケン,サンヨウオノダシ,シンセイ,山口県山陽小野田市新生
7560093,山口県,山陽小野田市,日産,ヤマグチケン,サンヨウオノダシ,ニッサン,山口県山陽小野田市日産
7560094,山口県,山陽小野田市,市立病院,ヤマグチケン,サンヨウオノダシ,シリツビョウイン,山口県山陽小野田市市立病院
7560095,山口県,山陽小野田市,労災病院,ヤマグチケン,サンヨウオノダシ,ロウサイビョウイン,山口県山陽小野田市労災病院
7560801,山口県,山陽小野田市,北栄町,ヤマグチケン,サンヨウオノダシ,キタサカエマチ,山口県山陽小野田市北栄町
7560802,山口県,山陽小野田市,栄町,ヤマグチケン,サンヨウオノダシ,サカエマチ,山口県山陽小野田市栄町
7560803,山口県,山陽小野田市,南中川町,ヤマグチケン,サンヨウオノダシ,ミナミナカガワマチ,山口県山陽小野田市南中川町
7560804,山口県,山陽小野田市,長寿園,ヤマグチケン,サンヨウオノダシ,チョウジュエン,山口県山陽小野田市長寿園
7560805,山口県,山陽小野田市,自由ヶ丘,ヤマグチケン,サンヨウオノダシ,ジユウガオカ,山口県山陽小野田市自由ヶ丘
7560806,山口県,山陽小野田市,中川,ヤマグチケン,サンヨウオノダシ,ナカガワ,山口県山陽小野田市中川
7560807,山口県,山陽小野田市,硫酸町,ヤマグチケン,サンヨウオノダシ,リュウサンマチ,山口県山陽小野田市硫酸町
7560808,山口県,山陽小野田市,旭町,ヤマグチケン,サンヨウオノダシ,アサヒマチ,山口県山陽小野田市旭町
7560809,山口県,山陽小野田市,横土手,ヤマグチケン,サンヨウオノダシ,ヨコドテ,山口県山陽小野田市横土手
7560811,山口県,山陽小野田市,稲荷町,ヤマグチケン,サンヨウオノダシ,イナリマチ,山口県山陽小野田市稲荷町
7560812,山口県,山陽小野田市,小野山,ヤマグチケン,サンヨウオノダシ,オノヤマ,山口県山陽小野田市小野山
7560813,山口県,山陽小野田市,住吉本町,ヤマグチケン,サンヨウオノダシ,スミヨシホンマチ,山口県山陽小野田市住吉本町
7560814,山口県,山陽小野田市,千代町,ヤマグチケン,サンヨウオノダシ,チヨマチ,山口県山陽小野田市千代町
7560815,山口県,山陽小野田市,高栄,ヤマグチケン,サンヨウオノダシ,コウエイ,山口県山陽小野田市高栄
7560816,山口県,山陽小野田市,西住吉町,ヤマグチケン,サンヨウオノダシ,ニシスミヨシチョウ,山口県山陽小野田市西住吉町
7560817,山口県,山陽小野田市,小野田,ヤマグチケン,サンヨウオノダシ,オノダ,山口県山陽小野田市小野田
7560821,山口県,山陽小野田市,丸河内,ヤマグチケン,サンヨウオノダシ,マルゴウチ,山口県山陽小野田市丸河内
7560822,山口県,山陽小野田市,北若山,ヤマグチケン,サンヨウオノダシ,キタワカヤマ,山口県山陽小野田市北若山
7560823,山口県,山陽小野田市,心和園,ヤマグチケン,サンヨウオノダシ,シンワエン,山口県山陽小野田市心和園
7560824,山口県,山陽小野田市,中央,ヤマグチケン,サンヨウオノダシ,チュウオウ,山口県山陽小野田市中央
7560825,山口県,山陽小野田市,東住吉町,ヤマグチケン,サンヨウオノダシ,ヒガシスミヨシチョウ,山口県山陽小野田市東住吉町
7560831,山口県,山陽小野田市,南若山,ヤマグチケン,サンヨウオノダシ,ミナミワカヤマ,山口県山陽小野田市南若山
7560832,山口県,山陽小野田市,南竜王町,ヤマグチケン,サンヨウオノダシ,ミナミリュウオウチョウ,山口県山陽小野田市南竜王町
7560833,山口県,山陽小野田市,北竜王町,ヤマグチケン,サンヨウオノダシ,キタリュウオウチョウ,山口県山陽小野田市北竜王町
7560834,山口県,山陽小野田市,港町,ヤマグチケン,サンヨウオノダシ,ミナトマチ,山口県山陽小野田市港町
7560835,山口県,山陽小野田市,セメント町,ヤマグチケン,サンヨウオノダシ,セメントマチ,山口県山陽小野田市セメント町
7560836,山口県,山陽小野田市,須恵,ヤマグチケン,サンヨウオノダシ,スエ,山口県山陽小野田市須恵
7560837,山口県,山陽小野田市,平成町,ヤマグチケン,サンヨウオノダシ,ヘイセイチョウ,山口県山陽小野田市平成町
7560841,山口県,山陽小野田市,赤崎,ヤマグチケン,サンヨウオノダシ,アカサキ,山口県山陽小野田市赤崎
7560842,山口県,山陽小野田市,刈屋中村,ヤマグチケン,サンヨウオノダシ,カリヤナカムラ,山口県山陽小野田市刈屋中村
7560843,山口県,山陽小野田市,刈屋上条,ヤマグチケン,サンヨウオノダシ,カリヤカミジョウ,山口県山陽小野田市刈屋上条
7560844,山口県,山陽小野田市,木戸大鼻,ヤマグチケン,サンヨウオノダシ,キドオオバナ,山口県山陽小野田市木戸大鼻
7560845,山口県,山陽小野田市,木戸中ノ町,ヤマグチケン,サンヨウオノダシ,キドナカノチョウ,山口県山陽小野田市木戸中ノ町
7560846,山口県,山陽小野田市,木戸新町,ヤマグチケン,サンヨウオノダシ,キドシンマチ,山口県山陽小野田市木戸新町
7560847,山口県,山陽小野田市,新沖,ヤマグチケン,サンヨウオノダシ,シンオキ,山口県山陽小野田市新沖
7560848,山口県,山陽小野田市,刈屋西条,ヤマグチケン,サンヨウオノダシ,カリヤニシジョウ,山口県山陽小野田市刈屋西条
7560851,山口県,山陽小野田市,桜が丘,ヤマグチケン,サンヨウオノダシ,サクラガオカ,山口県山陽小野田市桜が丘
7560852,山口県,山陽小野田市,奥若山,ヤマグチケン,サンヨウオノダシ,オクワカヤマ,山口県山陽小野田市奥若山
7560853,山口県,山陽小野田市,野来見,ヤマグチケン,サンヨウオノダシ,ノグルミ,山口県山陽小野田市野来見
7560854,山口県,山陽小野田市,叶松,ヤマグチケン,サンヨウオノダシ,カノウマツ,山口県山陽小野田市叶松
7560855,山口県,山陽小野田市,えびす町,ヤマグチケン,サンヨウオノダシ,エビスチョウ,山口県山陽小野田市えびす町
7560856,山口県,山陽小野田市,古開作,ヤマグチケン,サンヨウオノダシ,フルガイサク,山口県山陽小野田市古開作
7560857,山口県,山陽小野田市,古開作団地,ヤマグチケン,サンヨウオノダシ,フルガイサクダンチ,山口県山陽小野田市古開作団地
7560861,山口県,山陽小野田市,波瀬,ヤマグチケン,サンヨウオノダシ,ハゼ,山口県山陽小野田市波瀬
7560862,山口県,山陽小野田市,須恵西,ヤマグチケン,サンヨウオノダシ,スエニシ,山口県山陽小野田市須恵西
7560863,山口県,山陽小野田市,上の台,ヤマグチケン,サンヨウオノダシ,ウエノダイ,山口県山陽小野田市上の台
7560864,山口県,山陽小野田市,西が迫,ヤマグチケン,サンヨウオノダシ,ニシガサコ,山口県山陽小野田市西が迫
7560865,山口県,山陽小野田市,田の尻,ヤマグチケン,サンヨウオノダシ,タノシリ,山口県山陽小野田市田の尻
7560866,山口県,山陽小野田市,大浜,ヤマグチケン,サンヨウオノダシ,オオハマ,山口県山陽小野田市大浜
7560871,山口県,山陽小野田市,あさひが丘,ヤマグチケン,サンヨウオノダシ,アサヒガオカ,山口県山陽小野田市あさひが丘
7560872,山口県,山陽小野田市,浜河内,ヤマグチケン,サンヨウオノダシ,ハマゴウチ,山口県山陽小野田市浜河内
7560873,山口県,山陽小野田市,大須恵,ヤマグチケン,サンヨウオノダシ,オオズエ,山口県山陽小野田市大須恵
7560874,山口県,山陽小野田市,本山町,ヤマグチケン,サンヨウオノダシ,モトヤマチョウ,山口県山陽小野田市本山町
7560875,山口県,山陽小野田市,南松浜,ヤマグチケン,サンヨウオノダシ,ミナミマツハマ,山口県山陽小野田市南松浜
7560876,山口県,山陽小野田市,本山団地,ヤマグチケン,サンヨウオノダシ,モトヤマダンチ,山口県山陽小野田市本山団地
7560877,山口県,山陽小野田市,松浜,ヤマグチケン,サンヨウオノダシ,マツハマ,山口県山陽小野田市松浜
7560878,山口県,山陽小野田市,松浜団地,ヤマグチケン,サンヨウオノダシ,マツハマダンチ,山口県山陽小野田市松浜団地
7560881,山口県,山陽小野田市,笹尾東,ヤマグチケン,サンヨウオノダシ,ササオヒガシ,山口県山陽小野田市笹尾東
7560882,山口県,山陽小野田市,須田ノ木,ヤマグチケン,サンヨウオノダシ,スダノキ,山口県山陽小野田市須田ノ木
7560883,山口県,山陽小野田市,東須田の木,ヤマグチケン,サンヨウオノダシ,ヒガシスダノキ,山口県山陽小野田市東須田の木
7560884,山口県,山陽小野田市,大学通,ヤマグチケン,サンヨウオノダシ,ダイガクドオリ,山口県山陽小野田市大学通
7560885,山口県,山陽小野田市,西沖,ヤマグチケン,サンヨウオノダシ,ニシオキ,山口県山陽小野田市西沖
7560886,山口県,山陽小野田市,夏目,ヤマグチケン,サンヨウオノダシ,ナツメ,山口県山陽小野田市夏目
7560887,山口県,山陽小野田市,松角,ヤマグチケン,サンヨウオノダシ,マツカク,山口県山陽小野田市松角
7560888,山口県,山陽小野田市,笹尾西,ヤマグチケン,サンヨウオノダシ,ササオニシ,山口県山陽小野田市笹尾西
7560889,山口県,山陽小野田市,須恵東,ヤマグチケン,サンヨウオノダシ,スエヒガシ,山口県山陽小野田市須恵東
7570001,山口県,山陽小野田市,厚狭,ヤマグチケン,サンヨウオノダシ,アサ,山口県山陽小野田市厚狭
7570002,山口県,山陽小野田市,郡,ヤマグチケン,サンヨウオノダシ,コオリ,山口県山陽小野田市郡
7570003,山口県,山陽小野田市,山野井,ヤマグチケン,サンヨウオノダシ,ヤマノイ,山口県山陽小野田市山野井
7570004,山口県,山陽小野田市,山川,ヤマグチケン,サンヨウオノダシ,ヤマカワ,山口県山陽小野田市山川
7570005,山口県,山陽小野田市,鴨庄,ヤマグチケン,サンヨウオノダシ,カモノショウ,山口県山陽小野田市鴨庄
7570006,山口県,山陽小野田市,桜,ヤマグチケン,サンヨウオノダシ,サクラ,山口県山陽小野田市桜
7570011,山口県,山陽小野田市,津布田,ヤマグチケン,サンヨウオノダシ,ツブタ,山口県山陽小野田市津布田
7570012,山口県,山陽小野田市,埴生,ヤマグチケン,サンヨウオノダシ,ハブ,山口県山陽小野田市埴生
7570013,山口県,山陽小野田市,福田,ヤマグチケン,サンヨウオノダシ,フクダ,山口県山陽小野田市福田
7570211,山口県,宇部市,芦河内,ヤマグチケン,ウベシ,アシガワチ,山口県宇部市芦河内
7570212,山口県,宇部市,今富,ヤマグチケン,ウベシ,イマドミ,山口県宇部市今富
7570213,山口県,宇部市,奥万倉,ヤマグチケン,ウベシ,オクマグラ,山口県宇部市奥万倉
7570214,山口県,宇部市,西万倉,ヤマグチケン,ウベシ,ニシマグラ,山口県宇部市西万倉
7570215,山口県,宇部市,東万倉,ヤマグチケン,ウベシ,ヒガシマグラ,山口県宇部市東万倉
7570216,山口県,宇部市,船木,ヤマグチケン,ウベシ,フナキ,山口県宇部市船木
7570217,山口県,宇部市,矢矯,ヤマグチケン,ウベシ,ヤハギ,山口県宇部市矢矯
7570401,山口県,宇部市,東吉部,ヤマグチケン,ウベシ,ヒガシキベ,山口県宇部市東吉部
7570402,山口県,宇部市,西吉部,ヤマグチケン,ウベシ,ニシキベ,山口県宇部市西吉部
7580000,山口県,萩市,,ヤマグチケン,ハギシ,,山口県萩市
7580001,山口県,萩市,相島,ヤマグチケン,ハギシ,アイシマ,山口県萩市相島
7580002,山口県,萩市,櫃島,ヤマグチケン,ハギシ,ヒツシマ,山口県萩市櫃島
7580003,山口県,萩市,大島,ヤマグチケン,ハギシ,オオシマ,山口県萩市大島
7580004,山口県,萩市,肥島,ヤマグチケン,ハギシ,ヒシマ,山口県萩市肥島
7580011,山口県,萩市,椿東,ヤマグチケン,ハギシ,チントウ,山口県萩市椿東
7580021,山口県,萩市,今古萩町,ヤマグチケン,ハギシ,イマフルハギマチ,山口県萩市今古萩町
7580022,山口県,萩市,浜崎町,ヤマグチケン,ハギシ,ハマサキマチ,山口県萩市浜崎町
7580023,山口県,萩市,浜崎新町,ヤマグチケン,ハギシ,ハマサキシンチョウ,山口県萩市浜崎新町
7580024,山口県,萩市,東浜崎町,ヤマグチケン,ハギシ,ヒガシハマサキマチ,山口県萩市東浜崎町
7580025,山口県,萩市,土原,ヤマグチケン,ハギシ,ヒジワラ,山口県萩市土原
7580026,山口県,萩市,古萩町,ヤマグチケン,ハギシ,フルハギマチ,山口県萩市古萩町
7580027,山口県,萩市,吉田町,ヤマグチケン,ハギシ,ヨシダチョウ,山口県萩市吉田町
7580031,山口県,萩市,川島,ヤマグチケン,ハギシ,カワシマ,山口県萩市川島
7580032,山口県,萩市,北古萩町,ヤマグチケン,ハギシ,キタフルハギマチ,山口県萩市北古萩町
7580033,山口県,萩市,恵美須町,ヤマグチケン,ハギシ,エビスチョウ,山口県萩市恵美須町
7580034,山口県,萩市,熊谷町,ヤマグチケン,ハギシ,クマガヤチョウ,山口県萩市熊谷町
7580035,山口県,萩市,細工町,ヤマグチケン,ハギシ,サイクマチ,山口県萩市細工町
7580036,山口県,萩市,塩屋町,ヤマグチケン,ハギシ,シオヤチョウ,山口県萩市塩屋町
7580037,山口県,萩市,津守町,ヤマグチケン,ハギシ,ツモリチョウ,山口県萩市津守町
7580041,山口県,萩市,江向,ヤマグチケン,ハギシ,エムカイ,山口県萩市江向
7580042,山口県,萩市,御許町,ヤマグチケン,ハギシ,オモトマチ,山口県萩市御許町
7580043,山口県,萩市,上五間町,ヤマグチケン,ハギシ,カミゴケンマチ,山口県萩市上五間町
7580043,山口県,萩市,下五間町,ヤマグチケン,ハギシ,シモゴケンマチ,山口県萩市下五間町
7580044,山口県,萩市,唐樋町,ヤマグチケン,ハギシ,カラヒマチ,山口県萩市唐樋町
7580045,山口県,萩市,米屋町,ヤマグチケン,ハギシ,コメヤチョウ,山口県萩市米屋町
7580046,山口県,萩市,西田町,ヤマグチケン,ハギシ,ニシタマチ,山口県萩市西田町
7580047,山口県,萩市,東田町,ヤマグチケン,ハギシ,ヒガシタマチ,山口県萩市東田町
7580051,山口県,萩市,油屋町,ヤマグチケン,ハギシ,アブラヤチョウ,山口県萩市油屋町
7580052,山口県,萩市,今魚店町,ヤマグチケン,ハギシ,イマウオノタナマチ,山口県萩市今魚店町
7580053,山口県,萩市,北片河町,ヤマグチケン,ハギシ,キタカタカワマチ,山口県萩市北片河町
7580054,山口県,萩市,樽屋町,ヤマグチケン,ハギシ,タルヤチョウ,山口県萩市樽屋町
7580055,山口県,萩市,春若町,ヤマグチケン,ハギシ,ハルワカチョウ,山口県萩市春若町
7580056,山口県,萩市,古魚店町,ヤマグチケン,ハギシ,フルウオノタナマチ,山口県萩市古魚店町
7580057,山口県,萩市,堀内,ヤマグチケン,ハギシ,ホリウチ,山口県萩市堀内
7580061,山口県,萩市,椿,ヤマグチケン,ハギシ,ツバキ,山口県萩市椿
7580062,山口県,萩市,橋本町,ヤマグチケン,ハギシ,ハシモトマチ,山口県萩市橋本町
7580063,山口県,萩市,山田,ヤマグチケン,ハギシ,ヤマダ,山口県萩市山田
7580071,山口県,萩市,瓦町,ヤマグチケン,ハギシ,カワラマチ,山口県萩市瓦町
7580072,山口県,萩市,呉服町,ヤマグチケン,ハギシ,ゴフクマチ,山口県萩市呉服町
7580073,山口県,萩市,河添,ヤマグチケン,ハギシ,コウゾエ,山口県萩市河添
7580074,山口県,萩市,平安古町,ヤマグチケン,ハギシ,ヒヤコマチ,山口県萩市平安古町
7580076,山口県,萩市,南片河町,ヤマグチケン,ハギシ,ミナミカタカワマチ,山口県萩市南片河町
7580077,山口県,萩市,南古萩町,ヤマグチケン,ハギシ,ミナミフルハギマチ,山口県萩市南古萩町
7580141,山口県,萩市,川上,ヤマグチケン,ハギシ,カワカミ,山口県萩市川上
7580211,山口県,萩市,福井上,ヤマグチケン,ハギシ,フクイカミ,山口県萩市福井上
7580212,山口県,萩市,福井下,ヤマグチケン,ハギシ,フクイシモ,山口県萩市福井下
7580213,山口県,萩市,黒川,ヤマグチケン,ハギシ,クロガワ,山口県萩市黒川
7580301,山口県,萩市,片俣,ヤマグチケン,ハギシ,カタマタ,山口県萩市片俣
7580302,山口県,萩市,高佐上,ヤマグチケン,ハギシ,タカサカミ,山口県萩市高佐上
7580303,山口県,萩市,高佐下,ヤマグチケン,ハギシ,タカサシモ,山口県萩市高佐下
7580304,山口県,萩市,吉部上,ヤマグチケン,ハギシ,キベカミ,山口県萩市吉部上
7580305,山口県,萩市,吉部下,ヤマグチケン,ハギシ,キベシモ,山口県萩市吉部下
7580501,山口県,萩市,紫福,ヤマグチケン,ハギシ,シブキ,山口県萩市紫福
7580611,山口県,阿武郡阿武町,福田下,ヤマグチケン,アブグンアブチョウ,フクダシモ,山口県阿武郡阿武町福田下
7580612,山口県,阿武郡阿武町,福田上,ヤマグチケン,アブグンアブチョウ,フクダカミ,山口県阿武郡阿武町福田上
7580613,山口県,阿武郡阿武町,宇生賀,ヤマグチケン,アブグンアブチョウ,ウブカ,山口県阿武郡阿武町宇生賀
7580701,山口県,萩市,見島,ヤマグチケン,ハギシ,ミシマ,山口県萩市見島
7590121,山口県,宇部市,棚井,ヤマグチケン,ウベシ,タナイ,山口県宇部市棚井
7590122,山口県,宇部市,吉見,ヤマグチケン,ウベシ,ヨシミ,山口県宇部市吉見
7590123,山口県,宇部市,末信,ヤマグチケン,ウベシ,スエノブ,山口県宇部市末信
7590124,山口県,宇部市,広瀬,ヤマグチケン,ウベシ,ヒロセ,山口県宇部市広瀬
7590131,山口県,宇部市,荒瀬,ヤマグチケン,ウベシ,アラセ,山口県宇部市荒瀬
7590132,山口県,宇部市,山中,ヤマグチケン,ウベシ,ヤマナカ,山口県宇部市山中
7590133,山口県,宇部市,車地,ヤマグチケン,ウベシ,クルマジ,山口県宇部市車地
7590134,山口県,宇部市,善和,ヤマグチケン,ウベシ,ヨシワ,山口県宇部市善和
7590135,山口県,宇部市,瓜生野,ヤマグチケン,ウベシ,ウリュウノ,山口県宇部市瓜生野
7590136,山口県,宇部市,木田,ヤマグチケン,ウベシ,キダ,山口県宇部市木田
7590201,山口県,宇部市,山の手町,ヤマグチケン,ウベシ,ヤマノテチョウ,山口県宇部市山の手町
7590202,山口県,宇部市,沖ノ旦,ヤマグチケン,ウベシ,オキノダン,山口県宇部市沖ノ旦
7590203,山口県,宇部市,中野開作,ヤマグチケン,ウベシ,ナカノガイサク,山口県宇部市中野開作
7590204,山口県,宇部市,妻崎開作,ヤマグチケン,ウベシ,ツマザキガイサク,山口県宇部市妻崎開作
7590205,山口県,宇部市,西沖の山,ヤマグチケン,ウベシ,ニシオキノヤマ,山口県宇部市西沖の山
7590206,山口県,宇部市,東須恵,ヤマグチケン,ウベシ,ヒガシスエ,山口県宇部市東須恵
7590207,山口県,宇部市,際波,ヤマグチケン,ウベシ,キワナミ,山口県宇部市際波
7590208,山口県,宇部市,西宇部南,ヤマグチケン,ウベシ,ニシウベミナミ,山口県宇部市西宇部南
7590209,山口県,宇部市,厚南北,ヤマグチケン,ウベシ,コウナンキタ,山口県宇部市厚南北
7590211,山口県,宇部市,西宇部北,ヤマグチケン,ウベシ,ニシウベキタ,山口県宇部市西宇部北
7590212,山口県,宇部市,厚南中央,ヤマグチケン,ウベシ,コウナンチュウオウ,山口県宇部市厚南中央
7590213,山口県,宇部市,黒石北,ヤマグチケン,ウベシ,クロイシキタ,山口県宇部市黒石北
7591231,山口県,山口市,阿東生雲東分,ヤマグチケン,ヤマグチシ,アトウイクモヒガシブン,山口県山口市阿東生雲東分
7591232,山口県,山口市,阿東篠目,ヤマグチケン,ヤマグチシ,アトウシノメ,山口県山口市阿東篠目
7591341,山口県,山口市,阿東生雲西分,ヤマグチケン,ヤマグチシ,アトウイクモニシブン,山口県山口市阿東生雲西分
7591342,山口県,山口市,阿東生雲中,ヤマグチケン,ヤマグチシ,アトウイクモナカ,山口県山口市阿東生雲中
7591343,山口県,山口市,阿東蔵目喜,ヤマグチケン,ヤマグチシ,アトウゾウメキ,山口県山口市阿東蔵目喜
7591421,山口県,山口市,阿東地福上,ヤマグチケン,ヤマグチシ,アトウジフクカミ,山口県山口市阿東地福上
7591422,山口県,山口市,阿東地福下,ヤマグチケン,ヤマグチシ,アトウジフクシモ,山口県山口市阿東地福下
7591511,山口県,山口市,阿東徳佐上,ヤマグチケン,ヤマグチシ,アトウトクサカミ,山口県山口市阿東徳佐上
7591512,山口県,山口市,阿東徳佐中,ヤマグチケン,ヤマグチシ,アトウトクサナカ,山口県山口市阿東徳佐中
7591513,山口県,山口市,阿東徳佐下,ヤマグチケン,ヤマグチシ,アトウトクサシモ,山口県山口市阿東徳佐下
7591601,山口県,山口市,阿東嘉年上,ヤマグチケン,ヤマグチシ,アトウカネカミ,山口県山口市阿東嘉年上
7591602,山口県,山口市,阿東嘉年下,ヤマグチケン,ヤマグチシ,アトウカネシモ,山口県山口市阿東嘉年下
7592131,山口県,美祢市,伊佐町堀越,ヤマグチケン,ミネシ,イサチョウホリコシ,山口県美祢市伊佐町堀越
7592141,山口県,美祢市,東厚保町山中,ヤマグチケン,ミネシ,ヒガシアツチョウヤマナカ,山口県美祢市東厚保町山中
7592142,山口県,美祢市,東厚保町川東,ヤマグチケン,ミネシ,ヒガシアツチョウカワヒガシ,山口県美祢市東厚保町川東
7592151,山口県,美祢市,西厚保町本郷,ヤマグチケン,ミネシ,ニシアツチョウホンゴウ,山口県美祢市西厚保町本郷
7592152,山口県,美祢市,西厚保町原,ヤマグチケン,ミネシ,ニシアツチョウハラ,山口県美祢市西厚保町原
7592200,山口県,美祢市,,ヤマグチケン,ミネシ,,山口県美祢市
7592211,山口県,美祢市,大嶺町北分,ヤマグチケン,ミネシ,オオミネチョウキタブン,山口県美祢市大嶺町北分
7592212,山口県,美祢市,大嶺町東分,ヤマグチケン,ミネシ,オオミネチョウヒガシブン,山口県美祢市大嶺町東分
7592213,山口県,美祢市,大嶺町西分,ヤマグチケン,ミネシ,オオミネチョウニシブン,山口県美祢市大嶺町西分
7592214,山口県,美祢市,大嶺町奥分,ヤマグチケン,ミネシ,オオミネチョウオクブン,山口県美祢市大嶺町奥分
7592221,山口県,美祢市,伊佐町河原,ヤマグチケン,ミネシ,イサチョウカワラ,山口県美祢市伊佐町河原
7592222,山口県,美祢市,伊佐町伊佐,ヤマグチケン,ミネシ,イサチョウイサ,山口県美祢市伊佐町伊佐
7592223,山口県,美祢市,伊佐町奥万倉,ヤマグチケン,ミネシ,イサチョウオクマグラ,山口県美祢市伊佐町奥万倉
7592301,山口県,美祢市,於福町上（駅前、岡田、上田代、栗ケ原、下田代、神柳、大明、立石、西寺、,ヤマグチケン,ミネシ,オフクチョウカミ(エキマエ、オカダ、カミタシロ、クリガハラ、シモタシロ、シンリュウ、タイメイ、タテイシ、ニシデラ、,山口県美祢市於福町上（駅前、岡田、上田代、栗ケ原、下田代、神柳、大明、立石、西寺、
7592302,山口県,美祢市,於福町下（入水、榎田、金山、小杉、砂地、台、西畑、萩原、東中村、,ヤマグチケン,ミネシ,オフクチョウシモ(イリミズ、エノキダ、カネヤマ、コスギ、スナジ、ダイ、ニシバタ、ハギワラ、ヒガシナカムラ、,山口県美祢市於福町下（入水、榎田、金山、小杉、砂地、台、西畑、萩原、東中村、
7593111,山口県,萩市,上田万,ヤマグチケン,ハギシ,カミタマ,山口県萩市上田万
7593112,山口県,萩市,下田万,ヤマグチケン,ハギシ,シモタマ,山口県萩市下田万
7593113,山口県,萩市,江崎,ヤマグチケン,ハギシ,エサキ,山口県萩市江崎
7593201,山口県,萩市,上小川西分,ヤマグチケン,ハギシ,カミオガワニシブン,山口県萩市上小川西分
7593202,山口県,萩市,上小川東分,ヤマグチケン,ハギシ,カミオガワヒガシブン,山口県萩市上小川東分
7593203,山口県,萩市,中小川,ヤマグチケン,ハギシ,ナカオガワ,山口県萩市中小川
7593204,山口県,萩市,下小川,ヤマグチケン,ハギシ,シモオガワ,山口県萩市下小川
7593301,山口県,萩市,弥富上,ヤマグチケン,ハギシ,ヤドミカミ,山口県萩市弥富上
7593302,山口県,萩市,弥富下,ヤマグチケン,ハギシ,ヤドミシモ,山口県萩市弥富下
7593303,山口県,萩市,鈴野川,ヤマグチケン,ハギシ,スズノガワ,山口県萩市鈴野川
7593411,山口県,萩市,須佐,ヤマグチケン,ハギシ,スサ,山口県萩市須佐
7593501,山口県,阿武郡阿武町,宇田,ヤマグチケン,アブグンアブチョウ,ウタ,山口県阿武郡阿武町宇田
7593502,山口県,阿武郡阿武町,惣郷,ヤマグチケン,アブグンアブチョウ,ソウゴウ,山口県阿武郡阿武町惣郷
7593600,山口県,阿武郡阿武町,,ヤマグチケン,アブグンアブチョウ,,山口県阿武郡阿武町
7593611,山口県,萩市,大井,ヤマグチケン,ハギシ,オオイ,山口県萩市大井
7593621,山口県,阿武郡阿武町,木与,ヤマグチケン,アブグンアブチョウ,キヨ,山口県阿武郡阿武町木与
7593622,山口県,阿武郡阿武町,奈古,ヤマグチケン,アブグンアブチョウ,ナゴ,山口県阿武郡阿武町奈古
7593721,山口県,萩市,三見,ヤマグチケン,ハギシ,サンミ,山口県萩市三見
7593801,山口県,長門市,三隅上,ヤマグチケン,ナガトシ,ミスミカミ,山口県長門市三隅上
7593802,山口県,長門市,三隅中,ヤマグチケン,ナガトシ,ミスミナカ,山口県長門市三隅中
7593803,山口県,長門市,三隅下,ヤマグチケン,ナガトシ,ミスミシモ,山口県長門市三隅下
7594100,山口県,長門市,,ヤマグチケン,ナガトシ,,山口県長門市
7594101,山口県,長門市,東深川,ヤマグチケン,ナガトシ,ヒガシフカワ,山口県長門市東深川
7594102,山口県,長門市,西深川,ヤマグチケン,ナガトシ,ニシフカワ,山口県長門市西深川
7594103,山口県,長門市,深川湯本,ヤマグチケン,ナガトシ,フカワユモト,山口県長門市深川湯本
7594104,山口県,長門市,渋木,ヤマグチケン,ナガトシ,シブキ,山口県長門市渋木
7594105,山口県,長門市,真木,ヤマグチケン,ナガトシ,マキ,山口県長門市真木
7594106,山口県,長門市,仙崎,ヤマグチケン,ナガトシ,センザキ,山口県長門市仙崎
7594107,山口県,長門市,通,ヤマグチケン,ナガトシ,カヨイ,山口県長門市通
7594211,山口県,長門市,俵山,ヤマグチケン,ナガトシ,タワラヤマ,山口県長門市俵山
7594401,山口県,長門市,日置上,ヤマグチケン,ナガトシ,ヘキカミ,山口県長門市日置上
7594402,山口県,長門市,日置中,ヤマグチケン,ナガトシ,ヘキナカ,山口県長門市日置中
7594403,山口県,長門市,日置下,ヤマグチケン,ナガトシ,ヘキシモ,山口県長門市日置下
7594404,山口県,長門市,日置野田,ヤマグチケン,ナガトシ,ヘキノダ,山口県長門市日置野田
7594405,山口県,長門市,日置蔵小田,ヤマグチケン,ナガトシ,ヘキクラオダ,山口県長門市日置蔵小田
7594501,山口県,長門市,油谷蔵小田,ヤマグチケン,ナガトシ,ユヤクラオダ,山口県長門市油谷蔵小田
7594502,山口県,長門市,油谷久富,ヤマグチケン,ナガトシ,ユヤヒサドミ,山口県長門市油谷久富
7594503,山口県,長門市,油谷新別名,ヤマグチケン,ナガトシ,ユヤシンベツミョウ,山口県長門市油谷新別名
7594504,山口県,長門市,油谷河原,ヤマグチケン,ナガトシ,ユヤカワラ,山口県長門市油谷河原
7594505,山口県,長門市,油谷伊上,ヤマグチケン,ナガトシ,ユヤイガミ,山口県長門市油谷伊上
7594621,山口県,長門市,油谷川尻,ヤマグチケン,ナガトシ,ユヤカワシリ,山口県長門市油谷川尻
7594622,山口県,長門市,油谷向津具上,ヤマグチケン,ナガトシ,ユヤムカツクカミ,山口県長門市油谷向津具上
7594623,山口県,長門市,油谷向津具下,ヤマグチケン,ナガトシ,ユヤムカツクシモ,山口県長門市油谷向津具下
7594623,山口県,長門市,油谷向津具下（久津）,ヤマグチケン,ナガトシ,ユヤムカツクシモ(クヅ),山口県長門市油谷向津具下（久津）
7594623,山口県,長門市,油谷向津具下（大浦）,ヤマグチケン,ナガトシ,ユヤムカツクシモ(オオウラ),山口県長門市油谷向津具下（大浦）
7594711,山口県,長門市,油谷後畑,ヤマグチケン,ナガトシ,ユヤウシロバタ,山口県長門市油谷後畑
7594712,山口県,長門市,油谷津黄,ヤマグチケン,ナガトシ,ユヤツオウ,山口県長門市油谷津黄
7594713,山口県,長門市,油谷角山,ヤマグチケン,ナガトシ,ユヤカドヤマ,山口県長門市油谷角山
7595101,山口県,下関市,豊北町粟野,ヤマグチケン,シモノセキシ,ホウホクチョウアワノ,山口県下関市豊北町粟野
7595241,山口県,下関市,豊北町阿川,ヤマグチケン,シモノセキシ,ホウホクチョウアガワ,山口県下関市豊北町阿川
7595331,山口県,下関市,豊北町神田,ヤマグチケン,シモノセキシ,ホウホクチョウカンダ,山口県下関市豊北町神田
7595332,山口県,下関市,豊北町角島,ヤマグチケン,シモノセキシ,ホウホクチョウツノシマ,山口県下関市豊北町角島
7595511,山口県,下関市,豊北町滝部,ヤマグチケン,シモノセキシ,ホウホクチョウタキベ,山口県下関市豊北町滝部
7595512,山口県,下関市,豊北町田耕,ヤマグチケン,シモノセキシ,ホウホクチョウタスキ,山口県下関市豊北町田耕
7595513,山口県,下関市,豊北町北宇賀,ヤマグチケン,シモノセキシ,ホウホクチョウキタウカ,山口県下関市豊北町北宇賀
7595513,山口県,下関市,豊北町神田上（７２８６〜７３３９番地）,ヤマグチケン,シモノセキシ,ホウホクチョウカンダカミ(7286-7339バンチ),山口県下関市豊北町神田上（7286〜7339-）
7596121,山口県,下関市,豊北町神田上（その他）,ヤマグチケン,シモノセキシ,ホウホクチョウカンダカミ(ソノタ),山口県下関市豊北町神田上（その他）
7596122,山口県,下関市,豊北町矢玉,ヤマグチケン,シモノセキシ,ホウホクチョウヤタマ,山口県下関市豊北町矢玉
7596301,山口県,下関市,豊浦町川棚,ヤマグチケン,シモノセキシ,トヨウラチョウカワタナ,山口県下関市豊浦町川棚
7596302,山口県,下関市,豊浦町小串,ヤマグチケン,シモノセキシ,トヨウラチョウコグシ,山口県下関市豊浦町小串
7596303,山口県,下関市,豊浦町宇賀,ヤマグチケン,シモノセキシ,トヨウラチョウウカ,山口県下関市豊浦町宇賀
7596311,山口県,下関市,豊浦町吉永,ヤマグチケン,シモノセキシ,トヨウラチョウヨシナガ,山口県下関市豊浦町吉永
7596312,山口県,下関市,豊浦町黒井,ヤマグチケン,シモノセキシ,トヨウラチョウクロイ,山口県下関市豊浦町黒井
7596313,山口県,下関市,豊浦町豊洋台,ヤマグチケン,シモノセキシ,トヨウラチョウホウヨウダイ,山口県下関市豊浦町豊洋台
7596313,山口県,下関市,豊浦町豊洋台新町,ヤマグチケン,シモノセキシ,トヨウラチョウホウヨウダイシンマチ,山口県下関市豊浦町豊洋台新町
7596314,山口県,下関市,豊浦町厚母郷,ヤマグチケン,シモノセキシ,トヨウラチョウアツモゴウ,山口県下関市豊浦町厚母郷
7596315,山口県,下関市,豊浦町室津上,ヤマグチケン,シモノセキシ,トヨウラチョウムロツカミ,山口県下関市豊浦町室津上
7596316,山口県,下関市,豊浦町室津下,ヤマグチケン,シモノセキシ,トヨウラチョウムロツシモ,山口県下関市豊浦町室津下
7596317,山口県,下関市,豊浦町涌田後地,ヤマグチケン,シモノセキシ,トヨウラチョウワイタウシロジ,山口県下関市豊浦町涌田後地
7596521,山口県,下関市,吉見古宿町,ヤマグチケン,シモノセキシ,ヨシミコジュクチョウ,山口県下関市吉見古宿町
7596522,山口県,下関市,吉見竜王町,ヤマグチケン,シモノセキシ,ヨシミリュウオウチョウ,山口県下関市吉見竜王町
7596523,山口県,下関市,吉見下,ヤマグチケン,シモノセキシ,ヨシミシモ,山口県下関市吉見下
7596524,山口県,下関市,吉見上,ヤマグチケン,シモノセキシ,ヨシミカミ,山口県下関市吉見上
7596525,山口県,下関市,吉見里町,ヤマグチケン,シモノセキシ,ヨシミサトマチ,山口県下関市吉見里町
7596531,山口県,下関市,吉見本町,ヤマグチケン,シモノセキシ,ヨシミホンマチ,山口県下関市吉見本町
7596532,山口県,下関市,吉見新町,ヤマグチケン,シモノセキシ,ヨシミシンマチ,山口県下関市吉見新町
7596533,山口県,下関市,永田本町,ヤマグチケン,シモノセキシ,ナガタホンマチ,山口県下関市永田本町
7596534,山口県,下関市,永田郷,ヤマグチケン,シモノセキシ,ナガタゴウ,山口県下関市永田郷
7596541,山口県,下関市,吉母,ヤマグチケン,シモノセキシ,ヨシモ,山口県下関市吉母
7596542,山口県,下関市,蓋井島,ヤマグチケン,シモノセキシ,フタオイジマ,山口県下関市蓋井島
7596601,山口県,下関市,福江,ヤマグチケン,シモノセキシ,フクエ,山口県下関市福江
7596602,山口県,下関市,蒲生野,ヤマグチケン,シモノセキシ,カモウノ,山口県下関市蒲生野
7596603,山口県,下関市,安岡町,ヤマグチケン,シモノセキシ,ヤスオカチョウ,山口県下関市安岡町
7596604,山口県,下関市,横野町,ヤマグチケン,シモノセキシ,ヨコノチョウ,山口県下関市横野町
7596605,山口県,下関市,安岡,ヤマグチケン,シモノセキシ,ヤスオカ,山口県下関市安岡
7596611,山口県,下関市,安岡本町,ヤマグチケン,シモノセキシ,ヤスオカホンマチ,山口県下関市安岡本町
7596612,山口県,下関市,安岡駅前,ヤマグチケン,シモノセキシ,ヤスオカエキマエ,山口県下関市安岡駅前
7596613,山口県,下関市,富任町,ヤマグチケン,シモノセキシ,トミトウチョウ,山口県下関市富任町
7596614,山口県,下関市,梶栗町,ヤマグチケン,シモノセキシ,カジクリチョウ,山口県下関市梶栗町
7596615,山口県,下関市,冨任,ヤマグチケン,シモノセキシ,トミトウ,山口県下関市冨任
