zipcode,prefecture_name,city,town,prefecture_kana,city_kana,town_kana,normalized_address
7700000,徳島県,徳島市,,トクシマケン,トクシマシ,,徳島県徳島市
7700001,徳島県,徳島市,春日町,トクシマケン,トクシマシ,カスガチョウ,徳島県徳島市春日町
7700002,徳島県,徳島市,春日,トクシマケン,トクシマシ,カスガ,徳島県徳島市春日
7700003,徳島県,徳島市,北田宮,トクシマケン,トクシマシ,キタタミヤ,徳島県徳島市北田宮
7700004,徳島県,徳島市,南田宮,トクシマケン,トクシマシ,ミナミタミヤ,徳島県徳島市南田宮
7700005,徳島県,徳島市,南矢三町,トクシマケン,トクシマシ,ミナミヤソチョウ,徳島県徳島市南矢三町
7700006,徳島県,徳島市,北矢三町,トクシマケン,トクシマシ,キタヤソチョウ,徳島県徳島市北矢三町
7700011,徳島県,徳島市,北佐古一番町,トクシマケン,トクシマシ,キタサコイチバンチョウ,徳島県徳島市北佐古一番町
7700012,徳島県,徳島市,北佐古二番町,トクシマケン,トクシマシ,キタサコニバンチョウ,徳島県徳島市北佐古二番町
7700021,徳島県,徳島市,佐古一番町,トクシマケン,トクシマシ,サコ1バンチョウ,徳島県徳島市佐古一番町
7700022,徳島県,徳島市,佐古二番町,トクシマケン,トクシマシ,サコ2バンチョウ,徳島県徳島市佐古二番町
7700023,徳島県,徳島市,佐古三番町,トクシマケン,トクシマシ,サコ3バンチョウ,徳島県徳島市佐古三番町
7700024,徳島県,徳島市,佐古四番町,トクシマケン,トクシマシ,サコ4バンチョウ,徳島県徳島市佐古四番町
7700025,徳島県,徳島市,佐古五番町,トクシマケン,トクシマシ,サコ5バンチョウ,徳島県徳島市佐古五番町
7700026,徳島県,徳島市,佐古六番町,トクシマケン,トクシマシ,サコ6バンチョウ,徳島県徳島市佐古六番町
7700027,徳島県,徳島市,佐古七番町,トクシマケン,トクシマシ,サコ7バンチョウ,徳島県徳島市佐古七番町
7700028,徳島県,徳島市,佐古八番町,トクシマケン,トクシマシ,サコ8バンチョウ,徳島県徳島市佐古八番町
7700031,徳島県,徳島市,南佐古一番町,トクシマケン,トクシマシ,ミナミサコ1バンチョウ,徳島県徳島市南佐古一番町
7700032,徳島県,徳島市,南佐古二番町,トクシマケン,トクシマシ,ミナミサコ2バンチョウ,徳島県徳島市南佐古二番町
7700033,徳島県,徳島市,南佐古三番町,トクシマケン,トクシマシ,ミナミサコ3バンチョウ,徳島県徳島市南佐古三番町
7700034,徳島県,徳島市,南佐古四番町,トクシマケン,トクシマシ,ミナミサコ4バンチョウ,徳島県徳島市南佐古四番町
7700035,徳島県,徳島市,南佐古五番町,トクシマケン,トクシマシ,ミナミサコ5バンチョウ,徳島県徳島市南佐古五番町
7700036,徳島県,徳島市,南佐古六番町,トクシマケン,トクシマシ,ミナミサコ6バンチョウ,徳島県徳島市南佐古六番町
7700037,徳島県,徳島市,南佐古七番町,トクシマケン,トクシマシ,ミナミサコ7バンチョウ,徳島県徳島市南佐古七番町
7700038,徳島県,徳島市,南佐古八番町,トクシマケン,トクシマシ,ミナミサコ8バンチョウ,徳島県徳島市南佐古八番町
7700039,徳島県,徳島市,佐古山町,トクシマケン,トクシマシ,サコヤマチョウ,徳島県徳島市佐古山町
7700041,徳島県,徳島市,蔵本元町,トクシマケン,トクシマシ,クラモトモトマチ,徳島県徳島市蔵本元町
7700042,徳島県,徳島市,蔵本町,トクシマケン,トクシマシ,クラモトチョウ,徳島県徳島市蔵本町
7700043,徳島県,徳島市,南蔵本町,トクシマケン,トクシマシ,ミナミクラモトチョウ,徳島県徳島市南蔵本町
7700044,徳島県,徳島市,庄町,トクシマケン,トクシマシ,ショウマチ,徳島県徳島市庄町
7700045,徳島県,徳島市,南庄町,トクシマケン,トクシマシ,ミナミショウマチ,徳島県徳島市南庄町
7700046,徳島県,徳島市,鮎喰町,トクシマケン,トクシマシ,アクイチョウ,徳島県徳島市鮎喰町
7700047,徳島県,徳島市,名東町,トクシマケン,トクシマシ,ミョウドウチョウ,徳島県徳島市名東町
7700048,徳島県,徳島市,加茂名町,トクシマケン,トクシマシ,カモナチョウ,徳島県徳島市加茂名町
7700051,徳島県,徳島市,北島田町,トクシマケン,トクシマシ,キタシマダチョウ,徳島県徳島市北島田町
7700052,徳島県,徳島市,中島田町,トクシマケン,トクシマシ,ナカシマダチョウ,徳島県徳島市中島田町
7700053,徳島県,徳島市,南島田町,トクシマケン,トクシマシ,ミナミシマダチョウ,徳島県徳島市南島田町
7700061,徳島県,徳島市,不動北町,トクシマケン,トクシマシ,フドウキタマチ,徳島県徳島市不動北町
7700062,徳島県,徳島市,不動東町,トクシマケン,トクシマシ,フドウヒガシマチ,徳島県徳島市不動東町
7700063,徳島県,徳島市,不動本町,トクシマケン,トクシマシ,フドウホンチョウ,徳島県徳島市不動本町
7700064,徳島県,徳島市,不動西町,トクシマケン,トクシマシ,フドウニシマチ,徳島県徳島市不動西町
7700801,徳島県,徳島市,上助任町,トクシマケン,トクシマシ,カミスケトウチョウ,徳島県徳島市上助任町
7700802,徳島県,徳島市,吉野本町,トクシマケン,トクシマシ,ヨシノホンチョウ,徳島県徳島市吉野本町
7700803,徳島県,徳島市,上吉野町,トクシマケン,トクシマシ,カミヨシノチョウ,徳島県徳島市上吉野町
7700804,徳島県,徳島市,中吉野町,トクシマケン,トクシマシ,ナカヨシノチョウ,徳島県徳島市中吉野町
7700805,徳島県,徳島市,下助任町,トクシマケン,トクシマシ,シモスケトウチョウ,徳島県徳島市下助任町
7700806,徳島県,徳島市,北前川町,トクシマケン,トクシマシ,キタマエガワチョウ,徳島県徳島市北前川町
7700807,徳島県,徳島市,中前川町,トクシマケン,トクシマシ,ナカマエガワチョウ,徳島県徳島市中前川町
7700808,徳島県,徳島市,南前川町,トクシマケン,トクシマシ,ミナミマエガワチョウ,徳島県徳島市南前川町
7700811,徳島県,徳島市,東吉野町,トクシマケン,トクシマシ,ヒガシヨシノチョウ,徳島県徳島市東吉野町
7700812,徳島県,徳島市,北常三島町,トクシマケン,トクシマシ,キタジョウサンジマチョウ,徳島県徳島市北常三島町
7700813,徳島県,徳島市,中常三島町,トクシマケン,トクシマシ,ナカジョウサンジマチョウ,徳島県徳島市中常三島町
7700814,徳島県,徳島市,南常三島町,トクシマケン,トクシマシ,ミナミジョウサンジマチョウ,徳島県徳島市南常三島町
7700815,徳島県,徳島市,助任橋,トクシマケン,トクシマシ,スケトウバシ,徳島県徳島市助任橋
7700816,徳島県,徳島市,助任本町,トクシマケン,トクシマシ,スケトウホンチョウ,徳島県徳島市助任本町
7700821,徳島県,徳島市,北出来島町,トクシマケン,トクシマシ,キタデキジマチョウ,徳島県徳島市北出来島町
7700822,徳島県,徳島市,東出来島町,トクシマケン,トクシマシ,ヒガシデキジマチョウ,徳島県徳島市東出来島町
7700823,徳島県,徳島市,出来島本町,トクシマケン,トクシマシ,デキジマホンチョウ,徳島県徳島市出来島本町
7700824,徳島県,徳島市,南出来島町,トクシマケン,トクシマシ,ミナミデキジマチョウ,徳島県徳島市南出来島町
7700831,徳島県,徳島市,寺島本町西,トクシマケン,トクシマシ,テラシマホンチョウニシ,徳島県徳島市寺島本町西
7700832,徳島県,徳島市,寺島本町東,トクシマケン,トクシマシ,テラシマホンチョウヒガシ,徳島県徳島市寺島本町東
7700833,徳島県,徳島市,一番町,トクシマケン,トクシマシ,イチバンチョウ,徳島県徳島市一番町
7700834,徳島県,徳島市,元町,トクシマケン,トクシマシ,モトマチ,徳島県徳島市元町
7700835,徳島県,徳島市,藍場町,トクシマケン,トクシマシ,アイバチョウ,徳島県徳島市藍場町
7700841,徳島県,徳島市,八百屋町,トクシマケン,トクシマシ,ヤオヤマチ,徳島県徳島市八百屋町
7700842,徳島県,徳島市,通町,トクシマケン,トクシマシ,トオリマチ,徳島県徳島市通町
7700843,徳島県,徳島市,両国本町,トクシマケン,トクシマシ,リョウゴクホンチョウ,徳島県徳島市両国本町
7700844,徳島県,徳島市,中通町,トクシマケン,トクシマシ,ナカトオリマチ,徳島県徳島市中通町
7700845,徳島県,徳島市,新内町,トクシマケン,トクシマシ,シンウチマチ,徳島県徳島市新内町
7700846,徳島県,徳島市,南内町,トクシマケン,トクシマシ,ミナミウチマチ,徳島県徳島市南内町
7700847,徳島県,徳島市,幸町,トクシマケン,トクシマシ,サイワイチョウ,徳島県徳島市幸町
7700851,徳島県,徳島市,徳島町城内,トクシマケン,トクシマシ,トクシマチョウジョウナイ,徳島県徳島市徳島町城内
7700852,徳島県,徳島市,徳島町,トクシマケン,トクシマシ,トクシマチョウ,徳島県徳島市徳島町
7700853,徳島県,徳島市,中徳島町,トクシマケン,トクシマシ,ナカトクシマチョウ,徳島県徳島市中徳島町
7700854,徳島県,徳島市,徳島本町,トクシマケン,トクシマシ,トクシマホンチョウ,徳島県徳島市徳島本町
7700855,徳島県,徳島市,新蔵町,トクシマケン,トクシマシ,シンクラチョウ,徳島県徳島市新蔵町
7700856,徳島県,徳島市,中洲町,トクシマケン,トクシマシ,ナカズチョウ,徳島県徳島市中洲町
7700861,徳島県,徳島市,住吉,トクシマケン,トクシマシ,スミヨシ,徳島県徳島市住吉
7700862,徳島県,徳島市,城東町,トクシマケン,トクシマシ,ジョウトウチョウ,徳島県徳島市城東町
7700863,徳島県,徳島市,安宅,トクシマケン,トクシマシ,アタケ,徳島県徳島市安宅
7700864,徳島県,徳島市,大和町,トクシマケン,トクシマシ,ヤマトチョウ,徳島県徳島市大和町
7700865,徳島県,徳島市,南末広町,トクシマケン,トクシマシ,ミナミスエヒロチョウ,徳島県徳島市南末広町
7700866,徳島県,徳島市,末広,トクシマケン,トクシマシ,スエヒロ,徳島県徳島市末広
7700867,徳島県,徳島市,新南福島,トクシマケン,トクシマシ,シンミナミフクシマ,徳島県徳島市新南福島
7700868,徳島県,徳島市,福島,トクシマケン,トクシマシ,フクシマ,徳島県徳島市福島
7700871,徳島県,徳島市,金沢,トクシマケン,トクシマシ,カナザワ,徳島県徳島市金沢
7700872,徳島県,徳島市,北沖洲,トクシマケン,トクシマシ,キタオキノス,徳島県徳島市北沖洲
7700873,徳島県,徳島市,東沖洲,トクシマケン,トクシマシ,ヒガシオキノス,徳島県徳島市東沖洲
7700874,徳島県,徳島市,南沖洲,トクシマケン,トクシマシ,ミナミオキノス,徳島県徳島市南沖洲
7700901,徳島県,徳島市,西船場町,トクシマケン,トクシマシ,ニシセンバチョウ,徳島県徳島市西船場町
7700902,徳島県,徳島市,西新町,トクシマケン,トクシマシ,ニシシンマチ,徳島県徳島市西新町
7700903,徳島県,徳島市,西大工町,トクシマケン,トクシマシ,ニシダイクマチ,徳島県徳島市西大工町
7700904,徳島県,徳島市,新町橋,トクシマケン,トクシマシ,シンマチバシ,徳島県徳島市新町橋
7700905,徳島県,徳島市,東大工町,トクシマケン,トクシマシ,ヒガシダイクマチ,徳島県徳島市東大工町
7700906,徳島県,徳島市,東山手町,トクシマケン,トクシマシ,ヒガシヤマテチョウ,徳島県徳島市東山手町
7700907,徳島県,徳島市,西山手町,トクシマケン,トクシマシ,ニシヤマテチョウ,徳島県徳島市西山手町
7700908,徳島県,徳島市,眉山町,トクシマケン,トクシマシ,ビザンチョウ,徳島県徳島市眉山町
7700909,徳島県,徳島市,寺町,トクシマケン,トクシマシ,テラマチ,徳島県徳島市寺町
7700911,徳島県,徳島市,東船場町,トクシマケン,トクシマシ,ヒガシセンバチョウ,徳島県徳島市東船場町
7700912,徳島県,徳島市,東新町,トクシマケン,トクシマシ,ヒガシシンマチ,徳島県徳島市東新町
7700913,徳島県,徳島市,南新町,トクシマケン,トクシマシ,ミナミシンマチ,徳島県徳島市南新町
7700914,徳島県,徳島市,籠屋町,トクシマケン,トクシマシ,カゴヤマチ,徳島県徳島市籠屋町
7700915,徳島県,徳島市,富田町,トクシマケン,トクシマシ,トミダマチ,徳島県徳島市富田町
7700916,徳島県,徳島市,銀座,トクシマケン,トクシマシ,ギンザ,徳島県徳島市銀座
7700917,徳島県,徳島市,両国橋,トクシマケン,トクシマシ,リョウゴクバシ,徳島県徳島市両国橋
7700918,徳島県,徳島市,紺屋町,トクシマケン,トクシマシ,コンヤマチ,徳島県徳島市紺屋町
7700921,徳島県,徳島市,栄町,トクシマケン,トクシマシ,サカエマチ,徳島県徳島市栄町
7700922,徳島県,徳島市,鷹匠町,トクシマケン,トクシマシ,タカジョウマチ,徳島県徳島市鷹匠町
7700923,徳島県,徳島市,大道,トクシマケン,トクシマシ,オオミチ,徳島県徳島市大道
7700924,徳島県,徳島市,幟町,トクシマケン,トクシマシ,ノボリチョウ,徳島県徳島市幟町
7700925,徳島県,徳島市,弓町,トクシマケン,トクシマシ,ユミチョウ,徳島県徳島市弓町
7700926,徳島県,徳島市,伊賀町,トクシマケン,トクシマシ,イガチョウ,徳島県徳島市伊賀町
7700927,徳島県,徳島市,勢見町,トクシマケン,トクシマシ,セイミチョウ,徳島県徳島市勢見町
7700928,徳島県,徳島市,二軒屋町,トクシマケン,トクシマシ,ニケンヤチョウ,徳島県徳島市二軒屋町
7700929,徳島県,徳島市,西富田町,トクシマケン,トクシマシ,ニシトミダチョウ,徳島県徳島市西富田町
7700931,徳島県,徳島市,富田浜,トクシマケン,トクシマシ,トミダハマ,徳島県徳島市富田浜
7700932,徳島県,徳島市,仲之町,トクシマケン,トクシマシ,ナカノチョウ,徳島県徳島市仲之町
7700933,徳島県,徳島市,南仲之町,トクシマケン,トクシマシ,ミナミナカノチョウ,徳島県徳島市南仲之町
7700934,徳島県,徳島市,秋田町,トクシマケン,トクシマシ,アキタマチ,徳島県徳島市秋田町
7700935,徳島県,徳島市,伊月町,トクシマケン,トクシマシ,イツキチョウ,徳島県徳島市伊月町
7700936,徳島県,徳島市,中央通,トクシマケン,トクシマシ,チュウオウドオリ,徳島県徳島市中央通
7700937,徳島県,徳島市,富田橋,トクシマケン,トクシマシ,トミダバシ,徳島県徳島市富田橋
7700938,徳島県,徳島市,明神町,トクシマケン,トクシマシ,ミョウジンチョウ,徳島県徳島市明神町
7700939,徳島県,徳島市,かちどき橋,トクシマケン,トクシマシ,カチドキバシ,徳島県徳島市かちどき橋
7700941,徳島県,徳島市,万代町,トクシマケン,トクシマシ,バンダイチョウ,徳島県徳島市万代町
7700942,徳島県,徳島市,昭和町,トクシマケン,トクシマシ,ショウワチョウ,徳島県徳島市昭和町
7700943,徳島県,徳島市,中昭和町,トクシマケン,トクシマシ,ナカショウワチョウ,徳島県徳島市中昭和町
7700944,徳島県,徳島市,南昭和町,トクシマケン,トクシマシ,ミナミショウワチョウ,徳島県徳島市南昭和町
7708001,徳島県,徳島市,津田海岸町,トクシマケン,トクシマシ,ツダカイガンチョウ,徳島県徳島市津田海岸町
7708002,徳島県,徳島市,津田町,トクシマケン,トクシマシ,ツダチョウ,徳島県徳島市津田町
7708003,徳島県,徳島市,津田本町,トクシマケン,トクシマシ,ツダホンチョウ,徳島県徳島市津田本町
7708004,徳島県,徳島市,津田西町,トクシマケン,トクシマシ,ツダニシマチ,徳島県徳島市津田西町
7708005,徳島県,徳島市,津田浜之町,トクシマケン,トクシマシ,ツダハマノチョウ,徳島県徳島市津田浜之町
7708006,徳島県,徳島市,新浜町,トクシマケン,トクシマシ,シンハマチョウ,徳島県徳島市新浜町
7708007,徳島県,徳島市,新浜本町,トクシマケン,トクシマシ,シンハマホンチョウ,徳島県徳島市新浜本町
7708008,徳島県,徳島市,西新浜町,トクシマケン,トクシマシ,ニシシンハマチョウ,徳島県徳島市西新浜町
7708011,徳島県,徳島市,論田町,トクシマケン,トクシマシ,ロンデンチョウ,徳島県徳島市論田町
7708012,徳島県,徳島市,大原町（その他）,トクシマケン,トクシマシ,オオバラチョウ(ソノタ),徳島県徳島市大原町（その他）
7708021,徳島県,徳島市,雑賀町,トクシマケン,トクシマシ,サイカチョウ,徳島県徳島市雑賀町
7708022,徳島県,徳島市,大松町,トクシマケン,トクシマシ,オオマツチョウ,徳島県徳島市大松町
7708023,徳島県,徳島市,勝占町,トクシマケン,トクシマシ,カツラチョウ,徳島県徳島市勝占町
7708024,徳島県,徳島市,西須賀町,トクシマケン,トクシマシ,ニシズカチョウ,徳島県徳島市西須賀町
7708025,徳島県,徳島市,三軒屋町,トクシマケン,トクシマシ,サンゲンヤチョウ,徳島県徳島市三軒屋町
7708031,徳島県,徳島市,大谷町,トクシマケン,トクシマシ,オオタニチョウ,徳島県徳島市大谷町
7708032,徳島県,徳島市,北山町,トクシマケン,トクシマシ,キタヤマチョウ,徳島県徳島市北山町
7708033,徳島県,徳島市,方上町,トクシマケン,トクシマシ,カタノカミチョウ,徳島県徳島市方上町
7708040,徳島県,徳島市,上八万町（その他）,トクシマケン,トクシマシ,カミハチマンチョウ(ソノタ),徳島県徳島市上八万町（その他）
7708041,徳島県,徳島市,上八万町西山（しらさぎ台）,トクシマケン,トクシマシ,カミハチマンチョウニシヤマ(シラサギダイ),徳島県徳島市上八万町西山（しらさぎ台）
7708051,徳島県,徳島市,沖浜町,トクシマケン,トクシマシ,オキノハマチョウ,徳島県徳島市沖浜町
7708052,徳島県,徳島市,沖浜,トクシマケン,トクシマシ,オキノハマ,徳島県徳島市沖浜
7708053,徳島県,徳島市,沖浜東,トクシマケン,トクシマシ,オキノハマヒガシ,徳島県徳島市沖浜東
7708054,徳島県,徳島市,山城西,トクシマケン,トクシマシ,ヤマシロニシ,徳島県徳島市山城西
7708055,徳島県,徳島市,山城町,トクシマケン,トクシマシ,ヤマシロチョウ,徳島県徳島市山城町
7708056,徳島県,徳島市,問屋町,トクシマケン,トクシマシ,トイヤマチ,徳島県徳島市問屋町
7708061,徳島県,徳島市,西二軒屋町,トクシマケン,トクシマシ,ニシニケンヤチョウ,徳島県徳島市西二軒屋町
7708063,徳島県,徳島市,南二軒屋町,トクシマケン,トクシマシ,ミナミニケンヤチョウ,徳島県徳島市南二軒屋町
7708064,徳島県,徳島市,城南町,トクシマケン,トクシマシ,ジョウナンチョウ,徳島県徳島市城南町
7708070,徳島県,徳島市,八万町（その他）,トクシマケン,トクシマシ,ハチマンチョウ(ソノタ),徳島県徳島市八万町（その他）
7708071,徳島県,徳島市,八万町（中津山）,トクシマケン,トクシマシ,ハチマンチョウ(ナカツヤマ),徳島県徳島市八万町（中津山）
7708072,徳島県,徳島市,八万町（中津浦）,トクシマケン,トクシマシ,ハチマンチョウ(ナカツウラ),徳島県徳島市八万町（中津浦）
7708073,徳島県,徳島市,八万町（上福万）,トクシマケン,トクシマシ,ハチマンチョウ(カミフクマン),徳島県徳島市八万町（上福万）
7708074,徳島県,徳島市,八万町（下福万）,トクシマケン,トクシマシ,ハチマンチョウ(シモフクマン),徳島県徳島市八万町（下福万）
7708075,徳島県,徳島市,八万町（千鳥）,トクシマケン,トクシマシ,ハチマンチョウ(チドリ),徳島県徳島市八万町（千鳥）
7708076,徳島県,徳島市,八万町（内浜）,トクシマケン,トクシマシ,ハチマンチョウ(ウチハマ),徳島県徳島市八万町（内浜）
7708077,徳島県,徳島市,八万町（夷山）,トクシマケン,トクシマシ,ハチマンチョウ(エビスヤマ),徳島県徳島市八万町（夷山）
7708078,徳島県,徳島市,八万町（橋本）,トクシマケン,トクシマシ,ハチマンチョウ(ハシモト),徳島県徳島市八万町（橋本）
7708079,徳島県,徳島市,八万町（大坪）,トクシマケン,トクシマシ,ハチマンチョウ(オオツボ),徳島県徳島市八万町（大坪）
7708081,徳島県,徳島市,八万町（弐丈）,トクシマケン,トクシマシ,ハチマンチョウ(ニジョウ),徳島県徳島市八万町（弐丈）
7708082,徳島県,徳島市,八万町（川南）,トクシマケン,トクシマシ,ハチマンチョウ(カワミナミ),徳島県徳島市八万町（川南）
7708083,徳島県,徳島市,八万町（法花）,トクシマケン,トクシマシ,ハチマンチョウ(ホッケ),徳島県徳島市八万町（法花）
7708084,徳島県,徳島市,八万町（法花谷）,トクシマケン,トクシマシ,ハチマンチョウ(ホッケダニ),徳島県徳島市八万町（法花谷）
7710101,徳島県,徳島市,川内町（旭野）,トクシマケン,トクシマシ,カワウチチョウ(アサヒノ),徳島県徳島市川内町（旭野）
7710102,徳島県,徳島市,川内町（小松北）,トクシマケン,トクシマシ,カワウチチョウ(コマツキタ),徳島県徳島市川内町（小松北）
7710103,徳島県,徳島市,川内町（小松東）,トクシマケン,トクシマシ,カワウチチョウ(コマツヒガシ),徳島県徳島市川内町（小松東）
7710104,徳島県,徳島市,川内町（小松西）,トクシマケン,トクシマシ,カワウチチョウ(コマツニシ),徳島県徳島市川内町（小松西）
7710105,徳島県,徳島市,川内町（下別宮西）,トクシマケン,トクシマシ,カワウチチョウ(シモベツクニシ),徳島県徳島市川内町（下別宮西）
7710106,徳島県,徳島市,川内町（下別宮東）,トクシマケン,トクシマシ,カワウチチョウ(シモベツクヒガシ),徳島県徳島市川内町（下別宮東）
7710111,徳島県,徳島市,川内町（富久）,トクシマケン,トクシマシ,カワウチチョウ(トミヒサ),徳島県徳島市川内町（富久）
7710112,徳島県,徳島市,川内町（富吉）,トクシマケン,トクシマシ,カワウチチョウ(トミヨシ),徳島県徳島市川内町（富吉）
7710113,徳島県,徳島市,川内町（松岡）,トクシマケン,トクシマシ,カワウチチョウ(マツオカ),徳島県徳島市川内町（松岡）
7710114,徳島県,徳島市,川内町（宮島本浦）,トクシマケン,トクシマシ,カワウチチョウ(ミヤジマホンウラ),徳島県徳島市川内町（宮島本浦）
7710115,徳島県,徳島市,川内町（宮島浜）,トクシマケン,トクシマシ,カワウチチョウ(ミヤジマハマ),徳島県徳島市川内町（宮島浜）
7710116,徳島県,徳島市,川内町（宮島錦野）,トクシマケン,トクシマシ,カワウチチョウ(ミヤジマニシキノ),徳島県徳島市川内町（宮島錦野）
7710117,徳島県,徳島市,川内町（鶴島）,トクシマケン,トクシマシ,カワウチチョウ(ツルシマ),徳島県徳島市川内町（鶴島）
7710121,徳島県,徳島市,川内町（鈴江東）,トクシマケン,トクシマシ,カワウチチョウ(スズエヒガシ),徳島県徳島市川内町（鈴江東）
7710122,徳島県,徳島市,川内町（鈴江西）,トクシマケン,トクシマシ,カワウチチョウ(スズエニシ),徳島県徳島市川内町（鈴江西）
7710123,徳島県,徳島市,川内町（鈴江北）,トクシマケン,トクシマシ,カワウチチョウ(スズエキタ),徳島県徳島市川内町（鈴江北）
7710124,徳島県,徳島市,川内町（鈴江南）,トクシマケン,トクシマシ,カワウチチョウ(スズエミナミ),徳島県徳島市川内町（鈴江南）
7710125,徳島県,徳島市,川内町（金岡）,トクシマケン,トクシマシ,カワウチチョウ(カナオカ),徳島県徳島市川内町（金岡）
7710126,徳島県,徳島市,川内町（上別宮東）,トクシマケン,トクシマシ,カワウチチョウ(カミベツクヒガシ),徳島県徳島市川内町（上別宮東）
7710127,徳島県,徳島市,川内町（上別宮南）,トクシマケン,トクシマシ,カワウチチョウ(カミベツクミナミ),徳島県徳島市川内町（上別宮南）
7710128,徳島県,徳島市,川内町（上別宮北）,トクシマケン,トクシマシ,カワウチチョウ(カミベツクキタ),徳島県徳島市川内町（上別宮北）
7710129,徳島県,徳島市,川内町（北原）,トクシマケン,トクシマシ,カワウチチョウ(キタハラ),徳島県徳島市川内町（北原）
7710130,徳島県,徳島市,川内町（加賀須野）,トクシマケン,トクシマシ,カワウチチョウ(カガスノ),徳島県徳島市川内町（加賀須野）
7710131,徳島県,徳島市,川内町（大松）,トクシマケン,トクシマシ,カワウチチョウ(オオマツ),徳島県徳島市川内町（大松）
7710132,徳島県,徳島市,川内町（平石夷野）,トクシマケン,トクシマシ,カワウチチョウ(ヒライシエビスノ),徳島県徳島市川内町（平石夷野）
7710133,徳島県,徳島市,川内町（平石夷野番外）,トクシマケン,トクシマシ,カワウチチョウ(ヒライシエビスノバンガイ),徳島県徳島市川内町（平石夷野番外）
7710134,徳島県,徳島市,川内町（平石住吉）,トクシマケン,トクシマシ,カワウチチョウ(ヒライシスミヨシ),徳島県徳島市川内町（平石住吉）
7710135,徳島県,徳島市,川内町（平石若松）,トクシマケン,トクシマシ,カワウチチョウ(ヒライシワカマツ),徳島県徳島市川内町（平石若松）
7710136,徳島県,徳島市,川内町（平石古田）,トクシマケン,トクシマシ,カワウチチョウ(ヒライシコデン),徳島県徳島市川内町（平石古田）
7710137,徳島県,徳島市,川内町（平石若宮）,トクシマケン,トクシマシ,カワウチチョウ(ヒライシワカミヤ),徳島県徳島市川内町（平石若宮）
7710138,徳島県,徳島市,川内町（平石流通団地）,トクシマケン,トクシマシ,カワウチチョウ(ヒライシリュウツウダンチ),徳島県徳島市川内町（平石流通団地）
7710139,徳島県,徳島市,川内町（米津）,トクシマケン,トクシマシ,カワウチチョウ(ヨネヅ),徳島県徳島市川内町（米津）
7710141,徳島県,徳島市,川内町（竹須賀）,トクシマケン,トクシマシ,カワウチチョウ(タケズカ),徳島県徳島市川内町（竹須賀）
7710142,徳島県,徳島市,川内町（沖島）,トクシマケン,トクシマシ,カワウチチョウ(オキノシマ),徳島県徳島市川内町（沖島）
7710143,徳島県,徳島市,川内町（中島）,トクシマケン,トクシマシ,カワウチチョウ(ナカシマ),徳島県徳島市川内町（中島）
7710144,徳島県,徳島市,川内町（榎瀬）,トクシマケン,トクシマシ,カワウチチョウ(エノキセ),徳島県徳島市川内町（榎瀬）
7710200,徳島県,板野郡北島町,,トクシマケン,イタノグンキタジマチョウ,,徳島県板野郡北島町
7710200,徳島県,板野郡松茂町,,トクシマケン,イタノグンマツシゲチョウ,,徳島県板野郡松茂町
7710201,徳島県,板野郡北島町,北村,トクシマケン,イタノグンキタジマチョウ,キタムラ,徳島県板野郡北島町北村
7710202,徳島県,板野郡北島町,太郎八須,トクシマケン,イタノグンキタジマチョウ,タロウハチズ,徳島県板野郡北島町太郎八須
7710203,徳島県,板野郡北島町,中村,トクシマケン,イタノグンキタジマチョウ,ナカムラ,徳島県板野郡北島町中村
7710204,徳島県,板野郡北島町,鯛浜,トクシマケン,イタノグンキタジマチョウ,タイノハマ,徳島県板野郡北島町鯛浜
7710205,徳島県,板野郡北島町,江尻,トクシマケン,イタノグンキタジマチョウ,エジリ,徳島県板野郡北島町江尻
7710206,徳島県,板野郡北島町,高房,トクシマケン,イタノグンキタジマチョウ,タカボウ,徳島県板野郡北島町高房
7710207,徳島県,板野郡北島町,新喜来,トクシマケン,イタノグンキタジマチョウ,シンキライ,徳島県板野郡北島町新喜来
7710211,徳島県,板野郡松茂町,長岸,トクシマケン,イタノグンマツシゲチョウ,ナガギシ,徳島県板野郡松茂町長岸
7710212,徳島県,板野郡松茂町,中喜来,トクシマケン,イタノグンマツシゲチョウ,ナカギライ,徳島県板野郡松茂町中喜来
7710213,徳島県,板野郡松茂町,豊久,トクシマケン,イタノグンマツシゲチョウ,トヨヒサ,徳島県板野郡松茂町豊久
7710214,徳島県,板野郡松茂町,満穂,トクシマケン,イタノグンマツシゲチョウ,ミツホ,徳島県板野郡松茂町満穂
7710215,徳島県,板野郡松茂町,豊岡,トクシマケン,イタノグンマツシゲチョウ,トヨオカ,徳島県板野郡松茂町豊岡
7710216,徳島県,板野郡松茂町,長原,トクシマケン,イタノグンマツシゲチョウ,ナガハラ,徳島県板野郡松茂町長原
7710217,徳島県,板野郡松茂町,豊中,トクシマケン,イタノグンマツシゲチョウ,トヨナカ,徳島県板野郡松茂町豊中
7710218,徳島県,板野郡松茂町,住吉,トクシマケン,イタノグンマツシゲチョウ,スミヨシ,徳島県板野郡松茂町住吉
7710219,徳島県,板野郡松茂町,笹木野,トクシマケン,イタノグンマツシゲチョウ,ササギノ,徳島県板野郡松茂町笹木野
7710220,徳島県,板野郡松茂町,広島,トクシマケン,イタノグンマツシゲチョウ,ヒロシマ,徳島県板野郡松茂町広島
7710360,徳島県,鳴門市,瀬戸町明神（その他）,トクシマケン,ナルトシ,セトチョウアキノカミ(ソノタ),徳島県鳴門市瀬戸町明神（その他）
7710361,徳島県,鳴門市,瀬戸町堂浦,トクシマケン,ナルトシ,セトチョウドウノウラ,徳島県鳴門市瀬戸町堂浦
7710362,徳島県,鳴門市,瀬戸町北泊（小海）,トクシマケン,ナルトシ,セトチョウキタドマリ(オオミ),徳島県鳴門市瀬戸町北泊（小海）
7710363,徳島県,鳴門市,瀬戸町湊谷,トクシマケン,ナルトシ,セトチョウミナトダニ,徳島県鳴門市瀬戸町湊谷
7710364,徳島県,鳴門市,瀬戸町北泊（その他）,トクシマケン,ナルトシ,セトチョウキタドマリ(ソノタ),徳島県鳴門市瀬戸町北泊（その他）
7710365,徳島県,鳴門市,瀬戸町小島田,トクシマケン,ナルトシ,セトチョウコシマダ,徳島県鳴門市瀬戸町小島田
7710366,徳島県,鳴門市,瀬戸町中島田,トクシマケン,ナルトシ,セトチョウナカシマダ,徳島県鳴門市瀬戸町中島田
7710367,徳島県,鳴門市,瀬戸町大島田,トクシマケン,ナルトシ,セトチョウオオシマダ,徳島県鳴門市瀬戸町大島田
7710368,徳島県,鳴門市,瀬戸町室,トクシマケン,ナルトシ,セトチョウムロ,徳島県鳴門市瀬戸町室
7710369,徳島県,鳴門市,瀬戸町撫佐,トクシマケン,ナルトシ,セトチョウムサ,徳島県鳴門市瀬戸町撫佐
7710371,徳島県,鳴門市,北灘町櫛木,トクシマケン,ナルトシ,キタナダチョウクシキ,徳島県鳴門市北灘町櫛木
7710372,徳島県,鳴門市,北灘町粟田,トクシマケン,ナルトシ,キタナダチョウアワタ,徳島県鳴門市北灘町粟田
7710373,徳島県,鳴門市,北灘町大浦,トクシマケン,ナルトシ,キタナダチョウオオウラ,徳島県鳴門市北灘町大浦
7710374,徳島県,鳴門市,北灘町宿毛谷,トクシマケン,ナルトシ,キタナダチョウシュクモダニ,徳島県鳴門市北灘町宿毛谷
7710375,徳島県,鳴門市,北灘町鳥ケ丸,トクシマケン,ナルトシ,キタナダチョウトリガマル,徳島県鳴門市北灘町鳥ケ丸
7710376,徳島県,鳴門市,北灘町折野,トクシマケン,ナルトシ,キタナダチョウオリノ,徳島県鳴門市北灘町折野
7710377,徳島県,鳴門市,北灘町大須,トクシマケン,ナルトシ,キタナダチョウオオズ,徳島県鳴門市北灘町大須
7710378,徳島県,鳴門市,北灘町碁浦,トクシマケン,ナルトシ,キタナダチョウゴノウラ,徳島県鳴門市北灘町碁浦
7711151,徳島県,徳島市,応神町古川,トクシマケン,トクシマシ,オウジンチョウフルカワ,徳島県徳島市応神町古川
7711152,徳島県,徳島市,応神町中原,トクシマケン,トクシマシ,オウジンチョウナカハラ,徳島県徳島市応神町中原
7711153,徳島県,徳島市,応神町吉成,トクシマケン,トクシマシ,オウジンチョウヨシナリ,徳島県徳島市応神町吉成
7711154,徳島県,徳島市,応神町東貞方,トクシマケン,トクシマシ,オウジンチョウヒガシサダカタ,徳島県徳島市応神町東貞方
7711155,徳島県,徳島市,応神町西貞方,トクシマケン,トクシマシ,オウジンチョウニシサダカタ,徳島県徳島市応神町西貞方
7711156,徳島県,徳島市,応神町応神産業団地,トクシマケン,トクシマシ,オウジンチョウオウジンサンギョウダンチ,徳島県徳島市応神町応神産業団地
7711200,徳島県,板野郡藍住町,,トクシマケン,イタノグンアイズミチョウ,,徳島県板野郡藍住町
7711201,徳島県,板野郡藍住町,奥野（その他）,トクシマケン,イタノグンアイズミチョウ,オクノ(ソノタ),徳島県板野郡藍住町奥野（その他）
7711202,徳島県,板野郡藍住町,奥野（前川）,トクシマケン,イタノグンアイズミチョウ,オクノ(マエガワ),徳島県板野郡藍住町奥野（前川）
7711202,徳島県,板野郡藍住町,奥野（和田）,トクシマケン,イタノグンアイズミチョウ,オクノ(ワダ),徳島県板野郡藍住町奥野（和田）
7711202,徳島県,板野郡藍住町,奥野（東中須）,トクシマケン,イタノグンアイズミチョウ,オクノ(ヒガシナカズ),徳島県板野郡藍住町奥野（東中須）
7711202,徳島県,板野郡藍住町,奥野（猪熊）,トクシマケン,イタノグンアイズミチョウ,オクノ(イノクマ),徳島県板野郡藍住町奥野（猪熊）
7711203,徳島県,板野郡藍住町,奥野（矢上前）,トクシマケン,イタノグンアイズミチョウ,オクノ(ヤカミマエ),徳島県板野郡藍住町奥野（矢上前）
7711210,徳島県,板野郡藍住町,徳命（その他）,トクシマケン,イタノグンアイズミチョウ,トクメイ(ソノタ),徳島県板野郡藍住町徳命（その他）
7711211,徳島県,板野郡藍住町,徳命（元村東）,トクシマケン,イタノグンアイズミチョウ,トクメイ(モトムラヒガシ),徳島県板野郡藍住町徳命（元村東）
7711211,徳島県,板野郡藍住町,徳命（元村）,トクシマケン,イタノグンアイズミチョウ,トクメイ(モトムラ),徳島県板野郡藍住町徳命（元村）
7711212,徳島県,板野郡藍住町,徳命（前須東）,トクシマケン,イタノグンアイズミチョウ,トクメイ(マエズヒガシ),徳島県板野郡藍住町徳命（前須東）
7711212,徳島県,板野郡藍住町,徳命（前須西）,トクシマケン,イタノグンアイズミチョウ,トクメイ(マエズニシ),徳島県板野郡藍住町徳命（前須西）
7711220,徳島県,板野郡藍住町,東中富（その他）,トクシマケン,イタノグンアイズミチョウ,ヒガシナカトミ(ソノタ),徳島県板野郡藍住町東中富（その他）
7711221,徳島県,板野郡藍住町,東中富（長江傍示）,トクシマケン,イタノグンアイズミチョウ,ヒガシナカトミ(ナガエホウジ),徳島県板野郡藍住町東中富（長江傍示）
7711222,徳島県,板野郡藍住町,東中富（北傍示）,トクシマケン,イタノグンアイズミチョウ,ヒガシナカトミ(キタホウジ),徳島県板野郡藍住町東中富（北傍示）
7711223,徳島県,板野郡藍住町,東中富（天王傍示）,トクシマケン,イタノグンアイズミチョウ,ヒガシナカトミ(テンノウホウジ),徳島県板野郡藍住町東中富（天王傍示）
7711223,徳島県,板野郡藍住町,東中富（敷地傍示）,トクシマケン,イタノグンアイズミチョウ,ヒガシナカトミ(シキジホウジ),徳島県板野郡藍住町東中富（敷地傍示）
7711224,徳島県,板野郡藍住町,東中富（大塚傍示）,トクシマケン,イタノグンアイズミチョウ,ヒガシナカトミ(オオツカホウジ),徳島県板野郡藍住町東中富（大塚傍示）
7711224,徳島県,板野郡藍住町,東中富（慶長）,トクシマケン,イタノグンアイズミチョウ,ヒガシナカトミ(ケイチョウ),徳島県板野郡藍住町東中富（慶長）
7711224,徳島県,板野郡藍住町,東中富（東安永）,トクシマケン,イタノグンアイズミチョウ,ヒガシナカトミ(ヒガシアンエイ),徳島県板野郡藍住町東中富（東安永）
7711224,徳島県,板野郡藍住町,東中富（西安永）,トクシマケン,イタノグンアイズミチョウ,ヒガシナカトミ(ニシアンエイ),徳島県板野郡藍住町東中富（西安永）
7711224,徳島県,板野郡藍住町,東中富（貞享）,トクシマケン,イタノグンアイズミチョウ,ヒガシナカトミ(テイキョウ),徳島県板野郡藍住町東中富（貞享）
7711224,徳島県,板野郡藍住町,東中富（鑓場傍示）,トクシマケン,イタノグンアイズミチョウ,ヒガシナカトミ(ヤリバホウジ),徳島県板野郡藍住町東中富（鑓場傍示）
7711230,徳島県,板野郡藍住町,富吉（その他）,トクシマケン,イタノグンアイズミチョウ,トミヨシ(ソノタ),徳島県板野郡藍住町富吉（その他）
7711231,徳島県,板野郡藍住町,富吉（富吉）,トクシマケン,イタノグンアイズミチョウ,トミヨシ(トミヨシ),徳島県板野郡藍住町富吉（富吉）
7711231,徳島県,板野郡藍住町,富吉（豊吉）,トクシマケン,イタノグンアイズミチョウ,トミヨシ(トヨヨシ),徳島県板野郡藍住町富吉（豊吉）
7711231,徳島県,板野郡藍住町,富吉（須崎）,トクシマケン,イタノグンアイズミチョウ,トミヨシ(スザキ),徳島県板野郡藍住町富吉（須崎）
7711232,徳島県,板野郡藍住町,富吉（地神）,トクシマケン,イタノグンアイズミチョウ,トミヨシ(ジガミ),徳島県板野郡藍住町富吉（地神）
7711232,徳島県,板野郡藍住町,富吉（穂実）,トクシマケン,イタノグンアイズミチョウ,トミヨシ(ホウミ),徳島県板野郡藍住町富吉（穂実）
7711240,徳島県,板野郡藍住町,乙瀬,トクシマケン,イタノグンアイズミチョウ,オトゼ,徳島県板野郡藍住町乙瀬
7711250,徳島県,板野郡藍住町,矢上（その他）,トクシマケン,イタノグンアイズミチョウ,ヤカミ(ソノタ),徳島県板野郡藍住町矢上（その他）
7711251,徳島県,板野郡藍住町,矢上（原）,トクシマケン,イタノグンアイズミチョウ,ヤカミ(ハラ),徳島県板野郡藍住町矢上（原）
7711251,徳島県,板野郡藍住町,矢上（西）,トクシマケン,イタノグンアイズミチョウ,ヤカミ(ニシ),徳島県板野郡藍住町矢上（西）
7711252,徳島県,板野郡藍住町,矢上（北分）,トクシマケン,イタノグンアイズミチョウ,ヤカミ(キタブン),徳島県板野郡藍住町矢上（北分）
7711252,徳島県,板野郡藍住町,矢上（春日）,トクシマケン,イタノグンアイズミチョウ,ヤカミ(カスガ),徳島県板野郡藍住町矢上（春日）
7711253,徳島県,板野郡藍住町,矢上（安任）,トクシマケン,イタノグンアイズミチョウ,ヤカミ(ヤストウ),徳島県板野郡藍住町矢上（安任）
7711253,徳島県,板野郡藍住町,矢上（江ノ口）,トクシマケン,イタノグンアイズミチョウ,ヤカミ(エノクチ),徳島県板野郡藍住町矢上（江ノ口）
7711260,徳島県,板野郡藍住町,笠木（その他）,トクシマケン,イタノグンアイズミチョウ,カサギ(ソノタ),徳島県板野郡藍住町笠木（その他）
7711261,徳島県,板野郡藍住町,笠木（東野）,トクシマケン,イタノグンアイズミチョウ,カサギ(ヒガシノ),徳島県板野郡藍住町笠木（東野）
7711262,徳島県,板野郡藍住町,笠木（中野）,トクシマケン,イタノグンアイズミチョウ,カサギ(ナカノ),徳島県板野郡藍住町笠木（中野）
7711262,徳島県,板野郡藍住町,笠木（西野）,トクシマケン,イタノグンアイズミチョウ,カサギ(ニシノ),徳島県板野郡藍住町笠木（西野）
7711264,徳島県,板野郡藍住町,住吉（その他）,トクシマケン,イタノグンアイズミチョウ,スミヨシ(ソノタ),徳島県板野郡藍住町住吉（その他）
7711265,徳島県,板野郡藍住町,住吉（千鳥ケ浜）,トクシマケン,イタノグンアイズミチョウ,スミヨシ(チドリガハマ),徳島県板野郡藍住町住吉（千鳥ケ浜）
7711265,徳島県,板野郡藍住町,住吉（神蔵）,トクシマケン,イタノグンアイズミチョウ,スミヨシ(ジンゾウ),徳島県板野郡藍住町住吉（神蔵）
7711265,徳島県,板野郡藍住町,住吉（逆藤）,トクシマケン,イタノグンアイズミチョウ,スミヨシ(サカフジ),徳島県板野郡藍住町住吉（逆藤）
7711266,徳島県,板野郡藍住町,住吉（若宮）,トクシマケン,イタノグンアイズミチョウ,スミヨシ(ワカミヤ),徳島県板野郡藍住町住吉（若宮）
7711266,徳島県,板野郡藍住町,住吉（藤ノ木）,トクシマケン,イタノグンアイズミチョウ,スミヨシ(フジノキ),徳島県板野郡藍住町住吉（藤ノ木）
7711267,徳島県,板野郡藍住町,住吉（乾）,トクシマケン,イタノグンアイズミチョウ,スミヨシ(イヌイ),徳島県板野郡藍住町住吉（乾）
7711267,徳島県,板野郡藍住町,住吉（江端）,トクシマケン,イタノグンアイズミチョウ,スミヨシ(エバタ),徳島県板野郡藍住町住吉（江端）
7711270,徳島県,板野郡藍住町,勝瑞（その他）,トクシマケン,イタノグンアイズミチョウ,ショウズイ(ソノタ),徳島県板野郡藍住町勝瑞（その他）
7711271,徳島県,板野郡藍住町,勝瑞（幸島）,トクシマケン,イタノグンアイズミチョウ,ショウズイ(コウジマ),徳島県板野郡藍住町勝瑞（幸島）
7711272,徳島県,板野郡藍住町,勝瑞（成長）,トクシマケン,イタノグンアイズミチョウ,ショウズイ(セイチョウ),徳島県板野郡藍住町勝瑞（成長）
7711273,徳島県,板野郡藍住町,勝瑞（東勝地）,トクシマケン,イタノグンアイズミチョウ,ショウズイ(ヒガシカツチ),徳島県板野郡藍住町勝瑞（東勝地）
7711273,徳島県,板野郡藍住町,勝瑞（正喜地）,トクシマケン,イタノグンアイズミチョウ,ショウズイ(ショウキチ),徳島県板野郡藍住町勝瑞（正喜地）
7711300,徳島県,板野郡上板町,,トクシマケン,イタノグンカミイタチョウ,,徳島県板野郡上板町
7711301,徳島県,板野郡上板町,鍛冶屋原,トクシマケン,イタノグンカミイタチョウ,カジヤバラ,徳島県板野郡上板町鍛冶屋原
7711302,徳島県,板野郡上板町,七條,トクシマケン,イタノグンカミイタチョウ,シチジョウ,徳島県板野郡上板町七條
7711310,徳島県,板野郡上板町,泉谷,トクシマケン,イタノグンカミイタチョウ,イズミダニ,徳島県板野郡上板町泉谷
7711311,徳島県,板野郡上板町,引野,トクシマケン,イタノグンカミイタチョウ,ヒキノ,徳島県板野郡上板町引野
7711320,徳島県,板野郡上板町,神宅,トクシマケン,イタノグンカミイタチョウ,カンヤケ,徳島県板野郡上板町神宅
7711330,徳島県,板野郡上板町,西分,トクシマケン,イタノグンカミイタチョウ,ニシブン,徳島県板野郡上板町西分
7711341,徳島県,板野郡上板町,第十新田,トクシマケン,イタノグンカミイタチョウ,ダイジュウシンデン,徳島県板野郡上板町第十新田
7711342,徳島県,板野郡上板町,佐藤塚,トクシマケン,イタノグンカミイタチョウ,サトウヅカ,徳島県板野郡上板町佐藤塚
7711343,徳島県,板野郡上板町,椎本,トクシマケン,イタノグンカミイタチョウ,シイノモト,徳島県板野郡上板町椎本
7711344,徳島県,板野郡上板町,下六條,トクシマケン,イタノグンカミイタチョウ,シモロクジョウ,徳島県板野郡上板町下六條
7711345,徳島県,板野郡上板町,上六條,トクシマケン,イタノグンカミイタチョウ,カミロクジョウ,徳島県板野郡上板町上六條
7711346,徳島県,板野郡上板町,高磯,トクシマケン,イタノグンカミイタチョウ,タカイソ,徳島県板野郡上板町高磯
7711347,徳島県,板野郡上板町,高瀬,トクシマケン,イタノグンカミイタチョウ,タカセ,徳島県板野郡上板町高瀬
7711350,徳島県,板野郡上板町,瀬部,トクシマケン,イタノグンカミイタチョウ,セベ,徳島県板野郡上板町瀬部
7711401,徳島県,阿波市,吉野町柿原,トクシマケン,アワシ,ヨシノチョウカキハラ,徳島県阿波市吉野町柿原
7711402,徳島県,阿波市,吉野町西条,トクシマケン,アワシ,ヨシノチョウサイジョウ,徳島県阿波市吉野町西条
7711403,徳島県,阿波市,吉野町五条,トクシマケン,アワシ,ヨシノチョウゴジョウ,徳島県阿波市吉野町五条
7711501,徳島県,阿波市,土成町秋月,トクシマケン,アワシ,ドナリチョウアキヅキ,徳島県阿波市土成町秋月
7711502,徳島県,阿波市,土成町水田,トクシマケン,アワシ,ドナリチョウミズタ,徳島県阿波市土成町水田
7711503,徳島県,阿波市,土成町浦池,トクシマケン,アワシ,ドナリチョウウラノイケ,徳島県阿波市土成町浦池
7711504,徳島県,阿波市,土成町成当,トクシマケン,アワシ,ドナリチョウナリトウ,徳島県阿波市土成町成当
7711505,徳島県,阿波市,土成町郡,トクシマケン,アワシ,ドナリチョウコオリ,徳島県阿波市土成町郡
7711506,徳島県,阿波市,土成町土成,トクシマケン,アワシ,ドナリチョウドナリ,徳島県阿波市土成町土成
7711507,徳島県,阿波市,土成町吉田,トクシマケン,アワシ,ドナリチョウヨシダ,徳島県阿波市土成町吉田
7711508,徳島県,阿波市,土成町宮川内,トクシマケン,アワシ,ドナリチョウミヤガワウチ,徳島県阿波市土成町宮川内
7711509,徳島県,阿波市,土成町高尾,トクシマケン,アワシ,ドナリチョウタカオ,徳島県阿波市土成町高尾
7711601,徳島県,阿波市,市場町市場（興崎）,トクシマケン,アワシ,イチバチョウイチバ(コウザキ),徳島県阿波市市場町市場（興崎）
7711602,徳島県,阿波市,市場町市場（上野段）,トクシマケン,アワシ,イチバチョウイチバ(ウエノダン),徳島県阿波市市場町市場（上野段）
7711603,徳島県,阿波市,市場町市場（岸ノ下）,トクシマケン,アワシ,イチバチョウイチバ(キシノシタ),徳島県阿波市市場町市場（岸ノ下）
7711604,徳島県,阿波市,市場町市場（町筋）,トクシマケン,アワシ,イチバチョウイチバ(マチスジ),徳島県阿波市市場町市場（町筋）
7711610,徳島県,阿波市,市場町香美（その他）,トクシマケン,アワシ,イチバチョウカガミ(ソノタ),徳島県阿波市市場町香美（その他）
7711611,徳島県,阿波市,市場町香美（北香美）,トクシマケン,アワシ,イチバチョウカガミ(キタカガミ),徳島県阿波市市場町香美（北香美）
7711612,徳島県,阿波市,市場町上喜来,トクシマケン,アワシ,イチバチョウカミギライ,徳島県阿波市市場町上喜来
7711613,徳島県,阿波市,市場町大俣,トクシマケン,アワシ,イチバチョウオオマタ,徳島県阿波市市場町大俣
7711614,徳島県,阿波市,市場町犬墓（その他）,トクシマケン,アワシ,イチバチョウイヌノハカ(ソノタ),徳島県阿波市市場町犬墓（その他）
7711615,徳島県,阿波市,市場町大影,トクシマケン,アワシ,イチバチョウオオカゲ,徳島県阿波市市場町大影
7711616,徳島県,阿波市,市場町日開谷,トクシマケン,アワシ,イチバチョウヒガイダニ,徳島県阿波市市場町日開谷
7711621,徳島県,阿波市,市場町尾開,トクシマケン,アワシ,イチバチョウオバリ,徳島県阿波市市場町尾開
7711622,徳島県,阿波市,市場町興崎,トクシマケン,アワシ,イチバチョウコウザキ,徳島県阿波市市場町興崎
7711623,徳島県,阿波市,市場町切幡,トクシマケン,アワシ,イチバチョウキリハタ,徳島県阿波市市場町切幡
7711624,徳島県,阿波市,市場町山野上,トクシマケン,アワシ,イチバチョウヤマノウエ,徳島県阿波市市場町山野上
7711625,徳島県,阿波市,市場町八幡,トクシマケン,アワシ,イチバチョウヤワタ,徳島県阿波市市場町八幡
7711626,徳島県,阿波市,市場町伊月,トクシマケン,アワシ,イチバチョウイツキ,徳島県阿波市市場町伊月
7711627,徳島県,阿波市,市場町大野島,トクシマケン,アワシ,イチバチョウオオノジマ,徳島県阿波市市場町大野島
7711700,徳島県,阿波市,,トクシマケン,アワシ,,徳島県阿波市
7711701,徳島県,阿波市,阿波町下喜来,トクシマケン,アワシ,アワチョウシモギライ,徳島県阿波市阿波町下喜来
7711701,徳島県,阿波市,阿波町下喜来南,トクシマケン,アワシ,アワチョウシモギライミナミ,徳島県阿波市阿波町下喜来南
7711701,徳島県,阿波市,阿波町伊沢市,トクシマケン,アワシ,アワチョウイサワイチ,徳島県阿波市阿波町伊沢市
7711701,徳島県,阿波市,阿波町勝命,トクシマケン,アワシ,アワチョウカツミョウ,徳島県阿波市阿波町勝命
7711701,徳島県,阿波市,阿波町勝命北,トクシマケン,アワシ,アワチョウカツミョウキタ,徳島県阿波市阿波町勝命北
7711701,徳島県,阿波市,阿波町南谷島,トクシマケン,アワシ,アワチョウミナミタニジマ,徳島県阿波市阿波町南谷島
7711701,徳島県,阿波市,阿波町大原,トクシマケン,アワシ,アワチョウオオハラ,徳島県阿波市阿波町大原
7711701,徳島県,阿波市,阿波町大坪,トクシマケン,アワシ,アワチョウオオツボ,徳島県阿波市阿波町大坪
7711701,徳島県,阿波市,阿波町大道南,トクシマケン,アワシ,アワチョウオオミチミナミ,徳島県阿波市阿波町大道南
7711701,徳島県,阿波市,阿波町平川原北,トクシマケン,アワシ,アワチョウヘイガワラキタ,徳島県阿波市阿波町平川原北
7711701,徳島県,阿波市,阿波町平川原南,トクシマケン,アワシ,アワチョウヘイガワラミナミ,徳島県阿波市阿波町平川原南
7711701,徳島県,阿波市,阿波町庚申原,トクシマケン,アワシ,アワチョウコウシンバラ,徳島県阿波市阿波町庚申原
7711701,徳島県,阿波市,阿波町新開,トクシマケン,アワシ,アワチョウシンバリ,徳島県阿波市阿波町新開
7711701,徳島県,阿波市,阿波町清原,トクシマケン,アワシ,アワチョウセイバラ,徳島県阿波市阿波町清原
7711701,徳島県,阿波市,阿波町王地,トクシマケン,アワシ,アワチョウオウジ,徳島県阿波市阿波町王地
7711701,徳島県,阿波市,阿波町王地南,トクシマケン,アワシ,アワチョウオウジミナミ,徳島県阿波市阿波町王地南
7711701,徳島県,阿波市,阿波町西清原,トクシマケン,アワシ,アワチョウニシセイバラ,徳島県阿波市阿波町西清原
7711701,徳島県,阿波市,阿波町谷島,トクシマケン,アワシ,アワチョウタニジマ,徳島県阿波市阿波町谷島
7711701,徳島県,阿波市,阿波町谷島北,トクシマケン,アワシ,アワチョウタニジマキタ,徳島県阿波市阿波町谷島北
7711702,徳島県,阿波市,阿波町下原,トクシマケン,アワシ,アワチョウシモバラ,徳島県阿波市阿波町下原
7711702,徳島県,阿波市,阿波町久原,トクシマケン,アワシ,アワチョウヒサハラ,徳島県阿波市阿波町久原
7711702,徳島県,阿波市,阿波町井出口,トクシマケン,アワシ,アワチョウイデグチ,徳島県阿波市阿波町井出口
7711702,徳島県,阿波市,阿波町伊勢,トクシマケン,アワシ,アワチョウイセ,徳島県阿波市阿波町伊勢
7711702,徳島県,阿波市,阿波町北ノ名,トクシマケン,アワシ,アワチョウキタノミョウ,徳島県阿波市阿波町北ノ名
7711702,徳島県,阿波市,阿波町四歩一,トクシマケン,アワシ,アワチョウシブイチ,徳島県阿波市阿波町四歩一
7711702,徳島県,阿波市,阿波町大久保,トクシマケン,アワシ,アワチョウオオクボ,徳島県阿波市阿波町大久保
7711702,徳島県,阿波市,阿波町大次郎,トクシマケン,アワシ,アワチョウダイジロウ,徳島県阿波市阿波町大次郎
7711702,徳島県,阿波市,阿波町天西山,トクシマケン,アワシ,アワチョウテンサイザン,徳島県阿波市阿波町天西山
7711702,徳島県,阿波市,阿波町安政,トクシマケン,アワシ,アワチョウヤスマサ,徳島県阿波市阿波町安政
7711702,徳島県,阿波市,阿波町寺サコ,トクシマケン,アワシ,アワチョウテラサコ,徳島県阿波市阿波町寺サコ
7711702,徳島県,阿波市,阿波町山尻,トクシマケン,アワシ,アワチョウヤマジリ,徳島県阿波市阿波町山尻
7711702,徳島県,阿波市,阿波町山王,トクシマケン,アワシ,アワチョウサンノウ,徳島県阿波市阿波町山王
7711702,徳島県,阿波市,阿波町川添,トクシマケン,アワシ,アワチョウカワゾエ,徳島県阿波市阿波町川添
7711702,徳島県,阿波市,阿波町早田,トクシマケン,アワシ,アワチョウワサダ,徳島県阿波市阿波町早田
7711702,徳島県,阿波市,阿波町本安,トクシマケン,アワシ,アワチョウホンヤス,徳島県阿波市阿波町本安
7711702,徳島県,阿波市,阿波町本町,トクシマケン,アワシ,アワチョウホンマチ,徳島県阿波市阿波町本町
7711702,徳島県,阿波市,阿波町柏谷左右,トクシマケン,アワシ,アワチョウカシワダニサユウ,徳島県阿波市阿波町柏谷左右
7711702,徳島県,阿波市,阿波町森沢,トクシマケン,アワシ,アワチョウモリサワ,徳島県阿波市阿波町森沢
7711702,徳島県,阿波市,阿波町稲荷,トクシマケン,アワシ,アワチョウイナリ,徳島県阿波市阿波町稲荷
7711702,徳島県,阿波市,阿波町西ノ岡,トクシマケン,アワシ,アワチョウニシノオカ,徳島県阿波市阿波町西ノ岡
7711702,徳島県,阿波市,阿波町谷口,トクシマケン,アワシ,アワチョウタニグチ,徳島県阿波市阿波町谷口
7711702,徳島県,阿波市,阿波町野神,トクシマケン,アワシ,アワチョウノガミ,徳島県阿波市阿波町野神
7711703,徳島県,阿波市,阿波町中原,トクシマケン,アワシ,アワチョウナカハラ,徳島県阿波市阿波町中原
7711703,徳島県,阿波市,阿波町丸山,トクシマケン,アワシ,アワチョウマルヤマ,徳島県阿波市阿波町丸山
7711703,徳島県,阿波市,阿波町伊沢田,トクシマケン,アワシ,アワチョウイサワダ,徳島県阿波市阿波町伊沢田
7711703,徳島県,阿波市,阿波町前島,トクシマケン,アワシ,アワチョウマエジマ,徳島県阿波市阿波町前島
7711703,徳島県,阿波市,阿波町北原,トクシマケン,アワシ,アワチョウキタバラ,徳島県阿波市阿波町北原
7711703,徳島県,阿波市,阿波町北柴生,トクシマケン,アワシ,アワチョウキタシボウ,徳島県阿波市阿波町北柴生
7711703,徳島県,阿波市,阿波町南柴生,トクシマケン,アワシ,アワチョウミナミシボウ,徳島県阿波市阿波町南柴生
7711703,徳島県,阿波市,阿波町大道北,トクシマケン,アワシ,アワチョウオオミチキタ,徳島県阿波市阿波町大道北
7711703,徳島県,阿波市,阿波町岡地,トクシマケン,アワシ,アワチョウオカジ,徳島県阿波市阿波町岡地
7711703,徳島県,阿波市,阿波町東原,トクシマケン,アワシ,アワチョウヒガシバラ,徳島県阿波市阿波町東原
7711703,徳島県,阿波市,阿波町東条,トクシマケン,アワシ,アワチョウトウジョウ,徳島県阿波市阿波町東条
7711703,徳島県,阿波市,阿波町東柴生,トクシマケン,アワシ,アワチョウヒガシシボウ,徳島県阿波市阿波町東柴生
7711703,徳島県,阿波市,阿波町真福寺,トクシマケン,アワシ,アワチョウシンプクジ,徳島県阿波市阿波町真福寺
7711703,徳島県,阿波市,阿波町綱懸,トクシマケン,アワシ,アワチョウツナカケ,徳島県阿波市阿波町綱懸
7711703,徳島県,阿波市,阿波町西原,トクシマケン,アワシ,アワチョウニシバラ,徳島県阿波市阿波町西原
7711703,徳島県,阿波市,阿波町西柴生,トクシマケン,アワシ,アワチョウニシシボウ,徳島県阿波市阿波町西柴生
7711704,徳島県,阿波市,阿波町亀底,トクシマケン,アワシ,アワチョウカメゾコ,徳島県阿波市阿波町亀底
7711704,徳島県,阿波市,阿波町伊沢谷東縁,トクシマケン,アワシ,アワチョウイサワダニヒガシベリ,徳島県阿波市阿波町伊沢谷東縁
7711704,徳島県,阿波市,阿波町元町,トクシマケン,アワシ,アワチョウモトマチ,徳島県阿波市阿波町元町
7711704,徳島県,阿波市,阿波町八丁原,トクシマケン,アワシ,アワチョウハッチョウバラ,徳島県阿波市阿波町八丁原
7711704,徳島県,阿波市,阿波町北久保,トクシマケン,アワシ,アワチョウキタクボ,徳島県阿波市阿波町北久保
7711704,徳島県,阿波市,阿波町北五味知,トクシマケン,アワシ,アワチョウキタゴミジリ,徳島県阿波市阿波町北五味知
7711704,徳島県,阿波市,阿波町北正広,トクシマケン,アワシ,アワチョウキタマサヒロ,徳島県阿波市阿波町北正広
7711704,徳島県,阿波市,阿波町南五味知,トクシマケン,アワシ,アワチョウミナミゴミジリ,徳島県阿波市阿波町南五味知
7711704,徳島県,阿波市,阿波町小倉,トクシマケン,アワシ,アワチョウオグラ,徳島県阿波市阿波町小倉
7711704,徳島県,阿波市,阿波町山ノ神,トクシマケン,アワシ,アワチョウヤマノカミ,徳島県阿波市阿波町山ノ神
7711704,徳島県,阿波市,阿波町広野,トクシマケン,アワシ,アワチョウヒロノ,徳島県阿波市阿波町広野
7711704,徳島県,阿波市,阿波町引地,トクシマケン,アワシ,アワチョウヒキチ,徳島県阿波市阿波町引地
7711704,徳島県,阿波市,阿波町東正広,トクシマケン,アワシ,アワチョウヒガシマサヒロ,徳島県阿波市阿波町東正広
7711704,徳島県,阿波市,阿波町梅ノ木原,トクシマケン,アワシ,アワチョウウメノキバラ,徳島県阿波市阿波町梅ノ木原
7711704,徳島県,阿波市,阿波町梅ノ東,トクシマケン,アワシ,アワチョウウメノヒガシ,徳島県阿波市阿波町梅ノ東
7711704,徳島県,阿波市,阿波町真重,トクシマケン,アワシ,アワチョウマシゲ,徳島県阿波市阿波町真重
7711704,徳島県,阿波市,阿波町立割,トクシマケン,アワシ,アワチョウタテワリ,徳島県阿波市阿波町立割
7711704,徳島県,阿波市,阿波町糸下,トクシマケン,アワシ,アワチョウイトガ,徳島県阿波市阿波町糸下
7711704,徳島県,阿波市,阿波町芋場,トクシマケン,アワシ,アワチョウイモバ,徳島県阿波市阿波町芋場
7711704,徳島県,阿波市,阿波町西正広,トクシマケン,アワシ,アワチョウニシマサヒロ,徳島県阿波市阿波町西正広
7711705,徳島県,阿波市,阿波町五明,トクシマケン,アワシ,アワチョウゴミョウ,徳島県阿波市阿波町五明
7711705,徳島県,阿波市,阿波町北山,トクシマケン,アワシ,アワチョウキタヤマ,徳島県阿波市阿波町北山
7711705,徳島県,阿波市,阿波町北整理,トクシマケン,アワシ,アワチョウキタセイリ,徳島県阿波市阿波町北整理
7711705,徳島県,阿波市,阿波町医王寺,トクシマケン,アワシ,アワチョウイオウジ,徳島県阿波市阿波町医王寺
7711705,徳島県,阿波市,阿波町十善地,トクシマケン,アワシ,アワチョウジュウゼンジ,徳島県阿波市阿波町十善地
7711705,徳島県,阿波市,阿波町善地,トクシマケン,アワシ,アワチョウゼンジ,徳島県阿波市阿波町善地
7711705,徳島県,阿波市,阿波町寒風,トクシマケン,アワシ,アワチョウサムカゼ,徳島県阿波市阿波町寒風
7711705,徳島県,阿波市,阿波町居屋敷,トクシマケン,アワシ,アワチョウイヤシキ,徳島県阿波市阿波町居屋敷
7711705,徳島県,阿波市,阿波町川久保,トクシマケン,アワシ,アワチョウカワクボ,徳島県阿波市阿波町川久保
7711705,徳島県,阿波市,阿波町日吉谷,トクシマケン,アワシ,アワチョウヒヨシダニ,徳島県阿波市阿波町日吉谷
7711705,徳島県,阿波市,阿波町松川内,トクシマケン,アワシ,アワチョウマツカワウチ,徳島県阿波市阿波町松川内
7711705,徳島県,阿波市,阿波町栩ケ窪,トクシマケン,アワシ,アワチョウトチガクボ,徳島県阿波市阿波町栩ケ窪
7711705,徳島県,阿波市,阿波町桜ノ岡,トクシマケン,アワシ,アワチョウサクラノオカ,徳島県阿波市阿波町桜ノ岡
7711705,徳島県,阿波市,阿波町梅川内,トクシマケン,アワシ,アワチョウウメカワウチ,徳島県阿波市阿波町梅川内
7711705,徳島県,阿波市,阿波町王子川,トクシマケン,アワシ,アワチョウオウジガワ,徳島県阿波市阿波町王子川
7711705,徳島県,阿波市,阿波町赤坂,トクシマケン,アワシ,アワチョウアカサカ,徳島県阿波市阿波町赤坂
7711705,徳島県,阿波市,阿波町馬場,トクシマケン,アワシ,アワチョウババ,徳島県阿波市阿波町馬場
7711705,徳島県,阿波市,阿波町高垣,トクシマケン,アワシ,アワチョウタカガキ,徳島県阿波市阿波町高垣
7711706,徳島県,阿波市,阿波町三本柳,トクシマケン,アワシ,アワチョウサンボンヤナギ,徳島県阿波市阿波町三本柳
7711706,徳島県,阿波市,阿波町中坪,トクシマケン,アワシ,アワチョウナカツボ,徳島県阿波市阿波町中坪
7711706,徳島県,阿波市,阿波町中川原,トクシマケン,アワシ,アワチョウナカガワハラ,徳島県阿波市阿波町中川原
7711706,徳島県,阿波市,阿波町中長峰,トクシマケン,アワシ,アワチョウナカナガミネ,徳島県阿波市阿波町中長峰
7711706,徳島県,阿波市,阿波町乙岩津,トクシマケン,アワシ,アワチョウオツイワヅ,徳島県阿波市阿波町乙岩津
7711706,徳島県,阿波市,阿波町北岡,トクシマケン,アワシ,アワチョウキタオカ,徳島県阿波市阿波町北岡
7711706,徳島県,阿波市,阿波町北西谷,トクシマケン,アワシ,アワチョウキタニシダニ,徳島県阿波市阿波町北西谷
7711706,徳島県,阿波市,阿波町南川原,トクシマケン,アワシ,アワチョウミナミカワハラ,徳島県阿波市阿波町南川原
7711706,徳島県,阿波市,阿波町南整理,トクシマケン,アワシ,アワチョウミナミセイリ,徳島県阿波市阿波町南整理
7711706,徳島県,阿波市,阿波町南西谷,トクシマケン,アワシ,アワチョウミナミニシダニ,徳島県阿波市阿波町南西谷
7711706,徳島県,阿波市,阿波町岩津,トクシマケン,アワシ,アワチョウイワヅ,徳島県阿波市阿波町岩津
7711706,徳島県,阿波市,阿波町東島,トクシマケン,アワシ,アワチョウヒガシジマ,徳島県阿波市阿波町東島
7711706,徳島県,阿波市,阿波町東川原,トクシマケン,アワシ,アワチョウヒガシカワハラ,徳島県阿波市阿波町東川原
7711706,徳島県,阿波市,阿波町東整理,トクシマケン,アワシ,アワチョウヒガシセイリ,徳島県阿波市阿波町東整理
7711706,徳島県,阿波市,阿波町東村,トクシマケン,アワシ,アワチョウヒガシムラ,徳島県阿波市阿波町東村
7711706,徳島県,阿波市,阿波町東長峰,トクシマケン,アワシ,アワチョウヒガシナガミネ,徳島県阿波市阿波町東長峰
7711706,徳島県,阿波市,阿波町植桜,トクシマケン,アワシ,アワチョウウエザクラ,徳島県阿波市阿波町植桜
7711706,徳島県,阿波市,阿波町西島,トクシマケン,アワシ,アワチョウニシジマ,徳島県阿波市阿波町西島
7711706,徳島県,阿波市,阿波町西整理,トクシマケン,アワシ,アワチョウニシセイリ,徳島県阿波市阿波町西整理
7711706,徳島県,阿波市,阿波町西林,トクシマケン,アワシ,アワチョウニシバヤシ,徳島県阿波市阿波町西林
7711706,徳島県,阿波市,阿波町西長峰,トクシマケン,アワシ,アワチョウニシナガミネ,徳島県阿波市阿波町西長峰
7711714,徳島県,阿波市,市場町犬墓（小竹）,トクシマケン,アワシ,イチバチョウイヌノハカ(コタケ),徳島県阿波市市場町犬墓（小竹）
7712101,徳島県,美馬市,美馬町（入倉、大久保、切久保、正部、丈寄、清田）,トクシマケン,ミマシ,ミマチョウ(イリクラ、オオクボ、キリクボ、ショウブ、ジョウヨリ、セイダ),徳島県美馬市美馬町（入倉、大久保、切久保、正部、丈寄、清田）
7712102,徳島県,美馬市,美馬町（家ノ前、大池、大上、大北、大佐古、大前、岡ノ内、押上、茅原、,トクシマケン,ミマシ,ミマチョウ(イエノマエ、オオイケ、オオウエ、オオキタ、オオサコ、オオマエ、オカノウチ、オシアゲ、カヤバラ、,徳島県美馬市美馬町（家ノ前、大池、大上、大北、大佐古、大前、岡ノ内、押上、茅原、
7712103,徳島県,美馬市,美馬町（一ノ宮、後谷、倉尾、三頭山、下後谷、高惣、谷尻、,トクシマケン,ミマシ,ミマチョウ(イチノミヤ、ウシロダニ、クラオ、サントウザン、シモウシロダニ、タカソウ、タニジリ、,徳島県美馬市美馬町（一ノ宮、後谷、倉尾、三頭山、下後谷、高惣、谷尻、
7712104,徳島県,美馬市,美馬町（鵜飼口、岡、小長谷、小長谷端、笠仏、川縁、荒神、助松、高畑、辰角、,トクシマケン,ミマシ,ミマチョウ(ウガイグチ、オカ、オバセ、オバセバタ、カサボトケ、カワベリ、コウジン、スケマツ、タカバタケ、タツカク、,徳島県美馬市美馬町（鵜飼口、岡、小長谷、小長谷端、笠仏、川縁、荒神、助松、高畑、辰角、
7712105,徳島県,美馬市,美馬町（池ノ浦、銀杏木、梅ケ久保、駅、蛭子、柿木、鍵掛、願勝寺、,トクシマケン,ミマシ,ミマチョウ(イケノウラ、イチョウギ、ウメガクボ、エキ、エビス、カキノキ、カンカケ、ガンショウジ、,徳島県美馬市美馬町（池ノ浦、銀杏木、梅ケ久保、駅、蛭子、柿木、鍵掛、願勝寺、
7712106,徳島県,美馬市,美馬町（荒川、井出縁、井ノ神、大泉、大宮西、上突出、岸ノ下、北東原、,トクシマケン,ミマシ,ミマチョウ(アラカワ、イデベリ、イノカミ、オオイズミ、オオミヤニシ、カミツキダシ、キシノシタ、キタヒガシバラ、,徳島県美馬市美馬町（荒川、井出縁、井ノ神、大泉、大宮西、上突出、岸ノ下、北東原、
7712107,徳島県,美馬市,美馬町（雨下、上野、小原、境目、里西屋敷、下ノ段、城、滝下、竹ノ内、田辺、,トクシマケン,ミマシ,ミマチョウ(アマゲ、ウエノ、コバラ、サカイメ、サトニシヤシキ、シモノダン、シロ、タキシタ、タケノウチ、タナベ、,徳島県美馬市美馬町（雨下、上野、小原、境目、里西屋敷、下ノ段、城、滝下、竹ノ内、田辺、
7712301,徳島県,三好市,三野町清水,トクシマケン,ミヨシシ,ミノチョウシミズ,徳島県三好市三野町清水
7712302,徳島県,三好市,三野町加茂野宮,トクシマケン,ミヨシシ,ミノチョウカモノミヤ,徳島県三好市三野町加茂野宮
7712303,徳島県,三好市,三野町勢力,トクシマケン,ミヨシシ,ミノチョウセイリキ,徳島県三好市三野町勢力
7712304,徳島県,三好市,三野町芝生,トクシマケン,ミヨシシ,ミノチョウシボウ,徳島県三好市三野町芝生
7712305,徳島県,三好市,三野町太刀野,トクシマケン,ミヨシシ,ミノチョウタチノ,徳島県三好市三野町太刀野
7712306,徳島県,三好市,三野町太刀野山,トクシマケン,ミヨシシ,ミノチョウタチノヤマ,徳島県三好市三野町太刀野山
7712501,徳島県,三好郡東みよし町,昼間,トクシマケン,ミヨシグンヒガシミヨシチョウ,ヒルマ,徳島県三好郡東みよし町昼間
7712502,徳島県,三好郡東みよし町,足代,トクシマケン,ミヨシグンヒガシミヨシチョウ,アシロ,徳島県三好郡東みよし町足代
7712503,徳島県,三好郡東みよし町,東山,トクシマケン,ミヨシグンヒガシミヨシチョウ,ヒガシヤマ,徳島県三好郡東みよし町東山
7713200,徳島県,名西郡神山町,,トクシマケン,ミョウザイグンカミヤマチョウ,,徳島県名西郡神山町
7713201,徳島県,名西郡神山町,阿野（その他）,トクシマケン,ミョウザイグンカミヤマチョウ,アノ(ソノタ),徳島県名西郡神山町阿野（その他）
7713202,徳島県,名西郡神山町,阿野（上河内）,トクシマケン,ミョウザイグンカミヤマチョウ,アノ(カミゴウチ),徳島県名西郡神山町阿野（上河内）
7713202,徳島県,名西郡神山町,阿野（二ノ宮）,トクシマケン,ミョウザイグンカミヤマチョウ,アノ(ニノミヤ),徳島県名西郡神山町阿野（二ノ宮）
7713202,徳島県,名西郡神山町,阿野（井ノ谷）,トクシマケン,ミョウザイグンカミヤマチョウ,アノ(イノタニ),徳島県名西郡神山町阿野（井ノ谷）
7713202,徳島県,名西郡神山町,阿野（代次）,トクシマケン,ミョウザイグンカミヤマチョウ,アノ(ヨツギ),徳島県名西郡神山町阿野（代次）
7713202,徳島県,名西郡神山町,阿野（地ノ平）,トクシマケン,ミョウザイグンカミヤマチョウ,アノ(ジノタイラ),徳島県名西郡神山町阿野（地ノ平）
7713202,徳島県,名西郡神山町,阿野（宇度木）,トクシマケン,ミョウザイグンカミヤマチョウ,アノ(ウトギ),徳島県名西郡神山町阿野（宇度木）
7713202,徳島県,名西郡神山町,阿野（宮分）,トクシマケン,ミョウザイグンカミヤマチョウ,アノ(ミヤブン),徳島県名西郡神山町阿野（宮分）
7713202,徳島県,名西郡神山町,阿野（屋那瀬）,トクシマケン,ミョウザイグンカミヤマチョウ,アノ(ヤナゼ),徳島県名西郡神山町阿野（屋那瀬）
7713202,徳島県,名西郡神山町,阿野（川平）,トクシマケン,ミョウザイグンカミヤマチョウ,アノ(カワヒラ),徳島県名西郡神山町阿野（川平）
7713202,徳島県,名西郡神山町,阿野（広石）,トクシマケン,ミョウザイグンカミヤマチョウ,アノ(ヒロイシ),徳島県名西郡神山町阿野（広石）
7713202,徳島県,名西郡神山町,阿野（府中）,トクシマケン,ミョウザイグンカミヤマチョウ,アノ(フチュウ),徳島県名西郡神山町阿野（府中）
7713202,徳島県,名西郡神山町,阿野（日浦）,トクシマケン,ミョウザイグンカミヤマチョウ,アノ(ヒウラ),徳島県名西郡神山町阿野（日浦）
7713202,徳島県,名西郡神山町,阿野（本名）,トクシマケン,ミョウザイグンカミヤマチョウ,アノ(ホンミョウ),徳島県名西郡神山町阿野（本名）
7713202,徳島県,名西郡神山町,阿野（東代次）,トクシマケン,ミョウザイグンカミヤマチョウ,アノ(ヒガシヨツギ),徳島県名西郡神山町阿野（東代次）
7713202,徳島県,名西郡神山町,阿野（松尾）,トクシマケン,ミョウザイグンカミヤマチョウ,アノ(マツオ),徳島県名西郡神山町阿野（松尾）
7713202,徳島県,名西郡神山町,阿野（石堂）,トクシマケン,ミョウザイグンカミヤマチョウ,アノ(イシドウ),徳島県名西郡神山町阿野（石堂）
7713202,徳島県,名西郡神山町,阿野（神木）,トクシマケン,ミョウザイグンカミヤマチョウ,アノ(ジンギ),徳島県名西郡神山町阿野（神木）
7713202,徳島県,名西郡神山町,阿野（福原）,トクシマケン,ミョウザイグンカミヤマチョウ,アノ(フクハラ),徳島県名西郡神山町阿野（福原）
7713202,徳島県,名西郡神山町,阿野（船底）,トクシマケン,ミョウザイグンカミヤマチョウ,アノ(フナゾコ),徳島県名西郡神山町阿野（船底）
7713202,徳島県,名西郡神山町,阿野（長代）,トクシマケン,ミョウザイグンカミヤマチョウ,アノ(ナガタイ),徳島県名西郡神山町阿野（長代）
7713202,徳島県,名西郡神山町,阿野（長瀬）,トクシマケン,ミョウザイグンカミヤマチョウ,アノ(ナガセ),徳島県名西郡神山町阿野（長瀬）
7713202,徳島県,名西郡神山町,阿野（須賀）,トクシマケン,ミョウザイグンカミヤマチョウ,アノ(スガ),徳島県名西郡神山町阿野（須賀）
7713202,徳島県,名西郡神山町,阿野（駒坂）,トクシマケン,ミョウザイグンカミヤマチョウ,アノ(コマサカ),徳島県名西郡神山町阿野（駒坂）
7713202,徳島県,名西郡神山町,阿野（黒木）,トクシマケン,ミョウザイグンカミヤマチョウ,アノ(クロギ),徳島県名西郡神山町阿野（黒木）
7713203,徳島県,名西郡神山町,鬼籠野,トクシマケン,ミョウザイグンカミヤマチョウ,オロノ,徳島県名西郡神山町鬼籠野
7713310,徳島県,名西郡神山町,神領（その他）,トクシマケン,ミョウザイグンカミヤマチョウ,ジンリョウ(ソノタ),徳島県名西郡神山町神領（その他）
7713311,徳島県,名西郡神山町,神領（北）,トクシマケン,ミョウザイグンカミヤマチョウ,ジンリョウ(キタ),徳島県名西郡神山町神領（北）
7713311,徳島県,名西郡神山町,神領（川北）,トクシマケン,ミョウザイグンカミヤマチョウ,ジンリョウ(カワキタ),徳島県名西郡神山町神領（川北）
7713311,徳島県,名西郡神山町,神領（本野間）,トクシマケン,ミョウザイグンカミヤマチョウ,ジンリョウ(ホンノマ),徳島県名西郡神山町神領（本野間）
7713311,徳島県,名西郡神山町,神領（東野間）,トクシマケン,ミョウザイグンカミヤマチョウ,ジンリョウ(ヒガシノマ),徳島県名西郡神山町神領（東野間）
7713311,徳島県,名西郡神山町,神領（石堂）,トクシマケン,ミョウザイグンカミヤマチョウ,ジンリョウ(イシドウ),徳島県名西郡神山町神領（石堂）
7713311,徳島県,名西郡神山町,神領（西野間）,トクシマケン,ミョウザイグンカミヤマチョウ,ジンリョウ(ニシノマ),徳島県名西郡神山町神領（西野間）
7713311,徳島県,名西郡神山町,神領（谷）,トクシマケン,ミョウザイグンカミヤマチョウ,ジンリョウ(タニ),徳島県名西郡神山町神領（谷）
7713421,徳島県,名西郡神山町,下分,トクシマケン,ミョウザイグンカミヤマチョウ,シモブン,徳島県名西郡神山町下分
7713422,徳島県,名西郡神山町,上分,トクシマケン,ミョウザイグンカミヤマチョウ,カミブン,徳島県名西郡神山町上分
7714100,徳島県,名東郡佐那河内村,,トクシマケン,ミョウドウグンサナゴウチソン,,徳島県名東郡佐那河内村
7714101,徳島県,名東郡佐那河内村,下,トクシマケン,ミョウドウグンサナゴウチソン,シモ,徳島県名東郡佐那河内村下
7714102,徳島県,名東郡佐那河内村,上,トクシマケン,ミョウドウグンサナゴウチソン,カミ,徳島県名東郡佐那河内村上
7714261,徳島県,徳島市,丈六町（その他）,トクシマケン,トクシマシ,ジョウロクチョウ(ソノタ),徳島県徳島市丈六町（その他）
7714262,徳島県,徳島市,丈六町（長尾）,トクシマケン,トクシマシ,ジョウロクチョウ(ナガオ),徳島県徳島市丈六町（長尾）
7714263,徳島県,徳島市,丈六町（丈領）,トクシマケン,トクシマシ,ジョウロクチョウ(ジョウリョウ),徳島県徳島市丈六町（丈領）
7714264,徳島県,徳島市,多家良町,トクシマケン,トクシマシ,タカラチョウ,徳島県徳島市多家良町
7714265,徳島県,徳島市,飯谷町,トクシマケン,トクシマシ,イイタニチョウ,徳島県徳島市飯谷町
7714266,徳島県,徳島市,八多町,トクシマケン,トクシマシ,ハタチョウ,徳島県徳島市八多町
7714267,徳島県,徳島市,渋野町,トクシマケン,トクシマシ,シブノチョウ,徳島県徳島市渋野町
7714300,徳島県,勝浦郡勝浦町,,トクシマケン,カツウラグンカツウラチョウ,,徳島県勝浦郡勝浦町
7714301,徳島県,勝浦郡勝浦町,沼江,トクシマケン,カツウラグンカツウラチョウ,ヌエ,徳島県勝浦郡勝浦町沼江
7714302,徳島県,勝浦郡勝浦町,中角,トクシマケン,カツウラグンカツウラチョウ,ナカツノ,徳島県勝浦郡勝浦町中角
7714303,徳島県,勝浦郡勝浦町,生名,トクシマケン,カツウラグンカツウラチョウ,イクナ,徳島県勝浦郡勝浦町生名
7714304,徳島県,勝浦郡勝浦町,星谷,トクシマケン,カツウラグンカツウラチョウ,ホシタニ,徳島県勝浦郡勝浦町星谷
7714305,徳島県,勝浦郡勝浦町,久国,トクシマケン,カツウラグンカツウラチョウ,ヒサクニ,徳島県勝浦郡勝浦町久国
7714306,徳島県,勝浦郡勝浦町,棚野,トクシマケン,カツウラグンカツウラチョウ,タナノ,徳島県勝浦郡勝浦町棚野
7714307,徳島県,勝浦郡勝浦町,三渓,トクシマケン,カツウラグンカツウラチョウ,ミタニ,徳島県勝浦郡勝浦町三渓
7714308,徳島県,勝浦郡勝浦町,坂本,トクシマケン,カツウラグンカツウラチョウ,サカモト,徳島県勝浦郡勝浦町坂本
7714500,徳島県,勝浦郡上勝町,,トクシマケン,カツウラグンカミカツチョウ,,徳島県勝浦郡上勝町
7714501,徳島県,勝浦郡上勝町,福原,トクシマケン,カツウラグンカミカツチョウ,フクハラ,徳島県勝浦郡上勝町福原
7714502,徳島県,勝浦郡上勝町,旭,トクシマケン,カツウラグンカミカツチョウ,アサヒ,徳島県勝浦郡上勝町旭
7714503,徳島県,勝浦郡上勝町,生実,トクシマケン,カツウラグンカミカツチョウ,イクミ,徳島県勝浦郡上勝町生実
7714504,徳島県,勝浦郡上勝町,傍示,トクシマケン,カツウラグンカミカツチョウ,ホウジ,徳島県勝浦郡上勝町傍示
7714505,徳島県,勝浦郡上勝町,正木,トクシマケン,カツウラグンカミカツチョウ,マサキ,徳島県勝浦郡上勝町正木
7715170,徳島県,阿南市,楠根町,トクシマケン,アナンシ,クスネチョウ,徳島県阿南市楠根町
7715171,徳島県,阿南市,熊谷町,トクシマケン,アナンシ,クマダニチョウ,徳島県阿南市熊谷町
7715172,徳島県,阿南市,吉井町,トクシマケン,アナンシ,ヨシイチョウ,徳島県阿南市吉井町
7715173,徳島県,阿南市,加茂町,トクシマケン,アナンシ,カモチョウ,徳島県阿南市加茂町
7715174,徳島県,阿南市,水井町,トクシマケン,アナンシ,スイイチョウ,徳島県阿南市水井町
7715175,徳島県,阿南市,細野町,トクシマケン,アナンシ,ホソノチョウ,徳島県阿南市細野町
7715176,徳島県,阿南市,大田井町,トクシマケン,アナンシ,オオタイチョウ,徳島県阿南市大田井町
7715177,徳島県,阿南市,大井町,トクシマケン,アナンシ,オオイチョウ,徳島県阿南市大井町
7715178,徳島県,阿南市,十八女町,トクシマケン,アナンシ,サカリチョウ,徳島県阿南市十八女町
7715179,徳島県,阿南市,深瀬町,トクシマケン,アナンシ,フカセチョウ,徳島県阿南市深瀬町
7715200,徳島県,那賀郡那賀町,,トクシマケン,ナカグンナカチョウ,,徳島県那賀郡那賀町
7715201,徳島県,那賀郡那賀町,和食,トクシマケン,ナカグンナカチョウ,ワジキ,徳島県那賀郡那賀町和食
7715202,徳島県,那賀郡那賀町,土佐,トクシマケン,ナカグンナカチョウ,トサ,徳島県那賀郡那賀町土佐
7715203,徳島県,那賀郡那賀町,和食郷,トクシマケン,ナカグンナカチョウ,ワジキゴウ,徳島県那賀郡那賀町和食郷
7715204,徳島県,那賀郡那賀町,中山,トクシマケン,ナカグンナカチョウ,ナカヤマ,徳島県那賀郡那賀町中山
7715205,徳島県,那賀郡那賀町,百合谷,トクシマケン,ナカグンナカチョウ,モマエダニ,徳島県那賀郡那賀町百合谷
7715206,徳島県,那賀郡那賀町,百合,トクシマケン,ナカグンナカチョウ,モマエ,徳島県那賀郡那賀町百合
7715207,徳島県,那賀郡那賀町,阿井,トクシマケン,ナカグンナカチョウ,アイ,徳島県那賀郡那賀町阿井
7715208,徳島県,那賀郡那賀町,仁宇,トクシマケン,ナカグンナカチョウ,ニウ,徳島県那賀郡那賀町仁宇
7715209,徳島県,那賀郡那賀町,小仁宇,トクシマケン,ナカグンナカチョウ,コニウ,徳島県那賀郡那賀町小仁宇
7715320,徳島県,那賀郡那賀町,榎谷,トクシマケン,ナカグンナカチョウ,エノキダニ,徳島県那賀郡那賀町榎谷
7715321,徳島県,那賀郡那賀町,馬路,トクシマケン,ナカグンナカチョウ,ウマジ,徳島県那賀郡那賀町馬路
7715322,徳島県,那賀郡那賀町,谷内,トクシマケン,ナカグンナカチョウ,タニウチ,徳島県那賀郡那賀町谷内
7715323,徳島県,那賀郡那賀町,相名,トクシマケン,ナカグンナカチョウ,アイナ,徳島県那賀郡那賀町相名
7715324,徳島県,那賀郡那賀町,井ノ谷,トクシマケン,ナカグンナカチョウ,イノタニ,徳島県那賀郡那賀町井ノ谷
7715325,徳島県,那賀郡那賀町,平野,トクシマケン,ナカグンナカチョウ,ヒラノ,徳島県那賀郡那賀町平野
7715326,徳島県,那賀郡那賀町,内山,トクシマケン,ナカグンナカチョウ,ウチヤマ,徳島県那賀郡那賀町内山
7715327,徳島県,那賀郡那賀町,西納,トクシマケン,ナカグンナカチョウ,ニシノ,徳島県那賀郡那賀町西納
7715328,徳島県,那賀郡那賀町,請ノ谷,トクシマケン,ナカグンナカチョウ,ウケノタニ,徳島県那賀郡那賀町請ノ谷
7715329,徳島県,那賀郡那賀町,竹ケ谷,トクシマケン,ナカグンナカチョウ,タケガタニ,徳島県那賀郡那賀町竹ケ谷
7715401,徳島県,那賀郡那賀町,朝生,トクシマケン,ナカグンナカチョウ,アソウ,徳島県那賀郡那賀町朝生
7715402,徳島県,那賀郡那賀町,簗ノ上,トクシマケン,ナカグンナカチョウ,ヤナノウエ,徳島県那賀郡那賀町簗ノ上
7715403,徳島県,那賀郡那賀町,鮎川,トクシマケン,ナカグンナカチョウ,アイカワ,徳島県那賀郡那賀町鮎川
7715404,徳島県,那賀郡那賀町,牛輪,トクシマケン,ナカグンナカチョウ,ウシワ,徳島県那賀郡那賀町牛輪
7715405,徳島県,那賀郡那賀町,入野,トクシマケン,ナカグンナカチョウ,イリノ,徳島県那賀郡那賀町入野
7715406,徳島県,那賀郡那賀町,延野,トクシマケン,ナカグンナカチョウ,ノブノ,徳島県那賀郡那賀町延野
7715407,徳島県,那賀郡那賀町,雄,トクシマケン,ナカグンナカチョウ,オンドリ,徳島県那賀郡那賀町雄
7715408,徳島県,那賀郡那賀町,吉野,トクシマケン,ナカグンナカチョウ,ヨシノ,徳島県那賀郡那賀町吉野
7715409,徳島県,那賀郡那賀町,鉢,トクシマケン,ナカグンナカチョウ,ハチ,徳島県那賀郡那賀町鉢
7715410,徳島県,那賀郡那賀町,大久保,トクシマケン,ナカグンナカチョウ,オオクボ,徳島県那賀郡那賀町大久保
7715411,徳島県,那賀郡那賀町,横石,トクシマケン,ナカグンナカチョウ,ヨコイシ,徳島県那賀郡那賀町横石
7715412,徳島県,那賀郡那賀町,朴野,トクシマケン,ナカグンナカチョウ,ホオノ,徳島県那賀郡那賀町朴野
7715413,徳島県,那賀郡那賀町,蔭谷,トクシマケン,ナカグンナカチョウ,カゲダニ,徳島県那賀郡那賀町蔭谷
7715501,徳島県,那賀郡那賀町,音谷,トクシマケン,ナカグンナカチョウ,オンダニ,徳島県那賀郡那賀町音谷
7715502,徳島県,那賀郡那賀町,桜谷,トクシマケン,ナカグンナカチョウ,サクラダニ,徳島県那賀郡那賀町桜谷
7715503,徳島県,那賀郡那賀町,小浜,トクシマケン,ナカグンナカチョウ,コハマ,徳島県那賀郡那賀町小浜
7715504,徳島県,那賀郡那賀町,臼ケ谷,トクシマケン,ナカグンナカチョウ,ウスガタニ,徳島県那賀郡那賀町臼ケ谷
7715505,徳島県,那賀郡那賀町,長安,トクシマケン,ナカグンナカチョウ,ナガヤス,徳島県那賀郡那賀町長安
7715506,徳島県,那賀郡那賀町,桧曽根,トクシマケン,ナカグンナカチョウ,ヒソネ,徳島県那賀郡那賀町桧曽根
7715507,徳島県,那賀郡那賀町,菖蒲,トクシマケン,ナカグンナカチョウ,ショウブ,徳島県那賀郡那賀町菖蒲
7715508,徳島県,那賀郡那賀町,東尾,トクシマケン,ナカグンナカチョウ,ヒガシオ,徳島県那賀郡那賀町東尾
7715511,徳島県,那賀郡那賀町,水崎,トクシマケン,ナカグンナカチョウ,ミサキ,徳島県那賀郡那賀町水崎
7715512,徳島県,那賀郡那賀町,小計,トクシマケン,ナカグンナカチョウ,コバカリ,徳島県那賀郡那賀町小計
7715513,徳島県,那賀郡那賀町,古屋,トクシマケン,ナカグンナカチョウ,フルヤ,徳島県那賀郡那賀町古屋
7715514,徳島県,那賀郡那賀町,深森,トクシマケン,ナカグンナカチョウ,フカモリ,徳島県那賀郡那賀町深森
7715515,徳島県,那賀郡那賀町,川俣,トクシマケン,ナカグンナカチョウ,カワマタ,徳島県那賀郡那賀町川俣
7715516,徳島県,那賀郡那賀町,大戸,トクシマケン,ナカグンナカチョウ,オオト,徳島県那賀郡那賀町大戸
7715517,徳島県,那賀郡那賀町,日真,トクシマケン,ナカグンナカチョウ,ヒマ,徳島県那賀郡那賀町日真
7715518,徳島県,那賀郡那賀町,拝宮,トクシマケン,ナカグンナカチョウ,ハイギュウ,徳島県那賀郡那賀町拝宮
7715531,徳島県,那賀郡那賀町,日浦,トクシマケン,ナカグンナカチョウ,ヒウラ,徳島県那賀郡那賀町日浦
7715532,徳島県,那賀郡那賀町,花瀬,トクシマケン,ナカグンナカチョウ,ハナゼ,徳島県那賀郡那賀町花瀬
7716101,徳島県,那賀郡那賀町,阿津江,トクシマケン,ナカグンナカチョウ,アヅエ,徳島県那賀郡那賀町阿津江
7716102,徳島県,那賀郡那賀町,木頭名,トクシマケン,ナカグンナカチョウ,キトウミョウ,徳島県那賀郡那賀町木頭名
7716103,徳島県,那賀郡那賀町,出羽,トクシマケン,ナカグンナカチョウ,イズリハ,徳島県那賀郡那賀町出羽
7716104,徳島県,那賀郡那賀町,当山,トクシマケン,ナカグンナカチョウ,トウヤマ,徳島県那賀郡那賀町当山
7716105,徳島県,那賀郡那賀町,木頭,トクシマケン,ナカグンナカチョウ,キトウ,徳島県那賀郡那賀町木頭
7716106,徳島県,那賀郡那賀町,坂州,トクシマケン,ナカグンナカチョウ,サカシュウ,徳島県那賀郡那賀町坂州
7716107,徳島県,那賀郡那賀町,掛盤,トクシマケン,ナカグンナカチョウ,カケバン,徳島県那賀郡那賀町掛盤
7716111,徳島県,那賀郡那賀町,小泉,トクシマケン,ナカグンナカチョウ,コイズミ,徳島県那賀郡那賀町小泉
7716112,徳島県,那賀郡那賀町,高野,トクシマケン,ナカグンナカチョウ,タカノ,徳島県那賀郡那賀町高野
7716113,徳島県,那賀郡那賀町,寺内,トクシマケン,ナカグンナカチョウ,テラウチ,徳島県那賀郡那賀町寺内
7716114,徳島県,那賀郡那賀町,沢谷,トクシマケン,ナカグンナカチョウ,サワダニ,徳島県那賀郡那賀町沢谷
7716115,徳島県,那賀郡那賀町,小畠,トクシマケン,ナカグンナカチョウ,オバタケ,徳島県那賀郡那賀町小畠
7716116,徳島県,那賀郡那賀町,横谷,トクシマケン,ナカグンナカチョウ,ヨコダニ,徳島県那賀郡那賀町横谷
7716117,徳島県,那賀郡那賀町,川成,トクシマケン,ナカグンナカチョウ,カワナリ,徳島県那賀郡那賀町川成
7716118,徳島県,那賀郡那賀町,岩倉,トクシマケン,ナカグンナカチョウ,イワクラ,徳島県那賀郡那賀町岩倉
7716321,徳島県,那賀郡那賀町,平谷,トクシマケン,ナカグンナカチョウ,ヒラダニ,徳島県那賀郡那賀町平谷
7716322,徳島県,那賀郡那賀町,大殿,トクシマケン,ナカグンナカチョウ,オオトノ,徳島県那賀郡那賀町大殿
7716323,徳島県,那賀郡那賀町,白石,トクシマケン,ナカグンナカチョウ,シライシ,徳島県那賀郡那賀町白石
7716324,徳島県,那賀郡那賀町,御所谷,トクシマケン,ナカグンナカチョウ,ゴショダニ,徳島県那賀郡那賀町御所谷
7716325,徳島県,那賀郡那賀町,丈ケ谷,トクシマケン,ナカグンナカチョウ,ジョウガタニ,徳島県那賀郡那賀町丈ケ谷
7716326,徳島県,那賀郡那賀町,府殿,トクシマケン,ナカグンナカチョウ,フドノ,徳島県那賀郡那賀町府殿
7716327,徳島県,那賀郡那賀町,成瀬,トクシマケン,ナカグンナカチョウ,ナルセ,徳島県那賀郡那賀町成瀬
7716328,徳島県,那賀郡那賀町,海川,トクシマケン,ナカグンナカチョウ,カイカワ,徳島県那賀郡那賀町海川
7716401,徳島県,那賀郡那賀町,木頭助,トクシマケン,ナカグンナカチョウ,キトウスケ,徳島県那賀郡那賀町木頭助
7716402,徳島県,那賀郡那賀町,木頭出原,トクシマケン,ナカグンナカチョウ,キトウイズハラ,徳島県那賀郡那賀町木頭出原
7716403,徳島県,那賀郡那賀町,木頭和無田,トクシマケン,ナカグンナカチョウ,キトウワムダ,徳島県那賀郡那賀町木頭和無田
7716404,徳島県,那賀郡那賀町,木頭南宇,トクシマケン,ナカグンナカチョウ,キトウミナミウ,徳島県那賀郡那賀町木頭南宇
7716405,徳島県,那賀郡那賀町,木頭西宇,トクシマケン,ナカグンナカチョウ,キトウニシウ,徳島県那賀郡那賀町木頭西宇
7716511,徳島県,那賀郡那賀町,木頭折宇,トクシマケン,ナカグンナカチョウ,キトウオリウ,徳島県那賀郡那賀町木頭折宇
7716512,徳島県,那賀郡那賀町,木頭北川,トクシマケン,ナカグンナカチョウ,キトウキタガワ,徳島県那賀郡那賀町木頭北川
7720000,徳島県,鳴門市,,トクシマケン,ナルトシ,,徳島県鳴門市
7720001,徳島県,鳴門市,撫養町黒崎,トクシマケン,ナルトシ,ムヤチョウクロサキ,徳島県鳴門市撫養町黒崎
7720002,徳島県,鳴門市,撫養町斎田,トクシマケン,ナルトシ,ムヤチョウサイタ,徳島県鳴門市撫養町斎田
7720003,徳島県,鳴門市,撫養町南浜,トクシマケン,ナルトシ,ムヤチョウミナミハマ,徳島県鳴門市撫養町南浜
7720004,徳島県,鳴門市,撫養町木津,トクシマケン,ナルトシ,ムヤチョウキヅ,徳島県鳴門市撫養町木津
7720011,徳島県,鳴門市,撫養町大桑島,トクシマケン,ナルトシ,ムヤチョウオオクワジマ,徳島県鳴門市撫養町大桑島
7720012,徳島県,鳴門市,撫養町小桑島,トクシマケン,ナルトシ,ムヤチョウコクワジマ,徳島県鳴門市撫養町小桑島
7720013,徳島県,鳴門市,撫養町岡崎,トクシマケン,ナルトシ,ムヤチョウオカザキ,徳島県鳴門市撫養町岡崎
7720014,徳島県,鳴門市,撫養町弁財天,トクシマケン,ナルトシ,ムヤチョウベザイテン,徳島県鳴門市撫養町弁財天
7720015,徳島県,鳴門市,撫養町北浜,トクシマケン,ナルトシ,ムヤチョウキタハマ,徳島県鳴門市撫養町北浜
7720016,徳島県,鳴門市,撫養町林崎,トクシマケン,ナルトシ,ムヤチョウハヤサキ,徳島県鳴門市撫養町林崎
7720017,徳島県,鳴門市,撫養町立岩,トクシマケン,ナルトシ,ムヤチョウタテイワ,徳島県鳴門市撫養町立岩
7720021,徳島県,鳴門市,里浦町里浦,トクシマケン,ナルトシ,サトウラチョウサトウラ,徳島県鳴門市里浦町里浦
7720022,徳島県,鳴門市,里浦町粟津,トクシマケン,ナルトシ,サトウラチョウアワヅ,徳島県鳴門市里浦町粟津
7720031,徳島県,鳴門市,大津町木津野,トクシマケン,ナルトシ,オオツチョウキヅノ,徳島県鳴門市大津町木津野
7720032,徳島県,鳴門市,大津町吉永,トクシマケン,ナルトシ,オオツチョウヨシナガ,徳島県鳴門市大津町吉永
7720033,徳島県,鳴門市,大津町長江,トクシマケン,ナルトシ,オオツチョウナガエ,徳島県鳴門市大津町長江
7720034,徳島県,鳴門市,大津町徳長,トクシマケン,ナルトシ,オオツチョウトクナガ,徳島県鳴門市大津町徳長
7720035,徳島県,鳴門市,大津町矢倉,トクシマケン,ナルトシ,オオツチョウヤグラ,徳島県鳴門市大津町矢倉
7720041,徳島県,鳴門市,大津町大代,トクシマケン,ナルトシ,オオツチョウオオシロ,徳島県鳴門市大津町大代
7720042,徳島県,鳴門市,大津町備前島,トクシマケン,ナルトシ,オオツチョウビゼンジマ,徳島県鳴門市大津町備前島
7720043,徳島県,鳴門市,大津町段関,トクシマケン,ナルトシ,オオツチョウダンゼキ,徳島県鳴門市大津町段関
7720044,徳島県,鳴門市,大津町大幸,トクシマケン,ナルトシ,オオツチョウダイコウ,徳島県鳴門市大津町大幸
7720051,徳島県,鳴門市,鳴門町高島,トクシマケン,ナルトシ,ナルトチョウタカシマ,徳島県鳴門市鳴門町高島
7720052,徳島県,鳴門市,鳴門町三ツ石,トクシマケン,ナルトシ,ナルトチョウミツイシ,徳島県鳴門市鳴門町三ツ石
7720053,徳島県,鳴門市,鳴門町土佐泊浦,トクシマケン,ナルトシ,ナルトチョウトサドマリウラ,徳島県鳴門市鳴門町土佐泊浦
7720060,徳島県,鳴門市,瀬戸町明神（楠谷、弐軒家、水汲谷）,トクシマケン,ナルトシ,セトチョウアキノカミ(クスノキダニ、ニケンヤ、ミズクミダニ),徳島県鳴門市瀬戸町明神（楠谷、弐軒家、水汲谷）
7730000,徳島県,小松島市,,トクシマケン,コマツシマシ,,徳島県小松島市
7730001,徳島県,小松島市,小松島町,トクシマケン,コマツシマシ,コマツシマチョウ,徳島県小松島市小松島町
7730002,徳島県,小松島市,神田瀬町,トクシマケン,コマツシマシ,カンダセチョウ,徳島県小松島市神田瀬町
7730003,徳島県,小松島市,松島町,トクシマケン,コマツシマシ,マツシマチョウ,徳島県小松島市松島町
7730004,徳島県,小松島市,堀川町,トクシマケン,コマツシマシ,ホリカワチョウ,徳島県小松島市堀川町
7730005,徳島県,小松島市,南小松島町,トクシマケン,コマツシマシ,ミナミコマツシマチョウ,徳島県小松島市南小松島町
7730006,徳島県,小松島市,横須町,トクシマケン,コマツシマシ,ヨコスチョウ,徳島県小松島市横須町
7730007,徳島県,小松島市,金磯町,トクシマケン,コマツシマシ,カナイソチョウ,徳島県小松島市金磯町
7730008,徳島県,小松島市,田野町,トクシマケン,コマツシマシ,タノチョウ,徳島県小松島市田野町
7730009,徳島県,小松島市,芝生町,トクシマケン,コマツシマシ,シボウチョウ,徳島県小松島市芝生町
7730010,徳島県,小松島市,日開野町,トクシマケン,コマツシマシ,ヒガイノチョウ,徳島県小松島市日開野町
7730011,徳島県,小松島市,新居見町,トクシマケン,コマツシマシ,ニイミチョウ,徳島県小松島市新居見町
7730012,徳島県,小松島市,田浦町,トクシマケン,コマツシマシ,タウラチョウ,徳島県小松島市田浦町
7730013,徳島県,小松島市,前原町,トクシマケン,コマツシマシ,マエバラチョウ,徳島県小松島市前原町
7730014,徳島県,小松島市,江田町,トクシマケン,コマツシマシ,エダチョウ,徳島県小松島市江田町
7730015,徳島県,小松島市,中田町,トクシマケン,コマツシマシ,チュウデンチョウ,徳島県小松島市中田町
7730016,徳島県,小松島市,中郷町,トクシマケン,コマツシマシ,ナカノゴウチョウ,徳島県小松島市中郷町
7730017,徳島県,小松島市,立江町,トクシマケン,コマツシマシ,タツエチョウ,徳島県小松島市立江町
7730018,徳島県,小松島市,櫛淵町,トクシマケン,コマツシマシ,クシブチチョウ,徳島県小松島市櫛淵町
7730019,徳島県,小松島市,豊浦町,トクシマケン,コマツシマシ,トヨウラチョウ,徳島県小松島市豊浦町
7730020,徳島県,小松島市,和田津開町,トクシマケン,コマツシマシ,ワダツビラキチョウ,徳島県小松島市和田津開町
7730021,徳島県,小松島市,赤石町,トクシマケン,コマツシマシ,アカイシチョウ,徳島県小松島市赤石町
7730022,徳島県,小松島市,大林町,トクシマケン,コマツシマシ,オオハヤシチョウ,徳島県小松島市大林町
7730023,徳島県,小松島市,坂野町,トクシマケン,コマツシマシ,サカノチョウ,徳島県小松島市坂野町
7730024,徳島県,小松島市,間新田町,トクシマケン,コマツシマシ,アイシンデンチョウ,徳島県小松島市間新田町
7730025,徳島県,小松島市,和田島町（その他）,トクシマケン,コマツシマシ,ワダジマチョウ(ソノタ),徳島県小松島市和田島町（その他）
7730031,徳島県,小松島市,和田島町（松田新田）,トクシマケン,コマツシマシ,ワダジマチョウ(マツダシンデン),徳島県小松島市和田島町（松田新田）
7730070,徳島県,徳島市,大原町（小神子、小神子山）,トクシマケン,トクシマシ,オオバラチョウ(コミコ、コミコヤマ),徳島県徳島市大原町（小神子、小神子山）
7740000,徳島県,阿南市,,トクシマケン,アナンシ,,徳島県阿南市
7740001,徳島県,阿南市,辰巳町,トクシマケン,アナンシ,タツミチョウ,徳島県阿南市辰巳町
7740002,徳島県,阿南市,豊益町,トクシマケン,アナンシ,トヨマスチョウ,徳島県阿南市豊益町
7740003,徳島県,阿南市,畭町,トクシマケン,アナンシ,ハリチョウ,徳島県阿南市畭町
7740004,徳島県,阿南市,福村町,トクシマケン,アナンシ,フクムラチョウ,徳島県阿南市福村町
7740005,徳島県,阿南市,向原町,トクシマケン,アナンシ,ムカイバラチョウ,徳島県阿南市向原町
7740006,徳島県,阿南市,黒津地町,トクシマケン,アナンシ,クロツチチョウ,徳島県阿南市黒津地町
7740007,徳島県,阿南市,出来町,トクシマケン,アナンシ,デキマチ,徳島県阿南市出来町
7740008,徳島県,阿南市,原ケ崎町,トクシマケン,アナンシ,ハラガサキチョウ,徳島県阿南市原ケ崎町
7740009,徳島県,阿南市,西路見町,トクシマケン,アナンシ,サイロミチョウ,徳島県阿南市西路見町
7740011,徳島県,阿南市,領家町,トクシマケン,アナンシ,リョウケチョウ,徳島県阿南市領家町
7740012,徳島県,阿南市,七見町,トクシマケン,アナンシ,ナナミチョウ,徳島県阿南市七見町
7740013,徳島県,阿南市,日開野町,トクシマケン,アナンシ,ヒガイノチョウ,徳島県阿南市日開野町
7740014,徳島県,阿南市,学原町,トクシマケン,アナンシ,ガクバラチョウ,徳島県阿南市学原町
7740015,徳島県,阿南市,才見町,トクシマケン,アナンシ,サイミチョウ,徳島県阿南市才見町
7740016,徳島県,阿南市,中林町,トクシマケン,アナンシ,ナカバヤシチョウ,徳島県阿南市中林町
7740017,徳島県,阿南市,見能林町,トクシマケン,アナンシ,ミノバヤシチョウ,徳島県阿南市見能林町
7740021,徳島県,阿南市,津乃峰町,トクシマケン,アナンシ,ツノミネチョウ,徳島県阿南市津乃峰町
7740022,徳島県,阿南市,大潟町,トクシマケン,アナンシ,オオガタチョウ,徳島県阿南市大潟町
7740023,徳島県,阿南市,橘町（その他）,トクシマケン,アナンシ,タチバナチョウ(ソノタ),徳島県阿南市橘町（その他）
7740030,徳島県,阿南市,富岡町,トクシマケン,アナンシ,トミオカチョウ,徳島県阿南市富岡町
7740041,徳島県,阿南市,住吉町,トクシマケン,アナンシ,スミヨシチョウ,徳島県阿南市住吉町
7740042,徳島県,阿南市,横見町,トクシマケン,アナンシ,ヨコミチョウ,徳島県阿南市横見町
7740043,徳島県,阿南市,柳島町,トクシマケン,アナンシ,ヤナギジマチョウ,徳島県阿南市柳島町
7740044,徳島県,阿南市,上中町,トクシマケン,アナンシ,カミナカチョウ,徳島県阿南市上中町
7740045,徳島県,阿南市,宝田町,トクシマケン,アナンシ,タカラダチョウ,徳島県阿南市宝田町
7740046,徳島県,阿南市,長生町,トクシマケン,アナンシ,ナガイケチョウ,徳島県阿南市長生町
7740047,徳島県,阿南市,下大野町,トクシマケン,アナンシ,シモオオノチョウ,徳島県阿南市下大野町
7740048,徳島県,阿南市,中大野町,トクシマケン,アナンシ,ナカオオノチョウ,徳島県阿南市中大野町
7740049,徳島県,阿南市,上大野町,トクシマケン,アナンシ,カミオオノチョウ,徳島県阿南市上大野町
7741760,徳島県,阿南市,伊島町,トクシマケン,アナンシ,イシマチョウ,徳島県阿南市伊島町
7750000,徳島県,海部郡牟岐町,,トクシマケン,カイフグンムギチョウ,,徳島県海部郡牟岐町
7750001,徳島県,海部郡牟岐町,河内,トクシマケン,カイフグンムギチョウ,コウチ,徳島県海部郡牟岐町河内
7750002,徳島県,海部郡牟岐町,橘,トクシマケン,カイフグンムギチョウ,タチバナ,徳島県海部郡牟岐町橘
7750003,徳島県,海部郡牟岐町,辺川,トクシマケン,カイフグンムギチョウ,ヘガワ,徳島県海部郡牟岐町辺川
7750004,徳島県,海部郡牟岐町,川長,トクシマケン,カイフグンムギチョウ,カワタケ,徳島県海部郡牟岐町川長
7750005,徳島県,海部郡牟岐町,灘,トクシマケン,カイフグンムギチョウ,ナダ,徳島県海部郡牟岐町灘
7750006,徳島県,海部郡牟岐町,中村,トクシマケン,カイフグンムギチョウ,ナカムラ,徳島県海部郡牟岐町中村
7750007,徳島県,海部郡牟岐町,内妻,トクシマケン,カイフグンムギチョウ,ウチヅマ,徳島県海部郡牟岐町内妻
7750010,徳島県,海部郡牟岐町,牟岐浦（その他）,トクシマケン,カイフグンムギチョウ,ムギウラ(ソノタ),徳島県海部郡牟岐町牟岐浦（その他）
7750011,徳島県,海部郡牟岐町,牟岐浦（浜崎）,トクシマケン,カイフグンムギチョウ,ムギウラ(ハマサキ),徳島県海部郡牟岐町牟岐浦（浜崎）
7750012,徳島県,海部郡牟岐町,牟岐浦（宮ノ本）,トクシマケン,カイフグンムギチョウ,ムギウラ(ミヤノモト),徳島県海部郡牟岐町牟岐浦（宮ノ本）
7750013,徳島県,海部郡牟岐町,牟岐浦（出羽島）,トクシマケン,カイフグンムギチョウ,ムギウラ(テバジマ),徳島県海部郡牟岐町牟岐浦（出羽島）
7750101,徳島県,海部郡海陽町,浅川,トクシマケン,カイフグンカイヨウチョウ,アサカワ,徳島県海部郡海陽町浅川
7750200,徳島県,海部郡海陽町,,トクシマケン,カイフグンカイヨウチョウ,,徳島県海部郡海陽町
7750202,徳島県,海部郡海陽町,四方原,トクシマケン,カイフグンカイヨウチョウ,シホウハラ,徳島県海部郡海陽町四方原
7750203,徳島県,海部郡海陽町,大里,トクシマケン,カイフグンカイヨウチョウ,オオザト,徳島県海部郡海陽町大里
7750204,徳島県,海部郡海陽町,多良,トクシマケン,カイフグンカイヨウチョウ,タラ,徳島県海部郡海陽町多良
7750205,徳島県,海部郡海陽町,吉野,トクシマケン,カイフグンカイヨウチョウ,ヨシノ,徳島県海部郡海陽町吉野
7750206,徳島県,海部郡海陽町,熟田,トクシマケン,カイフグンカイヨウチョウ,ズクダ,徳島県海部郡海陽町熟田
7750301,徳島県,海部郡海陽町,鞆浦,トクシマケン,カイフグンカイヨウチョウ,トモウラ,徳島県海部郡海陽町鞆浦
7750302,徳島県,海部郡海陽町,奥浦,トクシマケン,カイフグンカイヨウチョウ,オクウラ,徳島県海部郡海陽町奥浦
7750303,徳島県,海部郡海陽町,高園,トクシマケン,カイフグンカイヨウチョウ,タカゾノ,徳島県海部郡海陽町高園
7750304,徳島県,海部郡海陽町,野江,トクシマケン,カイフグンカイヨウチョウ,ノエ,徳島県海部郡海陽町野江
7750305,徳島県,海部郡海陽町,中山,トクシマケン,カイフグンカイヨウチョウ,ナカヤマ,徳島県海部郡海陽町中山
7750306,徳島県,海部郡海陽町,櫛川,トクシマケン,カイフグンカイヨウチョウ,クシカワ,徳島県海部郡海陽町櫛川
7750307,徳島県,海部郡海陽町,芝,トクシマケン,カイフグンカイヨウチョウ,シバ,徳島県海部郡海陽町芝
7750308,徳島県,海部郡海陽町,吉田,トクシマケン,カイフグンカイヨウチョウ,ヨシダ,徳島県海部郡海陽町吉田
7750309,徳島県,海部郡海陽町,富田,トクシマケン,カイフグンカイヨウチョウ,トミダ,徳島県海部郡海陽町富田
7750310,徳島県,海部郡海陽町,大井,トクシマケン,カイフグンカイヨウチョウ,オオイ,徳島県海部郡海陽町大井
7750411,徳島県,海部郡海陽町,平井,トクシマケン,カイフグンカイヨウチョウ,ヒライ,徳島県海部郡海陽町平井
7750412,徳島県,海部郡海陽町,小川,トクシマケン,カイフグンカイヨウチョウ,オガワ,徳島県海部郡海陽町小川
7750413,徳島県,海部郡海陽町,神野,トクシマケン,カイフグンカイヨウチョウ,コウノ,徳島県海部郡海陽町神野
7750414,徳島県,海部郡海陽町,若松,トクシマケン,カイフグンカイヨウチョウ,ワカマツ,徳島県海部郡海陽町若松
7750415,徳島県,海部郡海陽町,相川,トクシマケン,カイフグンカイヨウチョウ,アイカワ,徳島県海部郡海陽町相川
7750501,徳島県,海部郡海陽町,宍喰浦（その他）,トクシマケン,カイフグンカイヨウチョウ,シシクイウラ(ソノタ),徳島県海部郡海陽町宍喰浦（その他）
7750502,徳島県,海部郡海陽町,久保,トクシマケン,カイフグンカイヨウチョウ,クボ,徳島県海部郡海陽町久保
7750503,徳島県,海部郡海陽町,日比原,トクシマケン,カイフグンカイヨウチョウ,ヒビハラ,徳島県海部郡海陽町日比原
7750504,徳島県,海部郡海陽町,尾崎,トクシマケン,カイフグンカイヨウチョウ,オサキ,徳島県海部郡海陽町尾崎
7750505,徳島県,海部郡海陽町,芥附,トクシマケン,カイフグンカイヨウチョウ,クグツケ,徳島県海部郡海陽町芥附
7750506,徳島県,海部郡海陽町,角坂,トクシマケン,カイフグンカイヨウチョウ,カクサカ,徳島県海部郡海陽町角坂
7750507,徳島県,海部郡海陽町,広岡,トクシマケン,カイフグンカイヨウチョウ,ヒロオカ,徳島県海部郡海陽町広岡
7750508,徳島県,海部郡海陽町,小谷,トクシマケン,カイフグンカイヨウチョウ,コダニ,徳島県海部郡海陽町小谷
7750509,徳島県,海部郡海陽町,塩深,トクシマケン,カイフグンカイヨウチョウ,シオフカ,徳島県海部郡海陽町塩深
7750510,徳島県,海部郡海陽町,船津,トクシマケン,カイフグンカイヨウチョウ,フナツ,徳島県海部郡海陽町船津
7750511,徳島県,海部郡海陽町,久尾,トクシマケン,カイフグンカイヨウチョウ,クオ,徳島県海部郡海陽町久尾
7750512,徳島県,海部郡海陽町,宍喰浦（那佐）,トクシマケン,カイフグンカイヨウチョウ,シシクイウラ(ナサ),徳島県海部郡海陽町宍喰浦（那佐）
7750513,徳島県,海部郡海陽町,宍喰浦（竹ケ島）,トクシマケン,カイフグンカイヨウチョウ,シシクイウラ(タケガシマ),徳島県海部郡海陽町宍喰浦（竹ケ島）
7760000,徳島県,吉野川市,,トクシマケン,ヨシノガワシ,,徳島県吉野川市
7760001,徳島県,吉野川市,鴨島町牛島,トクシマケン,ヨシノガワシ,カモジマチョウウシシマ,徳島県吉野川市鴨島町牛島
7760002,徳島県,吉野川市,鴨島町麻植塚,トクシマケン,ヨシノガワシ,カモジマチョウオエヅカ,徳島県吉野川市鴨島町麻植塚
7760003,徳島県,吉野川市,鴨島町内原,トクシマケン,ヨシノガワシ,カモジマチョウウチバラ,徳島県吉野川市鴨島町内原
7760004,徳島県,吉野川市,鴨島町中島,トクシマケン,ヨシノガワシ,カモジマチョウナカジマ,徳島県吉野川市鴨島町中島
7760005,徳島県,吉野川市,鴨島町喜来,トクシマケン,ヨシノガワシ,カモジマチョウキライ,徳島県吉野川市鴨島町喜来
7760006,徳島県,吉野川市,鴨島町喜来甲,トクシマケン,ヨシノガワシ,カモジマチョウキライコウ,徳島県吉野川市鴨島町喜来甲
7760007,徳島県,吉野川市,鴨島町喜来乙,トクシマケン,ヨシノガワシ,カモジマチョウキライオツ,徳島県吉野川市鴨島町喜来乙
7760010,徳島県,吉野川市,鴨島町鴨島,トクシマケン,ヨシノガワシ,カモジマチョウカモジマ,徳島県吉野川市鴨島町鴨島
7760011,徳島県,吉野川市,鴨島町鴨島甲,トクシマケン,ヨシノガワシ,カモジマチョウカモジマコウ,徳島県吉野川市鴨島町鴨島甲
7760012,徳島県,吉野川市,鴨島町鴨島乙,トクシマケン,ヨシノガワシ,カモジマチョウカモジマオツ,徳島県吉野川市鴨島町鴨島乙
7760013,徳島県,吉野川市,鴨島町上下島,トクシマケン,ヨシノガワシ,カモジマチョウジョウゲジマ,徳島県吉野川市鴨島町上下島
7760014,徳島県,吉野川市,鴨島町知恵島,トクシマケン,ヨシノガワシ,カモジマチョウチエジマ,徳島県吉野川市鴨島町知恵島
7760015,徳島県,吉野川市,鴨島町粟島,トクシマケン,ヨシノガワシ,カモジマチョウアワジマ,徳島県吉野川市鴨島町粟島
7760020,徳島県,吉野川市,鴨島町西麻植,トクシマケン,ヨシノガワシ,カモジマチョウニシオエ,徳島県吉野川市鴨島町西麻植
7760031,徳島県,吉野川市,鴨島町敷地,トクシマケン,ヨシノガワシ,カモジマチョウシキジ,徳島県吉野川市鴨島町敷地
7760032,徳島県,吉野川市,鴨島町樋山地,トクシマケン,ヨシノガワシ,カモジマチョウヒヤマジ,徳島県吉野川市鴨島町樋山地
7760033,徳島県,吉野川市,鴨島町飯尾,トクシマケン,ヨシノガワシ,カモジマチョウイノオ,徳島県吉野川市鴨島町飯尾
7760034,徳島県,吉野川市,鴨島町呉郷団地,トクシマケン,ヨシノガワシ,カモジマチョウゴキョウダンチ,徳島県吉野川市鴨島町呉郷団地
7760035,徳島県,吉野川市,鴨島町森藤,トクシマケン,ヨシノガワシ,カモジマチョウモリトウ,徳島県吉野川市鴨島町森藤
7760036,徳島県,吉野川市,鴨島町山路,トクシマケン,ヨシノガワシ,カモジマチョウサンジ,徳島県吉野川市鴨島町山路
7760037,徳島県,吉野川市,鴨島町上浦,トクシマケン,ヨシノガワシ,カモジマチョウカミウラ,徳島県吉野川市鴨島町上浦
7770001,徳島県,美馬市,穴吹町三島（小島）,トクシマケン,ミマシ,アナブキチョウミシマ(オシマ),徳島県美馬市穴吹町三島（小島）
7770002,徳島県,美馬市,穴吹町三島（舞中島）,トクシマケン,ミマシ,アナブキチョウミシマ(マイナカシマ),徳島県美馬市穴吹町三島（舞中島）
7770003,徳島県,美馬市,穴吹町三島（三谷）,トクシマケン,ミマシ,アナブキチョウミシマ(ミタニ),徳島県美馬市穴吹町三島（三谷）
7770004,徳島県,美馬市,穴吹町三島（大重）,トクシマケン,ミマシ,アナブキチョウミシマ(オオシゲ),徳島県美馬市穴吹町三島（大重）
7770005,徳島県,美馬市,穴吹町穴吹,トクシマケン,ミマシ,アナブキチョウアナブキ,徳島県美馬市穴吹町穴吹
7770006,徳島県,美馬市,穴吹町口山,トクシマケン,ミマシ,アナブキチョウクチヤマ,徳島県美馬市穴吹町口山
7770007,徳島県,美馬市,穴吹町古宮,トクシマケン,ミマシ,アナブキチョウフルミヤ,徳島県美馬市穴吹町古宮
7770301,徳島県,美馬市,木屋平（市初、今丸、尾山、カゴミ、樫原、木中、桑柄、ケヤキヒラ、小日浦、,トクシマケン,ミマシ,コヤダイラ(イチハナ、イママル、オヤマ、カゴミ、カシワラ、キナカ、クワガラ、ケヤキヒラ、コビウラ、,徳島県美馬市木屋平（市初、今丸、尾山、カゴミ、樫原、木中、桑柄、ケヤキヒラ、小日浦、
7770302,徳島県,美馬市,木屋平（麻衣、大北、川井、下名、竹尾、櫟木）,トクシマケン,ミマシ,コヤダイラ(アサギヌ、オオキタ、カワイ、シモミョウ、タケオ、チチノギ),徳島県美馬市木屋平（麻衣、大北、川井、下名、竹尾、櫟木）
7770303,徳島県,美馬市,木屋平（川上、川上カケ、太合、太合カケ、谷口、谷口カケ、森遠、八幡、弓道）,トクシマケン,ミマシ,コヤダイラ(カワカミ、カワカミカケ、タイゴウ、タイゴウカケ、タニグチ、タニグチカケ、モリトオ、ヤワタ、ユドウ),徳島県美馬市木屋平（川上、川上カケ、太合、太合カケ、谷口、谷口カケ、森遠、八幡、弓道）
7780000,徳島県,三好市,,トクシマケン,ミヨシシ,,徳島県三好市
7780001,徳島県,三好市,池田町ウエノ,トクシマケン,ミヨシシ,イケダチョウウエノ,徳島県三好市池田町ウエノ
7780002,徳島県,三好市,池田町マチ,トクシマケン,ミヨシシ,イケダチョウマチ,徳島県三好市池田町マチ
7780003,徳島県,三好市,池田町サラダ,トクシマケン,ミヨシシ,イケダチョウサラダ,徳島県三好市池田町サラダ
7780004,徳島県,三好市,池田町シンマチ,トクシマケン,ミヨシシ,イケダチョウシンマチ,徳島県三好市池田町シンマチ
7780005,徳島県,三好市,池田町シマ,トクシマケン,ミヨシシ,イケダチョウシマ,徳島県三好市池田町シマ
7780006,徳島県,三好市,池田町トウゲ,トクシマケン,ミヨシシ,イケダチョウトウゲ,徳島県三好市池田町トウゲ
7780007,徳島県,三好市,池田町ヤマダ,トクシマケン,ミヨシシ,イケダチョウヤマダ,徳島県三好市池田町ヤマダ
7780008,徳島県,三好市,池田町クヤウジ,トクシマケン,ミヨシシ,イケダチョウクヤウジ,徳島県三好市池田町クヤウジ
7780009,徳島県,三好市,池田町ヤサン,トクシマケン,ミヨシシ,イケダチョウヤサン,徳島県三好市池田町ヤサン
7780010,徳島県,三好市,池田町ウエマツ,トクシマケン,ミヨシシ,イケダチョウウエマツ,徳島県三好市池田町ウエマツ
7780011,徳島県,三好市,池田町ハヤシ,トクシマケン,ミヨシシ,イケダチョウハヤシ,徳島県三好市池田町ハヤシ
7780012,徳島県,三好市,池田町イケミナミ,トクシマケン,ミヨシシ,イケダチョウイケミナミ,徳島県三好市池田町イケミナミ
7780013,徳島県,三好市,池田町シンヤマ,トクシマケン,ミヨシシ,イケダチョウシンヤマ,徳島県三好市池田町シンヤマ
7780014,徳島県,三好市,池田町イタノ,トクシマケン,ミヨシシ,イケダチョウイタノ,徳島県三好市池田町イタノ
7780020,徳島県,三好市,池田町州津,トクシマケン,ミヨシシ,イケダチョウシュウヅ,徳島県三好市池田町州津
7780031,徳島県,三好市,池田町西山（上中尾）,トクシマケン,ミヨシシ,イケダチョウニシヤマ(カミナカオ),徳島県三好市池田町西山（上中尾）
7780031,徳島県,三好市,池田町西山（上久保）,トクシマケン,ミヨシシ,イケダチョウニシヤマ(ウワクボ),徳島県三好市池田町西山（上久保）
7780031,徳島県,三好市,池田町西山（中尾）,トクシマケン,ミヨシシ,イケダチョウニシヤマ(ナカオ),徳島県三好市池田町西山（中尾）
7780031,徳島県,三好市,池田町西山（坪尻）,トクシマケン,ミヨシシ,イケダチョウニシヤマ(ツボジリ),徳島県三好市池田町西山（坪尻）
7780031,徳島県,三好市,池田町西山（横佐古）,トクシマケン,ミヨシシ,イケダチョウニシヤマ(ヨコサコ),徳島県三好市池田町西山（横佐古）
7780031,徳島県,三好市,池田町西山（津寺）,トクシマケン,ミヨシシ,イケダチョウニシヤマ(ツデラ),徳島県三好市池田町西山（津寺）
7780031,徳島県,三好市,池田町西山（船原）,トクシマケン,ミヨシシ,イケダチョウニシヤマ(フナバラ),徳島県三好市池田町西山（船原）
7780031,徳島県,三好市,池田町西山（落）,トクシマケン,ミヨシシ,イケダチョウニシヤマ(オチ),徳島県三好市池田町西山（落）
7780031,徳島県,三好市,池田町西山（西ノ岡）,トクシマケン,ミヨシシ,イケダチョウニシヤマ(ニシノオカ),徳島県三好市池田町西山（西ノ岡）
7780031,徳島県,三好市,池田町西山（谷浦）,トクシマケン,ミヨシシ,イケダチョウニシヤマ(タニウラ),徳島県三好市池田町西山（谷浦）
7780032,徳島県,三好市,池田町西山（下ノ浦）,トクシマケン,ミヨシシ,イケダチョウニシヤマ(シモノウラ),徳島県三好市池田町西山（下ノ浦）
7780032,徳島県,三好市,池田町西山（中塚）,トクシマケン,ミヨシシ,イケダチョウニシヤマ(ナカツカ),徳島県三好市池田町西山（中塚）
7780032,徳島県,三好市,池田町西山（乳ノ木道北）,トクシマケン,ミヨシシ,イケダチョウニシヤマ(チチノキミチキタ),徳島県三好市池田町西山（乳ノ木道北）
7780032,徳島県,三好市,池田町西山（乳ノ木）,トクシマケン,ミヨシシ,イケダチョウニシヤマ(チチノキ),徳島県三好市池田町西山（乳ノ木）
7780032,徳島県,三好市,池田町西山（宮ノ東）,トクシマケン,ミヨシシ,イケダチョウニシヤマ(ミヤノヒガシ),徳島県三好市池田町西山（宮ノ東）
7780032,徳島県,三好市,池田町西山（宮ノ西）,トクシマケン,ミヨシシ,イケダチョウニシヤマ(ミヤノニシ),徳島県三好市池田町西山（宮ノ西）
7780032,徳島県,三好市,池田町西山（岸ノ上）,トクシマケン,ミヨシシ,イケダチョウニシヤマ(キシノウエ),徳島県三好市池田町西山（岸ノ上）
7780032,徳島県,三好市,池田町西山（樫ノ下）,トクシマケン,ミヨシシ,イケダチョウニシヤマ(カシノシタ),徳島県三好市池田町西山（樫ノ下）
7780032,徳島県,三好市,池田町西山（登リ尾）,トクシマケン,ミヨシシ,イケダチョウニシヤマ(ノボリオ),徳島県三好市池田町西山（登リ尾）
7780032,徳島県,三好市,池田町西山（蔭）,トクシマケン,ミヨシシ,イケダチョウニシヤマ(カゲ),徳島県三好市池田町西山（蔭）
7780032,徳島県,三好市,池田町西山（西谷）,トクシマケン,ミヨシシ,イケダチョウニシヤマ(ニシタニ),徳島県三好市池田町西山（西谷）
7780032,徳島県,三好市,池田町西山（込野）,トクシマケン,ミヨシシ,イケダチョウニシヤマ(コミノ),徳島県三好市池田町西山（込野）
7780040,徳島県,三好市,池田町西山（その他）,トクシマケン,ミヨシシ,イケダチョウニシヤマ(ソノタ),徳島県三好市池田町西山（その他）
7780101,徳島県,三好市,西祖谷山村一宇,トクシマケン,ミヨシシ,ニシイヤヤマムライチウ,徳島県三好市西祖谷山村一宇
7780101,徳島県,三好市,西祖谷山村冥地,トクシマケン,ミヨシシ,ニシイヤヤマムラミョウジ,徳島県三好市西祖谷山村冥地
7780101,徳島県,三好市,西祖谷山村尾井ノ内,トクシマケン,ミヨシシ,ニシイヤヤマムラオイノウチ,徳島県三好市西祖谷山村尾井ノ内
7780101,徳島県,三好市,西祖谷山村戸ノ谷,トクシマケン,ミヨシシ,ニシイヤヤマムラトノタニ,徳島県三好市西祖谷山村戸ノ谷
7780101,徳島県,三好市,西祖谷山村田ノ内,トクシマケン,ミヨシシ,ニシイヤヤマムラタノウチ,徳島県三好市西祖谷山村田ノ内
7780101,徳島県,三好市,西祖谷山村眠谷,トクシマケン,ミヨシシ,ニシイヤヤマムラネムリダニ,徳島県三好市西祖谷山村眠谷
7780101,徳島県,三好市,西祖谷山村重末,トクシマケン,ミヨシシ,ニシイヤヤマムラシゲスエ,徳島県三好市西祖谷山村重末
7780102,徳島県,三好市,西祖谷山村中尾,トクシマケン,ミヨシシ,ニシイヤヤマムラナカオ,徳島県三好市西祖谷山村中尾
7780102,徳島県,三好市,西祖谷山村今久保,トクシマケン,ミヨシシ,ニシイヤヤマムライマクボ,徳島県三好市西祖谷山村今久保
7780102,徳島県,三好市,西祖谷山村善徳,トクシマケン,ミヨシシ,ニシイヤヤマムラゼントク,徳島県三好市西祖谷山村善徳
7780102,徳島県,三好市,西祖谷山村閑定,トクシマケン,ミヨシシ,ニシイヤヤマムラカンジョウ,徳島県三好市西祖谷山村閑定
7780103,徳島県,三好市,西祖谷山村有瀬,トクシマケン,ミヨシシ,ニシイヤヤマムラアルセ,徳島県三好市西祖谷山村有瀬
7780104,徳島県,三好市,西祖谷山村上吾橋,トクシマケン,ミヨシシ,ニシイヤヤマムラカミアハシ,徳島県三好市西祖谷山村上吾橋
7780104,徳島県,三好市,西祖谷山村下吾橋,トクシマケン,ミヨシシ,ニシイヤヤマムラシモアハシ,徳島県三好市西祖谷山村下吾橋
7780104,徳島県,三好市,西祖谷山村南山,トクシマケン,ミヨシシ,ニシイヤヤマムラミナミヤマ,徳島県三好市西祖谷山村南山
7780104,徳島県,三好市,西祖谷山村吾橋,トクシマケン,ミヨシシ,ニシイヤヤマムラアハシ,徳島県三好市西祖谷山村吾橋
7780104,徳島県,三好市,西祖谷山村土日浦,トクシマケン,ミヨシシ,ニシイヤヤマムラツチヒウラ,徳島県三好市西祖谷山村土日浦
7780104,徳島県,三好市,西祖谷山村東山,トクシマケン,ミヨシシ,ニシイヤヤマムラヒガシヤマ,徳島県三好市西祖谷山村東山
7780104,徳島県,三好市,西祖谷山村榎,トクシマケン,ミヨシシ,ニシイヤヤマムラエノキ,徳島県三好市西祖谷山村榎
7780105,徳島県,三好市,西祖谷山村後山,トクシマケン,ミヨシシ,ニシイヤヤマムラウシロヤマ,徳島県三好市西祖谷山村後山
7780105,徳島県,三好市,西祖谷山村後山向,トクシマケン,ミヨシシ,ニシイヤヤマムラウシロヤマムカイ,徳島県三好市西祖谷山村後山向
7780105,徳島県,三好市,西祖谷山村後山西,トクシマケン,ミヨシシ,ニシイヤヤマムラウシロヤマニシ,徳島県三好市西祖谷山村後山西
7780105,徳島県,三好市,西祖谷山村徳善,トクシマケン,ミヨシシ,ニシイヤヤマムラトクゼン,徳島県三好市西祖谷山村徳善
7780105,徳島県,三好市,西祖谷山村徳善北,トクシマケン,ミヨシシ,ニシイヤヤマムラトクゼンキタ,徳島県三好市西祖谷山村徳善北
7780105,徳島県,三好市,西祖谷山村徳善西,トクシマケン,ミヨシシ,ニシイヤヤマムラトクゼンニシ,徳島県三好市西祖谷山村徳善西
7780105,徳島県,三好市,西祖谷山村東西岡,トクシマケン,ミヨシシ,ニシイヤヤマムラヒガシニシオカ,徳島県三好市西祖谷山村東西岡
7780105,徳島県,三好市,西祖谷山村西岡,トクシマケン,ミヨシシ,ニシイヤヤマムラニシオカ,徳島県三好市西祖谷山村西岡
7780165,徳島県,三好市,池田町松尾（祖谷温泉、松本３６７−２番地）,トクシマケン,ミヨシシ,イケダチョウマツオ(イヤオンセン、マツモト367-2バンチ),徳島県三好市池田町松尾（祖谷温泉、松本367-2-）
7780201,徳島県,三好市,東祖谷菅生,トクシマケン,ミヨシシ,ヒガシイヤスゲオイ,徳島県三好市東祖谷菅生
7780201,徳島県,三好市,東祖谷見ノ越,トクシマケン,ミヨシシ,ヒガシイヤミノコシ,徳島県三好市東祖谷見ノ越
7780202,徳島県,三好市,東祖谷久保,トクシマケン,ミヨシシ,ヒガシイヤクボ,徳島県三好市東祖谷久保
7780202,徳島県,三好市,東祖谷落合,トクシマケン,ミヨシシ,ヒガシイヤオチアイ,徳島県三好市東祖谷落合
7780203,徳島県,三好市,東祖谷下瀬,トクシマケン,ミヨシシ,ヒガシイヤシモセ,徳島県三好市東祖谷下瀬
7780203,徳島県,三好市,東祖谷中上,トクシマケン,ミヨシシ,ヒガシイヤナカウエ,徳島県三好市東祖谷中上
7780203,徳島県,三好市,東祖谷九鬼,トクシマケン,ミヨシシ,ヒガシイヤクキ,徳島県三好市東祖谷九鬼
7780203,徳島県,三好市,東祖谷奥の井,トクシマケン,ミヨシシ,ヒガシイヤオクノイ,徳島県三好市東祖谷奥の井
7780203,徳島県,三好市,東祖谷林,トクシマケン,ミヨシシ,ヒガシイヤハヤシ,徳島県三好市東祖谷林
7780203,徳島県,三好市,東祖谷栗枝渡,トクシマケン,ミヨシシ,ヒガシイヤクリスド,徳島県三好市東祖谷栗枝渡
7780203,徳島県,三好市,東祖谷西山,トクシマケン,ミヨシシ,ヒガシイヤニシヤマ,徳島県三好市東祖谷西山
7780203,徳島県,三好市,東祖谷釜ケ谷,トクシマケン,ミヨシシ,ヒガシイヤカマガタニ,徳島県三好市東祖谷釜ケ谷
7780204,徳島県,三好市,東祖谷京上,トクシマケン,ミヨシシ,ヒガシイヤキョウジョウ,徳島県三好市東祖谷京上
7780204,徳島県,三好市,東祖谷大枝,トクシマケン,ミヨシシ,ヒガシイヤオオエダ,徳島県三好市東祖谷大枝
7780204,徳島県,三好市,東祖谷大西,トクシマケン,ミヨシシ,ヒガシイヤオオニシ,徳島県三好市東祖谷大西
7780204,徳島県,三好市,東祖谷若林,トクシマケン,ミヨシシ,ヒガシイヤワカバヤシ,徳島県三好市東祖谷若林
7780205,徳島県,三好市,東祖谷元井,トクシマケン,ミヨシシ,ヒガシイヤモットイ,徳島県三好市東祖谷元井
7780205,徳島県,三好市,東祖谷古味,トクシマケン,ミヨシシ,ヒガシイヤコミ,徳島県三好市東祖谷古味
7780205,徳島県,三好市,東祖谷小川,トクシマケン,ミヨシシ,ヒガシイヤオガワ,徳島県三好市東祖谷小川
7780205,徳島県,三好市,東祖谷新居屋,トクシマケン,ミヨシシ,ヒガシイヤニイヤ,徳島県三好市東祖谷新居屋
7780205,徳島県,三好市,東祖谷樫尾,トクシマケン,ミヨシシ,ヒガシイヤカシオ,徳島県三好市東祖谷樫尾
7780205,徳島県,三好市,東祖谷阿佐,トクシマケン,ミヨシシ,ヒガシイヤアサ,徳島県三好市東祖谷阿佐
7780205,徳島県,三好市,東祖谷麦生土,トクシマケン,ミヨシシ,ヒガシイヤムジュウト,徳島県三好市東祖谷麦生土
7780206,徳島県,三好市,東祖谷今井,トクシマケン,ミヨシシ,ヒガシイヤイマイ,徳島県三好市東祖谷今井
7780206,徳島県,三好市,東祖谷佐野,トクシマケン,ミヨシシ,ヒガシイヤサノ,徳島県三好市東祖谷佐野
7780206,徳島県,三好市,東祖谷和田,トクシマケン,ミヨシシ,ヒガシイヤワダ,徳島県三好市東祖谷和田
7780206,徳島県,三好市,東祖谷小島,トクシマケン,ミヨシシ,ヒガシイヤオシマ,徳島県三好市東祖谷小島
7780206,徳島県,三好市,東祖谷釣井,トクシマケン,ミヨシシ,ヒガシイヤツルイ,徳島県三好市東祖谷釣井
7780206,徳島県,三好市,東祖谷高野,トクシマケン,ミヨシシ,ヒガシイヤタカノ,徳島県三好市東祖谷高野
7785251,徳島県,三好市,池田町白地,トクシマケン,ミヨシシ,イケダチョウハクチ,徳島県三好市池田町白地
7785252,徳島県,三好市,池田町馬路,トクシマケン,ミヨシシ,イケダチョウウマジ,徳島県三好市池田町馬路
7785253,徳島県,三好市,池田町佐野,トクシマケン,ミヨシシ,イケダチョウサノ,徳島県三好市池田町佐野
7785254,徳島県,三好市,山城町佐連（ミネ畑）,トクシマケン,ミヨシシ,ヤマシロチョウサレ(ミネバタ),徳島県三好市山城町佐連（ミネ畑）
7790100,徳島県,板野郡板野町,,トクシマケン,イタノグンイタノチョウ,,徳島県板野郡板野町
7790101,徳島県,板野郡板野町,大坂,トクシマケン,イタノグンイタノチョウ,オオサカ,徳島県板野郡板野町大坂
7790102,徳島県,板野郡板野町,川端（その他）,トクシマケン,イタノグンイタノチョウ,カワバタ(ソノタ),徳島県板野郡板野町川端（その他）
7790103,徳島県,板野郡板野町,川端（新田）,トクシマケン,イタノグンイタノチョウ,カワバタ(シンデン),徳島県板野郡板野町川端（新田）
7790104,徳島県,板野郡板野町,吹田,トクシマケン,イタノグンイタノチョウ,フキタ,徳島県板野郡板野町吹田
7790105,徳島県,板野郡板野町,大寺（その他）,トクシマケン,イタノグンイタノチョウ,オオテラ(ソノタ),徳島県板野郡板野町大寺（その他）
7790106,徳島県,板野郡板野町,大寺（岡ノ宮）,トクシマケン,イタノグンイタノチョウ,オオテラ(オカノミヤ),徳島県板野郡板野町大寺（岡ノ宮）
7790107,徳島県,板野郡板野町,古城,トクシマケン,イタノグンイタノチョウ,フルシロ,徳島県板野郡板野町古城
7790108,徳島県,板野郡板野町,犬伏,トクシマケン,イタノグンイタノチョウ,イヌブシ,徳島県板野郡板野町犬伏
7790111,徳島県,板野郡板野町,那東,トクシマケン,イタノグンイタノチョウ,ナトウ,徳島県板野郡板野町那東
7790112,徳島県,板野郡板野町,松谷,トクシマケン,イタノグンイタノチョウ,マツダニ,徳島県板野郡板野町松谷
7790113,徳島県,板野郡板野町,黒谷,トクシマケン,イタノグンイタノチョウ,クロダニ,徳島県板野郡板野町黒谷
7790114,徳島県,板野郡板野町,羅漢,トクシマケン,イタノグンイタノチョウ,ラカン,徳島県板野郡板野町羅漢
7790115,徳島県,板野郡板野町,矢武,トクシマケン,イタノグンイタノチョウ,ヤタケ,徳島県板野郡板野町矢武
7790116,徳島県,板野郡板野町,唐園,トクシマケン,イタノグンイタノチョウ,トウノソ,徳島県板野郡板野町唐園
7790117,徳島県,板野郡板野町,中久保,トクシマケン,イタノグンイタノチョウ,ナカクボ,徳島県板野郡板野町中久保
7790118,徳島県,板野郡板野町,下庄,トクシマケン,イタノグンイタノチョウ,シモノショウ,徳島県板野郡板野町下庄
7790119,徳島県,板野郡板野町,西中富,トクシマケン,イタノグンイタノチョウ,ニシナカトミ,徳島県板野郡板野町西中富
7790221,徳島県,鳴門市,大麻町萩原,トクシマケン,ナルトシ,オオアサチョウハギワラ,徳島県鳴門市大麻町萩原
7790222,徳島県,鳴門市,大麻町三俣,トクシマケン,ナルトシ,オオアサチョウミツマタ,徳島県鳴門市大麻町三俣
7790223,徳島県,鳴門市,大麻町川崎,トクシマケン,ナルトシ,オオアサチョウカワサキ,徳島県鳴門市大麻町川崎
7790224,徳島県,鳴門市,大麻町津慈,トクシマケン,ナルトシ,オオアサチョウツジ,徳島県鳴門市大麻町津慈
7790225,徳島県,鳴門市,大麻町檜,トクシマケン,ナルトシ,オオアサチョウヒノキ,徳島県鳴門市大麻町檜
7790230,徳島県,鳴門市,大麻町板東（その他）,トクシマケン,ナルトシ,オオアサチョウバンドウ(ソノタ),徳島県鳴門市大麻町板東（その他）
7790231,徳島県,鳴門市,大麻町板東（大林）,トクシマケン,ナルトシ,オオアサチョウバンドウ(オオバヤシ),徳島県鳴門市大麻町板東（大林）
7790232,徳島県,鳴門市,大麻町板東（辻見堂）,トクシマケン,ナルトシ,オオアサチョウバンドウ(ツジミドウ),徳島県鳴門市大麻町板東（辻見堂）
7790233,徳島県,鳴門市,大麻町板東（宝蔵）,トクシマケン,ナルトシ,オオアサチョウバンドウ(ホウゾウ),徳島県鳴門市大麻町板東（宝蔵）
7790234,徳島県,鳴門市,大麻町板東（采女）,トクシマケン,ナルトシ,オオアサチョウバンドウ(ウネメ),徳島県鳴門市大麻町板東（采女）
7790235,徳島県,鳴門市,大麻町板東（永井）,トクシマケン,ナルトシ,オオアサチョウバンドウ(ナガイ),徳島県鳴門市大麻町板東（永井）
7790236,徳島県,鳴門市,大麻町板東（西山田）,トクシマケン,ナルトシ,オオアサチョウバンドウ(ニシヤマダ),徳島県鳴門市大麻町板東（西山田）
7790237,徳島県,鳴門市,大麻町板東（北条）,トクシマケン,ナルトシ,オオアサチョウバンドウ(ホウジョウ),徳島県鳴門市大麻町板東（北条）
7790238,徳島県,鳴門市,大麻町板東（東山田）,トクシマケン,ナルトシ,オオアサチョウバンドウ(ヒガシヤマダ),徳島県鳴門市大麻町板東（東山田）
7790301,徳島県,鳴門市,大麻町姫田,トクシマケン,ナルトシ,オオアサチョウヒメダ,徳島県鳴門市大麻町姫田
7790302,徳島県,鳴門市,大麻町大谷,トクシマケン,ナルトシ,オオアサチョウオオタニ,徳島県鳴門市大麻町大谷
7790303,徳島県,鳴門市,大麻町池谷,トクシマケン,ナルトシ,オオアサチョウイケノタニ,徳島県鳴門市大麻町池谷
7790304,徳島県,鳴門市,大麻町松村,トクシマケン,ナルトシ,オオアサチョウマツムラ,徳島県鳴門市大麻町松村
7790305,徳島県,鳴門市,大麻町高畑,トクシマケン,ナルトシ,オオアサチョウタカバタケ,徳島県鳴門市大麻町高畑
7790311,徳島県,鳴門市,大麻町牛屋島,トクシマケン,ナルトシ,オオアサチョウウシヤジマ,徳島県鳴門市大麻町牛屋島
7790312,徳島県,鳴門市,大麻町東馬詰,トクシマケン,ナルトシ,オオアサチョウヒガシウマヅメ,徳島県鳴門市大麻町東馬詰
7790313,徳島県,鳴門市,大麻町中馬詰,トクシマケン,ナルトシ,オオアサチョウナカウマヅメ,徳島県鳴門市大麻町中馬詰
7790314,徳島県,鳴門市,大麻町西馬詰,トクシマケン,ナルトシ,オオアサチョウニシウマヅメ,徳島県鳴門市大麻町西馬詰
7790315,徳島県,鳴門市,大麻町市場,トクシマケン,ナルトシ,オオアサチョウイチバ,徳島県鳴門市大麻町市場
7791101,徳島県,阿南市,羽ノ浦町中庄,トクシマケン,アナンシ,ハノウラチョウナカノショウ,徳島県阿南市羽ノ浦町中庄
7791102,徳島県,阿南市,羽ノ浦町宮倉,トクシマケン,アナンシ,ハノウラチョウミヤグラ,徳島県阿南市羽ノ浦町宮倉
7791103,徳島県,阿南市,羽ノ浦町春日野,トクシマケン,アナンシ,ハノウラチョウカスガノ,徳島県阿南市羽ノ浦町春日野
7791104,徳島県,阿南市,羽ノ浦町西春日野,トクシマケン,アナンシ,ハノウラチョウニシカスガノ,徳島県阿南市羽ノ浦町西春日野
7791105,徳島県,阿南市,羽ノ浦町古庄,トクシマケン,アナンシ,ハノウラチョウフルショウ,徳島県阿南市羽ノ浦町古庄
7791106,徳島県,阿南市,羽ノ浦町岩脇（その他）,トクシマケン,アナンシ,ハノウラチョウイワワキ(ソノタ),徳島県阿南市羽ノ浦町岩脇（その他）
7791107,徳島県,阿南市,羽ノ浦町岩脇（奥ノ谷）,トクシマケン,アナンシ,ハノウラチョウイワワキ(オクノタニ),徳島県阿南市羽ノ浦町岩脇（奥ノ谷）
7791108,徳島県,阿南市,羽ノ浦町明見,トクシマケン,アナンシ,ハノウラチョウミョウケン,徳島県阿南市羽ノ浦町明見
7791109,徳島県,阿南市,羽ノ浦町古毛,トクシマケン,アナンシ,ハノウラチョウコモウ,徳島県阿南市羽ノ浦町古毛
7791111,徳島県,阿南市,那賀川町江野島,トクシマケン,アナンシ,ナカガワチョウエノシマ,徳島県阿南市那賀川町江野島
7791112,徳島県,阿南市,那賀川町色ケ島,トクシマケン,アナンシ,ナカガワチョウイロガシマ,徳島県阿南市那賀川町色ケ島
7791113,徳島県,阿南市,那賀川町芳崎,トクシマケン,アナンシ,ナカガワチョウホウザキ,徳島県阿南市那賀川町芳崎
7791114,徳島県,阿南市,那賀川町今津浦,トクシマケン,アナンシ,ナカガワチョウイマヅウラ,徳島県阿南市那賀川町今津浦
7791115,徳島県,阿南市,那賀川町敷地,トクシマケン,アナンシ,ナカガワチョウシキジ,徳島県阿南市那賀川町敷地
7791116,徳島県,阿南市,那賀川町小延,トクシマケン,アナンシ,ナカガワチョウコノブ,徳島県阿南市那賀川町小延
7791117,徳島県,阿南市,那賀川町島尻,トクシマケン,アナンシ,ナカガワチョウシマジリ,徳島県阿南市那賀川町島尻
7791118,徳島県,阿南市,那賀川町豊香野,トクシマケン,アナンシ,ナカガワチョウユタカノ,徳島県阿南市那賀川町豊香野
7791119,徳島県,阿南市,那賀川町日向,トクシマケン,アナンシ,ナカガワチョウヒナタ,徳島県阿南市那賀川町日向
7791121,徳島県,阿南市,那賀川町黒地,トクシマケン,アナンシ,ナカガワチョウクロジ,徳島県阿南市那賀川町黒地
7791122,徳島県,阿南市,那賀川町八幡,トクシマケン,アナンシ,ナカガワチョウヤワタ,徳島県阿南市那賀川町八幡
7791123,徳島県,阿南市,那賀川町手島,トクシマケン,アナンシ,ナカガワチョウテシマ,徳島県阿南市那賀川町手島
7791231,徳島県,阿南市,那賀川町原,トクシマケン,アナンシ,ナカガワチョウハラ,徳島県阿南市那賀川町原
7791232,徳島県,阿南市,那賀川町西原,トクシマケン,アナンシ,ナカガワチョウニシハラ,徳島県阿南市那賀川町西原
7791233,徳島県,阿南市,那賀川町大京原,トクシマケン,アナンシ,ナカガワチョウダイキョウバラ,徳島県阿南市那賀川町大京原
7791234,徳島県,阿南市,那賀川町古津,トクシマケン,アナンシ,ナカガワチョウフルツ,徳島県阿南市那賀川町古津
7791235,徳島県,阿南市,那賀川町苅屋,トクシマケン,アナンシ,ナカガワチョウカリヤ,徳島県阿南市那賀川町苅屋
7791236,徳島県,阿南市,那賀川町工地,トクシマケン,アナンシ,ナカガワチョウタクムジ,徳島県阿南市那賀川町工地
7791241,徳島県,阿南市,那賀川町三栗,トクシマケン,アナンシ,ナカガワチョウミグリュウ,徳島県阿南市那賀川町三栗
7791242,徳島県,阿南市,那賀川町赤池,トクシマケン,アナンシ,ナカガワチョウアカイケ,徳島県阿南市那賀川町赤池
7791243,徳島県,阿南市,那賀川町上福井,トクシマケン,アナンシ,ナカガワチョウカミフクイ,徳島県阿南市那賀川町上福井
7791244,徳島県,阿南市,那賀川町みどり台,トクシマケン,アナンシ,ナカガワチョウミドリダイ,徳島県阿南市那賀川町みどり台
7791245,徳島県,阿南市,那賀川町中島,トクシマケン,アナンシ,ナカガワチョウナカシマ,徳島県阿南市那賀川町中島
7791246,徳島県,阿南市,那賀川町北中島,トクシマケン,アナンシ,ナカガワチョウキタナカシマ,徳島県阿南市那賀川町北中島
7791401,徳島県,阿南市,内原町,トクシマケン,アナンシ,ウチワラチョウ,徳島県阿南市内原町
7791402,徳島県,阿南市,桑野町,トクシマケン,アナンシ,クワノチョウ,徳島県阿南市桑野町
7791403,徳島県,阿南市,山口町,トクシマケン,アナンシ,ヤマグチチョウ,徳島県阿南市山口町
7791404,徳島県,阿南市,阿瀬比町,トクシマケン,アナンシ,アセビチョウ,徳島県阿南市阿瀬比町
7791510,徳島県,阿南市,新野町,トクシマケン,アナンシ,アラタノチョウ,徳島県阿南市新野町
7791620,徳島県,阿南市,福井町,トクシマケン,アナンシ,フクイチョウ,徳島県阿南市福井町
7791630,徳島県,阿南市,橘町（タテアジロ、袴、袴傍示、棒面）,トクシマケン,アナンシ,タチバナチョウ(タテアジロ、ハカマ、ハカマホウジ、ボウメン),徳島県阿南市橘町（タテアジロ、袴、袴傍示、棒面）
7791631,徳島県,阿南市,橘町（小勝）,トクシマケン,アナンシ,タチバナチョウ(コカツ),徳島県阿南市橘町（小勝）
7791740,徳島県,阿南市,椿泊町,トクシマケン,アナンシ,ツバキドマリチョウ,徳島県阿南市椿泊町
7791750,徳島県,阿南市,椿町,トクシマケン,アナンシ,ツバキチョウ,徳島県阿南市椿町
7792101,徳島県,海部郡美波町,西由岐,トクシマケン,カイフグンミナミチョウ,ニシユキ,徳島県海部郡美波町西由岐
7792102,徳島県,海部郡美波町,港町,トクシマケン,カイフグンミナミチョウ,ミナトマチ,徳島県海部郡美波町港町
7792103,徳島県,海部郡美波町,西の地,トクシマケン,カイフグンミナミチョウ,ニシノジ,徳島県海部郡美波町西の地
7792104,徳島県,海部郡美波町,東由岐,トクシマケン,カイフグンミナミチョウ,ヒガシユキ,徳島県海部郡美波町東由岐
7792105,徳島県,海部郡美波町,志和岐,トクシマケン,カイフグンミナミチョウ,シワギ,徳島県海部郡美波町志和岐
7792106,徳島県,海部郡美波町,阿部,トクシマケン,カイフグンミナミチョウ,アブ,徳島県海部郡美波町阿部
7792107,徳島県,海部郡美波町,伊座利,トクシマケン,カイフグンミナミチョウ,イザリ,徳島県海部郡美波町伊座利
7792108,徳島県,海部郡美波町,木岐,トクシマケン,カイフグンミナミチョウ,キキ,徳島県海部郡美波町木岐
7792109,徳島県,海部郡美波町,田井,トクシマケン,カイフグンミナミチョウ,タイ,徳島県海部郡美波町田井
7792300,徳島県,海部郡美波町,,トクシマケン,カイフグンミナミチョウ,,徳島県海部郡美波町
7792301,徳島県,海部郡美波町,赤松,トクシマケン,カイフグンミナミチョウ,アカマツ,徳島県海部郡美波町赤松
7792302,徳島県,海部郡美波町,北河内,トクシマケン,カイフグンミナミチョウ,キタガワウチ,徳島県海部郡美波町北河内
7792303,徳島県,海部郡美波町,恵比須浜,トクシマケン,カイフグンミナミチョウ,エビスハマ,徳島県海部郡美波町恵比須浜
7792304,徳島県,海部郡美波町,日和佐浦,トクシマケン,カイフグンミナミチョウ,ヒワサウラ,徳島県海部郡美波町日和佐浦
7792305,徳島県,海部郡美波町,奥河内,トクシマケン,カイフグンミナミチョウ,オクガワウチ,徳島県海部郡美波町奥河内
7792306,徳島県,海部郡美波町,西河内,トクシマケン,カイフグンミナミチョウ,ニシガワウチ,徳島県海部郡美波町西河内
7792307,徳島県,海部郡美波町,山河内,トクシマケン,カイフグンミナミチョウ,ヤマガワウチ,徳島県海部郡美波町山河内
7793101,徳島県,徳島市,国府町佐野塚,トクシマケン,トクシマシ,コクフチョウサノヅカ,徳島県徳島市国府町佐野塚
7793102,徳島県,徳島市,国府町西黒田,トクシマケン,トクシマシ,コクフチョウニシクロダ,徳島県徳島市国府町西黒田
7793103,徳島県,徳島市,国府町東黒田,トクシマケン,トクシマシ,コクフチョウヒガシクロダ,徳島県徳島市国府町東黒田
7793104,徳島県,徳島市,国府町西高輪,トクシマケン,トクシマシ,コクフチョウニシタカワ,徳島県徳島市国府町西高輪
7793105,徳島県,徳島市,国府町東高輪,トクシマケン,トクシマシ,コクフチョウヒガシタカワ,徳島県徳島市国府町東高輪
7793106,徳島県,徳島市,国府町花園,トクシマケン,トクシマシ,コクフチョウハナゾノ,徳島県徳島市国府町花園
7793111,徳島県,徳島市,国府町竜王,トクシマケン,トクシマシ,コクフチョウリュウオウ,徳島県徳島市国府町竜王
7793112,徳島県,徳島市,国府町芝原,トクシマケン,トクシマシ,コクフチョウシバハラ,徳島県徳島市国府町芝原
7793113,徳島県,徳島市,国府町川原田,トクシマケン,トクシマシ,コクフチョウカワラダ,徳島県徳島市国府町川原田
7793114,徳島県,徳島市,国府町桜間,トクシマケン,トクシマシ,コクフチョウサクラマ,徳島県徳島市国府町桜間
7793115,徳島県,徳島市,国府町敷地,トクシマケン,トクシマシ,コクフチョウシキジ,徳島県徳島市国府町敷地
7793116,徳島県,徳島市,国府町池尻,トクシマケン,トクシマシ,コクフチョウイケジリ,徳島県徳島市国府町池尻
7793117,徳島県,徳島市,国府町日開,トクシマケン,トクシマシ,コクフチョウヒガイ,徳島県徳島市国府町日開
7793118,徳島県,徳島市,国府町井戸,トクシマケン,トクシマシ,コクフチョウイド,徳島県徳島市国府町井戸
7793119,徳島県,徳島市,国府町北岩延,トクシマケン,トクシマシ,コクフチョウキタイワノブ,徳島県徳島市国府町北岩延
7793120,徳島県,徳島市,国府町南岩延,トクシマケン,トクシマシ,コクフチョウミナミイワノブ,徳島県徳島市国府町南岩延
7793121,徳島県,徳島市,国府町和田,トクシマケン,トクシマシ,コクフチョウワダ,徳島県徳島市国府町和田
7793122,徳島県,徳島市,国府町府中,トクシマケン,トクシマシ,コクフチョウコウ,徳島県徳島市国府町府中
7793123,徳島県,徳島市,国府町観音寺,トクシマケン,トクシマシ,コクフチョウカンノンジ,徳島県徳島市国府町観音寺
7793124,徳島県,徳島市,国府町中,トクシマケン,トクシマシ,コクフチョウナカ,徳島県徳島市国府町中
7793125,徳島県,徳島市,国府町早淵,トクシマケン,トクシマシ,コクフチョウハヤブチ,徳島県徳島市国府町早淵
7793126,徳島県,徳島市,国府町矢野,トクシマケン,トクシマシ,コクフチョウヤノ,徳島県徳島市国府町矢野
7793127,徳島県,徳島市,国府町西矢野,トクシマケン,トクシマシ,コクフチョウニシヤノ,徳島県徳島市国府町西矢野
7793128,徳島県,徳島市,国府町延命,トクシマケン,トクシマシ,コクフチョウエンメイ,徳島県徳島市国府町延命
7793131,徳島県,徳島市,下町,トクシマケン,トクシマシ,シモマチ,徳島県徳島市下町
7793132,徳島県,徳島市,一宮町,トクシマケン,トクシマシ,イチノミヤチョウ,徳島県徳島市一宮町
7793133,徳島県,徳島市,入田町,トクシマケン,トクシマシ,ニュウタチョウ,徳島県徳島市入田町
7793200,徳島県,名西郡石井町,,トクシマケン,ミョウザイグンイシイチョウ,,徳島県名西郡石井町
7793201,徳島県,名西郡石井町,高原（中須）,トクシマケン,ミョウザイグンイシイチョウ,タカハラ(ナカス),徳島県名西郡石井町高原（中須）
7793202,徳島県,名西郡石井町,高原（関）,トクシマケン,ミョウザイグンイシイチョウ,タカハラ(セキ),徳島県名西郡石井町高原（関）
7793203,徳島県,名西郡石井町,高原（平島）,トクシマケン,ミョウザイグンイシイチョウ,タカハラ(ヘイシマ),徳島県名西郡石井町高原（平島）
7793204,徳島県,名西郡石井町,高原（西高原）,トクシマケン,ミョウザイグンイシイチョウ,タカハラ(ニシタカハラ),徳島県名西郡石井町高原（西高原）
7793205,徳島県,名西郡石井町,高原（東高原）,トクシマケン,ミョウザイグンイシイチョウ,タカハラ(ヒガシタカハラ),徳島県名西郡石井町高原（東高原）
7793206,徳島県,名西郡石井町,高原（池北）,トクシマケン,ミョウザイグンイシイチョウ,タカハラ(イケキタ),徳島県名西郡石井町高原（池北）
7793207,徳島県,名西郡石井町,高原（桑島）,トクシマケン,ミョウザイグンイシイチョウ,タカハラ(クワジマ),徳島県名西郡石井町高原（桑島）
7793208,徳島県,名西郡石井町,高原（中島）,トクシマケン,ミョウザイグンイシイチョウ,タカハラ(ナカシマ),徳島県名西郡石井町高原（中島）
7793211,徳島県,名西郡石井町,藍畑（西覚円）,トクシマケン,ミョウザイグンイシイチョウ,アイハタ(ニシカクエン),徳島県名西郡石井町藍畑（西覚円）
7793212,徳島県,名西郡石井町,藍畑（東覚円）,トクシマケン,ミョウザイグンイシイチョウ,アイハタ(ヒガシカクエン),徳島県名西郡石井町藍畑（東覚円）
7793213,徳島県,名西郡石井町,藍畑（高畑）,トクシマケン,ミョウザイグンイシイチョウ,アイハタ(タカバタケ),徳島県名西郡石井町藍畑（高畑）
7793214,徳島県,名西郡石井町,藍畑（第十）,トクシマケン,ミョウザイグンイシイチョウ,アイハタ(ダイジュウ),徳島県名西郡石井町藍畑（第十）
7793215,徳島県,名西郡石井町,藍畑（竜王）,トクシマケン,ミョウザイグンイシイチョウ,アイハタ(リュウオウ),徳島県名西郡石井町藍畑（竜王）
7793221,徳島県,名西郡石井町,高川原（南島）,トクシマケン,ミョウザイグンイシイチョウ,タカガワラ(ミナミジマ),徳島県名西郡石井町高川原（南島）
7793222,徳島県,名西郡石井町,高川原（天神）,トクシマケン,ミョウザイグンイシイチョウ,タカガワラ(テンジン),徳島県名西郡石井町高川原（天神）
7793223,徳島県,名西郡石井町,高川原（高川原）,トクシマケン,ミョウザイグンイシイチョウ,タカガワラ(タカガワラ),徳島県名西郡石井町高川原（高川原）
7793224,徳島県,名西郡石井町,高川原（加茂野）,トクシマケン,ミョウザイグンイシイチョウ,タカガワラ(カモノ),徳島県名西郡石井町高川原（加茂野）
7793225,徳島県,名西郡石井町,高川原（桜間）,トクシマケン,ミョウザイグンイシイチョウ,タカガワラ(サクラマ),徳島県名西郡石井町高川原（桜間）
7793226,徳島県,名西郡石井町,高川原（市楽）,トクシマケン,ミョウザイグンイシイチョウ,タカガワラ(イチラク),徳島県名西郡石井町高川原（市楽）
7793231,徳島県,名西郡石井町,石井（重松）,トクシマケン,ミョウザイグンイシイチョウ,イシイ(シゲマツ),徳島県名西郡石井町石井（重松）
7793232,徳島県,名西郡石井町,石井（城の内）,トクシマケン,ミョウザイグンイシイチョウ,イシイ(ジョウノウチ),徳島県名西郡石井町石井（城の内）
7793233,徳島県,名西郡石井町,石井（石井）,トクシマケン,ミョウザイグンイシイチョウ,イシイ(イシイ),徳島県名西郡石井町石井（石井）
7793234,徳島県,名西郡石井町,石井（白鳥）,トクシマケン,ミョウザイグンイシイチョウ,イシイ(シロトリ),徳島県名西郡石井町石井（白鳥）
7793235,徳島県,名西郡石井町,石井（尼寺）,トクシマケン,ミョウザイグンイシイチョウ,イシイ(ニジ),徳島県名西郡石井町石井（尼寺）
7793236,徳島県,名西郡石井町,石井（内谷）,トクシマケン,ミョウザイグンイシイチョウ,イシイ(ウチダニ),徳島県名西郡石井町石井（内谷）
7793241,徳島県,名西郡石井町,浦庄（諏訪）,トクシマケン,ミョウザイグンイシイチョウ,ウラショウ(スワ),徳島県名西郡石井町浦庄（諏訪）
7793242,徳島県,名西郡石井町,浦庄（国実）,トクシマケン,ミョウザイグンイシイチョウ,ウラショウ(クニザネ),徳島県名西郡石井町浦庄（国実）
7793243,徳島県,名西郡石井町,浦庄（大万）,トクシマケン,ミョウザイグンイシイチョウ,ウラショウ(ダイマン),徳島県名西郡石井町浦庄（大万）
7793244,徳島県,名西郡石井町,浦庄（下浦）,トクシマケン,ミョウザイグンイシイチョウ,ウラショウ(シモウラ),徳島県名西郡石井町浦庄（下浦）
7793245,徳島県,名西郡石井町,浦庄（上浦）,トクシマケン,ミョウザイグンイシイチョウ,ウラショウ(カミウラ),徳島県名西郡石井町浦庄（上浦）
7793301,徳島県,吉野川市,川島町川島,トクシマケン,ヨシノガワシ,カワシマチョウカワシマ,徳島県吉野川市川島町川島
7793302,徳島県,吉野川市,川島町山田,トクシマケン,ヨシノガワシ,カワシマチョウヤマダ,徳島県吉野川市川島町山田
7793303,徳島県,吉野川市,川島町桑村,トクシマケン,ヨシノガワシ,カワシマチョウクワムラ,徳島県吉野川市川島町桑村
7793304,徳島県,吉野川市,川島町宮島,トクシマケン,ヨシノガワシ,カワシマチョウミヤノシマ,徳島県吉野川市川島町宮島
7793305,徳島県,吉野川市,川島町児島,トクシマケン,ヨシノガワシ,カワシマチョウコジマ,徳島県吉野川市川島町児島
7793306,徳島県,吉野川市,川島町学,トクシマケン,ヨシノガワシ,カワシマチョウガク,徳島県吉野川市川島町学
7793307,徳島県,吉野川市,川島町三ツ島,トクシマケン,ヨシノガワシ,カワシマチョウミツジマ,徳島県吉野川市川島町三ツ島
7793401,徳島県,吉野川市,山川町住吉,トクシマケン,ヨシノガワシ,ヤマカワチョウスミヨシ,徳島県吉野川市山川町住吉
7793401,徳島県,吉野川市,山川町川東,トクシマケン,ヨシノガワシ,ヤマカワチョウカワヒガシ,徳島県吉野川市山川町川東
7793401,徳島県,吉野川市,山川町建石,トクシマケン,ヨシノガワシ,ヤマカワチョウタテイシ,徳島県吉野川市山川町建石
7793401,徳島県,吉野川市,山川町恵下,トクシマケン,ヨシノガワシ,ヤマカワチョウエゲ,徳島県吉野川市山川町恵下
7793401,徳島県,吉野川市,山川町町,トクシマケン,ヨシノガワシ,ヤマカワチョウマチ,徳島県吉野川市山川町町
7793401,徳島県,吉野川市,山川町石堂,トクシマケン,ヨシノガワシ,ヤマカワチョウイシドウ,徳島県吉野川市山川町石堂
7793401,徳島県,吉野川市,山川町翁喜台,トクシマケン,ヨシノガワシ,ヤマカワチョウオキダイ,徳島県吉野川市山川町翁喜台
7793402,徳島県,吉野川市,山川町中須賀,トクシマケン,ヨシノガワシ,ヤマカワチョウナカスカ,徳島県吉野川市山川町中須賀
7793402,徳島県,吉野川市,山川町堤内,トクシマケン,ヨシノガワシ,ヤマカワチョウテイナイ,徳島県吉野川市山川町堤内
7793402,徳島県,吉野川市,山川町天神,トクシマケン,ヨシノガワシ,ヤマカワチョウテンジン,徳島県吉野川市山川町天神
7793402,徳島県,吉野川市,山川町宮北,トクシマケン,ヨシノガワシ,ヤマカワチョウミヤキタ,徳島県吉野川市山川町宮北
7793402,徳島県,吉野川市,山川町宮島,トクシマケン,ヨシノガワシ,ヤマカワチョウミヤジマ,徳島県吉野川市山川町宮島
7793402,徳島県,吉野川市,山川町山路,トクシマケン,ヨシノガワシ,ヤマカワチョウヤマジ,徳島県吉野川市山川町山路
7793402,徳島県,吉野川市,山川町岩戸,トクシマケン,ヨシノガワシ,ヤマカワチョウイワト,徳島県吉野川市山川町岩戸
7793402,徳島県,吉野川市,山川町忌部,トクシマケン,ヨシノガワシ,ヤマカワチョウイムベ,徳島県吉野川市山川町忌部
7793402,徳島県,吉野川市,山川町忌部山,トクシマケン,ヨシノガワシ,ヤマカワチョウイムベヤマ,徳島県吉野川市山川町忌部山
7793402,徳島県,吉野川市,山川町東麓,トクシマケン,ヨシノガワシ,ヤマカワチョウヒガシフモト,徳島県吉野川市山川町東麓
7793402,徳島県,吉野川市,山川町流,トクシマケン,ヨシノガワシ,ヤマカワチョウナガレ,徳島県吉野川市山川町流
7793402,徳島県,吉野川市,山川町西久保,トクシマケン,ヨシノガワシ,ヤマカワチョウニシクボ,徳島県吉野川市山川町西久保
7793402,徳島県,吉野川市,山川町西麓,トクシマケン,ヨシノガワシ,ヤマカワチョウニシフモト,徳島県吉野川市山川町西麓
7793402,徳島県,吉野川市,山川町雲宮,トクシマケン,ヨシノガワシ,ヤマカワチョウクモミヤ,徳島県吉野川市山川町雲宮
7793403,徳島県,吉野川市,山川町三島,トクシマケン,ヨシノガワシ,ヤマカワチョウミシマ,徳島県吉野川市山川町三島
7793403,徳島県,吉野川市,山川町八幡,トクシマケン,ヨシノガワシ,ヤマカワチョウハチマン,徳島県吉野川市山川町八幡
7793403,徳島県,吉野川市,山川町前川,トクシマケン,ヨシノガワシ,ヤマカワチョウマエガワ,徳島県吉野川市山川町前川
7793403,徳島県,吉野川市,山川町北須賀,トクシマケン,ヨシノガワシ,ヤマカワチョウキタスガ,徳島県吉野川市山川町北須賀
7793403,徳島県,吉野川市,山川町堤外,トクシマケン,ヨシノガワシ,ヤマカワチョウテイガイ,徳島県吉野川市山川町堤外
7793403,徳島県,吉野川市,山川町春日,トクシマケン,ヨシノガワシ,ヤマカワチョウカスガ,徳島県吉野川市山川町春日
7793403,徳島県,吉野川市,山川町若宮,トクシマケン,ヨシノガワシ,ヤマカワチョウワカミヤ,徳島県吉野川市山川町若宮
7793403,徳島県,吉野川市,山川町諏訪,トクシマケン,ヨシノガワシ,ヤマカワチョウスワ,徳島県吉野川市山川町諏訪
7793404,徳島県,吉野川市,山川町一里塚,トクシマケン,ヨシノガワシ,ヤマカワチョウイチリヅカ,徳島県吉野川市山川町一里塚
7793404,徳島県,吉野川市,山川町北島,トクシマケン,ヨシノガワシ,ヤマカワチョウキタジマ,徳島県吉野川市山川町北島
7793404,徳島県,吉野川市,山川町大塚,トクシマケン,ヨシノガワシ,ヤマカワチョウオオツカ,徳島県吉野川市山川町大塚
7793404,徳島県,吉野川市,山川町大須賀,トクシマケン,ヨシノガワシ,ヤマカワチョウオオスカ,徳島県吉野川市山川町大須賀
7793404,徳島県,吉野川市,山川町川田,トクシマケン,ヨシノガワシ,ヤマカワチョウカワタ,徳島県吉野川市山川町川田
7793404,徳島県,吉野川市,山川町川田天神,トクシマケン,ヨシノガワシ,ヤマカワチョウカワタテンジン,徳島県吉野川市山川町川田天神
7793404,徳島県,吉野川市,山川町川田市,トクシマケン,ヨシノガワシ,ヤマカワチョウカワタイチ,徳島県吉野川市山川町川田市
7793404,徳島県,吉野川市,山川町市久保,トクシマケン,ヨシノガワシ,ヤマカワチョウイチクボ,徳島県吉野川市山川町市久保
7793404,徳島県,吉野川市,山川町引地,トクシマケン,ヨシノガワシ,ヤマカワチョウヒキチ,徳島県吉野川市山川町引地
7793404,徳島県,吉野川市,山川町日知利子,トクシマケン,ヨシノガワシ,ヤマカワチョウヒヂリコ,徳島県吉野川市山川町日知利子
7793404,徳島県,吉野川市,山川町槻原,トクシマケン,ヨシノガワシ,ヤマカワチョウカエキバラ,徳島県吉野川市山川町槻原
7793404,徳島県,吉野川市,山川町湯立,トクシマケン,ヨシノガワシ,ヤマカワチョウユダテ,徳島県吉野川市山川町湯立
7793404,徳島県,吉野川市,山川町舟戸,トクシマケン,ヨシノガワシ,ヤマカワチョウフナト,徳島県吉野川市山川町舟戸
7793404,徳島県,吉野川市,山川町藤生,トクシマケン,ヨシノガワシ,ヤマカワチョウフジショウ,徳島県吉野川市山川町藤生
7793404,徳島県,吉野川市,山川町麻掛,トクシマケン,ヨシノガワシ,ヤマカワチョウオカケ,徳島県吉野川市山川町麻掛
7793404,徳島県,吉野川市,山川町鼓山,トクシマケン,ヨシノガワシ,ヤマカワチョウツツミヤマ,徳島県吉野川市山川町鼓山
7793405,徳島県,吉野川市,山川町一ツ石,トクシマケン,ヨシノガワシ,ヤマカワチョウヒトツイシ,徳島県吉野川市山川町一ツ石
7793405,徳島県,吉野川市,山川町中ノ郷,トクシマケン,ヨシノガワシ,ヤマカワチョウナカノゴウ,徳島県吉野川市山川町中ノ郷
7793405,徳島県,吉野川市,山川町井上,トクシマケン,ヨシノガワシ,ヤマカワチョウイノウエ,徳島県吉野川市山川町井上
7793405,徳島県,吉野川市,山川町井傍,トクシマケン,ヨシノガワシ,ヤマカワチョウイノソバ,徳島県吉野川市山川町井傍
7793405,徳島県,吉野川市,山川町伊端穂,トクシマケン,ヨシノガワシ,ヤマカワチョウイズホ,徳島県吉野川市山川町伊端穂
7793405,徳島県,吉野川市,山川町八ケ久保,トクシマケン,ヨシノガワシ,ヤマカワチョウハチガクボ,徳島県吉野川市山川町八ケ久保
7793405,徳島県,吉野川市,山川町土仏西向,トクシマケン,ヨシノガワシ,ヤマカワチョウツチボトケニシムカイ,徳島県吉野川市山川町土仏西向
7793405,徳島県,吉野川市,山川町土橋,トクシマケン,ヨシノガワシ,ヤマカワチョウドバシ,徳島県吉野川市山川町土橋
7793405,徳島県,吉野川市,山川町土橋ノ上,トクシマケン,ヨシノガワシ,ヤマカワチョウドバシノウエ,徳島県吉野川市山川町土橋ノ上
7793405,徳島県,吉野川市,山川町坂口,トクシマケン,ヨシノガワシ,ヤマカワチョウサカグチ,徳島県吉野川市山川町坂口
7793405,徳島県,吉野川市,山川町塚穴,トクシマケン,ヨシノガワシ,ヤマカワチョウツカアナ,徳島県吉野川市山川町塚穴
7793405,徳島県,吉野川市,山川町大室,トクシマケン,ヨシノガワシ,ヤマカワチョウオオムロ,徳島県吉野川市山川町大室
7793405,徳島県,吉野川市,山川町大峰,トクシマケン,ヨシノガワシ,ヤマカワチョウオオミネ,徳島県吉野川市山川町大峰
7793405,徳島県,吉野川市,山川町大藤谷,トクシマケン,ヨシノガワシ,ヤマカワチョウオオトダニ,徳島県吉野川市山川町大藤谷
7793405,徳島県,吉野川市,山川町天王原,トクシマケン,ヨシノガワシ,ヤマカワチョウテンノウバラ,徳島県吉野川市山川町天王原
7793405,徳島県,吉野川市,山川町天神佐古,トクシマケン,ヨシノガワシ,ヤマカワチョウテンジンサコ,徳島県吉野川市山川町天神佐古
7793405,徳島県,吉野川市,山川町奥原,トクシマケン,ヨシノガワシ,ヤマカワチョウオクバラ,徳島県吉野川市山川町奥原
7793405,徳島県,吉野川市,山川町宮谷,トクシマケン,ヨシノガワシ,ヤマカワチョウミヤダニ,徳島県吉野川市山川町宮谷
7793405,徳島県,吉野川市,山川町小路,トクシマケン,ヨシノガワシ,ヤマカワチョウショウジ,徳島県吉野川市山川町小路
7793405,徳島県,吉野川市,山川町川田八幡,トクシマケン,ヨシノガワシ,ヤマカワチョウカワタハチマン,徳島県吉野川市山川町川田八幡
7793405,徳島県,吉野川市,山川町平山,トクシマケン,ヨシノガワシ,ヤマカワチョウヒラヤマ,徳島県吉野川市山川町平山
7793405,徳島県,吉野川市,山川町御旅館,トクシマケン,ヨシノガワシ,ヤマカワチョウゴリョカン,徳島県吉野川市山川町御旅館
7793405,徳島県,吉野川市,山川町御饌免,トクシマケン,ヨシノガワシ,ヤマカワチョウゴセンメン,徳島県吉野川市山川町御饌免
7793405,徳島県,吉野川市,山川町日鷲谷,トクシマケン,ヨシノガワシ,ヤマカワチョウヒワシダニ,徳島県吉野川市山川町日鷲谷
7793405,徳島県,吉野川市,山川町木戸口,トクシマケン,ヨシノガワシ,ヤマカワチョウキドグチ,徳島県吉野川市山川町木戸口
7793405,徳島県,吉野川市,山川町木綿麻山,トクシマケン,ヨシノガワシ,ヤマカワチョウユウマヤマ,徳島県吉野川市山川町木綿麻山
7793405,徳島県,吉野川市,山川町村雲,トクシマケン,ヨシノガワシ,ヤマカワチョウムラクモ,徳島県吉野川市山川町村雲
7793405,徳島県,吉野川市,山川町柿木谷,トクシマケン,ヨシノガワシ,ヤマカワチョウカキノキダニ,徳島県吉野川市山川町柿木谷
7793405,徳島県,吉野川市,山川町桑ノ峰,トクシマケン,ヨシノガワシ,ヤマカワチョウクワノミネ,徳島県吉野川市山川町桑ノ峰
7793405,徳島県,吉野川市,山川町楮本,トクシマケン,ヨシノガワシ,ヤマカワチョウカシノモト,徳島県吉野川市山川町楮本
7793405,徳島県,吉野川市,山川町榛木原,トクシマケン,ヨシノガワシ,ヤマカワチョウハリノキバラ,徳島県吉野川市山川町榛木原
7793405,徳島県,吉野川市,山川町権現谷,トクシマケン,ヨシノガワシ,ヤマカワチョウゴンゲンダニ,徳島県吉野川市山川町権現谷
7793405,徳島県,吉野川市,山川町瀬津,トクシマケン,ヨシノガワシ,ヤマカワチョウセヅ,徳島県吉野川市山川町瀬津
7793405,徳島県,吉野川市,山川町片岸,トクシマケン,ヨシノガワシ,ヤマカワチョウカタギシ,徳島県吉野川市山川町片岸
7793405,徳島県,吉野川市,山川町牛ノ子尾,トクシマケン,ヨシノガワシ,ヤマカワチョウウシノコオ,徳島県吉野川市山川町牛ノ子尾
7793405,徳島県,吉野川市,山川町田ノ浦,トクシマケン,ヨシノガワシ,ヤマカワチョウタノウラ,徳島県吉野川市山川町田ノ浦
7793405,徳島県,吉野川市,山川町矢落,トクシマケン,ヨシノガワシ,ヤマカワチョウヤオチ,徳島県吉野川市山川町矢落
7793405,徳島県,吉野川市,山川町茂草,トクシマケン,ヨシノガワシ,ヤマカワチョウモソウ,徳島県吉野川市山川町茂草
7793405,徳島県,吉野川市,山川町貞田,トクシマケン,ヨシノガワシ,ヤマカワチョウサダタ,徳島県吉野川市山川町貞田
7793405,徳島県,吉野川市,山川町赤刎,トクシマケン,ヨシノガワシ,ヤマカワチョウアカハネ,徳島県吉野川市山川町赤刎
7793405,徳島県,吉野川市,山川町野宮谷,トクシマケン,ヨシノガワシ,ヤマカワチョウノミヤダニ,徳島県吉野川市山川町野宮谷
7793405,徳島県,吉野川市,山川町鍋倉,トクシマケン,ヨシノガワシ,ヤマカワチョウナベクラ,徳島県吉野川市山川町鍋倉
7793405,徳島県,吉野川市,山川町高頭,トクシマケン,ヨシノガワシ,ヤマカワチョウコウズ,徳島県吉野川市山川町高頭
7793405,徳島県,吉野川市,山川町黒岩,トクシマケン,ヨシノガワシ,ヤマカワチョウクロイワ,徳島県吉野川市山川町黒岩
7793406,徳島県,吉野川市,山川町久宗,トクシマケン,ヨシノガワシ,ヤマカワチョウヒサムネ,徳島県吉野川市山川町久宗
7793406,徳島県,吉野川市,山川町大内,トクシマケン,ヨシノガワシ,ヤマカワチョウオオウチ,徳島県吉野川市山川町大内
7793406,徳島県,吉野川市,山川町奥川田,トクシマケン,ヨシノガワシ,ヤマカワチョウオクカワタ,徳島県吉野川市山川町奥川田
7793406,徳島県,吉野川市,山川町奥野井,トクシマケン,ヨシノガワシ,ヤマカワチョウオクノイ,徳島県吉野川市山川町奥野井
7793406,徳島県,吉野川市,山川町桑内,トクシマケン,ヨシノガワシ,ヤマカワチョウクワウチ,徳島県吉野川市山川町桑内
7793406,徳島県,吉野川市,山川町楠根地,トクシマケン,ヨシノガワシ,ヤマカワチョウクスネジ,徳島県吉野川市山川町楠根地
7793406,徳島県,吉野川市,山川町榎谷,トクシマケン,ヨシノガワシ,ヤマカワチョウエノキダニ,徳島県吉野川市山川町榎谷
7793406,徳島県,吉野川市,山川町皆瀬,トクシマケン,ヨシノガワシ,ヤマカワチョウカイゼ,徳島県吉野川市山川町皆瀬
7793406,徳島県,吉野川市,山川町西野峰,トクシマケン,ヨシノガワシ,ヤマカワチョウニシノミネ,徳島県吉野川市山川町西野峰
7793406,徳島県,吉野川市,山川町馬見尾,トクシマケン,ヨシノガワシ,ヤマカワチョウマミオ,徳島県吉野川市山川町馬見尾
7793407,徳島県,吉野川市,山川町丸山,トクシマケン,ヨシノガワシ,ヤマカワチョウマルヤマ,徳島県吉野川市山川町丸山
7793407,徳島県,吉野川市,山川町古城,トクシマケン,ヨシノガワシ,ヤマカワチョウフルシロ,徳島県吉野川市山川町古城
7793407,徳島県,吉野川市,山川町向坂,トクシマケン,ヨシノガワシ,ヤマカワチョウムコウザカ,徳島県吉野川市山川町向坂
7793407,徳島県,吉野川市,山川町坂田,トクシマケン,ヨシノガワシ,ヤマカワチョウサカタ,徳島県吉野川市山川町坂田
7793407,徳島県,吉野川市,山川町境谷,トクシマケン,ヨシノガワシ,ヤマカワチョウサカイダニ,徳島県吉野川市山川町境谷
7793407,徳島県,吉野川市,山川町季邦,トクシマケン,ヨシノガワシ,ヤマカワチョウスエクニ,徳島県吉野川市山川町季邦
7793407,徳島県,吉野川市,山川町安楽寺,トクシマケン,ヨシノガワシ,ヤマカワチョウアンラクジ,徳島県吉野川市山川町安楽寺
7793407,徳島県,吉野川市,山川町宮地,トクシマケン,ヨシノガワシ,ヤマカワチョウミヤジ,徳島県吉野川市山川町宮地
7793407,徳島県,吉野川市,山川町山ノ神,トクシマケン,ヨシノガワシ,ヤマカワチョウヤマノカミ,徳島県吉野川市山川町山ノ神
7793407,徳島県,吉野川市,山川町新田谷,トクシマケン,ヨシノガワシ,ヤマカワチョウシンタダニ,徳島県吉野川市山川町新田谷
7793407,徳島県,吉野川市,山川町旗見,トクシマケン,ヨシノガワシ,ヤマカワチョウハタミ,徳島県吉野川市山川町旗見
7793407,徳島県,吉野川市,山川町朝日,トクシマケン,ヨシノガワシ,ヤマカワチョウアサヒ,徳島県吉野川市山川町朝日
7793407,徳島県,吉野川市,山川町東麦原,トクシマケン,ヨシノガワシ,ヤマカワチョウヒガシムギハラ,徳島県吉野川市山川町東麦原
7793407,徳島県,吉野川市,山川町横走,トクシマケン,ヨシノガワシ,ヤマカワチョウヨコハシリ,徳島県吉野川市山川町横走
7793407,徳島県,吉野川市,山川町津由谷,トクシマケン,ヨシノガワシ,ヤマカワチョウツユダニ,徳島県吉野川市山川町津由谷
7793407,徳島県,吉野川市,山川町浦山,トクシマケン,ヨシノガワシ,ヤマカワチョウウラヤマ,徳島県吉野川市山川町浦山
7793407,徳島県,吉野川市,山川町祗園,トクシマケン,ヨシノガワシ,ヤマカワチョウギオン,徳島県吉野川市山川町祗園
7793407,徳島県,吉野川市,山川町西ノ原,トクシマケン,ヨシノガワシ,ヤマカワチョウニシノハラ,徳島県吉野川市山川町西ノ原
7793407,徳島県,吉野川市,山川町赤岩,トクシマケン,ヨシノガワシ,ヤマカワチョウアカイワ,徳島県吉野川市山川町赤岩
7793407,徳島県,吉野川市,山川町迎坂,トクシマケン,ヨシノガワシ,ヤマカワチョウムカエザカ,徳島県吉野川市山川町迎坂
7793407,徳島県,吉野川市,山川町青木,トクシマケン,ヨシノガワシ,ヤマカワチョウアオギ,徳島県吉野川市山川町青木
7793407,徳島県,吉野川市,山川町麦原,トクシマケン,ヨシノガワシ,ヤマカワチョウムギハラ,徳島県吉野川市山川町麦原
7793501,徳島県,吉野川市,美郷一野山,トクシマケン,ヨシノガワシ,ミサトイチノヤマ,徳島県吉野川市美郷一野山
7793501,徳島県,吉野川市,美郷上戸峯,トクシマケン,ヨシノガワシ,ミサトジョウドミネ,徳島県吉野川市美郷上戸峯
7793501,徳島県,吉野川市,美郷下城戸,トクシマケン,ヨシノガワシ,ミサトシモジョウド,徳島県吉野川市美郷下城戸
7793501,徳島県,吉野川市,美郷下浦,トクシマケン,ヨシノガワシ,ミサトシモウラ,徳島県吉野川市美郷下浦
7793501,徳島県,吉野川市,美郷倉羅,トクシマケン,ヨシノガワシ,ミサトクララ,徳島県吉野川市美郷倉羅
7793501,徳島県,吉野川市,美郷古井,トクシマケン,ヨシノガワシ,ミサトコイ,徳島県吉野川市美郷古井
7793501,徳島県,吉野川市,美郷大平,トクシマケン,ヨシノガワシ,ミサトオオヒラ,徳島県吉野川市美郷大平
7793501,徳島県,吉野川市,美郷大神,トクシマケン,ヨシノガワシ,ミサトオオガミ,徳島県吉野川市美郷大神
7793501,徳島県,吉野川市,美郷宗田,トクシマケン,ヨシノガワシ,ミサトムネダ,徳島県吉野川市美郷宗田
7793501,徳島県,吉野川市,美郷宮倉,トクシマケン,ヨシノガワシ,ミサトミヤグラ,徳島県吉野川市美郷宮倉
7793501,徳島県,吉野川市,美郷平,トクシマケン,ヨシノガワシ,ミサトタイラ,徳島県吉野川市美郷平
7793501,徳島県,吉野川市,美郷張,トクシマケン,ヨシノガワシ,ミサトハリ,徳島県吉野川市美郷張
7793501,徳島県,吉野川市,美郷張峯,トクシマケン,ヨシノガワシ,ミサトハリミネ,徳島県吉野川市美郷張峯
7793501,徳島県,吉野川市,美郷愛後,トクシマケン,ヨシノガワシ,ミサトアイゴ,徳島県吉野川市美郷愛後
7793501,徳島県,吉野川市,美郷柿谷,トクシマケン,ヨシノガワシ,ミサトカキダニ,徳島県吉野川市美郷柿谷
7793501,徳島県,吉野川市,美郷滝ケ山,トクシマケン,ヨシノガワシ,ミサトタキガヤマ,徳島県吉野川市美郷滝ケ山
7793501,徳島県,吉野川市,美郷照尾,トクシマケン,ヨシノガワシ,ミサトテラオ,徳島県吉野川市美郷照尾
7793501,徳島県,吉野川市,美郷田平,トクシマケン,ヨシノガワシ,ミサトタダイラ,徳島県吉野川市美郷田平
7793501,徳島県,吉野川市,美郷穴地,トクシマケン,ヨシノガワシ,ミサトアナジ,徳島県吉野川市美郷穴地
7793501,徳島県,吉野川市,美郷重野尾,トクシマケン,ヨシノガワシ,ミサトシゲノオ,徳島県吉野川市美郷重野尾
7793502,徳島県,吉野川市,美郷下林,トクシマケン,ヨシノガワシ,ミサトシモバヤシ,徳島県吉野川市美郷下林
7793502,徳島県,吉野川市,美郷下畠,トクシマケン,ヨシノガワシ,ミサトシモハタ,徳島県吉野川市美郷下畠
7793502,徳島県,吉野川市,美郷中分,トクシマケン,ヨシノガワシ,ミサトナカブン,徳島県吉野川市美郷中分
7793502,徳島県,吉野川市,美郷中村中筋,トクシマケン,ヨシノガワシ,ミサトナカムラナカスジ,徳島県吉野川市美郷中村中筋
7793502,徳島県,吉野川市,美郷中畠,トクシマケン,ヨシノガワシ,ミサトナカハタ,徳島県吉野川市美郷中畠
7793502,徳島県,吉野川市,美郷大佐古,トクシマケン,ヨシノガワシ,ミサトオオザコ,徳島県吉野川市美郷大佐古
7793502,徳島県,吉野川市,美郷大岸,トクシマケン,ヨシノガワシ,ミサトオオギシ,徳島県吉野川市美郷大岸
7793502,徳島県,吉野川市,美郷奥分,トクシマケン,ヨシノガワシ,ミサトオクブン,徳島県吉野川市美郷奥分
7793502,徳島県,吉野川市,美郷小竹,トクシマケン,ヨシノガワシ,ミサトコダケ,徳島県吉野川市美郷小竹
7793502,徳島県,吉野川市,美郷岸宗,トクシマケン,ヨシノガワシ,ミサトキシノムネ,徳島県吉野川市美郷岸宗
7793502,徳島県,吉野川市,美郷川向,トクシマケン,ヨシノガワシ,ミサトカワムカイ,徳島県吉野川市美郷川向
7793502,徳島県,吉野川市,美郷日浦,トクシマケン,ヨシノガワシ,ミサトヒウラ,徳島県吉野川市美郷日浦
7793502,徳島県,吉野川市,美郷東,トクシマケン,ヨシノガワシ,ミサトヒガシ,徳島県吉野川市美郷東
7793502,徳島県,吉野川市,美郷東條,トクシマケン,ヨシノガワシ,ミサトヒガシジョウ,徳島県吉野川市美郷東條
7793502,徳島県,吉野川市,美郷東槇山,トクシマケン,ヨシノガワシ,ミサトヒガシマキヤマ,徳島県吉野川市美郷東槇山
7793502,徳島県,吉野川市,美郷松尾,トクシマケン,ヨシノガワシ,ミサトマツオ,徳島県吉野川市美郷松尾
7793502,徳島県,吉野川市,美郷槇山,トクシマケン,ヨシノガワシ,ミサトマキヤマ,徳島県吉野川市美郷槇山
7793502,徳島県,吉野川市,美郷樫平,トクシマケン,ヨシノガワシ,ミサトカシダイラ,徳島県吉野川市美郷樫平
7793502,徳島県,吉野川市,美郷矢ノ丸,トクシマケン,ヨシノガワシ,ミサトヤノマル,徳島県吉野川市美郷矢ノ丸
7793502,徳島県,吉野川市,美郷立石,トクシマケン,ヨシノガワシ,ミサトタテイシ,徳島県吉野川市美郷立石
7793502,徳島県,吉野川市,美郷竹屋敷,トクシマケン,ヨシノガワシ,ミサトタケヤシキ,徳島県吉野川市美郷竹屋敷
7793502,徳島県,吉野川市,美郷西條,トクシマケン,ヨシノガワシ,ミサトニシジョウ,徳島県吉野川市美郷西條
7793502,徳島県,吉野川市,美郷西槇山,トクシマケン,ヨシノガワシ,ミサトニシマキヤマ,徳島県吉野川市美郷西槇山
7793502,徳島県,吉野川市,美郷西畠,トクシマケン,ヨシノガワシ,ミサトニシハタ,徳島県吉野川市美郷西畠
7793502,徳島県,吉野川市,美郷西谷,トクシマケン,ヨシノガワシ,ミサトニシタニ,徳島県吉野川市美郷西谷
7793502,徳島県,吉野川市,美郷谷向,トクシマケン,ヨシノガワシ,ミサトタニムカイ,徳島県吉野川市美郷谷向
7793503,徳島県,吉野川市,美郷中筋,トクシマケン,ヨシノガワシ,ミサトナカスジ,徳島県吉野川市美郷中筋
7793503,徳島県,吉野川市,美郷品野,トクシマケン,ヨシノガワシ,ミサトシナノ,徳島県吉野川市美郷品野
7793503,徳島県,吉野川市,美郷川俣,トクシマケン,ヨシノガワシ,ミサトカワマタ,徳島県吉野川市美郷川俣
7793503,徳島県,吉野川市,美郷湯殿,トクシマケン,ヨシノガワシ,ミサトユドノ,徳島県吉野川市美郷湯殿
7793503,徳島県,吉野川市,美郷高野尾,トクシマケン,ヨシノガワシ,ミサトタカノオ,徳島県吉野川市美郷高野尾
7793504,徳島県,吉野川市,美郷刷石,トクシマケン,ヨシノガワシ,ミサトハケイシ,徳島県吉野川市美郷刷石
7793504,徳島県,吉野川市,美郷土井ノ奥,トクシマケン,ヨシノガワシ,ミサトドイノオク,徳島県吉野川市美郷土井ノ奥
7793504,徳島県,吉野川市,美郷峠,トクシマケン,ヨシノガワシ,ミサトトウゲ,徳島県吉野川市美郷峠
7793504,徳島県,吉野川市,美郷毛無,トクシマケン,ヨシノガワシ,ミサトケナシ,徳島県吉野川市美郷毛無
7793505,徳島県,吉野川市,美郷上谷,トクシマケン,ヨシノガワシ,ミサトカミダニ,徳島県吉野川市美郷上谷
7793505,徳島県,吉野川市,美郷中谷,トクシマケン,ヨシノガワシ,ミサトナカノタニ,徳島県吉野川市美郷中谷
7793505,徳島県,吉野川市,美郷丸山,トクシマケン,ヨシノガワシ,ミサトマルヤマ,徳島県吉野川市美郷丸山
7793505,徳島県,吉野川市,美郷古土地,トクシマケン,ヨシノガワシ,ミサトコドチ,徳島県吉野川市美郷古土地
7793505,徳島県,吉野川市,美郷土用地,トクシマケン,ヨシノガワシ,ミサトドヨウジ,徳島県吉野川市美郷土用地
7793505,徳島県,吉野川市,美郷大野,トクシマケン,ヨシノガワシ,ミサトオオノ,徳島県吉野川市美郷大野
7793505,徳島県,吉野川市,美郷大鹿,トクシマケン,ヨシノガワシ,ミサトオオジカ,徳島県吉野川市美郷大鹿
7793505,徳島県,吉野川市,美郷奥丸,トクシマケン,ヨシノガワシ,ミサトオクマル,徳島県吉野川市美郷奥丸
7793505,徳島県,吉野川市,美郷山王,トクシマケン,ヨシノガワシ,ミサトサンノウ,徳島県吉野川市美郷山王
7793505,徳島県,吉野川市,美郷恵美子,トクシマケン,ヨシノガワシ,ミサトエビス,徳島県吉野川市美郷恵美子
7793505,徳島県,吉野川市,美郷暮石,トクシマケン,ヨシノガワシ,ミサトクレイシ,徳島県吉野川市美郷暮石
7793505,徳島県,吉野川市,美郷月野,トクシマケン,ヨシノガワシ,ミサトツキノ,徳島県吉野川市美郷月野
7793505,徳島県,吉野川市,美郷木屋浦,トクシマケン,ヨシノガワシ,ミサトコヤノウラ,徳島県吉野川市美郷木屋浦
7793505,徳島県,吉野川市,美郷来見坂,トクシマケン,ヨシノガワシ,ミサトクルミザカ,徳島県吉野川市美郷来見坂
7793505,徳島県,吉野川市,美郷東山峠,トクシマケン,ヨシノガワシ,ミサトヒガシヤマトウゲ,徳島県吉野川市美郷東山峠
7793505,徳島県,吉野川市,美郷栗木,トクシマケン,ヨシノガワシ,ミサトクリノキ,徳島県吉野川市美郷栗木
7793505,徳島県,吉野川市,美郷栩谷,トクシマケン,ヨシノガワシ,ミサトトチダニ,徳島県吉野川市美郷栩谷
7793505,徳島県,吉野川市,美郷殿河,トクシマケン,ヨシノガワシ,ミサトトノカワ,徳島県吉野川市美郷殿河
7793505,徳島県,吉野川市,美郷湯下,トクシマケン,ヨシノガワシ,ミサトユゲ,徳島県吉野川市美郷湯下
7793505,徳島県,吉野川市,美郷花地,トクシマケン,ヨシノガワシ,ミサトハナジ,徳島県吉野川市美郷花地
7793505,徳島県,吉野川市,美郷菅草,トクシマケン,ヨシノガワシ,ミサトスゲソウ,徳島県吉野川市美郷菅草
7793600,徳島県,美馬市,,トクシマケン,ミマシ,,徳島県美馬市
7793601,徳島県,美馬市,脇町（拝原）,トクシマケン,ミマシ,ワキマチ(ハイバラ),徳島県美馬市脇町（拝原）
7793602,徳島県,美馬市,脇町猪尻（その他）,トクシマケン,ミマシ,ワキマチイノシリ(ソノタ),徳島県美馬市脇町猪尻（その他）
7793603,徳島県,美馬市,脇町猪尻（庄、土井、西上野）,トクシマケン,ミマシ,ワキマチイノシリ(ショウ、ドイ、ニシウエノ),徳島県美馬市脇町猪尻（庄、土井、西上野）
7793604,徳島県,美馬市,脇町猪尻（古作）,トクシマケン,ミマシ,ワキマチイノシリ(コサク),徳島県美馬市脇町猪尻（古作）
7793604,徳島県,美馬市,脇町（北庄）,トクシマケン,ミマシ,ワキマチ(キタショウ),徳島県美馬市脇町（北庄）
7793610,徳島県,美馬市,脇町脇町,トクシマケン,ミマシ,ワキマチワキマチ,徳島県美馬市脇町脇町
7793620,徳島県,美馬市,脇町上ノ原,トクシマケン,ミマシ,ワキマチウエノハラ,徳島県美馬市脇町上ノ原
7793620,徳島県,美馬市,脇町別所,トクシマケン,ミマシ,ワキマチベッショ,徳島県美馬市脇町別所
7793620,徳島県,美馬市,脇町助松,トクシマケン,ミマシ,ワキマチスケマツ,徳島県美馬市脇町助松
7793620,徳島県,美馬市,脇町岩倉,トクシマケン,ミマシ,ワキマチイワクラ,徳島県美馬市脇町岩倉
7793620,徳島県,美馬市,脇町川原町,トクシマケン,ミマシ,ワキマチカワラマチ,徳島県美馬市脇町川原町
7793620,徳島県,美馬市,脇町新町,トクシマケン,ミマシ,ワキマチシンマチ,徳島県美馬市脇町新町
7793620,徳島県,美馬市,脇町木ノ内,トクシマケン,ミマシ,ワキマチキノウチ,徳島県美馬市脇町木ノ内
7793620,徳島県,美馬市,脇町田上,トクシマケン,ミマシ,ワキマチタネエ,徳島県美馬市脇町田上
7793620,徳島県,美馬市,脇町野村,トクシマケン,ミマシ,ワキマチノムラ,徳島県美馬市脇町野村
7793620,徳島県,美馬市,脇町馬木,トクシマケン,ミマシ,ワキマチウマキ,徳島県美馬市脇町馬木
7793625,徳島県,美馬市,脇町（北星）,トクシマケン,ミマシ,ワキマチ(キタボシ),徳島県美馬市脇町（北星）
7793631,徳島県,美馬市,脇町（新山）,トクシマケン,ミマシ,ワキマチ(シンヤマ),徳島県美馬市脇町（新山）
7793632,徳島県,美馬市,脇町（井口東、上ノ原）,トクシマケン,ミマシ,ワキマチ(イグチヒガシ、ウエノハラ),徳島県美馬市脇町（井口東、上ノ原）
7793633,徳島県,美馬市,脇町（井口）,トクシマケン,ミマシ,ワキマチ(イグチ),徳島県美馬市脇町（井口）
7793634,徳島県,美馬市,脇町（小星）,トクシマケン,ミマシ,ワキマチ(コボシ),徳島県美馬市脇町（小星）
7793635,徳島県,美馬市,脇町（川原柴、暮畑、梨子木、横倉）,トクシマケン,ミマシ,ワキマチ(カワラシバ、クレバタケ、ナシノキ、ヨコグラ),徳島県美馬市脇町（川原柴、暮畑、梨子木、横倉）
7793636,徳島県,美馬市,脇町（芋穴、中八）,トクシマケン,ミマシ,ワキマチ(イモアナ、ナカバチ),徳島県美馬市脇町（芋穴、中八）
7793637,徳島県,美馬市,脇町（上中野、下中野、平帽子、舟木）,トクシマケン,ミマシ,ワキマチ(カミナカノ、シモナカノ、ヒラボウシ、フナキ),徳島県美馬市脇町（上中野、下中野、平帽子、舟木）
7793638,徳島県,美馬市,脇町（神楽田、西大谷、東大谷）,トクシマケン,ミマシ,ワキマチ(カグラデン、ニシオオタニ、ヒガシオオタニ),徳島県美馬市脇町（神楽田、西大谷、東大谷）
7793639,徳島県,美馬市,脇町（芋尻、小丸、白木、段、段名、中段、羽出床）,トクシマケン,ミマシ,ワキマチ(イモジリ、コマル、シラキ、ダン、ダンミョウ、ナカダン、ハデトコ),徳島県美馬市脇町（芋尻、小丸、白木、段、段名、中段、羽出床）
7793741,徳島県,美馬市,脇町（曽江名）,トクシマケン,ミマシ,ワキマチ(ソエミョウ),徳島県美馬市脇町（曽江名）
7793742,徳島県,美馬市,脇町（西赤谷）,トクシマケン,ミマシ,ワキマチ(ニシアカタニ),徳島県美馬市脇町（西赤谷）
7793743,徳島県,美馬市,脇町（東赤谷名）,トクシマケン,ミマシ,ワキマチ(ヒガシアカタニミョウ),徳島県美馬市脇町（東赤谷名）
7793744,徳島県,美馬市,脇町（西俣名）,トクシマケン,ミマシ,ワキマチ(ニシマタミョウ),徳島県美馬市脇町（西俣名）
7793745,徳島県,美馬市,脇町（東俣名）,トクシマケン,ミマシ,ワキマチ(ヒガシマタミョウ),徳島県美馬市脇町（東俣名）
7794100,徳島県,美馬郡つるぎ町,,トクシマケン,ミマグンツルギチョウ,,徳島県美馬郡つるぎ町
7794101,徳島県,美馬郡つるぎ町,貞光（馬出、大須賀、中須賀、西浦、東浦、町、宮下）,トクシマケン,ミマグンツルギチョウ,サダミツ(ウマダシ、オオスカ、ナカスカ、ニシウラ、ヒガシウラ、マチ、ミヤシタ),徳島県美馬郡つるぎ町貞光（馬出、大須賀、中須賀、西浦、東浦、町、宮下）
7794102,徳島県,美馬郡つるぎ町,貞光（大坊、辻、西山、野口、平石、別所、前田）,トクシマケン,ミマグンツルギチョウ,サダミツ(ダイボウ、ツジ、ニシヤマ、ノグチ、ヒライシ、ベッショ、マエダ),徳島県美馬郡つるぎ町貞光（大坊、辻、西山、野口、平石、別所、前田）
7794103,徳島県,美馬郡つるぎ町,貞光（江ノ脇、岡、せせらぎ、宮内）,トクシマケン,ミマグンツルギチョウ,サダミツ(エノワキ、オカ、セセラギ、ミヤウチ),徳島県美馬郡つるぎ町貞光（江ノ脇、岡、せせらぎ、宮内）
7794104,徳島県,美馬郡つるぎ町,貞光（太田西、太田東、太田東山、小長谷、小山北、柴内、柴山、僧地、僧山）,トクシマケン,ミマグンツルギチョウ,サダミツ(オオタニシ、オオタヒガシ、オオタヒガシヤマ、コバセ、コヤマキタ、シバウチ、シバヤマ、ソウチ、ソウヤマ),徳島県美馬郡つるぎ町貞光（太田西、太田東、太田東山、小長谷、小山北、柴内、柴山、僧地、僧山）
7794105,徳島県,美馬郡つるぎ町,貞光（浦山、乙部、皆瀬、竹屋敷、長谷、西丸井、引地、宅熊）,トクシマケン,ミマグンツルギチョウ,サダミツ(ウラヤマ、オトベ、カイゼ、タケヤシキ、ナガタニ、ニシマルイ、ヒキチ、ヤケグマ),徳島県美馬郡つるぎ町貞光（浦山、乙部、皆瀬、竹屋敷、長谷、西丸井、引地、宅熊）
7794106,徳島県,美馬郡つるぎ町,貞光（大久保、皆瀬川向、捨子谷南、捨子谷北、谷向、中山、西谷、白村）,トクシマケン,ミマグンツルギチョウ,サダミツ(オオクボ、カイゼカワムカイ、スツコタニミナミ、スツコタニキタ、タニムカイ、ナカヤマ、ニシタニ、シラムラ),徳島県美馬郡つるぎ町貞光（大久保、皆瀬川向、捨子谷南、捨子谷北、谷向、中山、西谷、白村）
7794107,徳島県,美馬郡つるぎ町,貞光（家賀道上、家賀道下、平野、長木、長木影、広谷、広谷影、広谷東）,トクシマケン,ミマグンツルギチョウ,サダミツ(ケカミチウエ、ケカミチシタ、タイラノ、ナガキ、ナガキカゲ、ヒロタニ、ヒロタニカゲ、ヒロタニヒガシ),徳島県美馬郡つるぎ町貞光（家賀道上、家賀道下、平野、長木、長木影、広谷、広谷影、広谷東）
7794108,徳島県,美馬郡つるぎ町,貞光（川見、川見津、川見西、長瀬、日浦川向、東丸井、三木枋、森ノ本）,トクシマケン,ミマグンツルギチョウ,サダミツ(カワミ、カワミツ、カワミニシ、ナガセ、ヒウラカワムカイ、ヒガシマルイ、ミキドチ、モリノモト),徳島県美馬郡つるぎ町貞光（川見、川見津、川見西、長瀬、日浦川向、東丸井、三木枋、森ノ本）
7794109,徳島県,美馬郡つるぎ町,貞光（吉良、木屋、猿飼、成谷、日浦、宮平、横野）,トクシマケン,ミマグンツルギチョウ,サダミツ(キラ、コヤ、サルカイ、ナルタニ、ヒウラ、ミヤダイラ、ヨコノ),徳島県美馬郡つるぎ町貞光（吉良、木屋、猿飼、成谷、日浦、宮平、横野）
7794301,徳島県,美馬郡つるぎ町,一宇（一宇、蔭、樫地、剪宇、太刀之本）,トクシマケン,ミマグンツルギチョウ,イチウ(イチウ、カゲ、カシジ、キリウ、タチノモト),徳島県美馬郡つるぎ町一宇（一宇、蔭、樫地、剪宇、太刀之本）
7794302,徳島県,美馬郡つるぎ町,一宇（赤松、寺地）,トクシマケン,ミマグンツルギチョウ,イチウ(アカマツ、テラジ),徳島県美馬郡つるぎ町一宇（赤松、寺地）
7794303,徳島県,美馬郡つるぎ町,一宇（大横、木地屋、切越、十家、中横）,トクシマケン,ミマグンツルギチョウ,イチウ(オオヨコ、キジヤ、キリコシ、トイエ、ナカヨコ),徳島県美馬郡つるぎ町一宇（大横、木地屋、切越、十家、中横）
7794304,徳島県,美馬郡つるぎ町,一宇（伊良原、大野、九藤中、子安、久藪）,トクシマケン,ミマグンツルギチョウ,イチウ(イラハラ、オオノ、クドウジュウ、コヤス、ヒサヤブ),徳島県美馬郡つるぎ町一宇（伊良原、大野、九藤中、子安、久藪）
7794305,徳島県,美馬郡つるぎ町,一宇（出羽、臼木、漆日浦、大屋内、白井、平、明谷）,トクシマケン,ミマグンツルギチョウ,イチウ(イズリハ、ウスキ、ウルシビウラ、オオヤウチ、シロイ、タイラ、ミョウダニ),徳島県美馬郡つるぎ町一宇（出羽、臼木、漆日浦、大屋内、白井、平、明谷）
7794306,徳島県,美馬郡つるぎ町,一宇（漆野瀬、河内、桑平、葛籠、平井、廣澤、法正）,トクシマケン,ミマグンツルギチョウ,イチウ(ウルシノセ、カワチ、クワダイラ、ツヅロ、ヒライ、ヒロサワ、ホウショウ),徳島県美馬郡つるぎ町一宇（漆野瀬、河内、桑平、葛籠、平井、廣澤、法正）
7794307,徳島県,美馬郡つるぎ町,一宇（大佐古、奥大野、川又、實平、中野）,トクシマケン,ミマグンツルギチョウ,イチウ(オオザコ、オクオオノ、カワマタ、サネヒラ、ナカノ),徳島県美馬郡つるぎ町一宇（大佐古、奥大野、川又、實平、中野）
7794401,徳島県,美馬郡つるぎ町,半田（逢坂、小野、天皇、中藪、松生）,トクシマケン,ミマグンツルギチョウ,ハンダ(オウサカ、オノ、テンノウ、ナカヤブ、マツバエ),徳島県美馬郡つるぎ町半田（逢坂、小野、天皇、中藪、松生）
7794402,徳島県,美馬郡つるぎ町,半田（上蔭、蔭名、田井、日浦）,トクシマケン,ミマグンツルギチョウ,ハンダ(ウワカゲ、カゲミョウ、タイ、ヒウラ),徳島県美馬郡つるぎ町半田（上蔭、蔭名、田井、日浦）
7794403,徳島県,美馬郡つるぎ町,半田（木ノ内、京都、猿飼、白石、西久保、東久保、平良石）,トクシマケン,ミマグンツルギチョウ,ハンダ(キノウチ、キョウト、サルカイ、シロイシ、ニシクボ、ヒガシクボ、ヒラライシ),徳島県美馬郡つるぎ町半田（木ノ内、京都、猿飼、白石、西久保、東久保、平良石）
7794404,徳島県,美馬郡つるぎ町,半田（青野、折坂、小井野、高清、坂根、下尾尻、下竹、上蓮、日谷尾）,トクシマケン,ミマグンツルギチョウ,ハンダ(アオノ、オリサカ、コイノ、コウセ、サカネ、シモウジリ、シモタケ、ジョウレン、ヒガオ),徳島県美馬郡つるぎ町半田（青野、折坂、小井野、高清、坂根、下尾尻、下竹、上蓮、日谷尾）
7794405,徳島県,美馬郡つるぎ町,半田（葛城、上喜来、中熊、長野、日開野）,トクシマケン,ミマグンツルギチョウ,ハンダ(カツラギ、カミギライ、ナカグマ、ナガノ、ヒガイノ),徳島県美馬郡つるぎ町半田（葛城、上喜来、中熊、長野、日開野）
7794406,徳島県,美馬郡つるぎ町,半田（樫尾、紙屋、小谷、佐古戸、下喜来）,トクシマケン,ミマグンツルギチョウ,ハンダ(カシオ、カミヤ、コダニ、サコオド、シモギライ),徳島県美馬郡つるぎ町半田（樫尾、紙屋、小谷、佐古戸、下喜来）
7794407,徳島県,美馬郡つるぎ町,半田（東毛田）,トクシマケン,ミマグンツルギチョウ,ハンダ(ヒガシケタ),徳島県美馬郡つるぎ町半田（東毛田）
7794700,徳島県,三好郡東みよし町,,トクシマケン,ミヨシグンヒガシミヨシチョウ,,徳島県三好郡東みよし町
7794701,徳島県,三好郡東みよし町,加茂,トクシマケン,ミヨシグンヒガシミヨシチョウ,カモ,徳島県三好郡東みよし町加茂
7794702,徳島県,三好郡東みよし町,西庄,トクシマケン,ミヨシグンヒガシミヨシチョウ,ニシショウ,徳島県三好郡東みよし町西庄
7794703,徳島県,三好郡東みよし町,中庄（その他）,トクシマケン,ミヨシグンヒガシミヨシチョウ,ナカショウ(ソノタ),徳島県三好郡東みよし町中庄（その他）
7794704,徳島県,三好郡東みよし町,中庄（奥村）,トクシマケン,ミヨシグンヒガシミヨシチョウ,ナカショウ(オクムラ),徳島県三好郡東みよし町中庄（奥村）
7794705,徳島県,三好郡東みよし町,毛田（その他）,トクシマケン,ミヨシグンヒガシミヨシチョウ,ケタ(ソノタ),徳島県三好郡東みよし町毛田（その他）
7794706,徳島県,三好郡東みよし町,毛田（黒長谷）,トクシマケン,ミヨシグンヒガシミヨシチョウ,ケタ(クロハゼ),徳島県三好郡東みよし町毛田（黒長谷）
7794707,徳島県,三好郡東みよし町,毛田（大藤）,トクシマケン,ミヨシグンヒガシミヨシチョウ,ケタ(オオト),徳島県三好郡東みよし町毛田（大藤）
7794801,徳島県,三好市,井川町仲ノ町,トクシマケン,ミヨシシ,イカワチョウナカノマチ,徳島県三好市井川町仲ノ町
7794801,徳島県,三好市,井川町大佐古,トクシマケン,ミヨシシ,イカワチョウオオサコ,徳島県三好市井川町大佐古
7794801,徳島県,三好市,井川町才長谷,トクシマケン,ミヨシシ,イカワチョウサイハゼ,徳島県三好市井川町才長谷
7794801,徳島県,三好市,井川町新町,トクシマケン,ミヨシシ,イカワチョウシンマチ,徳島県三好市井川町新町
7794801,徳島県,三好市,井川町旭町,トクシマケン,ミヨシシ,イカワチョウアサヒマチ,徳島県三好市井川町旭町
7794801,徳島県,三好市,井川町本町,トクシマケン,ミヨシシ,イカワチョウホンマチ,徳島県三好市井川町本町
7794801,徳島県,三好市,井川町浜東,トクシマケン,ミヨシシ,イカワチョウハマヒガシ,徳島県三好市井川町浜東
7794801,徳島県,三好市,井川町浜西,トクシマケン,ミヨシシ,イカワチョウハマニシ,徳島県三好市井川町浜西
7794801,徳島県,三好市,井川町片山,トクシマケン,ミヨシシ,イカワチョウカタヤマ,徳島県三好市井川町片山
7794801,徳島県,三好市,井川町辻,トクシマケン,ミヨシシ,イカワチョウツジ,徳島県三好市井川町辻
7794802,徳島県,三好市,井川町井関,トクシマケン,ミヨシシ,イカワチョウイゼキ,徳島県三好市井川町井関
7794802,徳島県,三好市,井川町向坂,トクシマケン,ミヨシシ,イカワチョウムコウザカ,徳島県三好市井川町向坂
7794802,徳島県,三好市,井川町岡野前,トクシマケン,ミヨシシ,イカワチョウオカノマエ,徳島県三好市井川町岡野前
7794802,徳島県,三好市,井川町御領田,トクシマケン,ミヨシシ,イカワチョウゴリョウデン,徳島県三好市井川町御領田
7794802,徳島県,三好市,井川町流堂,トクシマケン,ミヨシシ,イカワチョウナガレドウ,徳島県三好市井川町流堂
7794802,徳島県,三好市,井川町野津後,トクシマケン,ミヨシシ,イカワチョウノツゴ,徳島県三好市井川町野津後
7794803,徳島県,三好市,井川町タクミ田,トクシマケン,ミヨシシ,イカワチョウタクミダ,徳島県三好市井川町タクミ田
7794803,徳島県,三好市,井川町中岡,トクシマケン,ミヨシシ,イカワチョウナカオカ,徳島県三好市井川町中岡
7794803,徳島県,三好市,井川町中村南,トクシマケン,ミヨシシ,イカワチョウナカムラミナミ,徳島県三好市井川町中村南
7794803,徳島県,三好市,井川町中村東,トクシマケン,ミヨシシ,イカワチョウナカムラヒガシ,徳島県三好市井川町中村東
7794803,徳島県,三好市,井川町中村西,トクシマケン,ミヨシシ,イカワチョウナカムラニシ,徳島県三好市井川町中村西
7794803,徳島県,三好市,井川町八幡,トクシマケン,ミヨシシ,イカワチョウハチマン,徳島県三好市井川町八幡
7794803,徳島県,三好市,井川町吉岡,トクシマケン,ミヨシシ,イカワチョウヨシオカ,徳島県三好市井川町吉岡
7794803,徳島県,三好市,井川町島,トクシマケン,ミヨシシ,イカワチョウシマ,徳島県三好市井川町島
7794803,徳島県,三好市,井川町田中,トクシマケン,ミヨシシ,イカワチョウタナカ,徳島県三好市井川町田中
7794803,徳島県,三好市,井川町野津後流,トクシマケン,ミヨシシ,イカワチョウノツゴナガレ,徳島県三好市井川町野津後流
7794804,徳島県,三好市,井川町井内東,トクシマケン,ミヨシシ,イカワチョウイウチヒガシ,徳島県三好市井川町井内東
7794805,徳島県,三好市,井川町井内西,トクシマケン,ミヨシシ,イカワチョウイウチニシ,徳島県三好市井川町井内西
7794806,徳島県,三好市,井川町西井川,トクシマケン,ミヨシシ,イカワチョウニシイカワ,徳島県三好市井川町西井川
7794807,徳島県,三好市,井川町里川,トクシマケン,ミヨシシ,イカワチョウサトガワ,徳島県三好市井川町里川
7795161,徳島県,三好市,池田町中西,トクシマケン,ミヨシシ,イケダチョウナカニシ,徳島県三好市池田町中西
7795162,徳島県,三好市,池田町漆川,トクシマケン,ミヨシシ,イケダチョウシツカワ,徳島県三好市池田町漆川
7795163,徳島県,三好市,池田町中津川,トクシマケン,ミヨシシ,イケダチョウナカツガワ,徳島県三好市池田町中津川
7795164,徳島県,三好市,池田町大利,トクシマケン,ミヨシシ,イケダチョウオオリ,徳島県三好市池田町大利
7795165,徳島県,三好市,池田町松尾（その他）,トクシマケン,ミヨシシ,イケダチョウマツオ(ソノタ),徳島県三好市池田町松尾（その他）
7795166,徳島県,三好市,池田町川崎,トクシマケン,ミヨシシ,イケダチョウカワサキ,徳島県三好市池田町川崎
7795171,徳島県,三好市,西祖谷山村下名,トクシマケン,ミヨシシ,ニシイヤヤマムラシモミョウ,徳島県三好市西祖谷山村下名
7795172,徳島県,三好市,西祖谷山村小祖谷,トクシマケン,ミヨシシ,ニシイヤヤマムラオイヤ,徳島県三好市西祖谷山村小祖谷
7795173,徳島県,三好市,西祖谷山村坂瀬,トクシマケン,ミヨシシ,ニシイヤヤマムラサカセ,徳島県三好市西祖谷山村坂瀬
7795301,徳島県,三好市,山城町大和川,トクシマケン,ミヨシシ,ヤマシロチョウヤマトガワ,徳島県三好市山城町大和川
7795302,徳島県,三好市,山城町若山,トクシマケン,ミヨシシ,ヤマシロチョウワカヤマ,徳島県三好市山城町若山
7795303,徳島県,三好市,山城町下川,トクシマケン,ミヨシシ,ヤマシロチョウシモカワ,徳島県三好市山城町下川
7795304,徳島県,三好市,山城町大川持,トクシマケン,ミヨシシ,ヤマシロチョウオオカワモチ,徳島県三好市山城町大川持
7795305,徳島県,三好市,山城町川口,トクシマケン,ミヨシシ,ヤマシロチョウカワグチ,徳島県三好市山城町川口
7795306,徳島県,三好市,山城町寺野,トクシマケン,ミヨシシ,ヤマシロチョウテラノ,徳島県三好市山城町寺野
7795307,徳島県,三好市,山城町相川,トクシマケン,ミヨシシ,ヤマシロチョウアイカワ,徳島県三好市山城町相川
7795311,徳島県,三好市,山城町中ノ瀬,トクシマケン,ミヨシシ,ヤマシロチョウナカノセ,徳島県三好市山城町中ノ瀬
7795312,徳島県,三好市,山城町八千坊,トクシマケン,ミヨシシ,ヤマシロチョウハッセンボウ,徳島県三好市山城町八千坊
7795313,徳島県,三好市,山城町黒川,トクシマケン,ミヨシシ,ヤマシロチョウクロカワ,徳島県三好市山城町黒川
7795314,徳島県,三好市,山城町岩戸,トクシマケン,ミヨシシ,ヤマシロチョウイワド,徳島県三好市山城町岩戸
7795315,徳島県,三好市,山城町引地,トクシマケン,ミヨシシ,ヤマシロチョウヒキチ,徳島県三好市山城町引地
7795316,徳島県,三好市,山城町末貞,トクシマケン,ミヨシシ,ヤマシロチョウスエサダ,徳島県三好市山城町末貞
7795321,徳島県,三好市,山城町国政,トクシマケン,ミヨシシ,ヤマシロチョウクニマサ,徳島県三好市山城町国政
7795322,徳島県,三好市,山城町重実（その他）,トクシマケン,ミヨシシ,ヤマシロチョウシゲザネ(ソノタ),徳島県三好市山城町重実（その他）
7795323,徳島県,三好市,山城町中野,トクシマケン,ミヨシシ,ヤマシロチョウナカノ,徳島県三好市山城町中野
7795324,徳島県,三好市,山城町白川,トクシマケン,ミヨシシ,ヤマシロチョウシロカワ,徳島県三好市山城町白川
7795325,徳島県,三好市,山城町光兼,トクシマケン,ミヨシシ,ヤマシロチョウミツカネ,徳島県三好市山城町光兼
7795326,徳島県,三好市,山城町仏子,トクシマケン,ミヨシシ,ヤマシロチョウブッシ,徳島県三好市山城町仏子
7795327,徳島県,三好市,山城町尾又,トクシマケン,ミヨシシ,ヤマシロチョウオマタ,徳島県三好市山城町尾又
7795328,徳島県,三好市,山城町粟山,トクシマケン,ミヨシシ,ヤマシロチョウアワヤマ,徳島県三好市山城町粟山
7795331,徳島県,三好市,山城町茂地,トクシマケン,ミヨシシ,ヤマシロチョウモジ,徳島県三好市山城町茂地
7795332,徳島県,三好市,山城町小川谷,トクシマケン,ミヨシシ,ヤマシロチョウオガワダニ,徳島県三好市山城町小川谷
7795333,徳島県,三好市,山城町大野,トクシマケン,ミヨシシ,ヤマシロチョウオオノ,徳島県三好市山城町大野
7795334,徳島県,三好市,山城町信正,トクシマケン,ミヨシシ,ヤマシロチョウノブマサ,徳島県三好市山城町信正
7795335,徳島県,三好市,山城町頼広,トクシマケン,ミヨシシ,ヤマシロチョウヨリヒロ,徳島県三好市山城町頼広
7795336,徳島県,三好市,山城町赤谷,トクシマケン,ミヨシシ,ヤマシロチョウアカダニ,徳島県三好市山城町赤谷
7795337,徳島県,三好市,山城町平野,トクシマケン,ミヨシシ,ヤマシロチョウタイラノ,徳島県三好市山城町平野
7795341,徳島県,三好市,山城町佐連（その他）,トクシマケン,ミヨシシ,ヤマシロチョウサレ(ソノタ),徳島県三好市山城町佐連（その他）
7795342,徳島県,三好市,山城町大谷,トクシマケン,ミヨシシ,ヤマシロチョウオオタニ,徳島県三好市山城町大谷
7795343,徳島県,三好市,山城町柴川,トクシマケン,ミヨシシ,ヤマシロチョウシバカワ,徳島県三好市山城町柴川
7795344,徳島県,三好市,山城町政友,トクシマケン,ミヨシシ,ヤマシロチョウマサトモ,徳島県三好市山城町政友
7795345,徳島県,三好市,山城町瀬貝,トクシマケン,ミヨシシ,ヤマシロチョウセガイ,徳島県三好市山城町瀬貝
7795346,徳島県,三好市,山城町脇,トクシマケン,ミヨシシ,ヤマシロチョウワキ,徳島県三好市山城町脇
7795347,徳島県,三好市,山城町大月,トクシマケン,ミヨシシ,ヤマシロチョウオオツキ,徳島県三好市山城町大月
7795422,徳島県,三好市,山城町重実（殿野）,トクシマケン,ミヨシシ,ヤマシロチョウシゲザネ(トノノ),徳島県三好市山城町重実（殿野）
7795451,徳島県,三好市,山城町西宇,トクシマケン,ミヨシシ,ヤマシロチョウニシウ,徳島県三好市山城町西宇
7795452,徳島県,三好市,山城町上名,トクシマケン,ミヨシシ,ヤマシロチョウカミミョウ,徳島県三好市山城町上名
7795453,徳島県,三好市,山城町下名,トクシマケン,ミヨシシ,ヤマシロチョウシモミョウ,徳島県三好市山城町下名
