zipcode,prefecture_name,city,town,prefecture_kana,city_kana,town_kana,normalized_address
7600000,香川県,高松市,,カガワケン,タカマツシ,,香川県高松市
7600001,香川県,高松市,新北町,カガワケン,タカマツシ,シンキタマチ,香川県高松市新北町
7600002,香川県,高松市,茜町,カガワケン,タカマツシ,アカネチョウ,香川県高松市茜町
7600003,香川県,高松市,西町,カガワケン,タカマツシ,ニシマチ,香川県高松市西町
7600004,香川県,高松市,西宝町,カガワケン,タカマツシ,サイホウチョウ,香川県高松市西宝町
7600005,香川県,高松市,宮脇町,カガワケン,タカマツシ,ミヤワキチョウ,香川県高松市宮脇町
7600006,香川県,高松市,亀岡町,カガワケン,タカマツシ,カメオカチョウ,香川県高松市亀岡町
7600007,香川県,高松市,中央町,カガワケン,タカマツシ,チュウオウチョウ,香川県高松市中央町
7600008,香川県,高松市,中野町,カガワケン,タカマツシ,ナカノチョウ,香川県高松市中野町
7600009,香川県,高松市,峰山町,カガワケン,タカマツシ,ミネヤマチョウ,香川県高松市峰山町
7600011,香川県,高松市,浜ノ町,カガワケン,タカマツシ,ハマノチョウ,香川県高松市浜ノ町
7600012,香川県,高松市,瀬戸内町,カガワケン,タカマツシ,セトウチチョウ,香川県高松市瀬戸内町
7600013,香川県,高松市,扇町,カガワケン,タカマツシ,オウギマチ,香川県高松市扇町
7600014,香川県,高松市,昭和町,カガワケン,タカマツシ,ショウワチョウ,香川県高松市昭和町
7600015,香川県,高松市,紫雲町,カガワケン,タカマツシ,シウンチョウ,香川県高松市紫雲町
7600016,香川県,高松市,幸町,カガワケン,タカマツシ,サイワイチョウ,香川県高松市幸町
7600017,香川県,高松市,番町,カガワケン,タカマツシ,バンチョウ,香川県高松市番町
7600018,香川県,高松市,天神前,カガワケン,タカマツシ,テンジンマエ,香川県高松市天神前
7600019,香川県,高松市,サンポート,カガワケン,タカマツシ,サンポート,香川県高松市サンポート
7600020,香川県,高松市,錦町,カガワケン,タカマツシ,ニシキマチ,香川県高松市錦町
7600021,香川県,高松市,西の丸町,カガワケン,タカマツシ,ニシノマルチョウ,香川県高松市西の丸町
7600022,香川県,高松市,西内町,カガワケン,タカマツシ,ニシウチマチ,香川県高松市西内町
7600023,香川県,高松市,寿町,カガワケン,タカマツシ,コトブキチョウ,香川県高松市寿町
7600024,香川県,高松市,兵庫町,カガワケン,タカマツシ,ヒョウゴマチ,香川県高松市兵庫町
7600025,香川県,高松市,古新町,カガワケン,タカマツシ,フルジンマチ,香川県高松市古新町
7600026,香川県,高松市,磨屋町,カガワケン,タカマツシ,トギヤマチ,香川県高松市磨屋町
7600027,香川県,高松市,紺屋町,カガワケン,タカマツシ,コンヤマチ,香川県高松市紺屋町
7600028,香川県,高松市,鍛冶屋町,カガワケン,タカマツシ,カジヤマチ,香川県高松市鍛冶屋町
7600029,香川県,高松市,丸亀町,カガワケン,タカマツシ,マルガメマチ,香川県高松市丸亀町
7600030,香川県,高松市,玉藻町,カガワケン,タカマツシ,タマモチョウ,香川県高松市玉藻町
7600031,香川県,高松市,北浜町,カガワケン,タカマツシ,キタハマチョウ,香川県高松市北浜町
7600032,香川県,高松市,本町,カガワケン,タカマツシ,ホンマチ,香川県高松市本町
7600033,香川県,高松市,丸の内,カガワケン,タカマツシ,マルノウチ,香川県高松市丸の内
7600034,香川県,高松市,内町,カガワケン,タカマツシ,ウチマチ,香川県高松市内町
7600035,香川県,高松市,鶴屋町,カガワケン,タカマツシ,ツルヤマチ,香川県高松市鶴屋町
7600036,香川県,高松市,城東町,カガワケン,タカマツシ,ジョウトウチョウ,香川県高松市城東町
7600037,香川県,高松市,東浜町,カガワケン,タカマツシ,ヒガシハマチョウ,香川県高松市東浜町
7600038,香川県,高松市,井口町,カガワケン,タカマツシ,イグチマチ,香川県高松市井口町
7600040,香川県,高松市,片原町,カガワケン,タカマツシ,カタハラマチ,香川県高松市片原町
7600041,香川県,高松市,百間町,カガワケン,タカマツシ,ヒャッケンマチ,香川県高松市百間町
7600042,香川県,高松市,大工町,カガワケン,タカマツシ,ダイクマチ,香川県高松市大工町
7600043,香川県,高松市,今新町,カガワケン,タカマツシ,イマジンマチ,香川県高松市今新町
7600044,香川県,高松市,御坊町,カガワケン,タカマツシ,ゴボウマチ,香川県高松市御坊町
7600045,香川県,高松市,古馬場町,カガワケン,タカマツシ,フルババチョウ,香川県高松市古馬場町
7600046,香川県,高松市,通町,カガワケン,タカマツシ,トオリマチ,香川県高松市通町
7600047,香川県,高松市,塩屋町,カガワケン,タカマツシ,シオヤマチ,香川県高松市塩屋町
7600048,香川県,高松市,福田町,カガワケン,タカマツシ,フクダマチ,香川県高松市福田町
7600049,香川県,高松市,八坂町,カガワケン,タカマツシ,ヤサカマチ,香川県高松市八坂町
7600050,香川県,高松市,亀井町,カガワケン,タカマツシ,カメイチョウ,香川県高松市亀井町
7600051,香川県,高松市,南新町,カガワケン,タカマツシ,ミナミシンマチ,香川県高松市南新町
7600052,香川県,高松市,瓦町,カガワケン,タカマツシ,カワラマチ,香川県高松市瓦町
7600053,香川県,高松市,田町,カガワケン,タカマツシ,タマチ,香川県高松市田町
7600054,香川県,高松市,常磐町,カガワケン,タカマツシ,トキワチョウ,香川県高松市常磐町
7600055,香川県,高松市,観光通,カガワケン,タカマツシ,カンコウドオリ,香川県高松市観光通
7600056,香川県,高松市,中新町,カガワケン,タカマツシ,ナカジンチョウ,香川県高松市中新町
7600057,香川県,高松市,旅籠町,カガワケン,タカマツシ,ハタゴマチ,香川県高松市旅籠町
7600058,香川県,高松市,東田町,カガワケン,タカマツシ,ヒガシタマチ,香川県高松市東田町
7600060,香川県,高松市,末広町,カガワケン,タカマツシ,スエヒロチョウ,香川県高松市末広町
7600061,香川県,高松市,築地町,カガワケン,タカマツシ,ツキジチョウ,香川県高松市築地町
7600062,香川県,高松市,塩上町,カガワケン,タカマツシ,シオガミチョウ,香川県高松市塩上町
7600063,香川県,高松市,多賀町,カガワケン,タカマツシ,タガチョウ,香川県高松市多賀町
7600064,香川県,高松市,朝日新町,カガワケン,タカマツシ,アサヒシンマチ,香川県高松市朝日新町
7600065,香川県,高松市,朝日町,カガワケン,タカマツシ,アサヒマチ,香川県高松市朝日町
7600066,香川県,高松市,福岡町,カガワケン,タカマツシ,フクオカチョウ,香川県高松市福岡町
7600067,香川県,高松市,松福町,カガワケン,タカマツシ,マツフクチョウ,香川県高松市松福町
7600068,香川県,高松市,松島町,カガワケン,タカマツシ,マツシマチョウ,香川県高松市松島町
7600071,香川県,高松市,藤塚町,カガワケン,タカマツシ,フジヅカチョウ,香川県高松市藤塚町
7600072,香川県,高松市,花園町,カガワケン,タカマツシ,ハナゾノチョウ,香川県高松市花園町
7600073,香川県,高松市,栗林町,カガワケン,タカマツシ,リツリンチョウ,香川県高松市栗林町
7600074,香川県,高松市,桜町,カガワケン,タカマツシ,サクラマチ,香川県高松市桜町
7600075,香川県,高松市,楠上町,カガワケン,タカマツシ,クスガミチョウ,香川県高松市楠上町
7600076,香川県,高松市,観光町,カガワケン,タカマツシ,カンコウチョウ,香川県高松市観光町
7600077,香川県,高松市,上福岡町,カガワケン,タカマツシ,カミフクオカチョウ,香川県高松市上福岡町
7600078,香川県,高松市,今里町,カガワケン,タカマツシ,イマザトチョウ,香川県高松市今里町
7600079,香川県,高松市,松縄町,カガワケン,タカマツシ,マツナワチョウ,香川県高松市松縄町
7600080,香川県,高松市,木太町,カガワケン,タカマツシ,キタチョウ,香川県高松市木太町
7600091,香川県,高松市,男木町,カガワケン,タカマツシ,オギチョウ,香川県高松市男木町
7600092,香川県,高松市,女木町,カガワケン,タカマツシ,メギチョウ,香川県高松市女木町
7600093,香川県,高松市,鶴市町（台山）,カガワケン,タカマツシ,ツルイチチョウ(ダイヤマ),香川県高松市鶴市町（台山）
7610101,香川県,高松市,春日町,カガワケン,タカマツシ,カスガチョウ,香川県高松市春日町
7610102,香川県,高松市,新田町甲,カガワケン,タカマツシ,シンデンチョウコウ,香川県高松市新田町甲
7610103,香川県,高松市,新田町乙,カガワケン,タカマツシ,シンデンチョウオツ,香川県高松市新田町乙
7610104,香川県,高松市,高松町,カガワケン,タカマツシ,タカマツチョウ,香川県高松市高松町
7610111,香川県,高松市,屋島東町,カガワケン,タカマツシ,ヤシマヒガシマチ,香川県高松市屋島東町
7610112,香川県,高松市,屋島中町,カガワケン,タカマツシ,ヤシマナカマチ,香川県高松市屋島中町
7610113,香川県,高松市,屋島西町,カガワケン,タカマツシ,ヤシマニシマチ,香川県高松市屋島西町
7610121,香川県,高松市,牟礼町牟礼,カガワケン,タカマツシ,ムレチョウムレ,香川県高松市牟礼町牟礼
7610122,香川県,高松市,牟礼町大町,カガワケン,タカマツシ,ムレチョウオオマチ,香川県高松市牟礼町大町
7610123,香川県,高松市,牟礼町原,カガワケン,タカマツシ,ムレチョウハラ,香川県高松市牟礼町原
7610130,香川県,高松市,庵治町,カガワケン,タカマツシ,アジチョウ,香川県高松市庵治町
7610301,香川県,高松市,林町,カガワケン,タカマツシ,ハヤシチョウ,香川県高松市林町
7610302,香川県,高松市,上林町,カガワケン,タカマツシ,カミハヤシチョウ,香川県高松市上林町
7610303,香川県,高松市,六条町,カガワケン,タカマツシ,ロクジョウチョウ,香川県高松市六条町
7610311,香川県,高松市,元山町,カガワケン,タカマツシ,モトヤマチョウ,香川県高松市元山町
7610312,香川県,高松市,東山崎町,カガワケン,タカマツシ,ヒガシヤマサキチョウ,香川県高松市東山崎町
7610313,香川県,高松市,下田井町,カガワケン,タカマツシ,シモタイチョウ,香川県高松市下田井町
7610321,香川県,高松市,前田西町,カガワケン,タカマツシ,マエダニシマチ,香川県高松市前田西町
7610322,香川県,高松市,前田東町,カガワケン,タカマツシ,マエダヒガシマチ,香川県高松市前田東町
7610323,香川県,高松市,亀田町,カガワケン,タカマツシ,カメダチョウ,香川県高松市亀田町
7610431,香川県,高松市,小村町,カガワケン,タカマツシ,オモレチョウ,香川県高松市小村町
7610432,香川県,高松市,亀田南町,カガワケン,タカマツシ,カメダミナミマチ,香川県高松市亀田南町
7610433,香川県,高松市,十川西町,カガワケン,タカマツシ,ソガワニシマチ,香川県高松市十川西町
7610434,香川県,高松市,十川東町,カガワケン,タカマツシ,ソガワヒガシマチ,香川県高松市十川東町
7610441,香川県,高松市,由良町,カガワケン,タカマツシ,ユラチョウ,香川県高松市由良町
7610442,香川県,高松市,川島本町,カガワケン,タカマツシ,カワシマホンマチ,香川県高松市川島本町
7610443,香川県,高松市,川島東町,カガワケン,タカマツシ,カワシマヒガシマチ,香川県高松市川島東町
7610444,香川県,高松市,池田町,カガワケン,タカマツシ,イケダチョウ,香川県高松市池田町
7610445,香川県,高松市,西植田町,カガワケン,タカマツシ,ニシウエタチョウ,香川県高松市西植田町
7610446,香川県,高松市,東植田町,カガワケン,タカマツシ,ヒガシウエタチョウ,香川県高松市東植田町
7610450,香川県,高松市,三谷町,カガワケン,タカマツシ,ミタニチョウ,香川県高松市三谷町
7610611,香川県,木田郡三木町,田中,カガワケン,キタグンミキチョウ,タナカ,香川県木田郡三木町田中
7610612,香川県,木田郡三木町,氷上,カガワケン,キタグンミキチョウ,ヒカミ,香川県木田郡三木町氷上
7610613,香川県,木田郡三木町,上高岡,カガワケン,キタグンミキチョウ,カミタカオカ,香川県木田郡三木町上高岡
7610614,香川県,木田郡三木町,朝倉,カガワケン,キタグンミキチョウ,アサクラ,香川県木田郡三木町朝倉
7610615,香川県,木田郡三木町,小蓑,カガワケン,キタグンミキチョウ,コミノ,香川県木田郡三木町小蓑
7610700,香川県,木田郡三木町,,カガワケン,キタグンミキチョウ,,香川県木田郡三木町
7610701,香川県,木田郡三木町,池戸,カガワケン,キタグンミキチョウ,イケノベ,香川県木田郡三木町池戸
7610702,香川県,木田郡三木町,平木,カガワケン,キタグンミキチョウ,ヒラギ,香川県木田郡三木町平木
7610703,香川県,木田郡三木町,鹿伏,カガワケン,キタグンミキチョウ,シシブセ,香川県木田郡三木町鹿伏
7610704,香川県,木田郡三木町,下高岡,カガワケン,キタグンミキチョウ,シモタカオカ,香川県木田郡三木町下高岡
7610705,香川県,木田郡三木町,井上,カガワケン,キタグンミキチョウ,イノウエ,香川県木田郡三木町井上
7610821,香川県,木田郡三木町,鹿庭,カガワケン,キタグンミキチョウ,カニワ,香川県木田郡三木町鹿庭
7610822,香川県,木田郡三木町,奥山,カガワケン,キタグンミキチョウ,オクヤマ,香川県木田郡三木町奥山
7610823,香川県,木田郡三木町,井戸,カガワケン,キタグンミキチョウ,イド,香川県木田郡三木町井戸
7610901,香川県,さぬき市,大川町富田西,カガワケン,サヌキシ,オオカワマチトミダニシ,香川県さぬき市大川町富田西
7610902,香川県,さぬき市,大川町富田中,カガワケン,サヌキシ,オオカワマチトミダナカ,香川県さぬき市大川町富田中
7610903,香川県,さぬき市,大川町富田東,カガワケン,サヌキシ,オオカワマチトミダヒガシ,香川県さぬき市大川町富田東
7610904,香川県,さぬき市,大川町田面,カガワケン,サヌキシ,オオカワマチタヅラ,香川県さぬき市大川町田面
7610905,香川県,さぬき市,大川町南川,カガワケン,サヌキシ,オオカワマチミナミガワ,香川県さぬき市大川町南川
7611401,香川県,高松市,香南町岡,カガワケン,タカマツシ,コウナンチョウオカ,香川県高松市香南町岡
7611402,香川県,高松市,香南町由佐,カガワケン,タカマツシ,コウナンチョウユサ,香川県高松市香南町由佐
7611403,香川県,高松市,香南町吉光,カガワケン,タカマツシ,コウナンチョウヨシミツ,香川県高松市香南町吉光
7611404,香川県,高松市,香南町横井,カガワケン,タカマツシ,コウナンチョウヨコイ,香川県高松市香南町横井
7611405,香川県,高松市,香南町池内,カガワケン,タカマツシ,コウナンチョウイケノウチ,香川県高松市香南町池内
7611406,香川県,高松市,香南町西庄,カガワケン,タカマツシ,コウナンチョウニシノショウ,香川県高松市香南町西庄
7611501,香川県,高松市,塩江町安原下（第１号）,カガワケン,タカマツシ,シオノエチョウヤスハラシモ(ダイ1ゴウ),香川県高松市塩江町安原下（第1-）
7611502,香川県,高松市,塩江町安原下（第２号）,カガワケン,タカマツシ,シオノエチョウヤスハラシモ(ダイ2ゴウ),香川県高松市塩江町安原下（第2-）
7611503,香川県,高松市,塩江町安原下（第３号）,カガワケン,タカマツシ,シオノエチョウヤスハラシモ(ダイ3ゴウ),香川県高松市塩江町安原下（第3-）
7611504,香川県,高松市,塩江町安原下（その他）,カガワケン,タカマツシ,シオノエチョウヤスハラシモ(ソノタ),香川県高松市塩江町安原下（その他）
7611611,香川県,高松市,塩江町安原上,カガワケン,タカマツシ,シオノエチョウヤスハラカミ,香川県高松市塩江町安原上
7611612,香川県,高松市,塩江町安原上東,カガワケン,タカマツシ,シオノエチョウヤスハラカミヒガシ,香川県高松市塩江町安原上東
7611613,香川県,高松市,塩江町上西甲,カガワケン,タカマツシ,シオノエチョウカミニシコウ,香川県高松市塩江町上西甲
7611614,香川県,高松市,塩江町上西乙,カガワケン,タカマツシ,シオノエチョウカミニシオツ,香川県高松市塩江町上西乙
7611615,香川県,高松市,塩江町安原下（上小田）,カガワケン,タカマツシ,シオノエチョウヤスハラシモ(カミコタ),香川県高松市塩江町安原下（上小田）
7611615,香川県,高松市,塩江町安原下（炭谷）,カガワケン,タカマツシ,シオノエチョウヤスハラシモ(スミヤ),香川県高松市塩江町安原下（炭谷）
7611616,香川県,高松市,菅沢町,カガワケン,タカマツシ,スゲザワチョウ,香川県高松市菅沢町
7611701,香川県,高松市,香川町大野,カガワケン,タカマツシ,カガワチョウオオノ,香川県高松市香川町大野
7611702,香川県,高松市,香川町寺井,カガワケン,タカマツシ,カガワチョウテライ,香川県高松市香川町寺井
7611703,香川県,高松市,香川町浅野,カガワケン,タカマツシ,カガワチョウアサノ,香川県高松市香川町浅野
7611704,香川県,高松市,香川町川内原,カガワケン,タカマツシ,カガワチョウカワナイハラ,香川県高松市香川町川内原
7611705,香川県,高松市,香川町川東下,カガワケン,タカマツシ,カガワチョウカワヒガシシモ,香川県高松市香川町川東下
7611706,香川県,高松市,香川町川東上,カガワケン,タカマツシ,カガワチョウカワヒガシカミ,香川県高松市香川町川東上
7611707,香川県,高松市,香川町東谷,カガワケン,タカマツシ,カガワチョウヒガシタニ,香川県高松市香川町東谷
7611708,香川県,高松市,香川町安原下,カガワケン,タカマツシ,カガワチョウヤスハラシモ,香川県高松市香川町安原下
7612101,香川県,綾歌郡綾川町,畑田,カガワケン,アヤウタグンアヤガワチョウ,ハタダ,香川県綾歌郡綾川町畑田
7612102,香川県,綾歌郡綾川町,千疋,カガワケン,アヤウタグンアヤガワチョウ,センビキ,香川県綾歌郡綾川町千疋
7612103,香川県,綾歌郡綾川町,陶,カガワケン,アヤウタグンアヤガワチョウ,スエ,香川県綾歌郡綾川町陶
7612201,香川県,綾歌郡綾川町,枌所東,カガワケン,アヤウタグンアヤガワチョウ,ソギショヒガシ,香川県綾歌郡綾川町枌所東
7612202,香川県,綾歌郡綾川町,枌所西,カガワケン,アヤウタグンアヤガワチョウ,ソギショニシ,香川県綾歌郡綾川町枌所西
7612203,香川県,綾歌郡綾川町,山田上,カガワケン,アヤウタグンアヤガワチョウ,ヤマダカミ,香川県綾歌郡綾川町山田上
7612204,香川県,綾歌郡綾川町,山田下,カガワケン,アヤウタグンアヤガワチョウ,ヤマダシモ,香川県綾歌郡綾川町山田下
7612205,香川県,綾歌郡綾川町,東分,カガワケン,アヤウタグンアヤガワチョウ,ヒガシブン,香川県綾歌郡綾川町東分
7612206,香川県,綾歌郡綾川町,西分,カガワケン,アヤウタグンアヤガワチョウ,ニシブン,香川県綾歌郡綾川町西分
7612207,香川県,綾歌郡綾川町,羽床上,カガワケン,アヤウタグンアヤガワチョウ,ハユカカミ,香川県綾歌郡綾川町羽床上
7612208,香川県,綾歌郡綾川町,牛川,カガワケン,アヤウタグンアヤガワチョウ,ウシカワ,香川県綾歌郡綾川町牛川
7612300,香川県,綾歌郡綾川町,,カガワケン,アヤウタグンアヤガワチョウ,,香川県綾歌郡綾川町
7612304,香川県,綾歌郡綾川町,萱原,カガワケン,アヤウタグンアヤガワチョウ,カヤハラ,香川県綾歌郡綾川町萱原
7612305,香川県,綾歌郡綾川町,滝宮,カガワケン,アヤウタグンアヤガワチョウ,タキノミヤ,香川県綾歌郡綾川町滝宮
7612306,香川県,綾歌郡綾川町,北,カガワケン,アヤウタグンアヤガワチョウ,キタ,香川県綾歌郡綾川町北
7612307,香川県,綾歌郡綾川町,小野,カガワケン,アヤウタグンアヤガワチョウ,オノ,香川県綾歌郡綾川町小野
7612308,香川県,綾歌郡綾川町,羽床下,カガワケン,アヤウタグンアヤガワチョウ,ハユカシモ,香川県綾歌郡綾川町羽床下
7612401,香川県,丸亀市,綾歌町岡田上,カガワケン,マルガメシ,アヤウタチョウオカダカミ,香川県丸亀市綾歌町岡田上
7612402,香川県,丸亀市,綾歌町岡田下,カガワケン,マルガメシ,アヤウタチョウオカダシモ,香川県丸亀市綾歌町岡田下
7612403,香川県,丸亀市,綾歌町岡田西,カガワケン,マルガメシ,アヤウタチョウオカダニシ,香川県丸亀市綾歌町岡田西
7612404,香川県,丸亀市,綾歌町岡田東,カガワケン,マルガメシ,アヤウタチョウオカダヒガシ,香川県丸亀市綾歌町岡田東
7612405,香川県,丸亀市,綾歌町栗熊西,カガワケン,マルガメシ,アヤウタチョウクリクマニシ,香川県丸亀市綾歌町栗熊西
7612406,香川県,丸亀市,綾歌町栗熊東,カガワケン,マルガメシ,アヤウタチョウクリクマヒガシ,香川県丸亀市綾歌町栗熊東
7612407,香川県,丸亀市,綾歌町富熊（その他）,カガワケン,マルガメシ,アヤウタチョウトミクマ(ソノタ),香川県丸亀市綾歌町富熊（その他）
7612408,香川県,丸亀市,綾歌町富熊（富士見坂）,カガワケン,マルガメシ,アヤウタチョウトミクマ(フジミサカ),香川県丸亀市綾歌町富熊（富士見坂）
7613110,香川県,香川郡直島町,,カガワケン,カガワグンナオシマチョウ,,香川県香川郡直島町
7614100,香川県,小豆郡土庄町,,カガワケン,ショウズグントノショウチョウ,,香川県小豆郡土庄町
7614101,香川県,小豆郡土庄町,甲、乙（その他）,カガワケン,ショウズグントノショウチョウ,コウ、オツ(ソノタ),香川県小豆郡土庄町甲、乙（その他）
7614102,香川県,小豆郡土庄町,甲、乙（港新町）,カガワケン,ショウズグントノショウチョウ,コウ、オツ(ミナトシンマチ),香川県小豆郡土庄町甲、乙（港新町）
7614103,香川県,小豆郡土庄町,甲、乙（大木戸）,カガワケン,ショウズグントノショウチョウ,コウ、オツ(オオキド),香川県小豆郡土庄町甲、乙（大木戸）
7614104,香川県,小豆郡土庄町,甲、乙（吉ケ浦）,カガワケン,ショウズグントノショウチョウ,コウ、オツ(ヨシガウラ),香川県小豆郡土庄町甲、乙（吉ケ浦）
7614105,香川県,小豆郡土庄町,甲、乙（西本町）,カガワケン,ショウズグントノショウチョウ,コウ、オツ(ニシホンチョウ),香川県小豆郡土庄町甲、乙（西本町）
7614106,香川県,小豆郡土庄町,甲、乙（本町）,カガワケン,ショウズグントノショウチョウ,コウ、オツ(ホンチョウ),香川県小豆郡土庄町甲、乙（本町）
7614111,香川県,小豆郡土庄町,甲、乙（東港）,カガワケン,ショウズグントノショウチョウ,コウ、オツ(ヒガシミナト),香川県小豆郡土庄町甲、乙（東港）
7614112,香川県,小豆郡土庄町,甲、乙（鹿島）,カガワケン,ショウズグントノショウチョウ,コウ、オツ(カシマ),香川県小豆郡土庄町甲、乙（鹿島）
7614113,香川県,小豆郡土庄町,甲、乙（柳）,カガワケン,ショウズグントノショウチョウ,コウ、オツ(ヤナギ),香川県小豆郡土庄町甲、乙（柳）
7614114,香川県,小豆郡土庄町,甲、乙（千軒）,カガワケン,ショウズグントノショウチョウ,コウ、オツ(センケン),香川県小豆郡土庄町甲、乙（千軒）
7614115,香川県,小豆郡土庄町,甲、乙（小瀬）,カガワケン,ショウズグントノショウチョウ,コウ、オツ(コセ),香川県小豆郡土庄町甲、乙（小瀬）
7614121,香川県,小豆郡土庄町,渕崎,カガワケン,ショウズグントノショウチョウ,フチザキ,香川県小豆郡土庄町渕崎
7614122,香川県,小豆郡土庄町,上庄,カガワケン,ショウズグントノショウチョウ,カミショウ,香川県小豆郡土庄町上庄
7614131,香川県,小豆郡土庄町,伊喜末（その他）,カガワケン,ショウズグントノショウチョウ,イギスエ(ソノタ),香川県小豆郡土庄町伊喜末（その他）
7614132,香川県,小豆郡土庄町,小江,カガワケン,ショウズグントノショウチョウ,オエ,香川県小豆郡土庄町小江
7614133,香川県,小豆郡土庄町,長浜,カガワケン,ショウズグントノショウチョウ,ナガハマ,香川県小豆郡土庄町長浜
7614134,香川県,小豆郡土庄町,滝宮,カガワケン,ショウズグントノショウチョウ,タキノミヤ,香川県小豆郡土庄町滝宮
7614141,香川県,小豆郡土庄町,馬越,カガワケン,ショウズグントノショウチョウ,ウマゴエ,香川県小豆郡土庄町馬越
7614142,香川県,小豆郡土庄町,屋形崎,カガワケン,ショウズグントノショウチョウ,ヤカタザキ,香川県小豆郡土庄町屋形崎
7614143,香川県,小豆郡土庄町,見目,カガワケン,ショウズグントノショウチョウ,ミメ,香川県小豆郡土庄町見目
7614144,香川県,小豆郡土庄町,小海,カガワケン,ショウズグントノショウチョウ,オミ,香川県小豆郡土庄町小海
7614145,香川県,小豆郡土庄町,大部,カガワケン,ショウズグントノショウチョウ,オオベ,香川県小豆郡土庄町大部
7614146,香川県,小豆郡土庄町,小部,カガワケン,ショウズグントノショウチョウ,コベ,香川県小豆郡土庄町小部
7614151,香川県,小豆郡土庄町,肥土山,カガワケン,ショウズグントノショウチョウ,ヒトヤマ,香川県小豆郡土庄町肥土山
7614152,香川県,小豆郡土庄町,黒岩,カガワケン,ショウズグントノショウチョウ,クロイワ,香川県小豆郡土庄町黒岩
7614153,香川県,小豆郡土庄町,小馬越,カガワケン,ショウズグントノショウチョウ,コウマゴエ,香川県小豆郡土庄町小馬越
7614154,香川県,小豆郡土庄町,笠滝,カガワケン,ショウズグントノショウチョウ,カサガダキ,香川県小豆郡土庄町笠滝
7614155,香川県,小豆郡小豆島町,中山（美しの原高原）,カガワケン,ショウズグンショウドシマチョウ,ナカヤマ(ウツクシノハラコウゲン),香川県小豆郡小豆島町中山（美しの原高原）
7614155,香川県,小豆郡小豆島町,中山（蛙子鳴滝）,カガワケン,ショウズグンショウドシマチョウ,ナカヤマ(カエルゴナルタキ),香川県小豆郡小豆島町中山（蛙子鳴滝）
7614300,香川県,小豆郡小豆島町,,カガワケン,ショウズグンショウドシマチョウ,,香川県小豆郡小豆島町
7614301,香川県,小豆郡小豆島町,池田,カガワケン,ショウズグンショウドシマチョウ,イケダ,香川県小豆郡小豆島町池田
7614302,香川県,小豆郡小豆島町,蒲生,カガワケン,ショウズグンショウドシマチョウ,カモウ,香川県小豆郡小豆島町蒲生
7614303,香川県,小豆郡小豆島町,中山（その他）,カガワケン,ショウズグンショウドシマチョウ,ナカヤマ(ソノタ),香川県小豆郡小豆島町中山（その他）
7614304,香川県,小豆郡小豆島町,室生,カガワケン,ショウズグンショウドシマチョウ,ムロウ,香川県小豆郡小豆島町室生
7614305,香川県,小豆郡小豆島町,二面,カガワケン,ショウズグンショウドシマチョウ,フタオモテ,香川県小豆郡小豆島町二面
7614306,香川県,小豆郡小豆島町,吉野,カガワケン,ショウズグンショウドシマチョウ,ヨシノ,香川県小豆郡小豆島町吉野
7614307,香川県,小豆郡小豆島町,蒲野,カガワケン,ショウズグンショウドシマチョウ,カマノ,香川県小豆郡小豆島町蒲野
7614308,香川県,小豆郡小豆島町,神浦,カガワケン,ショウズグンショウドシマチョウ,コウノウラ,香川県小豆郡小豆島町神浦
7614401,香川県,小豆郡小豆島町,吉田,カガワケン,ショウズグンショウドシマチョウ,ヨシダ,香川県小豆郡小豆島町吉田
7614402,香川県,小豆郡小豆島町,福田,カガワケン,ショウズグンショウドシマチョウ,フクダ,香川県小豆郡小豆島町福田
7614403,香川県,小豆郡小豆島町,当浜,カガワケン,ショウズグンショウドシマチョウ,アテハマ,香川県小豆郡小豆島町当浜
7614404,香川県,小豆郡小豆島町,岩谷,カガワケン,ショウズグンショウドシマチョウ,イワガタニ,香川県小豆郡小豆島町岩谷
7614405,香川県,小豆郡小豆島町,橘,カガワケン,ショウズグンショウドシマチョウ,タチバナ,香川県小豆郡小豆島町橘
7614411,香川県,小豆郡小豆島町,安田,カガワケン,ショウズグンショウドシマチョウ,ヤスダ,香川県小豆郡小豆島町安田
7614412,香川県,小豆郡小豆島町,木庄,カガワケン,ショウズグンショウドシマチョウ,キノショウ,香川県小豆郡小豆島町木庄
7614421,香川県,小豆郡小豆島町,苗羽,カガワケン,ショウズグンショウドシマチョウ,ノウマ,香川県小豆郡小豆島町苗羽
7614422,香川県,小豆郡小豆島町,古江,カガワケン,ショウズグンショウドシマチョウ,フルエ,香川県小豆郡小豆島町古江
7614423,香川県,小豆郡小豆島町,堀越,カガワケン,ショウズグンショウドシマチョウ,ホリコシ,香川県小豆郡小豆島町堀越
7614424,香川県,小豆郡小豆島町,田浦,カガワケン,ショウズグンショウドシマチョウ,タノウラ,香川県小豆郡小豆島町田浦
7614425,香川県,小豆郡小豆島町,坂手,カガワケン,ショウズグンショウドシマチョウ,サカテ,香川県小豆郡小豆島町坂手
7614426,香川県,小豆郡小豆島町,馬木,カガワケン,ショウズグンショウドシマチョウ,ウマキ,香川県小豆郡小豆島町馬木
7614431,香川県,小豆郡小豆島町,片城,カガワケン,ショウズグンショウドシマチョウ,カタジョウ,香川県小豆郡小豆島町片城
7614432,香川県,小豆郡小豆島町,草壁本町,カガワケン,ショウズグンショウドシマチョウ,クサカベホンマチ,香川県小豆郡小豆島町草壁本町
7614433,香川県,小豆郡小豆島町,神懸通,カガワケン,ショウズグンショウドシマチョウ,カンカケドオリ,香川県小豆郡小豆島町神懸通
7614434,香川県,小豆郡小豆島町,西村,カガワケン,ショウズグンショウドシマチョウ,ニシムラ,香川県小豆郡小豆島町西村
7614661,香川県,小豆郡土庄町,豊島家浦,カガワケン,ショウズグントノショウチョウ,テシマイエウラ,香川県小豆郡土庄町豊島家浦
7614662,香川県,小豆郡土庄町,豊島唐櫃,カガワケン,ショウズグントノショウチョウ,テシマカラト,香川県小豆郡土庄町豊島唐櫃
7614663,香川県,小豆郡土庄町,豊島甲生,カガワケン,ショウズグントノショウチョウ,テシマコウ,香川県小豆郡土庄町豊島甲生
7614664,香川県,小豆郡土庄町,伊喜末（小豊島）,カガワケン,ショウズグントノショウチョウ,イギスエ(オデシマ),香川県小豆郡土庄町伊喜末（小豊島）
7618001,香川県,高松市,亀水町,カガワケン,タカマツシ,タルミチョウ,香川県高松市亀水町
7618002,香川県,高松市,生島町,カガワケン,タカマツシ,イクシマチョウ,香川県高松市生島町
7618003,香川県,高松市,神在川窪町,カガワケン,タカマツシ,シンザイカワクボチョウ,香川県高松市神在川窪町
7618004,香川県,高松市,中山町,カガワケン,タカマツシ,ナカヤマチョウ,香川県高松市中山町
7618005,香川県,高松市,植松町,カガワケン,タカマツシ,ウエマツチョウ,香川県高松市植松町
7618011,香川県,高松市,香西北町,カガワケン,タカマツシ,コウザイキタマチ,香川県高松市香西北町
7618012,香川県,高松市,香西本町,カガワケン,タカマツシ,コウザイホンマチ,香川県高松市香西本町
7618013,香川県,高松市,香西東町,カガワケン,タカマツシ,コウザイヒガシマチ,香川県高松市香西東町
7618014,香川県,高松市,香西南町,カガワケン,タカマツシ,コウザイミナミマチ,香川県高松市香西南町
7618015,香川県,高松市,香西西町,カガワケン,タカマツシ,コウザイニシマチ,香川県高松市香西西町
7618021,香川県,高松市,鬼無町是竹,カガワケン,タカマツシ,キナシチョウコレタケ,香川県高松市鬼無町是竹
7618022,香川県,高松市,鬼無町佐料,カガワケン,タカマツシ,キナシチョウサリョウ,香川県高松市鬼無町佐料
7618023,香川県,高松市,鬼無町佐藤,カガワケン,タカマツシ,キナシチョウサトウ,香川県高松市鬼無町佐藤
7618024,香川県,高松市,鬼無町藤井,カガワケン,タカマツシ,キナシチョウフジイ,香川県高松市鬼無町藤井
7618025,香川県,高松市,鬼無町山口,カガワケン,タカマツシ,キナシチョウヤマグチ,香川県高松市鬼無町山口
7618026,香川県,高松市,鬼無町鬼無,カガワケン,タカマツシ,キナシチョウキナシ,香川県高松市鬼無町鬼無
7618031,香川県,高松市,郷東町,カガワケン,タカマツシ,ゴウトウチョウ,香川県高松市郷東町
7618032,香川県,高松市,鶴市町（その他）,カガワケン,タカマツシ,ツルイチチョウ(ソノタ),香川県高松市鶴市町（その他）
7618033,香川県,高松市,飯田町,カガワケン,タカマツシ,イイダチョウ,香川県高松市飯田町
7618041,香川県,高松市,檀紙町,カガワケン,タカマツシ,ダンシチョウ,香川県高松市檀紙町
7618042,香川県,高松市,御厩町,カガワケン,タカマツシ,ミマヤチョウ,香川県高松市御厩町
7618043,香川県,高松市,中間町,カガワケン,タカマツシ,ナカツマチョウ,香川県高松市中間町
7618044,香川県,高松市,円座町,カガワケン,タカマツシ,エンザチョウ,香川県高松市円座町
7618045,香川県,高松市,西山崎町,カガワケン,タカマツシ,ニシヤマサキチョウ,香川県高松市西山崎町
7618046,香川県,高松市,川部町,カガワケン,タカマツシ,カワナベチョウ,香川県高松市川部町
7618047,香川県,高松市,岡本町,カガワケン,タカマツシ,オカモトチョウ,香川県高松市岡本町
7618051,香川県,高松市,西春日町,カガワケン,タカマツシ,ニシカスガチョウ,香川県高松市西春日町
7618052,香川県,高松市,松並町,カガワケン,タカマツシ,マツナミチョウ,香川県高松市松並町
7618053,香川県,高松市,西ハゼ町,カガワケン,タカマツシ,ニシハゼマチ,香川県高松市西ハゼ町
7618054,香川県,高松市,東ハゼ町,カガワケン,タカマツシ,ヒガシハゼマチ,香川県高松市東ハゼ町
7618055,香川県,高松市,紙町,カガワケン,タカマツシ,カミマチ,香川県高松市紙町
7618056,香川県,高松市,上天神町,カガワケン,タカマツシ,カミテンジンチョウ,香川県高松市上天神町
7618057,香川県,高松市,田村町,カガワケン,タカマツシ,タムラチョウ,香川県高松市田村町
7618058,香川県,高松市,勅使町,カガワケン,タカマツシ,チョクシチョウ,香川県高松市勅使町
7618061,香川県,高松市,室町,カガワケン,タカマツシ,ムロマチ,香川県高松市室町
7618062,香川県,高松市,室新町,カガワケン,タカマツシ,ムロシンマチ,香川県高松市室新町
7618063,香川県,高松市,花ノ宮町,カガワケン,タカマツシ,ハナノミヤチョウ,香川県高松市花ノ宮町
7618064,香川県,高松市,上之町,カガワケン,タカマツシ,カミノチョウ,香川県高松市上之町
7618071,香川県,高松市,伏石町,カガワケン,タカマツシ,フセイシチョウ,香川県高松市伏石町
7618072,香川県,高松市,三条町,カガワケン,タカマツシ,サンジョウチョウ,香川県高松市三条町
7618073,香川県,高松市,太田下町,カガワケン,タカマツシ,オオタシモマチ,香川県高松市太田下町
7618074,香川県,高松市,太田上町,カガワケン,タカマツシ,オオタカミマチ,香川県高松市太田上町
7618075,香川県,高松市,多肥下町,カガワケン,タカマツシ,タヒシモマチ,香川県高松市多肥下町
7618076,香川県,高松市,多肥上町,カガワケン,タカマツシ,タヒカミマチ,香川県高松市多肥上町
7618077,香川県,高松市,出作町,カガワケン,タカマツシ,シュツサクチョウ,香川県高松市出作町
7618078,香川県,高松市,仏生山町甲,カガワケン,タカマツシ,ブッショウザンチョウコウ,香川県高松市仏生山町甲
7618079,香川県,高松市,仏生山町乙,カガワケン,タカマツシ,ブッショウザンチョウオツ,香川県高松市仏生山町乙
7618081,香川県,高松市,成合町,カガワケン,タカマツシ,ナリアイチョウ,香川県高松市成合町
7618082,香川県,高松市,鹿角町,カガワケン,タカマツシ,カノツノチョウ,香川県高松市鹿角町
7618083,香川県,高松市,三名町,カガワケン,タカマツシ,サンミョウチョウ,香川県高松市三名町
7618084,香川県,高松市,一宮町,カガワケン,タカマツシ,イチノミヤチョウ,香川県高松市一宮町
7618085,香川県,高松市,寺井町,カガワケン,タカマツシ,テライチョウ,香川県高松市寺井町
7620000,香川県,坂出市,,カガワケン,サカイデシ,,香川県坂出市
7620001,香川県,坂出市,京町,カガワケン,サカイデシ,キョウマチ,香川県坂出市京町
7620002,香川県,坂出市,入船町,カガワケン,サカイデシ,イリフネチョウ,香川県坂出市入船町
7620003,香川県,坂出市,久米町,カガワケン,サカイデシ,クメチョウ,香川県坂出市久米町
7620004,香川県,坂出市,昭和町,カガワケン,サカイデシ,ショウワチョウ,香川県坂出市昭和町
7620005,香川県,坂出市,横津町,カガワケン,サカイデシ,ヨコヅチョウ,香川県坂出市横津町
7620006,香川県,坂出市,旭町,カガワケン,サカイデシ,アサヒチョウ,香川県坂出市旭町
7620007,香川県,坂出市,室町,カガワケン,サカイデシ,ムロマチ,香川県坂出市室町
7620011,香川県,坂出市,江尻町,カガワケン,サカイデシ,エジリチョウ,香川県坂出市江尻町
7620012,香川県,坂出市,林田町,カガワケン,サカイデシ,ハヤシダチョウ,香川県坂出市林田町
7620013,香川県,坂出市,王越町乃生,カガワケン,サカイデシ,オウゴシチョウノウ,香川県坂出市王越町乃生
7620014,香川県,坂出市,王越町木沢,カガワケン,サカイデシ,オウゴシチョウキサワ,香川県坂出市王越町木沢
7620015,香川県,坂出市,大屋冨町,カガワケン,サカイデシ,オオヤブチョウ,香川県坂出市大屋冨町
7620016,香川県,坂出市,青海町,カガワケン,サカイデシ,オウミチョウ,香川県坂出市青海町
7620017,香川県,坂出市,高屋町,カガワケン,サカイデシ,タカヤチョウ,香川県坂出市高屋町
7620018,香川県,坂出市,神谷町,カガワケン,サカイデシ,カンダニチョウ,香川県坂出市神谷町
7620021,香川県,坂出市,西庄町,カガワケン,サカイデシ,ニシノショウチョウ,香川県坂出市西庄町
7620022,香川県,坂出市,加茂町甲（氏部）,カガワケン,サカイデシ,カモチョウコウ(ウジベ),香川県坂出市加茂町甲（氏部）
7620023,香川県,坂出市,加茂町（その他）,カガワケン,サカイデシ,カモチョウ(ソノタ),香川県坂出市加茂町（その他）
7620024,香川県,坂出市,府中町,カガワケン,サカイデシ,フチュウチョウ,香川県坂出市府中町
7620025,香川県,坂出市,川津町,カガワケン,サカイデシ,カワツチョウ,香川県坂出市川津町
7620026,香川県,坂出市,小山町,カガワケン,サカイデシ,コヤマチョウ,香川県坂出市小山町
7620027,香川県,坂出市,大池町,カガワケン,サカイデシ,オオイケチョウ,香川県坂出市大池町
7620031,香川県,坂出市,文京町,カガワケン,サカイデシ,ブンキョウチョウ,香川県坂出市文京町
7620032,香川県,坂出市,駒止町,カガワケン,サカイデシ,コマドメチョウ,香川県坂出市駒止町
7620033,香川県,坂出市,谷町,カガワケン,サカイデシ,タニマチ,香川県坂出市谷町
7620034,香川県,坂出市,福江町,カガワケン,サカイデシ,フクエチョウ,香川県坂出市福江町
7620035,香川県,坂出市,池園町,カガワケン,サカイデシ,イケゾノチョウ,香川県坂出市池園町
7620036,香川県,坂出市,花町,カガワケン,サカイデシ,ハナマチ,香川県坂出市花町
7620037,香川県,坂出市,青葉町,カガワケン,サカイデシ,アオバチョウ,香川県坂出市青葉町
7620038,香川県,坂出市,笠指町,カガワケン,サカイデシ,カザシチョウ,香川県坂出市笠指町
7620041,香川県,坂出市,八幡町,カガワケン,サカイデシ,ハチマンチョウ,香川県坂出市八幡町
7620042,香川県,坂出市,白金町,カガワケン,サカイデシ,シロガネチョウ,香川県坂出市白金町
7620043,香川県,坂出市,寿町,カガワケン,サカイデシ,コトブキチョウ,香川県坂出市寿町
7620044,香川県,坂出市,本町,カガワケン,サカイデシ,ホンマチ,香川県坂出市本町
7620045,香川県,坂出市,元町,カガワケン,サカイデシ,モトマチ,香川県坂出市元町
7620046,香川県,坂出市,富士見町,カガワケン,サカイデシ,フジミチョウ,香川県坂出市富士見町
7620047,香川県,坂出市,新浜町,カガワケン,サカイデシ,シンハマチョウ,香川県坂出市新浜町
7620051,香川県,坂出市,御供所町,カガワケン,サカイデシ,ゴブショチョウ,香川県坂出市御供所町
7620052,香川県,坂出市,沖の浜,カガワケン,サカイデシ,オキノハマ,香川県坂出市沖の浜
7620053,香川県,坂出市,西大浜北,カガワケン,サカイデシ,ニシオオハマキタ,香川県坂出市西大浜北
7620054,香川県,坂出市,西大浜南,カガワケン,サカイデシ,ニシオオハマミナミ,香川県坂出市西大浜南
7620055,香川県,坂出市,築港町,カガワケン,サカイデシ,チッコウチョウ,香川県坂出市築港町
7620056,香川県,坂出市,中央町,カガワケン,サカイデシ,チュウオウチョウ,香川県坂出市中央町
7620057,香川県,坂出市,宮下町,カガワケン,サカイデシ,ミヤシタチョウ,香川県坂出市宮下町
7620058,香川県,坂出市,常盤町,カガワケン,サカイデシ,トキワチョウ,香川県坂出市常盤町
7620061,香川県,坂出市,坂出町,カガワケン,サカイデシ,サカイデチョウ,香川県坂出市坂出町
7620062,香川県,坂出市,川崎町,カガワケン,サカイデシ,カワサキチョウ,香川県坂出市川崎町
7620063,香川県,坂出市,番の州公園,カガワケン,サカイデシ,バンノスコウエン,香川県坂出市番の州公園
7620064,香川県,坂出市,番の州町,カガワケン,サカイデシ,バンノスチョウ,香川県坂出市番の州町
7620065,香川県,坂出市,番の州緑町,カガワケン,サカイデシ,バンノスミドリチョウ,香川県坂出市番の州緑町
7620066,香川県,坂出市,沙弥島,カガワケン,サカイデシ,シャミジマ,香川県坂出市沙弥島
7620067,香川県,坂出市,瀬居町,カガワケン,サカイデシ,セイチョウ,香川県坂出市瀬居町
7620071,香川県,坂出市,与島町,カガワケン,サカイデシ,ヨシマチョウ,香川県坂出市与島町
7620072,香川県,坂出市,岩黒,カガワケン,サカイデシ,イワクロ,香川県坂出市岩黒
7620073,香川県,坂出市,櫃石,カガワケン,サカイデシ,ヒツイシ,香川県坂出市櫃石
7620081,香川県,丸亀市,飯山町東坂元,カガワケン,マルガメシ,ハンザンチョウヒガシサカモト,香川県丸亀市飯山町東坂元
7620082,香川県,丸亀市,飯山町川原,カガワケン,マルガメシ,ハンザンチョウカワハラ,香川県丸亀市飯山町川原
7620083,香川県,丸亀市,飯山町下法軍寺,カガワケン,マルガメシ,ハンザンチョウシモホウグンジ,香川県丸亀市飯山町下法軍寺
7620084,香川県,丸亀市,飯山町上法軍寺,カガワケン,マルガメシ,ハンザンチョウカミホウグンジ,香川県丸亀市飯山町上法軍寺
7620085,香川県,丸亀市,飯山町東小川,カガワケン,マルガメシ,ハンザンチョウヒガシオガワ,香川県丸亀市飯山町東小川
7620086,香川県,丸亀市,飯山町真時,カガワケン,マルガメシ,ハンザンチョウサントキ,香川県丸亀市飯山町真時
7620087,香川県,丸亀市,飯山町西坂元,カガワケン,マルガメシ,ハンザンチョウニシサカモト,香川県丸亀市飯山町西坂元
7630000,香川県,丸亀市,,カガワケン,マルガメシ,,香川県丸亀市
7630001,香川県,丸亀市,風袋町,カガワケン,マルガメシ,フルタイマチ,香川県丸亀市風袋町
7630002,香川県,丸亀市,瓦町,カガワケン,マルガメシ,カワラマチ,香川県丸亀市瓦町
7630003,香川県,丸亀市,葭町,カガワケン,マルガメシ,カヤマチ,香川県丸亀市葭町
7630004,香川県,丸亀市,米屋町,カガワケン,マルガメシ,コメヤチョウ,香川県丸亀市米屋町
7630005,香川県,丸亀市,松屋町,カガワケン,マルガメシ,マツヤチョウ,香川県丸亀市松屋町
7630006,香川県,丸亀市,魚屋町,カガワケン,マルガメシ,ウオヤマチ,香川県丸亀市魚屋町
7630007,香川県,丸亀市,宗古町,カガワケン,マルガメシ,ソウコマチ,香川県丸亀市宗古町
7630011,香川県,丸亀市,富士見町,カガワケン,マルガメシ,フジミチョウ,香川県丸亀市富士見町
7630012,香川県,丸亀市,土居町,カガワケン,マルガメシ,ドイチョウ,香川県丸亀市土居町
7630013,香川県,丸亀市,城東町,カガワケン,マルガメシ,ジョウトウチョウ,香川県丸亀市城東町
7630014,香川県,丸亀市,御供所町,カガワケン,マルガメシ,ゴブショチョウ,香川県丸亀市御供所町
7630015,香川県,丸亀市,北平山町,カガワケン,マルガメシ,キタヒラヤマチョウ,香川県丸亀市北平山町
7630021,香川県,丸亀市,富屋町,カガワケン,マルガメシ,トミヤマチ,香川県丸亀市富屋町
7630022,香川県,丸亀市,浜町,カガワケン,マルガメシ,ハママチ,香川県丸亀市浜町
7630023,香川県,丸亀市,本町,カガワケン,マルガメシ,ホンマチ,香川県丸亀市本町
7630024,香川県,丸亀市,塩飽町,カガワケン,マルガメシ,シワクマチ,香川県丸亀市塩飽町
7630025,香川県,丸亀市,一番丁,カガワケン,マルガメシ,イチバンチョウ,香川県丸亀市一番丁
7630026,香川県,丸亀市,六番丁,カガワケン,マルガメシ,ロクバンチョウ,香川県丸亀市六番丁
7630027,香川県,丸亀市,七番丁,カガワケン,マルガメシ,シチバンチョウ,香川県丸亀市七番丁
7630028,香川県,丸亀市,八番丁,カガワケン,マルガメシ,ハチバンチョウ,香川県丸亀市八番丁
7630029,香川県,丸亀市,九番丁,カガワケン,マルガメシ,クバンチョウ,香川県丸亀市九番丁
7630030,香川県,丸亀市,十番丁,カガワケン,マルガメシ,ジュウバンチョウ,香川県丸亀市十番丁
7630031,香川県,丸亀市,城南町,カガワケン,マルガメシ,ジョウナンチョウ,香川県丸亀市城南町
7630032,香川県,丸亀市,城西町,カガワケン,マルガメシ,ジョウセイチョウ,香川県丸亀市城西町
7630033,香川県,丸亀市,中府町,カガワケン,マルガメシ,ナカブチョウ,香川県丸亀市中府町
7630034,香川県,丸亀市,大手町,カガワケン,マルガメシ,オオテチョウ,香川県丸亀市大手町
7630041,香川県,丸亀市,西平山町,カガワケン,マルガメシ,ニシヒラヤマチョウ,香川県丸亀市西平山町
7630042,香川県,丸亀市,港町,カガワケン,マルガメシ,ミナトマチ,香川県丸亀市港町
7630043,香川県,丸亀市,通町,カガワケン,マルガメシ,トオリチョウ,香川県丸亀市通町
7630044,香川県,丸亀市,福島町,カガワケン,マルガメシ,フクシマチョウ,香川県丸亀市福島町
7630045,香川県,丸亀市,新町,カガワケン,マルガメシ,シンマチ,香川県丸亀市新町
7630046,香川県,丸亀市,南条町,カガワケン,マルガメシ,ナンジョウマチ,香川県丸亀市南条町
7630047,香川県,丸亀市,西本町,カガワケン,マルガメシ,ニシホンマチ,香川県丸亀市西本町
7630048,香川県,丸亀市,幸町,カガワケン,マルガメシ,サイワイチョウ,香川県丸亀市幸町
7630051,香川県,丸亀市,今津町,カガワケン,マルガメシ,イマヅチョウ,香川県丸亀市今津町
7630052,香川県,丸亀市,津森町,カガワケン,マルガメシ,ツノモリチョウ,香川県丸亀市津森町
7630053,香川県,丸亀市,金倉町,カガワケン,マルガメシ,カナクラチョウ,香川県丸亀市金倉町
7630054,香川県,丸亀市,中津町,カガワケン,マルガメシ,ナカヅチョウ,香川県丸亀市中津町
7630055,香川県,丸亀市,新田町,カガワケン,マルガメシ,シンデンチョウ,香川県丸亀市新田町
7630061,香川県,丸亀市,昭和町,カガワケン,マルガメシ,ショウワチョウ,香川県丸亀市昭和町
7630062,香川県,丸亀市,蓬莱町,カガワケン,マルガメシ,ホウライチョウ,香川県丸亀市蓬莱町
7630063,香川県,丸亀市,新浜町,カガワケン,マルガメシ,シンハマチョウ,香川県丸亀市新浜町
7630064,香川県,丸亀市,前塩屋町,カガワケン,マルガメシ,マエジオヤチョウ,香川県丸亀市前塩屋町
7630065,香川県,丸亀市,塩屋町,カガワケン,マルガメシ,シオヤチョウ,香川県丸亀市塩屋町
7630066,香川県,丸亀市,天満町,カガワケン,マルガメシ,テンマチョウ,香川県丸亀市天満町
7630071,香川県,丸亀市,田村町,カガワケン,マルガメシ,タムラチョウ,香川県丸亀市田村町
7630072,香川県,丸亀市,山北町,カガワケン,マルガメシ,ヤマノキタチョウ,香川県丸亀市山北町
7630073,香川県,丸亀市,柞原町,カガワケン,マルガメシ,クバラチョウ,香川県丸亀市柞原町
7630074,香川県,丸亀市,原田町,カガワケン,マルガメシ,ハラダチョウ,香川県丸亀市原田町
7630075,香川県,丸亀市,原田団地,カガワケン,マルガメシ,ハラダダンチ,香川県丸亀市原田団地
7630081,香川県,丸亀市,土器町西,カガワケン,マルガメシ,ドキチョウニシ,香川県丸亀市土器町西
7630082,香川県,丸亀市,土器町東,カガワケン,マルガメシ,ドキチョウヒガシ,香川県丸亀市土器町東
7630083,香川県,丸亀市,土器町北,カガワケン,マルガメシ,ドキチョウキタ,香川県丸亀市土器町北
7630084,香川県,丸亀市,飯野町東二,カガワケン,マルガメシ,イイノチョウヒガシフタ,香川県丸亀市飯野町東二
7630085,香川県,丸亀市,飯野町東分,カガワケン,マルガメシ,イイノチョウヒガシブン,香川県丸亀市飯野町東分
7630086,香川県,丸亀市,飯野町西分,カガワケン,マルガメシ,イイノチョウニシブン,香川県丸亀市飯野町西分
7630091,香川県,丸亀市,川西町北,カガワケン,マルガメシ,カワニシチョウキタ,香川県丸亀市川西町北
7630092,香川県,丸亀市,川西町南,カガワケン,マルガメシ,カワニシチョウミナミ,香川県丸亀市川西町南
7630093,香川県,丸亀市,郡家町,カガワケン,マルガメシ,グンゲチョウ,香川県丸亀市郡家町
7630094,香川県,丸亀市,三条町,カガワケン,マルガメシ,サンジョウチョウ,香川県丸亀市三条町
7630095,香川県,丸亀市,垂水町,カガワケン,マルガメシ,タルミチョウ,香川県丸亀市垂水町
7630101,香川県,丸亀市,広島町立石,カガワケン,マルガメシ,ヒロシマチョウタテイシ,香川県丸亀市広島町立石
7630102,香川県,丸亀市,広島町江の浦,カガワケン,マルガメシ,ヒロシマチョウエノウラ,香川県丸亀市広島町江の浦
7630103,香川県,丸亀市,広島町釜の越,カガワケン,マルガメシ,ヒロシマチョウカマノコシ,香川県丸亀市広島町釜の越
7630104,香川県,丸亀市,広島町甲路,カガワケン,マルガメシ,ヒロシマチョウコウロ,香川県丸亀市広島町甲路
7630105,香川県,丸亀市,広島町青木,カガワケン,マルガメシ,ヒロシマチョウアオキ,香川県丸亀市広島町青木
7630106,香川県,丸亀市,広島町市井,カガワケン,マルガメシ,ヒロシマチョウイチイ,香川県丸亀市広島町市井
7630107,香川県,丸亀市,広島町茂浦,カガワケン,マルガメシ,ヒロシマチョウモウラ,香川県丸亀市広島町茂浦
7630108,香川県,丸亀市,広島町小手島,カガワケン,マルガメシ,ヒロシマチョウオテシマ,香川県丸亀市広島町小手島
7630111,香川県,丸亀市,手島町,カガワケン,マルガメシ,テシマチョウ,香川県丸亀市手島町
7630221,香川県,丸亀市,本島町笠島,カガワケン,マルガメシ,ホンジマチョウカサシマ,香川県丸亀市本島町笠島
7630222,香川県,丸亀市,本島町甲生,カガワケン,マルガメシ,ホンジマチョウコウショウ,香川県丸亀市本島町甲生
7630223,香川県,丸亀市,本島町泊,カガワケン,マルガメシ,ホンジマチョウトマリ,香川県丸亀市本島町泊
7630224,香川県,丸亀市,本島町小阪,カガワケン,マルガメシ,ホンジマチョウコサカ,香川県丸亀市本島町小阪
7630225,香川県,丸亀市,本島町生ノ浜,カガワケン,マルガメシ,ホンジマチョウイクノハマ,香川県丸亀市本島町生ノ浜
7630226,香川県,丸亀市,本島町尻浜,カガワケン,マルガメシ,ホンジマチョウシリハマ,香川県丸亀市本島町尻浜
7630227,香川県,丸亀市,本島町福田,カガワケン,マルガメシ,ホンジマチョウフクダ,香川県丸亀市本島町福田
7630228,香川県,丸亀市,本島町大浦,カガワケン,マルガメシ,ホンジマチョウオオウラ,香川県丸亀市本島町大浦
7630231,香川県,丸亀市,牛島,カガワケン,マルガメシ,ウシジマ,香川県丸亀市牛島
7640000,香川県,仲多度郡多度津町,,カガワケン,ナカタドグンタドツチョウ,,香川県仲多度郡多度津町
7640001,香川県,仲多度郡多度津町,東新町,カガワケン,ナカタドグンタドツチョウ,ヒガシシンマチ,香川県仲多度郡多度津町東新町
7640002,香川県,仲多度郡多度津町,家中,カガワケン,ナカタドグンタドツチョウ,カチュウ,香川県仲多度郡多度津町家中
7640003,香川県,仲多度郡多度津町,元町,カガワケン,ナカタドグンタドツチョウ,モトマチ,香川県仲多度郡多度津町元町
7640004,香川県,仲多度郡多度津町,仲ノ町,カガワケン,ナカタドグンタドツチョウ,ナカノチョウ,香川県仲多度郡多度津町仲ノ町
7640005,香川県,仲多度郡多度津町,大通り,カガワケン,ナカタドグンタドツチョウ,オオドオリ,香川県仲多度郡多度津町大通り
7640006,香川県,仲多度郡多度津町,日の出町,カガワケン,ナカタドグンタドツチョウ,ヒノデチョウ,香川県仲多度郡多度津町日の出町
7640011,香川県,仲多度郡多度津町,栄町,カガワケン,ナカタドグンタドツチョウ,サカエマチ,香川県仲多度郡多度津町栄町
7640012,香川県,仲多度郡多度津町,桜川,カガワケン,ナカタドグンタドツチョウ,サクラガワ,香川県仲多度郡多度津町桜川
7640013,香川県,仲多度郡多度津町,京町,カガワケン,ナカタドグンタドツチョウ,キョウマチ,香川県仲多度郡多度津町京町
7640014,香川県,仲多度郡多度津町,本通,カガワケン,ナカタドグンタドツチョウ,ホンドオリ,香川県仲多度郡多度津町本通
7640015,香川県,仲多度郡多度津町,西浜,カガワケン,ナカタドグンタドツチョウ,ニシハマ,香川県仲多度郡多度津町西浜
7640016,香川県,仲多度郡多度津町,東浜,カガワケン,ナカタドグンタドツチョウ,ヒガシハマ,香川県仲多度郡多度津町東浜
7640017,香川県,仲多度郡多度津町,西港町,カガワケン,ナカタドグンタドツチョウ,ニシミナトマチ,香川県仲多度郡多度津町西港町
7640018,香川県,仲多度郡多度津町,東港町,カガワケン,ナカタドグンタドツチョウ,ヒガシミナトマチ,香川県仲多度郡多度津町東港町
7640021,香川県,仲多度郡多度津町,堀江,カガワケン,ナカタドグンタドツチョウ,ホリエ,香川県仲多度郡多度津町堀江
7640022,香川県,仲多度郡多度津町,北鴨,カガワケン,ナカタドグンタドツチョウ,キタガモ,香川県仲多度郡多度津町北鴨
7640023,香川県,仲多度郡多度津町,若葉町,カガワケン,ナカタドグンタドツチョウ,ワカバチョウ,香川県仲多度郡多度津町若葉町
7640024,香川県,仲多度郡多度津町,幸町,カガワケン,ナカタドグンタドツチョウ,サイワイチョウ,香川県仲多度郡多度津町幸町
7640025,香川県,仲多度郡多度津町,寿町,カガワケン,ナカタドグンタドツチョウ,コトブキチョウ,香川県仲多度郡多度津町寿町
7640026,香川県,仲多度郡多度津町,南鴨,カガワケン,ナカタドグンタドツチョウ,ミナミガモ,香川県仲多度郡多度津町南鴨
7640027,香川県,仲多度郡多度津町,道福寺,カガワケン,ナカタドグンタドツチョウ,ドウフクジ,香川県仲多度郡多度津町道福寺
7640028,香川県,仲多度郡多度津町,葛原,カガワケン,ナカタドグンタドツチョウ,カズハラ,香川県仲多度郡多度津町葛原
7640031,香川県,仲多度郡多度津町,庄,カガワケン,ナカタドグンタドツチョウ,ショウ,香川県仲多度郡多度津町庄
7640032,香川県,仲多度郡多度津町,三井,カガワケン,ナカタドグンタドツチョウ,ミイ,香川県仲多度郡多度津町三井
7640033,香川県,仲多度郡多度津町,青木,カガワケン,ナカタドグンタドツチョウ,オオギ,香川県仲多度郡多度津町青木
7640034,香川県,仲多度郡多度津町,山階,カガワケン,ナカタドグンタドツチョウ,ヤマシナ,香川県仲多度郡多度津町山階
7640035,香川県,仲多度郡多度津町,奥白方,カガワケン,ナカタドグンタドツチョウ,オクシラカタ,香川県仲多度郡多度津町奥白方
7640036,香川県,仲多度郡多度津町,見立,カガワケン,ナカタドグンタドツチョウ,ミタチ,香川県仲多度郡多度津町見立
7640037,香川県,仲多度郡多度津町,西白方,カガワケン,ナカタドグンタドツチョウ,ニシシラカタ,香川県仲多度郡多度津町西白方
7640038,香川県,仲多度郡多度津町,東白方,カガワケン,ナカタドグンタドツチョウ,ヒガシシラカタ,香川県仲多度郡多度津町東白方
7640040,香川県,仲多度郡多度津町,佐柳,カガワケン,ナカタドグンタドツチョウ,サナギ,香川県仲多度郡多度津町佐柳
7640050,香川県,仲多度郡多度津町,高見,カガワケン,ナカタドグンタドツチョウ,タカミ,香川県仲多度郡多度津町高見
7650000,香川県,善通寺市,,カガワケン,ゼンツウジシ,,香川県善通寺市
7650001,香川県,善通寺市,仙遊町,カガワケン,ゼンツウジシ,センユウチョウ,香川県善通寺市仙遊町
7650002,香川県,善通寺市,南町,カガワケン,ゼンツウジシ,ミナミマチ,香川県善通寺市南町
7650003,香川県,善通寺市,善通寺町（丁目）,カガワケン,ゼンツウジシ,ゼンツウジチョウ(チョウメ),香川県善通寺市善通寺町（丁目）
7650004,香川県,善通寺市,善通寺町（その他）,カガワケン,ゼンツウジシ,ゼンツウジチョウ(ソノタ),香川県善通寺市善通寺町（その他）
7650011,香川県,善通寺市,上吉田町（丁目）,カガワケン,ゼンツウジシ,カミヨシダチョウ(チョウメ),香川県善通寺市上吉田町（丁目）
7650012,香川県,善通寺市,上吉田町（その他）,カガワケン,ゼンツウジシ,カミヨシダチョウ(ソノタ),香川県善通寺市上吉田町（その他）
7650013,香川県,善通寺市,文京町,カガワケン,ゼンツウジシ,ブンキョウチョウ,香川県善通寺市文京町
7650014,香川県,善通寺市,生野本町,カガワケン,ゼンツウジシ,イカノホンマチ,香川県善通寺市生野本町
7650021,香川県,善通寺市,下吉田町,カガワケン,ゼンツウジシ,シモヨシダチョウ,香川県善通寺市下吉田町
7650022,香川県,善通寺市,稲木町,カガワケン,ゼンツウジシ,イナギチョウ,香川県善通寺市稲木町
7650031,香川県,善通寺市,金蔵寺町,カガワケン,ゼンツウジシ,コンゾウジチョウ,香川県善通寺市金蔵寺町
7650032,香川県,善通寺市,原田町,カガワケン,ゼンツウジシ,ハラダチョウ,香川県善通寺市原田町
7650033,香川県,善通寺市,木徳町,カガワケン,ゼンツウジシ,キトクチョウ,香川県善通寺市木徳町
7650040,香川県,善通寺市,与北町,カガワケン,ゼンツウジシ,ヨギタチョウ,香川県善通寺市与北町
7650051,香川県,善通寺市,櫛梨町,カガワケン,ゼンツウジシ,クシナシチョウ,香川県善通寺市櫛梨町
7650052,香川県,善通寺市,大麻町,カガワケン,ゼンツウジシ,オオサチョウ,香川県善通寺市大麻町
7650053,香川県,善通寺市,生野町,カガワケン,ゼンツウジシ,イカノチョウ,香川県善通寺市生野町
7650061,香川県,善通寺市,吉原町,カガワケン,ゼンツウジシ,ヨシワラチョウ,香川県善通寺市吉原町
7650062,香川県,善通寺市,碑殿町,カガワケン,ゼンツウジシ,ヒドノチョウ,香川県善通寺市碑殿町
7650071,香川県,善通寺市,弘田町,カガワケン,ゼンツウジシ,ヒロタチョウ,香川県善通寺市弘田町
7650072,香川県,善通寺市,中村町（丁目）,カガワケン,ゼンツウジシ,ナカムラチョウ(チョウメ),香川県善通寺市中村町（丁目）
7650073,香川県,善通寺市,中村町（その他）,カガワケン,ゼンツウジシ,ナカムラチョウ(ソノタ),香川県善通寺市中村町（その他）
7660000,香川県,仲多度郡まんのう町,,カガワケン,ナカタドグンマンノウチョウ,,香川県仲多度郡まんのう町
7660000,香川県,仲多度郡琴平町,,カガワケン,ナカタドグンコトヒラチョウ,,香川県仲多度郡琴平町
7660001,香川県,仲多度郡琴平町,琴平町の次に４２７番地以降がくる場合（川西）,カガワケン,ナカタドグンコトヒラチョウ,コトヒラチョウノツギニ427バンチイコウガクルバアイ(カワニシ),香川県仲多度郡琴平町琴平町の次に427-以降がくる場合（川西）
7660002,香川県,仲多度郡琴平町,琴平町の次に１〜４２６番地がくる場合（川東）,カガワケン,ナカタドグンコトヒラチョウ,コトヒラチョウノツギニ1-426バンチガクルバアイ(カワヒガシ),香川県仲多度郡琴平町琴平町の次に1〜426-がくる場合（川東）
7660003,香川県,仲多度郡琴平町,五條,カガワケン,ナカタドグンコトヒラチョウ,ゴジョウ,香川県仲多度郡琴平町五條
7660004,香川県,仲多度郡琴平町,榎井,カガワケン,ナカタドグンコトヒラチョウ,エナイ,香川県仲多度郡琴平町榎井
7660005,香川県,仲多度郡琴平町,苗田,カガワケン,ナカタドグンコトヒラチョウ,ノウダ,香川県仲多度郡琴平町苗田
7660006,香川県,仲多度郡琴平町,上櫛梨,カガワケン,ナカタドグンコトヒラチョウ,カミクシナシ,香川県仲多度郡琴平町上櫛梨
7660007,香川県,仲多度郡琴平町,下櫛梨,カガワケン,ナカタドグンコトヒラチョウ,シモクシナシ,香川県仲多度郡琴平町下櫛梨
7660011,香川県,仲多度郡まんのう町,公文,カガワケン,ナカタドグンマンノウチョウ,クモン,香川県仲多度郡まんのう町公文
7660012,香川県,仲多度郡まんのう町,西高篠,カガワケン,ナカタドグンマンノウチョウ,ニシタカシノ,香川県仲多度郡まんのう町西高篠
7660013,香川県,仲多度郡まんのう町,東高篠,カガワケン,ナカタドグンマンノウチョウ,ヒガシタカシノ,香川県仲多度郡まんのう町東高篠
7660014,香川県,仲多度郡まんのう町,羽間,カガワケン,ナカタドグンマンノウチョウ,ハザマ,香川県仲多度郡まんのう町羽間
7660015,香川県,仲多度郡まんのう町,長尾,カガワケン,ナカタドグンマンノウチョウ,ナガオ,香川県仲多度郡まんのう町長尾
7660016,香川県,仲多度郡まんのう町,炭所東,カガワケン,ナカタドグンマンノウチョウ,スミショヒガシ,香川県仲多度郡まんのう町炭所東
7660017,香川県,仲多度郡まんのう町,炭所西,カガワケン,ナカタドグンマンノウチョウ,スミショニシ,香川県仲多度郡まんのう町炭所西
7660021,香川県,仲多度郡まんのう町,四條,カガワケン,ナカタドグンマンノウチョウ,シジョウ,香川県仲多度郡まんのう町四條
7660022,香川県,仲多度郡まんのう町,吉野下,カガワケン,ナカタドグンマンノウチョウ,ヨシノシモ,香川県仲多度郡まんのう町吉野下
7660023,香川県,仲多度郡まんのう町,吉野,カガワケン,ナカタドグンマンノウチョウ,ヨシノ,香川県仲多度郡まんのう町吉野
7660024,香川県,仲多度郡まんのう町,神野,カガワケン,ナカタドグンマンノウチョウ,カンノ,香川県仲多度郡まんのう町神野
7660025,香川県,仲多度郡まんのう町,真野,カガワケン,ナカタドグンマンノウチョウ,マノ,香川県仲多度郡まんのう町真野
7660026,香川県,仲多度郡まんのう町,岸上,カガワケン,ナカタドグンマンノウチョウ,キシノウエ,香川県仲多度郡まんのう町岸上
7660027,香川県,仲多度郡まんのう町,五條,カガワケン,ナカタドグンマンノウチョウ,ゴジョウ,香川県仲多度郡まんのう町五條
7660201,香川県,仲多度郡まんのう町,造田,カガワケン,ナカタドグンマンノウチョウ,ソウダ,香川県仲多度郡まんのう町造田
7660202,香川県,仲多度郡まんのう町,中通,カガワケン,ナカタドグンマンノウチョウ,ナカト,香川県仲多度郡まんのう町中通
7660203,香川県,仲多度郡まんのう町,川東,カガワケン,ナカタドグンマンノウチョウ,カワヒガシ,香川県仲多度郡まんのう町川東
7660204,香川県,仲多度郡まんのう町,勝浦,カガワケン,ナカタドグンマンノウチョウ,カツウラ,香川県仲多度郡まんのう町勝浦
7670000,香川県,三豊市,,カガワケン,ミトヨシ,,香川県三豊市
7670001,香川県,三豊市,高瀬町上高瀬,カガワケン,ミトヨシ,タカセチョウカミタカセ,香川県三豊市高瀬町上高瀬
7670002,香川県,三豊市,高瀬町新名,カガワケン,ミトヨシ,タカセチョウシンミョウ,香川県三豊市高瀬町新名
7670003,香川県,三豊市,高瀬町比地中,カガワケン,ミトヨシ,タカセチョウヒジナカ,香川県三豊市高瀬町比地中
7670004,香川県,三豊市,高瀬町比地,カガワケン,ミトヨシ,タカセチョウヒジ,香川県三豊市高瀬町比地
7670011,香川県,三豊市,高瀬町下勝間,カガワケン,ミトヨシ,タカセチョウシモカツマ,香川県三豊市高瀬町下勝間
7670012,香川県,三豊市,高瀬町上勝間,カガワケン,ミトヨシ,タカセチョウカミカツマ,香川県三豊市高瀬町上勝間
7670013,香川県,三豊市,高瀬町下麻,カガワケン,ミトヨシ,タカセチョウシモアサ,香川県三豊市高瀬町下麻
7670014,香川県,三豊市,高瀬町上麻,カガワケン,ミトヨシ,タカセチョウカミアサ,香川県三豊市高瀬町上麻
7670021,香川県,三豊市,高瀬町佐股,カガワケン,ミトヨシ,タカセチョウサマタ,香川県三豊市高瀬町佐股
7670022,香川県,三豊市,高瀬町羽方,カガワケン,ミトヨシ,タカセチョウハガタ,香川県三豊市高瀬町羽方
7670031,香川県,三豊市,三野町大見,カガワケン,ミトヨシ,ミノチョウオオミ,香川県三豊市三野町大見
7670032,香川県,三豊市,三野町下高瀬,カガワケン,ミトヨシ,ミノチョウシモタカセ,香川県三豊市三野町下高瀬
7670033,香川県,三豊市,三野町吉津,カガワケン,ミトヨシ,ミノチョウヨシヅ,香川県三豊市三野町吉津
7680000,香川県,観音寺市,,カガワケン,カンオンジシ,,香川県観音寺市
7680001,香川県,観音寺市,室本町,カガワケン,カンオンジシ,ムロモトチョウ,香川県観音寺市室本町
7680002,香川県,観音寺市,高屋町,カガワケン,カンオンジシ,タカヤチョウ,香川県観音寺市高屋町
7680011,香川県,観音寺市,出作町,カガワケン,カンオンジシ,シュツサクチョウ,香川県観音寺市出作町
7680012,香川県,観音寺市,植田町,カガワケン,カンオンジシ,ウエダチョウ,香川県観音寺市植田町
7680013,香川県,観音寺市,村黒町,カガワケン,カンオンジシ,ムラグロチョウ,香川県観音寺市村黒町
7680014,香川県,観音寺市,流岡町,カガワケン,カンオンジシ,ナガレオカチョウ,香川県観音寺市流岡町
7680021,香川県,観音寺市,吉岡町,カガワケン,カンオンジシ,ヨシオカチョウ,香川県観音寺市吉岡町
7680022,香川県,観音寺市,本大町,カガワケン,カンオンジシ,モトダイチョウ,香川県観音寺市本大町
7680023,香川県,観音寺市,古川町,カガワケン,カンオンジシ,フルカワチョウ,香川県観音寺市古川町
7680024,香川県,観音寺市,中田井町,カガワケン,カンオンジシ,ナカダイチョウ,香川県観音寺市中田井町
7680031,香川県,観音寺市,池之尻町,カガワケン,カンオンジシ,イケノシリチョウ,香川県観音寺市池之尻町
7680032,香川県,観音寺市,原町,カガワケン,カンオンジシ,ハラチョウ,香川県観音寺市原町
7680033,香川県,観音寺市,新田町,カガワケン,カンオンジシ,シンデンチョウ,香川県観音寺市新田町
7680040,香川県,観音寺市,柞田町,カガワケン,カンオンジシ,クニタチョウ,香川県観音寺市柞田町
7680051,香川県,観音寺市,木之郷町,カガワケン,カンオンジシ,キノゴウチョウ,香川県観音寺市木之郷町
7680052,香川県,観音寺市,粟井町,カガワケン,カンオンジシ,アワイチョウ,香川県観音寺市粟井町
7680060,香川県,観音寺市,観音寺町,カガワケン,カンオンジシ,カンオンジチョウ,香川県観音寺市観音寺町
7680061,香川県,観音寺市,八幡町,カガワケン,カンオンジシ,ヤハタチョウ,香川県観音寺市八幡町
7680062,香川県,観音寺市,有明町,カガワケン,カンオンジシ,アリアケチョウ,香川県観音寺市有明町
7680063,香川県,観音寺市,三本松町,カガワケン,カンオンジシ,サンボンマツチョウ,香川県観音寺市三本松町
7680064,香川県,観音寺市,琴浪町,カガワケン,カンオンジシ,コトナミチョウ,香川県観音寺市琴浪町
7680065,香川県,観音寺市,瀬戸町,カガワケン,カンオンジシ,セトチョウ,香川県観音寺市瀬戸町
7680066,香川県,観音寺市,昭和町,カガワケン,カンオンジシ,ショウワチョウ,香川県観音寺市昭和町
7680067,香川県,観音寺市,坂本町,カガワケン,カンオンジシ,サカモトチョウ,香川県観音寺市坂本町
7680068,香川県,観音寺市,天神町,カガワケン,カンオンジシ,テンジンチョウ,香川県観音寺市天神町
7680069,香川県,観音寺市,茂木町,カガワケン,カンオンジシ,シゲキチョウ,香川県観音寺市茂木町
7680070,香川県,観音寺市,南町,カガワケン,カンオンジシ,ミナミマチ,香川県観音寺市南町
7680071,香川県,観音寺市,伊吹町,カガワケン,カンオンジシ,イブキチョウ,香川県観音寺市伊吹町
7680072,香川県,観音寺市,栄町,カガワケン,カンオンジシ,サカエマチ,香川県観音寺市栄町
7680073,香川県,観音寺市,茂西町,カガワケン,カンオンジシ,シゲニシチョウ,香川県観音寺市茂西町
7680074,香川県,観音寺市,幸町,カガワケン,カンオンジシ,サイワイチョウ,香川県観音寺市幸町
7680075,香川県,観音寺市,西本町,カガワケン,カンオンジシ,ニシホンマチ,香川県観音寺市西本町
7680076,香川県,観音寺市,港町,カガワケン,カンオンジシ,ミナトマチ,香川県観音寺市港町
7680077,香川県,観音寺市,凪瀬町,カガワケン,カンオンジシ,ナギセチョウ,香川県観音寺市凪瀬町
7680101,香川県,三豊市,山本町辻,カガワケン,ミトヨシ,ヤマモトチョウツジ,香川県三豊市山本町辻
7680102,香川県,三豊市,山本町大野,カガワケン,ミトヨシ,ヤマモトチョウオオノ,香川県三豊市山本町大野
7680103,香川県,三豊市,山本町財田西,カガワケン,ミトヨシ,ヤマモトチョウサイタニシ,香川県三豊市山本町財田西
7680104,香川県,三豊市,山本町神田,カガワケン,ミトヨシ,ヤマモトチョウコウダ,香川県三豊市山本町神田
7680105,香川県,三豊市,山本町河内,カガワケン,ミトヨシ,ヤマモトチョウコウチ,香川県三豊市山本町河内
7690101,香川県,高松市,国分寺町新居,カガワケン,タカマツシ,コクブンジチョウニイ,香川県高松市国分寺町新居
7690102,香川県,高松市,国分寺町国分,カガワケン,タカマツシ,コクブンジチョウコクブ,香川県高松市国分寺町国分
7690103,香川県,高松市,国分寺町福家,カガワケン,タカマツシ,コクブンジチョウフケ,香川県高松市国分寺町福家
7690104,香川県,高松市,国分寺町新名,カガワケン,タカマツシ,コクブンジチョウシンミョウ,香川県高松市国分寺町新名
7690105,香川県,高松市,国分寺町柏原,カガワケン,タカマツシ,コクブンジチョウカシハラ,香川県高松市国分寺町柏原
7690200,香川県,綾歌郡宇多津町,,カガワケン,アヤウタグンウタヅチョウ,,香川県綾歌郡宇多津町
7690201,香川県,綾歌郡宇多津町,浜一番丁,カガワケン,アヤウタグンウタヅチョウ,ハマ1バンチョウ,香川県綾歌郡宇多津町浜一番丁
7690202,香川県,綾歌郡宇多津町,浜二番丁,カガワケン,アヤウタグンウタヅチョウ,ハマ2バンチョウ,香川県綾歌郡宇多津町浜二番丁
7690203,香川県,綾歌郡宇多津町,浜三番丁,カガワケン,アヤウタグンウタヅチョウ,ハマ3バンチョウ,香川県綾歌郡宇多津町浜三番丁
7690204,香川県,綾歌郡宇多津町,浜四番丁,カガワケン,アヤウタグンウタヅチョウ,ハマ4バンチョウ,香川県綾歌郡宇多津町浜四番丁
7690205,香川県,綾歌郡宇多津町,浜五番丁,カガワケン,アヤウタグンウタヅチョウ,ハマ5バンチョウ,香川県綾歌郡宇多津町浜五番丁
7690206,香川県,綾歌郡宇多津町,浜六番丁,カガワケン,アヤウタグンウタヅチョウ,ハマ6バンチョウ,香川県綾歌郡宇多津町浜六番丁
7690207,香川県,綾歌郡宇多津町,浜七番丁,カガワケン,アヤウタグンウタヅチョウ,ハマ7バンチョウ,香川県綾歌郡宇多津町浜七番丁
7690208,香川県,綾歌郡宇多津町,浜八番丁,カガワケン,アヤウタグンウタヅチョウ,ハマ8バンチョウ,香川県綾歌郡宇多津町浜八番丁
7690209,香川県,綾歌郡宇多津町,浜九番丁,カガワケン,アヤウタグンウタヅチョウ,ハマ9バンチョウ,香川県綾歌郡宇多津町浜九番丁
7690210,香川県,綾歌郡宇多津町,,カガワケン,アヤウタグンウタヅチョウ,,香川県綾歌郡宇多津町
7690211,香川県,綾歌郡宇多津町,十楽寺,カガワケン,アヤウタグンウタヅチョウ,ジュウラクジ,香川県綾歌郡宇多津町十楽寺
7690212,香川県,綾歌郡宇多津町,沼ノ池,カガワケン,アヤウタグンウタヅチョウ,ヌマノイケ,香川県綾歌郡宇多津町沼ノ池
7690213,香川県,綾歌郡宇多津町,東分,カガワケン,アヤウタグンウタヅチョウ,ヒガシブン,香川県綾歌郡宇多津町東分
7690221,香川県,綾歌郡宇多津町,吉田,カガワケン,アヤウタグンウタヅチョウ,ヨシダ,香川県綾歌郡宇多津町吉田
7690222,香川県,綾歌郡宇多津町,大橋,カガワケン,アヤウタグンウタヅチョウ,オオハシ,香川県綾歌郡宇多津町大橋
7690223,香川県,綾歌郡宇多津町,新開,カガワケン,アヤウタグンウタヅチョウ,シンガイ,香川県綾歌郡宇多津町新開
7690224,香川県,綾歌郡宇多津町,平山,カガワケン,アヤウタグンウタヅチョウ,ヒラヤマ,香川県綾歌郡宇多津町平山
7690225,香川県,綾歌郡宇多津町,新町,カガワケン,アヤウタグンウタヅチョウ,シンマチ,香川県綾歌郡宇多津町新町
7690226,香川県,綾歌郡宇多津町,坂下,カガワケン,アヤウタグンウタヅチョウ,サカシタ,香川県綾歌郡宇多津町坂下
7690227,香川県,綾歌郡宇多津町,岩屋,カガワケン,アヤウタグンウタヅチョウ,イワヤ,香川県綾歌郡宇多津町岩屋
7690228,香川県,綾歌郡宇多津町,向山,カガワケン,アヤウタグンウタヅチョウ,ムカウヤマ,香川県綾歌郡宇多津町向山
7690301,香川県,仲多度郡まんのう町,佐文,カガワケン,ナカタドグンマンノウチョウ,サブミ,香川県仲多度郡まんのう町佐文
7690302,香川県,仲多度郡まんのう町,塩入,カガワケン,ナカタドグンマンノウチョウ,シオイリ,香川県仲多度郡まんのう町塩入
7690303,香川県,仲多度郡まんのう町,七箇,カガワケン,ナカタドグンマンノウチョウ,シチカ,香川県仲多度郡まんのう町七箇
7690311,香川県,仲多度郡まんのう町,買田,カガワケン,ナカタドグンマンノウチョウ,カイタ,香川県仲多度郡まんのう町買田
7690312,香川県,仲多度郡まんのう町,宮田,カガワケン,ナカタドグンマンノウチョウ,ミヤダ,香川県仲多度郡まんのう町宮田
7690313,香川県,仲多度郡まんのう町,生間,カガワケン,ナカタドグンマンノウチョウ,イカマ,香川県仲多度郡まんのう町生間
7690314,香川県,仲多度郡まんのう町,帆山,カガワケン,ナカタドグンマンノウチョウ,ホノヤマ,香川県仲多度郡まんのう町帆山
7690315,香川県,仲多度郡まんのう町,後山,カガワケン,ナカタドグンマンノウチョウ,ウシロヤマ,香川県仲多度郡まんのう町後山
7690316,香川県,仲多度郡まんのう町,大口,カガワケン,ナカタドグンマンノウチョウ,オオクチ,香川県仲多度郡まんのう町大口
7690317,香川県,仲多度郡まんのう町,新目,カガワケン,ナカタドグンマンノウチョウ,シンメ,香川県仲多度郡まんのう町新目
7690318,香川県,仲多度郡まんのう町,山脇,カガワケン,ナカタドグンマンノウチョウ,ヤマワキ,香川県仲多度郡まんのう町山脇
7690319,香川県,仲多度郡まんのう町,追上,カガワケン,ナカタドグンマンノウチョウ,オイアゲ,香川県仲多度郡まんのう町追上
7690401,香川県,三豊市,財田町財田上,カガワケン,ミトヨシ,サイタチョウサイタカミ,香川県三豊市財田町財田上
7690402,香川県,三豊市,財田町財田中,カガワケン,ミトヨシ,サイタチョウサイタナカ,香川県三豊市財田町財田中
7691101,香川県,三豊市,詫間町詫間,カガワケン,ミトヨシ,タクマチョウタクマ,香川県三豊市詫間町詫間
7691102,香川県,三豊市,詫間町松崎,カガワケン,ミトヨシ,タクマチョウマツサキ,香川県三豊市詫間町松崎
7691103,香川県,三豊市,詫間町香田,カガワケン,ミトヨシ,タクマチョウコウダ,香川県三豊市詫間町香田
7691104,香川県,三豊市,詫間町大浜,カガワケン,ミトヨシ,タクマチョウオオハマ,香川県三豊市詫間町大浜
7691105,香川県,三豊市,詫間町積,カガワケン,ミトヨシ,タクマチョウツム,香川県三豊市詫間町積
7691106,香川県,三豊市,詫間町箱,カガワケン,ミトヨシ,タクマチョウハコ,香川県三豊市詫間町箱
7691107,香川県,三豊市,詫間町生里,カガワケン,ミトヨシ,タクマチョウナマリ,香川県三豊市詫間町生里
7691108,香川県,三豊市,詫間町粟島,カガワケン,ミトヨシ,タクマチョウアワシマ,香川県三豊市詫間町粟島
7691109,香川県,三豊市,詫間町志々島,カガワケン,ミトヨシ,タクマチョウシシジマ,香川県三豊市詫間町志々島
7691401,香川県,三豊市,仁尾町仁尾己,カガワケン,ミトヨシ,ニオチョウニオキ,香川県三豊市仁尾町仁尾己
7691402,香川県,三豊市,仁尾町仁尾戊,カガワケン,ミトヨシ,ニオチョウニオボ,香川県三豊市仁尾町仁尾戊
7691403,香川県,三豊市,仁尾町仁尾丙,カガワケン,ミトヨシ,ニオチョウニオヘイ,香川県三豊市仁尾町仁尾丙
7691404,香川県,三豊市,仁尾町仁尾乙,カガワケン,ミトヨシ,ニオチョウニオオツ,香川県三豊市仁尾町仁尾乙
7691405,香川県,三豊市,仁尾町仁尾庚,カガワケン,ミトヨシ,ニオチョウニオコウ,香川県三豊市仁尾町仁尾庚
7691406,香川県,三豊市,仁尾町仁尾辛,カガワケン,ミトヨシ,ニオチョウニオシン,香川県三豊市仁尾町仁尾辛
7691407,香川県,三豊市,仁尾町仁尾丁,カガワケン,ミトヨシ,ニオチョウニオテイ,香川県三豊市仁尾町仁尾丁
7691408,香川県,三豊市,仁尾町仁尾甲,カガワケン,ミトヨシ,ニオチョウニオコウ,香川県三豊市仁尾町仁尾甲
7691410,香川県,三豊市,仁尾町家の浦,カガワケン,ミトヨシ,ニオチョウイエノウラ,香川県三豊市仁尾町家の浦
7691501,香川県,三豊市,豊中町比地大,カガワケン,ミトヨシ,トヨナカチョウヒジダイ,香川県三豊市豊中町比地大
7691502,香川県,三豊市,豊中町笠田笠岡,カガワケン,ミトヨシ,トヨナカチョウカサダカサオカ,香川県三豊市豊中町笠田笠岡
7691503,香川県,三豊市,豊中町笠田竹田,カガワケン,ミトヨシ,トヨナカチョウカサダタケダ,香川県三豊市豊中町笠田竹田
7691504,香川県,三豊市,豊中町上高野,カガワケン,ミトヨシ,トヨナカチョウカミダカノ,香川県三豊市豊中町上高野
7691505,香川県,三豊市,豊中町本山乙,カガワケン,ミトヨシ,トヨナカチョウモトヤマオツ,香川県三豊市豊中町本山乙
7691506,香川県,三豊市,豊中町本山甲,カガワケン,ミトヨシ,トヨナカチョウモトヤマコウ,香川県三豊市豊中町本山甲
7691507,香川県,三豊市,豊中町岡本,カガワケン,ミトヨシ,トヨナカチョウオカモト,香川県三豊市豊中町岡本
7691508,香川県,三豊市,豊中町下高野,カガワケン,ミトヨシ,トヨナカチョウシモダカノ,香川県三豊市豊中町下高野
7691601,香川県,観音寺市,豊浜町姫浜,カガワケン,カンオンジシ,トヨハマチョウヒメハマ,香川県観音寺市豊浜町姫浜
7691602,香川県,観音寺市,豊浜町和田浜,カガワケン,カンオンジシ,トヨハマチョウワダハマ,香川県観音寺市豊浜町和田浜
7691603,香川県,観音寺市,豊浜町和田,カガワケン,カンオンジシ,トヨハマチョウワダ,香川県観音寺市豊浜町和田
7691604,香川県,観音寺市,豊浜町箕浦,カガワケン,カンオンジシ,トヨハマチョウミノウラ,香川県観音寺市豊浜町箕浦
7691611,香川県,観音寺市,大野原町大野原,カガワケン,カンオンジシ,オオノハラチョウオオノハラ,香川県観音寺市大野原町大野原
7691612,香川県,観音寺市,大野原町中姫,カガワケン,カンオンジシ,オオノハラチョウナカヒメ,香川県観音寺市大野原町中姫
7691613,香川県,観音寺市,大野原町花稲,カガワケン,カンオンジシ,オオノハラチョウハナイナ,香川県観音寺市大野原町花稲
7691614,香川県,観音寺市,大野原町萩原,カガワケン,カンオンジシ,オオノハラチョウハギワラ,香川県観音寺市大野原町萩原
7691615,香川県,観音寺市,大野原町丸井,カガワケン,カンオンジシ,オオノハラチョウマルイ,香川県観音寺市大野原町丸井
7691616,香川県,観音寺市,大野原町福田原,カガワケン,カンオンジシ,オオノハラチョウフクダハラ,香川県観音寺市大野原町福田原
7691617,香川県,観音寺市,大野原町青岡,カガワケン,カンオンジシ,オオノハラチョウアオオカ,香川県観音寺市大野原町青岡
7691621,香川県,観音寺市,大野原町井関,カガワケン,カンオンジシ,オオノハラチョウイセキ,香川県観音寺市大野原町井関
7691622,香川県,観音寺市,大野原町内野々,カガワケン,カンオンジシ,オオノハラチョウウチノノ,香川県観音寺市大野原町内野々
7691623,香川県,観音寺市,大野原町田野々,カガワケン,カンオンジシ,オオノハラチョウタノノ,香川県観音寺市大野原町田野々
7691624,香川県,観音寺市,大野原町有木,カガワケン,カンオンジシ,オオノハラチョウアリキ,香川県観音寺市大野原町有木
7691625,香川県,観音寺市,大野原町海老済,カガワケン,カンオンジシ,オオノハラチョウエビスクイ,香川県観音寺市大野原町海老済
7692101,香川県,さぬき市,志度,カガワケン,サヌキシ,シド,香川県さぬき市志度
7692102,香川県,さぬき市,鴨庄,カガワケン,サヌキシ,カモショウ,香川県さぬき市鴨庄
7692103,香川県,さぬき市,小田,カガワケン,サヌキシ,オダ,香川県さぬき市小田
7692104,香川県,さぬき市,鴨部,カガワケン,サヌキシ,カベ,香川県さぬき市鴨部
7692105,香川県,さぬき市,末,カガワケン,サヌキシ,スエ,香川県さぬき市末
7692300,香川県,さぬき市,,カガワケン,サヌキシ,,香川県さぬき市
7692301,香川県,さぬき市,長尾東,カガワケン,サヌキシ,ナガオヒガシ,香川県さぬき市長尾東
7692302,香川県,さぬき市,長尾西,カガワケン,サヌキシ,ナガオニシ,香川県さぬき市長尾西
7692303,香川県,さぬき市,長尾名,カガワケン,サヌキシ,ナガオミョウ,香川県さぬき市長尾名
7692304,香川県,さぬき市,昭和,カガワケン,サヌキシ,ショウワ,香川県さぬき市昭和
7692305,香川県,さぬき市,前山,カガワケン,サヌキシ,マエヤマ,香川県さぬき市前山
7692306,香川県,さぬき市,多和,カガワケン,サヌキシ,タワ,香川県さぬき市多和
7692311,香川県,さぬき市,造田宮西,カガワケン,サヌキシ,ゾウタミヤニシ,香川県さぬき市造田宮西
7692312,香川県,さぬき市,造田是弘,カガワケン,サヌキシ,ゾウタコレヒロ,香川県さぬき市造田是弘
7692313,香川県,さぬき市,造田野間田,カガワケン,サヌキシ,ゾウタノマダ,香川県さぬき市造田野間田
7692314,香川県,さぬき市,造田乙井,カガワケン,サヌキシ,ゾウタオトイ,香川県さぬき市造田乙井
7692315,香川県,さぬき市,造田（オレンジタウン）,カガワケン,サヌキシ,ゾウタ(オレンジタウン),香川県さぬき市造田（オレンジタウン）
7692321,香川県,さぬき市,寒川町石田東,カガワケン,サヌキシ,サンガワマチイシダヒガシ,香川県さぬき市寒川町石田東
7692322,香川県,さぬき市,寒川町石田西,カガワケン,サヌキシ,サンガワマチイシダニシ,香川県さぬき市寒川町石田西
7692323,香川県,さぬき市,寒川町神前,カガワケン,サヌキシ,サンガワマチカンザキ,香川県さぬき市寒川町神前
7692401,香川県,さぬき市,津田町津田,カガワケン,サヌキシ,ツダマチツダ,香川県さぬき市津田町津田
7692402,香川県,さぬき市,津田町鶴羽,カガワケン,サヌキシ,ツダマチツルワ,香川県さぬき市津田町鶴羽
7692511,香川県,東かがわ市,小磯,カガワケン,ヒガシカガワシ,コイソ,香川県東かがわ市小磯
7692512,香川県,東かがわ市,落合,カガワケン,ヒガシカガワシ,オチアイ,香川県東かがわ市落合
7692513,香川県,東かがわ市,大谷,カガワケン,ヒガシカガワシ,オオタニ,香川県東かがわ市大谷
7692514,香川県,東かがわ市,松崎,カガワケン,ヒガシカガワシ,マツサキ,香川県東かがわ市松崎
7692515,香川県,東かがわ市,町田,カガワケン,ヒガシカガワシ,マチダ,香川県東かがわ市町田
7692516,香川県,東かがわ市,土居,カガワケン,ヒガシカガワシ,ドイ,香川県東かがわ市土居
7692517,香川県,東かがわ市,三殿,カガワケン,ヒガシカガワシ,ミドノ,香川県東かがわ市三殿
7692518,香川県,東かがわ市,中山,カガワケン,ヒガシカガワシ,ナカヤマ,香川県東かがわ市中山
7692519,香川県,東かがわ市,小砂,カガワケン,ヒガシカガワシ,コザレ,香川県東かがわ市小砂
7692520,香川県,東かがわ市,馬篠,カガワケン,ヒガシカガワシ,ウマシノ,香川県東かがわ市馬篠
7692521,香川県,東かがわ市,大内,カガワケン,ヒガシカガワシ,オオチ,香川県東かがわ市大内
7692601,香川県,東かがわ市,三本松,カガワケン,ヒガシカガワシ,サンボンマツ,香川県東かがわ市三本松
7692602,香川県,東かがわ市,川東,カガワケン,ヒガシカガワシ,カワヒガシ,香川県東かがわ市川東
7692603,香川県,東かがわ市,横内,カガワケン,ヒガシカガワシ,ヨコウチ,香川県東かがわ市横内
7692604,香川県,東かがわ市,西村,カガワケン,ヒガシカガワシ,ニシムラ,香川県東かがわ市西村
7692605,香川県,東かがわ市,中筋,カガワケン,ヒガシカガワシ,ナカスジ,香川県東かがわ市中筋
7692606,香川県,東かがわ市,水主,カガワケン,ヒガシカガワシ,ミズシ,香川県東かがわ市水主
7692700,香川県,東かがわ市,,カガワケン,ヒガシカガワシ,,香川県東かがわ市
7692701,香川県,東かがわ市,湊,カガワケン,ヒガシカガワシ,ミナト,香川県東かがわ市湊
7692702,香川県,東かがわ市,松原,カガワケン,ヒガシカガワシ,マツバラ,香川県東かがわ市松原
7692703,香川県,東かがわ市,伊座,カガワケン,ヒガシカガワシ,イザ,香川県東かがわ市伊座
7692704,香川県,東かがわ市,帰来,カガワケン,ヒガシカガワシ,キライ,香川県東かがわ市帰来
7692705,香川県,東かがわ市,白鳥,カガワケン,ヒガシカガワシ,シロトリ,香川県東かがわ市白鳥
7692711,香川県,東かがわ市,東山,カガワケン,ヒガシカガワシ,ヒガシヤマ,香川県東かがわ市東山
7692712,香川県,東かがわ市,西山,カガワケン,ヒガシカガワシ,ニシヤマ,香川県東かがわ市西山
7692713,香川県,東かがわ市,与田山,カガワケン,ヒガシカガワシ,ヨダヤマ,香川県東かがわ市与田山
7692714,香川県,東かがわ市,入野山,カガワケン,ヒガシカガワシ,ニュウノヤマ,香川県東かがわ市入野山
7692715,香川県,東かがわ市,五名,カガワケン,ヒガシカガワシ,ゴミョウ,香川県東かがわ市五名
7692901,香川県,東かがわ市,引田,カガワケン,ヒガシカガワシ,ヒケタ,香川県東かがわ市引田
7692902,香川県,東かがわ市,馬宿,カガワケン,ヒガシカガワシ,ウマヤド,香川県東かがわ市馬宿
7692903,香川県,東かがわ市,南野,カガワケン,ヒガシカガワシ,ミナミノ,香川県東かがわ市南野
7692904,香川県,東かがわ市,坂元,カガワケン,ヒガシカガワシ,サカモト,香川県東かがわ市坂元
7692905,香川県,東かがわ市,黒羽,カガワケン,ヒガシカガワシ,クレハ,香川県東かがわ市黒羽
7692906,香川県,東かがわ市,川股,カガワケン,ヒガシカガワシ,カワマタ,香川県東かがわ市川股
7692907,香川県,東かがわ市,吉田,カガワケン,ヒガシカガワシ,ヨシダ,香川県東かがわ市吉田
7692908,香川県,東かがわ市,小海,カガワケン,ヒガシカガワシ,オウミ,香川県東かがわ市小海
