zipcode,prefecture_name,city,town,prefecture_kana,city_kana,town_kana,normalized_address
7900001,愛媛県,松山市,一番町,エヒメケン,マツヤマシ,イチバンチョウ,愛媛県松山市一番町
7900002,愛媛県,松山市,二番町,エヒメケン,マツヤマシ,ニバンチョウ,愛媛県松山市二番町
7900003,愛媛県,松山市,三番町,エヒメケン,マツヤマシ,サンバンチョウ,愛媛県松山市三番町
7900004,愛媛県,松山市,大街道,エヒメケン,マツヤマシ,オオカイドウ,愛媛県松山市大街道
7900005,愛媛県,松山市,花園町,エヒメケン,マツヤマシ,ハナゾノマチ,愛媛県松山市花園町
7900006,愛媛県,松山市,南堀端町,エヒメケン,マツヤマシ,ミナミホリバタチョウ,愛媛県松山市南堀端町
7900007,愛媛県,松山市,堀之内,エヒメケン,マツヤマシ,ホリノウチ,愛媛県松山市堀之内
7900008,愛媛県,松山市,丸之内,エヒメケン,マツヤマシ,マルノウチ,愛媛県松山市丸之内
7900011,愛媛県,松山市,千舟町,エヒメケン,マツヤマシ,チフネマチ,愛媛県松山市千舟町
7900012,愛媛県,松山市,湊町,エヒメケン,マツヤマシ,ミナトマチ,愛媛県松山市湊町
7900013,愛媛県,松山市,河原町,エヒメケン,マツヤマシ,カワラマチ,愛媛県松山市河原町
7900014,愛媛県,松山市,柳井町,エヒメケン,マツヤマシ,ヤナイマチ,愛媛県松山市柳井町
7900021,愛媛県,松山市,真砂町,エヒメケン,マツヤマシ,マサゴチョウ,愛媛県松山市真砂町
7900022,愛媛県,松山市,永代町,エヒメケン,マツヤマシ,エイダイマチ,愛媛県松山市永代町
7900023,愛媛県,松山市,末広町,エヒメケン,マツヤマシ,スエヒロマチ,愛媛県松山市末広町
7900024,愛媛県,松山市,春日町,エヒメケン,マツヤマシ,カスガマチ,愛媛県松山市春日町
7900025,愛媛県,松山市,泉町,エヒメケン,マツヤマシ,イズミマチ,愛媛県松山市泉町
7900026,愛媛県,松山市,室町,エヒメケン,マツヤマシ,ムロマチ,愛媛県松山市室町
7900031,愛媛県,松山市,雄郡,エヒメケン,マツヤマシ,ユウグン,愛媛県松山市雄郡
7900032,愛媛県,松山市,土橋町,エヒメケン,マツヤマシ,ドバシマチ,愛媛県松山市土橋町
7900033,愛媛県,松山市,北藤原町,エヒメケン,マツヤマシ,キタフジワラマチ,愛媛県松山市北藤原町
7900034,愛媛県,松山市,藤原町,エヒメケン,マツヤマシ,フジワラマチ,愛媛県松山市藤原町
7900035,愛媛県,松山市,藤原,エヒメケン,マツヤマシ,フジワラ,愛媛県松山市藤原
7900036,愛媛県,松山市,小栗,エヒメケン,マツヤマシ,オグリ,愛媛県松山市小栗
7900037,愛媛県,松山市,小栗町,エヒメケン,マツヤマシ,オグリマチ,愛媛県松山市小栗町
7900038,愛媛県,松山市,和泉北,エヒメケン,マツヤマシ,イズミキタ,愛媛県松山市和泉北
7900041,愛媛県,松山市,保免上,エヒメケン,マツヤマシ,ホウメンカミ,愛媛県松山市保免上
7900042,愛媛県,松山市,保免中,エヒメケン,マツヤマシ,ホウメンナカ,愛媛県松山市保免中
7900043,愛媛県,松山市,保免西,エヒメケン,マツヤマシ,ホウメンニシ,愛媛県松山市保免西
7900044,愛媛県,松山市,余戸東,エヒメケン,マツヤマシ,ヨウゴヒガシ,愛媛県松山市余戸東
7900045,愛媛県,松山市,余戸中,エヒメケン,マツヤマシ,ヨウゴナカ,愛媛県松山市余戸中
7900046,愛媛県,松山市,余戸西,エヒメケン,マツヤマシ,ヨウゴニシ,愛媛県松山市余戸西
7900047,愛媛県,松山市,余戸南,エヒメケン,マツヤマシ,ヨウゴミナミ,愛媛県松山市余戸南
7900048,愛媛県,松山市,出合,エヒメケン,マツヤマシ,デアイ,愛媛県松山市出合
7900051,愛媛県,松山市,生石町,エヒメケン,マツヤマシ,イクシマチ,愛媛県松山市生石町
7900052,愛媛県,松山市,竹原町,エヒメケン,マツヤマシ,タケワラマチ,愛媛県松山市竹原町
7900053,愛媛県,松山市,竹原,エヒメケン,マツヤマシ,タケワラ,愛媛県松山市竹原
7900054,愛媛県,松山市,空港通（１、２丁目）,エヒメケン,マツヤマシ,クウコウドオリ(1、2チョウメ),愛媛県松山市空港通（1、2-）
7900055,愛媛県,松山市,針田町,エヒメケン,マツヤマシ,ハリタマチ,愛媛県松山市針田町
7900056,愛媛県,松山市,土居田町,エヒメケン,マツヤマシ,ドイダマチ,愛媛県松山市土居田町
7900061,愛媛県,松山市,南江戸町,エヒメケン,マツヤマシ,ミナミエドマチ,愛媛県松山市南江戸町
7900062,愛媛県,松山市,南江戸,エヒメケン,マツヤマシ,ミナミエド,愛媛県松山市南江戸
7900063,愛媛県,松山市,辻町,エヒメケン,マツヤマシ,ツジマチ,愛媛県松山市辻町
7900064,愛媛県,松山市,愛光町,エヒメケン,マツヤマシ,アイコウチョウ,愛媛県松山市愛光町
7900065,愛媛県,松山市,宮西,エヒメケン,マツヤマシ,ミヤニシ,愛媛県松山市宮西
7900066,愛媛県,松山市,宮田町,エヒメケン,マツヤマシ,ミヤタマチ,愛媛県松山市宮田町
7900067,愛媛県,松山市,大手町,エヒメケン,マツヤマシ,オオテマチ,愛媛県松山市大手町
7900801,愛媛県,松山市,歩行町,エヒメケン,マツヤマシ,カチマチ,愛媛県松山市歩行町
7900802,愛媛県,松山市,喜与町,エヒメケン,マツヤマシ,キヨマチ,愛媛県松山市喜与町
7900803,愛媛県,松山市,東雲町,エヒメケン,マツヤマシ,シノノメチョウ,愛媛県松山市東雲町
7900804,愛媛県,松山市,中一万町,エヒメケン,マツヤマシ,ナカイチマンマチ,愛媛県松山市中一万町
7900805,愛媛県,松山市,西一万町,エヒメケン,マツヤマシ,ニシイチマンマチ,愛媛県松山市西一万町
7900806,愛媛県,松山市,緑町,エヒメケン,マツヤマシ,ミドリマチ,愛媛県松山市緑町
7900807,愛媛県,松山市,平和通,エヒメケン,マツヤマシ,ヘイワドオリ,愛媛県松山市平和通
7900808,愛媛県,松山市,若草町,エヒメケン,マツヤマシ,ワカクサチョウ,愛媛県松山市若草町
7900811,愛媛県,松山市,本町,エヒメケン,マツヤマシ,ホンマチ,愛媛県松山市本町
7900812,愛媛県,松山市,松前町,エヒメケン,マツヤマシ,マサキマチ,愛媛県松山市松前町
7900813,愛媛県,松山市,萱町,エヒメケン,マツヤマシ,カヤマチ,愛媛県松山市萱町
7900814,愛媛県,松山市,味酒町,エヒメケン,マツヤマシ,ミサケマチ,愛媛県松山市味酒町
7900821,愛媛県,松山市,木屋町,エヒメケン,マツヤマシ,キヤチョウ,愛媛県松山市木屋町
7900822,愛媛県,松山市,高砂町,エヒメケン,マツヤマシ,タカサゴマチ,愛媛県松山市高砂町
7900823,愛媛県,松山市,清水町,エヒメケン,マツヤマシ,シミズマチ,愛媛県松山市清水町
7900824,愛媛県,松山市,御幸,エヒメケン,マツヤマシ,ミユキ,愛媛県松山市御幸
7900825,愛媛県,松山市,道後樋又,エヒメケン,マツヤマシ,ドウゴヒマタ,愛媛県松山市道後樋又
7900826,愛媛県,松山市,文京町,エヒメケン,マツヤマシ,ブンキョウチョウ,愛媛県松山市文京町
7900827,愛媛県,松山市,鉄砲町,エヒメケン,マツヤマシ,テッポウチョウ,愛媛県松山市鉄砲町
7900831,愛媛県,松山市,山田町,エヒメケン,マツヤマシ,ヤマダチョウ,愛媛県松山市山田町
7900832,愛媛県,松山市,祝谷西町,エヒメケン,マツヤマシ,イワイダニニシマチ,愛媛県松山市祝谷西町
7900833,愛媛県,松山市,祝谷,エヒメケン,マツヤマシ,イワイダニ,愛媛県松山市祝谷
7900834,愛媛県,松山市,祝谷町,エヒメケン,マツヤマシ,イワイダニマチ,愛媛県松山市祝谷町
7900835,愛媛県,松山市,祝谷東町,エヒメケン,マツヤマシ,イワイダニヒガシマチ,愛媛県松山市祝谷東町
7900836,愛媛県,松山市,道後鷺谷町,エヒメケン,マツヤマシ,ドウゴサギダニチョウ,愛媛県松山市道後鷺谷町
7900837,愛媛県,松山市,道後湯月町,エヒメケン,マツヤマシ,ドウゴユヅキチョウ,愛媛県松山市道後湯月町
7900838,愛媛県,松山市,桜谷町,エヒメケン,マツヤマシ,サクラダニチョウ,愛媛県松山市桜谷町
7900841,愛媛県,松山市,道後多幸町,エヒメケン,マツヤマシ,ドウゴタコウチョウ,愛媛県松山市道後多幸町
7900842,愛媛県,松山市,道後湯之町,エヒメケン,マツヤマシ,ドウゴユノマチ,愛媛県松山市道後湯之町
7900843,愛媛県,松山市,道後町（１、２丁目）,エヒメケン,マツヤマシ,ドウゴマチ(1、2チョウメ),愛媛県松山市道後町（1、2-）
7900844,愛媛県,松山市,道後一万,エヒメケン,マツヤマシ,ドウゴイチマン,愛媛県松山市道後一万
7900845,愛媛県,松山市,道後今市,エヒメケン,マツヤマシ,ドウゴイマイチ,愛媛県松山市道後今市
7900846,愛媛県,松山市,道後北代,エヒメケン,マツヤマシ,ドウゴキタシロ,愛媛県松山市道後北代
7900847,愛媛県,松山市,道後緑台,エヒメケン,マツヤマシ,ドウゴミドリダイ,愛媛県松山市道後緑台
7900848,愛媛県,松山市,道後喜多町,エヒメケン,マツヤマシ,ドウゴキタマチ,愛媛県松山市道後喜多町
7900851,愛媛県,松山市,常光寺町,エヒメケン,マツヤマシ,ジョウコウジチョウ,愛媛県松山市常光寺町
7900852,愛媛県,松山市,石手,エヒメケン,マツヤマシ,イシテ,愛媛県松山市石手
7900853,愛媛県,松山市,上市,エヒメケン,マツヤマシ,カミイチ,愛媛県松山市上市
7900854,愛媛県,松山市,岩崎町,エヒメケン,マツヤマシ,イワサキマチ,愛媛県松山市岩崎町
7900855,愛媛県,松山市,持田町,エヒメケン,マツヤマシ,モチダマチ,愛媛県松山市持田町
7900856,愛媛県,松山市,南町,エヒメケン,マツヤマシ,ミナミマチ,愛媛県松山市南町
7900857,愛媛県,松山市,道後公園,エヒメケン,マツヤマシ,ドウゴコウエン,愛媛県松山市道後公園
7900858,愛媛県,松山市,道後姫塚,エヒメケン,マツヤマシ,ドウゴヒメヅカ,愛媛県松山市道後姫塚
7900861,愛媛県,松山市,紅葉町,エヒメケン,マツヤマシ,モミジマチ,愛媛県松山市紅葉町
7900862,愛媛県,松山市,湯渡町,エヒメケン,マツヤマシ,ユワタリマチ,愛媛県松山市湯渡町
7900863,愛媛県,松山市,此花町,エヒメケン,マツヤマシ,コノハナマチ,愛媛県松山市此花町
7900864,愛媛県,松山市,築山町,エヒメケン,マツヤマシ,ツキヤマチョウ,愛媛県松山市築山町
7900865,愛媛県,松山市,新立町,エヒメケン,マツヤマシ,シンダテマチ,愛媛県松山市新立町
7900866,愛媛県,松山市,永木町,エヒメケン,マツヤマシ,ナガキマチ,愛媛県松山市永木町
7900867,愛媛県,松山市,北立花町,エヒメケン,マツヤマシ,キタタチバナマチ,愛媛県松山市北立花町
7900871,愛媛県,松山市,東一万町,エヒメケン,マツヤマシ,ヒガシイチマンマチ,愛媛県松山市東一万町
7900872,愛媛県,松山市,昭和町,エヒメケン,マツヤマシ,ショウワマチ,愛媛県松山市昭和町
7900873,愛媛県,松山市,北持田町,エヒメケン,マツヤマシ,キタモチダマチ,愛媛県松山市北持田町
7900874,愛媛県,松山市,南持田町,エヒメケン,マツヤマシ,ミナミモチダマチ,愛媛県松山市南持田町
7900875,愛媛県,松山市,御宝町,エヒメケン,マツヤマシ,ミタカラマチ,愛媛県松山市御宝町
7900876,愛媛県,松山市,旭町,エヒメケン,マツヤマシ,アサヒマチ,愛媛県松山市旭町
7900877,愛媛県,松山市,錦町,エヒメケン,マツヤマシ,ニシキマチ,愛媛県松山市錦町
7900878,愛媛県,松山市,勝山町,エヒメケン,マツヤマシ,カツヤマチョウ,愛媛県松山市勝山町
7900901,愛媛県,松山市,新石手,エヒメケン,マツヤマシ,シンイシテ,愛媛県松山市新石手
7900902,愛媛県,松山市,石手白石,エヒメケン,マツヤマシ,イシテシライシ,愛媛県松山市石手白石
7900903,愛媛県,松山市,東野,エヒメケン,マツヤマシ,ヒガシノ,愛媛県松山市東野
7900904,愛媛県,松山市,正円寺,エヒメケン,マツヤマシ,ショウエンジ,愛媛県松山市正円寺
7900905,愛媛県,松山市,樽味,エヒメケン,マツヤマシ,タルミ,愛媛県松山市樽味
7900911,愛媛県,松山市,桑原,エヒメケン,マツヤマシ,クワバラ,愛媛県松山市桑原
7900912,愛媛県,松山市,畑寺町,エヒメケン,マツヤマシ,ハタデラマチ,愛媛県松山市畑寺町
7900913,愛媛県,松山市,畑寺,エヒメケン,マツヤマシ,ハタデラ,愛媛県松山市畑寺
7900914,愛媛県,松山市,三町,エヒメケン,マツヤマシ,サンチョウ,愛媛県松山市三町
7900915,愛媛県,松山市,松末,エヒメケン,マツヤマシ,マツスエ,愛媛県松山市松末
7900916,愛媛県,松山市,束本,エヒメケン,マツヤマシ,ツカモト,愛媛県松山市束本
7900921,愛媛県,松山市,福音寺町,エヒメケン,マツヤマシ,フクオンジマチ,愛媛県松山市福音寺町
7900922,愛媛県,松山市,星岡,エヒメケン,マツヤマシ,ホシオカ,愛媛県松山市星岡
7900922,愛媛県,松山市,星岡町,エヒメケン,マツヤマシ,ホシオカマチ,愛媛県松山市星岡町
7900923,愛媛県,松山市,北久米町,エヒメケン,マツヤマシ,キタクメマチ,愛媛県松山市北久米町
7900924,愛媛県,松山市,南久米町,エヒメケン,マツヤマシ,ミナミクメマチ,愛媛県松山市南久米町
7900925,愛媛県,松山市,鷹子町,エヒメケン,マツヤマシ,タカノコマチ,愛媛県松山市鷹子町
7900931,愛媛県,松山市,西石井,エヒメケン,マツヤマシ,ニシイシイ,愛媛県松山市西石井
7900932,愛媛県,松山市,東石井,エヒメケン,マツヤマシ,ヒガシイシイ,愛媛県松山市東石井
7900933,愛媛県,松山市,越智,エヒメケン,マツヤマシ,オチ,愛媛県松山市越智
7900934,愛媛県,松山市,居相,エヒメケン,マツヤマシ,イアイ,愛媛県松山市居相
7900941,愛媛県,松山市,和泉南,エヒメケン,マツヤマシ,イズミミナミ,愛媛県松山市和泉南
7900942,愛媛県,松山市,古川北,エヒメケン,マツヤマシ,フルカワキタ,愛媛県松山市古川北
7900943,愛媛県,松山市,古川南,エヒメケン,マツヤマシ,フルカワミナミ,愛媛県松山市古川南
7900944,愛媛県,松山市,古川西,エヒメケン,マツヤマシ,フルカワニシ,愛媛県松山市古川西
7900945,愛媛県,松山市,古川町,エヒメケン,マツヤマシ,フルカワマチ,愛媛県松山市古川町
7900946,愛媛県,松山市,市坪北,エヒメケン,マツヤマシ,イチツボキタ,愛媛県松山市市坪北
7900947,愛媛県,松山市,市坪南,エヒメケン,マツヤマシ,イチツボミナミ,愛媛県松山市市坪南
7900948,愛媛県,松山市,市坪西町,エヒメケン,マツヤマシ,イチツボニシマチ,愛媛県松山市市坪西町
7900951,愛媛県,松山市,天山,エヒメケン,マツヤマシ,アマヤマ,愛媛県松山市天山
7900951,愛媛県,松山市,天山町,エヒメケン,マツヤマシ,アマヤママチ,愛媛県松山市天山町
7900952,愛媛県,松山市,朝生田町,エヒメケン,マツヤマシ,アソダマチ,愛媛県松山市朝生田町
7900961,愛媛県,松山市,日の出町,エヒメケン,マツヤマシ,ヒノデマチ,愛媛県松山市日の出町
7900962,愛媛県,松山市,枝松,エヒメケン,マツヤマシ,エダマツ,愛媛県松山市枝松
7900963,愛媛県,松山市,小坂,エヒメケン,マツヤマシ,コサカ,愛媛県松山市小坂
7900964,愛媛県,松山市,中村,エヒメケン,マツヤマシ,ナカムラ,愛媛県松山市中村
7900965,愛媛県,松山市,祇園町,エヒメケン,マツヤマシ,ギオンマチ,愛媛県松山市祇園町
7900966,愛媛県,松山市,立花,エヒメケン,マツヤマシ,タチバナ,愛媛県松山市立花
7900967,愛媛県,松山市,拓川町,エヒメケン,マツヤマシ,タクセンチョウ,愛媛県松山市拓川町
7902641,愛媛県,松山市,柳谷町,エヒメケン,マツヤマシ,ヤナイダニマチ,愛媛県松山市柳谷町
7902642,愛媛県,松山市,恩地町,エヒメケン,マツヤマシ,オンジマチ,愛媛県松山市恩地町
7902643,愛媛県,松山市,梅木町,エヒメケン,マツヤマシ,ウメキマチ,愛媛県松山市梅木町
7902644,愛媛県,松山市,上総町,エヒメケン,マツヤマシ,カズサマチ,愛媛県松山市上総町
7902645,愛媛県,松山市,小屋町,エヒメケン,マツヤマシ,コヤマチ,愛媛県松山市小屋町
7902646,愛媛県,松山市,神次郎町,エヒメケン,マツヤマシ,ジンジロウマチ,愛媛県松山市神次郎町
7902647,愛媛県,松山市,城山町,エヒメケン,マツヤマシ,ジョウザンマチ,愛媛県松山市城山町
7902648,愛媛県,松山市,菅沢町,エヒメケン,マツヤマシ,スゲザワマチ,愛媛県松山市菅沢町
7910000,愛媛県,松山市,,エヒメケン,マツヤマシ,,愛媛県松山市
7910054,愛媛県,松山市,空港通（３〜７丁目）,エヒメケン,マツヤマシ,クウコウドオリ(3-7チョウメ),愛媛県松山市空港通（3〜7-）
7910101,愛媛県,松山市,溝辺町,エヒメケン,マツヤマシ,ミゾノベマチ,愛媛県松山市溝辺町
7910102,愛媛県,松山市,高野町,エヒメケン,マツヤマシ,タカノマチ,愛媛県松山市高野町
7910103,愛媛県,松山市,上高野町,エヒメケン,マツヤマシ,カミタカノマチ,愛媛県松山市上高野町
7910104,愛媛県,松山市,食場町,エヒメケン,マツヤマシ,ジキバマチ,愛媛県松山市食場町
7910105,愛媛県,松山市,杉立町,エヒメケン,マツヤマシ,スギタテマチ,愛媛県松山市杉立町
7910111,愛媛県,松山市,上伊台町,エヒメケン,マツヤマシ,カミイダイマチ,愛媛県松山市上伊台町
7910112,愛媛県,松山市,下伊台町,エヒメケン,マツヤマシ,シモイダイマチ,愛媛県松山市下伊台町
7910113,愛媛県,松山市,白水台,エヒメケン,マツヤマシ,ハクスイダイ,愛媛県松山市白水台
7910114,愛媛県,松山市,南白水,エヒメケン,マツヤマシ,ミナミハクスイ,愛媛県松山市南白水
7910120,愛媛県,松山市,湯の山東,エヒメケン,マツヤマシ,ユノヤマヒガシ,愛媛県松山市湯の山東
7910121,愛媛県,松山市,湯の山,エヒメケン,マツヤマシ,ユノヤマ,愛媛県松山市湯の山
7910122,愛媛県,松山市,末町,エヒメケン,マツヤマシ,スエマチ,愛媛県松山市末町
7910123,愛媛県,松山市,宿野町,エヒメケン,マツヤマシ,シュクノマチ,愛媛県松山市宿野町
7910124,愛媛県,松山市,青波町,エヒメケン,マツヤマシ,アオナミマチ,愛媛県松山市青波町
7910125,愛媛県,松山市,湯山柳,エヒメケン,マツヤマシ,ユヤマヤナギ,愛媛県松山市湯山柳
7910126,愛媛県,松山市,玉谷町,エヒメケン,マツヤマシ,タマタニマチ,愛媛県松山市玉谷町
7910127,愛媛県,松山市,藤野町,エヒメケン,マツヤマシ,フジノマチ,愛媛県松山市藤野町
7910128,愛媛県,松山市,福見川町,エヒメケン,マツヤマシ,フクミガワマチ,愛媛県松山市福見川町
7910129,愛媛県,松山市,川の郷町,エヒメケン,マツヤマシ,カワノゴウマチ,愛媛県松山市川の郷町
7910131,愛媛県,松山市,水口町,エヒメケン,マツヤマシ,ミナクチマチ,愛媛県松山市水口町
7910132,愛媛県,松山市,河中町,エヒメケン,マツヤマシ,カワナカマチ,愛媛県松山市河中町
7910133,愛媛県,松山市,東川町,エヒメケン,マツヤマシ,ヒガシガワマチ,愛媛県松山市東川町
7910134,愛媛県,松山市,大井野町,エヒメケン,マツヤマシ,オオイノマチ,愛媛県松山市大井野町
7910135,愛媛県,松山市,米野町,エヒメケン,マツヤマシ,コメノマチ,愛媛県松山市米野町
7910150,愛媛県,松山市,九川,エヒメケン,マツヤマシ,クガワ,愛媛県松山市九川
7910200,愛媛県,東温市,,エヒメケン,トウオンシ,,愛媛県東温市
7910201,愛媛県,東温市,山之内,エヒメケン,トウオンシ,ヤマノウチ,愛媛県東温市山之内
7910202,愛媛県,東温市,樋口,エヒメケン,トウオンシ,ヒノクチ,愛媛県東温市樋口
7910203,愛媛県,東温市,横河原,エヒメケン,トウオンシ,ヨコガワラ,愛媛県東温市横河原
7910204,愛媛県,東温市,志津川,エヒメケン,トウオンシ,シツカワ,愛媛県東温市志津川
7910205,愛媛県,東温市,西岡,エヒメケン,トウオンシ,ニシオカ,愛媛県東温市西岡
7910206,愛媛県,東温市,志津川南,エヒメケン,トウオンシ,シツカワミナミ,愛媛県東温市志津川南
7910211,愛媛県,東温市,見奈良,エヒメケン,トウオンシ,ミナラ,愛媛県東温市見奈良
7910212,愛媛県,東温市,田窪,エヒメケン,トウオンシ,タノクボ,愛媛県東温市田窪
7910213,愛媛県,東温市,牛渕,エヒメケン,トウオンシ,ウシブチ,愛媛県東温市牛渕
7910214,愛媛県,東温市,南野田,エヒメケン,トウオンシ,ミナミノダ,愛媛県東温市南野田
7910215,愛媛県,東温市,北野田,エヒメケン,トウオンシ,キタノダ,愛媛県東温市北野田
7910216,愛媛県,東温市,野田,エヒメケン,トウオンシ,ノダ,愛媛県東温市野田
7910221,愛媛県,東温市,上村,エヒメケン,トウオンシ,ウエムラ,愛媛県東温市上村
7910222,愛媛県,東温市,下林,エヒメケン,トウオンシ,シモバヤシ,愛媛県東温市下林
7910223,愛媛県,東温市,上林,エヒメケン,トウオンシ,カミバヤシ,愛媛県東温市上林
7910241,愛媛県,松山市,小野町,エヒメケン,マツヤマシ,オノマチ,愛媛県松山市小野町
7910242,愛媛県,松山市,北梅本町,エヒメケン,マツヤマシ,キタウメモトマチ,愛媛県松山市北梅本町
7910243,愛媛県,松山市,平井町,エヒメケン,マツヤマシ,ヒライマチ,愛媛県松山市平井町
7910244,愛媛県,松山市,水泥町,エヒメケン,マツヤマシ,ミドロマチ,愛媛県松山市水泥町
7910245,愛媛県,松山市,南梅本町,エヒメケン,マツヤマシ,ミナミウメモトマチ,愛媛県松山市南梅本町
7910301,愛媛県,東温市,南方,エヒメケン,トウオンシ,ミナミガタ,愛媛県東温市南方
7910302,愛媛県,東温市,吉久,エヒメケン,トウオンシ,ヨシヒサ,愛媛県東温市吉久
7910303,愛媛県,東温市,北方,エヒメケン,トウオンシ,キタガタ,愛媛県東温市北方
7910311,愛媛県,東温市,則之内甲,エヒメケン,トウオンシ,スノウチコウ,愛媛県東温市則之内甲
7910312,愛媛県,東温市,則之内乙,エヒメケン,トウオンシ,スノウチオツ,愛媛県東温市則之内乙
7910313,愛媛県,東温市,則之内丙,エヒメケン,トウオンシ,スノウチヘイ,愛媛県東温市則之内丙
7910314,愛媛県,東温市,松瀬川,エヒメケン,トウオンシ,マセカワ,愛媛県東温市松瀬川
7910315,愛媛県,東温市,井内,エヒメケン,トウオンシ,イウチ,愛媛県東温市井内
7910321,愛媛県,東温市,河之内,エヒメケン,トウオンシ,カワノウチ,愛媛県東温市河之内
7910322,愛媛県,東温市,滑川,エヒメケン,トウオンシ,ナメガワ,愛媛県東温市滑川
7910323,愛媛県,東温市,明河,エヒメケン,トウオンシ,ミョウガ,愛媛県東温市明河
7910501,愛媛県,西条市,丹原町徳能出作,エヒメケン,サイジョウシ,タンバラチョウトクノデサク,愛媛県西条市丹原町徳能出作
7910502,愛媛県,西条市,丹原町願連寺,エヒメケン,サイジョウシ,タンバラチョウガンレンジ,愛媛県西条市丹原町願連寺
7910503,愛媛県,西条市,丹原町今井,エヒメケン,サイジョウシ,タンバラチョウイマイ,愛媛県西条市丹原町今井
7910504,愛媛県,西条市,丹原町久妙寺,エヒメケン,サイジョウシ,タンバラチョウクミョウジ,愛媛県西条市丹原町久妙寺
7910505,愛媛県,西条市,丹原町古田,エヒメケン,サイジョウシ,タンバラチョウコタ,愛媛県西条市丹原町古田
7910506,愛媛県,西条市,丹原町徳能,エヒメケン,サイジョウシ,タンバラチョウトクノウ,愛媛県西条市丹原町徳能
7910507,愛媛県,西条市,丹原町高知,エヒメケン,サイジョウシ,タンバラチョウコウチ,愛媛県西条市丹原町高知
7910508,愛媛県,西条市,丹原町池田,エヒメケン,サイジョウシ,タンバラチョウイケダ,愛媛県西条市丹原町池田
7910510,愛媛県,西条市,丹原町丹原,エヒメケン,サイジョウシ,タンバラチョウタンバラ,愛媛県西条市丹原町丹原
7910521,愛媛県,西条市,丹原町長野,エヒメケン,サイジョウシ,タンバラチョウナガノ,愛媛県西条市丹原町長野
7910522,愛媛県,西条市,丹原町田野上方,エヒメケン,サイジョウシ,タンバラチョウタノウワガタ,愛媛県西条市丹原町田野上方
7910523,愛媛県,西条市,丹原町北田野,エヒメケン,サイジョウシ,タンバラチョウキタタノ,愛媛県西条市丹原町北田野
7910524,愛媛県,西条市,丹原町高松,エヒメケン,サイジョウシ,タンバラチョウタカマツ,愛媛県西条市丹原町高松
7910525,愛媛県,西条市,丹原町川根,エヒメケン,サイジョウシ,タンバラチョウカワネ,愛媛県西条市丹原町川根
7910526,愛媛県,西条市,丹原町田滝,エヒメケン,サイジョウシ,タンバラチョウタタキ,愛媛県西条市丹原町田滝
7910527,愛媛県,西条市,丹原町関屋,エヒメケン,サイジョウシ,タンバラチョウセキヤ,愛媛県西条市丹原町関屋
7910531,愛媛県,西条市,丹原町来見,エヒメケン,サイジョウシ,タンバラチョウクルミ,愛媛県西条市丹原町来見
7910532,愛媛県,西条市,丹原町石経,エヒメケン,サイジョウシ,タンバラチョウイシキョウ,愛媛県西条市丹原町石経
7910533,愛媛県,西条市,丹原町明穂,エヒメケン,サイジョウシ,タンバラチョウアカオ,愛媛県西条市丹原町明穂
7910534,愛媛県,西条市,丹原町寺尾,エヒメケン,サイジョウシ,タンバラチョウテラオ,愛媛県西条市丹原町寺尾
7910535,愛媛県,西条市,丹原町志川,エヒメケン,サイジョウシ,タンバラチョウシカワ,愛媛県西条市丹原町志川
7910536,愛媛県,西条市,丹原町湯谷口,エヒメケン,サイジョウシ,タンバラチョウユヤグチ,愛媛県西条市丹原町湯谷口
7910537,愛媛県,西条市,丹原町臼坂,エヒメケン,サイジョウシ,タンバラチョウウスザカ,愛媛県西条市丹原町臼坂
7910538,愛媛県,西条市,丹原町千原,エヒメケン,サイジョウシ,タンバラチョウチハラ,愛媛県西条市丹原町千原
7910541,愛媛県,西条市,丹原町鞍瀬,エヒメケン,サイジョウシ,タンバラチョウクラセ,愛媛県西条市丹原町鞍瀬
7910542,愛媛県,西条市,丹原町楠窪,エヒメケン,サイジョウシ,タンバラチョウクスクボ,愛媛県西条市丹原町楠窪
7910543,愛媛県,西条市,丹原町明河,エヒメケン,サイジョウシ,タンバラチョウミョウガ,愛媛県西条市丹原町明河
7910562,愛媛県,西条市,小松町石鎚（上戸石）,エヒメケン,サイジョウシ,コマツチョウイシヅチ(カミトイシ),愛媛県西条市小松町石鎚（上戸石）
7911101,愛媛県,松山市,久米窪田町,エヒメケン,マツヤマシ,クメクボタマチ,愛媛県松山市久米窪田町
7911102,愛媛県,松山市,来住町,エヒメケン,マツヤマシ,キシマチ,愛媛県松山市来住町
7911103,愛媛県,松山市,今在家町,エヒメケン,マツヤマシ,イマザイケマチ,愛媛県松山市今在家町
7911104,愛媛県,松山市,北土居,エヒメケン,マツヤマシ,キタドイ,愛媛県松山市北土居
7911105,愛媛県,松山市,北井門,エヒメケン,マツヤマシ,キタイド,愛媛県松山市北井門
7911106,愛媛県,松山市,今在家,エヒメケン,マツヤマシ,イマザイケ,愛媛県松山市今在家
7911111,愛媛県,松山市,高井町,エヒメケン,マツヤマシ,タカイマチ,愛媛県松山市高井町
7911112,愛媛県,松山市,南高井町,エヒメケン,マツヤマシ,ミナミタカイマチ,愛媛県松山市南高井町
7911113,愛媛県,松山市,森松町,エヒメケン,マツヤマシ,モリマツマチ,愛媛県松山市森松町
7911114,愛媛県,松山市,井門町,エヒメケン,マツヤマシ,イドマチ,愛媛県松山市井門町
7911115,愛媛県,松山市,土居町,エヒメケン,マツヤマシ,ドイマチ,愛媛県松山市土居町
7911116,愛媛県,松山市,南土居町,エヒメケン,マツヤマシ,ミナミドイマチ,愛媛県松山市南土居町
7911121,愛媛県,松山市,中野町,エヒメケン,マツヤマシ,ナカノマチ,愛媛県松山市中野町
7911122,愛媛県,松山市,津吉町,エヒメケン,マツヤマシ,ツヨシマチ,愛媛県松山市津吉町
7911123,愛媛県,松山市,東方町,エヒメケン,マツヤマシ,ヒガシガタマチ,愛媛県松山市東方町
7911124,愛媛県,松山市,上川原町,エヒメケン,マツヤマシ,カミガワラマチ,愛媛県松山市上川原町
7911125,愛媛県,松山市,小村町,エヒメケン,マツヤマシ,コムラマチ,愛媛県松山市小村町
7911126,愛媛県,松山市,大橋町,エヒメケン,マツヤマシ,オオハシマチ,愛媛県松山市大橋町
7911131,愛媛県,松山市,窪野町,エヒメケン,マツヤマシ,クボノマチ,愛媛県松山市窪野町
7911132,愛媛県,松山市,久谷町,エヒメケン,マツヤマシ,クタニマチ,愛媛県松山市久谷町
7911133,愛媛県,松山市,浄瑠璃町,エヒメケン,マツヤマシ,ジョウルリマチ,愛媛県松山市浄瑠璃町
7911134,愛媛県,松山市,恵原町,エヒメケン,マツヤマシ,エバラマチ,愛媛県松山市恵原町
7911135,愛媛県,松山市,西野町,エヒメケン,マツヤマシ,ニシノマチ,愛媛県松山市西野町
7911136,愛媛県,松山市,上野町,エヒメケン,マツヤマシ,ウエノマチ,愛媛県松山市上野町
7911200,愛媛県,上浮穴郡久万高原町,,エヒメケン,カミウケナグンクマコウゲンチョウ,,愛媛県上浮穴郡久万高原町
7911201,愛媛県,上浮穴郡久万高原町,久万,エヒメケン,カミウケナグンクマコウゲンチョウ,クマ,愛媛県上浮穴郡久万高原町久万
7911202,愛媛県,上浮穴郡久万高原町,入野,エヒメケン,カミウケナグンクマコウゲンチョウ,イリノ,愛媛県上浮穴郡久万高原町入野
7911203,愛媛県,上浮穴郡久万高原町,西明神,エヒメケン,カミウケナグンクマコウゲンチョウ,ニシミョウジン,愛媛県上浮穴郡久万高原町西明神
7911204,愛媛県,上浮穴郡久万高原町,東明神,エヒメケン,カミウケナグンクマコウゲンチョウ,ヒガシミョウジン,愛媛県上浮穴郡久万高原町東明神
7911205,愛媛県,上浮穴郡久万高原町,菅生,エヒメケン,カミウケナグンクマコウゲンチョウ,スゴウ,愛媛県上浮穴郡久万高原町菅生
7911206,愛媛県,上浮穴郡久万高原町,上野尻,エヒメケン,カミウケナグンクマコウゲンチョウ,カミノジリ,愛媛県上浮穴郡久万高原町上野尻
7911207,愛媛県,上浮穴郡久万高原町,下野尻,エヒメケン,カミウケナグンクマコウゲンチョウ,シモノジリ,愛媛県上浮穴郡久万高原町下野尻
7911211,愛媛県,上浮穴郡久万高原町,上畑野川,エヒメケン,カミウケナグンクマコウゲンチョウ,カミハタノカワ,愛媛県上浮穴郡久万高原町上畑野川
7911212,愛媛県,上浮穴郡久万高原町,下畑野川,エヒメケン,カミウケナグンクマコウゲンチョウ,シモハタノカワ,愛媛県上浮穴郡久万高原町下畑野川
7911213,愛媛県,上浮穴郡久万高原町,直瀬,エヒメケン,カミウケナグンクマコウゲンチョウ,ナオセ,愛媛県上浮穴郡久万高原町直瀬
7911221,愛媛県,上浮穴郡久万高原町,露峰,エヒメケン,カミウケナグンクマコウゲンチョウ,ツユミネ,愛媛県上浮穴郡久万高原町露峰
7911222,愛媛県,上浮穴郡久万高原町,二名,エヒメケン,カミウケナグンクマコウゲンチョウ,ニミョウ,愛媛県上浮穴郡久万高原町二名
7911223,愛媛県,上浮穴郡久万高原町,父野川,エヒメケン,カミウケナグンクマコウゲンチョウ,チチノカワ,愛媛県上浮穴郡久万高原町父野川
7911501,愛媛県,上浮穴郡久万高原町,上黒岩,エヒメケン,カミウケナグンクマコウゲンチョウ,カミクロイワ,愛媛県上浮穴郡久万高原町上黒岩
7911502,愛媛県,上浮穴郡久万高原町,中黒岩,エヒメケン,カミウケナグンクマコウゲンチョウ,ナカクロイワ,愛媛県上浮穴郡久万高原町中黒岩
7911503,愛媛県,上浮穴郡久万高原町,日野浦,エヒメケン,カミウケナグンクマコウゲンチョウ,ヒノウラ,愛媛県上浮穴郡久万高原町日野浦
7911504,愛媛県,上浮穴郡久万高原町,大川,エヒメケン,カミウケナグンクマコウゲンチョウ,オオガワ,愛媛県上浮穴郡久万高原町大川
7911505,愛媛県,上浮穴郡久万高原町,有枝,エヒメケン,カミウケナグンクマコウゲンチョウ,アリエダ,愛媛県上浮穴郡久万高原町有枝
7911511,愛媛県,上浮穴郡久万高原町,七鳥,エヒメケン,カミウケナグンクマコウゲンチョウ,ナナトリ,愛媛県上浮穴郡久万高原町七鳥
7911512,愛媛県,上浮穴郡久万高原町,東川,エヒメケン,カミウケナグンクマコウゲンチョウ,ヒガシガワ,愛媛県上浮穴郡久万高原町東川
7911513,愛媛県,上浮穴郡久万高原町,仕出,エヒメケン,カミウケナグンクマコウゲンチョウ,シデ,愛媛県上浮穴郡久万高原町仕出
7911514,愛媛県,上浮穴郡久万高原町,沢渡,エヒメケン,カミウケナグンクマコウゲンチョウ,サワタリ,愛媛県上浮穴郡久万高原町沢渡
7911515,愛媛県,上浮穴郡久万高原町,黒藤川,エヒメケン,カミウケナグンクマコウゲンチョウ,クロフジガワ,愛媛県上浮穴郡久万高原町黒藤川
7911701,愛媛県,上浮穴郡久万高原町,渋草,エヒメケン,カミウケナグンクマコウゲンチョウ,シブクサ,愛媛県上浮穴郡久万高原町渋草
7911702,愛媛県,上浮穴郡久万高原町,大成,エヒメケン,カミウケナグンクマコウゲンチョウ,オオナル,愛媛県上浮穴郡久万高原町大成
7911703,愛媛県,上浮穴郡久万高原町,笠方,エヒメケン,カミウケナグンクマコウゲンチョウ,カサガタ,愛媛県上浮穴郡久万高原町笠方
7911704,愛媛県,上浮穴郡久万高原町,前組,エヒメケン,カミウケナグンクマコウゲンチョウ,マエグミ,愛媛県上浮穴郡久万高原町前組
7911705,愛媛県,上浮穴郡久万高原町,相の峰,エヒメケン,カミウケナグンクマコウゲンチョウ,アイノミネ,愛媛県上浮穴郡久万高原町相の峰
7911706,愛媛県,上浮穴郡久万高原町,本組,エヒメケン,カミウケナグンクマコウゲンチョウ,ホングミ,愛媛県上浮穴郡久万高原町本組
7911707,愛媛県,上浮穴郡久万高原町,中組,エヒメケン,カミウケナグンクマコウゲンチョウ,ナカグミ,愛媛県上浮穴郡久万高原町中組
7911708,愛媛県,上浮穴郡久万高原町,河の子,エヒメケン,カミウケナグンクマコウゲンチョウ,コウノコ,愛媛県上浮穴郡久万高原町河の子
7911709,愛媛県,上浮穴郡久万高原町,相の木,エヒメケン,カミウケナグンクマコウゲンチョウ,アイノキ,愛媛県上浮穴郡久万高原町相の木
7911710,愛媛県,上浮穴郡久万高原町,若山,エヒメケン,カミウケナグンクマコウゲンチョウ,ワカヤマ,愛媛県上浮穴郡久万高原町若山
7911801,愛媛県,上浮穴郡久万高原町,柳井川,エヒメケン,カミウケナグンクマコウゲンチョウ,ヤナイガワ,愛媛県上浮穴郡久万高原町柳井川
7911802,愛媛県,上浮穴郡久万高原町,西谷,エヒメケン,カミウケナグンクマコウゲンチョウ,ニシダニ,愛媛県上浮穴郡久万高原町西谷
7911803,愛媛県,上浮穴郡久万高原町,中津,エヒメケン,カミウケナグンクマコウゲンチョウ,ナカツ,愛媛県上浮穴郡久万高原町中津
7912100,愛媛県,伊予郡砥部町,,エヒメケン,イヨグントベチョウ,,愛媛県伊予郡砥部町
7912101,愛媛県,伊予郡砥部町,高尾田（その他）,エヒメケン,イヨグントベチョウ,タコオダ(ソノタ),愛媛県伊予郡砥部町高尾田（その他）
7912102,愛媛県,伊予郡砥部町,高尾田（砥部団地）,エヒメケン,イヨグントベチョウ,タコオダ(トベダンチ),愛媛県伊予郡砥部町高尾田（砥部団地）
7912103,愛媛県,伊予郡砥部町,高尾田（上野団地）,エヒメケン,イヨグントベチョウ,タコオダ(ウエノダンチ),愛媛県伊予郡砥部町高尾田（上野団地）
7912111,愛媛県,伊予郡砥部町,八倉,エヒメケン,イヨグントベチョウ,ヤクラ,愛媛県伊予郡砥部町八倉
7912112,愛媛県,伊予郡砥部町,重光,エヒメケン,イヨグントベチョウ,シゲミツ,愛媛県伊予郡砥部町重光
7912113,愛媛県,伊予郡砥部町,拾町,エヒメケン,イヨグントベチョウ,ジツチョウ,愛媛県伊予郡砥部町拾町
7912114,愛媛県,伊予郡砥部町,麻生,エヒメケン,イヨグントベチョウ,アソウ,愛媛県伊予郡砥部町麻生
7912115,愛媛県,伊予郡砥部町,三角,エヒメケン,イヨグントベチョウ,ミョウカ,愛媛県伊予郡砥部町三角
7912116,愛媛県,伊予郡砥部町,原町,エヒメケン,イヨグントベチョウ,ハラマチ,愛媛県伊予郡砥部町原町
7912117,愛媛県,伊予郡砥部町,上原町,エヒメケン,イヨグントベチョウ,カミハラマチ,愛媛県伊予郡砥部町上原町
7912120,愛媛県,伊予郡砥部町,宮内（その他）,エヒメケン,イヨグントベチョウ,ミヤウチ(ソノタ),愛媛県伊予郡砥部町宮内（その他）
7912121,愛媛県,伊予郡砥部町,宮内（山並）,エヒメケン,イヨグントベチョウ,ミヤウチ(ヤマナミ),愛媛県伊予郡砥部町宮内（山並）
7912122,愛媛県,伊予郡砥部町,千足,エヒメケン,イヨグントベチョウ,センゾク,愛媛県伊予郡砥部町千足
7912123,愛媛県,伊予郡砥部町,川井,エヒメケン,イヨグントベチョウ,カワイ,愛媛県伊予郡砥部町川井
7912124,愛媛県,伊予郡砥部町,田ノ浦,エヒメケン,イヨグントベチョウ,タノウラ,愛媛県伊予郡砥部町田ノ浦
7912125,愛媛県,伊予郡砥部町,七折,エヒメケン,イヨグントベチョウ,ナナオレ,愛媛県伊予郡砥部町七折
7912126,愛媛県,伊予郡砥部町,大角蔵,エヒメケン,イヨグントベチョウ,オオカクラ,愛媛県伊予郡砥部町大角蔵
7912131,愛媛県,伊予郡砥部町,北川毛,エヒメケン,イヨグントベチョウ,キタカワゲ,愛媛県伊予郡砥部町北川毛
7912132,愛媛県,伊予郡砥部町,大南,エヒメケン,イヨグントベチョウ,オオミナミ,愛媛県伊予郡砥部町大南
7912133,愛媛県,伊予郡砥部町,五本松,エヒメケン,イヨグントベチョウ,ゴホンマツ,愛媛県伊予郡砥部町五本松
7912134,愛媛県,伊予郡砥部町,外山,エヒメケン,イヨグントベチョウ,トヤマ,愛媛県伊予郡砥部町外山
7912135,愛媛県,伊予郡砥部町,鵜ノ崎,エヒメケン,イヨグントベチョウ,ウノサキ,愛媛県伊予郡砥部町鵜ノ崎
7912141,愛媛県,伊予郡砥部町,岩谷口,エヒメケン,イヨグントベチョウ,イワヤグチ,愛媛県伊予郡砥部町岩谷口
7912142,愛媛県,伊予郡砥部町,岩谷,エヒメケン,イヨグントベチョウ,イワヤ,愛媛県伊予郡砥部町岩谷
7912143,愛媛県,伊予郡砥部町,川登,エヒメケン,イヨグントベチョウ,カワノボリ,愛媛県伊予郡砥部町川登
7912144,愛媛県,伊予郡砥部町,万年,エヒメケン,イヨグントベチョウ,マンネン,愛媛県伊予郡砥部町万年
7912145,愛媛県,伊予郡砥部町,大平,エヒメケン,イヨグントベチョウ,オオヒラ,愛媛県伊予郡砥部町大平
7912201,愛媛県,伊予郡砥部町,満穂,エヒメケン,イヨグントベチョウ,ミツホ,愛媛県伊予郡砥部町満穂
7912202,愛媛県,伊予郡砥部町,玉谷,エヒメケン,イヨグントベチョウ,タマタニ,愛媛県伊予郡砥部町玉谷
7912203,愛媛県,伊予郡砥部町,中野川,エヒメケン,イヨグントベチョウ,ナカノカワ,愛媛県伊予郡砥部町中野川
7912204,愛媛県,伊予郡砥部町,高市,エヒメケン,イヨグントベチョウ,タカイチ,愛媛県伊予郡砥部町高市
7912205,愛媛県,伊予郡砥部町,総津,エヒメケン,イヨグントベチョウ,ソウヅ,愛媛県伊予郡砥部町総津
7912206,愛媛県,伊予郡砥部町,多居谷,エヒメケン,イヨグントベチョウ,オオイダニ,愛媛県伊予郡砥部町多居谷
7912207,愛媛県,伊予郡砥部町,仙波,エヒメケン,イヨグントベチョウ,センバ,愛媛県伊予郡砥部町仙波
7913100,愛媛県,伊予郡松前町,,エヒメケン,イヨグンマサキチョウ,,愛媛県伊予郡松前町
7913101,愛媛県,伊予郡松前町,南黒田,エヒメケン,イヨグンマサキチョウ,ミナミクロダ,愛媛県伊予郡松前町南黒田
7913102,愛媛県,伊予郡松前町,北黒田,エヒメケン,イヨグンマサキチョウ,キタクロダ,愛媛県伊予郡松前町北黒田
7913110,愛媛県,伊予郡松前町,浜,エヒメケン,イヨグンマサキチョウ,ハマ,愛媛県伊予郡松前町浜
7913120,愛媛県,伊予郡松前町,筒井,エヒメケン,イヨグンマサキチョウ,ツツイ,愛媛県伊予郡松前町筒井
7913131,愛媛県,伊予郡松前町,北川原,エヒメケン,イヨグンマサキチョウ,キタガワラ,愛媛県伊予郡松前町北川原
7913132,愛媛県,伊予郡松前町,西高柳,エヒメケン,イヨグンマサキチョウ,ニシタカヤナギ,愛媛県伊予郡松前町西高柳
7913133,愛媛県,伊予郡松前町,昌農内,エヒメケン,イヨグンマサキチョウ,ショウノウチ,愛媛県伊予郡松前町昌農内
7913134,愛媛県,伊予郡松前町,西古泉,エヒメケン,イヨグンマサキチョウ,ニシコイズミ,愛媛県伊予郡松前町西古泉
7913141,愛媛県,伊予郡松前町,恵久美,エヒメケン,イヨグンマサキチョウ,エクビ,愛媛県伊予郡松前町恵久美
7913142,愛媛県,伊予郡松前町,上高柳,エヒメケン,イヨグンマサキチョウ,カミタカヤナギ,愛媛県伊予郡松前町上高柳
7913143,愛媛県,伊予郡松前町,大間,エヒメケン,イヨグンマサキチョウ,ダイマ,愛媛県伊予郡松前町大間
7913151,愛媛県,伊予郡松前町,東古泉,エヒメケン,イヨグンマサキチョウ,ヒガシコイズミ,愛媛県伊予郡松前町東古泉
7913152,愛媛県,伊予郡松前町,永田,エヒメケン,イヨグンマサキチョウ,ナガタ,愛媛県伊予郡松前町永田
7913153,愛媛県,伊予郡松前町,大溝,エヒメケン,イヨグンマサキチョウ,オオミゾ,愛媛県伊予郡松前町大溝
7913154,愛媛県,伊予郡松前町,横田,エヒメケン,イヨグンマサキチョウ,ヨコタ,愛媛県伊予郡松前町横田
7913155,愛媛県,伊予郡松前町,鶴吉,エヒメケン,イヨグンマサキチョウ,ツルヨシ,愛媛県伊予郡松前町鶴吉
7913161,愛媛県,伊予郡松前町,神崎,エヒメケン,イヨグンマサキチョウ,カンザキ,愛媛県伊予郡松前町神崎
7913162,愛媛県,伊予郡松前町,出作,エヒメケン,イヨグンマサキチョウ,シュツサク,愛媛県伊予郡松前町出作
7913163,愛媛県,伊予郡松前町,徳丸,エヒメケン,イヨグンマサキチョウ,トクマル,愛媛県伊予郡松前町徳丸
7913164,愛媛県,伊予郡松前町,中川原,エヒメケン,イヨグンマサキチョウ,ナカガワラ,愛媛県伊予郡松前町中川原
7913201,愛媛県,伊予市,中山町佐礼谷,エヒメケン,イヨシ,ナカヤマチョウサレタニ,愛媛県伊予市中山町佐礼谷
7913202,愛媛県,伊予市,中山町栗田,エヒメケン,イヨシ,ナカヤマチョウクリダ,愛媛県伊予市中山町栗田
7913203,愛媛県,伊予市,中山町出渕（豊岡・東町）,エヒメケン,イヨシ,ナカヤマチョウイズブチ(トヨオカ・ヒガシマチ),愛媛県伊予市中山町出渕（豊岡・東町）
7913204,愛媛県,伊予市,中山町出渕（その他）,エヒメケン,イヨシ,ナカヤマチョウイズブチ(ソノタ),愛媛県伊予市中山町出渕（その他）
7913205,愛媛県,伊予市,中山町中山（泉町）,エヒメケン,イヨシ,ナカヤマチョウナカヤマ(イズミマチ),愛媛県伊予市中山町中山（泉町）
7913206,愛媛県,伊予市,中山町中山（その他）,エヒメケン,イヨシ,ナカヤマチョウナカヤマ(ソノタ),愛媛県伊予市中山町中山（その他）
7913300,愛媛県,喜多郡内子町,,エヒメケン,キタグンウチコチョウ,,愛媛県喜多郡内子町
7913301,愛媛県,喜多郡内子町,内子,エヒメケン,キタグンウチコチョウ,ウチコ,愛媛県喜多郡内子町内子
7913310,愛媛県,喜多郡内子町,城廻,エヒメケン,キタグンウチコチョウ,シロマワリ,愛媛県喜多郡内子町城廻
7913321,愛媛県,喜多郡内子町,川中,エヒメケン,キタグンウチコチョウ,カワナカ,愛媛県喜多郡内子町川中
7913322,愛媛県,喜多郡内子町,知清,エヒメケン,キタグンウチコチョウ,チセイ,愛媛県喜多郡内子町知清
7913331,愛媛県,喜多郡内子町,立山,エヒメケン,キタグンウチコチョウ,タチヤマ,愛媛県喜多郡内子町立山
7913332,愛媛県,喜多郡内子町,袋口,エヒメケン,キタグンウチコチョウ,フロク,愛媛県喜多郡内子町袋口
7913341,愛媛県,喜多郡内子町,論田,エヒメケン,キタグンウチコチョウ,ロンデン,愛媛県喜多郡内子町論田
7913342,愛媛県,喜多郡内子町,河内,エヒメケン,キタグンウチコチョウ,カワノウチ,愛媛県喜多郡内子町河内
7913343,愛媛県,喜多郡内子町,石畳,エヒメケン,キタグンウチコチョウ,イシダタミ,愛媛県喜多郡内子町石畳
7913351,愛媛県,喜多郡内子町,五百木,エヒメケン,キタグンウチコチョウ,イヨキ,愛媛県喜多郡内子町五百木
7913352,愛媛県,喜多郡内子町,村前,エヒメケン,キタグンウチコチョウ,ムラサキ,愛媛県喜多郡内子町村前
7913360,愛媛県,喜多郡内子町,大瀬,エヒメケン,キタグンウチコチョウ,オオセ,愛媛県喜多郡内子町大瀬
7913361,愛媛県,喜多郡内子町,大瀬中央（鵜川、大久保、乙成、中野、本町１〜３）,エヒメケン,キタグンウチコチョウ,オオセチュウオウ(ウカワ、オオクボ、オツナリ、ナカノ、ホンマチ1-3),愛媛県喜多郡内子町大瀬中央（鵜川、大久保、乙成、中野、本町1〜3）
7913362,愛媛県,喜多郡内子町,大瀬北（乙影山、熊の滝、甲影山、程内）,エヒメケン,キタグンウチコチョウ,オオセキタ(オツカゲヤマ、クマノタキ、コウガケヤマ、ホドウチ),愛媛県喜多郡内子町大瀬北（乙影山、熊の滝、甲影山、程内）
7913363,愛媛県,喜多郡内子町,大瀬東,エヒメケン,キタグンウチコチョウ,オオセヒガシ,愛媛県喜多郡内子町大瀬東
7913364,愛媛県,喜多郡内子町,大瀬南,エヒメケン,キタグンウチコチョウ,オオセミナミ,愛媛県喜多郡内子町大瀬南
7913501,愛媛県,喜多郡内子町,小田,エヒメケン,キタグンウチコチョウ,オダ,愛媛県喜多郡内子町小田
7913502,愛媛県,喜多郡内子町,寺村,エヒメケン,キタグンウチコチョウ,テラムラ,愛媛県喜多郡内子町寺村
7913503,愛媛県,喜多郡内子町,日野川,エヒメケン,キタグンウチコチョウ,ヒノカワ,愛媛県喜多郡内子町日野川
7913504,愛媛県,喜多郡内子町,大平,エヒメケン,キタグンウチコチョウ,オオヒラ,愛媛県喜多郡内子町大平
7913505,愛媛県,喜多郡内子町,立石,エヒメケン,キタグンウチコチョウ,タテイシ,愛媛県喜多郡内子町立石
7913506,愛媛県,喜多郡内子町,南山,エヒメケン,キタグンウチコチョウ,ミナミヤマ,愛媛県喜多郡内子町南山
7913511,愛媛県,喜多郡内子町,吉野川,エヒメケン,キタグンウチコチョウ,ヨシノカワ,愛媛県喜多郡内子町吉野川
7913512,愛媛県,喜多郡内子町,中田渡,エヒメケン,キタグンウチコチョウ,ナカタド,愛媛県喜多郡内子町中田渡
7913513,愛媛県,喜多郡内子町,上田渡,エヒメケン,キタグンウチコチョウ,カミタド,愛媛県喜多郡内子町上田渡
7913514,愛媛県,喜多郡内子町,臼杵,エヒメケン,キタグンウチコチョウ,ウスキ,愛媛県喜多郡内子町臼杵
7913521,愛媛県,喜多郡内子町,本川,エヒメケン,キタグンウチコチョウ,ホンガワ,愛媛県喜多郡内子町本川
7913522,愛媛県,喜多郡内子町,中川,エヒメケン,キタグンウチコチョウ,ナカガワ,愛媛県喜多郡内子町中川
7913523,愛媛県,喜多郡内子町,上川,エヒメケン,キタグンウチコチョウ,カミガワ,愛媛県喜多郡内子町上川
7913524,愛媛県,喜多郡内子町,小田深山,エヒメケン,キタグンウチコチョウ,オダミヤマ,愛媛県喜多郡内子町小田深山
7914321,愛媛県,松山市,元怒和,エヒメケン,マツヤマシ,モトヌワ,愛媛県松山市元怒和
7914322,愛媛県,松山市,上怒和,エヒメケン,マツヤマシ,カミヌワ,愛媛県松山市上怒和
7914323,愛媛県,松山市,二神,エヒメケン,マツヤマシ,フタガミ,愛媛県松山市二神
7914324,愛媛県,松山市,津和地,エヒメケン,マツヤマシ,ツワジ,愛媛県松山市津和地
7914431,愛媛県,松山市,睦月,エヒメケン,マツヤマシ,ムヅキ,愛媛県松山市睦月
7914432,愛媛県,松山市,野忽那,エヒメケン,マツヤマシ,ノグツナ,愛媛県松山市野忽那
7914501,愛媛県,松山市,中島大浦,エヒメケン,マツヤマシ,ナカジマオオウラ,愛媛県松山市中島大浦
7914502,愛媛県,松山市,小浜,エヒメケン,マツヤマシ,オバマ,愛媛県松山市小浜
7914503,愛媛県,松山市,長師,エヒメケン,マツヤマシ,ナガシ,愛媛県松山市長師
7914504,愛媛県,松山市,宮野,エヒメケン,マツヤマシ,ミヤノ,愛媛県松山市宮野
7914505,愛媛県,松山市,神浦,エヒメケン,マツヤマシ,コウノウラ,愛媛県松山市神浦
7914506,愛媛県,松山市,宇和間,エヒメケン,マツヤマシ,ウワマ,愛媛県松山市宇和間
7914507,愛媛県,松山市,熊田,エヒメケン,マツヤマシ,クマタ,愛媛県松山市熊田
7914508,愛媛県,松山市,吉木,エヒメケン,マツヤマシ,ヨシキ,愛媛県松山市吉木
7914509,愛媛県,松山市,饒,エヒメケン,マツヤマシ,ニョウ,愛媛県松山市饒
7914510,愛媛県,松山市,畑里,エヒメケン,マツヤマシ,ハタリ,愛媛県松山市畑里
7914511,愛媛県,松山市,中島粟井,エヒメケン,マツヤマシ,ナカジマアワイ,愛媛県松山市中島粟井
7918001,愛媛県,松山市,平田町,エヒメケン,マツヤマシ,ヒラタマチ,愛媛県松山市平田町
7918002,愛媛県,松山市,谷町,エヒメケン,マツヤマシ,タニマチ,愛媛県松山市谷町
7918003,愛媛県,松山市,志津川町,エヒメケン,マツヤマシ,シツカワマチ,愛媛県松山市志津川町
7918004,愛媛県,松山市,鴨川,エヒメケン,マツヤマシ,カモガワ,愛媛県松山市鴨川
7918005,愛媛県,松山市,東長戸,エヒメケン,マツヤマシ,ヒガシナガト,愛媛県松山市東長戸
7918006,愛媛県,松山市,安城寺町,エヒメケン,マツヤマシ,アンジョウジマチ,愛媛県松山市安城寺町
7918007,愛媛県,松山市,高木町,エヒメケン,マツヤマシ,タカギチョウ,愛媛県松山市高木町
7918011,愛媛県,松山市,吉藤,エヒメケン,マツヤマシ,ヨシフジ,愛媛県松山市吉藤
7918012,愛媛県,松山市,姫原,エヒメケン,マツヤマシ,ヒメバラ,愛媛県松山市姫原
7918013,愛媛県,松山市,山越（丁目）,エヒメケン,マツヤマシ,ヤマゴエ(チョウメ),愛媛県松山市山越（丁目）
7918014,愛媛県,松山市,山越町,エヒメケン,マツヤマシ,ヤマゴエマチ,愛媛県松山市山越町
7918015,愛媛県,松山市,中央,エヒメケン,マツヤマシ,チュウオウ,愛媛県松山市中央
7918016,愛媛県,松山市,久万ノ台,エヒメケン,マツヤマシ,クマノダイ,愛媛県松山市久万ノ台
7918017,愛媛県,松山市,西長戸町,エヒメケン,マツヤマシ,ニシナガトチョウ,愛媛県松山市西長戸町
7918018,愛媛県,松山市,問屋町,エヒメケン,マツヤマシ,トイヤチョウ,愛媛県松山市問屋町
7918019,愛媛県,松山市,青葉台,エヒメケン,マツヤマシ,アオバダイ,愛媛県松山市青葉台
7918021,愛媛県,松山市,六軒家町,エヒメケン,マツヤマシ,ロッケンヤチョウ,愛媛県松山市六軒家町
7918022,愛媛県,松山市,美沢,エヒメケン,マツヤマシ,ミサワ,愛媛県松山市美沢
7918023,愛媛県,松山市,朝美,エヒメケン,マツヤマシ,アサミ,愛媛県松山市朝美
7918024,愛媛県,松山市,朝日ケ丘,エヒメケン,マツヤマシ,アサヒガオカ,愛媛県松山市朝日ケ丘
7918025,愛媛県,松山市,衣山,エヒメケン,マツヤマシ,キヌヤマ,愛媛県松山市衣山
7918026,愛媛県,松山市,山西町,エヒメケン,マツヤマシ,ヤマニシチョウ,愛媛県松山市山西町
7918027,愛媛県,松山市,明神丘,エヒメケン,マツヤマシ,ミョウジンオカ,愛媛県松山市明神丘
7918031,愛媛県,松山市,北斎院町,エヒメケン,マツヤマシ,キタサヤチョウ,愛媛県松山市北斎院町
7918032,愛媛県,松山市,南斎院町,エヒメケン,マツヤマシ,ミナミサヤチョウ,愛媛県松山市南斎院町
7918034,愛媛県,松山市,富久町,エヒメケン,マツヤマシ,トミヒサマチ,愛媛県松山市富久町
7918035,愛媛県,松山市,久保田町,エヒメケン,マツヤマシ,クボタマチ,愛媛県松山市久保田町
7918036,愛媛県,松山市,高岡町,エヒメケン,マツヤマシ,タカオカマチ,愛媛県松山市高岡町
7918041,愛媛県,松山市,北吉田町,エヒメケン,マツヤマシ,キタヨシダマチ,愛媛県松山市北吉田町
7918042,愛媛県,松山市,南吉田町,エヒメケン,マツヤマシ,ミナミヨシダマチ,愛媛県松山市南吉田町
7918043,愛媛県,松山市,東垣生町,エヒメケン,マツヤマシ,ヒガシハブマチ,愛媛県松山市東垣生町
7918044,愛媛県,松山市,西垣生町,エヒメケン,マツヤマシ,ニシハブマチ,愛媛県松山市西垣生町
7918051,愛媛県,松山市,梅田町,エヒメケン,マツヤマシ,ウメダマチ,愛媛県松山市梅田町
7918052,愛媛県,松山市,須賀町,エヒメケン,マツヤマシ,スガマチ,愛媛県松山市須賀町
7918053,愛媛県,松山市,若葉町,エヒメケン,マツヤマシ,ワカバチョウ,愛媛県松山市若葉町
7918054,愛媛県,松山市,松江町,エヒメケン,マツヤマシ,マツエチョウ,愛媛県松山市松江町
7918055,愛媛県,松山市,清住,エヒメケン,マツヤマシ,キヨスミ,愛媛県松山市清住
7918056,愛媛県,松山市,別府町,エヒメケン,マツヤマシ,ベフチョウ,愛媛県松山市別府町
7918057,愛媛県,松山市,大可賀,エヒメケン,マツヤマシ,オオカガ,愛媛県松山市大可賀
7918058,愛媛県,松山市,海岸通,エヒメケン,マツヤマシ,カイガンドオリ,愛媛県松山市海岸通
7918060,愛媛県,松山市,三津ふ頭,エヒメケン,マツヤマシ,ミツフトウ,愛媛県松山市三津ふ頭
7918061,愛媛県,松山市,三津,エヒメケン,マツヤマシ,ミツ,愛媛県松山市三津
7918062,愛媛県,松山市,住吉,エヒメケン,マツヤマシ,スミヨシ,愛媛県松山市住吉
7918063,愛媛県,松山市,神田町,エヒメケン,マツヤマシ,カンダマチ,愛媛県松山市神田町
7918064,愛媛県,松山市,元町,エヒメケン,マツヤマシ,モトマチ,愛媛県松山市元町
7918065,愛媛県,松山市,三杉町,エヒメケン,マツヤマシ,ミスギマチ,愛媛県松山市三杉町
7918066,愛媛県,松山市,祓川,エヒメケン,マツヤマシ,ハライカワ,愛媛県松山市祓川
7918067,愛媛県,松山市,古三津,エヒメケン,マツヤマシ,フルミツ,愛媛県松山市古三津
7918067,愛媛県,松山市,古三津町,エヒメケン,マツヤマシ,フルミツマチ,愛媛県松山市古三津町
7918068,愛媛県,松山市,みどりケ丘,エヒメケン,マツヤマシ,ミドリガオカ,愛媛県松山市みどりケ丘
7918069,愛媛県,松山市,吉野町,エヒメケン,マツヤマシ,ヨシノチョウ,愛媛県松山市吉野町
7918071,愛媛県,松山市,松ノ木,エヒメケン,マツヤマシ,マツノキ,愛媛県松山市松ノ木
7918072,愛媛県,松山市,桜ケ丘,エヒメケン,マツヤマシ,サクラガオカ,愛媛県松山市桜ケ丘
7918073,愛媛県,松山市,船ケ谷町,エヒメケン,マツヤマシ,フネガタニチョウ,愛媛県松山市船ケ谷町
7918074,愛媛県,松山市,東山町,エヒメケン,マツヤマシ,ヒガシヤママチ,愛媛県松山市東山町
7918075,愛媛県,松山市,ひばりケ丘,エヒメケン,マツヤマシ,ヒバリガオカ,愛媛県松山市ひばりケ丘
7918076,愛媛県,松山市,会津町,エヒメケン,マツヤマシ,アイヅマチ,愛媛県松山市会津町
7918077,愛媛県,松山市,内浜町,エヒメケン,マツヤマシ,ウチハマチョウ,愛媛県松山市内浜町
7918078,愛媛県,松山市,中須賀,エヒメケン,マツヤマシ,ナカスガ,愛媛県松山市中須賀
7918079,愛媛県,松山市,高山町,エヒメケン,マツヤマシ,タカヤマチョウ,愛媛県松山市高山町
7918081,愛媛県,松山市,高浜町,エヒメケン,マツヤマシ,タカハママチ,愛媛県松山市高浜町
7918082,愛媛県,松山市,梅津寺町,エヒメケン,マツヤマシ,バイシンジマチ,愛媛県松山市梅津寺町
7918083,愛媛県,松山市,新浜町,エヒメケン,マツヤマシ,シンハママチ,愛媛県松山市新浜町
7918084,愛媛県,松山市,石風呂町,エヒメケン,マツヤマシ,イシフロマチ,愛媛県松山市石風呂町
7918085,愛媛県,松山市,港山町,エヒメケン,マツヤマシ,ミナトヤママチ,愛媛県松山市港山町
7918086,愛媛県,松山市,辰巳町,エヒメケン,マツヤマシ,タツミチョウ,愛媛県松山市辰巳町
7918087,愛媛県,松山市,春美町,エヒメケン,マツヤマシ,ハルミチョウ,愛媛県松山市春美町
7918091,愛媛県,松山市,門田町,エヒメケン,マツヤマシ,カドタマチ,愛媛県松山市門田町
7918092,愛媛県,松山市,由良町,エヒメケン,マツヤマシ,ユラマチ,愛媛県松山市由良町
7918093,愛媛県,松山市,泊町,エヒメケン,マツヤマシ,トマリマチ,愛媛県松山市泊町
7920000,愛媛県,新居浜市,,エヒメケン,ニイハマシ,,愛媛県新居浜市
7920001,愛媛県,新居浜市,惣開町,エヒメケン,ニイハマシ,ソウビラキチョウ,愛媛県新居浜市惣開町
7920002,愛媛県,新居浜市,磯浦町,エヒメケン,ニイハマシ,イソウラチョウ,愛媛県新居浜市磯浦町
7920003,愛媛県,新居浜市,新田町,エヒメケン,ニイハマシ,シンデンチョウ,愛媛県新居浜市新田町
7920004,愛媛県,新居浜市,北新町,エヒメケン,ニイハマシ,キタシンマチ,愛媛県新居浜市北新町
7920005,愛媛県,新居浜市,江口町,エヒメケン,ニイハマシ,エグチチョウ,愛媛県新居浜市江口町
7920006,愛媛県,新居浜市,河内町,エヒメケン,ニイハマシ,コウチチョウ,愛媛県新居浜市河内町
7920007,愛媛県,新居浜市,前田町,エヒメケン,ニイハマシ,マエダチョウ,愛媛県新居浜市前田町
7920008,愛媛県,新居浜市,王子町,エヒメケン,ニイハマシ,オウジチョウ,愛媛県新居浜市王子町
7920009,愛媛県,新居浜市,星越町,エヒメケン,ニイハマシ,ホシゴエチョウ,愛媛県新居浜市星越町
7920011,愛媛県,新居浜市,西原町,エヒメケン,ニイハマシ,ニシバラチョウ,愛媛県新居浜市西原町
7920012,愛媛県,新居浜市,中須賀町,エヒメケン,ニイハマシ,ナカスカチョウ,愛媛県新居浜市中須賀町
7920013,愛媛県,新居浜市,泉池町,エヒメケン,ニイハマシ,イズミイケチョウ,愛媛県新居浜市泉池町
7920014,愛媛県,新居浜市,西町,エヒメケン,ニイハマシ,ニシマチ,愛媛県新居浜市西町
7920015,愛媛県,新居浜市,大江町,エヒメケン,ニイハマシ,オオエチョウ,愛媛県新居浜市大江町
7920016,愛媛県,新居浜市,港町,エヒメケン,ニイハマシ,ミナトマチ,愛媛県新居浜市港町
7920017,愛媛県,新居浜市,若水町,エヒメケン,ニイハマシ,ワカミズチョウ,愛媛県新居浜市若水町
7920021,愛媛県,新居浜市,泉宮町,エヒメケン,ニイハマシ,イズミミヤチョウ,愛媛県新居浜市泉宮町
7920022,愛媛県,新居浜市,徳常町,エヒメケン,ニイハマシ,トクツネチョウ,愛媛県新居浜市徳常町
7920023,愛媛県,新居浜市,繁本町,エヒメケン,ニイハマシ,シゲモトチョウ,愛媛県新居浜市繁本町
7920024,愛媛県,新居浜市,宮西町,エヒメケン,ニイハマシ,ミヤニシチョウ,愛媛県新居浜市宮西町
7920025,愛媛県,新居浜市,一宮町,エヒメケン,ニイハマシ,イックチョウ,愛媛県新居浜市一宮町
7920026,愛媛県,新居浜市,久保田町,エヒメケン,ニイハマシ,クボタチョウ,愛媛県新居浜市久保田町
7920031,愛媛県,新居浜市,高木町,エヒメケン,ニイハマシ,タカギチョウ,愛媛県新居浜市高木町
7920032,愛媛県,新居浜市,政枝町,エヒメケン,ニイハマシ,マサエダチョウ,愛媛県新居浜市政枝町
7920033,愛媛県,新居浜市,横水町,エヒメケン,ニイハマシ,ヨコズイチョウ,愛媛県新居浜市横水町
7920034,愛媛県,新居浜市,滝の宮町,エヒメケン,ニイハマシ,タキノミヤチョウ,愛媛県新居浜市滝の宮町
7920035,愛媛県,新居浜市,西の土居町,エヒメケン,ニイハマシ,ニシノドイチョウ,愛媛県新居浜市西の土居町
7920041,愛媛県,新居浜市,中村松木,エヒメケン,ニイハマシ,ナカムラマツギ,愛媛県新居浜市中村松木
7920042,愛媛県,新居浜市,本郷,エヒメケン,ニイハマシ,ホンゴウ,愛媛県新居浜市本郷
7920043,愛媛県,新居浜市,土橋,エヒメケン,ニイハマシ,ツチハシ,愛媛県新居浜市土橋
7920044,愛媛県,新居浜市,中村,エヒメケン,ニイハマシ,ナカムラ,愛媛県新居浜市中村
7920045,愛媛県,新居浜市,中萩町,エヒメケン,ニイハマシ,ナカハギチョウ,愛媛県新居浜市中萩町
7920046,愛媛県,新居浜市,上原,エヒメケン,ニイハマシ,ウワバラ,愛媛県新居浜市上原
7920047,愛媛県,新居浜市,御蔵町,エヒメケン,ニイハマシ,オクラチョウ,愛媛県新居浜市御蔵町
7920050,愛媛県,新居浜市,萩生,エヒメケン,ニイハマシ,ハギュウ,愛媛県新居浜市萩生
7920060,愛媛県,新居浜市,大生院,エヒメケン,ニイハマシ,オオジョウイン,愛媛県新居浜市大生院
7920071,愛媛県,新居浜市,金子丙,エヒメケン,ニイハマシ,カネコヘイ,愛媛県新居浜市金子丙
7920072,愛媛県,新居浜市,新居浜乙,エヒメケン,ニイハマシ,ニイハマオツ,愛媛県新居浜市新居浜乙
7920080,愛媛県,今治市,宮窪町四阪島,エヒメケン,イマバリシ,ミヤクボチョウシサカジマ,愛媛県今治市宮窪町四阪島
7920801,愛媛県,新居浜市,菊本町,エヒメケン,ニイハマシ,キクモトチョウ,愛媛県新居浜市菊本町
7920802,愛媛県,新居浜市,新須賀町,エヒメケン,ニイハマシ,シンスカチョウ,愛媛県新居浜市新須賀町
7920803,愛媛県,新居浜市,平形町,エヒメケン,ニイハマシ,ヒラカタチョウ,愛媛県新居浜市平形町
7920804,愛媛県,新居浜市,田所町,エヒメケン,ニイハマシ,タドコロチョウ,愛媛県新居浜市田所町
7920805,愛媛県,新居浜市,八雲町,エヒメケン,ニイハマシ,ヤグモチョウ,愛媛県新居浜市八雲町
7920811,愛媛県,新居浜市,庄内町,エヒメケン,ニイハマシ,ショウナイチョウ,愛媛県新居浜市庄内町
7920812,愛媛県,新居浜市,坂井町,エヒメケン,ニイハマシ,サカイチョウ,愛媛県新居浜市坂井町
7920813,愛媛県,新居浜市,下泉町,エヒメケン,ニイハマシ,シモイズミチョウ,愛媛県新居浜市下泉町
7920814,愛媛県,新居浜市,城下町,エヒメケン,ニイハマシ,シロシタチョウ,愛媛県新居浜市城下町
7920815,愛媛県,新居浜市,岸の上町,エヒメケン,ニイハマシ,キシノウエチョウ,愛媛県新居浜市岸の上町
7920821,愛媛県,新居浜市,瀬戸町,エヒメケン,ニイハマシ,セトチョウ,愛媛県新居浜市瀬戸町
7920822,愛媛県,新居浜市,寿町,エヒメケン,ニイハマシ,コトブキチョウ,愛媛県新居浜市寿町
7920823,愛媛県,新居浜市,外山町,エヒメケン,ニイハマシ,トヤマチョウ,愛媛県新居浜市外山町
7920824,愛媛県,新居浜市,上泉町,エヒメケン,ニイハマシ,カミイズミチョウ,愛媛県新居浜市上泉町
7920825,愛媛県,新居浜市,星原町,エヒメケン,ニイハマシ,ホシバラチョウ,愛媛県新居浜市星原町
7920826,愛媛県,新居浜市,喜光地町,エヒメケン,ニイハマシ,キコウジチョウ,愛媛県新居浜市喜光地町
7920827,愛媛県,新居浜市,西喜光地町,エヒメケン,ニイハマシ,ニシキコウジチョウ,愛媛県新居浜市西喜光地町
7920828,愛媛県,新居浜市,松原町,エヒメケン,ニイハマシ,マツバラチョウ,愛媛県新居浜市松原町
7920829,愛媛県,新居浜市,松木町,エヒメケン,ニイハマシ,マツギチョウ,愛媛県新居浜市松木町
7920831,愛媛県,新居浜市,西連寺町,エヒメケン,ニイハマシ,サイレンジチョウ,愛媛県新居浜市西連寺町
7920832,愛媛県,新居浜市,西泉町,エヒメケン,ニイハマシ,ニシイズミチョウ,愛媛県新居浜市西泉町
7920833,愛媛県,新居浜市,宮原町,エヒメケン,ニイハマシ,ミヤバラチョウ,愛媛県新居浜市宮原町
7920834,愛媛県,新居浜市,中西町,エヒメケン,ニイハマシ,ナカニシチョウ,愛媛県新居浜市中西町
7920835,愛媛県,新居浜市,山根町,エヒメケン,ニイハマシ,ヤマネチョウ,愛媛県新居浜市山根町
7920836,愛媛県,新居浜市,篠場町,エヒメケン,ニイハマシ,シノバチョウ,愛媛県新居浜市篠場町
7920837,愛媛県,新居浜市,山田町,エヒメケン,ニイハマシ,ヤマダチョウ,愛媛県新居浜市山田町
7920841,愛媛県,新居浜市,中筋町,エヒメケン,ニイハマシ,ナカスジチョウ,愛媛県新居浜市中筋町
7920842,愛媛県,新居浜市,北内町,エヒメケン,ニイハマシ,キタウチチョウ,愛媛県新居浜市北内町
7920843,愛媛県,新居浜市,吉岡町,エヒメケン,ニイハマシ,ヨシオカチョウ,愛媛県新居浜市吉岡町
7920844,愛媛県,新居浜市,角野新田町,エヒメケン,ニイハマシ,スミノシンデンチョウ,愛媛県新居浜市角野新田町
7920845,愛媛県,新居浜市,種子川町,エヒメケン,ニイハマシ,タネガワチョウ,愛媛県新居浜市種子川町
7920846,愛媛県,新居浜市,立川町（立川山を含む）,エヒメケン,ニイハマシ,タツカワチョウ(タツカワヤマヲフクム),愛媛県新居浜市立川町（立川山を含む）
7920847,愛媛県,新居浜市,大永山,エヒメケン,ニイハマシ,ダイエイヤマ,愛媛県新居浜市大永山
7920848,愛媛県,新居浜市,種子川山,エヒメケン,ニイハマシ,タネガワヤマ,愛媛県新居浜市種子川山
7920851,愛媛県,新居浜市,観音原町,エヒメケン,ニイハマシ,カンノンバラチョウ,愛媛県新居浜市観音原町
7920852,愛媛県,新居浜市,東田,エヒメケン,ニイハマシ,トウダ,愛媛県新居浜市東田
7920853,愛媛県,新居浜市,光明寺,エヒメケン,ニイハマシ,コウミョウジ,愛媛県新居浜市光明寺
7920854,愛媛県,新居浜市,国領,エヒメケン,ニイハマシ,コクリョウ,愛媛県新居浜市国領
7920855,愛媛県,新居浜市,七宝台町,エヒメケン,ニイハマシ,シッポウダイチョウ,愛媛県新居浜市七宝台町
7920856,愛媛県,新居浜市,船木,エヒメケン,ニイハマシ,フナキ,愛媛県新居浜市船木
7920857,愛媛県,新居浜市,角野,エヒメケン,ニイハマシ,スミノ,愛媛県新居浜市角野
7920861,愛媛県,新居浜市,清水町,エヒメケン,ニイハマシ,シミズチョウ,愛媛県新居浜市清水町
7920862,愛媛県,新居浜市,沢津町,エヒメケン,ニイハマシ,サワヅチョウ,愛媛県新居浜市沢津町
7920863,愛媛県,新居浜市,南小松原町,エヒメケン,ニイハマシ,ミナミコマツバラチョウ,愛媛県新居浜市南小松原町
7920864,愛媛県,新居浜市,東雲町,エヒメケン,ニイハマシ,シノノメチョウ,愛媛県新居浜市東雲町
7920865,愛媛県,新居浜市,桜木町,エヒメケン,ニイハマシ,サクラギチョウ,愛媛県新居浜市桜木町
7920866,愛媛県,新居浜市,宇高町,エヒメケン,ニイハマシ,ウダカチョウ,愛媛県新居浜市宇高町
7920867,愛媛県,新居浜市,高津町,エヒメケン,ニイハマシ,タカツチョウ,愛媛県新居浜市高津町
7920868,愛媛県,新居浜市,松の木町,エヒメケン,ニイハマシ,マツノキチョウ,愛媛県新居浜市松の木町
7920871,愛媛県,新居浜市,八幡,エヒメケン,ニイハマシ,ハチマン,愛媛県新居浜市八幡
7920872,愛媛県,新居浜市,垣生（丁目）,エヒメケン,ニイハマシ,ハブ(チョウメ),愛媛県新居浜市垣生（丁目）
7920873,愛媛県,新居浜市,垣生（番地）,エヒメケン,ニイハマシ,ハブ(バンチ),愛媛県新居浜市垣生（番地）
7920874,愛媛県,新居浜市,長岩町,エヒメケン,ニイハマシ,ナガイワチョウ,愛媛県新居浜市長岩町
7920881,愛媛県,新居浜市,松神子,エヒメケン,ニイハマシ,マツミコ,愛媛県新居浜市松神子
7920882,愛媛県,新居浜市,又野,エヒメケン,ニイハマシ,マタノ,愛媛県新居浜市又野
7920883,愛媛県,新居浜市,落神町,エヒメケン,ニイハマシ,オチガミチョウ,愛媛県新居浜市落神町
7920884,愛媛県,新居浜市,神郷,エヒメケン,ニイハマシ,コウザト,愛媛県新居浜市神郷
7920885,愛媛県,新居浜市,清住町,エヒメケン,ニイハマシ,キヨズミチョウ,愛媛県新居浜市清住町
7920886,愛媛県,新居浜市,郷（丁目）,エヒメケン,ニイハマシ,ゴウ(チョウメ),愛媛県新居浜市郷（丁目）
7920887,愛媛県,新居浜市,高田,エヒメケン,ニイハマシ,タカタ,愛媛県新居浜市高田
7920888,愛媛県,新居浜市,田の上,エヒメケン,ニイハマシ,タノウエ,愛媛県新居浜市田の上
7920890,愛媛県,新居浜市,楠崎,エヒメケン,ニイハマシ,クッサキ,愛媛県新居浜市楠崎
7920891,愛媛県,新居浜市,大島,エヒメケン,ニイハマシ,オオシマ,愛媛県新居浜市大島
7920892,愛媛県,新居浜市,黒島,エヒメケン,ニイハマシ,クロシマ,愛媛県新居浜市黒島
7920893,愛媛県,新居浜市,多喜浜,エヒメケン,ニイハマシ,タキハマ,愛媛県新居浜市多喜浜
7920894,愛媛県,新居浜市,郷（その他）,エヒメケン,ニイハマシ,ゴウ(ソノタ),愛媛県新居浜市郷（その他）
7920895,愛媛県,新居浜市,郷乙,エヒメケン,ニイハマシ,ゴウオツ,愛媛県新居浜市郷乙
7920896,愛媛県,新居浜市,阿島（その他）,エヒメケン,ニイハマシ,アシマ(ソノタ),愛媛県新居浜市阿島（その他）
7920897,愛媛県,新居浜市,阿島乙,エヒメケン,ニイハマシ,アシマオツ,愛媛県新居浜市阿島乙
7920898,愛媛県,新居浜市,荷内町,エヒメケン,ニイハマシ,ニナイチョウ,愛媛県新居浜市荷内町
7930000,愛媛県,西条市,,エヒメケン,サイジョウシ,,愛媛県西条市
7930001,愛媛県,西条市,玉津,エヒメケン,サイジョウシ,タマツ,愛媛県西条市玉津
7930002,愛媛県,西条市,天神,エヒメケン,サイジョウシ,テンジン,愛媛県西条市天神
7930003,愛媛県,西条市,ひうち,エヒメケン,サイジョウシ,ヒウチ,愛媛県西条市ひうち
7930004,愛媛県,西条市,船屋甲,エヒメケン,サイジョウシ,フナヤコウ,愛媛県西条市船屋甲
7930005,愛媛県,西条市,船屋乙,エヒメケン,サイジョウシ,フナヤオツ,愛媛県西条市船屋乙
7930006,愛媛県,西条市,下島山甲,エヒメケン,サイジョウシ,シモシマヤマコウ,愛媛県西条市下島山甲
7930007,愛媛県,西条市,下島山乙,エヒメケン,サイジョウシ,シモシマヤマオツ,愛媛県西条市下島山乙
7930010,愛媛県,西条市,飯岡,エヒメケン,サイジョウシ,イイオカ,愛媛県西条市飯岡
7930016,愛媛県,西条市,大浜,エヒメケン,サイジョウシ,オオハマ,愛媛県西条市大浜
7930017,愛媛県,西条市,早川,エヒメケン,サイジョウシ,ハイガワ,愛媛県西条市早川
7930021,愛媛県,西条市,神拝乙,エヒメケン,サイジョウシ,カンバイオツ,愛媛県西条市神拝乙
7930022,愛媛県,西条市,本町,エヒメケン,サイジョウシ,ホンマチ,愛媛県西条市本町
7930023,愛媛県,西条市,明屋敷,エヒメケン,サイジョウシ,アケヤシキ,愛媛県西条市明屋敷
7930024,愛媛県,西条市,大師町,エヒメケン,サイジョウシ,ダイシマチ,愛媛県西条市大師町
7930025,愛媛県,西条市,栄町,エヒメケン,サイジョウシ,サカエマチ,愛媛県西条市栄町
7930026,愛媛県,西条市,東町,エヒメケン,サイジョウシ,ヒガシマチ,愛媛県西条市東町
7930027,愛媛県,西条市,朔日市,エヒメケン,サイジョウシ,ツイタチ,愛媛県西条市朔日市
7930028,愛媛県,西条市,新田,エヒメケン,サイジョウシ,シンデン,愛媛県西条市新田
7930030,愛媛県,西条市,大町,エヒメケン,サイジョウシ,オオマチ,愛媛県西条市大町
7930034,愛媛県,西条市,明神木,エヒメケン,サイジョウシ,ミョウジンギ,愛媛県西条市明神木
7930035,愛媛県,西条市,福武甲,エヒメケン,サイジョウシ,フクタケコウ,愛媛県西条市福武甲
7930036,愛媛県,西条市,福武乙,エヒメケン,サイジョウシ,フクタケオツ,愛媛県西条市福武乙
7930037,愛媛県,西条市,市之川,エヒメケン,サイジョウシ,イチノカワ,愛媛県西条市市之川
7930038,愛媛県,西条市,丸野,エヒメケン,サイジョウシ,マルノ,愛媛県西条市丸野
7930039,愛媛県,西条市,保野,エヒメケン,サイジョウシ,ホウノ,愛媛県西条市保野
7930041,愛媛県,西条市,神拝甲,エヒメケン,サイジョウシ,カンバイコウ,愛媛県西条市神拝甲
7930042,愛媛県,西条市,喜多川,エヒメケン,サイジョウシ,キタガワ,愛媛県西条市喜多川
7930043,愛媛県,西条市,樋之口,エヒメケン,サイジョウシ,ヒノクチ,愛媛県西条市樋之口
7930044,愛媛県,西条市,古川甲,エヒメケン,サイジョウシ,フルカワコウ,愛媛県西条市古川甲
7930045,愛媛県,西条市,古川乙,エヒメケン,サイジョウシ,フルカワオツ,愛媛県西条市古川乙
7930046,愛媛県,西条市,港,エヒメケン,サイジョウシ,ミナト,愛媛県西条市港
7930051,愛媛県,西条市,安知生,エヒメケン,サイジョウシ,アンジュウ,愛媛県西条市安知生
7930052,愛媛県,西条市,中西,エヒメケン,サイジョウシ,ナカニシ,愛媛県西条市中西
7930053,愛媛県,西条市,洲之内甲,エヒメケン,サイジョウシ,スノウチコウ,愛媛県西条市洲之内甲
7930054,愛媛県,西条市,中野甲,エヒメケン,サイジョウシ,ナカノコウ,愛媛県西条市中野甲
7930055,愛媛県,西条市,中野乙,エヒメケン,サイジョウシ,ナカノオツ,愛媛県西条市中野乙
7930056,愛媛県,西条市,中野丙,エヒメケン,サイジョウシ,ナカノヘイ,愛媛県西条市中野丙
7930057,愛媛県,西条市,津越,エヒメケン,サイジョウシ,ツゴエ,愛媛県西条市津越
7930061,愛媛県,西条市,禎瑞,エヒメケン,サイジョウシ,テイズイ,愛媛県西条市禎瑞
7930062,愛媛県,西条市,西田甲,エヒメケン,サイジョウシ,ニシダコウ,愛媛県西条市西田甲
7930063,愛媛県,西条市,西泉甲,エヒメケン,サイジョウシ,ニシイズミコウ,愛媛県西条市西泉甲
7930064,愛媛県,西条市,西泉乙,エヒメケン,サイジョウシ,ニシイズミオツ,愛媛県西条市西泉乙
7930065,愛媛県,西条市,楢木,エヒメケン,サイジョウシ,ナラノキ,愛媛県西条市楢木
7930066,愛媛県,西条市,野々市,エヒメケン,サイジョウシ,ノノイチ,愛媛県西条市野々市
7930067,愛媛県,西条市,坂元甲,エヒメケン,サイジョウシ,サカモトコウ,愛媛県西条市坂元甲
7930071,愛媛県,西条市,氷見甲,エヒメケン,サイジョウシ,ヒミコウ,愛媛県西条市氷見甲
7930072,愛媛県,西条市,氷見乙,エヒメケン,サイジョウシ,ヒミオツ,愛媛県西条市氷見乙
7930073,愛媛県,西条市,氷見丙,エヒメケン,サイジョウシ,ヒミヘイ,愛媛県西条市氷見丙
7930074,愛媛県,西条市,氷見丁,エヒメケン,サイジョウシ,ヒミテイ,愛媛県西条市氷見丁
7930075,愛媛県,西条市,氷見戊,エヒメケン,サイジョウシ,ヒミボ,愛媛県西条市氷見戊
7930101,愛媛県,西条市,千町,エヒメケン,サイジョウシ,センジョウ,愛媛県西条市千町
7930102,愛媛県,西条市,藤之石,エヒメケン,サイジョウシ,フジノイシ,愛媛県西条市藤之石
7930103,愛媛県,西条市,荒川,エヒメケン,サイジョウシ,アラカワ,愛媛県西条市荒川
7930211,愛媛県,西条市,大保木,エヒメケン,サイジョウシ,オオフキ,愛媛県西条市大保木
7930212,愛媛県,西条市,黒瀬,エヒメケン,サイジョウシ,クロセ,愛媛県西条市黒瀬
7930213,愛媛県,西条市,兎之山,エヒメケン,サイジョウシ,トノヤマ,愛媛県西条市兎之山
7930214,愛媛県,西条市,中奥,エヒメケン,サイジョウシ,ナカオク,愛媛県西条市中奥
7930215,愛媛県,西条市,西之川,エヒメケン,サイジョウシ,ニシノカワ,愛媛県西条市西之川
7930216,愛媛県,西条市,東之川,エヒメケン,サイジョウシ,ヒガシノカワ,愛媛県西条市東之川
7940000,愛媛県,今治市,,エヒメケン,イマバリシ,,愛媛県今治市
7940001,愛媛県,今治市,砂場町,エヒメケン,イマバリシ,スナバチョウ,愛媛県今治市砂場町
7940002,愛媛県,今治市,大浜町,エヒメケン,イマバリシ,オオハマチョウ,愛媛県今治市大浜町
7940003,愛媛県,今治市,湊町,エヒメケン,イマバリシ,ミナトチョウ,愛媛県今治市湊町
7940004,愛媛県,今治市,鐘場町,エヒメケン,イマバリシ,カネバチョウ,愛媛県今治市鐘場町
7940005,愛媛県,今治市,大新田町,エヒメケン,イマバリシ,オオシンデンチョウ,愛媛県今治市大新田町
7940006,愛媛県,今治市,石井町,エヒメケン,イマバリシ,イシイチョウ,愛媛県今治市石井町
7940007,愛媛県,今治市,近見町,エヒメケン,イマバリシ,チカミチョウ,愛媛県今治市近見町
7940011,愛媛県,今治市,北浜町,エヒメケン,イマバリシ,キタハマチョウ,愛媛県今治市北浜町
7940012,愛媛県,今治市,美保町,エヒメケン,イマバリシ,ミホチョウ,愛媛県今治市美保町
7940013,愛媛県,今治市,片原町,エヒメケン,イマバリシ,カタハラチョウ,愛媛県今治市片原町
7940014,愛媛県,今治市,今治村（比岐島）,エヒメケン,イマバリシ,イマバリムラ(ヒキジマ),愛媛県今治市今治村（比岐島）
7940015,愛媛県,今治市,常盤町,エヒメケン,イマバリシ,トキワチョウ,愛媛県今治市常盤町
7940016,愛媛県,今治市,中浜町,エヒメケン,イマバリシ,ナカバマチョウ,愛媛県今治市中浜町
7940017,愛媛県,今治市,風早町,エヒメケン,イマバリシ,カザハヤチョウ,愛媛県今治市風早町
7940018,愛媛県,今治市,本町,エヒメケン,イマバリシ,ホンマチ,愛媛県今治市本町
7940021,愛媛県,今治市,米屋町,エヒメケン,イマバリシ,コメヤマチ,愛媛県今治市米屋町
7940022,愛媛県,今治市,室屋町,エヒメケン,イマバリシ,ムロヤチョウ,愛媛県今治市室屋町
7940023,愛媛県,今治市,栄町,エヒメケン,イマバリシ,サカエマチ,愛媛県今治市栄町
7940024,愛媛県,今治市,共栄町,エヒメケン,イマバリシ,キョウエイチョウ,愛媛県今治市共栄町
7940025,愛媛県,今治市,大正町,エヒメケン,イマバリシ,タイショウチョウ,愛媛県今治市大正町
7940026,愛媛県,今治市,別宮町,エヒメケン,イマバリシ,ベックチョウ,愛媛県今治市別宮町
7940027,愛媛県,今治市,南大門町,エヒメケン,イマバリシ,ミナミダイモンチョウ,愛媛県今治市南大門町
7940028,愛媛県,今治市,北宝来町,エヒメケン,イマバリシ,キタホウライチョウ,愛媛県今治市北宝来町
7940031,愛媛県,今治市,恵美須町,エヒメケン,イマバリシ,エビスチョウ,愛媛県今治市恵美須町
7940032,愛媛県,今治市,天保山町,エヒメケン,イマバリシ,テンポウザンチョウ,愛媛県今治市天保山町
7940033,愛媛県,今治市,東門町,エヒメケン,イマバリシ,ヒガシモンチョウ,愛媛県今治市東門町
7940034,愛媛県,今治市,美須賀町,エヒメケン,イマバリシ,ミスカチョウ,愛媛県今治市美須賀町
7940035,愛媛県,今治市,枝堀町,エヒメケン,イマバリシ,エダボリチョウ,愛媛県今治市枝堀町
7940036,愛媛県,今治市,通町,エヒメケン,イマバリシ,トオリチョウ,愛媛県今治市通町
7940037,愛媛県,今治市,黄金町,エヒメケン,イマバリシ,コガネチョウ,愛媛県今治市黄金町
7940038,愛媛県,今治市,末広町,エヒメケン,イマバリシ,スエヒロチョウ,愛媛県今治市末広町
7940041,愛媛県,今治市,松本町,エヒメケン,イマバリシ,マツモトチョウ,愛媛県今治市松本町
7940042,愛媛県,今治市,旭町,エヒメケン,イマバリシ,アサヒマチ,愛媛県今治市旭町
7940043,愛媛県,今治市,南宝来町,エヒメケン,イマバリシ,ミナミホウライチョウ,愛媛県今治市南宝来町
7940044,愛媛県,今治市,蔵敷町,エヒメケン,イマバリシ,クラシキチョウ,愛媛県今治市蔵敷町
7940051,愛媛県,今治市,高地町,エヒメケン,イマバリシ,コウチチョウ,愛媛県今治市高地町
7940052,愛媛県,今治市,宮下町,エヒメケン,イマバリシ,ミヤシタチョウ,愛媛県今治市宮下町
7940053,愛媛県,今治市,山方町,エヒメケン,イマバリシ,ヤマカタチョウ,愛媛県今治市山方町
7940054,愛媛県,今治市,北日吉町,エヒメケン,イマバリシ,キタヒヨシチョウ,愛媛県今治市北日吉町
7940055,愛媛県,今治市,中日吉町,エヒメケン,イマバリシ,ナカヒヨシチョウ,愛媛県今治市中日吉町
7940056,愛媛県,今治市,南日吉町,エヒメケン,イマバリシ,ミナミヒヨシチョウ,愛媛県今治市南日吉町
7940057,愛媛県,今治市,泉川町,エヒメケン,イマバリシ,イズミガワチョウ,愛媛県今治市泉川町
7940058,愛媛県,今治市,蒼社町,エヒメケン,イマバリシ,ソウシャチョウ,愛媛県今治市蒼社町
7940059,愛媛県,今治市,鯉池町,エヒメケン,イマバリシ,コイケチョウ,愛媛県今治市鯉池町
7940061,愛媛県,今治市,馬越二番耕地,エヒメケン,イマバリシ,ウマゴエニバンコウチ,愛媛県今治市馬越二番耕地
7940062,愛媛県,今治市,馬越町,エヒメケン,イマバリシ,ウマゴエチョウ,愛媛県今治市馬越町
7940063,愛媛県,今治市,片山,エヒメケン,イマバリシ,カタヤマ,愛媛県今治市片山
7940064,愛媛県,今治市,小泉,エヒメケン,イマバリシ,コイズミ,愛媛県今治市小泉
7940065,愛媛県,今治市,別名,エヒメケン,イマバリシ,ベツミョウ,愛媛県今治市別名
7940066,愛媛県,今治市,高橋,エヒメケン,イマバリシ,タカハシ,愛媛県今治市高橋
7940067,愛媛県,今治市,高橋ふれあいの丘,エヒメケン,イマバリシ,タカハシフレアイノオカ,愛媛県今治市高橋ふれあいの丘
7940068,愛媛県,今治市,にぎわい広場,エヒメケン,イマバリシ,ニギワイヒロバ,愛媛県今治市にぎわい広場
7940069,愛媛県,今治市,クリエイティブヒルズ,エヒメケン,イマバリシ,クリエイティブヒルズ,愛媛県今治市クリエイティブヒルズ
7940071,愛媛県,今治市,山路町,エヒメケン,イマバリシ,ヤマジチョウ,愛媛県今治市山路町
7940072,愛媛県,今治市,山路,エヒメケン,イマバリシ,ヤマジ,愛媛県今治市山路
7940073,愛媛県,今治市,矢田,エヒメケン,イマバリシ,ヤタ,愛媛県今治市矢田
7940074,愛媛県,今治市,神宮,エヒメケン,イマバリシ,カンノミヤ,愛媛県今治市神宮
7940081,愛媛県,今治市,阿方,エヒメケン,イマバリシ,アガタ,愛媛県今治市阿方
7940082,愛媛県,今治市,野間,エヒメケン,イマバリシ,ノマ,愛媛県今治市野間
7940083,愛媛県,今治市,宅間,エヒメケン,イマバリシ,タクマ,愛媛県今治市宅間
7940084,愛媛県,今治市,延喜,エヒメケン,イマバリシ,エンギ,愛媛県今治市延喜
7940085,愛媛県,今治市,いこいの丘,エヒメケン,イマバリシ,イコイノオカ,愛媛県今治市いこいの丘
7940086,愛媛県,今治市,しまなみの杜,エヒメケン,イマバリシ,シマナミノモリ,愛媛県今治市しまなみの杜
7940087,愛媛県,今治市,しまなみヒルズ,エヒメケン,イマバリシ,シマナミヒルズ,愛媛県今治市しまなみヒルズ
7940101,愛媛県,今治市,玉川町三反地,エヒメケン,イマバリシ,タマガワチョウサンダンジ,愛媛県今治市玉川町三反地
7940102,愛媛県,今治市,玉川町大野,エヒメケン,イマバリシ,タマガワチョウオオノ,愛媛県今治市玉川町大野
7940103,愛媛県,今治市,玉川町法界寺,エヒメケン,イマバリシ,タマガワチョウホウカイジ,愛媛県今治市玉川町法界寺
7940104,愛媛県,今治市,玉川町摺木,エヒメケン,イマバリシ,タマガワチョウスルギ,愛媛県今治市玉川町摺木
7940105,愛媛県,今治市,玉川町與和木,エヒメケン,イマバリシ,タマガワチョウヨワギ,愛媛県今治市玉川町與和木
7940106,愛媛県,今治市,玉川町鍋地,エヒメケン,イマバリシ,タマガワチョウナベジ,愛媛県今治市玉川町鍋地
7940107,愛媛県,今治市,玉川町桂,エヒメケン,イマバリシ,タマガワチョウカツラ,愛媛県今治市玉川町桂
7940108,愛媛県,今治市,玉川町御厩,エヒメケン,イマバリシ,タマガワチョウミマヤ,愛媛県今治市玉川町御厩
7940109,愛媛県,今治市,玉川町長谷,エヒメケン,イマバリシ,タマガワチョウナガタニ,愛媛県今治市玉川町長谷
7940111,愛媛県,今治市,玉川町中村,エヒメケン,イマバリシ,タマガワチョウナカムラ,愛媛県今治市玉川町中村
7940112,愛媛県,今治市,玉川町小鴨部,エヒメケン,イマバリシ,タマガワチョウコカンベ,愛媛県今治市玉川町小鴨部
7940113,愛媛県,今治市,玉川町別所,エヒメケン,イマバリシ,タマガワチョウベッショ,愛媛県今治市玉川町別所
7940114,愛媛県,今治市,玉川町八幡,エヒメケン,イマバリシ,タマガワチョウヤワタ,愛媛県今治市玉川町八幡
7940115,愛媛県,今治市,玉川町高野,エヒメケン,イマバリシ,タマガワチョウコウヤ,愛媛県今治市玉川町高野
7940116,愛媛県,今治市,玉川町畑寺,エヒメケン,イマバリシ,タマガワチョウハタデラ,愛媛県今治市玉川町畑寺
7940117,愛媛県,今治市,玉川町鬼原,エヒメケン,イマバリシ,タマガワチョウオニバラ,愛媛県今治市玉川町鬼原
7940121,愛媛県,今治市,玉川町鈍川,エヒメケン,イマバリシ,タマガワチョウニブカワ,愛媛県今治市玉川町鈍川
7940122,愛媛県,今治市,玉川町木地,エヒメケン,イマバリシ,タマガワチョウキジ,愛媛県今治市玉川町木地
7940123,愛媛県,今治市,玉川町龍岡下,エヒメケン,イマバリシ,タマガワチョウリュウオカシモ,愛媛県今治市玉川町龍岡下
7940124,愛媛県,今治市,玉川町龍岡上,エヒメケン,イマバリシ,タマガワチョウリュウオカカミ,愛媛県今治市玉川町龍岡上
7940125,愛媛県,今治市,玉川町葛谷,エヒメケン,イマバリシ,タマガワチョウカズラタニ,愛媛県今治市玉川町葛谷
7940801,愛媛県,今治市,東鳥生町,エヒメケン,イマバリシ,ヒガシトリウチョウ,愛媛県今治市東鳥生町
7940802,愛媛県,今治市,南鳥生町,エヒメケン,イマバリシ,ミナミトリウチョウ,愛媛県今治市南鳥生町
7940803,愛媛県,今治市,北鳥生町,エヒメケン,イマバリシ,キタトリウチョウ,愛媛県今治市北鳥生町
7940804,愛媛県,今治市,祇園町,エヒメケン,イマバリシ,ギオンチョウ,愛媛県今治市祇園町
7940805,愛媛県,今治市,広紹寺町,エヒメケン,イマバリシ,コウジョウジチョウ,愛媛県今治市広紹寺町
7940811,愛媛県,今治市,南高下町,エヒメケン,イマバリシ,ミナミコウゲチョウ,愛媛県今治市南高下町
7940812,愛媛県,今治市,北高下町,エヒメケン,イマバリシ,キタコウゲチョウ,愛媛県今治市北高下町
7940813,愛媛県,今治市,衣干町,エヒメケン,イマバリシ,キヌボシチョウ,愛媛県今治市衣干町
7940814,愛媛県,今治市,横田町,エヒメケン,イマバリシ,ヨコタチョウ,愛媛県今治市横田町
7940815,愛媛県,今治市,土橋町,エヒメケン,イマバリシ,ツチバシチョウ,愛媛県今治市土橋町
7940821,愛媛県,今治市,立花町,エヒメケン,イマバリシ,タチバナチョウ,愛媛県今治市立花町
7940822,愛媛県,今治市,河南町,エヒメケン,イマバリシ,カナンチョウ,愛媛県今治市河南町
7940823,愛媛県,今治市,郷本町,エヒメケン,イマバリシ,ゴウホンチョウ,愛媛県今治市郷本町
7940824,愛媛県,今治市,石橋町,エヒメケン,イマバリシ,イシバシチョウ,愛媛県今治市石橋町
7940825,愛媛県,今治市,郷六ケ内町,エヒメケン,イマバリシ,ゴウロクガウチチョウ,愛媛県今治市郷六ケ内町
7940826,愛媛県,今治市,郷新屋敷町,エヒメケン,イマバリシ,ゴウシンヤシキチョウ,愛媛県今治市郷新屋敷町
7940827,愛媛県,今治市,辻堂,エヒメケン,イマバリシ,ツジドウ,愛媛県今治市辻堂
7940831,愛媛県,今治市,八町東,エヒメケン,イマバリシ,ハッチョウヒガシ,愛媛県今治市八町東
7940832,愛媛県,今治市,八町西,エヒメケン,イマバリシ,ハッチョウニシ,愛媛県今治市八町西
7940840,愛媛県,今治市,中寺,エヒメケン,イマバリシ,ナカデラ,愛媛県今治市中寺
7940850,愛媛県,今治市,新谷,エヒメケン,イマバリシ,ニヤ,愛媛県今治市新谷
7940861,愛媛県,今治市,五十嵐,エヒメケン,イマバリシ,イカナシ,愛媛県今治市五十嵐
7940862,愛媛県,今治市,四村,エヒメケン,イマバリシ,ヨムラ,愛媛県今治市四村
7940863,愛媛県,今治市,徳重,エヒメケン,イマバリシ,トクシゲ,愛媛県今治市徳重
7941101,愛媛県,今治市,関前岡村,エヒメケン,イマバリシ,セキゼンオカムラ,愛媛県今治市関前岡村
7941102,愛媛県,今治市,関前小大下,エヒメケン,イマバリシ,セキゼンコオゲ,愛媛県今治市関前小大下
7941103,愛媛県,今治市,関前大下,エヒメケン,イマバリシ,セキゼンオオゲ,愛媛県今治市関前大下
7941301,愛媛県,今治市,大三島町肥海,エヒメケン,イマバリシ,オオミシマチョウヒガイ,愛媛県今治市大三島町肥海
7941302,愛媛県,今治市,大三島町大見,エヒメケン,イマバリシ,オオミシマチョウオオミ,愛媛県今治市大三島町大見
7941303,愛媛県,今治市,大三島町明日,エヒメケン,イマバリシ,オオミシマチョウアケビ,愛媛県今治市大三島町明日
7941304,愛媛県,今治市,大三島町宮浦,エヒメケン,イマバリシ,オオミシマチョウミヤウラ,愛媛県今治市大三島町宮浦
7941305,愛媛県,今治市,大三島町台,エヒメケン,イマバリシ,オオミシマチョウウテナ,愛媛県今治市大三島町台
7941306,愛媛県,今治市,大三島町野々江,エヒメケン,イマバリシ,オオミシマチョウノノエ,愛媛県今治市大三島町野々江
7941307,愛媛県,今治市,大三島町口総,エヒメケン,イマバリシ,オオミシマチョウクチスボ,愛媛県今治市大三島町口総
7941308,愛媛県,今治市,大三島町浦戸,エヒメケン,イマバリシ,オオミシマチョウウラド,愛媛県今治市大三島町浦戸
7941309,愛媛県,今治市,大三島町宗方,エヒメケン,イマバリシ,オオミシマチョウムナガタ,愛媛県今治市大三島町宗方
7941401,愛媛県,今治市,上浦町盛,エヒメケン,イマバリシ,カミウラチョウサカリ,愛媛県今治市上浦町盛
7941402,愛媛県,今治市,上浦町井口,エヒメケン,イマバリシ,カミウラチョウイノクチ,愛媛県今治市上浦町井口
7941403,愛媛県,今治市,上浦町甘崎,エヒメケン,イマバリシ,カミウラチョウアマザキ,愛媛県今治市上浦町甘崎
7941404,愛媛県,今治市,上浦町瀬戸,エヒメケン,イマバリシ,カミウラチョウセト,愛媛県今治市上浦町瀬戸
7942101,愛媛県,今治市,吉海町田浦,エヒメケン,イマバリシ,ヨシウミチョウタノウラ,愛媛県今治市吉海町田浦
7942102,愛媛県,今治市,吉海町泊,エヒメケン,イマバリシ,ヨシウミチョウトマリ,愛媛県今治市吉海町泊
7942103,愛媛県,今治市,吉海町福田,エヒメケン,イマバリシ,ヨシウミチョウフクダ,愛媛県今治市吉海町福田
7942104,愛媛県,今治市,吉海町仁江,エヒメケン,イマバリシ,ヨシウミチョウニエ,愛媛県今治市吉海町仁江
7942110,愛媛県,今治市,吉海町八幡,エヒメケン,イマバリシ,ヨシウミチョウヤワタ,愛媛県今治市吉海町八幡
7942111,愛媛県,今治市,吉海町幸新田,エヒメケン,イマバリシ,ヨシウミチョウサイワイシンデン,愛媛県今治市吉海町幸新田
7942112,愛媛県,今治市,吉海町本庄,エヒメケン,イマバリシ,ヨシウミチョウホンジョウ,愛媛県今治市吉海町本庄
7942113,愛媛県,今治市,吉海町椋名,エヒメケン,イマバリシ,ヨシウミチョウムクナ,愛媛県今治市吉海町椋名
7942114,愛媛県,今治市,吉海町名,エヒメケン,イマバリシ,ヨシウミチョウミョウ,愛媛県今治市吉海町名
7942115,愛媛県,今治市,吉海町南浦,エヒメケン,イマバリシ,ヨシウミチョウミナミウラ,愛媛県今治市吉海町南浦
7942116,愛媛県,今治市,吉海町名駒,エヒメケン,イマバリシ,ヨシウミチョウナゴマ,愛媛県今治市吉海町名駒
7942117,愛媛県,今治市,吉海町正味,エヒメケン,イマバリシ,ヨシウミチョウショウミ,愛媛県今治市吉海町正味
7942118,愛媛県,今治市,吉海町臥間,エヒメケン,イマバリシ,ヨシウミチョウフスマ,愛媛県今治市吉海町臥間
7942119,愛媛県,今治市,吉海町津島,エヒメケン,イマバリシ,ヨシウミチョウツシマ,愛媛県今治市吉海町津島
7942201,愛媛県,今治市,宮窪町早川,エヒメケン,イマバリシ,ミヤクボチョウハヤカワ,愛媛県今治市宮窪町早川
7942202,愛媛県,今治市,宮窪町余所国,エヒメケン,イマバリシ,ミヤクボチョウヨソクニ,愛媛県今治市宮窪町余所国
7942203,愛媛県,今治市,宮窪町宮窪,エヒメケン,イマバリシ,ミヤクボチョウミヤクボ,愛媛県今治市宮窪町宮窪
7942204,愛媛県,今治市,宮窪町友浦,エヒメケン,イマバリシ,ミヤクボチョウトモウラ,愛媛県今治市宮窪町友浦
7942301,愛媛県,今治市,伯方町有津,エヒメケン,イマバリシ,ハカタチョウアロウヅ,愛媛県今治市伯方町有津
7942302,愛媛県,今治市,伯方町叶浦,エヒメケン,イマバリシ,ハカタチョウカノウラ,愛媛県今治市伯方町叶浦
7942303,愛媛県,今治市,伯方町伊方,エヒメケン,イマバリシ,ハカタチョウイカタ,愛媛県今治市伯方町伊方
7942304,愛媛県,今治市,伯方町北浦,エヒメケン,イマバリシ,ハカタチョウキタウラ,愛媛県今治市伯方町北浦
7942305,愛媛県,今治市,伯方町木浦,エヒメケン,イマバリシ,ハカタチョウキノウラ,愛媛県今治市伯方町木浦
7942410,愛媛県,越智郡上島町,岩城,エヒメケン,オチグンカミジマチョウ,イワギ,愛媛県越智郡上島町岩城
7942500,愛媛県,越智郡上島町,,エヒメケン,オチグンカミジマチョウ,,愛媛県越智郡上島町
7942501,愛媛県,越智郡上島町,弓削久司浦,エヒメケン,オチグンカミジマチョウ,ユゲクジウラ,愛媛県越智郡上島町弓削久司浦
7942502,愛媛県,越智郡上島町,弓削沢津,エヒメケン,オチグンカミジマチョウ,ユゲサワヅ,愛媛県越智郡上島町弓削沢津
7942503,愛媛県,越智郡上島町,弓削上弓削,エヒメケン,オチグンカミジマチョウ,ユゲカミユゲ,愛媛県越智郡上島町弓削上弓削
7942503,愛媛県,越智郡上島町,弓削百貫,エヒメケン,オチグンカミジマチョウ,ユゲヒャッカン,愛媛県越智郡上島町弓削百貫
7942504,愛媛県,越智郡上島町,弓削引野,エヒメケン,オチグンカミジマチョウ,ユゲヒキノ,愛媛県越智郡上島町弓削引野
7942505,愛媛県,越智郡上島町,弓削明神,エヒメケン,オチグンカミジマチョウ,ユゲミョウジン,愛媛県越智郡上島町弓削明神
7942506,愛媛県,越智郡上島町,弓削下弓削,エヒメケン,オチグンカミジマチョウ,ユゲシモユゲ,愛媛県越智郡上島町弓削下弓削
7942507,愛媛県,越智郡上島町,弓削藤谷,エヒメケン,オチグンカミジマチョウ,ユゲフジタニ,愛媛県越智郡上島町弓削藤谷
7942508,愛媛県,越智郡上島町,弓削太田,エヒメケン,オチグンカミジマチョウ,ユゲオオタ,愛媛県越智郡上島町弓削太田
7942509,愛媛県,越智郡上島町,弓削土生,エヒメケン,オチグンカミジマチョウ,ユゲハブ,愛媛県越智郡上島町弓削土生
7942510,愛媛県,越智郡上島町,弓削鎌田,エヒメケン,オチグンカミジマチョウ,ユゲカマダ,愛媛県越智郡上島町弓削鎌田
7942511,愛媛県,越智郡上島町,弓削日比,エヒメケン,オチグンカミジマチョウ,ユゲヒビ,愛媛県越智郡上島町弓削日比
7942512,愛媛県,越智郡上島町,弓削狩尾,エヒメケン,オチグンカミジマチョウ,ユゲカリオ,愛媛県越智郡上島町弓削狩尾
7942513,愛媛県,越智郡上島町,弓削大谷,エヒメケン,オチグンカミジマチョウ,ユゲオオタニ,愛媛県越智郡上島町弓削大谷
7942520,愛媛県,越智郡上島町,弓削佐島,エヒメケン,オチグンカミジマチョウ,ユゲサシマ,愛媛県越智郡上島町弓削佐島
7942530,愛媛県,越智郡上島町,弓削豊島,エヒメケン,オチグンカミジマチョウ,ユゲトヨシマ,愛媛県越智郡上島町弓削豊島
7942540,愛媛県,越智郡上島町,魚島一番耕地,エヒメケン,オチグンカミジマチョウ,ウオシマイチバンコウチ,愛媛県越智郡上島町魚島一番耕地
7942541,愛媛県,越智郡上島町,魚島二番耕地,エヒメケン,オチグンカミジマチョウ,ウオシマニバンコウチ,愛媛県越智郡上島町魚島二番耕地
7942542,愛媛県,越智郡上島町,魚島三番耕地,エヒメケン,オチグンカミジマチョウ,ウオシマサンバンコウチ,愛媛県越智郡上島町魚島三番耕地
7942550,愛媛県,越智郡上島町,生名,エヒメケン,オチグンカミジマチョウ,イキナ,愛媛県越智郡上島町生名
7950000,愛媛県,大洲市,,エヒメケン,オオズシ,,愛媛県大洲市
7950001,愛媛県,大洲市,北只,エヒメケン,オオズシ,キタタダ,愛媛県大洲市北只
7950002,愛媛県,大洲市,松尾,エヒメケン,オオズシ,マツオ,愛媛県大洲市松尾
7950003,愛媛県,大洲市,梅川,エヒメケン,オオズシ,ウメガワ,愛媛県大洲市梅川
7950004,愛媛県,大洲市,長谷,エヒメケン,オオズシ,ナガタニ,愛媛県大洲市長谷
7950005,愛媛県,大洲市,横野（久保）,エヒメケン,オオズシ,ヨコノ(クボ),愛媛県大洲市横野（久保）
7950006,愛媛県,大洲市,野佐来,エヒメケン,オオズシ,ヤサライ,愛媛県大洲市野佐来
7950007,愛媛県,大洲市,稲積,エヒメケン,オオズシ,イナズミ,愛媛県大洲市稲積
7950008,愛媛県,大洲市,黒木,エヒメケン,オオズシ,クロギ,愛媛県大洲市黒木
7950009,愛媛県,大洲市,北裏,エヒメケン,オオズシ,キタウラ,愛媛県大洲市北裏
7950011,愛媛県,大洲市,柚木,エヒメケン,オオズシ,ユノキ,愛媛県大洲市柚木
7950012,愛媛県,大洲市,大洲,エヒメケン,オオズシ,オオズ,愛媛県大洲市大洲
7950013,愛媛県,大洲市,西大洲,エヒメケン,オオズシ,ニシオオズ,愛媛県大洲市西大洲
7950021,愛媛県,大洲市,平野町野田,エヒメケン,オオズシ,ヒラノチョウノダ,愛媛県大洲市平野町野田
7950022,愛媛県,大洲市,平野町平地（その他）,エヒメケン,オオズシ,ヒラノチョウヒラジ(ソノタ),愛媛県大洲市平野町平地（その他）
7950023,愛媛県,大洲市,平野町平地（横野）,エヒメケン,オオズシ,ヒラノチョウヒラジ(ヨコノ),愛媛県大洲市平野町平地（横野）
7950024,愛媛県,大洲市,高山,エヒメケン,オオズシ,タカヤマ,愛媛県大洲市高山
7950025,愛媛県,大洲市,阿蔵,エヒメケン,オオズシ,アゾウ,愛媛県大洲市阿蔵
7950031,愛媛県,大洲市,多田,エヒメケン,オオズシ,タダ,愛媛県大洲市多田
7950032,愛媛県,大洲市,上須戒,エヒメケン,オオズシ,カミスガイ,愛媛県大洲市上須戒
7950041,愛媛県,大洲市,八多喜町,エヒメケン,オオズシ,ハタキチョウ,愛媛県大洲市八多喜町
7950042,愛媛県,大洲市,米津,エヒメケン,オオズシ,ヨナヅ,愛媛県大洲市米津
7950043,愛媛県,大洲市,米津（甲）,エヒメケン,オオズシ,ヨナヅ(コウ),愛媛県大洲市米津（甲）
7950044,愛媛県,大洲市,手成,エヒメケン,オオズシ,テナル,愛媛県大洲市手成
7950045,愛媛県,大洲市,東宇山,エヒメケン,オオズシ,ヒガシウヤマ,愛媛県大洲市東宇山
7950046,愛媛県,大洲市,春賀,エヒメケン,オオズシ,ハルカ,愛媛県大洲市春賀
7950051,愛媛県,大洲市,五郎,エヒメケン,オオズシ,ゴロウ,愛媛県大洲市五郎
7950052,愛媛県,大洲市,若宮,エヒメケン,オオズシ,ワカミヤ,愛媛県大洲市若宮
7950053,愛媛県,大洲市,常磐町,エヒメケン,オオズシ,トキワマチ,愛媛県大洲市常磐町
7950054,愛媛県,大洲市,中村,エヒメケン,オオズシ,ナカムラ,愛媛県大洲市中村
7950061,愛媛県,大洲市,徳森,エヒメケン,オオズシ,トクノモリ,愛媛県大洲市徳森
7950062,愛媛県,大洲市,市木,エヒメケン,オオズシ,イチギ,愛媛県大洲市市木
7950063,愛媛県,大洲市,田口,エヒメケン,オオズシ,タノクチ,愛媛県大洲市田口
7950064,愛媛県,大洲市,東大洲,エヒメケン,オオズシ,ヒガシオオズ,愛媛県大洲市東大洲
7950065,愛媛県,大洲市,東若宮,エヒメケン,オオズシ,ヒガシワカミヤ,愛媛県大洲市東若宮
7950069,愛媛県,大洲市,新谷,エヒメケン,オオズシ,ニイヤ,愛媛県大洲市新谷
7950070,愛媛県,大洲市,新谷丙,エヒメケン,オオズシ,ニイヤヘイ,愛媛県大洲市新谷丙
7950071,愛媛県,大洲市,新谷乙,エヒメケン,オオズシ,ニイヤオツ,愛媛県大洲市新谷乙
7950072,愛媛県,大洲市,新谷甲,エヒメケン,オオズシ,ニイヤコウ,愛媛県大洲市新谷甲
7950073,愛媛県,大洲市,新谷町,エヒメケン,オオズシ,ニイヤマチ,愛媛県大洲市新谷町
7950074,愛媛県,大洲市,恋木,エヒメケン,オオズシ,コイノキ,愛媛県大洲市恋木
7950075,愛媛県,大洲市,喜多山,エヒメケン,オオズシ,キタヤマ,愛媛県大洲市喜多山
7950076,愛媛県,大洲市,藤縄,エヒメケン,オオズシ,フジナワ,愛媛県大洲市藤縄
7950077,愛媛県,大洲市,柳沢,エヒメケン,オオズシ,ヤナギサワ,愛媛県大洲市柳沢
7950078,愛媛県,大洲市,田処,エヒメケン,オオズシ,タドコロ,愛媛県大洲市田処
7950081,愛媛県,大洲市,菅田町菅田丙,エヒメケン,オオズシ,スゲタチョウスゲタヘイ,愛媛県大洲市菅田町菅田丙
7950081,愛媛県,大洲市,菅田町菅田甲,エヒメケン,オオズシ,スゲタチョウスゲタコウ,愛媛県大洲市菅田町菅田甲
7950082,愛媛県,大洲市,菅田町菅田乙,エヒメケン,オオズシ,スゲタチョウスゲタオツ,愛媛県大洲市菅田町菅田乙
7950083,愛媛県,大洲市,菅田町大竹,エヒメケン,オオズシ,スゲタチョウオオダケ,愛媛県大洲市菅田町大竹
7950084,愛媛県,大洲市,菅田町宇津甲,エヒメケン,オオズシ,スゲタチョウウズコウ,愛媛県大洲市菅田町宇津甲
7950085,愛媛県,大洲市,菅田町宇津乙,エヒメケン,オオズシ,スゲタチョウウズオツ,愛媛県大洲市菅田町宇津乙
7950086,愛媛県,大洲市,成能,エヒメケン,オオズシ,ナルノウ,愛媛県大洲市成能
7950087,愛媛県,大洲市,森山,エヒメケン,オオズシ,モリヤマ,愛媛県大洲市森山
7950088,愛媛県,大洲市,宇和川,エヒメケン,オオズシ,ウワガワ,愛媛県大洲市宇和川
7950089,愛媛県,大洲市,蔵川,エヒメケン,オオズシ,クラカワ,愛媛県大洲市蔵川
7950301,愛媛県,喜多郡内子町,五十崎,エヒメケン,キタグンウチコチョウ,イカザキ,愛媛県喜多郡内子町五十崎
7950302,愛媛県,喜多郡内子町,大久喜,エヒメケン,キタグンウチコチョウ,オオグキ,愛媛県喜多郡内子町大久喜
7950303,愛媛県,喜多郡内子町,平岡,エヒメケン,キタグンウチコチョウ,ヒラオカ,愛媛県喜多郡内子町平岡
7950304,愛媛県,喜多郡内子町,重松,エヒメケン,キタグンウチコチョウ,シゲマツ,愛媛県喜多郡内子町重松
7950305,愛媛県,喜多郡内子町,宿間,エヒメケン,キタグンウチコチョウ,シュクマ,愛媛県喜多郡内子町宿間
7950306,愛媛県,喜多郡内子町,福岡,エヒメケン,キタグンウチコチョウ,フクオカ,愛媛県喜多郡内子町福岡
7950307,愛媛県,喜多郡内子町,北表,エヒメケン,キタグンウチコチョウ,キタオモテ,愛媛県喜多郡内子町北表
7950308,愛媛県,喜多郡内子町,山鳥坂,エヒメケン,キタグンウチコチョウ,ヤマトサカ,愛媛県喜多郡内子町山鳥坂
7950309,愛媛県,喜多郡内子町,只海,エヒメケン,キタグンウチコチョウ,タダノウミ,愛媛県喜多郡内子町只海
7960000,愛媛県,八幡浜市,,エヒメケン,ヤワタハマシ,,愛媛県八幡浜市
7960001,愛媛県,八幡浜市,向灘,エヒメケン,ヤワタハマシ,ムカイナダ,愛媛県八幡浜市向灘
7960002,愛媛県,八幡浜市,大平（花園町）,エヒメケン,ヤワタハマシ,オオヒラ(ハナゾノチョウ),愛媛県八幡浜市大平（花園町）
7960003,愛媛県,八幡浜市,大平（その他）,エヒメケン,ヤワタハマシ,オオヒラ(ソノタ),愛媛県八幡浜市大平（その他）
7960004,愛媛県,八幡浜市,大平（津羽井）,エヒメケン,ヤワタハマシ,オオヒラ(ツバイ),愛媛県八幡浜市大平（津羽井）
7960005,愛媛県,八幡浜市,高野地,エヒメケン,ヤワタハマシ,タカノジ,愛媛県八幡浜市高野地
7960010,愛媛県,八幡浜市,松柏,エヒメケン,ヤワタハマシ,マツカヤ,愛媛県八幡浜市松柏
7960011,愛媛県,八幡浜市,木多町,エヒメケン,ヤワタハマシ,キタマチ,愛媛県八幡浜市木多町
7960012,愛媛県,八幡浜市,南柏,エヒメケン,ヤワタハマシ,ミナミガヤ,愛媛県八幡浜市南柏
7960013,愛媛県,八幡浜市,山越,エヒメケン,ヤワタハマシ,ヤマグイ,愛媛県八幡浜市山越
7960014,愛媛県,八幡浜市,新和田町,エヒメケン,ヤワタハマシ,シンワダマチ,愛媛県八幡浜市新和田町
7960020,愛媛県,八幡浜市,神宮,エヒメケン,ヤワタハマシ,ジングウ,愛媛県八幡浜市神宮
7960021,愛媛県,八幡浜市,桧谷,エヒメケン,ヤワタハマシ,ヒノキダニ,愛媛県八幡浜市桧谷
7960022,愛媛県,八幡浜市,駅前,エヒメケン,ヤワタハマシ,エキマエ,愛媛県八幡浜市駅前
7960023,愛媛県,八幡浜市,神宮前,エヒメケン,ヤワタハマシ,ジングウマエ,愛媛県八幡浜市神宮前
7960024,愛媛県,八幡浜市,神宮通,エヒメケン,ヤワタハマシ,ジングウドオリ,愛媛県八幡浜市神宮通
7960025,愛媛県,八幡浜市,東矢野町,エヒメケン,ヤワタハマシ,ヒガシヤノマチ,愛媛県八幡浜市東矢野町
7960026,愛媛県,八幡浜市,矢野町（その他）,エヒメケン,ヤワタハマシ,ヤノマチ(ソノタ),愛媛県八幡浜市矢野町（その他）
7960027,愛媛県,八幡浜市,松蔭町,エヒメケン,ヤワタハマシ,マツカゲチョウ,愛媛県八幡浜市松蔭町
7960028,愛媛県,八幡浜市,清水町,エヒメケン,ヤワタハマシ,シミズマチ,愛媛県八幡浜市清水町
7960029,愛媛県,八幡浜市,花小路,エヒメケン,ヤワタハマシ,ハナコウジ,愛媛県八幡浜市花小路
7960031,愛媛県,八幡浜市,江戸岡,エヒメケン,ヤワタハマシ,エドオカ,愛媛県八幡浜市江戸岡
7960032,愛媛県,八幡浜市,東新川,エヒメケン,ヤワタハマシ,ヒガシシンカワ,愛媛県八幡浜市東新川
7960033,愛媛県,八幡浜市,大正町,エヒメケン,ヤワタハマシ,タイショウマチ,愛媛県八幡浜市大正町
7960034,愛媛県,八幡浜市,浜田町,エヒメケン,ヤワタハマシ,ハマダマチ,愛媛県八幡浜市浜田町
7960035,愛媛県,八幡浜市,須崎,エヒメケン,ヤワタハマシ,スサキ,愛媛県八幡浜市須崎
7960036,愛媛県,八幡浜市,新川,エヒメケン,ヤワタハマシ,シンカワ,愛媛県八幡浜市新川
7960037,愛媛県,八幡浜市,昭和通,エヒメケン,ヤワタハマシ,ショウワドオリ,愛媛県八幡浜市昭和通
7960038,愛媛県,八幡浜市,清水町花小路,エヒメケン,ヤワタハマシ,シミズマチハナコウジ,愛媛県八幡浜市清水町花小路
7960041,愛媛県,八幡浜市,裁判所通,エヒメケン,ヤワタハマシ,サイバンショドオリ,愛媛県八幡浜市裁判所通
7960042,愛媛県,八幡浜市,喜多町,エヒメケン,ヤワタハマシ,キタマチ,愛媛県八幡浜市喜多町
7960043,愛媛県,八幡浜市,東近江屋町,エヒメケン,ヤワタハマシ,ヒガシオウミヤチョウ,愛媛県八幡浜市東近江屋町
7960044,愛媛県,八幡浜市,西近江屋町,エヒメケン,ヤワタハマシ,ニシオウミヤチョウ,愛媛県八幡浜市西近江屋町
7960045,愛媛県,八幡浜市,西近江屋町浜通,エヒメケン,ヤワタハマシ,ニシオウミヤチョウハマドオリ,愛媛県八幡浜市西近江屋町浜通
7960046,愛媛県,八幡浜市,旧港,エヒメケン,ヤワタハマシ,キュウミナト,愛媛県八幡浜市旧港
7960047,愛媛県,八幡浜市,白浜通,エヒメケン,ヤワタハマシ,シロハマドオリ,愛媛県八幡浜市白浜通
7960048,愛媛県,八幡浜市,北浜,エヒメケン,ヤワタハマシ,キタハマ,愛媛県八幡浜市北浜
7960051,愛媛県,八幡浜市,幸町,エヒメケン,ヤワタハマシ,サイワイマチ,愛媛県八幡浜市幸町
7960052,愛媛県,八幡浜市,松本町,エヒメケン,ヤワタハマシ,マツモトチョウ,愛媛県八幡浜市松本町
7960053,愛媛県,八幡浜市,海望園,エヒメケン,ヤワタハマシ,カイボウエン,愛媛県八幡浜市海望園
7960054,愛媛県,八幡浜市,琴平町,エヒメケン,ヤワタハマシ,コトヒラチョウ,愛媛県八幡浜市琴平町
7960055,愛媛県,八幡浜市,大門,エヒメケン,ヤワタハマシ,ダイモン,愛媛県八幡浜市大門
7960056,愛媛県,八幡浜市,愛宕,エヒメケン,ヤワタハマシ,アタゴ,愛媛県八幡浜市愛宕
7960057,愛媛県,八幡浜市,愛宕山団地,エヒメケン,ヤワタハマシ,アタゴヤマダンチ,愛媛県八幡浜市愛宕山団地
7960061,愛媛県,八幡浜市,海老崎,エヒメケン,ヤワタハマシ,エビサキ,愛媛県八幡浜市海老崎
7960062,愛媛県,八幡浜市,新栄町,エヒメケン,ヤワタハマシ,シンエイチョウ,愛媛県八幡浜市新栄町
7960063,愛媛県,八幡浜市,横町,エヒメケン,ヤワタハマシ,ヨコマチ,愛媛県八幡浜市横町
7960064,愛媛県,八幡浜市,船場通,エヒメケン,ヤワタハマシ,センバドオリ,愛媛県八幡浜市船場通
7960065,愛媛県,八幡浜市,片山町,エヒメケン,ヤワタハマシ,カタヤマチョウ,愛媛県八幡浜市片山町
7960066,愛媛県,八幡浜市,本町,エヒメケン,ヤワタハマシ,ホンマチ,愛媛県八幡浜市本町
7960067,愛媛県,八幡浜市,中央,エヒメケン,ヤワタハマシ,チュウオウ,愛媛県八幡浜市中央
7960068,愛媛県,八幡浜市,浜之町,エヒメケン,ヤワタハマシ,ハマノマチ,愛媛県八幡浜市浜之町
7960069,愛媛県,八幡浜市,下道,エヒメケン,ヤワタハマシ,シタミチ,愛媛県八幡浜市下道
7960071,愛媛県,八幡浜市,新町,エヒメケン,ヤワタハマシ,シンマチ,愛媛県八幡浜市新町
7960072,愛媛県,八幡浜市,港町,エヒメケン,ヤワタハマシ,ミナトマチ,愛媛県八幡浜市港町
7960073,愛媛県,八幡浜市,戎町,エヒメケン,ヤワタハマシ,エビスマチ,愛媛県八幡浜市戎町
7960074,愛媛県,八幡浜市,新港,エヒメケン,ヤワタハマシ,シンミナト,愛媛県八幡浜市新港
7960075,愛媛県,八幡浜市,仲之町,エヒメケン,ヤワタハマシ,ナカノマチ,愛媛県八幡浜市仲之町
7960076,愛媛県,八幡浜市,千代田町,エヒメケン,ヤワタハマシ,チヨダマチ,愛媛県八幡浜市千代田町
7960077,愛媛県,八幡浜市,旧役場前通,エヒメケン,ヤワタハマシ,キュウヤクバマエドオリ,愛媛県八幡浜市旧役場前通
7960079,愛媛県,八幡浜市,新港戎町,エヒメケン,ヤワタハマシ,シンミナトエビスマチ,愛媛県八幡浜市新港戎町
7960081,愛媛県,八幡浜市,朝潮橋,エヒメケン,ヤワタハマシ,アサシオバシ,愛媛県八幡浜市朝潮橋
7960082,愛媛県,八幡浜市,北大黒町,エヒメケン,ヤワタハマシ,キタダイコクマチ,愛媛県八幡浜市北大黒町
7960083,愛媛県,八幡浜市,大黒町,エヒメケン,ヤワタハマシ,ダイコクマチ,愛媛県八幡浜市大黒町
7960084,愛媛県,八幡浜市,南大黒町,エヒメケン,ヤワタハマシ,ミナミダイコクマチ,愛媛県八幡浜市南大黒町
7960085,愛媛県,八幡浜市,天神通,エヒメケン,ヤワタハマシ,テンジンドオリ,愛媛県八幡浜市天神通
7960086,愛媛県,八幡浜市,旭町,エヒメケン,ヤワタハマシ,アサヒマチ,愛媛県八幡浜市旭町
7960087,愛媛県,八幡浜市,沖新田,エヒメケン,ヤワタハマシ,オキシンデン,愛媛県八幡浜市沖新田
7960088,愛媛県,八幡浜市,,エヒメケン,ヤワタハマシ,,愛媛県八幡浜市
7960089,愛媛県,八幡浜市,出島,エヒメケン,ヤワタハマシ,デジマ,愛媛県八幡浜市出島
7960111,愛媛県,八幡浜市,保内町喜木,エヒメケン,ヤワタハマシ,ホナイチョウキキ,愛媛県八幡浜市保内町喜木
7960112,愛媛県,八幡浜市,保内町須川,エヒメケン,ヤワタハマシ,ホナイチョウスガワ,愛媛県八幡浜市保内町須川
7960170,愛媛県,八幡浜市,日土町,エヒメケン,ヤワタハマシ,ヒヅチチョウ,愛媛県八幡浜市日土町
7960201,愛媛県,八幡浜市,保内町川之石,エヒメケン,ヤワタハマシ,ホナイチョウカワノイシ,愛媛県八幡浜市保内町川之石
7960202,愛媛県,八幡浜市,保内町宮内,エヒメケン,ヤワタハマシ,ホナイチョウミヤウチ,愛媛県八幡浜市保内町宮内
7960203,愛媛県,八幡浜市,保内町磯崎,エヒメケン,ヤワタハマシ,ホナイチョウイサキ,愛媛県八幡浜市保内町磯崎
7960204,愛媛県,八幡浜市,保内町喜木津,エヒメケン,ヤワタハマシ,ホナイチョウキキツ,愛媛県八幡浜市保内町喜木津
7960205,愛媛県,八幡浜市,保内町広早,エヒメケン,ヤワタハマシ,ホナイチョウヒロハヤ,愛媛県八幡浜市保内町広早
7960300,愛媛県,西宇和郡伊方町,,エヒメケン,ニシウワグンイカタチョウ,,愛媛県西宇和郡伊方町
7960301,愛媛県,西宇和郡伊方町,湊浦,エヒメケン,ニシウワグンイカタチョウ,ミナトウラ,愛媛県西宇和郡伊方町湊浦
7960302,愛媛県,西宇和郡伊方町,小中浦,エヒメケン,ニシウワグンイカタチョウ,コナカウラ,愛媛県西宇和郡伊方町小中浦
7960303,愛媛県,西宇和郡伊方町,亀浦,エヒメケン,ニシウワグンイカタチョウ,カメウラ,愛媛県西宇和郡伊方町亀浦
7960304,愛媛県,西宇和郡伊方町,伊方越,エヒメケン,ニシウワグンイカタチョウ,イカタゴシ,愛媛県西宇和郡伊方町伊方越
7960305,愛媛県,西宇和郡伊方町,河内,エヒメケン,ニシウワグンイカタチョウ,カワウチ,愛媛県西宇和郡伊方町河内
7960306,愛媛県,西宇和郡伊方町,仁田之浜,エヒメケン,ニシウワグンイカタチョウ,ニタノハマ,愛媛県西宇和郡伊方町仁田之浜
7960307,愛媛県,西宇和郡伊方町,中之浜,エヒメケン,ニシウワグンイカタチョウ,ナカノハマ,愛媛県西宇和郡伊方町中之浜
7960308,愛媛県,西宇和郡伊方町,大浜,エヒメケン,ニシウワグンイカタチョウ,オオハマ,愛媛県西宇和郡伊方町大浜
7960311,愛媛県,西宇和郡伊方町,中浦,エヒメケン,ニシウワグンイカタチョウ,ナカウラ,愛媛県西宇和郡伊方町中浦
7960312,愛媛県,西宇和郡伊方町,川永田,エヒメケン,ニシウワグンイカタチョウ,カワナガタ,愛媛県西宇和郡伊方町川永田
7960313,愛媛県,西宇和郡伊方町,豊之浦,エヒメケン,ニシウワグンイカタチョウ,トヨノウラ,愛媛県西宇和郡伊方町豊之浦
7960421,愛媛県,西宇和郡伊方町,九町,エヒメケン,ニシウワグンイカタチョウ,クチョウ,愛媛県西宇和郡伊方町九町
7960422,愛媛県,西宇和郡伊方町,二見,エヒメケン,ニシウワグンイカタチョウ,フタミ,愛媛県西宇和郡伊方町二見
7960501,愛媛県,西宇和郡伊方町,足成,エヒメケン,ニシウワグンイカタチョウ,アシナル,愛媛県西宇和郡伊方町足成
7960502,愛媛県,西宇和郡伊方町,三机,エヒメケン,ニシウワグンイカタチョウ,ミツクエ,愛媛県西宇和郡伊方町三机
7960503,愛媛県,西宇和郡伊方町,大江,エヒメケン,ニシウワグンイカタチョウ,オオエ,愛媛県西宇和郡伊方町大江
7960504,愛媛県,西宇和郡伊方町,志津,エヒメケン,ニシウワグンイカタチョウ,シツ,愛媛県西宇和郡伊方町志津
7960505,愛媛県,西宇和郡伊方町,小島,エヒメケン,ニシウワグンイカタチョウ,コジマ,愛媛県西宇和郡伊方町小島
7960506,愛媛県,西宇和郡伊方町,塩成,エヒメケン,ニシウワグンイカタチョウ,シオナシ,愛媛県西宇和郡伊方町塩成
7960611,愛媛県,西宇和郡伊方町,川之浜,エヒメケン,ニシウワグンイカタチョウ,カワノハマ,愛媛県西宇和郡伊方町川之浜
7960612,愛媛県,西宇和郡伊方町,大久,エヒメケン,ニシウワグンイカタチョウ,オオク,愛媛県西宇和郡伊方町大久
7960613,愛媛県,西宇和郡伊方町,神崎,エヒメケン,ニシウワグンイカタチョウ,コウザキ,愛媛県西宇和郡伊方町神崎
7960614,愛媛県,西宇和郡伊方町,田部,エヒメケン,ニシウワグンイカタチョウ,タブ,愛媛県西宇和郡伊方町田部
7960615,愛媛県,西宇和郡伊方町,高茂,エヒメケン,ニシウワグンイカタチョウ,コウモ,愛媛県西宇和郡伊方町高茂
7960801,愛媛県,西宇和郡伊方町,三崎,エヒメケン,ニシウワグンイカタチョウ,ミサキ,愛媛県西宇和郡伊方町三崎
7960802,愛媛県,西宇和郡伊方町,高浦,エヒメケン,ニシウワグンイカタチョウ,タカウラ,愛媛県西宇和郡伊方町高浦
7960803,愛媛県,西宇和郡伊方町,佐田,エヒメケン,ニシウワグンイカタチョウ,サダ,愛媛県西宇和郡伊方町佐田
7960804,愛媛県,西宇和郡伊方町,大佐田,エヒメケン,ニシウワグンイカタチョウ,オオサダ,愛媛県西宇和郡伊方町大佐田
7960805,愛媛県,西宇和郡伊方町,井野浦,エヒメケン,ニシウワグンイカタチョウ,イノウラ,愛媛県西宇和郡伊方町井野浦
7960811,愛媛県,西宇和郡伊方町,松,エヒメケン,ニシウワグンイカタチョウ,マツ,愛媛県西宇和郡伊方町松
7960812,愛媛県,西宇和郡伊方町,明神,エヒメケン,ニシウワグンイカタチョウ,ミョウジン,愛媛県西宇和郡伊方町明神
7960813,愛媛県,西宇和郡伊方町,二名津,エヒメケン,ニシウワグンイカタチョウ,フタナヅ,愛媛県西宇和郡伊方町二名津
7960814,愛媛県,西宇和郡伊方町,平礒,エヒメケン,ニシウワグンイカタチョウ,ヒライソ,愛媛県西宇和郡伊方町平礒
7960815,愛媛県,西宇和郡伊方町,釜木,エヒメケン,ニシウワグンイカタチョウ,カマギ,愛媛県西宇和郡伊方町釜木
7960816,愛媛県,西宇和郡伊方町,名取,エヒメケン,ニシウワグンイカタチョウ,ナトリ,愛媛県西宇和郡伊方町名取
7960821,愛媛県,西宇和郡伊方町,与侈,エヒメケン,ニシウワグンイカタチョウ,ヨボコリ,愛媛県西宇和郡伊方町与侈
7960822,愛媛県,西宇和郡伊方町,串,エヒメケン,ニシウワグンイカタチョウ,クシ,愛媛県西宇和郡伊方町串
7960823,愛媛県,西宇和郡伊方町,正野,エヒメケン,ニシウワグンイカタチョウ,ショウノ,愛媛県西宇和郡伊方町正野
7960901,愛媛県,西予市,三瓶町周木,エヒメケン,セイヨシ,ミカメチョウシュウキ,愛媛県西予市三瓶町周木
7960902,愛媛県,西予市,三瓶町長早,エヒメケン,セイヨシ,ミカメチョウナガハヤ,愛媛県西予市三瓶町長早
7960903,愛媛県,西予市,三瓶町二及,エヒメケン,セイヨシ,ミカメチョウニギュウ,愛媛県西予市三瓶町二及
7960904,愛媛県,西予市,三瓶町垣生,エヒメケン,セイヨシ,ミカメチョウハブ,愛媛県西予市三瓶町垣生
7960905,愛媛県,西予市,三瓶町鴫山,エヒメケン,セイヨシ,ミカメチョウシギヤマ,愛媛県西予市三瓶町鴫山
7960906,愛媛県,西予市,三瓶町和泉,エヒメケン,セイヨシ,ミカメチョウイズミ,愛媛県西予市三瓶町和泉
7960907,愛媛県,西予市,三瓶町朝立,エヒメケン,セイヨシ,ミカメチョウアサダツ,愛媛県西予市三瓶町朝立
7960908,愛媛県,西予市,三瓶町津布理,エヒメケン,セイヨシ,ミカメチョウツブリ,愛媛県西予市三瓶町津布理
7960909,愛媛県,西予市,三瓶町安土,エヒメケン,セイヨシ,ミカメチョウアヅチ,愛媛県西予市三瓶町安土
7960910,愛媛県,西予市,三瓶町有網代,エヒメケン,セイヨシ,ミカメチョウアラジロ,愛媛県西予市三瓶町有網代
7960911,愛媛県,西予市,三瓶町有太刀,エヒメケン,セイヨシ,ミカメチョウアラタチ,愛媛県西予市三瓶町有太刀
7960912,愛媛県,西予市,三瓶町蔵貫浦,エヒメケン,セイヨシ,ミカメチョウクラヌキウラ,愛媛県西予市三瓶町蔵貫浦
7960913,愛媛県,西予市,三瓶町蔵貫,エヒメケン,セイヨシ,ミカメチョウクラヌキ,愛媛県西予市三瓶町蔵貫
7960914,愛媛県,西予市,三瓶町皆江,エヒメケン,セイヨシ,ミカメチョウミナエ,愛媛県西予市三瓶町皆江
7960915,愛媛県,西予市,三瓶町下泊,エヒメケン,セイヨシ,ミカメチョウシモドマリ,愛媛県西予市三瓶町下泊
7968001,愛媛県,八幡浜市,大谷口,エヒメケン,ヤワタハマシ,オオタニグチ,愛媛県八幡浜市大谷口
7968002,愛媛県,八幡浜市,広瀬,エヒメケン,ヤワタハマシ,ヒロセ,愛媛県八幡浜市広瀬
7968003,愛媛県,八幡浜市,古町,エヒメケン,ヤワタハマシ,フルマチ,愛媛県八幡浜市古町
7968004,愛媛県,八幡浜市,産業通,エヒメケン,ヤワタハマシ,サンギョウドオリ,愛媛県八幡浜市産業通
7968005,愛媛県,八幡浜市,矢野町（徳雲坊）,エヒメケン,ヤワタハマシ,ヤノマチ(トクウンボウ),愛媛県八幡浜市矢野町（徳雲坊）
7968006,愛媛県,八幡浜市,八代（丁目）,エヒメケン,ヤワタハマシ,ヤシロ(チョウメ),愛媛県八幡浜市八代（丁目）
7968007,愛媛県,八幡浜市,八代（番地）,エヒメケン,ヤワタハマシ,ヤシロ(バンチ),愛媛県八幡浜市八代（番地）
7968008,愛媛県,八幡浜市,栗野浦,エヒメケン,ヤワタハマシ,クリノウラ,愛媛県八幡浜市栗野浦
7968010,愛媛県,八幡浜市,五反田,エヒメケン,ヤワタハマシ,ゴタンダ,愛媛県八幡浜市五反田
7968011,愛媛県,八幡浜市,元城団地,エヒメケン,ヤワタハマシ,モトジョウダンチ,愛媛県八幡浜市元城団地
7968015,愛媛県,八幡浜市,国木,エヒメケン,ヤワタハマシ,クニギ,愛媛県八幡浜市国木
7968020,愛媛県,八幡浜市,郷,エヒメケン,ヤワタハマシ,ゴウ,愛媛県八幡浜市郷
7968025,愛媛県,八幡浜市,川之内,エヒメケン,ヤワタハマシ,カワノウチ,愛媛県八幡浜市川之内
7968030,愛媛県,八幡浜市,中津川,エヒメケン,ヤワタハマシ,ナカツカワ,愛媛県八幡浜市中津川
7968035,愛媛県,八幡浜市,若山,エヒメケン,ヤワタハマシ,ワカヤマ,愛媛県八幡浜市若山
7968036,愛媛県,八幡浜市,釜倉,エヒメケン,ヤワタハマシ,カマノクラ,愛媛県八幡浜市釜倉
7968037,愛媛県,八幡浜市,谷,エヒメケン,ヤワタハマシ,タニ,愛媛県八幡浜市谷
7968038,愛媛県,八幡浜市,横平,エヒメケン,ヤワタハマシ,ヨコヒラ,愛媛県八幡浜市横平
7968039,愛媛県,八幡浜市,布喜川,エヒメケン,ヤワタハマシ,フキノカワ,愛媛県八幡浜市布喜川
7968040,愛媛県,八幡浜市,舌間,エヒメケン,ヤワタハマシ,シタマ,愛媛県八幡浜市舌間
7968041,愛媛県,八幡浜市,合田,エヒメケン,ヤワタハマシ,ゴウダ,愛媛県八幡浜市合田
7968050,愛媛県,八幡浜市,川上町川名津,エヒメケン,ヤワタハマシ,カワカミチョウカワナヅ,愛媛県八幡浜市川上町川名津
7968051,愛媛県,八幡浜市,川上町上泊,エヒメケン,ヤワタハマシ,カワカミチョウカミドマリ,愛媛県八幡浜市川上町上泊
7968052,愛媛県,八幡浜市,川上町白石,エヒメケン,ヤワタハマシ,カワカミチョウシライシ,愛媛県八幡浜市川上町白石
7968053,愛媛県,八幡浜市,真網代,エヒメケン,ヤワタハマシ,マアジロ,愛媛県八幡浜市真網代
7968054,愛媛県,八幡浜市,穴井,エヒメケン,ヤワタハマシ,アナイ,愛媛県八幡浜市穴井
7968060,愛媛県,八幡浜市,大島,エヒメケン,ヤワタハマシ,オオシマ,愛媛県八幡浜市大島
7970000,愛媛県,西予市,,エヒメケン,セイヨシ,,愛媛県西予市
7970001,愛媛県,西予市,宇和町田野中,エヒメケン,セイヨシ,ウワチョウタノナカ,愛媛県西予市宇和町田野中
7970002,愛媛県,西予市,宇和町平野,エヒメケン,セイヨシ,ウワチョウヒラノ,愛媛県西予市宇和町平野
7970003,愛媛県,西予市,宇和町窪,エヒメケン,セイヨシ,ウワチョウクボ,愛媛県西予市宇和町窪
7970004,愛媛県,西予市,宇和町伊崎,エヒメケン,セイヨシ,ウワチョウイサキ,愛媛県西予市宇和町伊崎
7970005,愛媛県,西予市,宇和町常定寺,エヒメケン,セイヨシ,ウワチョウジョウジョウジ,愛媛県西予市宇和町常定寺
7970006,愛媛県,西予市,宇和町新城,エヒメケン,セイヨシ,ウワチョウシンジョウ,愛媛県西予市宇和町新城
7970007,愛媛県,西予市,宇和町明石,エヒメケン,セイヨシ,ウワチョウアゲイシ,愛媛県西予市宇和町明石
7970008,愛媛県,西予市,宇和町さくら,エヒメケン,セイヨシ,ウワチョウサクラ,愛媛県西予市宇和町さくら
7970010,愛媛県,西予市,宇和町明間,エヒメケン,セイヨシ,ウワチョウアカンマ,愛媛県西予市宇和町明間
7970011,愛媛県,西予市,宇和町下川,エヒメケン,セイヨシ,ウワチョウヒトウガワ,愛媛県西予市宇和町下川
7970012,愛媛県,西予市,宇和町皆田,エヒメケン,セイヨシ,ウワチョウカイダ,愛媛県西予市宇和町皆田
7970013,愛媛県,西予市,宇和町稲生,エヒメケン,セイヨシ,ウワチョウイノウ,愛媛県西予市宇和町稲生
7970014,愛媛県,西予市,宇和町伊賀上,エヒメケン,セイヨシ,ウワチョウイガジョウ,愛媛県西予市宇和町伊賀上
7970015,愛媛県,西予市,宇和町卯之町,エヒメケン,セイヨシ,ウワチョウウノマチ,愛媛県西予市宇和町卯之町
7970016,愛媛県,西予市,宇和町神領,エヒメケン,セイヨシ,ウワチョウジンリョウ,愛媛県西予市宇和町神領
7970017,愛媛県,西予市,宇和町ひまわり,エヒメケン,セイヨシ,ウワチョウヒマワリ,愛媛県西予市宇和町ひまわり
7970018,愛媛県,西予市,宇和町下松葉,エヒメケン,セイヨシ,ウワチョウシモマツバ,愛媛県西予市宇和町下松葉
7970020,愛媛県,西予市,宇和町久枝,エヒメケン,セイヨシ,ウワチョウヒサエダ,愛媛県西予市宇和町久枝
7970021,愛媛県,西予市,宇和町野田,エヒメケン,セイヨシ,ウワチョウノダ,愛媛県西予市宇和町野田
7970022,愛媛県,西予市,宇和町小野田,エヒメケン,セイヨシ,ウワチョウオノダ,愛媛県西予市宇和町小野田
7970023,愛媛県,西予市,宇和町山田,エヒメケン,セイヨシ,ウワチョウヤマダ,愛媛県西予市宇和町山田
7970024,愛媛県,西予市,宇和町西山田,エヒメケン,セイヨシ,ウワチョウニシヤマダ,愛媛県西予市宇和町西山田
7970025,愛媛県,西予市,宇和町郷内,エヒメケン,セイヨシ,ウワチョウゴウナイ,愛媛県西予市宇和町郷内
7970026,愛媛県,西予市,宇和町岩木,エヒメケン,セイヨシ,ウワチョウイワキ,愛媛県西予市宇和町岩木
7970027,愛媛県,西予市,宇和町小原,エヒメケン,セイヨシ,ウワチョウオバラ,愛媛県西予市宇和町小原
7970028,愛媛県,西予市,宇和町れんげ,エヒメケン,セイヨシ,ウワチョウレンゲ,愛媛県西予市宇和町れんげ
7970029,愛媛県,西予市,宇和町永長,エヒメケン,セイヨシ,ウワチョウナガオサ,愛媛県西予市宇和町永長
7970030,愛媛県,西予市,宇和町清沢,エヒメケン,セイヨシ,ウワチョウキヨサワ,愛媛県西予市宇和町清沢
7970031,愛媛県,西予市,宇和町杢所,エヒメケン,セイヨシ,ウワチョウモクショ,愛媛県西予市宇和町杢所
7970032,愛媛県,西予市,宇和町田苗真土,エヒメケン,セイヨシ,ウワチョウタナエマツチ,愛媛県西予市宇和町田苗真土
7970033,愛媛県,西予市,宇和町岡山,エヒメケン,セイヨシ,ウワチョウオカヤマ,愛媛県西予市宇和町岡山
7970034,愛媛県,西予市,宇和町伊延,エヒメケン,セイヨシ,ウワチョウイノベ,愛媛県西予市宇和町伊延
7970035,愛媛県,西予市,宇和町河内,エヒメケン,セイヨシ,ウワチョウカワチ,愛媛県西予市宇和町河内
7970036,愛媛県,西予市,宇和町久保,エヒメケン,セイヨシ,ウワチョウクボ,愛媛県西予市宇和町久保
7970037,愛媛県,西予市,宇和町信里,エヒメケン,セイヨシ,ウワチョウノブサト,愛媛県西予市宇和町信里
7970041,愛媛県,西予市,宇和町東多田,エヒメケン,セイヨシ,ウワチョウヒガシタダ,愛媛県西予市宇和町東多田
7970042,愛媛県,西予市,宇和町瀬戸,エヒメケン,セイヨシ,ウワチョウセト,愛媛県西予市宇和町瀬戸
7970043,愛媛県,西予市,宇和町大江,エヒメケン,セイヨシ,ウワチョウオオエ,愛媛県西予市宇和町大江
7970044,愛媛県,西予市,宇和町加茂,エヒメケン,セイヨシ,ウワチョウカモ,愛媛県西予市宇和町加茂
7970045,愛媛県,西予市,宇和町坂戸,エヒメケン,セイヨシ,ウワチョウサカド,愛媛県西予市宇和町坂戸
7970046,愛媛県,西予市,宇和町上松葉,エヒメケン,セイヨシ,ウワチョウカミマツバ,愛媛県西予市宇和町上松葉
7970111,愛媛県,西予市,明浜町俵津,エヒメケン,セイヨシ,アケハマチョウタワラヅ,愛媛県西予市明浜町俵津
7970112,愛媛県,西予市,明浜町渡江,エヒメケン,セイヨシ,アケハマチョウトノエ,愛媛県西予市明浜町渡江
7970113,愛媛県,西予市,明浜町狩浜,エヒメケン,セイヨシ,アケハマチョウカリハマ,愛媛県西予市明浜町狩浜
7970201,愛媛県,西予市,明浜町高山,エヒメケン,セイヨシ,アケハマチョウタカヤマ,愛媛県西予市明浜町高山
7970202,愛媛県,西予市,明浜町宮野浦,エヒメケン,セイヨシ,アケハマチョウミヤノウラ,愛媛県西予市明浜町宮野浦
7970203,愛媛県,西予市,明浜町田之浜,エヒメケン,セイヨシ,アケハマチョウタノハマ,愛媛県西予市明浜町田之浜
7971101,愛媛県,西予市,野村町白髭,エヒメケン,セイヨシ,ノムラチョウシラヒゲ,愛媛県西予市野村町白髭
7971102,愛媛県,西予市,野村町松渓,エヒメケン,セイヨシ,ノムラチョウマツタニ,愛媛県西予市野村町松渓
7971103,愛媛県,西予市,野村町四郎谷,エヒメケン,セイヨシ,ノムラチョウシロウタニ,愛媛県西予市野村町四郎谷
7971104,愛媛県,西予市,野村町河西,エヒメケン,セイヨシ,ノムラチョウカワサイ,愛媛県西予市野村町河西
7971105,愛媛県,西予市,野村町長谷,エヒメケン,セイヨシ,ノムラチョウナガタニ,愛媛県西予市野村町長谷
7971106,愛媛県,西予市,野村町旭,エヒメケン,セイヨシ,ノムラチョウアサヒ,愛媛県西予市野村町旭
7971107,愛媛県,西予市,野村町鳥鹿野,エヒメケン,セイヨシ,ノムラチョウトジガノ,愛媛県西予市野村町鳥鹿野
7971211,愛媛県,西予市,野村町阿下,エヒメケン,セイヨシ,ノムラチョウアゲ,愛媛県西予市野村町阿下
7971212,愛媛県,西予市,野村町野村,エヒメケン,セイヨシ,ノムラチョウノムラ,愛媛県西予市野村町野村
7971213,愛媛県,西予市,野村町片川,エヒメケン,セイヨシ,ノムラチョウカタカワ,愛媛県西予市野村町片川
7971214,愛媛県,西予市,野村町富野川,エヒメケン,セイヨシ,ノムラチョウトミノカワ,愛媛県西予市野村町富野川
7971215,愛媛県,西予市,野村町高瀬,エヒメケン,セイヨシ,ノムラチョウタカセ,愛媛県西予市野村町高瀬
7971216,愛媛県,西予市,野村町蔵良,エヒメケン,セイヨシ,ノムラチョウクララ,愛媛県西予市野村町蔵良
7971217,愛媛県,西予市,野村町平野,エヒメケン,セイヨシ,ノムラチョウヒラノ,愛媛県西予市野村町平野
7971321,愛媛県,西予市,野村町予子林,エヒメケン,セイヨシ,ノムラチョウヨコバヤシ,愛媛県西予市野村町予子林
7971322,愛媛県,西予市,野村町坂石,エヒメケン,セイヨシ,ノムラチョウサカイシ,愛媛県西予市野村町坂石
7971323,愛媛県,西予市,野村町釜川,エヒメケン,セイヨシ,ノムラチョウカマガワ,愛媛県西予市野村町釜川
7971324,愛媛県,西予市,野村町大西,エヒメケン,セイヨシ,ノムラチョウオオニシ,愛媛県西予市野村町大西
7971325,愛媛県,西予市,野村町中通川,エヒメケン,セイヨシ,ノムラチョウナカトオガワ,愛媛県西予市野村町中通川
7971326,愛媛県,西予市,野村町鎌田,エヒメケン,セイヨシ,ノムラチョウカマンタ,愛媛県西予市野村町鎌田
7971327,愛媛県,西予市,野村町栗木,エヒメケン,セイヨシ,ノムラチョウクリノキ,愛媛県西予市野村町栗木
7971328,愛媛県,西予市,野村町西,エヒメケン,セイヨシ,ノムラチョウニシ,愛媛県西予市野村町西
7971431,愛媛県,西予市,野村町舟戸,エヒメケン,セイヨシ,ノムラチョウフナト,愛媛県西予市野村町舟戸
7971432,愛媛県,西予市,野村町惣川,エヒメケン,セイヨシ,ノムラチョウソウガワ,愛媛県西予市野村町惣川
7971433,愛媛県,西予市,野村町小松,エヒメケン,セイヨシ,ノムラチョウコマツ,愛媛県西予市野村町小松
7971434,愛媛県,西予市,野村町大野ケ原,エヒメケン,セイヨシ,ノムラチョウオオノガハラ,愛媛県西予市野村町大野ケ原
7971501,愛媛県,大洲市,肱川町中居谷,エヒメケン,オオズシ,ヒジカワチョウナカイダニ,愛媛県大洲市肱川町中居谷
7971502,愛媛県,大洲市,肱川町名荷谷,エヒメケン,オオズシ,ヒジカワチョウミョウガダニ,愛媛県大洲市肱川町名荷谷
7971503,愛媛県,大洲市,肱川町宇和川,エヒメケン,オオズシ,ヒジカワチョウウワガワ,愛媛県大洲市肱川町宇和川
7971504,愛媛県,大洲市,肱川町山鳥坂,エヒメケン,オオズシ,ヒジカワチョウヤマトサカ,愛媛県大洲市肱川町山鳥坂
7971505,愛媛県,大洲市,肱川町予子林,エヒメケン,オオズシ,ヒジカワチョウヨコハヤシ,愛媛県大洲市肱川町予子林
7971506,愛媛県,大洲市,肱川町中津,エヒメケン,オオズシ,ヒジカワチョウナカツ,愛媛県大洲市肱川町中津
7971507,愛媛県,大洲市,肱川町大谷,エヒメケン,オオズシ,ヒジカワチョウオオタニ,愛媛県大洲市肱川町大谷
7971508,愛媛県,大洲市,肱川町西,エヒメケン,オオズシ,ヒジカワチョウニシ,愛媛県大洲市肱川町西
7971601,愛媛県,大洲市,河辺町植松,エヒメケン,オオズシ,カワベチョウウエマツ,愛媛県大洲市河辺町植松
7971602,愛媛県,大洲市,河辺町山鳥坂,エヒメケン,オオズシ,カワベチョウヤマトサカ,愛媛県大洲市河辺町山鳥坂
7971603,愛媛県,大洲市,河辺町横山,エヒメケン,オオズシ,カワベチョウヨコヤマ,愛媛県大洲市河辺町横山
7971604,愛媛県,大洲市,河辺町川崎,エヒメケン,オオズシ,カワベチョウカワサキ,愛媛県大洲市河辺町川崎
7971605,愛媛県,大洲市,河辺町河都,エヒメケン,オオズシ,カワベチョウカワト,愛媛県大洲市河辺町河都
7971606,愛媛県,大洲市,河辺町三嶋,エヒメケン,オオズシ,カワベチョウミシマ,愛媛県大洲市河辺町三嶋
7971607,愛媛県,大洲市,河辺町川上,エヒメケン,オオズシ,カワベチョウカワカミ,愛媛県大洲市河辺町川上
7971608,愛媛県,大洲市,河辺町北平,エヒメケン,オオズシ,カワベチョウキタヒラ,愛媛県大洲市河辺町北平
7971701,愛媛県,西予市,城川町土居,エヒメケン,セイヨシ,シロカワチョウドイ,愛媛県西予市城川町土居
7971702,愛媛県,西予市,城川町古市,エヒメケン,セイヨシ,シロカワチョウフルイチ,愛媛県西予市城川町古市
7971703,愛媛県,西予市,城川町窪野,エヒメケン,セイヨシ,シロカワチョウクボノ,愛媛県西予市城川町窪野
7971704,愛媛県,西予市,城川町川津南,エヒメケン,セイヨシ,シロカワチョウカワヅミナミ,愛媛県西予市城川町川津南
7971705,愛媛県,西予市,城川町高野子,エヒメケン,セイヨシ,シロカワチョウタカノコ,愛媛県西予市城川町高野子
7971711,愛媛県,西予市,城川町野井川,エヒメケン,セイヨシ,シロカワチョウノイガワ,愛媛県西予市城川町野井川
7971712,愛媛県,西予市,城川町遊子谷,エヒメケン,セイヨシ,シロカワチョウユスタニ,愛媛県西予市城川町遊子谷
7971713,愛媛県,西予市,城川町嘉喜尾,エヒメケン,セイヨシ,シロカワチョウカギオ,愛媛県西予市城川町嘉喜尾
7971714,愛媛県,西予市,城川町男河内,エヒメケン,セイヨシ,シロカワチョウオンガワチ,愛媛県西予市城川町男河内
7971715,愛媛県,西予市,城川町田穂,エヒメケン,セイヨシ,シロカワチョウタオ,愛媛県西予市城川町田穂
7971716,愛媛県,西予市,城川町魚成,エヒメケン,セイヨシ,シロカワチョウウオナシ,愛媛県西予市城川町魚成
7971717,愛媛県,西予市,城川町下相,エヒメケン,セイヨシ,シロカワチョウオリアイ,愛媛県西予市城川町下相
7980000,愛媛県,宇和島市,,エヒメケン,ウワジマシ,,愛媛県宇和島市
7980001,愛媛県,宇和島市,大浦（赤松）,エヒメケン,ウワジマシ,オオウラ(アカマツ),愛媛県宇和島市大浦（赤松）
7980002,愛媛県,宇和島市,大浦（その他）,エヒメケン,ウワジマシ,オオウラ(ソノタ),愛媛県宇和島市大浦（その他）
7980003,愛媛県,宇和島市,住吉町,エヒメケン,ウワジマシ,スミヨシチョウ,愛媛県宇和島市住吉町
7980004,愛媛県,宇和島市,朝日町,エヒメケン,ウワジマシ,アサヒマチ,愛媛県宇和島市朝日町
7980005,愛媛県,宇和島市,築地町,エヒメケン,ウワジマシ,ツキジチョウ,愛媛県宇和島市築地町
7980006,愛媛県,宇和島市,弁天町,エヒメケン,ウワジマシ,ベンテンチョウ,愛媛県宇和島市弁天町
7980007,愛媛県,宇和島市,寿町,エヒメケン,ウワジマシ,コトブキチョウ,愛媛県宇和島市寿町
7980010,愛媛県,宇和島市,北新町,エヒメケン,ウワジマシ,キタシンマチ,愛媛県宇和島市北新町
7980010,愛媛県,宇和島市,藤江,エヒメケン,ウワジマシ,フジエ,愛媛県宇和島市藤江
7980011,愛媛県,宇和島市,須賀通,エヒメケン,ウワジマシ,スカドオリ,愛媛県宇和島市須賀通
7980012,愛媛県,宇和島市,和霊町,エヒメケン,ウワジマシ,ワレイチョウ,愛媛県宇和島市和霊町
7980013,愛媛県,宇和島市,御幸町,エヒメケン,ウワジマシ,ミユキマチ,愛媛県宇和島市御幸町
7980014,愛媛県,宇和島市,和霊公園,エヒメケン,ウワジマシ,ワレイコウエン,愛媛県宇和島市和霊公園
7980015,愛媛県,宇和島市,和霊元町,エヒメケン,ウワジマシ,ワレイモトマチ,愛媛県宇和島市和霊元町
7980016,愛媛県,宇和島市,和霊中町,エヒメケン,ウワジマシ,ワレイナカマチ,愛媛県宇和島市和霊中町
7980017,愛媛県,宇和島市,和霊東町,エヒメケン,ウワジマシ,ワレイヒガシマチ,愛媛県宇和島市和霊東町
7980020,愛媛県,宇和島市,高串,エヒメケン,ウワジマシ,タカグシ,愛媛県宇和島市高串
7980021,愛媛県,宇和島市,光満,エヒメケン,ウワジマシ,ミツマ,愛媛県宇和島市光満
7980022,愛媛県,宇和島市,伊吹町（その他）,エヒメケン,ウワジマシ,イブキチョウ(ソノタ),愛媛県宇和島市伊吹町（その他）
7980023,愛媛県,宇和島市,伊吹町（北宇和島町）,エヒメケン,ウワジマシ,イブキチョウ(キタウワジマチョウ),愛媛県宇和島市伊吹町（北宇和島町）
7980024,愛媛県,宇和島市,伊吹町（北通）,エヒメケン,ウワジマシ,イブキチョウ(キタドオリ),愛媛県宇和島市伊吹町（北通）
7980025,愛媛県,宇和島市,伊吹町（東通）,エヒメケン,ウワジマシ,イブキチョウ(ヒガシドオリ),愛媛県宇和島市伊吹町（東通）
7980026,愛媛県,宇和島市,泉町,エヒメケン,ウワジマシ,イズミマチ,愛媛県宇和島市泉町
7980027,愛媛県,宇和島市,柿原,エヒメケン,ウワジマシ,カキハラ,愛媛県宇和島市柿原
7980030,愛媛県,宇和島市,曙町,エヒメケン,ウワジマシ,アケボノチョウ,愛媛県宇和島市曙町
7980031,愛媛県,宇和島市,栄町港,エヒメケン,ウワジマシ,サカエマチミナト,愛媛県宇和島市栄町港
7980032,愛媛県,宇和島市,恵美須町,エヒメケン,ウワジマシ,エビスマチ,愛媛県宇和島市恵美須町
7980033,愛媛県,宇和島市,鶴島町,エヒメケン,ウワジマシ,ツルシマチョウ,愛媛県宇和島市鶴島町
7980034,愛媛県,宇和島市,錦町,エヒメケン,ウワジマシ,ニシキマチ,愛媛県宇和島市錦町
7980035,愛媛県,宇和島市,新町,エヒメケン,ウワジマシ,シンマチ,愛媛県宇和島市新町
7980036,愛媛県,宇和島市,天神町,エヒメケン,ウワジマシ,テンジンマチ,愛媛県宇和島市天神町
7980037,愛媛県,宇和島市,丸穂町（丁目）,エヒメケン,ウワジマシ,マルオチョウ(チョウメ),愛媛県宇和島市丸穂町（丁目）
7980038,愛媛県,宇和島市,丸穂（番地）,エヒメケン,ウワジマシ,マルオ(バンチ),愛媛県宇和島市丸穂（番地）
7980039,愛媛県,宇和島市,大宮町,エヒメケン,ウワジマシ,オオミヤチョウ,愛媛県宇和島市大宮町
7980040,愛媛県,宇和島市,中央町,エヒメケン,ウワジマシ,チュウオウチョウ,愛媛県宇和島市中央町
7980041,愛媛県,宇和島市,本町追手,エヒメケン,ウワジマシ,ホンマチオウテ,愛媛県宇和島市本町追手
7980042,愛媛県,宇和島市,愛宕町,エヒメケン,ウワジマシ,アタゴチョウ,愛媛県宇和島市愛宕町
7980043,愛媛県,宇和島市,宇和津町,エヒメケン,ウワジマシ,ウワツチョウ,愛媛県宇和島市宇和津町
7980044,愛媛県,宇和島市,野川（その他）,エヒメケン,ウワジマシ,ノガワ(ソノタ),愛媛県宇和島市野川（その他）
7980045,愛媛県,宇和島市,大超寺奥,エヒメケン,ウワジマシ,ダイチョウジオク,愛媛県宇和島市大超寺奥
7980050,愛媛県,宇和島市,堀端町,エヒメケン,ウワジマシ,ホリバタチョウ,愛媛県宇和島市堀端町
7980051,愛媛県,宇和島市,広小路,エヒメケン,ウワジマシ,ヒロコウジ,愛媛県宇和島市広小路
7980052,愛媛県,宇和島市,京町,エヒメケン,ウワジマシ,キョウマチ,愛媛県宇和島市京町
7980053,愛媛県,宇和島市,賀古町,エヒメケン,ウワジマシ,カコチョウ,愛媛県宇和島市賀古町
7980054,愛媛県,宇和島市,笹町,エヒメケン,ウワジマシ,ササマチ,愛媛県宇和島市笹町
7980060,愛媛県,宇和島市,丸之内,エヒメケン,ウワジマシ,マルノウチ,愛媛県宇和島市丸之内
7980061,愛媛県,宇和島市,御殿町,エヒメケン,ウワジマシ,ゴテンマチ,愛媛県宇和島市御殿町
7980062,愛媛県,宇和島市,桜町,エヒメケン,ウワジマシ,サクラマチ,愛媛県宇和島市桜町
7980063,愛媛県,宇和島市,御徒町,エヒメケン,ウワジマシ,オカチマチ,愛媛県宇和島市御徒町
7980064,愛媛県,宇和島市,佐伯町,エヒメケン,ウワジマシ,サイキマチ,愛媛県宇和島市佐伯町
7980065,愛媛県,宇和島市,天赦公園,エヒメケン,ウワジマシ,テンシャコウエン,愛媛県宇和島市天赦公園
7980066,愛媛県,宇和島市,文京町,エヒメケン,ウワジマシ,ブンキョウチョウ,愛媛県宇和島市文京町
7980067,愛媛県,宇和島市,桝形町,エヒメケン,ウワジマシ,マスガタチョウ,愛媛県宇和島市桝形町
7980068,愛媛県,宇和島市,明倫町,エヒメケン,ウワジマシ,メイリンチョウ,愛媛県宇和島市明倫町
7980070,愛媛県,宇和島市,神田川原,エヒメケン,ウワジマシ,ジンデンガワラ,愛媛県宇和島市神田川原
7980071,愛媛県,宇和島市,妙典寺前,エヒメケン,ウワジマシ,ミョウデンジマエ,愛媛県宇和島市妙典寺前
7980072,愛媛県,宇和島市,元結掛,エヒメケン,ウワジマシ,モトユイギ,愛媛県宇和島市元結掛
7980073,愛媛県,宇和島市,山際,エヒメケン,ウワジマシ,ヤマギワ,愛媛県宇和島市山際
7980074,愛媛県,宇和島市,並松,エヒメケン,ウワジマシ,ナミマツ,愛媛県宇和島市並松
7980075,愛媛県,宇和島市,川内（その他）,エヒメケン,ウワジマシ,カワチ(ソノタ),愛媛県宇和島市川内（その他）
7980076,愛媛県,宇和島市,川内（薬師谷）,エヒメケン,ウワジマシ,カワチ(ヤクシダニ),愛媛県宇和島市川内（薬師谷）
7980077,愛媛県,宇和島市,保田,エヒメケン,ウワジマシ,ヤスダ,愛媛県宇和島市保田
7980078,愛媛県,宇和島市,祝森,エヒメケン,ウワジマシ,イワイノモリ,愛媛県宇和島市祝森
7980080,愛媛県,宇和島市,新田町,エヒメケン,ウワジマシ,シンデンチョウ,愛媛県宇和島市新田町
7980081,愛媛県,宇和島市,中沢町,エヒメケン,ウワジマシ,ナカザワチョウ,愛媛県宇和島市中沢町
7980082,愛媛県,宇和島市,長堀,エヒメケン,ウワジマシ,ナガホリ,愛媛県宇和島市長堀
7980083,愛媛県,宇和島市,夏目町,エヒメケン,ウワジマシ,ナツメチョウ,愛媛県宇和島市夏目町
7980084,愛媛県,宇和島市,寄松,エヒメケン,ウワジマシ,ヨリマツ,愛媛県宇和島市寄松
7980085,愛媛県,宇和島市,宮下,エヒメケン,ウワジマシ,ミヤシタ,愛媛県宇和島市宮下
7980086,愛媛県,宇和島市,別当,エヒメケン,ウワジマシ,ベツトウ,愛媛県宇和島市別当
7980087,愛媛県,宇和島市,坂下津,エヒメケン,ウワジマシ,サカシヅ,愛媛県宇和島市坂下津
7980088,愛媛県,宇和島市,保手,エヒメケン,ウワジマシ,ホデ,愛媛県宇和島市保手
7980090,愛媛県,宇和島市,白浜,エヒメケン,ウワジマシ,シラハマ,愛媛県宇和島市白浜
7980091,愛媛県,宇和島市,石応,エヒメケン,ウワジマシ,コクボ,愛媛県宇和島市石応
7980092,愛媛県,宇和島市,小浜,エヒメケン,ウワジマシ,コハマ,愛媛県宇和島市小浜
7980093,愛媛県,宇和島市,小池,エヒメケン,ウワジマシ,コイケ,愛媛県宇和島市小池
7980094,愛媛県,宇和島市,蕨,エヒメケン,ウワジマシ,ワラビ,愛媛県宇和島市蕨
7980095,愛媛県,宇和島市,平浦,エヒメケン,ウワジマシ,ヒラウラ,愛媛県宇和島市平浦
7980096,愛媛県,宇和島市,本九島,エヒメケン,ウワジマシ,ホンクシマ,愛媛県宇和島市本九島
7980097,愛媛県,宇和島市,百之浦,エヒメケン,ウワジマシ,ヒャクノウラ,愛媛県宇和島市百之浦
7980098,愛媛県,宇和島市,蛤,エヒメケン,ウワジマシ,ハマグリ,愛媛県宇和島市蛤
7980099,愛媛県,宇和島市,日振島,エヒメケン,ウワジマシ,ヒブリシマ,愛媛県宇和島市日振島
7980101,愛媛県,宇和島市,三浦東,エヒメケン,ウワジマシ,ミウラヒガシ,愛媛県宇和島市三浦東
7980102,愛媛県,宇和島市,三浦西,エヒメケン,ウワジマシ,ミウラニシ,愛媛県宇和島市三浦西
7980103,愛媛県,宇和島市,遊子,エヒメケン,ウワジマシ,ユス,愛媛県宇和島市遊子
7980104,愛媛県,宇和島市,下波,エヒメケン,ウワジマシ,シタバ,愛媛県宇和島市下波
7980211,愛媛県,宇和島市,蒋渕,エヒメケン,ウワジマシ,コモブチ,愛媛県宇和島市蒋渕
7980212,愛媛県,宇和島市,戸島,エヒメケン,ウワジマシ,トジマ,愛媛県宇和島市戸島
7981101,愛媛県,宇和島市,三間町大藤,エヒメケン,ウワジマシ,ミマチョウオオフジ,愛媛県宇和島市三間町大藤
7981102,愛媛県,宇和島市,三間町則,エヒメケン,ウワジマシ,ミマチョウスナワチ,愛媛県宇和島市三間町則
7981103,愛媛県,宇和島市,三間町成家,エヒメケン,ウワジマシ,ミマチョウナルイエ,愛媛県宇和島市三間町成家
7981104,愛媛県,宇和島市,三間町曽根,エヒメケン,ウワジマシ,ミマチョウソネ,愛媛県宇和島市三間町曽根
7981105,愛媛県,宇和島市,三間町是能,エヒメケン,ウワジマシ,ミマチョウコレヨシ,愛媛県宇和島市三間町是能
7981111,愛媛県,宇和島市,三間町北増穂,エヒメケン,ウワジマシ,ミマチョウキタマスオ,愛媛県宇和島市三間町北増穂
7981112,愛媛県,宇和島市,三間町宮野下,エヒメケン,ウワジマシ,ミマチョウミヤノシタ,愛媛県宇和島市三間町宮野下
7981113,愛媛県,宇和島市,三間町迫目,エヒメケン,ウワジマシ,ミマチョウハザメ,愛媛県宇和島市三間町迫目
7981114,愛媛県,宇和島市,三間町務田,エヒメケン,ウワジマシ,ミマチョウムデン,愛媛県宇和島市三間町務田
7981115,愛媛県,宇和島市,三間町戸雁,エヒメケン,ウワジマシ,ミマチョウトガリ,愛媛県宇和島市三間町戸雁
7981116,愛媛県,宇和島市,三間町黒井地,エヒメケン,ウワジマシ,ミマチョウクロイジ,愛媛県宇和島市三間町黒井地
7981121,愛媛県,宇和島市,三間町川之内,エヒメケン,ウワジマシ,ミマチョウカワノウチ,愛媛県宇和島市三間町川之内
7981122,愛媛県,宇和島市,三間町小沢川,エヒメケン,ウワジマシ,ミマチョウコソウガワ,愛媛県宇和島市三間町小沢川
7981123,愛媛県,宇和島市,三間町元宗,エヒメケン,ウワジマシ,ミマチョウモトムネ,愛媛県宇和島市三間町元宗
7981124,愛媛県,宇和島市,三間町増田,エヒメケン,ウワジマシ,ミマチョウマスダ,愛媛県宇和島市三間町増田
7981125,愛媛県,宇和島市,三間町土居中,エヒメケン,ウワジマシ,ミマチョウドイナカ,愛媛県宇和島市三間町土居中
7981131,愛媛県,宇和島市,三間町田川,エヒメケン,ウワジマシ,ミマチョウタガワ,愛媛県宇和島市三間町田川
7981132,愛媛県,宇和島市,三間町波岡,エヒメケン,ウワジマシ,ミマチョウナミオカ,愛媛県宇和島市三間町波岡
7981133,愛媛県,宇和島市,三間町中野中,エヒメケン,ウワジマシ,ミマチョウナカノナカ,愛媛県宇和島市三間町中野中
7981134,愛媛県,宇和島市,三間町金銅,エヒメケン,ウワジマシ,ミマチョウカナドウ,愛媛県宇和島市三間町金銅
7981135,愛媛県,宇和島市,三間町古藤田,エヒメケン,ウワジマシ,ミマチョウコトウダ,愛媛県宇和島市三間町古藤田
7981136,愛媛県,宇和島市,三間町大内,エヒメケン,ウワジマシ,ミマチョウオオウチ,愛媛県宇和島市三間町大内
7981137,愛媛県,宇和島市,三間町兼近,エヒメケン,ウワジマシ,ミマチョウカネチカ,愛媛県宇和島市三間町兼近
7981138,愛媛県,宇和島市,三間町土居垣内,エヒメケン,ウワジマシ,ミマチョウドイカキウチ,愛媛県宇和島市三間町土居垣内
7981139,愛媛県,宇和島市,三間町是延,エヒメケン,ウワジマシ,ミマチョウコレノブ,愛媛県宇和島市三間町是延
7981141,愛媛県,宇和島市,三間町音地,エヒメケン,ウワジマシ,ミマチョウオンジ,愛媛県宇和島市三間町音地
7981142,愛媛県,宇和島市,三間町三間中間,エヒメケン,ウワジマシ,ミマチョウミマナカイダ,愛媛県宇和島市三間町三間中間
7981143,愛媛県,宇和島市,三間町黒川,エヒメケン,ウワジマシ,ミマチョウクロカワ,愛媛県宇和島市三間町黒川
7981300,愛媛県,北宇和郡鬼北町,,エヒメケン,キタウワグンキホクチョウ,,愛媛県北宇和郡鬼北町
7981301,愛媛県,北宇和郡鬼北町,大宿,エヒメケン,キタウワグンキホクチョウ,オオジク,愛媛県北宇和郡鬼北町大宿
7981302,愛媛県,北宇和郡鬼北町,下大野,エヒメケン,キタウワグンキホクチョウ,シモオオノ,愛媛県北宇和郡鬼北町下大野
7981303,愛媛県,北宇和郡鬼北町,広見,エヒメケン,キタウワグンキホクチョウ,ヒロミ,愛媛県北宇和郡鬼北町広見
7981311,愛媛県,北宇和郡鬼北町,小松,エヒメケン,キタウワグンキホクチョウ,コマツ,愛媛県北宇和郡鬼北町小松
7981312,愛媛県,北宇和郡鬼北町,川上,エヒメケン,キタウワグンキホクチョウ,カワカミ,愛媛県北宇和郡鬼北町川上
7981313,愛媛県,北宇和郡鬼北町,延川,エヒメケン,キタウワグンキホクチョウ,ノブカワ,愛媛県北宇和郡鬼北町延川
7981314,愛媛県,北宇和郡鬼北町,久保,エヒメケン,キタウワグンキホクチョウ,クボ,愛媛県北宇和郡鬼北町久保
7981321,愛媛県,北宇和郡鬼北町,小倉,エヒメケン,キタウワグンキホクチョウ,オグワ,愛媛県北宇和郡鬼北町小倉
7981322,愛媛県,北宇和郡鬼北町,上川,エヒメケン,キタウワグンキホクチョウ,カミカワ,愛媛県北宇和郡鬼北町上川
7981323,愛媛県,北宇和郡鬼北町,岩谷,エヒメケン,キタウワグンキホクチョウ,イワヤ,愛媛県北宇和郡鬼北町岩谷
7981324,愛媛県,北宇和郡鬼北町,小西野々,エヒメケン,キタウワグンキホクチョウ,コニシノノ,愛媛県北宇和郡鬼北町小西野々
7981331,愛媛県,北宇和郡鬼北町,興野々,エヒメケン,キタウワグンキホクチョウ,オキノノ,愛媛県北宇和郡鬼北町興野々
7981332,愛媛県,北宇和郡鬼北町,出目,エヒメケン,キタウワグンキホクチョウ,イズメ,愛媛県北宇和郡鬼北町出目
7981333,愛媛県,北宇和郡鬼北町,永野市,エヒメケン,キタウワグンキホクチョウ,ナガノイチ,愛媛県北宇和郡鬼北町永野市
7981341,愛媛県,北宇和郡鬼北町,近永（旭町）,エヒメケン,キタウワグンキホクチョウ,チカナガ(アサヒマチ),愛媛県北宇和郡鬼北町近永（旭町）
7981342,愛媛県,北宇和郡鬼北町,近永（栄町）,エヒメケン,キタウワグンキホクチョウ,チカナガ(サカエマチ),愛媛県北宇和郡鬼北町近永（栄町）
7981343,愛媛県,北宇和郡鬼北町,近永（新町）,エヒメケン,キタウワグンキホクチョウ,チカナガ(シンマチ),愛媛県北宇和郡鬼北町近永（新町）
7981344,愛媛県,北宇和郡鬼北町,近永（本町）,エヒメケン,キタウワグンキホクチョウ,チカナガ(ホンマチ),愛媛県北宇和郡鬼北町近永（本町）
7981345,愛媛県,北宇和郡鬼北町,近永（南町）,エヒメケン,キタウワグンキホクチョウ,チカナガ(ミナミマチ),愛媛県北宇和郡鬼北町近永（南町）
7981351,愛媛県,北宇和郡鬼北町,奈良（その他）,エヒメケン,キタウワグンキホクチョウ,ナラ(ソノタ),愛媛県北宇和郡鬼北町奈良（その他）
7981352,愛媛県,北宇和郡鬼北町,奈良（成川）,エヒメケン,キタウワグンキホクチョウ,ナラ(ナルカワ),愛媛県北宇和郡鬼北町奈良（成川）
7981353,愛媛県,北宇和郡鬼北町,奈良（水分）,エヒメケン,キタウワグンキホクチョウ,ナラ(ミズワカレ),愛媛県北宇和郡鬼北町奈良（水分）
7981354,愛媛県,北宇和郡鬼北町,北川,エヒメケン,キタウワグンキホクチョウ,キタガワ,愛媛県北宇和郡鬼北町北川
7981355,愛媛県,北宇和郡鬼北町,芝,エヒメケン,キタウワグンキホクチョウ,シバ,愛媛県北宇和郡鬼北町芝
7981356,愛媛県,北宇和郡鬼北町,中野川,エヒメケン,キタウワグンキホクチョウ,ナカノカワ,愛媛県北宇和郡鬼北町中野川
7981361,愛媛県,北宇和郡鬼北町,国遠,エヒメケン,キタウワグンキホクチョウ,クニトオ,愛媛県北宇和郡鬼北町国遠
7981362,愛媛県,北宇和郡鬼北町,清延,エヒメケン,キタウワグンキホクチョウ,キヨノブ,愛媛県北宇和郡鬼北町清延
7981363,愛媛県,北宇和郡鬼北町,内深田,エヒメケン,キタウワグンキホクチョウ,ウチフカタ,愛媛県北宇和郡鬼北町内深田
7981364,愛媛県,北宇和郡鬼北町,吉波,エヒメケン,キタウワグンキホクチョウ,ヨシナミ,愛媛県北宇和郡鬼北町吉波
7981365,愛媛県,北宇和郡鬼北町,西仲,エヒメケン,キタウワグンキホクチョウ,ニシナカ,愛媛県北宇和郡鬼北町西仲
7981366,愛媛県,北宇和郡鬼北町,東仲,エヒメケン,キタウワグンキホクチョウ,ヒガシナカ,愛媛県北宇和郡鬼北町東仲
7981367,愛媛県,北宇和郡鬼北町,沢松,エヒメケン,キタウワグンキホクチョウ,サワマツ,愛媛県北宇和郡鬼北町沢松
7981371,愛媛県,北宇和郡鬼北町,生田,エヒメケン,キタウワグンキホクチョウ,イクタ,愛媛県北宇和郡鬼北町生田
7981372,愛媛県,北宇和郡鬼北町,西野々,エヒメケン,キタウワグンキホクチョウ,ニシノノ,愛媛県北宇和郡鬼北町西野々
7981373,愛媛県,北宇和郡鬼北町,清水,エヒメケン,キタウワグンキホクチョウ,セイズイ,愛媛県北宇和郡鬼北町清水
7981374,愛媛県,北宇和郡鬼北町,成藤,エヒメケン,キタウワグンキホクチョウ,ナリフジ,愛媛県北宇和郡鬼北町成藤
7981375,愛媛県,北宇和郡鬼北町,畔屋,エヒメケン,キタウワグンキホクチョウ,アゼヤ,愛媛県北宇和郡鬼北町畔屋
7981501,愛媛県,北宇和郡鬼北町,上鍵山,エヒメケン,キタウワグンキホクチョウ,カミカギヤマ,愛媛県北宇和郡鬼北町上鍵山
7981502,愛媛県,北宇和郡鬼北町,下鍵山,エヒメケン,キタウワグンキホクチョウ,シモカギヤマ,愛媛県北宇和郡鬼北町下鍵山
7981503,愛媛県,北宇和郡鬼北町,上大野,エヒメケン,キタウワグンキホクチョウ,カミオオノ,愛媛県北宇和郡鬼北町上大野
7981504,愛媛県,北宇和郡鬼北町,日向谷,エヒメケン,キタウワグンキホクチョウ,ヒュウガイ,愛媛県北宇和郡鬼北町日向谷
7981505,愛媛県,北宇和郡鬼北町,父野川上,エヒメケン,キタウワグンキホクチョウ,チチノカワカミ,愛媛県北宇和郡鬼北町父野川上
7981506,愛媛県,北宇和郡鬼北町,父野川中,エヒメケン,キタウワグンキホクチョウ,チチノカワナカ,愛媛県北宇和郡鬼北町父野川中
7981507,愛媛県,北宇和郡鬼北町,父野川下,エヒメケン,キタウワグンキホクチョウ,チチノカワシモ,愛媛県北宇和郡鬼北町父野川下
7982100,愛媛県,北宇和郡松野町,,エヒメケン,キタウワグンマツノチョウ,,愛媛県北宇和郡松野町
7982101,愛媛県,北宇和郡松野町,松丸,エヒメケン,キタウワグンマツノチョウ,マツマル,愛媛県北宇和郡松野町松丸
7982102,愛媛県,北宇和郡松野町,延野々,エヒメケン,キタウワグンマツノチョウ,ノビノノ,愛媛県北宇和郡松野町延野々
7982103,愛媛県,北宇和郡松野町,豊岡,エヒメケン,キタウワグンマツノチョウ,トヨオカ,愛媛県北宇和郡松野町豊岡
7982104,愛媛県,北宇和郡松野町,富岡,エヒメケン,キタウワグンマツノチョウ,トミオカ,愛媛県北宇和郡松野町富岡
7982105,愛媛県,北宇和郡松野町,上家地,エヒメケン,キタウワグンマツノチョウ,カミイエジ,愛媛県北宇和郡松野町上家地
7982106,愛媛県,北宇和郡松野町,目黒,エヒメケン,キタウワグンマツノチョウ,メグロ,愛媛県北宇和郡松野町目黒
7982111,愛媛県,北宇和郡松野町,吉野,エヒメケン,キタウワグンマツノチョウ,ヨシノ,愛媛県北宇和郡松野町吉野
7982112,愛媛県,北宇和郡松野町,蕨生,エヒメケン,キタウワグンマツノチョウ,ワラビョウ,愛媛県北宇和郡松野町蕨生
7982113,愛媛県,北宇和郡松野町,奥野川,エヒメケン,キタウワグンマツノチョウ,オクノカワ,愛媛県北宇和郡松野町奥野川
7982146,愛媛県,宇和島市,野川（滑床）,エヒメケン,ウワジマシ,ノガワ(ナメトコ),愛媛県宇和島市野川（滑床）
7983271,愛媛県,宇和島市,津島町御内,エヒメケン,ウワジマシ,ツシマチョウミウチ,愛媛県宇和島市津島町御内
7983272,愛媛県,宇和島市,津島町槇川,エヒメケン,ウワジマシ,ツシマチョウマキガワ,愛媛県宇和島市津島町槇川
7983301,愛媛県,宇和島市,津島町岩松,エヒメケン,ウワジマシ,ツシマチョウイワマツ,愛媛県宇和島市津島町岩松
7983302,愛媛県,宇和島市,津島町高田,エヒメケン,ウワジマシ,ツシマチョウタカタ,愛媛県宇和島市津島町高田
7983303,愛媛県,宇和島市,津島町近家,エヒメケン,ウワジマシ,ツシマチョウチカイエ,愛媛県宇和島市津島町近家
7983311,愛媛県,宇和島市,津島町岩渕,エヒメケン,ウワジマシ,ツシマチョウイワブチ,愛媛県宇和島市津島町岩渕
7983312,愛媛県,宇和島市,津島町山財,エヒメケン,ウワジマシ,ツシマチョウサンザイ,愛媛県宇和島市津島町山財
7983313,愛媛県,宇和島市,津島町増穂,エヒメケン,ウワジマシ,ツシマチョウマスホ,愛媛県宇和島市津島町増穂
7983321,愛媛県,宇和島市,津島町下畑地（乙を除く）,エヒメケン,ウワジマシ,ツシマチョウシモハタジ(オツヲノゾク),愛媛県宇和島市津島町下畑地（乙を除く）
7983322,愛媛県,宇和島市,津島町下畑地乙（上槇）,エヒメケン,ウワジマシ,ツシマチョウシモハタジオツ(カミマキ),愛媛県宇和島市津島町下畑地乙（上槇）
7983323,愛媛県,宇和島市,津島町上畑地,エヒメケン,ウワジマシ,ツシマチョウカミハタジ,愛媛県宇和島市津島町上畑地
7983331,愛媛県,宇和島市,津島町後,エヒメケン,ウワジマシ,ツシマチョウウシロ,愛媛県宇和島市津島町後
7983332,愛媛県,宇和島市,津島町須下,エヒメケン,ウワジマシ,ツシマチョウスゲ,愛媛県宇和島市津島町須下
7983333,愛媛県,宇和島市,津島町成,エヒメケン,ウワジマシ,ツシマチョウナル,愛媛県宇和島市津島町成
7983334,愛媛県,宇和島市,津島町漁家,エヒメケン,ウワジマシ,ツシマチョウリョウケ,愛媛県宇和島市津島町漁家
7983335,愛媛県,宇和島市,津島町平井,エヒメケン,ウワジマシ,ツシマチョウヒライ,愛媛県宇和島市津島町平井
7983336,愛媛県,宇和島市,津島町曲烏,エヒメケン,ウワジマシ,ツシマチョウマガラス,愛媛県宇和島市津島町曲烏
7983337,愛媛県,宇和島市,津島町大浦,エヒメケン,ウワジマシ,ツシマチョウオオウラ,愛媛県宇和島市津島町大浦
7983338,愛媛県,宇和島市,津島町柿之浦,エヒメケン,ウワジマシ,ツシマチョウカキノウラ,愛媛県宇和島市津島町柿之浦
7983341,愛媛県,宇和島市,津島町塩定,エヒメケン,ウワジマシ,ツシマチョウエンジョウ,愛媛県宇和島市津島町塩定
7983342,愛媛県,宇和島市,津島町浦知,エヒメケン,ウワジマシ,ツシマチョウウラシリ,愛媛県宇和島市津島町浦知
7983343,愛媛県,宇和島市,津島町針木,エヒメケン,ウワジマシ,ツシマチョウハリギ,愛媛県宇和島市津島町針木
7983344,愛媛県,宇和島市,津島町嵐,エヒメケン,ウワジマシ,ツシマチョウアラシ,愛媛県宇和島市津島町嵐
7983345,愛媛県,宇和島市,津島町横浦,エヒメケン,ウワジマシ,ツシマチョウヨコウラ,愛媛県宇和島市津島町横浦
7983346,愛媛県,宇和島市,津島町鼡鳴,エヒメケン,ウワジマシ,ツシマチョウネズナキ,愛媛県宇和島市津島町鼡鳴
7983351,愛媛県,宇和島市,津島町弓立,エヒメケン,ウワジマシ,ツシマチョウユダチ,愛媛県宇和島市津島町弓立
7983352,愛媛県,宇和島市,津島町坪井,エヒメケン,ウワジマシ,ツシマチョウツボイ,愛媛県宇和島市津島町坪井
7983353,愛媛県,宇和島市,津島町泥目水,エヒメケン,ウワジマシ,ツシマチョウドロメズ,愛媛県宇和島市津島町泥目水
7983354,愛媛県,宇和島市,津島町田颪,エヒメケン,ウワジマシ,ツシマチョウタオロシ,愛媛県宇和島市津島町田颪
7983355,愛媛県,宇和島市,津島町脇,エヒメケン,ウワジマシ,ツシマチョウワキ,愛媛県宇和島市津島町脇
7983356,愛媛県,宇和島市,津島町曽根,エヒメケン,ウワジマシ,ツシマチョウソネ,愛媛県宇和島市津島町曽根
7983357,愛媛県,宇和島市,津島町田之浜,エヒメケン,ウワジマシ,ツシマチョウタノハマ,愛媛県宇和島市津島町田之浜
7983358,愛媛県,宇和島市,津島町竹ケ島,エヒメケン,ウワジマシ,ツシマチョウタケガシマ,愛媛県宇和島市津島町竹ケ島
7983361,愛媛県,宇和島市,津島町北灘甲,エヒメケン,ウワジマシ,ツシマチョウキタナダコウ,愛媛県宇和島市津島町北灘甲
7983362,愛媛県,宇和島市,津島町北灘乙,エヒメケン,ウワジマシ,ツシマチョウキタナダオツ,愛媛県宇和島市津島町北灘乙
7983363,愛媛県,宇和島市,津島町北灘丙,エヒメケン,ウワジマシ,ツシマチョウキタナダヘイ,愛媛県宇和島市津島町北灘丙
7983364,愛媛県,宇和島市,津島町北灘丁（大日提、小日提）,エヒメケン,ウワジマシ,ツシマチョウキタナダテイ(オオヒサゲ、コヒサゲ),愛媛県宇和島市津島町北灘丁（大日提、小日提）
7983701,愛媛県,南宇和郡愛南町,柏,エヒメケン,ミナミウワグンアイナンチョウ,カシワ,愛媛県南宇和郡愛南町柏
7983702,愛媛県,南宇和郡愛南町,柏崎,エヒメケン,ミナミウワグンアイナンチョウ,カシワザキ,愛媛県南宇和郡愛南町柏崎
7983703,愛媛県,南宇和郡愛南町,須ノ川,エヒメケン,ミナミウワグンアイナンチョウ,スノカワ,愛媛県南宇和郡愛南町須ノ川
7983704,愛媛県,南宇和郡愛南町,平碆,エヒメケン,ミナミウワグンアイナンチョウ,ヒラバエ,愛媛県南宇和郡愛南町平碆
7983705,愛媛県,南宇和郡愛南町,家串,エヒメケン,ミナミウワグンアイナンチョウ,イエクシ,愛媛県南宇和郡愛南町家串
7983706,愛媛県,南宇和郡愛南町,油袋,エヒメケン,ミナミウワグンアイナンチョウ,ユタイ,愛媛県南宇和郡愛南町油袋
7983707,愛媛県,南宇和郡愛南町,魚神山,エヒメケン,ミナミウワグンアイナンチョウ,ナガミヤマ,愛媛県南宇和郡愛南町魚神山
7983708,愛媛県,南宇和郡愛南町,網代,エヒメケン,ミナミウワグンアイナンチョウ,アジロ,愛媛県南宇和郡愛南町網代
7984100,愛媛県,南宇和郡愛南町,,エヒメケン,ミナミウワグンアイナンチョウ,,愛媛県南宇和郡愛南町
7984101,愛媛県,南宇和郡愛南町,御荘菊川,エヒメケン,ミナミウワグンアイナンチョウ,ミショウキクガワ,愛媛県南宇和郡愛南町御荘菊川
7984102,愛媛県,南宇和郡愛南町,御荘平山,エヒメケン,ミナミウワグンアイナンチョウ,ミショウヒラヤマ,愛媛県南宇和郡愛南町御荘平山
7984103,愛媛県,南宇和郡愛南町,御荘長洲,エヒメケン,ミナミウワグンアイナンチョウ,ミショウナガス,愛媛県南宇和郡愛南町御荘長洲
7984104,愛媛県,南宇和郡愛南町,御荘和口,エヒメケン,ミナミウワグンアイナンチョウ,ミショウワグチ,愛媛県南宇和郡愛南町御荘和口
7984105,愛媛県,南宇和郡愛南町,御荘長月,エヒメケン,ミナミウワグンアイナンチョウ,ミショウナガツキ,愛媛県南宇和郡愛南町御荘長月
7984110,愛媛県,南宇和郡愛南町,御荘平城,エヒメケン,ミナミウワグンアイナンチョウ,ミショウヒラジョウ,愛媛県南宇和郡愛南町御荘平城
7984121,愛媛県,南宇和郡愛南町,御荘深泥,エヒメケン,ミナミウワグンアイナンチョウ,ミショウミドロ,愛媛県南宇和郡愛南町御荘深泥
7984122,愛媛県,南宇和郡愛南町,防城成川,エヒメケン,ミナミウワグンアイナンチョウ,ボウジョウナルカワ,愛媛県南宇和郡愛南町防城成川
7984123,愛媛県,南宇和郡愛南町,赤水,エヒメケン,ミナミウワグンアイナンチョウ,アカミズ,愛媛県南宇和郡愛南町赤水
7984124,愛媛県,南宇和郡愛南町,高畑,エヒメケン,ミナミウワグンアイナンチョウ,タカハタ,愛媛県南宇和郡愛南町高畑
7984125,愛媛県,南宇和郡愛南町,中浦,エヒメケン,ミナミウワグンアイナンチョウ,ナカウラ,愛媛県南宇和郡愛南町中浦
7984126,愛媛県,南宇和郡愛南町,猿鳴,エヒメケン,ミナミウワグンアイナンチョウ,サルナギ,愛媛県南宇和郡愛南町猿鳴
7984131,愛媛県,南宇和郡愛南町,城辺甲,エヒメケン,ミナミウワグンアイナンチョウ,ジョウヘンコウ,愛媛県南宇和郡愛南町城辺甲
7984132,愛媛県,南宇和郡愛南町,城辺乙,エヒメケン,ミナミウワグンアイナンチョウ,ジョウヘンオツ,愛媛県南宇和郡愛南町城辺乙
7984133,愛媛県,南宇和郡愛南町,緑乙,エヒメケン,ミナミウワグンアイナンチョウ,ミドリオツ,愛媛県南宇和郡愛南町緑乙
7984134,愛媛県,南宇和郡愛南町,緑甲,エヒメケン,ミナミウワグンアイナンチョウ,ミドリコウ,愛媛県南宇和郡愛南町緑甲
7984135,愛媛県,南宇和郡愛南町,緑丙,エヒメケン,ミナミウワグンアイナンチョウ,ミドリヘイ,愛媛県南宇和郡愛南町緑丙
7984136,愛媛県,南宇和郡愛南町,僧都,エヒメケン,ミナミウワグンアイナンチョウ,ソウヅ,愛媛県南宇和郡愛南町僧都
7984201,愛媛県,南宇和郡愛南町,越田,エヒメケン,ミナミウワグンアイナンチョウ,コシダ,愛媛県南宇和郡愛南町越田
7984202,愛媛県,南宇和郡愛南町,弓立,エヒメケン,ミナミウワグンアイナンチョウ,ユダチ,愛媛県南宇和郡愛南町弓立
7984203,愛媛県,南宇和郡愛南町,小浦,エヒメケン,ミナミウワグンアイナンチョウ,コウラ,愛媛県南宇和郡愛南町小浦
7984204,愛媛県,南宇和郡愛南町,樫月,エヒメケン,ミナミウワグンアイナンチョウ,カシヅク,愛媛県南宇和郡愛南町樫月
7984205,愛媛県,南宇和郡愛南町,船越,エヒメケン,ミナミウワグンアイナンチョウ,フナコシ,愛媛県南宇和郡愛南町船越
7984206,愛媛県,南宇和郡愛南町,内泊,エヒメケン,ミナミウワグンアイナンチョウ,ウチドマリ,愛媛県南宇和郡愛南町内泊
7984207,愛媛県,南宇和郡愛南町,中泊,エヒメケン,ミナミウワグンアイナンチョウ,ナカドマリ,愛媛県南宇和郡愛南町中泊
7984208,愛媛県,南宇和郡愛南町,外泊,エヒメケン,ミナミウワグンアイナンチョウ,ソトドマリ,愛媛県南宇和郡愛南町外泊
7984209,愛媛県,南宇和郡愛南町,鹿島,エヒメケン,ミナミウワグンアイナンチョウ,カシマ,愛媛県南宇和郡愛南町鹿島
7984211,愛媛県,南宇和郡愛南町,久家,エヒメケン,ミナミウワグンアイナンチョウ,ヒサゲ,愛媛県南宇和郡愛南町久家
7984212,愛媛県,南宇和郡愛南町,下久家,エヒメケン,ミナミウワグンアイナンチョウ,シモヒサゲ,愛媛県南宇和郡愛南町下久家
7984213,愛媛県,南宇和郡愛南町,樽見,エヒメケン,ミナミウワグンアイナンチョウ,タルミ,愛媛県南宇和郡愛南町樽見
7984214,愛媛県,南宇和郡愛南町,大成川,エヒメケン,ミナミウワグンアイナンチョウ,オオナルカワ,愛媛県南宇和郡愛南町大成川
7984215,愛媛県,南宇和郡愛南町,小成川,エヒメケン,ミナミウワグンアイナンチョウ,コナルカワ,愛媛県南宇和郡愛南町小成川
7984216,愛媛県,南宇和郡愛南町,福浦,エヒメケン,ミナミウワグンアイナンチョウ,フクウラ,愛媛県南宇和郡愛南町福浦
7984217,愛媛県,南宇和郡愛南町,麦ケ浦,エヒメケン,ミナミウワグンアイナンチョウ,ムギガウラ,愛媛県南宇和郡愛南町麦ケ浦
7984218,愛媛県,南宇和郡愛南町,武者泊,エヒメケン,ミナミウワグンアイナンチョウ,ムシャドマリ,愛媛県南宇和郡愛南町武者泊
7984219,愛媛県,南宇和郡愛南町,高茂,エヒメケン,ミナミウワグンアイナンチョウ,コウモ,愛媛県南宇和郡愛南町高茂
7984341,愛媛県,南宇和郡愛南町,蓮乗寺,エヒメケン,ミナミウワグンアイナンチョウ,レンジョウジ,愛媛県南宇和郡愛南町蓮乗寺
7984342,愛媛県,南宇和郡愛南町,深浦,エヒメケン,ミナミウワグンアイナンチョウ,フカウラ,愛媛県南宇和郡愛南町深浦
7984343,愛媛県,南宇和郡愛南町,垣内,エヒメケン,ミナミウワグンアイナンチョウ,カキウチ,愛媛県南宇和郡愛南町垣内
7984344,愛媛県,南宇和郡愛南町,岩水,エヒメケン,ミナミウワグンアイナンチョウ,イワミズ,愛媛県南宇和郡愛南町岩水
7984345,愛媛県,南宇和郡愛南町,敦盛,エヒメケン,ミナミウワグンアイナンチョウ,アツモリ,愛媛県南宇和郡愛南町敦盛
7984346,愛媛県,南宇和郡愛南町,柿ノ浦,エヒメケン,ミナミウワグンアイナンチョウ,カキノウラ,愛媛県南宇和郡愛南町柿ノ浦
7984347,愛媛県,南宇和郡愛南町,大浜,エヒメケン,ミナミウワグンアイナンチョウ,オオハマ,愛媛県南宇和郡愛南町大浜
7984348,愛媛県,南宇和郡愛南町,中玉,エヒメケン,ミナミウワグンアイナンチョウ,ナカタマ,愛媛県南宇和郡愛南町中玉
7984349,愛媛県,南宇和郡愛南町,脇本,エヒメケン,ミナミウワグンアイナンチョウ,ワキモト,愛媛県南宇和郡愛南町脇本
7984351,愛媛県,南宇和郡愛南町,鯆越,エヒメケン,ミナミウワグンアイナンチョウ,イルカゴエ,愛媛県南宇和郡愛南町鯆越
7984352,愛媛県,南宇和郡愛南町,古月,エヒメケン,ミナミウワグンアイナンチョウ,フルツキ,愛媛県南宇和郡愛南町古月
7984353,愛媛県,南宇和郡愛南町,久良,エヒメケン,ミナミウワグンアイナンチョウ,ヒサヨシ,愛媛県南宇和郡愛南町久良
7984401,愛媛県,南宇和郡愛南町,正木,エヒメケン,ミナミウワグンアイナンチョウ,マサキ,愛媛県南宇和郡愛南町正木
7984402,愛媛県,南宇和郡愛南町,増田,エヒメケン,ミナミウワグンアイナンチョウ,マスダ,愛媛県南宇和郡愛南町増田
7984403,愛媛県,南宇和郡愛南町,小山,エヒメケン,ミナミウワグンアイナンチョウ,コヤマ,愛媛県南宇和郡愛南町小山
7984404,愛媛県,南宇和郡愛南町,中川,エヒメケン,ミナミウワグンアイナンチョウ,ナカノカワ,愛媛県南宇和郡愛南町中川
7984405,愛媛県,南宇和郡愛南町,満倉,エヒメケン,ミナミウワグンアイナンチョウ,ミチクラ,愛媛県南宇和郡愛南町満倉
7984406,愛媛県,南宇和郡愛南町,広見,エヒメケン,ミナミウワグンアイナンチョウ,ヒロミ,愛媛県南宇和郡愛南町広見
7984407,愛媛県,南宇和郡愛南町,上大道,エヒメケン,ミナミウワグンアイナンチョウ,ウワオオドウ,愛媛県南宇和郡愛南町上大道
7984408,愛媛県,南宇和郡愛南町,一本松,エヒメケン,ミナミウワグンアイナンチョウ,イッポンマツ,愛媛県南宇和郡愛南町一本松
7990101,愛媛県,四国中央市,川之江町,エヒメケン,シコクチュウオウシ,カワノエチョウ,愛媛県四国中央市川之江町
7990102,愛媛県,四国中央市,川之江町長須,エヒメケン,シコクチュウオウシ,カワノエチョウナガス,愛媛県四国中央市川之江町長須
7990103,愛媛県,四国中央市,川之江町余木,エヒメケン,シコクチュウオウシ,カワノエチョウヨキ,愛媛県四国中央市川之江町余木
7990111,愛媛県,四国中央市,金生町下分,エヒメケン,シコクチュウオウシ,キンセイチョウシモブン,愛媛県四国中央市金生町下分
7990112,愛媛県,四国中央市,金生町山田井,エヒメケン,シコクチュウオウシ,キンセイチョウヤマダイ,愛媛県四国中央市金生町山田井
7990113,愛媛県,四国中央市,妻鳥町,エヒメケン,シコクチュウオウシ,メンドリチョウ,愛媛県四国中央市妻鳥町
7990121,愛媛県,四国中央市,上分町,エヒメケン,シコクチュウオウシ,カミブンチョウ,愛媛県四国中央市上分町
7990122,愛媛県,四国中央市,金田町半田,エヒメケン,シコクチュウオウシ,カナダチョウハンダ,愛媛県四国中央市金田町半田
7990123,愛媛県,四国中央市,金田町金川,エヒメケン,シコクチュウオウシ,カナダチョウカナガワ,愛媛県四国中央市金田町金川
7990124,愛媛県,四国中央市,金田町三角寺,エヒメケン,シコクチュウオウシ,カナダチョウサンカクジ,愛媛県四国中央市金田町三角寺
7990125,愛媛県,四国中央市,柴生町,エヒメケン,シコクチュウオウシ,シボウチョウ,愛媛県四国中央市柴生町
7990126,愛媛県,四国中央市,下川町,エヒメケン,シコクチュウオウシ,シモカワチョウ,愛媛県四国中央市下川町
7990127,愛媛県,四国中央市,川滝町下山,エヒメケン,シコクチュウオウシ,カワタキチョウシモヤマ,愛媛県四国中央市川滝町下山
7990128,愛媛県,四国中央市,川滝町領家,エヒメケン,シコクチュウオウシ,カワタキチョウリョウケ,愛媛県四国中央市川滝町領家
7990301,愛媛県,四国中央市,新宮町馬立,エヒメケン,シコクチュウオウシ,シングウチョウウマタテ,愛媛県四国中央市新宮町馬立
7990302,愛媛県,四国中央市,新宮町上山,エヒメケン,シコクチュウオウシ,シングウチョウカミヤマ,愛媛県四国中央市新宮町上山
7990303,愛媛県,四国中央市,新宮町新宮,エヒメケン,シコクチュウオウシ,シングウチョウシングウ,愛媛県四国中央市新宮町新宮
7990304,愛媛県,四国中央市,新宮町新瀬川,エヒメケン,シコクチュウオウシ,シングウチョウシンセガワ,愛媛県四国中央市新宮町新瀬川
7990400,愛媛県,四国中央市,,エヒメケン,シコクチュウオウシ,,愛媛県四国中央市
7990401,愛媛県,四国中央市,村松町,エヒメケン,シコクチュウオウシ,ムラマツチョウ,愛媛県四国中央市村松町
7990402,愛媛県,四国中央市,三島紙屋町,エヒメケン,シコクチュウオウシ,ミシマカミヤチョウ,愛媛県四国中央市三島紙屋町
7990403,愛媛県,四国中央市,三島朝日,エヒメケン,シコクチュウオウシ,ミシマアサヒ,愛媛県四国中央市三島朝日
7990404,愛媛県,四国中央市,三島宮川,エヒメケン,シコクチュウオウシ,ミシマミヤガワ,愛媛県四国中央市三島宮川
7990405,愛媛県,四国中央市,三島中央,エヒメケン,シコクチュウオウシ,ミシマチュウオウ,愛媛県四国中央市三島中央
7990411,愛媛県,四国中央市,下柏町,エヒメケン,シコクチュウオウシ,シモガシワチョウ,愛媛県四国中央市下柏町
7990412,愛媛県,四国中央市,上柏町,エヒメケン,シコクチュウオウシ,カミガシワチョウ,愛媛県四国中央市上柏町
7990413,愛媛県,四国中央市,中曽根町,エヒメケン,シコクチュウオウシ,ナカゾネチョウ,愛媛県四国中央市中曽根町
7990421,愛媛県,四国中央市,三島金子,エヒメケン,シコクチュウオウシ,ミシマカネコ,愛媛県四国中央市三島金子
7990422,愛媛県,四国中央市,中之庄町,エヒメケン,シコクチュウオウシ,ナカノショウチョウ,愛媛県四国中央市中之庄町
7990423,愛媛県,四国中央市,具定町,エヒメケン,シコクチュウオウシ,グジョウチョウ,愛媛県四国中央市具定町
7990431,愛媛県,四国中央市,寒川町,エヒメケン,シコクチュウオウシ,サンガワチョウ,愛媛県四国中央市寒川町
7990432,愛媛県,四国中央市,豊岡町大町,エヒメケン,シコクチュウオウシ,トヨオカチョウオオマチ,愛媛県四国中央市豊岡町大町
7990433,愛媛県,四国中央市,豊岡町豊田,エヒメケン,シコクチュウオウシ,トヨオカチョウトヨダ,愛媛県四国中央市豊岡町豊田
7990434,愛媛県,四国中央市,豊岡町五良野,エヒメケン,シコクチュウオウシ,トヨオカチョウイラノ,愛媛県四国中央市豊岡町五良野
7990435,愛媛県,四国中央市,豊岡町長田,エヒメケン,シコクチュウオウシ,トヨオカチョウオサダ,愛媛県四国中央市豊岡町長田
7990436,愛媛県,四国中央市,豊岡町岡銅,エヒメケン,シコクチュウオウシ,トヨオカチョウオカドウ,愛媛県四国中央市豊岡町岡銅
7990641,愛媛県,四国中央市,金砂町小川山,エヒメケン,シコクチュウオウシ,キンシャチョウオガワヤマ,愛媛県四国中央市金砂町小川山
7990642,愛媛県,四国中央市,金砂町平野山,エヒメケン,シコクチュウオウシ,キンシャチョウヒラノヤマ,愛媛県四国中央市金砂町平野山
7990643,愛媛県,四国中央市,富郷町寒川山,エヒメケン,シコクチュウオウシ,トミサトチョウサンガワヤマ,愛媛県四国中央市富郷町寒川山
7990644,愛媛県,四国中央市,富郷町豊坂,エヒメケン,シコクチュウオウシ,トミサトチョウトヨサカ,愛媛県四国中央市富郷町豊坂
7990645,愛媛県,四国中央市,富郷町津根山,エヒメケン,シコクチュウオウシ,トミサトチョウツネヤマ,愛媛県四国中央市富郷町津根山
7990650,愛媛県,新居浜市,別子山,エヒメケン,ニイハマシ,ベッシヤマ,愛媛県新居浜市別子山
7990701,愛媛県,四国中央市,土居町中村,エヒメケン,シコクチュウオウシ,ドイチョウナカムラ,愛媛県四国中央市土居町中村
7990702,愛媛県,四国中央市,土居町小林,エヒメケン,シコクチュウオウシ,ドイチョウコバヤシ,愛媛県四国中央市土居町小林
7990703,愛媛県,四国中央市,土居町藤原,エヒメケン,シコクチュウオウシ,ドイチョウフジワラ,愛媛県四国中央市土居町藤原
7990704,愛媛県,四国中央市,土居町津根,エヒメケン,シコクチュウオウシ,ドイチョウツネ,愛媛県四国中央市土居町津根
7990705,愛媛県,四国中央市,土居町野田,エヒメケン,シコクチュウオウシ,ドイチョウノダ,愛媛県四国中央市土居町野田
7990711,愛媛県,四国中央市,土居町土居,エヒメケン,シコクチュウオウシ,ドイチョウドイ,愛媛県四国中央市土居町土居
7990712,愛媛県,四国中央市,土居町入野,エヒメケン,シコクチュウオウシ,ドイチョウイリノ,愛媛県四国中央市土居町入野
7990713,愛媛県,四国中央市,土居町浦山,エヒメケン,シコクチュウオウシ,ドイチョウウラヤマ,愛媛県四国中央市土居町浦山
7990714,愛媛県,四国中央市,土居町畑野,エヒメケン,シコクチュウオウシ,ドイチョウハタノ,愛媛県四国中央市土居町畑野
7990721,愛媛県,四国中央市,土居町上野,エヒメケン,シコクチュウオウシ,ドイチョウウエノ,愛媛県四国中央市土居町上野
7990722,愛媛県,四国中央市,土居町北野,エヒメケン,シコクチュウオウシ,ドイチョウキタノ,愛媛県四国中央市土居町北野
7990723,愛媛県,四国中央市,土居町天満,エヒメケン,シコクチュウオウシ,ドイチョウテンマ,愛媛県四国中央市土居町天満
7990724,愛媛県,四国中央市,土居町蕪崎,エヒメケン,シコクチュウオウシ,ドイチョウカブラサキ,愛媛県四国中央市土居町蕪崎
7991101,愛媛県,西条市,小松町新屋敷,エヒメケン,サイジョウシ,コマツチョウシンヤシキ,愛媛県西条市小松町新屋敷
7991102,愛媛県,西条市,小松町南川,エヒメケン,サイジョウシ,コマツチョウミナミガワ,愛媛県西条市小松町南川
7991103,愛媛県,西条市,小松町北川,エヒメケン,サイジョウシ,コマツチョウキタガワ,愛媛県西条市小松町北川
7991104,愛媛県,西条市,小松町妙口,エヒメケン,サイジョウシ,コマツチョウミョウグチ,愛媛県西条市小松町妙口
7991105,愛媛県,西条市,小松町大郷,エヒメケン,サイジョウシ,コマツチョウオオゴ,愛媛県西条市小松町大郷
7991106,愛媛県,西条市,小松町大頭,エヒメケン,サイジョウシ,コマツチョウオオト,愛媛県西条市小松町大頭
7991107,愛媛県,西条市,小松町明穂,エヒメケン,サイジョウシ,コマツチョウアカオ,愛媛県西条市小松町明穂
7991108,愛媛県,西条市,小松町安井,エヒメケン,サイジョウシ,コマツチョウヤスイ,愛媛県西条市小松町安井
7991111,愛媛県,西条市,小松町石鎚（湯浪）,エヒメケン,サイジョウシ,コマツチョウイシヅチ(ユウナミ),愛媛県西条市小松町石鎚（湯浪）
7991112,愛媛県,西条市,小松町石鎚（その他）,エヒメケン,サイジョウシ,コマツチョウイシヅチ(ソノタ),愛媛県西条市小松町石鎚（その他）
7991301,愛媛県,西条市,三芳,エヒメケン,サイジョウシ,ミヨシ,愛媛県西条市三芳
7991302,愛媛県,西条市,楠,エヒメケン,サイジョウシ,クス,愛媛県西条市楠
7991303,愛媛県,西条市,河原津,エヒメケン,サイジョウシ,カワラヅ,愛媛県西条市河原津
7991304,愛媛県,西条市,河原津新田,エヒメケン,サイジョウシ,カワラヅシンデン,愛媛県西条市河原津新田
7991311,愛媛県,西条市,宮之内,エヒメケン,サイジョウシ,ミヤノウチ,愛媛県西条市宮之内
7991312,愛媛県,西条市,大野,エヒメケン,サイジョウシ,オオノ,愛媛県西条市大野
7991313,愛媛県,西条市,旦之上,エヒメケン,サイジョウシ,ダンノウエ,愛媛県西条市旦之上
7991314,愛媛県,西条市,河之内,エヒメケン,サイジョウシ,カワノウチ,愛媛県西条市河之内
7991315,愛媛県,西条市,黒谷,エヒメケン,サイジョウシ,クロダニ,愛媛県西条市黒谷
7991316,愛媛県,西条市,福成寺,エヒメケン,サイジョウシ,フクジョウジ,愛媛県西条市福成寺
7991317,愛媛県,西条市,実報寺,エヒメケン,サイジョウシ,ジツポウジ,愛媛県西条市実報寺
7991321,愛媛県,西条市,高田（その他）,エヒメケン,サイジョウシ,タカタ(ソノタ),愛媛県西条市高田（その他）
7991322,愛媛県,西条市,国安,エヒメケン,サイジョウシ,クニヤス,愛媛県西条市国安
7991323,愛媛県,西条市,桑村,エヒメケン,サイジョウシ,クワムラ,愛媛県西条市桑村
7991324,愛媛県,西条市,高田（正法寺）,エヒメケン,サイジョウシ,タカタ(ショウホウジ),愛媛県西条市高田（正法寺）
7991325,愛媛県,西条市,新市,エヒメケン,サイジョウシ,シンイチ,愛媛県西条市新市
7991331,愛媛県,西条市,新町,エヒメケン,サイジョウシ,シンマチ,愛媛県西条市新町
7991332,愛媛県,西条市,安用出作,エヒメケン,サイジョウシ,ヤスモチデサク,愛媛県西条市安用出作
7991333,愛媛県,西条市,安用,エヒメケン,サイジョウシ,ヤスモチ,愛媛県西条市安用
7991334,愛媛県,西条市,広岡,エヒメケン,サイジョウシ,ヒロオカ,愛媛県西条市広岡
7991335,愛媛県,西条市,石延,エヒメケン,サイジョウシ,イシノベ,愛媛県西条市石延
7991336,愛媛県,西条市,上市,エヒメケン,サイジョウシ,カミイチ,愛媛県西条市上市
7991341,愛媛県,西条市,壬生川,エヒメケン,サイジョウシ,ニュウガワ,愛媛県西条市壬生川
7991342,愛媛県,西条市,大新田,エヒメケン,サイジョウシ,オオシンデン,愛媛県西条市大新田
7991343,愛媛県,西条市,喜多台,エヒメケン,サイジョウシ,キタダイ,愛媛県西条市喜多台
7991344,愛媛県,西条市,円海寺,エヒメケン,サイジョウシ,エンカイジ,愛媛県西条市円海寺
7991345,愛媛県,西条市,明理川,エヒメケン,サイジョウシ,アカリガワ,愛媛県西条市明理川
7991351,愛媛県,西条市,三津屋,エヒメケン,サイジョウシ,ミツヤ,愛媛県西条市三津屋
7991352,愛媛県,西条市,三津屋東,エヒメケン,サイジョウシ,ミツヤヒガシ,愛媛県西条市三津屋東
7991353,愛媛県,西条市,三津屋南,エヒメケン,サイジョウシ,ミツヤミナミ,愛媛県西条市三津屋南
7991354,愛媛県,西条市,北条,エヒメケン,サイジョウシ,ホウジョウ,愛媛県西条市北条
7991361,愛媛県,西条市,広江,エヒメケン,サイジョウシ,ヒロエ,愛媛県西条市広江
7991362,愛媛県,西条市,今在家,エヒメケン,サイジョウシ,イマザイケ,愛媛県西条市今在家
7991363,愛媛県,西条市,玉之江,エヒメケン,サイジョウシ,タマノエ,愛媛県西条市玉之江
7991364,愛媛県,西条市,石田,エヒメケン,サイジョウシ,イシダ,愛媛県西条市石田
7991371,愛媛県,西条市,周布,エヒメケン,サイジョウシ,シュウ,愛媛県西条市周布
7991372,愛媛県,西条市,吉田,エヒメケン,サイジョウシ,ヨシダ,愛媛県西条市吉田
7991501,愛媛県,今治市,喜田村（番地）,エヒメケン,イマバリシ,キタムラ(バンチ),愛媛県今治市喜田村（番地）
7991502,愛媛県,今治市,喜田村（丁目）,エヒメケン,イマバリシ,キタムラ(チョウメ),愛媛県今治市喜田村（丁目）
7991503,愛媛県,今治市,富田新港,エヒメケン,イマバリシ,トミタシンコウ,愛媛県今治市富田新港
7991504,愛媛県,今治市,拝志,エヒメケン,イマバリシ,ハイシ,愛媛県今治市拝志
7991505,愛媛県,今治市,東村（番地）,エヒメケン,イマバリシ,ヒガシムラ(バンチ),愛媛県今治市東村（番地）
7991506,愛媛県,今治市,東村（丁目）,エヒメケン,イマバリシ,ヒガシムラ(チョウメ),愛媛県今治市東村（丁目）
7991507,愛媛県,今治市,東村南,エヒメケン,イマバリシ,ヒガシムラミナミ,愛媛県今治市東村南
7991511,愛媛県,今治市,上徳,エヒメケン,イマバリシ,カミトク,愛媛県今治市上徳
7991512,愛媛県,今治市,高市,エヒメケン,イマバリシ,タカイチ,愛媛県今治市高市
7991513,愛媛県,今治市,松木,エヒメケン,イマバリシ,マツギ,愛媛県今治市松木
7991514,愛媛県,今治市,町谷,エヒメケン,イマバリシ,マチヤ,愛媛県今治市町谷
7991521,愛媛県,今治市,古国分,エヒメケン,イマバリシ,フルコクブ,愛媛県今治市古国分
7991522,愛媛県,今治市,桜井（丁目）,エヒメケン,イマバリシ,サクライ(チョウメ),愛媛県今治市桜井（丁目）
7991523,愛媛県,今治市,郷桜井,エヒメケン,イマバリシ,ゴウザクライ,愛媛県今治市郷桜井
7991524,愛媛県,今治市,桜井（番地）,エヒメケン,イマバリシ,サクライ(バンチ),愛媛県今治市桜井（番地）
7991525,愛媛県,今治市,湯ノ浦,エヒメケン,イマバリシ,ユノウラ,愛媛県今治市湯ノ浦
7991526,愛媛県,今治市,孫兵衛作,エヒメケン,イマバリシ,マゴベエサク,愛媛県今治市孫兵衛作
7991527,愛媛県,今治市,長沢,エヒメケン,イマバリシ,ナガサワ,愛媛県今治市長沢
7991531,愛媛県,今治市,唐子台東,エヒメケン,イマバリシ,カラコダイヒガシ,愛媛県今治市唐子台東
7991532,愛媛県,今治市,唐子台西,エヒメケン,イマバリシ,カラコダイニシ,愛媛県今治市唐子台西
7991533,愛媛県,今治市,国分,エヒメケン,イマバリシ,コクブ,愛媛県今治市国分
7991534,愛媛県,今治市,桜井団地,エヒメケン,イマバリシ,サクライダンチ,愛媛県今治市桜井団地
7991535,愛媛県,今治市,登畑,エヒメケン,イマバリシ,ノボリバタ,愛媛県今治市登畑
7991536,愛媛県,今治市,旦,エヒメケン,イマバリシ,ダン,愛媛県今治市旦
7991537,愛媛県,今治市,宮ヶ崎,エヒメケン,イマバリシ,ミヤガサキ,愛媛県今治市宮ヶ崎
7991601,愛媛県,今治市,古谷,エヒメケン,イマバリシ,コヤ,愛媛県今治市古谷
7991602,愛媛県,今治市,山口,エヒメケン,イマバリシ,ヤマグチ,愛媛県今治市山口
7991603,愛媛県,今治市,朝倉下,エヒメケン,イマバリシ,アサクラシモ,愛媛県今治市朝倉下
7991604,愛媛県,今治市,朝倉北,エヒメケン,イマバリシ,アサクラキタ,愛媛県今治市朝倉北
7991605,愛媛県,今治市,朝倉南甲,エヒメケン,イマバリシ,アサクラミナミコウ,愛媛県今治市朝倉南甲
7991606,愛媛県,今治市,朝倉南乙,エヒメケン,イマバリシ,アサクラミナミオツ,愛媛県今治市朝倉南乙
7991607,愛媛県,今治市,朝倉上,エヒメケン,イマバリシ,アサクラカミ,愛媛県今治市朝倉上
7991608,愛媛県,今治市,朝倉南丙,エヒメケン,イマバリシ,アサクラミナミヘイ,愛媛県今治市朝倉南丙
7992101,愛媛県,今治市,波方町波方,エヒメケン,イマバリシ,ナミカタチョウナミカタ,愛媛県今治市波方町波方
7992102,愛媛県,今治市,波方町樋口,エヒメケン,イマバリシ,ナミカタチョウヒノクチ,愛媛県今治市波方町樋口
7992103,愛媛県,今治市,波方町小部,エヒメケン,イマバリシ,ナミカタチョウオベ,愛媛県今治市波方町小部
7992104,愛媛県,今治市,波方町宮崎,エヒメケン,イマバリシ,ナミカタチョウミヤザキ,愛媛県今治市波方町宮崎
7992105,愛媛県,今治市,波方町馬刀潟,エヒメケン,イマバリシ,ナミカタチョウマテガタ,愛媛県今治市波方町馬刀潟
7992106,愛媛県,今治市,波方町森上,エヒメケン,イマバリシ,ナミカタチョウモリアゲ,愛媛県今治市波方町森上
7992107,愛媛県,今治市,波方町西浦,エヒメケン,イマバリシ,ナミカタチョウニシウラ,愛媛県今治市波方町西浦
7992108,愛媛県,今治市,波方町岡,エヒメケン,イマバリシ,ナミカタチョウオカ,愛媛県今治市波方町岡
7992109,愛媛県,今治市,波方町養老,エヒメケン,イマバリシ,ナミカタチョウヨウロウ,愛媛県今治市波方町養老
7992110,愛媛県,今治市,波方町大浦,エヒメケン,イマバリシ,ナミカタチョウオオウラ,愛媛県今治市波方町大浦
7992110,愛媛県,今治市,波方町郷,エヒメケン,イマバリシ,ナミカタチョウゴウ,愛媛県今治市波方町郷
7992111,愛媛県,今治市,小浦町,エヒメケン,イマバリシ,コウラチョウ,愛媛県今治市小浦町
7992112,愛媛県,今治市,波止浜（丁目）,エヒメケン,イマバリシ,ハシハマ(チョウメ),愛媛県今治市波止浜（丁目）
7992113,愛媛県,今治市,高部,エヒメケン,イマバリシ,タカベ,愛媛県今治市高部
7992114,愛媛県,今治市,杣田,エヒメケン,イマバリシ,ソマダ,愛媛県今治市杣田
7992115,愛媛県,今治市,中堀,エヒメケン,イマバリシ,ナカボリ,愛媛県今治市中堀
7992116,愛媛県,今治市,内堀,エヒメケン,イマバリシ,ウチボリ,愛媛県今治市内堀
7992117,愛媛県,今治市,地堀,エヒメケン,イマバリシ,ジボリ,愛媛県今治市地堀
7992118,愛媛県,今治市,波止浜（番地）,エヒメケン,イマバリシ,ハシハマ(バンチ),愛媛県今治市波止浜（番地）
7992121,愛媛県,今治市,来島（その他）,エヒメケン,イマバリシ,クルシマ(ソノタ),愛媛県今治市来島（その他）
7992122,愛媛県,今治市,来島（小島）,エヒメケン,イマバリシ,クルシマ(オシマ),愛媛県今治市来島（小島）
7992123,愛媛県,今治市,馬島,エヒメケン,イマバリシ,ウマシマ,愛媛県今治市馬島
7992201,愛媛県,今治市,大西町九王,エヒメケン,イマバリシ,オオニシチョウクオウ,愛媛県今治市大西町九王
7992202,愛媛県,今治市,大西町紺原,エヒメケン,イマバリシ,オオニシチョウコンバラ,愛媛県今治市大西町紺原
7992203,愛媛県,今治市,大西町新町,エヒメケン,イマバリシ,オオニシチョウシンマチ,愛媛県今治市大西町新町
7992204,愛媛県,今治市,大西町大井浜,エヒメケン,イマバリシ,オオニシチョウオオイハマ,愛媛県今治市大西町大井浜
7992205,愛媛県,今治市,大西町宮脇,エヒメケン,イマバリシ,オオニシチョウミヤワキ,愛媛県今治市大西町宮脇
7992206,愛媛県,今治市,大西町脇,エヒメケン,イマバリシ,オオニシチョウワキ,愛媛県今治市大西町脇
7992207,愛媛県,今治市,大西町山之内,エヒメケン,イマバリシ,オオニシチョウヤマノウチ,愛媛県今治市大西町山之内
7992208,愛媛県,今治市,大西町星浦,エヒメケン,イマバリシ,オオニシチョウホシノウラ,愛媛県今治市大西町星浦
7992209,愛媛県,今治市,大西町別府,エヒメケン,イマバリシ,オオニシチョウベフ,愛媛県今治市大西町別府
7992301,愛媛県,今治市,菊間町佐方,エヒメケン,イマバリシ,キクマチョウサガタ,愛媛県今治市菊間町佐方
7992302,愛媛県,今治市,菊間町種,エヒメケン,イマバリシ,キクマチョウタネ,愛媛県今治市菊間町種
7992303,愛媛県,今治市,菊間町浜,エヒメケン,イマバリシ,キクマチョウハマ,愛媛県今治市菊間町浜
7992304,愛媛県,今治市,菊間町池原,エヒメケン,イマバリシ,キクマチョウイケノハラ,愛媛県今治市菊間町池原
7992305,愛媛県,今治市,菊間町松尾,エヒメケン,イマバリシ,キクマチョウマツオ,愛媛県今治市菊間町松尾
7992306,愛媛県,今治市,菊間町河之内,エヒメケン,イマバリシ,キクマチョウカワノウチ,愛媛県今治市菊間町河之内
7992307,愛媛県,今治市,菊間町川上,エヒメケン,イマバリシ,キクマチョウカワカミ,愛媛県今治市菊間町川上
7992308,愛媛県,今治市,菊間町中川,エヒメケン,イマバリシ,キクマチョウナカノカワ,愛媛県今治市菊間町中川
7992309,愛媛県,今治市,菊間町高田,エヒメケン,イマバリシ,キクマチョウコウダ,愛媛県今治市菊間町高田
7992310,愛媛県,今治市,菊間町長坂,エヒメケン,イマバリシ,キクマチョウナガサカ,愛媛県今治市菊間町長坂
7992311,愛媛県,今治市,菊間町西山,エヒメケン,イマバリシ,キクマチョウニシヤマ,愛媛県今治市菊間町西山
7992312,愛媛県,今治市,菊間町田之尻,エヒメケン,イマバリシ,キクマチョウタノシリ,愛媛県今治市菊間町田之尻
7992401,愛媛県,松山市,浅海原,エヒメケン,マツヤマシ,アサナミハラ,愛媛県松山市浅海原
7992402,愛媛県,松山市,浅海本谷,エヒメケン,マツヤマシ,アサナミホンダニ,愛媛県松山市浅海本谷
7992403,愛媛県,松山市,萩原,エヒメケン,マツヤマシ,ハギワラ,愛媛県松山市萩原
7992404,愛媛県,松山市,庄,エヒメケン,マツヤマシ,ショウ,愛媛県松山市庄
7992405,愛媛県,松山市,上難波,エヒメケン,マツヤマシ,カミナンバ,愛媛県松山市上難波
7992406,愛媛県,松山市,中通,エヒメケン,マツヤマシ,ナカドオリ,愛媛県松山市中通
7992407,愛媛県,松山市,下難波,エヒメケン,マツヤマシ,シモナンバ,愛媛県松山市下難波
7992408,愛媛県,松山市,大浦,エヒメケン,マツヤマシ,オオウラ,愛媛県松山市大浦
7992410,愛媛県,松山市,小山田,エヒメケン,マツヤマシ,オヤマダ,愛媛県松山市小山田
7992411,愛媛県,松山市,儀式,エヒメケン,マツヤマシ,ギシキ,愛媛県松山市儀式
7992412,愛媛県,松山市,庄府,エヒメケン,マツヤマシ,ショウブ,愛媛県松山市庄府
7992413,愛媛県,松山市,立岩米之野,エヒメケン,マツヤマシ,タテイワコメノノ,愛媛県松山市立岩米之野
7992414,愛媛県,松山市,立岩中村,エヒメケン,マツヤマシ,タテイワナカムラ,愛媛県松山市立岩中村
7992415,愛媛県,松山市,猿川,エヒメケン,マツヤマシ,サルカワ,愛媛県松山市猿川
7992416,愛媛県,松山市,滝本,エヒメケン,マツヤマシ,タキモト,愛媛県松山市滝本
7992416,愛媛県,松山市,猪木,エヒメケン,マツヤマシ,イノキ,愛媛県松山市猪木
7992417,愛媛県,松山市,才之原,エヒメケン,マツヤマシ,サイノハラ,愛媛県松山市才之原
7992418,愛媛県,松山市,尾儀原,エヒメケン,マツヤマシ,オギハラ,愛媛県松山市尾儀原
7992419,愛媛県,松山市,猿川原,エヒメケン,マツヤマシ,サルカワバラ,愛媛県松山市猿川原
7992421,愛媛県,松山市,正岡神田,エヒメケン,マツヤマシ,マサオカカンダ,愛媛県松山市正岡神田
7992422,愛媛県,松山市,高田,エヒメケン,マツヤマシ,タカタ,愛媛県松山市高田
7992423,愛媛県,松山市,院内,エヒメケン,マツヤマシ,インナイ,愛媛県松山市院内
7992424,愛媛県,松山市,八反地,エヒメケン,マツヤマシ,ハッタンジ,愛媛県松山市八反地
7992425,愛媛県,松山市,中西外,エヒメケン,マツヤマシ,ナカニシソト,愛媛県松山市中西外
7992426,愛媛県,松山市,中西内,エヒメケン,マツヤマシ,ナカニシウチ,愛媛県松山市中西内
7992430,愛媛県,松山市,北条辻,エヒメケン,マツヤマシ,ホウジョウツジ,愛媛県松山市北条辻
7992431,愛媛県,松山市,北条,エヒメケン,マツヤマシ,ホウジョウ,愛媛県松山市北条
7992432,愛媛県,松山市,土手内,エヒメケン,マツヤマシ,ドテウチ,愛媛県松山市土手内
7992433,愛媛県,松山市,安居島,エヒメケン,マツヤマシ,アイジマ,愛媛県松山市安居島
7992434,愛媛県,松山市,柳原,エヒメケン,マツヤマシ,ヤナギハラ,愛媛県松山市柳原
7992435,愛媛県,松山市,府中,エヒメケン,マツヤマシ,フチュウ,愛媛県松山市府中
7992436,愛媛県,松山市,河野別府,エヒメケン,マツヤマシ,コウノベップ,愛媛県松山市河野別府
7992437,愛媛県,松山市,夏目,エヒメケン,マツヤマシ,ナツメ,愛媛県松山市夏目
7992438,愛媛県,松山市,河野中須賀,エヒメケン,マツヤマシ,コウノナカスガ,愛媛県松山市河野中須賀
7992439,愛媛県,松山市,片山,エヒメケン,マツヤマシ,カタヤマ,愛媛県松山市片山
7992441,愛媛県,松山市,宮内,エヒメケン,マツヤマシ,ミヤウチ,愛媛県松山市宮内
7992442,愛媛県,松山市,常保免,エヒメケン,マツヤマシ,ジョウホウメン,愛媛県松山市常保免
7992443,愛媛県,松山市,善応寺,エヒメケン,マツヤマシ,ゼンオウジ,愛媛県松山市善応寺
7992444,愛媛県,松山市,横谷,エヒメケン,マツヤマシ,ヨコダニ,愛媛県松山市横谷
7992445,愛媛県,松山市,河野高山,エヒメケン,マツヤマシ,コウノコヤマ,愛媛県松山市河野高山
7992446,愛媛県,松山市,牛谷,エヒメケン,マツヤマシ,ウシダニ,愛媛県松山市牛谷
7992447,愛媛県,松山市,佐古,エヒメケン,マツヤマシ,サコ,愛媛県松山市佐古
7992451,愛媛県,松山市,小川谷,エヒメケン,マツヤマシ,コガダニ,愛媛県松山市小川谷
7992452,愛媛県,松山市,平林,エヒメケン,マツヤマシ,ヒラバヤシ,愛媛県松山市平林
7992453,愛媛県,松山市,麓,エヒメケン,マツヤマシ,フモト,愛媛県松山市麓
7992454,愛媛県,松山市,客,エヒメケン,マツヤマシ,キャク,愛媛県松山市客
7992455,愛媛県,松山市,常竹,エヒメケン,マツヤマシ,ツネタケ,愛媛県松山市常竹
7992456,愛媛県,松山市,本谷,エヒメケン,マツヤマシ,ホンダニ,愛媛県松山市本谷
7992457,愛媛県,松山市,西谷,エヒメケン,マツヤマシ,ニシダニ,愛媛県松山市西谷
7992458,愛媛県,松山市,大西谷,エヒメケン,マツヤマシ,オオニシダニ,愛媛県松山市大西谷
7992460,愛媛県,松山市,苞木,エヒメケン,マツヤマシ,スボキ,愛媛県松山市苞木
7992461,愛媛県,松山市,鹿峰,エヒメケン,マツヤマシ,カノミネ,愛媛県松山市鹿峰
7992462,愛媛県,松山市,久保,エヒメケン,マツヤマシ,クボ,愛媛県松山市久保
7992463,愛媛県,松山市,粟井河原,エヒメケン,マツヤマシ,アワイカワラ,愛媛県松山市粟井河原
7992464,愛媛県,松山市,安岡,エヒメケン,マツヤマシ,ヤスオカ,愛媛県松山市安岡
7992465,愛媛県,松山市,和田,エヒメケン,マツヤマシ,ワダ,愛媛県松山市和田
7992466,愛媛県,松山市,鴨之池,エヒメケン,マツヤマシ,カモノイケ,愛媛県松山市鴨之池
7992467,愛媛県,松山市,磯河内,エヒメケン,マツヤマシ,イソコウチ,愛媛県松山市磯河内
7992468,愛媛県,松山市,小川,エヒメケン,マツヤマシ,オガワ,愛媛県松山市小川
7992469,愛媛県,松山市,光洋台,エヒメケン,マツヤマシ,コウヨウダイ,愛媛県松山市光洋台
7992649,愛媛県,松山市,東大栗町,エヒメケン,マツヤマシ,ヒガシオオグリチョウ,愛媛県松山市東大栗町
7992651,愛媛県,松山市,堀江町,エヒメケン,マツヤマシ,ホリエチョウ,愛媛県松山市堀江町
7992652,愛媛県,松山市,福角町,エヒメケン,マツヤマシ,フクズミチョウ,愛媛県松山市福角町
7992653,愛媛県,松山市,権現町,エヒメケン,マツヤマシ,ゴンゲンチョウ,愛媛県松山市権現町
7992654,愛媛県,松山市,内宮町,エヒメケン,マツヤマシ,ウチミヤチョウ,愛媛県松山市内宮町
7992655,愛媛県,松山市,馬木町,エヒメケン,マツヤマシ,ウマキチョウ,愛媛県松山市馬木町
7992656,愛媛県,松山市,和気町,エヒメケン,マツヤマシ,ワケマチ,愛媛県松山市和気町
7992661,愛媛県,松山市,勝岡町,エヒメケン,マツヤマシ,カツオカチョウ,愛媛県松山市勝岡町
7992662,愛媛県,松山市,太山寺町,エヒメケン,マツヤマシ,タイサンジチョウ,愛媛県松山市太山寺町
7993100,愛媛県,伊予市,,エヒメケン,イヨシ,,愛媛県伊予市
7993101,愛媛県,伊予市,八倉,エヒメケン,イヨシ,ヤクラ,愛媛県伊予市八倉
7993102,愛媛県,伊予市,宮下,エヒメケン,イヨシ,ミヤシタ,愛媛県伊予市宮下
7993103,愛媛県,伊予市,上野,エヒメケン,イヨシ,ウエノ,愛媛県伊予市上野
7993104,愛媛県,伊予市,上三谷,エヒメケン,イヨシ,カミミタニ,愛媛県伊予市上三谷
7993105,愛媛県,伊予市,下三谷,エヒメケン,イヨシ,シモミタニ,愛媛県伊予市下三谷
7993111,愛媛県,伊予市,下吾川,エヒメケン,イヨシ,シモアガワ,愛媛県伊予市下吾川
7993112,愛媛県,伊予市,上吾川,エヒメケン,イヨシ,カミアガワ,愛媛県伊予市上吾川
7993113,愛媛県,伊予市,米湊,エヒメケン,イヨシ,コミナト,愛媛県伊予市米湊
7993114,愛媛県,伊予市,灘町,エヒメケン,イヨシ,ナダマチ,愛媛県伊予市灘町
7993115,愛媛県,伊予市,湊町,エヒメケン,イヨシ,ミナトマチ,愛媛県伊予市湊町
7993121,愛媛県,伊予市,稲荷,エヒメケン,イヨシ,イナリ,愛媛県伊予市稲荷
7993122,愛媛県,伊予市,市場,エヒメケン,イヨシ,イチバ,愛媛県伊予市市場
7993123,愛媛県,伊予市,中村,エヒメケン,イヨシ,ナカムラ,愛媛県伊予市中村
7993124,愛媛県,伊予市,三秋,エヒメケン,イヨシ,ミアキ,愛媛県伊予市三秋
7993125,愛媛県,伊予市,森,エヒメケン,イヨシ,モリ,愛媛県伊予市森
7993126,愛媛県,伊予市,本郡,エヒメケン,イヨシ,ホング,愛媛県伊予市本郡
7993127,愛媛県,伊予市,尾崎,エヒメケン,イヨシ,オサキ,愛媛県伊予市尾崎
7993128,愛媛県,伊予市,三島町,エヒメケン,イヨシ,ミシママチ,愛媛県伊予市三島町
7993131,愛媛県,伊予市,大平,エヒメケン,イヨシ,オオヒラ,愛媛県伊予市大平
7993132,愛媛県,伊予市,平岡,エヒメケン,イヨシ,ヒラオカ,愛媛県伊予市平岡
7993133,愛媛県,伊予市,下唐川,エヒメケン,イヨシ,シモカラカワ,愛媛県伊予市下唐川
7993134,愛媛県,伊予市,上唐川,エヒメケン,イヨシ,カミカラカワ,愛媛県伊予市上唐川
7993135,愛媛県,伊予市,両沢,エヒメケン,イヨシ,リョウザワ,愛媛県伊予市両沢
7993136,愛媛県,伊予市,鵜崎,エヒメケン,イヨシ,ウノサキ,愛媛県伊予市鵜崎
7993201,愛媛県,伊予市,双海町高野川,エヒメケン,イヨシ,フタミチョウコウノカワ,愛媛県伊予市双海町高野川
7993202,愛媛県,伊予市,双海町上灘,エヒメケン,イヨシ,フタミチョウカミナダ,愛媛県伊予市双海町上灘
7993207,愛媛県,伊予市,双海町高岸,エヒメケン,イヨシ,フタミチョウタカギシ,愛媛県伊予市双海町高岸
7993311,愛媛県,伊予市,双海町大久保,エヒメケン,イヨシ,フタミチョウオオクボ,愛媛県伊予市双海町大久保
7993312,愛媛県,伊予市,双海町串（その他）,エヒメケン,イヨシ,フタミチョウクシ(ソノタ),愛媛県伊予市双海町串（その他）
7993313,愛媛県,伊予市,双海町串（上浜）,エヒメケン,イヨシ,フタミチョウクシ(カミハマ),愛媛県伊予市双海町串（上浜）
7993314,愛媛県,伊予市,双海町串（下浜）,エヒメケン,イヨシ,フタミチョウクシ(シモハマ),愛媛県伊予市双海町串（下浜）
7993401,愛媛県,大洲市,長浜甲,エヒメケン,オオズシ,ナガハマコウ,愛媛県大洲市長浜甲
7993402,愛媛県,大洲市,長浜乙,エヒメケン,オオズシ,ナガハマオツ,愛媛県大洲市長浜乙
7993403,愛媛県,大洲市,長浜町仁久甲,エヒメケン,オオズシ,ナガハマチョウニギュウコウ,愛媛県大洲市長浜町仁久甲
7993404,愛媛県,大洲市,長浜町沖浦甲,エヒメケン,オオズシ,ナガハマチョウオキウラコウ,愛媛県大洲市長浜町沖浦甲
7993405,愛媛県,大洲市,長浜町沖浦乙,エヒメケン,オオズシ,ナガハマチョウオキウラオツ,愛媛県大洲市長浜町沖浦乙
7993406,愛媛県,大洲市,長浜町沖浦丙,エヒメケン,オオズシ,ナガハマチョウオキウラヘイ,愛媛県大洲市長浜町沖浦丙
7993407,愛媛県,大洲市,長浜町黒田甲,エヒメケン,オオズシ,ナガハマチョウクロンタコウ,愛媛県大洲市長浜町黒田甲
7993411,愛媛県,大洲市,長浜町今坊甲,エヒメケン,オオズシ,ナガハマチョウコンボウコウ,愛媛県大洲市長浜町今坊甲
7993412,愛媛県,大洲市,長浜町晴海,エヒメケン,オオズシ,ナガハマチョウハルミ,愛媛県大洲市長浜町晴海
7993413,愛媛県,大洲市,長浜町拓海,エヒメケン,オオズシ,ナガハマチョウタクミ,愛媛県大洲市長浜町拓海
7993421,愛媛県,大洲市,戒川甲,エヒメケン,オオズシ,カイカワコウ,愛媛県大洲市戒川甲
7993422,愛媛県,大洲市,長浜町大越甲,エヒメケン,オオズシ,ナガハマチョウオオゴシコウ,愛媛県大洲市長浜町大越甲
7993431,愛媛県,大洲市,白滝甲,エヒメケン,オオズシ,シラタキコウ,愛媛県大洲市白滝甲
7993432,愛媛県,大洲市,柴甲,エヒメケン,オオズシ,シバコウ,愛媛県大洲市柴甲
7993433,愛媛県,大洲市,柴乙,エヒメケン,オオズシ,シバオツ,愛媛県大洲市柴乙
7993441,愛媛県,大洲市,長浜町下須戒甲,エヒメケン,オオズシ,ナガハマチョウシモスカイコウ,愛媛県大洲市長浜町下須戒甲
7993442,愛媛県,大洲市,長浜町穂積甲,エヒメケン,オオズシ,ナガハマチョウホズミコウ,愛媛県大洲市長浜町穂積甲
7993443,愛媛県,大洲市,長浜町穂積乙,エヒメケン,オオズシ,ナガハマチョウホヅミオツ,愛媛県大洲市長浜町穂積乙
7993444,愛媛県,大洲市,長浜町上老松甲,エヒメケン,オオズシ,ナガハマチョウジョロマツコウ,愛媛県大洲市長浜町上老松甲
7993451,愛媛県,大洲市,長浜町須沢丙,エヒメケン,オオズシ,ナガハマチョウスサワヘイ,愛媛県大洲市長浜町須沢丙
7993452,愛媛県,大洲市,長浜町櫛生甲,エヒメケン,オオズシ,ナガハマチョウクシュウコウ,愛媛県大洲市長浜町櫛生甲
7993453,愛媛県,大洲市,長浜町櫛生乙,エヒメケン,オオズシ,ナガハマチョウクシュウオツ,愛媛県大洲市長浜町櫛生乙
7993454,愛媛県,大洲市,長浜町櫛生丙,エヒメケン,オオズシ,ナガハマチョウクシュウヘイ,愛媛県大洲市長浜町櫛生丙
7993455,愛媛県,大洲市,長浜町出海甲,エヒメケン,オオズシ,ナガハマチョウイズミコウ,愛媛県大洲市長浜町出海甲
7993456,愛媛県,大洲市,長浜町出海乙,エヒメケン,オオズシ,ナガハマチョウイズミオツ,愛媛県大洲市長浜町出海乙
7993461,愛媛県,大洲市,豊茂甲,エヒメケン,オオズシ,トヨシゲコウ,愛媛県大洲市豊茂甲
7993462,愛媛県,大洲市,豊茂乙,エヒメケン,オオズシ,トヨシゲオツ,愛媛県大洲市豊茂乙
7993463,愛媛県,大洲市,豊茂丙,エヒメケン,オオズシ,トヨシゲヘイ,愛媛県大洲市豊茂丙
7993464,愛媛県,大洲市,豊茂丁,エヒメケン,オオズシ,トヨシゲテイ,愛媛県大洲市豊茂丁
7993470,愛媛県,大洲市,長浜町青島,エヒメケン,オオズシ,ナガハマチョウアオシマ,愛媛県大洲市長浜町青島
7993701,愛媛県,宇和島市,吉田町北小路,エヒメケン,ウワジマシ,ヨシダチョウキタコウジ,愛媛県宇和島市吉田町北小路
7993702,愛媛県,宇和島市,吉田町西小路,エヒメケン,ウワジマシ,ヨシダチョウニシコウジ,愛媛県宇和島市吉田町西小路
7993703,愛媛県,宇和島市,吉田町東小路,エヒメケン,ウワジマシ,ヨシダチョウヒガシコウジ,愛媛県宇和島市吉田町東小路
7993704,愛媛県,宇和島市,吉田町魚棚,エヒメケン,ウワジマシ,ヨシダチョウウオタナ,愛媛県宇和島市吉田町魚棚
7993705,愛媛県,宇和島市,吉田町本町,エヒメケン,ウワジマシ,ヨシダチョウホンマチ,愛媛県宇和島市吉田町本町
7993706,愛媛県,宇和島市,吉田町裡町,エヒメケン,ウワジマシ,ヨシダチョウウラマチ,愛媛県宇和島市吉田町裡町
7993707,愛媛県,宇和島市,吉田町鶴間（御殿内）,エヒメケン,ウワジマシ,ヨシダチョウツルマ(ゴテンウチ),愛媛県宇和島市吉田町鶴間（御殿内）
7993710,愛媛県,宇和島市,吉田町立間尻,エヒメケン,ウワジマシ,ヨシダチョウタチマジリ,愛媛県宇和島市吉田町立間尻
7993720,愛媛県,宇和島市,吉田町知永,エヒメケン,ウワジマシ,ヨシダチョウチナガ,愛媛県宇和島市吉田町知永
7993730,愛媛県,宇和島市,吉田町立間,エヒメケン,ウワジマシ,ヨシダチョウタチマ,愛媛県宇和島市吉田町立間
7993741,愛媛県,宇和島市,吉田町白浦,エヒメケン,ウワジマシ,ヨシダチョウシロウラ,愛媛県宇和島市吉田町白浦
7993742,愛媛県,宇和島市,吉田町法花津,エヒメケン,ウワジマシ,ヨシダチョウホケヅ,愛媛県宇和島市吉田町法花津
7993743,愛媛県,宇和島市,吉田町深浦,エヒメケン,ウワジマシ,ヨシダチョウフカウラ,愛媛県宇和島市吉田町深浦
7993751,愛媛県,宇和島市,吉田町沖村,エヒメケン,ウワジマシ,ヨシダチョウオキムラ,愛媛県宇和島市吉田町沖村
7993752,愛媛県,宇和島市,吉田町河内,エヒメケン,ウワジマシ,ヨシダチョウカワチ,愛媛県宇和島市吉田町河内
7993761,愛媛県,宇和島市,吉田町鶴間（その他）,エヒメケン,ウワジマシ,ヨシダチョウツルマ(ソノタ),愛媛県宇和島市吉田町鶴間（その他）
7993762,愛媛県,宇和島市,吉田町鶴間（鶴間団地）,エヒメケン,ウワジマシ,ヨシダチョウツルマ(ツルマダンチ),愛媛県宇和島市吉田町鶴間（鶴間団地）
7993763,愛媛県,宇和島市,吉田町浅川,エヒメケン,ウワジマシ,ヨシダチョウアサカワ,愛媛県宇和島市吉田町浅川
7993771,愛媛県,宇和島市,吉田町南君,エヒメケン,ウワジマシ,ヨシダチョウナギミ,愛媛県宇和島市吉田町南君
7993772,愛媛県,宇和島市,吉田町奥浦,エヒメケン,ウワジマシ,ヨシダチョウオクウラ,愛媛県宇和島市吉田町奥浦
