zipcode,prefecture_name,city,town,prefecture_kana,city_kana,town_kana,normalized_address
7800000,高知県,高知市,,コウチケン,コウチシ,,高知県高知市
7800001,高知県,高知市,久礼野,コウチケン,コウチシ,クレノ,高知県高知市久礼野
7800002,高知県,高知市,重倉,コウチケン,コウチシ,シゲクラ,高知県高知市重倉
7800003,高知県,高知市,七ツ淵,コウチケン,コウチシ,ナナツブチ,高知県高知市七ツ淵
7800004,高知県,高知市,三谷,コウチケン,コウチシ,ミタニ,高知県高知市三谷
7800021,高知県,高知市,中秦泉寺,コウチケン,コウチシ,ナカジンゼンジ,高知県高知市中秦泉寺
7800022,高知県,高知市,北秦泉寺,コウチケン,コウチシ,キタジンゼンジ,高知県高知市北秦泉寺
7800023,高知県,高知市,東秦泉寺,コウチケン,コウチシ,ヒガシジンゼンジ,高知県高知市東秦泉寺
7800024,高知県,高知市,前里,コウチケン,コウチシ,マエザト,高知県高知市前里
7800025,高知県,高知市,愛宕山,コウチケン,コウチシ,アタゴヤマ,高知県高知市愛宕山
7800026,高知県,高知市,秦南町,コウチケン,コウチシ,ハダミナミマチ,高知県高知市秦南町
7800027,高知県,高知市,愛宕山南町,コウチケン,コウチシ,アタゴヤマミナミマチ,高知県高知市愛宕山南町
7800031,高知県,高知市,宇津野,コウチケン,コウチシ,ウツノ,高知県高知市宇津野
7800032,高知県,高知市,加賀野井,コウチケン,コウチシ,カガノイ,高知県高知市加賀野井
7800033,高知県,高知市,西秦泉寺,コウチケン,コウチシ,ニシジンゼンジ,高知県高知市西秦泉寺
7800034,高知県,高知市,三園町,コウチケン,コウチシ,ミソノチョウ,高知県高知市三園町
7800041,高知県,高知市,入明町,コウチケン,コウチシ,イリアケチョウ,高知県高知市入明町
7800042,高知県,高知市,洞ケ島町,コウチケン,コウチシ,ホラガジマチョウ,高知県高知市洞ケ島町
7800043,高知県,高知市,寿町,コウチケン,コウチシ,コトブキチョウ,高知県高知市寿町
7800044,高知県,高知市,中水道,コウチケン,コウチシ,ナカスイドウ,高知県高知市中水道
7800045,高知県,高知市,幸町,コウチケン,コウチシ,サイワイチョウ,高知県高知市幸町
7800046,高知県,高知市,伊勢崎町,コウチケン,コウチシ,イセザキチョウ,高知県高知市伊勢崎町
7800047,高知県,高知市,相模町,コウチケン,コウチシ,サガミチョウ,高知県高知市相模町
7800048,高知県,高知市,吉田町,コウチケン,コウチシ,ヨシダチョウ,高知県高知市吉田町
7800051,高知県,高知市,愛宕町,コウチケン,コウチシ,アタゴマチ,高知県高知市愛宕町
7800052,高知県,高知市,大川筋,コウチケン,コウチシ,オオカワスジ,高知県高知市大川筋
7800053,高知県,高知市,駅前町,コウチケン,コウチシ,エキマエチョウ,高知県高知市駅前町
7800054,高知県,高知市,相生町,コウチケン,コウチシ,アイオイチョウ,高知県高知市相生町
7800055,高知県,高知市,江陽町,コウチケン,コウチシ,コウヨウチョウ,高知県高知市江陽町
7800056,高知県,高知市,北本町,コウチケン,コウチシ,キタホンマチ,高知県高知市北本町
7800061,高知県,高知市,栄田町,コウチケン,コウチシ,サカエダチョウ,高知県高知市栄田町
7800062,高知県,高知市,新本町,コウチケン,コウチシ,シンホンマチ,高知県高知市新本町
7800063,高知県,高知市,昭和町,コウチケン,コウチシ,ショウワマチ,高知県高知市昭和町
7800064,高知県,高知市,和泉町,コウチケン,コウチシ,イズミチョウ,高知県高知市和泉町
7800065,高知県,高知市,塩田町,コウチケン,コウチシ,シオタチョウ,高知県高知市塩田町
7800066,高知県,高知市,比島町,コウチケン,コウチシ,ヒジマチョウ,高知県高知市比島町
7800071,高知県,高知市,高そね,コウチケン,コウチシ,タカソネ,高知県高知市高そね
7800072,高知県,高知市,杉井流,コウチケン,コウチシ,スギイル,高知県高知市杉井流
7800816,高知県,高知市,南宝永町,コウチケン,コウチシ,ミナミホウエイチョウ,高知県高知市南宝永町
7800817,高知県,高知市,中宝永町,コウチケン,コウチシ,ナカホウエイチョウ,高知県高知市中宝永町
7800818,高知県,高知市,宝永町,コウチケン,コウチシ,ホウエイチョウ,高知県高知市宝永町
7800821,高知県,高知市,桜井町,コウチケン,コウチシ,サクライチョウ,高知県高知市桜井町
7800822,高知県,高知市,はりまや町,コウチケン,コウチシ,ハリマヤチョウ,高知県高知市はりまや町
7800823,高知県,高知市,菜園場町,コウチケン,コウチシ,サエンバチョウ,高知県高知市菜園場町
7800824,高知県,高知市,城見町,コウチケン,コウチシ,シロミチョウ,高知県高知市城見町
7800825,高知県,高知市,農人町,コウチケン,コウチシ,ノウニンマチ,高知県高知市農人町
7800833,高知県,高知市,南はりまや町,コウチケン,コウチシ,ミナミハリマヤチョウ,高知県高知市南はりまや町
7800834,高知県,高知市,堺町,コウチケン,コウチシ,サカイマチ,高知県高知市堺町
7800841,高知県,高知市,帯屋町,コウチケン,コウチシ,オビヤマチ,高知県高知市帯屋町
7800842,高知県,高知市,追手筋,コウチケン,コウチシ,オウテスジ,高知県高知市追手筋
7800843,高知県,高知市,廿代町,コウチケン,コウチシ,ニジュウダイマチ,高知県高知市廿代町
7800844,高知県,高知市,永国寺町,コウチケン,コウチシ,エイコクジチョウ,高知県高知市永国寺町
7800850,高知県,高知市,丸ノ内,コウチケン,コウチシ,マルノウチ,高知県高知市丸ノ内
7800861,高知県,高知市,升形,コウチケン,コウチシ,マスガタ,高知県高知市升形
7800862,高知県,高知市,鷹匠町,コウチケン,コウチシ,タカジョウマチ,高知県高知市鷹匠町
7800863,高知県,高知市,与力町,コウチケン,コウチシ,ヨリキマチ,高知県高知市与力町
7800864,高知県,高知市,唐人町,コウチケン,コウチシ,トウジンマチ,高知県高知市唐人町
7800870,高知県,高知市,本町,コウチケン,コウチシ,ホンマチ,高知県高知市本町
7800901,高知県,高知市,上町,コウチケン,コウチシ,カミマチ,高知県高知市上町
7800902,高知県,高知市,本丁筋,コウチケン,コウチシ,ホンチョウスジ,高知県高知市本丁筋
7800903,高知県,高知市,水通町,コウチケン,コウチシ,スイドウチョウ,高知県高知市水通町
7800904,高知県,高知市,通町,コウチケン,コウチシ,トオリチョウ,高知県高知市通町
7800911,高知県,高知市,新屋敷,コウチケン,コウチシ,シンヤシキ,高知県高知市新屋敷
7800912,高知県,高知市,八反町,コウチケン,コウチシ,ハッタンチョウ,高知県高知市八反町
7800913,高知県,高知市,北八反町,コウチケン,コウチシ,キタハッタンチョウ,高知県高知市北八反町
7800914,高知県,高知市,宝町,コウチケン,コウチシ,タカラマチ,高知県高知市宝町
7800915,高知県,高知市,小津町,コウチケン,コウチシ,オヅチョウ,高知県高知市小津町
7800916,高知県,高知市,城北町,コウチケン,コウチシ,ジョウホクチョウ,高知県高知市城北町
7800921,高知県,高知市,井口町,コウチケン,コウチシ,イグチチョウ,高知県高知市井口町
7800922,高知県,高知市,平和町,コウチケン,コウチシ,ヘイワチョウ,高知県高知市平和町
7800923,高知県,高知市,三ノ丸,コウチケン,コウチシ,サンノマル,高知県高知市三ノ丸
7800924,高知県,高知市,宮前町,コウチケン,コウチシ,ミヤマエチョウ,高知県高知市宮前町
7800925,高知県,高知市,西町,コウチケン,コウチシ,ニシマチ,高知県高知市西町
7800926,高知県,高知市,大膳町,コウチケン,コウチシ,ダイゼンチョウ,高知県高知市大膳町
7800927,高知県,高知市,山ノ端町,コウチケン,コウチシ,ヤマノハナチョウ,高知県高知市山ノ端町
7800928,高知県,高知市,越前町,コウチケン,コウチシ,エチゼンマチ,高知県高知市越前町
7800929,高知県,高知市,桜馬場,コウチケン,コウチシ,サクラババ,高知県高知市桜馬場
7800931,高知県,高知市,玉水町,コウチケン,コウチシ,タマミズチョウ,高知県高知市玉水町
7800932,高知県,高知市,縄手町,コウチケン,コウチシ,ナワテチョウ,高知県高知市縄手町
7800933,高知県,高知市,鏡川町,コウチケン,コウチシ,カガミガワチョウ,高知県高知市鏡川町
7800934,高知県,高知市,下島町,コウチケン,コウチシ,シモジマチョウ,高知県高知市下島町
7800935,高知県,高知市,旭町,コウチケン,コウチシ,アサヒマチ,高知県高知市旭町
7800936,高知県,高知市,赤石町,コウチケン,コウチシ,アカイシチョウ,高知県高知市赤石町
7800937,高知県,高知市,中須賀町,コウチケン,コウチシ,ナカスカチョウ,高知県高知市中須賀町
7800938,高知県,高知市,旭駅前町,コウチケン,コウチシ,アサヒエキマエチョウ,高知県高知市旭駅前町
7800941,高知県,高知市,元町,コウチケン,コウチシ,モトマチ,高知県高知市元町
7800942,高知県,高知市,南元町,コウチケン,コウチシ,ミナミモトマチ,高知県高知市南元町
7800943,高知県,高知市,旭上町,コウチケン,コウチシ,アサヒカミマチ,高知県高知市旭上町
7800944,高知県,高知市,水源町,コウチケン,コウチシ,スイゲンチョウ,高知県高知市水源町
7800945,高知県,高知市,本宮町,コウチケン,コウチシ,ホングウチョウ,高知県高知市本宮町
7800946,高知県,高知市,上本宮町,コウチケン,コウチシ,カミホングウチョウ,高知県高知市上本宮町
7800947,高知県,高知市,大谷,コウチケン,コウチシ,オオタニ,高知県高知市大谷
7800948,高知県,高知市,岩ケ淵,コウチケン,コウチシ,イワガブチ,高知県高知市岩ケ淵
7800949,高知県,高知市,鳥越,コウチケン,コウチシ,トリゴエ,高知県高知市鳥越
7800951,高知県,高知市,西塚ノ原,コウチケン,コウチシ,ニシツカノハラ,高知県高知市西塚ノ原
7800952,高知県,高知市,塚ノ原,コウチケン,コウチシ,ツカノハラ,高知県高知市塚ノ原
7800953,高知県,高知市,長尾山町,コウチケン,コウチシ,ナガオヤマチョウ,高知県高知市長尾山町
7800954,高知県,高知市,佐々木町,コウチケン,コウチシ,ササキチョウ,高知県高知市佐々木町
7800955,高知県,高知市,旭天神町,コウチケン,コウチシ,アサヒテンジンチョウ,高知県高知市旭天神町
7800956,高知県,高知市,北端町,コウチケン,コウチシ,キタバタチョウ,高知県高知市北端町
7800957,高知県,高知市,山手町,コウチケン,コウチシ,ヤマテチョウ,高知県高知市山手町
7800961,高知県,高知市,蓮台,コウチケン,コウチシ,レンダイ,高知県高知市蓮台
7800962,高知県,高知市,尾立,コウチケン,コウチシ,ヒジ,高知県高知市尾立
7800963,高知県,高知市,口細山,コウチケン,コウチシ,クチホソヤマ,高知県高知市口細山
7800964,高知県,高知市,横内,コウチケン,コウチシ,ヨコウチ,高知県高知市横内
7800965,高知県,高知市,福井町,コウチケン,コウチシ,フクイチョウ,高知県高知市福井町
7800966,高知県,高知市,福井扇町,コウチケン,コウチシ,フクイオウギマチ,高知県高知市福井扇町
7800967,高知県,高知市,福井東町,コウチケン,コウチシ,フクイヒガシマチ,高知県高知市福井東町
7800971,高知県,高知市,南万々,コウチケン,コウチシ,ミナミママ,高知県高知市南万々
7800972,高知県,高知市,中万々,コウチケン,コウチシ,ナカママ,高知県高知市中万々
7800973,高知県,高知市,万々,コウチケン,コウチシ,ママ,高知県高知市万々
7800974,高知県,高知市,円行寺,コウチケン,コウチシ,エンギョウジ,高知県高知市円行寺
7800975,高知県,高知市,柴巻,コウチケン,コウチシ,シバマキ,高知県高知市柴巻
7800976,高知県,高知市,みづき,コウチケン,コウチシ,ミヅキ,高知県高知市みづき
7800977,高知県,高知市,みづき山,コウチケン,コウチシ,ミヅキヤマ,高知県高知市みづき山
7800981,高知県,高知市,一ツ橋町,コウチケン,コウチシ,ヒトツバシチョウ,高知県高知市一ツ橋町
7800982,高知県,高知市,東久万,コウチケン,コウチシ,ヒガシクマ,高知県高知市東久万
7800983,高知県,高知市,中久万,コウチケン,コウチシ,ナカクマ,高知県高知市中久万
7800984,高知県,高知市,西久万,コウチケン,コウチシ,ニシクマ,高知県高知市西久万
7800985,高知県,高知市,南久万,コウチケン,コウチシ,ミナミクマ,高知県高知市南久万
7800991,高知県,高知市,宗安寺,コウチケン,コウチシ,ソウアンジ,高知県高知市宗安寺
7800992,高知県,高知市,行川,コウチケン,コウチシ,ナメガワ,高知県高知市行川
7800993,高知県,高知市,針原,コウチケン,コウチシ,ハリハラ,高知県高知市針原
7800994,高知県,高知市,唐岩,コウチケン,コウチシ,カライワ,高知県高知市唐岩
7800995,高知県,高知市,領家,コウチケン,コウチシ,リョウケ,高知県高知市領家
7800996,高知県,高知市,上里,コウチケン,コウチシ,ジョウリ,高知県高知市上里
7808011,高知県,高知市,梅ノ辻,コウチケン,コウチシ,ウメノツジ,高知県高知市梅ノ辻
7808012,高知県,高知市,天神町,コウチケン,コウチシ,テンジンチョウ,高知県高知市天神町
7808013,高知県,高知市,筆山町,コウチケン,コウチシ,ヒツザンチョウ,高知県高知市筆山町
7808014,高知県,高知市,塩屋崎町,コウチケン,コウチシ,シオヤザキマチ,高知県高知市塩屋崎町
7808015,高知県,高知市,百石町,コウチケン,コウチシ,ヒャッコクチョウ,高知県高知市百石町
7808017,高知県,高知市,南竹島町,コウチケン,コウチシ,ミナミタケシマチョウ,高知県高知市南竹島町
7808018,高知県,高知市,竹島町,コウチケン,コウチシ,タケシマチョウ,高知県高知市竹島町
7808019,高知県,高知市,北竹島町,コウチケン,コウチシ,キタタケシマチョウ,高知県高知市北竹島町
7808021,高知県,高知市,孕東町,コウチケン,コウチシ,ハラミヒガシマチ,高知県高知市孕東町
7808022,高知県,高知市,孕西町,コウチケン,コウチシ,ハラミニシマチ,高知県高知市孕西町
7808023,高知県,高知市,六泉寺町,コウチケン,コウチシ,ロクセンジチョウ,高知県高知市六泉寺町
7808024,高知県,高知市,深谷町,コウチケン,コウチシ,フカダニチョウ,高知県高知市深谷町
7808025,高知県,高知市,南中山,コウチケン,コウチシ,ミナミナカヤマ,高知県高知市南中山
7808026,高知県,高知市,北中山,コウチケン,コウチシ,キタナカヤマ,高知県高知市北中山
7808027,高知県,高知市,高見町,コウチケン,コウチシ,タカミチョウ,高知県高知市高見町
7808028,高知県,高知市,北高見町,コウチケン,コウチシ,キタタカミチョウ,高知県高知市北高見町
7808031,高知県,高知市,大原町,コウチケン,コウチシ,オオハラチョウ,高知県高知市大原町
7808032,高知県,高知市,小石木町,コウチケン,コウチシ,コイシギチョウ,高知県高知市小石木町
7808033,高知県,高知市,幸崎,コウチケン,コウチシ,コウザキ,高知県高知市幸崎
7808034,高知県,高知市,南河ノ瀬町,コウチケン,コウチシ,ミナミゴウノセチョウ,高知県高知市南河ノ瀬町
7808035,高知県,高知市,河ノ瀬町,コウチケン,コウチシ,ゴウノセチョウ,高知県高知市河ノ瀬町
7808036,高知県,高知市,東城山町,コウチケン,コウチシ,ヒガシジョウヤマチョウ,高知県高知市東城山町
7808037,高知県,高知市,城山町,コウチケン,コウチシ,ジョウヤマチョウ,高知県高知市城山町
7808038,高知県,高知市,石立町,コウチケン,コウチシ,イシタテチョウ,高知県高知市石立町
7808039,高知県,高知市,東石立町,コウチケン,コウチシ,ヒガシイシタテチョウ,高知県高知市東石立町
7808040,高知県,高知市,神田,コウチケン,コウチシ,コウダ,高知県高知市神田
7808050,高知県,高知市,鴨部（その他）,コウチケン,コウチシ,カモベ(ソノタ),高知県高知市鴨部（その他）
7808051,高知県,高知市,鴨部上町,コウチケン,コウチシ,カモベカミマチ,高知県高知市鴨部上町
7808052,高知県,高知市,鴨部（丁目）,コウチケン,コウチシ,カモベ(チョウメ),高知県高知市鴨部（丁目）
7808061,高知県,高知市,朝倉甲,コウチケン,コウチシ,アサクラコウ,高知県高知市朝倉甲
7808062,高知県,高知市,朝倉乙,コウチケン,コウチシ,アサクラオツ,高知県高知市朝倉乙
7808063,高知県,高知市,朝倉丙,コウチケン,コウチシ,アサクラヘイ,高知県高知市朝倉丙
7808064,高知県,高知市,朝倉丁,コウチケン,コウチシ,アサクラテイ,高知県高知市朝倉丁
7808065,高知県,高知市,朝倉戊,コウチケン,コウチシ,アサクラボ,高知県高知市朝倉戊
7808066,高知県,高知市,朝倉己,コウチケン,コウチシ,アサクラキ,高知県高知市朝倉己
7808071,高知県,高知市,鴨部高町,コウチケン,コウチシ,カモベタカマチ,高知県高知市鴨部高町
7808072,高知県,高知市,曙町,コウチケン,コウチシ,アケボノチョウ,高知県高知市曙町
7808073,高知県,高知市,朝倉本町,コウチケン,コウチシ,アサクラホンマチ,高知県高知市朝倉本町
7808074,高知県,高知市,朝倉横町,コウチケン,コウチシ,アサクラヨコマチ,高知県高知市朝倉横町
7808075,高知県,高知市,朝倉南町,コウチケン,コウチシ,アサクラミナミマチ,高知県高知市朝倉南町
7808076,高知県,高知市,朝倉東町,コウチケン,コウチシ,アサクラヒガシマチ,高知県高知市朝倉東町
7808077,高知県,高知市,朝倉西町,コウチケン,コウチシ,アサクラニシマチ,高知県高知市朝倉西町
7808081,高知県,高知市,若草町,コウチケン,コウチシ,ワカクサチョウ,高知県高知市若草町
7808082,高知県,高知市,若草南町,コウチケン,コウチシ,ワカクサミナミマチ,高知県高知市若草南町
7808083,高知県,高知市,鵜来巣,コウチケン,コウチシ,ウグルス,高知県高知市鵜来巣
7808084,高知県,高知市,槇山町,コウチケン,コウチシ,マキヤマチョウ,高知県高知市槇山町
7808085,高知県,高知市,大谷公園町,コウチケン,コウチシ,オオタニコウエンチョウ,高知県高知市大谷公園町
7808086,高知県,高知市,針木東町,コウチケン,コウチシ,ハリギヒガシマチ,高知県高知市針木東町
7808087,高知県,高知市,針木北,コウチケン,コウチシ,ハリギキタ,高知県高知市針木北
7808088,高知県,高知市,針木本町,コウチケン,コウチシ,ハリギホンマチ,高知県高知市針木本町
7808089,高知県,高知市,針木南,コウチケン,コウチシ,ハリギミナミ,高知県高知市針木南
7808090,高知県,高知市,針木西,コウチケン,コウチシ,ハリギニシ,高知県高知市針木西
7810010,高知県,高知市,薊野,コウチケン,コウチシ,アゾウノ,高知県高知市薊野
7810011,高知県,高知市,薊野北町,コウチケン,コウチシ,アゾウノキタマチ,高知県高知市薊野北町
7810012,高知県,高知市,薊野東町,コウチケン,コウチシ,アゾウノヒガシマチ,高知県高知市薊野東町
7810013,高知県,高知市,薊野中町,コウチケン,コウチシ,アゾウノナカマチ,高知県高知市薊野中町
7810014,高知県,高知市,薊野南町,コウチケン,コウチシ,アゾウノミナミマチ,高知県高知市薊野南町
7810015,高知県,高知市,薊野西町,コウチケン,コウチシ,アゾウノニシマチ,高知県高知市薊野西町
7810073,高知県,高知市,北金田,コウチケン,コウチシ,キタカナダ,高知県高知市北金田
7810074,高知県,高知市,南金田,コウチケン,コウチシ,ミナミカナダ,高知県高知市南金田
7810081,高知県,高知市,北川添,コウチケン,コウチシ,キタカワゾエ,高知県高知市北川添
7810082,高知県,高知市,南川添,コウチケン,コウチシ,ミナミカワゾエ,高知県高知市南川添
7810083,高知県,高知市,北御座,コウチケン,コウチシ,キタゴザ,高知県高知市北御座
7810084,高知県,高知市,南御座,コウチケン,コウチシ,ミナミゴザ,高知県高知市南御座
7810085,高知県,高知市,札場,コウチケン,コウチシ,フダバ,高知県高知市札場
7810086,高知県,高知市,海老ノ丸,コウチケン,コウチシ,エビノマル,高知県高知市海老ノ丸
7810087,高知県,高知市,南久保,コウチケン,コウチシ,ミナミクボ,高知県高知市南久保
7810088,高知県,高知市,北久保,コウチケン,コウチシ,キタクボ,高知県高知市北久保
7810111,高知県,高知市,池,コウチケン,コウチシ,イケ,高知県高知市池
7810112,高知県,高知市,仁井田,コウチケン,コウチシ,ニイダ,高知県高知市仁井田
7810113,高知県,高知市,種崎,コウチケン,コウチシ,タネザキ,高知県高知市種崎
7810114,高知県,高知市,十津,コウチケン,コウチシ,トオヅ,高知県高知市十津
7810240,高知県,高知市,横浜,コウチケン,コウチシ,ヨコハマ,高知県高知市横浜
7810241,高知県,高知市,横浜新町,コウチケン,コウチシ,ヨコハマシンマチ,高知県高知市横浜新町
7810242,高知県,高知市,横浜西町,コウチケン,コウチシ,ヨコハマニシマチ,高知県高知市横浜西町
7810243,高知県,高知市,横浜東町,コウチケン,コウチシ,ヨコハマヒガシマチ,高知県高知市横浜東町
7810244,高知県,高知市,横浜南町,コウチケン,コウチシ,ヨコハマミナミマチ,高知県高知市横浜南町
7810245,高知県,高知市,長浜蒔絵台,コウチケン,コウチシ,ナガハママキエダイ,高知県高知市長浜蒔絵台
7810250,高知県,高知市,瀬戸,コウチケン,コウチシ,セト,高知県高知市瀬戸
7810251,高知県,高知市,瀬戸西町,コウチケン,コウチシ,セトニシマチ,高知県高知市瀬戸西町
7810252,高知県,高知市,瀬戸東町,コウチケン,コウチシ,セトヒガシマチ,高知県高知市瀬戸東町
7810253,高知県,高知市,瀬戸南町,コウチケン,コウチシ,セトミナミマチ,高知県高知市瀬戸南町
7810261,高知県,高知市,御畳瀬,コウチケン,コウチシ,ミマセ,高知県高知市御畳瀬
7810262,高知県,高知市,浦戸,コウチケン,コウチシ,ウラド,高知県高知市浦戸
7810270,高知県,高知市,長浜,コウチケン,コウチシ,ナガハマ,高知県高知市長浜
7810271,高知県,高知市,長浜宮田,コウチケン,コウチシ,ナガハマミヤタ,高知県高知市長浜宮田
7810301,高知県,高知市,春野町弘岡上,コウチケン,コウチシ,ハルノチョウヒロオカカミ,高知県高知市春野町弘岡上
7810302,高知県,高知市,春野町弘岡中,コウチケン,コウチシ,ハルノチョウヒロオカナカ,高知県高知市春野町弘岡中
7810303,高知県,高知市,春野町弘岡下,コウチケン,コウチシ,ハルノチョウヒロオカシモ,高知県高知市春野町弘岡下
7810304,高知県,高知市,春野町西分,コウチケン,コウチシ,ハルノチョウニシブン,高知県高知市春野町西分
7810311,高知県,高知市,春野町芳原,コウチケン,コウチシ,ハルノチョウヨシハラ,高知県高知市春野町芳原
7810312,高知県,高知市,春野町平和,コウチケン,コウチシ,ハルノチョウヘイワ,高知県高知市春野町平和
7810313,高知県,高知市,春野町内ノ谷,コウチケン,コウチシ,ハルノチョウウチノタニ,高知県高知市春野町内ノ谷
7810314,高知県,高知市,春野町南ケ丘,コウチケン,コウチシ,ハルノチョウミナミガオカ,高知県高知市春野町南ケ丘
7810315,高知県,高知市,春野町東諸木,コウチケン,コウチシ,ハルノチョウヒガシモロギ,高知県高知市春野町東諸木
7810316,高知県,高知市,春野町西諸木,コウチケン,コウチシ,ハルノチョウニシモロギ,高知県高知市春野町西諸木
7810321,高知県,高知市,春野町秋山,コウチケン,コウチシ,ハルノチョウアキヤマ,高知県高知市春野町秋山
7810322,高知県,高知市,春野町甲殿,コウチケン,コウチシ,ハルノチョウコウドノ,高知県高知市春野町甲殿
7810323,高知県,高知市,春野町仁ノ,コウチケン,コウチシ,ハルノチョウニノ,高知県高知市春野町仁ノ
7810324,高知県,高知市,春野町西畑,コウチケン,コウチシ,ハルノチョウサイバタ,高知県高知市春野町西畑
7810325,高知県,高知市,春野町森山,コウチケン,コウチシ,ハルノチョウモリヤマ,高知県高知市春野町森山
7810801,高知県,高知市,小倉町,コウチケン,コウチシ,オクラチョウ,高知県高知市小倉町
7810802,高知県,高知市,丸池町,コウチケン,コウチシ,マルイケチョウ,高知県高知市丸池町
7810803,高知県,高知市,弥生町,コウチケン,コウチシ,ヤヨイチョウ,高知県高知市弥生町
7810804,高知県,高知市,日の出町,コウチケン,コウチシ,ヒノデチョウ,高知県高知市日の出町
7810805,高知県,高知市,東雲町,コウチケン,コウチシ,シノノメチョウ,高知県高知市東雲町
7810806,高知県,高知市,知寄町,コウチケン,コウチシ,チヨリチョウ,高知県高知市知寄町
7810811,高知県,高知市,弘化台,コウチケン,コウチシ,コウカダイ,高知県高知市弘化台
7810812,高知県,高知市,若松町,コウチケン,コウチシ,ワカマツチョウ,高知県高知市若松町
7810813,高知県,高知市,青柳町,コウチケン,コウチシ,アオヤギチョウ,高知県高知市青柳町
7810814,高知県,高知市,稲荷町,コウチケン,コウチシ,イナリチョウ,高知県高知市稲荷町
7810815,高知県,高知市,二葉町,コウチケン,コウチシ,フタバチョウ,高知県高知市二葉町
7810831,高知県,高知市,中の島,コウチケン,コウチシ,ナカノシマ,高知県高知市中の島
7810832,高知県,高知市,九反田,コウチケン,コウチシ,クタンダ,高知県高知市九反田
7811100,高知県,土佐市,,コウチケン,トサシ,,高知県土佐市
7811101,高知県,土佐市,高岡町甲,コウチケン,トサシ,タカオカチョウコウ,高知県土佐市高岡町甲
7811102,高知県,土佐市,高岡町乙,コウチケン,トサシ,タカオカチョウオツ,高知県土佐市高岡町乙
7811103,高知県,土佐市,高岡町丙,コウチケン,トサシ,タカオカチョウヘイ,高知県土佐市高岡町丙
7811104,高知県,土佐市,高岡町丁,コウチケン,トサシ,タカオカチョウテイ,高知県土佐市高岡町丁
7811105,高知県,土佐市,蓮池,コウチケン,トサシ,ハスイケ,高知県土佐市蓮池
7811111,高知県,土佐市,北地,コウチケン,トサシ,キタジ,高知県土佐市北地
7811112,高知県,土佐市,福田,コウチケン,トサシ,フクダ,高知県土佐市福田
7811113,高知県,土佐市,甲原,コウチケン,トサシ,カンバラ,高知県土佐市甲原
7811114,高知県,土佐市,谷地,コウチケン,トサシ,ヤツジ,高知県土佐市谷地
7811121,高知県,土佐市,東鴨地,コウチケン,トサシ,ヒガシカモジ,高知県土佐市東鴨地
7811122,高知県,土佐市,本村,コウチケン,トサシ,ホンムラ,高知県土佐市本村
7811123,高知県,土佐市,西鴨地,コウチケン,トサシ,ニシカモジ,高知県土佐市西鴨地
7811124,高知県,土佐市,宮ノ内,コウチケン,トサシ,ミヤノウチ,高知県土佐市宮ノ内
7811125,高知県,土佐市,積善寺,コウチケン,トサシ,シャクゼンジ,高知県土佐市積善寺
7811131,高知県,土佐市,永野,コウチケン,トサシ,ナガノ,高知県土佐市永野
7811132,高知県,土佐市,市野々,コウチケン,トサシ,イチノノ,高知県土佐市市野々
7811133,高知県,土佐市,鷹ノ巣,コウチケン,トサシ,タカノス,高知県土佐市鷹ノ巣
7811134,高知県,土佐市,家俊,コウチケン,トサシ,イエトシ,高知県土佐市家俊
7811135,高知県,土佐市,太郎丸,コウチケン,トサシ,タロウマル,高知県土佐市太郎丸
7811136,高知県,土佐市,浅井,コウチケン,トサシ,アザイ,高知県土佐市浅井
7811141,高知県,土佐市,岩戸,コウチケン,トサシ,イワト,高知県土佐市岩戸
7811142,高知県,土佐市,出間,コウチケン,トサシ,イズマ,高知県土佐市出間
7811143,高知県,土佐市,波介,コウチケン,トサシ,ハゲ,高知県土佐市波介
7811151,高知県,土佐市,中島,コウチケン,トサシ,ナカジマ,高知県土佐市中島
7811152,高知県,土佐市,用石,コウチケン,トサシ,モチイシ,高知県土佐市用石
7811153,高知県,土佐市,塚地,コウチケン,トサシ,ツカジ,高知県土佐市塚地
7811154,高知県,土佐市,新居,コウチケン,トサシ,ニイ,高知県土佐市新居
7811161,高知県,土佐市,宇佐町宇佐,コウチケン,トサシ,ウサチョウウサ,高知県土佐市宇佐町宇佐
7811162,高知県,土佐市,宇佐町渭浜,コウチケン,トサシ,ウサチョウイハマ,高知県土佐市宇佐町渭浜
7811163,高知県,土佐市,宇佐町福島,コウチケン,トサシ,ウサチョウフクシマ,高知県土佐市宇佐町福島
7811164,高知県,土佐市,宇佐町井尻,コウチケン,トサシ,ウサチョウイノシリ,高知県土佐市宇佐町井尻
7811165,高知県,土佐市,宇佐町竜,コウチケン,トサシ,ウサチョウリュウ,高知県土佐市宇佐町竜
7811300,高知県,高岡郡越知町,,コウチケン,タカオカグンオチチョウ,,高知県高岡郡越知町
7811301,高知県,高岡郡越知町,越知甲,コウチケン,タカオカグンオチチョウ,オチコウ,高知県高岡郡越知町越知甲
7811302,高知県,高岡郡越知町,越知乙,コウチケン,タカオカグンオチチョウ,オチオツ,高知県高岡郡越知町越知乙
7811303,高知県,高岡郡越知町,越知丙,コウチケン,タカオカグンオチチョウ,オチヘイ,高知県高岡郡越知町越知丙
7811304,高知県,高岡郡越知町,越知丁,コウチケン,タカオカグンオチチョウ,オチテイ,高知県高岡郡越知町越知丁
7811305,高知県,高岡郡越知町,野老山,コウチケン,タカオカグンオチチョウ,トコロヤマ,高知県高岡郡越知町野老山
7811306,高知県,高岡郡越知町,山室,コウチケン,タカオカグンオチチョウ,ヤマムロ,高知県高岡郡越知町山室
7811307,高知県,高岡郡越知町,柴尾,コウチケン,タカオカグンオチチョウ,シボオ,高知県高岡郡越知町柴尾
7811308,高知県,高岡郡越知町,宮地,コウチケン,タカオカグンオチチョウ,ミヤジ,高知県高岡郡越知町宮地
7811311,高知県,高岡郡越知町,今成,コウチケン,タカオカグンオチチョウ,イマナリ,高知県高岡郡越知町今成
7811312,高知県,高岡郡越知町,横畠南,コウチケン,タカオカグンオチチョウ,ヨコバタケミナミ,高知県高岡郡越知町横畠南
7811313,高知県,高岡郡越知町,横畠東,コウチケン,タカオカグンオチチョウ,ヨコバタケヒガシ,高知県高岡郡越知町横畠東
7811314,高知県,高岡郡越知町,横畠中,コウチケン,タカオカグンオチチョウ,ヨコバタケナカ,高知県高岡郡越知町横畠中
7811315,高知県,高岡郡越知町,横畠北,コウチケン,タカオカグンオチチョウ,ヨコバタケキタ,高知県高岡郡越知町横畠北
7811321,高知県,高岡郡越知町,鎌井田本村,コウチケン,タカオカグンオチチョウ,カマイダホンソン,高知県高岡郡越知町鎌井田本村
7811322,高知県,高岡郡越知町,鎌井田桑薮,コウチケン,タカオカグンオチチョウ,カマイダクヤブ,高知県高岡郡越知町鎌井田桑薮
7811323,高知県,高岡郡越知町,鎌井田日ノ浦,コウチケン,タカオカグンオチチョウ,カマイダヒノウラ,高知県高岡郡越知町鎌井田日ノ浦
7811324,高知県,高岡郡越知町,鎌井田清助,コウチケン,タカオカグンオチチョウ,カマイダセイスケ,高知県高岡郡越知町鎌井田清助
7811325,高知県,高岡郡越知町,浅尾,コウチケン,タカオカグンオチチョウ,アソオ,高知県高岡郡越知町浅尾
7811326,高知県,高岡郡越知町,片岡,コウチケン,タカオカグンオチチョウ,カタオカ,高知県高岡郡越知町片岡
7811327,高知県,高岡郡越知町,黒瀬,コウチケン,タカオカグンオチチョウ,クロセ,高知県高岡郡越知町黒瀬
7811328,高知県,高岡郡越知町,南片岡,コウチケン,タカオカグンオチチョウ,ミナミカタオカ,高知県高岡郡越知町南片岡
7811331,高知県,高岡郡越知町,五味,コウチケン,タカオカグンオチチョウ,ゴミ,高知県高岡郡越知町五味
7811332,高知県,高岡郡越知町,中大平,コウチケン,タカオカグンオチチョウ,ナカオオヒラ,高知県高岡郡越知町中大平
7811333,高知県,高岡郡越知町,大平,コウチケン,タカオカグンオチチョウ,オオヒラ,高知県高岡郡越知町大平
7811334,高知県,高岡郡越知町,桐見川,コウチケン,タカオカグンオチチョウ,キリミガワ,高知県高岡郡越知町桐見川
7811335,高知県,高岡郡越知町,長者,コウチケン,タカオカグンオチチョウ,チョウジャ,高知県高岡郡越知町長者
7811336,高知県,高岡郡越知町,南ノ川,コウチケン,タカオカグンオチチョウ,ミナミノカワ,高知県高岡郡越知町南ノ川
7811337,高知県,高岡郡越知町,佐之国,コウチケン,タカオカグンオチチョウ,サノクニ,高知県高岡郡越知町佐之国
7811338,高知県,高岡郡越知町,峰,コウチケン,タカオカグンオチチョウ,ミネ,高知県高岡郡越知町峰
7811500,高知県,吾川郡仁淀川町,,コウチケン,アガワグンニヨドガワチョウ,,高知県吾川郡仁淀川町
7811501,高知県,吾川郡仁淀川町,大崎,コウチケン,アガワグンニヨドガワチョウ,オオサキ,高知県吾川郡仁淀川町大崎
7811502,高知県,吾川郡仁淀川町,川口,コウチケン,アガワグンニヨドガワチョウ,カワグチ,高知県吾川郡仁淀川町川口
7811503,高知県,吾川郡仁淀川町,橘谷,コウチケン,アガワグンニヨドガワチョウ,タチバナダニ,高知県吾川郡仁淀川町橘谷
7811504,高知県,吾川郡仁淀川町,藤ノ野,コウチケン,アガワグンニヨドガワチョウ,フジノノ,高知県吾川郡仁淀川町藤ノ野
7811505,高知県,吾川郡仁淀川町,桜,コウチケン,アガワグンニヨドガワチョウ,サクラ,高知県吾川郡仁淀川町桜
7811506,高知県,吾川郡仁淀川町,鹿森,コウチケン,アガワグンニヨドガワチョウ,シシモリ,高知県吾川郡仁淀川町鹿森
7811511,高知県,吾川郡仁淀川町,寺村,コウチケン,アガワグンニヨドガワチョウ,テラムラ,高知県吾川郡仁淀川町寺村
7811512,高知県,吾川郡仁淀川町,岩戸,コウチケン,アガワグンニヨドガワチョウ,イワド,高知県吾川郡仁淀川町岩戸
7811513,高知県,吾川郡仁淀川町,峯岩戸,コウチケン,アガワグンニヨドガワチョウ,ミネイワド,高知県吾川郡仁淀川町峯岩戸
7811514,高知県,吾川郡仁淀川町,大板,コウチケン,アガワグンニヨドガワチョウ,オオイタ,高知県吾川郡仁淀川町大板
7811515,高知県,吾川郡仁淀川町,蕨谷,コウチケン,アガワグンニヨドガワチョウ,ワラビダニ,高知県吾川郡仁淀川町蕨谷
7811516,高知県,吾川郡仁淀川町,中村,コウチケン,アガワグンニヨドガワチョウ,ナカムラ,高知県吾川郡仁淀川町中村
7811517,高知県,吾川郡仁淀川町,葛原,コウチケン,アガワグンニヨドガワチョウ,クズワラ,高知県吾川郡仁淀川町葛原
7811518,高知県,吾川郡仁淀川町,加枝,コウチケン,アガワグンニヨドガワチョウ,カエ,高知県吾川郡仁淀川町加枝
7811520,高知県,吾川郡仁淀川町,大蕨,コウチケン,アガワグンニヨドガワチョウ,オオワラビ,高知県吾川郡仁淀川町大蕨
7811521,高知県,吾川郡仁淀川町,本村,コウチケン,アガワグンニヨドガワチョウ,ホンムラ,高知県吾川郡仁淀川町本村
7811522,高知県,吾川郡仁淀川町,田村,コウチケン,アガワグンニヨドガワチョウ,タムラ,高知県吾川郡仁淀川町田村
7811523,高知県,吾川郡仁淀川町,宗津,コウチケン,アガワグンニヨドガワチョウ,ソウヅ,高知県吾川郡仁淀川町宗津
7811524,高知県,吾川郡仁淀川町,長屋,コウチケン,アガワグンニヨドガワチョウ,ナガヤ,高知県吾川郡仁淀川町長屋
7811531,高知県,吾川郡仁淀川町,久喜,コウチケン,アガワグンニヨドガワチョウ,クキ,高知県吾川郡仁淀川町久喜
7811532,高知県,吾川郡仁淀川町,相能,コウチケン,アガワグンニヨドガワチョウ,アイノウ,高知県吾川郡仁淀川町相能
7811533,高知県,吾川郡仁淀川町,引地,コウチケン,アガワグンニヨドガワチョウ,ヒキチ,高知県吾川郡仁淀川町引地
7811534,高知県,吾川郡仁淀川町,遅越,コウチケン,アガワグンニヨドガワチョウ,オソゴエ,高知県吾川郡仁淀川町遅越
7811535,高知県,吾川郡仁淀川町,二子野,コウチケン,アガワグンニヨドガワチョウ,フタゴノ,高知県吾川郡仁淀川町二子野
7811601,高知県,吾川郡仁淀川町,大平,コウチケン,アガワグンニヨドガワチョウ,オオヒラ,高知県吾川郡仁淀川町大平
7811602,高知県,吾川郡仁淀川町,楮原,コウチケン,アガワグンニヨドガワチョウ,カジハラ,高知県吾川郡仁淀川町楮原
7811603,高知県,吾川郡仁淀川町,日浦,コウチケン,アガワグンニヨドガワチョウ,ヒウラ,高知県吾川郡仁淀川町日浦
7811604,高知県,吾川郡仁淀川町,見ノ越,コウチケン,アガワグンニヨドガワチョウ,ミノコシ,高知県吾川郡仁淀川町見ノ越
7811605,高知県,吾川郡仁淀川町,川内谷,コウチケン,アガワグンニヨドガワチョウ,カワウチダニ,高知県吾川郡仁淀川町川内谷
7811606,高知県,吾川郡仁淀川町,土居（甲・乙）,コウチケン,アガワグンニヨドガワチョウ,ドイ(コウ・オツ),高知県吾川郡仁淀川町土居（甲・乙）
7811607,高知県,吾川郡仁淀川町,北浦,コウチケン,アガワグンニヨドガワチョウ,キタウラ,高知県吾川郡仁淀川町北浦
7811608,高知県,吾川郡仁淀川町,坂本,コウチケン,アガワグンニヨドガワチョウ,サカモト,高知県吾川郡仁淀川町坂本
7811609,高知県,吾川郡仁淀川町,寄合,コウチケン,アガワグンニヨドガワチョウ,ヨリアイ,高知県吾川郡仁淀川町寄合
7811610,高知県,吾川郡仁淀川町,竹ノ谷,コウチケン,アガワグンニヨドガワチョウ,タケノタニ,高知県吾川郡仁淀川町竹ノ谷
7811611,高知県,吾川郡仁淀川町,岩丸,コウチケン,アガワグンニヨドガワチョウ,イワマル,高知県吾川郡仁淀川町岩丸
7811612,高知県,吾川郡仁淀川町,池川大渡,コウチケン,アガワグンニヨドガワチョウ,イケガワオオド,高知県吾川郡仁淀川町池川大渡
7811613,高知県,吾川郡仁淀川町,明戸岩,コウチケン,アガワグンニヨドガワチョウ,ミョウトイワ,高知県吾川郡仁淀川町明戸岩
7811614,高知県,吾川郡仁淀川町,大西,コウチケン,アガワグンニヨドガワチョウ,オオニシ,高知県吾川郡仁淀川町大西
7811615,高知県,吾川郡仁淀川町,岩柄,コウチケン,アガワグンニヨドガワチョウ,イワガラ,高知県吾川郡仁淀川町岩柄
7811616,高知県,吾川郡仁淀川町,百川内,コウチケン,アガワグンニヨドガワチョウ,モモガワウチ,高知県吾川郡仁淀川町百川内
7811617,高知県,吾川郡仁淀川町,大野,コウチケン,アガワグンニヨドガワチョウ,オオノ,高知県吾川郡仁淀川町大野
7811618,高知県,吾川郡仁淀川町,椿山,コウチケン,アガワグンニヨドガワチョウ,ツバヤマ,高知県吾川郡仁淀川町椿山
7811619,高知県,吾川郡仁淀川町,用居甲（出丸、舟形、用居）,コウチケン,アガワグンニヨドガワチョウ,モチイコウ(イズマル、フナガタ、モチイ),高知県吾川郡仁淀川町用居甲（出丸、舟形、用居）
7811620,高知県,吾川郡仁淀川町,用居乙（瓜生野、折尾、桧谷）,コウチケン,アガワグンニヨドガワチョウ,モチイオツ(ウリウノ、オリオ、ヒノキダニ),高知県吾川郡仁淀川町用居乙（瓜生野、折尾、桧谷）
7811621,高知県,吾川郡仁淀川町,入江谷,コウチケン,アガワグンニヨドガワチョウ,イリエダニ,高知県吾川郡仁淀川町入江谷
7811622,高知県,吾川郡仁淀川町,成川,コウチケン,アガワグンニヨドガワチョウ,ナルガワ,高知県吾川郡仁淀川町成川
7811623,高知県,吾川郡仁淀川町,余能,コウチケン,アガワグンニヨドガワチョウ,ヨノウ,高知県吾川郡仁淀川町余能
7811624,高知県,吾川郡仁淀川町,土居（その他）,コウチケン,アガワグンニヨドガワチョウ,ドイ(ソノタ),高知県吾川郡仁淀川町土居（その他）
7811625,高知県,吾川郡仁淀川町,吉ケ成,コウチケン,アガワグンニヨドガワチョウ,ヨシガナル,高知県吾川郡仁淀川町吉ケ成
7811626,高知県,吾川郡仁淀川町,坪井川,コウチケン,アガワグンニヨドガワチョウ,ツボイガワ,高知県吾川郡仁淀川町坪井川
7811627,高知県,吾川郡仁淀川町,宮ケ平,コウチケン,アガワグンニヨドガワチョウ,ミヤガヒラ,高知県吾川郡仁淀川町宮ケ平
7811628,高知県,吾川郡仁淀川町,大屋,コウチケン,アガワグンニヨドガワチョウ,オオヤ,高知県吾川郡仁淀川町大屋
7811741,高知県,吾川郡仁淀川町,名野川,コウチケン,アガワグンニヨドガワチョウ,ナノカワ,高知県吾川郡仁淀川町名野川
7811742,高知県,吾川郡仁淀川町,竹屋敷,コウチケン,アガワグンニヨドガワチョウ,タケヤシキ,高知県吾川郡仁淀川町竹屋敷
7811743,高知県,吾川郡仁淀川町,崎ノ山,コウチケン,アガワグンニヨドガワチョウ,サキノヤマ,高知県吾川郡仁淀川町崎ノ山
7811744,高知県,吾川郡仁淀川町,名野川大平,コウチケン,アガワグンニヨドガワチョウ,ナノカワオオヒラ,高知県吾川郡仁淀川町名野川大平
7811745,高知県,吾川郡仁淀川町,下北川,コウチケン,アガワグンニヨドガワチョウ,シモキタガワ,高知県吾川郡仁淀川町下北川
7811746,高知県,吾川郡仁淀川町,北川,コウチケン,アガワグンニヨドガワチョウ,キタガワ,高知県吾川郡仁淀川町北川
7811751,高知県,吾川郡仁淀川町,大渡,コウチケン,アガワグンニヨドガワチョウ,オオド,高知県吾川郡仁淀川町大渡
7811752,高知県,吾川郡仁淀川町,峠ノ越,コウチケン,アガワグンニヨドガワチョウ,トウノコエ,高知県吾川郡仁淀川町峠ノ越
7811753,高知県,吾川郡仁淀川町,潰溜,コウチケン,アガワグンニヨドガワチョウ,ツエダマリ,高知県吾川郡仁淀川町潰溜
7811754,高知県,吾川郡仁淀川町,北,コウチケン,アガワグンニヨドガワチョウ,キタ,高知県吾川郡仁淀川町北
7811755,高知県,吾川郡仁淀川町,森山,コウチケン,アガワグンニヨドガワチョウ,モリヤマ,高知県吾川郡仁淀川町森山
7811756,高知県,吾川郡仁淀川町,大尾,コウチケン,アガワグンニヨドガワチョウ,オオオ,高知県吾川郡仁淀川町大尾
7811757,高知県,吾川郡仁淀川町,鷲ノ巣,コウチケン,アガワグンニヨドガワチョウ,ワシノス,高知県吾川郡仁淀川町鷲ノ巣
7811758,高知県,吾川郡仁淀川町,橘,コウチケン,アガワグンニヨドガワチョウ,タチバナ,高知県吾川郡仁淀川町橘
7811761,高知県,吾川郡仁淀川町,二ノ滝,コウチケン,アガワグンニヨドガワチョウ,ニノタキ,高知県吾川郡仁淀川町二ノ滝
7811762,高知県,吾川郡仁淀川町,下名野川,コウチケン,アガワグンニヨドガワチョウ,シモナノカワ,高知県吾川郡仁淀川町下名野川
7811763,高知県,吾川郡仁淀川町,中,コウチケン,アガワグンニヨドガワチョウ,ナカ,高知県吾川郡仁淀川町中
7811764,高知県,吾川郡仁淀川町,長坂,コウチケン,アガワグンニヨドガワチョウ,ナガサカ,高知県吾川郡仁淀川町長坂
7811765,高知県,吾川郡仁淀川町,津江,コウチケン,アガワグンニヨドガワチョウ,ツエ,高知県吾川郡仁淀川町津江
7811766,高知県,吾川郡仁淀川町,上名野川,コウチケン,アガワグンニヨドガワチョウ,カミナノカワ,高知県吾川郡仁淀川町上名野川
7811801,高知県,吾川郡仁淀川町,森,コウチケン,アガワグンニヨドガワチョウ,モリ,高知県吾川郡仁淀川町森
7811802,高知県,吾川郡仁淀川町,高瀬,コウチケン,アガワグンニヨドガワチョウ,タカセ,高知県吾川郡仁淀川町高瀬
7811803,高知県,吾川郡仁淀川町,別枝,コウチケン,アガワグンニヨドガワチョウ,ベッシ,高知県吾川郡仁淀川町別枝
7811804,高知県,吾川郡仁淀川町,川渡,コウチケン,アガワグンニヨドガワチョウ,カワド,高知県吾川郡仁淀川町川渡
7811911,高知県,吾川郡仁淀川町,長者乙,コウチケン,アガワグンニヨドガワチョウ,チョウジャオツ,高知県吾川郡仁淀川町長者乙
7811912,高知県,吾川郡仁淀川町,長者丁,コウチケン,アガワグンニヨドガワチョウ,チョウジャテイ,高知県吾川郡仁淀川町長者丁
7811913,高知県,吾川郡仁淀川町,長者丙,コウチケン,アガワグンニヨドガワチョウ,チョウジャヘイ,高知県吾川郡仁淀川町長者丙
7811914,高知県,吾川郡仁淀川町,泉,コウチケン,アガワグンニヨドガワチョウ,イズミ,高知県吾川郡仁淀川町泉
7811915,高知県,吾川郡仁淀川町,大植,コウチケン,アガワグンニヨドガワチョウ,オオウエ,高知県吾川郡仁淀川町大植
7812100,高知県,吾川郡いの町,,コウチケン,アガワグンイノチョウ,,高知県吾川郡いの町
7812100,高知県,高岡郡日高村,,コウチケン,タカオカグンヒダカムラ,,高知県高岡郡日高村
7812101,高知県,吾川郡いの町,大国町,コウチケン,アガワグンイノチョウ,ダイコクチョウ,高知県吾川郡いの町大国町
7812102,高知県,吾川郡いの町,公園町,コウチケン,アガワグンイノチョウ,コウエンチョウ,高知県吾川郡いの町公園町
7812103,高知県,吾川郡いの町,幸町,コウチケン,アガワグンイノチョウ,サイワイチョウ,高知県吾川郡いの町幸町
7812104,高知県,吾川郡いの町,藤町,コウチケン,アガワグンイノチョウ,フジマチ,高知県吾川郡いの町藤町
7812105,高知県,吾川郡いの町,新町,コウチケン,アガワグンイノチョウ,シンマチ,高知県吾川郡いの町新町
7812106,高知県,吾川郡いの町,駅南町,コウチケン,アガワグンイノチョウ,エキミナミマチ,高知県吾川郡いの町駅南町
7812107,高知県,吾川郡いの町,駅前町,コウチケン,アガワグンイノチョウ,エキマエチョウ,高知県吾川郡いの町駅前町
7812108,高知県,吾川郡いの町,駅東町,コウチケン,アガワグンイノチョウ,エキヒガシマチ,高知県吾川郡いの町駅東町
7812110,高知県,吾川郡いの町,,コウチケン,アガワグンイノチョウ,,高知県吾川郡いの町
7812111,高知県,吾川郡いの町,羽根町,コウチケン,アガワグンイノチョウ,ハネマチ,高知県吾川郡いの町羽根町
7812112,高知県,吾川郡いの町,西町,コウチケン,アガワグンイノチョウ,ニシマチ,高知県吾川郡いの町西町
7812113,高知県,吾川郡いの町,元町,コウチケン,アガワグンイノチョウ,モトマチ,高知県吾川郡いの町元町
7812114,高知県,吾川郡いの町,加茂町,コウチケン,アガワグンイノチョウ,カモマチ,高知県吾川郡いの町加茂町
7812115,高知県,吾川郡いの町,旭町,コウチケン,アガワグンイノチョウ,アサヒマチ,高知県吾川郡いの町旭町
7812116,高知県,吾川郡いの町,柳町,コウチケン,アガワグンイノチョウ,ヤナギマチ,高知県吾川郡いの町柳町
7812117,高知県,吾川郡いの町,内野東町,コウチケン,アガワグンイノチョウ,ウツノヒガシマチ,高知県吾川郡いの町内野東町
7812118,高知県,吾川郡いの町,内野南町,コウチケン,アガワグンイノチョウ,ウツノミナミマチ,高知県吾川郡いの町内野南町
7812119,高知県,吾川郡いの町,内野北町,コウチケン,アガワグンイノチョウ,ウツノキタマチ,高知県吾川郡いの町内野北町
7812120,高知県,吾川郡いの町,枝川,コウチケン,アガワグンイノチョウ,エダガワ,高知県吾川郡いの町枝川
7812121,高知県,吾川郡いの町,池の内,コウチケン,アガワグンイノチョウ,イケノウチ,高知県吾川郡いの町池の内
7812122,高知県,吾川郡いの町,天王北,コウチケン,アガワグンイノチョウ,テンノウキタ,高知県吾川郡いの町天王北
7812123,高知県,吾川郡いの町,天王南,コウチケン,アガワグンイノチョウ,テンノウミナミ,高知県吾川郡いの町天王南
7812124,高知県,吾川郡いの町,八田,コウチケン,アガワグンイノチョウ,ハタ,高知県吾川郡いの町八田
7812126,高知県,吾川郡いの町,大内,コウチケン,アガワグンイノチョウ,オオチ,高知県吾川郡いの町大内
7812127,高知県,吾川郡いの町,鎌田,コウチケン,アガワグンイノチョウ,カマダ,高知県吾川郡いの町鎌田
7812128,高知県,吾川郡いの町,波川,コウチケン,アガワグンイノチョウ,ハカワ,高知県吾川郡いの町波川
7812131,高知県,吾川郡いの町,槇,コウチケン,アガワグンイノチョウ,マキ,高知県吾川郡いの町槇
7812132,高知県,吾川郡いの町,成山,コウチケン,アガワグンイノチョウ,ナルヤマ,高知県吾川郡いの町成山
7812133,高知県,吾川郡いの町,加田,コウチケン,アガワグンイノチョウ,カダ,高知県吾川郡いの町加田
7812134,高知県,吾川郡いの町,神谷,コウチケン,アガワグンイノチョウ,コウノタニ,高知県吾川郡いの町神谷
7812135,高知県,吾川郡いの町,小野,コウチケン,アガワグンイノチョウ,コノ,高知県吾川郡いの町小野
7812136,高知県,吾川郡いの町,鹿敷,コウチケン,アガワグンイノチョウ,カシキ,高知県吾川郡いの町鹿敷
7812141,高知県,吾川郡いの町,勝賀瀬,コウチケン,アガワグンイノチョウ,ショウガセ,高知県吾川郡いの町勝賀瀬
7812142,高知県,吾川郡いの町,中追,コウチケン,アガワグンイノチョウ,ナカオイ,高知県吾川郡いの町中追
7812143,高知県,吾川郡いの町,楠瀬,コウチケン,アガワグンイノチョウ,クスノセ,高知県吾川郡いの町楠瀬
7812144,高知県,吾川郡いの町,柳瀬本村,コウチケン,アガワグンイノチョウ,ヤナノセホンムラ,高知県吾川郡いの町柳瀬本村
7812145,高知県,吾川郡いの町,柳瀬石見,コウチケン,アガワグンイノチョウ,ヤナノセイシミ,高知県吾川郡いの町柳瀬石見
7812146,高知県,吾川郡いの町,柳瀬上分,コウチケン,アガワグンイノチョウ,ヤナノセカミブン,高知県吾川郡いの町柳瀬上分
7812151,高知県,高岡郡日高村,下分,コウチケン,タカオカグンヒダカムラ,シモブン,高知県高岡郡日高村下分
7812152,高知県,高岡郡日高村,沖名,コウチケン,タカオカグンヒダカムラ,オキナ,高知県高岡郡日高村沖名
7812153,高知県,高岡郡日高村,本郷,コウチケン,タカオカグンヒダカムラ,ホンゴウ,高知県高岡郡日高村本郷
7812154,高知県,高岡郡日高村,岩目地,コウチケン,タカオカグンヒダカムラ,イワメジ,高知県高岡郡日高村岩目地
7812155,高知県,高岡郡日高村,九頭,コウチケン,タカオカグンヒダカムラ,クズ,高知県高岡郡日高村九頭
7812161,高知県,高岡郡日高村,柱谷,コウチケン,タカオカグンヒダカムラ,ハシラタニ,高知県高岡郡日高村柱谷
7812162,高知県,高岡郡日高村,名越屋,コウチケン,タカオカグンヒダカムラ,ナゴヤ,高知県高岡郡日高村名越屋
7812163,高知県,高岡郡日高村,大花,コウチケン,タカオカグンヒダカムラ,オオハナ,高知県高岡郡日高村大花
7812164,高知県,高岡郡日高村,本村,コウチケン,タカオカグンヒダカムラ,ホンムラ,高知県高岡郡日高村本村
7812165,高知県,高岡郡日高村,宮ノ谷,コウチケン,タカオカグンヒダカムラ,ミヤノタニ,高知県高岡郡日高村宮ノ谷
7812166,高知県,高岡郡日高村,長畑,コウチケン,タカオカグンヒダカムラ,ナガバタ,高知県高岡郡日高村長畑
7812167,高知県,高岡郡日高村,鴨地,コウチケン,タカオカグンヒダカムラ,カモジ,高知県高岡郡日高村鴨地
7812321,高知県,吾川郡いの町,小川東津賀才,コウチケン,アガワグンイノチョウ,コガワヒガシツガサイ,高知県吾川郡いの町小川東津賀才
7812322,高知県,吾川郡いの町,小川西津賀才,コウチケン,アガワグンイノチョウ,コガワニシツガサイ,高知県吾川郡いの町小川西津賀才
7812323,高知県,吾川郡いの町,小川樅ノ木山,コウチケン,アガワグンイノチョウ,コガワモミノキヤマ,高知県吾川郡いの町小川樅ノ木山
7812324,高知県,吾川郡いの町,小川新別,コウチケン,アガワグンイノチョウ,コガワシンベツ,高知県吾川郡いの町小川新別
7812325,高知県,吾川郡いの町,小川柳野,コウチケン,アガワグンイノチョウ,コガワヤナギノ,高知県吾川郡いの町小川柳野
7812331,高知県,吾川郡いの町,下八川甲,コウチケン,アガワグンイノチョウ,シモヤカワコウ,高知県吾川郡いの町下八川甲
7812332,高知県,吾川郡いの町,下八川乙,コウチケン,アガワグンイノチョウ,シモヤカワオツ,高知県吾川郡いの町下八川乙
7812333,高知県,吾川郡いの町,下八川丙,コウチケン,アガワグンイノチョウ,シモヤカワヘイ,高知県吾川郡いの町下八川丙
7812334,高知県,吾川郡いの町,下八川丁,コウチケン,アガワグンイノチョウ,シモヤカワテイ,高知県吾川郡いの町下八川丁
7812335,高知県,吾川郡いの町,下八川十田,コウチケン,アガワグンイノチョウ,シモヤカワトオダ,高知県吾川郡いの町下八川十田
7812401,高知県,吾川郡いの町,上八川甲（枝川、大久保、木ノ瀬、土居、西川、本郷、柚ノ木野）,コウチケン,アガワグンイノチョウ,カミヤカワコウ(エダガワ、オオクボ、キノセ、ドイ、ニシカワ、ホンゴウ、ユノキノ),高知県吾川郡いの町上八川甲（枝川、大久保、木ノ瀬、土居、西川、本郷、柚ノ木野）
7812402,高知県,吾川郡いの町,上八川丙（柿薮、小申田、津賀谷、寺野、古江、連行）,コウチケン,アガワグンイノチョウ,カミヤカワヘイ(カキヤブ、コサルダ、ツガノタニ、テラノ、フルエ、レンギョウ),高知県吾川郡いの町上八川丙（柿薮、小申田、津賀谷、寺野、古江、連行）
7812511,高知県,吾川郡いの町,清水上分（伊守川、川窪、敷槇、土居、程野）,コウチケン,アガワグンイノチョウ,キヨミズカミブン(イモリカワ、カワクボ、シキマキ、ドイ、ホドノ),高知県吾川郡いの町清水上分（伊守川、川窪、敷槇、土居、程野）
7812512,高知県,吾川郡いの町,清水下分（馬路、大野、川口、日比原、槇川、松ノ木）,コウチケン,アガワグンイノチョウ,キヨミズシモブン(バロウ、オオノ、カワグチ、ヒビハラ、マキガワ、マツノキ),高知県吾川郡いの町清水下分（馬路、大野、川口、日比原、槇川、松ノ木）
7812601,高知県,吾川郡いの町,長沢,コウチケン,アガワグンイノチョウ,ナガサワ,高知県吾川郡いの町長沢
7812602,高知県,吾川郡いの町,戸中,コウチケン,アガワグンイノチョウ,トチュウ,高知県吾川郡いの町戸中
7812603,高知県,吾川郡いの町,大森,コウチケン,アガワグンイノチョウ,オオモリ,高知県吾川郡いの町大森
7812604,高知県,吾川郡いの町,越裏門,コウチケン,アガワグンイノチョウ,エリモン,高知県吾川郡いの町越裏門
7812605,高知県,吾川郡いの町,寺川,コウチケン,アガワグンイノチョウ,テラガワ,高知県吾川郡いの町寺川
7812611,高知県,吾川郡いの町,脇ノ山,コウチケン,アガワグンイノチョウ,ワキノヤマ,高知県吾川郡いの町脇ノ山
7812612,高知県,吾川郡いの町,高薮,コウチケン,アガワグンイノチョウ,タカヤブ,高知県吾川郡いの町高薮
7812613,高知県,吾川郡いの町,足谷,コウチケン,アガワグンイノチョウ,アシダニ,高知県吾川郡いの町足谷
7812614,高知県,吾川郡いの町,葛原,コウチケン,アガワグンイノチョウ,カズラハラ,高知県吾川郡いの町葛原
7812615,高知県,吾川郡いの町,桑瀬,コウチケン,アガワグンイノチョウ,クワゼ,高知県吾川郡いの町桑瀬
7812616,高知県,吾川郡いの町,中ノ川,コウチケン,アガワグンイノチョウ,ナカノカワ,高知県吾川郡いの町中ノ川
7813101,高知県,高知市,鏡大河内,コウチケン,コウチシ,カガミオオガチ,高知県高知市鏡大河内
7813102,高知県,高知市,鏡小浜,コウチケン,コウチシ,カガミコハマ,高知県高知市鏡小浜
7813103,高知県,高知市,鏡大利,コウチケン,コウチシ,カガミオオリ,高知県高知市鏡大利
7813104,高知県,高知市,鏡今井,コウチケン,コウチシ,カガミイマイ,高知県高知市鏡今井
7813105,高知県,高知市,鏡草峰,コウチケン,コウチシ,カガミクサミネ,高知県高知市鏡草峰
7813106,高知県,高知市,鏡白岩,コウチケン,コウチシ,カガミシロイワ,高知県高知市鏡白岩
7813107,高知県,高知市,鏡狩山,コウチケン,コウチシ,カガミカリヤマ,高知県高知市鏡狩山
7813108,高知県,高知市,鏡吉原,コウチケン,コウチシ,カガミヨシハラ,高知県高知市鏡吉原
7813111,高知県,高知市,鏡的渕,コウチケン,コウチシ,カガミマトブチ,高知県高知市鏡的渕
7813112,高知県,高知市,鏡去坂,コウチケン,コウチシ,カガミサルサカ,高知県高知市鏡去坂
7813113,高知県,高知市,鏡竹奈路,コウチケン,コウチシ,カガミタケナロ,高知県高知市鏡竹奈路
7813114,高知県,高知市,鏡敷ノ山,コウチケン,コウチシ,カガミシキノヤマ,高知県高知市鏡敷ノ山
7813115,高知県,高知市,鏡柿ノ又,コウチケン,コウチシ,カガミカキノマタ,高知県高知市鏡柿ノ又
7813121,高知県,高知市,鏡横矢,コウチケン,コウチシ,カガミヨコヤ,高知県高知市鏡横矢
7813122,高知県,高知市,鏡増原,コウチケン,コウチシ,カガミマスハラ,高知県高知市鏡増原
7813123,高知県,高知市,鏡葛山,コウチケン,コウチシ,カガミカズラヤマ,高知県高知市鏡葛山
7813124,高知県,高知市,鏡梅ノ木,コウチケン,コウチシ,カガミウメノキ,高知県高知市鏡梅ノ木
7813125,高知県,高知市,鏡小山,コウチケン,コウチシ,カガミコヤマ,高知県高知市鏡小山
7813201,高知県,高知市,土佐山,コウチケン,コウチシ,トサヤマ,高知県高知市土佐山
7813202,高知県,高知市,土佐山都網,コウチケン,コウチシ,トサヤマツアミ,高知県高知市土佐山都網
7813203,高知県,高知市,土佐山弘瀬,コウチケン,コウチシ,トサヤマヒロセ,高知県高知市土佐山弘瀬
7813211,高知県,高知市,土佐山高川,コウチケン,コウチシ,トサヤマタカカワ,高知県高知市土佐山高川
7813212,高知県,高知市,土佐山梶谷,コウチケン,コウチシ,トサヤマカジタニ,高知県高知市土佐山梶谷
7813213,高知県,高知市,土佐山西川,コウチケン,コウチシ,トサヤマニシガワ,高知県高知市土佐山西川
7813214,高知県,高知市,土佐山菖蒲,コウチケン,コウチシ,トサヤマショウブ,高知県高知市土佐山菖蒲
7813221,高知県,高知市,土佐山桑尾,コウチケン,コウチシ,トサヤマクワオ,高知県高知市土佐山桑尾
7813222,高知県,高知市,土佐山東川,コウチケン,コウチシ,トサヤマヒガシカワ,高知県高知市土佐山東川
7813223,高知県,高知市,土佐山中切,コウチケン,コウチシ,トサヤマナカギリ,高知県高知市土佐山中切
7813331,高知県,土佐郡土佐町,地蔵寺,コウチケン,トサグントサチョウ,ジゾウジ,高知県土佐郡土佐町地蔵寺
7813332,高知県,土佐郡土佐町,栗木,コウチケン,トサグントサチョウ,クリキ,高知県土佐郡土佐町栗木
7813333,高知県,土佐郡土佐町,東石原,コウチケン,トサグントサチョウ,ヒガシイシハラ,高知県土佐郡土佐町東石原
7813334,高知県,土佐郡土佐町,西石原,コウチケン,トサグントサチョウ,ニシイシハラ,高知県土佐郡土佐町西石原
7813335,高知県,土佐郡土佐町,有間,コウチケン,トサグントサチョウ,アリマ,高知県土佐郡土佐町有間
7813336,高知県,土佐郡土佐町,芥川,コウチケン,トサグントサチョウ,アクタガワ,高知県土佐郡土佐町芥川
7813337,高知県,土佐郡土佐町,瀬戸,コウチケン,トサグントサチョウ,セド,高知県土佐郡土佐町瀬戸
7813400,高知県,土佐郡土佐町,,コウチケン,トサグントサチョウ,,高知県土佐郡土佐町
7813401,高知県,土佐郡土佐町,土居,コウチケン,トサグントサチョウ,ドイ,高知県土佐郡土佐町土居
7813402,高知県,土佐郡土佐町,境,コウチケン,トサグントサチョウ,サカイ,高知県土佐郡土佐町境
7813403,高知県,土佐郡土佐町,宮古野,コウチケン,トサグントサチョウ,ミヤコノ,高知県土佐郡土佐町宮古野
7813404,高知県,土佐郡土佐町,溜井,コウチケン,トサグントサチョウ,ヌルイ,高知県土佐郡土佐町溜井
7813405,高知県,土佐郡土佐町,南泉,コウチケン,トサグントサチョウ,ミナイズミ,高知県土佐郡土佐町南泉
7813406,高知県,土佐郡土佐町,高須,コウチケン,トサグントサチョウ,タカス,高知県土佐郡土佐町高須
7813407,高知県,土佐郡土佐町,樫山,コウチケン,トサグントサチョウ,カシヤマ,高知県土佐郡土佐町樫山
7813408,高知県,土佐郡土佐町,相川,コウチケン,トサグントサチョウ,アイカワ,高知県土佐郡土佐町相川
7813409,高知県,土佐郡土佐町,和田,コウチケン,トサグントサチョウ,ワダ,高知県土佐郡土佐町和田
7813521,高知県,土佐郡土佐町,田井,コウチケン,トサグントサチョウ,タイ,高知県土佐郡土佐町田井
7813522,高知県,土佐郡土佐町,大渕,コウチケン,トサグントサチョウ,オオブチ,高知県土佐郡土佐町大渕
7813523,高知県,土佐郡土佐町,古味,コウチケン,トサグントサチョウ,コミ,高知県土佐郡土佐町古味
7813524,高知県,土佐郡土佐町,井尻,コウチケン,トサグントサチョウ,イジリ,高知県土佐郡土佐町井尻
7813525,高知県,土佐郡土佐町,下川,コウチケン,トサグントサチョウ,シモカワ,高知県土佐郡土佐町下川
7813526,高知県,土佐郡土佐町,上津川,コウチケン,トサグントサチョウ,コウヅカワ,高知県土佐郡土佐町上津川
7813600,高知県,長岡郡本山町,,コウチケン,ナガオカグンモトヤマチョウ,,高知県長岡郡本山町
7813601,高知県,長岡郡本山町,本山,コウチケン,ナガオカグンモトヤマチョウ,モトヤマ,高知県長岡郡本山町本山
7813602,高知県,長岡郡本山町,大石,コウチケン,ナガオカグンモトヤマチョウ,オオイシ,高知県長岡郡本山町大石
7813603,高知県,長岡郡本山町,吉延,コウチケン,ナガオカグンモトヤマチョウ,ヨシノブ,高知県長岡郡本山町吉延
7813604,高知県,長岡郡本山町,井窪,コウチケン,ナガオカグンモトヤマチョウ,イノクボ,高知県長岡郡本山町井窪
7813605,高知県,長岡郡本山町,下津野,コウチケン,ナガオカグンモトヤマチョウ,シモツノ,高知県長岡郡本山町下津野
7813606,高知県,長岡郡本山町,高角,コウチケン,ナガオカグンモトヤマチョウ,タカツノ,高知県長岡郡本山町高角
7813607,高知県,長岡郡本山町,古田,コウチケン,ナガオカグンモトヤマチョウ,フルタ,高知県長岡郡本山町古田
7813608,高知県,長岡郡本山町,木能津,コウチケン,ナガオカグンモトヤマチョウ,キノウヅ,高知県長岡郡本山町木能津
7813609,高知県,長岡郡本山町,助藤,コウチケン,ナガオカグンモトヤマチョウ,スケトウ,高知県長岡郡本山町助藤
7813610,高知県,長岡郡本山町,下関,コウチケン,ナガオカグンモトヤマチョウ,シモゼキ,高知県長岡郡本山町下関
7813611,高知県,長岡郡本山町,上関甲,コウチケン,ナガオカグンモトヤマチョウ,カミゼキコウ,高知県長岡郡本山町上関甲
7813612,高知県,長岡郡本山町,上関乙,コウチケン,ナガオカグンモトヤマチョウ,カミゼキオツ,高知県長岡郡本山町上関乙
7813613,高知県,長岡郡本山町,北山甲,コウチケン,ナガオカグンモトヤマチョウ,キタヤマコウ,高知県長岡郡本山町北山甲
7813614,高知県,長岡郡本山町,北山乙,コウチケン,ナガオカグンモトヤマチョウ,キタヤマオツ,高知県長岡郡本山町北山乙
7813615,高知県,長岡郡本山町,北山丙,コウチケン,ナガオカグンモトヤマチョウ,キタヤマヘイ,高知県長岡郡本山町北山丙
7813617,高知県,長岡郡本山町,寺家,コウチケン,ナガオカグンモトヤマチョウ,ジケ,高知県長岡郡本山町寺家
7813618,高知県,長岡郡本山町,吉野,コウチケン,ナガオカグンモトヤマチョウ,ヨシノ,高知県長岡郡本山町吉野
7813619,高知県,長岡郡本山町,立野,コウチケン,ナガオカグンモトヤマチョウ,タチノ,高知県長岡郡本山町立野
7813620,高知県,長岡郡本山町,坂本,コウチケン,ナガオカグンモトヤマチョウ,サカモト,高知県長岡郡本山町坂本
7813621,高知県,長岡郡本山町,屋所,コウチケン,ナガオカグンモトヤマチョウ,ヤトコロ,高知県長岡郡本山町屋所
7813622,高知県,長岡郡本山町,沢ケ内,コウチケン,ナガオカグンモトヤマチョウ,ソウガウチ,高知県長岡郡本山町沢ケ内
7813623,高知県,長岡郡本山町,瓜生野,コウチケン,ナガオカグンモトヤマチョウ,ウリウノ,高知県長岡郡本山町瓜生野
7813624,高知県,長岡郡本山町,七戸,コウチケン,ナガオカグンモトヤマチョウ,ナナト,高知県長岡郡本山町七戸
7813700,高知県,土佐郡大川村,,コウチケン,トサグンオオカワムラ,,高知県土佐郡大川村
7813701,高知県,土佐郡大川村,船戸（その他）,コウチケン,トサグンオオカワムラ,フナト(ソノタ),高知県土佐郡大川村船戸（その他）
7813702,高知県,土佐郡大川村,船戸（桃ケ谷）,コウチケン,トサグンオオカワムラ,フナト(モモガヤ),高知県土佐郡大川村船戸（桃ケ谷）
7813703,高知県,土佐郡大川村,小松,コウチケン,トサグンオオカワムラ,コマツ,高知県土佐郡大川村小松
7813704,高知県,土佐郡大川村,朝谷,コウチケン,トサグンオオカワムラ,アサタニ,高知県土佐郡大川村朝谷
7813705,高知県,土佐郡大川村,大北川,コウチケン,トサグンオオカワムラ,オオキタガワ,高知県土佐郡大川村大北川
7813711,高知県,土佐郡大川村,高野,コウチケン,トサグンオオカワムラ,タカノ,高知県土佐郡大川村高野
7813712,高知県,土佐郡大川村,川崎,コウチケン,トサグンオオカワムラ,カワサキ,高知県土佐郡大川村川崎
7813713,高知県,土佐郡大川村,井野川,コウチケン,トサグンオオカワムラ,イノカワ,高知県土佐郡大川村井野川
7813714,高知県,土佐郡大川村,大平,コウチケン,トサグンオオカワムラ,オオヒラ,高知県土佐郡大川村大平
7813715,高知県,土佐郡大川村,小麦畝,コウチケン,トサグンオオカワムラ,コムギウネ,高知県土佐郡大川村小麦畝
7813716,高知県,土佐郡大川村,小北川,コウチケン,トサグンオオカワムラ,コキタガワ,高知県土佐郡大川村小北川
7813717,高知県,土佐郡大川村,大薮,コウチケン,トサグンオオカワムラ,オオヤブ,高知県土佐郡大川村大薮
7813721,高知県,土佐郡大川村,中切,コウチケン,トサグンオオカワムラ,ナカギリ,高知県土佐郡大川村中切
7813722,高知県,土佐郡大川村,下小南川,コウチケン,トサグンオオカワムラ,シモオミナガワ,高知県土佐郡大川村下小南川
7813723,高知県,土佐郡大川村,上小南川,コウチケン,トサグンオオカワムラ,カミオミナガワ,高知県土佐郡大川村上小南川
7813724,高知県,土佐郡大川村,南野山,コウチケン,トサグンオオカワムラ,ミナミノヤマ,高知県土佐郡大川村南野山
7813725,高知県,土佐郡大川村,下切,コウチケン,トサグンオオカワムラ,シタギリ,高知県土佐郡大川村下切
7813741,高知県,土佐郡土佐町,柚ノ木,コウチケン,トサグントサチョウ,ユノキ,高知県土佐郡土佐町柚ノ木
7813742,高知県,土佐郡土佐町,南川,コウチケン,トサグントサチョウ,ミナガワ,高知県土佐郡土佐町南川
7814201,高知県,香美市,香北町永瀬,コウチケン,カミシ,カホクチョウナガセ,高知県香美市香北町永瀬
7814202,高知県,香美市,香北町蕨野,コウチケン,カミシ,カホクチョウワラビノ,高知県香美市香北町蕨野
7814203,高知県,香美市,香北町白石,コウチケン,カミシ,カホクチョウシライシ,高知県香美市香北町白石
7814204,高知県,香美市,香北町根須,コウチケン,カミシ,カホクチョウネズ,高知県香美市香北町根須
7814205,高知県,香美市,香北町吉野,コウチケン,カミシ,カホクチョウヨシノ,高知県香美市香北町吉野
7814206,高知県,香美市,香北町小川,コウチケン,カミシ,カホクチョウオガワ,高知県香美市香北町小川
7814207,高知県,香美市,香北町西川乙,コウチケン,カミシ,カホクチョウニシガワオツ,高知県香美市香北町西川乙
7814208,高知県,香美市,香北町西川甲,コウチケン,カミシ,カホクチョウニシガワコウ,高知県香美市香北町西川甲
7814211,高知県,香美市,香北町韮生野,コウチケン,カミシ,カホクチョウニロウノ,高知県香美市香北町韮生野
7814212,高知県,香美市,香北町美良布,コウチケン,カミシ,カホクチョウビラフ,高知県香美市香北町美良布
7814213,高知県,香美市,香北町下野尻,コウチケン,カミシ,カホクチョウシモノジリ,高知県香美市香北町下野尻
7814214,高知県,香美市,香北町太郎丸,コウチケン,カミシ,カホクチョウタロマル,高知県香美市香北町太郎丸
7814215,高知県,香美市,香北町岩改,コウチケン,カミシ,カホクチョウイワカイ,高知県香美市香北町岩改
7814216,高知県,香美市,香北町萩野,コウチケン,カミシ,カホクチョウハギノ,高知県香美市香北町萩野
7814217,高知県,香美市,香北町橋川野,コウチケン,カミシ,カホクチョウハシカワノ,高知県香美市香北町橋川野
7814221,高知県,香美市,香北町白川,コウチケン,カミシ,カホクチョウシラカワ,高知県香美市香北町白川
7814222,高知県,香美市,香北町五百蔵,コウチケン,カミシ,カホクチョウイオロイ,高知県香美市香北町五百蔵
7814223,高知県,香美市,香北町有川,コウチケン,カミシ,カホクチョウアラカワ,高知県香美市香北町有川
7814224,高知県,香美市,香北町有瀬,コウチケン,カミシ,カホクチョウアラセ,高知県香美市香北町有瀬
7814225,高知県,香美市,香北町西峯,コウチケン,カミシ,カホクチョウニシノミネ,高知県香美市香北町西峯
7814226,高知県,香美市,香北町河野,コウチケン,カミシ,カホクチョウコウノ,高知県香美市香北町河野
7814227,高知県,香美市,香北町川ノ内,コウチケン,カミシ,カホクチョウカワノウチ,高知県香美市香北町川ノ内
7814231,高知県,香美市,香北町日ノ御子,コウチケン,カミシ,カホクチョウヒノミコ,高知県香美市香北町日ノ御子
7814232,高知県,香美市,香北町谷相,コウチケン,カミシ,カホクチョウタニアイ,高知県香美市香北町谷相
7814233,高知県,香美市,香北町中谷,コウチケン,カミシ,カホクチョウナカタニ,高知県香美市香北町中谷
7814234,高知県,香美市,香北町横谷,コウチケン,カミシ,カホクチョウヨコタニ,高知県香美市香北町横谷
7814235,高知県,香美市,香北町朴ノ木,コウチケン,カミシ,カホクチョウホウノキ,高知県香美市香北町朴ノ木
7814236,高知県,香美市,香北町永野,コウチケン,カミシ,カホクチョウナガノ,高知県香美市香北町永野
7814241,高知県,香美市,香北町大井平,コウチケン,カミシ,カホクチョウオオイダイラ,高知県香美市香北町大井平
7814242,高知県,香美市,香北町大束,コウチケン,カミシ,カホクチョウオオツカ,高知県香美市香北町大束
7814243,高知県,香美市,香北町梅久保,コウチケン,カミシ,カホクチョウウメノクボ,高知県香美市香北町梅久保
7814244,高知県,香美市,香北町日浦込,コウチケン,カミシ,カホクチョウヒウラゴミ,高知県香美市香北町日浦込
7814245,高知県,香美市,香北町清爪,コウチケン,カミシ,カホクチョウセイヅメ,高知県香美市香北町清爪
7814246,高知県,香美市,香北町日比原,コウチケン,カミシ,カホクチョウヒビハラ,高知県香美市香北町日比原
7814247,高知県,香美市,香北町猪野々,コウチケン,カミシ,カホクチョウイノノ,高知県香美市香北町猪野々
7814401,高知県,香美市,物部町大栃,コウチケン,カミシ,モノベチョウオオドチ,高知県香美市物部町大栃
7814402,高知県,香美市,物部町山崎（その他）,コウチケン,カミシ,モノベチョウヤマサキ(ソノタ),高知県香美市物部町山崎（その他）
7814403,高知県,香美市,物部町押谷,コウチケン,カミシ,モノベチョウオスダニ,高知県香美市物部町押谷
7814404,高知県,香美市,物部町小浜,コウチケン,カミシ,モノベチョウコハマ,高知県香美市物部町小浜
7814405,高知県,香美市,物部町根木屋,コウチケン,カミシ,モノベチョウネキヤ,高知県香美市物部町根木屋
7814406,高知県,香美市,物部町仙頭,コウチケン,カミシ,モノベチョウセンドウ,高知県香美市物部町仙頭
7814411,高知県,香美市,物部町中谷川,コウチケン,カミシ,モノベチョウナカタニガワ,高知県香美市物部町中谷川
7814412,高知県,香美市,物部町拓,コウチケン,カミシ,モノベチョウツブセ,高知県香美市物部町拓
7814413,高知県,香美市,物部町庄谷相,コウチケン,カミシ,モノベチョウショウダニアイ,高知県香美市物部町庄谷相
7814414,高知県,香美市,物部町頓定,コウチケン,カミシ,モノベチョウトンジョウ,高知県香美市物部町頓定
7814415,高知県,香美市,物部町舞川,コウチケン,カミシ,モノベチョウマイカワ,高知県香美市物部町舞川
7814521,高知県,香美市,物部町安丸,コウチケン,カミシ,モノベチョウヤスマル,高知県香美市物部町安丸
7814522,高知県,香美市,物部町黒代,コウチケン,カミシ,モノベチョウクロダイ,高知県香美市物部町黒代
7814523,高知県,香美市,物部町神池,コウチケン,カミシ,モノベチョウカミイケ,高知県香美市物部町神池
7814524,高知県,香美市,物部町楮佐古,コウチケン,カミシ,モノベチョウカジサコ,高知県香美市物部町楮佐古
7814525,高知県,香美市,物部町柳瀬,コウチケン,カミシ,モノベチョウヤナイセ,高知県香美市物部町柳瀬
7814526,高知県,香美市,物部町五王堂,コウチケン,カミシ,モノベチョウゴオドウ,高知県香美市物部町五王堂
7814527,高知県,香美市,物部町南池,コウチケン,カミシ,モノベチョウミナミイケ,高知県香美市物部町南池
7814528,高知県,香美市,物部町大西,コウチケン,カミシ,モノベチョウオオニシ,高知県香美市物部町大西
7814529,高知県,香美市,物部町中上,コウチケン,カミシ,モノベチョウナカウエ,高知県香美市物部町中上
7814530,高知県,香美市,物部町笹,コウチケン,カミシ,モノベチョウササ,高知県香美市物部町笹
7814531,高知県,香美市,物部町久保,コウチケン,カミシ,モノベチョウクボ,高知県香美市物部町久保
7814641,高知県,香美市,物部町岡ノ内,コウチケン,カミシ,モノベチョウオカノウチ,高知県香美市物部町岡ノ内
7814642,高知県,香美市,物部町別役,コウチケン,カミシ,モノベチョウベッチャク,高知県香美市物部町別役
7814643,高知県,香美市,物部町市宇,コウチケン,カミシ,モノベチョウイチウ,高知県香美市物部町市宇
7814644,高知県,香美市,物部町別府,コウチケン,カミシ,モノベチョウベフ,高知県香美市物部町別府
7814645,高知県,香美市,物部町山崎（桑ノ川）,コウチケン,カミシ,モノベチョウヤマサキ(クワノカワ),高知県香美市物部町山崎（桑ノ川）
7815101,高知県,高知市,布師田,コウチケン,コウチシ,ヌノシダ,高知県高知市布師田
7815102,高知県,高知市,大津甲,コウチケン,コウチシ,オオツコウ,高知県高知市大津甲
7815103,高知県,高知市,大津乙,コウチケン,コウチシ,オオツオツ,高知県高知市大津乙
7815104,高知県,高知市,介良（その他）,コウチケン,コウチシ,ケラ(ソノタ),高知県高知市介良（その他）
7815105,高知県,高知市,介良甲,コウチケン,コウチシ,ケラコウ,高知県高知市介良甲
7815106,高知県,高知市,介良乙,コウチケン,コウチシ,ケラオツ,高知県高知市介良乙
7815107,高知県,高知市,介良丙,コウチケン,コウチシ,ケラヘイ,高知県高知市介良丙
7815108,高知県,高知市,潮見台,コウチケン,コウチシ,シオミダイ,高知県高知市潮見台
7815200,高知県,香南市,,コウチケン,コウナンシ,,高知県香南市
7815201,高知県,香南市,野市町本村,コウチケン,コウナンシ,ノイチチョウホンムラ,高知県香南市野市町本村
7815202,高知県,香南市,野市町兎田,コウチケン,コウナンシ,ノイチチョウウサイダ,高知県香南市野市町兎田
7815203,高知県,香南市,野市町中山田,コウチケン,コウナンシ,ノイチチョウナカヤマダ,高知県香南市野市町中山田
7815204,高知県,香南市,野市町新宮,コウチケン,コウナンシ,ノイチチョウシングウ,高知県香南市野市町新宮
7815205,高知県,香南市,野市町みどり野東,コウチケン,コウナンシ,ノイチチョウミドリノヒガシ,高知県香南市野市町みどり野東
7815206,高知県,香南市,野市町みどり野,コウチケン,コウナンシ,ノイチチョウミドリノ,高知県香南市野市町みどり野
7815211,高知県,香南市,野市町中ノ村,コウチケン,コウナンシ,ノイチチョウナカノムラ,高知県香南市野市町中ノ村
7815212,高知県,香南市,野市町土居,コウチケン,コウナンシ,ノイチチョウドイ,高知県香南市野市町土居
7815213,高知県,香南市,野市町東野,コウチケン,コウナンシ,ノイチチョウヒガシノ,高知県香南市野市町東野
7815221,高知県,香南市,野市町父養寺,コウチケン,コウナンシ,ノイチチョウブヨウジ,高知県香南市野市町父養寺
7815222,高知県,香南市,野市町母代寺,コウチケン,コウナンシ,ノイチチョウボダイジ,高知県香南市野市町母代寺
7815223,高知県,香南市,野市町西佐古,コウチケン,コウナンシ,ノイチチョウニシサコ,高知県香南市野市町西佐古
7815224,高知県,香南市,野市町東佐古,コウチケン,コウナンシ,ノイチチョウヒガシサコ,高知県香南市野市町東佐古
7815231,高知県,香南市,野市町深渕,コウチケン,コウナンシ,ノイチチョウフカブチ,高知県香南市野市町深渕
7815232,高知県,香南市,野市町西野,コウチケン,コウナンシ,ノイチチョウニシノ,高知県香南市野市町西野
7815233,高知県,香南市,野市町大谷,コウチケン,コウナンシ,ノイチチョウオオタニ,高知県香南市野市町大谷
7815234,高知県,香南市,野市町上岡,コウチケン,コウナンシ,ノイチチョウカミオカ,高知県香南市野市町上岡
7815235,高知県,香南市,野市町下井,コウチケン,コウナンシ,ノイチチョウシモイ,高知県香南市野市町下井
7815241,高知県,香南市,吉川町吉原,コウチケン,コウナンシ,ヨシカワチョウヨシハラ,高知県香南市吉川町吉原
7815242,高知県,香南市,吉川町古川,コウチケン,コウナンシ,ヨシカワチョウフルカワ,高知県香南市吉川町古川
7815310,高知県,香南市,赤岡町,コウチケン,コウナンシ,アカオカチョウ,高知県香南市赤岡町
7815331,高知県,香南市,香我美町岸本,コウチケン,コウナンシ,カガミチョウキシモト,高知県香南市香我美町岸本
7815332,高知県,香南市,香我美町徳王子,コウチケン,コウナンシ,カガミチョウトクオウジ,高知県香南市香我美町徳王子
7815451,高知県,香南市,香我美町上分,コウチケン,コウナンシ,カガミチョウカミブン,高知県香南市香我美町上分
7815452,高知県,香南市,香我美町下分,コウチケン,コウナンシ,カガミチョウシモブン,高知県香南市香我美町下分
7815453,高知県,香南市,香我美町山北,コウチケン,コウナンシ,カガミチョウヤマキタ,高知県香南市香我美町山北
7815454,高知県,香南市,香我美町口西川,コウチケン,コウナンシ,カガミチョウクチニシガワ,高知県香南市香我美町口西川
7815455,高知県,香南市,香我美町中西川,コウチケン,コウナンシ,カガミチョウナカニシガワ,高知県香南市香我美町中西川
7815461,高知県,香南市,香我美町福万,コウチケン,コウナンシ,カガミチョウフクマン,高知県香南市香我美町福万
7815462,高知県,香南市,香我美町山川,コウチケン,コウナンシ,カガミチョウヤマガワ,高知県香南市香我美町山川
7815463,高知県,香南市,香我美町末延,コウチケン,コウナンシ,カガミチョウスエノブ,高知県香南市香我美町末延
7815464,高知県,香南市,香我美町末清,コウチケン,コウナンシ,カガミチョウスエキヨ,高知県香南市香我美町末清
7815465,高知県,香南市,香我美町正延,コウチケン,コウナンシ,カガミチョウマサノブ,高知県香南市香我美町正延
7815466,高知県,香南市,香我美町別役,コウチケン,コウナンシ,カガミチョウベッチャク,高知県香南市香我美町別役
7815467,高知県,香南市,香我美町奥西川,コウチケン,コウナンシ,カガミチョウオクニシガワ,高知県香南市香我美町奥西川
7815468,高知県,香南市,香我美町撫川,コウチケン,コウナンシ,カガミチョウムガワ,高知県香南市香我美町撫川
7815469,高知県,香南市,香我美町舞川,コウチケン,コウナンシ,カガミチョウマイカワ,高知県香南市香我美町舞川
7815601,高知県,香南市,夜須町坪井,コウチケン,コウナンシ,ヤスチョウツボイ,高知県香南市夜須町坪井
7815602,高知県,香南市,夜須町千切,コウチケン,コウナンシ,ヤスチョウチギレ,高知県香南市夜須町千切
7815603,高知県,香南市,夜須町西山,コウチケン,コウナンシ,ヤスチョウニシヤマ,高知県香南市夜須町西山
7815604,高知県,香南市,夜須町出口,コウチケン,コウナンシ,ヤスチョウイデグチ,高知県香南市夜須町出口
7815605,高知県,香南市,夜須町十ノ木,コウチケン,コウナンシ,ヤスチョウトオノキ,高知県香南市夜須町十ノ木
7815606,高知県,香南市,夜須町上夜須,コウチケン,コウナンシ,ヤスチョウカミヤス,高知県香南市夜須町上夜須
7815611,高知県,香南市,夜須町夜須川,コウチケン,コウナンシ,ヤスチョウヤスガワ,高知県香南市夜須町夜須川
7815612,高知県,香南市,夜須町細川,コウチケン,コウナンシ,ヤスチョウホソカワ,高知県香南市夜須町細川
7815613,高知県,香南市,夜須町国光,コウチケン,コウナンシ,ヤスチョウクニミツ,高知県香南市夜須町国光
7815614,高知県,香南市,夜須町羽尾,コウチケン,コウナンシ,ヤスチョウハオ,高知県香南市夜須町羽尾
7815615,高知県,香南市,夜須町沢谷,コウチケン,コウナンシ,ヤスチョウサワタニ,高知県香南市夜須町沢谷
7815616,高知県,香南市,夜須町仲木屋,コウチケン,コウナンシ,ヤスチョウナカギヤ,高知県香南市夜須町仲木屋
7815621,高知県,香南市,夜須町手結,コウチケン,コウナンシ,ヤスチョウテイ,高知県香南市夜須町手結
7815622,高知県,香南市,夜須町手結山,コウチケン,コウナンシ,ヤスチョウテイヤマ,高知県香南市夜須町手結山
7815700,高知県,安芸郡芸西村,,コウチケン,アキグンゲイセイムラ,,高知県安芸郡芸西村
7815701,高知県,安芸郡芸西村,和食甲,コウチケン,アキグンゲイセイムラ,ワジキコウ,高知県安芸郡芸西村和食甲
7815702,高知県,安芸郡芸西村,和食乙,コウチケン,アキグンゲイセイムラ,ワジキオツ,高知県安芸郡芸西村和食乙
7815703,高知県,安芸郡芸西村,西分甲,コウチケン,アキグンゲイセイムラ,ニシブンコウ,高知県安芸郡芸西村西分甲
7815704,高知県,安芸郡芸西村,西分乙,コウチケン,アキグンゲイセイムラ,ニシブンオツ,高知県安芸郡芸西村西分乙
7815705,高知県,安芸郡芸西村,馬ノ上,コウチケン,アキグンゲイセイムラ,ウマノウエ,高知県安芸郡芸西村馬ノ上
7815706,高知県,安芸郡芸西村,道家,コウチケン,アキグンゲイセイムラ,ドウケ,高知県安芸郡芸西村道家
7815707,高知県,安芸郡芸西村,国光,コウチケン,アキグンゲイセイムラ,クニミツ,高知県安芸郡芸西村国光
7815708,高知県,安芸郡芸西村,久重,コウチケン,アキグンゲイセイムラ,クエ,高知県安芸郡芸西村久重
7816200,高知県,安芸郡馬路村,,コウチケン,アキグンウマジムラ,,高知県安芸郡馬路村
7816201,高知県,安芸郡馬路村,馬路,コウチケン,アキグンウマジムラ,ウマジ,高知県安芸郡馬路村馬路
7816202,高知県,安芸郡馬路村,魚梁瀬,コウチケン,アキグンウマジムラ,ヤナセ,高知県安芸郡馬路村魚梁瀬
7816400,高知県,安芸郡北川村,,コウチケン,アキグンキタガワムラ,,高知県安芸郡北川村
7816400,高知県,安芸郡奈半利町,,コウチケン,アキグンナハリチョウ,,高知県安芸郡奈半利町
7816400,高知県,安芸郡安田町,,コウチケン,アキグンヤスダチョウ,,高知県安芸郡安田町
7816401,高知県,安芸郡奈半利町,甲,コウチケン,アキグンナハリチョウ,コウ,高知県安芸郡奈半利町甲
7816402,高知県,安芸郡奈半利町,乙,コウチケン,アキグンナハリチョウ,オツ,高知県安芸郡奈半利町乙
7816403,高知県,安芸郡奈半利町,丙,コウチケン,アキグンナハリチョウ,ヘイ,高知県安芸郡奈半利町丙
7816410,高知県,安芸郡田野町,,コウチケン,アキグンタノチョウ,,高知県安芸郡田野町
7816421,高知県,安芸郡安田町,安田,コウチケン,アキグンヤスダチョウ,ヤスダ,高知県安芸郡安田町安田
7816422,高知県,安芸郡安田町,唐浜,コウチケン,アキグンヤスダチョウ,トウノハマ,高知県安芸郡安田町唐浜
7816423,高知県,安芸郡安田町,西島,コウチケン,アキグンヤスダチョウ,ニシジマ,高知県安芸郡安田町西島
7816424,高知県,安芸郡安田町,隆見,コウチケン,アキグンヤスダチョウ,タカミ,高知県安芸郡安田町隆見
7816425,高知県,安芸郡安田町,東島,コウチケン,アキグンヤスダチョウ,ヒガシジマ,高知県安芸郡安田町東島
7816426,高知県,安芸郡安田町,間下,コウチケン,アキグンヤスダチョウ,マゲ,高知県安芸郡安田町間下
7816427,高知県,安芸郡安田町,内京坊,コウチケン,アキグンヤスダチョウ,ナイキョウボウ,高知県安芸郡安田町内京坊
7816430,高知県,安芸郡安田町,正弘,コウチケン,アキグンヤスダチョウ,マサヒロ,高知県安芸郡安田町正弘
7816431,高知県,安芸郡安田町,別所,コウチケン,アキグンヤスダチョウ,ベッシヨ,高知県安芸郡安田町別所
7816432,高知県,安芸郡安田町,西ノ川,コウチケン,アキグンヤスダチョウ,ニシノカワ,高知県安芸郡安田町西ノ川
7816433,高知県,安芸郡安田町,中ノ川,コウチケン,アキグンヤスダチョウ,ナカノカワ,高知県安芸郡安田町中ノ川
7816434,高知県,安芸郡安田町,与床,コウチケン,アキグンヤスダチョウ,ヨドコ,高知県安芸郡安田町与床
7816435,高知県,安芸郡安田町,船倉,コウチケン,アキグンヤスダチョウ,フナクラ,高知県安芸郡安田町船倉
7816436,高知県,安芸郡安田町,瀬切,コウチケン,アキグンヤスダチョウ,セギリ,高知県安芸郡安田町瀬切
7816437,高知県,安芸郡安田町,中里,コウチケン,アキグンヤスダチョウ,ナカザト,高知県安芸郡安田町中里
7816438,高知県,安芸郡安田町,小川,コウチケン,アキグンヤスダチョウ,オガワ,高知県安芸郡安田町小川
7816439,高知県,安芸郡安田町,日々入,コウチケン,アキグンヤスダチョウ,ヒビイリ,高知県安芸郡安田町日々入
7816441,高知県,安芸郡北川村,野友甲,コウチケン,アキグンキタガワムラ,ノトモコウ,高知県安芸郡北川村野友甲
7816442,高知県,安芸郡北川村,野友乙,コウチケン,アキグンキタガワムラ,ノトモオツ,高知県安芸郡北川村野友乙
7816443,高知県,安芸郡北川村,加茂,コウチケン,アキグンキタガワムラ,カモ,高知県安芸郡北川村加茂
7816444,高知県,安芸郡北川村,野川,コウチケン,アキグンキタガワムラ,ノガワ,高知県安芸郡北川村野川
7816445,高知県,安芸郡北川村,長山,コウチケン,アキグンキタガワムラ,ナガヤマ,高知県安芸郡北川村長山
7816446,高知県,安芸郡北川村,西谷,コウチケン,アキグンキタガワムラ,ニシダニ,高知県安芸郡北川村西谷
7816447,高知県,安芸郡北川村,木積,コウチケン,アキグンキタガワムラ,コツモ,高知県安芸郡北川村木積
7816448,高知県,安芸郡北川村,宗ノ上,コウチケン,アキグンキタガワムラ,ソウノウエ,高知県安芸郡北川村宗ノ上
7816449,高知県,安芸郡北川村,柏木,コウチケン,アキグンキタガワムラ,カシワギ,高知県安芸郡北川村柏木
7816450,高知県,安芸郡北川村,和田,コウチケン,アキグンキタガワムラ,ワダ,高知県安芸郡北川村和田
7816451,高知県,安芸郡北川村,小島,コウチケン,アキグンキタガワムラ,コシマ,高知県安芸郡北川村小島
7816452,高知県,安芸郡北川村,平鍋,コウチケン,アキグンキタガワムラ,ヒラナベ,高知県安芸郡北川村平鍋
7816453,高知県,安芸郡北川村,二タ又,コウチケン,アキグンキタガワムラ,フタマタ,高知県安芸郡北川村二タ又
7816454,高知県,安芸郡北川村,島,コウチケン,アキグンキタガワムラ,シマ,高知県安芸郡北川村島
7816455,高知県,安芸郡北川村,久江ノ上,コウチケン,アキグンキタガワムラ,クエノウエ,高知県安芸郡北川村久江ノ上
7816456,高知県,安芸郡北川村,久木,コウチケン,アキグンキタガワムラ,クキ,高知県安芸郡北川村久木
7816457,高知県,安芸郡北川村,弘瀬,コウチケン,アキグンキタガワムラ,ヒロセ,高知県安芸郡北川村弘瀬
7816458,高知県,安芸郡北川村,安倉,コウチケン,アキグンキタガワムラ,アグラ,高知県安芸郡北川村安倉
7816459,高知県,安芸郡北川村,菅ノ上,コウチケン,アキグンキタガワムラ,スゲノウエ,高知県安芸郡北川村菅ノ上
7816460,高知県,安芸郡北川村,竹屋敷,コウチケン,アキグンキタガワムラ,タケヤシキ,高知県安芸郡北川村竹屋敷
7816741,高知県,室戸市,羽根町甲,コウチケン,ムロトシ,ハネチョウコウ,高知県室戸市羽根町甲
7816742,高知県,室戸市,羽根町乙,コウチケン,ムロトシ,ハネチョウオツ,高知県室戸市羽根町乙
7816831,高知県,室戸市,吉良川町乙,コウチケン,ムロトシ,キラガワチョウオツ,高知県室戸市吉良川町乙
7816832,高知県,室戸市,吉良川町甲,コウチケン,ムロトシ,キラガワチョウコウ,高知県室戸市吉良川町甲
7816833,高知県,室戸市,吉良川町丙,コウチケン,ムロトシ,キラガワチョウヘイ,高知県室戸市吉良川町丙
7817100,高知県,室戸市,,コウチケン,ムロトシ,,高知県室戸市
7817101,高知県,室戸市,室戸岬町,コウチケン,ムロトシ,ムロトミサキチョウ,高知県室戸市室戸岬町
7817102,高知県,室戸市,室津,コウチケン,ムロトシ,ムロツ,高知県室戸市室津
7817103,高知県,室戸市,浮津,コウチケン,ムロトシ,ウキツ,高知県室戸市浮津
7817104,高知県,室戸市,浮津一番町,コウチケン,ムロトシ,ウキツ1バンチョウ,高知県室戸市浮津一番町
7817105,高知県,室戸市,浮津二番町,コウチケン,ムロトシ,ウキツ2バンチョウ,高知県室戸市浮津二番町
7817106,高知県,室戸市,浮津三番町,コウチケン,ムロトシ,ウキツ3バンチョウ,高知県室戸市浮津三番町
7817107,高知県,室戸市,元甲,コウチケン,ムロトシ,モトコウ,高知県室戸市元甲
7817108,高知県,室戸市,元乙,コウチケン,ムロトシ,モトオツ,高知県室戸市元乙
7817109,高知県,室戸市,領家,コウチケン,ムロトシ,リョウケ,高知県室戸市領家
7817220,高知県,室戸市,佐喜浜町,コウチケン,ムロトシ,サキハマチョウ,高知県室戸市佐喜浜町
7817300,高知県,安芸郡東洋町,,コウチケン,アキグントウヨウチョウ,,高知県安芸郡東洋町
7817301,高知県,安芸郡東洋町,野根丙,コウチケン,アキグントウヨウチョウ,ノネヘイ,高知県安芸郡東洋町野根丙
7817302,高知県,安芸郡東洋町,野根甲,コウチケン,アキグントウヨウチョウ,ノネコウ,高知県安芸郡東洋町野根甲
7817303,高知県,安芸郡東洋町,野根丁,コウチケン,アキグントウヨウチョウ,ノネテイ,高知県安芸郡東洋町野根丁
7817304,高知県,安芸郡東洋町,野根乙,コウチケン,アキグントウヨウチョウ,ノネオツ,高知県安芸郡東洋町野根乙
7817411,高知県,安芸郡東洋町,甲浦,コウチケン,アキグントウヨウチョウ,カンノウラ,高知県安芸郡東洋町甲浦
7817412,高知県,安芸郡東洋町,河内,コウチケン,アキグントウヨウチョウ,カワウチ,高知県安芸郡東洋町河内
7817413,高知県,安芸郡東洋町,白浜,コウチケン,アキグントウヨウチョウ,シラハマ,高知県安芸郡東洋町白浜
7817414,高知県,安芸郡東洋町,生見,コウチケン,アキグントウヨウチョウ,イクミ,高知県安芸郡東洋町生見
7818001,高知県,高知市,土居町,コウチケン,コウチシ,ドイマチ,高知県高知市土居町
7818002,高知県,高知市,役知町,コウチケン,コウチシ,ヤクチチョウ,高知県高知市役知町
7818003,高知県,高知市,北新田町,コウチケン,コウチシ,キタシンタチョウ,高知県高知市北新田町
7818004,高知県,高知市,新田町,コウチケン,コウチシ,シンタチョウ,高知県高知市新田町
7818005,高知県,高知市,南新田町,コウチケン,コウチシ,ミナミシンタチョウ,高知県高知市南新田町
7818006,高知県,高知市,萩町,コウチケン,コウチシ,ハギマチ,高知県高知市萩町
7818007,高知県,高知市,仲田町,コウチケン,コウチシ,ナカタチョウ,高知県高知市仲田町
7818008,高知県,高知市,潮新町,コウチケン,コウチシ,ウシオシンマチ,高知県高知市潮新町
7818010,高知県,高知市,桟橋通,コウチケン,コウチシ,サンバシドオリ,高知県高知市桟橋通
7818016,高知県,高知市,南ノ丸町,コウチケン,コウチシ,ミナミノマルチョウ,高知県高知市南ノ丸町
7818101,高知県,高知市,高須砂地,コウチケン,コウチシ,タカススナヂ,高知県高知市高須砂地
7818102,高知県,高知市,高須本町,コウチケン,コウチシ,タカスホンマチ,高知県高知市高須本町
7818103,高知県,高知市,高須新木,コウチケン,コウチシ,タカスシンギ,高知県高知市高須新木
7818104,高知県,高知市,高須（丁目）,コウチケン,コウチシ,タカス(チョウメ),高知県高知市高須（丁目）
7818105,高知県,高知市,高須東町,コウチケン,コウチシ,タカスヒガシマチ,高知県高知市高須東町
7818111,高知県,高知市,高須大島,コウチケン,コウチシ,タカスオオシマ,高知県高知市高須大島
7818112,高知県,高知市,高須大谷,コウチケン,コウチシ,タカスオオタニ,高知県高知市高須大谷
7818113,高知県,高知市,高須絶海,コウチケン,コウチシ,タカスタルミ,高知県高知市高須絶海
7818114,高知県,高知市,高須西町,コウチケン,コウチシ,タカスニシマチ,高知県高知市高須西町
7818121,高知県,高知市,葛島,コウチケン,コウチシ,カヅラシマ,高知県高知市葛島
7818122,高知県,高知市,高須新町,コウチケン,コウチシ,タカスシンマチ,高知県高知市高須新町
7818123,高知県,高知市,高須,コウチケン,コウチシ,タカス,高知県高知市高須
7818124,高知県,高知市,屋頭,コウチケン,コウチシ,ヤガシラ,高知県高知市屋頭
7818125,高知県,高知市,五台山,コウチケン,コウチシ,ゴダイサン,高知県高知市五台山
7818126,高知県,高知市,吸江,コウチケン,コウチシ,ギュウコウ,高知県高知市吸江
7818130,高知県,高知市,一宮,コウチケン,コウチシ,イック,高知県高知市一宮
7818131,高知県,高知市,一宮しなね,コウチケン,コウチシ,イックシナネ,高知県高知市一宮しなね
7818132,高知県,高知市,一宮東町,コウチケン,コウチシ,イックヒガシマチ,高知県高知市一宮東町
7818133,高知県,高知市,一宮徳谷,コウチケン,コウチシ,イックトクダニ,高知県高知市一宮徳谷
7818134,高知県,高知市,一宮中町,コウチケン,コウチシ,イックナカマチ,高知県高知市一宮中町
7818135,高知県,高知市,一宮南町,コウチケン,コウチシ,イックミナミマチ,高知県高知市一宮南町
7818136,高知県,高知市,一宮西町,コウチケン,コウチシ,イックニシマチ,高知県高知市一宮西町
7820000,高知県,香美市,,コウチケン,カミシ,,高知県香美市
7820001,高知県,香美市,土佐山田町杉田,コウチケン,カミシ,トサヤマダチョウスイタ,高知県香美市土佐山田町杉田
7820002,高知県,香美市,土佐山田町船谷,コウチケン,カミシ,トサヤマダチョウフナダニ,高知県香美市土佐山田町船谷
7820003,高知県,香美市,土佐山田町宮ノ口,コウチケン,カミシ,トサヤマダチョウミヤノクチ,高知県香美市土佐山田町宮ノ口
7820004,高知県,香美市,土佐山田町間,コウチケン,カミシ,トサヤマダチョウハザマ,高知県香美市土佐山田町間
7820005,高知県,香美市,土佐山田町逆川,コウチケン,カミシ,トサヤマダチョウサカカワ,高知県香美市土佐山田町逆川
7820006,高知県,香美市,土佐山田町影山,コウチケン,カミシ,トサヤマダチョウカゲヤマ,高知県香美市土佐山田町影山
7820007,高知県,香美市,土佐山田町林田,コウチケン,カミシ,トサヤマダチョウハヤシダ,高知県香美市土佐山田町林田
7820008,高知県,香美市,土佐山田町佐古薮,コウチケン,カミシ,トサヤマダチョウサコヤブ,高知県香美市土佐山田町佐古薮
7820009,高知県,香美市,土佐山田町神母ノ木,コウチケン,カミシ,トサヤマダチョウイゲノキ,高知県香美市土佐山田町神母ノ木
7820010,高知県,香美市,土佐山田町テクノパーク,コウチケン,カミシ,トサヤマダチョウテクノパーク,高知県香美市土佐山田町テクノパーク
7820011,高知県,香美市,土佐山田町山田島,コウチケン,カミシ,トサヤマダチョウヤマダジマ,高知県香美市土佐山田町山田島
7820012,高知県,香美市,土佐山田町加茂,コウチケン,カミシ,トサヤマダチョウカモ,高知県香美市土佐山田町加茂
7820013,高知県,香美市,土佐山田町町田,コウチケン,カミシ,トサヤマダチョウマチダ,高知県香美市土佐山田町町田
7820014,高知県,香美市,土佐山田町小田島,コウチケン,カミシ,トサヤマダチョウオダジマ,高知県香美市土佐山田町小田島
7820015,高知県,香美市,土佐山田町下ノ村,コウチケン,カミシ,トサヤマダチョウシモノムラ,高知県香美市土佐山田町下ノ村
7820016,高知県,香美市,土佐山田町山田（小島、八王子、原）,コウチケン,カミシ,トサヤマダチョウヤマダ(コジマ、ハチオウジ、ハラ),高知県香美市土佐山田町山田（小島、八王子、原）
7820017,高知県,香美市,土佐山田町岩積,コウチケン,カミシ,トサヤマダチョウイワズミ,高知県香美市土佐山田町岩積
7820018,高知県,香美市,土佐山田町戸板島,コウチケン,カミシ,トサヤマダチョウトイタジマ,高知県香美市土佐山田町戸板島
7820019,高知県,香美市,土佐山田町中野,コウチケン,カミシ,トサヤマダチョウナカノ,高知県香美市土佐山田町中野
7820021,高知県,香美市,土佐山田町岩次,コウチケン,カミシ,トサヤマダチョウイワツギ,高知県香美市土佐山田町岩次
7820022,高知県,香美市,土佐山田町京田（立石）,コウチケン,カミシ,トサヤマダチョウキョウデン(タテイシ),高知県香美市土佐山田町京田（立石）
7820023,高知県,香美市,土佐山田町京田（その他）,コウチケン,カミシ,トサヤマダチョウキョウデン(ソノタ),高知県香美市土佐山田町京田（その他）
7820024,高知県,香美市,土佐山田町神通寺,コウチケン,カミシ,トサヤマダチョウジンツウジ,高知県香美市土佐山田町神通寺
7820025,高知県,香美市,土佐山田町松本,コウチケン,カミシ,トサヤマダチョウマツモト,高知県香美市土佐山田町松本
7820031,高知県,香美市,土佐山田町東本町,コウチケン,カミシ,トサヤマダチョウヒガシホンマチ,高知県香美市土佐山田町東本町
7820032,高知県,香美市,土佐山田町西本町,コウチケン,カミシ,トサヤマダチョウニシホンマチ,高知県香美市土佐山田町西本町
7820033,高知県,香美市,土佐山田町旭町,コウチケン,カミシ,トサヤマダチョウアサヒマチ,高知県香美市土佐山田町旭町
7820034,高知県,香美市,土佐山田町宝町,コウチケン,カミシ,トサヤマダチョウタカラマチ,高知県香美市土佐山田町宝町
7820035,高知県,香美市,土佐山田町百石町,コウチケン,カミシ,トサヤマダチョウヒャッコクチョウ,高知県香美市土佐山田町百石町
7820036,高知県,香美市,土佐山田町（古町）,コウチケン,カミシ,トサヤマダチョウ(フルマチ),高知県香美市土佐山田町（古町）
7820037,高知県,香美市,土佐山田町宮前町,コウチケン,カミシ,トサヤマダチョウミヤマエチョウ,高知県香美市土佐山田町宮前町
7820038,高知県,香美市,土佐山田町秦山町,コウチケン,カミシ,トサヤマダチョウジンザンチョウ,高知県香美市土佐山田町秦山町
7820039,高知県,香美市,土佐山田町栄町,コウチケン,カミシ,トサヤマダチョウサカエマチ,高知県香美市土佐山田町栄町
7820041,高知県,香美市,土佐山田町（北本町）,コウチケン,カミシ,トサヤマダチョウ(キタホンマチ),高知県香美市土佐山田町（北本町）
7820042,高知県,香美市,土佐山田町（前山）,コウチケン,カミシ,トサヤマダチョウ(マエヤマ),高知県香美市土佐山田町（前山）
7820043,高知県,香美市,土佐山田町（北組西）,コウチケン,カミシ,トサヤマダチョウ(キタグミニシ),高知県香美市土佐山田町（北組西）
7820044,高知県,香美市,土佐山田町（中組）,コウチケン,カミシ,トサヤマダチョウ(ナカグミ),高知県香美市土佐山田町（中組）
7820045,高知県,香美市,土佐山田町（黒土）,コウチケン,カミシ,トサヤマダチョウ(クロツチ),高知県香美市土佐山田町（黒土）
7820046,高知県,香美市,土佐山田町（南組）,コウチケン,カミシ,トサヤマダチョウ(ミナミグミ),高知県香美市土佐山田町（南組）
7820047,高知県,香美市,土佐山田町（その他）,コウチケン,カミシ,トサヤマダチョウ(ソノタ),高知県香美市土佐山田町（その他）
7820051,高知県,香美市,土佐山田町楠目（油石、前行、談議所、中村、平田、伏原、予岳）,コウチケン,カミシ,トサヤマダチョウクズメ(アブライシ、ゼンギョウ、ダンギショ、ナカムラ、ヒラタ、フシハラ、ヨガク),高知県香美市土佐山田町楠目（油石、前行、談議所、中村、平田、伏原、予岳）
7820054,高知県,香美市,土佐山田町植,コウチケン,カミシ,トサヤマダチョウウエ,高知県香美市土佐山田町植
7820055,高知県,香美市,土佐山田町須江,コウチケン,カミシ,トサヤマダチョウスエ,高知県香美市土佐山田町須江
7820056,高知県,香美市,土佐山田町上改田,コウチケン,カミシ,トサヤマダチョウカミカイダ,高知県香美市土佐山田町上改田
7820057,高知県,香美市,土佐山田町久次,コウチケン,カミシ,トサヤマダチョウヒサツギ,高知県香美市土佐山田町久次
7820058,高知県,香美市,土佐山田町新改,コウチケン,カミシ,トサヤマダチョウシンガイ,高知県香美市土佐山田町新改
7820059,高知県,香美市,土佐山田町入野,コウチケン,カミシ,トサヤマダチョウイリノ,高知県香美市土佐山田町入野
7820061,高知県,香美市,土佐山田町曽我部川,コウチケン,カミシ,トサヤマダチョウソガベガワ,高知県香美市土佐山田町曽我部川
7820062,高知県,香美市,土佐山田町平山（その他）,コウチケン,カミシ,トサヤマダチョウヒラヤマ(ソノタ),高知県香美市土佐山田町平山（その他）
7820063,高知県,香美市,土佐山田町東川,コウチケン,カミシ,トサヤマダチョウヒガシガワ,高知県香美市土佐山田町東川
7820064,高知県,香美市,土佐山田町大法寺,コウチケン,カミシ,トサヤマダチョウダイホウジ,高知県香美市土佐山田町大法寺
7820071,高知県,香美市,土佐山田町佐竹,コウチケン,カミシ,トサヤマダチョウサタケ,高知県香美市土佐山田町佐竹
7820072,高知県,香美市,土佐山田町有谷,コウチケン,カミシ,トサヤマダチョウアラタニ,高知県香美市土佐山田町有谷
7820073,高知県,香美市,土佐山田町中後入,コウチケン,カミシ,トサヤマダチョウナカゴウニュウ,高知県香美市土佐山田町中後入
7820074,高知県,香美市,土佐山田町大後入,コウチケン,カミシ,トサヤマダチョウオオゴウニュウ,高知県香美市土佐山田町大後入
7820075,高知県,香美市,土佐山田町西後入,コウチケン,カミシ,トサヤマダチョウニシゴニュウ,高知県香美市土佐山田町西後入
7820076,高知県,香美市,土佐山田町本村,コウチケン,カミシ,トサヤマダチョウホンムラ,高知県香美市土佐山田町本村
7820077,高知県,香美市,土佐山田町佐野（仁井田）,コウチケン,カミシ,トサヤマダチョウサノ(ニイダ),高知県香美市土佐山田町佐野（仁井田）
7820078,高知県,香美市,土佐山田町大平,コウチケン,カミシ,トサヤマダチョウオオヒラ,高知県香美市土佐山田町大平
7820079,高知県,香美市,土佐山田町佐野（その他）,コウチケン,カミシ,トサヤマダチョウサノ(ソノタ),高知県香美市土佐山田町佐野（その他）
7830000,高知県,南国市,,コウチケン,ナンコクシ,,高知県南国市
7830001,高知県,南国市,日吉町,コウチケン,ナンコクシ,ヒヨシチョウ,高知県南国市日吉町
7830002,高知県,南国市,駅前町,コウチケン,ナンコクシ,エキマエチョウ,高知県南国市駅前町
7830003,高知県,南国市,西野田町,コウチケン,ナンコクシ,ニシノダチョウ,高知県南国市西野田町
7830004,高知県,南国市,大そね甲,コウチケン,ナンコクシ,オオソネコウ,高知県南国市大そね甲
7830005,高知県,南国市,大そね乙,コウチケン,ナンコクシ,オオソネオツ,高知県南国市大そね乙
7830006,高知県,南国市,篠原,コウチケン,ナンコクシ,シノハラ,高知県南国市篠原
7830007,高知県,南国市,明見,コウチケン,ナンコクシ,ミョウケン,高知県南国市明見
7830008,高知県,南国市,伊達野,コウチケン,ナンコクシ,イタチノ,高知県南国市伊達野
7830011,高知県,南国市,後免町,コウチケン,ナンコクシ,ゴメンマチ,高知県南国市後免町
7830012,高知県,南国市,東山町,コウチケン,ナンコクシ,ヒガシヤママチ,高知県南国市東山町
7830013,高知県,南国市,幸町,コウチケン,ナンコクシ,サイワイチョウ,高知県南国市幸町
7830014,高知県,南国市,元町,コウチケン,ナンコクシ,モトマチ,高知県南国市元町
7830021,高知県,南国市,野中,コウチケン,ナンコクシ,ノナカ,高知県南国市野中
7830022,高知県,南国市,小籠,コウチケン,ナンコクシ,コゴメ,高知県南国市小籠
7830023,高知県,南国市,廿枝,コウチケン,ナンコクシ,ハタエダ,高知県南国市廿枝
7830024,高知県,南国市,東崎,コウチケン,ナンコクシ,ヒガシザキ,高知県南国市東崎
7830025,高知県,南国市,下末松,コウチケン,ナンコクシ,シモスエマツ,高知県南国市下末松
7830026,高知県,南国市,上末松,コウチケン,ナンコクシ,カミスエマツ,高知県南国市上末松
7830027,高知県,南国市,三畠,コウチケン,ナンコクシ,サンバク,高知県南国市三畠
7830028,高知県,南国市,陣山,コウチケン,ナンコクシ,ジンヤマ,高知県南国市陣山
7830029,高知県,南国市,西山,コウチケン,ナンコクシ,ニシヤマ,高知県南国市西山
7830031,高知県,南国市,下野田,コウチケン,ナンコクシ,シモノダ,高知県南国市下野田
7830032,高知県,南国市,上野田,コウチケン,ナンコクシ,カミノダ,高知県南国市上野田
7830033,高知県,南国市,包末,コウチケン,ナンコクシ,カノスエ,高知県南国市包末
7830034,高知県,南国市,堀ノ内,コウチケン,ナンコクシ,ホリノウチ,高知県南国市堀ノ内
7830035,高知県,南国市,金地,コウチケン,ナンコクシ,カナジ,高知県南国市金地
7830036,高知県,南国市,福船,コウチケン,ナンコクシ,フクブネ,高知県南国市福船
7830037,高知県,南国市,蔵福寺島,コウチケン,ナンコクシ,ゾウフクジジマ,高知県南国市蔵福寺島
7830040,高知県,南国市,岡豊町滝本,コウチケン,ナンコクシ,オコウチョウタキモト,高知県南国市岡豊町滝本
7830041,高知県,南国市,岡豊町定林寺,コウチケン,ナンコクシ,オコウチョウジョウリンジ,高知県南国市岡豊町定林寺
7830042,高知県,南国市,岡豊町蒲原,コウチケン,ナンコクシ,オコウチョウカモハラ,高知県南国市岡豊町蒲原
7830043,高知県,南国市,岡豊町小蓮,コウチケン,ナンコクシ,オコウチョウコハス,高知県南国市岡豊町小蓮
7830044,高知県,南国市,岡豊町八幡,コウチケン,ナンコクシ,オコウチョウヤハタ,高知県南国市岡豊町八幡
7830045,高知県,南国市,岡豊町吉田,コウチケン,ナンコクシ,オコウチョウヨシダ,高知県南国市岡豊町吉田
7830046,高知県,南国市,岡豊町江村,コウチケン,ナンコクシ,オコウチョウエムラ,高知県南国市岡豊町江村
7830047,高知県,南国市,岡豊町常通寺島,コウチケン,ナンコクシ,オコウチョウジョウツウジシマ,高知県南国市岡豊町常通寺島
7830048,高知県,南国市,岡豊町小篭,コウチケン,ナンコクシ,オコウチョウコゴメ,高知県南国市岡豊町小篭
7830049,高知県,南国市,岡豊町中島,コウチケン,ナンコクシ,オコウチョウナカジマ,高知県南国市岡豊町中島
7830051,高知県,南国市,岡豊町笠ノ川,コウチケン,ナンコクシ,オコウチョウカサノカワ,高知県南国市岡豊町笠ノ川
7830052,高知県,南国市,左右山,コウチケン,ナンコクシ,ソヤマ,高知県南国市左右山
7830053,高知県,南国市,国分,コウチケン,ナンコクシ,コクブ,高知県南国市国分
7830054,高知県,南国市,比江,コウチケン,ナンコクシ,ヒエ,高知県南国市比江
7830055,高知県,南国市,双葉台,コウチケン,ナンコクシ,フタバダイ,高知県南国市双葉台
7830056,高知県,南国市,領石,コウチケン,ナンコクシ,リョウセキ,高知県南国市領石
7830057,高知県,南国市,八京,コウチケン,ナンコクシ,ヤキョウ,高知県南国市八京
7830058,高知県,南国市,白木谷,コウチケン,ナンコクシ,シラキダニ,高知県南国市白木谷
7830060,高知県,南国市,蛍が丘,コウチケン,ナンコクシ,ホタルガオカ,高知県南国市蛍が丘
7830061,高知県,南国市,植野,コウチケン,ナンコクシ,ウエノ,高知県南国市植野
7830062,高知県,南国市,久礼田,コウチケン,ナンコクシ,クレダ,高知県南国市久礼田
7830063,高知県,南国市,植田,コウチケン,ナンコクシ,ウエタ,高知県南国市植田
7830064,高知県,南国市,宍崎,コウチケン,ナンコクシ,シシザキ,高知県南国市宍崎
7830065,高知県,南国市,外山,コウチケン,ナンコクシ,トヤマ,高知県南国市外山
7830066,高知県,南国市,成合,コウチケン,ナンコクシ,ナレアイ,高知県南国市成合
7830067,高知県,南国市,天行寺,コウチケン,ナンコクシ,テンギョウジ,高知県南国市天行寺
7830068,高知県,南国市,才谷,コウチケン,ナンコクシ,サイダニ,高知県南国市才谷
7830071,高知県,南国市,亀岩,コウチケン,ナンコクシ,カメイワ,高知県南国市亀岩
7830072,高知県,南国市,奈路,コウチケン,ナンコクシ,ナロ,高知県南国市奈路
7830073,高知県,南国市,中谷,コウチケン,ナンコクシ,ナカダニ,高知県南国市中谷
7830074,高知県,南国市,上倉,コウチケン,ナンコクシ,アゲクラ,高知県南国市上倉
7830075,高知県,南国市,桑ノ川,コウチケン,ナンコクシ,クワノカワ,高知県南国市桑ノ川
7830076,高知県,南国市,黒滝,コウチケン,ナンコクシ,クロタキ,高知県南国市黒滝
7830077,高知県,南国市,大改野,コウチケン,ナンコクシ,オオガイノ,高知県南国市大改野
7830078,高知県,南国市,中ノ川,コウチケン,ナンコクシ,ナカノカワ,高知県南国市中ノ川
7830081,高知県,南国市,片山,コウチケン,ナンコクシ,カタヤマ,高知県南国市片山
7830082,高知県,南国市,里改田,コウチケン,ナンコクシ,サトカイダ,高知県南国市里改田
7830083,高知県,南国市,浜改田,コウチケン,ナンコクシ,ハマカイダ,高知県南国市浜改田
7830084,高知県,南国市,稲生,コウチケン,ナンコクシ,イナブ,高知県南国市稲生
7830085,高知県,南国市,十市,コウチケン,ナンコクシ,トオチ,高知県南国市十市
7830086,高知県,南国市,緑ケ丘,コウチケン,ナンコクシ,ミドリガオカ,高知県南国市緑ケ丘
7830087,高知県,南国市,三和琴平,コウチケン,ナンコクシ,ミワコトヒラ,高知県南国市三和琴平
7830091,高知県,南国市,立田,コウチケン,ナンコクシ,タテダ,高知県南国市立田
7830092,高知県,南国市,田村,コウチケン,ナンコクシ,タムラ,高知県南国市田村
7830093,高知県,南国市,物部,コウチケン,ナンコクシ,モノベ,高知県南国市物部
7830094,高知県,南国市,前浜,コウチケン,ナンコクシ,マエハマ,高知県南国市前浜
7830095,高知県,南国市,下島,コウチケン,ナンコクシ,シモジマ,高知県南国市下島
7830096,高知県,南国市,久枝,コウチケン,ナンコクシ,ヒサエダ,高知県南国市久枝
7830097,高知県,南国市,日章あけぼの,コウチケン,ナンコクシ,ニッショウアケボノ,高知県南国市日章あけぼの
7840000,高知県,安芸市,,コウチケン,アキシ,,高知県安芸市
7840001,高知県,安芸市,矢ノ丸,コウチケン,アキシ,ヤノマル,高知県安芸市矢ノ丸
7840002,高知県,安芸市,花園町,コウチケン,アキシ,ハナゾノチョウ,高知県安芸市花園町
7840003,高知県,安芸市,久世町,コウチケン,アキシ,クセチョウ,高知県安芸市久世町
7840004,高知県,安芸市,本町,コウチケン,アキシ,ホンマチ,高知県安芸市本町
7840005,高知県,安芸市,港町,コウチケン,アキシ,ミナトマチ,高知県安芸市港町
7840006,高知県,安芸市,日ノ出町,コウチケン,アキシ,ヒノデチョウ,高知県安芸市日ノ出町
7840007,高知県,安芸市,寿町,コウチケン,アキシ,コトブキチョウ,高知県安芸市寿町
7840008,高知県,安芸市,清和町,コウチケン,アキシ,セイワチョウ,高知県安芸市清和町
7840010,高知県,安芸市,東浜,コウチケン,アキシ,ヒガシハマ,高知県安芸市東浜
7840020,高知県,安芸市,西浜,コウチケン,アキシ,ニシハマ,高知県安芸市西浜
7840021,高知県,安芸市,幸町,コウチケン,アキシ,サイワイチョウ,高知県安芸市幸町
7840022,高知県,安芸市,庄之芝町,コウチケン,アキシ,ショウノシバチョウ,高知県安芸市庄之芝町
7840023,高知県,安芸市,染井町,コウチケン,アキシ,ソメイチョウ,高知県安芸市染井町
7840024,高知県,安芸市,千歳町,コウチケン,アキシ,チトセチョウ,高知県安芸市千歳町
7840025,高知県,安芸市,津久茂町,コウチケン,アキシ,ツクモチョウ,高知県安芸市津久茂町
7840026,高知県,安芸市,桜ケ丘町,コウチケン,アキシ,サクラガオカチョウ,高知県安芸市桜ケ丘町
7840027,高知県,安芸市,宝永町,コウチケン,アキシ,ホウエイチョウ,高知県安芸市宝永町
7840028,高知県,安芸市,黒鳥,コウチケン,アキシ,クロドリ,高知県安芸市黒鳥
7840029,高知県,安芸市,植野,コウチケン,アキシ,ウエノ,高知県安芸市植野
7840031,高知県,安芸市,穴内甲,コウチケン,アキシ,アナナイコウ,高知県安芸市穴内甲
7840032,高知県,安芸市,穴内乙,コウチケン,アキシ,アナナイオツ,高知県安芸市穴内乙
7840033,高知県,安芸市,赤野甲,コウチケン,アキシ,アカノコウ,高知県安芸市赤野甲
7840034,高知県,安芸市,赤野乙,コウチケン,アキシ,アカノオツ,高知県安芸市赤野乙
7840041,高知県,安芸市,僧津,コウチケン,アキシ,ソウヅ,高知県安芸市僧津
7840042,高知県,安芸市,土居,コウチケン,アキシ,ドイ,高知県安芸市土居
7840043,高知県,安芸市,川北甲,コウチケン,アキシ,カワキタコウ,高知県安芸市川北甲
7840044,高知県,安芸市,川北乙,コウチケン,アキシ,カワキタオツ,高知県安芸市川北乙
7840045,高知県,安芸市,伊尾木,コウチケン,アキシ,イオキ,高知県安芸市伊尾木
7840046,高知県,安芸市,下山,コウチケン,アキシ,シモヤマ,高知県安芸市下山
7840051,高知県,安芸市,井ノ口甲,コウチケン,アキシ,イノクチコウ,高知県安芸市井ノ口甲
7840052,高知県,安芸市,井ノ口乙,コウチケン,アキシ,イノクチオツ,高知県安芸市井ノ口乙
7840053,高知県,安芸市,小谷,コウチケン,アキシ,オダニ,高知県安芸市小谷
7840054,高知県,安芸市,栃ノ木,コウチケン,アキシ,トチノキ,高知県安芸市栃ノ木
7840055,高知県,安芸市,尾川甲,コウチケン,アキシ,オガワコウ,高知県安芸市尾川甲
7840056,高知県,安芸市,尾川乙,コウチケン,アキシ,オガワオツ,高知県安芸市尾川乙
7840057,高知県,安芸市,安芸ノ川甲,コウチケン,アキシ,アキノカワコウ,高知県安芸市安芸ノ川甲
7840058,高知県,安芸市,安芸ノ川乙,コウチケン,アキシ,アキノカワオツ,高知県安芸市安芸ノ川乙
7840061,高知県,安芸市,畑山甲,コウチケン,アキシ,ハタヤマコウ,高知県安芸市畑山甲
7840062,高知県,安芸市,畑山乙,コウチケン,アキシ,ハタヤマオツ,高知県安芸市畑山乙
7840063,高知県,安芸市,畑山丙,コウチケン,アキシ,ハタヤマヘイ,高知県安芸市畑山丙
7840064,高知県,安芸市,舞川,コウチケン,アキシ,マイカワ,高知県安芸市舞川
7840065,高知県,香美市,物部町中津尾,コウチケン,カミシ,モノベチョウナカツオ,高知県香美市物部町中津尾
7840271,高知県,安芸市,奈比賀,コウチケン,アキシ,ナビカ,高知県安芸市奈比賀
7840272,高知県,安芸市,入河内,コウチケン,アキシ,ニュウガウチ,高知県安芸市入河内
7840273,高知県,安芸市,黒瀬,コウチケン,アキシ,クロセ,高知県安芸市黒瀬
7840274,高知県,安芸市,大井甲,コウチケン,アキシ,オオイコウ,高知県安芸市大井甲
7840275,高知県,安芸市,大井乙,コウチケン,アキシ,オオイオツ,高知県安芸市大井乙
7840276,高知県,安芸市,古井,コウチケン,アキシ,コイ,高知県安芸市古井
7840277,高知県,安芸市,島,コウチケン,アキシ,シマ,高知県安芸市島
7840278,高知県,安芸市,別役,コウチケン,アキシ,ベッチャク,高知県安芸市別役
7850000,高知県,須崎市,,コウチケン,スサキシ,,高知県須崎市
7850001,高知県,須崎市,原町,コウチケン,スサキシ,ハラマチ,高知県須崎市原町
7850002,高知県,須崎市,港町,コウチケン,スサキシ,ミナトマチ,高知県須崎市港町
7850003,高知県,須崎市,新町,コウチケン,スサキシ,シンマチ,高知県須崎市新町
7850004,高知県,須崎市,青木町,コウチケン,スサキシ,アオキマチ,高知県須崎市青木町
7850005,高知県,須崎市,東古市町,コウチケン,スサキシ,ヒガシフルイチマチ,高知県須崎市東古市町
7850006,高知県,須崎市,浜町,コウチケン,スサキシ,ハママチ,高知県須崎市浜町
7850007,高知県,須崎市,南古市町,コウチケン,スサキシ,ミナミフルイチマチ,高知県須崎市南古市町
7850008,高知県,須崎市,中町,コウチケン,スサキシ,ナカマチ,高知県須崎市中町
7850009,高知県,須崎市,西町,コウチケン,スサキシ,ニシマチ,高知県須崎市西町
7850010,高知県,須崎市,鍛冶町,コウチケン,スサキシ,カジマチ,高知県須崎市鍛冶町
7850011,高知県,須崎市,東糺町,コウチケン,スサキシ,ヒガシタダスマチ,高知県須崎市東糺町
7850012,高知県,須崎市,西糺町,コウチケン,スサキシ,ニシタダスマチ,高知県須崎市西糺町
7850013,高知県,須崎市,西古市町,コウチケン,スサキシ,ニシフルイチマチ,高知県須崎市西古市町
7850014,高知県,須崎市,横町,コウチケン,スサキシ,ヨコマチ,高知県須崎市横町
7850015,高知県,須崎市,幸町,コウチケン,スサキシ,サイワイマチ,高知県須崎市幸町
7850016,高知県,須崎市,栄町,コウチケン,スサキシ,サカエマチ,高知県須崎市栄町
7850017,高知県,須崎市,泉町,コウチケン,スサキシ,イズミマチ,高知県須崎市泉町
7850018,高知県,須崎市,須崎,コウチケン,スサキシ,スサキ,高知県須崎市須崎
7850021,高知県,須崎市,池ノ内,コウチケン,スサキシ,イケノウチ,高知県須崎市池ノ内
7850022,高知県,須崎市,下分甲,コウチケン,スサキシ,シモブンコウ,高知県須崎市下分甲
7850023,高知県,須崎市,下分乙,コウチケン,スサキシ,シモブンオツ,高知県須崎市下分乙
7850024,高知県,須崎市,安和,コウチケン,スサキシ,アワ,高知県須崎市安和
7850025,高知県,須崎市,下郷,コウチケン,スサキシ,シモゴウ,高知県須崎市下郷
7850026,高知県,須崎市,上分甲,コウチケン,スサキシ,カミブンコウ,高知県須崎市上分甲
7850027,高知県,須崎市,上分乙,コウチケン,スサキシ,カミブンオツ,高知県須崎市上分乙
7850028,高知県,須崎市,上分丙,コウチケン,スサキシ,カミブンヘイ,高知県須崎市上分丙
7850030,高知県,須崎市,多ノ郷甲,コウチケン,スサキシ,オオノゴウコウ,高知県須崎市多ノ郷甲
7850031,高知県,須崎市,山手町,コウチケン,スサキシ,ヤマテマチ,高知県須崎市山手町
7850032,高知県,須崎市,潮田町,コウチケン,スサキシ,シオタマチ,高知県須崎市潮田町
7850033,高知県,須崎市,大間西町,コウチケン,スサキシ,オオマニシマチ,高知県須崎市大間西町
7850034,高知県,須崎市,大間本町,コウチケン,スサキシ,オオマホンマチ,高知県須崎市大間本町
7850035,高知県,須崎市,大間東町,コウチケン,スサキシ,オオマヒガシマチ,高知県須崎市大間東町
7850036,高知県,須崎市,緑町,コウチケン,スサキシ,ミドリマチ,高知県須崎市緑町
7850037,高知県,須崎市,赤崎町,コウチケン,スサキシ,アカザキマチ,高知県須崎市赤崎町
7850041,高知県,須崎市,西崎町,コウチケン,スサキシ,ニシザキマチ,高知県須崎市西崎町
7850042,高知県,須崎市,妙見町,コウチケン,スサキシ,ミョウケンマチ,高知県須崎市妙見町
7850043,高知県,須崎市,土崎町,コウチケン,スサキシ,ツチザキマチ,高知県須崎市土崎町
7850044,高知県,須崎市,吾井郷乙,コウチケン,スサキシ,アイノゴウオツ,高知県須崎市吾井郷乙
7850045,高知県,須崎市,桑田山乙,コウチケン,スサキシ,ソウダヤマオツ,高知県須崎市桑田山乙
7850046,高知県,須崎市,桑田山甲,コウチケン,スサキシ,ソウダヤマコウ,高知県須崎市桑田山甲
7850047,高知県,須崎市,吾井郷甲,コウチケン,スサキシ,アイノゴウコウ,高知県須崎市吾井郷甲
7850051,高知県,須崎市,神田,コウチケン,スサキシ,コウダ,高知県須崎市神田
7850052,高知県,須崎市,押岡,コウチケン,スサキシ,オシオカ,高知県須崎市押岡
7850053,高知県,須崎市,久通,コウチケン,スサキシ,クツウ,高知県須崎市久通
7850054,高知県,須崎市,多ノ郷乙,コウチケン,スサキシ,オオノゴウオツ,高知県須崎市多ノ郷乙
7850055,高知県,須崎市,大谷,コウチケン,スサキシ,オオタニ,高知県須崎市大谷
7850056,高知県,須崎市,野見,コウチケン,スサキシ,ノミ,高知県須崎市野見
7850057,高知県,須崎市,桐間東,コウチケン,スサキシ,キリマヒガシ,高知県須崎市桐間東
7850058,高知県,須崎市,桐間南,コウチケン,スサキシ,キリマミナミ,高知県須崎市桐間南
7850059,高知県,須崎市,桐間西,コウチケン,スサキシ,キリマニシ,高知県須崎市桐間西
7850161,高知県,須崎市,浦ノ内西分,コウチケン,スサキシ,ウラノウチニシブン,高知県須崎市浦ノ内西分
7850162,高知県,須崎市,浦ノ内東分（その他）,コウチケン,スサキシ,ウラノウチヒガシブン(ソノタ),高知県須崎市浦ノ内東分（その他）
7850163,高知県,須崎市,浦ノ内東分（鳴無・坂内）,コウチケン,スサキシ,ウラノウチヒガシブン(オトナシ・サカウチ),高知県須崎市浦ノ内東分（鳴無・坂内）
7850164,高知県,須崎市,浦ノ内立目摺木,コウチケン,スサキシ,ウラノウチタチメスルギ,高知県須崎市浦ノ内立目摺木
7850165,高知県,須崎市,浦ノ内出見,コウチケン,スサキシ,ウラノウチイズミ,高知県須崎市浦ノ内出見
7850166,高知県,須崎市,浦ノ内塩間,コウチケン,スサキシ,ウラノウチシワイ,高知県須崎市浦ノ内塩間
7850167,高知県,須崎市,浦ノ内灰方,コウチケン,スサキシ,ウラノウチハイガタ,高知県須崎市浦ノ内灰方
7850171,高知県,須崎市,浦ノ内須ノ浦,コウチケン,スサキシ,ウラノウチスノウラ,高知県須崎市浦ノ内須ノ浦
7850172,高知県,須崎市,浦ノ内福良,コウチケン,スサキシ,ウラノウチフクラ,高知県須崎市浦ノ内福良
7850173,高知県,須崎市,浦ノ内今川内,コウチケン,スサキシ,ウラノウチコンガワウチ,高知県須崎市浦ノ内今川内
7850174,高知県,須崎市,浦ノ内下中山,コウチケン,スサキシ,ウラノウチシモナカヤマ,高知県須崎市浦ノ内下中山
7850200,高知県,高岡郡津野町,,コウチケン,タカオカグンツノチョウ,,高知県高岡郡津野町
7850201,高知県,高岡郡津野町,永野,コウチケン,タカオカグンツノチョウ,ナガノ,高知県高岡郡津野町永野
7850202,高知県,高岡郡津野町,姫野々,コウチケン,タカオカグンツノチョウ,ヒメノノ,高知県高岡郡津野町姫野々
7850203,高知県,高岡郡津野町,貝ノ川,コウチケン,タカオカグンツノチョウ,カイノカワ,高知県高岡郡津野町貝ノ川
7850204,高知県,高岡郡津野町,久保川,コウチケン,タカオカグンツノチョウ,クボカワ,高知県高岡郡津野町久保川
7850205,高知県,高岡郡津野町,西谷甲,コウチケン,タカオカグンツノチョウ,ニシダニコウ,高知県高岡郡津野町西谷甲
7850206,高知県,高岡郡津野町,樺の川,コウチケン,タカオカグンツノチョウ,カバノカワ,高知県高岡郡津野町樺の川
7850207,高知県,高岡郡津野町,新土居,コウチケン,タカオカグンツノチョウ,シンドイ,高知県高岡郡津野町新土居
7850208,高知県,高岡郡津野町,三間川,コウチケン,タカオカグンツノチョウ,ミマノカワ,高知県高岡郡津野町三間川
7850209,高知県,高岡郡津野町,西谷乙,コウチケン,タカオカグンツノチョウ,ニシダニオツ,高知県高岡郡津野町西谷乙
7850210,高知県,高岡郡津野町,貝ノ川床鍋,コウチケン,タカオカグンツノチョウ,カイノカワトコナベ,高知県高岡郡津野町貝ノ川床鍋
7850211,高知県,高岡郡津野町,白石甲,コウチケン,タカオカグンツノチョウ,シライシコウ,高知県高岡郡津野町白石甲
7850212,高知県,高岡郡津野町,白石乙,コウチケン,タカオカグンツノチョウ,シライシオツ,高知県高岡郡津野町白石乙
7850213,高知県,高岡郡津野町,白石丙,コウチケン,タカオカグンツノチョウ,シライシヘイ,高知県高岡郡津野町白石丙
7850214,高知県,高岡郡津野町,杉ノ川甲,コウチケン,タカオカグンツノチョウ,スギノカワコウ,高知県高岡郡津野町杉ノ川甲
7850215,高知県,高岡郡津野町,杉ノ川乙,コウチケン,タカオカグンツノチョウ,スギノカワオツ,高知県高岡郡津野町杉ノ川乙
7850216,高知県,高岡郡津野町,杉ノ川丙,コウチケン,タカオカグンツノチョウ,スギノカワヘイ,高知県高岡郡津野町杉ノ川丙
7850217,高知県,高岡郡津野町,黒川,コウチケン,タカオカグンツノチョウ,クロカワ,高知県高岡郡津野町黒川
7850218,高知県,高岡郡津野町,大野,コウチケン,タカオカグンツノチョウ,オオノ,高知県高岡郡津野町大野
7850219,高知県,高岡郡津野町,赤木,コウチケン,タカオカグンツノチョウ,アカギ,高知県高岡郡津野町赤木
7850411,高知県,高岡郡津野町,船戸,コウチケン,タカオカグンツノチョウ,フナト,高知県高岡郡津野町船戸
7850412,高知県,高岡郡津野町,桑ケ市,コウチケン,タカオカグンツノチョウ,クワガイチ,高知県高岡郡津野町桑ケ市
7850413,高知県,高岡郡津野町,烏出川,コウチケン,タカオカグンツノチョウ,カラスデガワ,高知県高岡郡津野町烏出川
7850501,高知県,高岡郡津野町,力石,コウチケン,タカオカグンツノチョウ,チカライシ,高知県高岡郡津野町力石
7850502,高知県,高岡郡津野町,北川,コウチケン,タカオカグンツノチョウ,キタガワ,高知県高岡郡津野町北川
7850503,高知県,高岡郡津野町,芳生野甲,コウチケン,タカオカグンツノチョウ,ヨシウノコウ,高知県高岡郡津野町芳生野甲
7850504,高知県,高岡郡津野町,芳生野乙,コウチケン,タカオカグンツノチョウ,ヨシウノオツ,高知県高岡郡津野町芳生野乙
7850505,高知県,高岡郡津野町,芳生野丙,コウチケン,タカオカグンツノチョウ,ヨシウノヘイ,高知県高岡郡津野町芳生野丙
7850600,高知県,高岡郡檮原町,,コウチケン,タカオカグンユスハラチョウ,,高知県高岡郡檮原町
7850601,高知県,高岡郡檮原町,永野,コウチケン,タカオカグンユスハラチョウ,ナガノ,高知県高岡郡檮原町永野
7850602,高知県,高岡郡檮原町,井の谷,コウチケン,タカオカグンユスハラチョウ,イノタニ,高知県高岡郡檮原町井の谷
7850603,高知県,高岡郡檮原町,太田戸,コウチケン,タカオカグンユスハラチョウ,オオタド,高知県高岡郡檮原町太田戸
7850604,高知県,高岡郡檮原町,横貝,コウチケン,タカオカグンユスハラチョウ,ヨコガイ,高知県高岡郡檮原町横貝
7850605,高知県,高岡郡檮原町,下本村,コウチケン,タカオカグンユスハラチョウ,シモホンムラ,高知県高岡郡檮原町下本村
7850606,高知県,高岡郡檮原町,上本村,コウチケン,タカオカグンユスハラチョウ,カミホンムラ,高知県高岡郡檮原町上本村
7850607,高知県,高岡郡檮原町,田野々,コウチケン,タカオカグンユスハラチョウ,タノノ,高知県高岡郡檮原町田野々
7850608,高知県,高岡郡檮原町,後別当,コウチケン,タカオカグンユスハラチョウ,ゴベットウ,高知県高岡郡檮原町後別当
7850610,高知県,高岡郡檮原町,檮原,コウチケン,タカオカグンユスハラチョウ,ユスハラ,高知県高岡郡檮原町檮原
7850611,高知県,高岡郡檮原町,飯母,コウチケン,タカオカグンユスハラチョウ,イイボ,高知県高岡郡檮原町飯母
7850612,高知県,高岡郡檮原町,川西路,コウチケン,タカオカグンユスハラチョウ,カワニシジ,高知県高岡郡檮原町川西路
7850613,高知県,高岡郡檮原町,大蔵谷,コウチケン,タカオカグンユスハラチョウ,オゾウタニ,高知県高岡郡檮原町大蔵谷
7850621,高知県,高岡郡檮原町,太郎川,コウチケン,タカオカグンユスハラチョウ,タロウガワ,高知県高岡郡檮原町太郎川
7850622,高知県,高岡郡檮原町,神在居,コウチケン,タカオカグンユスハラチョウ,カンザイコ,高知県高岡郡檮原町神在居
7850623,高知県,高岡郡檮原町,仲洞,コウチケン,タカオカグンユスハラチョウ,ナカトウ,高知県高岡郡檮原町仲洞
7850624,高知県,高岡郡檮原町,下折渡,コウチケン,タカオカグンユスハラチョウ,シモオリワタリ,高知県高岡郡檮原町下折渡
7850625,高知県,高岡郡檮原町,上折渡,コウチケン,タカオカグンユスハラチョウ,カミオリワタリ,高知県高岡郡檮原町上折渡
7850626,高知県,高岡郡檮原町,大野地,コウチケン,タカオカグンユスハラチョウ,オオノジ,高知県高岡郡檮原町大野地
7850627,高知県,高岡郡檮原町,影野地,コウチケン,タカオカグンユスハラチョウ,カゲノジ,高知県高岡郡檮原町影野地
7850631,高知県,高岡郡檮原町,佐渡,コウチケン,タカオカグンユスハラチョウ,サワタリ,高知県高岡郡檮原町佐渡
7850632,高知県,高岡郡檮原町,初瀬本村,コウチケン,タカオカグンユスハラチョウ,ハツセホンムラ,高知県高岡郡檮原町初瀬本村
7850633,高知県,高岡郡檮原町,豊原,コウチケン,タカオカグンユスハラチョウ,トヨハラ,高知県高岡郡檮原町豊原
7850634,高知県,高岡郡檮原町,仲久保,コウチケン,タカオカグンユスハラチョウ,ナカクボ,高知県高岡郡檮原町仲久保
7850635,高知県,高岡郡檮原町,川井,コウチケン,タカオカグンユスハラチョウ,カワイ,高知県高岡郡檮原町川井
7850636,高知県,高岡郡檮原町,川口,コウチケン,タカオカグンユスハラチョウ,カワグチ,高知県高岡郡檮原町川口
7850641,高知県,高岡郡檮原町,上成,コウチケン,タカオカグンユスハラチョウ,ウワナロ,高知県高岡郡檮原町上成
7850642,高知県,高岡郡檮原町,松谷,コウチケン,タカオカグンユスハラチョウ,マツダニ,高知県高岡郡檮原町松谷
7850643,高知県,高岡郡檮原町,宮野々,コウチケン,タカオカグンユスハラチョウ,ミヤノノ,高知県高岡郡檮原町宮野々
7850644,高知県,高岡郡檮原町,広野,コウチケン,タカオカグンユスハラチョウ,ヒロノ,高知県高岡郡檮原町広野
7850645,高知県,高岡郡檮原町,竹の薮,コウチケン,タカオカグンユスハラチョウ,タケノヤブ,高知県高岡郡檮原町竹の薮
7850646,高知県,高岡郡檮原町,上西の川,コウチケン,タカオカグンユスハラチョウ,カミニシノカワ,高知県高岡郡檮原町上西の川
7850647,高知県,高岡郡檮原町,下西の川,コウチケン,タカオカグンユスハラチョウ,シモニシノカワ,高知県高岡郡檮原町下西の川
7850648,高知県,高岡郡檮原町,仲間,コウチケン,タカオカグンユスハラチョウ,ナカイダ,高知県高岡郡檮原町仲間
7850651,高知県,高岡郡檮原町,茶や谷,コウチケン,タカオカグンユスハラチョウ,チャヤダニ,高知県高岡郡檮原町茶や谷
7850652,高知県,高岡郡檮原町,本も谷,コウチケン,タカオカグンユスハラチョウ,オモダニ,高知県高岡郡檮原町本も谷
7850653,高知県,高岡郡檮原町,中の川,コウチケン,タカオカグンユスハラチョウ,ナカノカワ,高知県高岡郡檮原町中の川
7850654,高知県,高岡郡檮原町,上組,コウチケン,タカオカグンユスハラチョウ,カミグミ,高知県高岡郡檮原町上組
7850655,高知県,高岡郡檮原町,下組,コウチケン,タカオカグンユスハラチョウ,シモグミ,高知県高岡郡檮原町下組
7850656,高知県,高岡郡檮原町,東川,コウチケン,タカオカグンユスハラチョウ,ヒガシガワ,高知県高岡郡檮原町東川
7850657,高知県,高岡郡檮原町,東向,コウチケン,タカオカグンユスハラチョウ,コチムキ,高知県高岡郡檮原町東向
7850658,高知県,高岡郡檮原町,富永,コウチケン,タカオカグンユスハラチョウ,トミナガ,高知県高岡郡檮原町富永
7850661,高知県,高岡郡檮原町,六丁,コウチケン,タカオカグンユスハラチョウ,ロクチョウ,高知県高岡郡檮原町六丁
7850662,高知県,高岡郡檮原町,坂本川,コウチケン,タカオカグンユスハラチョウ,サカモトガワ,高知県高岡郡檮原町坂本川
7850663,高知県,高岡郡檮原町,文丸,コウチケン,タカオカグンユスハラチョウ,ブンマル,高知県高岡郡檮原町文丸
7850664,高知県,高岡郡檮原町,神の山,コウチケン,タカオカグンユスハラチョウ,カミノヤマ,高知県高岡郡檮原町神の山
7850665,高知県,高岡郡檮原町,坪野田,コウチケン,タカオカグンユスハラチョウ,ツボノタ,高知県高岡郡檮原町坪野田
7850666,高知県,高岡郡檮原町,井高,コウチケン,タカオカグンユスハラチョウ,イコウ,高知県高岡郡檮原町井高
7850771,高知県,高岡郡檮原町,大向,コウチケン,タカオカグンユスハラチョウ,オオムカイ,高知県高岡郡檮原町大向
7850772,高知県,高岡郡檮原町,中平,コウチケン,タカオカグンユスハラチョウ,ナカヒラ,高知県高岡郡檮原町中平
7850773,高知県,高岡郡檮原町,松原,コウチケン,タカオカグンユスハラチョウ,マツバラ,高知県高岡郡檮原町松原
7850774,高知県,高岡郡檮原町,久保谷,コウチケン,タカオカグンユスハラチョウ,クボタニ,高知県高岡郡檮原町久保谷
7850775,高知県,高岡郡檮原町,島中,コウチケン,タカオカグンユスハラチョウ,シマジュウ,高知県高岡郡檮原町島中
7850776,高知県,高岡郡檮原町,家籠戸,コウチケン,タカオカグンユスハラチョウ,カロウト,高知県高岡郡檮原町家籠戸
7860000,高知県,高岡郡四万十町,,コウチケン,タカオカグンシマントチョウ,,高知県高岡郡四万十町
7860001,高知県,高岡郡四万十町,藤ノ川,コウチケン,タカオカグンシマントチョウ,フジノガワ,高知県高岡郡四万十町藤ノ川
7860002,高知県,高岡郡四万十町,見付,コウチケン,タカオカグンシマントチョウ,ミツケ,高知県高岡郡四万十町見付
7860003,高知県,高岡郡四万十町,金上野,コウチケン,タカオカグンシマントチョウ,キンジョウノ,高知県高岡郡四万十町金上野
7860004,高知県,高岡郡四万十町,茂串町,コウチケン,タカオカグンシマントチョウ,シゲクシチョウ,高知県高岡郡四万十町茂串町
7860005,高知県,高岡郡四万十町,本町,コウチケン,タカオカグンシマントチョウ,ホンマチ,高知県高岡郡四万十町本町
7860006,高知県,高岡郡四万十町,東町,コウチケン,タカオカグンシマントチョウ,ヒガシマチ,高知県高岡郡四万十町東町
7860007,高知県,高岡郡四万十町,古市町,コウチケン,タカオカグンシマントチョウ,フルイチマチ,高知県高岡郡四万十町古市町
7860008,高知県,高岡郡四万十町,榊山町,コウチケン,タカオカグンシマントチョウ,サカキヤマチョウ,高知県高岡郡四万十町榊山町
7860010,高知県,高岡郡四万十町,窪川,コウチケン,タカオカグンシマントチョウ,クボカワ,高知県高岡郡四万十町窪川
7860011,高知県,高岡郡四万十町,香月が丘,コウチケン,タカオカグンシマントチョウ,カゲツガオカ,高知県高岡郡四万十町香月が丘
7860012,高知県,高岡郡四万十町,北琴平町,コウチケン,タカオカグンシマントチョウ,キタコトヒラマチ,高知県高岡郡四万十町北琴平町
7860013,高知県,高岡郡四万十町,琴平町,コウチケン,タカオカグンシマントチョウ,コトヒラマチ,高知県高岡郡四万十町琴平町
7860014,高知県,高岡郡四万十町,新開町,コウチケン,タカオカグンシマントチョウ,シンガイチョウ,高知県高岡郡四万十町新開町
7860015,高知県,高岡郡四万十町,西原,コウチケン,タカオカグンシマントチョウ,サイバラ,高知県高岡郡四万十町西原
7860016,高知県,高岡郡四万十町,大井野,コウチケン,タカオカグンシマントチョウ,オオイノ,高知県高岡郡四万十町大井野
7860017,高知県,高岡郡四万十町,神ノ西,コウチケン,タカオカグンシマントチョウ,コウノサイ,高知県高岡郡四万十町神ノ西
7860018,高知県,高岡郡四万十町,仕出原,コウチケン,タカオカグンシマントチョウ,シデハラ,高知県高岡郡四万十町仕出原
7860021,高知県,高岡郡四万十町,仁井田,コウチケン,タカオカグンシマントチョウ,ニイダ,高知県高岡郡四万十町仁井田
7860022,高知県,高岡郡四万十町,小向,コウチケン,タカオカグンシマントチョウ,コムカイ,高知県高岡郡四万十町小向
7860023,高知県,高岡郡四万十町,中ノ越,コウチケン,タカオカグンシマントチョウ,ナカノコエ,高知県高岡郡四万十町中ノ越
7860024,高知県,高岡郡四万十町,向川,コウチケン,タカオカグンシマントチョウ,ムカイガワ,高知県高岡郡四万十町向川
7860025,高知県,高岡郡四万十町,富岡,コウチケン,タカオカグンシマントチョウ,トミオカ,高知県高岡郡四万十町富岡
7860026,高知県,高岡郡四万十町,平串,コウチケン,タカオカグンシマントチョウ,ヒラグシ,高知県高岡郡四万十町平串
7860027,高知県,高岡郡四万十町,東大奈路,コウチケン,タカオカグンシマントチョウ,ヒガシオオナロ,高知県高岡郡四万十町東大奈路
7860028,高知県,高岡郡四万十町,根元原,コウチケン,タカオカグンシマントチョウ,ゴンゲンバラ,高知県高岡郡四万十町根元原
7860031,高知県,高岡郡四万十町,床鍋,コウチケン,タカオカグンシマントチョウ,トコナベ,高知県高岡郡四万十町床鍋
7860032,高知県,高岡郡四万十町,影野,コウチケン,タカオカグンシマントチョウ,カゲノ,高知県高岡郡四万十町影野
7860033,高知県,高岡郡四万十町,道徳,コウチケン,タカオカグンシマントチョウ,ドウトク,高知県高岡郡四万十町道徳
7860034,高知県,高岡郡四万十町,替坂本,コウチケン,タカオカグンシマントチョウ,カエザカモト,高知県高岡郡四万十町替坂本
7860035,高知県,高岡郡四万十町,六反地,コウチケン,タカオカグンシマントチョウ,ロクタンジ,高知県高岡郡四万十町六反地
7860036,高知県,高岡郡四万十町,下呉地,コウチケン,タカオカグンシマントチョウ,シモクレジ,高知県高岡郡四万十町下呉地
7860037,高知県,高岡郡四万十町,魚の川,コウチケン,タカオカグンシマントチョウ,ウオノカワ,高知県高岡郡四万十町魚の川
7860038,高知県,高岡郡四万十町,奥呉地,コウチケン,タカオカグンシマントチョウ,オククレジ,高知県高岡郡四万十町奥呉地
7860041,高知県,高岡郡四万十町,奈路,コウチケン,タカオカグンシマントチョウ,ナロ,高知県高岡郡四万十町奈路
7860042,高知県,高岡郡四万十町,黒石,コウチケン,タカオカグンシマントチョウ,クロイシ,高知県高岡郡四万十町黒石
7860043,高知県,高岡郡四万十町,本堂,コウチケン,タカオカグンシマントチョウ,ホンドウ,高知県高岡郡四万十町本堂
7860044,高知県,高岡郡四万十町,与津地,コウチケン,タカオカグンシマントチョウ,ヨツジ,高知県高岡郡四万十町与津地
7860045,高知県,高岡郡四万十町,興津（１〜１６９９番）,コウチケン,タカオカグンシマントチョウ,オキツ(1-1699バン),高知県高岡郡四万十町興津（1〜1699-）
7860046,高知県,高岡郡四万十町,興津（その他）,コウチケン,タカオカグンシマントチョウ,オキツ(ソノタ),高知県高岡郡四万十町興津（その他）
7860047,高知県,高岡郡四万十町,八千数,コウチケン,タカオカグンシマントチョウ,ハッセンズ,高知県高岡郡四万十町八千数
7860048,高知県,高岡郡四万十町,親ケ内,コウチケン,タカオカグンシマントチョウ,オヤガウチ,高知県高岡郡四万十町親ケ内
7860049,高知県,高岡郡四万十町,数神,コウチケン,タカオカグンシマントチョウ,カズコウ,高知県高岡郡四万十町数神
7860051,高知県,高岡郡四万十町,平野,コウチケン,タカオカグンシマントチョウ,ヒラノ,高知県高岡郡四万十町平野
7860052,高知県,高岡郡四万十町,土居,コウチケン,タカオカグンシマントチョウ,ドイ,高知県高岡郡四万十町土居
7860053,高知県,高岡郡四万十町,弘見,コウチケン,タカオカグンシマントチョウ,ヒロミ,高知県高岡郡四万十町弘見
7860054,高知県,高岡郡四万十町,飯ノ川,コウチケン,タカオカグンシマントチョウ,ハンノカワ,高知県高岡郡四万十町飯ノ川
7860055,高知県,高岡郡四万十町,志和峰,コウチケン,タカオカグンシマントチョウ,シワミネ,高知県高岡郡四万十町志和峰
7860056,高知県,高岡郡四万十町,志和,コウチケン,タカオカグンシマントチョウ,シワ,高知県高岡郡四万十町志和
7860057,高知県,高岡郡四万十町,小鶴津,コウチケン,タカオカグンシマントチョウ,コヅルツ,高知県高岡郡四万十町小鶴津
7860058,高知県,高岡郡四万十町,大鶴津,コウチケン,タカオカグンシマントチョウ,オオツルツ,高知県高岡郡四万十町大鶴津
7860061,高知県,高岡郡四万十町,峰ノ上,コウチケン,タカオカグンシマントチョウ,ミネノウエ,高知県高岡郡四万十町峰ノ上
7860062,高知県,高岡郡四万十町,若井川,コウチケン,タカオカグンシマントチョウ,ワカイガワ,高知県高岡郡四万十町若井川
7860063,高知県,高岡郡四万十町,高野,コウチケン,タカオカグンシマントチョウ,タカノ,高知県高岡郡四万十町高野
7860064,高知県,高岡郡四万十町,家地川,コウチケン,タカオカグンシマントチョウ,イエジガワ,高知県高岡郡四万十町家地川
7860065,高知県,高岡郡四万十町,野地,コウチケン,タカオカグンシマントチョウ,ノジ,高知県高岡郡四万十町野地
7860066,高知県,高岡郡四万十町,天の川,コウチケン,タカオカグンシマントチョウ,ソラノカワ,高知県高岡郡四万十町天の川
7860067,高知県,高岡郡四万十町,大向,コウチケン,タカオカグンシマントチョウ,オオムカイ,高知県高岡郡四万十町大向
7860068,高知県,高岡郡四万十町,若井,コウチケン,タカオカグンシマントチョウ,ワカイ,高知県高岡郡四万十町若井
7860071,高知県,高岡郡四万十町,奥神ノ川,コウチケン,タカオカグンシマントチョウ,オクゴウノカワ,高知県高岡郡四万十町奥神ノ川
7860072,高知県,高岡郡四万十町,中神ノ川,コウチケン,タカオカグンシマントチョウ,ナカゴウノカワ,高知県高岡郡四万十町中神ノ川
7860073,高知県,高岡郡四万十町,口神ノ川,コウチケン,タカオカグンシマントチョウ,クチゴウノカワ,高知県高岡郡四万十町口神ノ川
7860074,高知県,高岡郡四万十町,南川口,コウチケン,タカオカグンシマントチョウ,ミナミカワグチ,高知県高岡郡四万十町南川口
7860075,高知県,高岡郡四万十町,秋丸,コウチケン,タカオカグンシマントチョウ,アキマル,高知県高岡郡四万十町秋丸
7860076,高知県,高岡郡四万十町,寺野,コウチケン,タカオカグンシマントチョウ,テラノ,高知県高岡郡四万十町寺野
7860077,高知県,高岡郡四万十町,桧生原,コウチケン,タカオカグンシマントチョウ,ヒサハラ,高知県高岡郡四万十町桧生原
7860078,高知県,高岡郡四万十町,折合,コウチケン,タカオカグンシマントチョウ,オレアイ,高知県高岡郡四万十町折合
7860081,高知県,高岡郡四万十町,中村,コウチケン,タカオカグンシマントチョウ,ナカムラ,高知県高岡郡四万十町中村
7860082,高知県,高岡郡四万十町,七里,コウチケン,タカオカグンシマントチョウ,ナナサト,高知県高岡郡四万十町七里
7860083,高知県,高岡郡四万十町,西川角,コウチケン,タカオカグンシマントチョウ,ニシカワヅノ,高知県高岡郡四万十町西川角
7860084,高知県,高岡郡四万十町,東川角,コウチケン,タカオカグンシマントチョウ,ヒガシカワヅノ,高知県高岡郡四万十町東川角
7860085,高知県,高岡郡四万十町,根々崎,コウチケン,タカオカグンシマントチョウ,ネネザキ,高知県高岡郡四万十町根々崎
7860086,高知県,高岡郡四万十町,宮内,コウチケン,タカオカグンシマントチョウ,ミヤウチ,高知県高岡郡四万十町宮内
7860087,高知県,高岡郡四万十町,作屋,コウチケン,タカオカグンシマントチョウ,サクヤ,高知県高岡郡四万十町作屋
7860088,高知県,高岡郡四万十町,市生原,コウチケン,タカオカグンシマントチョウ,イチウバラ,高知県高岡郡四万十町市生原
7860091,高知県,高岡郡四万十町,川ノ内,コウチケン,タカオカグンシマントチョウ,カワノウチ,高知県高岡郡四万十町川ノ内
7860092,高知県,高岡郡四万十町,勝賀野,コウチケン,タカオカグンシマントチョウ,ショウガノ,高知県高岡郡四万十町勝賀野
7860093,高知県,高岡郡四万十町,東北ノ川,コウチケン,タカオカグンシマントチョウ,ヒガシキタノカワ,高知県高岡郡四万十町東北ノ川
7860094,高知県,高岡郡四万十町,一斗俵,コウチケン,タカオカグンシマントチョウ,イットヒョウ,高知県高岡郡四万十町一斗俵
7860095,高知県,高岡郡四万十町,米奥,コウチケン,タカオカグンシマントチョウ,ヨネオク,高知県高岡郡四万十町米奥
7860096,高知県,高岡郡四万十町,窪川中津川,コウチケン,タカオカグンシマントチョウ,クボカワナカツガワ,高知県高岡郡四万十町窪川中津川
7860097,高知県,高岡郡四万十町,日野地,コウチケン,タカオカグンシマントチョウ,ヒノジ,高知県高岡郡四万十町日野地
7860098,高知県,高岡郡四万十町,上秋丸,コウチケン,タカオカグンシマントチョウ,カミアキマル,高知県高岡郡四万十町上秋丸
7860301,高知県,高岡郡四万十町,大正（葛籠川、轟崎を含む）,コウチケン,タカオカグンシマントチョウ,タイショウ(ツヅラガワ、トドロキザキヲフクム),高知県高岡郡四万十町大正（葛籠川、轟崎を含む）
7860302,高知県,高岡郡四万十町,瀬里,コウチケン,タカオカグンシマントチョウ,セリ,高知県高岡郡四万十町瀬里
7860303,高知県,高岡郡四万十町,希ノ川,コウチケン,タカオカグンシマントチョウ,キノカワ,高知県高岡郡四万十町希ノ川
7860304,高知県,高岡郡四万十町,下岡,コウチケン,タカオカグンシマントチョウ,シモオカ,高知県高岡郡四万十町下岡
7860305,高知県,高岡郡四万十町,上岡,コウチケン,タカオカグンシマントチョウ,カミオカ,高知県高岡郡四万十町上岡
7860306,高知県,高岡郡四万十町,小石,コウチケン,タカオカグンシマントチョウ,コイシ,高知県高岡郡四万十町小石
7860307,高知県,高岡郡四万十町,江師,コウチケン,タカオカグンシマントチョウ,エシ,高知県高岡郡四万十町江師
7860308,高知県,高岡郡四万十町,芳川,コウチケン,タカオカグンシマントチョウ,ヨシカワ,高知県高岡郡四万十町芳川
7860311,高知県,高岡郡四万十町,西ノ川,コウチケン,タカオカグンシマントチョウ,ニシノカワ,高知県高岡郡四万十町西ノ川
7860312,高知県,高岡郡四万十町,大正大奈路,コウチケン,タカオカグンシマントチョウ,タイショウオオナロ,高知県高岡郡四万十町大正大奈路
7860313,高知県,高岡郡四万十町,木屋ケ内,コウチケン,タカオカグンシマントチョウ,コヤガウチ,高知県高岡郡四万十町木屋ケ内
7860314,高知県,高岡郡四万十町,下道,コウチケン,タカオカグンシマントチョウ,シモドウ,高知県高岡郡四万十町下道
7860315,高知県,高岡郡四万十町,下津井,コウチケン,タカオカグンシマントチョウ,シモツイ,高知県高岡郡四万十町下津井
7860316,高知県,高岡郡四万十町,大正中津川,コウチケン,タカオカグンシマントチョウ,タイショウナカツカワ,高知県高岡郡四万十町大正中津川
7860321,高知県,高岡郡四万十町,大正北ノ川,コウチケン,タカオカグンシマントチョウ,タイショウキタノカワ,高知県高岡郡四万十町大正北ノ川
7860322,高知県,高岡郡四万十町,打井川,コウチケン,タカオカグンシマントチョウ,ウツイガワ,高知県高岡郡四万十町打井川
7860323,高知県,高岡郡四万十町,上宮,コウチケン,タカオカグンシマントチョウ,ジョウグウ,高知県高岡郡四万十町上宮
7860324,高知県,高岡郡四万十町,弘瀬,コウチケン,タカオカグンシマントチョウ,ヒロセ,高知県高岡郡四万十町弘瀬
7860325,高知県,高岡郡四万十町,市ノ又,コウチケン,タカオカグンシマントチョウ,イチノマタ,高知県高岡郡四万十町市ノ又
7860326,高知県,高岡郡四万十町,烏手,コウチケン,タカオカグンシマントチョウ,カラスデ,高知県高岡郡四万十町烏手
7860327,高知県,高岡郡四万十町,相去,コウチケン,タカオカグンシマントチョウ,アイザレ,高知県高岡郡四万十町相去
7860501,高知県,高岡郡四万十町,地吉,コウチケン,タカオカグンシマントチョウ,ジヨシ,高知県高岡郡四万十町地吉
7860502,高知県,高岡郡四万十町,古城,コウチケン,タカオカグンシマントチョウ,コジョウ,高知県高岡郡四万十町古城
7860503,高知県,高岡郡四万十町,戸川,コウチケン,タカオカグンシマントチョウ,トガワ,高知県高岡郡四万十町戸川
7860504,高知県,高岡郡四万十町,十川,コウチケン,タカオカグンシマントチョウ,トオカワ,高知県高岡郡四万十町十川
7860511,高知県,高岡郡四万十町,昭和（その他）,コウチケン,タカオカグンシマントチョウ,ショウワ(ソノタ),高知県高岡郡四万十町昭和（その他）
7860512,高知県,高岡郡四万十町,昭和甲,コウチケン,タカオカグンシマントチョウ,ショウワコウ,高知県高岡郡四万十町昭和甲
7860513,高知県,高岡郡四万十町,昭和乙,コウチケン,タカオカグンシマントチョウ,ショウワオツ,高知県高岡郡四万十町昭和乙
7860514,高知県,高岡郡四万十町,河内,コウチケン,タカオカグンシマントチョウ,カワウチ,高知県高岡郡四万十町河内
7860515,高知県,高岡郡四万十町,久保川,コウチケン,タカオカグンシマントチョウ,クボカワ,高知県高岡郡四万十町久保川
7860516,高知県,高岡郡四万十町,口大道,コウチケン,タカオカグンシマントチョウ,クチオオドウ,高知県高岡郡四万十町口大道
7860517,高知県,高岡郡四万十町,奥大道,コウチケン,タカオカグンシマントチョウ,オクオオドウ,高知県高岡郡四万十町奥大道
7860521,高知県,高岡郡四万十町,津賀,コウチケン,タカオカグンシマントチョウ,ツガ,高知県高岡郡四万十町津賀
7860522,高知県,高岡郡四万十町,茅吹手,コウチケン,タカオカグンシマントチョウ,カヤブクテ,高知県高岡郡四万十町茅吹手
7860523,高知県,高岡郡四万十町,浦越,コウチケン,タカオカグンシマントチョウ,ウラゴシ,高知県高岡郡四万十町浦越
7860524,高知県,高岡郡四万十町,里川,コウチケン,タカオカグンシマントチョウ,サトカワ,高知県高岡郡四万十町里川
7860525,高知県,高岡郡四万十町,野々川,コウチケン,タカオカグンシマントチョウ,ノノガワ,高知県高岡郡四万十町野々川
7860531,高知県,高岡郡四万十町,小野,コウチケン,タカオカグンシマントチョウ,オノ,高知県高岡郡四万十町小野
7860532,高知県,高岡郡四万十町,大井川,コウチケン,タカオカグンシマントチョウ,オオイガワ,高知県高岡郡四万十町大井川
7860533,高知県,高岡郡四万十町,井崎,コウチケン,タカオカグンシマントチョウ,イサキ,高知県高岡郡四万十町井崎
7860534,高知県,高岡郡四万十町,広瀬,コウチケン,タカオカグンシマントチョウ,ヒロセ,高知県高岡郡四万十町広瀬
7860535,高知県,高岡郡四万十町,十和川口,コウチケン,タカオカグンシマントチョウ,トオワカワグチ,高知県高岡郡四万十町十和川口
7870000,高知県,四万十市,,コウチケン,シマントシ,,高知県四万十市
7870001,高知県,四万十市,中村本町,コウチケン,シマントシ,ナカムラホンマチ,高知県四万十市中村本町
7870002,高知県,四万十市,中村桜町,コウチケン,シマントシ,ナカムラサクラマチ,高知県四万十市中村桜町
7870003,高知県,四万十市,中村丸の内（その他）,コウチケン,シマントシ,ナカムラマルノウチ(ソノタ),高知県四万十市中村丸の内（その他）
7870004,高知県,四万十市,中村丸の内（丸の内ハイランド）,コウチケン,シマントシ,ナカムラマルノウチ(マルノウチハイランド),高知県四万十市中村丸の内（丸の内ハイランド）
7870005,高知県,四万十市,中村（桂山団地）,コウチケン,シマントシ,ナカムラ(カツラヤマダンチ),高知県四万十市中村（桂山団地）
7870006,高知県,四万十市,麻生,コウチケン,シマントシ,アソウ,高知県四万十市麻生
7870007,高知県,四万十市,秋田,コウチケン,シマントシ,アイダ,高知県四万十市秋田
7870008,高知県,四万十市,安並,コウチケン,シマントシ,ヤスナミ,高知県四万十市安並
7870009,高知県,四万十市,佐岡,コウチケン,シマントシ,サオカ,高知県四万十市佐岡
7870010,高知県,四万十市,古津賀,コウチケン,シマントシ,コツカ,高知県四万十市古津賀
7870011,高知県,四万十市,右山元町,コウチケン,シマントシ,ウヤマモトマチ,高知県四万十市右山元町
7870012,高知県,四万十市,右山五月町,コウチケン,シマントシ,ウヤマサツキチョウ,高知県四万十市右山五月町
7870013,高知県,四万十市,右山天神町,コウチケン,シマントシ,ウヤマテンジンチョウ,高知県四万十市右山天神町
7870014,高知県,四万十市,駅前町,コウチケン,シマントシ,エキマエチョウ,高知県四万十市駅前町
7870015,高知県,四万十市,右山,コウチケン,シマントシ,ウヤマ,高知県四万十市右山
7870016,高知県,四万十市,角崎,コウチケン,シマントシ,ツノサキ,高知県四万十市角崎
7870017,高知県,四万十市,不破,コウチケン,シマントシ,フバ,高知県四万十市不破
7870018,高知県,四万十市,不破上町,コウチケン,シマントシ,フバカミマチ,高知県四万十市不破上町
7870019,高知県,四万十市,具同,コウチケン,シマントシ,グドウ,高知県四万十市具同
7870020,高知県,四万十市,入田,コウチケン,シマントシ,ニュウタ,高知県四万十市入田
7870021,高知県,四万十市,中村京町,コウチケン,シマントシ,ナカムラキョウマチ,高知県四万十市中村京町
7870022,高知県,四万十市,中村新町,コウチケン,シマントシ,ナカムラシンマチ,高知県四万十市中村新町
7870023,高知県,四万十市,中村東町,コウチケン,シマントシ,ナカムラヒガシマチ,高知県四万十市中村東町
7870024,高知県,四万十市,中村於東町,コウチケン,シマントシ,ナカムラオヒガシチョウ,高知県四万十市中村於東町
7870025,高知県,四万十市,中村一条通,コウチケン,シマントシ,ナカムライチジョウドオリ,高知県四万十市中村一条通
7870026,高知県,四万十市,中村愛宕町,コウチケン,シマントシ,ナカムラアタゴマチ,高知県四万十市中村愛宕町
7870027,高知県,四万十市,中村天神橋,コウチケン,シマントシ,ナカムラテンジンバシ,高知県四万十市中村天神橋
7870028,高知県,四万十市,中村山手通,コウチケン,シマントシ,ナカムラヤマテドオリ,高知県四万十市中村山手通
7870029,高知県,四万十市,中村小姓町,コウチケン,シマントシ,ナカムラコショウマチ,高知県四万十市中村小姓町
7870030,高知県,四万十市,中村上小姓町,コウチケン,シマントシ,ナカムラカミコショウマチ,高知県四万十市中村上小姓町
7870031,高知県,四万十市,中村東下町,コウチケン,シマントシ,ナカムラヒガシシモマチ,高知県四万十市中村東下町
7870032,高知県,四万十市,中村栄町,コウチケン,シマントシ,ナカムラサカエマチ,高知県四万十市中村栄町
7870033,高知県,四万十市,中村大橋通,コウチケン,シマントシ,ナカムラオオハシドオリ,高知県四万十市中村大橋通
7870034,高知県,四万十市,中村弥生町,コウチケン,シマントシ,ナカムラヤヨイチョウ,高知県四万十市中村弥生町
7870035,高知県,四万十市,中村羽生小路,コウチケン,シマントシ,ナカムラハブショウジ,高知県四万十市中村羽生小路
7870036,高知県,四万十市,中村岩崎町,コウチケン,シマントシ,ナカムライワサキチョウ,高知県四万十市中村岩崎町
7870037,高知県,四万十市,中村四万十町,コウチケン,シマントシ,ナカムラシマントチョウ,高知県四万十市中村四万十町
7870038,高知県,四万十市,中村百笑町,コウチケン,シマントシ,ナカムラドウメキチョウ,高知県四万十市中村百笑町
7870050,高知県,四万十市,渡川,コウチケン,シマントシ,ワタリガワ,高知県四万十市渡川
7870051,高知県,四万十市,具同田黒,コウチケン,シマントシ,グドウタグロ,高知県四万十市具同田黒
7870052,高知県,四万十市,赤松町,コウチケン,シマントシ,アカマツチョウ,高知県四万十市赤松町
7870150,高知県,四万十市,井沢,コウチケン,シマントシ,イサワ,高知県四万十市井沢
7870151,高知県,四万十市,竹島,コウチケン,シマントシ,タケシマ,高知県四万十市竹島
7870152,高知県,四万十市,鍋島,コウチケン,シマントシ,ナベシマ,高知県四万十市鍋島
7870153,高知県,四万十市,双海,コウチケン,シマントシ,フタミ,高知県四万十市双海
7870154,高知県,四万十市,平野,コウチケン,シマントシ,ヒラノ,高知県四万十市平野
7870155,高知県,四万十市,下田,コウチケン,シマントシ,シモダ,高知県四万十市下田
7870156,高知県,四万十市,坂本,コウチケン,シマントシ,サカモト,高知県四万十市坂本
7870157,高知県,四万十市,山路,コウチケン,シマントシ,ヤマチ,高知県四万十市山路
7870158,高知県,四万十市,実崎,コウチケン,シマントシ,サンザキ,高知県四万十市実崎
7870159,高知県,四万十市,深木,コウチケン,シマントシ,フカキ,高知県四万十市深木
7870160,高知県,四万十市,間崎,コウチケン,シマントシ,マサキ,高知県四万十市間崎
7870161,高知県,四万十市,津蔵渕,コウチケン,シマントシ,ツクラブチ,高知県四万十市津蔵渕
7870162,高知県,四万十市,初崎,コウチケン,シマントシ,ハツザキ,高知県四万十市初崎
7870163,高知県,四万十市,名鹿,コウチケン,シマントシ,ナシシ,高知県四万十市名鹿
7870240,高知県,土佐清水市,立石,コウチケン,トサシミズシ,タテイシ,高知県土佐清水市立石
7870241,高知県,土佐清水市,布,コウチケン,トサシミズシ,ヌノ,高知県土佐清水市布
7870242,高知県,土佐清水市,下ノ加江,コウチケン,トサシミズシ,シモノカエ,高知県土佐清水市下ノ加江
7870243,高知県,土佐清水市,鍵掛,コウチケン,トサシミズシ,カイカケ,高知県土佐清水市鍵掛
7870244,高知県,土佐清水市,久百々,コウチケン,トサシミズシ,クモモ,高知県土佐清水市久百々
7870300,高知県,土佐清水市,,コウチケン,トサシミズシ,,高知県土佐清水市
7870301,高知県,土佐清水市,大岐,コウチケン,トサシミズシ,オオキ,高知県土佐清水市大岐
7870302,高知県,土佐清水市,以布利,コウチケン,トサシミズシ,イブリ,高知県土佐清水市以布利
7870303,高知県,土佐清水市,旭町,コウチケン,トサシミズシ,アサヒマチ,高知県土佐清水市旭町
7870304,高知県,土佐清水市,元町,コウチケン,トサシミズシ,モトマチ,高知県土佐清水市元町
7870305,高知県,土佐清水市,天神町,コウチケン,トサシミズシ,テンジンマチ,高知県土佐清水市天神町
7870306,高知県,土佐清水市,幸町,コウチケン,トサシミズシ,サイワイチョウ,高知県土佐清水市幸町
7870307,高知県,土佐清水市,緑ケ丘,コウチケン,トサシミズシ,ミドリガオカ,高知県土佐清水市緑ケ丘
7870308,高知県,土佐清水市,厚生町,コウチケン,トサシミズシ,コウセイチョウ,高知県土佐清水市厚生町
7870310,高知県,土佐清水市,浦尻,コウチケン,トサシミズシ,ウラジリ,高知県土佐清水市浦尻
7870311,高知県,土佐清水市,グリーンハイツ,コウチケン,トサシミズシ,グリーンハイツ,高知県土佐清水市グリーンハイツ
7870312,高知県,土佐清水市,窪津,コウチケン,トサシミズシ,クボツ,高知県土佐清水市窪津
7870313,高知県,土佐清水市,津呂,コウチケン,トサシミズシ,ツロ,高知県土佐清水市津呂
7870314,高知県,土佐清水市,大谷,コウチケン,トサシミズシ,オオタニ,高知県土佐清水市大谷
7870315,高知県,土佐清水市,足摺岬,コウチケン,トサシミズシ,アシズリミサキ,高知県土佐清水市足摺岬
7870316,高知県,土佐清水市,松尾,コウチケン,トサシミズシ,マツオ,高知県土佐清水市松尾
7870317,高知県,土佐清水市,大浜,コウチケン,トサシミズシ,オオハマ,高知県土佐清水市大浜
7870318,高知県,土佐清水市,中浜,コウチケン,トサシミズシ,ナカノハマ,高知県土佐清水市中浜
7870320,高知県,土佐清水市,清水,コウチケン,トサシミズシ,シミズ,高知県土佐清水市清水
7870321,高知県,土佐清水市,浜町,コウチケン,トサシミズシ,ハママチ,高知県土佐清水市浜町
7870322,高知県,土佐清水市,小江町,コウチケン,トサシミズシ,コエチョウ,高知県土佐清水市小江町
7870323,高知県,土佐清水市,寿町,コウチケン,トサシミズシ,コトブキチョウ,高知県土佐清水市寿町
7870324,高知県,土佐清水市,中央町,コウチケン,トサシミズシ,チュウオウチョウ,高知県土佐清水市中央町
7870325,高知県,土佐清水市,栄町,コウチケン,トサシミズシ,サカエマチ,高知県土佐清水市栄町
7870326,高知県,土佐清水市,本町,コウチケン,トサシミズシ,ホンマチ,高知県土佐清水市本町
7870327,高知県,土佐清水市,市場町,コウチケン,トサシミズシ,イチバチョウ,高知県土佐清水市市場町
7870328,高知県,土佐清水市,戎町,コウチケン,トサシミズシ,エビスチョウ,高知県土佐清水市戎町
7870330,高知県,土佐清水市,清水ヶ丘,コウチケン,トサシミズシ,シミズガオカ,高知県土佐清水市清水ヶ丘
7870331,高知県,土佐清水市,越前町,コウチケン,トサシミズシ,エチゼンチョウ,高知県土佐清水市越前町
7870332,高知県,土佐清水市,汐見町,コウチケン,トサシミズシ,シオミチョウ,高知県土佐清水市汐見町
7870333,高知県,土佐清水市,西町,コウチケン,トサシミズシ,ニシマチ,高知県土佐清水市西町
7870334,高知県,土佐清水市,加久見入沢町,コウチケン,トサシミズシ,カグミイリサワチョウ,高知県土佐清水市加久見入沢町
7870335,高知県,土佐清水市,加久見新町,コウチケン,トサシミズシ,カグミシンマチ,高知県土佐清水市加久見新町
7870336,高知県,土佐清水市,加久見（その他）,コウチケン,トサシミズシ,カグミ(ソノタ),高知県土佐清水市加久見（その他）
7870337,高知県,土佐清水市,養老,コウチケン,トサシミズシ,ヨウロウ,高知県土佐清水市養老
7870338,高知県,土佐清水市,加久見（松崎）,コウチケン,トサシミズシ,カグミ(マツザキ),高知県土佐清水市加久見（松崎）
7870339,高知県,土佐清水市,横道,コウチケン,トサシミズシ,ヨコミチ,高知県土佐清水市横道
7870445,高知県,土佐清水市,下益野,コウチケン,トサシミズシ,シモマシノ,高知県土佐清水市下益野
7870446,高知県,土佐清水市,斧積,コウチケン,トサシミズシ,オノズミ,高知県土佐清水市斧積
7870447,高知県,土佐清水市,上野,コウチケン,トサシミズシ,ウエノ,高知県土佐清水市上野
7870450,高知県,土佐清水市,三崎,コウチケン,トサシミズシ,ミサキ,高知県土佐清水市三崎
7870451,高知県,土佐清水市,三崎浦,コウチケン,トサシミズシ,ミサキウラ,高知県土佐清水市三崎浦
7870452,高知県,土佐清水市,竜串,コウチケン,トサシミズシ,タツクシ,高知県土佐清水市竜串
7870453,高知県,土佐清水市,爪白,コウチケン,トサシミズシ,ツマジロ,高知県土佐清水市爪白
7870556,高知県,土佐清水市,有永,コウチケン,トサシミズシ,アリナガ,高知県土佐清水市有永
7870557,高知県,土佐清水市,宗呂乙,コウチケン,トサシミズシ,ソウロオツ,高知県土佐清水市宗呂乙
7870558,高知県,土佐清水市,宗呂丙,コウチケン,トサシミズシ,ソウロヘイ,高知県土佐清水市宗呂丙
7870559,高知県,土佐清水市,下川口,コウチケン,トサシミズシ,シモカワグチ,高知県土佐清水市下川口
7870560,高知県,土佐清水市,片粕,コウチケン,トサシミズシ,カタカス,高知県土佐清水市片粕
7870561,高知県,土佐清水市,貝ノ川,コウチケン,トサシミズシ,カイノカワ,高知県土佐清水市貝ノ川
7870562,高知県,土佐清水市,大津,コウチケン,トサシミズシ,オオツ,高知県土佐清水市大津
7870563,高知県,土佐清水市,宗呂甲,コウチケン,トサシミズシ,ソウロコウ,高知県土佐清水市宗呂甲
7870665,高知県,四万十市,森沢,コウチケン,シマントシ,モリサワ,高知県四万十市森沢
7870666,高知県,四万十市,楠島,コウチケン,シマントシ,クスシマ,高知県四万十市楠島
7870667,高知県,四万十市,国見,コウチケン,シマントシ,クニミ,高知県四万十市国見
7870668,高知県,四万十市,荒川,コウチケン,シマントシ,アラカワ,高知県四万十市荒川
7870669,高知県,四万十市,江ノ村,コウチケン,シマントシ,エノムラ,高知県四万十市江ノ村
7870771,高知県,四万十市,有岡,コウチケン,シマントシ,アリオカ,高知県四万十市有岡
7870772,高知県,四万十市,横瀬,コウチケン,シマントシ,ヨコゼ,高知県四万十市横瀬
7870773,高知県,四万十市,磯ノ川,コウチケン,シマントシ,イソノカワ,高知県四万十市磯ノ川
7870774,高知県,四万十市,生ノ川,コウチケン,シマントシ,オイノカワ,高知県四万十市生ノ川
7870775,高知県,四万十市,九樹,コウチケン,シマントシ,クジュウ,高知県四万十市九樹
7870776,高知県,四万十市,上ノ土居,コウチケン,シマントシ,カミノドイ,高知県四万十市上ノ土居
7870800,高知県,幡多郡三原村,,コウチケン,ハタグンミハラムラ,,高知県幡多郡三原村
7870801,高知県,幡多郡三原村,柚ノ木,コウチケン,ハタグンミハラムラ,ユノキ,高知県幡多郡三原村柚ノ木
7870802,高知県,幡多郡三原村,宮ノ川,コウチケン,ハタグンミハラムラ,ミヤノカワ,高知県幡多郡三原村宮ノ川
7870803,高知県,幡多郡三原村,来栖野,コウチケン,ハタグンミハラムラ,クルスノ,高知県幡多郡三原村来栖野
7870804,高知県,幡多郡三原村,上下長谷,コウチケン,ハタグンミハラムラ,カミシモナガタニ,高知県幡多郡三原村上下長谷
7870805,高知県,幡多郡三原村,上長谷,コウチケン,ハタグンミハラムラ,カミナガタニ,高知県幡多郡三原村上長谷
7870806,高知県,幡多郡三原村,狼内,コウチケン,ハタグンミハラムラ,オオカミウチ,高知県幡多郡三原村狼内
7870807,高知県,幡多郡三原村,成山,コウチケン,ハタグンミハラムラ,ナルヤマ,高知県幡多郡三原村成山
7870811,高知県,幡多郡三原村,芳井,コウチケン,ハタグンミハラムラ,ヨシイ,高知県幡多郡三原村芳井
7870812,高知県,幡多郡三原村,下長谷,コウチケン,ハタグンミハラムラ,シモナガタニ,高知県幡多郡三原村下長谷
7870813,高知県,幡多郡三原村,皆尾,コウチケン,ハタグンミハラムラ,ミナオ,高知県幡多郡三原村皆尾
7870814,高知県,幡多郡三原村,広野,コウチケン,ハタグンミハラムラ,ヒロノ,高知県幡多郡三原村広野
7870815,高知県,幡多郡三原村,亀ノ川,コウチケン,ハタグンミハラムラ,カメノカワ,高知県幡多郡三原村亀ノ川
7870816,高知県,幡多郡三原村,下切,コウチケン,ハタグンミハラムラ,シタギリ,高知県幡多郡三原村下切
7871101,高知県,四万十市,奥鴨川,コウチケン,シマントシ,オクカモガワ,高知県四万十市奥鴨川
7871102,高知県,四万十市,口鴨川,コウチケン,シマントシ,クチカモガワ,高知県四万十市口鴨川
7871103,高知県,四万十市,板ノ川,コウチケン,シマントシ,イタノカワ,高知県四万十市板ノ川
7871104,高知県,四万十市,若藤,コウチケン,シマントシ,ワカフジ,高知県四万十市若藤
7871105,高知県,四万十市,利岡,コウチケン,シマントシ,トシオカ,高知県四万十市利岡
7871106,高知県,四万十市,佐田,コウチケン,シマントシ,サダ,高知県四万十市佐田
7871107,高知県,四万十市,中村（大用寺）,コウチケン,シマントシ,ナカムラ(ダイヨウジ),高知県四万十市中村（大用寺）
7871107,高知県,四万十市,岩田,コウチケン,シマントシ,イワタ,高知県四万十市岩田
7871108,高知県,四万十市,敷地,コウチケン,シマントシ,シキジ,高知県四万十市敷地
7871109,高知県,四万十市,田野川,コウチケン,シマントシ,タノカワ,高知県四万十市田野川
7871220,高知県,四万十市,川登,コウチケン,シマントシ,カワノボリ,高知県四万十市川登
7871221,高知県,四万十市,三里,コウチケン,シマントシ,ミサト,高知県四万十市三里
7871222,高知県,四万十市,手洗川,コウチケン,シマントシ,タライガワ,高知県四万十市手洗川
7871223,高知県,四万十市,勝間（勝間川）,コウチケン,シマントシ,カツマ(カツマガワ),高知県四万十市勝間（勝間川）
7871224,高知県,四万十市,勝間（その他）,コウチケン,シマントシ,カツマ(ソノタ),高知県四万十市勝間（その他）
7871225,高知県,四万十市,久保川,コウチケン,シマントシ,クボカワ,高知県四万十市久保川
7871226,高知県,四万十市,鵜ノ江,コウチケン,シマントシ,ウノエ,高知県四万十市鵜ノ江
7871227,高知県,四万十市,楠,コウチケン,シマントシ,クス,高知県四万十市楠
7871228,高知県,四万十市,高瀬,コウチケン,シマントシ,タカセ,高知県四万十市高瀬
7871229,高知県,四万十市,田出ノ川,コウチケン,シマントシ,タデノカワ,高知県四万十市田出ノ川
7871321,高知県,四万十市,西土佐岩間,コウチケン,シマントシ,ニシトサイワマ,高知県四万十市西土佐岩間
7871322,高知県,四万十市,西土佐茅生,コウチケン,シマントシ,ニシトサカヨウ,高知県四万十市西土佐茅生
7871323,高知県,四万十市,西土佐中半,コウチケン,シマントシ,ニシトサナカバ,高知県四万十市西土佐中半
7871324,高知県,四万十市,西土佐口屋内,コウチケン,シマントシ,ニシトサクチヤナイ,高知県四万十市西土佐口屋内
7871325,高知県,四万十市,西土佐玖木,コウチケン,シマントシ,ニシトサクキ,高知県四万十市西土佐玖木
7871326,高知県,四万十市,西土佐奥屋内,コウチケン,シマントシ,ニシトサオクヤナイ,高知県四万十市西土佐奥屋内
7871441,高知県,四万十市,伊才原,コウチケン,シマントシ,イサイバラ,高知県四万十市伊才原
7871442,高知県,四万十市,蕨岡甲,コウチケン,シマントシ,ワラビオカコウ,高知県四万十市蕨岡甲
7871443,高知県,四万十市,蕨岡乙,コウチケン,シマントシ,ワラビオカオツ,高知県四万十市蕨岡乙
7871444,高知県,四万十市,藤,コウチケン,シマントシ,フジ,高知県四万十市藤
7871550,高知県,四万十市,大用,コウチケン,シマントシ,オオユウ,高知県四万十市大用
7871551,高知県,四万十市,住次郎,コウチケン,シマントシ,ジュウジロウ,高知県四万十市住次郎
7871552,高知県,四万十市,片魚,コウチケン,シマントシ,カタウオ,高知県四万十市片魚
7871553,高知県,四万十市,大屋敷,コウチケン,シマントシ,オオヤシキ,高知県四万十市大屋敷
7871554,高知県,四万十市,常六,コウチケン,シマントシ,ジョウロク,高知県四万十市常六
7871555,高知県,四万十市,三ツ又,コウチケン,シマントシ,ミツマタ,高知県四万十市三ツ又
7871556,高知県,四万十市,小西ノ川,コウチケン,シマントシ,コニシノカワ,高知県四万十市小西ノ川
7871557,高知県,四万十市,大西ノ川,コウチケン,シマントシ,オオニシノカワ,高知県四万十市大西ノ川
7871558,高知県,四万十市,古尾,コウチケン,シマントシ,コビ,高知県四万十市古尾
7871559,高知県,四万十市,竹屋敷,コウチケン,シマントシ,タケヤシキ,高知県四万十市竹屋敷
7871601,高知県,四万十市,西土佐江川崎,コウチケン,シマントシ,ニシトサエカワサキ,高知県四万十市西土佐江川崎
7871602,高知県,四万十市,西土佐西ケ方,コウチケン,シマントシ,ニシトサニシガホウ,高知県四万十市西土佐西ケ方
7871603,高知県,四万十市,西土佐用井,コウチケン,シマントシ,ニシトサモチイ,高知県四万十市西土佐用井
7871604,高知県,四万十市,西土佐藤ノ川,コウチケン,シマントシ,ニシトサフジノカワ,高知県四万十市西土佐藤ノ川
7871605,高知県,四万十市,西土佐長生,コウチケン,シマントシ,ニシトサナガオイ,高知県四万十市西土佐長生
7871606,高知県,四万十市,西土佐半家,コウチケン,シマントシ,ニシトサハゲ,高知県四万十市西土佐半家
7871607,高知県,四万十市,西土佐江川,コウチケン,シマントシ,ニシトサエカワ,高知県四万十市西土佐江川
7871611,高知県,四万十市,西土佐橘,コウチケン,シマントシ,ニシトサタチバナ,高知県四万十市西土佐橘
7871612,高知県,四万十市,西土佐津野川,コウチケン,シマントシ,ニシトサツノカワ,高知県四万十市西土佐津野川
7871613,高知県,四万十市,西土佐津賀,コウチケン,シマントシ,ニシトサツガ,高知県四万十市西土佐津賀
7871614,高知県,四万十市,西土佐薮ケ市,コウチケン,シマントシ,ニシトサヤブガイチ,高知県四万十市西土佐薮ケ市
7871615,高知県,四万十市,西土佐大宮,コウチケン,シマントシ,ニシトサオオミヤ,高知県四万十市西土佐大宮
7871616,高知県,四万十市,西土佐須崎,コウチケン,シマントシ,ニシトサスサキ,高知県四万十市西土佐須崎
7871617,高知県,四万十市,西土佐下家地,コウチケン,シマントシ,ニシトサシモイエジ,高知県四万十市西土佐下家地
7871618,高知県,四万十市,西土佐中家地,コウチケン,シマントシ,ニシトサナカイエジ,高知県四万十市西土佐中家地
7880000,高知県,宿毛市,,コウチケン,スクモシ,,高知県宿毛市
7880001,高知県,宿毛市,中央,コウチケン,スクモシ,チュウオウ,高知県宿毛市中央
7880002,高知県,宿毛市,南沖須賀,コウチケン,スクモシ,ミナミオキスガ,高知県宿毛市南沖須賀
7880003,高知県,宿毛市,幸町,コウチケン,スクモシ,サイワイチョウ,高知県宿毛市幸町
7880004,高知県,宿毛市,長田町,コウチケン,スクモシ,ナガタチョウ,高知県宿毛市長田町
7880005,高知県,宿毛市,萩原,コウチケン,スクモシ,ハギワラ,高知県宿毛市萩原
7880006,高知県,宿毛市,桜町,コウチケン,スクモシ,サクラマチ,高知県宿毛市桜町
7880007,高知県,宿毛市,松田町,コウチケン,スクモシ,マツダマチ,高知県宿毛市松田町
7880008,高知県,宿毛市,与市明,コウチケン,スクモシ,ヨイチミョウ,高知県宿毛市与市明
7880009,高知県,宿毛市,駅東町,コウチケン,スクモシ,エキヒガシマチ,高知県宿毛市駅東町
7880010,高知県,宿毛市,駅前町,コウチケン,スクモシ,エキマエチョウ,高知県宿毛市駅前町
7880011,高知県,宿毛市,新田,コウチケン,スクモシ,シンデン,高知県宿毛市新田
7880012,高知県,宿毛市,高砂,コウチケン,スクモシ,タカサゴ,高知県宿毛市高砂
7880013,高知県,宿毛市,片島,コウチケン,スクモシ,カタシマ,高知県宿毛市片島
7880014,高知県,宿毛市,大島,コウチケン,スクモシ,オオシマ,高知県宿毛市大島
7880015,高知県,宿毛市,西片島,コウチケン,スクモシ,ニシカタシマ,高知県宿毛市西片島
7880016,高知県,宿毛市,希望ヶ丘,コウチケン,スクモシ,キボウガオカ,高知県宿毛市希望ヶ丘
7880021,高知県,宿毛市,池島,コウチケン,スクモシ,イケシマ,高知県宿毛市池島
7880022,高知県,宿毛市,藻津,コウチケン,スクモシ,ムクヅ,高知県宿毛市藻津
7880023,高知県,宿毛市,宇須々木,コウチケン,スクモシ,ウススキ,高知県宿毛市宇須々木
7880024,高知県,宿毛市,樺,コウチケン,スクモシ,カバ,高知県宿毛市樺
7880025,高知県,宿毛市,西町,コウチケン,スクモシ,ニシマチ,高知県宿毛市西町
7880026,高知県,宿毛市,自由ケ丘,コウチケン,スクモシ,ジユウガオカ,高知県宿毛市自由ケ丘
7880027,高知県,宿毛市,港南台,コウチケン,スクモシ,コウナンダイ,高知県宿毛市港南台
7880028,高知県,宿毛市,新港,コウチケン,スクモシ,シンコウ,高知県宿毛市新港
7880030,高知県,宿毛市,四季の丘,コウチケン,スクモシ,シキノオカ,高知県宿毛市四季の丘
7880031,高知県,宿毛市,貝塚,コウチケン,スクモシ,カイヅカ,高知県宿毛市貝塚
7880032,高知県,宿毛市,錦,コウチケン,スクモシ,ニシキ,高知県宿毛市錦
7880033,高知県,宿毛市,小深浦,コウチケン,スクモシ,コブカウラ,高知県宿毛市小深浦
7880034,高知県,宿毛市,大深浦,コウチケン,スクモシ,オオブカウラ,高知県宿毛市大深浦
7880035,高知県,宿毛市,草木薮,コウチケン,スクモシ,クサギヤブ,高知県宿毛市草木薮
7880036,高知県,宿毛市,野地,コウチケン,スクモシ,ノジ,高知県宿毛市野地
7880037,高知県,宿毛市,山北,コウチケン,スクモシ,ヤマキタ,高知県宿毛市山北
7880038,高知県,宿毛市,二ノ宮,コウチケン,スクモシ,ニノミヤ,高知県宿毛市二ノ宮
7880039,高知県,宿毛市,中角,コウチケン,スクモシ,ナカツノ,高知県宿毛市中角
7880041,高知県,宿毛市,橋上町出井,コウチケン,スクモシ,ハシカミチョウイデイ,高知県宿毛市橋上町出井
7880042,高知県,宿毛市,橋上町楠山,コウチケン,スクモシ,ハシカミチョウクスヤマ,高知県宿毛市橋上町楠山
7880043,高知県,宿毛市,橋上町坂本,コウチケン,スクモシ,ハシカミチョウサカモト,高知県宿毛市橋上町坂本
7880044,高知県,宿毛市,橋上町神有,コウチケン,スクモシ,ハシカミチョウカミアリ,高知県宿毛市橋上町神有
7880045,高知県,宿毛市,橋上町奥奈路,コウチケン,スクモシ,ハシカミチョウオクナロ,高知県宿毛市橋上町奥奈路
7880046,高知県,宿毛市,橋上町橋上,コウチケン,スクモシ,ハシカミチョウハシカミ,高知県宿毛市橋上町橋上
7880047,高知県,宿毛市,橋上町平野,コウチケン,スクモシ,ハシカミチョウヒラノ,高知県宿毛市橋上町平野
7880048,高知県,宿毛市,橋上町京法,コウチケン,スクモシ,ハシカミチョウキョウホウ,高知県宿毛市橋上町京法
7880049,高知県,宿毛市,橋上町還住薮,コウチケン,スクモシ,ハシカミチョウゲンジュヤブ,高知県宿毛市橋上町還住薮
7880051,高知県,宿毛市,押ノ川,コウチケン,スクモシ,オシノカワ,高知県宿毛市押ノ川
7880052,高知県,宿毛市,和田,コウチケン,スクモシ,ワダ,高知県宿毛市和田
7880053,高知県,宿毛市,坂ノ下,コウチケン,スクモシ,サカノシタ,高知県宿毛市坂ノ下
7880054,高知県,宿毛市,さくらが丘,コウチケン,スクモシ,サクラガオカ,高知県宿毛市さくらが丘
7880261,高知県,宿毛市,小筑紫町田ノ浦,コウチケン,スクモシ,コヅクシチョウタノウラ,高知県宿毛市小筑紫町田ノ浦
7880262,高知県,宿毛市,小筑紫町小浦,コウチケン,スクモシ,コヅクシチョウコウラ,高知県宿毛市小筑紫町小浦
7880263,高知県,宿毛市,小筑紫町内外ノ浦,コウチケン,スクモシ,コヅクシチョウナイガイノウラ,高知県宿毛市小筑紫町内外ノ浦
7880264,高知県,宿毛市,小筑紫町呼崎,コウチケン,スクモシ,コヅクシチョウヨビサキ,高知県宿毛市小筑紫町呼崎
7880265,高知県,宿毛市,小筑紫町湊,コウチケン,スクモシ,コヅクシチョウミナト,高知県宿毛市小筑紫町湊
7880266,高知県,宿毛市,小筑紫町大海,コウチケン,スクモシ,コヅクシチョウオオミ,高知県宿毛市小筑紫町大海
7880267,高知県,宿毛市,小筑紫町伊与野,コウチケン,スクモシ,コヅクシチョウイヨノ,高知県宿毛市小筑紫町伊与野
7880268,高知県,宿毛市,小筑紫町都賀ノ川,コウチケン,スクモシ,コヅクシチョウツガノガワ,高知県宿毛市小筑紫町都賀ノ川
7880271,高知県,宿毛市,小筑紫町小筑紫,コウチケン,スクモシ,コヅクシチョウコヅクシ,高知県宿毛市小筑紫町小筑紫
7880272,高知県,宿毛市,小筑紫町石原,コウチケン,スクモシ,コヅクシチョウイシハラ,高知県宿毛市小筑紫町石原
7880273,高知県,宿毛市,小筑紫町福良,コウチケン,スクモシ,コヅクシチョウフクラ,高知県宿毛市小筑紫町福良
7880274,高知県,宿毛市,小筑紫町栄喜,コウチケン,スクモシ,コヅクシチョウサカキ,高知県宿毛市小筑紫町栄喜
7880300,高知県,幡多郡大月町,,コウチケン,ハタグンオオツキチョウ,,高知県幡多郡大月町
7880302,高知県,幡多郡大月町,弘見,コウチケン,ハタグンオオツキチョウ,ヒロミ,高知県幡多郡大月町弘見
7880311,高知県,幡多郡大月町,鉾土,コウチケン,ハタグンオオツキチョウ,ホコツチ,高知県幡多郡大月町鉾土
7880312,高知県,幡多郡大月町,清王,コウチケン,ハタグンオオツキチョウ,セイオウ,高知県幡多郡大月町清王
7880313,高知県,幡多郡大月町,周防形,コウチケン,ハタグンオオツキチョウ,スオウガタ,高知県幡多郡大月町周防形
7880314,高知県,幡多郡大月町,頭集,コウチケン,ハタグンオオツキチョウ,カシラツドイ,高知県幡多郡大月町頭集
7880315,高知県,幡多郡大月町,古満目,コウチケン,ハタグンオオツキチョウ,コマメ,高知県幡多郡大月町古満目
7880321,高知県,幡多郡大月町,春遠,コウチケン,ハタグンオオツキチョウ,ハルドオ,高知県幡多郡大月町春遠
7880322,高知県,幡多郡大月町,小才角,コウチケン,ハタグンオオツキチョウ,コサイツノ,高知県幡多郡大月町小才角
7880323,高知県,幡多郡大月町,才角,コウチケン,ハタグンオオツキチョウ,サイツノ,高知県幡多郡大月町才角
7880324,高知県,幡多郡大月町,大浦,コウチケン,ハタグンオオツキチョウ,オオウラ,高知県幡多郡大月町大浦
7880325,高知県,幡多郡大月町,月ケ丘,コウチケン,ハタグンオオツキチョウ,ツキガオカ,高知県幡多郡大月町月ケ丘
7880331,高知県,幡多郡大月町,口目塚,コウチケン,ハタグンオオツキチョウ,クチメヅカ,高知県幡多郡大月町口目塚
7880331,高知県,幡多郡大月町,姫ノ井,コウチケン,ハタグンオオツキチョウ,ヒメノイ,高知県幡多郡大月町姫ノ井
7880332,高知県,幡多郡大月町,赤泊,コウチケン,ハタグンオオツキチョウ,アカドマリ,高知県幡多郡大月町赤泊
7880333,高知県,幡多郡大月町,西泊,コウチケン,ハタグンオオツキチョウ,ニシドマリ,高知県幡多郡大月町西泊
7880334,高知県,幡多郡大月町,樫ノ浦,コウチケン,ハタグンオオツキチョウ,カシノウラ,高知県幡多郡大月町樫ノ浦
7880335,高知県,幡多郡大月町,唐岩,コウチケン,ハタグンオオツキチョウ,カライワ,高知県幡多郡大月町唐岩
7880341,高知県,幡多郡大月町,平山,コウチケン,ハタグンオオツキチョウ,ヒラヤマ,高知県幡多郡大月町平山
7880342,高知県,幡多郡大月町,一切,コウチケン,ハタグンオオツキチョウ,イッサイ,高知県幡多郡大月町一切
7880343,高知県,幡多郡大月町,柏島,コウチケン,ハタグンオオツキチョウ,カシワジマ,高知県幡多郡大月町柏島
7880351,高知県,幡多郡大月町,安満地,コウチケン,ハタグンオオツキチョウ,アマジ,高知県幡多郡大月町安満地
7880352,高知県,幡多郡大月町,橘浦,コウチケン,ハタグンオオツキチョウ,タチバナウラ,高知県幡多郡大月町橘浦
7880353,高知県,幡多郡大月町,泊浦,コウチケン,ハタグンオオツキチョウ,トマリウラ,高知県幡多郡大月町泊浦
7880361,高知県,幡多郡大月町,龍ケ迫,コウチケン,ハタグンオオツキチョウ,タツガサコ,高知県幡多郡大月町龍ケ迫
7880362,高知県,幡多郡大月町,芳ノ沢,コウチケン,ハタグンオオツキチョウ,ヨシノサワ,高知県幡多郡大月町芳ノ沢
7880363,高知県,幡多郡大月町,添ノ川,コウチケン,ハタグンオオツキチョウ,ソイノカワ,高知県幡多郡大月町添ノ川
7880677,高知県,宿毛市,沖の島町母島,コウチケン,スクモシ,オキノシマチョウモシマ,高知県宿毛市沖の島町母島
7880678,高知県,宿毛市,沖の島町弘瀬,コウチケン,スクモシ,オキノシマチョウヒロセ,高知県宿毛市沖の島町弘瀬
7880679,高知県,宿毛市,沖の島町鵜来島,コウチケン,スクモシ,オキノシマチョウウグルシマ,高知県宿毛市沖の島町鵜来島
7880781,高知県,宿毛市,平田町黒川,コウチケン,スクモシ,ヒラタチョウクロカワ,高知県宿毛市平田町黒川
7880782,高知県,宿毛市,平田町中山,コウチケン,スクモシ,ヒラタチョウナカヤマ,高知県宿毛市平田町中山
7880783,高知県,宿毛市,平田町戸内,コウチケン,スクモシ,ヒラタチョウヘナイ,高知県宿毛市平田町戸内
7880784,高知県,宿毛市,山奈町山田,コウチケン,スクモシ,ヤマナチョウヤマダ,高知県宿毛市山奈町山田
7880785,高知県,宿毛市,山奈町芳奈,コウチケン,スクモシ,ヤマナチョウヨシナ,高知県宿毛市山奈町芳奈
7880786,高知県,宿毛市,平田町東平,コウチケン,スクモシ,ヒラタチョウヒガシダイラ,高知県宿毛市平田町東平
7890156,高知県,長岡郡大豊町,八川,コウチケン,ナガオカグンオオトヨチョウ,ヤカワ,高知県長岡郡大豊町八川
7890157,高知県,長岡郡大豊町,筏木,コウチケン,ナガオカグンオオトヨチョウ,イカダギ,高知県長岡郡大豊町筏木
7890158,高知県,長岡郡大豊町,岩原,コウチケン,ナガオカグンオオトヨチョウ,イワハラ,高知県長岡郡大豊町岩原
7890159,高知県,長岡郡大豊町,西峰（三谷）,コウチケン,ナガオカグンオオトヨチョウ,ニシミネ(ミタニ),高知県長岡郡大豊町西峰（三谷）
7890160,高知県,長岡郡大豊町,西峰（その他）,コウチケン,ナガオカグンオオトヨチョウ,ニシミネ(ソノタ),高知県長岡郡大豊町西峰（その他）
7890161,高知県,長岡郡大豊町,柚木,コウチケン,ナガオカグンオオトヨチョウ,ユノキ,高知県長岡郡大豊町柚木
7890162,高知県,長岡郡大豊町,怒田,コウチケン,ナガオカグンオオトヨチョウ,ヌタ,高知県長岡郡大豊町怒田
7890163,高知県,長岡郡大豊町,南大王,コウチケン,ナガオカグンオオトヨチョウ,ミナミダイオウ,高知県長岡郡大豊町南大王
7890164,高知県,長岡郡大豊町,八畝,コウチケン,ナガオカグンオオトヨチョウ,ヨウネ,高知県長岡郡大豊町八畝
7890165,高知県,長岡郡大豊町,西川,コウチケン,ナガオカグンオオトヨチョウ,ニシガワ,高知県長岡郡大豊町西川
7890166,高知県,長岡郡大豊町,東土居,コウチケン,ナガオカグンオオトヨチョウ,ヒガシドイ,高知県長岡郡大豊町東土居
7890167,高知県,長岡郡大豊町,粟生,コウチケン,ナガオカグンオオトヨチョウ,アオウ,高知県長岡郡大豊町粟生
7890168,高知県,長岡郡大豊町,立野,コウチケン,ナガオカグンオオトヨチョウ,タツノ,高知県長岡郡大豊町立野
7890169,高知県,長岡郡大豊町,大平（その他）,コウチケン,ナガオカグンオオトヨチョウ,オオダイラ(ソノタ),高知県長岡郡大豊町大平（その他）
7890170,高知県,長岡郡大豊町,大滝（落合）,コウチケン,ナガオカグンオオトヨチョウ,オオダキ(オチアイ),高知県長岡郡大豊町大滝（落合）
7890171,高知県,長岡郡大豊町,大滝（その他）,コウチケン,ナガオカグンオオトヨチョウ,オオダキ(ソノタ),高知県長岡郡大豊町大滝（その他）
7890172,高知県,長岡郡大豊町,川井,コウチケン,ナガオカグンオオトヨチョウ,カワイ,高知県長岡郡大豊町川井
7890173,高知県,長岡郡大豊町,大平（高原）,コウチケン,ナガオカグンオオトヨチョウ,オオダイラ(タカハラ),高知県長岡郡大豊町大平（高原）
7890174,高知県,長岡郡大豊町,中内,コウチケン,ナガオカグンオオトヨチョウ,ナカウチ,高知県長岡郡大豊町中内
7890231,高知県,長岡郡大豊町,奥大田,コウチケン,ナガオカグンオオトヨチョウ,オクオオタ,高知県長岡郡大豊町奥大田
7890232,高知県,長岡郡大豊町,梶ケ内（石堂、佐賀井）,コウチケン,ナガオカグンオオトヨチョウ,カジガウチ(イシドウ、サガイ),高知県長岡郡大豊町梶ケ内（石堂、佐賀井）
7890233,高知県,長岡郡大豊町,磯谷,コウチケン,ナガオカグンオオトヨチョウ,イソダニ,高知県長岡郡大豊町磯谷
7890234,高知県,長岡郡大豊町,寺内（大田口）,コウチケン,ナガオカグンオオトヨチョウ,テラウチ(オオタグチ),高知県長岡郡大豊町寺内（大田口）
7890235,高知県,長岡郡大豊町,船戸,コウチケン,ナガオカグンオオトヨチョウ,フナト,高知県長岡郡大豊町船戸
7890236,高知県,長岡郡大豊町,和田（目付）,コウチケン,ナガオカグンオオトヨチョウ,ワダ(メツケ),高知県長岡郡大豊町和田（目付）
7890237,高知県,長岡郡大豊町,庵谷,コウチケン,ナガオカグンオオトヨチョウ,イオノタニ,高知県長岡郡大豊町庵谷
7890241,高知県,長岡郡大豊町,川戸,コウチケン,ナガオカグンオオトヨチョウ,カワド,高知県長岡郡大豊町川戸
7890242,高知県,長岡郡大豊町,連火,コウチケン,ナガオカグンオオトヨチョウ,ツレビ,高知県長岡郡大豊町連火
7890243,高知県,長岡郡大豊町,西久保,コウチケン,ナガオカグンオオトヨチョウ,ニシクボ,高知県長岡郡大豊町西久保
7890244,高知県,長岡郡大豊町,桃原,コウチケン,ナガオカグンオオトヨチョウ,モモハラ,高知県長岡郡大豊町桃原
7890245,高知県,長岡郡大豊町,永淵,コウチケン,ナガオカグンオオトヨチョウ,ナガフチ,高知県長岡郡大豊町永淵
7890246,高知県,長岡郡大豊町,柳野,コウチケン,ナガオカグンオオトヨチョウ,ヤナギノ,高知県長岡郡大豊町柳野
7890247,高知県,長岡郡大豊町,大砂子,コウチケン,ナガオカグンオオトヨチョウ,オオスナゴ,高知県長岡郡大豊町大砂子
7890248,高知県,長岡郡大豊町,大久保,コウチケン,ナガオカグンオオトヨチョウ,オオクボ,高知県長岡郡大豊町大久保
7890250,高知県,長岡郡大豊町,黒石,コウチケン,ナガオカグンオオトヨチョウ,クロイシ,高知県長岡郡大豊町黒石
7890251,高知県,長岡郡大豊町,中屋,コウチケン,ナガオカグンオオトヨチョウ,ナカヤ,高知県長岡郡大豊町中屋
7890252,高知県,長岡郡大豊町,上東,コウチケン,ナガオカグンオオトヨチョウ,カミヒガシ,高知県長岡郡大豊町上東
7890253,高知県,長岡郡大豊町,安野々,コウチケン,ナガオカグンオオトヨチョウ,ヤスノノ,高知県長岡郡大豊町安野々
7890254,高知県,長岡郡大豊町,西土居,コウチケン,ナガオカグンオオトヨチョウ,ニシドイ,高知県長岡郡大豊町西土居
7890255,高知県,長岡郡大豊町,佐賀山,コウチケン,ナガオカグンオオトヨチョウ,サガヤマ,高知県長岡郡大豊町佐賀山
7890300,高知県,長岡郡大豊町,,コウチケン,ナガオカグンオオトヨチョウ,,高知県長岡郡大豊町
7890301,高知県,長岡郡大豊町,津家（桧生）,コウチケン,ナガオカグンオオトヨチョウ,ツゲ(ヒノキオ),高知県長岡郡大豊町津家（桧生）
7890302,高知県,長岡郡大豊町,葛原（その他）,コウチケン,ナガオカグンオオトヨチョウ,カズラワラ(ソノタ),高知県長岡郡大豊町葛原（その他）
7890303,高知県,長岡郡大豊町,川口,コウチケン,ナガオカグンオオトヨチョウ,カワグチ,高知県長岡郡大豊町川口
7890304,高知県,長岡郡大豊町,谷,コウチケン,ナガオカグンオオトヨチョウ,タニ,高知県長岡郡大豊町谷
7890305,高知県,長岡郡大豊町,式岩,コウチケン,ナガオカグンオオトヨチョウ,シキノイワ,高知県長岡郡大豊町式岩
7890306,高知県,長岡郡大豊町,尾生,コウチケン,ナガオカグンオオトヨチョウ,オウ,高知県長岡郡大豊町尾生
7890307,高知県,長岡郡大豊町,穴内,コウチケン,ナガオカグンオオトヨチョウ,アナナイ,高知県長岡郡大豊町穴内
7890311,高知県,長岡郡大豊町,杉,コウチケン,ナガオカグンオオトヨチョウ,スギ,高知県長岡郡大豊町杉
7890312,高知県,長岡郡大豊町,高須,コウチケン,ナガオカグンオオトヨチョウ,タカズ,高知県長岡郡大豊町高須
7890313,高知県,長岡郡大豊町,川口南,コウチケン,ナガオカグンオオトヨチョウ,カワグチミナミ,高知県長岡郡大豊町川口南
7890314,高知県,長岡郡大豊町,日浦,コウチケン,ナガオカグンオオトヨチョウ,ヒウラ,高知県長岡郡大豊町日浦
7890315,高知県,長岡郡大豊町,中村大王,コウチケン,ナガオカグンオオトヨチョウ,ナカムラダイオウ,高知県長岡郡大豊町中村大王
7890316,高知県,長岡郡大豊町,小川,コウチケン,ナガオカグンオオトヨチョウ,オガワ,高知県長岡郡大豊町小川
7890321,高知県,長岡郡大豊町,角茂谷,コウチケン,ナガオカグンオオトヨチョウ,カクモダニ,高知県長岡郡大豊町角茂谷
7890322,高知県,長岡郡大豊町,戸手野,コウチケン,ナガオカグンオオトヨチョウ,トデノ,高知県長岡郡大豊町戸手野
7890323,高知県,長岡郡大豊町,馬瀬,コウチケン,ナガオカグンオオトヨチョウ,ウマゼ,高知県長岡郡大豊町馬瀬
7890324,高知県,長岡郡大豊町,久寿軒,コウチケン,ナガオカグンオオトヨチョウ,クスノキ,高知県長岡郡大豊町久寿軒
7890325,高知県,長岡郡大豊町,北川,コウチケン,ナガオカグンオオトヨチョウ,キタガワ,高知県長岡郡大豊町北川
7890426,高知県,長岡郡大豊町,立川上名,コウチケン,ナガオカグンオオトヨチョウ,タジカワカミミョウ,高知県長岡郡大豊町立川上名
7890427,高知県,長岡郡大豊町,立川下名,コウチケン,ナガオカグンオオトヨチョウ,タジカワシモミョウ,高知県長岡郡大豊町立川下名
7890428,高知県,長岡郡大豊町,葛原（千野々）,コウチケン,ナガオカグンオオトヨチョウ,カズラワラ(チノノ),高知県長岡郡大豊町葛原（千野々）
7890581,高知県,香美市,土佐山田町西又,コウチケン,カミシ,トサヤマダチョウニシマタ,高知県香美市土佐山田町西又
7890582,高知県,香美市,土佐山田町角茂谷,コウチケン,カミシ,トサヤマダチョウカクモダニ,高知県香美市土佐山田町角茂谷
7890583,高知県,香美市,土佐山田町平山（岡田丸、双子岩、向田）,コウチケン,カミシ,トサヤマダチョウヒラヤマ(オカダマル、フタゴイワ、ムカイダ),高知県香美市土佐山田町平山（岡田丸、双子岩、向田）
7890584,高知県,香美市,土佐山田町北滝本,コウチケン,カミシ,トサヤマダチョウキタタキモト,高知県香美市土佐山田町北滝本
7890585,高知県,香美市,土佐山田町繁藤,コウチケン,カミシ,トサヤマダチョウシゲトウ,高知県香美市土佐山田町繁藤
7890586,高知県,香美市,土佐山田町樫谷,コウチケン,カミシ,トサヤマダチョウカシノタニ,高知県香美市土佐山田町樫谷
7890587,高知県,香美市,土佐山田町上穴内,コウチケン,カミシ,トサヤマダチョウカミアナナイ,高知県香美市土佐山田町上穴内
7891200,高知県,高岡郡佐川町,,コウチケン,タカオカグンサカワチョウ,,高知県高岡郡佐川町
7891201,高知県,高岡郡佐川町,甲,コウチケン,タカオカグンサカワチョウ,コウ,高知県高岡郡佐川町甲
7891202,高知県,高岡郡佐川町,乙,コウチケン,タカオカグンサカワチョウ,オツ,高知県高岡郡佐川町乙
7891203,高知県,高岡郡佐川町,丙,コウチケン,タカオカグンサカワチョウ,ヘイ,高知県高岡郡佐川町丙
7891204,高知県,高岡郡佐川町,加茂,コウチケン,タカオカグンサカワチョウ,カモ,高知県高岡郡佐川町加茂
7891205,高知県,高岡郡佐川町,室原,コウチケン,タカオカグンサカワチョウ,ムロハラ,高知県高岡郡佐川町室原
7891211,高知県,高岡郡佐川町,黒原,コウチケン,タカオカグンサカワチョウ,クロハラ,高知県高岡郡佐川町黒原
7891212,高知県,高岡郡佐川町,四ツ白,コウチケン,タカオカグンサカワチョウ,ヨツジロ,高知県高岡郡佐川町四ツ白
7891213,高知県,高岡郡佐川町,二ツ野,コウチケン,タカオカグンサカワチョウ,フタツノ,高知県高岡郡佐川町二ツ野
7891214,高知県,高岡郡佐川町,中野,コウチケン,タカオカグンサカワチョウ,ナカノ,高知県高岡郡佐川町中野
7891215,高知県,高岡郡佐川町,瑞応,コウチケン,タカオカグンサカワチョウ,ズイオウ,高知県高岡郡佐川町瑞応
7891216,高知県,高岡郡佐川町,庄田,コウチケン,タカオカグンサカワチョウ,ショウダ,高知県高岡郡佐川町庄田
7891217,高知県,高岡郡佐川町,大田川,コウチケン,タカオカグンサカワチョウ,オオタカワ,高知県高岡郡佐川町大田川
7891218,高知県,高岡郡佐川町,平野,コウチケン,タカオカグンサカワチョウ,ヒラノ,高知県高岡郡佐川町平野
7891221,高知県,高岡郡佐川町,本郷耕,コウチケン,タカオカグンサカワチョウ,ホンゴウコウ,高知県高岡郡佐川町本郷耕
7891222,高知県,高岡郡佐川町,西山組,コウチケン,タカオカグンサカワチョウ,ニシヤマグミ,高知県高岡郡佐川町西山組
7891223,高知県,高岡郡佐川町,西山耕,コウチケン,タカオカグンサカワチョウ,ニシヤマコウ,高知県高岡郡佐川町西山耕
7891224,高知県,高岡郡佐川町,古畑耕,コウチケン,タカオカグンサカワチョウ,フルハタコウ,高知県高岡郡佐川町古畑耕
7891225,高知県,高岡郡佐川町,峰耕,コウチケン,タカオカグンサカワチョウ,ミネコウ,高知県高岡郡佐川町峰耕
7891231,高知県,高岡郡佐川町,永野,コウチケン,タカオカグンサカワチョウ,ナガノ,高知県高岡郡佐川町永野
7891232,高知県,高岡郡佐川町,東組,コウチケン,タカオカグンサカワチョウ,ヒガシグミ,高知県高岡郡佐川町東組
7891233,高知県,高岡郡佐川町,中組,コウチケン,タカオカグンサカワチョウ,ナカグミ,高知県高岡郡佐川町中組
7891234,高知県,高岡郡佐川町,西組,コウチケン,タカオカグンサカワチョウ,ニシグミ,高知県高岡郡佐川町西組
7891235,高知県,高岡郡佐川町,川ノ内組,コウチケン,タカオカグンサカワチョウ,カワノウチグミ,高知県高岡郡佐川町川ノ内組
7891300,高知県,高岡郡中土佐町,,コウチケン,タカオカグンナカトサチョウ,,高知県高岡郡中土佐町
7891301,高知県,高岡郡中土佐町,久礼,コウチケン,タカオカグンナカトサチョウ,クレ,高知県高岡郡中土佐町久礼
7891302,高知県,高岡郡中土佐町,上ノ加江,コウチケン,タカオカグンナカトサチョウ,カミノカエ,高知県高岡郡中土佐町上ノ加江
7891303,高知県,高岡郡中土佐町,矢井賀甲,コウチケン,タカオカグンナカトサチョウ,ヤイカコウ,高知県高岡郡中土佐町矢井賀甲
7891304,高知県,高岡郡中土佐町,矢井賀乙,コウチケン,タカオカグンナカトサチョウ,ヤイカオツ,高知県高岡郡中土佐町矢井賀乙
7891401,高知県,高岡郡中土佐町,大野見吉野,コウチケン,タカオカグンナカトサチョウ,オオノミヨシノ,高知県高岡郡中土佐町大野見吉野
7891402,高知県,高岡郡中土佐町,大野見橋谷,コウチケン,タカオカグンナカトサチョウ,オオノミハシダニ,高知県高岡郡中土佐町大野見橋谷
7891403,高知県,高岡郡中土佐町,大野見久万秋,コウチケン,タカオカグンナカトサチョウ,オオノミクマアキ,高知県高岡郡中土佐町大野見久万秋
7891404,高知県,高岡郡中土佐町,大野見奈路,コウチケン,タカオカグンナカトサチョウ,オオノミナロ,高知県高岡郡中土佐町大野見奈路
7891405,高知県,高岡郡中土佐町,大野見伊勢川,コウチケン,タカオカグンナカトサチョウ,オオノミイセガワ,高知県高岡郡中土佐町大野見伊勢川
7891406,高知県,高岡郡中土佐町,大野見槇野々,コウチケン,タカオカグンナカトサチョウ,オオノミマキノノ,高知県高岡郡中土佐町大野見槇野々
7891407,高知県,高岡郡中土佐町,大野見三ツ又,コウチケン,タカオカグンナカトサチョウ,オオノミミツマタ,高知県高岡郡中土佐町大野見三ツ又
7891408,高知県,高岡郡中土佐町,大野見長野,コウチケン,タカオカグンナカトサチョウ,オオノミナガノ,高知県高岡郡中土佐町大野見長野
7891409,高知県,高岡郡中土佐町,大野見竹原,コウチケン,タカオカグンナカトサチョウ,オオノミタケハラ,高知県高岡郡中土佐町大野見竹原
7891410,高知県,高岡郡中土佐町,大野見栂ノ川,コウチケン,タカオカグンナカトサチョウ,オオノミツガノカワ,高知県高岡郡中土佐町大野見栂ノ川
7891411,高知県,高岡郡中土佐町,大野見野老野,コウチケン,タカオカグンナカトサチョウ,オオノミトコロノ,高知県高岡郡中土佐町大野見野老野
7891412,高知県,高岡郡中土佐町,大野見川奥,コウチケン,タカオカグンナカトサチョウ,オオノミカワオク,高知県高岡郡中土佐町大野見川奥
7891413,高知県,高岡郡中土佐町,大野見荒瀬,コウチケン,タカオカグンナカトサチョウ,オオノミアラセ,高知県高岡郡中土佐町大野見荒瀬
7891414,高知県,高岡郡中土佐町,大野見神母野,コウチケン,タカオカグンナカトサチョウ,オオノミイゲノ,高知県高岡郡中土佐町大野見神母野
7891415,高知県,高岡郡中土佐町,大野見寺野,コウチケン,タカオカグンナカトサチョウ,オオノミテラノ,高知県高岡郡中土佐町大野見寺野
7891416,高知県,高岡郡中土佐町,大野見下ル川,コウチケン,タカオカグンナカトサチョウ,オオノミクダルカワ,高知県高岡郡中土佐町大野見下ル川
7891417,高知県,高岡郡中土佐町,大野見萩中,コウチケン,タカオカグンナカトサチョウ,オオノミハギナカ,高知県高岡郡中土佐町大野見萩中
7891418,高知県,高岡郡中土佐町,大野見大股,コウチケン,タカオカグンナカトサチョウ,オオノミオオマタ,高知県高岡郡中土佐町大野見大股
7891419,高知県,高岡郡中土佐町,大野見島ノ川,コウチケン,タカオカグンナカトサチョウ,オオノミシマノガワ,高知県高岡郡中土佐町大野見島ノ川
7891701,高知県,幡多郡黒潮町,市野瀬,コウチケン,ハタグンクロシオチョウ,イチノセ,高知県幡多郡黒潮町市野瀬
7891702,高知県,幡多郡黒潮町,佐賀橘川,コウチケン,ハタグンクロシオチョウ,サガタチバナガワ,高知県幡多郡黒潮町佐賀橘川
7891703,高知県,幡多郡黒潮町,拳ノ川,コウチケン,ハタグンクロシオチョウ,コブシノカワ,高知県幡多郡黒潮町拳ノ川
7891704,高知県,幡多郡黒潮町,川奥,コウチケン,ハタグンクロシオチョウ,カワオク,高知県幡多郡黒潮町川奥
7891705,高知県,幡多郡黒潮町,荷稲,コウチケン,ハタグンクロシオチョウ,カイナ,高知県幡多郡黒潮町荷稲
7891706,高知県,幡多郡黒潮町,小黒ノ川,コウチケン,ハタグンクロシオチョウ,コグロノカワ,高知県幡多郡黒潮町小黒ノ川
7891707,高知県,幡多郡黒潮町,中ノ川,コウチケン,ハタグンクロシオチョウ,ナカノカワ,高知県幡多郡黒潮町中ノ川
7891708,高知県,幡多郡黒潮町,鈴,コウチケン,ハタグンクロシオチョウ,スズ,高知県幡多郡黒潮町鈴
7891711,高知県,幡多郡黒潮町,市野々川,コウチケン,ハタグンクロシオチョウ,イチノノガワ,高知県幡多郡黒潮町市野々川
7891712,高知県,幡多郡黒潮町,不破原,コウチケン,ハタグンクロシオチョウ,フバハラ,高知県幡多郡黒潮町不破原
7891713,高知県,幡多郡黒潮町,伊与喜,コウチケン,ハタグンクロシオチョウ,イヨキ,高知県幡多郡黒潮町伊与喜
7891714,高知県,幡多郡黒潮町,藤縄,コウチケン,ハタグンクロシオチョウ,フジナワ,高知県幡多郡黒潮町藤縄
7891715,高知県,幡多郡黒潮町,熊井,コウチケン,ハタグンクロシオチョウ,クマイ,高知県幡多郡黒潮町熊井
7891716,高知県,幡多郡黒潮町,熊野浦,コウチケン,ハタグンクロシオチョウ,クマノウラ,高知県幡多郡黒潮町熊野浦
7891720,高知県,幡多郡黒潮町,佐賀（その他）,コウチケン,ハタグンクロシオチョウ,サガ(ソノタ),高知県幡多郡黒潮町佐賀（その他）
7891721,高知県,幡多郡黒潮町,佐賀（中角）,コウチケン,ハタグンクロシオチョウ,サガ(ナカカド),高知県幡多郡黒潮町佐賀（中角）
7891722,高知県,幡多郡黒潮町,佐賀（坂折）,コウチケン,ハタグンクロシオチョウ,サガ(サカオリ),高知県幡多郡黒潮町佐賀（坂折）
7891723,高知県,幡多郡黒潮町,佐賀（馬地）,コウチケン,ハタグンクロシオチョウ,サガ(ウマジ),高知県幡多郡黒潮町佐賀（馬地）
7891724,高知県,幡多郡黒潮町,佐賀（横浜）,コウチケン,ハタグンクロシオチョウ,サガ(ヨコハマ),高知県幡多郡黒潮町佐賀（横浜）
7891725,高知県,幡多郡黒潮町,白浜,コウチケン,ハタグンクロシオチョウ,シラハマ,高知県幡多郡黒潮町白浜
7891900,高知県,幡多郡黒潮町,,コウチケン,ハタグンクロシオチョウ,,高知県幡多郡黒潮町
7891901,高知県,幡多郡黒潮町,上川口,コウチケン,ハタグンクロシオチョウ,カミカワグチ,高知県幡多郡黒潮町上川口
7891902,高知県,幡多郡黒潮町,蜷川,コウチケン,ハタグンクロシオチョウ,ミナガワ,高知県幡多郡黒潮町蜷川
7891903,高知県,幡多郡黒潮町,有井川,コウチケン,ハタグンクロシオチョウ,アリイガワ,高知県幡多郡黒潮町有井川
7891904,高知県,幡多郡黒潮町,伊田,コウチケン,ハタグンクロシオチョウ,イダ,高知県幡多郡黒潮町伊田
7891905,高知県,幡多郡黒潮町,灘,コウチケン,ハタグンクロシオチョウ,ナダ,高知県幡多郡黒潮町灘
7891911,高知県,幡多郡黒潮町,浮鞭,コウチケン,ハタグンクロシオチョウ,ウキブチ,高知県幡多郡黒潮町浮鞭
7891912,高知県,幡多郡黒潮町,口湊川,コウチケン,ハタグンクロシオチョウ,クチミナトガワ,高知県幡多郡黒潮町口湊川
7891913,高知県,幡多郡黒潮町,奥湊川,コウチケン,ハタグンクロシオチョウ,オクミナトガワ,高知県幡多郡黒潮町奥湊川
7891921,高知県,幡多郡黒潮町,加持,コウチケン,ハタグンクロシオチョウ,カモチ,高知県幡多郡黒潮町加持
7891922,高知県,幡多郡黒潮町,加持川,コウチケン,ハタグンクロシオチョウ,カモチガワ,高知県幡多郡黒潮町加持川
7891923,高知県,幡多郡黒潮町,大井川,コウチケン,ハタグンクロシオチョウ,オオイガワ,高知県幡多郡黒潮町大井川
7891924,高知県,幡多郡黒潮町,馬荷,コウチケン,ハタグンクロシオチョウ,ウマニ,高知県幡多郡黒潮町馬荷
7891925,高知県,幡多郡黒潮町,大方橘川,コウチケン,ハタグンクロシオチョウ,オオガタタチバナガワ,高知県幡多郡黒潮町大方橘川
7891931,高知県,幡多郡黒潮町,入野,コウチケン,ハタグンクロシオチョウ,イリノ,高知県幡多郡黒潮町入野
7891932,高知県,幡多郡黒潮町,下田の口,コウチケン,ハタグンクロシオチョウ,シモタノクチ,高知県幡多郡黒潮町下田の口
7891933,高知県,幡多郡黒潮町,田野浦,コウチケン,ハタグンクロシオチョウ,タノウラ,高知県幡多郡黒潮町田野浦
7891934,高知県,幡多郡黒潮町,出口,コウチケン,ハタグンクロシオチョウ,イデグチ,高知県幡多郡黒潮町出口
7891935,高知県,幡多郡黒潮町,上田の口,コウチケン,ハタグンクロシオチョウ,カミタノクチ,高知県幡多郡黒潮町上田の口
7891936,高知県,幡多郡黒潮町,御坊畑,コウチケン,ハタグンクロシオチョウ,オンボウバタ,高知県幡多郡黒潮町御坊畑
