zipcode,prefecture_name,city,town,prefecture_kana,city_kana,town_kana,normalized_address
9800000,宮城県,仙台市青葉区,,ミヤギケン,センダイシアオバク,,宮城県仙台市青葉区
9800001,宮城県,仙台市青葉区,中江,ミヤギケン,センダイシアオバク,ナカエ,宮城県仙台市青葉区中江
9800002,宮城県,仙台市青葉区,福沢町,ミヤギケン,センダイシアオバク,フクザワマチ,宮城県仙台市青葉区福沢町
9800003,宮城県,仙台市青葉区,小田原（４〜８丁目）,ミヤギケン,センダイシアオバク,オダワラ(4チョウメ-8チョウメ),宮城県仙台市青葉区小田原（4〜8-）
9800004,宮城県,仙台市青葉区,宮町,ミヤギケン,センダイシアオバク,ミヤマチ,宮城県仙台市青葉区宮町
9800005,宮城県,仙台市青葉区,梅田町,ミヤギケン,センダイシアオバク,ウメダマチ,宮城県仙台市青葉区梅田町
9800011,宮城県,仙台市青葉区,上杉,ミヤギケン,センダイシアオバク,カミスギ,宮城県仙台市青葉区上杉
9800012,宮城県,仙台市青葉区,錦町,ミヤギケン,センダイシアオバク,ニシキチョウ,宮城県仙台市青葉区錦町
9800013,宮城県,仙台市青葉区,花京院,ミヤギケン,センダイシアオバク,カキョウイン,宮城県仙台市青葉区花京院
9800014,宮城県,仙台市青葉区,本町,ミヤギケン,センダイシアオバク,ホンチョウ,宮城県仙台市青葉区本町
9800021,宮城県,仙台市青葉区,中央（次のビルを除く）,ミヤギケン,センダイシアオバク,チュウオウ(ツギノビルヲノゾク),宮城県仙台市青葉区中央（次のビルを除く）
9800022,宮城県,仙台市青葉区,五橋（１、２丁目）,ミヤギケン,センダイシアオバク,イツツバシ(1、2チョウメ),宮城県仙台市青葉区五橋（1、2-）
9800023,宮城県,仙台市青葉区,北目町,ミヤギケン,センダイシアオバク,キタメマチ,宮城県仙台市青葉区北目町
9800065,宮城県,仙台市青葉区,土樋（１丁目「１１を除く」）,ミヤギケン,センダイシアオバク,ツチトイ(1チョウメ<11ヲノゾク>),宮城県仙台市青葉区土樋（1-「11を除く」）
9800801,宮城県,仙台市青葉区,木町通,ミヤギケン,センダイシアオバク,キマチドオリ,宮城県仙台市青葉区木町通
9800802,宮城県,仙台市青葉区,二日町,ミヤギケン,センダイシアオバク,フツカマチ,宮城県仙台市青葉区二日町
9800803,宮城県,仙台市青葉区,国分町,ミヤギケン,センダイシアオバク,コクブンチョウ,宮城県仙台市青葉区国分町
9800804,宮城県,仙台市青葉区,大町,ミヤギケン,センダイシアオバク,オオマチ,宮城県仙台市青葉区大町
9800805,宮城県,仙台市青葉区,大手町,ミヤギケン,センダイシアオバク,オオテマチ,宮城県仙台市青葉区大手町
9800811,宮城県,仙台市青葉区,一番町,ミヤギケン,センダイシアオバク,イチバンチョウ,宮城県仙台市青葉区一番町
9800812,宮城県,仙台市青葉区,片平,ミヤギケン,センダイシアオバク,カタヒラ,宮城県仙台市青葉区片平
9800813,宮城県,仙台市青葉区,米ケ袋,ミヤギケン,センダイシアオバク,コメガフクロ,宮城県仙台市青葉区米ケ袋
9800814,宮城県,仙台市青葉区,霊屋下,ミヤギケン,センダイシアオバク,オタマヤシタ,宮城県仙台市青葉区霊屋下
9800815,宮城県,仙台市青葉区,花壇,ミヤギケン,センダイシアオバク,カダン,宮城県仙台市青葉区花壇
9800821,宮城県,仙台市青葉区,春日町,ミヤギケン,センダイシアオバク,カスガマチ,宮城県仙台市青葉区春日町
9800822,宮城県,仙台市青葉区,立町,ミヤギケン,センダイシアオバク,タチマチ,宮城県仙台市青葉区立町
9800823,宮城県,仙台市青葉区,桜ケ岡公園,ミヤギケン,センダイシアオバク,サクラガオカコウエン,宮城県仙台市青葉区桜ケ岡公園
9800824,宮城県,仙台市青葉区,支倉町,ミヤギケン,センダイシアオバク,ハセクラマチ,宮城県仙台市青葉区支倉町
9800845,宮城県,仙台市青葉区,荒巻（その他）,ミヤギケン,センダイシアオバク,アラマキ(ソノタ),宮城県仙台市青葉区荒巻（その他）
9800851,宮城県,仙台市青葉区,川内明神横丁,ミヤギケン,センダイシアオバク,カワウチミョウジンヨコチョウ,宮城県仙台市青葉区川内明神横丁
9800852,宮城県,仙台市青葉区,川内川前丁,ミヤギケン,センダイシアオバク,カワウチカワマエチョウ,宮城県仙台市青葉区川内川前丁
9800853,宮城県,仙台市青葉区,川内大工町,ミヤギケン,センダイシアオバク,カワウチダイクマチ,宮城県仙台市青葉区川内大工町
9800854,宮城県,仙台市青葉区,川内中ノ瀬町,ミヤギケン,センダイシアオバク,カワウチナカノセマチ,宮城県仙台市青葉区川内中ノ瀬町
9800855,宮城県,仙台市青葉区,川内澱橋通,ミヤギケン,センダイシアオバク,カワウチヨドミバシドオリ,宮城県仙台市青葉区川内澱橋通
9800856,宮城県,仙台市青葉区,青葉山,ミヤギケン,センダイシアオバク,アオバヤマ,宮城県仙台市青葉区青葉山
9800861,宮城県,仙台市青葉区,川内元支倉,ミヤギケン,センダイシアオバク,カワウチモトハセクラ,宮城県仙台市青葉区川内元支倉
9800862,宮城県,仙台市青葉区,川内,ミヤギケン,センダイシアオバク,カワウチ,宮城県仙台市青葉区川内
9800863,宮城県,仙台市青葉区,川内追廻,ミヤギケン,センダイシアオバク,カワウチオイマワシ,宮城県仙台市青葉区川内追廻
9800864,宮城県,仙台市青葉区,川内山屋敷,ミヤギケン,センダイシアオバク,カワウチヤマヤシキ,宮城県仙台市青葉区川内山屋敷
9800865,宮城県,仙台市青葉区,川内亀岡町,ミヤギケン,センダイシアオバク,カワウチカメオカチョウ,宮城県仙台市青葉区川内亀岡町
9800866,宮城県,仙台市青葉区,川内三十人町,ミヤギケン,センダイシアオバク,カワウチサンジュウニンマチ,宮城県仙台市青葉区川内三十人町
9800867,宮城県,仙台市青葉区,川内亀岡北裏丁,ミヤギケン,センダイシアオバク,カワウチカメオカキタウラチョウ,宮城県仙台市青葉区川内亀岡北裏丁
9800871,宮城県,仙台市青葉区,八幡,ミヤギケン,センダイシアオバク,ハチマン,宮城県仙台市青葉区八幡
9800872,宮城県,仙台市青葉区,星陵町,ミヤギケン,センダイシアオバク,セイリョウマチ,宮城県仙台市青葉区星陵町
9800873,宮城県,仙台市青葉区,広瀬町,ミヤギケン,センダイシアオバク,ヒロセマチ,宮城県仙台市青葉区広瀬町
9800874,宮城県,仙台市青葉区,角五郎,ミヤギケン,センダイシアオバク,ツノゴロウ,宮城県仙台市青葉区角五郎
9806001,宮城県,仙台市青葉区,中央ＳＳ３０住友生命仙台中央ビル（１階）,ミヤギケン,センダイシアオバク,チュウオウSS30スミトモセイメイセンダイチュウオウビル(1カイ),宮城県仙台市青葉区中央ＳＳ30住友生命仙台中央ビル（1階）
9806002,宮城県,仙台市青葉区,中央ＳＳ３０住友生命仙台中央ビル（２階）,ミヤギケン,センダイシアオバク,チュウオウSS30スミトモセイメイセンダイチュウオウビル(2カイ),宮城県仙台市青葉区中央ＳＳ30住友生命仙台中央ビル（2階）
9806003,宮城県,仙台市青葉区,中央ＳＳ３０住友生命仙台中央ビル（３階）,ミヤギケン,センダイシアオバク,チュウオウSS30スミトモセイメイセンダイチュウオウビル(3カイ),宮城県仙台市青葉区中央ＳＳ30住友生命仙台中央ビル（3階）
9806004,宮城県,仙台市青葉区,中央ＳＳ３０住友生命仙台中央ビル（４階）,ミヤギケン,センダイシアオバク,チュウオウSS30スミトモセイメイセンダイチュウオウビル(4カイ),宮城県仙台市青葉区中央ＳＳ30住友生命仙台中央ビル（4階）
9806005,宮城県,仙台市青葉区,中央ＳＳ３０住友生命仙台中央ビル（５階）,ミヤギケン,センダイシアオバク,チュウオウSS30スミトモセイメイセンダイチュウオウビル(5カイ),宮城県仙台市青葉区中央ＳＳ30住友生命仙台中央ビル（5階）
9806006,宮城県,仙台市青葉区,中央ＳＳ３０住友生命仙台中央ビル（６階）,ミヤギケン,センダイシアオバク,チュウオウSS30スミトモセイメイセンダイチュウオウビル(6カイ),宮城県仙台市青葉区中央ＳＳ30住友生命仙台中央ビル（6階）
9806007,宮城県,仙台市青葉区,中央ＳＳ３０住友生命仙台中央ビル（７階）,ミヤギケン,センダイシアオバク,チュウオウSS30スミトモセイメイセンダイチュウオウビル(7カイ),宮城県仙台市青葉区中央ＳＳ30住友生命仙台中央ビル（7階）
9806008,宮城県,仙台市青葉区,中央ＳＳ３０住友生命仙台中央ビル（８階）,ミヤギケン,センダイシアオバク,チュウオウSS30スミトモセイメイセンダイチュウオウビル(8カイ),宮城県仙台市青葉区中央ＳＳ30住友生命仙台中央ビル（8階）
9806009,宮城県,仙台市青葉区,中央ＳＳ３０住友生命仙台中央ビル（９階）,ミヤギケン,センダイシアオバク,チュウオウSS30スミトモセイメイセンダイチュウオウビル(9カイ),宮城県仙台市青葉区中央ＳＳ30住友生命仙台中央ビル（9階）
9806010,宮城県,仙台市青葉区,中央ＳＳ３０住友生命仙台中央ビル（１０階）,ミヤギケン,センダイシアオバク,チュウオウSS30スミトモセイメイセンダイチュウオウビル(10カイ),宮城県仙台市青葉区中央ＳＳ30住友生命仙台中央ビル（10階）
9806011,宮城県,仙台市青葉区,中央ＳＳ３０住友生命仙台中央ビル（１１階）,ミヤギケン,センダイシアオバク,チュウオウSS30スミトモセイメイセンダイチュウオウビル(11カイ),宮城県仙台市青葉区中央ＳＳ30住友生命仙台中央ビル（11階）
9806012,宮城県,仙台市青葉区,中央ＳＳ３０住友生命仙台中央ビル（１２階）,ミヤギケン,センダイシアオバク,チュウオウSS30スミトモセイメイセンダイチュウオウビル(12カイ),宮城県仙台市青葉区中央ＳＳ30住友生命仙台中央ビル（12階）
9806013,宮城県,仙台市青葉区,中央ＳＳ３０住友生命仙台中央ビル（１３階）,ミヤギケン,センダイシアオバク,チュウオウSS30スミトモセイメイセンダイチュウオウビル(13カイ),宮城県仙台市青葉区中央ＳＳ30住友生命仙台中央ビル（13階）
9806014,宮城県,仙台市青葉区,中央ＳＳ３０住友生命仙台中央ビル（１４階）,ミヤギケン,センダイシアオバク,チュウオウSS30スミトモセイメイセンダイチュウオウビル(14カイ),宮城県仙台市青葉区中央ＳＳ30住友生命仙台中央ビル（14階）
9806015,宮城県,仙台市青葉区,中央ＳＳ３０住友生命仙台中央ビル（１５階）,ミヤギケン,センダイシアオバク,チュウオウSS30スミトモセイメイセンダイチュウオウビル(15カイ),宮城県仙台市青葉区中央ＳＳ30住友生命仙台中央ビル（15階）
9806016,宮城県,仙台市青葉区,中央ＳＳ３０住友生命仙台中央ビル（１６階）,ミヤギケン,センダイシアオバク,チュウオウSS30スミトモセイメイセンダイチュウオウビル(16カイ),宮城県仙台市青葉区中央ＳＳ30住友生命仙台中央ビル（16階）
9806017,宮城県,仙台市青葉区,中央ＳＳ３０住友生命仙台中央ビル（１７階）,ミヤギケン,センダイシアオバク,チュウオウSS30スミトモセイメイセンダイチュウオウビル(17カイ),宮城県仙台市青葉区中央ＳＳ30住友生命仙台中央ビル（17階）
9806018,宮城県,仙台市青葉区,中央ＳＳ３０住友生命仙台中央ビル（１８階）,ミヤギケン,センダイシアオバク,チュウオウSS30スミトモセイメイセンダイチュウオウビル(18カイ),宮城県仙台市青葉区中央ＳＳ30住友生命仙台中央ビル（18階）
9806019,宮城県,仙台市青葉区,中央ＳＳ３０住友生命仙台中央ビル（１９階）,ミヤギケン,センダイシアオバク,チュウオウSS30スミトモセイメイセンダイチュウオウビル(19カイ),宮城県仙台市青葉区中央ＳＳ30住友生命仙台中央ビル（19階）
9806020,宮城県,仙台市青葉区,中央ＳＳ３０住友生命仙台中央ビル（２０階）,ミヤギケン,センダイシアオバク,チュウオウSS30スミトモセイメイセンダイチュウオウビル(20カイ),宮城県仙台市青葉区中央ＳＳ30住友生命仙台中央ビル（20階）
9806021,宮城県,仙台市青葉区,中央ＳＳ３０住友生命仙台中央ビル（２１階）,ミヤギケン,センダイシアオバク,チュウオウSS30スミトモセイメイセンダイチュウオウビル(21カイ),宮城県仙台市青葉区中央ＳＳ30住友生命仙台中央ビル（21階）
9806022,宮城県,仙台市青葉区,中央ＳＳ３０住友生命仙台中央ビル（２２階）,ミヤギケン,センダイシアオバク,チュウオウSS30スミトモセイメイセンダイチュウオウビル(22カイ),宮城県仙台市青葉区中央ＳＳ30住友生命仙台中央ビル（22階）
9806023,宮城県,仙台市青葉区,中央ＳＳ３０住友生命仙台中央ビル（２３階）,ミヤギケン,センダイシアオバク,チュウオウSS30スミトモセイメイセンダイチュウオウビル(23カイ),宮城県仙台市青葉区中央ＳＳ30住友生命仙台中央ビル（23階）
9806024,宮城県,仙台市青葉区,中央ＳＳ３０住友生命仙台中央ビル（２４階）,ミヤギケン,センダイシアオバク,チュウオウSS30スミトモセイメイセンダイチュウオウビル(24カイ),宮城県仙台市青葉区中央ＳＳ30住友生命仙台中央ビル（24階）
9806025,宮城県,仙台市青葉区,中央ＳＳ３０住友生命仙台中央ビル（２５階）,ミヤギケン,センダイシアオバク,チュウオウSS30スミトモセイメイセンダイチュウオウビル(25カイ),宮城県仙台市青葉区中央ＳＳ30住友生命仙台中央ビル（25階）
9806026,宮城県,仙台市青葉区,中央ＳＳ３０住友生命仙台中央ビル（２６階）,ミヤギケン,センダイシアオバク,チュウオウSS30スミトモセイメイセンダイチュウオウビル(26カイ),宮城県仙台市青葉区中央ＳＳ30住友生命仙台中央ビル（26階）
9806027,宮城県,仙台市青葉区,中央ＳＳ３０住友生命仙台中央ビル（２７階）,ミヤギケン,センダイシアオバク,チュウオウSS30スミトモセイメイセンダイチュウオウビル(27カイ),宮城県仙台市青葉区中央ＳＳ30住友生命仙台中央ビル（27階）
9806028,宮城県,仙台市青葉区,中央ＳＳ３０住友生命仙台中央ビル（２８階）,ミヤギケン,センダイシアオバク,チュウオウSS30スミトモセイメイセンダイチュウオウビル(28カイ),宮城県仙台市青葉区中央ＳＳ30住友生命仙台中央ビル（28階）
9806029,宮城県,仙台市青葉区,中央ＳＳ３０住友生命仙台中央ビル（２９階）,ミヤギケン,センダイシアオバク,チュウオウSS30スミトモセイメイセンダイチュウオウビル(29カイ),宮城県仙台市青葉区中央ＳＳ30住友生命仙台中央ビル（29階）
9806030,宮城県,仙台市青葉区,中央ＳＳ３０住友生命仙台中央ビル（３０階）,ミヤギケン,センダイシアオバク,チュウオウSS30スミトモセイメイセンダイチュウオウビル(30カイ),宮城県仙台市青葉区中央ＳＳ30住友生命仙台中央ビル（30階）
9806090,宮城県,仙台市青葉区,中央ＳＳ３０住友生命仙台中央ビル（地階・階層不明）,ミヤギケン,センダイシアオバク,チュウオウSS30スミトモセイメイセンダイチュウオウビル(チカイ・カイソウフメイ),宮城県仙台市青葉区中央ＳＳ30住友生命仙台中央ビル（地階・階層不明）
9806101,宮城県,仙台市青葉区,中央アエル（１階）,ミヤギケン,センダイシアオバク,チュウオウアエル(1カイ),宮城県仙台市青葉区中央アエル（1階）
9806102,宮城県,仙台市青葉区,中央アエル（２階）,ミヤギケン,センダイシアオバク,チュウオウアエル(2カイ),宮城県仙台市青葉区中央アエル（2階）
9806103,宮城県,仙台市青葉区,中央アエル（３階）,ミヤギケン,センダイシアオバク,チュウオウアエル(3カイ),宮城県仙台市青葉区中央アエル（3階）
9806104,宮城県,仙台市青葉区,中央アエル（４階）,ミヤギケン,センダイシアオバク,チュウオウアエル(4カイ),宮城県仙台市青葉区中央アエル（4階）
9806105,宮城県,仙台市青葉区,中央アエル（５階）,ミヤギケン,センダイシアオバク,チュウオウアエル(5カイ),宮城県仙台市青葉区中央アエル（5階）
9806106,宮城県,仙台市青葉区,中央アエル（６階）,ミヤギケン,センダイシアオバク,チュウオウアエル(6カイ),宮城県仙台市青葉区中央アエル（6階）
9806107,宮城県,仙台市青葉区,中央アエル（７階）,ミヤギケン,センダイシアオバク,チュウオウアエル(7カイ),宮城県仙台市青葉区中央アエル（7階）
9806108,宮城県,仙台市青葉区,中央アエル（８階）,ミヤギケン,センダイシアオバク,チュウオウアエル(8カイ),宮城県仙台市青葉区中央アエル（8階）
9806109,宮城県,仙台市青葉区,中央アエル（９階）,ミヤギケン,センダイシアオバク,チュウオウアエル(9カイ),宮城県仙台市青葉区中央アエル（9階）
9806110,宮城県,仙台市青葉区,中央アエル（１０階）,ミヤギケン,センダイシアオバク,チュウオウアエル(10カイ),宮城県仙台市青葉区中央アエル（10階）
9806111,宮城県,仙台市青葉区,中央アエル（１１階）,ミヤギケン,センダイシアオバク,チュウオウアエル(11カイ),宮城県仙台市青葉区中央アエル（11階）
9806112,宮城県,仙台市青葉区,中央アエル（１２階）,ミヤギケン,センダイシアオバク,チュウオウアエル(12カイ),宮城県仙台市青葉区中央アエル（12階）
9806113,宮城県,仙台市青葉区,中央アエル（１３階）,ミヤギケン,センダイシアオバク,チュウオウアエル(13カイ),宮城県仙台市青葉区中央アエル（13階）
9806114,宮城県,仙台市青葉区,中央アエル（１４階）,ミヤギケン,センダイシアオバク,チュウオウアエル(14カイ),宮城県仙台市青葉区中央アエル（14階）
9806115,宮城県,仙台市青葉区,中央アエル（１５階）,ミヤギケン,センダイシアオバク,チュウオウアエル(15カイ),宮城県仙台市青葉区中央アエル（15階）
9806116,宮城県,仙台市青葉区,中央アエル（１６階）,ミヤギケン,センダイシアオバク,チュウオウアエル(16カイ),宮城県仙台市青葉区中央アエル（16階）
9806117,宮城県,仙台市青葉区,中央アエル（１７階）,ミヤギケン,センダイシアオバク,チュウオウアエル(17カイ),宮城県仙台市青葉区中央アエル（17階）
9806118,宮城県,仙台市青葉区,中央アエル（１８階）,ミヤギケン,センダイシアオバク,チュウオウアエル(18カイ),宮城県仙台市青葉区中央アエル（18階）
9806119,宮城県,仙台市青葉区,中央アエル（１９階）,ミヤギケン,センダイシアオバク,チュウオウアエル(19カイ),宮城県仙台市青葉区中央アエル（19階）
9806120,宮城県,仙台市青葉区,中央アエル（２０階）,ミヤギケン,センダイシアオバク,チュウオウアエル(20カイ),宮城県仙台市青葉区中央アエル（20階）
9806121,宮城県,仙台市青葉区,中央アエル（２１階）,ミヤギケン,センダイシアオバク,チュウオウアエル(21カイ),宮城県仙台市青葉区中央アエル（21階）
9806122,宮城県,仙台市青葉区,中央アエル（２２階）,ミヤギケン,センダイシアオバク,チュウオウアエル(22カイ),宮城県仙台市青葉区中央アエル（22階）
9806123,宮城県,仙台市青葉区,中央アエル（２３階）,ミヤギケン,センダイシアオバク,チュウオウアエル(23カイ),宮城県仙台市青葉区中央アエル（23階）
9806124,宮城県,仙台市青葉区,中央アエル（２４階）,ミヤギケン,センダイシアオバク,チュウオウアエル(24カイ),宮城県仙台市青葉区中央アエル（24階）
9806125,宮城県,仙台市青葉区,中央アエル（２５階）,ミヤギケン,センダイシアオバク,チュウオウアエル(25カイ),宮城県仙台市青葉区中央アエル（25階）
9806126,宮城県,仙台市青葉区,中央アエル（２６階）,ミヤギケン,センダイシアオバク,チュウオウアエル(26カイ),宮城県仙台市青葉区中央アエル（26階）
9806127,宮城県,仙台市青葉区,中央アエル（２７階）,ミヤギケン,センダイシアオバク,チュウオウアエル(27カイ),宮城県仙台市青葉区中央アエル（27階）
9806128,宮城県,仙台市青葉区,中央アエル（２８階）,ミヤギケン,センダイシアオバク,チュウオウアエル(28カイ),宮城県仙台市青葉区中央アエル（28階）
9806129,宮城県,仙台市青葉区,中央アエル（２９階）,ミヤギケン,センダイシアオバク,チュウオウアエル(29カイ),宮城県仙台市青葉区中央アエル（29階）
9806130,宮城県,仙台市青葉区,中央アエル（３０階）,ミヤギケン,センダイシアオバク,チュウオウアエル(30カイ),宮城県仙台市青葉区中央アエル（30階）
9806131,宮城県,仙台市青葉区,中央アエル（３１階）,ミヤギケン,センダイシアオバク,チュウオウアエル(31カイ),宮城県仙台市青葉区中央アエル（31階）
9806190,宮城県,仙台市青葉区,中央アエル（地階・階層不明）,ミヤギケン,センダイシアオバク,チュウオウアエル(チカイ・カイソウフメイ),宮城県仙台市青葉区中央アエル（地階・階層不明）
9810100,宮城県,宮城郡利府町,,ミヤギケン,ミヤギグンリフチョウ,,宮城県宮城郡利府町
9810101,宮城県,宮城郡利府町,赤沼,ミヤギケン,ミヤギグンリフチョウ,アカヌマ,宮城県宮城郡利府町赤沼
9810102,宮城県,宮城郡利府町,春日,ミヤギケン,ミヤギグンリフチョウ,カスガ,宮城県宮城郡利府町春日
9810103,宮城県,宮城郡利府町,森郷,ミヤギケン,ミヤギグンリフチョウ,モリゴウ,宮城県宮城郡利府町森郷
9810104,宮城県,宮城郡利府町,中央,ミヤギケン,ミヤギグンリフチョウ,チュウオウ,宮城県宮城郡利府町中央
9810105,宮城県,宮城郡利府町,葉山,ミヤギケン,ミヤギグンリフチョウ,ハヤマ,宮城県宮城郡利府町葉山
9810111,宮城県,宮城郡利府町,加瀬,ミヤギケン,ミヤギグンリフチョウ,カセ,宮城県宮城郡利府町加瀬
9810112,宮城県,宮城郡利府町,利府,ミヤギケン,ミヤギグンリフチョウ,リフ,宮城県宮城郡利府町利府
9810113,宮城県,宮城郡利府町,飯土井,ミヤギケン,ミヤギグンリフチョウ,イイドイ,宮城県宮城郡利府町飯土井
9810114,宮城県,宮城郡利府町,新中道,ミヤギケン,ミヤギグンリフチョウ,シンナカミチ,宮城県宮城郡利府町新中道
9810121,宮城県,宮城郡利府町,神谷沢,ミヤギケン,ミヤギグンリフチョウ,カミヤサワ,宮城県宮城郡利府町神谷沢
9810122,宮城県,宮城郡利府町,菅谷,ミヤギケン,ミヤギグンリフチョウ,スガヤ,宮城県宮城郡利府町菅谷
9810123,宮城県,宮城郡利府町,沢乙,ミヤギケン,ミヤギグンリフチョウ,サワオト,宮城県宮城郡利府町沢乙
9810124,宮城県,宮城郡利府町,沢乙東,ミヤギケン,ミヤギグンリフチョウ,サワオトヒガシ,宮城県宮城郡利府町沢乙東
9810131,宮城県,宮城郡利府町,青山,ミヤギケン,ミヤギグンリフチョウ,アオヤマ,宮城県宮城郡利府町青山
9810132,宮城県,宮城郡利府町,花園,ミヤギケン,ミヤギグンリフチョウ,ハナゾノ,宮城県宮城郡利府町花園
9810133,宮城県,宮城郡利府町,青葉台,ミヤギケン,ミヤギグンリフチョウ,アオバダイ,宮城県宮城郡利府町青葉台
9810134,宮城県,宮城郡利府町,しらかし台,ミヤギケン,ミヤギグンリフチョウ,シラカシダイ,宮城県宮城郡利府町しらかし台
9810135,宮城県,宮城郡利府町,菅谷台,ミヤギケン,ミヤギグンリフチョウ,スガヤダイ,宮城県宮城郡利府町菅谷台
9810136,宮城県,宮城郡利府町,皆の丘,ミヤギケン,ミヤギグンリフチョウ,ミナノオカ,宮城県宮城郡利府町皆の丘
9810200,宮城県,宮城郡松島町,,ミヤギケン,ミヤギグンマツシママチ,,宮城県宮城郡松島町
9810201,宮城県,宮城郡松島町,竹谷,ミヤギケン,ミヤギグンマツシママチ,タケヤ,宮城県宮城郡松島町竹谷
9810202,宮城県,宮城郡松島町,北小泉,ミヤギケン,ミヤギグンマツシママチ,キタコイズミ,宮城県宮城郡松島町北小泉
9810203,宮城県,宮城郡松島町,根廻,ミヤギケン,ミヤギグンマツシママチ,ネマワリ,宮城県宮城郡松島町根廻
9810204,宮城県,宮城郡松島町,初原,ミヤギケン,ミヤギグンマツシママチ,ハツバラ,宮城県宮城郡松島町初原
9810205,宮城県,宮城郡松島町,幡谷,ミヤギケン,ミヤギグンマツシママチ,ハタヤ,宮城県宮城郡松島町幡谷
9810211,宮城県,宮城郡松島町,手樽,ミヤギケン,ミヤギグンマツシママチ,テタル,宮城県宮城郡松島町手樽
9810212,宮城県,宮城郡松島町,磯崎,ミヤギケン,ミヤギグンマツシママチ,イソザキ,宮城県宮城郡松島町磯崎
9810213,宮城県,宮城郡松島町,松島,ミヤギケン,ミヤギグンマツシママチ,マツシマ,宮城県宮城郡松島町松島
9810214,宮城県,宮城郡松島町,桜渡戸,ミヤギケン,ミヤギグンマツシママチ,サクラワタシド,宮城県宮城郡松島町桜渡戸
9810215,宮城県,宮城郡松島町,高城,ミヤギケン,ミヤギグンマツシママチ,タカギ,宮城県宮城郡松島町高城
9810301,宮城県,東松島市,牛網,ミヤギケン,ヒガシマツシマシ,ウシアミ,宮城県東松島市牛網
9810302,宮城県,東松島市,浜市,ミヤギケン,ヒガシマツシマシ,ハマイチ,宮城県東松島市浜市
9810303,宮城県,東松島市,小野,ミヤギケン,ヒガシマツシマシ,オノ,宮城県東松島市小野
9810304,宮城県,東松島市,川下,ミヤギケン,ヒガシマツシマシ,カワクダリ,宮城県東松島市川下
9810305,宮城県,東松島市,上下堤,ミヤギケン,ヒガシマツシマシ,ジョウゲツツミ,宮城県東松島市上下堤
9810306,宮城県,東松島市,西福田,ミヤギケン,ヒガシマツシマシ,ニシフクダ,宮城県東松島市西福田
9810307,宮城県,東松島市,新田,ミヤギケン,ヒガシマツシマシ,ニツタ,宮城県東松島市新田
9810308,宮城県,東松島市,高松,ミヤギケン,ヒガシマツシマシ,タカマツ,宮城県東松島市高松
9810309,宮城県,東松島市,根古,ミヤギケン,ヒガシマツシマシ,ネコ,宮城県東松島市根古
9810411,宮城県,東松島市,野蒜,ミヤギケン,ヒガシマツシマシ,ノビル,宮城県東松島市野蒜
9810412,宮城県,東松島市,宮戸,ミヤギケン,ヒガシマツシマシ,ミヤト,宮城県東松島市宮戸
9810413,宮城県,東松島市,新東名,ミヤギケン,ヒガシマツシマシ,シントウナ,宮城県東松島市新東名
9810414,宮城県,東松島市,大塚,ミヤギケン,ヒガシマツシマシ,オオツカ,宮城県東松島市大塚
9810415,宮城県,東松島市,浅井,ミヤギケン,ヒガシマツシマシ,アサイ,宮城県東松島市浅井
9810416,宮城県,東松島市,野蒜ケ丘,ミヤギケン,ヒガシマツシマシ,ノビルガオカ,宮城県東松島市野蒜ケ丘
9810500,宮城県,東松島市,,ミヤギケン,ヒガシマツシマシ,,宮城県東松島市
9810501,宮城県,東松島市,赤井,ミヤギケン,ヒガシマツシマシ,アカイ,宮城県東松島市赤井
9810502,宮城県,東松島市,大曲,ミヤギケン,ヒガシマツシマシ,オオマガリ,宮城県東松島市大曲
9810503,宮城県,東松島市,矢本,ミヤギケン,ヒガシマツシマシ,ヤモト,宮城県東松島市矢本
9810504,宮城県,東松島市,小松,ミヤギケン,ヒガシマツシマシ,コマツ,宮城県東松島市小松
9810505,宮城県,東松島市,大塩,ミヤギケン,ヒガシマツシマシ,オオシオ,宮城県東松島市大塩
9810506,宮城県,東松島市,あおい,ミヤギケン,ヒガシマツシマシ,アオイ,宮城県東松島市あおい
9810507,宮城県,東松島市,みそら,ミヤギケン,ヒガシマツシマシ,ミソラ,宮城県東松島市みそら
9810901,宮城県,仙台市青葉区,北根黒松,ミヤギケン,センダイシアオバク,キタネクロマツ,宮城県仙台市青葉区北根黒松
9810902,宮城県,仙台市青葉区,北根,ミヤギケン,センダイシアオバク,キタネ,宮城県仙台市青葉区北根
9810903,宮城県,仙台市青葉区,台原森林公園,ミヤギケン,センダイシアオバク,ダイノハラシンリンコウエン,宮城県仙台市青葉区台原森林公園
9810904,宮城県,仙台市青葉区,旭ケ丘,ミヤギケン,センダイシアオバク,アサヒガオカ,宮城県仙台市青葉区旭ケ丘
9810905,宮城県,仙台市青葉区,小松島,ミヤギケン,センダイシアオバク,コマツシマ,宮城県仙台市青葉区小松島
9810906,宮城県,仙台市青葉区,小松島新堤,ミヤギケン,センダイシアオバク,コマツシマシンツツミ,宮城県仙台市青葉区小松島新堤
9810907,宮城県,仙台市青葉区,高松,ミヤギケン,センダイシアオバク,タカマツ,宮城県仙台市青葉区高松
9810908,宮城県,仙台市青葉区,東照宮,ミヤギケン,センダイシアオバク,トウショウグウ,宮城県仙台市青葉区東照宮
9810911,宮城県,仙台市青葉区,台原,ミヤギケン,センダイシアオバク,ダイノハラ,宮城県仙台市青葉区台原
9810912,宮城県,仙台市青葉区,堤町,ミヤギケン,センダイシアオバク,ツツミマチ,宮城県仙台市青葉区堤町
9810913,宮城県,仙台市青葉区,昭和町,ミヤギケン,センダイシアオバク,ショウワマチ,宮城県仙台市青葉区昭和町
9810914,宮城県,仙台市青葉区,堤通雨宮町,ミヤギケン,センダイシアオバク,ツツミドオリアマミヤマチ,宮城県仙台市青葉区堤通雨宮町
9810915,宮城県,仙台市青葉区,通町,ミヤギケン,センダイシアオバク,トオリチョウ,宮城県仙台市青葉区通町
9810916,宮城県,仙台市青葉区,青葉町,ミヤギケン,センダイシアオバク,アオバマチ,宮城県仙台市青葉区青葉町
9810917,宮城県,仙台市青葉区,葉山町,ミヤギケン,センダイシアオバク,ハヤママチ,宮城県仙台市青葉区葉山町
9810921,宮城県,仙台市青葉区,藤松,ミヤギケン,センダイシアオバク,フジマツ,宮城県仙台市青葉区藤松
9810922,宮城県,仙台市青葉区,鷺ケ森,ミヤギケン,センダイシアオバク,サギガモリ,宮城県仙台市青葉区鷺ケ森
9810923,宮城県,仙台市青葉区,東勝山,ミヤギケン,センダイシアオバク,ヒガシカツヤマ,宮城県仙台市青葉区東勝山
9810924,宮城県,仙台市青葉区,双葉ケ丘,ミヤギケン,センダイシアオバク,フタバガオカ,宮城県仙台市青葉区双葉ケ丘
9810931,宮城県,仙台市青葉区,北山,ミヤギケン,センダイシアオバク,キタヤマ,宮城県仙台市青葉区北山
9810932,宮城県,仙台市青葉区,木町,ミヤギケン,センダイシアオバク,キマチ,宮城県仙台市青葉区木町
9810933,宮城県,仙台市青葉区,柏木,ミヤギケン,センダイシアオバク,カシワギ,宮城県仙台市青葉区柏木
9810934,宮城県,仙台市青葉区,新坂町,ミヤギケン,センダイシアオバク,ニイザカマチ,宮城県仙台市青葉区新坂町
9810935,宮城県,仙台市青葉区,三条町,ミヤギケン,センダイシアオバク,サンジョウマチ,宮城県仙台市青葉区三条町
9810936,宮城県,仙台市青葉区,千代田町,ミヤギケン,センダイシアオバク,チヨダマチ,宮城県仙台市青葉区千代田町
9810941,宮城県,仙台市青葉区,菊田町,ミヤギケン,センダイシアオバク,キクタマチ,宮城県仙台市青葉区菊田町
9810942,宮城県,仙台市青葉区,貝ケ森,ミヤギケン,センダイシアオバク,カイガモリ,宮城県仙台市青葉区貝ケ森
9810943,宮城県,仙台市青葉区,国見,ミヤギケン,センダイシアオバク,クニミ,宮城県仙台市青葉区国見
9810944,宮城県,仙台市青葉区,子平町,ミヤギケン,センダイシアオバク,シヘイマチ,宮城県仙台市青葉区子平町
9810945,宮城県,仙台市青葉区,荒巻（西雷神、仁田谷地、坊主門）,ミヤギケン,センダイシアオバク,アラマキ(ニシライジン、ニタヤチ、ボウズモン),宮城県仙台市青葉区荒巻（西雷神、仁田谷地、坊主門）
9810951,宮城県,仙台市青葉区,滝道,ミヤギケン,センダイシアオバク,タキミチ,宮城県仙台市青葉区滝道
9810952,宮城県,仙台市青葉区,中山,ミヤギケン,センダイシアオバク,ナカヤマ,宮城県仙台市青葉区中山
9810953,宮城県,仙台市青葉区,西勝山,ミヤギケン,センダイシアオバク,ニシカツヤマ,宮城県仙台市青葉区西勝山
9810954,宮城県,仙台市青葉区,川平,ミヤギケン,センダイシアオバク,カワダイラ,宮城県仙台市青葉区川平
9810961,宮城県,仙台市青葉区,桜ケ丘,ミヤギケン,センダイシアオバク,サクラガオカ,宮城県仙台市青葉区桜ケ丘
9810962,宮城県,仙台市青葉区,水の森,ミヤギケン,センダイシアオバク,ミズノモリ,宮城県仙台市青葉区水の森
9810963,宮城県,仙台市青葉区,あけぼの町,ミヤギケン,センダイシアオバク,アケボノマチ,宮城県仙台市青葉区あけぼの町
9810964,宮城県,仙台市青葉区,荒巻中央,ミヤギケン,センダイシアオバク,アラマキチュウオウ,宮城県仙台市青葉区荒巻中央
9810965,宮城県,仙台市青葉区,荒巻神明町,ミヤギケン,センダイシアオバク,アラマキシンメイマチ,宮城県仙台市青葉区荒巻神明町
9810966,宮城県,仙台市青葉区,荒巻本沢,ミヤギケン,センダイシアオバク,アラマキホンザワ,宮城県仙台市青葉区荒巻本沢
9810967,宮城県,仙台市青葉区,山手町,ミヤギケン,センダイシアオバク,ヤマテマチ,宮城県仙台市青葉区山手町
9811101,宮城県,仙台市太白区,四郎丸,ミヤギケン,センダイシタイハクク,シロウマル,宮城県仙台市太白区四郎丸
9811102,宮城県,仙台市太白区,袋原,ミヤギケン,センダイシタイハクク,フクロバラ,宮城県仙台市太白区袋原
9811103,宮城県,仙台市太白区,中田町,ミヤギケン,センダイシタイハクク,ナカダマチ,宮城県仙台市太白区中田町
9811104,宮城県,仙台市太白区,中田,ミヤギケン,センダイシタイハクク,ナカダ,宮城県仙台市太白区中田
9811105,宮城県,仙台市太白区,西中田,ミヤギケン,センダイシタイハクク,ニシナカダ,宮城県仙台市太白区西中田
9811106,宮城県,仙台市太白区,柳生,ミヤギケン,センダイシタイハクク,ヤナギウ,宮城県仙台市太白区柳生
9811107,宮城県,仙台市太白区,東中田,ミヤギケン,センダイシタイハクク,ヒガシナカダ,宮城県仙台市太白区東中田
9811200,宮城県,名取市,,ミヤギケン,ナトリシ,,宮城県名取市
9811201,宮城県,名取市,下増田（その他）,ミヤギケン,ナトリシ,シモマスダ(ソノタ),宮城県名取市下増田（その他）
9811202,宮城県,名取市,閖上西,ミヤギケン,ナトリシ,ユリアゲニシ,宮城県名取市閖上西
9811203,宮城県,名取市,閖上中央,ミヤギケン,ナトリシ,ユリアゲチュウオウ,宮城県名取市閖上中央
9811204,宮城県,名取市,閖上東,ミヤギケン,ナトリシ,ユリアゲヒガシ,宮城県名取市閖上東
9811211,宮城県,名取市,高柳,ミヤギケン,ナトリシ,タカヤナギ,宮城県名取市高柳
9811212,宮城県,名取市,小塚原,ミヤギケン,ナトリシ,コヅカハラ,宮城県名取市小塚原
9811213,宮城県,名取市,閖上,ミヤギケン,ナトリシ,ユリアゲ,宮城県名取市閖上
9811214,宮城県,名取市,杉ケ袋,ミヤギケン,ナトリシ,スギガフクロ,宮城県名取市杉ケ袋
9811215,宮城県,名取市,牛野,ミヤギケン,ナトリシ,ウシノ,宮城県名取市牛野
9811216,宮城県,名取市,大曲,ミヤギケン,ナトリシ,オオマガリ,宮城県名取市大曲
9811217,宮城県,名取市,美田園,ミヤギケン,ナトリシ,ミタゾノ,宮城県名取市美田園
9811218,宮城県,名取市,美田園北,ミヤギケン,ナトリシ,ミタゾノキタ,宮城県名取市美田園北
9811221,宮城県,名取市,田高,ミヤギケン,ナトリシ,タコウ,宮城県名取市田高
9811222,宮城県,名取市,上余田,ミヤギケン,ナトリシ,カミヨウデン,宮城県名取市上余田
9811223,宮城県,名取市,下余田,ミヤギケン,ナトリシ,シモヨウデン,宮城県名取市下余田
9811224,宮城県,名取市,増田,ミヤギケン,ナトリシ,マスダ,宮城県名取市増田
9811225,宮城県,名取市,飯野坂,ミヤギケン,ナトリシ,イイノザカ,宮城県名取市飯野坂
9811226,宮城県,名取市,植松,ミヤギケン,ナトリシ,ウエマツ,宮城県名取市植松
9811227,宮城県,名取市,杜せきのした,ミヤギケン,ナトリシ,モリセキノシタ,宮城県名取市杜せきのした
9811230,宮城県,名取市,愛の杜,ミヤギケン,ナトリシ,アイノモリ,宮城県名取市愛の杜
9811231,宮城県,名取市,手倉田,ミヤギケン,ナトリシ,テクラダ,宮城県名取市手倉田
9811232,宮城県,名取市,大手町,ミヤギケン,ナトリシ,オオテマチ,宮城県名取市大手町
9811233,宮城県,名取市,小山,ミヤギケン,ナトリシ,オヤマ,宮城県名取市小山
9811234,宮城県,名取市,箱塚,ミヤギケン,ナトリシ,ハコヅカ,宮城県名取市箱塚
9811235,宮城県,名取市,名取が丘,ミヤギケン,ナトリシ,ナトリガオカ,宮城県名取市名取が丘
9811236,宮城県,名取市,愛島小豆島,ミヤギケン,ナトリシ,メデシマアズキシマ,宮城県名取市愛島小豆島
9811237,宮城県,名取市,愛島北目,ミヤギケン,ナトリシ,メデシマキタメ,宮城県名取市愛島北目
9811238,宮城県,名取市,愛島笠島,ミヤギケン,ナトリシ,メデシマカサシマ,宮城県名取市愛島笠島
9811239,宮城県,名取市,愛島塩手,ミヤギケン,ナトリシ,メデシマシオテ,宮城県名取市愛島塩手
9811240,宮城県,名取市,愛島郷,ミヤギケン,ナトリシ,メデシマノサト,宮城県名取市愛島郷
9811241,宮城県,名取市,高舘熊野堂,ミヤギケン,ナトリシ,タカダテクマノドウ,宮城県名取市高舘熊野堂
9811242,宮城県,名取市,高舘吉田,ミヤギケン,ナトリシ,タカダテヨシダ,宮城県名取市高舘吉田
9811243,宮城県,名取市,高舘川上,ミヤギケン,ナトリシ,タカダテカワカミ,宮城県名取市高舘川上
9811244,宮城県,名取市,那智が丘,ミヤギケン,ナトリシ,ナチガオカ,宮城県名取市那智が丘
9811245,宮城県,名取市,ゆりが丘,ミヤギケン,ナトリシ,ユリガオカ,宮城県名取市ゆりが丘
9811246,宮城県,名取市,相互台,ミヤギケン,ナトリシ,ソウゴダイ,宮城県名取市相互台
9811247,宮城県,名取市,みどり台,ミヤギケン,ナトリシ,ミドリダイ,宮城県名取市みどり台
9811248,宮城県,名取市,相互台東,ミヤギケン,ナトリシ,ソウゴダイヒガシ,宮城県名取市相互台東
9811251,宮城県,名取市,愛島台,ミヤギケン,ナトリシ,メデシマダイ,宮城県名取市愛島台
9811500,宮城県,角田市,,ミヤギケン,カクダシ,,宮城県角田市
9811501,宮城県,角田市,藤田,ミヤギケン,カクダシ,フジタ,宮城県角田市藤田
9811502,宮城県,角田市,尾山,ミヤギケン,カクダシ,オヤマ,宮城県角田市尾山
9811503,宮城県,角田市,島田,ミヤギケン,カクダシ,シマダ,宮城県角田市島田
9811504,宮城県,角田市,枝野,ミヤギケン,カクダシ,エダノ,宮城県角田市枝野
9811505,宮城県,角田市,角田,ミヤギケン,カクダシ,カクダ,宮城県角田市角田
9811511,宮城県,角田市,花島,ミヤギケン,カクダシ,ハナシマ,宮城県角田市花島
9811512,宮城県,角田市,横倉,ミヤギケン,カクダシ,ヨコクラ,宮城県角田市横倉
9811513,宮城県,角田市,豊室,ミヤギケン,カクダシ,トヨムロ,宮城県角田市豊室
9811514,宮城県,角田市,小田,ミヤギケン,カクダシ,オダ,宮城県角田市小田
9811515,宮城県,角田市,笠島,ミヤギケン,カクダシ,カサシマ,宮城県角田市笠島
9811516,宮城県,角田市,高倉,ミヤギケン,カクダシ,タカクラ,宮城県角田市高倉
9811517,宮城県,角田市,毛萱,ミヤギケン,カクダシ,ケガヤ,宮城県角田市毛萱
9811518,宮城県,角田市,稲置,ミヤギケン,カクダシ,イナオキ,宮城県角田市稲置
9811521,宮城県,角田市,江尻,ミヤギケン,カクダシ,エジリ,宮城県角田市江尻
9811522,宮城県,角田市,佐倉,ミヤギケン,カクダシ,サクラ,宮城県角田市佐倉
9811523,宮城県,角田市,梶賀,ミヤギケン,カクダシ,カジカ,宮城県角田市梶賀
9811524,宮城県,角田市,岡,ミヤギケン,カクダシ,オカ,宮城県角田市岡
9811525,宮城県,角田市,君萱,ミヤギケン,カクダシ,キミガヤ,宮城県角田市君萱
9811526,宮城県,角田市,神次郎,ミヤギケン,カクダシ,ジンジロウ,宮城県角田市神次郎
9811531,宮城県,角田市,鳩原,ミヤギケン,カクダシ,ハトバラ,宮城県角田市鳩原
9811532,宮城県,角田市,小坂,ミヤギケン,カクダシ,オサカ,宮城県角田市小坂
9811533,宮城県,角田市,平貫,ミヤギケン,カクダシ,ヒラヌキ,宮城県角田市平貫
9811534,宮城県,角田市,坂津田,ミヤギケン,カクダシ,サカツタ,宮城県角田市坂津田
9812100,宮城県,伊具郡丸森町,,ミヤギケン,イググンマルモリマチ,,宮城県伊具郡丸森町
9812101,宮城県,伊具郡丸森町,舘矢間木沼,ミヤギケン,イググンマルモリマチ,タテヤマキヌマ,宮城県伊具郡丸森町舘矢間木沼
9812102,宮城県,伊具郡丸森町,舘矢間舘山,ミヤギケン,イググンマルモリマチ,タテヤマタテヤマ,宮城県伊具郡丸森町舘矢間舘山
9812103,宮城県,伊具郡丸森町,舘矢間山田,ミヤギケン,イググンマルモリマチ,タテヤマヤマダ,宮城県伊具郡丸森町舘矢間山田
9812104,宮城県,伊具郡丸森町,大舘,ミヤギケン,イググンマルモリマチ,オオダテ,宮城県伊具郡丸森町大舘
9812105,宮城県,伊具郡丸森町,舘矢間松掛,ミヤギケン,イググンマルモリマチ,タテヤママツカケ,宮城県伊具郡丸森町舘矢間松掛
9812106,宮城県,伊具郡丸森町,木沼,ミヤギケン,イググンマルモリマチ,キヌマ,宮城県伊具郡丸森町木沼
9812111,宮城県,伊具郡丸森町,神明,ミヤギケン,イググンマルモリマチ,シンメイ,宮城県伊具郡丸森町神明
9812111,宮城県,伊具郡丸森町,神明南,ミヤギケン,イググンマルモリマチ,シンメイミナミ,宮城県伊具郡丸森町神明南
9812111,宮城県,伊具郡丸森町,神明東,ミヤギケン,イググンマルモリマチ,シンメイヒガシ,宮城県伊具郡丸森町神明東
9812112,宮城県,伊具郡丸森町,作田,ミヤギケン,イググンマルモリマチ,サクダ,宮城県伊具郡丸森町作田
9812112,宮城県,伊具郡丸森町,城東,ミヤギケン,イググンマルモリマチ,ジョウトウ,宮城県伊具郡丸森町城東
9812112,宮城県,伊具郡丸森町,寺内,ミヤギケン,イググンマルモリマチ,テラウチ,宮城県伊具郡丸森町寺内
9812112,宮城県,伊具郡丸森町,寺内前,ミヤギケン,イググンマルモリマチ,テラウチマエ,宮城県伊具郡丸森町寺内前
9812112,宮城県,伊具郡丸森町,平,ミヤギケン,イググンマルモリマチ,タイラ,宮城県伊具郡丸森町平
9812112,宮城県,伊具郡丸森町,新町,ミヤギケン,イググンマルモリマチ,シンマチ,宮城県伊具郡丸森町新町
9812112,宮城県,伊具郡丸森町,渕ノ上,ミヤギケン,イググンマルモリマチ,フチノウエ,宮城県伊具郡丸森町渕ノ上
9812112,宮城県,伊具郡丸森町,矢洗,ミヤギケン,イググンマルモリマチ,ヤアライ,宮城県伊具郡丸森町矢洗
9812112,宮城県,伊具郡丸森町,石渕,ミヤギケン,イググンマルモリマチ,イシブチ,宮城県伊具郡丸森町石渕
9812112,宮城県,伊具郡丸森町,羽山,ミヤギケン,イググンマルモリマチ,ハヤマ,宮城県伊具郡丸森町羽山
9812112,宮城県,伊具郡丸森町,蛭田,ミヤギケン,イググンマルモリマチ,ヒルタ,宮城県伊具郡丸森町蛭田
9812113,宮城県,伊具郡丸森町,宮脇,ミヤギケン,イググンマルモリマチ,ミヤノワキ,宮城県伊具郡丸森町宮脇
9812113,宮城県,伊具郡丸森町,羽入,ミヤギケン,イググンマルモリマチ,ハニュウ,宮城県伊具郡丸森町羽入
9812113,宮城県,伊具郡丸森町,羽入前,ミヤギケン,イググンマルモリマチ,ハニュウマエ,宮城県伊具郡丸森町羽入前
9812113,宮城県,伊具郡丸森町,越田,ミヤギケン,イググンマルモリマチ,コエダ,宮城県伊具郡丸森町越田
9812114,宮城県,伊具郡丸森町,北前,ミヤギケン,イググンマルモリマチ,キタマエ,宮城県伊具郡丸森町北前
9812114,宮城県,伊具郡丸森町,大目,ミヤギケン,イググンマルモリマチ,オオメ,宮城県伊具郡丸森町大目
9812114,宮城県,伊具郡丸森町,天王,ミヤギケン,イググンマルモリマチ,テンノウ,宮城県伊具郡丸森町天王
9812114,宮城県,伊具郡丸森町,泉,ミヤギケン,イググンマルモリマチ,イズミ,宮城県伊具郡丸森町泉
9812114,宮城県,伊具郡丸森町,泉下,ミヤギケン,イググンマルモリマチ,イズミシタ,宮城県伊具郡丸森町泉下
9812114,宮城県,伊具郡丸森町,赤堀,ミヤギケン,イググンマルモリマチ,アカボリ,宮城県伊具郡丸森町赤堀
9812115,宮城県,伊具郡丸森町,三瓶内,ミヤギケン,イググンマルモリマチ,サンベイウチ,宮城県伊具郡丸森町三瓶内
9812115,宮城県,伊具郡丸森町,前河原,ミヤギケン,イググンマルモリマチ,マエカワラ,宮城県伊具郡丸森町前河原
9812115,宮城県,伊具郡丸森町,山古谷,ミヤギケン,イググンマルモリマチ,ヤマゴヤ,宮城県伊具郡丸森町山古谷
9812115,宮城県,伊具郡丸森町,沼,ミヤギケン,イググンマルモリマチ,ヌマ,宮城県伊具郡丸森町沼
9812115,宮城県,伊具郡丸森町,稲場,ミヤギケン,イググンマルモリマチ,イナバ,宮城県伊具郡丸森町稲場
9812115,宮城県,伊具郡丸森町,稲場東,ミヤギケン,イググンマルモリマチ,イナバヒガシ,宮城県伊具郡丸森町稲場東
9812116,宮城県,伊具郡丸森町,上滝東,ミヤギケン,イググンマルモリマチ,カミダキヒガシ,宮城県伊具郡丸森町上滝東
9812116,宮城県,伊具郡丸森町,上滝西,ミヤギケン,イググンマルモリマチ,カミダキニシ,宮城県伊具郡丸森町上滝西
9812116,宮城県,伊具郡丸森町,不動,ミヤギケン,イググンマルモリマチ,フドウ,宮城県伊具郡丸森町不動
9812116,宮城県,伊具郡丸森町,新田向,ミヤギケン,イググンマルモリマチ,シンデンムカエ,宮城県伊具郡丸森町新田向
9812116,宮城県,伊具郡丸森町,新田東,ミヤギケン,イググンマルモリマチ,シンデンヒガシ,宮城県伊具郡丸森町新田東
9812116,宮城県,伊具郡丸森町,新田西,ミヤギケン,イググンマルモリマチ,シンデンニシ,宮城県伊具郡丸森町新田西
9812116,宮城県,伊具郡丸森町,桜渕,ミヤギケン,イググンマルモリマチ,サクラブチ,宮城県伊具郡丸森町桜渕
9812116,宮城県,伊具郡丸森町,滝原,ミヤギケン,イググンマルモリマチ,タキパラ,宮城県伊具郡丸森町滝原
9812116,宮城県,伊具郡丸森町,石倉,ミヤギケン,イググンマルモリマチ,イシクラ,宮城県伊具郡丸森町石倉
9812116,宮城県,伊具郡丸森町,石倉前,ミヤギケン,イググンマルモリマチ,イシクラマエ,宮城県伊具郡丸森町石倉前
9812116,宮城県,伊具郡丸森町,石羽,ミヤギケン,イググンマルモリマチ,イシパ,宮城県伊具郡丸森町石羽
9812116,宮城県,伊具郡丸森町,高松,ミヤギケン,イググンマルモリマチ,タカマツ,宮城県伊具郡丸森町高松
9812117,宮城県,伊具郡丸森町,上林南,ミヤギケン,イググンマルモリマチ,ジョウリンミナミ,宮城県伊具郡丸森町上林南
9812117,宮城県,伊具郡丸森町,上林東,ミヤギケン,イググンマルモリマチ,ジョウリンヒガシ,宮城県伊具郡丸森町上林東
9812117,宮城県,伊具郡丸森町,上林西,ミヤギケン,イググンマルモリマチ,ジョウリンニシ,宮城県伊具郡丸森町上林西
9812117,宮城県,伊具郡丸森町,中島,ミヤギケン,イググンマルモリマチ,ナカジマ,宮城県伊具郡丸森町中島
9812117,宮城県,伊具郡丸森町,和田東,ミヤギケン,イググンマルモリマチ,ワダヒガシ,宮城県伊具郡丸森町和田東
9812117,宮城県,伊具郡丸森町,和田西,ミヤギケン,イググンマルモリマチ,ワダニシ,宮城県伊具郡丸森町和田西
9812117,宮城県,伊具郡丸森町,畑中,ミヤギケン,イググンマルモリマチ,ハタケナカ,宮城県伊具郡丸森町畑中
9812121,宮城県,伊具郡丸森町,吉田,ミヤギケン,イググンマルモリマチ,ヨシダ,宮城県伊具郡丸森町吉田
9812122,宮城県,伊具郡丸森町,福沢,ミヤギケン,イググンマルモリマチ,フクザワ,宮城県伊具郡丸森町福沢
9812122,宮城県,伊具郡丸森町,福沢前,ミヤギケン,イググンマルモリマチ,フクザワマエ,宮城県伊具郡丸森町福沢前
9812122,宮城県,伊具郡丸森町,荒田,ミヤギケン,イググンマルモリマチ,アラダ,宮城県伊具郡丸森町荒田
9812123,宮城県,伊具郡丸森町,原場,ミヤギケン,イググンマルモリマチ,ゲンバ,宮城県伊具郡丸森町原場
9812123,宮城県,伊具郡丸森町,柳田,ミヤギケン,イググンマルモリマチ,ヤナギダ,宮城県伊具郡丸森町柳田
9812124,宮城県,伊具郡丸森町,切立,ミヤギケン,イググンマルモリマチ,キリタテ,宮城県伊具郡丸森町切立
9812124,宮城県,伊具郡丸森町,椚塚,ミヤギケン,イググンマルモリマチ,クヌギヅカ,宮城県伊具郡丸森町椚塚
9812125,宮城県,伊具郡丸森町,深田上,ミヤギケン,イググンマルモリマチ,フカダカミ,宮城県伊具郡丸森町深田上
9812125,宮城県,伊具郡丸森町,深田下,ミヤギケン,イググンマルモリマチ,フカダシモ,宮城県伊具郡丸森町深田下
9812126,宮城県,伊具郡丸森町,梅木坂,ミヤギケン,イググンマルモリマチ,ウメキザカ,宮城県伊具郡丸森町梅木坂
9812126,宮城県,伊具郡丸森町,金ケ作,ミヤギケン,イググンマルモリマチ,カネガサク,宮城県伊具郡丸森町金ケ作
9812126,宮城県,伊具郡丸森町,金ケ作前,ミヤギケン,イググンマルモリマチ,カネガサクマエ,宮城県伊具郡丸森町金ケ作前
9812127,宮城県,伊具郡丸森町,中ノ内,ミヤギケン,イググンマルモリマチ,ナカノウチ,宮城県伊具郡丸森町中ノ内
9812131,宮城県,伊具郡丸森町,上地,ミヤギケン,イググンマルモリマチ,ジョウチ,宮城県伊具郡丸森町上地
9812131,宮城県,伊具郡丸森町,五福谷,ミヤギケン,イググンマルモリマチ,ゴフクヤ,宮城県伊具郡丸森町五福谷
9812131,宮城県,伊具郡丸森町,四反田,ミヤギケン,イググンマルモリマチ,シタンダ,宮城県伊具郡丸森町四反田
9812131,宮城県,伊具郡丸森町,坂上,ミヤギケン,イググンマルモリマチ,バンジョウ,宮城県伊具郡丸森町坂上
9812131,宮城県,伊具郡丸森町,塚田,ミヤギケン,イググンマルモリマチ,ツカダ,宮城県伊具郡丸森町塚田
9812131,宮城県,伊具郡丸森町,後屋敷,ミヤギケン,イググンマルモリマチ,ウシロヤシキ,宮城県伊具郡丸森町後屋敷
9812131,宮城県,伊具郡丸森町,銀杏,ミヤギケン,イググンマルモリマチ,イチョウ,宮城県伊具郡丸森町銀杏
9812132,宮城県,伊具郡丸森町,向原,ミヤギケン,イググンマルモリマチ,ムカエパラ,宮城県伊具郡丸森町向原
9812132,宮城県,伊具郡丸森町,牛子,ミヤギケン,イググンマルモリマチ,ウシコ,宮城県伊具郡丸森町牛子
9812132,宮城県,伊具郡丸森町,蕨平,ミヤギケン,イググンマルモリマチ,ワラビダイラ,宮城県伊具郡丸森町蕨平
9812132,宮城県,伊具郡丸森町,薄平,ミヤギケン,イググンマルモリマチ,ウスダイラ,宮城県伊具郡丸森町薄平
9812132,宮城県,伊具郡丸森町,馬渕,ミヤギケン,イググンマルモリマチ,マブチ,宮城県伊具郡丸森町馬渕
9812133,宮城県,伊具郡丸森町,四重麦一,ミヤギケン,イググンマルモリマチ,ヨエムギ1,宮城県伊具郡丸森町四重麦一
9812133,宮城県,伊具郡丸森町,四重麦七,ミヤギケン,イググンマルモリマチ,ヨエムギ7,宮城県伊具郡丸森町四重麦七
9812133,宮城県,伊具郡丸森町,四重麦三,ミヤギケン,イググンマルモリマチ,ヨエムギ3,宮城県伊具郡丸森町四重麦三
9812133,宮城県,伊具郡丸森町,四重麦二,ミヤギケン,イググンマルモリマチ,ヨエムギ2,宮城県伊具郡丸森町四重麦二
9812133,宮城県,伊具郡丸森町,四重麦五,ミヤギケン,イググンマルモリマチ,ヨエムギ5,宮城県伊具郡丸森町四重麦五
9812133,宮城県,伊具郡丸森町,四重麦六,ミヤギケン,イググンマルモリマチ,ヨエムギ6,宮城県伊具郡丸森町四重麦六
9812133,宮城県,伊具郡丸森町,四重麦四,ミヤギケン,イググンマルモリマチ,ヨエムギ4,宮城県伊具郡丸森町四重麦四
9812133,宮城県,伊具郡丸森町,秋柴,ミヤギケン,イググンマルモリマチ,アキシバ,宮城県伊具郡丸森町秋柴
9812134,宮城県,伊具郡丸森町,峠上,ミヤギケン,イググンマルモリマチ,トウゲカミ,宮城県伊具郡丸森町峠上
9812134,宮城県,伊具郡丸森町,峠下,ミヤギケン,イググンマルモリマチ,トウゲシモ,宮城県伊具郡丸森町峠下
9812134,宮城県,伊具郡丸森町,峠前,ミヤギケン,イググンマルモリマチ,トウゲマエ,宮城県伊具郡丸森町峠前
9812134,宮城県,伊具郡丸森町,峠向,ミヤギケン,イググンマルモリマチ,トウゲムカイ,宮城県伊具郡丸森町峠向
9812134,宮城県,伊具郡丸森町,峠坂下,ミヤギケン,イググンマルモリマチ,トウゲサカシタ,宮城県伊具郡丸森町峠坂下
9812134,宮城県,伊具郡丸森町,峠境,ミヤギケン,イググンマルモリマチ,トウゲサカイ,宮城県伊具郡丸森町峠境
9812134,宮城県,伊具郡丸森町,峠小屋下,ミヤギケン,イググンマルモリマチ,トウゲコヤシモ,宮城県伊具郡丸森町峠小屋下
9812134,宮城県,伊具郡丸森町,峠廻戸,ミヤギケン,イググンマルモリマチ,トウゲマワリド,宮城県伊具郡丸森町峠廻戸
9812134,宮城県,伊具郡丸森町,峠横向,ミヤギケン,イググンマルモリマチ,トウゲヨコムキ,宮城県伊具郡丸森町峠横向
9812134,宮城県,伊具郡丸森町,峠橋元,ミヤギケン,イググンマルモリマチ,トウゲハシモト,宮城県伊具郡丸森町峠橋元
9812134,宮城県,伊具郡丸森町,峠滝沢,ミヤギケン,イググンマルモリマチ,トウゲタキザワ,宮城県伊具郡丸森町峠滝沢
9812134,宮城県,伊具郡丸森町,峠野上,ミヤギケン,イググンマルモリマチ,トウゲノジョウ,宮城県伊具郡丸森町峠野上
9812134,宮城県,伊具郡丸森町,峠革踏石,ミヤギケン,イググンマルモリマチ,トウゲカワフミイシ,宮城県伊具郡丸森町峠革踏石
9812141,宮城県,伊具郡丸森町,北沢,ミヤギケン,イググンマルモリマチ,キタザワ,宮城県伊具郡丸森町北沢
9812141,宮城県,伊具郡丸森町,小保田,ミヤギケン,イググンマルモリマチ,コボタ,宮城県伊具郡丸森町小保田
9812141,宮城県,伊具郡丸森町,板山,ミヤギケン,イググンマルモリマチ,イタヤマ,宮城県伊具郡丸森町板山
9812141,宮城県,伊具郡丸森町,梅木平,ミヤギケン,イググンマルモリマチ,ウメキダイラ,宮城県伊具郡丸森町梅木平
9812142,宮城県,伊具郡丸森町,垂松,ミヤギケン,イググンマルモリマチ,タレマツ,宮城県伊具郡丸森町垂松
9812142,宮城県,伊具郡丸森町,日向,ミヤギケン,イググンマルモリマチ,ヒナタ,宮城県伊具郡丸森町日向
9812142,宮城県,伊具郡丸森町,日向上,ミヤギケン,イググンマルモリマチ,ヒナタカミ,宮城県伊具郡丸森町日向上
9812142,宮城県,伊具郡丸森町,竹谷,ミヤギケン,イググンマルモリマチ,タケヤ,宮城県伊具郡丸森町竹谷
9812142,宮城県,伊具郡丸森町,飯塚,ミヤギケン,イググンマルモリマチ,イイヅカ,宮城県伊具郡丸森町飯塚
9812142,宮城県,伊具郡丸森町,飯塚下,ミヤギケン,イググンマルモリマチ,イイヅカシモ,宮城県伊具郡丸森町飯塚下
9812142,宮城県,伊具郡丸森町,飯泉,ミヤギケン,イググンマルモリマチ,イイセン,宮城県伊具郡丸森町飯泉
9812143,宮城県,伊具郡丸森町,虚空蔵上,ミヤギケン,イググンマルモリマチ,コクゾウカミ,宮城県伊具郡丸森町虚空蔵上
9812143,宮城県,伊具郡丸森町,虚空蔵下,ミヤギケン,イググンマルモリマチ,コクゾウシモ,宮城県伊具郡丸森町虚空蔵下
9812143,宮城県,伊具郡丸森町,虚空蔵中,ミヤギケン,イググンマルモリマチ,コクゾウナカ,宮城県伊具郡丸森町虚空蔵中
9812144,宮城県,伊具郡丸森町,土ケ森,ミヤギケン,イググンマルモリマチ,ツチガモリ,宮城県伊具郡丸森町土ケ森
9812144,宮城県,伊具郡丸森町,大畑,ミヤギケン,イググンマルモリマチ,オオバタケ,宮城県伊具郡丸森町大畑
9812144,宮城県,伊具郡丸森町,大畑前,ミヤギケン,イググンマルモリマチ,オオバタケマエ,宮城県伊具郡丸森町大畑前
9812144,宮城県,伊具郡丸森町,武士沢,ミヤギケン,イググンマルモリマチ,ブシザワ,宮城県伊具郡丸森町武士沢
9812144,宮城県,伊具郡丸森町,由縄坂,ミヤギケン,イググンマルモリマチ,ヨナザカ,宮城県伊具郡丸森町由縄坂
9812145,宮城県,伊具郡丸森町,五本松,ミヤギケン,イググンマルモリマチ,ゴホンマツ,宮城県伊具郡丸森町五本松
9812145,宮城県,伊具郡丸森町,川田島,ミヤギケン,イググンマルモリマチ,カワダシマ,宮城県伊具郡丸森町川田島
9812145,宮城県,伊具郡丸森町,川田島菅,ミヤギケン,イググンマルモリマチ,カワダシマスゲ,宮城県伊具郡丸森町川田島菅
9812145,宮城県,伊具郡丸森町,川端,ミヤギケン,イググンマルモリマチ,カワバタ,宮城県伊具郡丸森町川端
9812146,宮城県,伊具郡丸森町,中道,ミヤギケン,イググンマルモリマチ,ナカミチ,宮城県伊具郡丸森町中道
9812146,宮城県,伊具郡丸森町,広町,ミヤギケン,イググンマルモリマチ,ヒロマチ,宮城県伊具郡丸森町広町
9812146,宮城県,伊具郡丸森町,手掛橋中,ミヤギケン,イググンマルモリマチ,テカケバシナカ,宮城県伊具郡丸森町手掛橋中
9812146,宮城県,伊具郡丸森町,手掛橋東,ミヤギケン,イググンマルモリマチ,テカケバシヒガシ,宮城県伊具郡丸森町手掛橋東
9812146,宮城県,伊具郡丸森町,手掛橋西,ミヤギケン,イググンマルモリマチ,テカケバシニシ,宮城県伊具郡丸森町手掛橋西
9812146,宮城県,伊具郡丸森町,欠入上,ミヤギケン,イググンマルモリマチ,カケイリカミ,宮城県伊具郡丸森町欠入上
9812146,宮城県,伊具郡丸森町,欠入下,ミヤギケン,イググンマルモリマチ,カケイリシモ,宮城県伊具郡丸森町欠入下
9812146,宮城県,伊具郡丸森町,欠入前山,ミヤギケン,イググンマルモリマチ,カケイリマエヤマ,宮城県伊具郡丸森町欠入前山
9812146,宮城県,伊具郡丸森町,欠入菅,ミヤギケン,イググンマルモリマチ,カケイリスゲ,宮城県伊具郡丸森町欠入菅
9812146,宮城県,伊具郡丸森町,関場,ミヤギケン,イググンマルモリマチ,セキバ,宮城県伊具郡丸森町関場
9812151,宮城県,伊具郡丸森町,千刈場,ミヤギケン,イググンマルモリマチ,センガリバ,宮城県伊具郡丸森町千刈場
9812152,宮城県,伊具郡丸森町,花田,ミヤギケン,イググンマルモリマチ,ハナダ,宮城県伊具郡丸森町花田
9812152,宮城県,伊具郡丸森町,鳥屋,ミヤギケン,イググンマルモリマチ,トリヤ,宮城県伊具郡丸森町鳥屋
9812153,宮城県,伊具郡丸森町,雁歌,ミヤギケン,イググンマルモリマチ,カリガ,宮城県伊具郡丸森町雁歌
9812154,宮城県,伊具郡丸森町,大川口,ミヤギケン,イググンマルモリマチ,オオカワグチ,宮城県伊具郡丸森町大川口
9812154,宮城県,伊具郡丸森町,大川口前,ミヤギケン,イググンマルモリマチ,オオカワグチマエ,宮城県伊具郡丸森町大川口前
9812155,宮城県,伊具郡丸森町,山崎,ミヤギケン,イググンマルモリマチ,ヤマザキ,宮城県伊具郡丸森町山崎
9812155,宮城県,伊具郡丸森町,山崎前,ミヤギケン,イググンマルモリマチ,ヤマザキマエ,宮城県伊具郡丸森町山崎前
9812155,宮城県,伊具郡丸森町,片岸,ミヤギケン,イググンマルモリマチ,カタギシ,宮城県伊具郡丸森町片岸
9812156,宮城県,伊具郡丸森町,うるし原,ミヤギケン,イググンマルモリマチ,ウルシバラ,宮城県伊具郡丸森町うるし原
9812156,宮城県,伊具郡丸森町,小塚,ミヤギケン,イググンマルモリマチ,コヅカ,宮城県伊具郡丸森町小塚
9812156,宮城県,伊具郡丸森町,玉貫,ミヤギケン,イググンマルモリマチ,タマヌキ,宮城県伊具郡丸森町玉貫
9812156,宮城県,伊具郡丸森町,菱川内,ミヤギケン,イググンマルモリマチ,ヒシカワウチ,宮城県伊具郡丸森町菱川内
9812161,宮城県,伊具郡丸森町,除南,ミヤギケン,イググンマルモリマチ,ノゾキミナミ,宮城県伊具郡丸森町除南
9812162,宮城県,伊具郡丸森町,除北,ミヤギケン,イググンマルモリマチ,ノゾキキタ,宮城県伊具郡丸森町除北
9812163,宮城県,伊具郡丸森町,除,ミヤギケン,イググンマルモリマチ,ノゾキ,宮城県伊具郡丸森町除
9812164,宮城県,伊具郡丸森町,町東,ミヤギケン,イググンマルモリマチ,マチヒガシ,宮城県伊具郡丸森町町東
9812165,宮城県,伊具郡丸森町,町西,ミヤギケン,イググンマルモリマチ,マチニシ,宮城県伊具郡丸森町町西
9812166,宮城県,伊具郡丸森町,高畑,ミヤギケン,イググンマルモリマチ,タカバタケ,宮城県伊具郡丸森町高畑
9812167,宮城県,伊具郡丸森町,田町南,ミヤギケン,イググンマルモリマチ,タマチミナミ,宮城県伊具郡丸森町田町南
9812168,宮城県,伊具郡丸森町,田町北,ミヤギケン,イググンマルモリマチ,タマチキタ,宮城県伊具郡丸森町田町北
9812171,宮城県,伊具郡丸森町,下滝,ミヤギケン,イググンマルモリマチ,シモタキ,宮城県伊具郡丸森町下滝
9812171,宮城県,伊具郡丸森町,下滝南,ミヤギケン,イググンマルモリマチ,シモタキミナミ,宮城県伊具郡丸森町下滝南
9812171,宮城県,伊具郡丸森町,船場,ミヤギケン,イググンマルモリマチ,フナバ,宮城県伊具郡丸森町船場
9812172,宮城県,伊具郡丸森町,敷文東,ミヤギケン,イググンマルモリマチ,シキブミヒガシ,宮城県伊具郡丸森町敷文東
9812172,宮城県,伊具郡丸森町,敷文西,ミヤギケン,イググンマルモリマチ,シキブミニシ,宮城県伊具郡丸森町敷文西
9812172,宮城県,伊具郡丸森町,百合沢,ミヤギケン,イググンマルモリマチ,ユリサワ,宮城県伊具郡丸森町百合沢
9812173,宮城県,伊具郡丸森町,天炉,ミヤギケン,イググンマルモリマチ,アマホド,宮城県伊具郡丸森町天炉
9812173,宮城県,伊具郡丸森町,山田上,ミヤギケン,イググンマルモリマチ,ヤマダカミ,宮城県伊具郡丸森町山田上
9812173,宮城県,伊具郡丸森町,山田下,ミヤギケン,イググンマルモリマチ,ヤマダシモ,宮城県伊具郡丸森町山田下
9812173,宮城県,伊具郡丸森町,船越,ミヤギケン,イググンマルモリマチ,フナコシ,宮城県伊具郡丸森町船越
9812174,宮城県,伊具郡丸森町,小倉,ミヤギケン,イググンマルモリマチ,コグラ,宮城県伊具郡丸森町小倉
9812174,宮城県,伊具郡丸森町,岡巻,ミヤギケン,イググンマルモリマチ,オカマキ,宮城県伊具郡丸森町岡巻
9812174,宮城県,伊具郡丸森町,木落,ミヤギケン,イググンマルモリマチ,キオトシ,宮城県伊具郡丸森町木落
9812174,宮城県,伊具郡丸森町,砂ノ入,ミヤギケン,イググンマルモリマチ,スナノイリ,宮城県伊具郡丸森町砂ノ入
9812181,宮城県,伊具郡丸森町,子安,ミヤギケン,イググンマルモリマチ,コヤス,宮城県伊具郡丸森町子安
9812181,宮城県,伊具郡丸森町,廻倉,ミヤギケン,イググンマルモリマチ,マワリグラ,宮城県伊具郡丸森町廻倉
9812181,宮城県,伊具郡丸森町,曲木,ミヤギケン,イググンマルモリマチ,マガキ,宮城県伊具郡丸森町曲木
9812181,宮城県,伊具郡丸森町,高見北,ミヤギケン,イググンマルモリマチ,タカミキタ,宮城県伊具郡丸森町高見北
9812181,宮城県,伊具郡丸森町,高見南,ミヤギケン,イググンマルモリマチ,タカミミナミ,宮城県伊具郡丸森町高見南
9812182,宮城県,伊具郡丸森町,大鹿野,ミヤギケン,イググンマルモリマチ,オオガノ,宮城県伊具郡丸森町大鹿野
9812182,宮城県,伊具郡丸森町,覆盆子原,ミヤギケン,イググンマルモリマチ,イチゴハラ,宮城県伊具郡丸森町覆盆子原
9812183,宮城県,伊具郡丸森町,塩ノ貝,ミヤギケン,イググンマルモリマチ,シオノガイ,宮城県伊具郡丸森町塩ノ貝
9812183,宮城県,伊具郡丸森町,塩ノ貝後,ミヤギケン,イググンマルモリマチ,シオノガイウシロ,宮城県伊具郡丸森町塩ノ貝後
9812183,宮城県,伊具郡丸森町,大高森,ミヤギケン,イググンマルモリマチ,オオタカモリ,宮城県伊具郡丸森町大高森
9812183,宮城県,伊具郡丸森町,屋敷,ミヤギケン,イググンマルモリマチ,ヤシキ,宮城県伊具郡丸森町屋敷
9812183,宮城県,伊具郡丸森町,屋敷前,ミヤギケン,イググンマルモリマチ,ヤシキマエ,宮城県伊具郡丸森町屋敷前
9812183,宮城県,伊具郡丸森町,石釜,ミヤギケン,イググンマルモリマチ,イシガマ,宮城県伊具郡丸森町石釜
9812183,宮城県,伊具郡丸森町,空焼,ミヤギケン,イググンマルモリマチ,ソラヤキ,宮城県伊具郡丸森町空焼
9812183,宮城県,伊具郡丸森町,萱森,ミヤギケン,イググンマルモリマチ,カヤモリ,宮城県伊具郡丸森町萱森
9812183,宮城県,伊具郡丸森町,角切,ミヤギケン,イググンマルモリマチ,ツノキリ,宮城県伊具郡丸森町角切
9812183,宮城県,伊具郡丸森町,鳥木,ミヤギケン,イググンマルモリマチ,トリキ,宮城県伊具郡丸森町鳥木
9812184,宮城県,伊具郡丸森町,坂下,ミヤギケン,イググンマルモリマチ,サカシタ,宮城県伊具郡丸森町坂下
9812184,宮城県,伊具郡丸森町,柏木,ミヤギケン,イググンマルモリマチ,カシワギ,宮城県伊具郡丸森町柏木
9812184,宮城県,伊具郡丸森町,森,ミヤギケン,イググンマルモリマチ,モリ,宮城県伊具郡丸森町森
9812184,宮城県,伊具郡丸森町,深田,ミヤギケン,イググンマルモリマチ,フカダ,宮城県伊具郡丸森町深田
9812184,宮城県,伊具郡丸森町,田ノ入,ミヤギケン,イググンマルモリマチ,タノイリ,宮城県伊具郡丸森町田ノ入
9812184,宮城県,伊具郡丸森町,笠松,ミヤギケン,イググンマルモリマチ,カサマツ,宮城県伊具郡丸森町笠松
9812185,宮城県,伊具郡丸森町,椚林,ミヤギケン,イググンマルモリマチ,クヌギバヤシ,宮城県伊具郡丸森町椚林
9812185,宮城県,伊具郡丸森町,滝の上,ミヤギケン,イググンマルモリマチ,タキノカミ,宮城県伊具郡丸森町滝の上
9812185,宮城県,伊具郡丸森町,火打石,ミヤギケン,イググンマルモリマチ,ヒウチイシ,宮城県伊具郡丸森町火打石
9812185,宮城県,伊具郡丸森町,羽出庭,ミヤギケン,イググンマルモリマチ,ハデニワ,宮城県伊具郡丸森町羽出庭
9812186,宮城県,伊具郡丸森町,小坊木北,ミヤギケン,イググンマルモリマチ,コボウギキタ,宮城県伊具郡丸森町小坊木北
9812186,宮城県,伊具郡丸森町,小坊木南,ミヤギケン,イググンマルモリマチ,コボウギミナミ,宮城県伊具郡丸森町小坊木南
9812186,宮城県,伊具郡丸森町,早坂,ミヤギケン,イググンマルモリマチ,ハヤサカ,宮城県伊具郡丸森町早坂
9812186,宮城県,伊具郡丸森町,立沢北,ミヤギケン,イググンマルモリマチ,タツザワキタ,宮城県伊具郡丸森町立沢北
9812186,宮城県,伊具郡丸森町,立沢南,ミヤギケン,イググンマルモリマチ,タツザワミナミ,宮城県伊具郡丸森町立沢南
9812187,宮城県,伊具郡丸森町,北原南,ミヤギケン,イググンマルモリマチ,キタハラミナミ,宮城県伊具郡丸森町北原南
9812187,宮城県,伊具郡丸森町,北原東,ミヤギケン,イググンマルモリマチ,キタハラヒガシ,宮城県伊具郡丸森町北原東
9812187,宮城県,伊具郡丸森町,大巻北,ミヤギケン,イググンマルモリマチ,オオマキキタ,宮城県伊具郡丸森町大巻北
9812187,宮城県,伊具郡丸森町,大巻南,ミヤギケン,イググンマルモリマチ,オオマキミナミ,宮城県伊具郡丸森町大巻南
9812187,宮城県,伊具郡丸森町,川前,ミヤギケン,イググンマルモリマチ,カワマエ,宮城県伊具郡丸森町川前
9812187,宮城県,伊具郡丸森町,川原田,ミヤギケン,イググンマルモリマチ,カワハラダ,宮城県伊具郡丸森町川原田
9812187,宮城県,伊具郡丸森町,日照田,ミヤギケン,イググンマルモリマチ,ヒデリダ,宮城県伊具郡丸森町日照田
9812187,宮城県,伊具郡丸森町,水沢,ミヤギケン,イググンマルモリマチ,ミズサワ,宮城県伊具郡丸森町水沢
9812187,宮城県,伊具郡丸森町,荒屋敷,ミヤギケン,イググンマルモリマチ,アラヤシキ,宮城県伊具郡丸森町荒屋敷
9812187,宮城県,伊具郡丸森町,袖五郎,ミヤギケン,イググンマルモリマチ,ソデゴロウ,宮城県伊具郡丸森町袖五郎
9812201,宮城県,伊具郡丸森町,筆甫,ミヤギケン,イググンマルモリマチ,ヒッポ,宮城県伊具郡丸森町筆甫
9812301,宮城県,伊具郡丸森町,大張大蔵,ミヤギケン,イググンマルモリマチ,オオハリオオクラ,宮城県伊具郡丸森町大張大蔵
9812302,宮城県,伊具郡丸森町,大張川張,ミヤギケン,イググンマルモリマチ,オオハリカワハリ,宮城県伊具郡丸森町大張川張
9812303,宮城県,伊具郡丸森町,耕野,ミヤギケン,イググンマルモリマチ,コウヤ,宮城県伊具郡丸森町耕野
9812401,宮城県,伊具郡丸森町,小斎,ミヤギケン,イググンマルモリマチ,コサイ,宮城県伊具郡丸森町小斎
9812402,宮城県,伊具郡丸森町,金山,ミヤギケン,イググンマルモリマチ,カネヤマ,宮城県伊具郡丸森町金山
9812501,宮城県,伊具郡丸森町,大内,ミヤギケン,イググンマルモリマチ,オオウチ,宮城県伊具郡丸森町大内
9813100,宮城県,仙台市泉区,,ミヤギケン,センダイシイズミク,,宮城県仙台市泉区
9813101,宮城県,仙台市泉区,明石南,ミヤギケン,センダイシイズミク,アカイシミナミ,宮城県仙台市泉区明石南
9813102,宮城県,仙台市泉区,向陽台,ミヤギケン,センダイシイズミク,コウヨウダイ,宮城県仙台市泉区向陽台
9813103,宮城県,仙台市泉区,山の寺,ミヤギケン,センダイシイズミク,ヤマノテラ,宮城県仙台市泉区山の寺
9813104,宮城県,仙台市泉区,永和台,ミヤギケン,センダイシイズミク,エイワダイ,宮城県仙台市泉区永和台
9813105,宮城県,仙台市泉区,天神沢,ミヤギケン,センダイシイズミク,テンジンザワ,宮城県仙台市泉区天神沢
9813106,宮城県,仙台市泉区,歩坂町,ミヤギケン,センダイシイズミク,ホサカチョウ,宮城県仙台市泉区歩坂町
9813107,宮城県,仙台市泉区,本田町,ミヤギケン,センダイシイズミク,ホンダチョウ,宮城県仙台市泉区本田町
9813108,宮城県,仙台市泉区,松陵,ミヤギケン,センダイシイズミク,ショウリョウ,宮城県仙台市泉区松陵
9813109,宮城県,仙台市泉区,鶴が丘,ミヤギケン,センダイシイズミク,ツルガオカ,宮城県仙台市泉区鶴が丘
9813111,宮城県,仙台市泉区,松森,ミヤギケン,センダイシイズミク,マツモリ,宮城県仙台市泉区松森
9813112,宮城県,仙台市泉区,八乙女,ミヤギケン,センダイシイズミク,ヤオトメ,宮城県仙台市泉区八乙女
9813113,宮城県,仙台市泉区,真美沢,ミヤギケン,センダイシイズミク,マミサワ,宮城県仙台市泉区真美沢
9813114,宮城県,仙台市泉区,友愛町,ミヤギケン,センダイシイズミク,ユウアイチョウ,宮城県仙台市泉区友愛町
9813115,宮城県,仙台市泉区,愛隣町,ミヤギケン,センダイシイズミク,アイリンチョウ,宮城県仙台市泉区愛隣町
9813116,宮城県,仙台市泉区,高玉町,ミヤギケン,センダイシイズミク,タカダマチョウ,宮城県仙台市泉区高玉町
9813117,宮城県,仙台市泉区,市名坂,ミヤギケン,センダイシイズミク,イチナザカ,宮城県仙台市泉区市名坂
9813121,宮城県,仙台市泉区,上谷刈,ミヤギケン,センダイシイズミク,カミヤガリ,宮城県仙台市泉区上谷刈
9813122,宮城県,仙台市泉区,加茂,ミヤギケン,センダイシイズミク,カモ,宮城県仙台市泉区加茂
9813123,宮城県,仙台市泉区,古内,ミヤギケン,センダイシイズミク,フルウチ,宮城県仙台市泉区古内
9813124,宮城県,仙台市泉区,野村,ミヤギケン,センダイシイズミク,ノムラ,宮城県仙台市泉区野村
9813125,宮城県,仙台市泉区,みずほ台,ミヤギケン,センダイシイズミク,ミズホダイ,宮城県仙台市泉区みずほ台
9813126,宮城県,仙台市泉区,泉中央南,ミヤギケン,センダイシイズミク,イズミチュウオウミナミ,宮城県仙台市泉区泉中央南
9813131,宮城県,仙台市泉区,七北田,ミヤギケン,センダイシイズミク,ナナキタ,宮城県仙台市泉区七北田
9813132,宮城県,仙台市泉区,将監,ミヤギケン,センダイシイズミク,ショウゲン,宮城県仙台市泉区将監
9813133,宮城県,仙台市泉区,泉中央,ミヤギケン,センダイシイズミク,イズミチュウオウ,宮城県仙台市泉区泉中央
9813134,宮城県,仙台市泉区,桂,ミヤギケン,センダイシイズミク,カツラ,宮城県仙台市泉区桂
9813135,宮城県,仙台市泉区,八乙女中央,ミヤギケン,センダイシイズミク,ヤオトメチュウオウ,宮城県仙台市泉区八乙女中央
9813136,宮城県,仙台市泉区,将監殿,ミヤギケン,センダイシイズミク,ショウゲントノ,宮城県仙台市泉区将監殿
9813137,宮城県,仙台市泉区,大沢,ミヤギケン,センダイシイズミク,オオサワ,宮城県仙台市泉区大沢
9813201,宮城県,仙台市泉区,泉ケ丘,ミヤギケン,センダイシイズミク,イズミガオカ,宮城県仙台市泉区泉ケ丘
9813202,宮城県,仙台市泉区,北高森,ミヤギケン,センダイシイズミク,キタタカモリ,宮城県仙台市泉区北高森
9813203,宮城県,仙台市泉区,高森,ミヤギケン,センダイシイズミク,タカモリ,宮城県仙台市泉区高森
9813204,宮城県,仙台市泉区,寺岡,ミヤギケン,センダイシイズミク,テラオカ,宮城県仙台市泉区寺岡
9813205,宮城県,仙台市泉区,紫山,ミヤギケン,センダイシイズミク,ムラサキヤマ,宮城県仙台市泉区紫山
9813206,宮城県,仙台市泉区,明通,ミヤギケン,センダイシイズミク,アケドオリ,宮城県仙台市泉区明通
9813211,宮城県,仙台市泉区,長命ケ丘東,ミヤギケン,センダイシイズミク,チョウメイガオカヒガシ,宮城県仙台市泉区長命ケ丘東
9813212,宮城県,仙台市泉区,長命ケ丘,ミヤギケン,センダイシイズミク,チョウメイガオカ,宮城県仙台市泉区長命ケ丘
9813213,宮城県,仙台市泉区,南中山,ミヤギケン,センダイシイズミク,ミナミナカヤマ,宮城県仙台市泉区南中山
9813214,宮城県,仙台市泉区,館,ミヤギケン,センダイシイズミク,ヤカタ,宮城県仙台市泉区館
9813215,宮城県,仙台市泉区,北中山,ミヤギケン,センダイシイズミク,キタナカヤマ,宮城県仙台市泉区北中山
9813216,宮城県,仙台市泉区,小角,ミヤギケン,センダイシイズミク,オガク,宮城県仙台市泉区小角
9813217,宮城県,仙台市泉区,実沢,ミヤギケン,センダイシイズミク,サネザワ,宮城県仙台市泉区実沢
9813218,宮城県,仙台市泉区,西中山,ミヤギケン,センダイシイズミク,ニシナカヤマ,宮城県仙台市泉区西中山
9813221,宮城県,仙台市泉区,根白石,ミヤギケン,センダイシイズミク,ネノシロイシ,宮城県仙台市泉区根白石
9813222,宮城県,仙台市泉区,住吉台東,ミヤギケン,センダイシイズミク,スミヨシダイヒガシ,宮城県仙台市泉区住吉台東
9813223,宮城県,仙台市泉区,住吉台西,ミヤギケン,センダイシイズミク,スミヨシダイニシ,宮城県仙台市泉区住吉台西
9813224,宮城県,仙台市泉区,西田中,ミヤギケン,センダイシイズミク,ニシタナカ,宮城県仙台市泉区西田中
9813225,宮城県,仙台市泉区,福岡,ミヤギケン,センダイシイズミク,フクオカ,宮城県仙台市泉区福岡
9813226,宮城県,仙台市泉区,朴沢,ミヤギケン,センダイシイズミク,ホウザワ,宮城県仙台市泉区朴沢
9813227,宮城県,仙台市泉区,朝日,ミヤギケン,センダイシイズミク,アサヒ,宮城県仙台市泉区朝日
9813271,宮城県,黒川郡大和町,学苑,ミヤギケン,クロカワグンタイワチョウ,ガクエン,宮城県黒川郡大和町学苑
9813300,宮城県,富谷市,,ミヤギケン,トミヤシ,,宮城県富谷市
9813301,宮城県,富谷市,志戸田,ミヤギケン,トミヤシ,シトダ,宮城県富谷市志戸田
9813302,宮城県,富谷市,三ノ関,ミヤギケン,トミヤシ,サンノセキ,宮城県富谷市三ノ関
9813303,宮城県,富谷市,太子堂,ミヤギケン,トミヤシ,タイシドウ,宮城県富谷市太子堂
9813304,宮城県,富谷市,ひより台,ミヤギケン,トミヤシ,ヒヨリダイ,宮城県富谷市ひより台
9813305,宮城県,富谷市,一ノ関,ミヤギケン,トミヤシ,イチノセキ,宮城県富谷市一ノ関
9813306,宮城県,富谷市,二ノ関,ミヤギケン,トミヤシ,ニノセキ,宮城県富谷市二ノ関
9813311,宮城県,富谷市,富谷,ミヤギケン,トミヤシ,トミヤ,宮城県富谷市富谷
9813312,宮城県,富谷市,とちの木,ミヤギケン,トミヤシ,トチノキ,宮城県富谷市とちの木
9813313,宮城県,富谷市,高屋敷,ミヤギケン,トミヤシ,タカヤシキ,宮城県富谷市高屋敷
9813321,宮城県,富谷市,大童,ミヤギケン,トミヤシ,オオワラ,宮城県富谷市大童
9813322,宮城県,富谷市,今泉,ミヤギケン,トミヤシ,イマイズミ,宮城県富谷市今泉
9813323,宮城県,富谷市,大亀,ミヤギケン,トミヤシ,オオガメ,宮城県富谷市大亀
9813324,宮城県,富谷市,西成田,ミヤギケン,トミヤシ,ニシナリタ,宮城県富谷市西成田
9813325,宮城県,富谷市,石積,ミヤギケン,トミヤシ,イシヅモリ,宮城県富谷市石積
9813326,宮城県,富谷市,明石,ミヤギケン,トミヤシ,アカイシ,宮城県富谷市明石
9813327,宮城県,富谷市,穀田,ミヤギケン,トミヤシ,コクダ,宮城県富谷市穀田
9813328,宮城県,富谷市,上桜木,ミヤギケン,トミヤシ,カミサクラギ,宮城県富谷市上桜木
9813329,宮城県,富谷市,大清水,ミヤギケン,トミヤシ,オオシミズ,宮城県富谷市大清水
9813331,宮城県,富谷市,東向陽台,ミヤギケン,トミヤシ,ヒガシコウヨウダイ,宮城県富谷市東向陽台
9813332,宮城県,富谷市,明石台,ミヤギケン,トミヤシ,アカイシダイ,宮城県富谷市明石台
9813341,宮城県,富谷市,成田,ミヤギケン,トミヤシ,ナリタ,宮城県富谷市成田
9813351,宮城県,富谷市,鷹乃杜,ミヤギケン,トミヤシ,タカノモリ,宮城県富谷市鷹乃杜
9813352,宮城県,富谷市,富ケ丘,ミヤギケン,トミヤシ,トミガオカ,宮城県富谷市富ケ丘
9813361,宮城県,富谷市,あけの平,ミヤギケン,トミヤシ,アケノダイラ,宮城県富谷市あけの平
9813362,宮城県,富谷市,日吉台,ミヤギケン,トミヤシ,ヒヨシダイ,宮城県富谷市日吉台
9813363,宮城県,富谷市,杜乃橋,ミヤギケン,トミヤシ,モリノハシ,宮城県富谷市杜乃橋
9813401,宮城県,黒川郡大和町,落合三ケ内,ミヤギケン,クロカワグンタイワチョウ,オチアイサンガウチ,宮城県黒川郡大和町落合三ケ内
9813402,宮城県,黒川郡大和町,落合報恩寺,ミヤギケン,クロカワグンタイワチョウ,オチアイホウオンジ,宮城県黒川郡大和町落合報恩寺
9813403,宮城県,黒川郡大和町,落合檜和田,ミヤギケン,クロカワグンタイワチョウ,オチアイヒワダ,宮城県黒川郡大和町落合檜和田
9813404,宮城県,黒川郡大和町,落合相川,ミヤギケン,クロカワグンタイワチョウ,オチアイアイカワ,宮城県黒川郡大和町落合相川
9813405,宮城県,黒川郡大和町,落合舞野,ミヤギケン,クロカワグンタイワチョウ,オチアイマイノ,宮城県黒川郡大和町落合舞野
9813406,宮城県,黒川郡大和町,落合蒜袋,ミヤギケン,クロカワグンタイワチョウ,オチアイヒルブクロ,宮城県黒川郡大和町落合蒜袋
9813407,宮城県,黒川郡大和町,落合松坂,ミヤギケン,クロカワグンタイワチョウ,オチアイマツサカ,宮城県黒川郡大和町落合松坂
9813408,宮城県,黒川郡大和町,松坂平,ミヤギケン,クロカワグンタイワチョウ,マツサカダイラ,宮城県黒川郡大和町松坂平
9813409,宮城県,黒川郡大和町,流通平,ミヤギケン,クロカワグンタイワチョウ,リュウツウダイラ,宮城県黒川郡大和町流通平
9813411,宮城県,黒川郡大和町,鶴巣大平,ミヤギケン,クロカワグンタイワチョウ,ツルスオオダイラ,宮城県黒川郡大和町鶴巣大平
9813412,宮城県,黒川郡大和町,鶴巣鳥屋,ミヤギケン,クロカワグンタイワチョウ,ツルストヤ,宮城県黒川郡大和町鶴巣鳥屋
9813413,宮城県,黒川郡大和町,鶴巣幕柳,ミヤギケン,クロカワグンタイワチョウ,ツルスマクヤナギ,宮城県黒川郡大和町鶴巣幕柳
9813414,宮城県,黒川郡大和町,鶴巣太田,ミヤギケン,クロカワグンタイワチョウ,ツルスオオタ,宮城県黒川郡大和町鶴巣太田
9813415,宮城県,黒川郡大和町,鶴巣小鶴沢,ミヤギケン,クロカワグンタイワチョウ,ツルスオヅルサワ,宮城県黒川郡大和町鶴巣小鶴沢
9813416,宮城県,黒川郡大和町,鶴巣山田,ミヤギケン,クロカワグンタイワチョウ,ツルスヤマダ,宮城県黒川郡大和町鶴巣山田
9813417,宮城県,黒川郡大和町,鶴巣北目大崎,ミヤギケン,クロカワグンタイワチョウ,ツルスキタメオオサキ,宮城県黒川郡大和町鶴巣北目大崎
9813418,宮城県,黒川郡大和町,鶴巣下草,ミヤギケン,クロカワグンタイワチョウ,ツルスシモクサ,宮城県黒川郡大和町鶴巣下草
9813419,宮城県,黒川郡大和町,まいの,ミヤギケン,クロカワグンタイワチョウ,マイノ,宮城県黒川郡大和町まいの
9813500,宮城県,黒川郡大郷町,,ミヤギケン,クロカワグンオオサトチョウ,,宮城県黒川郡大郷町
9813501,宮城県,黒川郡大郷町,大松沢,ミヤギケン,クロカワグンオオサトチョウ,オオマツザワ,宮城県黒川郡大郷町大松沢
9813502,宮城県,黒川郡大郷町,粕川,ミヤギケン,クロカワグンオオサトチョウ,カスカワ,宮城県黒川郡大郷町粕川
9813503,宮城県,黒川郡大郷町,石原,ミヤギケン,クロカワグンオオサトチョウ,イシバラ,宮城県黒川郡大郷町石原
9813511,宮城県,黒川郡大郷町,山崎,ミヤギケン,クロカワグンオオサトチョウ,ヤマサキ,宮城県黒川郡大郷町山崎
9813512,宮城県,黒川郡大郷町,不来内,ミヤギケン,クロカワグンオオサトチョウ,コズナイ,宮城県黒川郡大郷町不来内
9813513,宮城県,黒川郡大郷町,味明,ミヤギケン,クロカワグンオオサトチョウ,ミアケ,宮城県黒川郡大郷町味明
9813514,宮城県,黒川郡大郷町,川内,ミヤギケン,クロカワグンオオサトチョウ,カワウチ,宮城県黒川郡大郷町川内
9813515,宮城県,黒川郡大郷町,羽生,ミヤギケン,クロカワグンオオサトチョウ,ハニュウ,宮城県黒川郡大郷町羽生
9813521,宮城県,黒川郡大郷町,中村,ミヤギケン,クロカワグンオオサトチョウ,ナカムラ,宮城県黒川郡大郷町中村
9813522,宮城県,黒川郡大郷町,東成田,ミヤギケン,クロカワグンオオサトチョウ,ヒガシナリタ,宮城県黒川郡大郷町東成田
9813523,宮城県,黒川郡大郷町,土橋,ミヤギケン,クロカワグンオオサトチョウ,ツチハシ,宮城県黒川郡大郷町土橋
9813524,宮城県,黒川郡大郷町,鶉崎,ミヤギケン,クロカワグンオオサトチョウ,ウズラサキ,宮城県黒川郡大郷町鶉崎
9813600,宮城県,黒川郡大和町,,ミヤギケン,クロカワグンタイワチョウ,,宮城県黒川郡大和町
9813600,宮城県,黒川郡大衡村,,ミヤギケン,クロカワグンオオヒラムラ,,宮城県黒川郡大衡村
9813601,宮城県,黒川郡大衡村,大瓜,ミヤギケン,クロカワグンオオヒラムラ,オオウリ,宮城県黒川郡大衡村大瓜
9813602,宮城県,黒川郡大衡村,大衡,ミヤギケン,クロカワグンオオヒラムラ,オオヒラ,宮城県黒川郡大衡村大衡
9813603,宮城県,黒川郡大衡村,沖の平,ミヤギケン,クロカワグンオオヒラムラ,オキノダイラ,宮城県黒川郡大衡村沖の平
9813604,宮城県,黒川郡大衡村,駒場,ミヤギケン,クロカワグンオオヒラムラ,コマバ,宮城県黒川郡大衡村駒場
9813605,宮城県,黒川郡大衡村,大森,ミヤギケン,クロカワグンオオヒラムラ,オオモリ,宮城県黒川郡大衡村大森
9813606,宮城県,黒川郡大衡村,桔梗平,ミヤギケン,クロカワグンオオヒラムラ,キキョウダイラ,宮城県黒川郡大衡村桔梗平
9813607,宮城県,黒川郡大衡村,奥田,ミヤギケン,クロカワグンオオヒラムラ,オクダ,宮城県黒川郡大衡村奥田
9813608,宮城県,黒川郡大衡村,松の平,ミヤギケン,クロカワグンオオヒラムラ,マツノダイラ,宮城県黒川郡大衡村松の平
9813609,宮城県,黒川郡大衡村,中央平,ミヤギケン,クロカワグンオオヒラムラ,チュウオウダイラ,宮城県黒川郡大衡村中央平
9813611,宮城県,黒川郡大衡村,ときわ台,ミヤギケン,クロカワグンオオヒラムラ,トキワダイ,宮城県黒川郡大衡村ときわ台
9813612,宮城県,黒川郡大衡村,ときわ台南,ミヤギケン,クロカワグンオオヒラムラ,トキワダイミナミ,宮城県黒川郡大衡村ときわ台南
9813621,宮城県,黒川郡大和町,吉岡,ミヤギケン,クロカワグンタイワチョウ,ヨシオカ,宮城県黒川郡大和町吉岡
9813622,宮城県,黒川郡大和町,もみじケ丘,ミヤギケン,クロカワグンタイワチョウ,モミジガオカ,宮城県黒川郡大和町もみじケ丘
9813623,宮城県,黒川郡大和町,小野,ミヤギケン,クロカワグンタイワチョウ,オノ,宮城県黒川郡大和町小野
9813624,宮城県,黒川郡大和町,宮床,ミヤギケン,クロカワグンタイワチョウ,ミヤトコ,宮城県黒川郡大和町宮床
9813625,宮城県,黒川郡大和町,吉田,ミヤギケン,クロカワグンタイワチョウ,ヨシダ,宮城県黒川郡大和町吉田
9813626,宮城県,黒川郡大和町,吉岡南,ミヤギケン,クロカワグンタイワチョウ,ヨシオカミナミ,宮城県黒川郡大和町吉岡南
9813627,宮城県,黒川郡大和町,吉岡東,ミヤギケン,クロカワグンタイワチョウ,ヨシオカヒガシ,宮城県黒川郡大和町吉岡東
9813628,宮城県,黒川郡大和町,杜の丘,ミヤギケン,クロカワグンタイワチョウ,モリノオカ,宮城県黒川郡大和町杜の丘
9813629,宮城県,黒川郡大和町,テクノヒルズ,ミヤギケン,クロカワグンタイワチョウ,テクノヒルズ,宮城県黒川郡大和町テクノヒルズ
9813631,宮城県,黒川郡大和町,吉岡天皇寺東,ミヤギケン,クロカワグンタイワチョウ,ヨシオカテンノウジヒガシ,宮城県黒川郡大和町吉岡天皇寺東
9813632,宮城県,黒川郡大和町,吉岡まほろば,ミヤギケン,クロカワグンタイワチョウ,ヨシオカマホロバ,宮城県黒川郡大和町吉岡まほろば
9814100,宮城県,加美郡色麻町,,ミヤギケン,カミグンシカマチョウ,,宮城県加美郡色麻町
9814101,宮城県,加美郡色麻町,清水,ミヤギケン,カミグンシカマチョウ,キヨミズ,宮城県加美郡色麻町清水
9814102,宮城県,加美郡色麻町,高城,ミヤギケン,カミグンシカマチョウ,タカギ,宮城県加美郡色麻町高城
9814103,宮城県,加美郡色麻町,高根,ミヤギケン,カミグンシカマチョウ,タカネ,宮城県加美郡色麻町高根
9814104,宮城県,加美郡色麻町,平沢,ミヤギケン,カミグンシカマチョウ,ヒラサワ,宮城県加美郡色麻町平沢
9814105,宮城県,加美郡色麻町,吉田,ミヤギケン,カミグンシカマチョウ,ヨシダ,宮城県加美郡色麻町吉田
9814111,宮城県,加美郡色麻町,黒沢,ミヤギケン,カミグンシカマチョウ,クロサワ,宮城県加美郡色麻町黒沢
9814112,宮城県,加美郡色麻町,志津,ミヤギケン,カミグンシカマチョウ,シヅ,宮城県加美郡色麻町志津
9814121,宮城県,加美郡色麻町,一の関,ミヤギケン,カミグンシカマチョウ,イチノセキ,宮城県加美郡色麻町一の関
9814122,宮城県,加美郡色麻町,四竃,ミヤギケン,カミグンシカマチョウ,シカマ,宮城県加美郡色麻町四竃
9814131,宮城県,加美郡色麻町,大,ミヤギケン,カミグンシカマチョウ,ダイ,宮城県加美郡色麻町大
9814141,宮城県,加美郡色麻町,王城寺,ミヤギケン,カミグンシカマチョウ,オウジョウジ,宮城県加美郡色麻町王城寺
9814151,宮城県,加美郡色麻町,小栗山,ミヤギケン,カミグンシカマチョウ,コグリヤマ,宮城県加美郡色麻町小栗山
9814200,宮城県,加美郡加美町,,ミヤギケン,カミグンカミマチ,,宮城県加美郡加美町
9814201,宮城県,加美郡加美町,上多田川,ミヤギケン,カミグンカミマチ,カミタダガワ,宮城県加美郡加美町上多田川
9814202,宮城県,加美郡加美町,下多田川,ミヤギケン,カミグンカミマチ,シモタダガワ,宮城県加美郡加美町下多田川
9814203,宮城県,加美郡加美町,菜切谷,ミヤギケン,カミグンカミマチ,ナギリヤ,宮城県加美郡加美町菜切谷
9814211,宮城県,加美郡加美町,上狼塚,ミヤギケン,カミグンカミマチ,カミオイノヅカ,宮城県加美郡加美町上狼塚
9814212,宮城県,加美郡加美町,下狼塚,ミヤギケン,カミグンカミマチ,シモオイノヅカ,宮城県加美郡加美町下狼塚
9814213,宮城県,加美郡加美町,平柳,ミヤギケン,カミグンカミマチ,ヒラヤナギ,宮城県加美郡加美町平柳
9814221,宮城県,加美郡加美町,四日市場,ミヤギケン,カミグンカミマチ,ヨッカイチバ,宮城県加美郡加美町四日市場
9814222,宮城県,加美郡加美町,下新田,ミヤギケン,カミグンカミマチ,シモニイダ,宮城県加美郡加美町下新田
9814223,宮城県,加美郡加美町,雑式ノ目,ミヤギケン,カミグンカミマチ,ゾウシキノメ,宮城県加美郡加美町雑式ノ目
9814224,宮城県,加美郡加美町,木伏,ミヤギケン,カミグンカミマチ,キップシ,宮城県加美郡加美町木伏
9814225,宮城県,加美郡加美町,新木伏,ミヤギケン,カミグンカミマチ,シンキツプシ,宮城県加美郡加美町新木伏
9814226,宮城県,加美郡加美町,押登目,ミヤギケン,カミグンカミマチ,オシトメ,宮城県加美郡加美町押登目
9814227,宮城県,加美郡加美町,新川原,ミヤギケン,カミグンカミマチ,シンカワラ,宮城県加美郡加美町新川原
9814228,宮城県,加美郡加美町,鹿島越,ミヤギケン,カミグンカミマチ,カシマゴシ,宮城県加美郡加美町鹿島越
9814229,宮城県,加美郡加美町,薬師堂,ミヤギケン,カミグンカミマチ,ヤクシドウ,宮城県加美郡加美町薬師堂
9814231,宮城県,加美郡加美町,百目木１番,ミヤギケン,カミグンカミマチ,ドウメキ1バン,宮城県加美郡加美町百目木1
9814232,宮城県,加美郡加美町,百目木２番,ミヤギケン,カミグンカミマチ,ドウメキ2バン,宮城県加美郡加美町百目木2
9814233,宮城県,加美郡加美町,百目木３番,ミヤギケン,カミグンカミマチ,ドウメキ3バン,宮城県加美郡加美町百目木3
9814234,宮城県,加美郡加美町,旧舘１番,ミヤギケン,カミグンカミマチ,キュウカン1バン,宮城県加美郡加美町旧舘1
9814235,宮城県,加美郡加美町,旧舘２番,ミヤギケン,カミグンカミマチ,キュウカン2バン,宮城県加美郡加美町旧舘2
9814241,宮城県,加美郡加美町,南町,ミヤギケン,カミグンカミマチ,ミナミマチ,宮城県加美郡加美町南町
9814242,宮城県,加美郡加美町,町西,ミヤギケン,カミグンカミマチ,マチニシ,宮城県加美郡加美町町西
9814251,宮城県,加美郡加美町,西町,ミヤギケン,カミグンカミマチ,ニシマチ,宮城県加美郡加美町西町
9814252,宮城県,加美郡加美町,西田,ミヤギケン,カミグンカミマチ,ニシダ,宮城県加美郡加美町西田
9814253,宮城県,加美郡加美町,大門,ミヤギケン,カミグンカミマチ,ダイモン,宮城県加美郡加美町大門
9814254,宮城県,加美郡加美町,北町,ミヤギケン,カミグンカミマチ,キタマチ,宮城県加美郡加美町北町
9814255,宮城県,加美郡加美町,岡町,ミヤギケン,カミグンカミマチ,オカマチ,宮城県加美郡加美町岡町
9814256,宮城県,加美郡加美町,下川原,ミヤギケン,カミグンカミマチ,シモカワラ,宮城県加美郡加美町下川原
9814261,宮城県,加美郡加美町,町裏,ミヤギケン,カミグンカミマチ,マチウラ,宮城県加美郡加美町町裏
9814262,宮城県,加美郡加美町,一本杉,ミヤギケン,カミグンカミマチ,イッポンスギ,宮城県加美郡加美町一本杉
9814263,宮城県,加美郡加美町,雁原,ミヤギケン,カミグンカミマチ,ガンバラ,宮城県加美郡加美町雁原
9814264,宮城県,加美郡加美町,赤塚,ミヤギケン,カミグンカミマチ,アカツカ,宮城県加美郡加美町赤塚
9814265,宮城県,加美郡加美町,矢越,ミヤギケン,カミグンカミマチ,ヤゴシ,宮城県加美郡加美町矢越
9814271,宮城県,加美郡加美町,羽場,ミヤギケン,カミグンカミマチ,ハバ,宮城県加美郡加美町羽場
9814272,宮城県,加美郡加美町,城生,ミヤギケン,カミグンカミマチ,ジョウ,宮城県加美郡加美町城生
9814273,宮城県,加美郡加美町,上川原,ミヤギケン,カミグンカミマチ,カミカワラ,宮城県加美郡加美町上川原
9814274,宮城県,加美郡加美町,一本柳,ミヤギケン,カミグンカミマチ,イッポンヤナギ,宮城県加美郡加美町一本柳
9814275,宮城県,加美郡加美町,穴畑,ミヤギケン,カミグンカミマチ,アナハタ,宮城県加美郡加美町穴畑
9814276,宮城県,加美郡加美町,焼橋,ミヤギケン,カミグンカミマチ,ヤキハシ,宮城県加美郡加美町焼橋
9814277,宮城県,加美郡加美町,一本柳南,ミヤギケン,カミグンカミマチ,イッポンヤナギミナミ,宮城県加美郡加美町一本柳南
9814301,宮城県,加美郡加美町,樋田,ミヤギケン,カミグンカミマチ,トイダ,宮城県加美郡加美町樋田
9814302,宮城県,加美郡加美町,下野目,ミヤギケン,カミグンカミマチ,シモノメ,宮城県加美郡加美町下野目
9814303,宮城県,加美郡加美町,前田下,ミヤギケン,カミグンカミマチ,マエダシモ,宮城県加美郡加美町前田下
9814304,宮城県,加美郡加美町,久保,ミヤギケン,カミグンカミマチ,クボ,宮城県加美郡加美町久保
9814305,宮城県,加美郡加美町,宮田,ミヤギケン,カミグンカミマチ,ミヤタ,宮城県加美郡加美町宮田
9814306,宮城県,加美郡加美町,天王,ミヤギケン,カミグンカミマチ,テンノウ,宮城県加美郡加美町天王
9814308,宮城県,加美郡加美町,長町,ミヤギケン,カミグンカミマチ,ナガマチ,宮城県加美郡加美町長町
9814309,宮城県,加美郡加美町,蓬田,ミヤギケン,カミグンカミマチ,ヨモギダ,宮城県加美郡加美町蓬田
9814311,宮城県,加美郡加美町,板橋,ミヤギケン,カミグンカミマチ,イタバシ,宮城県加美郡加美町板橋
9814312,宮城県,加美郡加美町,月崎（皆屋敷）,ミヤギケン,カミグンカミマチ,ツキザキ(ミナヤシキ),宮城県加美郡加美町月崎（皆屋敷）
9814313,宮城県,加美郡加美町,二ノ坪,ミヤギケン,カミグンカミマチ,ニノツボ,宮城県加美郡加美町二ノ坪
9814314,宮城県,加美郡加美町,田中,ミヤギケン,カミグンカミマチ,タナカ,宮城県加美郡加美町田中
9814315,宮城県,加美郡加美町,中嶋,ミヤギケン,カミグンカミマチ,ナカジマ,宮城県加美郡加美町中嶋
9814316,宮城県,加美郡加美町,月崎（その他）,ミヤギケン,カミグンカミマチ,ツキザキ(ソノタ),宮城県加美郡加美町月崎（その他）
9814317,宮城県,加美郡加美町,神山西,ミヤギケン,カミグンカミマチ,シンザンニシ,宮城県加美郡加美町神山西
9814318,宮城県,加美郡加美町,清水田,ミヤギケン,カミグンカミマチ,シミズタ,宮城県加美郡加美町清水田
9814319,宮城県,加美郡加美町,久保田,ミヤギケン,カミグンカミマチ,クボタ,宮城県加美郡加美町久保田
9814321,宮城県,加美郡加美町,下原,ミヤギケン,カミグンカミマチ,シモハラ,宮城県加美郡加美町下原
9814322,宮城県,加美郡加美町,北下原,ミヤギケン,カミグンカミマチ,キタシモハラ,宮城県加美郡加美町北下原
9814323,宮城県,加美郡加美町,石原,ミヤギケン,カミグンカミマチ,イシハラ,宮城県加美郡加美町石原
9814324,宮城県,加美郡加美町,北原,ミヤギケン,カミグンカミマチ,キタハラ,宮城県加美郡加美町北原
9814325,宮城県,加美郡加美町,五百刈,ミヤギケン,カミグンカミマチ,ゴヒャクガリ,宮城県加美郡加美町五百刈
9814326,宮城県,加美郡加美町,北ノ口,ミヤギケン,カミグンカミマチ,キタノクチ,宮城県加美郡加美町北ノ口
9814327,宮城県,加美郡加美町,上野原,ミヤギケン,カミグンカミマチ,ウエノハラ,宮城県加美郡加美町上野原
9814328,宮城県,加美郡加美町,一里塚,ミヤギケン,カミグンカミマチ,イチリツカ,宮城県加美郡加美町一里塚
9814329,宮城県,加美郡加美町,鶴羽美,ミヤギケン,カミグンカミマチ,ツルバミ,宮城県加美郡加美町鶴羽美
9814331,宮城県,加美郡加美町,北寺宿,ミヤギケン,カミグンカミマチ,キタテラシュク,宮城県加美郡加美町北寺宿
9814332,宮城県,加美郡加美町,南寺宿,ミヤギケン,カミグンカミマチ,ミナミテラシュク,宮城県加美郡加美町南寺宿
9814333,宮城県,加美郡加美町,中畑,ミヤギケン,カミグンカミマチ,ナカハタ,宮城県加美郡加美町中畑
9814334,宮城県,加美郡加美町,町屋敷,ミヤギケン,カミグンカミマチ,マチヤシキ,宮城県加美郡加美町町屋敷
9814335,宮城県,加美郡加美町,新小路,ミヤギケン,カミグンカミマチ,シンコウジ,宮城県加美郡加美町新小路
9814336,宮城県,加美郡加美町,下タ川原,ミヤギケン,カミグンカミマチ,シモタカワハラ,宮城県加美郡加美町下タ川原
9814337,宮城県,加美郡加美町,長檀,ミヤギケン,カミグンカミマチ,ナガダン,宮城県加美郡加美町長檀
9814341,宮城県,加美郡加美町,中原,ミヤギケン,カミグンカミマチ,ナカハラ,宮城県加美郡加美町中原
9814342,宮城県,加美郡加美町,原中原浦,ミヤギケン,カミグンカミマチ,ハラナカハラウラ,宮城県加美郡加美町原中原浦
9814343,宮城県,加美郡加美町,内谷地,ミヤギケン,カミグンカミマチ,ウチヤジ,宮城県加美郡加美町内谷地
9814344,宮城県,加美郡加美町,原道端屋敷,ミヤギケン,カミグンカミマチ,ハラミチバタヤシキ,宮城県加美郡加美町原道端屋敷
9814345,宮城県,加美郡加美町,下北浦,ミヤギケン,カミグンカミマチ,シモキタウラ,宮城県加美郡加美町下北浦
9814346,宮城県,加美郡加美町,原南江端,ミヤギケン,カミグンカミマチ,ハラミナミエバタ,宮城県加美郡加美町原南江端
9814347,宮城県,加美郡加美町,原高谷地屋敷,ミヤギケン,カミグンカミマチ,ハラタカヤジヤシキ,宮城県加美郡加美町原高谷地屋敷
9814351,宮城県,加美郡加美町,南小路,ミヤギケン,カミグンカミマチ,ミナミコウジ,宮城県加美郡加美町南小路
9814352,宮城県,加美郡加美町,八石下,ミヤギケン,カミグンカミマチ,ハッコクシタ,宮城県加美郡加美町八石下
9814353,宮城県,加美郡加美町,照井,ミヤギケン,カミグンカミマチ,テルイ,宮城県加美郡加美町照井
9814354,宮城県,加美郡加美町,麓山,ミヤギケン,カミグンカミマチ,フモトヤマ,宮城県加美郡加美町麓山
9814355,宮城県,加美郡加美町,鹿原,ミヤギケン,カミグンカミマチ,カノハラ,宮城県加美郡加美町鹿原
9814356,宮城県,加美郡加美町,芋沢,ミヤギケン,カミグンカミマチ,イモザワ,宮城県加美郡加美町芋沢
9814357,宮城県,加美郡加美町,城内,ミヤギケン,カミグンカミマチ,ジョウナイ,宮城県加美郡加美町城内
9814358,宮城県,加美郡加美町,西八石,ミヤギケン,カミグンカミマチ,ニシハッコク,宮城県加美郡加美町西八石
9814361,宮城県,加美郡加美町,藤兵衛前,ミヤギケン,カミグンカミマチ,トウベイマエ,宮城県加美郡加美町藤兵衛前
9814362,宮城県,加美郡加美町,小瀬,ミヤギケン,カミグンカミマチ,コゼ,宮城県加美郡加美町小瀬
9814363,宮城県,加美郡加美町,滝下,ミヤギケン,カミグンカミマチ,タキシタ,宮城県加美郡加美町滝下
9814364,宮城県,加美郡加美町,松田,ミヤギケン,カミグンカミマチ,マツタ,宮城県加美郡加美町松田
9814365,宮城県,加美郡加美町,伯治,ミヤギケン,カミグンカミマチ,ハクジ,宮城県加美郡加美町伯治
9814366,宮城県,加美郡加美町,水芋,ミヤギケン,カミグンカミマチ,ミズイモ,宮城県加美郡加美町水芋
9814367,宮城県,加美郡加美町,門沢,ミヤギケン,カミグンカミマチ,カドサワ,宮城県加美郡加美町門沢
9814368,宮城県,加美郡加美町,漆沢,ミヤギケン,カミグンカミマチ,ウルシザワ,宮城県加美郡加美町漆沢
9814369,宮城県,加美郡加美町,新松田,ミヤギケン,カミグンカミマチ,シンマツタ,宮城県加美郡加美町新松田
9814371,宮城県,加美郡加美町,原,ミヤギケン,カミグンカミマチ,ハラ,宮城県加美郡加美町原
9814372,宮城県,加美郡加美町,長清水,ミヤギケン,カミグンカミマチ,チョウシミズ,宮城県加美郡加美町長清水
9814373,宮城県,加美郡加美町,原町,ミヤギケン,カミグンカミマチ,ハラマチ,宮城県加美郡加美町原町
9814374,宮城県,加美郡加美町,上野目,ミヤギケン,カミグンカミマチ,カミノメ,宮城県加美郡加美町上野目
9814375,宮城県,加美郡加美町,味ケ袋,ミヤギケン,カミグンカミマチ,アジガフクロ,宮城県加美郡加美町味ケ袋
9814376,宮城県,加美郡加美町,新北雷屋敷,ミヤギケン,カミグンカミマチ,シンキタイカズチヤシキ,宮城県加美郡加美町新北雷屋敷
9814377,宮城県,加美郡加美町,新南雷屋敷,ミヤギケン,カミグンカミマチ,シンミナミイカズチヤシキ,宮城県加美郡加美町新南雷屋敷
9814381,宮城県,加美郡加美町,大谷地,ミヤギケン,カミグンカミマチ,オオヤチ,宮城県加美郡加美町大谷地
9814382,宮城県,加美郡加美町,新伯治,ミヤギケン,カミグンカミマチ,シンハクジ,宮城県加美郡加美町新伯治
9814383,宮城県,加美郡加美町,新滝下,ミヤギケン,カミグンカミマチ,シンタキシタ,宮城県加美郡加美町新滝下
9814384,宮城県,加美郡加美町,新藤兵衛前,ミヤギケン,カミグンカミマチ,シントウベイマエ,宮城県加美郡加美町新藤兵衛前
9814385,宮城県,加美郡加美町,下原前,ミヤギケン,カミグンカミマチ,シモハラマエ,宮城県加美郡加美町下原前
9814386,宮城県,加美郡加美町,城野,ミヤギケン,カミグンカミマチ,ジョウノ,宮城県加美郡加美町城野
9814401,宮城県,加美郡加美町,宮崎,ミヤギケン,カミグンカミマチ,ミヤザキ,宮城県加美郡加美町宮崎
9814402,宮城県,加美郡加美町,北川内,ミヤギケン,カミグンカミマチ,キタカワウチ,宮城県加美郡加美町北川内
9814403,宮城県,加美郡加美町,柳沢,ミヤギケン,カミグンカミマチ,ヤナギサワ,宮城県加美郡加美町柳沢
9814411,宮城県,加美郡加美町,谷地森,ミヤギケン,カミグンカミマチ,ヤチモリ,宮城県加美郡加美町谷地森
9814412,宮城県,加美郡加美町,鳥嶋,ミヤギケン,カミグンカミマチ,トリシマ,宮城県加美郡加美町鳥嶋
9814413,宮城県,加美郡加美町,鳥屋ケ崎,ミヤギケン,カミグンカミマチ,トリヤガサキ,宮城県加美郡加美町鳥屋ケ崎
9814414,宮城県,加美郡加美町,孫沢,ミヤギケン,カミグンカミマチ,マゴサワ,宮城県加美郡加美町孫沢
9814415,宮城県,加美郡加美町,米泉,ミヤギケン,カミグンカミマチ,コメイズミ,宮城県加美郡加美町米泉
9814416,宮城県,加美郡加美町,沼ケ袋,ミヤギケン,カミグンカミマチ,ヌマガフクロ,宮城県加美郡加美町沼ケ袋
9814417,宮城県,加美郡加美町,君ケ袋,ミヤギケン,カミグンカミマチ,キミガフクロ,宮城県加美郡加美町君ケ袋
9814418,宮城県,加美郡加美町,小泉,ミヤギケン,カミグンカミマチ,コイズミ,宮城県加美郡加美町小泉
9814419,宮城県,加美郡加美町,木舟,ミヤギケン,カミグンカミマチ,キブネ,宮城県加美郡加美町木舟
9818001,宮城県,仙台市泉区,南光台東,ミヤギケン,センダイシイズミク,ナンコウダイヒガシ,宮城県仙台市泉区南光台東
9818002,宮城県,仙台市泉区,南光台南,ミヤギケン,センダイシイズミク,ナンコウダイミナミ,宮城県仙台市泉区南光台南
9818003,宮城県,仙台市泉区,南光台,ミヤギケン,センダイシイズミク,ナンコウダイ,宮城県仙台市泉区南光台
9818004,宮城県,仙台市泉区,旭丘堤,ミヤギケン,センダイシイズミク,アサヒガオカツツミ,宮城県仙台市泉区旭丘堤
9818005,宮城県,仙台市泉区,東黒松,ミヤギケン,センダイシイズミク,ヒガシクロマツ,宮城県仙台市泉区東黒松
9818006,宮城県,仙台市泉区,黒松,ミヤギケン,センダイシイズミク,クロマツ,宮城県仙台市泉区黒松
9818007,宮城県,仙台市泉区,虹の丘,ミヤギケン,センダイシイズミク,ニジノオカ,宮城県仙台市泉区虹の丘
9820000,宮城県,仙台市太白区,,ミヤギケン,センダイシタイハクク,,宮城県仙台市太白区
9820001,宮城県,仙台市太白区,八本松,ミヤギケン,センダイシタイハクク,ハチホンマツ,宮城県仙台市太白区八本松
9820002,宮城県,仙台市太白区,飯田,ミヤギケン,センダイシタイハクク,イイダ,宮城県仙台市太白区飯田
9820003,宮城県,仙台市太白区,郡山,ミヤギケン,センダイシタイハクク,コオリヤマ,宮城県仙台市太白区郡山
9820004,宮城県,仙台市太白区,東大野田,ミヤギケン,センダイシタイハクク,ヒガシオオノダ,宮城県仙台市太白区東大野田
9820005,宮城県,仙台市太白区,諏訪町,ミヤギケン,センダイシタイハクク,スワマチ,宮城県仙台市太白区諏訪町
9820006,宮城県,仙台市太白区,東郡山,ミヤギケン,センダイシタイハクク,ヒガシコオリヤマ,宮城県仙台市太白区東郡山
9820007,宮城県,仙台市太白区,あすと長町,ミヤギケン,センダイシタイハクク,アストナガマチ,宮城県仙台市太白区あすと長町
9820011,宮城県,仙台市太白区,長町,ミヤギケン,センダイシタイハクク,ナガマチ,宮城県仙台市太白区長町
9820012,宮城県,仙台市太白区,長町南,ミヤギケン,センダイシタイハクク,ナガマチミナミ,宮城県仙台市太白区長町南
9820013,宮城県,仙台市太白区,太子堂,ミヤギケン,センダイシタイハクク,タイシドウ,宮城県仙台市太白区太子堂
9820014,宮城県,仙台市太白区,大野田,ミヤギケン,センダイシタイハクク,オオノダ,宮城県仙台市太白区大野田
9820015,宮城県,仙台市太白区,南大野田,ミヤギケン,センダイシタイハクク,ミナミオオノダ,宮城県仙台市太白区南大野田
9820021,宮城県,仙台市太白区,緑ケ丘,ミヤギケン,センダイシタイハクク,ミドリガオカ,宮城県仙台市太白区緑ケ丘
9820022,宮城県,仙台市太白区,鹿野本町,ミヤギケン,センダイシタイハクク,カノホンチョウ,宮城県仙台市太白区鹿野本町
9820023,宮城県,仙台市太白区,鹿野,ミヤギケン,センダイシタイハクク,カノ,宮城県仙台市太白区鹿野
9820024,宮城県,仙台市太白区,砂押南町,ミヤギケン,センダイシタイハクク,スナオシミナミマチ,宮城県仙台市太白区砂押南町
9820025,宮城県,仙台市太白区,砂押町,ミヤギケン,センダイシタイハクク,スナオシマチ,宮城県仙台市太白区砂押町
9820026,宮城県,仙台市太白区,土手内,ミヤギケン,センダイシタイハクク,ドテウチ,宮城県仙台市太白区土手内
9820027,宮城県,仙台市太白区,大塒町,ミヤギケン,センダイシタイハクク,オオトヤマチ,宮城県仙台市太白区大塒町
9820031,宮城県,仙台市太白区,泉崎,ミヤギケン,センダイシタイハクク,イズミザキ,宮城県仙台市太白区泉崎
9820032,宮城県,仙台市太白区,富沢,ミヤギケン,センダイシタイハクク,トミザワ,宮城県仙台市太白区富沢
9820033,宮城県,仙台市太白区,富田,ミヤギケン,センダイシタイハクク,トミタ,宮城県仙台市太白区富田
9820034,宮城県,仙台市太白区,西多賀,ミヤギケン,センダイシタイハクク,ニシタガ,宮城県仙台市太白区西多賀
9820035,宮城県,仙台市太白区,大谷地,ミヤギケン,センダイシタイハクク,オオヤチ,宮城県仙台市太白区大谷地
9820036,宮城県,仙台市太白区,富沢南,ミヤギケン,センダイシタイハクク,トミザワミナミ,宮城県仙台市太白区富沢南
9820037,宮城県,仙台市太白区,富沢西,ミヤギケン,センダイシタイハクク,トミザワニシ,宮城県仙台市太白区富沢西
9820211,宮城県,仙台市太白区,佐保山,ミヤギケン,センダイシタイハクク,サホヤマ,宮城県仙台市太白区佐保山
9820212,宮城県,仙台市太白区,太白,ミヤギケン,センダイシタイハクク,タイハク,宮城県仙台市太白区太白
9820213,宮城県,仙台市太白区,山田自由ケ丘,ミヤギケン,センダイシタイハクク,ヤマダジユウガオカ,宮城県仙台市太白区山田自由ケ丘
9820214,宮城県,仙台市太白区,山田（山田山２４−２）,ミヤギケン,センダイシタイハクク,ヤマダ(ヤマダヤマ24-2),宮城県仙台市太白区山田（山田山24-2）
9820215,宮城県,仙台市太白区,旗立,ミヤギケン,センダイシタイハクク,ハタタテ,宮城県仙台市太白区旗立
9820221,宮城県,仙台市太白区,日本平,ミヤギケン,センダイシタイハクク,ニホンダイラ,宮城県仙台市太白区日本平
9820222,宮城県,仙台市太白区,人来田,ミヤギケン,センダイシタイハクク,ヒトキタ,宮城県仙台市太白区人来田
9820231,宮城県,仙台市太白区,坪沼,ミヤギケン,センダイシタイハクク,ツボヌマ,宮城県仙台市太白区坪沼
9820241,宮城県,仙台市太白区,秋保町湯元,ミヤギケン,センダイシタイハクク,アキウマチユモト,宮城県仙台市太白区秋保町湯元
9820242,宮城県,仙台市太白区,秋保町境野,ミヤギケン,センダイシタイハクク,アキウマチサカイノ,宮城県仙台市太白区秋保町境野
9820243,宮城県,仙台市太白区,秋保町長袋,ミヤギケン,センダイシタイハクク,アキウマチナガフクロ,宮城県仙台市太白区秋保町長袋
9820244,宮城県,仙台市太白区,秋保町馬場,ミヤギケン,センダイシタイハクク,アキウマチババ,宮城県仙台市太白区秋保町馬場
9820245,宮城県,仙台市太白区,秋保町湯向,ミヤギケン,センダイシタイハクク,アキウマチユムカイ,宮城県仙台市太白区秋保町湯向
9820251,宮城県,仙台市太白区,茂庭,ミヤギケン,センダイシタイハクク,モニワ,宮城県仙台市太白区茂庭
9820252,宮城県,仙台市太白区,茂庭台,ミヤギケン,センダイシタイハクク,モニワダイ,宮城県仙台市太白区茂庭台
9820261,宮城県,仙台市青葉区,折立,ミヤギケン,センダイシアオバク,オリタテ,宮城県仙台市青葉区折立
9820262,宮城県,仙台市青葉区,西花苑,ミヤギケン,センダイシアオバク,セイカエン,宮城県仙台市青葉区西花苑
9820263,宮城県,仙台市青葉区,茂庭,ミヤギケン,センダイシアオバク,モニワ,宮城県仙台市青葉区茂庭
9820801,宮城県,仙台市太白区,八木山本町,ミヤギケン,センダイシタイハクク,ヤギヤマホンチョウ,宮城県仙台市太白区八木山本町
9820802,宮城県,仙台市太白区,八木山東,ミヤギケン,センダイシタイハクク,ヤギヤマヒガシ,宮城県仙台市太白区八木山東
9820803,宮城県,仙台市太白区,金剛沢,ミヤギケン,センダイシタイハクク,コンゴウサワ,宮城県仙台市太白区金剛沢
9820804,宮城県,仙台市太白区,鈎取,ミヤギケン,センダイシタイハクク,カギトリ,宮城県仙台市太白区鈎取
9820805,宮城県,仙台市太白区,鈎取本町,ミヤギケン,センダイシタイハクク,カギトリホンチョウ,宮城県仙台市太白区鈎取本町
9820806,宮城県,仙台市太白区,御堂平,ミヤギケン,センダイシタイハクク,ミドウダイラ,宮城県仙台市太白区御堂平
9820807,宮城県,仙台市太白区,八木山南,ミヤギケン,センダイシタイハクク,ヤギヤマミナミ,宮城県仙台市太白区八木山南
9820811,宮城県,仙台市太白区,ひより台,ミヤギケン,センダイシタイハクク,ヒヨリダイ,宮城県仙台市太白区ひより台
9820812,宮城県,仙台市太白区,上野山,ミヤギケン,センダイシタイハクク,カミノヤマ,宮城県仙台市太白区上野山
9820813,宮城県,仙台市太白区,山田北前町,ミヤギケン,センダイシタイハクク,ヤマダキタマエチョウ,宮城県仙台市太白区山田北前町
9820814,宮城県,仙台市太白区,山田（その他）,ミヤギケン,センダイシタイハクク,ヤマダ(ソノタ),宮城県仙台市太白区山田（その他）
9820815,宮城県,仙台市太白区,山田上ノ台町,ミヤギケン,センダイシタイハクク,ヤマダウエノダイチョウ,宮城県仙台市太白区山田上ノ台町
9820816,宮城県,仙台市太白区,山田本町,ミヤギケン,センダイシタイハクク,ヤマダホンチョウ,宮城県仙台市太白区山田本町
9820817,宮城県,仙台市太白区,羽黒台,ミヤギケン,センダイシタイハクク,ハグロダイ,宮城県仙台市太白区羽黒台
9820818,宮城県,仙台市太白区,山田新町,ミヤギケン,センダイシタイハクク,ヤマダシンマチ,宮城県仙台市太白区山田新町
9820821,宮城県,仙台市太白区,松が丘,ミヤギケン,センダイシタイハクク,マツガオカ,宮城県仙台市太白区松が丘
9820822,宮城県,仙台市太白区,若葉町,ミヤギケン,センダイシタイハクク,ワカバマチ,宮城県仙台市太白区若葉町
9820823,宮城県,仙台市太白区,恵和町,ミヤギケン,センダイシタイハクク,ケイワマチ,宮城県仙台市太白区恵和町
9820824,宮城県,仙台市太白区,芦の口,ミヤギケン,センダイシタイハクク,アシノクチ,宮城県仙台市太白区芦の口
9820825,宮城県,仙台市太白区,西の平,ミヤギケン,センダイシタイハクク,ニシノダイラ,宮城県仙台市太白区西の平
9820826,宮城県,仙台市太白区,三神峯,ミヤギケン,センダイシタイハクク,ミカミネ,宮城県仙台市太白区三神峯
9820831,宮城県,仙台市太白区,八木山香澄町,ミヤギケン,センダイシタイハクク,ヤギヤマカスミチョウ,宮城県仙台市太白区八木山香澄町
9820832,宮城県,仙台市太白区,八木山緑町,ミヤギケン,センダイシタイハクク,ヤギヤマミドリチョウ,宮城県仙台市太白区八木山緑町
9820833,宮城県,仙台市太白区,八木山弥生町,ミヤギケン,センダイシタイハクク,ヤギヤマヤヨイチョウ,宮城県仙台市太白区八木山弥生町
9820834,宮城県,仙台市太白区,青山,ミヤギケン,センダイシタイハクク,アオヤマ,宮城県仙台市太白区青山
9820835,宮城県,仙台市太白区,桜木町,ミヤギケン,センダイシタイハクク,サクラギマチ,宮城県仙台市太白区桜木町
9820836,宮城県,仙台市太白区,八木山松波町,ミヤギケン,センダイシタイハクク,ヤギヤママツナミチョウ,宮城県仙台市太白区八木山松波町
9820837,宮城県,仙台市太白区,長町（越路）,ミヤギケン,センダイシタイハクク,ナガマチ(コエジ),宮城県仙台市太白区長町（越路）
9820841,宮城県,仙台市太白区,向山,ミヤギケン,センダイシタイハクク,ムカイヤマ,宮城県仙台市太白区向山
9820842,宮城県,仙台市太白区,越路,ミヤギケン,センダイシタイハクク,コエジ,宮城県仙台市太白区越路
9820843,宮城県,仙台市太白区,茂ケ崎,ミヤギケン,センダイシタイハクク,モガサキ,宮城県仙台市太白区茂ケ崎
9820844,宮城県,仙台市太白区,根岸町,ミヤギケン,センダイシタイハクク,ネギシマチ,宮城県仙台市太白区根岸町
9820845,宮城県,仙台市太白区,門前町,ミヤギケン,センダイシタイハクク,モンゼンマチ,宮城県仙台市太白区門前町
9820846,宮城県,仙台市太白区,二ツ沢,ミヤギケン,センダイシタイハクク,フタツサワ,宮城県仙台市太白区二ツ沢
9820847,宮城県,仙台市太白区,長嶺,ミヤギケン,センダイシタイハクク,ナガミネ,宮城県仙台市太白区長嶺
9820848,宮城県,仙台市太白区,萩ケ丘,ミヤギケン,センダイシタイハクク,ハギガオカ,宮城県仙台市太白区萩ケ丘
9830000,宮城県,仙台市宮城野区,,ミヤギケン,センダイシミヤギノク,,宮城県仙台市宮城野区
9830001,宮城県,仙台市宮城野区,港（１〜４丁目）,ミヤギケン,センダイシミヤギノク,ミナト(1-4チョウメ),宮城県仙台市宮城野区港（1〜4-）
9830002,宮城県,仙台市宮城野区,蒲生,ミヤギケン,センダイシミヤギノク,ガモウ,宮城県仙台市宮城野区蒲生
9830003,宮城県,仙台市宮城野区,岡田,ミヤギケン,センダイシミヤギノク,オカダ,宮城県仙台市宮城野区岡田
9830004,宮城県,仙台市宮城野区,岡田西町,ミヤギケン,センダイシミヤギノク,オカダニシマチ,宮城県仙台市宮城野区岡田西町
9830005,宮城県,仙台市宮城野区,福室,ミヤギケン,センダイシミヤギノク,フクムロ,宮城県仙台市宮城野区福室
9830006,宮城県,仙台市宮城野区,白鳥,ミヤギケン,センダイシミヤギノク,シラトリ,宮城県仙台市宮城野区白鳥
9830007,宮城県,仙台市宮城野区,仙台港北,ミヤギケン,センダイシミヤギノク,センダイコウキタ,宮城県仙台市宮城野区仙台港北
9830011,宮城県,仙台市宮城野区,栄,ミヤギケン,センダイシミヤギノク,サカエ,宮城県仙台市宮城野区栄
9830012,宮城県,仙台市宮城野区,出花,ミヤギケン,センダイシミヤギノク,イデカ,宮城県仙台市宮城野区出花
9830013,宮城県,仙台市宮城野区,中野,ミヤギケン,センダイシミヤギノク,ナカノ,宮城県仙台市宮城野区中野
9830014,宮城県,仙台市宮城野区,高砂,ミヤギケン,センダイシミヤギノク,タカサゴ,宮城県仙台市宮城野区高砂
9830021,宮城県,仙台市宮城野区,田子,ミヤギケン,センダイシミヤギノク,タゴ,宮城県仙台市宮城野区田子
9830023,宮城県,仙台市宮城野区,福田町,ミヤギケン,センダイシミヤギノク,フクダマチ,宮城県仙台市宮城野区福田町
9830024,宮城県,仙台市宮城野区,鶴巻,ミヤギケン,センダイシミヤギノク,ツルマキ,宮城県仙台市宮城野区鶴巻
9830025,宮城県,仙台市宮城野区,福田町南,ミヤギケン,センダイシミヤギノク,フクダマチミナミ,宮城県仙台市宮城野区福田町南
9830026,宮城県,仙台市宮城野区,田子西,ミヤギケン,センダイシミヤギノク,タゴニシ,宮城県仙台市宮城野区田子西
9830031,宮城県,仙台市宮城野区,小鶴,ミヤギケン,センダイシミヤギノク,コヅル,宮城県仙台市宮城野区小鶴
9830032,宮城県,仙台市宮城野区,仙石,ミヤギケン,センダイシミヤギノク,センゴク,宮城県仙台市宮城野区仙石
9830033,宮城県,仙台市宮城野区,福住町,ミヤギケン,センダイシミヤギノク,フクズミマチ,宮城県仙台市宮城野区福住町
9830034,宮城県,仙台市宮城野区,扇町,ミヤギケン,センダイシミヤギノク,オウギマチ,宮城県仙台市宮城野区扇町
9830035,宮城県,仙台市宮城野区,日の出町,ミヤギケン,センダイシミヤギノク,ヒノデマチ,宮城県仙台市宮城野区日の出町
9830036,宮城県,仙台市宮城野区,原町苦竹,ミヤギケン,センダイシミヤギノク,ハラノマチニガタケ,宮城県仙台市宮城野区原町苦竹
9830036,宮城県,仙台市宮城野区,苦竹,ミヤギケン,センダイシミヤギノク,ニガタケ,宮城県仙台市宮城野区苦竹
9830037,宮城県,仙台市宮城野区,平成,ミヤギケン,センダイシミヤギノク,ヘイセイ,宮城県仙台市宮城野区平成
9830038,宮城県,仙台市宮城野区,新田,ミヤギケン,センダイシミヤギノク,シンデン,宮城県仙台市宮城野区新田
9830039,宮城県,仙台市宮城野区,新田東,ミヤギケン,センダイシミヤギノク,シンデンヒガシ,宮城県仙台市宮城野区新田東
9830041,宮城県,仙台市宮城野区,南目館,ミヤギケン,センダイシミヤギノク,ミナミノメタテ,宮城県仙台市宮城野区南目館
9830042,宮城県,仙台市宮城野区,東宮城野,ミヤギケン,センダイシミヤギノク,ヒガシミヤギノ,宮城県仙台市宮城野区東宮城野
9830043,宮城県,仙台市宮城野区,萩野町,ミヤギケン,センダイシミヤギノク,ハギノマチ,宮城県仙台市宮城野区萩野町
9830044,宮城県,仙台市宮城野区,宮千代,ミヤギケン,センダイシミヤギノク,ミヤチヨ,宮城県仙台市宮城野区宮千代
9830045,宮城県,仙台市宮城野区,宮城野,ミヤギケン,センダイシミヤギノク,ミヤギノ,宮城県仙台市宮城野区宮城野
9830046,宮城県,仙台市宮城野区,西宮城野,ミヤギケン,センダイシミヤギノク,ニシミヤギノ,宮城県仙台市宮城野区西宮城野
9830047,宮城県,仙台市宮城野区,銀杏町,ミヤギケン,センダイシミヤギノク,イチョウマチ,宮城県仙台市宮城野区銀杏町
9830803,宮城県,仙台市宮城野区,小田原（１〜３丁目）,ミヤギケン,センダイシミヤギノク,オダワラ(1チョウメ-3チョウメ),宮城県仙台市宮城野区小田原（1〜3-）
9830811,宮城県,仙台市宮城野区,小田原清水沼通,ミヤギケン,センダイシミヤギノク,オダワラシミズヌマドオリ,宮城県仙台市宮城野区小田原清水沼通
9830812,宮城県,仙台市宮城野区,小田原弓ノ町,ミヤギケン,センダイシミヤギノク,オダワラユミノマチ,宮城県仙台市宮城野区小田原弓ノ町
9830813,宮城県,仙台市宮城野区,小田原牛小屋丁,ミヤギケン,センダイシミヤギノク,オダワラウシゴヤチョウ,宮城県仙台市宮城野区小田原牛小屋丁
9830814,宮城県,仙台市宮城野区,小田原大行院丁,ミヤギケン,センダイシミヤギノク,オダワラダイギョウインチョウ,宮城県仙台市宮城野区小田原大行院丁
9830815,宮城県,仙台市宮城野区,小田原広丁,ミヤギケン,センダイシミヤギノク,オダワラヒロチョウ,宮城県仙台市宮城野区小田原広丁
9830816,宮城県,仙台市宮城野区,小田原金剛院丁,ミヤギケン,センダイシミヤギノク,オダワラコンゴウインチョウ,宮城県仙台市宮城野区小田原金剛院丁
9830817,宮城県,仙台市宮城野区,小田原山本丁,ミヤギケン,センダイシミヤギノク,オダワラヤマモトチョウ,宮城県仙台市宮城野区小田原山本丁
9830821,宮城県,仙台市宮城野区,岩切,ミヤギケン,センダイシミヤギノク,イワキリ,宮城県仙台市宮城野区岩切
9830822,宮城県,仙台市宮城野区,燕沢東,ミヤギケン,センダイシミヤギノク,ツバメサワヒガシ,宮城県仙台市宮城野区燕沢東
9830823,宮城県,仙台市宮城野区,燕沢,ミヤギケン,センダイシミヤギノク,ツバメサワ,宮城県仙台市宮城野区燕沢
9830824,宮城県,仙台市宮城野区,鶴ケ谷,ミヤギケン,センダイシミヤギノク,ツルガヤ,宮城県仙台市宮城野区鶴ケ谷
9830825,宮城県,仙台市宮城野区,鶴ケ谷北,ミヤギケン,センダイシミヤギノク,ツルガヤキタ,宮城県仙台市宮城野区鶴ケ谷北
9830826,宮城県,仙台市宮城野区,鶴ケ谷東,ミヤギケン,センダイシミヤギノク,ツルガヤヒガシ,宮城県仙台市宮城野区鶴ケ谷東
9830828,宮城県,仙台市宮城野区,岩切分台,ミヤギケン,センダイシミヤギノク,イワキリブンダイ,宮城県仙台市宮城野区岩切分台
9830831,宮城県,仙台市宮城野区,自由ケ丘,ミヤギケン,センダイシミヤギノク,ジユウガオカ,宮城県仙台市宮城野区自由ケ丘
9830832,宮城県,仙台市宮城野区,安養寺,ミヤギケン,センダイシミヤギノク,アンヨウジ,宮城県仙台市宮城野区安養寺
9830833,宮城県,仙台市宮城野区,東仙台,ミヤギケン,センダイシミヤギノク,ヒガシセンダイ,宮城県仙台市宮城野区東仙台
9830834,宮城県,仙台市宮城野区,松岡町,ミヤギケン,センダイシミヤギノク,マツオカチョウ,宮城県仙台市宮城野区松岡町
9830835,宮城県,仙台市宮城野区,大梶,ミヤギケン,センダイシミヤギノク,オオカジ,宮城県仙台市宮城野区大梶
9830836,宮城県,仙台市宮城野区,幸町,ミヤギケン,センダイシミヤギノク,サイワイチョウ,宮城県仙台市宮城野区幸町
9830837,宮城県,仙台市宮城野区,枡江,ミヤギケン,センダイシミヤギノク,マスエ,宮城県仙台市宮城野区枡江
9830838,宮城県,仙台市宮城野区,二の森,ミヤギケン,センダイシミヤギノク,ニノモリ,宮城県仙台市宮城野区二の森
9830839,宮城県,仙台市宮城野区,蟹沢,ミヤギケン,センダイシミヤギノク,カニサワ,宮城県仙台市宮城野区蟹沢
9830841,宮城県,仙台市宮城野区,原町,ミヤギケン,センダイシミヤギノク,ハラノマチ,宮城県仙台市宮城野区原町
9830842,宮城県,仙台市宮城野区,五輪,ミヤギケン,センダイシミヤギノク,ゴリン,宮城県仙台市宮城野区五輪
9830843,宮城県,仙台市宮城野区,二十人町通,ミヤギケン,センダイシミヤギノク,ニジュウニンマチドオリ,宮城県仙台市宮城野区二十人町通
9830844,宮城県,仙台市宮城野区,原町南目,ミヤギケン,センダイシミヤギノク,ハラノマチミナミノメ,宮城県仙台市宮城野区原町南目
9830845,宮城県,仙台市宮城野区,清水沼,ミヤギケン,センダイシミヤギノク,シミズヌマ,宮城県仙台市宮城野区清水沼
9830851,宮城県,仙台市宮城野区,榴ケ岡,ミヤギケン,センダイシミヤギノク,ツツジガオカ,宮城県仙台市宮城野区榴ケ岡
9830852,宮城県,仙台市宮城野区,榴岡,ミヤギケン,センダイシミヤギノク,ツツジガオカ,宮城県仙台市宮城野区榴岡
9830853,宮城県,仙台市宮城野区,東六番丁,ミヤギケン,センダイシミヤギノク,ヒガシ6バンチョウ,宮城県仙台市宮城野区東六番丁
9830861,宮城県,仙台市宮城野区,鉄砲町,ミヤギケン,センダイシミヤギノク,テッポウマチ,宮城県仙台市宮城野区鉄砲町
9830862,宮城県,仙台市宮城野区,二十人町,ミヤギケン,センダイシミヤギノク,ニジュウニンマチ,宮城県仙台市宮城野区二十人町
9830863,宮城県,仙台市宮城野区,車町,ミヤギケン,センダイシミヤギノク,クルママチ,宮城県仙台市宮城野区車町
9830864,宮城県,仙台市宮城野区,名掛丁,ミヤギケン,センダイシミヤギノク,ナカケチョウ,宮城県仙台市宮城野区名掛丁
9830865,宮城県,仙台市宮城野区,元寺小路,ミヤギケン,センダイシミヤギノク,モトテラコウジ,宮城県仙台市宮城野区元寺小路
9830866,宮城県,仙台市宮城野区,花京院通,ミヤギケン,センダイシミヤギノク,カキョウインドオリ,宮城県仙台市宮城野区花京院通
9830867,宮城県,仙台市宮城野区,鉄砲町東,ミヤギケン,センダイシミヤギノク,テッポウマチヒガシ,宮城県仙台市宮城野区鉄砲町東
9830868,宮城県,仙台市宮城野区,鉄砲町中,ミヤギケン,センダイシミヤギノク,テッポウマチナカ,宮城県仙台市宮城野区鉄砲町中
9830869,宮城県,仙台市宮城野区,鉄砲町西,ミヤギケン,センダイシミヤギノク,テッポウマチニシ,宮城県仙台市宮城野区鉄砲町西
9840000,宮城県,仙台市若林区,,ミヤギケン,センダイシワカバヤシク,,宮城県仙台市若林区
9840001,宮城県,仙台市若林区,鶴代町,ミヤギケン,センダイシワカバヤシク,ツルシロマチ,宮城県仙台市若林区鶴代町
9840002,宮城県,仙台市若林区,卸町東,ミヤギケン,センダイシワカバヤシク,オロシマチヒガシ,宮城県仙台市若林区卸町東
9840003,宮城県,仙台市若林区,六丁の目北町,ミヤギケン,センダイシワカバヤシク,ロクチョウノメキタマチ,宮城県仙台市若林区六丁の目北町
9840004,宮城県,仙台市若林区,六丁の目東町,ミヤギケン,センダイシワカバヤシク,ロクチョウノメヒガシマチ,宮城県仙台市若林区六丁の目東町
9840011,宮城県,仙台市若林区,六丁の目西町,ミヤギケン,センダイシワカバヤシク,ロクチョウノメニシマチ,宮城県仙台市若林区六丁の目西町
9840012,宮城県,仙台市若林区,六丁の目中町,ミヤギケン,センダイシワカバヤシク,ロクチョウノメナカマチ,宮城県仙台市若林区六丁の目中町
9840013,宮城県,仙台市若林区,六丁の目南町,ミヤギケン,センダイシワカバヤシク,ロクチョウノメミナミマチ,宮城県仙台市若林区六丁の目南町
9840014,宮城県,仙台市若林区,六丁の目元町,ミヤギケン,センダイシワカバヤシク,ロクチョウノメモトマチ,宮城県仙台市若林区六丁の目元町
9840015,宮城県,仙台市若林区,卸町,ミヤギケン,センダイシワカバヤシク,オロシマチ,宮城県仙台市若林区卸町
9840016,宮城県,仙台市若林区,蒲町東,ミヤギケン,センダイシワカバヤシク,カバノマチヒガシ,宮城県仙台市若林区蒲町東
9840017,宮城県,仙台市若林区,なないろの里,ミヤギケン,センダイシワカバヤシク,ナナイロノサト,宮城県仙台市若林区なないろの里
9840022,宮城県,仙台市若林区,五橋（３丁目）,ミヤギケン,センダイシワカバヤシク,イツツバシ(3チョウメ),宮城県仙台市若林区五橋（3-）
9840030,宮城県,仙台市若林区,荒井東,ミヤギケン,センダイシワカバヤシク,アライヒガシ,宮城県仙台市若林区荒井東
9840031,宮城県,仙台市若林区,六丁目,ミヤギケン,センダイシワカバヤシク,ロクチョウノメ,宮城県仙台市若林区6
9840032,宮城県,仙台市若林区,荒井,ミヤギケン,センダイシワカバヤシク,アライ,宮城県仙台市若林区荒井
9840033,宮城県,仙台市若林区,荒浜,ミヤギケン,センダイシワカバヤシク,アラハマ,宮城県仙台市若林区荒浜
9840034,宮城県,仙台市若林区,荒浜新,ミヤギケン,センダイシワカバヤシク,アラハマシン,宮城県仙台市若林区荒浜新
9840035,宮城県,仙台市若林区,霞目,ミヤギケン,センダイシワカバヤシク,カスミノメ,宮城県仙台市若林区霞目
9840036,宮城県,仙台市若林区,長喜城,ミヤギケン,センダイシワカバヤシク,チョウキジョウ,宮城県仙台市若林区長喜城
9840037,宮城県,仙台市若林区,蒲町,ミヤギケン,センダイシワカバヤシク,カバノマチ,宮城県仙台市若林区蒲町
9840038,宮城県,仙台市若林区,伊在,ミヤギケン,センダイシワカバヤシク,イザイ,宮城県仙台市若林区伊在
9840039,宮城県,仙台市若林区,荒井南,ミヤギケン,センダイシワカバヤシク,アライミナミ,宮城県仙台市若林区荒井南
9840041,宮城県,仙台市若林区,志波町,ミヤギケン,センダイシワカバヤシク,シワマチ,宮城県仙台市若林区志波町
9840042,宮城県,仙台市若林区,大和町,ミヤギケン,センダイシワカバヤシク,ヤマトマチ,宮城県仙台市若林区大和町
9840043,宮城県,仙台市若林区,東新丁,ミヤギケン,センダイシワカバヤシク,ヒガシシンチョウ,宮城県仙台市若林区東新丁
9840044,宮城県,仙台市若林区,椌木通,ミヤギケン,センダイシワカバヤシク,ゴウラキドオリ,宮城県仙台市若林区椌木通
9840045,宮城県,仙台市若林区,西新丁,ミヤギケン,センダイシワカバヤシク,ニシシンチョウ,宮城県仙台市若林区西新丁
9840046,宮城県,仙台市若林区,二軒茶屋,ミヤギケン,センダイシワカバヤシク,ニケンチャヤ,宮城県仙台市若林区二軒茶屋
9840047,宮城県,仙台市若林区,木ノ下,ミヤギケン,センダイシワカバヤシク,キノシタ,宮城県仙台市若林区木ノ下
9840048,宮城県,仙台市若林区,白萩町,ミヤギケン,センダイシワカバヤシク,シラハギマチ,宮城県仙台市若林区白萩町
9840051,宮城県,仙台市若林区,新寺,ミヤギケン,センダイシワカバヤシク,シンテラ,宮城県仙台市若林区新寺
9840052,宮城県,仙台市若林区,連坊,ミヤギケン,センダイシワカバヤシク,レンボウ,宮城県仙台市若林区連坊
9840053,宮城県,仙台市若林区,連坊小路,ミヤギケン,センダイシワカバヤシク,レンボウコウジ,宮城県仙台市若林区連坊小路
9840054,宮城県,仙台市若林区,裏柴田町,ミヤギケン,センダイシワカバヤシク,ウラシバタマチ,宮城県仙台市若林区裏柴田町
9840055,宮城県,仙台市若林区,表柴田町,ミヤギケン,センダイシワカバヤシク,オモテシバタマチ,宮城県仙台市若林区表柴田町
9840056,宮城県,仙台市若林区,成田町,ミヤギケン,センダイシワカバヤシク,ナリタマチ,宮城県仙台市若林区成田町
9840057,宮城県,仙台市若林区,三百人町,ミヤギケン,センダイシワカバヤシク,サンビャクニンマチ,宮城県仙台市若林区三百人町
9840058,宮城県,仙台市若林区,元茶畑,ミヤギケン,センダイシワカバヤシク,モトチャバタケ,宮城県仙台市若林区元茶畑
9840061,宮城県,仙台市若林区,南鍛冶町,ミヤギケン,センダイシワカバヤシク,ミナミカジマチ,宮城県仙台市若林区南鍛冶町
9840062,宮城県,仙台市若林区,弓ノ町,ミヤギケン,センダイシワカバヤシク,ユミノマチ,宮城県仙台市若林区弓ノ町
9840063,宮城県,仙台市若林区,石名坂,ミヤギケン,センダイシワカバヤシク,イシナザカ,宮城県仙台市若林区石名坂
9840064,宮城県,仙台市若林区,石垣町,ミヤギケン,センダイシワカバヤシク,イシガキマチ,宮城県仙台市若林区石垣町
9840065,宮城県,仙台市若林区,土樋,ミヤギケン,センダイシワカバヤシク,ツチトイ,宮城県仙台市若林区土樋
9840071,宮城県,仙台市若林区,東九番丁,ミヤギケン,センダイシワカバヤシク,ヒガシ9バンチョウ,宮城県仙台市若林区東九番丁
9840072,宮城県,仙台市若林区,東八番丁,ミヤギケン,センダイシワカバヤシク,ヒガシ8バンチョウ,宮城県仙台市若林区東八番丁
9840073,宮城県,仙台市若林区,荒町,ミヤギケン,センダイシワカバヤシク,アラマチ,宮城県仙台市若林区荒町
9840074,宮城県,仙台市若林区,東七番丁,ミヤギケン,センダイシワカバヤシク,ヒガシ7バンチョウ,宮城県仙台市若林区東七番丁
9840075,宮城県,仙台市若林区,清水小路,ミヤギケン,センダイシワカバヤシク,シミズコウジ,宮城県仙台市若林区清水小路
9840801,宮城県,仙台市若林区,畳屋丁,ミヤギケン,センダイシワカバヤシク,タタミヤチョウ,宮城県仙台市若林区畳屋丁
9840802,宮城県,仙台市若林区,八軒小路,ミヤギケン,センダイシワカバヤシク,ハチケンコウジ,宮城県仙台市若林区八軒小路
9840803,宮城県,仙台市若林区,新弓ノ町,ミヤギケン,センダイシワカバヤシク,シンユミノマチ,宮城県仙台市若林区新弓ノ町
9840804,宮城県,仙台市若林区,南石切町,ミヤギケン,センダイシワカバヤシク,ミナミイシキリマチ,宮城県仙台市若林区南石切町
9840805,宮城県,仙台市若林区,南材木町,ミヤギケン,センダイシワカバヤシク,ミナミザイモクチョウ,宮城県仙台市若林区南材木町
9840806,宮城県,仙台市若林区,舟丁,ミヤギケン,センダイシワカバヤシク,フナチョウ,宮城県仙台市若林区舟丁
9840807,宮城県,仙台市若林区,穀町,ミヤギケン,センダイシワカバヤシク,コクチョウ,宮城県仙台市若林区穀町
9840811,宮城県,仙台市若林区,保春院前丁,ミヤギケン,センダイシワカバヤシク,ホシュンインマエチョウ,宮城県仙台市若林区保春院前丁
9840812,宮城県,仙台市若林区,五十人町,ミヤギケン,センダイシワカバヤシク,ゴジュウニンマチ,宮城県仙台市若林区五十人町
9840813,宮城県,仙台市若林区,六十人町,ミヤギケン,センダイシワカバヤシク,ロクジュウニンマチ,宮城県仙台市若林区六十人町
9840814,宮城県,仙台市若林区,南染師町,ミヤギケン,センダイシワカバヤシク,ミナミソメシマチ,宮城県仙台市若林区南染師町
9840815,宮城県,仙台市若林区,文化町,ミヤギケン,センダイシワカバヤシク,ブンカマチ,宮城県仙台市若林区文化町
9840816,宮城県,仙台市若林区,河原町,ミヤギケン,センダイシワカバヤシク,カワラマチ,宮城県仙台市若林区河原町
9840817,宮城県,仙台市若林区,堰場,ミヤギケン,センダイシワカバヤシク,ドウバ,宮城県仙台市若林区堰場
9840821,宮城県,仙台市若林区,中倉,ミヤギケン,センダイシワカバヤシク,ナカクラ,宮城県仙台市若林区中倉
9840822,宮城県,仙台市若林区,かすみ町,ミヤギケン,センダイシワカバヤシク,カスミチョウ,宮城県仙台市若林区かすみ町
9840823,宮城県,仙台市若林区,遠見塚,ミヤギケン,センダイシワカバヤシク,トオミヅカ,宮城県仙台市若林区遠見塚
9840824,宮城県,仙台市若林区,遠見塚東,ミヤギケン,センダイシワカバヤシク,トオミヅカヒガシ,宮城県仙台市若林区遠見塚東
9840825,宮城県,仙台市若林区,古城,ミヤギケン,センダイシワカバヤシク,フルジロ,宮城県仙台市若林区古城
9840826,宮城県,仙台市若林区,若林,ミヤギケン,センダイシワカバヤシク,ワカバヤシ,宮城県仙台市若林区若林
9840827,宮城県,仙台市若林区,南小泉,ミヤギケン,センダイシワカバヤシク,ミナミコイズミ,宮城県仙台市若林区南小泉
9840828,宮城県,仙台市若林区,一本杉町,ミヤギケン,センダイシワカバヤシク,イッポンスギマチ,宮城県仙台市若林区一本杉町
9840831,宮城県,仙台市若林区,沖野,ミヤギケン,センダイシワカバヤシク,オキノ,宮城県仙台市若林区沖野
9840832,宮城県,仙台市若林区,下飯田,ミヤギケン,センダイシワカバヤシク,シモイイダ,宮城県仙台市若林区下飯田
9840833,宮城県,仙台市若林区,飯田,ミヤギケン,センダイシワカバヤシク,イイダ,宮城県仙台市若林区飯田
9840834,宮城県,仙台市若林区,六郷,ミヤギケン,センダイシワカバヤシク,ロクゴウ,宮城県仙台市若林区六郷
9840835,宮城県,仙台市若林区,今泉,ミヤギケン,センダイシワカバヤシク,イマイズミ,宮城県仙台市若林区今泉
9840836,宮城県,仙台市若林区,四郎丸,ミヤギケン,センダイシワカバヤシク,シロウマル,宮城県仙台市若林区四郎丸
9840837,宮城県,仙台市若林区,日辺,ミヤギケン,センダイシワカバヤシク,ニッペ,宮城県仙台市若林区日辺
9840838,宮城県,仙台市若林区,上飯田,ミヤギケン,センダイシワカバヤシク,カミイイダ,宮城県仙台市若林区上飯田
9840841,宮城県,仙台市若林区,三本塚,ミヤギケン,センダイシワカバヤシク,サンボンツカ,宮城県仙台市若林区三本塚
9840842,宮城県,仙台市若林区,井土,ミヤギケン,センダイシワカバヤシク,イド,宮城県仙台市若林区井土
9840843,宮城県,仙台市若林区,藤塚,ミヤギケン,センダイシワカバヤシク,フジツカ,宮城県仙台市若林区藤塚
9840844,宮城県,仙台市若林区,種次,ミヤギケン,センダイシワカバヤシク,タナツギ,宮城県仙台市若林区種次
9840845,宮城県,仙台市若林区,二木,ミヤギケン,センダイシワカバヤシク,フタキ,宮城県仙台市若林区二木
9850000,宮城県,塩竈市,,ミヤギケン,シオガマシ,,宮城県塩竈市
9850000,宮城県,多賀城市,,ミヤギケン,タガジョウシ,,宮城県多賀城市
9850000,宮城県,宮城郡七ヶ浜町,,ミヤギケン,ミヤギグンシチガハママチ,,宮城県宮城郡七ヶ浜町
9850001,宮城県,塩竈市,新浜町,ミヤギケン,シオガマシ,シンハマチョウ,宮城県塩竈市新浜町
9850002,宮城県,塩竈市,海岸通,ミヤギケン,シオガマシ,カイガンドオリ,宮城県塩竈市海岸通
9850003,宮城県,塩竈市,北浜,ミヤギケン,シオガマシ,キタハマ,宮城県塩竈市北浜
9850004,宮城県,塩竈市,藤倉,ミヤギケン,シオガマシ,フジクラ,宮城県塩竈市藤倉
9850005,宮城県,塩竈市,杉の入,ミヤギケン,シオガマシ,スギノイリ,宮城県塩竈市杉の入
9850006,宮城県,塩竈市,杉の入裏,ミヤギケン,シオガマシ,スギノイリウラ,宮城県塩竈市杉の入裏
9850011,宮城県,塩竈市,貞山通,ミヤギケン,シオガマシ,テイザンドオリ,宮城県塩竈市貞山通
9850012,宮城県,塩竈市,芦畔町,ミヤギケン,シオガマシ,アシグロチョウ,宮城県塩竈市芦畔町
9850013,宮城県,塩竈市,牛生町,ミヤギケン,シオガマシ,ギュウチョウ,宮城県塩竈市牛生町
9850014,宮城県,塩竈市,舟入,ミヤギケン,シオガマシ,フナイリ,宮城県塩竈市舟入
9850015,宮城県,塩竈市,中の島,ミヤギケン,シオガマシ,ナカノシマ,宮城県塩竈市中の島
9850016,宮城県,塩竈市,港町,ミヤギケン,シオガマシ,ミナトマチ,宮城県塩竈市港町
9850021,宮城県,塩竈市,尾島町,ミヤギケン,シオガマシ,オジマチョウ,宮城県塩竈市尾島町
9850022,宮城県,塩竈市,新富町,ミヤギケン,シオガマシ,シントミチョウ,宮城県塩竈市新富町
9850023,宮城県,塩竈市,花立町,ミヤギケン,シオガマシ,ハナダテチョウ,宮城県塩竈市花立町
9850024,宮城県,塩竈市,錦町,ミヤギケン,シオガマシ,ニシキチョウ,宮城県塩竈市錦町
9850025,宮城県,塩竈市,佐浦町,ミヤギケン,シオガマシ,サウラチョウ,宮城県塩竈市佐浦町
9850026,宮城県,塩竈市,旭町,ミヤギケン,シオガマシ,アサヒチョウ,宮城県塩竈市旭町
9850031,宮城県,塩竈市,石堂,ミヤギケン,シオガマシ,イシドウ,宮城県塩竈市石堂
9850032,宮城県,塩竈市,白萩町,ミヤギケン,シオガマシ,シラハギチョウ,宮城県塩竈市白萩町
9850033,宮城県,塩竈市,桜ケ丘,ミヤギケン,シオガマシ,サクラガオカ,宮城県塩竈市桜ケ丘
9850034,宮城県,塩竈市,南錦町,ミヤギケン,シオガマシ,ミナミニシキチョウ,宮城県塩竈市南錦町
9850035,宮城県,塩竈市,野田,ミヤギケン,シオガマシ,ノダ,宮城県塩竈市野田
9850036,宮城県,塩竈市,東玉川町,ミヤギケン,シオガマシ,ヒガシタマガワチョウ,宮城県塩竈市東玉川町
9850041,宮城県,塩竈市,白菊町,ミヤギケン,シオガマシ,シラギクチョウ,宮城県塩竈市白菊町
9850042,宮城県,塩竈市,玉川,ミヤギケン,シオガマシ,タマガワ,宮城県塩竈市玉川
9850043,宮城県,塩竈市,袖野田町,ミヤギケン,シオガマシ,ソデノダチョウ,宮城県塩竈市袖野田町
9850044,宮城県,塩竈市,母子沢町,ミヤギケン,シオガマシ,ハハコザワチョウ,宮城県塩竈市母子沢町
9850045,宮城県,塩竈市,西玉川町,ミヤギケン,シオガマシ,ニシタマガワチョウ,宮城県塩竈市西玉川町
9850046,宮城県,塩竈市,大日向町,ミヤギケン,シオガマシ,オオヒナタチョウ,宮城県塩竈市大日向町
9850051,宮城県,塩竈市,宮町,ミヤギケン,シオガマシ,ミヤマチ,宮城県塩竈市宮町
9850052,宮城県,塩竈市,本町,ミヤギケン,シオガマシ,モトマチ,宮城県塩竈市本町
9850053,宮城県,塩竈市,南町,ミヤギケン,シオガマシ,ミナミマチ,宮城県塩竈市南町
9850054,宮城県,塩竈市,香津町,ミヤギケン,シオガマシ,コウヅマチ,宮城県塩竈市香津町
9850055,宮城県,塩竈市,赤坂,ミヤギケン,シオガマシ,アカサカ,宮城県塩竈市赤坂
9850056,宮城県,塩竈市,泉ケ岡,ミヤギケン,シオガマシ,イズミガオカ,宮城県塩竈市泉ケ岡
9850057,宮城県,塩竈市,西町,ミヤギケン,シオガマシ,ニシマチ,宮城県塩竈市西町
9850061,宮城県,塩竈市,清水沢,ミヤギケン,シオガマシ,シミズサワ,宮城県塩竈市清水沢
9850062,宮城県,塩竈市,泉沢町,ミヤギケン,シオガマシ,イズミサワチョウ,宮城県塩竈市泉沢町
9850063,宮城県,塩竈市,栄町,ミヤギケン,シオガマシ,サカエチョウ,宮城県塩竈市栄町
9850064,宮城県,塩竈市,権現堂,ミヤギケン,シオガマシ,ゴンゲンドウ,宮城県塩竈市権現堂
9850065,宮城県,塩竈市,向ケ丘,ミヤギケン,シオガマシ,ムカイガオカ,宮城県塩竈市向ケ丘
9850066,宮城県,塩竈市,月見ケ丘,ミヤギケン,シオガマシ,ツキミガオカ,宮城県塩竈市月見ケ丘
9850067,宮城県,塩竈市,後楽町,ミヤギケン,シオガマシ,コウラクチョウ,宮城県塩竈市後楽町
9850071,宮城県,塩竈市,松陽台,ミヤギケン,シオガマシ,ショウヨウダイ,宮城県塩竈市松陽台
9850072,宮城県,塩竈市,小松崎,ミヤギケン,シオガマシ,コマツザキ,宮城県塩竈市小松崎
9850073,宮城県,塩竈市,みのが丘,ミヤギケン,シオガマシ,ミノガオカ,宮城県塩竈市みのが丘
9850074,宮城県,塩竈市,一森山,ミヤギケン,シオガマシ,イチモリヤマ,宮城県塩竈市一森山
9850075,宮城県,塩竈市,今宮町,ミヤギケン,シオガマシ,イマミヤチョウ,宮城県塩竈市今宮町
9850076,宮城県,塩竈市,長沢町,ミヤギケン,シオガマシ,ナガサワチョウ,宮城県塩竈市長沢町
9850077,宮城県,塩竈市,梅の宮,ミヤギケン,シオガマシ,ウメノミヤ,宮城県塩竈市梅の宮
9850081,宮城県,塩竈市,石田,ミヤギケン,シオガマシ,イシダ,宮城県塩竈市石田
9850082,宮城県,塩竈市,青葉ケ丘,ミヤギケン,シオガマシ,アオバガオカ,宮城県塩竈市青葉ケ丘
9850083,宮城県,塩竈市,越ノ浦,ミヤギケン,シオガマシ,コシノウラ,宮城県塩竈市越ノ浦
9850084,宮城県,塩竈市,楓町,ミヤギケン,シオガマシ,カエデチョウ,宮城県塩竈市楓町
9850085,宮城県,塩竈市,庚塚,ミヤギケン,シオガマシ,カノエヅカ,宮城県塩竈市庚塚
9850086,宮城県,塩竈市,千賀の台,ミヤギケン,シオガマシ,チガノダイ,宮城県塩竈市千賀の台
9850087,宮城県,塩竈市,伊保石,ミヤギケン,シオガマシ,イボイシ,宮城県塩竈市伊保石
9850088,宮城県,塩竈市,長沢,ミヤギケン,シオガマシ,ナガサワ,宮城県塩竈市長沢
9850191,宮城県,塩竈市,浦戸石浜,ミヤギケン,シオガマシ,ウラトイシハマ,宮城県塩竈市浦戸石浜
9850192,宮城県,塩竈市,浦戸桂島,ミヤギケン,シオガマシ,ウラトカツラシマ,宮城県塩竈市浦戸桂島
9850193,宮城県,塩竈市,浦戸野々島,ミヤギケン,シオガマシ,ウラトノノシマ,宮城県塩竈市浦戸野々島
9850194,宮城県,塩竈市,浦戸寒風沢,ミヤギケン,シオガマシ,ウラトサブサワ,宮城県塩竈市浦戸寒風沢
9850195,宮城県,塩竈市,浦戸朴島,ミヤギケン,シオガマシ,ウラトホウジマ,宮城県塩竈市浦戸朴島
9850801,宮城県,宮城郡七ヶ浜町,代ヶ崎浜,ミヤギケン,ミヤギグンシチガハママチ,ヨガサキハマ,宮城県宮城郡七ヶ浜町代ヶ崎浜
9850802,宮城県,宮城郡七ヶ浜町,吉田浜,ミヤギケン,ミヤギグンシチガハママチ,ヨシダハマ,宮城県宮城郡七ヶ浜町吉田浜
9850803,宮城県,宮城郡七ヶ浜町,花渕浜,ミヤギケン,ミヤギグンシチガハママチ,ハナブチハマ,宮城県宮城郡七ヶ浜町花渕浜
9850804,宮城県,宮城郡七ヶ浜町,東宮浜,ミヤギケン,ミヤギグンシチガハママチ,トウグウハマ,宮城県宮城郡七ヶ浜町東宮浜
9850805,宮城県,宮城郡七ヶ浜町,笹山,ミヤギケン,ミヤギグンシチガハママチ,ササヤマ,宮城県宮城郡七ヶ浜町笹山
9850811,宮城県,宮城郡七ヶ浜町,菖蒲田浜,ミヤギケン,ミヤギグンシチガハママチ,ショウブタハマ,宮城県宮城郡七ヶ浜町菖蒲田浜
9850812,宮城県,宮城郡七ヶ浜町,松ヶ浜,ミヤギケン,ミヤギグンシチガハママチ,マツガハマ,宮城県宮城郡七ヶ浜町松ヶ浜
9850813,宮城県,宮城郡七ヶ浜町,湊浜,ミヤギケン,ミヤギグンシチガハママチ,ミナトハマ,宮城県宮城郡七ヶ浜町湊浜
9850821,宮城県,宮城郡七ヶ浜町,汐見台,ミヤギケン,ミヤギグンシチガハママチ,シオミダイ,宮城県宮城郡七ヶ浜町汐見台
9850822,宮城県,宮城郡七ヶ浜町,汐見台南,ミヤギケン,ミヤギグンシチガハママチ,シオミダイミナミ,宮城県宮城郡七ヶ浜町汐見台南
9850823,宮城県,宮城郡七ヶ浜町,遠山,ミヤギケン,ミヤギグンシチガハママチ,トオヤマ,宮城県宮城郡七ヶ浜町遠山
9850824,宮城県,宮城郡七ヶ浜町,境山,ミヤギケン,ミヤギグンシチガハママチ,サカイヤマ,宮城県宮城郡七ヶ浜町境山
9850831,宮城県,多賀城市,笠神,ミヤギケン,タガジョウシ,カサガミ,宮城県多賀城市笠神
9850832,宮城県,多賀城市,大代,ミヤギケン,タガジョウシ,オオシロ,宮城県多賀城市大代
9850833,宮城県,多賀城市,栄,ミヤギケン,タガジョウシ,サカエ,宮城県多賀城市栄
9850834,宮城県,多賀城市,丸山,ミヤギケン,タガジョウシ,マルヤマ,宮城県多賀城市丸山
9850835,宮城県,多賀城市,下馬,ミヤギケン,タガジョウシ,ゲバ,宮城県多賀城市下馬
9850841,宮城県,多賀城市,鶴ケ谷,ミヤギケン,タガジョウシ,ツルガヤ,宮城県多賀城市鶴ケ谷
9850842,宮城県,多賀城市,桜木,ミヤギケン,タガジョウシ,サクラギ,宮城県多賀城市桜木
9850843,宮城県,多賀城市,明月,ミヤギケン,タガジョウシ,メイゲツ,宮城県多賀城市明月
9850844,宮城県,多賀城市,宮内,ミヤギケン,タガジョウシ,ミヤウチ,宮城県多賀城市宮内
9850845,宮城県,多賀城市,町前,ミヤギケン,タガジョウシ,マチマエ,宮城県多賀城市町前
9850846,宮城県,多賀城市,中野,ミヤギケン,タガジョウシ,ナカノ,宮城県多賀城市中野
9850851,宮城県,多賀城市,南宮,ミヤギケン,タガジョウシ,ナングウ,宮城県多賀城市南宮
9850852,宮城県,多賀城市,山王,ミヤギケン,タガジョウシ,サンノウ,宮城県多賀城市山王
9850853,宮城県,多賀城市,高橋,ミヤギケン,タガジョウシ,タカハシ,宮城県多賀城市高橋
9850854,宮城県,多賀城市,新田,ミヤギケン,タガジョウシ,ニイダ,宮城県多賀城市新田
9850861,宮城県,多賀城市,浮島,ミヤギケン,タガジョウシ,ウキシマ,宮城県多賀城市浮島
9850862,宮城県,多賀城市,高崎,ミヤギケン,タガジョウシ,タカサキ,宮城県多賀城市高崎
9850863,宮城県,多賀城市,東田中,ミヤギケン,タガジョウシ,ヒガシタナカ,宮城県多賀城市東田中
9850864,宮城県,多賀城市,市川,ミヤギケン,タガジョウシ,イチカワ,宮城県多賀城市市川
9850865,宮城県,多賀城市,城南,ミヤギケン,タガジョウシ,ジョウナン,宮城県多賀城市城南
9850871,宮城県,多賀城市,留ケ谷,ミヤギケン,タガジョウシ,トメガヤ,宮城県多賀城市留ケ谷
9850872,宮城県,多賀城市,伝上山,ミヤギケン,タガジョウシ,デンジョウヤマ,宮城県多賀城市伝上山
9850873,宮城県,多賀城市,中央,ミヤギケン,タガジョウシ,チュウオウ,宮城県多賀城市中央
9850874,宮城県,多賀城市,八幡,ミヤギケン,タガジョウシ,ヤワタ,宮城県多賀城市八幡
9850901,宮城県,仙台市宮城野区,港（５丁目）,ミヤギケン,センダイシミヤギノク,ミナト(5チョウメ),宮城県仙台市宮城野区港（5-）
9860000,宮城県,石巻市,,ミヤギケン,イシノマキシ,,宮城県石巻市
9860001,宮城県,石巻市,水沼,ミヤギケン,イシノマキシ,ミズヌマ,宮城県石巻市水沼
9860002,宮城県,石巻市,真野,ミヤギケン,イシノマキシ,マノ,宮城県石巻市真野
9860003,宮城県,石巻市,井内,ミヤギケン,イシノマキシ,イナイ,宮城県石巻市井内
9860004,宮城県,石巻市,新栄,ミヤギケン,イシノマキシ,シンエイ,宮城県石巻市新栄
9860005,宮城県,石巻市,大瓜,ミヤギケン,イシノマキシ,オウリ,宮城県石巻市大瓜
9860006,宮城県,石巻市,高木,ミヤギケン,イシノマキシ,タカキ,宮城県石巻市高木
9860011,宮城県,石巻市,湊,ミヤギケン,イシノマキシ,ミナト,宮城県石巻市湊
9860013,宮城県,石巻市,鹿妻本町,ミヤギケン,イシノマキシ,カヅマホンチョウ,宮城県石巻市鹿妻本町
9860015,宮城県,石巻市,吉野町,ミヤギケン,イシノマキシ,ヨシノチョウ,宮城県石巻市吉野町
9860016,宮城県,石巻市,八幡町,ミヤギケン,イシノマキシ,ハチマンチョウ,宮城県石巻市八幡町
9860017,宮城県,石巻市,不動町,ミヤギケン,イシノマキシ,フドウチョウ,宮城県石巻市不動町
9860020,宮城県,石巻市,湊東,ミヤギケン,イシノマキシ,ミナトヒガシ,宮城県石巻市湊東
9860021,宮城県,石巻市,緑町,ミヤギケン,イシノマキシ,ミドリチョウ,宮城県石巻市緑町
9860022,宮城県,石巻市,魚町,ミヤギケン,イシノマキシ,サカナマチ,宮城県石巻市魚町
9860023,宮城県,石巻市,田代浜,ミヤギケン,イシノマキシ,タシロハマ,宮城県石巻市田代浜
9860024,宮城県,石巻市,川口町,ミヤギケン,イシノマキシ,カワグチチョウ,宮城県石巻市川口町
9860025,宮城県,石巻市,湊町,ミヤギケン,イシノマキシ,ミナトチョウ,宮城県石巻市湊町
9860026,宮城県,石巻市,大門町,ミヤギケン,イシノマキシ,ダイモンチョウ,宮城県石巻市大門町
9860027,宮城県,石巻市,明神町,ミヤギケン,イシノマキシ,ミョウジンチョウ,宮城県石巻市明神町
9860028,宮城県,石巻市,松並,ミヤギケン,イシノマキシ,マツナミ,宮城県石巻市松並
9860029,宮城県,石巻市,湊西,ミヤギケン,イシノマキシ,ミナトニシ,宮城県石巻市湊西
9860031,宮城県,石巻市,南境,ミヤギケン,イシノマキシ,ミナミザカイ,宮城県石巻市南境
9860032,宮城県,石巻市,開成,ミヤギケン,イシノマキシ,カイセイ,宮城県石巻市開成
9860033,宮城県,石巻市,美園,ミヤギケン,イシノマキシ,ミソノ,宮城県石巻市美園
9860041,宮城県,石巻市,伊原津,ミヤギケン,イシノマキシ,イバラツ,宮城県石巻市伊原津
9860042,宮城県,石巻市,鹿妻南,ミヤギケン,イシノマキシ,カヅマミナミ,宮城県石巻市鹿妻南
9860043,宮城県,石巻市,鹿妻北,ミヤギケン,イシノマキシ,カヅマキタ,宮城県石巻市鹿妻北
9860101,宮城県,石巻市,相野谷,ミヤギケン,イシノマキシ,アイノヤ,宮城県石巻市相野谷
9860102,宮城県,石巻市,成田,ミヤギケン,イシノマキシ,ナリタ,宮城県石巻市成田
9860103,宮城県,石巻市,中島,ミヤギケン,イシノマキシ,ナカジマ,宮城県石巻市中島
9860104,宮城県,石巻市,皿貝,ミヤギケン,イシノマキシ,サラガイ,宮城県石巻市皿貝
9860105,宮城県,石巻市,中野,ミヤギケン,イシノマキシ,ナカノ,宮城県石巻市中野
9860106,宮城県,石巻市,馬鞍,ミヤギケン,イシノマキシ,マグラ,宮城県石巻市馬鞍
9860111,宮城県,石巻市,釜谷,ミヤギケン,イシノマキシ,カマヤ,宮城県石巻市釜谷
9860112,宮城県,石巻市,長面,ミヤギケン,イシノマキシ,ナガツラ,宮城県石巻市長面
9860113,宮城県,石巻市,尾ノ崎,ミヤギケン,イシノマキシ,オノサキ,宮城県石巻市尾ノ崎
9860114,宮城県,石巻市,針岡,ミヤギケン,イシノマキシ,ハリオカ,宮城県石巻市針岡
9860115,宮城県,石巻市,福地,ミヤギケン,イシノマキシ,フクジ,宮城県石巻市福地
9860121,宮城県,石巻市,大森,ミヤギケン,イシノマキシ,オオモリ,宮城県石巻市大森
9860122,宮城県,石巻市,東福田,ミヤギケン,イシノマキシ,ヒガシフクダ,宮城県石巻市東福田
9860123,宮城県,石巻市,北境,ミヤギケン,イシノマキシ,キタザカイ,宮城県石巻市北境
9860124,宮城県,石巻市,三輪田,ミヤギケン,イシノマキシ,ミノワダ,宮城県石巻市三輪田
9860131,宮城県,石巻市,飯野,ミヤギケン,イシノマキシ,イイノ,宮城県石巻市飯野
9860132,宮城県,石巻市,小船越,ミヤギケン,イシノマキシ,コフナコシ,宮城県石巻市小船越
9860133,宮城県,石巻市,二子,ミヤギケン,イシノマキシ,フタゴ,宮城県石巻市二子
9860201,宮城県,石巻市,北上町十三浜,ミヤギケン,イシノマキシ,キタカミチョウジュウサンハマ,宮城県石巻市北上町十三浜
9860202,宮城県,石巻市,北上町橋浦,ミヤギケン,イシノマキシ,キタカミチョウハシウラ,宮城県石巻市北上町橋浦
9860203,宮城県,石巻市,北上町長尾,ミヤギケン,イシノマキシ,キタカミチョウナガオ,宮城県石巻市北上町長尾
9860204,宮城県,石巻市,北上町女川,ミヤギケン,イシノマキシ,キタカミチョウオナガワ,宮城県石巻市北上町女川
9860301,宮城県,石巻市,桃生町脇谷,ミヤギケン,イシノマキシ,モノウチョウワキヤ,宮城県石巻市桃生町脇谷
9860302,宮城県,石巻市,桃生町倉埣,ミヤギケン,イシノマキシ,モノウチョウクラゾネ,宮城県石巻市桃生町倉埣
9860303,宮城県,石巻市,桃生町永井,ミヤギケン,イシノマキシ,モノウチョウナガイ,宮城県石巻市桃生町永井
9860304,宮城県,石巻市,桃生町樫崎,ミヤギケン,イシノマキシ,モノウチョウカシザキ,宮城県石巻市桃生町樫崎
9860305,宮城県,石巻市,桃生町牛田,ミヤギケン,イシノマキシ,モノウチョウウシタ,宮城県石巻市桃生町牛田
9860311,宮城県,石巻市,桃生町太田,ミヤギケン,イシノマキシ,モノウチョウオオタ,宮城県石巻市桃生町太田
9860312,宮城県,石巻市,桃生町城内,ミヤギケン,イシノマキシ,モノウチョウジョウナイ,宮城県石巻市桃生町城内
9860313,宮城県,石巻市,桃生町中津山,ミヤギケン,イシノマキシ,モノウチョウナカツヤマ,宮城県石巻市桃生町中津山
9860314,宮城県,石巻市,桃生町寺崎,ミヤギケン,イシノマキシ,モノウチョウテラサキ,宮城県石巻市桃生町寺崎
9860321,宮城県,石巻市,桃生町新田,ミヤギケン,イシノマキシ,モノウチョウシンデン,宮城県石巻市桃生町新田
9860322,宮城県,石巻市,桃生町給人町,ミヤギケン,イシノマキシ,モノウチョウキュウニンマチ,宮城県石巻市桃生町給人町
9860323,宮城県,石巻市,桃生町神取,ミヤギケン,イシノマキシ,モノウチョウカンドリ,宮城県石巻市桃生町神取
9860324,宮城県,石巻市,桃生町高須賀,ミヤギケン,イシノマキシ,モノウチョウタカスカ,宮城県石巻市桃生町高須賀
9860401,宮城県,登米市,津山町柳津,ミヤギケン,トメシ,ツヤマチョウヤナイヅ,宮城県登米市津山町柳津
9860402,宮城県,登米市,津山町横山,ミヤギケン,トメシ,ツヤマチョウヨコヤマ,宮城県登米市津山町横山
9860700,宮城県,本吉郡南三陸町,,ミヤギケン,モトヨシグンミナミサンリクチョウ,,宮城県本吉郡南三陸町
9860701,宮城県,本吉郡南三陸町,志津川西田,ミヤギケン,モトヨシグンミナミサンリクチョウ,シヅガワニシダ,宮城県本吉郡南三陸町志津川西田
9860702,宮城県,本吉郡南三陸町,志津川細浦,ミヤギケン,モトヨシグンミナミサンリクチョウ,シヅガワホソウラ,宮城県本吉郡南三陸町志津川細浦
9860703,宮城県,本吉郡南三陸町,志津川蛇王,ミヤギケン,モトヨシグンミナミサンリクチョウ,シヅガワジャオウ,宮城県本吉郡南三陸町志津川蛇王
9860704,宮城県,本吉郡南三陸町,志津川森山,ミヤギケン,モトヨシグンミナミサンリクチョウ,シヅガワモリヤマ,宮城県本吉郡南三陸町志津川森山
9860705,宮城県,本吉郡南三陸町,志津川阿曽,ミヤギケン,モトヨシグンミナミサンリクチョウ,シヅガワアソ,宮城県本吉郡南三陸町志津川阿曽
9860706,宮城県,本吉郡南三陸町,志津川清水浜,ミヤギケン,モトヨシグンミナミサンリクチョウ,シヅガワシズハマ,宮城県本吉郡南三陸町志津川清水浜
9860707,宮城県,本吉郡南三陸町,志津川荒坂,ミヤギケン,モトヨシグンミナミサンリクチョウ,シヅガワアラサカ,宮城県本吉郡南三陸町志津川荒坂
9860708,宮城県,本吉郡南三陸町,志津川松井田,ミヤギケン,モトヨシグンミナミサンリクチョウ,シヅガワマツイダ,宮城県本吉郡南三陸町志津川松井田
9860709,宮城県,本吉郡南三陸町,志津川内井田,ミヤギケン,モトヨシグンミナミサンリクチョウ,シヅガワウチイダ,宮城県本吉郡南三陸町志津川内井田
9860711,宮城県,本吉郡南三陸町,志津川権現,ミヤギケン,モトヨシグンミナミサンリクチョウ,シヅガワゴンゲン,宮城県本吉郡南三陸町志津川権現
9860712,宮城県,本吉郡南三陸町,志津川北の又,ミヤギケン,モトヨシグンミナミサンリクチョウ,シヅガワキタノマタ,宮城県本吉郡南三陸町志津川北の又
9860713,宮城県,本吉郡南三陸町,志津川平貝,ミヤギケン,モトヨシグンミナミサンリクチョウ,シヅガワヒラガイ,宮城県本吉郡南三陸町志津川平貝
9860714,宮城県,本吉郡南三陸町,志津川蒲の沢,ミヤギケン,モトヨシグンミナミサンリクチョウ,シヅガワカバノサワ,宮城県本吉郡南三陸町志津川蒲の沢
9860715,宮城県,本吉郡南三陸町,志津川深田,ミヤギケン,モトヨシグンミナミサンリクチョウ,シヅガワフカダ,宮城県本吉郡南三陸町志津川深田
9860716,宮城県,本吉郡南三陸町,志津川平磯,ミヤギケン,モトヨシグンミナミサンリクチョウ,シヅガワヒライソ,宮城県本吉郡南三陸町志津川平磯
9860717,宮城県,本吉郡南三陸町,志津川袖浜,ミヤギケン,モトヨシグンミナミサンリクチョウ,シヅガワソデハマ,宮城県本吉郡南三陸町志津川袖浜
9860718,宮城県,本吉郡南三陸町,志津川大畑,ミヤギケン,モトヨシグンミナミサンリクチョウ,シヅガワオオバタケ,宮城県本吉郡南三陸町志津川大畑
9860721,宮城県,本吉郡南三陸町,志津川米広,ミヤギケン,モトヨシグンミナミサンリクチョウ,シヅガワコメヒロ,宮城県本吉郡南三陸町志津川米広
9860722,宮城県,本吉郡南三陸町,志津川大上坊,ミヤギケン,モトヨシグンミナミサンリクチョウ,シヅガワダイジョウボウ,宮城県本吉郡南三陸町志津川大上坊
9860723,宮城県,本吉郡南三陸町,志津川立沢,ミヤギケン,モトヨシグンミナミサンリクチョウ,シヅガワタツサワ,宮城県本吉郡南三陸町志津川立沢
9860724,宮城県,本吉郡南三陸町,志津川平井田,ミヤギケン,モトヨシグンミナミサンリクチョウ,シヅガワヒライダ,宮城県本吉郡南三陸町志津川平井田
9860725,宮城県,本吉郡南三陸町,志津川沼田,ミヤギケン,モトヨシグンミナミサンリクチョウ,シヅガワヌマダ,宮城県本吉郡南三陸町志津川沼田
9860726,宮城県,本吉郡南三陸町,志津川磯の沢,ミヤギケン,モトヨシグンミナミサンリクチョウ,シヅガワイソノサワ,宮城県本吉郡南三陸町志津川磯の沢
9860727,宮城県,本吉郡南三陸町,志津川新井田,ミヤギケン,モトヨシグンミナミサンリクチョウ,シヅガワニイダ,宮城県本吉郡南三陸町志津川新井田
9860728,宮城県,本吉郡南三陸町,志津川天王山,ミヤギケン,モトヨシグンミナミサンリクチョウ,シヅガワテンノウサン,宮城県本吉郡南三陸町志津川天王山
9860729,宮城県,本吉郡南三陸町,志津川天王前,ミヤギケン,モトヨシグンミナミサンリクチョウ,シヅガワテンノウマエ,宮城県本吉郡南三陸町志津川天王前
9860731,宮城県,本吉郡南三陸町,志津川大森,ミヤギケン,モトヨシグンミナミサンリクチョウ,シヅガワオオモリ,宮城県本吉郡南三陸町志津川大森
9860732,宮城県,本吉郡南三陸町,志津川大森町,ミヤギケン,モトヨシグンミナミサンリクチョウ,シヅガワオオモリチョウ,宮城県本吉郡南三陸町志津川大森町
9860733,宮城県,本吉郡南三陸町,志津川旭ケ浦,ミヤギケン,モトヨシグンミナミサンリクチョウ,シヅガワアサヒガウラ,宮城県本吉郡南三陸町志津川旭ケ浦
9860741,宮城県,本吉郡南三陸町,志津川十日町,ミヤギケン,モトヨシグンミナミサンリクチョウ,シヅガワトオカマチ,宮城県本吉郡南三陸町志津川十日町
9860742,宮城県,本吉郡南三陸町,志津川本浜町,ミヤギケン,モトヨシグンミナミサンリクチョウ,シヅガワモトハマチョウ,宮城県本吉郡南三陸町志津川本浜町
9860743,宮城県,本吉郡南三陸町,志津川南町,ミヤギケン,モトヨシグンミナミサンリクチョウ,シヅガワミナミマチ,宮城県本吉郡南三陸町志津川南町
9860751,宮城県,本吉郡南三陸町,志津川上の山,ミヤギケン,モトヨシグンミナミサンリクチョウ,シヅガワカミノヤマ,宮城県本吉郡南三陸町志津川上の山
9860752,宮城県,本吉郡南三陸町,志津川五日町,ミヤギケン,モトヨシグンミナミサンリクチョウ,シヅガワイツカマチ,宮城県本吉郡南三陸町志津川五日町
9860753,宮城県,本吉郡南三陸町,志津川城場,ミヤギケン,モトヨシグンミナミサンリクチョウ,シヅガワジョウバ,宮城県本吉郡南三陸町志津川城場
9860754,宮城県,本吉郡南三陸町,志津川助作,ミヤギケン,モトヨシグンミナミサンリクチョウ,シヅガワスケヅクリ,宮城県本吉郡南三陸町志津川助作
9860761,宮城県,本吉郡南三陸町,志津川廻館前,ミヤギケン,モトヨシグンミナミサンリクチョウ,シヅガワマワリタテマエ,宮城県本吉郡南三陸町志津川廻館前
9860762,宮城県,本吉郡南三陸町,志津川塩入,ミヤギケン,モトヨシグンミナミサンリクチョウ,シヅガワシオイリ,宮城県本吉郡南三陸町志津川塩入
9860763,宮城県,本吉郡南三陸町,志津川汐見町,ミヤギケン,モトヨシグンミナミサンリクチョウ,シヅガワシオミチョウ,宮城県本吉郡南三陸町志津川汐見町
9860764,宮城県,本吉郡南三陸町,志津川大久保,ミヤギケン,モトヨシグンミナミサンリクチョウ,シヅガワオオクボ,宮城県本吉郡南三陸町志津川大久保
9860765,宮城県,本吉郡南三陸町,志津川林,ミヤギケン,モトヨシグンミナミサンリクチョウ,シヅガワハヤシ,宮城県本吉郡南三陸町志津川林
9860766,宮城県,本吉郡南三陸町,志津川黒崎,ミヤギケン,モトヨシグンミナミサンリクチョウ,シヅガワクロサキ,宮城県本吉郡南三陸町志津川黒崎
9860767,宮城県,本吉郡南三陸町,志津川中瀬町,ミヤギケン,モトヨシグンミナミサンリクチョウ,シヅガワナカセマチ,宮城県本吉郡南三陸町志津川中瀬町
9860768,宮城県,本吉郡南三陸町,志津川御前下,ミヤギケン,モトヨシグンミナミサンリクチョウ,シヅガワゴゼンシタ,宮城県本吉郡南三陸町志津川御前下
9860771,宮城県,本吉郡南三陸町,志津川大沢,ミヤギケン,モトヨシグンミナミサンリクチョウ,シヅガワオオサワ,宮城県本吉郡南三陸町志津川大沢
9860772,宮城県,本吉郡南三陸町,志津川秋目川,ミヤギケン,モトヨシグンミナミサンリクチョウ,シヅガワアキメガワ,宮城県本吉郡南三陸町志津川秋目川
9860773,宮城県,本吉郡南三陸町,志津川熊田,ミヤギケン,モトヨシグンミナミサンリクチョウ,シヅガワクマダ,宮城県本吉郡南三陸町志津川熊田
9860774,宮城県,本吉郡南三陸町,志津川小森,ミヤギケン,モトヨシグンミナミサンリクチョウ,シヅガワコモリ,宮城県本吉郡南三陸町志津川小森
9860775,宮城県,本吉郡南三陸町,志津川廻館,ミヤギケン,モトヨシグンミナミサンリクチョウ,シヅガワマワリタテ,宮城県本吉郡南三陸町志津川廻館
9860776,宮城県,本吉郡南三陸町,志津川竹川原,ミヤギケン,モトヨシグンミナミサンリクチョウ,シヅガワタケガワラ,宮城県本吉郡南三陸町志津川竹川原
9860777,宮城県,本吉郡南三陸町,志津川上保呂毛,ミヤギケン,モトヨシグンミナミサンリクチョウ,シヅガワカミホロケ,宮城県本吉郡南三陸町志津川上保呂毛
9860778,宮城県,本吉郡南三陸町,志津川下保呂毛,ミヤギケン,モトヨシグンミナミサンリクチョウ,シヅガワシモホロケ,宮城県本吉郡南三陸町志津川下保呂毛
9860779,宮城県,本吉郡南三陸町,志津川田尻畑,ミヤギケン,モトヨシグンミナミサンリクチョウ,シヅガワタジリバタケ,宮城県本吉郡南三陸町志津川田尻畑
9860781,宮城県,本吉郡南三陸町,戸倉,ミヤギケン,モトヨシグンミナミサンリクチョウ,トクラ,宮城県本吉郡南三陸町戸倉
9860782,宮城県,本吉郡南三陸町,入谷,ミヤギケン,モトヨシグンミナミサンリクチョウ,イリヤ,宮城県本吉郡南三陸町入谷
9860801,宮城県,石巻市,水明北,ミヤギケン,イシノマキシ,スイメイキタ,宮城県石巻市水明北
9860802,宮城県,石巻市,水明南,ミヤギケン,イシノマキシ,スイメイミナミ,宮城県石巻市水明南
9860803,宮城県,石巻市,水押,ミヤギケン,イシノマキシ,ミズオシ,宮城県石巻市水押
9860805,宮城県,石巻市,大橋,ミヤギケン,イシノマキシ,オオハシ,宮城県石巻市大橋
9860806,宮城県,石巻市,開北,ミヤギケン,イシノマキシ,カイホク,宮城県石巻市開北
9860811,宮城県,石巻市,元倉,ミヤギケン,イシノマキシ,モトクラ,宮城県石巻市元倉
9860812,宮城県,石巻市,東中里,ミヤギケン,イシノマキシ,ヒガシナカサト,宮城県石巻市東中里
9860813,宮城県,石巻市,駅前北通り,ミヤギケン,イシノマキシ,エキマエキタドオリ,宮城県石巻市駅前北通り
9860814,宮城県,石巻市,南中里,ミヤギケン,イシノマキシ,ミナミナカサト,宮城県石巻市南中里
9860815,宮城県,石巻市,中里,ミヤギケン,イシノマキシ,ナカサト,宮城県石巻市中里
9860821,宮城県,石巻市,住吉町,ミヤギケン,イシノマキシ,スミヨシチョウ,宮城県石巻市住吉町
9860822,宮城県,石巻市,中央,ミヤギケン,イシノマキシ,チュウオウ,宮城県石巻市中央
9860823,宮城県,石巻市,中瀬,ミヤギケン,イシノマキシ,ナカゼ,宮城県石巻市中瀬
9860824,宮城県,石巻市,立町,ミヤギケン,イシノマキシ,タチマチ,宮城県石巻市立町
9860825,宮城県,石巻市,穀町,ミヤギケン,イシノマキシ,コクチョウ,宮城県石巻市穀町
9860826,宮城県,石巻市,鋳銭場,ミヤギケン,イシノマキシ,イセンバ,宮城県石巻市鋳銭場
9860827,宮城県,石巻市,千石町,ミヤギケン,イシノマキシ,センゴクチョウ,宮城県石巻市千石町
9860828,宮城県,石巻市,旭町,ミヤギケン,イシノマキシ,アサヒチョウ,宮城県石巻市旭町
9860831,宮城県,石巻市,羽黒町,ミヤギケン,イシノマキシ,ハグロチョウ,宮城県石巻市羽黒町
9860832,宮城県,石巻市,泉町,ミヤギケン,イシノマキシ,イズミチョウ,宮城県石巻市泉町
9860833,宮城県,石巻市,日和が丘,ミヤギケン,イシノマキシ,ヒヨリガオカ,宮城県石巻市日和が丘
9860834,宮城県,石巻市,門脇町,ミヤギケン,イシノマキシ,カドノワキチョウ,宮城県石巻市門脇町
9860835,宮城県,石巻市,南浜町,ミヤギケン,イシノマキシ,ミナミハマチョウ,宮城県石巻市南浜町
9860836,宮城県,石巻市,南光町,ミヤギケン,イシノマキシ,ナンコウチョウ,宮城県石巻市南光町
9860837,宮城県,石巻市,宜山町,ミヤギケン,イシノマキシ,ヨシヤマチョウ,宮城県石巻市宜山町
9860838,宮城県,石巻市,大手町,ミヤギケン,イシノマキシ,オオテマチ,宮城県石巻市大手町
9860841,宮城県,石巻市,雲雀野町,ミヤギケン,イシノマキシ,ヒバリノチョウ,宮城県石巻市雲雀野町
9860842,宮城県,石巻市,潮見町,ミヤギケン,イシノマキシ,シオミチョウ,宮城県石巻市潮見町
9860843,宮城県,石巻市,西浜町,ミヤギケン,イシノマキシ,ニシハマチョウ,宮城県石巻市西浜町
9860844,宮城県,石巻市,重吉町,ミヤギケン,イシノマキシ,シゲヨシチョウ,宮城県石巻市重吉町
9860845,宮城県,石巻市,中島町,ミヤギケン,イシノマキシ,ナカジマチョウ,宮城県石巻市中島町
9860846,宮城県,石巻市,三河町,ミヤギケン,イシノマキシ,ミカワチョウ,宮城県石巻市三河町
9860847,宮城県,石巻市,中浦,ミヤギケン,イシノマキシ,ナカウラ,宮城県石巻市中浦
9860848,宮城県,石巻市,新館,ミヤギケン,イシノマキシ,シンタテ,宮城県石巻市新館
9860849,宮城県,石巻市,中屋敷,ミヤギケン,イシノマキシ,ナカヤシキ,宮城県石巻市中屋敷
9860850,宮城県,石巻市,あゆみ野,ミヤギケン,イシノマキシ,アユミノ,宮城県石巻市あゆみ野
9860851,宮城県,石巻市,貞山,ミヤギケン,イシノマキシ,テイザン,宮城県石巻市貞山
9860852,宮城県,石巻市,南谷地,ミヤギケン,イシノマキシ,ミナミヤチ,宮城県石巻市南谷地
9860853,宮城県,石巻市,門脇,ミヤギケン,イシノマキシ,カドノワキ,宮城県石巻市門脇
9860854,宮城県,石巻市,大街道北,ミヤギケン,イシノマキシ,オオカイドウキタ,宮城県石巻市大街道北
9860855,宮城県,石巻市,大街道東,ミヤギケン,イシノマキシ,オオカイドウヒガシ,宮城県石巻市大街道東
9860856,宮城県,石巻市,大街道南,ミヤギケン,イシノマキシ,オオカイドウミナミ,宮城県石巻市大街道南
9860857,宮城県,石巻市,築山,ミヤギケン,イシノマキシ,ツキヤマ,宮城県石巻市築山
9860858,宮城県,石巻市,三ツ股,ミヤギケン,イシノマキシ,ミツマタ,宮城県石巻市三ツ股
9860859,宮城県,石巻市,大街道西,ミヤギケン,イシノマキシ,オオカイドウニシ,宮城県石巻市大街道西
9860860,宮城県,石巻市,のぞみ野,ミヤギケン,イシノマキシ,ノゾミノ,宮城県石巻市のぞみ野
9860861,宮城県,石巻市,蛇田,ミヤギケン,イシノマキシ,ヘビタ,宮城県石巻市蛇田
9860862,宮城県,石巻市,あけぼの,ミヤギケン,イシノマキシ,アケボノ,宮城県石巻市あけぼの
9860863,宮城県,石巻市,向陽町,ミヤギケン,イシノマキシ,コウヨウチョウ,宮城県石巻市向陽町
9860864,宮城県,石巻市,新境町,ミヤギケン,イシノマキシ,シンサカイチョウ,宮城県石巻市新境町
9860865,宮城県,石巻市,丸井戸,ミヤギケン,イシノマキシ,マルイド,宮城県石巻市丸井戸
9860866,宮城県,石巻市,茜平,ミヤギケン,イシノマキシ,アカネダイラ,宮城県石巻市茜平
9860867,宮城県,石巻市,わかば,ミヤギケン,イシノマキシ,ワカバ,宮城県石巻市わかば
9860868,宮城県,石巻市,恵み野,ミヤギケン,イシノマキシ,メグミノ,宮城県石巻市恵み野
9860869,宮城県,石巻市,あけぼの北,ミヤギケン,イシノマキシ,アケボノキタ,宮城県石巻市あけぼの北
9860871,宮城県,石巻市,清水町,ミヤギケン,イシノマキシ,シミズチョウ,宮城県石巻市清水町
9860872,宮城県,石巻市,田道町,ミヤギケン,イシノマキシ,タミチチョウ,宮城県石巻市田道町
9860873,宮城県,石巻市,山下町,ミヤギケン,イシノマキシ,ヤマシタチョウ,宮城県石巻市山下町
9860874,宮城県,石巻市,双葉町,ミヤギケン,イシノマキシ,フタバチョウ,宮城県石巻市双葉町
9860875,宮城県,石巻市,末広町,ミヤギケン,イシノマキシ,スエヒロチョウ,宮城県石巻市末広町
9860876,宮城県,石巻市,西山町,ミヤギケン,イシノマキシ,ニシヤマチョウ,宮城県石巻市西山町
9860877,宮城県,石巻市,錦町,ミヤギケン,イシノマキシ,ニシキチョウ,宮城県石巻市錦町
9860878,宮城県,石巻市,新橋,ミヤギケン,イシノマキシ,シンバシ,宮城県石巻市新橋
9860881,宮城県,石巻市,明神南,ミヤギケン,イシノマキシ,ミョウジンミナミ,宮城県石巻市明神南
9860882,宮城県,石巻市,浦屋敷南,ミヤギケン,イシノマキシ,ウラヤシキミナミ,宮城県石巻市浦屋敷南
9860883,宮城県,石巻市,新館南,ミヤギケン,イシノマキシ,シンタテミナミ,宮城県石巻市新館南
9861111,宮城県,石巻市,鹿又,ミヤギケン,イシノマキシ,カノマタ,宮城県石巻市鹿又
9861301,宮城県,石巻市,雄勝町船越,ミヤギケン,イシノマキシ,オガツチョウフナコシ,宮城県石巻市雄勝町船越
9861302,宮城県,石巻市,雄勝町大浜,ミヤギケン,イシノマキシ,オガツチョウオオハマ,宮城県石巻市雄勝町大浜
9861303,宮城県,石巻市,雄勝町立浜,ミヤギケン,イシノマキシ,オガツチョウタチハマ,宮城県石巻市雄勝町立浜
9861304,宮城県,石巻市,雄勝町名振,ミヤギケン,イシノマキシ,オガツチョウナブリ,宮城県石巻市雄勝町名振
9861311,宮城県,石巻市,雄勝町大須,ミヤギケン,イシノマキシ,オガツチョウオオス,宮城県石巻市雄勝町大須
9861312,宮城県,石巻市,雄勝町熊沢,ミヤギケン,イシノマキシ,オガツチョウクマザワ,宮城県石巻市雄勝町熊沢
9861313,宮城県,石巻市,雄勝町桑浜,ミヤギケン,イシノマキシ,オガツチョウクワハマ,宮城県石巻市雄勝町桑浜
9861321,宮城県,石巻市,雄勝町水浜,ミヤギケン,イシノマキシ,オガツチョウミズハマ,宮城県石巻市雄勝町水浜
9861322,宮城県,石巻市,雄勝町分浜,ミヤギケン,イシノマキシ,オガツチョウワケハマ,宮城県石巻市雄勝町分浜
9861331,宮城県,石巻市,雄勝町明神,ミヤギケン,イシノマキシ,オガツチョウミョウジン,宮城県石巻市雄勝町明神
9861332,宮城県,石巻市,雄勝町小島,ミヤギケン,イシノマキシ,オガツチョウオジマ,宮城県石巻市雄勝町小島
9861333,宮城県,石巻市,雄勝町雄勝,ミヤギケン,イシノマキシ,オガツチョウオガツ,宮城県石巻市雄勝町雄勝
9861334,宮城県,石巻市,雄勝町伊勢畑,ミヤギケン,イシノマキシ,オガツチョウイセハタ,宮城県石巻市雄勝町伊勢畑
9861335,宮城県,石巻市,雄勝町下雄勝,ミヤギケン,イシノマキシ,オガツチョウシモオガツ,宮城県石巻市雄勝町下雄勝
9861336,宮城県,石巻市,雄勝町上雄勝,ミヤギケン,イシノマキシ,オガツチョウカミオガツ,宮城県石巻市雄勝町上雄勝
9862101,宮城県,石巻市,沼津,ミヤギケン,イシノマキシ,ヌマヅ,宮城県石巻市沼津
9862102,宮城県,石巻市,沢田,ミヤギケン,イシノマキシ,サワダ,宮城県石巻市沢田
9862103,宮城県,石巻市,流留,ミヤギケン,イシノマキシ,ナガル,宮城県石巻市流留
9862104,宮城県,石巻市,垂水町,ミヤギケン,イシノマキシ,タレミズチョウ,宮城県石巻市垂水町
9862105,宮城県,石巻市,新成,ミヤギケン,イシノマキシ,シンセイ,宮城県石巻市新成
9862111,宮城県,石巻市,三和町,ミヤギケン,イシノマキシ,ミツワチョウ,宮城県石巻市三和町
9862112,宮城県,石巻市,後生橋,ミヤギケン,イシノマキシ,ゴショウバシ,宮城県石巻市後生橋
9862113,宮城県,石巻市,宇田川町,ミヤギケン,イシノマキシ,ウダガワチョウ,宮城県石巻市宇田川町
9862114,宮城県,石巻市,塩富町,ミヤギケン,イシノマキシ,シオトミチョウ,宮城県石巻市塩富町
9862115,宮城県,石巻市,万石町,ミヤギケン,イシノマキシ,マンゴクチョウ,宮城県石巻市万石町
9862116,宮城県,石巻市,小竹浜,ミヤギケン,イシノマキシ,コダケハマ,宮城県石巻市小竹浜
9862121,宮城県,石巻市,渡波町,ミヤギケン,イシノマキシ,ワタノハチョウ,宮城県石巻市渡波町
9862122,宮城県,石巻市,幸町,ミヤギケン,イシノマキシ,サイワイチョウ,宮城県石巻市幸町
9862123,宮城県,石巻市,伊勢町,ミヤギケン,イシノマキシ,イセチョウ,宮城県石巻市伊勢町
9862131,宮城県,石巻市,浜松町,ミヤギケン,イシノマキシ,ハママツチョウ,宮城県石巻市浜松町
9862132,宮城県,石巻市,大宮町,ミヤギケン,イシノマキシ,オオミヤチョウ,宮城県石巻市大宮町
9862133,宮城県,石巻市,長浜町,ミヤギケン,イシノマキシ,ナガハマチョウ,宮城県石巻市長浜町
9862134,宮城県,石巻市,松原町,ミヤギケン,イシノマキシ,マツバラチョウ,宮城県石巻市松原町
9862135,宮城県,石巻市,渡波,ミヤギケン,イシノマキシ,ワタノハ,宮城県石巻市渡波
9862136,宮城県,石巻市,根岸,ミヤギケン,イシノマキシ,ネギシ,宮城県石巻市根岸
9862137,宮城県,石巻市,さくら町,ミヤギケン,イシノマキシ,サクラマチ,宮城県石巻市さくら町
9862200,宮城県,牡鹿郡女川町,,ミヤギケン,オシカグンオナガワチョウ,,宮城県牡鹿郡女川町
9862201,宮城県,牡鹿郡女川町,指ケ浜,ミヤギケン,オシカグンオナガワチョウ,サシノハマ,宮城県牡鹿郡女川町指ケ浜
9862202,宮城県,牡鹿郡女川町,尾浦,ミヤギケン,オシカグンオナガワチョウ,オウラ,宮城県牡鹿郡女川町尾浦
9862203,宮城県,牡鹿郡女川町,竹浦,ミヤギケン,オシカグンオナガワチョウ,タケノウラ,宮城県牡鹿郡女川町竹浦
9862204,宮城県,牡鹿郡女川町,桐ケ崎,ミヤギケン,オシカグンオナガワチョウ,キリガサキ,宮城県牡鹿郡女川町桐ケ崎
9862205,宮城県,牡鹿郡女川町,御前浜,ミヤギケン,オシカグンオナガワチョウ,オンマエハマ,宮城県牡鹿郡女川町御前浜
9862211,宮城県,牡鹿郡女川町,出島,ミヤギケン,オシカグンオナガワチョウ,イズシマ,宮城県牡鹿郡女川町出島
9862212,宮城県,牡鹿郡女川町,江島,ミヤギケン,オシカグンオナガワチョウ,エノシマ,宮城県牡鹿郡女川町江島
9862221,宮城県,牡鹿郡女川町,塚浜,ミヤギケン,オシカグンオナガワチョウ,ツカハマ,宮城県牡鹿郡女川町塚浜
9862222,宮城県,牡鹿郡女川町,飯子浜,ミヤギケン,オシカグンオナガワチョウ,イイゴハマ,宮城県牡鹿郡女川町飯子浜
9862223,宮城県,牡鹿郡女川町,野々浜,ミヤギケン,オシカグンオナガワチョウ,ノノハマ,宮城県牡鹿郡女川町野々浜
9862224,宮城県,牡鹿郡女川町,大石原浜,ミヤギケン,オシカグンオナガワチョウ,オオイシハラハマ,宮城県牡鹿郡女川町大石原浜
9862225,宮城県,牡鹿郡女川町,横浦,ミヤギケン,オシカグンオナガワチョウ,ヨコウラ,宮城県牡鹿郡女川町横浦
9862226,宮城県,牡鹿郡女川町,高白浜,ミヤギケン,オシカグンオナガワチョウ,タカシロハマ,宮城県牡鹿郡女川町高白浜
9862231,宮城県,牡鹿郡女川町,浦宿浜,ミヤギケン,オシカグンオナガワチョウ,ウラシュクハマ,宮城県牡鹿郡女川町浦宿浜
9862232,宮城県,牡鹿郡女川町,針浜,ミヤギケン,オシカグンオナガワチョウ,ハリノハマ,宮城県牡鹿郡女川町針浜
9862240,宮城県,牡鹿郡女川町,大道,ミヤギケン,オシカグンオナガワチョウ,オオミチ,宮城県牡鹿郡女川町大道
9862242,宮城県,牡鹿郡女川町,小乗浜,ミヤギケン,オシカグンオナガワチョウ,コノリハマ,宮城県牡鹿郡女川町小乗浜
9862243,宮城県,牡鹿郡女川町,鷲神浜,ミヤギケン,オシカグンオナガワチョウ,ワシノカミハマ,宮城県牡鹿郡女川町鷲神浜
9862244,宮城県,牡鹿郡女川町,桜ケ丘,ミヤギケン,オシカグンオナガワチョウ,サクラガオカ,宮城県牡鹿郡女川町桜ケ丘
9862246,宮城県,牡鹿郡女川町,黄金,ミヤギケン,オシカグンオナガワチョウ,コガネ,宮城県牡鹿郡女川町黄金
9862247,宮城県,牡鹿郡女川町,鷲神,ミヤギケン,オシカグンオナガワチョウ,ワシノカミ,宮城県牡鹿郡女川町鷲神
9862248,宮城県,牡鹿郡女川町,小乗,ミヤギケン,オシカグンオナガワチョウ,コノリ,宮城県牡鹿郡女川町小乗
9862249,宮城県,牡鹿郡女川町,内山,ミヤギケン,オシカグンオナガワチョウ,ウチヤマ,宮城県牡鹿郡女川町内山
9862251,宮城県,牡鹿郡女川町,旭が丘,ミヤギケン,オシカグンオナガワチョウ,アサヒガオカ,宮城県牡鹿郡女川町旭が丘
9862261,宮城県,牡鹿郡女川町,女川浜,ミヤギケン,オシカグンオナガワチョウ,オナガワハマ,宮城県牡鹿郡女川町女川浜
9862262,宮城県,牡鹿郡女川町,清水,ミヤギケン,オシカグンオナガワチョウ,シミズ,宮城県牡鹿郡女川町清水
9862263,宮城県,牡鹿郡女川町,伊勢,ミヤギケン,オシカグンオナガワチョウ,イセ,宮城県牡鹿郡女川町伊勢
9862264,宮城県,牡鹿郡女川町,海岸通り,ミヤギケン,オシカグンオナガワチョウ,カイガンドオリ,宮城県牡鹿郡女川町海岸通り
9862265,宮城県,牡鹿郡女川町,女川,ミヤギケン,オシカグンオナガワチョウ,オナガワ,宮城県牡鹿郡女川町女川
9862266,宮城県,牡鹿郡女川町,大原,ミヤギケン,オシカグンオナガワチョウ,オオハラ,宮城県牡鹿郡女川町大原
9862281,宮城県,牡鹿郡女川町,石浜,ミヤギケン,オシカグンオナガワチョウ,イシハマ,宮城県牡鹿郡女川町石浜
9862282,宮城県,牡鹿郡女川町,宮ケ崎,ミヤギケン,オシカグンオナガワチョウ,ミヤガサキ,宮城県牡鹿郡女川町宮ケ崎
9862283,宮城県,牡鹿郡女川町,市場通り,ミヤギケン,オシカグンオナガワチョウ,イチバドオリ,宮城県牡鹿郡女川町市場通り
9862341,宮城県,石巻市,荻浜,ミヤギケン,イシノマキシ,オギノハマ,宮城県石巻市荻浜
9862342,宮城県,石巻市,小積浜,ミヤギケン,イシノマキシ,コヅミハマ,宮城県石巻市小積浜
9862343,宮城県,石巻市,福貴浦,ミヤギケン,イシノマキシ,フッキウラ,宮城県石巻市福貴浦
9862344,宮城県,石巻市,鹿立,ミヤギケン,イシノマキシ,スダチ,宮城県石巻市鹿立
9862345,宮城県,石巻市,狐崎浜,ミヤギケン,イシノマキシ,キツネザキハマ,宮城県石巻市狐崎浜
9862346,宮城県,石巻市,竹浜,ミヤギケン,イシノマキシ,タケノハマ,宮城県石巻市竹浜
9862347,宮城県,石巻市,牧浜,ミヤギケン,イシノマキシ,マキノハマ,宮城県石巻市牧浜
9862351,宮城県,石巻市,侍浜,ミヤギケン,イシノマキシ,サムライハマ,宮城県石巻市侍浜
9862352,宮城県,石巻市,月浦,ミヤギケン,イシノマキシ,ツキノウラ,宮城県石巻市月浦
9862353,宮城県,石巻市,桃浦,ミヤギケン,イシノマキシ,モモノウラ,宮城県石巻市桃浦
9862354,宮城県,石巻市,蛤浜,ミヤギケン,イシノマキシ,ハマグリハマ,宮城県石巻市蛤浜
9862355,宮城県,石巻市,折浜,ミヤギケン,イシノマキシ,オリノハマ,宮城県石巻市折浜
9862401,宮城県,石巻市,泊浜,ミヤギケン,イシノマキシ,トマリハマ,宮城県石巻市泊浜
9862402,宮城県,石巻市,谷川浜,ミヤギケン,イシノマキシ,ヤガワハマ,宮城県石巻市谷川浜
9862403,宮城県,石巻市,鮫浦,ミヤギケン,イシノマキシ,サメノウラ,宮城県石巻市鮫浦
9862404,宮城県,石巻市,寄磯浜,ミヤギケン,イシノマキシ,ヨリイソハマ,宮城県石巻市寄磯浜
9862405,宮城県,石巻市,大谷川浜,ミヤギケン,イシノマキシ,オオヤガワハマ,宮城県石巻市大谷川浜
9862406,宮城県,石巻市,前網浜,ミヤギケン,イシノマキシ,マエアミハマ,宮城県石巻市前網浜
9862411,宮城県,石巻市,給分浜,ミヤギケン,イシノマキシ,キュウブンハマ,宮城県石巻市給分浜
9862412,宮城県,石巻市,大原浜,ミヤギケン,イシノマキシ,オオハラハマ,宮城県石巻市大原浜
9862413,宮城県,石巻市,清水田浜,ミヤギケン,イシノマキシ,シミズダハマ,宮城県石巻市清水田浜
9862414,宮城県,石巻市,小網倉浜,ミヤギケン,イシノマキシ,コアミクラハマ,宮城県石巻市小網倉浜
9862415,宮城県,石巻市,小渕浜,ミヤギケン,イシノマキシ,コブチハマ,宮城県石巻市小渕浜
9862521,宮城県,石巻市,新山浜,ミヤギケン,イシノマキシ,ニイヤマハマ,宮城県石巻市新山浜
9862522,宮城県,石巻市,鮎川大町,ミヤギケン,イシノマキシ,アユカワオオマチ,宮城県石巻市鮎川大町
9862523,宮城県,石巻市,鮎川浜,ミヤギケン,イシノマキシ,アユカワハマ,宮城県石巻市鮎川浜
9862524,宮城県,石巻市,鮎川浜丁,ミヤギケン,イシノマキシ,アユカワハマチョウ,宮城県石巻市鮎川浜丁
9862525,宮城県,石巻市,長渡浜,ミヤギケン,イシノマキシ,フタワタシハマ,宮城県石巻市長渡浜
9862526,宮城県,石巻市,網地浜,ミヤギケン,イシノマキシ,アジハマ,宮城県石巻市網地浜
9862527,宮城県,石巻市,十八成浜,ミヤギケン,イシノマキシ,クグナリハマ,宮城県石巻市十八成浜
9870000,宮城県,遠田郡美里町,,ミヤギケン,トオダグンミサトマチ,,宮城県遠田郡美里町
9870001,宮城県,遠田郡美里町,藤ケ崎,ミヤギケン,トオダグンミサトマチ,フジガサキ,宮城県遠田郡美里町藤ケ崎
9870002,宮城県,遠田郡美里町,藤ケ崎町,ミヤギケン,トオダグンミサトマチ,フジガサキチョウ,宮城県遠田郡美里町藤ケ崎町
9870003,宮城県,遠田郡美里町,南小牛田,ミヤギケン,トオダグンミサトマチ,ミナミコゴタ,宮城県遠田郡美里町南小牛田
9870004,宮城県,遠田郡美里町,牛飼,ミヤギケン,トオダグンミサトマチ,ウシカイ,宮城県遠田郡美里町牛飼
9870005,宮城県,遠田郡美里町,北浦,ミヤギケン,トオダグンミサトマチ,キタウラ,宮城県遠田郡美里町北浦
9870006,宮城県,遠田郡美里町,関根,ミヤギケン,トオダグンミサトマチ,セキネ,宮城県遠田郡美里町関根
9870011,宮城県,遠田郡美里町,桜木町,ミヤギケン,トオダグンミサトマチ,サクラギチョウ,宮城県遠田郡美里町桜木町
9870012,宮城県,遠田郡美里町,素山町,ミヤギケン,トオダグンミサトマチ,ソヤマチョウ,宮城県遠田郡美里町素山町
9870013,宮城県,遠田郡美里町,素山,ミヤギケン,トオダグンミサトマチ,ソヤマ,宮城県遠田郡美里町素山
9870014,宮城県,遠田郡美里町,志賀町,ミヤギケン,トオダグンミサトマチ,シガチョウ,宮城県遠田郡美里町志賀町
9870015,宮城県,遠田郡美里町,青生,ミヤギケン,トオダグンミサトマチ,アオウ,宮城県遠田郡美里町青生
9870021,宮城県,遠田郡美里町,平針,ミヤギケン,トオダグンミサトマチ,ヒラバリ,宮城県遠田郡美里町平針
9870022,宮城県,遠田郡美里町,荻埣,ミヤギケン,トオダグンミサトマチ,オギゾネ,宮城県遠田郡美里町荻埣
9870024,宮城県,遠田郡美里町,中埣,ミヤギケン,トオダグンミサトマチ,ナカゾネ,宮城県遠田郡美里町中埣
9870024,宮城県,遠田郡美里町,成田,ミヤギケン,トオダグンミサトマチ,ナリタ,宮城県遠田郡美里町成田
9870025,宮城県,遠田郡美里町,中高城,ミヤギケン,トオダグンミサトマチ,ナカタカギ,宮城県遠田郡美里町中高城
9870026,宮城県,遠田郡美里町,南高城,ミヤギケン,トオダグンミサトマチ,ミナミタカギ,宮城県遠田郡美里町南高城
9870031,宮城県,遠田郡美里町,高田,ミヤギケン,トオダグンミサトマチ,タカダ,宮城県遠田郡美里町高田
9870032,宮城県,遠田郡美里町,学田,ミヤギケン,トオダグンミサトマチ,ガクデン,宮城県遠田郡美里町学田
9870033,宮城県,遠田郡美里町,小町井,ミヤギケン,トオダグンミサトマチ,コマチイ,宮城県遠田郡美里町小町井
9870034,宮城県,遠田郡美里町,化粧坂,ミヤギケン,トオダグンミサトマチ,ケショウザカ,宮城県遠田郡美里町化粧坂
9870035,宮城県,遠田郡美里町,志賀殿,ミヤギケン,トオダグンミサトマチ,シガデン,宮城県遠田郡美里町志賀殿
9870036,宮城県,遠田郡美里町,妻の神,ミヤギケン,トオダグンミサトマチ,サイノカミ,宮城県遠田郡美里町妻の神
9870037,宮城県,遠田郡美里町,新藤ケ崎,ミヤギケン,トオダグンミサトマチ,シンフジガサキ,宮城県遠田郡美里町新藤ケ崎
9870038,宮城県,遠田郡美里町,駅東,ミヤギケン,トオダグンミサトマチ,エキヒガシ,宮城県遠田郡美里町駅東
9870041,宮城県,遠田郡美里町,峯山,ミヤギケン,トオダグンミサトマチ,ミネヤマ,宮城県遠田郡美里町峯山
9870042,宮城県,遠田郡美里町,峯山浦,ミヤギケン,トオダグンミサトマチ,ミネヤマウラ,宮城県遠田郡美里町峯山浦
9870043,宮城県,遠田郡美里町,新妻の神,ミヤギケン,トオダグンミサトマチ,シンサイノカミ,宮城県遠田郡美里町新妻の神
9870044,宮城県,遠田郡美里町,西舘,ミヤギケン,トオダグンミサトマチ,ニシダテ,宮城県遠田郡美里町西舘
9870045,宮城県,遠田郡美里町,内役田,ミヤギケン,トオダグンミサトマチ,ウチヤクデン,宮城県遠田郡美里町内役田
9870046,宮城県,遠田郡美里町,役田,ミヤギケン,トオダグンミサトマチ,ヤクデン,宮城県遠田郡美里町役田
9870051,宮城県,遠田郡美里町,上意江,ミヤギケン,トオダグンミサトマチ,ジョウイエ,宮城県遠田郡美里町上意江
9870052,宮城県,遠田郡美里町,砂子田,ミヤギケン,トオダグンミサトマチ,スナゴダ,宮城県遠田郡美里町砂子田
9870053,宮城県,遠田郡美里町,叔廼前,ミヤギケン,トオダグンミサトマチ,シュクノマエ,宮城県遠田郡美里町叔廼前
9870054,宮城県,遠田郡美里町,塔の越,ミヤギケン,トオダグンミサトマチ,トウノコシ,宮城県遠田郡美里町塔の越
9870055,宮城県,遠田郡美里町,新一本柳,ミヤギケン,トオダグンミサトマチ,シンイッポンヤナギ,宮城県遠田郡美里町新一本柳
9870056,宮城県,遠田郡美里町,一本柳,ミヤギケン,トオダグンミサトマチ,イッポンヤナギ,宮城県遠田郡美里町一本柳
9870057,宮城県,遠田郡美里町,狐山,ミヤギケン,トオダグンミサトマチ,キツネヤマ,宮城県遠田郡美里町狐山
9870058,宮城県,遠田郡美里町,塩釜,ミヤギケン,トオダグンミサトマチ,シオガマ,宮城県遠田郡美里町塩釜
9870059,宮城県,遠田郡美里町,塩釜添,ミヤギケン,トオダグンミサトマチ,シオガマゾエ,宮城県遠田郡美里町塩釜添
9870061,宮城県,遠田郡美里町,下境,ミヤギケン,トオダグンミサトマチ,シモサカイ,宮城県遠田郡美里町下境
9870062,宮城県,遠田郡美里町,待井,ミヤギケン,トオダグンミサトマチ,マチイ,宮城県遠田郡美里町待井
9870063,宮城県,遠田郡美里町,小沼,ミヤギケン,トオダグンミサトマチ,コヌマ,宮城県遠田郡美里町小沼
9870064,宮城県,遠田郡美里町,小沼添,ミヤギケン,トオダグンミサトマチ,コヌマゾイ,宮城県遠田郡美里町小沼添
9870065,宮城県,遠田郡美里町,勘堂,ミヤギケン,トオダグンミサトマチ,カンドウ,宮城県遠田郡美里町勘堂
9870066,宮城県,遠田郡美里町,二ツ檀,ミヤギケン,トオダグンミサトマチ,フタツダン,宮城県遠田郡美里町二ツ檀
9870067,宮城県,遠田郡美里町,大所,ミヤギケン,トオダグンミサトマチ,ダイドコロ,宮城県遠田郡美里町大所
9870068,宮城県,遠田郡美里町,新大所,ミヤギケン,トオダグンミサトマチ,シンダイドコロ,宮城県遠田郡美里町新大所
9870069,宮城県,遠田郡美里町,北原,ミヤギケン,トオダグンミサトマチ,キタハラ,宮城県遠田郡美里町北原
9870100,宮城県,遠田郡涌谷町,,ミヤギケン,トオダグンワクヤチョウ,,宮城県遠田郡涌谷町
9870101,宮城県,遠田郡涌谷町,桜町裏,ミヤギケン,トオダグンワクヤチョウ,サクラチョウウラ,宮城県遠田郡涌谷町桜町裏
9870102,宮城県,遠田郡涌谷町,表桜町,ミヤギケン,トオダグンワクヤチョウ,オモテサクラチョウ,宮城県遠田郡涌谷町表桜町
9870103,宮城県,遠田郡涌谷町,裏桜町,ミヤギケン,トオダグンワクヤチョウ,ウラサクラチョウ,宮城県遠田郡涌谷町裏桜町
9870104,宮城県,遠田郡涌谷町,田沼町,ミヤギケン,トオダグンワクヤチョウ,タヌマチョウ,宮城県遠田郡涌谷町田沼町
9870105,宮城県,遠田郡涌谷町,練丑町,ミヤギケン,トオダグンワクヤチョウ,ネリウシチョウ,宮城県遠田郡涌谷町練丑町
9870106,宮城県,遠田郡涌谷町,六軒町,ミヤギケン,トオダグンワクヤチョウ,ロッケンチョウ,宮城県遠田郡涌谷町六軒町
9870107,宮城県,遠田郡涌谷町,六軒町裏,ミヤギケン,トオダグンワクヤチョウ,ロッケンチョウウラ,宮城県遠田郡涌谷町六軒町裏
9870111,宮城県,遠田郡涌谷町,柳町,ミヤギケン,トオダグンワクヤチョウ,ヤナギチョウ,宮城県遠田郡涌谷町柳町
9870112,宮城県,遠田郡涌谷町,桑木荒,ミヤギケン,トオダグンワクヤチョウ,クワノキアラ,宮城県遠田郡涌谷町桑木荒
9870113,宮城県,遠田郡涌谷町,古道下二本杉,ミヤギケン,トオダグンワクヤチョウ,フルミチシタニホンスギ,宮城県遠田郡涌谷町古道下二本杉
9870113,宮城県,遠田郡涌谷町,渋江,ミヤギケン,トオダグンワクヤチョウ,シブエ,宮城県遠田郡涌谷町渋江
9870114,宮城県,遠田郡涌谷町,新町裏,ミヤギケン,トオダグンワクヤチョウ,シンマチウラ,宮城県遠田郡涌谷町新町裏
9870115,宮城県,遠田郡涌谷町,新町,ミヤギケン,トオダグンワクヤチョウ,シンマチ,宮城県遠田郡涌谷町新町
9870121,宮城県,遠田郡涌谷町,涌谷,ミヤギケン,トオダグンワクヤチョウ,ワクヤ,宮城県遠田郡涌谷町涌谷
9870130,宮城県,遠田郡涌谷町,新九軒前,ミヤギケン,トオダグンワクヤチョウ,シンクケンマエ,宮城県遠田郡涌谷町新九軒前
9870131,宮城県,遠田郡涌谷町,北田,ミヤギケン,トオダグンワクヤチョウ,キタダ,宮城県遠田郡涌谷町北田
9870132,宮城県,遠田郡涌谷町,小谷地,ミヤギケン,トオダグンワクヤチョウ,コヤチ,宮城県遠田郡涌谷町小谷地
9870132,宮城県,遠田郡涌谷町,蔵人沖名,ミヤギケン,トオダグンワクヤチョウ,クランドオキナ,宮城県遠田郡涌谷町蔵人沖名
9870133,宮城県,遠田郡涌谷町,今左衛門沖名,ミヤギケン,トオダグンワクヤチョウ,コンザエモンオキナ,宮城県遠田郡涌谷町今左衛門沖名
9870133,宮城県,遠田郡涌谷町,台所橋道下,ミヤギケン,トオダグンワクヤチョウ,ダイドコロバシミチシタ,宮城県遠田郡涌谷町台所橋道下
9870133,宮城県,遠田郡涌谷町,後藤江,ミヤギケン,トオダグンワクヤチョウ,ゴトウエ,宮城県遠田郡涌谷町後藤江
9870133,宮城県,遠田郡涌谷町,掃部沖名,ミヤギケン,トオダグンワクヤチョウ,カモンオキナ,宮城県遠田郡涌谷町掃部沖名
9870133,宮城県,遠田郡涌谷町,新田,ミヤギケン,トオダグンワクヤチョウ,シンデン,宮城県遠田郡涌谷町新田
9870133,宮城県,遠田郡涌谷町,赤間屋敷,ミヤギケン,トオダグンワクヤチョウ,アカマヤシキ,宮城県遠田郡涌谷町赤間屋敷
9870133,宮城県,遠田郡涌谷町,関谷沖名,ミヤギケン,トオダグンワクヤチョウ,セキヤオキナ,宮城県遠田郡涌谷町関谷沖名
9870133,宮城県,遠田郡涌谷町,鷹野橋下中瀬,ミヤギケン,トオダグンワクヤチョウ,タカノバシシモナカゼ,宮城県遠田郡涌谷町鷹野橋下中瀬
9870134,宮城県,遠田郡涌谷町,九軒,ミヤギケン,トオダグンワクヤチョウ,クケン,宮城県遠田郡涌谷町九軒
9870134,宮城県,遠田郡涌谷町,二歩,ミヤギケン,トオダグンワクヤチョウ,ニブ,宮城県遠田郡涌谷町二歩
9870134,宮城県,遠田郡涌谷町,五反田,ミヤギケン,トオダグンワクヤチョウ,ゴタンダ,宮城県遠田郡涌谷町五反田
9870134,宮城県,遠田郡涌谷町,佐山木,ミヤギケン,トオダグンワクヤチョウ,サヤマギ,宮城県遠田郡涌谷町佐山木
9870134,宮城県,遠田郡涌谷町,北五反田,ミヤギケン,トオダグンワクヤチョウ,キタゴタンダ,宮城県遠田郡涌谷町北五反田
9870134,宮城県,遠田郡涌谷町,地不足道,ミヤギケン,トオダグンワクヤチョウ,ジブソクミチ,宮城県遠田郡涌谷町地不足道
9870134,宮城県,遠田郡涌谷町,蘭場谷地,ミヤギケン,トオダグンワクヤチョウ,ランバヤチ,宮城県遠田郡涌谷町蘭場谷地
9870134,宮城県,遠田郡涌谷町,西谷地,ミヤギケン,トオダグンワクヤチョウ,ニシヤチ,宮城県遠田郡涌谷町西谷地
9870135,宮城県,遠田郡涌谷町,三十軒,ミヤギケン,トオダグンワクヤチョウ,サンジュッケン,宮城県遠田郡涌谷町三十軒
9870135,宮城県,遠田郡涌谷町,小蓋谷地,ミヤギケン,トオダグンワクヤチョウ,コブタヤチ,宮城県遠田郡涌谷町小蓋谷地
9870136,宮城県,遠田郡涌谷町,一本柳,ミヤギケン,トオダグンワクヤチョウ,イッポンヤナギ,宮城県遠田郡涌谷町一本柳
9870137,宮城県,遠田郡涌谷町,中島,ミヤギケン,トオダグンワクヤチョウ,ナカジマ,宮城県遠田郡涌谷町中島
9870137,宮城県,遠田郡涌谷町,中島乙,ミヤギケン,トオダグンワクヤチョウ,ナカジマオツ,宮城県遠田郡涌谷町中島乙
9870137,宮城県,遠田郡涌谷町,中島川前,ミヤギケン,トオダグンワクヤチョウ,ナカジマカワマエ,宮城県遠田郡涌谷町中島川前
9870137,宮城県,遠田郡涌谷町,中島甲,ミヤギケン,トオダグンワクヤチョウ,ナカジマコウ,宮城県遠田郡涌谷町中島甲
9870137,宮城県,遠田郡涌谷町,新中島乙,ミヤギケン,トオダグンワクヤチョウ,シンナカジマオツ,宮城県遠田郡涌谷町新中島乙
9870138,宮城県,遠田郡涌谷町,新境堀下,ミヤギケン,トオダグンワクヤチョウ,シンサカイボリシタ,宮城県遠田郡涌谷町新境堀下
9870139,宮城県,遠田郡涌谷町,新台所橋,ミヤギケン,トオダグンワクヤチョウ,シンダイドコロバシ,宮城県遠田郡涌谷町新台所橋
9870140,宮城県,遠田郡涌谷町,新沖新田,ミヤギケン,トオダグンワクヤチョウ,シンオキシンデン,宮城県遠田郡涌谷町新沖新田
9870141,宮城県,遠田郡涌谷町,田町裏,ミヤギケン,トオダグンワクヤチョウ,タマチウラ,宮城県遠田郡涌谷町田町裏
9870142,宮城県,遠田郡涌谷町,浦町,ミヤギケン,トオダグンワクヤチョウ,ウラマチ,宮城県遠田郡涌谷町浦町
9870143,宮城県,遠田郡涌谷町,長柄町,ミヤギケン,トオダグンワクヤチョウ,ナガエチョウ,宮城県遠田郡涌谷町長柄町
9870144,宮城県,遠田郡涌谷町,下新田,ミヤギケン,トオダグンワクヤチョウ,シモシンデン,宮城県遠田郡涌谷町下新田
9870144,宮城県,遠田郡涌谷町,八百刈,ミヤギケン,トオダグンワクヤチョウ,ハッピャクガリ,宮城県遠田郡涌谷町八百刈
9870144,宮城県,遠田郡涌谷町,小山下,ミヤギケン,トオダグンワクヤチョウ,コヤマシタ,宮城県遠田郡涌谷町小山下
9870144,宮城県,遠田郡涌谷町,沖新田,ミヤギケン,トオダグンワクヤチョウ,オキシンデン,宮城県遠田郡涌谷町沖新田
9870144,宮城県,遠田郡涌谷町,砂田,ミヤギケン,トオダグンワクヤチョウ,スナタ,宮城県遠田郡涌谷町砂田
9870144,宮城県,遠田郡涌谷町,薔薇島,ミヤギケン,トオダグンワクヤチョウ,バラジマ,宮城県遠田郡涌谷町薔薇島
9870145,宮城県,遠田郡涌谷町,名鰭,ミヤギケン,トオダグンワクヤチョウ,ナビレ,宮城県遠田郡涌谷町名鰭
9870145,宮城県,遠田郡涌谷町,尾切,ミヤギケン,トオダグンワクヤチョウ,オギレ,宮城県遠田郡涌谷町尾切
9870145,宮城県,遠田郡涌谷町,市道,ミヤギケン,トオダグンワクヤチョウ,イチミチ,宮城県遠田郡涌谷町市道
9870145,宮城県,遠田郡涌谷町,新名鰭,ミヤギケン,トオダグンワクヤチョウ,シンナビレ,宮城県遠田郡涌谷町新名鰭
9870145,宮城県,遠田郡涌谷町,新尾切,ミヤギケン,トオダグンワクヤチョウ,シンオギレ,宮城県遠田郡涌谷町新尾切
9870145,宮城県,遠田郡涌谷町,烏鴉,ミヤギケン,トオダグンワクヤチョウ,ウガラス,宮城県遠田郡涌谷町烏鴉
9870145,宮城県,遠田郡涌谷町,花勝山,ミヤギケン,トオダグンワクヤチョウ,ケカツヤマ,宮城県遠田郡涌谷町花勝山
9870145,宮城県,遠田郡涌谷町,鞍掛,ミヤギケン,トオダグンワクヤチョウ,クラガケ,宮城県遠田郡涌谷町鞍掛
9870146,宮城県,遠田郡涌谷町,中下道,ミヤギケン,トオダグンワクヤチョウ,ナカゲドウ,宮城県遠田郡涌谷町中下道
9870147,宮城県,遠田郡涌谷町,下道,ミヤギケン,トオダグンワクヤチョウ,ゲドウ,宮城県遠田郡涌谷町下道
9870148,宮城県,遠田郡涌谷町,三軒屋敷,ミヤギケン,トオダグンワクヤチョウ,サンゲンヤシキ,宮城県遠田郡涌谷町三軒屋敷
9870149,宮城県,遠田郡涌谷町,新後藤江,ミヤギケン,トオダグンワクヤチョウ,シンゴトウエ,宮城県遠田郡涌谷町新後藤江
9870151,宮城県,遠田郡涌谷町,小塚,ミヤギケン,トオダグンワクヤチョウ,コヅカ,宮城県遠田郡涌谷町小塚
9870161,宮城県,遠田郡涌谷町,川原町,ミヤギケン,トオダグンワクヤチョウ,カワラマチ,宮城県遠田郡涌谷町川原町
9870162,宮城県,遠田郡涌谷町,本町,ミヤギケン,トオダグンワクヤチョウ,モトマチ,宮城県遠田郡涌谷町本町
9870163,宮城県,遠田郡涌谷町,立町,ミヤギケン,トオダグンワクヤチョウ,タツチョウ,宮城県遠田郡涌谷町立町
9870164,宮城県,遠田郡涌谷町,刈萱町,ミヤギケン,トオダグンワクヤチョウ,カルカヤチョウ,宮城県遠田郡涌谷町刈萱町
9870165,宮城県,遠田郡涌谷町,追廻町,ミヤギケン,トオダグンワクヤチョウ,オイマワシチョウ,宮城県遠田郡涌谷町追廻町
9870171,宮城県,遠田郡涌谷町,上郡,ミヤギケン,トオダグンワクヤチョウ,カミゴオリ,宮城県遠田郡涌谷町上郡
9870172,宮城県,遠田郡涌谷町,下郡,ミヤギケン,トオダグンワクヤチョウ,シモゴオリ,宮城県遠田郡涌谷町下郡
9870281,宮城県,遠田郡涌谷町,小里,ミヤギケン,トオダグンワクヤチョウ,オサト,宮城県遠田郡涌谷町小里
9870282,宮城県,遠田郡涌谷町,太田,ミヤギケン,トオダグンワクヤチョウ,オオタ,宮城県遠田郡涌谷町太田
9870283,宮城県,遠田郡涌谷町,吉住,ミヤギケン,トオダグンワクヤチョウ,ヨシズミ,宮城県遠田郡涌谷町吉住
9870284,宮城県,遠田郡涌谷町,猪岡短台,ミヤギケン,トオダグンワクヤチョウ,イノオカタンダイ,宮城県遠田郡涌谷町猪岡短台
9870285,宮城県,遠田郡涌谷町,箟岳,ミヤギケン,トオダグンワクヤチョウ,ノノダケ,宮城県遠田郡涌谷町箟岳
9870286,宮城県,遠田郡涌谷町,成沢,ミヤギケン,トオダグンワクヤチョウ,ナリサワ,宮城県遠田郡涌谷町成沢
9870301,宮城県,登米市,米山町善王寺,ミヤギケン,トメシ,ヨネヤマチョウゼンノウジ,宮城県登米市米山町善王寺
9870302,宮城県,登米市,米山町櫓場,ミヤギケン,トメシ,ヨネヤマチョウヤグラバ,宮城県登米市米山町櫓場
9870302,宮城県,登米市,米山町櫓場下,ミヤギケン,トメシ,ヨネヤマチョウヤグラバシタ,宮城県登米市米山町櫓場下
9870302,宮城県,登米市,米山町沼田,ミヤギケン,トメシ,ヨネヤマチョウヌマタ,宮城県登米市米山町沼田
9870303,宮城県,登米市,米山町田畑前,ミヤギケン,トメシ,ヨネヤマチョウタバタマエ,宮城県登米市米山町田畑前
9870303,宮城県,登米市,米山町田畑西,ミヤギケン,トメシ,ヨネヤマチョウタバタニシ,宮城県登米市米山町田畑西
9870304,宮城県,登米市,米山町中道前,ミヤギケン,トメシ,ヨネヤマチョウナカミチマエ,宮城県登米市米山町中道前
9870304,宮城県,登米市,米山町中道東,ミヤギケン,トメシ,ヨネヤマチョウナカミチヒガシ,宮城県登米市米山町中道東
9870304,宮城県,登米市,米山町内,ミヤギケン,トメシ,ヨネヤマチョウウチ,宮城県登米市米山町内
9870305,宮城県,登米市,米山町八反,ミヤギケン,トメシ,ヨネヤマチョウハッタン,宮城県登米市米山町八反
9870305,宮城県,登米市,米山町川前,ミヤギケン,トメシ,ヨネヤマチョウカワマエ,宮城県登米市米山町川前
9870305,宮城県,登米市,米山町水門,ミヤギケン,トメシ,ヨネヤマチョウスイモン,宮城県登米市米山町水門
9870306,宮城県,登米市,米山町土佐ケ渕,ミヤギケン,トメシ,ヨネヤマチョウトサガフチ,宮城県登米市米山町土佐ケ渕
9870306,宮城県,登米市,米山町地蔵川,ミヤギケン,トメシ,ヨネヤマチョウジゾウガワ,宮城県登米市米山町地蔵川
9870307,宮城県,登米市,米山町愛宕下,ミヤギケン,トメシ,ヨネヤマチョウアタゴシタ,宮城県登米市米山町愛宕下
9870307,宮城県,登米市,米山町愛宕前,ミヤギケン,トメシ,ヨネヤマチョウアタゴマエ,宮城県登米市米山町愛宕前
9870307,宮城県,登米市,米山町犬子松,ミヤギケン,トメシ,ヨネヤマチョウイヌコマツ,宮城県登米市米山町犬子松
9870307,宮城県,登米市,米山町猿ケ崎,ミヤギケン,トメシ,ヨネヤマチョウサルガサキ,宮城県登米市米山町猿ケ崎
9870308,宮城県,登米市,米山町小待井,ミヤギケン,トメシ,ヨネヤマチョウコマチイ,宮城県登米市米山町小待井
9870308,宮城県,登米市,米山町小待井下,ミヤギケン,トメシ,ヨネヤマチョウコマチイシタ,宮城県登米市米山町小待井下
9870308,宮城県,登米市,米山町待井下,ミヤギケン,トメシ,ヨネヤマチョウマチイシタ,宮城県登米市米山町待井下
9870309,宮城県,登米市,米山町舘下,ミヤギケン,トメシ,ヨネヤマチョウダテシタ,宮城県登米市米山町舘下
9870309,宮城県,登米市,米山町舘前,ミヤギケン,トメシ,ヨネヤマチョウダテマエ,宮城県登米市米山町舘前
9870311,宮城県,登米市,米山町桜岡,ミヤギケン,トメシ,ヨネヤマチョウサクラオカ,宮城県登米市米山町桜岡
9870321,宮城県,登米市,米山町西野,ミヤギケン,トメシ,ヨネヤマチョウニシノ,宮城県登米市米山町西野
9870331,宮城県,登米市,米山町中津山,ミヤギケン,トメシ,ヨネヤマチョウナカツヤマ,宮城県登米市米山町中津山
9870341,宮城県,登米市,豊里町十二沢,ミヤギケン,トメシ,トヨサトチョウジュウニサワ,宮城県登米市豊里町十二沢
9870341,宮城県,登米市,豊里町大沢,ミヤギケン,トメシ,トヨサトチョウオオサワ,宮城県登米市豊里町大沢
9870341,宮城県,登米市,豊里町大沢沼田,ミヤギケン,トメシ,トヨサトチョウオオサワヌマタ,宮城県登米市豊里町大沢沼田
9870341,宮城県,登米市,豊里町大沢谷岐,ミヤギケン,トメシ,トヨサトチョウオオサワヤギ,宮城県登米市豊里町大沢谷岐
9870341,宮城県,登米市,豊里町竹ノ沢,ミヤギケン,トメシ,トヨサトチョウタケノサワ,宮城県登米市豊里町竹ノ沢
9870342,宮城県,登米市,豊里町山根,ミヤギケン,トメシ,トヨサトチョウヤマネ,宮城県登米市豊里町山根
9870342,宮城県,登米市,豊里町山根前,ミヤギケン,トメシ,トヨサトチョウヤマネマエ,宮城県登米市豊里町山根前
9870343,宮城県,登米市,豊里町小谷地,ミヤギケン,トメシ,トヨサトチョウコヤチ,宮城県登米市豊里町小谷地
9870343,宮城県,登米市,豊里町沢尻,ミヤギケン,トメシ,トヨサトチョウサワジリ,宮城県登米市豊里町沢尻
9870344,宮城県,登米市,豊里町佐野,ミヤギケン,トメシ,トヨサトチョウサノ,宮城県登米市豊里町佐野
9870344,宮城県,登米市,豊里町境沢,ミヤギケン,トメシ,トヨサトチョウサカイザワ,宮城県登米市豊里町境沢
9870344,宮城県,登米市,豊里町迫,ミヤギケン,トメシ,トヨサトチョウハサマ,宮城県登米市豊里町迫
9870345,宮城県,登米市,豊里町中谷岐,ミヤギケン,トメシ,トヨサトチョウナカヤギ,宮城県登米市豊里町中谷岐
9870345,宮城県,登米市,豊里町福沢,ミヤギケン,トメシ,トヨサトチョウフクサワ,宮城県登米市豊里町福沢
9870346,宮城県,登米市,豊里町白鳥,ミヤギケン,トメシ,トヨサトチョウシロトリ,宮城県登米市豊里町白鳥
9870346,宮城県,登米市,豊里町白鳥前,ミヤギケン,トメシ,トヨサトチョウシロトリマエ,宮城県登米市豊里町白鳥前
9870346,宮城県,登米市,豊里町白鳥山,ミヤギケン,トメシ,トヨサトチョウシラトリヤマ,宮城県登米市豊里町白鳥山
9870351,宮城県,登米市,豊里町久寿田,ミヤギケン,トメシ,トヨサトチョウクスダ,宮城県登米市豊里町久寿田
9870351,宮城県,登米市,豊里町久寿田前,ミヤギケン,トメシ,トヨサトチョウクスダマエ,宮城県登米市豊里町久寿田前
9870352,宮城県,登米市,豊里町寿崎,ミヤギケン,トメシ,トヨサトチョウスサキ,宮城県登米市豊里町寿崎
9870353,宮城県,登米市,豊里町大椚,ミヤギケン,トメシ,トヨサトチョウオオクヌギ,宮城県登米市豊里町大椚
9870353,宮城県,登米市,豊里町平林,ミヤギケン,トメシ,トヨサトチョウヒラバヤシ,宮城県登米市豊里町平林
9870353,宮城県,登米市,豊里町笑沢,ミヤギケン,トメシ,トヨサトチョウエミサワ,宮城県登米市豊里町笑沢
9870354,宮城県,登米市,豊里町上沼田,ミヤギケン,トメシ,トヨサトチョウウワヌマタ,宮城県登米市豊里町上沼田
9870354,宮城県,登米市,豊里町下沼田,ミヤギケン,トメシ,トヨサトチョウシモヌマタ,宮城県登米市豊里町下沼田
9870354,宮城県,登米市,豊里町中沼田,ミヤギケン,トメシ,トヨサトチョウナカヌマダ,宮城県登米市豊里町中沼田
9870354,宮城県,登米市,豊里町昭和,ミヤギケン,トメシ,トヨサトチョウショウワ,宮城県登米市豊里町昭和
9870354,宮城県,登米市,豊里町沼田,ミヤギケン,トメシ,トヨサトチョウヌマタ,宮城県登米市豊里町沼田
9870355,宮城県,登米市,豊里町保手,ミヤギケン,トメシ,トヨサトチョウホデ,宮城県登米市豊里町保手
9870355,宮城県,登米市,豊里町後沢田,ミヤギケン,トメシ,トヨサトチョウウシロサワダ,宮城県登米市豊里町後沢田
9870356,宮城県,登米市,豊里町杢沢,ミヤギケン,トメシ,トヨサトチョウモクサワ,宮城県登米市豊里町杢沢
9870356,宮城県,登米市,豊里町芝下,ミヤギケン,トメシ,トヨサトチョウシバシタ,宮城県登米市豊里町芝下
9870357,宮城県,登米市,豊里町蕪木,ミヤギケン,トメシ,トヨサトチョウカブキ,宮城県登米市豊里町蕪木
9870357,宮城県,登米市,豊里町鳥越,ミヤギケン,トメシ,トヨサトチョウトリゴエ,宮城県登米市豊里町鳥越
9870358,宮城県,登米市,豊里町加々巻,ミヤギケン,トメシ,トヨサトチョウカガマキ,宮城県登米市豊里町加々巻
9870358,宮城県,登米市,豊里町小巻,ミヤギケン,トメシ,トヨサトチョウコマキ,宮城県登米市豊里町小巻
9870358,宮城県,登米市,豊里町新加々巻,ミヤギケン,トメシ,トヨサトチョウシンカガマキ,宮城県登米市豊里町新加々巻
9870358,宮城県,登米市,豊里町長根浦,ミヤギケン,トメシ,トヨサトチョウナガネウラ,宮城県登米市豊里町長根浦
9870359,宮城県,登米市,豊里町八反,ミヤギケン,トメシ,トヨサトチョウハツタン,宮城県登米市豊里町八反
9870359,宮城県,登米市,豊里町本地八反,ミヤギケン,トメシ,トヨサトチョウホンチハツタン,宮城県登米市豊里町本地八反
9870361,宮城県,登米市,豊里町新田町,ミヤギケン,トメシ,トヨサトチョウシンデンマチ,宮城県登米市豊里町新田町
9870362,宮城県,登米市,豊里町上町裏,ミヤギケン,トメシ,トヨサトチョウカミマチウラ,宮城県登米市豊里町上町裏
9870362,宮城県,登米市,豊里町小口前,ミヤギケン,トメシ,トヨサトチョウコグチマエ,宮城県登米市豊里町小口前
9870362,宮城県,登米市,豊里町東待井下,ミヤギケン,トメシ,トヨサトチョウヒガシマチイシタ,宮城県登米市豊里町東待井下
9870363,宮城県,登米市,豊里町五反田,ミヤギケン,トメシ,トヨサトチョウゴタンダ,宮城県登米市豊里町五反田
9870363,宮城県,登米市,豊里町横町,ミヤギケン,トメシ,トヨサトチョウヨコチョウ,宮城県登米市豊里町横町
9870364,宮城県,登米市,豊里町下古屋,ミヤギケン,トメシ,トヨサトチョウシモコヤ,宮城県登米市豊里町下古屋
9870364,宮城県,登米市,豊里町土手下,ミヤギケン,トメシ,トヨサトチョウドテシタ,宮城県登米市豊里町土手下
9870364,宮城県,登米市,豊里町本地土手下,ミヤギケン,トメシ,トヨサトチョウホンチドテシタ,宮城県登米市豊里町本地土手下
9870365,宮城県,登米市,豊里町新町,ミヤギケン,トメシ,トヨサトチョウシンマチ,宮城県登米市豊里町新町
9870366,宮城県,登米市,豊里町上屋浦,ミヤギケン,トメシ,トヨサトチョウカミヤウラ,宮城県登米市豊里町上屋浦
9870366,宮城県,登米市,豊里町下屋浦,ミヤギケン,トメシ,トヨサトチョウシモヤウラ,宮城県登米市豊里町下屋浦
9870366,宮城県,登米市,豊里町浦軒,ミヤギケン,トメシ,トヨサトチョウウラケン,宮城県登米市豊里町浦軒
9870367,宮城県,登米市,豊里町川前,ミヤギケン,トメシ,トヨサトチョウカワマエ,宮城県登米市豊里町川前
9870368,宮城県,登米市,豊里町七ツ塚,ミヤギケン,トメシ,トヨサトチョウナナツヅカ,宮城県登米市豊里町七ツ塚
9870368,宮城県,登米市,豊里町南町浦,ミヤギケン,トメシ,トヨサトチョウミナミマチウラ,宮城県登米市豊里町南町浦
9870368,宮城県,登米市,豊里町町浦,ミヤギケン,トメシ,トヨサトチョウマチウラ,宮城県登米市豊里町町浦
9870371,宮城県,登米市,豊里町十丁田,ミヤギケン,トメシ,トヨサトチョウジッチョウダ,宮城県登米市豊里町十丁田
9870371,宮城県,登米市,豊里町唐崎,ミヤギケン,トメシ,トヨサトチョウカラサキ,宮城県登米市豊里町唐崎
9870371,宮城県,登米市,豊里町大曲,ミヤギケン,トメシ,トヨサトチョウオオマガリ,宮城県登米市豊里町大曲
9870372,宮城県,登米市,豊里町前田,ミヤギケン,トメシ,トヨサトチョウマエダ,宮城県登米市豊里町前田
9870372,宮城県,登米市,豊里町西前田,ミヤギケン,トメシ,トヨサトチョウニシマエダ,宮城県登米市豊里町西前田
9870373,宮城県,登米市,豊里町内町浦,ミヤギケン,トメシ,トヨサトチョウウチマチウラ,宮城県登米市豊里町内町浦
9870373,宮城県,登米市,豊里町切津,ミヤギケン,トメシ,トヨサトチョウキツツ,宮城県登米市豊里町切津
9870373,宮城県,登米市,豊里町南切津,ミヤギケン,トメシ,トヨサトチョウミナミキツツ,宮城県登米市豊里町南切津
9870374,宮城県,登米市,豊里町東二ツ屋,ミヤギケン,トメシ,トヨサトチョウヒガシフタツヤ,宮城県登米市豊里町東二ツ屋
9870375,宮城県,登米市,豊里町二ツ屋,ミヤギケン,トメシ,トヨサトチョウフタツヤ,宮城県登米市豊里町二ツ屋
9870376,宮城県,登米市,豊里町新細沼,ミヤギケン,トメシ,トヨサトチョウシンホソヌマ,宮城県登米市豊里町新細沼
9870376,宮城県,登米市,豊里町細沼,ミヤギケン,トメシ,トヨサトチョウホソヌマ,宮城県登米市豊里町細沼
9870376,宮城県,登米市,豊里町細沼田,ミヤギケン,トメシ,トヨサトチョウホソヌマタ,宮城県登米市豊里町細沼田
9870377,宮城県,登米市,豊里町内一番江,ミヤギケン,トメシ,トヨサトチョウウチイチバンエ,宮城県登米市豊里町内一番江
9870377,宮城県,登米市,豊里町外一番江,ミヤギケン,トメシ,トヨサトチョウソトイチバンエ,宮城県登米市豊里町外一番江
9870378,宮城県,登米市,豊里町新田鏡形,ミヤギケン,トメシ,トヨサトチョウシンデンカガミガタ,宮城県登米市豊里町新田鏡形
9870378,宮城県,登米市,豊里町鏡形,ミヤギケン,トメシ,トヨサトチョウカガミガタ,宮城県登米市豊里町鏡形
9870379,宮城県,登米市,豊里町剣先,ミヤギケン,トメシ,トヨサトチョウケンザキ,宮城県登米市豊里町剣先
9870381,宮城県,登米市,豊里町新長前,ミヤギケン,トメシ,トヨサトチョウシンナガマエ,宮城県登米市豊里町新長前
9870381,宮城県,登米市,豊里町長前,ミヤギケン,トメシ,トヨサトチョウナガマエ,宮城県登米市豊里町長前
9870382,宮城県,登米市,豊里町上谷地,ミヤギケン,トメシ,トヨサトチョウカミヤチ,宮城県登米市豊里町上谷地
9870383,宮城県,登米市,豊里町外七番江,ミヤギケン,トメシ,トヨサトチョウソトナナバンエ,宮城県登米市豊里町外七番江
9870383,宮城県,登米市,豊里町外三番江,ミヤギケン,トメシ,トヨサトチョウソトサンバンエ,宮城県登米市豊里町外三番江
9870383,宮城県,登米市,豊里町外二番江,ミヤギケン,トメシ,トヨサトチョウソトニバンエ,宮城県登米市豊里町外二番江
9870383,宮城県,登米市,豊里町外五番江,ミヤギケン,トメシ,トヨサトチョウソトゴバンエ,宮城県登米市豊里町外五番江
9870383,宮城県,登米市,豊里町外八番江,ミヤギケン,トメシ,トヨサトチョウソトハチバンエ,宮城県登米市豊里町外八番江
9870383,宮城県,登米市,豊里町外六番江,ミヤギケン,トメシ,トヨサトチョウソトロクバンエ,宮城県登米市豊里町外六番江
9870383,宮城県,登米市,豊里町外四番江,ミヤギケン,トメシ,トヨサトチョウソトヨンバンエ,宮城県登米市豊里町外四番江
9870384,宮城県,登米市,豊里町十五貫,ミヤギケン,トメシ,トヨサトチョウジュウゴカン,宮城県登米市豊里町十五貫
9870384,宮城県,登米市,豊里町十五貫谷地,ミヤギケン,トメシ,トヨサトチョウジュウゴカンヤチ,宮城県登米市豊里町十五貫谷地
9870385,宮城県,登米市,豊里町下九,ミヤギケン,トメシ,トヨサトチョウシモギュウ,宮城県登米市豊里町下九
9870385,宮城県,登米市,豊里町内田,ミヤギケン,トメシ,トヨサトチョウウチタ,宮城県登米市豊里町内田
9870385,宮城県,登米市,豊里町内畑,ミヤギケン,トメシ,トヨサトチョウウチハタ,宮城県登米市豊里町内畑
9870401,宮城県,登米市,南方町八の森,ミヤギケン,トメシ,ミナミカタマチハチノモリ,宮城県登米市南方町八の森
9870401,宮城県,登米市,南方町山成,ミヤギケン,トメシ,ミナミカタマチヤマナリ,宮城県登米市南方町山成
9870401,宮城県,登米市,南方町山成前,ミヤギケン,トメシ,ミナミカタマチヤマナリマエ,宮城県登米市南方町山成前
9870401,宮城県,登米市,南方町新高石前,ミヤギケン,トメシ,ミナミカタマチシンタカイシマエ,宮城県登米市南方町新高石前
9870401,宮城県,登米市,南方町西山成,ミヤギケン,トメシ,ミナミカタマチニシヤマナリ,宮城県登米市南方町西山成
9870401,宮城県,登米市,南方町西山成前,ミヤギケン,トメシ,ミナミカタマチニシヤマナリマエ,宮城県登米市南方町西山成前
9870401,宮城県,登米市,南方町高石,ミヤギケン,トメシ,ミナミカタマチタカイシ,宮城県登米市南方町高石
9870401,宮城県,登米市,南方町高石浦,ミヤギケン,トメシ,ミナミカタマチタカイシウラ,宮城県登米市南方町高石浦
9870402,宮城県,登米市,南方町中山,ミヤギケン,トメシ,ミナミカタマチナカヤマ,宮城県登米市南方町中山
9870402,宮城県,登米市,南方町待井,ミヤギケン,トメシ,ミナミカタマチマチイ,宮城県登米市南方町待井
9870402,宮城県,登米市,南方町後屋敷待井,ミヤギケン,トメシ,ミナミカタマチウシロヤシキマチイ,宮城県登米市南方町後屋敷待井
9870402,宮城県,登米市,南方町戸根屋敷,ミヤギケン,トメシ,ミナミカタマチトネヤシキ,宮城県登米市南方町戸根屋敷
9870402,宮城県,登米市,南方町新沢田,ミヤギケン,トメシ,ミナミカタマチシンサワダ,宮城県登米市南方町新沢田
9870402,宮城県,登米市,南方町松島屋敷,ミヤギケン,トメシ,ミナミカタマチマツシマヤシキ,宮城県登米市南方町松島屋敷
9870402,宮城県,登米市,南方町板倉,ミヤギケン,トメシ,ミナミカタマチイタクラ,宮城県登米市南方町板倉
9870402,宮城県,登米市,南方町板倉後,ミヤギケン,トメシ,ミナミカタマチイタクラウシロ,宮城県登米市南方町板倉後
9870402,宮城県,登米市,南方町沢田,ミヤギケン,トメシ,ミナミカタマチサワダ,宮城県登米市南方町沢田
9870402,宮城県,登米市,南方町沢田前,ミヤギケン,トメシ,ミナミカタマチサワダマエ,宮城県登米市南方町沢田前
9870402,宮城県,登米市,南方町沢田屋敷,ミヤギケン,トメシ,ミナミカタマチサワダヤシキ,宮城県登米市南方町沢田屋敷
9870402,宮城県,登米市,南方町沢田待井,ミヤギケン,トメシ,ミナミカタマチサワダマチイ,宮城県登米市南方町沢田待井
9870402,宮城県,登米市,南方町鶴代,ミヤギケン,トメシ,ミナミカタマチツルシロ,宮城県登米市南方町鶴代
9870403,宮城県,登米市,南方町二ツ橋,ミヤギケン,トメシ,ミナミカタマチフタツバシ,宮城県登米市南方町二ツ橋
9870403,宮城県,登米市,南方町内ノ目,ミヤギケン,トメシ,ミナミカタマチウチノメ,宮城県登米市南方町内ノ目
9870403,宮城県,登米市,南方町小山,ミヤギケン,トメシ,ミナミカタマチコヤマ,宮城県登米市南方町小山
9870403,宮城県,登米市,南方町峯,ミヤギケン,トメシ,ミナミカタマチミネ,宮城県登米市南方町峯
9870403,宮城県,登米市,南方町河面,ミヤギケン,トメシ,ミナミカタマチカワヅラ,宮城県登米市南方町河面
9870403,宮城県,登米市,南方町王塚,ミヤギケン,トメシ,ミナミカタマチオオツカ,宮城県登米市南方町王塚
9870403,宮城県,登米市,南方町薬師島屋敷,ミヤギケン,トメシ,ミナミカタマチヤクシジマヤシキ,宮城県登米市南方町薬師島屋敷
9870403,宮城県,登米市,南方町鴻ノ木,ミヤギケン,トメシ,ミナミカタマチコウノキ,宮城県登米市南方町鴻ノ木
9870403,宮城県,登米市,南方町鶴江,ミヤギケン,トメシ,ミナミカタマチツルエ,宮城県登米市南方町鶴江
9870404,宮城県,登米市,南方町新丸ノ内,ミヤギケン,トメシ,ミナミカタマチシンマルノウチ,宮城県登米市南方町新丸ノ内
9870404,宮城県,登米市,南方町新島前,ミヤギケン,トメシ,ミナミカタマチシンシママエ,宮城県登米市南方町新島前
9870405,宮城県,登米市,南方町新中山,ミヤギケン,トメシ,ミナミカタマチシンナカヤマ,宮城県登米市南方町新中山
9870411,宮城県,登米市,南方町天沼,ミヤギケン,トメシ,ミナミカタマチアマヌマ,宮城県登米市南方町天沼
9870411,宮城県,登米市,南方町寺袋,ミヤギケン,トメシ,ミナミカタマチテラブクロ,宮城県登米市南方町寺袋
9870411,宮城県,登米市,南方町瀬ノ淵,ミヤギケン,トメシ,ミナミカタマチセノフチ,宮城県登米市南方町瀬ノ淵
9870412,宮城県,登米市,南方町上ケ戸,ミヤギケン,トメシ,ミナミカタマチアガト,宮城県登米市南方町上ケ戸
9870412,宮城県,登米市,南方町大涌戸,ミヤギケン,トメシ,ミナミカタマチオオワクド,宮城県登米市南方町大涌戸
9870412,宮城県,登米市,南方町大門,ミヤギケン,トメシ,ミナミカタマチダイモン,宮城県登米市南方町大門
9870412,宮城県,登米市,南方町峯前,ミヤギケン,トメシ,ミナミカタマチミネマエ,宮城県登米市南方町峯前
9870412,宮城県,登米市,南方町照井,ミヤギケン,トメシ,ミナミカタマチテルイ,宮城県登米市南方町照井
9870412,宮城県,登米市,南方町雷,ミヤギケン,トメシ,ミナミカタマチイカズチ,宮城県登米市南方町雷
9870413,宮城県,登米市,南方町上原,ミヤギケン,トメシ,ミナミカタマチカミハラ,宮城県登米市南方町上原
9870413,宮城県,登米市,南方町下原前,ミヤギケン,トメシ,ミナミカタマチシモハラマエ,宮城県登米市南方町下原前
9870413,宮城県,登米市,南方町中原,ミヤギケン,トメシ,ミナミカタマチナカハラ,宮城県登米市南方町中原
9870413,宮城県,登米市,南方町原,ミヤギケン,トメシ,ミナミカタマチハラ,宮城県登米市南方町原
9870413,宮城県,登米市,南方町原前,ミヤギケン,トメシ,ミナミカタマチハラマエ,宮城県登米市南方町原前
9870413,宮城県,登米市,南方町原屋敷,ミヤギケン,トメシ,ミナミカタマチハラヤシキ,宮城県登米市南方町原屋敷
9870413,宮城県,登米市,南方町原浦,ミヤギケン,トメシ,ミナミカタマチハラウラ,宮城県登米市南方町原浦
9870413,宮城県,登米市,南方町宿畑,ミヤギケン,トメシ,ミナミカタマチシュクバタ,宮城県登米市南方町宿畑
9870414,宮城県,登米市,南方町内鰐丸,ミヤギケン,トメシ,ミナミカタマチウチワニマル,宮城県登米市南方町内鰐丸
9870414,宮城県,登米市,南方町大村,ミヤギケン,トメシ,ミナミカタマチオオムラ,宮城県登米市南方町大村
9870414,宮城県,登米市,南方町大村前,ミヤギケン,トメシ,ミナミカタマチオオムラマエ,宮城県登米市南方町大村前
9870414,宮城県,登米市,南方町山成浦,ミヤギケン,トメシ,ミナミカタマチヤマナリウラ,宮城県登米市南方町山成浦
9870414,宮城県,登米市,南方町新山成浦,ミヤギケン,トメシ,ミナミカタマチシンヤマナリウラ,宮城県登米市南方町新山成浦
9870414,宮城県,登米市,南方町松葉,ミヤギケン,トメシ,ミナミカタマチマツバ,宮城県登米市南方町松葉
9870414,宮城県,登米市,南方町松葉前,ミヤギケン,トメシ,ミナミカタマチマツバマエ,宮城県登米市南方町松葉前
9870414,宮城県,登米市,南方町松葉表,ミヤギケン,トメシ,ミナミカタマチマツバオモテ,宮城県登米市南方町松葉表
9870414,宮城県,登米市,南方町鰐丸,ミヤギケン,トメシ,ミナミカタマチワニマル,宮城県登米市南方町鰐丸
9870415,宮城県,登米市,南方町真ケ沼,ミヤギケン,トメシ,ミナミカタマチマガヌマ,宮城県登米市南方町真ケ沼
9870421,宮城県,登米市,南方町仕込,ミヤギケン,トメシ,ミナミカタマチシコミ,宮城県登米市南方町仕込
9870421,宮城県,登米市,南方町南大畑前,ミヤギケン,トメシ,ミナミカタマチミナミオオバタマエ,宮城県登米市南方町南大畑前
9870421,宮城県,登米市,南方町大畑,ミヤギケン,トメシ,ミナミカタマチオオバタ,宮城県登米市南方町大畑
9870421,宮城県,登米市,南方町新井宿,ミヤギケン,トメシ,ミナミカタマチニイジュク,宮城県登米市南方町新井宿
9870422,宮城県,登米市,南方町大畠前,ミヤギケン,トメシ,ミナミカタマチオオハタマエ,宮城県登米市南方町大畠前
9870422,宮城県,登米市,南方町室田,ミヤギケン,トメシ,ミナミカタマチムロタ,宮城県登米市南方町室田
9870422,宮城県,登米市,南方町山崎,ミヤギケン,トメシ,ミナミカタマチヤマザキ,宮城県登米市南方町山崎
9870422,宮城県,登米市,南方町川前,ミヤギケン,トメシ,ミナミカタマチカワマエ,宮城県登米市南方町川前
9870422,宮城県,登米市,南方町新大畑前,ミヤギケン,トメシ,ミナミカタマチシンオオバタマエ,宮城県登米市南方町新大畑前
9870422,宮城県,登米市,南方町新田,ミヤギケン,トメシ,ミナミカタマチシンデン,宮城県登米市南方町新田
9870422,宮城県,登米市,南方町東川前,ミヤギケン,トメシ,ミナミカタマチヒガシカワマエ,宮城県登米市南方町東川前
9870422,宮城県,登米市,南方町瀬川,ミヤギケン,トメシ,ミナミカタマチセガワ,宮城県登米市南方町瀬川
9870422,宮城県,登米市,南方町蛇沼,ミヤギケン,トメシ,ミナミカタマチヘビヌマ,宮城県登米市南方町蛇沼
9870423,宮城県,登米市,南方町ぜん荷前,ミヤギケン,トメシ,ミナミカタマチゼンカマエ,宮城県登米市南方町ぜん荷前
9870423,宮城県,登米市,南方町ぜん荷山,ミヤギケン,トメシ,ミナミカタマチゼンカヤマ,宮城県登米市南方町ぜん荷山
9870423,宮城県,登米市,南方町堀切,ミヤギケン,トメシ,ミナミカタマチホッキリ,宮城県登米市南方町堀切
9870423,宮城県,登米市,南方町堂地,ミヤギケン,トメシ,ミナミカタマチドウチ,宮城県登米市南方町堂地
9870423,宮城県,登米市,南方町堂地前,ミヤギケン,トメシ,ミナミカタマチドウチマエ,宮城県登米市南方町堂地前
9870423,宮城県,登米市,南方町大嶽,ミヤギケン,トメシ,ミナミカタマチオオダケ,宮城県登米市南方町大嶽
9870423,宮城県,登米市,南方町大嶽前,ミヤギケン,トメシ,ミナミカタマチオオダケマエ,宮城県登米市南方町大嶽前
9870423,宮城県,登米市,南方町大嶽山,ミヤギケン,トメシ,ミナミカタマチオオダケヤマ,宮城県登米市南方町大嶽山
9870423,宮城県,登米市,南方町本郷大嶽,ミヤギケン,トメシ,ミナミカタマチホンゴウオオダケ,宮城県登米市南方町本郷大嶽
9870423,宮城県,登米市,南方町烏田,ミヤギケン,トメシ,ミナミカタマチカラスダ,宮城県登米市南方町烏田
9870423,宮城県,登米市,南方町館,ミヤギケン,トメシ,ミナミカタマチタテ,宮城県登米市南方町館
9870424,宮城県,登米市,南方町南沢,ミヤギケン,トメシ,ミナミカタマチミナミザワ,宮城県登米市南方町南沢
9870424,宮城県,登米市,南方町南細川,ミヤギケン,トメシ,ミナミカタマチミナミホソカワ,宮城県登米市南方町南細川
9870424,宮城県,登米市,南方町細川,ミヤギケン,トメシ,ミナミカタマチホソカワ,宮城県登米市南方町細川
9870424,宮城県,登米市,南方町細川前,ミヤギケン,トメシ,ミナミカタマチホソカワマエ,宮城県登米市南方町細川前
9870424,宮城県,登米市,南方町細川浦,ミヤギケン,トメシ,ミナミカタマチホソカワウラ,宮城県登米市南方町細川浦
9870424,宮城県,登米市,南方町風張,ミヤギケン,トメシ,ミナミカタマチカザハリ,宮城県登米市南方町風張
9870424,宮城県,登米市,南方町館浦,ミヤギケン,トメシ,ミナミカタマチタテウラ,宮城県登米市南方町館浦
9870425,宮城県,登米市,南方町上砥落,ミヤギケン,トメシ,ミナミカタマチカミトオトシ,宮城県登米市南方町上砥落
9870425,宮城県,登米市,南方町下砥落,ミヤギケン,トメシ,ミナミカタマチシモトオトシ,宮城県登米市南方町下砥落
9870425,宮城県,登米市,南方町十二山,ミヤギケン,トメシ,ミナミカタマチジュウニヤマ,宮城県登米市南方町十二山
9870425,宮城県,登米市,南方町新上砥落,ミヤギケン,トメシ,ミナミカタマチシンカミトオトシ,宮城県登米市南方町新上砥落
9870425,宮城県,登米市,南方町新砥落,ミヤギケン,トメシ,ミナミカタマチシントオトシ,宮城県登米市南方町新砥落
9870425,宮城県,登米市,南方町梶沼,ミヤギケン,トメシ,ミナミカタマチカジヌマ,宮城県登米市南方町梶沼
9870425,宮城県,登米市,南方町梶沼前,ミヤギケン,トメシ,ミナミカタマチカジヌママエ,宮城県登米市南方町梶沼前
9870425,宮城県,登米市,南方町梶沼川前,ミヤギケン,トメシ,ミナミカタマチカジヌマカワマエ,宮城県登米市南方町梶沼川前
9870425,宮城県,登米市,南方町沼向,ミヤギケン,トメシ,ミナミカタマチヌマムカイ,宮城県登米市南方町沼向
9870425,宮城県,登米市,南方町田中浦,ミヤギケン,トメシ,ミナミカタマチタナカウラ,宮城県登米市南方町田中浦
9870425,宮城県,登米市,南方町砥落,ミヤギケン,トメシ,ミナミカタマチトオトシ,宮城県登米市南方町砥落
9870425,宮城県,登米市,南方町米袋,ミヤギケン,トメシ,ミナミカタマチヨネブクロ,宮城県登米市南方町米袋
9870425,宮城県,登米市,南方町米袋前,ミヤギケン,トメシ,ミナミカタマチヨネブクロマエ,宮城県登米市南方町米袋前
9870425,宮城県,登米市,南方町米袋浦,ミヤギケン,トメシ,ミナミカタマチヨネブクロウラ,宮城県登米市南方町米袋浦
9870426,宮城県,登米市,南方町大袋,ミヤギケン,トメシ,ミナミカタマチオオブクロ,宮城県登米市南方町大袋
9870426,宮城県,登米市,南方町大袋浦,ミヤギケン,トメシ,ミナミカタマチオオブクロウラ,宮城県登米市南方町大袋浦
9870426,宮城県,登米市,南方町成田,ミヤギケン,トメシ,ミナミカタマチナリタ,宮城県登米市南方町成田
9870426,宮城県,登米市,南方町樟,ミヤギケン,トメシ,ミナミカタマチクヌギ,宮城県登米市南方町樟
9870426,宮城県,登米市,南方町樟土手外,ミヤギケン,トメシ,ミナミカタマチクヌギドテソト,宮城県登米市南方町樟土手外
9870426,宮城県,登米市,南方町若狭前,ミヤギケン,トメシ,ミナミカタマチワカサマエ,宮城県登米市南方町若狭前
9870431,宮城県,登米市,南方町一ノ曲,ミヤギケン,トメシ,ミナミカタマチイチノマガリ,宮城県登米市南方町一ノ曲
9870431,宮城県,登米市,南方町大埣,ミヤギケン,トメシ,ミナミカタマチオオゾネ,宮城県登米市南方町大埣
9870431,宮城県,登米市,南方町太田,ミヤギケン,トメシ,ミナミカタマチオオタ,宮城県登米市南方町太田
9870431,宮城県,登米市,南方町新一ノ曲,ミヤギケン,トメシ,ミナミカタマチシンイチノマガリ,宮城県登米市南方町新一ノ曲
9870431,宮城県,登米市,南方町横前,ミヤギケン,トメシ,ミナミカタマチヨコマエ,宮城県登米市南方町横前
9870432,宮城県,登米市,南方町上窪田,ミヤギケン,トメシ,ミナミカタマチカミクボタ,宮城県登米市南方町上窪田
9870432,宮城県,登米市,南方町堤田,ミヤギケン,トメシ,ミナミカタマチツツミタ,宮城県登米市南方町堤田
9870432,宮城県,登米市,南方町新畑岡下,ミヤギケン,トメシ,ミナミカタマチシンハタオカシタ,宮城県登米市南方町新畑岡下
9870432,宮城県,登米市,南方町狼掛,ミヤギケン,トメシ,ミナミカタマチオイノガケ,宮城県登米市南方町狼掛
9870432,宮城県,登米市,南方町畑岡,ミヤギケン,トメシ,ミナミカタマチハタオカ,宮城県登米市南方町畑岡
9870432,宮城県,登米市,南方町畑岡下,ミヤギケン,トメシ,ミナミカタマチハタオカシタ,宮城県登米市南方町畑岡下
9870432,宮城県,登米市,南方町窪田,ミヤギケン,トメシ,ミナミカタマチクボタ,宮城県登米市南方町窪田
9870432,宮城県,登米市,南方町青笹,ミヤギケン,トメシ,ミナミカタマチアオザサ,宮城県登米市南方町青笹
9870433,宮城県,登米市,南方町中ノ口,ミヤギケン,トメシ,ミナミカタマチナカノクチ,宮城県登米市南方町中ノ口
9870433,宮城県,登米市,南方町大平,ミヤギケン,トメシ,ミナミカタマチオオダイラ,宮城県登米市南方町大平
9870433,宮城県,登米市,南方町大平前,ミヤギケン,トメシ,ミナミカタマチオオダイラマエ,宮城県登米市南方町大平前
9870433,宮城県,登米市,南方町沼崎,ミヤギケン,トメシ,ミナミカタマチヌマサキ,宮城県登米市南方町沼崎
9870433,宮城県,登米市,南方町沼崎前,ミヤギケン,トメシ,ミナミカタマチヌマサキマエ,宮城県登米市南方町沼崎前
9870433,宮城県,登米市,南方町長者原,ミヤギケン,トメシ,ミナミカタマチチョウジャハラ,宮城県登米市南方町長者原
9870441,宮城県,登米市,南方町新青島前,ミヤギケン,トメシ,ミナミカタマチシンアオシママエ,宮城県登米市南方町新青島前
9870441,宮城県,登米市,南方町新鳩峯,ミヤギケン,トメシ,ミナミカタマチシンハトミネ,宮城県登米市南方町新鳩峯
9870441,宮城県,登米市,南方町青島前,ミヤギケン,トメシ,ミナミカタマチアオシママエ,宮城県登米市南方町青島前
9870441,宮城県,登米市,南方町青島屋敷,ミヤギケン,トメシ,ミナミカタマチアオシマヤシキ,宮城県登米市南方町青島屋敷
9870441,宮城県,登米市,南方町青島待井,ミヤギケン,トメシ,ミナミカタマチアオシママチイ,宮城県登米市南方町青島待井
9870442,宮城県,登米市,南方町中高石,ミヤギケン,トメシ,ミナミカタマチナカタカイシ,宮城県登米市南方町中高石
9870442,宮城県,登米市,南方町中高石浦,ミヤギケン,トメシ,ミナミカタマチナカタカイシウラ,宮城県登米市南方町中高石浦
9870442,宮城県,登米市,南方町後高石,ミヤギケン,トメシ,ミナミカタマチウシロタカイシ,宮城県登米市南方町後高石
9870442,宮城県,登米市,南方町茶臼森,ミヤギケン,トメシ,ミナミカタマチチャウスモリ,宮城県登米市南方町茶臼森
9870442,宮城県,登米市,南方町茶臼森前,ミヤギケン,トメシ,ミナミカタマチチャウスモリマエ,宮城県登米市南方町茶臼森前
9870443,宮城県,登米市,南方町一網,ミヤギケン,トメシ,ミナミカタマチイチアジ,宮城県登米市南方町一網
9870443,宮城県,登米市,南方町外浦,ミヤギケン,トメシ,ミナミカタマチソトウラ,宮城県登米市南方町外浦
9870443,宮城県,登米市,南方町大坂前,ミヤギケン,トメシ,ミナミカタマチオオザカマエ,宮城県登米市南方町大坂前
9870443,宮城県,登米市,南方町大西,ミヤギケン,トメシ,ミナミカタマチオオニシ,宮城県登米市南方町大西
9870443,宮城県,登米市,南方町新野谷地,ミヤギケン,トメシ,ミナミカタマチシンノヤチ,宮城県登米市南方町新野谷地
9870443,宮城県,登米市,南方町板ケ沢,ミヤギケン,トメシ,ミナミカタマチイタガサワ,宮城県登米市南方町板ケ沢
9870443,宮城県,登米市,南方町苔野谷地,ミヤギケン,トメシ,ミナミカタマチコケノヤチ,宮城県登米市南方町苔野谷地
9870443,宮城県,登米市,南方町表前,ミヤギケン,トメシ,ミナミカタマチオモテマエ,宮城県登米市南方町表前
9870443,宮城県,登米市,南方町野谷地,ミヤギケン,トメシ,ミナミカタマチノヤチ,宮城県登米市南方町野谷地
9870443,宮城県,登米市,南方町長根,ミヤギケン,トメシ,ミナミカタマチナガネ,宮城県登米市南方町長根
9870443,宮城県,登米市,南方町長根下,ミヤギケン,トメシ,ミナミカタマチナガネシタ,宮城県登米市南方町長根下
9870444,宮城県,登米市,南方町三代前,ミヤギケン,トメシ,ミナミカタマチサンダイマエ,宮城県登米市南方町三代前
9870444,宮城県,登米市,南方町下新山,ミヤギケン,トメシ,ミナミカタマチシモシンザン,宮城県登米市南方町下新山
9870444,宮城県,登米市,南方町大上,ミヤギケン,トメシ,ミナミカタマチオオガミ,宮城県登米市南方町大上
9870444,宮城県,登米市,南方町大森前,ミヤギケン,トメシ,ミナミカタマチオオモリマエ,宮城県登米市南方町大森前
9870444,宮城県,登米市,南方町実沢,ミヤギケン,トメシ,ミナミカタマチミサワ,宮城県登米市南方町実沢
9870444,宮城県,登米市,南方町尼池,ミヤギケン,トメシ,ミナミカタマチアマイケ,宮城県登米市南方町尼池
9870444,宮城県,登米市,南方町柳沢,ミヤギケン,トメシ,ミナミカタマチヤナギサワ,宮城県登米市南方町柳沢
9870444,宮城県,登米市,南方町柳沢前,ミヤギケン,トメシ,ミナミカタマチヤナギサワマエ,宮城県登米市南方町柳沢前
9870444,宮城県,登米市,南方町横代,ミヤギケン,トメシ,ミナミカタマチヨコダイ,宮城県登米市南方町横代
9870444,宮城県,登米市,南方町角欠前,ミヤギケン,トメシ,ミナミカタマチツノガケマエ,宮城県登米市南方町角欠前
9870444,宮城県,登米市,南方町間内,ミヤギケン,トメシ,ミナミカタマチマウチ,宮城県登米市南方町間内
9870444,宮城県,登米市,南方町間内前,ミヤギケン,トメシ,ミナミカタマチマウチマエ,宮城県登米市南方町間内前
9870445,宮城県,登米市,南方町上平貝,ミヤギケン,トメシ,ミナミカタマチカミヒラガイ,宮城県登米市南方町上平貝
9870445,宮城県,登米市,南方町下平貝,ミヤギケン,トメシ,ミナミカタマチシモヒラガイ,宮城県登米市南方町下平貝
9870445,宮城県,登米市,南方町中須崎,ミヤギケン,トメシ,ミナミカタマチナカスサキ,宮城県登米市南方町中須崎
9870445,宮城県,登米市,南方町平貝,ミヤギケン,トメシ,ミナミカタマチヒラガイ,宮城県登米市南方町平貝
9870445,宮城県,登米市,南方町翌沢,ミヤギケン,トメシ,ミナミカタマチヨクサワ,宮城県登米市南方町翌沢
9870445,宮城県,登米市,南方町銭金壇,ミヤギケン,トメシ,ミナミカタマチゼニガネダン,宮城県登米市南方町銭金壇
9870446,宮城県,登米市,南方町新高石浦,ミヤギケン,トメシ,ミナミカタマチシンタカイシウラ,宮城県登米市南方町新高石浦
9870447,宮城県,登米市,南方町新長根下,ミヤギケン,トメシ,ミナミカタマチシンナガネシタ,宮城県登米市南方町新長根下
9870500,宮城県,登米市,,ミヤギケン,トメシ,,宮城県登米市
9870511,宮城県,登米市,迫町佐沼,ミヤギケン,トメシ,ハサマチョウサヌマ,宮城県登米市迫町佐沼
9870512,宮城県,登米市,迫町森,ミヤギケン,トメシ,ハサマチョウモリ,宮城県登米市迫町森
9870513,宮城県,登米市,迫町北方,ミヤギケン,トメシ,ハサマチョウキタカタ,宮城県登米市迫町北方
9870601,宮城県,登米市,中田町石森,ミヤギケン,トメシ,ナカダチョウイシノモリ,宮城県登米市中田町石森
9870602,宮城県,登米市,中田町上沼,ミヤギケン,トメシ,ナカダチョウウワヌマ,宮城県登米市中田町上沼
9870611,宮城県,登米市,中田町浅水,ミヤギケン,トメシ,ナカダチョウアサミズ,宮城県登米市中田町浅水
9870621,宮城県,登米市,中田町宝江黒沼,ミヤギケン,トメシ,ナカダチョウタカラエクロヌマ,宮城県登米市中田町宝江黒沼
9870622,宮城県,登米市,中田町宝江新井田,ミヤギケン,トメシ,ナカダチョウタカラエニイダ,宮城県登米市中田町宝江新井田
9870623,宮城県,登米市,中田町宝江森,ミヤギケン,トメシ,ナカダチョウタカラエモリ,宮城県登米市中田町宝江森
9870701,宮城県,登米市,登米町小島,ミヤギケン,トメシ,トヨママチコジマ,宮城県登米市登米町小島
9870702,宮城県,登米市,登米町寺池,ミヤギケン,トメシ,トヨママチテライケ,宮城県登米市登米町寺池
9870703,宮城県,登米市,登米町日根牛,ミヤギケン,トメシ,トヨママチヒネウシ,宮城県登米市登米町日根牛
9870704,宮城県,登米市,登米町日野渡,ミヤギケン,トメシ,トヨママチヒノト,宮城県登米市登米町日野渡
9870901,宮城県,登米市,東和町米川,ミヤギケン,トメシ,トウワチョウヨネカワ,宮城県登米市東和町米川
9870902,宮城県,登米市,東和町米谷,ミヤギケン,トメシ,トウワチョウマイヤ,宮城県登米市東和町米谷
9870903,宮城県,登米市,東和町錦織,ミヤギケン,トメシ,トウワチョウニシキオリ,宮城県登米市東和町錦織
9871101,宮城県,石巻市,前谷地,ミヤギケン,イシノマキシ,マエヤチ,宮城県石巻市前谷地
9871102,宮城県,石巻市,和渕,ミヤギケン,イシノマキシ,ワブチ,宮城県石巻市和渕
9871103,宮城県,石巻市,北村,ミヤギケン,イシノマキシ,キタムラ,宮城県石巻市北村
9871221,宮城県,石巻市,須江,ミヤギケン,イシノマキシ,スエ,宮城県石巻市須江
9871222,宮城県,石巻市,広渕,ミヤギケン,イシノマキシ,ヒロブチ,宮城県石巻市広渕
9871301,宮城県,大崎市,松山須摩屋,ミヤギケン,オオサキシ,マツヤマスマヤ,宮城県大崎市松山須摩屋
9871302,宮城県,大崎市,松山長尾,ミヤギケン,オオサキシ,マツヤマナガオ,宮城県大崎市松山長尾
9871303,宮城県,大崎市,松山金谷,ミヤギケン,オオサキシ,マツヤマカナヤ,宮城県大崎市松山金谷
9871304,宮城県,大崎市,松山千石,ミヤギケン,オオサキシ,マツヤマセンゴク,宮城県大崎市松山千石
9871305,宮城県,大崎市,松山次橋,ミヤギケン,オオサキシ,マツヤマツギハシ,宮城県大崎市松山次橋
9871306,宮城県,大崎市,松山下伊場野,ミヤギケン,オオサキシ,マツヤマシモイバノ,宮城県大崎市松山下伊場野
9872001,宮城県,栗原市,高清水蟹沢尻,ミヤギケン,クリハラシ,タカシミズカニサワシリ,宮城県栗原市高清水蟹沢尻
9872002,宮城県,栗原市,高清水八重壁,ミヤギケン,クリハラシ,タカシミズヤエカベ,宮城県栗原市高清水八重壁
9872003,宮城県,栗原市,高清水福塚,ミヤギケン,クリハラシ,タカシミズフクツカ,宮城県栗原市高清水福塚
9872004,宮城県,栗原市,高清水浦南沢,ミヤギケン,クリハラシ,タカシミズウラミナミサワ,宮城県栗原市高清水浦南沢
9872005,宮城県,栗原市,高清水忽滑沢,ミヤギケン,クリハラシ,タカシミズヌカリサワ,宮城県栗原市高清水忽滑沢
9872011,宮城県,栗原市,高清水京の沢,ミヤギケン,クリハラシ,タカシミズキョウノサワ,宮城県栗原市高清水京の沢
9872012,宮城県,栗原市,高清水中の沢,ミヤギケン,クリハラシ,タカシミズナカノサワ,宮城県栗原市高清水中の沢
9872013,宮城県,栗原市,高清水欠屋敷,ミヤギケン,クリハラシ,タカシミズカケヤシキ,宮城県栗原市高清水欠屋敷
9872014,宮城県,栗原市,高清水大沢,ミヤギケン,クリハラシ,タカシミズオオサワ,宮城県栗原市高清水大沢
9872015,宮城県,栗原市,高清水西中里,ミヤギケン,クリハラシ,タカシミズニシナカザト,宮城県栗原市高清水西中里
9872016,宮城県,栗原市,高清水茂路具多,ミヤギケン,クリハラシ,タカシミズモログタ,宮城県栗原市高清水茂路具多
9872017,宮城県,栗原市,高清水石沢,ミヤギケン,クリハラシ,タカシミズイシザワ,宮城県栗原市高清水石沢
9872018,宮城県,栗原市,高清水石沢浦,ミヤギケン,クリハラシ,タカシミズイシザワウラ,宮城県栗原市高清水石沢浦
9872021,宮城県,栗原市,高清水神原,ミヤギケン,クリハラシ,タカシミズカンパラ,宮城県栗原市高清水神原
9872022,宮城県,栗原市,高清水原,ミヤギケン,クリハラシ,タカシミズハラ,宮城県栗原市高清水原
9872023,宮城県,栗原市,高清水熊野堂,ミヤギケン,クリハラシ,タカシミズクマノドウ,宮城県栗原市高清水熊野堂
9872024,宮城県,栗原市,高清水小山田,ミヤギケン,クリハラシ,タカシミズオヤマダ,宮城県栗原市高清水小山田
9872025,宮城県,栗原市,高清水大西,ミヤギケン,クリハラシ,タカシミズオオニシ,宮城県栗原市高清水大西
9872026,宮城県,栗原市,高清水熊野,ミヤギケン,クリハラシ,タカシミズクマノ,宮城県栗原市高清水熊野
9872027,宮城県,栗原市,高清水若宮,ミヤギケン,クリハラシ,タカシミズワカミヤ,宮城県栗原市高清水若宮
9872028,宮城県,栗原市,高清水日向,ミヤギケン,クリハラシ,タカシミズヒナタ,宮城県栗原市高清水日向
9872031,宮城県,栗原市,高清水新田,ミヤギケン,クリハラシ,タカシミズシンデン,宮城県栗原市高清水新田
9872032,宮城県,栗原市,高清水横手,ミヤギケン,クリハラシ,タカシミズヨコテ,宮城県栗原市高清水横手
9872033,宮城県,栗原市,高清水浅野,ミヤギケン,クリハラシ,タカシミズアザノ,宮城県栗原市高清水浅野
9872034,宮城県,栗原市,高清水明官,ミヤギケン,クリハラシ,タカシミズミョウカン,宮城県栗原市高清水明官
9872035,宮城県,栗原市,高清水浅野前,ミヤギケン,クリハラシ,タカシミズアザノマエ,宮城県栗原市高清水浅野前
9872036,宮城県,栗原市,高清水南沢,ミヤギケン,クリハラシ,タカシミズミナミサワ,宮城県栗原市高清水南沢
9872041,宮城県,栗原市,高清水要の森,ミヤギケン,クリハラシ,タカシミズヨウノモリ,宮城県栗原市高清水要の森
9872042,宮城県,栗原市,高清水宿の沢,ミヤギケン,クリハラシ,タカシミズシュクノサワ,宮城県栗原市高清水宿の沢
9872043,宮城県,栗原市,高清水手取,ミヤギケン,クリハラシ,タカシミズテドリ,宮城県栗原市高清水手取
9872044,宮城県,栗原市,高清水堤下,ミヤギケン,クリハラシ,タカシミズツツミシタ,宮城県栗原市高清水堤下
9872045,宮城県,栗原市,高清水西手取,ミヤギケン,クリハラシ,タカシミズニシテトリ,宮城県栗原市高清水西手取
9872051,宮城県,栗原市,高清水三森,ミヤギケン,クリハラシ,タカシミズミモリ,宮城県栗原市高清水三森
9872052,宮城県,栗原市,高清水宮脇,ミヤギケン,クリハラシ,タカシミズミヤノワキ,宮城県栗原市高清水宮脇
9872053,宮城県,栗原市,高清水渕際,ミヤギケン,クリハラシ,タカシミズフチギワ,宮城県栗原市高清水渕際
9872054,宮城県,栗原市,高清水沖,ミヤギケン,クリハラシ,タカシミズオキ,宮城県栗原市高清水沖
9872055,宮城県,栗原市,高清水五月田,ミヤギケン,クリハラシ,タカシミズサツキダ,宮城県栗原市高清水五月田
9872111,宮城県,栗原市,高清水影の沢,ミヤギケン,クリハラシ,タカシミズカゲノサワ,宮城県栗原市高清水影の沢
9872112,宮城県,栗原市,高清水上折木,ミヤギケン,クリハラシ,タカシミズカミオリキ,宮城県栗原市高清水上折木
9872113,宮城県,栗原市,高清水折木,ミヤギケン,クリハラシ,タカシミズオリキ,宮城県栗原市高清水折木
9872114,宮城県,栗原市,高清水下折木,ミヤギケン,クリハラシ,タカシミズシモオリキ,宮城県栗原市高清水下折木
9872115,宮城県,栗原市,高清水一本松,ミヤギケン,クリハラシ,タカシミズイッポンマツ,宮城県栗原市高清水一本松
9872116,宮城県,栗原市,高清水来光沢,ミヤギケン,クリハラシ,タカシミズライコウザワ,宮城県栗原市高清水来光沢
9872121,宮城県,栗原市,高清水上佐野,ミヤギケン,クリハラシ,タカシミズカミサノ,宮城県栗原市高清水上佐野
9872122,宮城県,栗原市,高清水中佐野,ミヤギケン,クリハラシ,タカシミズナカサノ,宮城県栗原市高清水中佐野
9872123,宮城県,栗原市,高清水新佐野,ミヤギケン,クリハラシ,タカシミズシンサノ,宮城県栗原市高清水新佐野
9872124,宮城県,栗原市,高清水下佐野,ミヤギケン,クリハラシ,タカシミズシモサノ,宮城県栗原市高清水下佐野
9872125,宮城県,栗原市,高清水十二の神,ミヤギケン,クリハラシ,タカシミズジュウニノカミ,宮城県栗原市高清水十二の神
9872126,宮城県,栗原市,高清水大寺,ミヤギケン,クリハラシ,タカシミズダイテラ,宮城県栗原市高清水大寺
9872127,宮城県,栗原市,高清水佐野沢田,ミヤギケン,クリハラシ,タカシミズサノサワダ,宮城県栗原市高清水佐野沢田
9872127,宮城県,栗原市,高清水太子堂,ミヤギケン,クリハラシ,タカシミズタイシドウ,宮城県栗原市高清水太子堂
9872128,宮城県,栗原市,高清水佐野丁,ミヤギケン,クリハラシ,タカシミズサノチョウ,宮城県栗原市高清水佐野丁
9872131,宮城県,栗原市,高清水水の手,ミヤギケン,クリハラシ,タカシミズミズノテ,宮城県栗原市高清水水の手
9872132,宮城県,栗原市,高清水東館,ミヤギケン,クリハラシ,タカシミズヒガシタテ,宮城県栗原市高清水東館
9872133,宮城県,栗原市,高清水桜丁,ミヤギケン,クリハラシ,タカシミズサクラチョウ,宮城県栗原市高清水桜丁
9872141,宮城県,栗原市,高清水上外沢田,ミヤギケン,クリハラシ,タカシミズカミソトサワタ,宮城県栗原市高清水上外沢田
9872141,宮城県,栗原市,高清水北甚六原,ミヤギケン,クリハラシ,タカシミズキタジンロクハラ,宮城県栗原市高清水北甚六原
9872142,宮城県,栗原市,高清水外沢田,ミヤギケン,クリハラシ,タカシミズソトサワダ,宮城県栗原市高清水外沢田
9872143,宮城県,栗原市,高清水覚満寺,ミヤギケン,クリハラシ,タカシミズカクマンジ,宮城県栗原市高清水覚満寺
9872144,宮城県,栗原市,高清水台町,ミヤギケン,クリハラシ,タカシミズダイマチ,宮城県栗原市高清水台町
9872145,宮城県,栗原市,高清水向野,ミヤギケン,クリハラシ,タカシミズムカイノ,宮城県栗原市高清水向野
9872146,宮城県,栗原市,高清水丁牧堀,ミヤギケン,クリハラシ,タカシミズテイマキボリ,宮城県栗原市高清水丁牧堀
9872146,宮城県,栗原市,高清水丙牧堀,ミヤギケン,クリハラシ,タカシミズヘイマキボリ,宮城県栗原市高清水丙牧堀
9872146,宮城県,栗原市,高清水乙牧堀,ミヤギケン,クリハラシ,タカシミズオツマキボリ,宮城県栗原市高清水乙牧堀
9872146,宮城県,栗原市,高清水甲牧堀,ミヤギケン,クリハラシ,タカシミズコウマキボリ,宮城県栗原市高清水甲牧堀
9872147,宮城県,栗原市,高清水観音堂,ミヤギケン,クリハラシ,タカシミズカンノンドウ,宮城県栗原市高清水観音堂
9872147,宮城県,栗原市,高清水観音沢,ミヤギケン,クリハラシ,タカシミズカンノンザワ,宮城県栗原市高清水観音沢
9872151,宮城県,栗原市,高清水仰ケ返り,ミヤギケン,クリハラシ,タカシミズムケガエリ,宮城県栗原市高清水仰ケ返り
9872151,宮城県,栗原市,高清水東浦,ミヤギケン,クリハラシ,タカシミズヒガシウラ,宮城県栗原市高清水東浦
9872152,宮城県,栗原市,高清水天王沢,ミヤギケン,クリハラシ,タカシミズテンノウサワ,宮城県栗原市高清水天王沢
9872153,宮城県,栗原市,高清水北原,ミヤギケン,クリハラシ,タカシミズキタハラ,宮城県栗原市高清水北原
9872154,宮城県,栗原市,高清水南原,ミヤギケン,クリハラシ,タカシミズミナミハラ,宮城県栗原市高清水南原
9872155,宮城県,栗原市,高清水萱刈,ミヤギケン,クリハラシ,タカシミズカヤカリ,宮城県栗原市高清水萱刈
9872156,宮城県,栗原市,高清水千神,ミヤギケン,クリハラシ,タカシミズセンガミ,宮城県栗原市高清水千神
9872157,宮城県,栗原市,高清水中の茎,ミヤギケン,クリハラシ,タカシミズナカノクキ,宮城県栗原市高清水中の茎
9872158,宮城県,栗原市,高清水上萩田,ミヤギケン,クリハラシ,タカシミズカミハギタ,宮城県栗原市高清水上萩田
9872158,宮城県,栗原市,高清水新中の茎,ミヤギケン,クリハラシ,タカシミズシンナカノクキ,宮城県栗原市高清水新中の茎
9872158,宮城県,栗原市,高清水本道,ミヤギケン,クリハラシ,タカシミズモトミチ,宮城県栗原市高清水本道
9872159,宮城県,栗原市,高清水松の木沢田,ミヤギケン,クリハラシ,タカシミズマツノキサワダ,宮城県栗原市高清水松の木沢田
9872161,宮城県,栗原市,高清水神明,ミヤギケン,クリハラシ,タカシミズシンメイ,宮城県栗原市高清水神明
9872162,宮城県,栗原市,高清水丁神明,ミヤギケン,クリハラシ,タカシミズテイシンメイ,宮城県栗原市高清水丁神明
9872163,宮城県,栗原市,高清水勝負ケ町,ミヤギケン,クリハラシ,タカシミズショウブガマチ,宮城県栗原市高清水勝負ケ町
9872164,宮城県,栗原市,高清水新神明,ミヤギケン,クリハラシ,タカシミズシンシンメイ,宮城県栗原市高清水新神明
9872171,宮城県,栗原市,高清水長福寺,ミヤギケン,クリハラシ,タカシミズチョウフクジ,宮城県栗原市高清水長福寺
9872172,宮城県,栗原市,高清水松原,ミヤギケン,クリハラシ,タカシミズマツバラ,宮城県栗原市高清水松原
9872173,宮城県,栗原市,高清水桂葉,ミヤギケン,クリハラシ,タカシミズカツラハ,宮城県栗原市高清水桂葉
9872174,宮城県,栗原市,高清水上桂葉,ミヤギケン,クリハラシ,タカシミズカミカツラハ,宮城県栗原市高清水上桂葉
9872175,宮城県,栗原市,高清水五輪,ミヤギケン,クリハラシ,タカシミズゴリン,宮城県栗原市高清水五輪
9872176,宮城県,栗原市,高清水西善光寺,ミヤギケン,クリハラシ,タカシミズニシゼンコウジ,宮城県栗原市高清水西善光寺
9872177,宮城県,栗原市,高清水新桂葉,ミヤギケン,クリハラシ,タカシミズシンカツラハ,宮城県栗原市高清水新桂葉
9872181,宮城県,栗原市,高清水東善光寺,ミヤギケン,クリハラシ,タカシミズヒガシゼンコウジ,宮城県栗原市高清水東善光寺
9872182,宮城県,栗原市,高清水中里,ミヤギケン,クリハラシ,タカシミズナカザト,宮城県栗原市高清水中里
9872183,宮城県,栗原市,高清水袖山,ミヤギケン,クリハラシ,タカシミズソデヤマ,宮城県栗原市高清水袖山
9872184,宮城県,栗原市,高清水善光寺,ミヤギケン,クリハラシ,タカシミズゼンコウジ,宮城県栗原市高清水善光寺
9872185,宮城県,栗原市,高清水新町,ミヤギケン,クリハラシ,タカシミズアラマチ,宮城県栗原市高清水新町
9872186,宮城県,栗原市,高清水中町,ミヤギケン,クリハラシ,タカシミズナカマチ,宮城県栗原市高清水中町
9872187,宮城県,栗原市,高清水本町,ミヤギケン,クリハラシ,タカシミズモトマチ,宮城県栗原市高清水本町
9872188,宮城県,栗原市,高清水小山下,ミヤギケン,クリハラシ,タカシミズオヤマシタ,宮城県栗原市高清水小山下
9872189,宮城県,栗原市,高清水下町,ミヤギケン,クリハラシ,タカシミズシタマチ,宮城県栗原市高清水下町
9872200,宮城県,栗原市,,ミヤギケン,クリハラシ,,宮城県栗原市
9872201,宮城県,栗原市,築館富,ミヤギケン,クリハラシ,ツキダテトミ,宮城県栗原市築館富
9872202,宮城県,栗原市,築館城生野,ミヤギケン,クリハラシ,ツキダテジョウノ,宮城県栗原市築館城生野
9872203,宮城県,栗原市,築館下宮野,ミヤギケン,クリハラシ,ツキダテシモミヤノ,宮城県栗原市築館下宮野
9872204,宮城県,栗原市,築館黒瀬,ミヤギケン,クリハラシ,ツキダテクロセ,宮城県栗原市築館黒瀬
9872205,宮城県,栗原市,築館宮野中央,ミヤギケン,クリハラシ,ツキダテミヤノチュウオウ,宮城県栗原市築館宮野中央
9872211,宮城県,栗原市,築館源光,ミヤギケン,クリハラシ,ツキダテゲンコウ,宮城県栗原市築館源光
9872212,宮城県,栗原市,築館木戸,ミヤギケン,クリハラシ,ツキダテキド,宮城県栗原市築館木戸
9872213,宮城県,栗原市,築館内南沢,ミヤギケン,クリハラシ,ツキダテウチミナミザワ,宮城県栗原市築館内南沢
9872214,宮城県,栗原市,築館内沢,ミヤギケン,クリハラシ,ツキダテウチサワ,宮城県栗原市築館内沢
9872215,宮城県,栗原市,築館高田,ミヤギケン,クリハラシ,ツキダテタカダ,宮城県栗原市築館高田
9872216,宮城県,栗原市,築館伊豆,ミヤギケン,クリハラシ,ツキダテイズ,宮城県栗原市築館伊豆
9872221,宮城県,栗原市,築館下待井,ミヤギケン,クリハラシ,ツキダテシモマチイ,宮城県栗原市築館下待井
9872222,宮城県,栗原市,築館外南沢,ミヤギケン,クリハラシ,ツキダテソトミナミザワ,宮城県栗原市築館外南沢
9872223,宮城県,栗原市,築館萩沢,ミヤギケン,クリハラシ,ツキダテハギサワ,宮城県栗原市築館萩沢
9872224,宮城県,栗原市,築館横須賀,ミヤギケン,クリハラシ,ツキダテヨコスカ,宮城県栗原市築館横須賀
9872225,宮城県,栗原市,築館太田,ミヤギケン,クリハラシ,ツキダテオオタ,宮城県栗原市築館太田
9872226,宮城県,栗原市,築館八沢,ミヤギケン,クリハラシ,ツキダテヤサワ,宮城県栗原市築館八沢
9872227,宮城県,栗原市,築館光屋敷,ミヤギケン,クリハラシ,ツキダテヒカリヤシキ,宮城県栗原市築館光屋敷
9872228,宮城県,栗原市,築館川添,ミヤギケン,クリハラシ,ツキダテカワゾエ,宮城県栗原市築館川添
9872229,宮城県,栗原市,築館三峰,ミヤギケン,クリハラシ,ツキダテミツミネ,宮城県栗原市築館三峰
9872231,宮城県,栗原市,築館赤坂,ミヤギケン,クリハラシ,ツキダテアカサカ,宮城県栗原市築館赤坂
9872232,宮城県,栗原市,築館沢入,ミヤギケン,クリハラシ,ツキダテサワイリ,宮城県栗原市築館沢入
9872233,宮城県,栗原市,築館照越,ミヤギケン,クリハラシ,ツキダテテルコシ,宮城県栗原市築館照越
9872234,宮城県,栗原市,築館新八ツ沢,ミヤギケン,クリハラシ,ツキダテシンヤツザワ,宮城県栗原市築館新八ツ沢
9872235,宮城県,栗原市,築館築館,ミヤギケン,クリハラシ,ツキダテツキダテ,宮城県栗原市築館築館
9872236,宮城県,栗原市,築館蟹沢,ミヤギケン,クリハラシ,ツキダテカニサワ,宮城県栗原市築館蟹沢
9872241,宮城県,栗原市,築館館下,ミヤギケン,クリハラシ,ツキダテタテシタ,宮城県栗原市築館館下
9872242,宮城県,栗原市,築館館沢,ミヤギケン,クリハラシ,ツキダテタテサワ,宮城県栗原市築館館沢
9872243,宮城県,栗原市,築館萩沢南,ミヤギケン,クリハラシ,ツキダテハギサワミナミ,宮城県栗原市築館萩沢南
9872243,宮城県,栗原市,築館萩沢東,ミヤギケン,クリハラシ,ツキダテハギサワヒガシ,宮城県栗原市築館萩沢東
9872244,宮城県,栗原市,築館西小山,ミヤギケン,クリハラシ,ツキダテニシコヤマ,宮城県栗原市築館西小山
9872245,宮城県,栗原市,築館荒田沢,ミヤギケン,クリハラシ,ツキダテアラタザワ,宮城県栗原市築館荒田沢
9872246,宮城県,栗原市,築館上高森,ミヤギケン,クリハラシ,ツキダテカミタカモリ,宮城県栗原市築館上高森
9872247,宮城県,栗原市,築館下高森,ミヤギケン,クリハラシ,ツキダテシモタカモリ,宮城県栗原市築館下高森
9872251,宮城県,栗原市,築館藤木,ミヤギケン,クリハラシ,ツキダテフジキ,宮城県栗原市築館藤木
9872252,宮城県,栗原市,築館薬師,ミヤギケン,クリハラシ,ツキダテヤクシ,宮城県栗原市築館薬師
9872253,宮城県,栗原市,築館青野,ミヤギケン,クリハラシ,ツキダテアオノ,宮城県栗原市築館青野
9872261,宮城県,栗原市,築館久伝,ミヤギケン,クリハラシ,ツキダテキュウデン,宮城県栗原市築館久伝
9872262,宮城県,栗原市,築館唐竹林,ミヤギケン,クリハラシ,ツキダテカラタケバヤシ,宮城県栗原市築館唐竹林
9872263,宮城県,栗原市,築館新田,ミヤギケン,クリハラシ,ツキダテシンデン,宮城県栗原市築館新田
9872263,宮城県,栗原市,築館薬師ケ丘,ミヤギケン,クリハラシ,ツキダテヤクシガオカ,宮城県栗原市築館薬師ケ丘
9872264,宮城県,栗原市,築館薬師台,ミヤギケン,クリハラシ,ツキダテヤクシダイ,宮城県栗原市築館薬師台
9872265,宮城県,栗原市,築館佐野原,ミヤギケン,クリハラシ,ツキダテサノハラ,宮城県栗原市築館佐野原
9872265,宮城県,栗原市,築館境田,ミヤギケン,クリハラシ,ツキダテサカイダ,宮城県栗原市築館境田
9872265,宮城県,栗原市,築館小淵東,ミヤギケン,クリハラシ,ツキダテコブチヒガシ,宮城県栗原市築館小淵東
9872265,宮城県,栗原市,築館小淵西,ミヤギケン,クリハラシ,ツキダテコブチニシ,宮城県栗原市築館小淵西
9872271,宮城県,栗原市,築館芋埣,ミヤギケン,クリハラシ,ツキダテイモゾネ,宮城県栗原市築館芋埣
9872272,宮城県,栗原市,築館留場,ミヤギケン,クリハラシ,ツキダテトメバ,宮城県栗原市築館留場
9872273,宮城県,栗原市,築館左足,ミヤギケン,クリハラシ,ツキダテコエダテ,宮城県栗原市築館左足
9872274,宮城県,栗原市,築館成田,ミヤギケン,クリハラシ,ツキダテナリタ,宮城県栗原市築館成田
9872274,宮城県,栗原市,築館新成田西,ミヤギケン,クリハラシ,ツキダテシンナリタニシ,宮城県栗原市築館新成田西
9872275,宮城県,栗原市,築館上宮野,ミヤギケン,クリハラシ,ツキダテカミミヤノ,宮城県栗原市築館上宮野
9872301,宮城県,栗原市,一迫大川口,ミヤギケン,クリハラシ,イチハサマオオカワグチ,宮城県栗原市一迫大川口
9872302,宮城県,栗原市,一迫片子沢,ミヤギケン,クリハラシ,イチハサマカタゴザワ,宮城県栗原市一迫片子沢
9872303,宮城県,栗原市,一迫川口,ミヤギケン,クリハラシ,イチハサマカワグチ,宮城県栗原市一迫川口
9872304,宮城県,栗原市,一迫北沢,ミヤギケン,クリハラシ,イチハサマキタザワ,宮城県栗原市一迫北沢
9872305,宮城県,栗原市,一迫狐崎,ミヤギケン,クリハラシ,イチハサマキツネザキ,宮城県栗原市一迫狐崎
9872306,宮城県,栗原市,一迫嶋躰,ミヤギケン,クリハラシ,イチハサマシマタイ,宮城県栗原市一迫嶋躰
9872307,宮城県,栗原市,一迫清水目,ミヤギケン,クリハラシ,イチハサマスズノメ,宮城県栗原市一迫清水目
9872308,宮城県,栗原市,一迫真坂,ミヤギケン,クリハラシ,イチハサママサカ,宮城県栗原市一迫真坂
9872309,宮城県,栗原市,一迫柳目,ミヤギケン,クリハラシ,イチハサマヤナギノメ,宮城県栗原市一迫柳目
9872311,宮城県,栗原市,一迫御崎,ミヤギケン,クリハラシ,イチハサマミサキ,宮城県栗原市一迫御崎
9872312,宮城県,栗原市,一迫沖浦,ミヤギケン,クリハラシ,イチハサマオキウラ,宮城県栗原市一迫沖浦
9872313,宮城県,栗原市,一迫沖,ミヤギケン,クリハラシ,イチハサマオキ,宮城県栗原市一迫沖
9872314,宮城県,栗原市,一迫岡田,ミヤギケン,クリハラシ,イチハサマオカダ,宮城県栗原市一迫岡田
9872315,宮城県,栗原市,一迫間杭元,ミヤギケン,クリハラシ,イチハサマケングイモト,宮城県栗原市一迫間杭元
9872316,宮城県,栗原市,一迫小坂本,ミヤギケン,クリハラシ,イチハサマコサカモト,宮城県栗原市一迫小坂本
9872317,宮城県,栗原市,一迫久保田,ミヤギケン,クリハラシ,イチハサマクボタ,宮城県栗原市一迫久保田
9872318,宮城県,栗原市,一迫松の木,ミヤギケン,クリハラシ,イチハサママツノキ,宮城県栗原市一迫松の木
9872319,宮城県,栗原市,一迫宮前,ミヤギケン,クリハラシ,イチハサマミヤマエ,宮城県栗原市一迫宮前
9872321,宮城県,栗原市,一迫横町,ミヤギケン,クリハラシ,イチハサマヨコマチ,宮城県栗原市一迫横町
9872322,宮城県,栗原市,一迫横町浦,ミヤギケン,クリハラシ,イチハサマヨコマチウラ,宮城県栗原市一迫横町浦
9872323,宮城県,栗原市,一迫女子町,ミヤギケン,クリハラシ,イチハサマメゴマチ,宮城県栗原市一迫女子町
9872324,宮城県,栗原市,一迫三嶋,ミヤギケン,クリハラシ,イチハサマミシマ,宮城県栗原市一迫三嶋
9872325,宮城県,栗原市,一迫坂下西,ミヤギケン,クリハラシ,イチハサマサカシタニシ,宮城県栗原市一迫坂下西
9872326,宮城県,栗原市,一迫山崎,ミヤギケン,クリハラシ,イチハサマヤマザキ,宮城県栗原市一迫山崎
9872327,宮城県,栗原市,一迫天神,ミヤギケン,クリハラシ,イチハサマテンジン,宮城県栗原市一迫天神
9872328,宮城県,栗原市,一迫土川,ミヤギケン,クリハラシ,イチハサマツチカワ,宮城県栗原市一迫土川
9872329,宮城県,栗原市,一迫細越,ミヤギケン,クリハラシ,イチハサマホソゴエ,宮城県栗原市一迫細越
9872331,宮城県,栗原市,一迫萩生,ミヤギケン,クリハラシ,イチハサマハギウ,宮城県栗原市一迫萩生
9872332,宮城県,栗原市,一迫高橋,ミヤギケン,クリハラシ,イチハサマタカハシ,宮城県栗原市一迫高橋
9872333,宮城県,栗原市,一迫要害,ミヤギケン,クリハラシ,イチハサマヨウガイ,宮城県栗原市一迫要害
9872334,宮城県,栗原市,一迫神山,ミヤギケン,クリハラシ,イチハサマシンザン,宮城県栗原市一迫神山
9872335,宮城県,栗原市,一迫高田,ミヤギケン,クリハラシ,イチハサマタカダ,宮城県栗原市一迫高田
9872336,宮城県,栗原市,一迫荒屋敷,ミヤギケン,クリハラシ,イチハサマアラヤシキ,宮城県栗原市一迫荒屋敷
9872337,宮城県,栗原市,一迫松原沢,ミヤギケン,クリハラシ,イチハサママツバラザワ,宮城県栗原市一迫松原沢
9872338,宮城県,栗原市,一迫日向,ミヤギケン,クリハラシ,イチハサマヒナタ,宮城県栗原市一迫日向
9872339,宮城県,栗原市,一迫上中島,ミヤギケン,クリハラシ,イチハサマカミナカジマ,宮城県栗原市一迫上中島
9872341,宮城県,栗原市,一迫中屋敷浦,ミヤギケン,クリハラシ,イチハサマナカヤシキウラ,宮城県栗原市一迫中屋敷浦
9872342,宮城県,栗原市,一迫沢田,ミヤギケン,クリハラシ,イチハサマサワダ,宮城県栗原市一迫沢田
9872343,宮城県,栗原市,一迫一本杉,ミヤギケン,クリハラシ,イチハサマイッポンスギ,宮城県栗原市一迫一本杉
9872344,宮城県,栗原市,一迫宮下,ミヤギケン,クリハラシ,イチハサマミヤジタ,宮城県栗原市一迫宮下
9872345,宮城県,栗原市,一迫屋敷田,ミヤギケン,クリハラシ,イチハサマヤシキダ,宮城県栗原市一迫屋敷田
9872346,宮城県,栗原市,一迫大清水,ミヤギケン,クリハラシ,イチハサマオオスズ,宮城県栗原市一迫大清水
9872347,宮城県,栗原市,一迫平館,ミヤギケン,クリハラシ,イチハサマヒラダテ,宮城県栗原市一迫平館
9872348,宮城県,栗原市,一迫大平沢,ミヤギケン,クリハラシ,イチハサマオオヒラサワ,宮城県栗原市一迫大平沢
9872349,宮城県,栗原市,一迫大際,ミヤギケン,クリハラシ,イチハサマダイギワ,宮城県栗原市一迫大際
9872351,宮城県,栗原市,一迫宇南田,ミヤギケン,クリハラシ,イチハサマウナンダ,宮城県栗原市一迫宇南田
9872352,宮城県,栗原市,一迫鹿込,ミヤギケン,クリハラシ,イチハサマシシゴメ,宮城県栗原市一迫鹿込
9872353,宮城県,栗原市,一迫上久保,ミヤギケン,クリハラシ,イチハサマカミクボ,宮城県栗原市一迫上久保
9872354,宮城県,栗原市,一迫西風,ミヤギケン,クリハラシ,イチハサマナライ,宮城県栗原市一迫西風
9872355,宮城県,栗原市,一迫鍛冶屋敷,ミヤギケン,クリハラシ,イチハサマカジヤシキ,宮城県栗原市一迫鍛冶屋敷
9872356,宮城県,栗原市,一迫山沢,ミヤギケン,クリハラシ,イチハサマヤマサワ,宮城県栗原市一迫山沢
9872357,宮城県,栗原市,一迫沼田,ミヤギケン,クリハラシ,イチハサマヌマタ,宮城県栗原市一迫沼田
9872358,宮城県,栗原市,一迫下小僧,ミヤギケン,クリハラシ,イチハサマシモコゾウ,宮城県栗原市一迫下小僧
9872359,宮城県,栗原市,一迫佐野原,ミヤギケン,クリハラシ,イチハサマサノバラ,宮城県栗原市一迫佐野原
9872361,宮城県,栗原市,一迫中小僧,ミヤギケン,クリハラシ,イチハサマナカコゾウ,宮城県栗原市一迫中小僧
9872362,宮城県,栗原市,一迫大栗,ミヤギケン,クリハラシ,イチハサマオオグリ,宮城県栗原市一迫大栗
9872363,宮城県,栗原市,一迫佐野,ミヤギケン,クリハラシ,イチハサマサノ,宮城県栗原市一迫佐野
9872364,宮城県,栗原市,一迫岩ケ沢,ミヤギケン,クリハラシ,イチハサマイワガサワ,宮城県栗原市一迫岩ケ沢
9872365,宮城県,栗原市,一迫新米,ミヤギケン,クリハラシ,イチハサマシンマイ,宮城県栗原市一迫新米
9872366,宮城県,栗原市,一迫論田,ミヤギケン,クリハラシ,イチハサマロンデン,宮城県栗原市一迫論田
9872367,宮城県,栗原市,一迫上大土,ミヤギケン,クリハラシ,イチハサマカミオオド,宮城県栗原市一迫上大土
9872368,宮城県,栗原市,一迫下大土,ミヤギケン,クリハラシ,イチハサマシモオオド,宮城県栗原市一迫下大土
9872369,宮城県,栗原市,一迫荒町,ミヤギケン,クリハラシ,イチハサマアラマチ,宮城県栗原市一迫荒町
9872371,宮城県,栗原市,一迫川台,ミヤギケン,クリハラシ,イチハサマカワダイ,宮城県栗原市一迫川台
9872372,宮城県,栗原市,一迫青木,ミヤギケン,クリハラシ,イチハサマアオキ,宮城県栗原市一迫青木
9872373,宮城県,栗原市,一迫不動西,ミヤギケン,クリハラシ,イチハサマフドウニシ,宮城県栗原市一迫不動西
9872374,宮城県,栗原市,一迫清水原,ミヤギケン,クリハラシ,イチハサマシミズバラ,宮城県栗原市一迫清水原
9872511,宮城県,栗原市,花山本沢,ミヤギケン,クリハラシ,ハナヤマホンサワ,宮城県栗原市花山本沢
9872512,宮城県,栗原市,花山草木沢,ミヤギケン,クリハラシ,ハナヤマクサキサワ,宮城県栗原市花山草木沢
9880000,宮城県,気仙沼市,,ミヤギケン,ケセンヌマシ,,宮城県気仙沼市
9880001,宮城県,気仙沼市,東みなと町,ミヤギケン,ケセンヌマシ,ヒガシミナトチョウ,宮城県気仙沼市東みなと町
9880002,宮城県,気仙沼市,錦町,ミヤギケン,ケセンヌマシ,ニシキチョウ,宮城県気仙沼市錦町
9880003,宮城県,気仙沼市,本浜町,ミヤギケン,ケセンヌマシ,モトハマチョウ,宮城県気仙沼市本浜町
9880004,宮城県,気仙沼市,浜町,ミヤギケン,ケセンヌマシ,ハマチョウ,宮城県気仙沼市浜町
9880005,宮城県,気仙沼市,新浜町,ミヤギケン,ケセンヌマシ,シンハマチョウ,宮城県気仙沼市新浜町
9880006,宮城県,気仙沼市,西みなと町,ミヤギケン,ケセンヌマシ,ニシミナトチョウ,宮城県気仙沼市西みなと町
9880007,宮城県,気仙沼市,中みなと町,ミヤギケン,ケセンヌマシ,ナカミナトチョウ,宮城県気仙沼市中みなと町
9880008,宮城県,気仙沼市,魚浜町,ミヤギケン,ケセンヌマシ,ウオハマチョウ,宮城県気仙沼市魚浜町
9880011,宮城県,気仙沼市,陣山,ミヤギケン,ケセンヌマシ,ジンヤマ,宮城県気仙沼市陣山
9880012,宮城県,気仙沼市,栄町,ミヤギケン,ケセンヌマシ,サカエチョウ,宮城県気仙沼市栄町
9880013,宮城県,気仙沼市,魚町,ミヤギケン,ケセンヌマシ,サカナマチ,宮城県気仙沼市魚町
9880014,宮城県,気仙沼市,柏崎,ミヤギケン,ケセンヌマシ,カシザキ,宮城県気仙沼市柏崎
9880015,宮城県,気仙沼市,浜見山,ミヤギケン,ケセンヌマシ,ハマミヤマ,宮城県気仙沼市浜見山
9880016,宮城県,気仙沼市,沢田,ミヤギケン,ケセンヌマシ,サワダ,宮城県気仙沼市沢田
9880017,宮城県,気仙沼市,南町,ミヤギケン,ケセンヌマシ,ミナミマチ,宮城県気仙沼市南町
9880018,宮城県,気仙沼市,南町海岸,ミヤギケン,ケセンヌマシ,ミナミマチカイガン,宮城県気仙沼市南町海岸
9880021,宮城県,気仙沼市,港町,ミヤギケン,ケセンヌマシ,ミナトマチ,宮城県気仙沼市港町
9880022,宮城県,気仙沼市,河原田,ミヤギケン,ケセンヌマシ,カワラダ,宮城県気仙沼市河原田
9880023,宮城県,気仙沼市,南が丘,ミヤギケン,ケセンヌマシ,ミナミガオカ,宮城県気仙沼市南が丘
9880024,宮城県,気仙沼市,仲町,ミヤギケン,ケセンヌマシ,ナカマチ,宮城県気仙沼市仲町
9880025,宮城県,気仙沼市,内ノ脇,ミヤギケン,ケセンヌマシ,ナイノワキ,宮城県気仙沼市内ノ脇
9880026,宮城県,気仙沼市,幸町,ミヤギケン,ケセンヌマシ,サイワイチョウ,宮城県気仙沼市幸町
9880031,宮城県,気仙沼市,潮見町,ミヤギケン,ケセンヌマシ,シオミチョウ,宮城県気仙沼市潮見町
9880032,宮城県,気仙沼市,一景島,ミヤギケン,ケセンヌマシ,イッケイジマ,宮城県気仙沼市一景島
9880033,宮城県,気仙沼市,川口町,ミヤギケン,ケセンヌマシ,カワグチチョウ,宮城県気仙沼市川口町
9880034,宮城県,気仙沼市,朝日町,ミヤギケン,ケセンヌマシ,アサヒチョウ,宮城県気仙沼市朝日町
9880036,宮城県,気仙沼市,弁天町,ミヤギケン,ケセンヌマシ,ベンテンチョウ,宮城県気仙沼市弁天町
9880037,宮城県,気仙沼市,魚市場前,ミヤギケン,ケセンヌマシ,ウオイチバマエ,宮城県気仙沼市魚市場前
9880041,宮城県,気仙沼市,川畑,ミヤギケン,ケセンヌマシ,カワバタ,宮城県気仙沼市川畑
9880042,宮城県,気仙沼市,本郷,ミヤギケン,ケセンヌマシ,ホンゴウ,宮城県気仙沼市本郷
9880043,宮城県,気仙沼市,南郷,ミヤギケン,ケセンヌマシ,ナンゴウ,宮城県気仙沼市南郷
9880044,宮城県,気仙沼市,神山,ミヤギケン,ケセンヌマシ,カミヤマ,宮城県気仙沼市神山
9880045,宮城県,気仙沼市,田谷,ミヤギケン,ケセンヌマシ,タヤ,宮城県気仙沼市田谷
9880046,宮城県,気仙沼市,田谷前,ミヤギケン,ケセンヌマシ,タヤマエ,宮城県気仙沼市田谷前
9880051,宮城県,気仙沼市,常楽,ミヤギケン,ケセンヌマシ,ジョウラク,宮城県気仙沼市常楽
9880052,宮城県,気仙沼市,田中,ミヤギケン,ケセンヌマシ,タナカ,宮城県気仙沼市田中
9880053,宮城県,気仙沼市,田中前,ミヤギケン,ケセンヌマシ,タナカマエ,宮城県気仙沼市田中前
9880054,宮城県,気仙沼市,駒場,ミヤギケン,ケセンヌマシ,コマバ,宮城県気仙沼市駒場
9880055,宮城県,気仙沼市,反松,ミヤギケン,ケセンヌマシ,ソリマツ,宮城県気仙沼市反松
9880056,宮城県,気仙沼市,上田中,ミヤギケン,ケセンヌマシ,カミタナカ,宮城県気仙沼市上田中
9880057,宮城県,気仙沼市,所沢,ミヤギケン,ケセンヌマシ,トコロザワ,宮城県気仙沼市所沢
9880058,宮城県,気仙沼市,田中沖,ミヤギケン,ケセンヌマシ,タナカオキ,宮城県気仙沼市田中沖
9880061,宮城県,気仙沼市,岩ケ崎,ミヤギケン,ケセンヌマシ,イワガサキ,宮城県気仙沼市岩ケ崎
9880062,宮城県,気仙沼市,明戸,ミヤギケン,ケセンヌマシ,アケド,宮城県気仙沼市明戸
9880063,宮城県,気仙沼市,四反田,ミヤギケン,ケセンヌマシ,シタンダ,宮城県気仙沼市四反田
9880064,宮城県,気仙沼市,九条,ミヤギケン,ケセンヌマシ,クジョウ,宮城県気仙沼市九条
9880065,宮城県,気仙沼市,後九条,ミヤギケン,ケセンヌマシ,ウシロクジョウ,宮城県気仙沼市後九条
9880066,宮城県,気仙沼市,東新城,ミヤギケン,ケセンヌマシ,ヒガシシンジョウ,宮城県気仙沼市東新城
9880071,宮城県,気仙沼市,新町,ミヤギケン,ケセンヌマシ,アラマチ,宮城県気仙沼市新町
9880072,宮城県,気仙沼市,化粧坂,ミヤギケン,ケセンヌマシ,ケショウザカ,宮城県気仙沼市化粧坂
9880073,宮城県,気仙沼市,笹が陣,ミヤギケン,ケセンヌマシ,ササガジン,宮城県気仙沼市笹が陣
9880074,宮城県,気仙沼市,本町,ミヤギケン,ケセンヌマシ,モトマチ,宮城県気仙沼市本町
9880075,宮城県,気仙沼市,赤坂,ミヤギケン,ケセンヌマシ,アカサカ,宮城県気仙沼市赤坂
9880076,宮城県,気仙沼市,舘山,ミヤギケン,ケセンヌマシ,タテヤマ,宮城県気仙沼市舘山
9880077,宮城県,気仙沼市,古町,ミヤギケン,ケセンヌマシ,フルマチ,宮城県気仙沼市古町
9880081,宮城県,気仙沼市,蔵底,ミヤギケン,ケセンヌマシ,クラソコ,宮城県気仙沼市蔵底
9880082,宮城県,気仙沼市,太田,ミヤギケン,ケセンヌマシ,オオタ,宮城県気仙沼市太田
9880083,宮城県,気仙沼市,入沢,ミヤギケン,ケセンヌマシ,イリサワ,宮城県気仙沼市入沢
9880084,宮城県,気仙沼市,八日町,ミヤギケン,ケセンヌマシ,ヨウカマチ,宮城県気仙沼市八日町
9880085,宮城県,気仙沼市,三日町,ミヤギケン,ケセンヌマシ,ミッカマチ,宮城県気仙沼市三日町
9880086,宮城県,気仙沼市,福美町,ミヤギケン,ケセンヌマシ,フクミチョウ,宮城県気仙沼市福美町
9880087,宮城県,気仙沼市,滝の入,ミヤギケン,ケセンヌマシ,タキノイリ,宮城県気仙沼市滝の入
9880101,宮城県,気仙沼市,赤岩舘下,ミヤギケン,ケセンヌマシ,アカイワタテシタ,宮城県気仙沼市赤岩舘下
9880102,宮城県,気仙沼市,赤岩舘森,ミヤギケン,ケセンヌマシ,アカイワタテモリ,宮城県気仙沼市赤岩舘森
9880103,宮城県,気仙沼市,赤岩港,ミヤギケン,ケセンヌマシ,アカイワミナト,宮城県気仙沼市赤岩港
9880104,宮城県,気仙沼市,赤岩五駄鱈,ミヤギケン,ケセンヌマシ,アカイワゴダンタラ,宮城県気仙沼市赤岩五駄鱈
9880105,宮城県,気仙沼市,赤岩老松,ミヤギケン,ケセンヌマシ,アカイワオイノマツ,宮城県気仙沼市赤岩老松
9880111,宮城県,気仙沼市,松崎北沢,ミヤギケン,ケセンヌマシ,マツザキキタサワ,宮城県気仙沼市松崎北沢
9880112,宮城県,気仙沼市,松崎前浜,ミヤギケン,ケセンヌマシ,マツザキマエハマ,宮城県気仙沼市松崎前浜
9880113,宮城県,気仙沼市,松崎片浜,ミヤギケン,ケセンヌマシ,マツザキカタハマ,宮城県気仙沼市松崎片浜
9880114,宮城県,気仙沼市,松崎浦田,ミヤギケン,ケセンヌマシ,マツザキウラダ,宮城県気仙沼市松崎浦田
9880121,宮城県,気仙沼市,松崎萱,ミヤギケン,ケセンヌマシ,マツザキカヤ,宮城県気仙沼市松崎萱
9880122,宮城県,気仙沼市,松崎五駄鱈,ミヤギケン,ケセンヌマシ,マツザキゴダンタラ,宮城県気仙沼市松崎五駄鱈
9880123,宮城県,気仙沼市,松崎中瀬,ミヤギケン,ケセンヌマシ,マツザキナカゼ,宮城県気仙沼市松崎中瀬
9880124,宮城県,気仙沼市,松崎高谷,ミヤギケン,ケセンヌマシ,マツザキタカヤ,宮城県気仙沼市松崎高谷
9880131,宮城県,気仙沼市,松崎尾崎,ミヤギケン,ケセンヌマシ,マツザキオサキ,宮城県気仙沼市松崎尾崎
9880132,宮城県,気仙沼市,松崎馬場,ミヤギケン,ケセンヌマシ,マツザキババ,宮城県気仙沼市松崎馬場
9880133,宮城県,気仙沼市,松崎下赤田,ミヤギケン,ケセンヌマシ,マツザキシモアカダ,宮城県気仙沼市松崎下赤田
9880134,宮城県,気仙沼市,松崎上赤田,ミヤギケン,ケセンヌマシ,マツザキカミアカダ,宮城県気仙沼市松崎上赤田
9880141,宮城県,気仙沼市,松崎柳沢,ミヤギケン,ケセンヌマシ,マツザキヤナギサワ,宮城県気仙沼市松崎柳沢
9880142,宮城県,気仙沼市,松崎丸森,ミヤギケン,ケセンヌマシ,マツザキマルモリ,宮城県気仙沼市松崎丸森
9880143,宮城県,気仙沼市,松崎地生,ミヤギケン,ケセンヌマシ,マツザキジショウ,宮城県気仙沼市松崎地生
9880144,宮城県,気仙沼市,松崎鶴巻,ミヤギケン,ケセンヌマシ,マツザキツルマキ,宮城県気仙沼市松崎鶴巻
9880151,宮城県,気仙沼市,松崎立石,ミヤギケン,ケセンヌマシ,マツザキタテイシ,宮城県気仙沼市松崎立石
9880152,宮城県,気仙沼市,松崎外ケ沢,ミヤギケン,ケセンヌマシ,マツザキソトガサワ,宮城県気仙沼市松崎外ケ沢
9880153,宮城県,気仙沼市,松崎面瀬,ミヤギケン,ケセンヌマシ,マツザキオモセ,宮城県気仙沼市松崎面瀬
9880154,宮城県,気仙沼市,松崎猫渕,ミヤギケン,ケセンヌマシ,マツザキネコブチ,宮城県気仙沼市松崎猫渕
9880155,宮城県,気仙沼市,松崎大萱,ミヤギケン,ケセンヌマシ,マツザキオオカヤ,宮城県気仙沼市松崎大萱
9880156,宮城県,気仙沼市,松崎下金取,ミヤギケン,ケセンヌマシ,マツザキシモカネトリ,宮城県気仙沼市松崎下金取
9880157,宮城県,気仙沼市,松崎上金取,ミヤギケン,ケセンヌマシ,マツザキカミカネトリ,宮城県気仙沼市松崎上金取
9880161,宮城県,気仙沼市,赤岩高前田,ミヤギケン,ケセンヌマシ,アカイワタカマエダ,宮城県気仙沼市赤岩高前田
9880162,宮城県,気仙沼市,赤岩前田,ミヤギケン,ケセンヌマシ,アカイワマエダ,宮城県気仙沼市赤岩前田
9880163,宮城県,気仙沼市,赤岩迎前田,ミヤギケン,ケセンヌマシ,アカイワムカエマエダ,宮城県気仙沼市赤岩迎前田
9880164,宮城県,気仙沼市,赤岩四十二,ミヤギケン,ケセンヌマシ,アカイワシジュウニ,宮城県気仙沼市赤岩四十二
9880165,宮城県,気仙沼市,赤岩物見,ミヤギケン,ケセンヌマシ,アカイワモノミ,宮城県気仙沼市赤岩物見
9880166,宮城県,気仙沼市,赤岩上羽田,ミヤギケン,ケセンヌマシ,アカイワカミハダ,宮城県気仙沼市赤岩上羽田
9880167,宮城県,気仙沼市,赤岩羽田,ミヤギケン,ケセンヌマシ,アカイワハダ,宮城県気仙沼市赤岩羽田
9880168,宮城県,気仙沼市,赤岩水梨子,ミヤギケン,ケセンヌマシ,アカイワミズナシ,宮城県気仙沼市赤岩水梨子
9880169,宮城県,気仙沼市,物倉山,ミヤギケン,ケセンヌマシ,モノクラヤマ,宮城県気仙沼市物倉山
9880171,宮城県,気仙沼市,赤岩牧沢,ミヤギケン,ケセンヌマシ,アカイワマキサワ,宮城県気仙沼市赤岩牧沢
9880172,宮城県,気仙沼市,赤岩大石倉,ミヤギケン,ケセンヌマシ,アカイワオオイシクラ,宮城県気仙沼市赤岩大石倉
9880173,宮城県,気仙沼市,赤岩長柴,ミヤギケン,ケセンヌマシ,アカイワナガシバ,宮城県気仙沼市赤岩長柴
9880174,宮城県,気仙沼市,赤岩大滝,ミヤギケン,ケセンヌマシ,アカイワオオタキ,宮城県気仙沼市赤岩大滝
9880181,宮城県,気仙沼市,赤岩杉ノ沢,ミヤギケン,ケセンヌマシ,アカイワスギノサワ,宮城県気仙沼市赤岩杉ノ沢
9880182,宮城県,気仙沼市,赤岩石兜,ミヤギケン,ケセンヌマシ,アカイワイシカブト,宮城県気仙沼市赤岩石兜
9880183,宮城県,気仙沼市,赤岩泥ノ木,ミヤギケン,ケセンヌマシ,アカイワドロノキ,宮城県気仙沼市赤岩泥ノ木
9880184,宮城県,気仙沼市,赤岩平貝,ミヤギケン,ケセンヌマシ,アカイワヒラガイ,宮城県気仙沼市赤岩平貝
9880185,宮城県,気仙沼市,赤岩小田,ミヤギケン,ケセンヌマシ,アカイワオダ,宮城県気仙沼市赤岩小田
9880201,宮城県,気仙沼市,岩月千岩田,ミヤギケン,ケセンヌマシ,イワツキセンガンダ,宮城県気仙沼市岩月千岩田
9880202,宮城県,気仙沼市,岩月台ノ沢,ミヤギケン,ケセンヌマシ,イワツキダイノサワ,宮城県気仙沼市岩月台ノ沢
9880203,宮城県,気仙沼市,岩月星谷,ミヤギケン,ケセンヌマシ,イワツキホシヤ,宮城県気仙沼市岩月星谷
9880204,宮城県,気仙沼市,岩月長平,ミヤギケン,ケセンヌマシ,イワツキナガダイラ,宮城県気仙沼市岩月長平
9880205,宮城県,気仙沼市,岩月箒沢,ミヤギケン,ケセンヌマシ,イワツキホウキサワ,宮城県気仙沼市岩月箒沢
9880206,宮城県,気仙沼市,岩月寺沢,ミヤギケン,ケセンヌマシ,イワツキテラサワ,宮城県気仙沼市岩月寺沢
9880207,宮城県,気仙沼市,岩月宝ケ沢,ミヤギケン,ケセンヌマシ,イワツキタカラガサワ,宮城県気仙沼市岩月宝ケ沢
9880211,宮城県,気仙沼市,最知川原,ミヤギケン,ケセンヌマシ,サイチカワラ,宮城県気仙沼市最知川原
9880212,宮城県,気仙沼市,最知森合,ミヤギケン,ケセンヌマシ,サイチモリアイ,宮城県気仙沼市最知森合
9880213,宮城県,気仙沼市,最知南最知,ミヤギケン,ケセンヌマシ,サイチミナミサイチ,宮城県気仙沼市最知南最知
9880214,宮城県,気仙沼市,最知荒沢,ミヤギケン,ケセンヌマシ,サイチアラサワ,宮城県気仙沼市最知荒沢
9880215,宮城県,気仙沼市,最知北最知,ミヤギケン,ケセンヌマシ,サイチキタサイチ,宮城県気仙沼市最知北最知
9880221,宮城県,気仙沼市,長磯七半沢,ミヤギケン,ケセンヌマシ,ナガイソシチハンザワ,宮城県気仙沼市長磯七半沢
9880222,宮城県,気仙沼市,長磯船原,ミヤギケン,ケセンヌマシ,ナガイソフナハラ,宮城県気仙沼市長磯船原
9880223,宮城県,気仙沼市,長磯鳥子沢,ミヤギケン,ケセンヌマシ,ナガイソトリコザワ,宮城県気仙沼市長磯鳥子沢
9880224,宮城県,気仙沼市,長磯前林,ミヤギケン,ケセンヌマシ,ナガイソマエバヤシ,宮城県気仙沼市長磯前林
9880225,宮城県,気仙沼市,長磯大窪,ミヤギケン,ケセンヌマシ,ナガイソオオクボ,宮城県気仙沼市長磯大窪
9880226,宮城県,気仙沼市,長磯後沢,ミヤギケン,ケセンヌマシ,ナガイソウシロザワ,宮城県気仙沼市長磯後沢
9880227,宮城県,気仙沼市,長磯森,ミヤギケン,ケセンヌマシ,ナガイソモリ,宮城県気仙沼市長磯森
9880231,宮城県,気仙沼市,長磯浜,ミヤギケン,ケセンヌマシ,ナガイソハマ,宮城県気仙沼市長磯浜
9880232,宮城県,気仙沼市,長磯下原,ミヤギケン,ケセンヌマシ,ナガイソシモバラ,宮城県気仙沼市長磯下原
9880233,宮城県,気仙沼市,長磯原,ミヤギケン,ケセンヌマシ,ナガイソハラ,宮城県気仙沼市長磯原
9880234,宮城県,気仙沼市,長磯原ノ沢,ミヤギケン,ケセンヌマシ,ナガイソハラノサワ,宮城県気仙沼市長磯原ノ沢
9880235,宮城県,気仙沼市,長磯牧通,ミヤギケン,ケセンヌマシ,ナガイソマギドオリ,宮城県気仙沼市長磯牧通
9880236,宮城県,気仙沼市,長磯二本松,ミヤギケン,ケセンヌマシ,ナガイソニホンマツ,宮城県気仙沼市長磯二本松
9880237,宮城県,気仙沼市,長磯赤貝,ミヤギケン,ケセンヌマシ,ナガイソアカガイ,宮城県気仙沼市長磯赤貝
9880238,宮城県,気仙沼市,長磯中原,ミヤギケン,ケセンヌマシ,ナガイソナカハラ,宮城県気仙沼市長磯中原
9880241,宮城県,気仙沼市,波路上岩井崎,ミヤギケン,ケセンヌマシ,ハジカミイワイサキ,宮城県気仙沼市波路上岩井崎
9880242,宮城県,気仙沼市,波路上崎野,ミヤギケン,ケセンヌマシ,ハジカミサキノ,宮城県気仙沼市波路上崎野
9880243,宮城県,気仙沼市,波路上牧,ミヤギケン,ケセンヌマシ,ハジカミマギ,宮城県気仙沼市波路上牧
9880244,宮城県,気仙沼市,波路上明戸,ミヤギケン,ケセンヌマシ,ハジカミアケド,宮城県気仙沼市波路上明戸
9880245,宮城県,気仙沼市,波路上杉ノ下,ミヤギケン,ケセンヌマシ,ハジカミスギノシタ,宮城県気仙沼市波路上杉ノ下
9880246,宮城県,気仙沼市,波路上瀬向,ミヤギケン,ケセンヌマシ,ハジカミセムカイ,宮城県気仙沼市波路上瀬向
9880247,宮城県,気仙沼市,波路上内沼,ミヤギケン,ケセンヌマシ,ハジカミウチヌマ,宮城県気仙沼市波路上内沼
9880251,宮城県,気仙沼市,波路上内田,ミヤギケン,ケセンヌマシ,ハジカミウチダ,宮城県気仙沼市波路上内田
9880252,宮城県,気仙沼市,波路上後原,ミヤギケン,ケセンヌマシ,ハジカミウシロバラ,宮城県気仙沼市波路上後原
9880253,宮城県,気仙沼市,波路上原,ミヤギケン,ケセンヌマシ,ハジカミハラ,宮城県気仙沼市波路上原
9880254,宮城県,気仙沼市,波路上野田,ミヤギケン,ケセンヌマシ,ハジカミノダ,宮城県気仙沼市波路上野田
9880255,宮城県,気仙沼市,波路上向田,ミヤギケン,ケセンヌマシ,ハジカミムカイダ,宮城県気仙沼市波路上向田
9880256,宮城県,気仙沼市,波路上向原,ミヤギケン,ケセンヌマシ,ハジカミムカイバラ,宮城県気仙沼市波路上向原
9880261,宮城県,気仙沼市,本吉町土樋下,ミヤギケン,ケセンヌマシ,モトヨシチョウツチドイシタ,宮城県気仙沼市本吉町土樋下
9880261,宮城県,気仙沼市,本吉町後田,ミヤギケン,ケセンヌマシ,モトヨシチョウウシロダ,宮城県気仙沼市本吉町後田
9880261,宮城県,気仙沼市,本吉町直伝,ミヤギケン,ケセンヌマシ,モトヨシチョウジキデン,宮城県気仙沼市本吉町直伝
9880262,宮城県,気仙沼市,本吉町沖の田,ミヤギケン,ケセンヌマシ,モトヨシチョウオキノダ,宮城県気仙沼市本吉町沖の田
9880263,宮城県,気仙沼市,本吉町洞沢,ミヤギケン,ケセンヌマシ,モトヨシチョウホラサワ,宮城県気仙沼市本吉町洞沢
9880264,宮城県,気仙沼市,本吉町長根,ミヤギケン,ケセンヌマシ,モトヨシチョウナガネ,宮城県気仙沼市本吉町長根
9880265,宮城県,気仙沼市,本吉町窪,ミヤギケン,ケセンヌマシ,モトヨシチョウクボ,宮城県気仙沼市本吉町窪
9880266,宮城県,気仙沼市,本吉町寺谷,ミヤギケン,ケセンヌマシ,モトヨシチョウテラガイ,宮城県気仙沼市本吉町寺谷
9880267,宮城県,気仙沼市,本吉町寺沢,ミヤギケン,ケセンヌマシ,モトヨシチョウテラサワ,宮城県気仙沼市本吉町寺沢
9880267,宮城県,気仙沼市,本吉町長畑,ミヤギケン,ケセンヌマシ,モトヨシチョウナガハタケ,宮城県気仙沼市本吉町長畑
9880268,宮城県,気仙沼市,本吉町石川原,ミヤギケン,ケセンヌマシ,モトヨシチョウイシカワラ,宮城県気仙沼市本吉町石川原
9880269,宮城県,気仙沼市,本吉町菖蒲沢,ミヤギケン,ケセンヌマシ,モトヨシチョウショウブザワ,宮城県気仙沼市本吉町菖蒲沢
9880269,宮城県,気仙沼市,本吉町道貫,ミヤギケン,ケセンヌマシ,モトヨシチョウドウメキ,宮城県気仙沼市本吉町道貫
9880271,宮城県,気仙沼市,本吉町野々下,ミヤギケン,ケセンヌマシ,モトヨシチョウノノシタ,宮城県気仙沼市本吉町野々下
9880272,宮城県,気仙沼市,本吉町大谷,ミヤギケン,ケセンヌマシ,モトヨシチョウオオヤ,宮城県気仙沼市本吉町大谷
9880273,宮城県,気仙沼市,本吉町三島,ミヤギケン,ケセンヌマシ,モトヨシチョウミシマ,宮城県気仙沼市本吉町三島
9880274,宮城県,気仙沼市,本吉町滝根,ミヤギケン,ケセンヌマシ,モトヨシチョウタキネ,宮城県気仙沼市本吉町滝根
9880275,宮城県,気仙沼市,本吉町九多丸,ミヤギケン,ケセンヌマシ,モトヨシチョウクダマル,宮城県気仙沼市本吉町九多丸
9880276,宮城県,気仙沼市,本吉町日門,ミヤギケン,ケセンヌマシ,モトヨシチョウヒカド,宮城県気仙沼市本吉町日門
9880277,宮城県,気仙沼市,本吉町天ヶ沢,ミヤギケン,ケセンヌマシ,モトヨシチョウアマガサワ,宮城県気仙沼市本吉町天ヶ沢
9880277,宮城県,気仙沼市,本吉町田の沢,ミヤギケン,ケセンヌマシ,モトヨシチョウタノサワ,宮城県気仙沼市本吉町田の沢
9880278,宮城県,気仙沼市,本吉町山谷,ミヤギケン,ケセンヌマシ,モトヨシチョウヤマヤ,宮城県気仙沼市本吉町山谷
9880278,宮城県,気仙沼市,本吉町高瀬ヶ森,ミヤギケン,ケセンヌマシ,モトヨシチョウタカセガモリ,宮城県気仙沼市本吉町高瀬ヶ森
9880279,宮城県,気仙沼市,本吉町猿内,ミヤギケン,ケセンヌマシ,モトヨシチョウサルウチ,宮城県気仙沼市本吉町猿内
9880281,宮城県,気仙沼市,本吉町府中,ミヤギケン,ケセンヌマシ,モトヨシチョウフチュウ,宮城県気仙沼市本吉町府中
9880282,宮城県,気仙沼市,本吉町前浜,ミヤギケン,ケセンヌマシ,モトヨシチョウマエハマ,宮城県気仙沼市本吉町前浜
9880283,宮城県,気仙沼市,本吉町大森,ミヤギケン,ケセンヌマシ,モトヨシチョウオオモリ,宮城県気仙沼市本吉町大森
9880283,宮城県,気仙沼市,本吉町谷地,ミヤギケン,ケセンヌマシ,モトヨシチョウヤチ,宮城県気仙沼市本吉町谷地
9880284,宮城県,気仙沼市,本吉町赤牛,ミヤギケン,ケセンヌマシ,モトヨシチョウアカウシ,宮城県気仙沼市本吉町赤牛
9880285,宮城県,気仙沼市,本吉町小金沢,ミヤギケン,ケセンヌマシ,モトヨシチョウコガネサワ,宮城県気仙沼市本吉町小金沢
9880286,宮城県,気仙沼市,本吉町高,ミヤギケン,ケセンヌマシ,モトヨシチョウタカ,宮城県気仙沼市本吉町高
9880287,宮城県,気仙沼市,本吉町大朴木,ミヤギケン,ケセンヌマシ,モトヨシチョウオオボウキ,宮城県気仙沼市本吉町大朴木
9880301,宮城県,気仙沼市,本吉町狼の巣,ミヤギケン,ケセンヌマシ,モトヨシチョウオイノス,宮城県気仙沼市本吉町狼の巣
9880302,宮城県,気仙沼市,本吉町林の沢,ミヤギケン,ケセンヌマシ,モトヨシチョウハヤシノサワ,宮城県気仙沼市本吉町林の沢
9880303,宮城県,気仙沼市,本吉町幸土,ミヤギケン,ケセンヌマシ,モトヨシチョウコウド,宮城県気仙沼市本吉町幸土
9880304,宮城県,気仙沼市,本吉町大沢,ミヤギケン,ケセンヌマシ,モトヨシチョウオオサワ,宮城県気仙沼市本吉町大沢
9880305,宮城県,気仙沼市,本吉町津谷長根,ミヤギケン,ケセンヌマシ,モトヨシチョウツヤナガネ,宮城県気仙沼市本吉町津谷長根
9880306,宮城県,気仙沼市,本吉町大椚,ミヤギケン,ケセンヌマシ,モトヨシチョウオオクヌギ,宮城県気仙沼市本吉町大椚
9880307,宮城県,気仙沼市,本吉町津谷舘岡,ミヤギケン,ケセンヌマシ,モトヨシチョウツヤタテオカ,宮城県気仙沼市本吉町津谷舘岡
9880308,宮城県,気仙沼市,本吉町津谷松岡,ミヤギケン,ケセンヌマシ,モトヨシチョウツヤマツオカ,宮城県気仙沼市本吉町津谷松岡
9880309,宮城県,気仙沼市,本吉町津谷松尾,ミヤギケン,ケセンヌマシ,モトヨシチョウツヤマツオ,宮城県気仙沼市本吉町津谷松尾
9880311,宮城県,気仙沼市,本吉町風越,ミヤギケン,ケセンヌマシ,モトヨシチョウカザコシ,宮城県気仙沼市本吉町風越
9880312,宮城県,気仙沼市,本吉町道外,ミヤギケン,ケセンヌマシ,モトヨシチョウミチソト,宮城県気仙沼市本吉町道外
9880313,宮城県,気仙沼市,本吉町卯名沢,ミヤギケン,ケセンヌマシ,モトヨシチョウウナザワ,宮城県気仙沼市本吉町卯名沢
9880314,宮城県,気仙沼市,本吉町圃の沢,ミヤギケン,ケセンヌマシ,モトヨシチョウハタノサワ,宮城県気仙沼市本吉町圃の沢
9880315,宮城県,気仙沼市,本吉町新圃の沢,ミヤギケン,ケセンヌマシ,モトヨシチョウシンハタノサワ,宮城県気仙沼市本吉町新圃の沢
9880316,宮城県,気仙沼市,本吉町新北明戸,ミヤギケン,ケセンヌマシ,モトヨシチョウシンキタアケド,宮城県気仙沼市本吉町新北明戸
9880317,宮城県,気仙沼市,本吉町北明戸,ミヤギケン,ケセンヌマシ,モトヨシチョウキタアケド,宮城県気仙沼市本吉町北明戸
9880318,宮城県,気仙沼市,本吉町登米沢,ミヤギケン,ケセンヌマシ,モトヨシチョウトヨマザワ,宮城県気仙沼市本吉町登米沢
9880321,宮城県,気仙沼市,本吉町小浜,ミヤギケン,ケセンヌマシ,モトヨシチョウコバマ,宮城県気仙沼市本吉町小浜
9880322,宮城県,気仙沼市,本吉町二十一浜,ミヤギケン,ケセンヌマシ,モトヨシチョウニジュウイチハマ,宮城県気仙沼市本吉町二十一浜
9880323,宮城県,気仙沼市,本吉町今朝磯,ミヤギケン,ケセンヌマシ,モトヨシチョウケサイソ,宮城県気仙沼市本吉町今朝磯
9880324,宮城県,気仙沼市,本吉町歌生,ミヤギケン,ケセンヌマシ,モトヨシチョウウトウ,宮城県気仙沼市本吉町歌生
9880325,宮城県,気仙沼市,本吉町蔵内,ミヤギケン,ケセンヌマシ,モトヨシチョウクラウチ,宮城県気仙沼市本吉町蔵内
9880326,宮城県,気仙沼市,本吉町柳沢,ミヤギケン,ケセンヌマシ,モトヨシチョウヤナギサワ,宮城県気仙沼市本吉町柳沢
9880327,宮城県,気仙沼市,本吉町長窪,ミヤギケン,ケセンヌマシ,モトヨシチョウナガクボ,宮城県気仙沼市本吉町長窪
9880328,宮城県,気仙沼市,本吉町菅の沢,ミヤギケン,ケセンヌマシ,モトヨシチョウスゲノサワ,宮城県気仙沼市本吉町菅の沢
9880331,宮城県,気仙沼市,本吉町中島,ミヤギケン,ケセンヌマシ,モトヨシチョウナカジマ,宮城県気仙沼市本吉町中島
9880332,宮城県,気仙沼市,本吉町下宿,ミヤギケン,ケセンヌマシ,モトヨシチョウシモジュク,宮城県気仙沼市本吉町下宿
9880333,宮城県,気仙沼市,本吉町平貝,ミヤギケン,ケセンヌマシ,モトヨシチョウヒラガイ,宮城県気仙沼市本吉町平貝
9880334,宮城県,気仙沼市,本吉町外尾,ミヤギケン,ケセンヌマシ,モトヨシチョウソデオ,宮城県気仙沼市本吉町外尾
9880335,宮城県,気仙沼市,本吉町蕨野,ミヤギケン,ケセンヌマシ,モトヨシチョウワラビノ,宮城県気仙沼市本吉町蕨野
9880336,宮城県,気仙沼市,本吉町泉沢,ミヤギケン,ケセンヌマシ,モトヨシチョウイズミサワ,宮城県気仙沼市本吉町泉沢
9880337,宮城県,気仙沼市,本吉町新南明戸,ミヤギケン,ケセンヌマシ,モトヨシチョウシンミナミアケド,宮城県気仙沼市本吉町新南明戸
9880338,宮城県,気仙沼市,本吉町南明戸,ミヤギケン,ケセンヌマシ,モトヨシチョウミナミアケド,宮城県気仙沼市本吉町南明戸
9880339,宮城県,気仙沼市,本吉町泉,ミヤギケン,ケセンヌマシ,モトヨシチョウイズミ,宮城県気仙沼市本吉町泉
9880341,宮城県,気仙沼市,本吉町津谷桜子,ミヤギケン,ケセンヌマシ,モトヨシチョウツヤサクラゴ,宮城県気仙沼市本吉町津谷桜子
9880342,宮城県,気仙沼市,本吉町幣掛,ミヤギケン,ケセンヌマシ,モトヨシチョウヌサカケ,宮城県気仙沼市本吉町幣掛
9880343,宮城県,気仙沼市,本吉町松ヶ沢,ミヤギケン,ケセンヌマシ,モトヨシチョウマツガサワ,宮城県気仙沼市本吉町松ヶ沢
9880344,宮城県,気仙沼市,本吉町宮内,ミヤギケン,ケセンヌマシ,モトヨシチョウミヤウチ,宮城県気仙沼市本吉町宮内
9880345,宮城県,気仙沼市,本吉町舘下,ミヤギケン,ケセンヌマシ,モトヨシチョウタテシタ,宮城県気仙沼市本吉町舘下
9880346,宮城県,気仙沼市,本吉町岳の下,ミヤギケン,ケセンヌマシ,モトヨシチョウタケノシタ,宮城県気仙沼市本吉町岳の下
9880347,宮城県,気仙沼市,本吉町猪の鼻,ミヤギケン,ケセンヌマシ,モトヨシチョウイノハナ,宮城県気仙沼市本吉町猪の鼻
9880348,宮城県,気仙沼市,本吉町小峰崎,ミヤギケン,ケセンヌマシ,モトヨシチョウコミネザキ,宮城県気仙沼市本吉町小峰崎
9880351,宮城県,気仙沼市,本吉町午王野沢,ミヤギケン,ケセンヌマシ,モトヨシチョウゴオウノサワ,宮城県気仙沼市本吉町午王野沢
9880352,宮城県,気仙沼市,本吉町平椚,ミヤギケン,ケセンヌマシ,モトヨシチョウタイラクヌギ,宮城県気仙沼市本吉町平椚
9880353,宮城県,気仙沼市,本吉町信夫,ミヤギケン,ケセンヌマシ,モトヨシチョウシノブ,宮城県気仙沼市本吉町信夫
9880354,宮城県,気仙沼市,本吉町鹿の子,ミヤギケン,ケセンヌマシ,モトヨシチョウカノコ,宮城県気仙沼市本吉町鹿の子
9880355,宮城県,気仙沼市,本吉町滝沢,ミヤギケン,ケセンヌマシ,モトヨシチョウタキサワ,宮城県気仙沼市本吉町滝沢
9880356,宮城県,気仙沼市,本吉町大柴,ミヤギケン,ケセンヌマシ,モトヨシチョウオオシバ,宮城県気仙沼市本吉町大柴
9880357,宮城県,気仙沼市,本吉町中平,ミヤギケン,ケセンヌマシ,モトヨシチョウナカダイラ,宮城県気仙沼市本吉町中平
9880358,宮城県,気仙沼市,本吉町大東,ミヤギケン,ケセンヌマシ,モトヨシチョウオオヒガシ,宮城県気仙沼市本吉町大東
9880359,宮城県,気仙沼市,本吉町上野,ミヤギケン,ケセンヌマシ,モトヨシチョウワノ,宮城県気仙沼市本吉町上野
9880361,宮城県,気仙沼市,本吉町下要害,ミヤギケン,ケセンヌマシ,モトヨシチョウシモヨウガイ,宮城県気仙沼市本吉町下要害
9880362,宮城県,気仙沼市,本吉町寺要害,ミヤギケン,ケセンヌマシ,モトヨシチョウテラヨウガイ,宮城県気仙沼市本吉町寺要害
9880363,宮城県,気仙沼市,本吉町深萩,ミヤギケン,ケセンヌマシ,モトヨシチョウフカハギ,宮城県気仙沼市本吉町深萩
9880364,宮城県,気仙沼市,本吉町小金山,ミヤギケン,ケセンヌマシ,モトヨシチョウコガネヤマ,宮城県気仙沼市本吉町小金山
9880365,宮城県,気仙沼市,本吉町馬籠町,ミヤギケン,ケセンヌマシ,モトヨシチョウマゴメマチ,宮城県気仙沼市本吉町馬籠町
9880366,宮城県,気仙沼市,本吉町馬籠町頭,ミヤギケン,ケセンヌマシ,モトヨシチョウマゴメマチガシラ,宮城県気仙沼市本吉町馬籠町頭
9880367,宮城県,気仙沼市,本吉町向畑,ミヤギケン,ケセンヌマシ,モトヨシチョウムカイバタ,宮城県気仙沼市本吉町向畑
9880371,宮城県,気仙沼市,本吉町漆原,ミヤギケン,ケセンヌマシ,モトヨシチョウウルシバラ,宮城県気仙沼市本吉町漆原
9880372,宮城県,気仙沼市,本吉町尾田,ミヤギケン,ケセンヌマシ,モトヨシチョウオデン,宮城県気仙沼市本吉町尾田
9880373,宮城県,気仙沼市,本吉町狩猟,ミヤギケン,ケセンヌマシ,モトヨシチョウカリョウ,宮城県気仙沼市本吉町狩猟
9880374,宮城県,気仙沼市,本吉町角柄,ミヤギケン,ケセンヌマシ,モトヨシチョウツノガラ,宮城県気仙沼市本吉町角柄
9880375,宮城県,気仙沼市,本吉町中沢,ミヤギケン,ケセンヌマシ,モトヨシチョウナカザワ,宮城県気仙沼市本吉町中沢
9880381,宮城県,気仙沼市,本吉町津谷新明戸,ミヤギケン,ケセンヌマシ,モトヨシチョウツヤシンアケド,宮城県気仙沼市本吉町津谷新明戸
9880382,宮城県,気仙沼市,本吉町津谷明戸,ミヤギケン,ケセンヌマシ,モトヨシチョウツヤアケド,宮城県気仙沼市本吉町津谷明戸
9880383,宮城県,気仙沼市,本吉町坊の倉,ミヤギケン,ケセンヌマシ,モトヨシチョウボウノクラ,宮城県気仙沼市本吉町坊の倉
9880384,宮城県,気仙沼市,本吉町高岡,ミヤギケン,ケセンヌマシ,モトヨシチョウタカオカ,宮城県気仙沼市本吉町高岡
9880385,宮城県,気仙沼市,本吉町下川内,ミヤギケン,ケセンヌマシ,モトヨシチョウシモカワウチ,宮城県気仙沼市本吉町下川内
9880386,宮城県,気仙沼市,本吉町西川内,ミヤギケン,ケセンヌマシ,モトヨシチョウニシカワウチ,宮城県気仙沼市本吉町西川内
9880387,宮城県,気仙沼市,本吉町中川内,ミヤギケン,ケセンヌマシ,モトヨシチョウナカカワウチ,宮城県気仙沼市本吉町中川内
9880388,宮城県,気仙沼市,本吉町上川内,ミヤギケン,ケセンヌマシ,モトヨシチョウカミカワウチ,宮城県気仙沼市本吉町上川内
9880389,宮城県,気仙沼市,本吉町東川内,ミヤギケン,ケセンヌマシ,モトヨシチョウヒガシカワウチ,宮城県気仙沼市本吉町東川内
9880401,宮城県,本吉郡南三陸町,歌津浪板,ミヤギケン,モトヨシグンミナミサンリクチョウ,ウタツナミイタ,宮城県本吉郡南三陸町歌津浪板
9880402,宮城県,本吉郡南三陸町,歌津港,ミヤギケン,モトヨシグンミナミサンリクチョウ,ウタツミナト,宮城県本吉郡南三陸町歌津港
9880403,宮城県,本吉郡南三陸町,歌津長羽,ミヤギケン,モトヨシグンミナミサンリクチョウ,ウタツナガハ,宮城県本吉郡南三陸町歌津長羽
9880404,宮城県,本吉郡南三陸町,歌津牧田,ミヤギケン,モトヨシグンミナミサンリクチョウ,ウタツマキタ,宮城県本吉郡南三陸町歌津牧田
9880405,宮城県,本吉郡南三陸町,歌津草木沢,ミヤギケン,モトヨシグンミナミサンリクチョウ,ウタツクサキザワ,宮城県本吉郡南三陸町歌津草木沢
9880406,宮城県,本吉郡南三陸町,歌津中野,ミヤギケン,モトヨシグンミナミサンリクチョウ,ウタツナカノ,宮城県本吉郡南三陸町歌津中野
9880411,宮城県,本吉郡南三陸町,歌津田茂川,ミヤギケン,モトヨシグンミナミサンリクチョウ,ウタツタモガワ,宮城県本吉郡南三陸町歌津田茂川
9880412,宮城県,本吉郡南三陸町,歌津南の沢,ミヤギケン,モトヨシグンミナミサンリクチョウ,ウタツミナミノサワ,宮城県本吉郡南三陸町歌津南の沢
9880413,宮城県,本吉郡南三陸町,歌津上の山,ミヤギケン,モトヨシグンミナミサンリクチョウ,ウタツカミノヤマ,宮城県本吉郡南三陸町歌津上の山
9880414,宮城県,本吉郡南三陸町,歌津長沢,ミヤギケン,モトヨシグンミナミサンリクチョウ,ウタツナガサワ,宮城県本吉郡南三陸町歌津長沢
9880415,宮城県,本吉郡南三陸町,歌津田の浦,ミヤギケン,モトヨシグンミナミサンリクチョウ,ウタツタノウラ,宮城県本吉郡南三陸町歌津田の浦
9880421,宮城県,本吉郡南三陸町,歌津平棚,ミヤギケン,モトヨシグンミナミサンリクチョウ,ウタツヒラダナ,宮城県本吉郡南三陸町歌津平棚
9880422,宮城県,本吉郡南三陸町,歌津松の崎,ミヤギケン,モトヨシグンミナミサンリクチョウ,ウタツマツノサキ,宮城県本吉郡南三陸町歌津松の崎
9880423,宮城県,本吉郡南三陸町,歌津枡沢,ミヤギケン,モトヨシグンミナミサンリクチョウ,ウタツマスザワ,宮城県本吉郡南三陸町歌津枡沢
9880424,宮城県,本吉郡南三陸町,歌津北の沢,ミヤギケン,モトヨシグンミナミサンリクチョウ,ウタツキタノサワ,宮城県本吉郡南三陸町歌津北の沢
9880425,宮城県,本吉郡南三陸町,歌津神山,ミヤギケン,モトヨシグンミナミサンリクチョウ,ウタツカミヤマ,宮城県本吉郡南三陸町歌津神山
9880426,宮城県,本吉郡南三陸町,歌津石浜,ミヤギケン,モトヨシグンミナミサンリクチョウ,ウタツイシハマ,宮城県本吉郡南三陸町歌津石浜
9880431,宮城県,本吉郡南三陸町,歌津名足,ミヤギケン,モトヨシグンミナミサンリクチョウ,ウタツナタリ,宮城県本吉郡南三陸町歌津名足
9880432,宮城県,本吉郡南三陸町,歌津中山,ミヤギケン,モトヨシグンミナミサンリクチョウ,ウタツナカヤマ,宮城県本吉郡南三陸町歌津中山
9880433,宮城県,本吉郡南三陸町,歌津馬場,ミヤギケン,モトヨシグンミナミサンリクチョウ,ウタツババ,宮城県本吉郡南三陸町歌津馬場
9880434,宮城県,本吉郡南三陸町,歌津大磯,ミヤギケン,モトヨシグンミナミサンリクチョウ,ウタツオオイソ,宮城県本吉郡南三陸町歌津大磯
9880435,宮城県,本吉郡南三陸町,歌津小沼,ミヤギケン,モトヨシグンミナミサンリクチョウ,ウタツコヌマ,宮城県本吉郡南三陸町歌津小沼
9880436,宮城県,本吉郡南三陸町,歌津小長柴,ミヤギケン,モトヨシグンミナミサンリクチョウ,ウタツコナガシバ,宮城県本吉郡南三陸町歌津小長柴
9880441,宮城県,本吉郡南三陸町,歌津田の頭,ミヤギケン,モトヨシグンミナミサンリクチョウ,ウタツタノガシラ,宮城県本吉郡南三陸町歌津田の頭
9880442,宮城県,本吉郡南三陸町,歌津番所,ミヤギケン,モトヨシグンミナミサンリクチョウ,ウタツバンドコロ,宮城県本吉郡南三陸町歌津番所
9880443,宮城県,本吉郡南三陸町,歌津尾崎,ミヤギケン,モトヨシグンミナミサンリクチョウ,ウタツオサキ,宮城県本吉郡南三陸町歌津尾崎
9880444,宮城県,本吉郡南三陸町,歌津泊浜,ミヤギケン,モトヨシグンミナミサンリクチョウ,ウタツトマリハマ,宮城県本吉郡南三陸町歌津泊浜
9880445,宮城県,本吉郡南三陸町,歌津館浜,ミヤギケン,モトヨシグンミナミサンリクチョウ,ウタツタテハマ,宮城県本吉郡南三陸町歌津館浜
9880446,宮城県,本吉郡南三陸町,歌津板橋,ミヤギケン,モトヨシグンミナミサンリクチョウ,ウタツイタバシ,宮城県本吉郡南三陸町歌津板橋
9880447,宮城県,本吉郡南三陸町,歌津長柴,ミヤギケン,モトヨシグンミナミサンリクチョウ,ウタツナガシバ,宮城県本吉郡南三陸町歌津長柴
9880448,宮城県,本吉郡南三陸町,歌津大沼,ミヤギケン,モトヨシグンミナミサンリクチョウ,ウタツオオヌマ,宮城県本吉郡南三陸町歌津大沼
9880451,宮城県,本吉郡南三陸町,歌津管の浜,ミヤギケン,モトヨシグンミナミサンリクチョウ,ウタツクダノハマ,宮城県本吉郡南三陸町歌津管の浜
9880452,宮城県,本吉郡南三陸町,歌津町向,ミヤギケン,モトヨシグンミナミサンリクチョウ,ウタツマチムカイ,宮城県本吉郡南三陸町歌津町向
9880453,宮城県,本吉郡南三陸町,歌津伊里前,ミヤギケン,モトヨシグンミナミサンリクチョウ,ウタツイサトマエ,宮城県本吉郡南三陸町歌津伊里前
9880454,宮城県,本吉郡南三陸町,歌津峰畑,ミヤギケン,モトヨシグンミナミサンリクチョウ,ウタツミネハタ,宮城県本吉郡南三陸町歌津峰畑
9880455,宮城県,本吉郡南三陸町,歌津吉野沢,ミヤギケン,モトヨシグンミナミサンリクチョウ,ウタツヨシノサワ,宮城県本吉郡南三陸町歌津吉野沢
9880456,宮城県,本吉郡南三陸町,歌津川内,ミヤギケン,モトヨシグンミナミサンリクチョウ,ウタツカワウチ,宮城県本吉郡南三陸町歌津川内
9880461,宮城県,本吉郡南三陸町,歌津寄木,ミヤギケン,モトヨシグンミナミサンリクチョウ,ウタツヨリキ,宮城県本吉郡南三陸町歌津寄木
9880462,宮城県,本吉郡南三陸町,歌津砂浜,ミヤギケン,モトヨシグンミナミサンリクチョウ,ウタツスナハマ,宮城県本吉郡南三陸町歌津砂浜
9880463,宮城県,本吉郡南三陸町,歌津大森,ミヤギケン,モトヨシグンミナミサンリクチョウ,ウタツオオモリ,宮城県本吉郡南三陸町歌津大森
9880464,宮城県,本吉郡南三陸町,歌津森畑,ミヤギケン,モトヨシグンミナミサンリクチョウ,ウタツモリハタ,宮城県本吉郡南三陸町歌津森畑
9880465,宮城県,本吉郡南三陸町,歌津韮の浜,ミヤギケン,モトヨシグンミナミサンリクチョウ,ウタツニラノハマ,宮城県本吉郡南三陸町歌津韮の浜
9880466,宮城県,本吉郡南三陸町,歌津平松,ミヤギケン,モトヨシグンミナミサンリクチョウ,ウタツヒラマツ,宮城県本吉郡南三陸町歌津平松
9880467,宮城県,本吉郡南三陸町,歌津皿貝,ミヤギケン,モトヨシグンミナミサンリクチョウ,ウタツサラガイ,宮城県本吉郡南三陸町歌津皿貝
9880471,宮城県,本吉郡南三陸町,歌津石泉,ミヤギケン,モトヨシグンミナミサンリクチョウ,ウタツイシズミ,宮城県本吉郡南三陸町歌津石泉
9880472,宮城県,本吉郡南三陸町,歌津宮方,ミヤギケン,モトヨシグンミナミサンリクチョウ,ウタツミヤカタ,宮城県本吉郡南三陸町歌津宮方
9880473,宮城県,本吉郡南三陸町,歌津中在,ミヤギケン,モトヨシグンミナミサンリクチョウ,ウタツナカザイ,宮城県本吉郡南三陸町歌津中在
9880474,宮城県,本吉郡南三陸町,歌津田表,ミヤギケン,モトヨシグンミナミサンリクチョウ,ウタツタオモテ,宮城県本吉郡南三陸町歌津田表
9880475,宮城県,本吉郡南三陸町,歌津白山,ミヤギケン,モトヨシグンミナミサンリクチョウ,ウタツシラヤマ,宮城県本吉郡南三陸町歌津白山
9880476,宮城県,本吉郡南三陸町,歌津上沢,ミヤギケン,モトヨシグンミナミサンリクチョウ,ウタツカミサワ,宮城県本吉郡南三陸町歌津上沢
9880477,宮城県,本吉郡南三陸町,歌津払川,ミヤギケン,モトヨシグンミナミサンリクチョウ,ウタツハライカワ,宮城県本吉郡南三陸町歌津払川
9880478,宮城県,本吉郡南三陸町,歌津樋の口,ミヤギケン,モトヨシグンミナミサンリクチョウ,ウタツヒノクチ,宮城県本吉郡南三陸町歌津樋の口
9880501,宮城県,気仙沼市,唐桑町釜石下,ミヤギケン,ケセンヌマシ,カラクワチョウカマイシシタ,宮城県気仙沼市唐桑町釜石下
9880502,宮城県,気仙沼市,唐桑町台の下,ミヤギケン,ケセンヌマシ,カラクワチョウダイノシタ,宮城県気仙沼市唐桑町台の下
9880503,宮城県,気仙沼市,唐桑町荒谷前,ミヤギケン,ケセンヌマシ,カラクワチョウアラヤマエ,宮城県気仙沼市唐桑町荒谷前
9880504,宮城県,気仙沼市,唐桑町竹の袖,ミヤギケン,ケセンヌマシ,カラクワチョウタケノソデ,宮城県気仙沼市唐桑町竹の袖
9880505,宮城県,気仙沼市,唐桑町港,ミヤギケン,ケセンヌマシ,カラクワチョウミナト,宮城県気仙沼市唐桑町港
9880506,宮城県,気仙沼市,唐桑町出山,ミヤギケン,ケセンヌマシ,カラクワチョウデヤマ,宮城県気仙沼市唐桑町出山
9880511,宮城県,気仙沼市,唐桑町舘,ミヤギケン,ケセンヌマシ,カラクワチョウタテ,宮城県気仙沼市唐桑町舘
9880512,宮城県,気仙沼市,唐桑町岩井沢,ミヤギケン,ケセンヌマシ,カラクワチョウイワイサワ,宮城県気仙沼市唐桑町岩井沢
9880513,宮城県,気仙沼市,唐桑町載鈎,ミヤギケン,ケセンヌマシ,カラクワチョウノセカギ,宮城県気仙沼市唐桑町載鈎
9880514,宮城県,気仙沼市,唐桑町小田,ミヤギケン,ケセンヌマシ,カラクワチョウコダ,宮城県気仙沼市唐桑町小田
9880521,宮城県,気仙沼市,唐桑町大畑,ミヤギケン,ケセンヌマシ,カラクワチョウオオハタ,宮城県気仙沼市唐桑町大畑
9880522,宮城県,気仙沼市,唐桑町上川原,ミヤギケン,ケセンヌマシ,カラクワチョウカミカワラ,宮城県気仙沼市唐桑町上川原
9880523,宮城県,気仙沼市,唐桑町境,ミヤギケン,ケセンヌマシ,カラクワチョウサカイ,宮城県気仙沼市唐桑町境
9880524,宮城県,気仙沼市,唐桑町只越,ミヤギケン,ケセンヌマシ,カラクワチョウタダコシ,宮城県気仙沼市唐桑町只越
9880525,宮城県,気仙沼市,唐桑町堂角,ミヤギケン,ケセンヌマシ,カラクワチョウドウカク,宮城県気仙沼市唐桑町堂角
9880526,宮城県,気仙沼市,唐桑町唯越,ミヤギケン,ケセンヌマシ,カラクワチョウタダコシ,宮城県気仙沼市唐桑町唯越
9880527,宮城県,気仙沼市,唐桑町西舞根（その他）,ミヤギケン,ケセンヌマシ,カラクワチョウニシモウネ(ソノタ),宮城県気仙沼市唐桑町西舞根（その他）
9880531,宮城県,気仙沼市,唐桑町高石浜,ミヤギケン,ケセンヌマシ,カラクワチョウタカイシハマ,宮城県気仙沼市唐桑町高石浜
9880532,宮城県,気仙沼市,唐桑町石浜,ミヤギケン,ケセンヌマシ,カラクワチョウイシハマ,宮城県気仙沼市唐桑町石浜
9880533,宮城県,気仙沼市,唐桑町明戸,ミヤギケン,ケセンヌマシ,カラクワチョウアケド,宮城県気仙沼市唐桑町明戸
9880534,宮城県,気仙沼市,唐桑町宿浦,ミヤギケン,ケセンヌマシ,カラクワチョウシュクウラ,宮城県気仙沼市唐桑町宿浦
9880535,宮城県,気仙沼市,唐桑町馬場,ミヤギケン,ケセンヌマシ,カラクワチョウババ,宮城県気仙沼市唐桑町馬場
9880541,宮城県,気仙沼市,唐桑町北中,ミヤギケン,ケセンヌマシ,カラクワチョウキタナカ,宮城県気仙沼市唐桑町北中
9880542,宮城県,気仙沼市,唐桑町中,ミヤギケン,ケセンヌマシ,カラクワチョウナカ,宮城県気仙沼市唐桑町中
9880543,宮城県,気仙沼市,唐桑町小長根,ミヤギケン,ケセンヌマシ,カラクワチョウコナガネ,宮城県気仙沼市唐桑町小長根
9880544,宮城県,気仙沼市,唐桑町欠浜,ミヤギケン,ケセンヌマシ,カラクワチョウカケハマ,宮城県気仙沼市唐桑町欠浜
9880551,宮城県,気仙沼市,唐桑町松圃,ミヤギケン,ケセンヌマシ,カラクワチョウマツバタケ,宮城県気仙沼市唐桑町松圃
9880552,宮城県,気仙沼市,唐桑町津本,ミヤギケン,ケセンヌマシ,カラクワチョウツモト,宮城県気仙沼市唐桑町津本
9880553,宮城県,気仙沼市,唐桑町神の倉,ミヤギケン,ケセンヌマシ,カラクワチョウカンノクラ,宮城県気仙沼市唐桑町神の倉
9880554,宮城県,気仙沼市,唐桑町崎浜,ミヤギケン,ケセンヌマシ,カラクワチョウサキハマ,宮城県気仙沼市唐桑町崎浜
9880561,宮城県,気仙沼市,唐桑町小鯖,ミヤギケン,ケセンヌマシ,カラクワチョウコサバ,宮城県気仙沼市唐桑町小鯖
9880562,宮城県,気仙沼市,唐桑町上小鯖,ミヤギケン,ケセンヌマシ,カラクワチョウカミコサバ,宮城県気仙沼市唐桑町上小鯖
9880563,宮城県,気仙沼市,唐桑町中井,ミヤギケン,ケセンヌマシ,カラクワチョウナカイ,宮城県気仙沼市唐桑町中井
9880571,宮城県,気仙沼市,唐桑町鮪立,ミヤギケン,ケセンヌマシ,カラクワチョウシビタチ,宮城県気仙沼市唐桑町鮪立
9880572,宮城県,気仙沼市,唐桑町上鮪立,ミヤギケン,ケセンヌマシ,カラクワチョウカミシビタチ,宮城県気仙沼市唐桑町上鮪立
9880581,宮城県,気仙沼市,唐桑町浦,ミヤギケン,ケセンヌマシ,カラクワチョウウラ,宮城県気仙沼市唐桑町浦
9880582,宮城県,気仙沼市,唐桑町東舞根,ミヤギケン,ケセンヌマシ,カラクワチョウヒガシモウネ,宮城県気仙沼市唐桑町東舞根
9880601,宮城県,気仙沼市,外浜,ミヤギケン,ケセンヌマシ,ソトハマ,宮城県気仙沼市外浜
9880602,宮城県,気仙沼市,大初平,ミヤギケン,ケセンヌマシ,オオハツダイラ,宮城県気仙沼市大初平
9880603,宮城県,気仙沼市,外畑,ミヤギケン,ケセンヌマシ,ソトバタケ,宮城県気仙沼市外畑
9880604,宮城県,気仙沼市,廻舘,ミヤギケン,ケセンヌマシ,マワリダテ,宮城県気仙沼市廻舘
9880605,宮城県,気仙沼市,浦の浜,ミヤギケン,ケセンヌマシ,ウラノハマ,宮城県気仙沼市浦の浜
9880606,宮城県,気仙沼市,磯草,ミヤギケン,ケセンヌマシ,イソクサ,宮城県気仙沼市磯草
9880607,宮城県,気仙沼市,亀山,ミヤギケン,ケセンヌマシ,カメヤマ,宮城県気仙沼市亀山
9880611,宮城県,気仙沼市,田尻,ミヤギケン,ケセンヌマシ,タジリ,宮城県気仙沼市田尻
9880612,宮城県,気仙沼市,大向,ミヤギケン,ケセンヌマシ,オオムカイ,宮城県気仙沼市大向
9880613,宮城県,気仙沼市,高井,ミヤギケン,ケセンヌマシ,タカイ,宮城県気仙沼市高井
9880621,宮城県,気仙沼市,長崎,ミヤギケン,ケセンヌマシ,ナガサキ,宮城県気仙沼市長崎
9880622,宮城県,気仙沼市,中山,ミヤギケン,ケセンヌマシ,ナカヤマ,宮城県気仙沼市中山
9880623,宮城県,気仙沼市,浅根,ミヤギケン,ケセンヌマシ,アサネ,宮城県気仙沼市浅根
9880631,宮城県,気仙沼市,三作浜,ミヤギケン,ケセンヌマシ,ミサクハマ,宮城県気仙沼市三作浜
9880632,宮城県,気仙沼市,横沼,ミヤギケン,ケセンヌマシ,ヨコヌマ,宮城県気仙沼市横沼
9880633,宮城県,気仙沼市,駒形,ミヤギケン,ケセンヌマシ,コマガタ,宮城県気仙沼市駒形
9880634,宮城県,気仙沼市,要害,ミヤギケン,ケセンヌマシ,ヨウガイ,宮城県気仙沼市要害
9880801,宮城県,気仙沼市,上東側根,ミヤギケン,ケセンヌマシ,カミヒガシガワネ,宮城県気仙沼市上東側根
9880802,宮城県,気仙沼市,日ノ口,ミヤギケン,ケセンヌマシ,ヒノクチ,宮城県気仙沼市日ノ口
9880802,宮城県,気仙沼市,高判形山,ミヤギケン,ケセンヌマシ,タカハンギョウヤマ,宮城県気仙沼市高判形山
9880803,宮城県,気仙沼市,上東側,ミヤギケン,ケセンヌマシ,カミヒガシガワ,宮城県気仙沼市上東側
9880804,宮城県,気仙沼市,東中才,ミヤギケン,ケセンヌマシ,ヒガシナカサイ,宮城県気仙沼市東中才
9880805,宮城県,気仙沼市,西中才,ミヤギケン,ケセンヌマシ,ニシナカサイ,宮城県気仙沼市西中才
9880806,宮城県,気仙沼市,上西側,ミヤギケン,ケセンヌマシ,カミニシガワ,宮城県気仙沼市上西側
9880807,宮城県,気仙沼市,白石,ミヤギケン,ケセンヌマシ,シライシ,宮城県気仙沼市白石
9880811,宮城県,気仙沼市,東八幡前,ミヤギケン,ケセンヌマシ,ヒガシハチマンマエ,宮城県気仙沼市東八幡前
9880812,宮城県,気仙沼市,大岩井山,ミヤギケン,ケセンヌマシ,オオイワイヤマ,宮城県気仙沼市大岩井山
9880812,宮城県,気仙沼市,大峠山,ミヤギケン,ケセンヌマシ,オオトウゲヤマ,宮城県気仙沼市大峠山
9880813,宮城県,気仙沼市,浪板,ミヤギケン,ケセンヌマシ,ナミイタ,宮城県気仙沼市浪板
9880814,宮城県,気仙沼市,大浦,ミヤギケン,ケセンヌマシ,オオウラ,宮城県気仙沼市大浦
9880815,宮城県,気仙沼市,小々汐,ミヤギケン,ケセンヌマシ,コゴシオ,宮城県気仙沼市小々汐
9880816,宮城県,気仙沼市,二ノ浜,ミヤギケン,ケセンヌマシ,ニノハマ,宮城県気仙沼市二ノ浜
9880817,宮城県,気仙沼市,西八幡前,ミヤギケン,ケセンヌマシ,ニシハチマンマエ,宮城県気仙沼市西八幡前
9880817,宮城県,気仙沼市,西八幡町,ミヤギケン,ケセンヌマシ,ニシハチマンチョウ,宮城県気仙沼市西八幡町
9880818,宮城県,気仙沼市,三ノ浜,ミヤギケン,ケセンヌマシ,サンノハマ,宮城県気仙沼市三ノ浜
9880821,宮城県,気仙沼市,大林,ミヤギケン,ケセンヌマシ,オオバヤシ,宮城県気仙沼市大林
9880822,宮城県,気仙沼市,切通,ミヤギケン,ケセンヌマシ,キリドオシ,宮城県気仙沼市切通
9880823,宮城県,気仙沼市,茗荷沢,ミヤギケン,ケセンヌマシ,ミョウガサワ,宮城県気仙沼市茗荷沢
9880824,宮城県,気仙沼市,川原崎,ミヤギケン,ケセンヌマシ,カワラザキ,宮城県気仙沼市川原崎
9880825,宮城県,気仙沼市,田尻沢,ミヤギケン,ケセンヌマシ,タジリザワ,宮城県気仙沼市田尻沢
9880826,宮城県,気仙沼市,百目木,ミヤギケン,ケセンヌマシ,ドウメキ,宮城県気仙沼市百目木
9880827,宮城県,気仙沼市,和野,ミヤギケン,ケセンヌマシ,ワノ,宮城県気仙沼市和野
9880828,宮城県,気仙沼市,下新田,ミヤギケン,ケセンヌマシ,シモシンデン,宮城県気仙沼市下新田
9880829,宮城県,気仙沼市,新田,ミヤギケン,ケセンヌマシ,シンデン,宮城県気仙沼市新田
9880831,宮城県,気仙沼市,金成沢,ミヤギケン,ケセンヌマシ,カンナリサワ,宮城県気仙沼市金成沢
9880832,宮城県,気仙沼市,瘻槻,ミヤギケン,ケセンヌマシ,コブツキ,宮城県気仙沼市瘻槻
9880833,宮城県,気仙沼市,渡戸,ミヤギケン,ケセンヌマシ,ワタド,宮城県気仙沼市渡戸
9880834,宮城県,気仙沼市,川上,ミヤギケン,ケセンヌマシ,カワカミ,宮城県気仙沼市川上
9880835,宮城県,気仙沼市,長岩間,ミヤギケン,ケセンヌマシ,ナガイワマ,宮城県気仙沼市長岩間
9880836,宮城県,気仙沼市,小芦,ミヤギケン,ケセンヌマシ,コアシ,宮城県気仙沼市小芦
9880837,宮城県,気仙沼市,鹿ノ倉,ミヤギケン,ケセンヌマシ,カノクラ,宮城県気仙沼市鹿ノ倉
9880841,宮城県,気仙沼市,柳沢,ミヤギケン,ケセンヌマシ,ヤナギザワ,宮城県気仙沼市柳沢
9880842,宮城県,気仙沼市,久保,ミヤギケン,ケセンヌマシ,クボ,宮城県気仙沼市久保
9880843,宮城県,気仙沼市,落合,ミヤギケン,ケセンヌマシ,オチアイ,宮城県気仙沼市落合
9880844,宮城県,気仙沼市,象ケ鼻,ミヤギケン,ケセンヌマシ,ゾウガハナ,宮城県気仙沼市象ケ鼻
9880845,宮城県,気仙沼市,前木,ミヤギケン,ケセンヌマシ,マエギ,宮城県気仙沼市前木
9880846,宮城県,気仙沼市,川崎尻,ミヤギケン,ケセンヌマシ,カワサキジリ,宮城県気仙沼市川崎尻
9880847,宮城県,気仙沼市,阿霄月,ミヤギケン,ケセンヌマシ,アヨイヅキ,宮城県気仙沼市阿霄月
9880851,宮城県,気仙沼市,下八瀬,ミヤギケン,ケセンヌマシ,シモヤツセ,宮城県気仙沼市下八瀬
9880852,宮城県,気仙沼市,松川,ミヤギケン,ケセンヌマシ,マツカワ,宮城県気仙沼市松川
9880853,宮城県,気仙沼市,松川前,ミヤギケン,ケセンヌマシ,マツカワマエ,宮城県気仙沼市松川前
9880854,宮城県,気仙沼市,磯沢,ミヤギケン,ケセンヌマシ,イソザワ,宮城県気仙沼市磯沢
9880855,宮城県,気仙沼市,名木沢,ミヤギケン,ケセンヌマシ,ナギサワ,宮城県気仙沼市名木沢
9880861,宮城県,気仙沼市,細尾,ミヤギケン,ケセンヌマシ,ホソオ,宮城県気仙沼市細尾
9880862,宮城県,気仙沼市,角地,ミヤギケン,ケセンヌマシ,カクジ,宮城県気仙沼市角地
9880863,宮城県,気仙沼市,芳ノ口,ミヤギケン,ケセンヌマシ,ヨシノクチ,宮城県気仙沼市芳ノ口
9880863,宮城県,気仙沼市,黒沢,ミヤギケン,ケセンヌマシ,クロサワ,宮城県気仙沼市黒沢
9880864,宮城県,気仙沼市,塚沢,ミヤギケン,ケセンヌマシ,ツカザワ,宮城県気仙沼市塚沢
9880865,宮城県,気仙沼市,新早稲谷,ミヤギケン,ケセンヌマシ,シンワセヤ,宮城県気仙沼市新早稲谷
9880865,宮城県,気仙沼市,早稲谷,ミヤギケン,ケセンヌマシ,ワセヤ,宮城県気仙沼市早稲谷
9880866,宮城県,気仙沼市,内松川,ミヤギケン,ケセンヌマシ,ウチマツカワ,宮城県気仙沼市内松川
9880867,宮城県,気仙沼市,台,ミヤギケン,ケセンヌマシ,ダイ,宮城県気仙沼市台
9880867,宮城県,気仙沼市,新台,ミヤギケン,ケセンヌマシ,シンダイ,宮城県気仙沼市新台
9880868,宮城県,気仙沼市,新関根,ミヤギケン,ケセンヌマシ,シンセキネ,宮城県気仙沼市新関根
9880868,宮城県,気仙沼市,関根,ミヤギケン,ケセンヌマシ,セキネ,宮城県気仙沼市関根
9880868,宮城県,気仙沼市,黒石山,ミヤギケン,ケセンヌマシ,クロイシヤマ,宮城県気仙沼市黒石山
9880927,宮城県,気仙沼市,唐桑町西舞根（２００番以上）,ミヤギケン,ケセンヌマシ,カラクワチョウニシモウネ(200バンイジョウ),宮城県気仙沼市唐桑町西舞根（200-以上）
9890111,宮城県,白石市,越河五賀,ミヤギケン,シロイシシ,コスゴウゴカ,宮城県白石市越河五賀
9890112,宮城県,白石市,越河平,ミヤギケン,シロイシシ,コスゴウタイラ,宮城県白石市越河平
9890113,宮城県,白石市,越河,ミヤギケン,シロイシシ,コスゴウ,宮城県白石市越河
9890200,宮城県,白石市,,ミヤギケン,シロイシシ,,宮城県白石市
9890201,宮城県,白石市,小下倉,ミヤギケン,シロイシシ,コシタグラ,宮城県白石市小下倉
9890202,宮城県,白石市,上堰,ミヤギケン,シロイシシ,カミゼキ,宮城県白石市上堰
9890203,宮城県,白石市,郡山,ミヤギケン,シロイシシ,コオリヤマ,宮城県白石市郡山
9890204,宮城県,白石市,松ケ丘,ミヤギケン,シロイシシ,マツガオカ,宮城県白石市松ケ丘
9890205,宮城県,白石市,東大畑,ミヤギケン,シロイシシ,ヒガシオオハタ,宮城県白石市東大畑
9890206,宮城県,白石市,寺屋敷前,ミヤギケン,シロイシシ,テラヤシキマエ,宮城県白石市寺屋敷前
9890207,宮城県,白石市,堂場前,ミヤギケン,シロイシシ,ドウバマエ,宮城県白石市堂場前
9890208,宮城県,白石市,大畑,ミヤギケン,シロイシシ,オオハタ,宮城県白石市大畑
9890211,宮城県,白石市,大鷹沢鷹巣,ミヤギケン,シロイシシ,オオタカサワタカノス,宮城県白石市大鷹沢鷹巣
9890212,宮城県,白石市,大鷹沢大町,ミヤギケン,シロイシシ,オオタカサワオオマチ,宮城県白石市大鷹沢大町
9890213,宮城県,白石市,大鷹沢三沢,ミヤギケン,シロイシシ,オオタカサワミサワ,宮城県白石市大鷹沢三沢
9890214,宮城県,白石市,大平坂谷,ミヤギケン,シロイシシ,オオダイラサカヤ,宮城県白石市大平坂谷
9890215,宮城県,白石市,斎川,ミヤギケン,シロイシシ,サイカワ,宮城県白石市斎川
9890216,宮城県,白石市,大平中目,ミヤギケン,シロイシシ,オオダイラナカノメ,宮城県白石市大平中目
9890217,宮城県,白石市,大平森合,ミヤギケン,シロイシシ,オオダイラモリアイ,宮城県白石市大平森合
9890218,宮城県,白石市,鷹巣東,ミヤギケン,シロイシシ,タカノスヒガシ,宮城県白石市鷹巣東
9890220,宮城県,白石市,鷹巣西,ミヤギケン,シロイシシ,タカノスニシ,宮城県白石市鷹巣西
9890221,宮城県,白石市,緑が丘,ミヤギケン,シロイシシ,ミドリガオカ,宮城県白石市緑が丘
9890222,宮城県,白石市,鷹巣,ミヤギケン,シロイシシ,タカノス,宮城県白石市鷹巣
9890223,宮城県,白石市,旭町,ミヤギケン,シロイシシ,アサヒチョウ,宮城県白石市旭町
9890224,宮城県,白石市,北無双作,ミヤギケン,シロイシシ,キタムソウサク,宮城県白石市北無双作
9890225,宮城県,白石市,東町,ミヤギケン,シロイシシ,ヒガシチョウ,宮城県白石市東町
9890226,宮城県,白石市,白石沖,ミヤギケン,シロイシシ,シロイシオキ,宮城県白石市白石沖
9890227,宮城県,白石市,田町,ミヤギケン,シロイシシ,タマチ,宮城県白石市田町
9890228,宮城県,白石市,兎作,ミヤギケン,シロイシシ,ウサギサク,宮城県白石市兎作
9890229,宮城県,白石市,銚子ケ森,ミヤギケン,シロイシシ,チョウシガモリ,宮城県白石市銚子ケ森
9890231,宮城県,白石市,福岡蔵本,ミヤギケン,シロイシシ,フクオカクラモト,宮城県白石市福岡蔵本
9890232,宮城県,白石市,福岡長袋（その他）,ミヤギケン,シロイシシ,フクオカナガフクロ(ソノタ),宮城県白石市福岡長袋（その他）
9890233,宮城県,白石市,小原,ミヤギケン,シロイシシ,オバラ,宮城県白石市小原
9890241,宮城県,白石市,寿山,ミヤギケン,シロイシシ,コトブキヤマ,宮城県白石市寿山
9890242,宮城県,白石市,柳町,ミヤギケン,シロイシシ,ヤナギマチ,宮城県白石市柳町
9890243,宮城県,白石市,沢目,ミヤギケン,シロイシシ,サワメ,宮城県白石市沢目
9890244,宮城県,白石市,上久保,ミヤギケン,シロイシシ,カミクボ,宮城県白石市上久保
9890245,宮城県,白石市,城南,ミヤギケン,シロイシシ,ジョウナン,宮城県白石市城南
9890246,宮城県,白石市,新館町,ミヤギケン,シロイシシ,シンダテチョウ,宮城県白石市新館町
9890247,宮城県,白石市,八幡町,ミヤギケン,シロイシシ,ハチマンチョウ,宮城県白石市八幡町
9890248,宮城県,白石市,南町,ミヤギケン,シロイシシ,ミナミマチ,宮城県白石市南町
9890251,宮城県,白石市,益岡町,ミヤギケン,シロイシシ,マスオカチョウ,宮城県白石市益岡町
9890252,宮城県,白石市,西益岡町,ミヤギケン,シロイシシ,ニシマスオカチョウ,宮城県白石市西益岡町
9890253,宮城県,白石市,東小路,ミヤギケン,シロイシシ,ヒガシコウジ,宮城県白石市東小路
9890254,宮城県,白石市,大川町,ミヤギケン,シロイシシ,オオカワチョウ,宮城県白石市大川町
9890255,宮城県,白石市,城北町,ミヤギケン,シロイシシ,ジョウホクチョウ,宮城県白石市城北町
9890256,宮城県,白石市,本鍛冶小路,ミヤギケン,シロイシシ,モトカジコウジ,宮城県白石市本鍛冶小路
9890257,宮城県,白石市,亘理町,ミヤギケン,シロイシシ,ワタリマチ,宮城県白石市亘理町
9890258,宮城県,白石市,半沢屋敷西,ミヤギケン,シロイシシ,ハンザワヤシキニシ,宮城県白石市半沢屋敷西
9890259,宮城県,白石市,半沢屋敷前,ミヤギケン,シロイシシ,ハンザワヤシキマエ,宮城県白石市半沢屋敷前
9890261,宮城県,白石市,外川原,ミヤギケン,シロイシシ,ソトガワラ,宮城県白石市外川原
9890262,宮城県,白石市,北川原,ミヤギケン,シロイシシ,キタガワラ,宮城県白石市北川原
9890263,宮城県,白石市,柳川原,ミヤギケン,シロイシシ,ヤナギガワラ,宮城県白石市柳川原
9890264,宮城県,白石市,幸,ミヤギケン,シロイシシ,サイワイ,宮城県白石市幸
9890265,宮城県,白石市,十王堂北,ミヤギケン,シロイシシ,ジュウオウドウキタ,宮城県白石市十王堂北
9890266,宮城県,白石市,十王堂前,ミヤギケン,シロイシシ,ジュウオウドウマエ,宮城県白石市十王堂前
9890267,宮城県,白石市,延命寺北,ミヤギケン,シロイシシ,エンメイジキタ,宮城県白石市延命寺北
9890268,宮城県,白石市,祢宜内,ミヤギケン,シロイシシ,ネギウチ,宮城県白石市祢宜内
9890271,宮城県,白石市,不澄ケ池,ミヤギケン,シロイシシ,スマズガイケ,宮城県白石市不澄ケ池
9890272,宮城県,白石市,清水小路,ミヤギケン,シロイシシ,シミズコウジ,宮城県白石市清水小路
9890273,宮城県,白石市,中町,ミヤギケン,シロイシシ,ナカマチ,宮城県白石市中町
9890274,宮城県,白石市,長町,ミヤギケン,シロイシシ,ナガマチ,宮城県白石市長町
9890275,宮城県,白石市,本町,ミヤギケン,シロイシシ,モトマチ,宮城県白石市本町
9890276,宮城県,白石市,大手町,ミヤギケン,シロイシシ,オオテマチ,宮城県白石市大手町
9890277,宮城県,白石市,沢端町,ミヤギケン,シロイシシ,サワバタチョウ,宮城県白石市沢端町
9890278,宮城県,白石市,沢端,ミヤギケン,シロイシシ,サワバタ,宮城県白石市沢端
9890500,宮城県,刈田郡七ヶ宿町,,ミヤギケン,カッタグンシチカシュクマチ,,宮城県刈田郡七ヶ宿町
9890501,宮城県,刈田郡七ヶ宿町,柏木山,ミヤギケン,カッタグンシチカシュクマチ,カシワギヤマ,宮城県刈田郡七ヶ宿町柏木山
9890502,宮城県,刈田郡七ヶ宿町,横川原,ミヤギケン,カッタグンシチカシュクマチ,ヨコカワハラ,宮城県刈田郡七ヶ宿町横川原
9890502,宮城県,刈田郡七ヶ宿町,西町裏,ミヤギケン,カッタグンシチカシュクマチ,ニシマチウラ,宮城県刈田郡七ヶ宿町西町裏
9890503,宮城県,刈田郡七ヶ宿町,横川,ミヤギケン,カッタグンシチカシュクマチ,ヨコカワ,宮城県刈田郡七ヶ宿町横川
9890504,宮城県,刈田郡七ヶ宿町,上ノ平,ミヤギケン,カッタグンシチカシュクマチ,カミノタイラ,宮城県刈田郡七ヶ宿町上ノ平
9890505,宮城県,刈田郡七ヶ宿町,上ノ平山,ミヤギケン,カッタグンシチカシュクマチ,カミノタイラヤマ,宮城県刈田郡七ヶ宿町上ノ平山
9890506,宮城県,刈田郡七ヶ宿町,油畑,ミヤギケン,カッタグンシチカシュクマチ,アブラハタ,宮城県刈田郡七ヶ宿町油畑
9890507,宮城県,刈田郡七ヶ宿町,大萱,ミヤギケン,カッタグンシチカシュクマチ,オオガヤ,宮城県刈田郡七ヶ宿町大萱
9890507,宮城県,刈田郡七ヶ宿町,町下,ミヤギケン,カッタグンシチカシュクマチ,マチシタ,宮城県刈田郡七ヶ宿町町下
9890508,宮城県,刈田郡七ヶ宿町,長老,ミヤギケン,カッタグンシチカシュクマチ,チョウロウ,宮城県刈田郡七ヶ宿町長老
9890511,宮城県,刈田郡七ヶ宿町,松原,ミヤギケン,カッタグンシチカシュクマチ,マツバラ,宮城県刈田郡七ヶ宿町松原
9890512,宮城県,刈田郡七ヶ宿町,関,ミヤギケン,カッタグンシチカシュクマチ,セキ,宮城県刈田郡七ヶ宿町関
9890513,宮城県,刈田郡七ヶ宿町,上町尻,ミヤギケン,カッタグンシチカシュクマチ,カミマチジリ,宮城県刈田郡七ヶ宿町上町尻
9890514,宮城県,刈田郡七ヶ宿町,下町尻,ミヤギケン,カッタグンシチカシュクマチ,シモマチジリ,宮城県刈田郡七ヶ宿町下町尻
9890515,宮城県,刈田郡七ヶ宿町,宮前,ミヤギケン,カッタグンシチカシュクマチ,ミヤマエ,宮城県刈田郡七ヶ宿町宮前
9890515,宮城県,刈田郡七ヶ宿町,町尻,ミヤギケン,カッタグンシチカシュクマチ,マチジリ,宮城県刈田郡七ヶ宿町町尻
9890516,宮城県,刈田郡七ヶ宿町,上島田原,ミヤギケン,カッタグンシチカシュクマチ,カミシマダハラ,宮城県刈田郡七ヶ宿町上島田原
9890516,宮城県,刈田郡七ヶ宿町,下島田原,ミヤギケン,カッタグンシチカシュクマチ,シモシマダハラ,宮城県刈田郡七ヶ宿町下島田原
9890516,宮城県,刈田郡七ヶ宿町,大貫平,ミヤギケン,カッタグンシチカシュクマチ,オオヌキダイラ,宮城県刈田郡七ヶ宿町大貫平
9890516,宮城県,刈田郡七ヶ宿町,東島田原,ミヤギケン,カッタグンシチカシュクマチ,ヒガシシマダハラ,宮城県刈田郡七ヶ宿町東島田原
9890516,宮城県,刈田郡七ヶ宿町,西島田原,ミヤギケン,カッタグンシチカシュクマチ,ニシシマダハラ,宮城県刈田郡七ヶ宿町西島田原
9890517,宮城県,刈田郡七ヶ宿町,上八合,ミヤギケン,カッタグンシチカシュクマチ,カミハチゴウ,宮城県刈田郡七ヶ宿町上八合
9890518,宮城県,刈田郡七ヶ宿町,下八合,ミヤギケン,カッタグンシチカシュクマチ,シモハチゴウ,宮城県刈田郡七ヶ宿町下八合
9890519,宮城県,刈田郡七ヶ宿町,神林山,ミヤギケン,カッタグンシチカシュクマチ,カミバヤシヤマ,宮城県刈田郡七ヶ宿町神林山
9890519,宮城県,刈田郡七ヶ宿町,諏訪原,ミヤギケン,カッタグンシチカシュクマチ,スワバラ,宮城県刈田郡七ヶ宿町諏訪原
9890521,宮城県,刈田郡七ヶ宿町,新雷神,ミヤギケン,カッタグンシチカシュクマチ,シンライジン,宮城県刈田郡七ヶ宿町新雷神
9890522,宮城県,刈田郡七ヶ宿町,一枚田,ミヤギケン,カッタグンシチカシュクマチ,イチマイダ,宮城県刈田郡七ヶ宿町一枚田
9890523,宮城県,刈田郡七ヶ宿町,館下,ミヤギケン,カッタグンシチカシュクマチ,タテシタ,宮城県刈田郡七ヶ宿町館下
9890524,宮城県,刈田郡七ヶ宿町,上烏川,ミヤギケン,カッタグンシチカシュクマチ,カミカラスガワ,宮城県刈田郡七ヶ宿町上烏川
9890524,宮城県,刈田郡七ヶ宿町,廻館,ミヤギケン,カッタグンシチカシュクマチ,マワリタテ,宮城県刈田郡七ヶ宿町廻館
9890525,宮城県,刈田郡七ヶ宿町,利津保,ミヤギケン,カッタグンシチカシュクマチ,リツホ,宮城県刈田郡七ヶ宿町利津保
9890526,宮城県,刈田郡七ヶ宿町,明神前,ミヤギケン,カッタグンシチカシュクマチ,ミョウジンマエ,宮城県刈田郡七ヶ宿町明神前
9890527,宮城県,刈田郡七ヶ宿町,烏川岳,ミヤギケン,カッタグンシチカシュクマチ,カラスガワダケ,宮城県刈田郡七ヶ宿町烏川岳
9890528,宮城県,刈田郡七ヶ宿町,沢上山,ミヤギケン,カッタグンシチカシュクマチ,サワガミヤマ,宮城県刈田郡七ヶ宿町沢上山
9890529,宮城県,刈田郡七ヶ宿町,大杉,ミヤギケン,カッタグンシチカシュクマチ,オオスギ,宮城県刈田郡七ヶ宿町大杉
9890529,宮城県,刈田郡七ヶ宿町,瀬見原,ミヤギケン,カッタグンシチカシュクマチ,セミハラ,宮城県刈田郡七ヶ宿町瀬見原
9890531,宮城県,刈田郡七ヶ宿町,矢立,ミヤギケン,カッタグンシチカシュクマチ,ヤタテ,宮城県刈田郡七ヶ宿町矢立
9890532,宮城県,刈田郡七ヶ宿町,根添,ミヤギケン,カッタグンシチカシュクマチ,ネゾエ,宮城県刈田郡七ヶ宿町根添
9890533,宮城県,刈田郡七ヶ宿町,矢立平,ミヤギケン,カッタグンシチカシュクマチ,ヤタテダイラ,宮城県刈田郡七ヶ宿町矢立平
9890534,宮城県,刈田郡七ヶ宿町,若林山,ミヤギケン,カッタグンシチカシュクマチ,ワカバヤシヤマ,宮城県刈田郡七ヶ宿町若林山
9890535,宮城県,刈田郡七ヶ宿町,夏梨平,ミヤギケン,カッタグンシチカシュクマチ,ナツナシダイラ,宮城県刈田郡七ヶ宿町夏梨平
9890535,宮城県,刈田郡七ヶ宿町,野沢倉山,ミヤギケン,カッタグンシチカシュクマチ,ノザワクラヤマ,宮城県刈田郡七ヶ宿町野沢倉山
9890536,宮城県,刈田郡七ヶ宿町,切通,ミヤギケン,カッタグンシチカシュクマチ,キリトオシ,宮城県刈田郡七ヶ宿町切通
9890537,宮城県,刈田郡七ヶ宿町,上野,ミヤギケン,カッタグンシチカシュクマチ,ウワノ,宮城県刈田郡七ヶ宿町上野
9890537,宮城県,刈田郡七ヶ宿町,萩崎,ミヤギケン,カッタグンシチカシュクマチ,ハギザキ,宮城県刈田郡七ヶ宿町萩崎
9890541,宮城県,刈田郡七ヶ宿町,仕切目,ミヤギケン,カッタグンシチカシュクマチ,シキリメ,宮城県刈田郡七ヶ宿町仕切目
9890542,宮城県,刈田郡七ヶ宿町,島木野,ミヤギケン,カッタグンシチカシュクマチ,シマギノ,宮城県刈田郡七ヶ宿町島木野
9890543,宮城県,刈田郡七ヶ宿町,蒲木,ミヤギケン,カッタグンシチカシュクマチ,カバノキ,宮城県刈田郡七ヶ宿町蒲木
9890544,宮城県,刈田郡七ヶ宿町,中ノ沢原道下,ミヤギケン,カッタグンシチカシュクマチ,ナカノサワハラミチシタ,宮城県刈田郡七ヶ宿町中ノ沢原道下
9890544,宮城県,刈田郡七ヶ宿町,原谷地際,ミヤギケン,カッタグンシチカシュクマチ,ハラヤチギワ,宮城県刈田郡七ヶ宿町原谷地際
9890545,宮城県,刈田郡七ヶ宿町,原道上,ミヤギケン,カッタグンシチカシュクマチ,ハラミチウエ,宮城県刈田郡七ヶ宿町原道上
9890546,宮城県,刈田郡七ヶ宿町,原道下,ミヤギケン,カッタグンシチカシュクマチ,ハラミチシタ,宮城県刈田郡七ヶ宿町原道下
9890547,宮城県,刈田郡七ヶ宿町,中之沢,ミヤギケン,カッタグンシチカシュクマチ,ナカノサワ,宮城県刈田郡七ヶ宿町中之沢
9890548,宮城県,刈田郡七ヶ宿町,八ツ分,ミヤギケン,カッタグンシチカシュクマチ,ヤツワケ,宮城県刈田郡七ヶ宿町八ツ分
9890549,宮城県,刈田郡七ヶ宿町,滑津,ミヤギケン,カッタグンシチカシュクマチ,ナメツ,宮城県刈田郡七ヶ宿町滑津
9890551,宮城県,刈田郡七ヶ宿町,八ツ森,ミヤギケン,カッタグンシチカシュクマチ,ヤツモリ,宮城県刈田郡七ヶ宿町八ツ森
9890552,宮城県,刈田郡七ヶ宿町,苗代端,ミヤギケン,カッタグンシチカシュクマチ,ナワシロバタ,宮城県刈田郡七ヶ宿町苗代端
9890553,宮城県,刈田郡七ヶ宿町,大迎,ミヤギケン,カッタグンシチカシュクマチ,オオムカエ,宮城県刈田郡七ヶ宿町大迎
9890554,宮城県,刈田郡七ヶ宿町,陳ノ窪,ミヤギケン,カッタグンシチカシュクマチ,ジンノクボ,宮城県刈田郡七ヶ宿町陳ノ窪
9890555,宮城県,刈田郡七ヶ宿町,水上口,ミヤギケン,カッタグンシチカシュクマチ,ミズカミグチ,宮城県刈田郡七ヶ宿町水上口
9890555,宮城県,刈田郡七ヶ宿町,滝ノ上,ミヤギケン,カッタグンシチカシュクマチ,タキノウエ,宮城県刈田郡七ヶ宿町滝ノ上
9890556,宮城県,刈田郡七ヶ宿町,愛宕下,ミヤギケン,カッタグンシチカシュクマチ,アタゴシタ,宮城県刈田郡七ヶ宿町愛宕下
9890557,宮城県,刈田郡七ヶ宿町,西森下,ミヤギケン,カッタグンシチカシュクマチ,ニシモリシタ,宮城県刈田郡七ヶ宿町西森下
9890561,宮城県,刈田郡七ヶ宿町,栗原,ミヤギケン,カッタグンシチカシュクマチ,クリハラ,宮城県刈田郡七ヶ宿町栗原
9890601,宮城県,刈田郡七ヶ宿町,茂ヶ沢,ミヤギケン,カッタグンシチカシュクマチ,モガザワ,宮城県刈田郡七ヶ宿町茂ヶ沢
9890602,宮城県,刈田郡七ヶ宿町,寺跡,ミヤギケン,カッタグンシチカシュクマチ,テラアト,宮城県刈田郡七ヶ宿町寺跡
9890611,宮城県,刈田郡七ヶ宿町,山伏坂,ミヤギケン,カッタグンシチカシュクマチ,ヤマブシサカ,宮城県刈田郡七ヶ宿町山伏坂
9890612,宮城県,刈田郡七ヶ宿町,侭ノ上,ミヤギケン,カッタグンシチカシュクマチ,ママノウエ,宮城県刈田郡七ヶ宿町侭ノ上
9890613,宮城県,刈田郡七ヶ宿町,上川原,ミヤギケン,カッタグンシチカシュクマチ,カミカワラ,宮城県刈田郡七ヶ宿町上川原
9890614,宮城県,刈田郡七ヶ宿町,中川原,ミヤギケン,カッタグンシチカシュクマチ,ナカガワハラ,宮城県刈田郡七ヶ宿町中川原
9890615,宮城県,刈田郡七ヶ宿町,沼田,ミヤギケン,カッタグンシチカシュクマチ,ヌマタ,宮城県刈田郡七ヶ宿町沼田
9890616,宮城県,刈田郡七ヶ宿町,薄沢口,ミヤギケン,カッタグンシチカシュクマチ,ススキザワグチ,宮城県刈田郡七ヶ宿町薄沢口
9890617,宮城県,刈田郡七ヶ宿町,滝下,ミヤギケン,カッタグンシチカシュクマチ,タキシタ,宮城県刈田郡七ヶ宿町滝下
9890621,宮城県,刈田郡七ヶ宿町,峠田,ミヤギケン,カッタグンシチカシュクマチ,トウゲタ,宮城県刈田郡七ヶ宿町峠田
9890622,宮城県,刈田郡七ヶ宿町,峠田町頭,ミヤギケン,カッタグンシチカシュクマチ,トウゲタマチカシラ,宮城県刈田郡七ヶ宿町峠田町頭
9890623,宮城県,刈田郡七ヶ宿町,上ノ台,ミヤギケン,カッタグンシチカシュクマチ,カミノダイ,宮城県刈田郡七ヶ宿町上ノ台
9890624,宮城県,刈田郡七ヶ宿町,明神下,ミヤギケン,カッタグンシチカシュクマチ,ミョウジンシタ,宮城県刈田郡七ヶ宿町明神下
9890625,宮城県,刈田郡七ヶ宿町,峠田愛宕下,ミヤギケン,カッタグンシチカシュクマチ,トウゲタアタゴシタ,宮城県刈田郡七ヶ宿町峠田愛宕下
9890626,宮城県,刈田郡七ヶ宿町,茂庭道,ミヤギケン,カッタグンシチカシュクマチ,モニワミチ,宮城県刈田郡七ヶ宿町茂庭道
9890627,宮城県,刈田郡七ヶ宿町,坂ノ下,ミヤギケン,カッタグンシチカシュクマチ,サカノシタ,宮城県刈田郡七ヶ宿町坂ノ下
9890628,宮城県,刈田郡七ヶ宿町,境ノ沢,ミヤギケン,カッタグンシチカシュクマチ,サカイノサワ,宮城県刈田郡七ヶ宿町境ノ沢
9890631,宮城県,刈田郡七ヶ宿町,大石川原,ミヤギケン,カッタグンシチカシュクマチ,オオイシカワラ,宮城県刈田郡七ヶ宿町大石川原
9890632,宮城県,刈田郡七ヶ宿町,田中道下,ミヤギケン,カッタグンシチカシュクマチ,タナカミチシタ,宮城県刈田郡七ヶ宿町田中道下
9890633,宮城県,刈田郡七ヶ宿町,田中道上,ミヤギケン,カッタグンシチカシュクマチ,タナカミチウエ,宮城県刈田郡七ヶ宿町田中道上
9890634,宮城県,刈田郡七ヶ宿町,小駕籠沢,ミヤギケン,カッタグンシチカシュクマチ,コカゴサワ,宮城県刈田郡七ヶ宿町小駕籠沢
9890635,宮城県,刈田郡七ヶ宿町,板木,ミヤギケン,カッタグンシチカシュクマチ,イタギ,宮城県刈田郡七ヶ宿町板木
9890636,宮城県,刈田郡七ヶ宿町,六本杉,ミヤギケン,カッタグンシチカシュクマチ,ロッポンスギ,宮城県刈田郡七ヶ宿町六本杉
9890641,宮城県,刈田郡七ヶ宿町,程ヶ沢,ミヤギケン,カッタグンシチカシュクマチ,ホドガサワ,宮城県刈田郡七ヶ宿町程ヶ沢
9890642,宮城県,刈田郡七ヶ宿町,割付,ミヤギケン,カッタグンシチカシュクマチ,ワリツケ,宮城県刈田郡七ヶ宿町割付
9890643,宮城県,刈田郡七ヶ宿町,稲子,ミヤギケン,カッタグンシチカシュクマチ,イナゴ,宮城県刈田郡七ヶ宿町稲子
9890644,宮城県,刈田郡七ヶ宿町,稲子山,ミヤギケン,カッタグンシチカシュクマチ,イナゴヤマ,宮城県刈田郡七ヶ宿町稲子山
9890651,宮城県,刈田郡七ヶ宿町,東口道上,ミヤギケン,カッタグンシチカシュクマチ,ヒガシグチミチウエ,宮城県刈田郡七ヶ宿町東口道上
9890652,宮城県,刈田郡七ヶ宿町,東口道下,ミヤギケン,カッタグンシチカシュクマチ,ヒガシグチミチシタ,宮城県刈田郡七ヶ宿町東口道下
9890653,宮城県,刈田郡七ヶ宿町,湯原,ミヤギケン,カッタグンシチカシュクマチ,ユノハラ,宮城県刈田郡七ヶ宿町湯原
9890654,宮城県,刈田郡七ヶ宿町,寺前,ミヤギケン,カッタグンシチカシュクマチ,テラマエ,宮城県刈田郡七ヶ宿町寺前
9890655,宮城県,刈田郡七ヶ宿町,壇前,ミヤギケン,カッタグンシチカシュクマチ,ダンノマエ,宮城県刈田郡七ヶ宿町壇前
9890656,宮城県,刈田郡七ヶ宿町,柳沢山国有林,ミヤギケン,カッタグンシチカシュクマチ,ヤナギサワヤマコクユウリン,宮城県刈田郡七ヶ宿町柳沢山国有林
9890657,宮城県,刈田郡七ヶ宿町,町裏,ミヤギケン,カッタグンシチカシュクマチ,マチウラ,宮城県刈田郡七ヶ宿町町裏
9890658,宮城県,刈田郡七ヶ宿町,南浦畑,ミヤギケン,カッタグンシチカシュクマチ,ミナミウラハタ,宮城県刈田郡七ヶ宿町南浦畑
9890661,宮城県,刈田郡七ヶ宿町,坂ノ上,ミヤギケン,カッタグンシチカシュクマチ,サカノウエ,宮城県刈田郡七ヶ宿町坂ノ上
9890662,宮城県,刈田郡七ヶ宿町,赤地,ミヤギケン,カッタグンシチカシュクマチ,アカチ,宮城県刈田郡七ヶ宿町赤地
9890663,宮城県,刈田郡七ヶ宿町,東沢,ミヤギケン,カッタグンシチカシュクマチ,ヒガシサワ,宮城県刈田郡七ヶ宿町東沢
9890664,宮城県,刈田郡七ヶ宿町,行人原道上,ミヤギケン,カッタグンシチカシュクマチ,ギョウニンハラミチウエ,宮城県刈田郡七ヶ宿町行人原道上
9890665,宮城県,刈田郡七ヶ宿町,侭ノ上地蔵前,ミヤギケン,カッタグンシチカシュクマチ,ママノウエジゾウマエ,宮城県刈田郡七ヶ宿町侭ノ上地蔵前
9890666,宮城県,刈田郡七ヶ宿町,干蒲,ミヤギケン,カッタグンシチカシュクマチ,ヒカバ,宮城県刈田郡七ヶ宿町干蒲
9890667,宮城県,刈田郡七ヶ宿町,水下道上,ミヤギケン,カッタグンシチカシュクマチ,ミズシタミチウエ,宮城県刈田郡七ヶ宿町水下道上
9890701,宮城県,刈田郡蔵王町,宮,ミヤギケン,カッタグンザオウマチ,ミヤ,宮城県刈田郡蔵王町宮
9890731,宮城県,白石市,福岡深谷,ミヤギケン,シロイシシ,フクオカフカヤ,宮城県白石市福岡深谷
9890732,宮城県,白石市,福岡長袋（川寺山、芹沢）,ミヤギケン,シロイシシ,フクオカナガフクロ(カワテラヤマ、セリザワ),宮城県白石市福岡長袋（川寺山、芹沢）
9890733,宮城県,白石市,福岡八宮,ミヤギケン,シロイシシ,フクオカヤツミヤ,宮城県白石市福岡八宮
9890734,宮城県,白石市,白鳥,ミヤギケン,シロイシシ,シラトリ,宮城県白石市白鳥
9890800,宮城県,刈田郡蔵王町,,ミヤギケン,カッタグンザオウマチ,,宮城県刈田郡蔵王町
9890821,宮城県,刈田郡蔵王町,円田（その他）,ミヤギケン,カッタグンザオウマチ,エンダ(ソノタ),宮城県刈田郡蔵王町円田（その他）
9890831,宮城県,刈田郡蔵王町,平沢,ミヤギケン,カッタグンザオウマチ,ヒラサワ,宮城県刈田郡蔵王町平沢
9890841,宮城県,刈田郡蔵王町,小村崎,ミヤギケン,カッタグンザオウマチ,コムラサキ,宮城県刈田郡蔵王町小村崎
9890842,宮城県,刈田郡蔵王町,塩沢,ミヤギケン,カッタグンザオウマチ,シオザワ,宮城県刈田郡蔵王町塩沢
9890843,宮城県,刈田郡蔵王町,矢附,ミヤギケン,カッタグンザオウマチ,ヤヅキ,宮城県刈田郡蔵王町矢附
9890851,宮城県,刈田郡蔵王町,曲竹,ミヤギケン,カッタグンザオウマチ,マガタケ,宮城県刈田郡蔵王町曲竹
9890901,宮城県,柴田郡川崎町,前川（青根、手代塚山、沼ノ平山、名号下山、権現塚、火の塚山、峩々）,ミヤギケン,シバタグンカワサキマチ,マエカワ(アオネ、テシロツカヤマ、ヌマノタイヤマ、ミョウゴシタヤマ、ゴンゲンヅカ、ヒノツカヤマ、ガガ),宮城県柴田郡川崎町前川（青根、手代塚山、沼ノ平山、名号下山、権現塚、火の塚山、峩々）
9890908,宮城県,柴田郡川崎町,青根温泉,ミヤギケン,シバタグンカワサキマチ,アオネオンセン,宮城県柴田郡川崎町青根温泉
9890911,宮城県,刈田郡蔵王町,遠刈田温泉栄町,ミヤギケン,カッタグンザオウマチ,トオガッタオンセンサカエチョウ,宮城県刈田郡蔵王町遠刈田温泉栄町
9890912,宮城県,刈田郡蔵王町,遠刈田温泉仲町,ミヤギケン,カッタグンザオウマチ,トオガッタオンセンナカマチ,宮城県刈田郡蔵王町遠刈田温泉仲町
9890913,宮城県,刈田郡蔵王町,遠刈田温泉本町,ミヤギケン,カッタグンザオウマチ,トオガッタオンセンモトマチ,宮城県刈田郡蔵王町遠刈田温泉本町
9890914,宮城県,刈田郡蔵王町,遠刈田温泉旭町,ミヤギケン,カッタグンザオウマチ,トオガッタオンセンアサヒチョウ,宮城県刈田郡蔵王町遠刈田温泉旭町
9890915,宮城県,刈田郡蔵王町,遠刈田温泉寿町,ミヤギケン,カッタグンザオウマチ,トオガッタオンセンコトブキチョウ,宮城県刈田郡蔵王町遠刈田温泉寿町
9890916,宮城県,刈田郡蔵王町,遠刈田温泉,ミヤギケン,カッタグンザオウマチ,トオガッタオンセン,宮城県刈田郡蔵王町遠刈田温泉
9890921,宮城県,刈田郡蔵王町,円田（釜沢、善舞森、土浮谷地、土浮山２〜５番地）,ミヤギケン,カッタグンザオウマチ,エンダ(カマザワ、ゼンブモリ、ドブヤチ、ドブヤマ2-5バンチ),宮城県刈田郡蔵王町円田（釜沢、善舞森、土浮谷地、土浮山2〜5-）
9891101,宮城県,白石市,白川小奥,ミヤギケン,シロイシシ,シラカワコオク,宮城県白石市白川小奥
9891102,宮城県,白石市,白川津田,ミヤギケン,シロイシシ,シラカワツダ,宮城県白石市白川津田
9891103,宮城県,白石市,白川犬卒都婆,ミヤギケン,シロイシシ,シラカワイヌソトバ,宮城県白石市白川犬卒都婆
9891104,宮城県,白石市,白川内親,ミヤギケン,シロイシシ,シラカワウチオヤ,宮城県白石市白川内親
9891200,宮城県,柴田郡大河原町,,ミヤギケン,シバタグンオオガワラマチ,,宮城県柴田郡大河原町
9891201,宮城県,柴田郡大河原町,大谷,ミヤギケン,シバタグンオオガワラマチ,オオヤ,宮城県柴田郡大河原町大谷
9891202,宮城県,柴田郡大河原町,高砂町,ミヤギケン,シバタグンオオガワラマチ,タカサゴチョウ,宮城県柴田郡大河原町高砂町
9891203,宮城県,柴田郡大河原町,旭町,ミヤギケン,シバタグンオオガワラマチ,アサヒチョウ,宮城県柴田郡大河原町旭町
9891204,宮城県,柴田郡大河原町,大竜,ミヤギケン,シバタグンオオガワラマチ,オオタツ,宮城県柴田郡大河原町大竜
9891205,宮城県,柴田郡大河原町,大芝,ミヤギケン,シバタグンオオガワラマチ,オオシバ,宮城県柴田郡大河原町大芝
9891206,宮城県,柴田郡大河原町,中の倉,ミヤギケン,シバタグンオオガワラマチ,ナカノクラ,宮城県柴田郡大河原町中の倉
9891207,宮城県,柴田郡大河原町,川瀬町,ミヤギケン,シバタグンオオガワラマチ,カワセチョウ,宮城県柴田郡大河原町川瀬町
9891211,宮城県,柴田郡大河原町,広瀬町,ミヤギケン,シバタグンオオガワラマチ,ヒロセチョウ,宮城県柴田郡大河原町広瀬町
9891212,宮城県,柴田郡大河原町,山崎町,ミヤギケン,シバタグンオオガワラマチ,ヤマザキチョウ,宮城県柴田郡大河原町山崎町
9891213,宮城県,柴田郡大河原町,住吉町,ミヤギケン,シバタグンオオガワラマチ,スミヨシチョウ,宮城県柴田郡大河原町住吉町
9891214,宮城県,柴田郡大河原町,甲子町,ミヤギケン,シバタグンオオガワラマチ,キノイネチョウ,宮城県柴田郡大河原町甲子町
9891215,宮城県,柴田郡大河原町,中島町,ミヤギケン,シバタグンオオガワラマチ,ナカジマチョウ,宮城県柴田郡大河原町中島町
9891216,宮城県,柴田郡大河原町,幸町,ミヤギケン,シバタグンオオガワラマチ,サイワイチョウ,宮城県柴田郡大河原町幸町
9891217,宮城県,柴田郡大河原町,錦町,ミヤギケン,シバタグンオオガワラマチ,ニシキチョウ,宮城県柴田郡大河原町錦町
9891221,宮城県,柴田郡大河原町,緑町,ミヤギケン,シバタグンオオガワラマチ,ミドリチョウ,宮城県柴田郡大河原町緑町
9891222,宮城県,柴田郡大河原町,南平,ミヤギケン,シバタグンオオガワラマチ,ナンペイ,宮城県柴田郡大河原町南平
9891223,宮城県,柴田郡大河原町,東新町,ミヤギケン,シバタグンオオガワラマチ,ヒガシシンチョウ,宮城県柴田郡大河原町東新町
9891224,宮城県,柴田郡大河原町,金ケ瀬,ミヤギケン,シバタグンオオガワラマチ,カナガセ,宮城県柴田郡大河原町金ケ瀬
9891225,宮城県,柴田郡大河原町,広表,ミヤギケン,シバタグンオオガワラマチ,ヒロオモテ,宮城県柴田郡大河原町広表
9891231,宮城県,柴田郡大河原町,中川原,ミヤギケン,シバタグンオオガワラマチ,ナカガワラ,宮城県柴田郡大河原町中川原
9891232,宮城県,柴田郡大河原町,南海道下,ミヤギケン,シバタグンオオガワラマチ,ミナミカイドウシタ,宮城県柴田郡大河原町南海道下
9891233,宮城県,柴田郡大河原町,上川原,ミヤギケン,シバタグンオオガワラマチ,カミカワラ,宮城県柴田郡大河原町上川原
9891234,宮城県,柴田郡大河原町,新古川,ミヤギケン,シバタグンオオガワラマチ,シンフルカワ,宮城県柴田郡大河原町新古川
9891235,宮城県,柴田郡大河原町,南原町,ミヤギケン,シバタグンオオガワラマチ,ミナミハラマチ,宮城県柴田郡大河原町南原町
9891236,宮城県,柴田郡大河原町,東原町,ミヤギケン,シバタグンオオガワラマチ,ヒガシハラマチ,宮城県柴田郡大河原町東原町
9891237,宮城県,柴田郡大河原町,荒町,ミヤギケン,シバタグンオオガワラマチ,アラマチ,宮城県柴田郡大河原町荒町
9891241,宮城県,柴田郡大河原町,町,ミヤギケン,シバタグンオオガワラマチ,マチ,宮城県柴田郡大河原町町
9891242,宮城県,柴田郡大河原町,西浦,ミヤギケン,シバタグンオオガワラマチ,ニシウラ,宮城県柴田郡大河原町西浦
9891243,宮城県,柴田郡大河原町,南,ミヤギケン,シバタグンオオガワラマチ,ミナミ,宮城県柴田郡大河原町南
9891244,宮城県,柴田郡大河原町,西町,ミヤギケン,シバタグンオオガワラマチ,ニシマチ,宮城県柴田郡大河原町西町
9891245,宮城県,柴田郡大河原町,新南,ミヤギケン,シバタグンオオガワラマチ,シンミナミ,宮城県柴田郡大河原町新南
9891246,宮城県,柴田郡大河原町,新東,ミヤギケン,シバタグンオオガワラマチ,シンヒガシ,宮城県柴田郡大河原町新東
9891247,宮城県,柴田郡大河原町,東,ミヤギケン,シバタグンオオガワラマチ,ヒガシ,宮城県柴田郡大河原町東
9891248,宮城県,柴田郡大河原町,土手崎,ミヤギケン,シバタグンオオガワラマチ,ドテザキ,宮城県柴田郡大河原町土手崎
9891249,宮城県,柴田郡大河原町,海道東,ミヤギケン,シバタグンオオガワラマチ,カイドウヒガシ,宮城県柴田郡大河原町海道東
9891251,宮城県,柴田郡大河原町,橋本,ミヤギケン,シバタグンオオガワラマチ,ハシモト,宮城県柴田郡大河原町橋本
9891252,宮城県,柴田郡大河原町,八乙女,ミヤギケン,シバタグンオオガワラマチ,ヤオトメ,宮城県柴田郡大河原町八乙女
9891253,宮城県,柴田郡大河原町,西,ミヤギケン,シバタグンオオガワラマチ,ニシ,宮城県柴田郡大河原町西
9891254,宮城県,柴田郡大河原町,沼,ミヤギケン,シバタグンオオガワラマチ,ヌマ,宮城県柴田郡大河原町沼
9891255,宮城県,柴田郡大河原町,袖谷地,ミヤギケン,シバタグンオオガワラマチ,ソデヤチ,宮城県柴田郡大河原町袖谷地
9891256,宮城県,柴田郡大河原町,堤,ミヤギケン,シバタグンオオガワラマチ,ツツミ,宮城県柴田郡大河原町堤
9891257,宮城県,柴田郡大河原町,新寺,ミヤギケン,シバタグンオオガワラマチ,ニッテラ,宮城県柴田郡大河原町新寺
9891258,宮城県,柴田郡大河原町,小山田,ミヤギケン,シバタグンオオガワラマチ,オヤマダ,宮城県柴田郡大河原町小山田
9891259,宮城県,柴田郡大河原町,福田,ミヤギケン,シバタグンオオガワラマチ,フクダ,宮城県柴田郡大河原町福田
9891261,宮城県,柴田郡大河原町,大巻,ミヤギケン,シバタグンオオガワラマチ,オオマキ,宮城県柴田郡大河原町大巻
9891263,宮城県,柴田郡大河原町,大谷地,ミヤギケン,シバタグンオオガワラマチ,オオヤチ,宮城県柴田郡大河原町大谷地
9891264,宮城県,柴田郡大河原町,新青川,ミヤギケン,シバタグンオオガワラマチ,シンアオカワ,宮城県柴田郡大河原町新青川
9891266,宮城県,柴田郡大河原町,千塚前,ミヤギケン,シバタグンオオガワラマチ,センツカマエ,宮城県柴田郡大河原町千塚前
9891267,宮城県,柴田郡大河原町,小島,ミヤギケン,シバタグンオオガワラマチ,オシマ,宮城県柴田郡大河原町小島
9891271,宮城県,柴田郡大河原町,東桜町,ミヤギケン,シバタグンオオガワラマチ,ヒガシサクラチョウ,宮城県柴田郡大河原町東桜町
9891272,宮城県,柴田郡大河原町,南桜町,ミヤギケン,シバタグンオオガワラマチ,ミナミサクラチョウ,宮城県柴田郡大河原町南桜町
9891273,宮城県,柴田郡大河原町,西桜町,ミヤギケン,シバタグンオオガワラマチ,ニシサクラチョウ,宮城県柴田郡大河原町西桜町
9891274,宮城県,柴田郡大河原町,新桜町,ミヤギケン,シバタグンオオガワラマチ,シンサクラチョウ,宮城県柴田郡大河原町新桜町
9891300,宮城県,柴田郡村田町,,ミヤギケン,シバタグンムラタマチ,,宮城県柴田郡村田町
9891301,宮城県,柴田郡村田町,菅生,ミヤギケン,シバタグンムラタマチ,スゴウ,宮城県柴田郡村田町菅生
9891302,宮城県,柴田郡村田町,小泉,ミヤギケン,シバタグンムラタマチ,コイズミ,宮城県柴田郡村田町小泉
9891303,宮城県,柴田郡村田町,薄木,ミヤギケン,シバタグンムラタマチ,ウスギ,宮城県柴田郡村田町薄木
9891304,宮城県,柴田郡村田町,西ケ丘,ミヤギケン,シバタグンムラタマチ,ニシガオカ,宮城県柴田郡村田町西ケ丘
9891305,宮城県,柴田郡村田町,村田,ミヤギケン,シバタグンムラタマチ,ムラタ,宮城県柴田郡村田町村田
9891311,宮城県,柴田郡村田町,足立（その他）,ミヤギケン,シバタグンムラタマチ,アシタテ(ソノタ),宮城県柴田郡村田町足立（その他）
9891321,宮城県,柴田郡村田町,沼辺,ミヤギケン,シバタグンムラタマチ,ヌマベ,宮城県柴田郡村田町沼辺
9891322,宮城県,柴田郡村田町,関場,ミヤギケン,シバタグンムラタマチ,セキバ,宮城県柴田郡村田町関場
9891323,宮城県,柴田郡村田町,沼田,ミヤギケン,シバタグンムラタマチ,ヌマタ,宮城県柴田郡村田町沼田
9891500,宮城県,柴田郡川崎町,,ミヤギケン,シバタグンカワサキマチ,,宮城県柴田郡川崎町
9891501,宮城県,柴田郡川崎町,前川（その他）,ミヤギケン,シバタグンカワサキマチ,マエカワ(ソノタ),宮城県柴田郡川崎町前川（その他）
9891502,宮城県,柴田郡川崎町,今宿,ミヤギケン,シバタグンカワサキマチ,イマシュク,宮城県柴田郡川崎町今宿
9891503,宮城県,柴田郡川崎町,川内,ミヤギケン,シバタグンカワサキマチ,カワウチ,宮城県柴田郡川崎町川内
9891504,宮城県,柴田郡川崎町,本砂金,ミヤギケン,シバタグンカワサキマチ,モトイサゴ,宮城県柴田郡川崎町本砂金
9891505,宮城県,柴田郡川崎町,小野,ミヤギケン,シバタグンカワサキマチ,オノ,宮城県柴田郡川崎町小野
9891506,宮城県,柴田郡川崎町,支倉台,ミヤギケン,シバタグンカワサキマチ,ハセクラダイ,宮城県柴田郡川崎町支倉台
9891507,宮城県,柴田郡川崎町,支倉,ミヤギケン,シバタグンカワサキマチ,ハセクラ,宮城県柴田郡川崎町支倉
9891511,宮城県,柴田郡村田町,足立（北向）,ミヤギケン,シバタグンムラタマチ,アシタテ(キタムキ),宮城県柴田郡村田町足立（北向）
9891600,宮城県,柴田郡柴田町,,ミヤギケン,シバタグンシバタマチ,,宮城県柴田郡柴田町
9891601,宮城県,柴田郡柴田町,船岡中央,ミヤギケン,シバタグンシバタマチ,フナオカチュウオウ,宮城県柴田郡柴田町船岡中央
9891602,宮城県,柴田郡柴田町,船岡土手内,ミヤギケン,シバタグンシバタマチ,フナオカドテウチ,宮城県柴田郡柴田町船岡土手内
9891603,宮城県,柴田郡柴田町,船岡西,ミヤギケン,シバタグンシバタマチ,フナオカニシ,宮城県柴田郡柴田町船岡西
9891604,宮城県,柴田郡柴田町,船岡東,ミヤギケン,シバタグンシバタマチ,フナオカヒガシ,宮城県柴田郡柴田町船岡東
9891605,宮城県,柴田郡柴田町,船岡南,ミヤギケン,シバタグンシバタマチ,フナオカミナミ,宮城県柴田郡柴田町船岡南
9891606,宮城県,柴田郡柴田町,船岡,ミヤギケン,シバタグンシバタマチ,フナオカ,宮城県柴田郡柴田町船岡
9891607,宮城県,柴田郡柴田町,船岡新栄,ミヤギケン,シバタグンシバタマチ,フナオカシンエイ,宮城県柴田郡柴田町船岡新栄
9891608,宮城県,柴田郡柴田町,剣崎,ミヤギケン,シバタグンシバタマチ,ケンザキ,宮城県柴田郡柴田町剣崎
9891611,宮城県,柴田郡柴田町,上名生,ミヤギケン,シバタグンシバタマチ,カミノミョウ,宮城県柴田郡柴田町上名生
9891612,宮城県,柴田郡柴田町,中名生,ミヤギケン,シバタグンシバタマチ,ナカノミョウ,宮城県柴田郡柴田町中名生
9891613,宮城県,柴田郡柴田町,下名生,ミヤギケン,シバタグンシバタマチ,シモノミョウ,宮城県柴田郡柴田町下名生
9891621,宮城県,柴田郡柴田町,本船迫,ミヤギケン,シバタグンシバタマチ,ホンフナバサマ,宮城県柴田郡柴田町本船迫
9891622,宮城県,柴田郡柴田町,西船迫,ミヤギケン,シバタグンシバタマチ,ニシフナバサマ,宮城県柴田郡柴田町西船迫
9891623,宮城県,柴田郡柴田町,北船岡,ミヤギケン,シバタグンシバタマチ,キタフナオカ,宮城県柴田郡柴田町北船岡
9891631,宮城県,柴田郡柴田町,東船迫（２丁目）,ミヤギケン,シバタグンシバタマチ,ヒガシフナバサマ(2チョウメ),宮城県柴田郡柴田町東船迫（2-）
9891731,宮城県,柴田郡柴田町,東船迫（１丁目）,ミヤギケン,シバタグンシバタマチ,ヒガシフナバサマ(1チョウメ),宮城県柴田郡柴田町東船迫（1-）
9891741,宮城県,柴田郡柴田町,富沢,ミヤギケン,シバタグンシバタマチ,トミザワ,宮城県柴田郡柴田町富沢
9891742,宮城県,柴田郡柴田町,上川名,ミヤギケン,シバタグンシバタマチ,カミカワナ,宮城県柴田郡柴田町上川名
9891743,宮城県,柴田郡柴田町,四日市場,ミヤギケン,シバタグンシバタマチ,ヨッカイチバ,宮城県柴田郡柴田町四日市場
9891744,宮城県,柴田郡柴田町,松ケ越,ミヤギケン,シバタグンシバタマチ,マツガゴシ,宮城県柴田郡柴田町松ケ越
9891745,宮城県,柴田郡柴田町,入間田,ミヤギケン,シバタグンシバタマチ,イリマダ,宮城県柴田郡柴田町入間田
9891746,宮城県,柴田郡柴田町,ゆずが丘,ミヤギケン,シバタグンシバタマチ,ユズガオカ,宮城県柴田郡柴田町ゆずが丘
9891751,宮城県,柴田郡柴田町,槻木新町,ミヤギケン,シバタグンシバタマチ,ツキノキシンマチ,宮城県柴田郡柴田町槻木新町
9891752,宮城県,柴田郡柴田町,槻木下町,ミヤギケン,シバタグンシバタマチ,ツキノキシモマチ,宮城県柴田郡柴田町槻木下町
9891753,宮城県,柴田郡柴田町,槻木上町,ミヤギケン,シバタグンシバタマチ,ツキノキカミマチ,宮城県柴田郡柴田町槻木上町
9891754,宮城県,柴田郡柴田町,槻木白幡,ミヤギケン,シバタグンシバタマチ,ツキノキシラハタ,宮城県柴田郡柴田町槻木白幡
9891755,宮城県,柴田郡柴田町,槻木西,ミヤギケン,シバタグンシバタマチ,ツキノキニシ,宮城県柴田郡柴田町槻木西
9891756,宮城県,柴田郡柴田町,槻木,ミヤギケン,シバタグンシバタマチ,ツキノキ,宮城県柴田郡柴田町槻木
9891757,宮城県,柴田郡柴田町,槻木東,ミヤギケン,シバタグンシバタマチ,ツキノキヒガシ,宮城県柴田郡柴田町槻木東
9891758,宮城県,柴田郡柴田町,槻木駅西,ミヤギケン,シバタグンシバタマチ,ツキノキエキニシ,宮城県柴田郡柴田町槻木駅西
9891761,宮城県,柴田郡柴田町,葉坂,ミヤギケン,シバタグンシバタマチ,ハザカ,宮城県柴田郡柴田町葉坂
9891762,宮城県,柴田郡柴田町,海老穴,ミヤギケン,シバタグンシバタマチ,エビアナ,宮城県柴田郡柴田町海老穴
9891763,宮城県,柴田郡柴田町,船迫,ミヤギケン,シバタグンシバタマチ,フナバサマ,宮城県柴田郡柴田町船迫
9891764,宮城県,柴田郡柴田町,小成田,ミヤギケン,シバタグンシバタマチ,コナリタ,宮城県柴田郡柴田町小成田
9891765,宮城県,柴田郡柴田町,成田,ミヤギケン,シバタグンシバタマチ,ナリタ,宮城県柴田郡柴田町成田
9892111,宮城県,亘理郡山元町,坂元,ミヤギケン,ワタリグンヤマモトチョウ,サカモト,宮城県亘理郡山元町坂元
9892112,宮城県,亘理郡山元町,真庭,ミヤギケン,ワタリグンヤマモトチョウ,マニワ,宮城県亘理郡山元町真庭
9892200,宮城県,亘理郡山元町,,ミヤギケン,ワタリグンヤマモトチョウ,,宮城県亘理郡山元町
9892201,宮城県,亘理郡山元町,山寺,ミヤギケン,ワタリグンヤマモトチョウ,ヤマデラ,宮城県亘理郡山元町山寺
9892202,宮城県,亘理郡山元町,高瀬,ミヤギケン,ワタリグンヤマモトチョウ,タカセ,宮城県亘理郡山元町高瀬
9892203,宮城県,亘理郡山元町,浅生原,ミヤギケン,ワタリグンヤマモトチョウ,アソウハラ,宮城県亘理郡山元町浅生原
9892204,宮城県,亘理郡山元町,鷲足,ミヤギケン,ワタリグンヤマモトチョウ,ワシアシ,宮城県亘理郡山元町鷲足
9892205,宮城県,亘理郡山元町,小平,ミヤギケン,ワタリグンヤマモトチョウ,コダイラ,宮城県亘理郡山元町小平
9892206,宮城県,亘理郡山元町,大平,ミヤギケン,ワタリグンヤマモトチョウ,オオダイラ,宮城県亘理郡山元町大平
9892207,宮城県,亘理郡山元町,八手庭,ミヤギケン,ワタリグンヤマモトチョウ,ハデニワ,宮城県亘理郡山元町八手庭
9892208,宮城県,亘理郡山元町,つばめの杜,ミヤギケン,ワタリグンヤマモトチョウ,ツバメノモリ,宮城県亘理郡山元町つばめの杜
9892300,宮城県,亘理郡亘理町,,ミヤギケン,ワタリグンワタリチョウ,,宮城県亘理郡亘理町
9892301,宮城県,亘理郡亘理町,逢隈中泉,ミヤギケン,ワタリグンワタリチョウ,オオクマナカイズミ,宮城県亘理郡亘理町逢隈中泉
9892302,宮城県,亘理郡亘理町,逢隈牛袋,ミヤギケン,ワタリグンワタリチョウ,オオクマウシブクロ,宮城県亘理郡亘理町逢隈牛袋
9892303,宮城県,亘理郡亘理町,逢隈十文字,ミヤギケン,ワタリグンワタリチョウ,オオクマジュウモンジ,宮城県亘理郡亘理町逢隈十文字
9892311,宮城県,亘理郡亘理町,荒浜,ミヤギケン,ワタリグンワタリチョウ,アラハマ,宮城県亘理郡亘理町荒浜
9892321,宮城県,亘理郡亘理町,逢隈榎袋,ミヤギケン,ワタリグンワタリチョウ,オオクマエノキブクロ,宮城県亘理郡亘理町逢隈榎袋
9892322,宮城県,亘理郡亘理町,逢隈蕨,ミヤギケン,ワタリグンワタリチョウ,オオクマワラビ,宮城県亘理郡亘理町逢隈蕨
9892323,宮城県,亘理郡亘理町,逢隈鷺屋,ミヤギケン,ワタリグンワタリチョウ,オオクマサギヤ,宮城県亘理郡亘理町逢隈鷺屋
9892324,宮城県,亘理郡亘理町,逢隈高屋,ミヤギケン,ワタリグンワタリチョウ,オオクマコウヤ,宮城県亘理郡亘理町逢隈高屋
9892325,宮城県,亘理郡亘理町,花苺,ミヤギケン,ワタリグンワタリチョウ,ハナイチゴ,宮城県亘理郡亘理町花苺
9892331,宮城県,亘理郡亘理町,吉田,ミヤギケン,ワタリグンワタリチョウ,ヨシダ,宮城県亘理郡亘理町吉田
9892332,宮城県,亘理郡亘理町,苺浜,ミヤギケン,ワタリグンワタリチョウ,イチゴハマ,宮城県亘理郡亘理町苺浜
9892333,宮城県,亘理郡亘理町,苺里,ミヤギケン,ワタリグンワタリチョウ,イチゴサト,宮城県亘理郡亘理町苺里
9892341,宮城県,亘理郡亘理町,長瀞,ミヤギケン,ワタリグンワタリチョウ,ナガトロ,宮城県亘理郡亘理町長瀞
9892351,宮城県,亘理郡亘理町,上中野地,ミヤギケン,ワタリグンワタリチョウ,カミナカヤチ,宮城県亘理郡亘理町上中野地
9892351,宮城県,亘理郡亘理町,上浜街道,ミヤギケン,ワタリグンワタリチョウ,カミハマカイドウ,宮城県亘理郡亘理町上浜街道
9892351,宮城県,亘理郡亘理町,上町,ミヤギケン,ワタリグンワタリチョウ,カンマチ,宮城県亘理郡亘理町上町
9892351,宮城県,亘理郡亘理町,上茨田,ミヤギケン,ワタリグンワタリチョウ,カミバラダ,宮城県亘理郡亘理町上茨田
9892351,宮城県,亘理郡亘理町,下小路,ミヤギケン,ワタリグンワタリチョウ,シモコウジ,宮城県亘理郡亘理町下小路
9892351,宮城県,亘理郡亘理町,下浜街道,ミヤギケン,ワタリグンワタリチョウ,シモハマカイドウ,宮城県亘理郡亘理町下浜街道
9892351,宮城県,亘理郡亘理町,下茨田,ミヤギケン,ワタリグンワタリチョウ,シモバラダ,宮城県亘理郡亘理町下茨田
9892351,宮城県,亘理郡亘理町,中町,ミヤギケン,ワタリグンワタリチョウ,ナカマチ,宮城県亘理郡亘理町中町
9892351,宮城県,亘理郡亘理町,中町東,ミヤギケン,ワタリグンワタリチョウ,ナカマチヒガシ,宮城県亘理郡亘理町中町東
9892351,宮城県,亘理郡亘理町,亀井戸,ミヤギケン,ワタリグンワタリチョウ,カメイド,宮城県亘理郡亘理町亀井戸
9892351,宮城県,亘理郡亘理町,五日町,ミヤギケン,ワタリグンワタリチョウ,イツカマチ,宮城県亘理郡亘理町五日町
9892351,宮城県,亘理郡亘理町,北新田,ミヤギケン,ワタリグンワタリチョウ,キタシンデン,宮城県亘理郡亘理町北新田
9892351,宮城県,亘理郡亘理町,北新町,ミヤギケン,ワタリグンワタリチョウ,キタシンマチ,宮城県亘理郡亘理町北新町
9892351,宮城県,亘理郡亘理町,南町,ミヤギケン,ワタリグンワタリチョウ,ミナミマチ,宮城県亘理郡亘理町南町
9892351,宮城県,亘理郡亘理町,南町東,ミヤギケン,ワタリグンワタリチョウ,ミナミマチヒガシ,宮城県亘理郡亘理町南町東
9892351,宮城県,亘理郡亘理町,台田,ミヤギケン,ワタリグンワタリチョウ,ダイダ,宮城県亘理郡亘理町台田
9892351,宮城県,亘理郡亘理町,境堤,ミヤギケン,ワタリグンワタリチョウ,サカイツツミ,宮城県亘理郡亘理町境堤
9892351,宮城県,亘理郡亘理町,新井町,ミヤギケン,ワタリグンワタリチョウ,ニイマチ,宮城県亘理郡亘理町新井町
9892351,宮城県,亘理郡亘理町,新町,ミヤギケン,ワタリグンワタリチョウ,シンマチ,宮城県亘理郡亘理町新町
9892351,宮城県,亘理郡亘理町,旧舘,ミヤギケン,ワタリグンワタリチョウ,キュウカン,宮城県亘理郡亘理町旧舘
9892351,宮城県,亘理郡亘理町,旭,ミヤギケン,ワタリグンワタリチョウ,アサヒ,宮城県亘理郡亘理町旭
9892351,宮城県,亘理郡亘理町,旭山,ミヤギケン,ワタリグンワタリチョウ,アサヒヤマ,宮城県亘理郡亘理町旭山
9892351,宮城県,亘理郡亘理町,東郷,ミヤギケン,ワタリグンワタリチョウ,ヒガシゴウ,宮城県亘理郡亘理町東郷
9892351,宮城県,亘理郡亘理町,桜小路,ミヤギケン,ワタリグンワタリチョウ,サクラコウジ,宮城県亘理郡亘理町桜小路
9892351,宮城県,亘理郡亘理町,江下,ミヤギケン,ワタリグンワタリチョウ,エシタ,宮城県亘理郡亘理町江下
9892351,宮城県,亘理郡亘理町,油田,ミヤギケン,ワタリグンワタリチョウ,アブラデン,宮城県亘理郡亘理町油田
9892351,宮城県,亘理郡亘理町,狐塚,ミヤギケン,ワタリグンワタリチョウ,キツネヅカ,宮城県亘理郡亘理町狐塚
9892351,宮城県,亘理郡亘理町,祝田,ミヤギケン,ワタリグンワタリチョウ,イワイダ,宮城県亘理郡亘理町祝田
9892351,宮城県,亘理郡亘理町,芝西,ミヤギケン,ワタリグンワタリチョウ,シバニシ,宮城県亘理郡亘理町芝西
9892351,宮城県,亘理郡亘理町,茨田後,ミヤギケン,ワタリグンワタリチョウ,バラダウシロ,宮城県亘理郡亘理町茨田後
9892351,宮城県,亘理郡亘理町,裏城戸,ミヤギケン,ワタリグンワタリチョウ,ウラキド,宮城県亘理郡亘理町裏城戸
9892351,宮城県,亘理郡亘理町,西郷,ミヤギケン,ワタリグンワタリチョウ,ニシゴウ,宮城県亘理郡亘理町西郷
9892351,宮城県,亘理郡亘理町,見田内,ミヤギケン,ワタリグンワタリチョウ,ミダウチ,宮城県亘理郡亘理町見田内
9892351,宮城県,亘理郡亘理町,道田中,ミヤギケン,ワタリグンワタリチョウ,ドウダナカ,宮城県亘理郡亘理町道田中
9892351,宮城県,亘理郡亘理町,道田東,ミヤギケン,ワタリグンワタリチョウ,ドウダヒガシ,宮城県亘理郡亘理町道田東
9892351,宮城県,亘理郡亘理町,道田西,ミヤギケン,ワタリグンワタリチョウ,ドウダニシ,宮城県亘理郡亘理町道田西
9892352,宮城県,亘理郡亘理町,悠里,ミヤギケン,ワタリグンワタリチョウ,ユウリ,宮城県亘理郡亘理町悠里
9892361,宮城県,亘理郡亘理町,倉庭,ミヤギケン,ワタリグンワタリチョウ,クラニワ,宮城県亘理郡亘理町倉庭
9892361,宮城県,亘理郡亘理町,先達前,ミヤギケン,ワタリグンワタリチョウ,センダツマエ,宮城県亘理郡亘理町先達前
9892361,宮城県,亘理郡亘理町,北猿田,ミヤギケン,ワタリグンワタリチョウ,キタサルタ,宮城県亘理郡亘理町北猿田
9892361,宮城県,亘理郡亘理町,卑下入,ミヤギケン,ワタリグンワタリチョウ,ヒガイリ,宮城県亘理郡亘理町卑下入
9892361,宮城県,亘理郡亘理町,堀の内,ミヤギケン,ワタリグンワタリチョウ,ホリノウチ,宮城県亘理郡亘理町堀の内
9892361,宮城県,亘理郡亘理町,愛宕前,ミヤギケン,ワタリグンワタリチョウ,アタゴマエ,宮城県亘理郡亘理町愛宕前
9892361,宮城県,亘理郡亘理町,沼頭,ミヤギケン,ワタリグンワタリチョウ,ヌマガシラ,宮城県亘理郡亘理町沼頭
9892361,宮城県,亘理郡亘理町,泉ケ入,ミヤギケン,ワタリグンワタリチョウ,イズミガイリ,宮城県亘理郡亘理町泉ケ入
9892361,宮城県,亘理郡亘理町,舘南,ミヤギケン,ワタリグンワタリチョウ,タテミナミ,宮城県亘理郡亘理町舘南
9892361,宮城県,亘理郡亘理町,雪穴,ミヤギケン,ワタリグンワタリチョウ,ユキアナ,宮城県亘理郡亘理町雪穴
9892361,宮城県,亘理郡亘理町,鳥居前,ミヤギケン,ワタリグンワタリチョウ,トリイマエ,宮城県亘理郡亘理町鳥居前
9892361,宮城県,亘理郡亘理町,龍円寺前,ミヤギケン,ワタリグンワタリチョウ,リュウエンジマエ,宮城県亘理郡亘理町龍円寺前
9892371,宮城県,亘理郡亘理町,逢隈鹿島,ミヤギケン,ワタリグンワタリチョウ,オオクマカシマ,宮城県亘理郡亘理町逢隈鹿島
9892372,宮城県,亘理郡亘理町,逢隈神宮寺,ミヤギケン,ワタリグンワタリチョウ,オオクマジングウジ,宮城県亘理郡亘理町逢隈神宮寺
9892381,宮城県,亘理郡亘理町,逢隈上郡,ミヤギケン,ワタリグンワタリチョウ,オオクマカミゴオリ,宮城県亘理郡亘理町逢隈上郡
9892382,宮城県,亘理郡亘理町,逢隈下郡,ミヤギケン,ワタリグンワタリチョウ,オオクマシモゴオリ,宮城県亘理郡亘理町逢隈下郡
9892383,宮城県,亘理郡亘理町,逢隈田沢,ミヤギケン,ワタリグンワタリチョウ,オオクマタザワ,宮城県亘理郡亘理町逢隈田沢
9892384,宮城県,亘理郡亘理町,逢隈小山,ミヤギケン,ワタリグンワタリチョウ,オオクマコヤマ,宮城県亘理郡亘理町逢隈小山
9892385,宮城県,亘理郡亘理町,逢隈（郡）,ミヤギケン,ワタリグンワタリチョウ,オオクマ(コオリ),宮城県亘理郡亘理町逢隈（郡）
9892400,宮城県,岩沼市,,ミヤギケン,イワヌマシ,,宮城県岩沼市
9892401,宮城県,名取市,下増田（南原無番地、仙台空港関係施設）,ミヤギケン,ナトリシ,シモマスダ(ミナミハラムバンチ、センダイクウコウカンケイシセツ),宮城県名取市下増田（南原無番地、仙台空港関係施設）
9892411,宮城県,名取市,本郷,ミヤギケン,ナトリシ,ホンゴウ,宮城県名取市本郷
9892412,宮城県,名取市,堀内,ミヤギケン,ナトリシ,ホリウチ,宮城県名取市堀内
9892420,宮城県,岩沼市,空港西,ミヤギケン,イワヌマシ,クウコウニシ,宮城県岩沼市空港西
9892421,宮城県,岩沼市,下野郷,ミヤギケン,イワヌマシ,シモノゴウ,宮城県岩沼市下野郷
9892422,宮城県,岩沼市,空港南,ミヤギケン,イワヌマシ,クウコウミナミ,宮城県岩沼市空港南
9892423,宮城県,岩沼市,押分,ミヤギケン,イワヌマシ,オシワケ,宮城県岩沼市押分
9892424,宮城県,岩沼市,早股,ミヤギケン,イワヌマシ,ハヤマタ,宮城県岩沼市早股
9892425,宮城県,岩沼市,寺島,ミヤギケン,イワヌマシ,テラシマ,宮城県岩沼市寺島
9892426,宮城県,岩沼市,末広,ミヤギケン,イワヌマシ,スエヒロ,宮城県岩沼市末広
9892427,宮城県,岩沼市,里の杜,ミヤギケン,イワヌマシ,サトノモリ,宮城県岩沼市里の杜
9892428,宮城県,岩沼市,玉浦西,ミヤギケン,イワヌマシ,タマウラニシ,宮城県岩沼市玉浦西
9892429,宮城県,岩沼市,恵み野,ミヤギケン,イワヌマシ,メグミノ,宮城県岩沼市恵み野
9892431,宮城県,岩沼市,相の原,ミヤギケン,イワヌマシ,アイノハラ,宮城県岩沼市相の原
9892432,宮城県,岩沼市,中央,ミヤギケン,イワヌマシ,チュウオウ,宮城県岩沼市中央
9892433,宮城県,岩沼市,桜,ミヤギケン,イワヌマシ,サクラ,宮城県岩沼市桜
9892434,宮城県,岩沼市,藤浪,ミヤギケン,イワヌマシ,フジナミ,宮城県岩沼市藤浪
9892435,宮城県,岩沼市,阿武隈,ミヤギケン,イワヌマシ,アブクマ,宮城県岩沼市阿武隈
9892436,宮城県,岩沼市,吹上,ミヤギケン,イワヌマシ,フキアゲ,宮城県岩沼市吹上
9892437,宮城県,岩沼市,吹上西,ミヤギケン,イワヌマシ,フキアゲニシ,宮城県岩沼市吹上西
9892441,宮城県,岩沼市,館下,ミヤギケン,イワヌマシ,タテシタ,宮城県岩沼市館下
9892442,宮城県,岩沼市,大手町,ミヤギケン,イワヌマシ,オオテチョウ,宮城県岩沼市大手町
9892443,宮城県,岩沼市,稲荷町,ミヤギケン,イワヌマシ,イナリチョウ,宮城県岩沼市稲荷町
9892444,宮城県,岩沼市,本町,ミヤギケン,イワヌマシ,ホンチョウ,宮城県岩沼市本町
9892445,宮城県,岩沼市,桑原,ミヤギケン,イワヌマシ,クワバラ,宮城県岩沼市桑原
9892446,宮城県,岩沼市,西六角,ミヤギケン,イワヌマシ,ニシロッカク,宮城県岩沼市西六角
9892447,宮城県,岩沼市,桑原西,ミヤギケン,イワヌマシ,クワバラニシ,宮城県岩沼市桑原西
9892448,宮城県,岩沼市,二木,ミヤギケン,イワヌマシ,フタキ,宮城県岩沼市二木
9892451,宮城県,岩沼市,土ケ崎,ミヤギケン,イワヌマシ,ドガサキ,宮城県岩沼市土ケ崎
9892452,宮城県,岩沼市,武隈,ミヤギケン,イワヌマシ,タケクマ,宮城県岩沼市武隈
9892453,宮城県,岩沼市,大昭和,ミヤギケン,イワヌマシ,ダイショウワ,宮城県岩沼市大昭和
9892454,宮城県,岩沼市,南長谷,ミヤギケン,イワヌマシ,ミナミハセ,宮城県岩沼市南長谷
9892455,宮城県,岩沼市,北長谷,ミヤギケン,イワヌマシ,キタハセ,宮城県岩沼市北長谷
9892456,宮城県,岩沼市,松ケ丘,ミヤギケン,イワヌマシ,マツガオカ,宮城県岩沼市松ケ丘
9892457,宮城県,岩沼市,平等,ミヤギケン,イワヌマシ,ビョウドウ,宮城県岩沼市平等
9892458,宮城県,岩沼市,竹の里,ミヤギケン,イワヌマシ,タケノサト,宮城県岩沼市竹の里
9892459,宮城県,岩沼市,たけくま,ミヤギケン,イワヌマシ,タケクマ,宮城県岩沼市たけくま
9892461,宮城県,岩沼市,長岡,ミヤギケン,イワヌマシ,ナガオカ,宮城県岩沼市長岡
9892462,宮城県,岩沼市,山桜,ミヤギケン,イワヌマシ,ヤマザクラ,宮城県岩沼市山桜
9892463,宮城県,岩沼市,荒井,ミヤギケン,イワヌマシ,アライ,宮城県岩沼市荒井
9892464,宮城県,岩沼市,三色吉,ミヤギケン,イワヌマシ,ミイロヨシ,宮城県岩沼市三色吉
9892465,宮城県,岩沼市,志賀,ミヤギケン,イワヌマシ,シガ,宮城県岩沼市志賀
9892471,宮城県,岩沼市,小川,ミヤギケン,イワヌマシ,オガワ,宮城県岩沼市小川
9892472,宮城県,岩沼市,梶橋,ミヤギケン,イワヌマシ,カジバシ,宮城県岩沼市梶橋
9892473,宮城県,岩沼市,栄町,ミヤギケン,イワヌマシ,サカエチョウ,宮城県岩沼市栄町
9892474,宮城県,岩沼市,朝日,ミヤギケン,イワヌマシ,アサヒ,宮城県岩沼市朝日
9892475,宮城県,岩沼市,大和,ミヤギケン,イワヌマシ,ヤマト,宮城県岩沼市大和
9892476,宮城県,岩沼市,敷島,ミヤギケン,イワヌマシ,シキシマ,宮城県岩沼市敷島
9892477,宮城県,岩沼市,東谷地,ミヤギケン,イワヌマシ,ヒガシヤチ,宮城県岩沼市東谷地
9892478,宮城県,岩沼市,あさひ野,ミヤギケン,イワヌマシ,アサヒノ,宮城県岩沼市あさひ野
9893121,宮城県,仙台市青葉区,郷六,ミヤギケン,センダイシアオバク,ゴウロク,宮城県仙台市青葉区郷六
9893122,宮城県,仙台市青葉区,栗生,ミヤギケン,センダイシアオバク,クリュウ,宮城県仙台市青葉区栗生
9893123,宮城県,仙台市青葉区,錦ケ丘,ミヤギケン,センダイシアオバク,ニシキガオカ,宮城県仙台市青葉区錦ケ丘
9893124,宮城県,仙台市青葉区,上愛子,ミヤギケン,センダイシアオバク,カミアヤシ,宮城県仙台市青葉区上愛子
9893125,宮城県,仙台市青葉区,下愛子,ミヤギケン,センダイシアオバク,シモアヤシ,宮城県仙台市青葉区下愛子
9893126,宮城県,仙台市青葉区,落合,ミヤギケン,センダイシアオバク,オチアイ,宮城県仙台市青葉区落合
9893127,宮城県,仙台市青葉区,愛子東,ミヤギケン,センダイシアオバク,アヤシヒガシ,宮城県仙台市青葉区愛子東
9893128,宮城県,仙台市青葉区,愛子中央,ミヤギケン,センダイシアオバク,アヤシチュウオウ,宮城県仙台市青葉区愛子中央
9893201,宮城県,仙台市青葉区,国見ケ丘,ミヤギケン,センダイシアオバク,クニミガオカ,宮城県仙台市青葉区国見ケ丘
9893202,宮城県,仙台市青葉区,中山台,ミヤギケン,センダイシアオバク,ナカヤマダイ,宮城県仙台市青葉区中山台
9893203,宮城県,仙台市青葉区,中山吉成,ミヤギケン,センダイシアオバク,ナカヤマヨシナリ,宮城県仙台市青葉区中山吉成
9893204,宮城県,仙台市青葉区,南吉成,ミヤギケン,センダイシアオバク,ミナミヨシナリ,宮城県仙台市青葉区南吉成
9893205,宮城県,仙台市青葉区,吉成,ミヤギケン,センダイシアオバク,ヨシナリ,宮城県仙台市青葉区吉成
9893206,宮城県,仙台市青葉区,吉成台,ミヤギケン,センダイシアオバク,ヨシナリダイ,宮城県仙台市青葉区吉成台
9893207,宮城県,仙台市青葉区,中山台西,ミヤギケン,センダイシアオバク,ナカヤマダイニシ,宮城県仙台市青葉区中山台西
9893211,宮城県,仙台市青葉区,赤坂,ミヤギケン,センダイシアオバク,アカサカ,宮城県仙台市青葉区赤坂
9893212,宮城県,仙台市青葉区,芋沢,ミヤギケン,センダイシアオバク,イモザワ,宮城県仙台市青葉区芋沢
9893213,宮城県,仙台市青葉区,大倉,ミヤギケン,センダイシアオバク,オオクラ,宮城県仙台市青葉区大倉
9893214,宮城県,仙台市青葉区,みやぎ台,ミヤギケン,センダイシアオバク,ミヤギダイ,宮城県仙台市青葉区みやぎ台
9893215,宮城県,仙台市青葉区,向田,ミヤギケン,センダイシアオバク,ムカイダ,宮城県仙台市青葉区向田
9893216,宮城県,仙台市青葉区,高野原,ミヤギケン,センダイシアオバク,タカノハラ,宮城県仙台市青葉区高野原
9893431,宮城県,仙台市青葉区,作並,ミヤギケン,センダイシアオバク,サクナミ,宮城県仙台市青葉区作並
9893432,宮城県,仙台市青葉区,熊ケ根,ミヤギケン,センダイシアオバク,クマガネ,宮城県仙台市青葉区熊ケ根
9893433,宮城県,仙台市青葉区,ニツカ,ミヤギケン,センダイシアオバク,ニッカ,宮城県仙台市青葉区ニツカ
9893434,宮城県,仙台市青葉区,新川,ミヤギケン,センダイシアオバク,ニッカワ,宮城県仙台市青葉区新川
9894101,宮城県,大崎市,鹿島台船越,ミヤギケン,オオサキシ,カシマダイフナコシ,宮城県大崎市鹿島台船越
9894102,宮城県,大崎市,鹿島台木間塚,ミヤギケン,オオサキシ,カシマダイキマヅカ,宮城県大崎市鹿島台木間塚
9894103,宮城県,大崎市,鹿島台平渡,ミヤギケン,オオサキシ,カシマダイヒラワタ,宮城県大崎市鹿島台平渡
9894104,宮城県,大崎市,鹿島台広長,ミヤギケン,オオサキシ,カシマダイヒロナガ,宮城県大崎市鹿島台広長
9894105,宮城県,大崎市,鹿島台深谷,ミヤギケン,オオサキシ,カシマダイフカヤ,宮城県大崎市鹿島台深谷
9894106,宮城県,大崎市,鹿島台大迫,ミヤギケン,オオサキシ,カシマダイオオバサマ,宮城県大崎市鹿島台大迫
9894201,宮城県,遠田郡美里町,和多田沼,ミヤギケン,トオダグンミサトマチ,ワダタヌマ,宮城県遠田郡美里町和多田沼
9894202,宮城県,遠田郡美里町,福ケ袋,ミヤギケン,トオダグンミサトマチ,フクガフクロ,宮城県遠田郡美里町福ケ袋
9894203,宮城県,遠田郡美里町,練牛,ミヤギケン,トオダグンミサトマチ,ネリウシ,宮城県遠田郡美里町練牛
9894204,宮城県,遠田郡美里町,大柳,ミヤギケン,トオダグンミサトマチ,オオヤナギ,宮城県遠田郡美里町大柳
9894205,宮城県,遠田郡美里町,木間塚,ミヤギケン,トオダグンミサトマチ,キマツカ,宮城県遠田郡美里町木間塚
9894206,宮城県,遠田郡美里町,二郷,ミヤギケン,トオダグンミサトマチ,ニゴウ,宮城県遠田郡美里町二郷
9894207,宮城県,遠田郡美里町,鳥谷坂一,ミヤギケン,トオダグンミサトマチ,トヤザカイチ,宮城県遠田郡美里町鳥谷坂一
9894208,宮城県,遠田郡美里町,鳥谷坂二,ミヤギケン,トオダグンミサトマチ,トヤザカニ,宮城県遠田郡美里町鳥谷坂二
9894209,宮城県,遠田郡美里町,新鳥谷坂,ミヤギケン,トオダグンミサトマチ,シントヤザカ,宮城県遠田郡美里町新鳥谷坂
9894301,宮城県,大崎市,田尻蕪栗,ミヤギケン,オオサキシ,タジリカブクリ,宮城県大崎市田尻蕪栗
9894302,宮城県,大崎市,田尻大貫,ミヤギケン,オオサキシ,タジリオオヌキ,宮城県大崎市田尻大貫
9894303,宮城県,大崎市,田尻大沢,ミヤギケン,オオサキシ,タジリオオサワ,宮城県大崎市田尻大沢
9894304,宮城県,大崎市,田尻北小牛田,ミヤギケン,オオサキシ,タジリキタコゴタ,宮城県大崎市田尻北小牛田
9894305,宮城県,大崎市,田尻小塩,ミヤギケン,オオサキシ,タジリオシオ,宮城県大崎市田尻小塩
9894306,宮城県,大崎市,田尻桜田高野,ミヤギケン,オオサキシ,タジリサクラダコウヤ,宮城県大崎市田尻桜田高野
9894307,宮城県,大崎市,田尻北高城,ミヤギケン,オオサキシ,タジリキタタカギ,宮城県大崎市田尻北高城
9894308,宮城県,大崎市,田尻沼部,ミヤギケン,オオサキシ,タジリヌマベ,宮城県大崎市田尻沼部
9894411,宮城県,大崎市,田尻八幡,ミヤギケン,オオサキシ,タジリヤワタ,宮城県大崎市田尻八幡
9894412,宮城県,大崎市,田尻大嶺,ミヤギケン,オオサキシ,タジリオオミネ,宮城県大崎市田尻大嶺
9894413,宮城県,大崎市,田尻通木,ミヤギケン,オオサキシ,タジリトオリキ,宮城県大崎市田尻通木
9894414,宮城県,大崎市,田尻北牧目,ミヤギケン,オオサキシ,タジリキタマギノメ,宮城県大崎市田尻北牧目
9894415,宮城県,大崎市,田尻,ミヤギケン,オオサキシ,タジリ,宮城県大崎市田尻
9894416,宮城県,大崎市,田尻中目,ミヤギケン,オオサキシ,タジリナカノメ,宮城県大崎市田尻中目
9894417,宮城県,大崎市,田尻沼木,ミヤギケン,オオサキシ,タジリヌマギ,宮城県大崎市田尻沼木
9894418,宮城県,大崎市,田尻諏訪峠,ミヤギケン,オオサキシ,タジリスワトウゲ,宮城県大崎市田尻諏訪峠
9894419,宮城県,大崎市,田尻小松,ミヤギケン,オオサキシ,タジリコマツ,宮城県大崎市田尻小松
9894503,宮城県,栗原市,瀬峰力石,ミヤギケン,クリハラシ,セミネチカライシ,宮城県栗原市瀬峰力石
9894504,宮城県,栗原市,瀬峰小深沢,ミヤギケン,クリハラシ,セミネコブカサワ,宮城県栗原市瀬峰小深沢
9894505,宮城県,栗原市,瀬峰刈安沢,ミヤギケン,クリハラシ,セミネカリヤスザワ,宮城県栗原市瀬峰刈安沢
9894506,宮城県,栗原市,瀬峰清水沢,ミヤギケン,クリハラシ,セミネシミズサワ,宮城県栗原市瀬峰清水沢
9894507,宮城県,栗原市,瀬峰西原,ミヤギケン,クリハラシ,セミネニシハラ,宮城県栗原市瀬峰西原
9894508,宮城県,栗原市,瀬峰柴ノ脇,ミヤギケン,クリハラシ,セミネシバノワキ,宮城県栗原市瀬峰柴ノ脇
9894509,宮城県,栗原市,瀬峰大鰐谷,ミヤギケン,クリハラシ,セミネオオワニヤ,宮城県栗原市瀬峰大鰐谷
9894510,宮城県,栗原市,瀬峰新下藤沢,ミヤギケン,クリハラシ,セミネシンシタフジサワ,宮城県栗原市瀬峰新下藤沢
9894511,宮城県,栗原市,瀬峰新田沢,ミヤギケン,クリハラシ,セミネニッタザワ,宮城県栗原市瀬峰新田沢
9894512,宮城県,栗原市,瀬峰下藤沢,ミヤギケン,クリハラシ,セミネシモフジサワ,宮城県栗原市瀬峰下藤沢
9894513,宮城県,栗原市,瀬峰根岸,ミヤギケン,クリハラシ,セミネネギシ,宮城県栗原市瀬峰根岸
9894514,宮城県,栗原市,瀬峰桃生田前,ミヤギケン,クリハラシ,セミネモノウタマエ,宮城県栗原市瀬峰桃生田前
9894515,宮城県,栗原市,瀬峰桃生田,ミヤギケン,クリハラシ,セミネモノウタ,宮城県栗原市瀬峰桃生田
9894516,宮城県,栗原市,瀬峰長者原,ミヤギケン,クリハラシ,セミネチョウジャハラ,宮城県栗原市瀬峰長者原
9894517,宮城県,栗原市,瀬峰藤沢瀬嶺,ミヤギケン,クリハラシ,セミネフジサワセミネ,宮城県栗原市瀬峰藤沢瀬嶺
9894518,宮城県,栗原市,瀬峰荒神堂,ミヤギケン,クリハラシ,セミネコウジンドウ,宮城県栗原市瀬峰荒神堂
9894519,宮城県,栗原市,瀬峰横森前,ミヤギケン,クリハラシ,セミネヨコモリマエ,宮城県栗原市瀬峰横森前
9894521,宮城県,栗原市,瀬峰下田,ミヤギケン,クリハラシ,セミネシモダ,宮城県栗原市瀬峰下田
9894522,宮城県,栗原市,瀬峰下の前,ミヤギケン,クリハラシ,セミネシモノマエ,宮城県栗原市瀬峰下の前
9894523,宮城県,栗原市,瀬峰北谷地,ミヤギケン,クリハラシ,セミネキタヤチ,宮城県栗原市瀬峰北谷地
9894524,宮城県,栗原市,瀬峰藤田,ミヤギケン,クリハラシ,セミネフジタ,宮城県栗原市瀬峰藤田
9894525,宮城県,栗原市,瀬峰下谷地,ミヤギケン,クリハラシ,セミネシモヤチ,宮城県栗原市瀬峰下谷地
9894526,宮城県,栗原市,瀬峰宮小路原西,ミヤギケン,クリハラシ,セミネミヤコウジハラニシ,宮城県栗原市瀬峰宮小路原西
9894527,宮城県,栗原市,瀬峰宮小路原東,ミヤギケン,クリハラシ,セミネミヤコウジハラヒガシ,宮城県栗原市瀬峰宮小路原東
9894528,宮城県,栗原市,瀬峰山崎前,ミヤギケン,クリハラシ,セミネヤマザキマエ,宮城県栗原市瀬峰山崎前
9894529,宮城県,栗原市,瀬峰新下田,ミヤギケン,クリハラシ,セミネシンシモダ,宮城県栗原市瀬峰新下田
9894531,宮城県,栗原市,瀬峰筒ケ崎,ミヤギケン,クリハラシ,セミネドガサキ,宮城県栗原市瀬峰筒ケ崎
9894532,宮城県,栗原市,瀬峰樋口山,ミヤギケン,クリハラシ,セミネヒグチヤマ,宮城県栗原市瀬峰樋口山
9894533,宮城県,栗原市,瀬峰愛宕,ミヤギケン,クリハラシ,セミネアタゴ,宮城県栗原市瀬峰愛宕
9894534,宮城県,栗原市,瀬峰泉谷,ミヤギケン,クリハラシ,セミネイズミヤ,宮城県栗原市瀬峰泉谷
9894535,宮城県,栗原市,瀬峰泉谷南,ミヤギケン,クリハラシ,セミネイズミヤミナミ,宮城県栗原市瀬峰泉谷南
9894536,宮城県,栗原市,瀬峰壇ノ越,ミヤギケン,クリハラシ,セミネダンノコシ,宮城県栗原市瀬峰壇ノ越
9894537,宮城県,栗原市,瀬峰船橋,ミヤギケン,クリハラシ,セミネフナバシ,宮城県栗原市瀬峰船橋
9894538,宮城県,栗原市,瀬峰諏訪原,ミヤギケン,クリハラシ,セミネスワハラ,宮城県栗原市瀬峰諏訪原
9894539,宮城県,栗原市,瀬峰二ツ谷,ミヤギケン,クリハラシ,セミネフタツヤ,宮城県栗原市瀬峰二ツ谷
9894540,宮城県,栗原市,瀬峰牛渕前,ミヤギケン,クリハラシ,セミネウシブチマエ,宮城県栗原市瀬峰牛渕前
9894541,宮城県,栗原市,瀬峰牛渕,ミヤギケン,クリハラシ,セミネウシブチ,宮城県栗原市瀬峰牛渕
9894542,宮城県,栗原市,瀬峰新井堀,ミヤギケン,クリハラシ,セミネニイボリ,宮城県栗原市瀬峰新井堀
9894543,宮城県,栗原市,瀬峰新井屋敷,ミヤギケン,クリハラシ,セミネニイヤシキ,宮城県栗原市瀬峰新井屋敷
9894544,宮城県,栗原市,瀬峰除,ミヤギケン,クリハラシ,セミネノゾキ,宮城県栗原市瀬峰除
9894545,宮城県,栗原市,瀬峰伊勢堂,ミヤギケン,クリハラシ,セミネイセドウ,宮城県栗原市瀬峰伊勢堂
9894546,宮城県,栗原市,瀬峰四ツ壇,ミヤギケン,クリハラシ,セミネヨツダン,宮城県栗原市瀬峰四ツ壇
9894547,宮城県,栗原市,瀬峰神田,ミヤギケン,クリハラシ,セミネカミタ,宮城県栗原市瀬峰神田
9894548,宮城県,栗原市,瀬峰長根,ミヤギケン,クリハラシ,セミネナガネ,宮城県栗原市瀬峰長根
9894549,宮城県,栗原市,瀬峰荒町,ミヤギケン,クリハラシ,セミネアラマチ,宮城県栗原市瀬峰荒町
9894551,宮城県,栗原市,瀬峰三代,ミヤギケン,クリハラシ,セミネサンダイ,宮城県栗原市瀬峰三代
9894552,宮城県,栗原市,瀬峰宮田,ミヤギケン,クリハラシ,セミネミヤタ,宮城県栗原市瀬峰宮田
9894553,宮城県,栗原市,瀬峰二又,ミヤギケン,クリハラシ,セミネフタマタ,宮城県栗原市瀬峰二又
9894554,宮城県,栗原市,瀬峰原田,ミヤギケン,クリハラシ,セミネハラタ,宮城県栗原市瀬峰原田
9894555,宮城県,栗原市,瀬峰野沢,ミヤギケン,クリハラシ,セミネノザワ,宮城県栗原市瀬峰野沢
9894556,宮城県,栗原市,瀬峰袋沢,ミヤギケン,クリハラシ,セミネフクロサワ,宮城県栗原市瀬峰袋沢
9894557,宮城県,栗原市,瀬峰上沢田,ミヤギケン,クリハラシ,セミネカミサワダ,宮城県栗原市瀬峰上沢田
9894560,宮城県,栗原市,瀬峰新道東,ミヤギケン,クリハラシ,セミネシンドウヒガシ,宮城県栗原市瀬峰新道東
9894561,宮城県,栗原市,瀬峰樋渡,ミヤギケン,クリハラシ,セミネヒワタシ,宮城県栗原市瀬峰樋渡
9894562,宮城県,栗原市,瀬峰川ノ畑,ミヤギケン,クリハラシ,セミネカワノハタ,宮城県栗原市瀬峰川ノ畑
9894563,宮城県,栗原市,瀬峰上富前,ミヤギケン,クリハラシ,セミネカミトミマエ,宮城県栗原市瀬峰上富前
9894564,宮城県,栗原市,瀬峰谷地田,ミヤギケン,クリハラシ,セミネヤチタ,宮城県栗原市瀬峰谷地田
9894565,宮城県,栗原市,瀬峰天神下,ミヤギケン,クリハラシ,セミネテンジンシタ,宮城県栗原市瀬峰天神下
9894566,宮城県,栗原市,瀬峰上屋敷,ミヤギケン,クリハラシ,セミネカミヤシキ,宮城県栗原市瀬峰上屋敷
9894567,宮城県,栗原市,瀬峰西原前,ミヤギケン,クリハラシ,セミネニシハラマエ,宮城県栗原市瀬峰西原前
9894568,宮城県,栗原市,瀬峰大屋敷,ミヤギケン,クリハラシ,セミネオオヤシキ,宮城県栗原市瀬峰大屋敷
9894569,宮城県,栗原市,瀬峰筒場,ミヤギケン,クリハラシ,セミネドバ,宮城県栗原市瀬峰筒場
9894570,宮城県,栗原市,瀬峰町田前,ミヤギケン,クリハラシ,セミネマチダマエ,宮城県栗原市瀬峰町田前
9894571,宮城県,栗原市,瀬峰寺沢,ミヤギケン,クリハラシ,セミネテラサワ,宮城県栗原市瀬峰寺沢
9894572,宮城県,栗原市,瀬峰寺浦,ミヤギケン,クリハラシ,セミネテラウラ,宮城県栗原市瀬峰寺浦
9894573,宮城県,栗原市,瀬峰十王堂前,ミヤギケン,クリハラシ,セミネジュウオウドウマエ,宮城県栗原市瀬峰十王堂前
9894574,宮城県,栗原市,瀬峰北ノ沢,ミヤギケン,クリハラシ,セミネキタノサワ,宮城県栗原市瀬峰北ノ沢
9894575,宮城県,栗原市,瀬峰町田,ミヤギケン,クリハラシ,セミネマチダ,宮城県栗原市瀬峰町田
9894576,宮城県,栗原市,瀬峰高土山,ミヤギケン,クリハラシ,セミネコウドサン,宮城県栗原市瀬峰高土山
9894577,宮城県,栗原市,瀬峰薬沢西,ミヤギケン,クリハラシ,セミネクスリザワニシ,宮城県栗原市瀬峰薬沢西
9894578,宮城県,栗原市,瀬峰薬沢東,ミヤギケン,クリハラシ,セミネクスリザワヒガシ,宮城県栗原市瀬峰薬沢東
9894579,宮城県,栗原市,瀬峰橋本浦,ミヤギケン,クリハラシ,セミネハシモトウラ,宮城県栗原市瀬峰橋本浦
9894580,宮城県,栗原市,瀬峰大境前,ミヤギケン,クリハラシ,セミネオオサカイマエ,宮城県栗原市瀬峰大境前
9894581,宮城県,栗原市,瀬峰藤沢要害,ミヤギケン,クリハラシ,セミネフジサワヨウガイ,宮城県栗原市瀬峰藤沢要害
9894582,宮城県,栗原市,瀬峰坂ノ下浦,ミヤギケン,クリハラシ,セミネサカノシタウラ,宮城県栗原市瀬峰坂ノ下浦
9894583,宮城県,栗原市,瀬峰大境山,ミヤギケン,クリハラシ,セミネオオザカイヤマ,宮城県栗原市瀬峰大境山
9894584,宮城県,栗原市,瀬峰清水山,ミヤギケン,クリハラシ,セミネシミズヤマ,宮城県栗原市瀬峰清水山
9894585,宮城県,栗原市,瀬峰坂ノ下前北,ミヤギケン,クリハラシ,セミネサカノシタマエキタ,宮城県栗原市瀬峰坂ノ下前北
9894586,宮城県,栗原市,瀬峰蔵王,ミヤギケン,クリハラシ,セミネゾウオウ,宮城県栗原市瀬峰蔵王
9894587,宮城県,栗原市,瀬峰薬師堂前,ミヤギケン,クリハラシ,セミネヤクシドウマエ,宮城県栗原市瀬峰薬師堂前
9894588,宮城県,栗原市,瀬峰蒲盛,ミヤギケン,クリハラシ,セミネカバモリ,宮城県栗原市瀬峰蒲盛
9894589,宮城県,栗原市,瀬峰富要害,ミヤギケン,クリハラシ,セミネトミヨウガイ,宮城県栗原市瀬峰富要害
9894601,宮城県,登米市,迫町新田,ミヤギケン,トメシ,ハサマチョウニッタ,宮城県登米市迫町新田
9894701,宮城県,登米市,石越町北郷,ミヤギケン,トメシ,イシコシマチキタゴウ,宮城県登米市石越町北郷
9894702,宮城県,登米市,石越町東郷,ミヤギケン,トメシ,イシコシマチヒガシゴウ,宮城県登米市石越町東郷
9894703,宮城県,登米市,石越町南郷,ミヤギケン,トメシ,イシコシマチミナミゴウ,宮城県登米市石越町南郷
9894802,宮城県,栗原市,金成末野,ミヤギケン,クリハラシ,カンナリスエノ,宮城県栗原市金成末野
9894803,宮城県,栗原市,金成藤渡戸,ミヤギケン,クリハラシ,カンナリフジワタト,宮城県栗原市金成藤渡戸
9894805,宮城県,栗原市,金成片馬合,ミヤギケン,クリハラシ,カンナリカタマセ,宮城県栗原市金成片馬合
9894806,宮城県,栗原市,金成有壁,ミヤギケン,クリハラシ,カンナリアリカベ,宮城県栗原市金成有壁
9894807,宮城県,栗原市,金成赤児,ミヤギケン,クリハラシ,カンナリアカチゴ,宮城県栗原市金成赤児
9894808,宮城県,栗原市,金成普賢堂,ミヤギケン,クリハラシ,カンナリフゲンドウ,宮城県栗原市金成普賢堂
9895111,宮城県,栗原市,金成日向,ミヤギケン,クリハラシ,カンナリヒムカイ,宮城県栗原市金成日向
9895112,宮城県,栗原市,金成宇南崎,ミヤギケン,クリハラシ,カンナリウナンザキ,宮城県栗原市金成宇南崎
9895113,宮城県,栗原市,金成宮前,ミヤギケン,クリハラシ,カンナリミヤマエ,宮城県栗原市金成宮前
9895114,宮城県,栗原市,金成下富田,ミヤギケン,クリハラシ,カンナリシモトミダ,宮城県栗原市金成下富田
9895115,宮城県,栗原市,金成上富田,ミヤギケン,クリハラシ,カンナリカミトミダ,宮城県栗原市金成上富田
9895116,宮城県,栗原市,金成大梨,ミヤギケン,クリハラシ,カンナリオオナシ,宮城県栗原市金成大梨
9895117,宮城県,栗原市,金成柧木沢,ミヤギケン,クリハラシ,カンナリハヌキザワ,宮城県栗原市金成柧木沢
9895118,宮城県,栗原市,金成入ノ沢,ミヤギケン,クリハラシ,カンナリイリノサワ,宮城県栗原市金成入ノ沢
9895119,宮城県,栗原市,金成狼ノ沢,ミヤギケン,クリハラシ,カンナリオイノザワ,宮城県栗原市金成狼ノ沢
9895121,宮城県,栗原市,金成大平,ミヤギケン,クリハラシ,カンナリオオヒラ,宮城県栗原市金成大平
9895122,宮城県,栗原市,金成三沢,ミヤギケン,クリハラシ,カンナリミサワ,宮城県栗原市金成三沢
9895123,宮城県,栗原市,金成平治屋敷,ミヤギケン,クリハラシ,カンナリヘイジヤシキ,宮城県栗原市金成平治屋敷
9895124,宮城県,栗原市,金成山中堤下,ミヤギケン,クリハラシ,カンナリヤマナカツツミシタ,宮城県栗原市金成山中堤下
9895125,宮城県,栗原市,金成大林寺沢,ミヤギケン,クリハラシ,カンナリダイリンジザワ,宮城県栗原市金成大林寺沢
9895126,宮城県,栗原市,金成鍔ノ瓦,ミヤギケン,クリハラシ,カンナリツバノカワラ,宮城県栗原市金成鍔ノ瓦
9895127,宮城県,栗原市,金成稲荷前,ミヤギケン,クリハラシ,カンナリイナリマエ,宮城県栗原市金成稲荷前
9895128,宮城県,栗原市,金成金山沢,ミヤギケン,クリハラシ,カンナリカナヤマザワ,宮城県栗原市金成金山沢
9895130,宮城県,栗原市,金成清水田,ミヤギケン,クリハラシ,カンナリシミズタ,宮城県栗原市金成清水田
9895131,宮城県,栗原市,金成日向田,ミヤギケン,クリハラシ,カンナリヒムカイダ,宮城県栗原市金成日向田
9895132,宮城県,栗原市,金成干谷沢,ミヤギケン,クリハラシ,カンナリホシヤザワ,宮城県栗原市金成干谷沢
9895133,宮城県,栗原市,金成新町,ミヤギケン,クリハラシ,カンナリシンマチ,宮城県栗原市金成新町
9895134,宮城県,栗原市,金成新町裏,ミヤギケン,クリハラシ,カンナリシンマチウラ,宮城県栗原市金成新町裏
9895135,宮城県,栗原市,金成台畑,ミヤギケン,クリハラシ,カンナリダイハタ,宮城県栗原市金成台畑
9895136,宮城県,栗原市,金成熊ノ下,ミヤギケン,クリハラシ,カンナリクマノシタ,宮城県栗原市金成熊ノ下
9895137,宮城県,栗原市,金成髪長,ミヤギケン,クリハラシ,カンナリカミナガ,宮城県栗原市金成髪長
9895138,宮城県,栗原市,金成翁沢,ミヤギケン,クリハラシ,カンナリオキナザワ,宮城県栗原市金成翁沢
9895139,宮城県,栗原市,金成黄金田,ミヤギケン,クリハラシ,カンナリコガネダ,宮城県栗原市金成黄金田
9895141,宮城県,栗原市,金成翁留,ミヤギケン,クリハラシ,カンナリオキナドメ,宮城県栗原市金成翁留
9895142,宮城県,栗原市,金成入生田,ミヤギケン,クリハラシ,カンナリイリウダ,宮城県栗原市金成入生田
9895143,宮城県,栗原市,金成奉公田,ミヤギケン,クリハラシ,カンナリホウコウダ,宮城県栗原市金成奉公田
9895144,宮城県,栗原市,金成中町,ミヤギケン,クリハラシ,カンナリナカマチ,宮城県栗原市金成中町
9895145,宮城県,栗原市,金成中町西裏,ミヤギケン,クリハラシ,カンナリナカマチニシウラ,宮城県栗原市金成中町西裏
9895146,宮城県,栗原市,金成祝,ミヤギケン,クリハラシ,カンナリイワイ,宮城県栗原市金成祝
9895151,宮城県,栗原市,金成桜町,ミヤギケン,クリハラシ,カンナリサクラマチ,宮城県栗原市金成桜町
9895152,宮城県,栗原市,金成四ツ屋敷,ミヤギケン,クリハラシ,カンナリヨツヤシキ,宮城県栗原市金成四ツ屋敷
9895153,宮城県,栗原市,金成上町東裏,ミヤギケン,クリハラシ,カンナリカミマチヒガシウラ,宮城県栗原市金成上町東裏
9895154,宮城県,栗原市,金成上町,ミヤギケン,クリハラシ,カンナリカミマチ,宮城県栗原市金成上町
9895155,宮城県,栗原市,金成上町西裏,ミヤギケン,クリハラシ,カンナリカミマチニシウラ,宮城県栗原市金成上町西裏
9895161,宮城県,栗原市,金成館下,ミヤギケン,クリハラシ,カンナリタテシタ,宮城県栗原市金成館下
9895162,宮城県,栗原市,金成長根沢,ミヤギケン,クリハラシ,カンナリナガネザワ,宮城県栗原市金成長根沢
9895163,宮城県,栗原市,金成大久保沢,ミヤギケン,クリハラシ,カンナリオオクボサワ,宮城県栗原市金成大久保沢
9895164,宮城県,栗原市,金成金生,ミヤギケン,クリハラシ,カンナリキンセイ,宮城県栗原市金成金生
9895165,宮城県,栗原市,金成長館,ミヤギケン,クリハラシ,カンナリナガタテ,宮城県栗原市金成長館
9895166,宮城県,栗原市,金成長根前,ミヤギケン,クリハラシ,カンナリナガネマエ,宮城県栗原市金成長根前
9895171,宮城県,栗原市,金成沢辺,ミヤギケン,クリハラシ,カンナリサワベ,宮城県栗原市金成沢辺
9895172,宮城県,栗原市,金成姉歯,ミヤギケン,クリハラシ,カンナリアネハ,宮城県栗原市金成姉歯
9895173,宮城県,栗原市,金成梨崎,ミヤギケン,クリハラシ,カンナリナシザキ,宮城県栗原市金成梨崎
9895181,宮城県,栗原市,金成津久毛,ミヤギケン,クリハラシ,カンナリツクモ,宮城県栗原市金成津久毛
9895183,宮城県,栗原市,金成小堤,ミヤギケン,クリハラシ,カンナリオツツミ,宮城県栗原市金成小堤
9895184,宮城県,栗原市,金成小迫,ミヤギケン,クリハラシ,カンナリオバサマ,宮城県栗原市金成小迫
9895185,宮城県,栗原市,金成大原木,ミヤギケン,クリハラシ,カンナリオオハラギ,宮城県栗原市金成大原木
9895301,宮城県,栗原市,栗駒岩ケ崎,ミヤギケン,クリハラシ,クリコマイワガサキ,宮城県栗原市栗駒岩ケ崎
9895311,宮城県,栗原市,栗駒里谷,ミヤギケン,クリハラシ,クリコマサトヤ,宮城県栗原市栗駒里谷
9895312,宮城県,栗原市,栗駒猿飛来,ミヤギケン,クリハラシ,クリコマサッピライ,宮城県栗原市栗駒猿飛来
9895321,宮城県,栗原市,栗駒栗原,ミヤギケン,クリハラシ,クリコマクリバラ,宮城県栗原市栗駒栗原
9895322,宮城県,栗原市,栗駒桜田,ミヤギケン,クリハラシ,クリコマサクラダ,宮城県栗原市栗駒桜田
9895323,宮城県,栗原市,栗駒菱沼,ミヤギケン,クリハラシ,クリコマヒシヌマ,宮城県栗原市栗駒菱沼
9895324,宮城県,栗原市,栗駒八幡,ミヤギケン,クリハラシ,クリコマヤハタ,宮城県栗原市栗駒八幡
9895331,宮城県,栗原市,栗駒泉沢,ミヤギケン,クリハラシ,クリコマイズミザワ,宮城県栗原市栗駒泉沢
9895332,宮城県,栗原市,栗駒芋埣,ミヤギケン,クリハラシ,クリコマイモゾネ,宮城県栗原市栗駒芋埣
9895333,宮城県,栗原市,栗駒片子沢,ミヤギケン,クリハラシ,クリコマカタゴザワ,宮城県栗原市栗駒片子沢
9895334,宮城県,栗原市,栗駒嶺崎,ミヤギケン,クリハラシ,クリコマミネザキ,宮城県栗原市栗駒嶺崎
9895335,宮城県,栗原市,栗駒渡丸,ミヤギケン,クリハラシ,クリコマワタマル,宮城県栗原市栗駒渡丸
9895341,宮城県,栗原市,栗駒稲屋敷,ミヤギケン,クリハラシ,クリコマイナヤシキ,宮城県栗原市栗駒稲屋敷
9895351,宮城県,栗原市,栗駒中野,ミヤギケン,クリハラシ,クリコマナカノ,宮城県栗原市栗駒中野
9895361,宮城県,栗原市,栗駒文字,ミヤギケン,クリハラシ,クリコマモンジ,宮城県栗原市栗駒文字
9895371,宮城県,栗原市,栗駒沼倉,ミヤギケン,クリハラシ,クリコマヌマクラ,宮城県栗原市栗駒沼倉
9895372,宮城県,栗原市,栗駒松倉,ミヤギケン,クリハラシ,クリコママツクラ,宮城県栗原市栗駒松倉
9895381,宮城県,栗原市,栗駒鳥沢,ミヤギケン,クリハラシ,クリコマトリサワ,宮城県栗原市栗駒鳥沢
9895382,宮城県,栗原市,栗駒深谷,ミヤギケン,クリハラシ,クリコマフカヤ,宮城県栗原市栗駒深谷
9895401,宮城県,栗原市,鶯沢袋,ミヤギケン,クリハラシ,ウグイスザワフクロ,宮城県栗原市鶯沢袋
9895402,宮城県,栗原市,鶯沢南郷,ミヤギケン,クリハラシ,ウグイスザワナンゴウ,宮城県栗原市鶯沢南郷
9895403,宮城県,栗原市,鶯沢北郷,ミヤギケン,クリハラシ,ウグイスザワキタゴウ,宮城県栗原市鶯沢北郷
9895501,宮城県,栗原市,若柳川北,ミヤギケン,クリハラシ,ワカヤナギカワキタ,宮城県栗原市若柳川北
9895502,宮城県,栗原市,若柳川南,ミヤギケン,クリハラシ,ワカヤナギカワミナミ,宮城県栗原市若柳川南
9895503,宮城県,栗原市,若柳下畑岡,ミヤギケン,クリハラシ,ワカヤナギシモハタオカ,宮城県栗原市若柳下畑岡
9895504,宮城県,栗原市,若柳上畑岡,ミヤギケン,クリハラシ,ワカヤナギカミハタオカ,宮城県栗原市若柳上畑岡
9895505,宮城県,栗原市,若柳福岡,ミヤギケン,クリハラシ,ワカヤナギフクオカ,宮城県栗原市若柳福岡
9895506,宮城県,栗原市,若柳大林,ミヤギケン,クリハラシ,ワカヤナギオオハヤシ,宮城県栗原市若柳大林
9895507,宮城県,栗原市,若柳有賀,ミヤギケン,クリハラシ,ワカヤナギアリガ,宮城県栗原市若柳有賀
9895508,宮城県,栗原市,若柳武鎗,ミヤギケン,クリハラシ,ワカヤナギムヤリ,宮城県栗原市若柳武鎗
9895509,宮城県,栗原市,若柳大林新寺浦,ミヤギケン,クリハラシ,ワカヤナギオオハヤシシンテラウラ,宮城県栗原市若柳大林新寺浦
9895601,宮城県,栗原市,志波姫刈敷,ミヤギケン,クリハラシ,シワヒメカリシキ,宮城県栗原市志波姫刈敷
9895602,宮城県,栗原市,志波姫城内南,ミヤギケン,クリハラシ,シワヒメジョウナイミナミ,宮城県栗原市志波姫城内南
9895603,宮城県,栗原市,志波姫伊豆野,ミヤギケン,クリハラシ,シワヒメイズノ,宮城県栗原市志波姫伊豆野
9895604,宮城県,栗原市,志波姫大門南,ミヤギケン,クリハラシ,シワヒメダイモンミナミ,宮城県栗原市志波姫大門南
9895605,宮城県,栗原市,志波姫北郷,ミヤギケン,クリハラシ,シワヒメキタゴウ,宮城県栗原市志波姫北郷
9895606,宮城県,栗原市,志波姫荒町南,ミヤギケン,クリハラシ,シワヒメアラマチミナミ,宮城県栗原市志波姫荒町南
9895607,宮城県,栗原市,志波姫蔵場南,ミヤギケン,クリハラシ,シワヒメクラバミナミ,宮城県栗原市志波姫蔵場南
9895608,宮城県,栗原市,志波姫荒町北,ミヤギケン,クリハラシ,シワヒメアラマチキタ,宮城県栗原市志波姫荒町北
9895609,宮城県,栗原市,志波姫花崎西,ミヤギケン,クリハラシ,シワヒメハナサキニシ,宮城県栗原市志波姫花崎西
9895610,宮城県,栗原市,志波姫要害東,ミヤギケン,クリハラシ,シワヒメヨウガイヒガシ,宮城県栗原市志波姫要害東
9895611,宮城県,栗原市,志波姫南郷,ミヤギケン,クリハラシ,シワヒメミナミゴウ,宮城県栗原市志波姫南郷
9895612,宮城県,栗原市,志波姫新熊谷,ミヤギケン,クリハラシ,シワヒメシンクマヤ,宮城県栗原市志波姫新熊谷
9895613,宮城県,栗原市,志波姫新沼崎,ミヤギケン,クリハラシ,シワヒメシンヌマザキ,宮城県栗原市志波姫新沼崎
9895614,宮城県,栗原市,志波姫新原,ミヤギケン,クリハラシ,シワヒメシンハラ,宮城県栗原市志波姫新原
9895615,宮城県,栗原市,志波姫沼崎,ミヤギケン,クリハラシ,シワヒメヌマザキ,宮城県栗原市志波姫沼崎
9895616,宮城県,栗原市,志波姫新上戸,ミヤギケン,クリハラシ,シワヒメシンアガト,宮城県栗原市志波姫新上戸
9895617,宮城県,栗原市,志波姫新橋本,ミヤギケン,クリハラシ,シワヒメシンハシモト,宮城県栗原市志波姫新橋本
9895618,宮城県,栗原市,志波姫新八樟,ミヤギケン,クリハラシ,シワヒメシンヤツクヌギ,宮城県栗原市志波姫新八樟
9895619,宮城県,栗原市,志波姫横峰浦,ミヤギケン,クリハラシ,シワヒメヨコミネウラ,宮城県栗原市志波姫横峰浦
9895621,宮城県,栗原市,志波姫下里,ミヤギケン,クリハラシ,シワヒメシモサト,宮城県栗原市志波姫下里
9895622,宮城県,栗原市,志波姫八樟,ミヤギケン,クリハラシ,シワヒメヤツクヌギ,宮城県栗原市志波姫八樟
9895623,宮城県,栗原市,志波姫南八樟,ミヤギケン,クリハラシ,シワヒメミナミヤツクヌギ,宮城県栗原市志波姫南八樟
9895624,宮城県,栗原市,志波姫南堀口,ミヤギケン,クリハラシ,シワヒメミナミホリグチ,宮城県栗原市志波姫南堀口
9895625,宮城県,栗原市,志波姫堀口,ミヤギケン,クリハラシ,シワヒメホリグチ,宮城県栗原市志波姫堀口
9895626,宮城県,栗原市,志波姫中沖,ミヤギケン,クリハラシ,シワヒメナカオキ,宮城県栗原市志波姫中沖
9895627,宮城県,栗原市,志波姫北堀口,ミヤギケン,クリハラシ,シワヒメキタホリグチ,宮城県栗原市志波姫北堀口
9896100,宮城県,大崎市,,ミヤギケン,オオサキシ,,宮城県大崎市
9896101,宮城県,大崎市,古川福浦,ミヤギケン,オオサキシ,フルカワフクウラ,宮城県大崎市古川福浦
9896102,宮城県,大崎市,古川江合本町,ミヤギケン,オオサキシ,フルカワエアイホンチョウ,宮城県大崎市古川江合本町
9896103,宮城県,大崎市,古川江合寿町,ミヤギケン,オオサキシ,フルカワエアイコトブキチョウ,宮城県大崎市古川江合寿町
9896104,宮城県,大崎市,古川江合錦町,ミヤギケン,オオサキシ,フルカワエアイニシキチョウ,宮城県大崎市古川江合錦町
9896105,宮城県,大崎市,古川福沼,ミヤギケン,オオサキシ,フルカワフクヌマ,宮城県大崎市古川福沼
9896106,宮城県,大崎市,古川幸町,ミヤギケン,オオサキシ,フルカワサイワイチョウ,宮城県大崎市古川幸町
9896111,宮城県,大崎市,古川鶴ケ埣,ミヤギケン,オオサキシ,フルカワツルガソネ,宮城県大崎市古川鶴ケ埣
9896112,宮城県,大崎市,古川馬寄,ミヤギケン,オオサキシ,フルカワマヨセ,宮城県大崎市古川馬寄
9896113,宮城県,大崎市,古川蓑口沼,ミヤギケン,オオサキシ,フルカワミノクチヌマ,宮城県大崎市古川蓑口沼
9896114,宮城県,大崎市,古川大幡,ミヤギケン,オオサキシ,フルカワオオハタ,宮城県大崎市古川大幡
9896115,宮城県,大崎市,古川駅東,ミヤギケン,オオサキシ,フルカワエキヒガシ,宮城県大崎市古川駅東
9896116,宮城県,大崎市,古川李埣,ミヤギケン,オオサキシ,フルカワスモゾネ,宮城県大崎市古川李埣
9896117,宮城県,大崎市,古川旭,ミヤギケン,オオサキシ,フルカワアサヒ,宮城県大崎市古川旭
9896121,宮城県,大崎市,古川深沼,ミヤギケン,オオサキシ,フルカワフカヌマ,宮城県大崎市古川深沼
9896122,宮城県,大崎市,古川桑針,ミヤギケン,オオサキシ,フルカワクワバリ,宮城県大崎市古川桑針
9896123,宮城県,大崎市,古川下中目,ミヤギケン,オオサキシ,フルカワシモナカノメ,宮城県大崎市古川下中目
9896124,宮城県,大崎市,古川石森,ミヤギケン,オオサキシ,フルカワイシモリ,宮城県大崎市古川石森
9896125,宮城県,大崎市,古川師山,ミヤギケン,オオサキシ,フルカワモロヤマ,宮城県大崎市古川師山
9896126,宮城県,大崎市,古川楡木,ミヤギケン,オオサキシ,フルカワタマノキ,宮城県大崎市古川楡木
9896127,宮城県,大崎市,古川宮内,ミヤギケン,オオサキシ,フルカワミヤウチ,宮城県大崎市古川宮内
9896128,宮城県,大崎市,古川境野宮,ミヤギケン,オオサキシ,フルカワサカイノミヤ,宮城県大崎市古川境野宮
9896131,宮城県,大崎市,古川金五輪,ミヤギケン,オオサキシ,フルカワカナゴリン,宮城県大崎市古川金五輪
9896132,宮城県,大崎市,古川米袋,ミヤギケン,オオサキシ,フルカワヨネブクロ,宮城県大崎市古川米袋
9896133,宮城県,大崎市,古川西荒井,ミヤギケン,オオサキシ,フルカワニシアライ,宮城県大崎市古川西荒井
9896134,宮城県,大崎市,古川米倉,ミヤギケン,オオサキシ,フルカワヨネクラ,宮城県大崎市古川米倉
9896135,宮城県,大崎市,古川稲葉,ミヤギケン,オオサキシ,フルカワイナバ,宮城県大崎市古川稲葉
9896136,宮城県,大崎市,古川穂波,ミヤギケン,オオサキシ,フルカワホナミ,宮城県大崎市古川穂波
9896141,宮城県,大崎市,古川南新町,ミヤギケン,オオサキシ,フルカワミナミシンマチ,宮城県大崎市古川南新町
9896142,宮城県,大崎市,古川中島町,ミヤギケン,オオサキシ,フルカワナカジマチョウ,宮城県大崎市古川中島町
9896143,宮城県,大崎市,古川中里,ミヤギケン,オオサキシ,フルカワナカザト,宮城県大崎市古川中里
9896144,宮城県,大崎市,古川小稲葉町,ミヤギケン,オオサキシ,フルカワコイナバチョウ,宮城県大崎市古川小稲葉町
9896145,宮城県,大崎市,古川北稲葉,ミヤギケン,オオサキシ,フルカワキタイナバ,宮城県大崎市古川北稲葉
9896151,宮城県,大崎市,古川城西,ミヤギケン,オオサキシ,フルカワシロニシ,宮城県大崎市古川城西
9896152,宮城県,大崎市,古川二ノ構,ミヤギケン,オオサキシ,フルカワニノカマエ,宮城県大崎市古川二ノ構
9896153,宮城県,大崎市,古川七日町,ミヤギケン,オオサキシ,フルカワナノカマチ,宮城県大崎市古川七日町
9896154,宮城県,大崎市,古川三日町,ミヤギケン,オオサキシ,フルカワミッカマチ,宮城県大崎市古川三日町
9896155,宮城県,大崎市,古川南町,ミヤギケン,オオサキシ,フルカワミナミマチ,宮城県大崎市古川南町
9896156,宮城県,大崎市,古川西館,ミヤギケン,オオサキシ,フルカワニシダテ,宮城県大崎市古川西館
9896157,宮城県,大崎市,古川栄町,ミヤギケン,オオサキシ,フルカワサカエチョウ,宮城県大崎市古川栄町
9896161,宮城県,大崎市,古川駅南,ミヤギケン,オオサキシ,フルカワエキミナミ,宮城県大崎市古川駅南
9896162,宮城県,大崎市,古川駅前大通,ミヤギケン,オオサキシ,フルカワエキマエオオドオリ,宮城県大崎市古川駅前大通
9896163,宮城県,大崎市,古川台町,ミヤギケン,オオサキシ,フルカワダイマチ,宮城県大崎市古川台町
9896164,宮城県,大崎市,古川荒川小金町,ミヤギケン,オオサキシ,フルカワアラカワコガネチョウ,宮城県大崎市古川荒川小金町
9896165,宮城県,大崎市,古川十日町,ミヤギケン,オオサキシ,フルカワトオカマチ,宮城県大崎市古川十日町
9896166,宮城県,大崎市,古川東町,ミヤギケン,オオサキシ,フルカワヒガシマチ,宮城県大崎市古川東町
9896167,宮城県,大崎市,古川川端,ミヤギケン,オオサキシ,フルカワカワハタ,宮城県大崎市古川川端
9896171,宮城県,大崎市,古川北町,ミヤギケン,オオサキシ,フルカワキタマチ,宮城県大崎市古川北町
9896172,宮城県,大崎市,古川前田町,ミヤギケン,オオサキシ,フルカワマエダチョウ,宮城県大崎市古川前田町
9896173,宮城県,大崎市,古川浦町,ミヤギケン,オオサキシ,フルカワウラマチ,宮城県大崎市古川浦町
9896174,宮城県,大崎市,古川千手寺町,ミヤギケン,オオサキシ,フルカワセンジュウジチョウ,宮城県大崎市古川千手寺町
9896175,宮城県,大崎市,古川諏訪,ミヤギケン,オオサキシ,フルカワスワ,宮城県大崎市古川諏訪
9896201,宮城県,大崎市,古川渋井,ミヤギケン,オオサキシ,フルカワシブイ,宮城県大崎市古川渋井
9896202,宮城県,大崎市,古川上中目,ミヤギケン,オオサキシ,フルカワカミナカノメ,宮城県大崎市古川上中目
9896203,宮城県,大崎市,古川飯川,ミヤギケン,オオサキシ,フルカワイイガワ,宮城県大崎市古川飯川
9896204,宮城県,大崎市,古川矢目,ミヤギケン,オオサキシ,フルカワヤノメ,宮城県大崎市古川矢目
9896205,宮城県,大崎市,古川新沼,ミヤギケン,オオサキシ,フルカワニイヌマ,宮城県大崎市古川新沼
9896206,宮城県,大崎市,古川中沢,ミヤギケン,オオサキシ,フルカワナカザワ,宮城県大崎市古川中沢
9896207,宮城県,大崎市,古川堤根,ミヤギケン,オオサキシ,フルカワツツミネ,宮城県大崎市古川堤根
9896208,宮城県,大崎市,古川引田,ミヤギケン,オオサキシ,フルカワヒキタ,宮城県大崎市古川引田
9896211,宮城県,大崎市,古川斎下,ミヤギケン,オオサキシ,フルカワサイゲ,宮城県大崎市古川斎下
9896212,宮城県,大崎市,古川荒田目,ミヤギケン,オオサキシ,フルカワアラタノメ,宮城県大崎市古川荒田目
9896213,宮城県,大崎市,古川保柳,ミヤギケン,オオサキシ,フルカワホヤナギ,宮城県大崎市古川保柳
9896214,宮城県,大崎市,古川新堀,ミヤギケン,オオサキシ,フルカワニイボリ,宮城県大崎市古川新堀
9896215,宮城県,大崎市,古川耳取,ミヤギケン,オオサキシ,フルカワミミトリ,宮城県大崎市古川耳取
9896216,宮城県,大崎市,古川柏崎,ミヤギケン,オオサキシ,フルカワカシワザキ,宮城県大崎市古川柏崎
9896217,宮城県,大崎市,古川南沢,ミヤギケン,オオサキシ,フルカワミナミザワ,宮城県大崎市古川南沢
9896221,宮城県,大崎市,古川大宮,ミヤギケン,オオサキシ,フルカワオオミヤ,宮城県大崎市古川大宮
9896222,宮城県,大崎市,古川若葉町,ミヤギケン,オオサキシ,フルカワワカバチョウ,宮城県大崎市古川若葉町
9896223,宮城県,大崎市,古川,ミヤギケン,オオサキシ,フルカワ,宮城県大崎市古川
9896224,宮城県,大崎市,古川小泉,ミヤギケン,オオサキシ,フルカワコイズミ,宮城県大崎市古川小泉
9896225,宮城県,大崎市,古川塚目,ミヤギケン,オオサキシ,フルカワツカノメ,宮城県大崎市古川塚目
9896226,宮城県,大崎市,古川新田,ミヤギケン,オオサキシ,フルカワニイダ,宮城県大崎市古川新田
9896227,宮城県,大崎市,古川大崎,ミヤギケン,オオサキシ,フルカワオオサキ,宮城県大崎市古川大崎
9896228,宮城県,大崎市,古川清水,ミヤギケン,オオサキシ,フルカワシミズ,宮城県大崎市古川清水
9896231,宮城県,大崎市,古川長岡,ミヤギケン,オオサキシ,フルカワナガオカ,宮城県大崎市古川長岡
9896232,宮城県,大崎市,古川沢田,ミヤギケン,オオサキシ,フルカワサワダ,宮城県大崎市古川沢田
9896233,宮城県,大崎市,古川桜ノ目,ミヤギケン,オオサキシ,フルカワサクラノメ,宮城県大崎市古川桜ノ目
9896234,宮城県,大崎市,古川小林,ミヤギケン,オオサキシ,フルカワオバヤシ,宮城県大崎市古川小林
9896235,宮城県,大崎市,古川宮沢,ミヤギケン,オオサキシ,フルカワミヤザワ,宮城県大崎市古川宮沢
9896236,宮城県,大崎市,古川川熊,ミヤギケン,オオサキシ,フルカワカワクマ,宮城県大崎市古川川熊
9896241,宮城県,大崎市,古川清水沢,ミヤギケン,オオサキシ,フルカワシミズサワ,宮城県大崎市古川清水沢
9896242,宮城県,大崎市,古川北宮沢,ミヤギケン,オオサキシ,フルカワキタミヤザワ,宮城県大崎市古川北宮沢
9896243,宮城県,大崎市,古川雨生沢,ミヤギケン,オオサキシ,フルカワアメオザワ,宮城県大崎市古川雨生沢
9896244,宮城県,大崎市,古川清滝,ミヤギケン,オオサキシ,フルカワキヨタキ,宮城県大崎市古川清滝
9896251,宮城県,大崎市,古川小野,ミヤギケン,オオサキシ,フルカワコノ,宮城県大崎市古川小野
9896252,宮城県,大崎市,古川荒谷,ミヤギケン,オオサキシ,フルカワアラヤ,宮城県大崎市古川荒谷
9896253,宮城県,大崎市,古川馬放,ミヤギケン,オオサキシ,フルカワマハナシ,宮城県大崎市古川馬放
9896254,宮城県,大崎市,古川狐塚,ミヤギケン,オオサキシ,フルカワキツネヅカ,宮城県大崎市古川狐塚
9896255,宮城県,大崎市,古川休塚,ミヤギケン,オオサキシ,フルカワヤスミヅカ,宮城県大崎市古川休塚
9896261,宮城県,大崎市,古川長岡針,ミヤギケン,オオサキシ,フルカワナガオカハリ,宮城県大崎市古川長岡針
9896262,宮城県,大崎市,古川馬櫛,ミヤギケン,オオサキシ,フルカワマグシ,宮城県大崎市古川馬櫛
9896263,宮城県,大崎市,古川下谷地,ミヤギケン,オオサキシ,フルカワシモヤチ,宮城県大崎市古川下谷地
9896264,宮城県,大崎市,古川上埣,ミヤギケン,オオサキシ,フルカワカミゾネ,宮城県大崎市古川上埣
9896265,宮城県,大崎市,古川渕尻,ミヤギケン,オオサキシ,フルカワフチジリ,宮城県大崎市古川渕尻
9896266,宮城県,大崎市,古川富長,ミヤギケン,オオサキシ,フルカワトミナガ,宮城県大崎市古川富長
9896301,宮城県,大崎市,三本木桑折,ミヤギケン,オオサキシ,サンボンギコオリ,宮城県大崎市三本木桑折
9896302,宮城県,大崎市,三本木上伊場野,ミヤギケン,オオサキシ,サンボンギカミイバノ,宮城県大崎市三本木上伊場野
9896303,宮城県,大崎市,三本木伊場野,ミヤギケン,オオサキシ,サンボンギイバノ,宮城県大崎市三本木伊場野
9896304,宮城県,大崎市,三本木秋田,ミヤギケン,オオサキシ,サンボンギアキタ,宮城県大崎市三本木秋田
9896305,宮城県,大崎市,三本木伊賀,ミヤギケン,オオサキシ,サンボンギイガ,宮城県大崎市三本木伊賀
9896306,宮城県,大崎市,三本木新町,ミヤギケン,オオサキシ,サンボンギシンマチ,宮城県大崎市三本木新町
9896311,宮城県,大崎市,三本木坂本,ミヤギケン,オオサキシ,サンボンギサカモト,宮城県大崎市三本木坂本
9896312,宮城県,大崎市,三本木蟻ケ袋,ミヤギケン,オオサキシ,サンボンギアリガフクロ,宮城県大崎市三本木蟻ケ袋
9896313,宮城県,大崎市,三本木音無,ミヤギケン,オオサキシ,サンボンギオトナシ,宮城県大崎市三本木音無
9896314,宮城県,大崎市,三本木斉田,ミヤギケン,オオサキシ,サンボンギサイダ,宮城県大崎市三本木斉田
9896315,宮城県,大崎市,三本木新沼,ミヤギケン,オオサキシ,サンボンギニイヌマ,宮城県大崎市三本木新沼
9896316,宮城県,大崎市,三本木高柳,ミヤギケン,オオサキシ,サンボンギタカヤナギ,宮城県大崎市三本木高柳
9896317,宮城県,大崎市,三本木蒜袋,ミヤギケン,オオサキシ,サンボンギヒルブクロ,宮城県大崎市三本木蒜袋
9896321,宮城県,大崎市,三本木,ミヤギケン,オオサキシ,サンボンギ,宮城県大崎市三本木
9896322,宮城県,大崎市,三本木南谷地,ミヤギケン,オオサキシ,サンボンギミナミヤチ,宮城県大崎市三本木南谷地
9896401,宮城県,大崎市,岩出山（上真山、葛岡）,ミヤギケン,オオサキシ,イワデヤマ(カミマヤマ、クズオカ),宮城県大崎市岩出山（上真山、葛岡）
9896402,宮城県,大崎市,岩出山（磯田、下真山）,ミヤギケン,オオサキシ,イワデヤマ(イソダ、シモマヤマ),宮城県大崎市岩出山（磯田、下真山）
9896403,宮城県,大崎市,岩出山上野目,ミヤギケン,オオサキシ,イワデヤマカミノメ,宮城県大崎市岩出山上野目
9896404,宮城県,大崎市,岩出山下一栗,ミヤギケン,オオサキシ,イワデヤマシモイチクリ,宮城県大崎市岩出山下一栗
9896405,宮城県,大崎市,岩出山池月,ミヤギケン,オオサキシ,イワデヤマイケツキ,宮城県大崎市岩出山池月
9896411,宮城県,大崎市,岩出山船場,ミヤギケン,オオサキシ,イワデヤマフナバ,宮城県大崎市岩出山船場
9896412,宮城県,大崎市,岩出山下野目,ミヤギケン,オオサキシ,イワデヤマシモノメ,宮城県大崎市岩出山下野目
9896413,宮城県,大崎市,岩出山東川原町,ミヤギケン,オオサキシ,イワデヤマヒガシカワラマチ,宮城県大崎市岩出山東川原町
9896414,宮城県,大崎市,岩出山下川原,ミヤギケン,オオサキシ,イワデヤマシモカワラ,宮城県大崎市岩出山下川原
9896415,宮城県,大崎市,岩出山東川原,ミヤギケン,オオサキシ,イワデヤマヒガシカワラ,宮城県大崎市岩出山東川原
9896421,宮城県,大崎市,岩出山上中江,ミヤギケン,オオサキシ,イワデヤマカミナカエ,宮城県大崎市岩出山上中江
9896422,宮城県,大崎市,岩出山重蔵,ミヤギケン,オオサキシ,イワデヤマジュウゾウ,宮城県大崎市岩出山重蔵
9896423,宮城県,大崎市,岩出山前毘沙門,ミヤギケン,オオサキシ,イワデヤママエビシャモン,宮城県大崎市岩出山前毘沙門
9896424,宮城県,大崎市,岩出山丸山,ミヤギケン,オオサキシ,イワデヤママルヤマ,宮城県大崎市岩出山丸山
9896425,宮城県,大崎市,岩出山西御名掛,ミヤギケン,オオサキシ,イワデヤマニシオナカケ,宮城県大崎市岩出山西御名掛
9896426,宮城県,大崎市,岩出山東御名掛,ミヤギケン,オオサキシ,イワデヤマヒガシオナカケ,宮城県大崎市岩出山東御名掛
9896431,宮城県,大崎市,岩出山上川原南,ミヤギケン,オオサキシ,イワデヤマカミカワラミナミ,宮城県大崎市岩出山上川原南
9896432,宮城県,大崎市,岩出山上川原北,ミヤギケン,オオサキシ,イワデヤマカミカワラキタ,宮城県大崎市岩出山上川原北
9896433,宮城県,大崎市,岩出山上川原町,ミヤギケン,オオサキシ,イワデヤマカミカワラマチ,宮城県大崎市岩出山上川原町
9896434,宮城県,大崎市,岩出山下川原町,ミヤギケン,オオサキシ,イワデヤマシモカワラマチ,宮城県大崎市岩出山下川原町
9896435,宮城県,大崎市,岩出山浦小路,ミヤギケン,オオサキシ,イワデヤマウラコウジ,宮城県大崎市岩出山浦小路
9896436,宮城県,大崎市,岩出山二ノ構,ミヤギケン,オオサキシ,イワデヤマニノカマエ,宮城県大崎市岩出山二ノ構
9896437,宮城県,大崎市,岩出山城山,ミヤギケン,オオサキシ,イワデヤマシロヤマ,宮城県大崎市岩出山城山
9896441,宮城県,大崎市,岩出山通丁,ミヤギケン,オオサキシ,イワデヤマトオリチョウ,宮城県大崎市岩出山通丁
9896442,宮城県,大崎市,岩出山下金沢,ミヤギケン,オオサキシ,イワデヤマシモカネザワ,宮城県大崎市岩出山下金沢
9896443,宮城県,大崎市,岩出山轟,ミヤギケン,オオサキシ,イワデヤマトドロキ,宮城県大崎市岩出山轟
9896444,宮城県,大崎市,岩出山細峯,ミヤギケン,オオサキシ,イワデヤマホソミネ,宮城県大崎市岩出山細峯
9896445,宮城県,大崎市,岩出山南沢,ミヤギケン,オオサキシ,イワデヤマミナミザワ,宮城県大崎市岩出山南沢
9896446,宮城県,大崎市,岩出山大学町,ミヤギケン,オオサキシ,イワデヤマダイガクマチ,宮城県大崎市岩出山大学町
9896447,宮城県,大崎市,岩出山上金沢,ミヤギケン,オオサキシ,イワデヤマカミカネザワ,宮城県大崎市岩出山上金沢
9896461,宮城県,大崎市,岩出山松沢,ミヤギケン,オオサキシ,イワデヤママツサワ,宮城県大崎市岩出山松沢
9896462,宮城県,大崎市,岩出山蛭沢,ミヤギケン,オオサキシ,イワデヤマヒルサワ,宮城県大崎市岩出山蛭沢
9896463,宮城県,大崎市,岩出山木通沢,ミヤギケン,オオサキシ,イワデヤマアケビザワ,宮城県大崎市岩出山木通沢
9896464,宮城県,大崎市,岩出山下東昌寺沢,ミヤギケン,オオサキシ,イワデヤマシモトウショウジサワ,宮城県大崎市岩出山下東昌寺沢
9896465,宮城県,大崎市,岩出山上東昌寺沢,ミヤギケン,オオサキシ,イワデヤマカミトウショウジザワ,宮城県大崎市岩出山上東昌寺沢
9896466,宮城県,大崎市,岩出山保土沢,ミヤギケン,オオサキシ,イワデヤマホドサワ,宮城県大崎市岩出山保土沢
9896471,宮城県,大崎市,岩出山（その他）,ミヤギケン,オオサキシ,イワデヤマ(ソノタ),宮城県大崎市岩出山（その他）
9896701,宮城県,栗原市,花山草木沢上原,ミヤギケン,クリハラシ,ハナヤマクサキサワウワハラ,宮城県栗原市花山草木沢上原
9896711,宮城県,大崎市,鳴子温泉上ノ原,ミヤギケン,オオサキシ,ナルコオンセンウエノハラ,宮城県大崎市鳴子温泉上ノ原
9896711,宮城県,大崎市,鳴子温泉上川原,ミヤギケン,オオサキシ,ナルコオンセンカミガワラ,宮城県大崎市鳴子温泉上川原
9896711,宮城県,大崎市,鳴子温泉中野,ミヤギケン,オオサキシ,ナルコオンセンナカノ,宮城県大崎市鳴子温泉中野
9896711,宮城県,大崎市,鳴子温泉久田,ミヤギケン,オオサキシ,ナルコオンセンキュウデン,宮城県大崎市鳴子温泉久田
9896711,宮城県,大崎市,鳴子温泉入沢,ミヤギケン,オオサキシ,ナルコオンセンイリサワ,宮城県大崎市鳴子温泉入沢
9896711,宮城県,大崎市,鳴子温泉原,ミヤギケン,オオサキシ,ナルコオンセンハラ,宮城県大崎市鳴子温泉原
9896711,宮城県,大崎市,鳴子温泉川渡,ミヤギケン,オオサキシ,ナルコオンセンカワタビ,宮城県大崎市鳴子温泉川渡
9896711,宮城県,大崎市,鳴子温泉新田,ミヤギケン,オオサキシ,ナルコオンセンシンデン,宮城県大崎市鳴子温泉新田
9896711,宮城県,大崎市,鳴子温泉新町下,ミヤギケン,オオサキシ,ナルコオンセンシンマチシタ,宮城県大崎市鳴子温泉新町下
9896711,宮城県,大崎市,鳴子温泉横山,ミヤギケン,オオサキシ,ナルコオンセンヨコヤマ,宮城県大崎市鳴子温泉横山
9896711,宮城県,大崎市,鳴子温泉沢,ミヤギケン,オオサキシ,ナルコオンセンサワ,宮城県大崎市鳴子温泉沢
9896711,宮城県,大崎市,鳴子温泉沼井,ミヤギケン,オオサキシ,ナルコオンセンヌマイ,宮城県大崎市鳴子温泉沼井
9896711,宮城県,大崎市,鳴子温泉玉ノ木,ミヤギケン,オオサキシ,ナルコオンセンタマノキ,宮城県大崎市鳴子温泉玉ノ木
9896711,宮城県,大崎市,鳴子温泉町,ミヤギケン,オオサキシ,ナルコオンセンマチ,宮城県大崎市鳴子温泉町
9896711,宮城県,大崎市,鳴子温泉町下,ミヤギケン,オオサキシ,ナルコオンセンマチシタ,宮城県大崎市鳴子温泉町下
9896711,宮城県,大崎市,鳴子温泉町西,ミヤギケン,オオサキシ,ナルコオンセンマチニシ,宮城県大崎市鳴子温泉町西
9896711,宮城県,大崎市,鳴子温泉石ノ梅,ミヤギケン,オオサキシ,ナルコオンセンイシノウメ,宮城県大崎市鳴子温泉石ノ梅
9896711,宮城県,大崎市,鳴子温泉築沢,ミヤギケン,オオサキシ,ナルコオンセンキザワ,宮城県大崎市鳴子温泉築沢
9896711,宮城県,大崎市,鳴子温泉蓬田,ミヤギケン,オオサキシ,ナルコオンセンヨモギダ,宮城県大崎市鳴子温泉蓬田
9896711,宮城県,大崎市,鳴子温泉要害,ミヤギケン,オオサキシ,ナルコオンセンヨウガイ,宮城県大崎市鳴子温泉要害
9896711,宮城県,大崎市,鳴子温泉赤這,ミヤギケン,オオサキシ,ナルコオンセンアカバイ,宮城県大崎市鳴子温泉赤這
9896711,宮城県,大崎市,鳴子温泉通原,ミヤギケン,オオサキシ,ナルコオンセンカヨバラ,宮城県大崎市鳴子温泉通原
9896711,宮城県,大崎市,鳴子温泉馬場,ミヤギケン,オオサキシ,ナルコオンセンババ,宮城県大崎市鳴子温泉馬場
9896712,宮城県,大崎市,鳴子温泉不動山,ミヤギケン,オオサキシ,ナルコオンセンフドウヤマ,宮城県大崎市鳴子温泉不動山
9896712,宮城県,大崎市,鳴子温泉中道,ミヤギケン,オオサキシ,ナルコオンセンナカミチ,宮城県大崎市鳴子温泉中道
9896712,宮城県,大崎市,鳴子温泉前山,ミヤギケン,オオサキシ,ナルコオンセンマエヤマ,宮城県大崎市鳴子温泉前山
9896712,宮城県,大崎市,鳴子温泉前森,ミヤギケン,オオサキシ,ナルコオンセンマエモリ,宮城県大崎市鳴子温泉前森
9896712,宮城県,大崎市,鳴子温泉南山,ミヤギケン,オオサキシ,ナルコオンセンミナミヤマ,宮城県大崎市鳴子温泉南山
9896712,宮城県,大崎市,鳴子温泉原崎,ミヤギケン,オオサキシ,ナルコオンセンハラサキ,宮城県大崎市鳴子温泉原崎
9896712,宮城県,大崎市,鳴子温泉和田,ミヤギケン,オオサキシ,ナルコオンセンワダ,宮城県大崎市鳴子温泉和田
9896712,宮城県,大崎市,鳴子温泉坂ノ上,ミヤギケン,オオサキシ,ナルコオンセンサカノウエ,宮城県大崎市鳴子温泉坂ノ上
9896712,宮城県,大崎市,鳴子温泉堤下,ミヤギケン,オオサキシ,ナルコオンセンツツミシタ,宮城県大崎市鳴子温泉堤下
9896712,宮城県,大崎市,鳴子温泉境松,ミヤギケン,オオサキシ,ナルコオンセンサカイマツ,宮城県大崎市鳴子温泉境松
9896712,宮城県,大崎市,鳴子温泉大尺,ミヤギケン,オオサキシ,ナルコオンセンダイシャク,宮城県大崎市鳴子温泉大尺
9896712,宮城県,大崎市,鳴子温泉天神,ミヤギケン,オオサキシ,ナルコオンセンテンジン,宮城県大崎市鳴子温泉天神
9896712,宮城県,大崎市,鳴子温泉小室,ミヤギケン,オオサキシ,ナルコオンセンコムロ,宮城県大崎市鳴子温泉小室
9896712,宮城県,大崎市,鳴子温泉小室山,ミヤギケン,オオサキシ,ナルコオンセンコムロヤマ,宮城県大崎市鳴子温泉小室山
9896712,宮城県,大崎市,鳴子温泉小身川原,ミヤギケン,オオサキシ,ナルコオンセンオミガワラ,宮城県大崎市鳴子温泉小身川原
9896712,宮城県,大崎市,鳴子温泉山際,ミヤギケン,オオサキシ,ナルコオンセンヤマギワ,宮城県大崎市鳴子温泉山際
9896712,宮城県,大崎市,鳴子温泉川袋,ミヤギケン,オオサキシ,ナルコオンセンカワブクロ,宮城県大崎市鳴子温泉川袋
9896712,宮城県,大崎市,鳴子温泉新小身川原,ミヤギケン,オオサキシ,ナルコオンセンシンオミガワラ,宮城県大崎市鳴子温泉新小身川原
9896712,宮城県,大崎市,鳴子温泉日向山,ミヤギケン,オオサキシ,ナルコオンセンヒナタヤマ,宮城県大崎市鳴子温泉日向山
9896712,宮城県,大崎市,鳴子温泉月山,ミヤギケン,オオサキシ,ナルコオンセンツキヤマ,宮城県大崎市鳴子温泉月山
9896712,宮城県,大崎市,鳴子温泉木戸脇,ミヤギケン,オオサキシ,ナルコオンセンキドワキ,宮城県大崎市鳴子温泉木戸脇
9896712,宮城県,大崎市,鳴子温泉水沼,ミヤギケン,オオサキシ,ナルコオンセンミズヌマ,宮城県大崎市鳴子温泉水沼
9896712,宮城県,大崎市,鳴子温泉沢目木,ミヤギケン,オオサキシ,ナルコオンセンサワメキ,宮城県大崎市鳴子温泉沢目木
9896712,宮城県,大崎市,鳴子温泉滝岸,ミヤギケン,オオサキシ,ナルコオンセンタキギシ,宮城県大崎市鳴子温泉滝岸
9896712,宮城県,大崎市,鳴子温泉田中,ミヤギケン,オオサキシ,ナルコオンセンタナカ,宮城県大崎市鳴子温泉田中
9896712,宮城県,大崎市,鳴子温泉畑山,ミヤギケン,オオサキシ,ナルコオンセンハタヤマ,宮城県大崎市鳴子温泉畑山
9896712,宮城県,大崎市,鳴子温泉竹原,ミヤギケン,オオサキシ,ナルコオンセンタケハラ,宮城県大崎市鳴子温泉竹原
9896712,宮城県,大崎市,鳴子温泉野際,ミヤギケン,オオサキシ,ナルコオンセンノギワ,宮城県大崎市鳴子温泉野際
9896712,宮城県,大崎市,鳴子温泉関口,ミヤギケン,オオサキシ,ナルコオンセンセキグチ,宮城県大崎市鳴子温泉関口
9896712,宮城県,大崎市,鳴子温泉鶴田,ミヤギケン,オオサキシ,ナルコオンセンツルタ,宮城県大崎市鳴子温泉鶴田
9896712,宮城県,大崎市,鳴子温泉黒崎,ミヤギケン,オオサキシ,ナルコオンセンクロサキ,宮城県大崎市鳴子温泉黒崎
9896801,宮城県,大崎市,鳴子温泉末沢,ミヤギケン,オオサキシ,ナルコオンセンスエザワ,宮城県大崎市鳴子温泉末沢
9896802,宮城県,大崎市,鳴子温泉末沢西,ミヤギケン,オオサキシ,ナルコオンセンスエザワニシ,宮城県大崎市鳴子温泉末沢西
9896803,宮城県,大崎市,鳴子温泉大畑,ミヤギケン,オオサキシ,ナルコオンセンオオバタケ,宮城県大崎市鳴子温泉大畑
9896804,宮城県,大崎市,鳴子温泉中屋敷,ミヤギケン,オオサキシ,ナルコオンセンナカヤシキ,宮城県大崎市鳴子温泉中屋敷
9896805,宮城県,大崎市,鳴子温泉岩渕前,ミヤギケン,オオサキシ,ナルコオンセンイワブチマエ,宮城県大崎市鳴子温泉岩渕前
9896806,宮城県,大崎市,鳴子温泉岩渕,ミヤギケン,オオサキシ,ナルコオンセンイワブチ,宮城県大崎市鳴子温泉岩渕
9896807,宮城県,大崎市,鳴子温泉見手野原,ミヤギケン,オオサキシ,ナルコオンセンミテノハラ,宮城県大崎市鳴子温泉見手野原
9896811,宮城県,大崎市,鳴子温泉赤湯,ミヤギケン,オオサキシ,ナルコオンセンアカユ,宮城県大崎市鳴子温泉赤湯
9896811,宮城県,大崎市,鳴子温泉鷲ノ巣,ミヤギケン,オオサキシ,ナルコオンセンワシノス,宮城県大崎市鳴子温泉鷲ノ巣
9896821,宮城県,大崎市,鳴子温泉車湯,ミヤギケン,オオサキシ,ナルコオンセンクルマユ,宮城県大崎市鳴子温泉車湯
9896822,宮城県,大崎市,鳴子温泉新屋敷,ミヤギケン,オオサキシ,ナルコオンセンシンヤシキ,宮城県大崎市鳴子温泉新屋敷
9896823,宮城県,大崎市,鳴子温泉湯元,ミヤギケン,オオサキシ,ナルコオンセンユモト,宮城県大崎市鳴子温泉湯元
9896824,宮城県,大崎市,鳴子温泉河原湯,ミヤギケン,オオサキシ,ナルコオンセンカワラユ,宮城県大崎市鳴子温泉河原湯
9896825,宮城県,大崎市,鳴子温泉上鳴子,ミヤギケン,オオサキシ,ナルコオンセンカミナルコ,宮城県大崎市鳴子温泉上鳴子
9896826,宮城県,大崎市,鳴子温泉古戸前,ミヤギケン,オオサキシ,ナルコオンセンフルトマエ,宮城県大崎市鳴子温泉古戸前
9896827,宮城県,大崎市,鳴子温泉尿前,ミヤギケン,オオサキシ,ナルコオンセンシトマエ,宮城県大崎市鳴子温泉尿前
9896831,宮城県,大崎市,鳴子温泉柳木,ミヤギケン,オオサキシ,ナルコオンセンヤギ,宮城県大崎市鳴子温泉柳木
9896832,宮城県,大崎市,鳴子温泉星沼,ミヤギケン,オオサキシ,ナルコオンセンホシヌマ,宮城県大崎市鳴子温泉星沼
9896833,宮城県,大崎市,鳴子温泉川端,ミヤギケン,オオサキシ,ナルコオンセンカワハタ,宮城県大崎市鳴子温泉川端
9896834,宮城県,大崎市,鳴子温泉西原,ミヤギケン,オオサキシ,ナルコオンセンニシハラ,宮城県大崎市鳴子温泉西原
9896835,宮城県,大崎市,鳴子温泉南原,ミヤギケン,オオサキシ,ナルコオンセンミナミハラ,宮城県大崎市鳴子温泉南原
9896836,宮城県,大崎市,鳴子温泉焼石亦,ミヤギケン,オオサキシ,ナルコオンセンヤキイシマタ,宮城県大崎市鳴子温泉焼石亦
9896837,宮城県,大崎市,鳴子温泉南星沼,ミヤギケン,オオサキシ,ナルコオンセンミナミホシヌマ,宮城県大崎市鳴子温泉南星沼
9896838,宮城県,大崎市,鳴子温泉奥羽岳,ミヤギケン,オオサキシ,ナルコオンセンオオウダケ,宮城県大崎市鳴子温泉奥羽岳
9896941,宮城県,大崎市,鳴子温泉鬼首,ミヤギケン,オオサキシ,ナルコオンセンオニコウベ,宮城県大崎市鳴子温泉鬼首
