zipcode,prefecture_name,city,town,prefecture_kana,city_kana,town_kana,normalized_address
8000000,福岡県,北九州市門司区,,フクオカケン,キタキュウシュウシモジク,,福岡県北九州市門司区
8000001,福岡県,北九州市門司区,風師（４丁目）,フクオカケン,キタキュウシュウシモジク,カザシ(4チョウメ),福岡県北九州市門司区風師（4-）
8000002,福岡県,北九州市門司区,二タ松町,フクオカケン,キタキュウシュウシモジク,フタマツチョウ,福岡県北九州市門司区二タ松町
8000003,福岡県,北九州市門司区,片上町,フクオカケン,キタキュウシュウシモジク,カタガミマチ,福岡県北九州市門司区片上町
8000004,福岡県,北九州市門司区,北川町,フクオカケン,キタキュウシュウシモジク,キタガワマチ,福岡県北九州市門司区北川町
8000005,福岡県,北九州市門司区,羽山,フクオカケン,キタキュウシュウシモジク,ハヤマ,福岡県北九州市門司区羽山
8000006,福岡県,北九州市門司区,矢筈町,フクオカケン,キタキュウシュウシモジク,ヤハズマチ,福岡県北九州市門司区矢筈町
8000007,福岡県,北九州市門司区,小森江,フクオカケン,キタキュウシュウシモジク,コモリエ,福岡県北九州市門司区小森江
8000008,福岡県,北九州市門司区,葛葉（２、３丁目）,フクオカケン,キタキュウシュウシモジク,クズハ(2、3チョウメ),福岡県北九州市門司区葛葉（2、3-）
8000011,福岡県,北九州市門司区,奥田,フクオカケン,キタキュウシュウシモジク,オクダ,福岡県北九州市門司区奥田
8000012,福岡県,北九州市門司区,松崎町,フクオカケン,キタキュウシュウシモジク,マツザキチョウ,福岡県北九州市門司区松崎町
8000013,福岡県,北九州市門司区,城山町,フクオカケン,キタキュウシュウシモジク,シロヤマチョウ,福岡県北九州市門司区城山町
8000014,福岡県,北九州市門司区,大里,フクオカケン,キタキュウシュウシモジク,ダイリ,福岡県北九州市門司区大里
8000015,福岡県,北九州市門司区,寺内,フクオカケン,キタキュウシュウシモジク,ジナイ,福岡県北九州市門司区寺内
8000016,福岡県,北九州市門司区,上二十町,フクオカケン,キタキュウシュウシモジク,カミニジッチョウ,福岡県北九州市門司区上二十町
8000017,福岡県,北九州市門司区,永黒,フクオカケン,キタキュウシュウシモジク,ナガグロ,福岡県北九州市門司区永黒
8000018,福岡県,北九州市門司区,大里桜ケ丘,フクオカケン,キタキュウシュウシモジク,ダイリサクラガオカ,福岡県北九州市門司区大里桜ケ丘
8000021,福岡県,北九州市門司区,南本町,フクオカケン,キタキュウシュウシモジク,ミナミホンマチ,福岡県北九州市門司区南本町
8000022,福岡県,北九州市門司区,大里東,フクオカケン,キタキュウシュウシモジク,ダイリヒガシ,福岡県北九州市門司区大里東
8000023,福岡県,北九州市門司区,中二十町,フクオカケン,キタキュウシュウシモジク,ナカニジッチョウ,福岡県北九州市門司区中二十町
8000024,福岡県,北九州市門司区,大里戸ノ上,フクオカケン,キタキュウシュウシモジク,ダイリトノウエ,福岡県北九州市門司区大里戸ノ上
8000025,福岡県,北九州市門司区,柳町,フクオカケン,キタキュウシュウシモジク,ヤナギマチ,福岡県北九州市門司区柳町
8000026,福岡県,北九州市門司区,梅ノ木町,フクオカケン,キタキュウシュウシモジク,ウメノキチョウ,福岡県北九州市門司区梅ノ木町
8000027,福岡県,北九州市門司区,黄金町,フクオカケン,キタキュウシュウシモジク,コガネマチ,福岡県北九州市門司区黄金町
8000028,福岡県,北九州市門司区,下二十町,フクオカケン,キタキュウシュウシモジク,シモニジッチョウ,福岡県北九州市門司区下二十町
8000029,福岡県,北九州市門司区,大里東口,フクオカケン,キタキュウシュウシモジク,ダイリヒガシグチ,福岡県北九州市門司区大里東口
8000030,福岡県,北九州市門司区,桃山台,フクオカケン,キタキュウシュウシモジク,モモヤマダイ,福岡県北九州市門司区桃山台
8000031,福岡県,北九州市門司区,高田,フクオカケン,キタキュウシュウシモジク,タカダ,福岡県北九州市門司区高田
8000032,福岡県,北九州市門司区,不老町,フクオカケン,キタキュウシュウシモジク,フロウチョウ,福岡県北九州市門司区不老町
8000033,福岡県,北九州市門司区,大里桃山町,フクオカケン,キタキュウシュウシモジク,ダイリモモヤマチョウ,福岡県北九州市門司区大里桃山町
8000034,福岡県,北九州市門司区,小松町,フクオカケン,キタキュウシュウシモジク,コマツチョウ,福岡県北九州市門司区小松町
8000035,福岡県,北九州市門司区,別院,フクオカケン,キタキュウシュウシモジク,ベツイン,福岡県北九州市門司区別院
8000036,福岡県,北九州市門司区,柳原町,フクオカケン,キタキュウシュウシモジク,ヤナギハラマチ,福岡県北九州市門司区柳原町
8000037,福岡県,北九州市門司区,原町別院,フクオカケン,キタキュウシュウシモジク,ハラマチベツイン,福岡県北九州市門司区原町別院
8000038,福岡県,北九州市門司区,大里原町,フクオカケン,キタキュウシュウシモジク,ダイリハラマチ,福岡県北九州市門司区大里原町
8000039,福岡県,北九州市門司区,中町,フクオカケン,キタキュウシュウシモジク,ナカマチ,福岡県北九州市門司区中町
8000041,福岡県,北九州市門司区,泉ケ丘,フクオカケン,キタキュウシュウシモジク,イズミガオカ,福岡県北九州市門司区泉ケ丘
8000042,福岡県,北九州市門司区,上馬寄,フクオカケン,キタキュウシュウシモジク,カミマイソウ,福岡県北九州市門司区上馬寄
8000043,福岡県,北九州市門司区,緑ケ丘,フクオカケン,キタキュウシュウシモジク,ミドリガオカ,福岡県北九州市門司区緑ケ丘
8000044,福岡県,北九州市門司区,上藤松,フクオカケン,キタキュウシュウシモジク,カミフジマツ,福岡県北九州市門司区上藤松
8000045,福岡県,北九州市門司区,青葉台,フクオカケン,キタキュウシュウシモジク,アオバダイ,福岡県北九州市門司区青葉台
8000046,福岡県,北九州市門司区,光町,フクオカケン,キタキュウシュウシモジク,ヒカリマチ,福岡県北九州市門司区光町
8000047,福岡県,北九州市門司区,藤松,フクオカケン,キタキュウシュウシモジク,フジマツ,福岡県北九州市門司区藤松
8000048,福岡県,北九州市門司区,稲積,フクオカケン,キタキュウシュウシモジク,イナヅミ,福岡県北九州市門司区稲積
8000051,福岡県,北九州市門司区,下馬寄,フクオカケン,キタキュウシュウシモジク,シモマイソウ,福岡県北九州市門司区下馬寄
8000052,福岡県,北九州市門司区,東馬寄,フクオカケン,キタキュウシュウシモジク,ヒガシマイソウ,福岡県北九州市門司区東馬寄
8000053,福岡県,北九州市門司区,新原町,フクオカケン,キタキュウシュウシモジク,シンハラマチ,福岡県北九州市門司区新原町
8000054,福岡県,北九州市門司区,社ノ木,フクオカケン,キタキュウシュウシモジク,シャノキ,福岡県北九州市門司区社ノ木
8000055,福岡県,北九州市門司区,東新町,フクオカケン,キタキュウシュウシモジク,ヒガシシンマチ,福岡県北九州市門司区東新町
8000056,福岡県,北九州市門司区,西新町,フクオカケン,キタキュウシュウシモジク,ニシシンマチ,福岡県北九州市門司区西新町
8000057,福岡県,北九州市門司区,大里新町,フクオカケン,キタキュウシュウシモジク,ダイリシンマチ,福岡県北九州市門司区大里新町
8000061,福岡県,北九州市門司区,片上海岸,フクオカケン,キタキュウシュウシモジク,カタガミカイガン,福岡県北九州市門司区片上海岸
8000062,福岡県,北九州市門司区,大里元町,フクオカケン,キタキュウシュウシモジク,ダイリモトマチ,福岡県北九州市門司区大里元町
8000063,福岡県,北九州市門司区,大里本町,フクオカケン,キタキュウシュウシモジク,ダイリホンマチ,福岡県北九州市門司区大里本町
8000064,福岡県,北九州市門司区,松原,フクオカケン,キタキュウシュウシモジク,マツバラ,福岡県北九州市門司区松原
8000101,福岡県,北九州市門司区,伊川,フクオカケン,キタキュウシュウシモジク,イカワ,福岡県北九州市門司区伊川
8000102,福岡県,北九州市門司区,猿喰,フクオカケン,キタキュウシュウシモジク,サルハミ,福岡県北九州市門司区猿喰
8000111,福岡県,北九州市門司区,今津,フクオカケン,キタキュウシュウシモジク,イマヅ,福岡県北九州市門司区今津
8000112,福岡県,北九州市門司区,畑,フクオカケン,キタキュウシュウシモジク,ハタ,福岡県北九州市門司区畑
8000113,福岡県,北九州市門司区,新門司北,フクオカケン,キタキュウシュウシモジク,シンモジキタ,福岡県北九州市門司区新門司北
8000114,福岡県,北九州市門司区,吉志,フクオカケン,キタキュウシュウシモジク,キシ,福岡県北九州市門司区吉志
8000115,福岡県,北九州市門司区,新門司,フクオカケン,キタキュウシュウシモジク,シンモジ,福岡県北九州市門司区新門司
8000116,福岡県,北九州市門司区,恒見町,フクオカケン,キタキュウシュウシモジク,ツネミマチ,福岡県北九州市門司区恒見町
8000117,福岡県,北九州市門司区,恒見,フクオカケン,キタキュウシュウシモジク,ツネミ,福岡県北九州市門司区恒見
8000118,福岡県,北九州市門司区,吉志新町,フクオカケン,キタキュウシュウシモジク,キシシンマチ,福岡県北九州市門司区吉志新町
8000201,福岡県,北九州市小倉南区,上吉田,フクオカケン,キタキュウシュウシコクラミナミク,カミヨシダ,福岡県北九州市小倉南区上吉田
8000202,福岡県,北九州市小倉南区,吉田,フクオカケン,キタキュウシュウシコクラミナミク,ヨシダ,福岡県北九州市小倉南区吉田
8000203,福岡県,北九州市小倉南区,下吉田,フクオカケン,キタキュウシュウシコクラミナミク,シモヨシダ,福岡県北九州市小倉南区下吉田
8000204,福岡県,北九州市小倉南区,中吉田,フクオカケン,キタキュウシュウシコクラミナミク,ナカヨシダ,福岡県北九州市小倉南区中吉田
8000205,福岡県,北九州市小倉南区,沼南町,フクオカケン,キタキュウシュウシコクラミナミク,ヌマミナミマチ,福岡県北九州市小倉南区沼南町
8000206,福岡県,北九州市小倉南区,葛原東,フクオカケン,キタキュウシュウシコクラミナミク,クズハラヒガシ,福岡県北九州市小倉南区葛原東
8000207,福岡県,北九州市小倉南区,沼緑町,フクオカケン,キタキュウシュウシコクラミナミク,ヌマミドリマチ,福岡県北九州市小倉南区沼緑町
8000208,福岡県,北九州市小倉南区,沼本町,フクオカケン,キタキュウシュウシコクラミナミク,ヌマホンマチ,福岡県北九州市小倉南区沼本町
8000209,福岡県,北九州市小倉南区,沼,フクオカケン,キタキュウシュウシコクラミナミク,ヌマ,福岡県北九州市小倉南区沼
8000210,福岡県,北九州市小倉南区,吉田にれの木坂,フクオカケン,キタキュウシュウシコクラミナミク,ヨシダニレノキザカ,福岡県北九州市小倉南区吉田にれの木坂
8000211,福岡県,北九州市小倉南区,新曽根,フクオカケン,キタキュウシュウシコクラミナミク,シンソネ,福岡県北九州市小倉南区新曽根
8000212,福岡県,北九州市小倉南区,曽根,フクオカケン,キタキュウシュウシコクラミナミク,ソネ,福岡県北九州市小倉南区曽根
8000213,福岡県,北九州市小倉南区,中曽根東,フクオカケン,キタキュウシュウシコクラミナミク,ナカソネヒガシ,福岡県北九州市小倉南区中曽根東
8000214,福岡県,北九州市小倉南区,曽根新田,フクオカケン,キタキュウシュウシコクラミナミク,ソネシンデン,福岡県北九州市小倉南区曽根新田
8000215,福岡県,北九州市小倉南区,上曽根新町,フクオカケン,キタキュウシュウシコクラミナミク,カミソネシンマチ,福岡県北九州市小倉南区上曽根新町
8000216,福岡県,北九州市小倉南区,中曽根新町,フクオカケン,キタキュウシュウシコクラミナミク,ナカソネシンマチ,福岡県北九州市小倉南区中曽根新町
8000217,福岡県,北九州市小倉南区,下曽根,フクオカケン,キタキュウシュウシコクラミナミク,シモソネ,福岡県北九州市小倉南区下曽根
8000218,福岡県,北九州市小倉南区,沼新町,フクオカケン,キタキュウシュウシコクラミナミク,ヌマシンマチ,福岡県北九州市小倉南区沼新町
8000219,福岡県,北九州市小倉南区,曽根新田北,フクオカケン,キタキュウシュウシコクラミナミク,ソネシンデンキタ,福岡県北九州市小倉南区曽根新田北
8000220,福岡県,北九州市小倉南区,曽根新田南,フクオカケン,キタキュウシュウシコクラミナミク,ソネシンデンミナミ,福岡県北九州市小倉南区曽根新田南
8000221,福岡県,北九州市小倉南区,下曽根新町,フクオカケン,キタキュウシュウシコクラミナミク,シモソネシンマチ,福岡県北九州市小倉南区下曽根新町
8000222,福岡県,北九州市小倉南区,中曽根,フクオカケン,キタキュウシュウシコクラミナミク,ナカソネ,福岡県北九州市小倉南区中曽根
8000223,福岡県,北九州市小倉南区,上曽根,フクオカケン,キタキュウシュウシコクラミナミク,カミソネ,福岡県北九州市小倉南区上曽根
8000224,福岡県,北九州市小倉南区,東貫,フクオカケン,キタキュウシュウシコクラミナミク,ヒガシヌキ,福岡県北九州市小倉南区東貫
8000225,福岡県,北九州市小倉南区,田原,フクオカケン,キタキュウシュウシコクラミナミク,タハラ,福岡県北九州市小倉南区田原
8000226,福岡県,北九州市小倉南区,田原新町,フクオカケン,キタキュウシュウシコクラミナミク,タハラシンマチ,福岡県北九州市小倉南区田原新町
8000227,福岡県,北九州市小倉南区,津田新町,フクオカケン,キタキュウシュウシコクラミナミク,ツダシンマチ,福岡県北九州市小倉南区津田新町
8000228,福岡県,北九州市小倉南区,長野（丁目）,フクオカケン,キタキュウシュウシコクラミナミク,ナガノ(チョウメ),福岡県北九州市小倉南区長野（丁目）
8000229,福岡県,北九州市小倉南区,曽根北町,フクオカケン,キタキュウシュウシコクラミナミク,ソネキタマチ,福岡県北九州市小倉南区曽根北町
8000231,福岡県,北九州市小倉南区,朽網,フクオカケン,キタキュウシュウシコクラミナミク,クサミ,福岡県北九州市小倉南区朽網
8000232,福岡県,北九州市小倉南区,朽網東,フクオカケン,キタキュウシュウシコクラミナミク,クサミヒガシ,福岡県北九州市小倉南区朽網東
8000233,福岡県,北九州市小倉南区,朽網西,フクオカケン,キタキュウシュウシコクラミナミク,クサミニシ,福岡県北九州市小倉南区朽網西
8000234,福岡県,北九州市小倉南区,貫弥生が丘,フクオカケン,キタキュウシュウシコクラミナミク,ヌキヤヨイガオカ,福岡県北九州市小倉南区貫弥生が丘
8000235,福岡県,北九州市小倉南区,中貫本町,フクオカケン,キタキュウシュウシコクラミナミク,ナカヌキホンマチ,福岡県北九州市小倉南区中貫本町
8000236,福岡県,北九州市小倉南区,下貫,フクオカケン,キタキュウシュウシコクラミナミク,シモヌキ,福岡県北九州市小倉南区下貫
8000237,福岡県,北九州市小倉南区,中貫,フクオカケン,キタキュウシュウシコクラミナミク,ナカヌキ,福岡県北九州市小倉南区中貫
8000241,福岡県,北九州市小倉南区,長野本町,フクオカケン,キタキュウシュウシコクラミナミク,ナガノホンマチ,福岡県北九州市小倉南区長野本町
8000242,福岡県,北九州市小倉南区,津田,フクオカケン,キタキュウシュウシコクラミナミク,ツダ,福岡県北九州市小倉南区津田
8000243,福岡県,北九州市小倉南区,西貫,フクオカケン,キタキュウシュウシコクラミナミク,ニシヌキ,福岡県北九州市小倉南区西貫
8000244,福岡県,北九州市小倉南区,上貫,フクオカケン,キタキュウシュウシコクラミナミク,カミヌキ,福岡県北九州市小倉南区上貫
8000245,福岡県,北九州市小倉南区,貫,フクオカケン,キタキュウシュウシコクラミナミク,ヌキ,福岡県北九州市小倉南区貫
8000246,福岡県,北九州市小倉南区,長野（番地）,フクオカケン,キタキュウシュウシコクラミナミク,ナガノ(バンチ),福岡県北九州市小倉南区長野（番地）
8000247,福岡県,北九州市小倉南区,長野東町,フクオカケン,キタキュウシュウシコクラミナミク,ナガノヒガシマチ,福岡県北九州市小倉南区長野東町
8000248,福岡県,北九州市小倉南区,津田南町,フクオカケン,キタキュウシュウシコクラミナミク,ツダミナミマチ,福岡県北九州市小倉南区津田南町
8000251,福岡県,北九州市小倉南区,葛原,フクオカケン,キタキュウシュウシコクラミナミク,クズハラ,福岡県北九州市小倉南区葛原
8000252,福岡県,北九州市小倉南区,葛原高松,フクオカケン,キタキュウシュウシコクラミナミク,クズハラタカマツ,福岡県北九州市小倉南区葛原高松
8000253,福岡県,北九州市小倉南区,葛原本町,フクオカケン,キタキュウシュウシコクラミナミク,クズハラホンマチ,福岡県北九州市小倉南区葛原本町
8000254,福岡県,北九州市小倉南区,葛原元町,フクオカケン,キタキュウシュウシコクラミナミク,クズハラモトマチ,福岡県北九州市小倉南区葛原元町
8000255,福岡県,北九州市小倉南区,上葛原,フクオカケン,キタキュウシュウシコクラミナミク,カミクズハラ,福岡県北九州市小倉南区上葛原
8000256,福岡県,北九州市小倉南区,湯川新町,フクオカケン,キタキュウシュウシコクラミナミク,ユガワシンマチ,福岡県北九州市小倉南区湯川新町
8000257,福岡県,北九州市小倉南区,湯川,フクオカケン,キタキュウシュウシコクラミナミク,ユガワ,福岡県北九州市小倉南区湯川
8000258,福岡県,北九州市小倉南区,安部山,フクオカケン,キタキュウシュウシコクラミナミク,アベヤマ,福岡県北九州市小倉南区安部山
8000300,福岡県,京都郡苅田町,,フクオカケン,ミヤコグンカンダマチ,,福岡県京都郡苅田町
8000301,福岡県,京都郡苅田町,松原町,フクオカケン,ミヤコグンカンダマチ,マツバラチョウ,福岡県京都郡苅田町松原町
8000302,福岡県,京都郡苅田町,若久町,フクオカケン,ミヤコグンカンダマチ,ワカヒサチョウ,福岡県京都郡苅田町若久町
8000303,福岡県,京都郡苅田町,松山,フクオカケン,ミヤコグンカンダマチ,マツヤマ,福岡県京都郡苅田町松山
8000304,福岡県,京都郡苅田町,鳥越町,フクオカケン,ミヤコグンカンダマチ,トリゴエチョウ,福岡県京都郡苅田町鳥越町
8000305,福岡県,京都郡苅田町,空港南町,フクオカケン,ミヤコグンカンダマチ,クウコウミナミマチ,福岡県京都郡苅田町空港南町
8000306,福岡県,北九州市小倉南区,空港北町,フクオカケン,キタキュウシュウシコクラミナミク,クウコウキタマチ,福岡県北九州市小倉南区空港北町
8000307,福岡県,京都郡苅田町,新松山,フクオカケン,ミヤコグンカンダマチ,シンマツヤマ,福岡県京都郡苅田町新松山
8000311,福岡県,京都郡苅田町,長浜町,フクオカケン,ミヤコグンカンダマチ,ナガハマチョウ,福岡県京都郡苅田町長浜町
8000312,福岡県,京都郡苅田町,殿川町,フクオカケン,ミヤコグンカンダマチ,トノガワチョウ,福岡県京都郡苅田町殿川町
8000313,福岡県,京都郡苅田町,磯浜町,フクオカケン,ミヤコグンカンダマチ,イソハマチョウ,福岡県京都郡苅田町磯浜町
8000314,福岡県,京都郡苅田町,幸町,フクオカケン,ミヤコグンカンダマチ,サイワイマチ,福岡県京都郡苅田町幸町
8000315,福岡県,京都郡苅田町,港町,フクオカケン,ミヤコグンカンダマチ,ミナトマチ,福岡県京都郡苅田町港町
8000321,福岡県,京都郡苅田町,新浜町,フクオカケン,ミヤコグンカンダマチ,シンハマチョウ,福岡県京都郡苅田町新浜町
8000322,福岡県,京都郡苅田町,二崎,フクオカケン,ミヤコグンカンダマチ,フタザキ,福岡県京都郡苅田町二崎
8000323,福岡県,京都郡苅田町,与原,フクオカケン,ミヤコグンカンダマチ,ヨバル,福岡県京都郡苅田町与原
8000324,福岡県,京都郡苅田町,浜町,フクオカケン,ミヤコグンカンダマチ,ハママチ,福岡県京都郡苅田町浜町
8000331,福岡県,京都郡苅田町,岡崎,フクオカケン,ミヤコグンカンダマチ,オカザキ,福岡県京都郡苅田町岡崎
8000332,福岡県,京都郡苅田町,鋤崎,フクオカケン,ミヤコグンカンダマチ,スキザキ,福岡県京都郡苅田町鋤崎
8000333,福岡県,京都郡苅田町,黒添,フクオカケン,ミヤコグンカンダマチ,クロゾエ,福岡県京都郡苅田町黒添
8000334,福岡県,京都郡苅田町,法正寺,フクオカケン,ミヤコグンカンダマチ,ホウショウジ,福岡県京都郡苅田町法正寺
8000335,福岡県,京都郡苅田町,谷,フクオカケン,ミヤコグンカンダマチ,タニ,福岡県京都郡苅田町谷
8000336,福岡県,京都郡苅田町,山口,フクオカケン,ミヤコグンカンダマチ,ヤマグチ,福岡県京都郡苅田町山口
8000337,福岡県,京都郡苅田町,稲光,フクオカケン,ミヤコグンカンダマチ,イナミツ,福岡県京都郡苅田町稲光
8000338,福岡県,京都郡苅田町,葛川,フクオカケン,ミヤコグンカンダマチ,クズガワ,福岡県京都郡苅田町葛川
8000341,福岡県,京都郡苅田町,下新津,フクオカケン,ミヤコグンカンダマチ,シモアラツ,福岡県京都郡苅田町下新津
8000342,福岡県,京都郡苅田町,下片島,フクオカケン,ミヤコグンカンダマチ,シモカタシマ,福岡県京都郡苅田町下片島
8000343,福岡県,京都郡苅田町,上片島,フクオカケン,ミヤコグンカンダマチ,カミカタシマ,福岡県京都郡苅田町上片島
8000344,福岡県,京都郡苅田町,新津,フクオカケン,ミヤコグンカンダマチ,アラツ,福岡県京都郡苅田町新津
8000345,福岡県,京都郡苅田町,小波瀬,フクオカケン,ミヤコグンカンダマチ,オバセ,福岡県京都郡苅田町小波瀬
8000351,福岡県,京都郡苅田町,京町,フクオカケン,ミヤコグンカンダマチ,キョウマチ,福岡県京都郡苅田町京町
8000352,福岡県,京都郡苅田町,富久町,フクオカケン,ミヤコグンカンダマチ,トミヒサチョウ,福岡県京都郡苅田町富久町
8000353,福岡県,京都郡苅田町,尾倉,フクオカケン,ミヤコグンカンダマチ,オグラ,福岡県京都郡苅田町尾倉
8000354,福岡県,京都郡苅田町,集,フクオカケン,ミヤコグンカンダマチ,アツマリ,福岡県京都郡苅田町集
8000355,福岡県,京都郡苅田町,南原,フクオカケン,ミヤコグンカンダマチ,ミナミバル,福岡県京都郡苅田町南原
8000356,福岡県,京都郡苅田町,近衛ケ丘,フクオカケン,ミヤコグンカンダマチ,コノエガオカ,福岡県京都郡苅田町近衛ケ丘
8000357,福岡県,京都郡苅田町,桜ケ丘,フクオカケン,ミヤコグンカンダマチ,サクラガオカ,福岡県京都郡苅田町桜ケ丘
8000361,福岡県,京都郡苅田町,神田町,フクオカケン,ミヤコグンカンダマチ,ジンデンチョウ,福岡県京都郡苅田町神田町
8000362,福岡県,京都郡苅田町,馬場,フクオカケン,ミヤコグンカンダマチ,ババ,福岡県京都郡苅田町馬場
8000363,福岡県,京都郡苅田町,光国,フクオカケン,ミヤコグンカンダマチ,ミツクニ,福岡県京都郡苅田町光国
8000364,福岡県,京都郡苅田町,提,フクオカケン,ミヤコグンカンダマチ,ヒサゲ,福岡県京都郡苅田町提
8000365,福岡県,京都郡苅田町,苅田,フクオカケン,ミヤコグンカンダマチ,カンダ,福岡県京都郡苅田町苅田
8000366,福岡県,京都郡苅田町,雨窪,フクオカケン,ミヤコグンカンダマチ,アマクボ,福岡県京都郡苅田町雨窪
8010801,福岡県,北九州市門司区,風師（１〜３丁目）,フクオカケン,キタキュウシュウシモジク,カザシ(1-3チョウメ),福岡県北九州市門司区風師（1〜3-）
8010802,福岡県,北九州市門司区,白野江,フクオカケン,キタキュウシュウシモジク,シラノエ,福岡県北九州市門司区白野江
8010803,福岡県,北九州市門司区,田野浦,フクオカケン,キタキュウシュウシモジク,タノウラ,福岡県北九州市門司区田野浦
8010804,福岡県,北九州市門司区,田野浦海岸,フクオカケン,キタキュウシュウシモジク,タノウラカイガン,福岡県北九州市門司区田野浦海岸
8010805,福岡県,北九州市門司区,太刀浦海岸,フクオカケン,キタキュウシュウシモジク,タチノウラカイガン,福岡県北九州市門司区太刀浦海岸
8010808,福岡県,北九州市門司区,葛葉（１丁目）,フクオカケン,キタキュウシュウシモジク,クズハ(1チョウメ),福岡県北九州市門司区葛葉（1-）
8010811,福岡県,北九州市門司区,大積,フクオカケン,キタキュウシュウシモジク,オオツミ,福岡県北九州市門司区大積
8010812,福岡県,北九州市門司区,喜多久,フクオカケン,キタキュウシュウシモジク,キタク,福岡県北九州市門司区喜多久
8010813,福岡県,北九州市門司区,柄杓田,フクオカケン,キタキュウシュウシモジク,ヒシャクダ,福岡県北九州市門司区柄杓田
8010814,福岡県,北九州市門司区,柄杓田町,フクオカケン,キタキュウシュウシモジク,ヒシャクダマチ,福岡県北九州市門司区柄杓田町
8010821,福岡県,北九州市門司区,黒川,フクオカケン,キタキュウシュウシモジク,クロガワ,福岡県北九州市門司区黒川
8010822,福岡県,北九州市門司区,高砂町,フクオカケン,キタキュウシュウシモジク,タカサゴマチ,福岡県北九州市門司区高砂町
8010823,福岡県,北九州市門司区,春日町,フクオカケン,キタキュウシュウシモジク,カスガマチ,福岡県北九州市門司区春日町
8010824,福岡県,北九州市門司区,丸山吉野町,フクオカケン,キタキュウシュウシモジク,マルヤマヨシノマチ,福岡県北九州市門司区丸山吉野町
8010825,福岡県,北九州市門司区,黒川西,フクオカケン,キタキュウシュウシモジク,クロガワニシ,福岡県北九州市門司区黒川西
8010826,福岡県,北九州市門司区,黒川東,フクオカケン,キタキュウシュウシモジク,クロガワヒガシ,福岡県北九州市門司区黒川東
8010831,福岡県,北九州市門司区,丸山,フクオカケン,キタキュウシュウシモジク,マルヤマ,福岡県北九州市門司区丸山
8010832,福岡県,北九州市門司区,元清滝,フクオカケン,キタキュウシュウシモジク,モトキヨタキ,福岡県北九州市門司区元清滝
8010833,福岡県,北九州市門司区,清滝,フクオカケン,キタキュウシュウシモジク,キヨタキ,福岡県北九州市門司区清滝
8010834,福岡県,北九州市門司区,本町,フクオカケン,キタキュウシュウシモジク,ホンマチ,福岡県北九州市門司区本町
8010841,福岡県,北九州市門司区,西海岸,フクオカケン,キタキュウシュウシモジク,ニシカイガン,福岡県北九州市門司区西海岸
8010842,福岡県,北九州市門司区,広石,フクオカケン,キタキュウシュウシモジク,ヒロイシ,福岡県北九州市門司区広石
8010851,福岡県,北九州市門司区,東本町,フクオカケン,キタキュウシュウシモジク,ヒガシホンマチ,福岡県北九州市門司区東本町
8010852,福岡県,北九州市門司区,港町,フクオカケン,キタキュウシュウシモジク,ミナトマチ,福岡県北九州市門司区港町
8010853,福岡県,北九州市門司区,東港町,フクオカケン,キタキュウシュウシモジク,ヒガシミナトマチ,福岡県北九州市門司区東港町
8010854,福岡県,北九州市門司区,旧門司,フクオカケン,キタキュウシュウシモジク,キュウモジ,福岡県北九州市門司区旧門司
8010855,福岡県,北九州市門司区,門司,フクオカケン,キタキュウシュウシモジク,モジ,福岡県北九州市門司区門司
8010856,福岡県,北九州市門司区,浜町,フクオカケン,キタキュウシュウシモジク,ハママチ,福岡県北九州市門司区浜町
8010861,福岡県,北九州市門司区,長谷,フクオカケン,キタキュウシュウシモジク,ナガタニ,福岡県北九州市門司区長谷
8010862,福岡県,北九州市門司区,錦町,フクオカケン,キタキュウシュウシモジク,ニシキマチ,福岡県北九州市門司区錦町
8010863,福岡県,北九州市門司区,栄町,フクオカケン,キタキュウシュウシモジク,サカエマチ,福岡県北九州市門司区栄町
8010864,福岡県,北九州市門司区,老松町,フクオカケン,キタキュウシュウシモジク,オイマツチョウ,福岡県北九州市門司区老松町
8010865,福岡県,北九州市門司区,庄司町,フクオカケン,キタキュウシュウシモジク,ショウジマチ,福岡県北九州市門司区庄司町
8010871,福岡県,北九州市門司区,上本町,フクオカケン,キタキュウシュウシモジク,カミホンマチ,福岡県北九州市門司区上本町
8010872,福岡県,北九州市門司区,谷町,フクオカケン,キタキュウシュウシモジク,タニマチ,福岡県北九州市門司区谷町
8010873,福岡県,北九州市門司区,東門司,フクオカケン,キタキュウシュウシモジク,ヒガシモジ,福岡県北九州市門司区東門司
8010874,福岡県,北九州市門司区,畑田町,フクオカケン,キタキュウシュウシモジク,ハタケダマチ,福岡県北九州市門司区畑田町
8010875,福岡県,北九州市門司区,法師庵,フクオカケン,キタキュウシュウシモジク,ホウシアン,福岡県北九州市門司区法師庵
8010876,福岡県,北九州市門司区,花月園,フクオカケン,キタキュウシュウシモジク,カゲツエン,福岡県北九州市門司区花月園
8010881,福岡県,北九州市門司区,鳴竹,フクオカケン,キタキュウシュウシモジク,ナルタケ,福岡県北九州市門司区鳴竹
8010882,福岡県,北九州市門司区,清見,フクオカケン,キタキュウシュウシモジク,キヨミ,福岡県北九州市門司区清見
8010883,福岡県,北九州市門司区,大久保,フクオカケン,キタキュウシュウシモジク,オオクボ,福岡県北九州市門司区大久保
8010884,福岡県,北九州市門司区,瀬戸町,フクオカケン,キタキュウシュウシモジク,セトマチ,福岡県北九州市門司区瀬戸町
8010885,福岡県,北九州市門司区,新開,フクオカケン,キタキュウシュウシモジク,シンカイ,福岡県北九州市門司区新開
8010886,福岡県,北九州市門司区,清見佐夜町,フクオカケン,キタキュウシュウシモジク,キヨミサヤマチ,福岡県北九州市門司区清見佐夜町
8020000,福岡県,北九州市小倉北区,,フクオカケン,キタキュウシュウシコクラキタク,,福岡県北九州市小倉北区
8020000,福岡県,北九州市小倉南区,,フクオカケン,キタキュウシュウシコクラミナミク,,福岡県北九州市小倉南区
8020001,福岡県,北九州市小倉北区,浅野,フクオカケン,キタキュウシュウシコクラキタク,アサノ,福岡県北九州市小倉北区浅野
8020002,福岡県,北九州市小倉北区,京町,フクオカケン,キタキュウシュウシコクラキタク,キョウマチ,福岡県北九州市小倉北区京町
8020003,福岡県,北九州市小倉北区,米町,フクオカケン,キタキュウシュウシコクラキタク,コメマチ,福岡県北九州市小倉北区米町
8020004,福岡県,北九州市小倉北区,鍛冶町,フクオカケン,キタキュウシュウシコクラキタク,カジマチ,福岡県北九州市小倉北区鍛冶町
8020005,福岡県,北九州市小倉北区,堺町,フクオカケン,キタキュウシュウシコクラキタク,サカイマチ,福岡県北九州市小倉北区堺町
8020006,福岡県,北九州市小倉北区,魚町,フクオカケン,キタキュウシュウシコクラキタク,ウオマチ,福岡県北九州市小倉北区魚町
8020007,福岡県,北九州市小倉北区,船場町,フクオカケン,キタキュウシュウシコクラキタク,センバマチ,福岡県北九州市小倉北区船場町
8020008,福岡県,北九州市小倉北区,船頭町,フクオカケン,キタキュウシュウシコクラキタク,センドウマチ,福岡県北九州市小倉北区船頭町
8020011,福岡県,北九州市小倉北区,重住,フクオカケン,キタキュウシュウシコクラキタク,シゲズミ,福岡県北九州市小倉北区重住
8020012,福岡県,北九州市小倉北区,末広,フクオカケン,キタキュウシュウシコクラキタク,スエヒロ,福岡県北九州市小倉北区末広
8020013,福岡県,北九州市小倉北区,長浜町,フクオカケン,キタキュウシュウシコクラキタク,ナガハママチ,福岡県北九州市小倉北区長浜町
8020014,福岡県,北九州市小倉北区,砂津,フクオカケン,キタキュウシュウシコクラキタク,スナツ,福岡県北九州市小倉北区砂津
8020015,福岡県,北九州市小倉北区,大田町,フクオカケン,キタキュウシュウシコクラキタク,オオタマチ,福岡県北九州市小倉北区大田町
8020016,福岡県,北九州市小倉北区,宇佐町,フクオカケン,キタキュウシュウシコクラキタク,ウサマチ,福岡県北九州市小倉北区宇佐町
8020017,福岡県,北九州市小倉北区,明和町,フクオカケン,キタキュウシュウシコクラキタク,メイワマチ,福岡県北九州市小倉北区明和町
8020018,福岡県,北九州市小倉北区,中津口,フクオカケン,キタキュウシュウシコクラキタク,ナカツグチ,福岡県北九州市小倉北区中津口
8020021,福岡県,北九州市小倉北区,高浜,フクオカケン,キタキュウシュウシコクラキタク,タカハマ,福岡県北九州市小倉北区高浜
8020022,福岡県,北九州市小倉北区,上富野,フクオカケン,キタキュウシュウシコクラキタク,カミトミノ,福岡県北九州市小倉北区上富野
8020023,福岡県,北九州市小倉北区,下富野,フクオカケン,キタキュウシュウシコクラキタク,シモトミノ,福岡県北九州市小倉北区下富野
8020024,福岡県,北九州市小倉北区,山門町,フクオカケン,キタキュウシュウシコクラキタク,サンモンチョウ,福岡県北九州市小倉北区山門町
8020025,福岡県,北九州市小倉北区,寿山町,フクオカケン,キタキュウシュウシコクラキタク,ジュザンチョウ,福岡県北九州市小倉北区寿山町
8020026,福岡県,北九州市小倉北区,大畠,フクオカケン,キタキュウシュウシコクラキタク,オオバタケ,福岡県北九州市小倉北区大畠
8020031,福岡県,北九州市小倉北区,赤坂海岸,フクオカケン,キタキュウシュウシコクラキタク,アカサカカイガン,福岡県北九州市小倉北区赤坂海岸
8020032,福岡県,北九州市小倉北区,赤坂,フクオカケン,キタキュウシュウシコクラキタク,アカサカ,福岡県北九州市小倉北区赤坂
8020033,福岡県,北九州市小倉北区,富野台,フクオカケン,キタキュウシュウシコクラキタク,トミノダイ,福岡県北九州市小倉北区富野台
8020034,福岡県,北九州市小倉北区,須賀町,フクオカケン,キタキュウシュウシコクラキタク,スガマチ,福岡県北九州市小倉北区須賀町
8020035,福岡県,北九州市小倉北区,常盤町,フクオカケン,キタキュウシュウシコクラキタク,トキワマチ,福岡県北九州市小倉北区常盤町
8020036,福岡県,北九州市小倉北区,富野,フクオカケン,キタキュウシュウシコクラキタク,トミノ,福岡県北九州市小倉北区富野
8020037,福岡県,北九州市小倉北区,小文字,フクオカケン,キタキュウシュウシコクラキタク,コモンジ,福岡県北九州市小倉北区小文字
8020038,福岡県,北九州市小倉北区,神幸町,フクオカケン,キタキュウシュウシコクラキタク,シンコウチョウ,福岡県北九州市小倉北区神幸町
8020041,福岡県,北九州市小倉北区,妙見町,フクオカケン,キタキュウシュウシコクラキタク,ミョウケンチョウ,福岡県北九州市小倉北区妙見町
8020042,福岡県,北九州市小倉北区,足立,フクオカケン,キタキュウシュウシコクラキタク,アダチ,福岡県北九州市小倉北区足立
8020043,福岡県,北九州市小倉北区,足原,フクオカケン,キタキュウシュウシコクラキタク,アシハラ,福岡県北九州市小倉北区足原
8020044,福岡県,北九州市小倉北区,熊本,フクオカケン,キタキュウシュウシコクラキタク,クマモト,福岡県北九州市小倉北区熊本
8020045,福岡県,北九州市小倉北区,神岳,フクオカケン,キタキュウシュウシコクラキタク,カンタケ,福岡県北九州市小倉北区神岳
8020051,福岡県,北九州市小倉北区,黒原,フクオカケン,キタキュウシュウシコクラキタク,クロバル,福岡県北九州市小倉北区黒原
8020052,福岡県,北九州市小倉北区,霧ケ丘,フクオカケン,キタキュウシュウシコクラキタク,キリガオカ,福岡県北九州市小倉北区霧ケ丘
8020053,福岡県,北九州市小倉北区,高坊,フクオカケン,キタキュウシュウシコクラキタク,タカボウ,福岡県北九州市小倉北区高坊
8020054,福岡県,北九州市小倉北区,東城野町,フクオカケン,キタキュウシュウシコクラキタク,ヒガシジョウノマチ,福岡県北九州市小倉北区東城野町
8020055,福岡県,北九州市小倉北区,城野団地,フクオカケン,キタキュウシュウシコクラキタク,ジョウノダンチ,福岡県北九州市小倉北区城野団地
8020056,福岡県,北九州市小倉北区,黒住町,フクオカケン,キタキュウシュウシコクラキタク,クロズミチョウ,福岡県北九州市小倉北区黒住町
8020061,福岡県,北九州市小倉北区,三郎丸,フクオカケン,キタキュウシュウシコクラキタク,サブロウマル,福岡県北九州市小倉北区三郎丸
8020062,福岡県,北九州市小倉北区,片野新町,フクオカケン,キタキュウシュウシコクラキタク,カタノシンマチ,福岡県北九州市小倉北区片野新町
8020063,福岡県,北九州市小倉北区,若富士町,フクオカケン,キタキュウシュウシコクラキタク,ワカフジチョウ,福岡県北九州市小倉北区若富士町
8020064,福岡県,北九州市小倉北区,片野,フクオカケン,キタキュウシュウシコクラキタク,カタノ,福岡県北九州市小倉北区片野
8020065,福岡県,北九州市小倉北区,三萩野,フクオカケン,キタキュウシュウシコクラキタク,ミハギノ,福岡県北九州市小倉北区三萩野
8020066,福岡県,北九州市小倉北区,萩崎町,フクオカケン,キタキュウシュウシコクラキタク,ハギザキマチ,福岡県北九州市小倉北区萩崎町
8020071,福岡県,北九州市小倉北区,黄金,フクオカケン,キタキュウシュウシコクラキタク,コガネ,福岡県北九州市小倉北区黄金
8020072,福岡県,北九州市小倉北区,東篠崎,フクオカケン,キタキュウシュウシコクラキタク,ヒガシシノザキ,福岡県北九州市小倉北区東篠崎
8020073,福岡県,北九州市小倉北区,貴船町,フクオカケン,キタキュウシュウシコクラキタク,キフネマチ,福岡県北九州市小倉北区貴船町
8020074,福岡県,北九州市小倉北区,白銀,フクオカケン,キタキュウシュウシコクラキタク,シラガネ,福岡県北九州市小倉北区白銀
8020075,福岡県,北九州市小倉北区,昭和町,フクオカケン,キタキュウシュウシコクラキタク,ショウワマチ,福岡県北九州市小倉北区昭和町
8020076,福岡県,北九州市小倉北区,中島,フクオカケン,キタキュウシュウシコクラキタク,ナカシマ,福岡県北九州市小倉北区中島
8020077,福岡県,北九州市小倉北区,馬借,フクオカケン,キタキュウシュウシコクラキタク,バシャク,福岡県北九州市小倉北区馬借
8020081,福岡県,北九州市小倉北区,紺屋町,フクオカケン,キタキュウシュウシコクラキタク,コンヤマチ,福岡県北九州市小倉北区紺屋町
8020082,福岡県,北九州市小倉北区,古船場町,フクオカケン,キタキュウシュウシコクラキタク,フルセンバマチ,福岡県北九州市小倉北区古船場町
8020083,福岡県,北九州市小倉北区,江南町,フクオカケン,キタキュウシュウシコクラキタク,エナミチョウ,福岡県北九州市小倉北区江南町
8020084,福岡県,北九州市小倉北区,香春口,フクオカケン,キタキュウシュウシコクラキタク,カワラグチ,福岡県北九州市小倉北区香春口
8020085,福岡県,北九州市小倉北区,吉野町,フクオカケン,キタキュウシュウシコクラキタク,ヨシノマチ,福岡県北九州市小倉北区吉野町
8020091,福岡県,北九州市小倉北区,藍島,フクオカケン,キタキュウシュウシコクラキタク,アイノシマ,福岡県北九州市小倉北区藍島
8020092,福岡県,北九州市小倉北区,馬島,フクオカケン,キタキュウシュウシコクラキタク,ウマシマ,福岡県北九州市小倉北区馬島
8020801,福岡県,北九州市小倉南区,富士見,フクオカケン,キタキュウシュウシコクラミナミク,フジミ,福岡県北九州市小倉南区富士見
8020802,福岡県,北九州市小倉南区,城野,フクオカケン,キタキュウシュウシコクラミナミク,ジョウノ,福岡県北九州市小倉南区城野
8020803,福岡県,北九州市小倉南区,春ケ丘,フクオカケン,キタキュウシュウシコクラミナミク,ハルガオカ,福岡県北九州市小倉南区春ケ丘
8020804,福岡県,北九州市小倉南区,下城野,フクオカケン,キタキュウシュウシコクラミナミク,シモジョウノ,福岡県北九州市小倉南区下城野
8020805,福岡県,北九州市小倉南区,八幡町,フクオカケン,キタキュウシュウシコクラミナミク,ハチマンチョウ,福岡県北九州市小倉南区八幡町
8020811,福岡県,北九州市小倉南区,重住,フクオカケン,キタキュウシュウシコクラミナミク,シゲズミ,福岡県北九州市小倉南区重住
8020812,福岡県,北九州市小倉南区,西水町,フクオカケン,キタキュウシュウシコクラミナミク,ニシミズマチ,福岡県北九州市小倉南区西水町
8020813,福岡県,北九州市小倉南区,東水町,フクオカケン,キタキュウシュウシコクラミナミク,ヒガシミズマチ,福岡県北九州市小倉南区東水町
8020814,福岡県,北九州市小倉南区,蜷田若園,フクオカケン,キタキュウシュウシコクラミナミク,ニナタワカゾノ,福岡県北九州市小倉南区蜷田若園
8020815,福岡県,北九州市小倉南区,南若園町,フクオカケン,キタキュウシュウシコクラミナミク,ミナミワカゾノマチ,福岡県北九州市小倉南区南若園町
8020816,福岡県,北九州市小倉南区,若園,フクオカケン,キタキュウシュウシコクラミナミク,ワカゾノ,福岡県北九州市小倉南区若園
8020821,福岡県,北九州市小倉南区,横代北町,フクオカケン,キタキュウシュウシコクラミナミク,ヨコシロキタマチ,福岡県北九州市小倉南区横代北町
8020822,福岡県,北九州市小倉南区,横代東町,フクオカケン,キタキュウシュウシコクラミナミク,ヨコシロヒガシマチ,福岡県北九州市小倉南区横代東町
8020823,福岡県,北九州市小倉南区,舞ケ丘,フクオカケン,キタキュウシュウシコクラミナミク,マイガオカ,福岡県北九州市小倉南区舞ケ丘
8020824,福岡県,北九州市小倉南区,横代,フクオカケン,キタキュウシュウシコクラミナミク,ヨコシロ,福岡県北九州市小倉南区横代
8020825,福岡県,北九州市小倉南区,横代葉山,フクオカケン,キタキュウシュウシコクラミナミク,ヨコシロハヤマ,福岡県北九州市小倉南区横代葉山
8020826,福岡県,北九州市小倉南区,横代南町,フクオカケン,キタキュウシュウシコクラミナミク,ヨコシロミナミマチ,福岡県北九州市小倉南区横代南町
8020831,福岡県,北九州市小倉南区,八重洲町,フクオカケン,キタキュウシュウシコクラミナミク,ヤエスマチ,福岡県北九州市小倉南区八重洲町
8020832,福岡県,北九州市小倉南区,下石田,フクオカケン,キタキュウシュウシコクラミナミク,シモイシダ,福岡県北九州市小倉南区下石田
8020833,福岡県,北九州市小倉南区,上石田,フクオカケン,キタキュウシュウシコクラミナミク,カミイシダ,福岡県北九州市小倉南区上石田
8020834,福岡県,北九州市小倉南区,隠蓑,フクオカケン,キタキュウシュウシコクラミナミク,カクレミノ,福岡県北九州市小倉南区隠蓑
8020835,福岡県,北九州市小倉南区,堀越,フクオカケン,キタキュウシュウシコクラミナミク,ホリコシ,福岡県北九州市小倉南区堀越
8020836,福岡県,北九州市小倉南区,石田南,フクオカケン,キタキュウシュウシコクラミナミク,イシダミナミ,福岡県北九州市小倉南区石田南
8020837,福岡県,北九州市小倉南区,葉山町,フクオカケン,キタキュウシュウシコクラミナミク,ハヤマチョウ,福岡県北九州市小倉南区葉山町
8020838,福岡県,北九州市小倉南区,石田町,フクオカケン,キタキュウシュウシコクラミナミク,イシダマチ,福岡県北九州市小倉南区石田町
8020841,福岡県,北九州市小倉南区,北方,フクオカケン,キタキュウシュウシコクラミナミク,キタガタ,福岡県北九州市小倉南区北方
8020842,福岡県,北九州市小倉南区,日の出町,フクオカケン,キタキュウシュウシコクラミナミク,ヒノデマチ,福岡県北九州市小倉南区日の出町
8020971,福岡県,北九州市小倉南区,守恒本町,フクオカケン,キタキュウシュウシコクラミナミク,モリツネホンマチ,福岡県北九州市小倉南区守恒本町
8020972,福岡県,北九州市小倉南区,守恒,フクオカケン,キタキュウシュウシコクラミナミク,モリツネ,福岡県北九州市小倉南区守恒
8020973,福岡県,北九州市小倉南区,星和台,フクオカケン,キタキュウシュウシコクラミナミク,セイワダイ,福岡県北九州市小倉南区星和台
8020974,福岡県,北九州市小倉南区,徳力,フクオカケン,キタキュウシュウシコクラミナミク,トクリキ,福岡県北九州市小倉南区徳力
8020975,福岡県,北九州市小倉南区,徳力団地,フクオカケン,キタキュウシュウシコクラミナミク,トクリキダンチ,福岡県北九州市小倉南区徳力団地
8020976,福岡県,北九州市小倉南区,南方,フクオカケン,キタキュウシュウシコクラミナミク,ミナミガタ,福岡県北九州市小倉南区南方
8020977,福岡県,北九州市小倉南区,下南方,フクオカケン,キタキュウシュウシコクラミナミク,シモミナミガタ,福岡県北九州市小倉南区下南方
8020978,福岡県,北九州市小倉南区,蒲生,フクオカケン,キタキュウシュウシコクラミナミク,ガモウ,福岡県北九州市小倉南区蒲生
8020979,福岡県,北九州市小倉南区,徳力新町,フクオカケン,キタキュウシュウシコクラミナミク,トクリキシンマチ,福岡県北九州市小倉南区徳力新町
8020981,福岡県,北九州市小倉南区,企救丘,フクオカケン,キタキュウシュウシコクラミナミク,キクガオカ,福岡県北九州市小倉南区企救丘
8020982,福岡県,北九州市小倉南区,山手,フクオカケン,キタキュウシュウシコクラミナミク,ヤマテ,福岡県北九州市小倉南区山手
8020983,福岡県,北九州市小倉南区,志徳,フクオカケン,キタキュウシュウシコクラミナミク,シトク,福岡県北九州市小倉南区志徳
8020984,福岡県,北九州市小倉南区,志井公園,フクオカケン,キタキュウシュウシコクラミナミク,シイコウエン,福岡県北九州市小倉南区志井公園
8020985,福岡県,北九州市小倉南区,志井,フクオカケン,キタキュウシュウシコクラミナミク,シイ,福岡県北九州市小倉南区志井
8020986,福岡県,北九州市小倉南区,志井鷹羽台,フクオカケン,キタキュウシュウシコクラミナミク,シイタカハダイ,福岡県北九州市小倉南区志井鷹羽台
8030180,福岡県,北九州市小倉南区,平尾台,フクオカケン,キタキュウシュウシコクラミナミク,ヒラオダイ,福岡県北九州市小倉南区平尾台
8030181,福岡県,北九州市小倉南区,呼野,フクオカケン,キタキュウシュウシコクラミナミク,ヨブノ,福岡県北九州市小倉南区呼野
8030182,福岡県,北九州市小倉南区,小森,フクオカケン,キタキュウシュウシコクラミナミク,コモリ,福岡県北九州市小倉南区小森
8030183,福岡県,北九州市小倉南区,市丸,フクオカケン,キタキュウシュウシコクラミナミク,イチマル,福岡県北九州市小倉南区市丸
8030184,福岡県,北九州市小倉南区,木下,フクオカケン,キタキュウシュウシコクラミナミク,キノシタ,福岡県北九州市小倉南区木下
8030185,福岡県,北九州市小倉南区,石原町,フクオカケン,キタキュウシュウシコクラミナミク,イシハラマチ,福岡県北九州市小倉南区石原町
8030186,福岡県,北九州市小倉南区,新道寺,フクオカケン,キタキュウシュウシコクラミナミク,シンドウジ,福岡県北九州市小倉南区新道寺
8030187,福岡県,北九州市小倉南区,母原,フクオカケン,キタキュウシュウシコクラミナミク,モハラ,福岡県北九州市小倉南区母原
8030188,福岡県,北九州市小倉南区,母原（紫水団地）,フクオカケン,キタキュウシュウシコクラミナミク,モハラ(シスイダンチ),福岡県北九州市小倉南区母原（紫水団地）
8030189,福岡県,北九州市小倉南区,井手浦,フクオカケン,キタキュウシュウシコクラミナミク,イデウラ,福岡県北九州市小倉南区井手浦
8030261,福岡県,北九州市小倉南区,合馬,フクオカケン,キタキュウシュウシコクラミナミク,オウマ,福岡県北九州市小倉南区合馬
8030262,福岡県,北九州市小倉南区,田代,フクオカケン,キタキュウシュウシコクラミナミク,タシロ,福岡県北九州市小倉南区田代
8030263,福岡県,北九州市小倉南区,辻三,フクオカケン,キタキュウシュウシコクラミナミク,ツジミツ,福岡県北九州市小倉南区辻三
8030264,福岡県,北九州市小倉南区,山本,フクオカケン,キタキュウシュウシコクラミナミク,ヤマモト,福岡県北九州市小倉南区山本
8030265,福岡県,北九州市小倉南区,春吉,フクオカケン,キタキュウシュウシコクラミナミク,ハルヨシ,福岡県北九州市小倉南区春吉
8030266,福岡県,北九州市小倉南区,道原,フクオカケン,キタキュウシュウシコクラミナミク,ドウバル,福岡県北九州市小倉南区道原
8030267,福岡県,北九州市小倉南区,頂吉,フクオカケン,キタキュウシュウシコクラミナミク,カグメヨシ,福岡県北九州市小倉南区頂吉
8030268,福岡県,北九州市小倉南区,高津尾,フクオカケン,キタキュウシュウシコクラミナミク,タカツオ,福岡県北九州市小倉南区高津尾
8030271,福岡県,北九州市小倉南区,長行,フクオカケン,キタキュウシュウシコクラミナミク,オサユキ,福岡県北九州市小倉南区長行
8030272,福岡県,北九州市小倉南区,長行西,フクオカケン,キタキュウシュウシコクラミナミク,オサユキニシ,福岡県北九州市小倉南区長行西
8030273,福岡県,北九州市小倉南区,長行東,フクオカケン,キタキュウシュウシコクラミナミク,オサユキヒガシ,福岡県北九州市小倉南区長行東
8030274,福岡県,北九州市小倉南区,長尾,フクオカケン,キタキュウシュウシコクラミナミク,ナガオ,福岡県北九州市小倉南区長尾
8030275,福岡県,北九州市小倉南区,高野,フクオカケン,キタキュウシュウシコクラミナミク,タカノ,福岡県北九州市小倉南区高野
8030276,福岡県,北九州市小倉南区,徳吉,フクオカケン,キタキュウシュウシコクラミナミク,トクヨシ,福岡県北九州市小倉南区徳吉
8030277,福岡県,北九州市小倉南区,徳吉東,フクオカケン,キタキュウシュウシコクラミナミク,トクヨシヒガシ,福岡県北九州市小倉南区徳吉東
8030278,福岡県,北九州市小倉南区,徳吉西,フクオカケン,キタキュウシュウシコクラミナミク,トクヨシニシ,福岡県北九州市小倉南区徳吉西
8030279,福岡県,北九州市小倉南区,徳吉南,フクオカケン,キタキュウシュウシコクラミナミク,トクヨシミナミ,福岡県北九州市小倉南区徳吉南
8030801,福岡県,北九州市小倉北区,西港町,フクオカケン,キタキュウシュウシコクラキタク,ニシミナトマチ,福岡県北九州市小倉北区西港町
8030802,福岡県,北九州市小倉北区,東港,フクオカケン,キタキュウシュウシコクラキタク,ヒガシミナト,福岡県北九州市小倉北区東港
8030803,福岡県,北九州市小倉北区,許斐町,フクオカケン,キタキュウシュウシコクラキタク,コノミマチ,福岡県北九州市小倉北区許斐町
8030804,福岡県,北九州市小倉北区,中井浜,フクオカケン,キタキュウシュウシコクラキタク,ナカイハマ,福岡県北九州市小倉北区中井浜
8030805,福岡県,北九州市小倉北区,親和町,フクオカケン,キタキュウシュウシコクラキタク,シンワマチ,福岡県北九州市小倉北区親和町
8030811,福岡県,北九州市小倉北区,大門,フクオカケン,キタキュウシュウシコクラキタク,ダイモン,福岡県北九州市小倉北区大門
8030812,福岡県,北九州市小倉北区,室町,フクオカケン,キタキュウシュウシコクラキタク,ムロマチ,福岡県北九州市小倉北区室町
8030813,福岡県,北九州市小倉北区,城内,フクオカケン,キタキュウシュウシコクラキタク,ジョウナイ,福岡県北九州市小倉北区城内
8030814,福岡県,北九州市小倉北区,大手町,フクオカケン,キタキュウシュウシコクラキタク,オオテマチ,福岡県北九州市小倉北区大手町
8030815,福岡県,北九州市小倉北区,原町,フクオカケン,キタキュウシュウシコクラキタク,ハラマチ,福岡県北九州市小倉北区原町
8030816,福岡県,北九州市小倉北区,金田,フクオカケン,キタキュウシュウシコクラキタク,カナダ,福岡県北九州市小倉北区金田
8030817,福岡県,北九州市小倉北区,田町,フクオカケン,キタキュウシュウシコクラキタク,タマチ,福岡県北九州市小倉北区田町
8030818,福岡県,北九州市小倉北区,竪町,フクオカケン,キタキュウシュウシコクラキタク,タテマチ,福岡県北九州市小倉北区竪町
8030821,福岡県,北九州市小倉北区,鋳物師町,フクオカケン,キタキュウシュウシコクラキタク,イモジマチ,福岡県北九州市小倉北区鋳物師町
8030822,福岡県,北九州市小倉北区,青葉,フクオカケン,キタキュウシュウシコクラキタク,アオバ,福岡県北九州市小倉北区青葉
8030823,福岡県,北九州市小倉北区,菜園場,フクオカケン,キタキュウシュウシコクラキタク,サエンバ,福岡県北九州市小倉北区菜園場
8030824,福岡県,北九州市小倉北区,板櫃町,フクオカケン,キタキュウシュウシコクラキタク,イタビツマチ,福岡県北九州市小倉北区板櫃町
8030825,福岡県,北九州市小倉北区,白萩町,フクオカケン,キタキュウシュウシコクラキタク,シラハギマチ,福岡県北九州市小倉北区白萩町
8030826,福岡県,北九州市小倉北区,高峰町,フクオカケン,キタキュウシュウシコクラキタク,タカミネチョウ,福岡県北九州市小倉北区高峰町
8030827,福岡県,北九州市小倉北区,緑ケ丘,フクオカケン,キタキュウシュウシコクラキタク,ミドリガオカ,福岡県北九州市小倉北区緑ケ丘
8030828,福岡県,北九州市小倉北区,愛宕,フクオカケン,キタキュウシュウシコクラキタク,アタゴ,福岡県北九州市小倉北区愛宕
8030831,福岡県,北九州市小倉北区,日明,フクオカケン,キタキュウシュウシコクラキタク,ヒアガリ,福岡県北九州市小倉北区日明
8030832,福岡県,北九州市小倉北区,平松町,フクオカケン,キタキュウシュウシコクラキタク,ヒラマツマチ,福岡県北九州市小倉北区平松町
8030833,福岡県,北九州市小倉北区,朝日ケ丘,フクオカケン,キタキュウシュウシコクラキタク,アサヒガオカ,福岡県北九州市小倉北区朝日ケ丘
8030834,福岡県,北九州市小倉北区,都,フクオカケン,キタキュウシュウシコクラキタク,ミヤコ,福岡県北九州市小倉北区都
8030835,福岡県,北九州市小倉北区,井堀,フクオカケン,キタキュウシュウシコクラキタク,イボリ,福岡県北九州市小倉北区井堀
8030836,福岡県,北九州市小倉北区,中井,フクオカケン,キタキュウシュウシコクラキタク,ナカイ,福岡県北九州市小倉北区中井
8030837,福岡県,北九州市小倉北区,中井口,フクオカケン,キタキュウシュウシコクラキタク,ナカイグチ,福岡県北九州市小倉北区中井口
8030838,福岡県,北九州市小倉北区,高見台,フクオカケン,キタキュウシュウシコクラキタク,タカミダイ,福岡県北九州市小倉北区高見台
8030841,福岡県,北九州市小倉北区,清水,フクオカケン,キタキュウシュウシコクラキタク,キヨミズ,福岡県北九州市小倉北区清水
8030842,福岡県,北九州市小倉北区,泉台,フクオカケン,キタキュウシュウシコクラキタク,イズミダイ,福岡県北九州市小倉北区泉台
8030843,福岡県,北九州市小倉北区,金鶏町,フクオカケン,キタキュウシュウシコクラキタク,キンケイチョウ,福岡県北九州市小倉北区金鶏町
8030844,福岡県,北九州市小倉北区,真鶴,フクオカケン,キタキュウシュウシコクラキタク,マナヅル,福岡県北九州市小倉北区真鶴
8030845,福岡県,北九州市小倉北区,上到津,フクオカケン,キタキュウシュウシコクラキタク,カミイトウヅ,福岡県北九州市小倉北区上到津
8030846,福岡県,北九州市小倉北区,下到津,フクオカケン,キタキュウシュウシコクラキタク,シモイトウヅ,福岡県北九州市小倉北区下到津
8030851,福岡県,北九州市小倉北区,木町,フクオカケン,キタキュウシュウシコクラキタク,キマチ,福岡県北九州市小倉北区木町
8030852,福岡県,北九州市小倉北区,新高田,フクオカケン,キタキュウシュウシコクラキタク,シンタカダ,福岡県北九州市小倉北区新高田
8030853,福岡県,北九州市小倉北区,高尾,フクオカケン,キタキュウシュウシコクラキタク,タカオ,福岡県北九州市小倉北区高尾
8030854,福岡県,北九州市小倉北区,皿山町,フクオカケン,キタキュウシュウシコクラキタク,サラヤママチ,福岡県北九州市小倉北区皿山町
8030855,福岡県,北九州市小倉北区,竪林町,フクオカケン,キタキュウシュウシコクラキタク,タテバヤシマチ,福岡県北九州市小倉北区竪林町
8030856,福岡県,北九州市小倉北区,弁天町,フクオカケン,キタキュウシュウシコクラキタク,ベンテンマチ,福岡県北九州市小倉北区弁天町
8030861,福岡県,北九州市小倉北区,篠崎,フクオカケン,キタキュウシュウシコクラキタク,シノザキ,福岡県北九州市小倉北区篠崎
8030862,福岡県,北九州市小倉北区,今町,フクオカケン,キタキュウシュウシコクラキタク,イママチ,福岡県北九州市小倉北区今町
8030863,福岡県,北九州市小倉北区,南丘,フクオカケン,キタキュウシュウシコクラキタク,ミナミガオカ,福岡県北九州市小倉北区南丘
8030864,福岡県,北九州市小倉北区,熊谷,フクオカケン,キタキュウシュウシコクラキタク,クマガイ,福岡県北九州市小倉北区熊谷
8030865,福岡県,北九州市小倉北区,山田町,フクオカケン,キタキュウシュウシコクラキタク,ヤマダマチ,福岡県北九州市小倉北区山田町
8040000,福岡県,北九州市戸畑区,,フクオカケン,キタキュウシュウシトバタク,,福岡県北九州市戸畑区
8040001,福岡県,北九州市戸畑区,飛幡町,フクオカケン,キタキュウシュウシトバタク,トビハタチョウ,福岡県北九州市戸畑区飛幡町
8040002,福岡県,北九州市戸畑区,中原（先の浜）,フクオカケン,キタキュウシュウシトバタク,ナカバル(サキノハマ),福岡県北九州市戸畑区中原（先の浜）
8040003,福岡県,北九州市戸畑区,中原新町,フクオカケン,キタキュウシュウシトバタク,ナカバルシンマチ,福岡県北九州市戸畑区中原新町
8040004,福岡県,北九州市戸畑区,戸畑,フクオカケン,キタキュウシュウシトバタク,トバタ,福岡県北九州市戸畑区戸畑
8040011,福岡県,北九州市戸畑区,中原西,フクオカケン,キタキュウシュウシトバタク,ナカバルニシ,福岡県北九州市戸畑区中原西
8040012,福岡県,北九州市戸畑区,中原東,フクオカケン,キタキュウシュウシトバタク,ナカバルヒガシ,福岡県北九州市戸畑区中原東
8040013,福岡県,北九州市戸畑区,境川,フクオカケン,キタキュウシュウシトバタク,サカイガワ,福岡県北九州市戸畑区境川
8040014,福岡県,北九州市戸畑区,土取町,フクオカケン,キタキュウシュウシトバタク,ツチトリマチ,福岡県北九州市戸畑区土取町
8040015,福岡県,北九州市戸畑区,仙水町,フクオカケン,キタキュウシュウシトバタク,センスイチョウ,福岡県北九州市戸畑区仙水町
8040021,福岡県,北九州市戸畑区,一枝,フクオカケン,キタキュウシュウシトバタク,イチエダ,福岡県北九州市戸畑区一枝
8040022,福岡県,北九州市戸畑区,金比羅町,フクオカケン,キタキュウシュウシトバタク,コンピラチョウ,福岡県北九州市戸畑区金比羅町
8040023,福岡県,北九州市戸畑区,東鞘ケ谷町,フクオカケン,キタキュウシュウシトバタク,ヒガシサヤガタニマチ,福岡県北九州市戸畑区東鞘ケ谷町
8040024,福岡県,北九州市戸畑区,西鞘ケ谷町,フクオカケン,キタキュウシュウシトバタク,ニシサヤガタニマチ,福岡県北九州市戸畑区西鞘ケ谷町
8040025,福岡県,北九州市戸畑区,福柳木,フクオカケン,キタキュウシュウシトバタク,フクリュウギ,福岡県北九州市戸畑区福柳木
8040031,福岡県,北九州市戸畑区,東大谷,フクオカケン,キタキュウシュウシトバタク,ヒガシオオタニ,福岡県北九州市戸畑区東大谷
8040032,福岡県,北九州市戸畑区,西大谷,フクオカケン,キタキュウシュウシトバタク,ニシオオタニ,福岡県北九州市戸畑区西大谷
8040033,福岡県,北九州市戸畑区,椎ノ木町,フクオカケン,キタキュウシュウシトバタク,シイノキチョウ,福岡県北九州市戸畑区椎ノ木町
8040041,福岡県,北九州市戸畑区,天籟寺,フクオカケン,キタキュウシュウシトバタク,テンライジ,福岡県北九州市戸畑区天籟寺
8040042,福岡県,北九州市戸畑区,夜宮,フクオカケン,キタキュウシュウシトバタク,ヨミヤ,福岡県北九州市戸畑区夜宮
8040043,福岡県,北九州市戸畑区,観音寺町,フクオカケン,キタキュウシュウシトバタク,カンノンジチョウ,福岡県北九州市戸畑区観音寺町
8040044,福岡県,北九州市戸畑区,菅原,フクオカケン,キタキュウシュウシトバタク,スガワラ,福岡県北九州市戸畑区菅原
8040051,福岡県,北九州市戸畑区,高峰,フクオカケン,キタキュウシュウシトバタク,タカミネ,福岡県北九州市戸畑区高峰
8040052,福岡県,北九州市戸畑区,丸町,フクオカケン,キタキュウシュウシトバタク,マルマチ,福岡県北九州市戸畑区丸町
8040053,福岡県,北九州市戸畑区,牧山,フクオカケン,キタキュウシュウシトバタク,マキヤマ,福岡県北九州市戸畑区牧山
8040054,福岡県,北九州市戸畑区,牧山新町,フクオカケン,キタキュウシュウシトバタク,マキヤマシンマチ,福岡県北九州市戸畑区牧山新町
8040061,福岡県,北九州市戸畑区,中本町,フクオカケン,キタキュウシュウシトバタク,ナカホンマチ,福岡県北九州市戸畑区中本町
8040062,福岡県,北九州市戸畑区,浅生,フクオカケン,キタキュウシュウシトバタク,アソウ,福岡県北九州市戸畑区浅生
8040063,福岡県,北九州市戸畑区,正津町,フクオカケン,キタキュウシュウシトバタク,ショウヅマチ,福岡県北九州市戸畑区正津町
8040064,福岡県,北九州市戸畑区,沖台,フクオカケン,キタキュウシュウシトバタク,オキダイ,福岡県北九州市戸畑区沖台
8040065,福岡県,北九州市戸畑区,新川町,フクオカケン,キタキュウシュウシトバタク,シンカワマチ,福岡県北九州市戸畑区新川町
8040066,福岡県,北九州市戸畑区,初音町,フクオカケン,キタキュウシュウシトバタク,ハツネチョウ,福岡県北九州市戸畑区初音町
8040067,福岡県,北九州市戸畑区,汐井町,フクオカケン,キタキュウシュウシトバタク,シオイマチ,福岡県北九州市戸畑区汐井町
8040071,福岡県,北九州市戸畑区,川代,フクオカケン,キタキュウシュウシトバタク,カワシロ,福岡県北九州市戸畑区川代
8040072,福岡県,北九州市戸畑区,元宮町,フクオカケン,キタキュウシュウシトバタク,モトミヤマチ,福岡県北九州市戸畑区元宮町
8040073,福岡県,北九州市戸畑区,明治町,フクオカケン,キタキュウシュウシトバタク,メイジマチ,福岡県北九州市戸畑区明治町
8040074,福岡県,北九州市戸畑区,南鳥旗町,フクオカケン,キタキュウシュウシトバタク,ミナミトリハタマチ,福岡県北九州市戸畑区南鳥旗町
8040075,福岡県,北九州市戸畑区,北鳥旗町,フクオカケン,キタキュウシュウシトバタク,キタトリハタマチ,福岡県北九州市戸畑区北鳥旗町
8040076,福岡県,北九州市戸畑区,銀座,フクオカケン,キタキュウシュウシトバタク,ギンザ,福岡県北九州市戸畑区銀座
8040077,福岡県,北九州市戸畑区,牧山海岸,フクオカケン,キタキュウシュウシトバタク,マキヤマカイガン,福岡県北九州市戸畑区牧山海岸
8040081,福岡県,北九州市戸畑区,千防,フクオカケン,キタキュウシュウシトバタク,センボウ,福岡県北九州市戸畑区千防
8040082,福岡県,北九州市戸畑区,新池,フクオカケン,キタキュウシュウシトバタク,シンイケ,福岡県北九州市戸畑区新池
8040083,福岡県,北九州市戸畑区,旭町,フクオカケン,キタキュウシュウシトバタク,アサヒマチ,福岡県北九州市戸畑区旭町
8040084,福岡県,北九州市戸畑区,幸町,フクオカケン,キタキュウシュウシトバタク,サイワイマチ,福岡県北九州市戸畑区幸町
8040091,福岡県,北九州市戸畑区,三六町,フクオカケン,キタキュウシュウシトバタク,サンロクマチ,福岡県北九州市戸畑区三六町
8040092,福岡県,北九州市戸畑区,小芝,フクオカケン,キタキュウシュウシトバタク,コシバ,福岡県北九州市戸畑区小芝
8040093,福岡県,北九州市戸畑区,沢見,フクオカケン,キタキュウシュウシトバタク,サワミ,福岡県北九州市戸畑区沢見
8040094,福岡県,北九州市戸畑区,天神,フクオカケン,キタキュウシュウシトバタク,テンジン,福岡県北九州市戸畑区天神
8050000,福岡県,北九州市八幡東区,,フクオカケン,キタキュウシュウシヤハタヒガシク,,福岡県北九州市八幡東区
8050001,福岡県,北九州市八幡東区,荒手,フクオカケン,キタキュウシュウシヤハタヒガシク,アラテ,福岡県北九州市八幡東区荒手
8050002,福岡県,北九州市八幡東区,枝光,フクオカケン,キタキュウシュウシヤハタヒガシク,エダミツ,福岡県北九州市八幡東区枝光
8050003,福岡県,北九州市八幡東区,大宮町,フクオカケン,キタキュウシュウシヤハタヒガシク,オオミヤマチ,福岡県北九州市八幡東区大宮町
8050004,福岡県,北九州市八幡東区,日の出,フクオカケン,キタキュウシュウシヤハタヒガシク,ヒノデ,福岡県北九州市八幡東区日の出
8050005,福岡県,北九州市八幡東区,藤見町,フクオカケン,キタキュウシュウシヤハタヒガシク,フジミマチ,福岡県北九州市八幡東区藤見町
8050006,福岡県,北九州市八幡東区,諏訪,フクオカケン,キタキュウシュウシヤハタヒガシク,スワ,福岡県北九州市八幡東区諏訪
8050007,福岡県,北九州市八幡東区,白川町,フクオカケン,キタキュウシュウシヤハタヒガシク,シラカワマチ,福岡県北九州市八幡東区白川町
8050008,福岡県,北九州市八幡東区,枝光本町,フクオカケン,キタキュウシュウシヤハタヒガシク,エダミツホンマチ,福岡県北九州市八幡東区枝光本町
8050009,福岡県,北九州市八幡東区,宮田町,フクオカケン,キタキュウシュウシヤハタヒガシク,ミヤタマチ,福岡県北九州市八幡東区宮田町
8050011,福岡県,北九州市八幡東区,八王寺町,フクオカケン,キタキュウシュウシヤハタヒガシク,ハチオウジマチ,福岡県北九州市八幡東区八王寺町
8050012,福岡県,北九州市八幡東区,川淵町,フクオカケン,キタキュウシュウシヤハタヒガシク,カワブチマチ,福岡県北九州市八幡東区川淵町
8050013,福岡県,北九州市八幡東区,昭和,フクオカケン,キタキュウシュウシヤハタヒガシク,ショウワ,福岡県北九州市八幡東区昭和
8050014,福岡県,北九州市八幡東区,茶屋町,フクオカケン,キタキュウシュウシヤハタヒガシク,チャヤマチ,福岡県北九州市八幡東区茶屋町
8050015,福岡県,北九州市八幡東区,荒生田,フクオカケン,キタキュウシュウシヤハタヒガシク,アロウダ,福岡県北九州市八幡東区荒生田
8050016,福岡県,北九州市八幡東区,高見,フクオカケン,キタキュウシュウシヤハタヒガシク,タカミ,福岡県北九州市八幡東区高見
8050017,福岡県,北九州市八幡東区,山王,フクオカケン,キタキュウシュウシヤハタヒガシク,サンノウ,福岡県北九州市八幡東区山王
8050018,福岡県,北九州市八幡東区,上本町,フクオカケン,キタキュウシュウシヤハタヒガシク,カミホンマチ,福岡県北九州市八幡東区上本町
8050019,福岡県,北九州市八幡東区,中央,フクオカケン,キタキュウシュウシヤハタヒガシク,チュウオウ,福岡県北九州市八幡東区中央
8050021,福岡県,北九州市八幡東区,石坪町,フクオカケン,キタキュウシュウシヤハタヒガシク,イシツボマチ,福岡県北九州市八幡東区石坪町
8050022,福岡県,北九州市八幡東区,竹下町,フクオカケン,キタキュウシュウシヤハタヒガシク,タケシタマチ,福岡県北九州市八幡東区竹下町
8050023,福岡県,北九州市八幡東区,宮の町,フクオカケン,キタキュウシュウシヤハタヒガシク,ミヤノマチ,福岡県北九州市八幡東区宮の町
8050024,福岡県,北九州市八幡東区,中畑,フクオカケン,キタキュウシュウシヤハタヒガシク,ナカハタ,福岡県北九州市八幡東区中畑
8050025,福岡県,北九州市八幡東区,中尾,フクオカケン,キタキュウシュウシヤハタヒガシク,ナカオ,福岡県北九州市八幡東区中尾
8050026,福岡県,北九州市八幡東区,東山,フクオカケン,キタキュウシュウシヤハタヒガシク,ヒガシヤマ,福岡県北九州市八幡東区東山
8050027,福岡県,北九州市八幡東区,東鉄町,フクオカケン,キタキュウシュウシヤハタヒガシク,ヒガシテツマチ,福岡県北九州市八幡東区東鉄町
8050031,福岡県,北九州市八幡東区,槻田,フクオカケン,キタキュウシュウシヤハタヒガシク,ツキダ,福岡県北九州市八幡東区槻田
8050032,福岡県,北九州市八幡東区,松尾町,フクオカケン,キタキュウシュウシヤハタヒガシク,マツオマチ,福岡県北九州市八幡東区松尾町
8050033,福岡県,北九州市八幡東区,山路松尾町,フクオカケン,キタキュウシュウシヤハタヒガシク,サンジマツオマチ,福岡県北九州市八幡東区山路松尾町
8050034,福岡県,北九州市八幡東区,清田,フクオカケン,キタキュウシュウシヤハタヒガシク,キヨタ,福岡県北九州市八幡東区清田
8050035,福岡県,北九州市八幡東区,山路,フクオカケン,キタキュウシュウシヤハタヒガシク,サンジ,福岡県北九州市八幡東区山路
8050036,福岡県,北九州市八幡東区,小熊野,フクオカケン,キタキュウシュウシヤハタヒガシク,コグマノ,福岡県北九州市八幡東区小熊野
8050037,福岡県,北九州市八幡東区,猪倉町,フクオカケン,キタキュウシュウシヤハタヒガシク,イノクラマチ,福岡県北九州市八幡東区猪倉町
8050038,福岡県,北九州市八幡東区,大平町,フクオカケン,キタキュウシュウシヤハタヒガシク,オオヒラマチ,福岡県北九州市八幡東区大平町
8050041,福岡県,北九州市八幡東区,祝町,フクオカケン,キタキュウシュウシヤハタヒガシク,イワイマチ,福岡県北九州市八幡東区祝町
8050042,福岡県,北九州市八幡東区,羽衣町,フクオカケン,キタキュウシュウシヤハタヒガシク,ハゴロモマチ,福岡県北九州市八幡東区羽衣町
8050043,福岡県,北九州市八幡東区,勝山,フクオカケン,キタキュウシュウシヤハタヒガシク,カツヤマ,福岡県北九州市八幡東区勝山
8050044,福岡県,北九州市八幡東区,豊町,フクオカケン,キタキュウシュウシヤハタヒガシク,ユタカマチ,福岡県北九州市八幡東区豊町
8050045,福岡県,北九州市八幡東区,河内,フクオカケン,キタキュウシュウシヤハタヒガシク,カワチ,福岡県北九州市八幡東区河内
8050046,福岡県,北九州市八幡東区,田代,フクオカケン,キタキュウシュウシヤハタヒガシク,タシロ,福岡県北九州市八幡東区田代
8050047,福岡県,北九州市八幡東区,景勝町,フクオカケン,キタキュウシュウシヤハタヒガシク,ケイショウマチ,福岡県北九州市八幡東区景勝町
8050048,福岡県,北九州市八幡東区,大蔵,フクオカケン,キタキュウシュウシヤハタヒガシク,オオクラ,福岡県北九州市八幡東区大蔵
8050049,福岡県,北九州市八幡東区,末広町,フクオカケン,キタキュウシュウシヤハタヒガシク,スエヒロマチ,福岡県北九州市八幡東区末広町
8050050,福岡県,北九州市八幡東区,春の町,フクオカケン,キタキュウシュウシヤハタヒガシク,ハルノマチ,福岡県北九州市八幡東区春の町
8050051,福岡県,北九州市八幡東区,東丸山町,フクオカケン,キタキュウシュウシヤハタヒガシク,ヒガシマルヤママチ,福岡県北九州市八幡東区東丸山町
8050052,福岡県,北九州市八幡東区,西丸山町,フクオカケン,キタキュウシュウシヤハタヒガシク,ニシマルヤママチ,福岡県北九州市八幡東区西丸山町
8050053,福岡県,北九州市八幡東区,大谷,フクオカケン,キタキュウシュウシヤハタヒガシク,オオタニ,福岡県北九州市八幡東区大谷
8050054,福岡県,北九州市八幡東区,天神町,フクオカケン,キタキュウシュウシヤハタヒガシク,テンジンマチ,福岡県北九州市八幡東区天神町
8050055,福岡県,北九州市八幡東区,神山町,フクオカケン,キタキュウシュウシヤハタヒガシク,カミヤママチ,福岡県北九州市八幡東区神山町
8050056,福岡県,北九州市八幡東区,帆柱,フクオカケン,キタキュウシュウシヤハタヒガシク,ホバシラ,福岡県北九州市八幡東区帆柱
8050057,福岡県,北九州市八幡東区,尾倉（大字）,フクオカケン,キタキュウシュウシヤハタヒガシク,オグラ(オオアザ),福岡県北九州市八幡東区尾倉（大字）
8050058,福岡県,北九州市八幡東区,前田（大字）,フクオカケン,キタキュウシュウシヤハタヒガシク,マエダ(オオアザ),福岡県北九州市八幡東区前田（大字）
8050059,福岡県,北九州市八幡東区,尾倉（丁目）,フクオカケン,キタキュウシュウシヤハタヒガシク,オグラ(チョウメ),福岡県北九州市八幡東区尾倉（丁目）
8050061,福岡県,北九州市八幡東区,西本町,フクオカケン,キタキュウシュウシヤハタヒガシク,ニシホンマチ,福岡県北九州市八幡東区西本町
8050062,福岡県,北九州市八幡東区,平野,フクオカケン,キタキュウシュウシヤハタヒガシク,ヒラノ,福岡県北九州市八幡東区平野
8050063,福岡県,北九州市八幡東区,東台良町,フクオカケン,キタキュウシュウシヤハタヒガシク,ヒガシダイラマチ,福岡県北九州市八幡東区東台良町
8050064,福岡県,北九州市八幡東区,西台良町,フクオカケン,キタキュウシュウシヤハタヒガシク,ニシダイラマチ,福岡県北九州市八幡東区西台良町
8050065,福岡県,北九州市八幡東区,花尾町,フクオカケン,キタキュウシュウシヤハタヒガシク,ハナオマチ,福岡県北九州市八幡東区花尾町
8050066,福岡県,北九州市八幡東区,祇園原町,フクオカケン,キタキュウシュウシヤハタヒガシク,ギオンバラマチ,福岡県北九州市八幡東区祇園原町
8050067,福岡県,北九州市八幡東区,祇園,フクオカケン,キタキュウシュウシヤハタヒガシク,ギオン,福岡県北九州市八幡東区祇園
8050068,福岡県,北九州市八幡東区,桃園,フクオカケン,キタキュウシュウシヤハタヒガシク,モモゾノ,福岡県北九州市八幡東区桃園
8050069,福岡県,北九州市八幡東区,前田（丁目）,フクオカケン,キタキュウシュウシヤハタヒガシク,マエダ(チョウメ),福岡県北九州市八幡東区前田（丁目）
8050071,福岡県,北九州市八幡東区,東田,フクオカケン,キタキュウシュウシヤハタヒガシク,ヒガシダ,福岡県北九州市八幡東区東田
8060000,福岡県,北九州市八幡西区,,フクオカケン,キタキュウシュウシヤハタニシク,,福岡県北九州市八幡西区
8060001,福岡県,北九州市八幡西区,築地町,フクオカケン,キタキュウシュウシヤハタニシク,ツキジマチ,福岡県北九州市八幡西区築地町
8060002,福岡県,北九州市八幡西区,東浜町,フクオカケン,キタキュウシュウシヤハタニシク,ヒガシハママチ,福岡県北九州市八幡西区東浜町
8060003,福岡県,北九州市八幡西区,田町,フクオカケン,キタキュウシュウシヤハタニシク,タマチ,福岡県北九州市八幡西区田町
8060004,福岡県,北九州市八幡西区,黒崎城石,フクオカケン,キタキュウシュウシヤハタニシク,クロサキシロイシ,福岡県北九州市八幡西区黒崎城石
8060005,福岡県,北九州市八幡西区,舟町,フクオカケン,キタキュウシュウシヤハタニシク,フナマチ,福岡県北九州市八幡西区舟町
8060006,福岡県,北九州市八幡西区,屋敷,フクオカケン,キタキュウシュウシヤハタニシク,ヤシキ,福岡県北九州市八幡西区屋敷
8060011,福岡県,北九州市八幡西区,紅梅,フクオカケン,キタキュウシュウシヤハタニシク,コウバイ,福岡県北九州市八幡西区紅梅
8060012,福岡県,北九州市八幡西区,陣山,フクオカケン,キタキュウシュウシヤハタニシク,ジンヤマ,福岡県北九州市八幡西区陣山
8060013,福岡県,北九州市八幡西区,清納,フクオカケン,キタキュウシュウシヤハタニシク,セイノウ,福岡県北九州市八幡西区清納
8060014,福岡県,北九州市八幡西区,東川頭町,フクオカケン,キタキュウシュウシヤハタニシク,ヒガシカワガシラマチ,福岡県北九州市八幡西区東川頭町
8060015,福岡県,北九州市八幡西区,元城町,フクオカケン,キタキュウシュウシヤハタニシク,モトシロマチ,福岡県北九州市八幡西区元城町
8060016,福岡県,北九州市八幡西区,河桃町,フクオカケン,キタキュウシュウシヤハタニシク,コウトウマチ,福岡県北九州市八幡西区河桃町
8060017,福岡県,北九州市八幡西区,西川頭町,フクオカケン,キタキュウシュウシヤハタニシク,ニシカワガシラマチ,福岡県北九州市八幡西区西川頭町
8060018,福岡県,北九州市八幡西区,平尾町,フクオカケン,キタキュウシュウシヤハタニシク,ヒラオマチ,福岡県北九州市八幡西区平尾町
8060021,福岡県,北九州市八幡西区,黒崎,フクオカケン,キタキュウシュウシヤハタニシク,クロサキ,福岡県北九州市八幡西区黒崎
8060022,福岡県,北九州市八幡西区,藤田,フクオカケン,キタキュウシュウシヤハタニシク,フジタ,福岡県北九州市八幡西区藤田
8060023,福岡県,北九州市八幡西区,八千代町,フクオカケン,キタキュウシュウシヤハタニシク,ヤチヨマチ,福岡県北九州市八幡西区八千代町
8060024,福岡県,北九州市八幡西区,南八千代町,フクオカケン,キタキュウシュウシヤハタニシク,ミナミヤチヨマチ,福岡県北九州市八幡西区南八千代町
8060025,福岡県,北九州市八幡西区,東神原町,フクオカケン,キタキュウシュウシヤハタニシク,ヒガシカンバラマチ,福岡県北九州市八幡西区東神原町
8060026,福岡県,北九州市八幡西区,西神原町,フクオカケン,キタキュウシュウシヤハタニシク,ニシカンバラマチ,福岡県北九州市八幡西区西神原町
8060027,福岡県,北九州市八幡西区,菅原町,フクオカケン,キタキュウシュウシヤハタニシク,スガワラマチ,福岡県北九州市八幡西区菅原町
8060028,福岡県,北九州市八幡西区,熊手,フクオカケン,キタキュウシュウシヤハタニシク,クマデ,福岡県北九州市八幡西区熊手
8060030,福岡県,北九州市八幡西区,山寺町,フクオカケン,キタキュウシュウシヤハタニシク,ヤマデラマチ,福岡県北九州市八幡西区山寺町
8060031,福岡県,北九州市八幡西区,熊西,フクオカケン,キタキュウシュウシヤハタニシク,クマニシ,福岡県北九州市八幡西区熊西
8060032,福岡県,北九州市八幡西区,筒井町,フクオカケン,キタキュウシュウシヤハタニシク,ツツイマチ,福岡県北九州市八幡西区筒井町
8060033,福岡県,北九州市八幡西区,岡田町,フクオカケン,キタキュウシュウシヤハタニシク,オカダマチ,福岡県北九州市八幡西区岡田町
8060034,福岡県,北九州市八幡西区,岸の浦,フクオカケン,キタキュウシュウシヤハタニシク,キシノウラ,福岡県北九州市八幡西区岸の浦
8060035,福岡県,北九州市八幡西区,東曲里町,フクオカケン,キタキュウシュウシヤハタニシク,ヒガシマガリマチ,福岡県北九州市八幡西区東曲里町
8060036,福岡県,北九州市八幡西区,西曲里町,フクオカケン,キタキュウシュウシヤハタニシク,ニシマガリマチ,福岡県北九州市八幡西区西曲里町
8060037,福岡県,北九州市八幡西区,東王子町,フクオカケン,キタキュウシュウシヤハタニシク,ヒガシオウジマチ,福岡県北九州市八幡西区東王子町
8060038,福岡県,北九州市八幡西区,南王子町,フクオカケン,キタキュウシュウシヤハタニシク,ミナミオウジマチ,福岡県北九州市八幡西区南王子町
8060039,福岡県,北九州市八幡西区,西王子町,フクオカケン,キタキュウシュウシヤハタニシク,ニシオウジマチ,福岡県北九州市八幡西区西王子町
8060041,福岡県,北九州市八幡西区,皇后崎町,フクオカケン,キタキュウシュウシヤハタニシク,コウガサキマチ,福岡県北九州市八幡西区皇后崎町
8060042,福岡県,北九州市八幡西区,桜ケ丘町,フクオカケン,キタキュウシュウシヤハタニシク,サクラガオカマチ,福岡県北九州市八幡西区桜ケ丘町
8060043,福岡県,北九州市八幡西区,青山,フクオカケン,キタキュウシュウシヤハタニシク,アオヤマ,福岡県北九州市八幡西区青山
8060044,福岡県,北九州市八幡西区,相生町,フクオカケン,キタキュウシュウシヤハタニシク,アイオイチョウ,福岡県北九州市八幡西区相生町
8060045,福岡県,北九州市八幡西区,竹末,フクオカケン,キタキュウシュウシヤハタニシク,タケスエ,福岡県北九州市八幡西区竹末
8060046,福岡県,北九州市八幡西区,森下町,フクオカケン,キタキュウシュウシヤハタニシク,モリシタマチ,福岡県北九州市八幡西区森下町
8060047,福岡県,北九州市八幡西区,鷹の巣,フクオカケン,キタキュウシュウシヤハタニシク,タカノス,福岡県北九州市八幡西区鷹の巣
8060048,福岡県,北九州市八幡西区,樋口町,フクオカケン,キタキュウシュウシヤハタニシク,ヒグチマチ,福岡県北九州市八幡西区樋口町
8060049,福岡県,北九州市八幡西区,穴生,フクオカケン,キタキュウシュウシヤハタニシク,アノオ,福岡県北九州市八幡西区穴生
8060051,福岡県,北九州市八幡西区,東鳴水,フクオカケン,キタキュウシュウシヤハタニシク,ヒガシナルミズ,福岡県北九州市八幡西区東鳴水
8060052,福岡県,北九州市八幡西区,鳴水町,フクオカケン,キタキュウシュウシヤハタニシク,ナルミズマチ,福岡県北九州市八幡西区鳴水町
8060053,福岡県,北九州市八幡西区,大畑町,フクオカケン,キタキュウシュウシヤハタニシク,オオハタマチ,福岡県北九州市八幡西区大畑町
8060054,福岡県,北九州市八幡西区,西鳴水,フクオカケン,キタキュウシュウシヤハタニシク,ニシナルミズ,福岡県北九州市八幡西区西鳴水
8060055,福岡県,北九州市八幡西区,幸神,フクオカケン,キタキュウシュウシヤハタニシク,サイノカミ,福岡県北九州市八幡西区幸神
8060056,福岡県,北九州市八幡西区,小鷺田町,フクオカケン,キタキュウシュウシヤハタニシク,コサギダマチ,福岡県北九州市八幡西区小鷺田町
8060057,福岡県,北九州市八幡西区,鉄王,フクオカケン,キタキュウシュウシヤハタニシク,テツオウ,福岡県北九州市八幡西区鉄王
8060058,福岡県,北九州市八幡西区,鉄竜,フクオカケン,キタキュウシュウシヤハタニシク,テツリュウ,福岡県北九州市八幡西区鉄竜
8060059,福岡県,北九州市八幡西区,萩原,フクオカケン,キタキュウシュウシヤハタニシク,ハギワラ,福岡県北九州市八幡西区萩原
8060061,福岡県,北九州市八幡西区,京良城町,フクオカケン,キタキュウシュウシヤハタニシク,キョウラギマチ,福岡県北九州市八幡西区京良城町
8060062,福岡県,北九州市八幡西区,別当町,フクオカケン,キタキュウシュウシヤハタニシク,ベットウマチ,福岡県北九州市八幡西区別当町
8060063,福岡県,北九州市八幡西区,市瀬,フクオカケン,キタキュウシュウシヤハタニシク,イチノセ,福岡県北九州市八幡西区市瀬
8060064,福岡県,北九州市八幡西区,割子川,フクオカケン,キタキュウシュウシヤハタニシク,ワリコガワ,福岡県北九州市八幡西区割子川
8060065,福岡県,北九州市八幡西区,養福寺町,フクオカケン,キタキュウシュウシヤハタニシク,ヨウフクジマチ,福岡県北九州市八幡西区養福寺町
8060066,福岡県,北九州市八幡西区,若葉,フクオカケン,キタキュウシュウシヤハタニシク,ワカバ,福岡県北九州市八幡西区若葉
8060067,福岡県,北九州市八幡西区,引野,フクオカケン,キタキュウシュウシヤハタニシク,ヒキノ,福岡県北九州市八幡西区引野
8060068,福岡県,北九州市八幡西区,別所町,フクオカケン,キタキュウシュウシヤハタニシク,ベッショマチ,福岡県北九州市八幡西区別所町
8060069,福岡県,北九州市八幡西区,茶売町,フクオカケン,キタキュウシュウシヤハタニシク,チャウリマチ,福岡県北九州市八幡西区茶売町
8070000,福岡県,遠賀郡水巻町,,フクオカケン,オンガグンミズマキマチ,,福岡県遠賀郡水巻町
8070001,福岡県,遠賀郡水巻町,猪熊,フクオカケン,オンガグンミズマキマチ,イノクマ,福岡県遠賀郡水巻町猪熊
8070002,福岡県,遠賀郡水巻町,樋口,フクオカケン,オンガグンミズマキマチ,ヒグチ,福岡県遠賀郡水巻町樋口
8070003,福岡県,遠賀郡水巻町,おかの台,フクオカケン,オンガグンミズマキマチ,オカノダイ,福岡県遠賀郡水巻町おかの台
8070004,福岡県,遠賀郡水巻町,樋口東,フクオカケン,オンガグンミズマキマチ,ヒグチヒガシ,福岡県遠賀郡水巻町樋口東
8070005,福岡県,遠賀郡水巻町,高松,フクオカケン,オンガグンミズマキマチ,タカマツ,福岡県遠賀郡水巻町高松
8070006,福岡県,遠賀郡水巻町,梅ノ木団地,フクオカケン,オンガグンミズマキマチ,ウメノキダンチ,福岡県遠賀郡水巻町梅ノ木団地
8070007,福岡県,遠賀郡水巻町,牟田,フクオカケン,オンガグンミズマキマチ,ムタ,福岡県遠賀郡水巻町牟田
8070011,福岡県,遠賀郡水巻町,緑ケ丘,フクオカケン,オンガグンミズマキマチ,ミドリガオカ,福岡県遠賀郡水巻町緑ケ丘
8070012,福岡県,遠賀郡水巻町,古賀,フクオカケン,オンガグンミズマキマチ,コガ,福岡県遠賀郡水巻町古賀
8070021,福岡県,遠賀郡水巻町,頃末,フクオカケン,オンガグンミズマキマチ,コロスエ,福岡県遠賀郡水巻町頃末
8070022,福岡県,遠賀郡水巻町,頃末北,フクオカケン,オンガグンミズマキマチ,コロスエキタ,福岡県遠賀郡水巻町頃末北
8070023,福岡県,遠賀郡水巻町,中央,フクオカケン,オンガグンミズマキマチ,チュウオウ,福岡県遠賀郡水巻町中央
8070024,福岡県,遠賀郡水巻町,高尾,フクオカケン,オンガグンミズマキマチ,タカオ,福岡県遠賀郡水巻町高尾
8070025,福岡県,遠賀郡水巻町,頃末南,フクオカケン,オンガグンミズマキマチ,コロスエミナミ,福岡県遠賀郡水巻町頃末南
8070031,福岡県,遠賀郡水巻町,えぶり,フクオカケン,オンガグンミズマキマチ,エブリ,福岡県遠賀郡水巻町えぶり
8070041,福岡県,遠賀郡水巻町,宮尾台,フクオカケン,オンガグンミズマキマチ,ミヤオダイ,福岡県遠賀郡水巻町宮尾台
8070042,福岡県,遠賀郡水巻町,吉田,フクオカケン,オンガグンミズマキマチ,ヨシダ,福岡県遠賀郡水巻町吉田
8070042,福岡県,遠賀郡水巻町,吉田団地,フクオカケン,オンガグンミズマキマチ,ヨシダダンチ,福岡県遠賀郡水巻町吉田団地
8070043,福岡県,遠賀郡水巻町,下二,フクオカケン,オンガグンミズマキマチ,シモフタ,福岡県遠賀郡水巻町下二
8070044,福岡県,遠賀郡水巻町,美吉野,フクオカケン,オンガグンミズマキマチ,ミヨシノ,福岡県遠賀郡水巻町美吉野
8070045,福岡県,遠賀郡水巻町,吉田東,フクオカケン,オンガグンミズマキマチ,ヨシダヒガシ,福岡県遠賀郡水巻町吉田東
8070046,福岡県,遠賀郡水巻町,吉田西,フクオカケン,オンガグンミズマキマチ,ヨシダニシ,福岡県遠賀郡水巻町吉田西
8070047,福岡県,遠賀郡水巻町,鯉口,フクオカケン,オンガグンミズマキマチ,コイグチ,福岡県遠賀郡水巻町鯉口
8070048,福岡県,遠賀郡水巻町,吉田南,フクオカケン,オンガグンミズマキマチ,ヨシダミナミ,福岡県遠賀郡水巻町吉田南
8070051,福岡県,遠賀郡水巻町,立屋敷,フクオカケン,オンガグンミズマキマチ,タテヤシキ,福岡県遠賀郡水巻町立屋敷
8070052,福岡県,遠賀郡水巻町,下二西,フクオカケン,オンガグンミズマキマチ,シモフタニシ,福岡県遠賀郡水巻町下二西
8070053,福岡県,遠賀郡水巻町,下二東,フクオカケン,オンガグンミズマキマチ,シモフタヒガシ,福岡県遠賀郡水巻町下二東
8070054,福岡県,遠賀郡水巻町,二東,フクオカケン,オンガグンミズマキマチ,フタヒガシ,福岡県遠賀郡水巻町二東
8070055,福岡県,遠賀郡水巻町,二西,フクオカケン,オンガグンミズマキマチ,フタニシ,福岡県遠賀郡水巻町二西
8070056,福岡県,遠賀郡水巻町,伊左座,フクオカケン,オンガグンミズマキマチ,イサザ,福岡県遠賀郡水巻町伊左座
8070071,福岡県,北九州市八幡西区,上の原,フクオカケン,キタキュウシュウシヤハタニシク,ウエノハル,福岡県北九州市八幡西区上の原
8070072,福岡県,北九州市八幡西区,上上津役,フクオカケン,キタキュウシュウシヤハタニシク,カミコウジャク,福岡県北九州市八幡西区上上津役
8070073,福岡県,北九州市八幡西区,町上津役東,フクオカケン,キタキュウシュウシヤハタニシク,マチコウジャクヒガシ,福岡県北九州市八幡西区町上津役東
8070074,福岡県,北九州市八幡西区,町上津役西,フクオカケン,キタキュウシュウシヤハタニシク,マチコウジャクニシ,福岡県北九州市八幡西区町上津役西
8070075,福岡県,北九州市八幡西区,下上津役,フクオカケン,キタキュウシュウシヤハタニシク,シモコウジャク,福岡県北九州市八幡西区下上津役
8070076,福岡県,北九州市八幡西区,下上津役元町,フクオカケン,キタキュウシュウシヤハタニシク,シモコウジャクモトマチ,福岡県北九州市八幡西区下上津役元町
8070077,福岡県,北九州市八幡西区,沖田,フクオカケン,キタキュウシュウシヤハタニシク,オキタ,福岡県北九州市八幡西区沖田
8070078,福岡県,北九州市八幡西区,中の原,フクオカケン,キタキュウシュウシヤハタニシク,ナカノハル,福岡県北九州市八幡西区中の原
8070081,福岡県,北九州市八幡西区,小嶺,フクオカケン,キタキュウシュウシヤハタニシク,コミネ,福岡県北九州市八幡西区小嶺
8070082,福岡県,北九州市八幡西区,小嶺台,フクオカケン,キタキュウシュウシヤハタニシク,コミネダイ,福岡県北九州市八幡西区小嶺台
8070083,福岡県,北九州市八幡西区,大平,フクオカケン,キタキュウシュウシヤハタニシク,オオヒラ,福岡県北九州市八幡西区大平
8070084,福岡県,北九州市八幡西区,大平台,フクオカケン,キタキュウシュウシヤハタニシク,オオヒラダイ,福岡県北九州市八幡西区大平台
8070085,福岡県,北九州市八幡西区,塔野,フクオカケン,キタキュウシュウシヤハタニシク,トウノ,福岡県北九州市八幡西区塔野
8070100,福岡県,遠賀郡芦屋町,,フクオカケン,オンガグンアシヤマチ,,福岡県遠賀郡芦屋町
8070101,福岡県,遠賀郡芦屋町,幸町,フクオカケン,オンガグンアシヤマチ,サイワイマチ,福岡県遠賀郡芦屋町幸町
8070102,福岡県,遠賀郡芦屋町,西浜町,フクオカケン,オンガグンアシヤマチ,ニシハママチ,福岡県遠賀郡芦屋町西浜町
8070111,福岡県,遠賀郡芦屋町,白浜町,フクオカケン,オンガグンアシヤマチ,シラハママチ,福岡県遠賀郡芦屋町白浜町
8070112,福岡県,遠賀郡芦屋町,正門町,フクオカケン,オンガグンアシヤマチ,セイモンマチ,福岡県遠賀郡芦屋町正門町
8070113,福岡県,遠賀郡芦屋町,中ノ浜,フクオカケン,オンガグンアシヤマチ,ナカノハマ,福岡県遠賀郡芦屋町中ノ浜
8070121,福岡県,遠賀郡芦屋町,船頭町,フクオカケン,オンガグンアシヤマチ,センドウマチ,福岡県遠賀郡芦屋町船頭町
8070122,福岡県,遠賀郡芦屋町,高浜町,フクオカケン,オンガグンアシヤマチ,タカハママチ,福岡県遠賀郡芦屋町高浜町
8070123,福岡県,遠賀郡芦屋町,祇園町,フクオカケン,オンガグンアシヤマチ,ギオンマチ,福岡県遠賀郡芦屋町祇園町
8070131,福岡県,遠賀郡芦屋町,緑ケ丘,フクオカケン,オンガグンアシヤマチ,ミドリガオカ,福岡県遠賀郡芦屋町緑ケ丘
8070132,福岡県,遠賀郡芦屋町,浜口町,フクオカケン,オンガグンアシヤマチ,ハマグチマチ,福岡県遠賀郡芦屋町浜口町
8070133,福岡県,遠賀郡芦屋町,芦屋,フクオカケン,オンガグンアシヤマチ,アシヤ,福岡県遠賀郡芦屋町芦屋
8070141,福岡県,遠賀郡芦屋町,山鹿,フクオカケン,オンガグンアシヤマチ,ヤマガ,福岡県遠賀郡芦屋町山鹿
8070142,福岡県,遠賀郡芦屋町,江川台,フクオカケン,オンガグンアシヤマチ,エガワダイ,福岡県遠賀郡芦屋町江川台
8070143,福岡県,遠賀郡芦屋町,花美坂,フクオカケン,オンガグンアシヤマチ,ハナミザカ,福岡県遠賀郡芦屋町花美坂
8070801,福岡県,北九州市八幡西区,本城,フクオカケン,キタキュウシュウシヤハタニシク,ホンジョウ,福岡県北九州市八幡西区本城
8070802,福岡県,北九州市八幡西区,力丸町,フクオカケン,キタキュウシュウシヤハタニシク,リキマルマチ,福岡県北九州市八幡西区力丸町
8070803,福岡県,北九州市八幡西区,千代ケ崎,フクオカケン,キタキュウシュウシヤハタニシク,チヨガサキ,福岡県北九州市八幡西区千代ケ崎
8070804,福岡県,北九州市八幡西区,医生ケ丘,フクオカケン,キタキュウシュウシヤハタニシク,イセイガオカ,福岡県北九州市八幡西区医生ケ丘
8070805,福岡県,北九州市八幡西区,光貞台,フクオカケン,キタキュウシュウシヤハタニシク,ミツサダダイ,福岡県北九州市八幡西区光貞台
8070806,福岡県,北九州市八幡西区,御開,フクオカケン,キタキュウシュウシヤハタニシク,オヒラキ,福岡県北九州市八幡西区御開
8070807,福岡県,北九州市八幡西区,本城学研台,フクオカケン,キタキュウシュウシヤハタニシク,ホンジョウガッケンダイ,福岡県北九州市八幡西区本城学研台
8070811,福岡県,北九州市八幡西区,洞北町,フクオカケン,キタキュウシュウシヤハタニシク,ドウホクマチ,福岡県北九州市八幡西区洞北町
8070812,福岡県,北九州市八幡西区,洞南町,フクオカケン,キタキュウシュウシヤハタニシク,クキナミマチ,福岡県北九州市八幡西区洞南町
8070813,福岡県,北九州市八幡西区,夕原町,フクオカケン,キタキュウシュウシヤハタニシク,ユウバルマチ,福岡県北九州市八幡西区夕原町
8070814,福岡県,北九州市八幡西区,貴船台,フクオカケン,キタキュウシュウシヤハタニシク,キフネダイ,福岡県北九州市八幡西区貴船台
8070815,福岡県,北九州市八幡西区,本城東,フクオカケン,キタキュウシュウシヤハタニシク,ホンジョウヒガシ,福岡県北九州市八幡西区本城東
8070821,福岡県,北九州市八幡西区,陣原,フクオカケン,キタキュウシュウシヤハタニシク,ジンノハル,福岡県北九州市八幡西区陣原
8070822,福岡県,北九州市八幡西区,瀬板,フクオカケン,キタキュウシュウシヤハタニシク,セイタ,福岡県北九州市八幡西区瀬板
8070823,福岡県,北九州市八幡西区,中須,フクオカケン,キタキュウシュウシヤハタニシク,ナカス,福岡県北九州市八幡西区中須
8070824,福岡県,北九州市八幡西区,光明,フクオカケン,キタキュウシュウシヤハタニシク,コウミョウ,福岡県北九州市八幡西区光明
8070825,福岡県,北九州市八幡西区,折尾（丁目）,フクオカケン,キタキュウシュウシヤハタニシク,オリオ(チョウメ),福岡県北九州市八幡西区折尾（丁目）
8070826,福岡県,北九州市八幡西区,丸尾町,フクオカケン,キタキュウシュウシヤハタニシク,マルオマチ,福岡県北九州市八幡西区丸尾町
8070827,福岡県,北九州市八幡西区,楠木,フクオカケン,キタキュウシュウシヤハタニシク,クスノキ,福岡県北九州市八幡西区楠木
8070828,福岡県,北九州市八幡西区,友田,フクオカケン,キタキュウシュウシヤハタニシク,トモダ,福岡県北九州市八幡西区友田
8070829,福岡県,北九州市八幡西区,星和町,フクオカケン,キタキュウシュウシヤハタニシク,セイワマチ,福岡県北九州市八幡西区星和町
8070831,福岡県,北九州市八幡西区,則松,フクオカケン,キタキュウシュウシヤハタニシク,ノリマツ,福岡県北九州市八幡西区則松
8070832,福岡県,北九州市八幡西区,東筑,フクオカケン,キタキュウシュウシヤハタニシク,トウチク,福岡県北九州市八幡西区東筑
8070833,福岡県,北九州市八幡西区,南鷹見町,フクオカケン,キタキュウシュウシヤハタニシク,ミナミタカミマチ,福岡県北九州市八幡西区南鷹見町
8070834,福岡県,北九州市八幡西区,北鷹見町,フクオカケン,キタキュウシュウシヤハタニシク,キタタカミマチ,福岡県北九州市八幡西区北鷹見町
8070835,福岡県,北九州市八幡西区,東折尾町,フクオカケン,キタキュウシュウシヤハタニシク,ヒガシオリオマチ,福岡県北九州市八幡西区東折尾町
8070836,福岡県,北九州市八幡西区,長崎町,フクオカケン,キタキュウシュウシヤハタニシク,ナガサキマチ,福岡県北九州市八幡西区長崎町
8070837,福岡県,北九州市八幡西区,則松東,フクオカケン,キタキュウシュウシヤハタニシク,ノリマツヒガシ,福岡県北九州市八幡西区則松東
8070841,福岡県,北九州市八幡西区,的場町,フクオカケン,キタキュウシュウシヤハタニシク,マトバマチ,福岡県北九州市八幡西区的場町
8070842,福岡県,北九州市八幡西区,永犬丸東町,フクオカケン,キタキュウシュウシヤハタニシク,エイノマルヒガシマチ,福岡県北九州市八幡西区永犬丸東町
8070843,福岡県,北九州市八幡西区,三ケ森,フクオカケン,キタキュウシュウシヤハタニシク,サンガモリ,福岡県北九州市八幡西区三ケ森
8070844,福岡県,北九州市八幡西区,春日台,フクオカケン,キタキュウシュウシヤハタニシク,カスガダイ,福岡県北九州市八幡西区春日台
8070845,福岡県,北九州市八幡西区,永犬丸南町,フクオカケン,キタキュウシュウシヤハタニシク,エイノマルミナミマチ,福岡県北九州市八幡西区永犬丸南町
8070846,福岡県,北九州市八幡西区,里中,フクオカケン,キタキュウシュウシヤハタニシク,サトナカ,福岡県北九州市八幡西区里中
8070847,福岡県,北九州市八幡西区,美原町,フクオカケン,キタキュウシュウシヤハタニシク,ミハラマチ,福岡県北九州市八幡西区美原町
8070851,福岡県,北九州市八幡西区,永犬丸,フクオカケン,キタキュウシュウシヤハタニシク,エイノマル,福岡県北九州市八幡西区永犬丸
8070852,福岡県,北九州市八幡西区,永犬丸西町,フクオカケン,キタキュウシュウシヤハタニシク,エイノマルニシマチ,福岡県北九州市八幡西区永犬丸西町
8070853,福岡県,北九州市八幡西区,鷹見台,フクオカケン,キタキュウシュウシヤハタニシク,タカミダイ,福岡県北九州市八幡西区鷹見台
8070854,福岡県,北九州市八幡西区,泉ケ浦,フクオカケン,キタキュウシュウシヤハタニシク,イズミガウラ,福岡県北九州市八幡西区泉ケ浦
8070855,福岡県,北九州市八幡西区,松寿山,フクオカケン,キタキュウシュウシヤハタニシク,ショウジュサン,福岡県北九州市八幡西区松寿山
8070856,福岡県,北九州市八幡西区,八枝,フクオカケン,キタキュウシュウシヤハタニシク,ヤツエ,福岡県北九州市八幡西区八枝
8070857,福岡県,北九州市八幡西区,北筑,フクオカケン,キタキュウシュウシヤハタニシク,ホクチク,福岡県北九州市八幡西区北筑
8070861,福岡県,北九州市八幡西区,堀川町,フクオカケン,キタキュウシュウシヤハタニシク,ホリカワマチ,福岡県北九州市八幡西区堀川町
8070862,福岡県,北九州市八幡西区,西折尾町,フクオカケン,キタキュウシュウシヤハタニシク,ニシオリオマチ,福岡県北九州市八幡西区西折尾町
8070863,福岡県,北九州市八幡西区,大膳,フクオカケン,キタキュウシュウシヤハタニシク,ダイゼン,福岡県北九州市八幡西区大膳
8070864,福岡県,北九州市八幡西区,折尾（番地）,フクオカケン,キタキュウシュウシヤハタニシク,オリオ(バンチ),福岡県北九州市八幡西区折尾（番地）
8070865,福岡県,北九州市八幡西区,美吉野町,フクオカケン,キタキュウシュウシヤハタニシク,ミヨシノマチ,福岡県北九州市八幡西区美吉野町
8070866,福岡県,北九州市八幡西区,日吉台,フクオカケン,キタキュウシュウシヤハタニシク,ヒヨシダイ,福岡県北九州市八幡西区日吉台
8070867,福岡県,北九州市八幡西区,自由ケ丘,フクオカケン,キタキュウシュウシヤハタニシク,ジユウガオカ,福岡県北九州市八幡西区自由ケ丘
8070868,福岡県,北九州市八幡西区,さつき台,フクオカケン,キタキュウシュウシヤハタニシク,サツキダイ,福岡県北九州市八幡西区さつき台
8070871,福岡県,北九州市八幡西区,浅川学園台,フクオカケン,キタキュウシュウシヤハタニシク,アサカワガクエンダイ,福岡県北九州市八幡西区浅川学園台
8070872,福岡県,北九州市八幡西区,浅川（丁目）,フクオカケン,キタキュウシュウシヤハタニシク,アサカワ(チョウメ),福岡県北九州市八幡西区浅川（丁目）
8070873,福岡県,北九州市八幡西区,藤原,フクオカケン,キタキュウシュウシヤハタニシク,フジワラ,福岡県北九州市八幡西区藤原
8070874,福岡県,北九州市八幡西区,大浦,フクオカケン,キタキュウシュウシヤハタニシク,オオウラ,福岡県北九州市八幡西区大浦
8070875,福岡県,北九州市八幡西区,浅川台,フクオカケン,キタキュウシュウシヤハタニシク,アサカワダイ,福岡県北九州市八幡西区浅川台
8070876,福岡県,北九州市八幡西区,浅川日の峯,フクオカケン,キタキュウシュウシヤハタニシク,アサカワヒノミネ,福岡県北九州市八幡西区浅川日の峯
8070877,福岡県,北九州市八幡西区,浅川（番地）,フクオカケン,キタキュウシュウシヤハタニシク,アサカワ(バンチ),福岡県北九州市八幡西区浅川（番地）
8070878,福岡県,北九州市八幡西区,三ツ頭,フクオカケン,キタキュウシュウシヤハタニシク,ミツガシラ,福岡県北九州市八幡西区三ツ頭
8070879,福岡県,北九州市八幡西区,浅川町,フクオカケン,キタキュウシュウシヤハタニシク,アサカワマチ,福岡県北九州市八幡西区浅川町
8071101,福岡県,北九州市八幡西区,上香月,フクオカケン,キタキュウシュウシヤハタニシク,カミカツキ,福岡県北九州市八幡西区上香月
8071102,福岡県,北九州市八幡西区,香月中央,フクオカケン,キタキュウシュウシヤハタニシク,カツキチュウオウ,福岡県北九州市八幡西区香月中央
8071103,福岡県,北九州市八幡西区,香月西,フクオカケン,キタキュウシュウシヤハタニシク,カツキニシ,福岡県北九州市八幡西区香月西
8071111,福岡県,北九州市八幡西区,船越,フクオカケン,キタキュウシュウシヤハタニシク,フナコシ,福岡県北九州市八幡西区船越
8071112,福岡県,北九州市八幡西区,千代,フクオカケン,キタキュウシュウシヤハタニシク,チヨ,福岡県北九州市八幡西区千代
8071113,福岡県,北九州市八幡西区,白岩町,フクオカケン,キタキュウシュウシヤハタニシク,シライワマチ,福岡県北九州市八幡西区白岩町
8071114,福岡県,北九州市八幡西区,吉祥寺町,フクオカケン,キタキュウシュウシヤハタニシク,キッショウジマチ,福岡県北九州市八幡西区吉祥寺町
8071115,福岡県,北九州市八幡西区,椋枝,フクオカケン,キタキュウシュウシヤハタニシク,ムクエダ,福岡県北九州市八幡西区椋枝
8071121,福岡県,北九州市八幡西区,石坂,フクオカケン,キタキュウシュウシヤハタニシク,イシサカ,福岡県北九州市八幡西区石坂
8071122,福岡県,北九州市八幡西区,東石坂町,フクオカケン,キタキュウシュウシヤハタニシク,ヒガシイシザカマチ,福岡県北九州市八幡西区東石坂町
8071123,福岡県,北九州市八幡西区,下畑町,フクオカケン,キタキュウシュウシヤハタニシク,シモハタマチ,福岡県北九州市八幡西区下畑町
8071124,福岡県,北九州市八幡西区,畑,フクオカケン,キタキュウシュウシヤハタニシク,ハタ,福岡県北九州市八幡西区畑
8071125,福岡県,北九州市八幡西区,池田,フクオカケン,キタキュウシュウシヤハタニシク,イケダ,福岡県北九州市八幡西区池田
8071131,福岡県,北九州市八幡西区,馬場山東,フクオカケン,キタキュウシュウシヤハタニシク,ババヤマヒガシ,福岡県北九州市八幡西区馬場山東
8071132,福岡県,北九州市八幡西区,馬場山西,フクオカケン,キタキュウシュウシヤハタニシク,ババヤマニシ,福岡県北九州市八幡西区馬場山西
8071133,福岡県,北九州市八幡西区,馬場山緑,フクオカケン,キタキュウシュウシヤハタニシク,ババヤマミドリ,福岡県北九州市八幡西区馬場山緑
8071134,福岡県,北九州市八幡西区,茶屋の原,フクオカケン,キタキュウシュウシヤハタニシク,チャヤノハル,福岡県北九州市八幡西区茶屋の原
8071135,福岡県,北九州市八幡西区,馬場山原,フクオカケン,キタキュウシュウシヤハタニシク,ババヤマハラ,福岡県北九州市八幡西区馬場山原
8071136,福岡県,北九州市八幡西区,馬場山,フクオカケン,キタキュウシュウシヤハタニシク,ババヤマ,福岡県北九州市八幡西区馬場山
8071141,福岡県,北九州市八幡西区,楠橋上方,フクオカケン,キタキュウシュウシヤハタニシク,クスバシカミカタ,福岡県北九州市八幡西区楠橋上方
8071142,福岡県,北九州市八幡西区,楠橋東,フクオカケン,キタキュウシュウシヤハタニシク,クスバシヒガシ,福岡県北九州市八幡西区楠橋東
8071143,福岡県,北九州市八幡西区,楠橋南,フクオカケン,キタキュウシュウシヤハタニシク,クスバシミナミ,福岡県北九州市八幡西区楠橋南
8071144,福岡県,北九州市八幡西区,真名子,フクオカケン,キタキュウシュウシヤハタニシク,マナゴ,福岡県北九州市八幡西区真名子
8071145,福岡県,北九州市八幡西区,楠橋西,フクオカケン,キタキュウシュウシヤハタニシク,クスバシニシ,福岡県北九州市八幡西区楠橋西
8071146,福岡県,北九州市八幡西区,楠橋下方,フクオカケン,キタキュウシュウシヤハタニシク,クスバシシモカタ,福岡県北九州市八幡西区楠橋下方
8071151,福岡県,北九州市八幡西区,楠橋,フクオカケン,キタキュウシュウシヤハタニシク,クスバシ,福岡県北九州市八幡西区楠橋
8071152,福岡県,北九州市八幡西区,高江,フクオカケン,キタキュウシュウシヤハタニシク,タカエ,福岡県北九州市八幡西区高江
8071153,福岡県,北九州市八幡西区,岩崎,フクオカケン,キタキュウシュウシヤハタニシク,イワサキ,福岡県北九州市八幡西区岩崎
8071154,福岡県,北九州市八幡西区,楠北,フクオカケン,キタキュウシュウシヤハタニシク,クスキタ,福岡県北九州市八幡西区楠北
8071261,福岡県,北九州市八幡西区,木屋瀬,フクオカケン,キタキュウシュウシヤハタニシク,コヤノセ,福岡県北九州市八幡西区木屋瀬
8071262,福岡県,北九州市八幡西区,野面,フクオカケン,キタキュウシュウシヤハタニシク,ノブ,福岡県北九州市八幡西区野面
8071263,福岡県,北九州市八幡西区,金剛,フクオカケン,キタキュウシュウシヤハタニシク,コンゴウ,福岡県北九州市八幡西区金剛
8071264,福岡県,北九州市八幡西区,星ケ丘,フクオカケン,キタキュウシュウシヤハタニシク,ホシガオカ,福岡県北九州市八幡西区星ケ丘
8071265,福岡県,北九州市八幡西区,笹田,フクオカケン,キタキュウシュウシヤハタニシク,ササダ,福岡県北九州市八幡西区笹田
8071266,福岡県,北九州市八幡西区,木屋瀬東,フクオカケン,キタキュウシュウシヤハタニシク,コヤノセヒガシ,福岡県北九州市八幡西区木屋瀬東
8071300,福岡県,鞍手郡鞍手町,,フクオカケン,クラテグンクラテマチ,,福岡県鞍手郡鞍手町
8071301,福岡県,鞍手郡鞍手町,猪倉,フクオカケン,クラテグンクラテマチ,イノクラ,福岡県鞍手郡鞍手町猪倉
8071302,福岡県,鞍手郡鞍手町,上木月,フクオカケン,クラテグンクラテマチ,カミキヅキ,福岡県鞍手郡鞍手町上木月
8071303,福岡県,鞍手郡鞍手町,木月,フクオカケン,クラテグンクラテマチ,キヅキ,福岡県鞍手郡鞍手町木月
8071304,福岡県,鞍手郡鞍手町,永谷,フクオカケン,クラテグンクラテマチ,ナガタニ,福岡県鞍手郡鞍手町永谷
8071305,福岡県,鞍手郡鞍手町,新延,フクオカケン,クラテグンクラテマチ,ニノブ,福岡県鞍手郡鞍手町新延
8071306,福岡県,鞍手郡鞍手町,古門,フクオカケン,クラテグンクラテマチ,フルモン,福岡県鞍手郡鞍手町古門
8071307,福岡県,鞍手郡鞍手町,室木,フクオカケン,クラテグンクラテマチ,ムロキ,福岡県鞍手郡鞍手町室木
8071308,福岡県,鞍手郡鞍手町,八尋,フクオカケン,クラテグンクラテマチ,ヤヒロ,福岡県鞍手郡鞍手町八尋
8071311,福岡県,鞍手郡鞍手町,小牧,フクオカケン,クラテグンクラテマチ,オマキ,福岡県鞍手郡鞍手町小牧
8071312,福岡県,鞍手郡鞍手町,中山,フクオカケン,クラテグンクラテマチ,ナカヤマ,福岡県鞍手郡鞍手町中山
8071313,福岡県,鞍手郡鞍手町,新北,フクオカケン,クラテグンクラテマチ,ニギタ,福岡県鞍手郡鞍手町新北
8071314,福岡県,鞍手郡鞍手町,長谷,フクオカケン,クラテグンクラテマチ,ハセ,福岡県鞍手郡鞍手町長谷
8071315,福岡県,鞍手郡鞍手町,弥生,フクオカケン,クラテグンクラテマチ,ヤヨイ,福岡県鞍手郡鞍手町弥生
8080000,福岡県,北九州市若松区,,フクオカケン,キタキュウシュウシワカマツク,,福岡県北九州市若松区
8080001,福岡県,北九州市若松区,小石本村町,フクオカケン,キタキュウシュウシワカマツク,コイシホンムラマチ,福岡県北九州市若松区小石本村町
8080002,福岡県,北九州市若松区,向洋町,フクオカケン,キタキュウシュウシワカマツク,コウヨウマチ,福岡県北九州市若松区向洋町
8080003,福岡県,北九州市若松区,赤崎町,フクオカケン,キタキュウシュウシワカマツク,アカサキマチ,福岡県北九州市若松区赤崎町
8080004,福岡県,北九州市若松区,西小石町,フクオカケン,キタキュウシュウシワカマツク,ニシコイシマチ,福岡県北九州市若松区西小石町
8080005,福岡県,北九州市若松区,下原町,フクオカケン,キタキュウシュウシワカマツク,シモハラマチ,福岡県北九州市若松区下原町
8080006,福岡県,北九州市若松区,宮前町,フクオカケン,キタキュウシュウシワカマツク,ミヤマエマチ,福岡県北九州市若松区宮前町
8080007,福岡県,北九州市若松区,小石,フクオカケン,キタキュウシュウシワカマツク,コイシ,福岡県北九州市若松区小石
8080008,福岡県,北九州市若松区,小竹（１〜１９５３、３００６〜３００８番地、相川、鬼ケ坂、唐木、,フクオカケン,キタキュウシュウシワカマツク,オダケ(1-1953、3006-3008バンチ、アイカワ、オニガサカ、カラキ、,福岡県北九州市若松区小竹（1〜1953、3006〜3008-、相川、鬼ケ坂、唐木、
8080011,福岡県,北九州市若松区,響南町,フクオカケン,キタキュウシュウシワカマツク,キョウナンマチ,福岡県北九州市若松区響南町
8080012,福岡県,北九州市若松区,深町,フクオカケン,キタキュウシュウシワカマツク,フカマチ,福岡県北九州市若松区深町
8080013,福岡県,北九州市若松区,波打町,フクオカケン,キタキュウシュウシワカマツク,ナミウチマチ,福岡県北九州市若松区波打町
8080014,福岡県,北九州市若松区,栄盛川町,フクオカケン,キタキュウシュウシワカマツク,エイセイガワマチ,福岡県北九州市若松区栄盛川町
8080015,福岡県,北九州市若松区,上原町,フクオカケン,キタキュウシュウシワカマツク,カミハラマチ,福岡県北九州市若松区上原町
8080016,福岡県,北九州市若松区,原町,フクオカケン,キタキュウシュウシワカマツク,ハラマチ,福岡県北九州市若松区原町
8080017,福岡県,北九州市若松区,東小石町,フクオカケン,キタキュウシュウシワカマツク,ヒガシコイシマチ,福岡県北九州市若松区東小石町
8080021,福岡県,北九州市若松区,響町,フクオカケン,キタキュウシュウシワカマツク,ヒビキマチ,福岡県北九州市若松区響町
8080022,福岡県,北九州市若松区,安瀬,フクオカケン,キタキュウシュウシワカマツク,アンセ,福岡県北九州市若松区安瀬
8080023,福岡県,北九州市若松区,北浜,フクオカケン,キタキュウシュウシワカマツク,キタハマ,福岡県北九州市若松区北浜
8080024,福岡県,北九州市若松区,浜町,フクオカケン,キタキュウシュウシワカマツク,ハママチ,福岡県北九州市若松区浜町
8080025,福岡県,北九州市若松区,中川町,フクオカケン,キタキュウシュウシワカマツク,ナカガワマチ,福岡県北九州市若松区中川町
8080026,福岡県,北九州市若松区,桜町,フクオカケン,キタキュウシュウシワカマツク,サクラマチ,福岡県北九州市若松区桜町
8080027,福岡県,北九州市若松区,北湊町,フクオカケン,キタキュウシュウシワカマツク,キタミナトマチ,福岡県北九州市若松区北湊町
8080031,福岡県,北九州市若松区,西園町,フクオカケン,キタキュウシュウシワカマツク,ニシゾノマチ,福岡県北九州市若松区西園町
8080032,福岡県,北九州市若松区,老松,フクオカケン,キタキュウシュウシワカマツク,オイマツ,福岡県北九州市若松区老松
8080033,福岡県,北九州市若松区,大井戸町,フクオカケン,キタキュウシュウシワカマツク,オオイドマチ,福岡県北九州市若松区大井戸町
8080034,福岡県,北九州市若松区,本町,フクオカケン,キタキュウシュウシワカマツク,ホンマチ,福岡県北九州市若松区本町
8080035,福岡県,北九州市若松区,白山,フクオカケン,キタキュウシュウシワカマツク,ハクサン,福岡県北九州市若松区白山
8080036,福岡県,北九州市若松区,山手町,フクオカケン,キタキュウシュウシワカマツク,ヤマテマチ,福岡県北九州市若松区山手町
8080041,福岡県,北九州市若松区,迫田町,フクオカケン,キタキュウシュウシワカマツク,サコダマチ,福岡県北九州市若松区迫田町
8080042,福岡県,北九州市若松区,棚田町,フクオカケン,キタキュウシュウシワカマツク,タナダマチ,福岡県北九州市若松区棚田町
8080043,福岡県,北九州市若松区,西畑町,フクオカケン,キタキュウシュウシワカマツク,ニシハタマチ,福岡県北九州市若松区西畑町
8080044,福岡県,北九州市若松区,東畑町,フクオカケン,キタキュウシュウシワカマツク,ヒガシハタマチ,福岡県北九州市若松区東畑町
8080045,福岡県,北九州市若松区,山ノ堂町,フクオカケン,キタキュウシュウシワカマツク,ヤマノドウマチ,福岡県北九州市若松区山ノ堂町
8080046,福岡県,北九州市若松区,小糸町,フクオカケン,キタキュウシュウシワカマツク,コイトマチ,福岡県北九州市若松区小糸町
8080047,福岡県,北九州市若松区,中畑町,フクオカケン,キタキュウシュウシワカマツク,ナカハタマチ,福岡県北九州市若松区中畑町
8080051,福岡県,北九州市若松区,大谷町,フクオカケン,キタキュウシュウシワカマツク,オオタニマチ,福岡県北九州市若松区大谷町
8080052,福岡県,北九州市若松区,新大谷町,フクオカケン,キタキュウシュウシワカマツク,シンオオタニマチ,福岡県北九州市若松区新大谷町
8080053,福岡県,北九州市若松区,修多羅,フクオカケン,キタキュウシュウシワカマツク,スタラ,福岡県北九州市若松区修多羅
8080054,福岡県,北九州市若松区,久岐の浜,フクオカケン,キタキュウシュウシワカマツク,クキノハマ,福岡県北九州市若松区久岐の浜
8080055,福岡県,北九州市若松区,畑谷町,フクオカケン,キタキュウシュウシワカマツク,ハタダニマチ,福岡県北九州市若松区畑谷町
8080061,福岡県,北九州市若松区,大池町,フクオカケン,キタキュウシュウシワカマツク,オオイケマチ,福岡県北九州市若松区大池町
8080062,福岡県,北九州市若松区,古前,フクオカケン,キタキュウシュウシワカマツク,フルマエ,福岡県北九州市若松区古前
8080063,福岡県,北九州市若松区,和田町,フクオカケン,キタキュウシュウシワカマツク,ワダマチ,福岡県北九州市若松区和田町
8080064,福岡県,北九州市若松区,宮丸,フクオカケン,キタキュウシュウシワカマツク,ミヤマル,福岡県北九州市若松区宮丸
8080065,福岡県,北九州市若松区,藤木,フクオカケン,キタキュウシュウシワカマツク,フジノキ,福岡県北九州市若松区藤木
8080066,福岡県,北九州市若松区,くきのうみ中央,フクオカケン,キタキュウシュウシワカマツク,クキノウミチュウオウ,福岡県北九州市若松区くきのうみ中央
8080071,福岡県,北九州市若松区,今光,フクオカケン,キタキュウシュウシワカマツク,イマミツ,福岡県北九州市若松区今光
8080072,福岡県,北九州市若松区,百合野町,フクオカケン,キタキュウシュウシワカマツク,ユリノマチ,福岡県北九州市若松区百合野町
8080073,福岡県,北九州市若松区,赤島町,フクオカケン,キタキュウシュウシワカマツク,アカシママチ,福岡県北九州市若松区赤島町
8080074,福岡県,北九州市若松区,藤ノ木,フクオカケン,キタキュウシュウシワカマツク,フジノキ,福岡県北九州市若松区藤ノ木
8080075,福岡県,北九州市若松区,赤岩町（その他）,フクオカケン,キタキュウシュウシワカマツク,アカイワマチ(ソノタ),福岡県北九州市若松区赤岩町（その他）
8080076,福岡県,北九州市若松区,童子丸,フクオカケン,キタキュウシュウシワカマツク,ドウジマル,福岡県北九州市若松区童子丸
8080077,福岡県,北九州市若松区,用勺町,フクオカケン,キタキュウシュウシワカマツク,ヨウジャクマチ,福岡県北九州市若松区用勺町
8080101,福岡県,北九州市若松区,西天神町,フクオカケン,キタキュウシュウシワカマツク,ニシテンジンマチ,福岡県北九州市若松区西天神町
8080102,福岡県,北九州市若松区,東二島,フクオカケン,キタキュウシュウシワカマツク,ヒガシフタジマ,福岡県北九州市若松区東二島
8080103,福岡県,北九州市若松区,二島,フクオカケン,キタキュウシュウシワカマツク,フタジマ,福岡県北九州市若松区二島
8080104,福岡県,北九州市若松区,畠田,フクオカケン,キタキュウシュウシワカマツク,ハタケダ,福岡県北九州市若松区畠田
8080105,福岡県,北九州市若松区,鴨生田,フクオカケン,キタキュウシュウシワカマツク,カモオダ,福岡県北九州市若松区鴨生田
8080106,福岡県,北九州市若松区,片山,フクオカケン,キタキュウシュウシワカマツク,カタヤマ,福岡県北九州市若松区片山
8080108,福岡県,北九州市若松区,小竹（その他）,フクオカケン,キタキュウシュウシワカマツク,オダケ(ソノタ),福岡県北九州市若松区小竹（その他）
8080109,福岡県,北九州市若松区,南二島,フクオカケン,キタキュウシュウシワカマツク,ミナミフタジマ,福岡県北九州市若松区南二島
8080111,福岡県,北九州市若松区,柳崎町,フクオカケン,キタキュウシュウシワカマツク,ヤナガサキマチ,福岡県北九州市若松区柳崎町
8080112,福岡県,北九州市若松区,頓田,フクオカケン,キタキュウシュウシワカマツク,トンダ,福岡県北九州市若松区頓田
8080113,福岡県,北九州市若松区,払川,フクオカケン,キタキュウシュウシワカマツク,ハライガワ,福岡県北九州市若松区払川
8080121,福岡県,北九州市若松区,竹並,フクオカケン,キタキュウシュウシワカマツク,タケナミ,福岡県北九州市若松区竹並
8080122,福岡県,北九州市若松区,蜑住,フクオカケン,キタキュウシュウシワカマツク,アマスミ,福岡県北九州市若松区蜑住
8080123,福岡県,北九州市若松区,有毛,フクオカケン,キタキュウシュウシワカマツク,アリゲ,福岡県北九州市若松区有毛
8080124,福岡県,北九州市若松区,安屋,フクオカケン,キタキュウシュウシワカマツク,アンヤ,福岡県北九州市若松区安屋
8080131,福岡県,北九州市若松区,塩屋,フクオカケン,キタキュウシュウシワカマツク,シオヤ,福岡県北九州市若松区塩屋
8080132,福岡県,北九州市若松区,小敷,フクオカケン,キタキュウシュウシワカマツク,コシキ,福岡県北九州市若松区小敷
8080133,福岡県,北九州市若松区,大鳥居,フクオカケン,キタキュウシュウシワカマツク,オオトリイ,福岡県北九州市若松区大鳥居
8080134,福岡県,北九州市若松区,乙丸,フクオカケン,キタキュウシュウシワカマツク,オトマル,福岡県北九州市若松区乙丸
8080135,福岡県,北九州市若松区,ひびきの,フクオカケン,キタキュウシュウシワカマツク,ヒビキノ,福岡県北九州市若松区ひびきの
8080136,福岡県,北九州市若松区,花野路,フクオカケン,キタキュウシュウシワカマツク,ハナノジ,福岡県北九州市若松区花野路
8080137,福岡県,北九州市若松区,ひびきの南,フクオカケン,キタキュウシュウシワカマツク,ヒビキノミナミ,福岡県北九州市若松区ひびきの南
8080138,福岡県,北九州市若松区,ひびきの北,フクオカケン,キタキュウシュウシワカマツク,ヒビキノキタ,福岡県北九州市若松区ひびきの北
8080139,福岡県,北九州市若松区,小敷ひびきの,フクオカケン,キタキュウシュウシワカマツク,コシキヒビキノ,福岡県北九州市若松区小敷ひびきの
8080141,福岡県,北九州市若松区,青葉台東,フクオカケン,キタキュウシュウシワカマツク,アオバダイヒガシ,福岡県北九州市若松区青葉台東
8080142,福岡県,北九州市若松区,青葉台南,フクオカケン,キタキュウシュウシワカマツク,アオバダイミナミ,福岡県北九州市若松区青葉台南
8080143,福岡県,北九州市若松区,青葉台西,フクオカケン,キタキュウシュウシワカマツク,アオバダイニシ,福岡県北九州市若松区青葉台西
8080144,福岡県,北九州市若松区,高須東,フクオカケン,キタキュウシュウシワカマツク,タカスヒガシ,福岡県北九州市若松区高須東
8080145,福岡県,北九州市若松区,高須南,フクオカケン,キタキュウシュウシワカマツク,タカスミナミ,福岡県北九州市若松区高須南
8080146,福岡県,北九州市若松区,高須西,フクオカケン,キタキュウシュウシワカマツク,タカスニシ,福岡県北九州市若松区高須西
8080147,福岡県,北九州市若松区,高須北,フクオカケン,キタキュウシュウシワカマツク,タカスキタ,福岡県北九州市若松区高須北
8080148,福岡県,北九州市若松区,高須,フクオカケン,キタキュウシュウシワカマツク,タカス,福岡県北九州市若松区高須
8080175,福岡県,北九州市若松区,赤岩町（１０〜１２番地）,フクオカケン,キタキュウシュウシワカマツク,アカイワマチ(10-12バンチ),福岡県北九州市若松区赤岩町（10〜12-）
8090000,福岡県,中間市,,フクオカケン,ナカマシ,,福岡県中間市
8090001,福岡県,中間市,垣生,フクオカケン,ナカマシ,ハブ,福岡県中間市垣生
8090002,福岡県,中間市,中底井野,フクオカケン,ナカマシ,ナカソコイノ,福岡県中間市中底井野
8090003,福岡県,中間市,上底井野,フクオカケン,ナカマシ,カミソコイノ,福岡県中間市上底井野
8090004,福岡県,中間市,下大隈,フクオカケン,ナカマシ,シモオオクマ,福岡県中間市下大隈
8090011,福岡県,中間市,岩瀬,フクオカケン,ナカマシ,イワセ,福岡県中間市岩瀬
8090012,福岡県,中間市,下蓮花寺,フクオカケン,ナカマシ,シモレンゲジ,福岡県中間市下蓮花寺
8090013,福岡県,中間市,上蓮花寺,フクオカケン,ナカマシ,カミレンゲジ,福岡県中間市上蓮花寺
8090014,福岡県,中間市,蓮花寺,フクオカケン,ナカマシ,レンゲジ,福岡県中間市蓮花寺
8090015,福岡県,中間市,太賀,フクオカケン,ナカマシ,タガ,福岡県中間市太賀
8090016,福岡県,中間市,星ケ丘,フクオカケン,ナカマシ,ホシガオカ,福岡県中間市星ケ丘
8090017,福岡県,中間市,桜台,フクオカケン,ナカマシ,サクラダイ,福岡県中間市桜台
8090018,福岡県,中間市,通谷,フクオカケン,ナカマシ,トオリタニ,福岡県中間市通谷
8090019,福岡県,中間市,東中間,フクオカケン,ナカマシ,ヒガシナカマ,福岡県中間市東中間
8090021,福岡県,中間市,朝霧,フクオカケン,ナカマシ,アサギリ,福岡県中間市朝霧
8090022,福岡県,中間市,鍋山町,フクオカケン,ナカマシ,ナベヤママチ,福岡県中間市鍋山町
8090023,福岡県,中間市,扇ケ浦,フクオカケン,ナカマシ,オウギガウラ,福岡県中間市扇ケ浦
8090024,福岡県,中間市,池田,フクオカケン,ナカマシ,イケダ,福岡県中間市池田
8090025,福岡県,中間市,深坂,フクオカケン,ナカマシ,フカサカ,福岡県中間市深坂
8090026,福岡県,中間市,大辻町,フクオカケン,ナカマシ,オオツジマチ,福岡県中間市大辻町
8090027,福岡県,中間市,七重町,フクオカケン,ナカマシ,ナナエマチ,福岡県中間市七重町
8090028,福岡県,中間市,弥生,フクオカケン,ナカマシ,ヤヨイ,福岡県中間市弥生
8090030,福岡県,中間市,中央,フクオカケン,ナカマシ,チュウオウ,福岡県中間市中央
8090031,福岡県,中間市,小田ケ浦,フクオカケン,ナカマシ,オダガウラ,福岡県中間市小田ケ浦
8090032,福岡県,中間市,中尾,フクオカケン,ナカマシ,ナカオ,福岡県中間市中尾
8090033,福岡県,中間市,土手ノ内,フクオカケン,ナカマシ,ドテノウチ,福岡県中間市土手ノ内
8090034,福岡県,中間市,中間,フクオカケン,ナカマシ,ナカマ,福岡県中間市中間
8090035,福岡県,中間市,松ケ岡,フクオカケン,ナカマシ,マツガオカ,福岡県中間市松ケ岡
8090036,福岡県,中間市,長津,フクオカケン,ナカマシ,ナガツ,福岡県中間市長津
8090037,福岡県,中間市,中鶴,フクオカケン,ナカマシ,ナカヅル,福岡県中間市中鶴
8090038,福岡県,中間市,浄花町,フクオカケン,ナカマシ,ジョウカマチ,福岡県中間市浄花町
8090039,福岡県,中間市,大根土,フクオカケン,ナカマシ,オオネト,福岡県中間市大根土
8090041,福岡県,中間市,岩瀬西町,フクオカケン,ナカマシ,イワセニシマチ,福岡県中間市岩瀬西町
8100000,福岡県,福岡市中央区,,フクオカケン,フクオカシチュウオウク,,福岡県福岡市中央区
8100001,福岡県,福岡市中央区,天神,フクオカケン,フクオカシチュウオウク,テンジン,福岡県福岡市中央区天神
8100002,福岡県,福岡市中央区,西中洲,フクオカケン,フクオカシチュウオウク,ニシナカス,福岡県福岡市中央区西中洲
8100003,福岡県,福岡市中央区,春吉,フクオカケン,フクオカシチュウオウク,ハルヨシ,福岡県福岡市中央区春吉
8100004,福岡県,福岡市中央区,渡辺通,フクオカケン,フクオカシチュウオウク,ワタナベドオリ,福岡県福岡市中央区渡辺通
8100005,福岡県,福岡市中央区,清川,フクオカケン,フクオカシチュウオウク,キヨカワ,福岡県福岡市中央区清川
8100011,福岡県,福岡市中央区,高砂,フクオカケン,フクオカシチュウオウク,タカサゴ,福岡県福岡市中央区高砂
8100012,福岡県,福岡市中央区,白金,フクオカケン,フクオカシチュウオウク,シロガネ,福岡県福岡市中央区白金
8100013,福岡県,福岡市中央区,大宮,フクオカケン,フクオカシチュウオウク,オオミヤ,福岡県福岡市中央区大宮
8100014,福岡県,福岡市中央区,平尾,フクオカケン,フクオカシチュウオウク,ヒラオ,福岡県福岡市中央区平尾
8100015,福岡県,福岡市中央区,那の川,フクオカケン,フクオカシチュウオウク,ナノカワ,福岡県福岡市中央区那の川
8100016,福岡県,福岡市中央区,平和,フクオカケン,フクオカシチュウオウク,ヘイワ,福岡県福岡市中央区平和
8100017,福岡県,福岡市中央区,平丘町,フクオカケン,フクオカシチュウオウク,ヒラオカマチ,福岡県福岡市中央区平丘町
8100018,福岡県,福岡市中央区,山荘通,フクオカケン,フクオカシチュウオウク,サンソウドオリ,福岡県福岡市中央区山荘通
8100021,福岡県,福岡市中央区,今泉,フクオカケン,フクオカシチュウオウク,イマイズミ,福岡県福岡市中央区今泉
8100022,福岡県,福岡市中央区,薬院,フクオカケン,フクオカシチュウオウク,ヤクイン,福岡県福岡市中央区薬院
8100023,福岡県,福岡市中央区,警固,フクオカケン,フクオカシチュウオウク,ケゴ,福岡県福岡市中央区警固
8100024,福岡県,福岡市中央区,桜坂,フクオカケン,フクオカシチュウオウク,サクラザカ,福岡県福岡市中央区桜坂
8100025,福岡県,福岡市中央区,薬院伊福町,フクオカケン,フクオカシチュウオウク,ヤクインイフクマチ,福岡県福岡市中央区薬院伊福町
8100026,福岡県,福岡市中央区,古小烏町,フクオカケン,フクオカシチュウオウク,フルコガラスマチ,福岡県福岡市中央区古小烏町
8100027,福岡県,福岡市中央区,御所ケ谷,フクオカケン,フクオカシチュウオウク,ゴショガダニ,福岡県福岡市中央区御所ケ谷
8100028,福岡県,福岡市中央区,浄水通,フクオカケン,フクオカシチュウオウク,ジョウスイドオリ,福岡県福岡市中央区浄水通
8100029,福岡県,福岡市中央区,平尾浄水町,フクオカケン,フクオカシチュウオウク,ヒラオジョウスイマチ,福岡県福岡市中央区平尾浄水町
8100031,福岡県,福岡市中央区,谷,フクオカケン,フクオカシチュウオウク,タニ,福岡県福岡市中央区谷
8100032,福岡県,福岡市中央区,輝国,フクオカケン,フクオカシチュウオウク,テルクニ,福岡県福岡市中央区輝国
8100033,福岡県,福岡市中央区,小笹,フクオカケン,フクオカシチュウオウク,オザサ,福岡県福岡市中央区小笹
8100034,福岡県,福岡市中央区,笹丘,フクオカケン,フクオカシチュウオウク,ササオカ,福岡県福岡市中央区笹丘
8100035,福岡県,福岡市中央区,梅光園,フクオカケン,フクオカシチュウオウク,バイコウエン,福岡県福岡市中央区梅光園
8100036,福岡県,福岡市中央区,梅光園団地,フクオカケン,フクオカシチュウオウク,バイコウエンダンチ,福岡県福岡市中央区梅光園団地
8100037,福岡県,福岡市中央区,南公園,フクオカケン,フクオカシチュウオウク,ミナミコウエン,福岡県福岡市中央区南公園
8100041,福岡県,福岡市中央区,大名,フクオカケン,フクオカシチュウオウク,ダイミョウ,福岡県福岡市中央区大名
8100042,福岡県,福岡市中央区,赤坂,フクオカケン,フクオカシチュウオウク,アカサカ,福岡県福岡市中央区赤坂
8100043,福岡県,福岡市中央区,城内,フクオカケン,フクオカシチュウオウク,ジョウナイ,福岡県福岡市中央区城内
8100044,福岡県,福岡市中央区,六本松,フクオカケン,フクオカシチュウオウク,ロッポンマツ,福岡県福岡市中央区六本松
8100045,福岡県,福岡市中央区,草香江,フクオカケン,フクオカシチュウオウク,クサガエ,福岡県福岡市中央区草香江
8100051,福岡県,福岡市中央区,大濠公園,フクオカケン,フクオカシチュウオウク,オオホリコウエン,福岡県福岡市中央区大濠公園
8100052,福岡県,福岡市中央区,大濠,フクオカケン,フクオカシチュウオウク,オオホリ,福岡県福岡市中央区大濠
8100053,福岡県,福岡市中央区,鳥飼,フクオカケン,フクオカシチュウオウク,トリカイ,福岡県福岡市中央区鳥飼
8100054,福岡県,福岡市中央区,今川,フクオカケン,フクオカシチュウオウク,イマガワ,福岡県福岡市中央区今川
8100055,福岡県,福岡市中央区,黒門,フクオカケン,フクオカシチュウオウク,クロモン,福岡県福岡市中央区黒門
8100061,福岡県,福岡市中央区,西公園,フクオカケン,フクオカシチュウオウク,ニシコウエン,福岡県福岡市中央区西公園
8100062,福岡県,福岡市中央区,荒戸,フクオカケン,フクオカシチュウオウク,アラト,福岡県福岡市中央区荒戸
8100063,福岡県,福岡市中央区,唐人町,フクオカケン,フクオカシチュウオウク,トウジンマチ,福岡県福岡市中央区唐人町
8100064,福岡県,福岡市中央区,地行,フクオカケン,フクオカシチュウオウク,ジギョウ,福岡県福岡市中央区地行
8100065,福岡県,福岡市中央区,地行浜,フクオカケン,フクオカシチュウオウク,ジギョウハマ,福岡県福岡市中央区地行浜
8100066,福岡県,福岡市中央区,福浜,フクオカケン,フクオカシチュウオウク,フクハマ,福岡県福岡市中央区福浜
8100067,福岡県,福岡市中央区,伊崎,フクオカケン,フクオカシチュウオウク,イザキ,福岡県福岡市中央区伊崎
8100071,福岡県,福岡市中央区,那の津,フクオカケン,フクオカシチュウオウク,ナノツ,福岡県福岡市中央区那の津
8100072,福岡県,福岡市中央区,長浜,フクオカケン,フクオカシチュウオウク,ナガハマ,福岡県福岡市中央区長浜
8100073,福岡県,福岡市中央区,舞鶴,フクオカケン,フクオカシチュウオウク,マイヅル,福岡県福岡市中央区舞鶴
8100074,福岡県,福岡市中央区,大手門,フクオカケン,フクオカシチュウオウク,オオテモン,福岡県福岡市中央区大手門
8100075,福岡県,福岡市中央区,港,フクオカケン,フクオカシチュウオウク,ミナト,福岡県福岡市中央区港
8100076,福岡県,福岡市中央区,荒津,フクオカケン,フクオカシチュウオウク,アラツ,福岡県福岡市中央区荒津
8100801,福岡県,福岡市博多区,中洲,フクオカケン,フクオカシハカタク,ナカス,福岡県福岡市博多区中洲
8100802,福岡県,福岡市博多区,中洲中島町,フクオカケン,フクオカシハカタク,ナカスナカシママチ,福岡県福岡市博多区中洲中島町
8110100,福岡県,糟屋郡新宮町,,フクオカケン,カスヤグンシングウマチ,,福岡県糟屋郡新宮町
8110101,福岡県,糟屋郡新宮町,原上,フクオカケン,カスヤグンシングウマチ,ハルガミ,福岡県糟屋郡新宮町原上
8110102,福岡県,糟屋郡新宮町,立花口,フクオカケン,カスヤグンシングウマチ,タチバナグチ,福岡県糟屋郡新宮町立花口
8110103,福岡県,糟屋郡新宮町,花立花,フクオカケン,カスヤグンシングウマチ,ハナタチバナ,福岡県糟屋郡新宮町花立花
8110104,福岡県,糟屋郡新宮町,的野,フクオカケン,カスヤグンシングウマチ,マトノ,福岡県糟屋郡新宮町的野
8110110,福岡県,糟屋郡新宮町,夜臼,フクオカケン,カスヤグンシングウマチ,ユウス,福岡県糟屋郡新宮町夜臼
8110111,福岡県,糟屋郡新宮町,三代,フクオカケン,カスヤグンシングウマチ,ミシロ,福岡県糟屋郡新宮町三代
8110112,福岡県,糟屋郡新宮町,下府,フクオカケン,カスヤグンシングウマチ,シモノフ,福岡県糟屋郡新宮町下府
8110113,福岡県,糟屋郡新宮町,桜山手,フクオカケン,カスヤグンシングウマチ,サクラヤマテ,福岡県糟屋郡新宮町桜山手
8110114,福岡県,糟屋郡新宮町,湊坂,フクオカケン,カスヤグンシングウマチ,ミナトザカ,福岡県糟屋郡新宮町湊坂
8110115,福岡県,糟屋郡新宮町,新宮,フクオカケン,カスヤグンシングウマチ,シングウ,福岡県糟屋郡新宮町新宮
8110116,福岡県,糟屋郡新宮町,湊,フクオカケン,カスヤグンシングウマチ,ミナト,福岡県糟屋郡新宮町湊
8110117,福岡県,糟屋郡新宮町,上府,フクオカケン,カスヤグンシングウマチ,カミノフ,福岡県糟屋郡新宮町上府
8110118,福岡県,糟屋郡新宮町,相島,フクオカケン,カスヤグンシングウマチ,アイノシマ,福岡県糟屋郡新宮町相島
8110119,福岡県,糟屋郡新宮町,緑ケ浜,フクオカケン,カスヤグンシングウマチ,ミドリガハマ,福岡県糟屋郡新宮町緑ケ浜
8110120,福岡県,糟屋郡新宮町,中央駅前,フクオカケン,カスヤグンシングウマチ,チュウオウエキマエ,福岡県糟屋郡新宮町中央駅前
8110121,福岡県,糟屋郡新宮町,美咲,フクオカケン,カスヤグンシングウマチ,ミサキ,福岡県糟屋郡新宮町美咲
8110122,福岡県,糟屋郡新宮町,杜の宮,フクオカケン,カスヤグンシングウマチ,モリノミヤ,福岡県糟屋郡新宮町杜の宮
8110123,福岡県,糟屋郡新宮町,上府北,フクオカケン,カスヤグンシングウマチ,カミノフキタ,福岡県糟屋郡新宮町上府北
8110124,福岡県,糟屋郡新宮町,新宮東,フクオカケン,カスヤグンシングウマチ,シングウヒガシ,福岡県糟屋郡新宮町新宮東
8110125,福岡県,糟屋郡新宮町,三代西,フクオカケン,カスヤグンシングウマチ,ミシロニシ,福岡県糟屋郡新宮町三代西
8110201,福岡県,福岡市東区,三苫,フクオカケン,フクオカシヒガシク,ミトマ,福岡県福岡市東区三苫
8110202,福岡県,福岡市東区,和白,フクオカケン,フクオカシヒガシク,ワジロ,福岡県福岡市東区和白
8110203,福岡県,福岡市東区,塩浜,フクオカケン,フクオカシヒガシク,シオハマ,福岡県福岡市東区塩浜
8110204,福岡県,福岡市東区,奈多,フクオカケン,フクオカシヒガシク,ナタ,福岡県福岡市東区奈多
8110205,福岡県,福岡市東区,奈多団地,フクオカケン,フクオカシヒガシク,ナタダンチ,福岡県福岡市東区奈多団地
8110206,福岡県,福岡市東区,雁の巣,フクオカケン,フクオカシヒガシク,ガンノス,福岡県福岡市東区雁の巣
8110211,福岡県,福岡市東区,美和台新町,フクオカケン,フクオカシヒガシク,ミワダイシンマチ,福岡県福岡市東区美和台新町
8110212,福岡県,福岡市東区,美和台,フクオカケン,フクオカシヒガシク,ミワダイ,福岡県福岡市東区美和台
8110213,福岡県,福岡市東区,和白丘,フクオカケン,フクオカシヒガシク,ワジロガオカ,福岡県福岡市東区和白丘
8110214,福岡県,福岡市東区,和白東,フクオカケン,フクオカシヒガシク,ワジロヒガシ,福岡県福岡市東区和白東
8110215,福岡県,福岡市東区,高美台,フクオカケン,フクオカシヒガシク,タカミダイ,福岡県福岡市東区高美台
8110216,福岡県,福岡市東区,上和白,フクオカケン,フクオカシヒガシク,カミワジロ,福岡県福岡市東区上和白
8110321,福岡県,福岡市東区,西戸崎,フクオカケン,フクオカシヒガシク,サイトザキ,福岡県福岡市東区西戸崎
8110322,福岡県,福岡市東区,大岳,フクオカケン,フクオカシヒガシク,オオタケ,福岡県福岡市東区大岳
8110323,福岡県,福岡市東区,志賀島,フクオカケン,フクオカシヒガシク,シカシマ,福岡県福岡市東区志賀島
8110324,福岡県,福岡市東区,弘,フクオカケン,フクオカシヒガシク,ヒロ,福岡県福岡市東区弘
8110325,福岡県,福岡市東区,勝馬,フクオカケン,フクオカシヒガシク,カツマ,福岡県福岡市東区勝馬
8111101,福岡県,福岡市早良区,重留,フクオカケン,フクオカシサワラク,シゲドメ,福岡県福岡市早良区重留
8111102,福岡県,福岡市早良区,東入部,フクオカケン,フクオカシサワラク,ヒガシイルベ,福岡県福岡市早良区東入部
8111103,福岡県,福岡市早良区,四箇,フクオカケン,フクオカシサワラク,シカ,福岡県福岡市早良区四箇
8111111,福岡県,福岡市早良区,脇山,フクオカケン,フクオカシサワラク,ワキヤマ,福岡県福岡市早良区脇山
8111112,福岡県,福岡市早良区,小笠木,フクオカケン,フクオカシサワラク,オカサギ,福岡県福岡市早良区小笠木
8111113,福岡県,福岡市早良区,板屋,フクオカケン,フクオカシサワラク,イタヤ,福岡県福岡市早良区板屋
8111114,福岡県,福岡市早良区,椎原,フクオカケン,フクオカシサワラク,シイバ,福岡県福岡市早良区椎原
8111121,福岡県,福岡市早良区,西入部,フクオカケン,フクオカシサワラク,ニシイルベ,福岡県福岡市早良区西入部
8111122,福岡県,福岡市早良区,早良,フクオカケン,フクオカシサワラク,サワラ,福岡県福岡市早良区早良
8111123,福岡県,福岡市早良区,内野,フクオカケン,フクオカシサワラク,ウチノ,福岡県福岡市早良区内野
8111124,福岡県,福岡市早良区,金武,フクオカケン,フクオカシサワラク,カナタケ,福岡県福岡市早良区金武
8111131,福岡県,福岡市早良区,西,フクオカケン,フクオカシサワラク,ニシ,福岡県福岡市早良区西
8111132,福岡県,福岡市早良区,石釜,フクオカケン,フクオカシサワラク,イシガマ,福岡県福岡市早良区石釜
8111133,福岡県,福岡市早良区,曲渕,フクオカケン,フクオカシサワラク,マガリブチ,福岡県福岡市早良区曲渕
8111134,福岡県,福岡市早良区,飯場,フクオカケン,フクオカシサワラク,イイバ,福岡県福岡市早良区飯場
8111200,福岡県,那珂川市,,フクオカケン,ナカガワシ,,福岡県那珂川市
8111201,福岡県,那珂川市,片縄,フクオカケン,ナカガワシ,カタナワ,福岡県那珂川市片縄
8111202,福岡県,那珂川市,片縄西,フクオカケン,ナカガワシ,カタナワニシ,福岡県那珂川市片縄西
8111203,福岡県,那珂川市,片縄北,フクオカケン,ナカガワシ,カタナワキタ,福岡県那珂川市片縄北
8111204,福岡県,那珂川市,片縄東,フクオカケン,ナカガワシ,カタナワヒガシ,福岡県那珂川市片縄東
8111211,福岡県,那珂川市,今光,フクオカケン,ナカガワシ,イマミツ,福岡県那珂川市今光
8111213,福岡県,那珂川市,中原,フクオカケン,ナカガワシ,ナカバル,福岡県那珂川市中原
8111214,福岡県,那珂川市,中原東,フクオカケン,ナカガワシ,ナカバルヒガシ,福岡県那珂川市中原東
8111215,福岡県,那珂川市,松原,フクオカケン,ナカガワシ,マツバル,福岡県那珂川市松原
8111216,福岡県,那珂川市,観晴が丘,フクオカケン,ナカガワシ,ミハルガオカ,福岡県那珂川市観晴が丘
8111221,福岡県,那珂川市,王塚台,フクオカケン,ナカガワシ,オウツカダイ,福岡県那珂川市王塚台
8111222,福岡県,那珂川市,下梶原,フクオカケン,ナカガワシ,シモカジワラ,福岡県那珂川市下梶原
8111223,福岡県,那珂川市,上梶原,フクオカケン,ナカガワシ,カミカジワラ,福岡県那珂川市上梶原
8111224,福岡県,那珂川市,安徳,フクオカケン,ナカガワシ,アントク,福岡県那珂川市安徳
8111231,福岡県,那珂川市,不入道,フクオカケン,ナカガワシ,フニュウドウ,福岡県那珂川市不入道
8111232,福岡県,那珂川市,埋金,フクオカケン,ナカガワシ,ウメガネ,福岡県那珂川市埋金
8111233,福岡県,那珂川市,市ノ瀬,フクオカケン,ナカガワシ,イチノセ,福岡県那珂川市市ノ瀬
8111234,福岡県,那珂川市,五ケ山,フクオカケン,ナカガワシ,ゴカヤマ,福岡県那珂川市五ケ山
8111235,福岡県,那珂川市,成竹,フクオカケン,ナカガワシ,ナルタケ,福岡県那珂川市成竹
8111236,福岡県,那珂川市,南面里,フクオカケン,ナカガワシ,ナメリ,福岡県那珂川市南面里
8111241,福岡県,那珂川市,後野,フクオカケン,ナカガワシ,ウシロノ,福岡県那珂川市後野
8111242,福岡県,那珂川市,西隈,フクオカケン,ナカガワシ,ニシグマ,福岡県那珂川市西隈
8111243,福岡県,那珂川市,東隈,フクオカケン,ナカガワシ,ヒガシグマ,福岡県那珂川市東隈
8111244,福岡県,那珂川市,山田,フクオカケン,ナカガワシ,ヤマダ,福岡県那珂川市山田
8111245,福岡県,那珂川市,別所,フクオカケン,ナカガワシ,ベッショ,福岡県那珂川市別所
8111246,福岡県,那珂川市,西畑,フクオカケン,ナカガワシ,ニシハタ,福岡県那珂川市西畑
8111251,福岡県,那珂川市,松木,フクオカケン,ナカガワシ,マツノキ,福岡県那珂川市松木
8111252,福岡県,那珂川市,五郎丸,フクオカケン,ナカガワシ,ゴロウマル,福岡県那珂川市五郎丸
8111253,福岡県,那珂川市,仲,フクオカケン,ナカガワシ,チュウ,福岡県那珂川市仲
8111254,福岡県,那珂川市,道善,フクオカケン,ナカガワシ,ドウゼン,福岡県那珂川市道善
8111255,福岡県,那珂川市,恵子,フクオカケン,ナカガワシ,エコ,福岡県那珂川市恵子
8111256,福岡県,那珂川市,仲丸,フクオカケン,ナカガワシ,チュウマル,福岡県那珂川市仲丸
8111302,福岡県,福岡市南区,井尻,フクオカケン,フクオカシミナミク,イジリ,福岡県福岡市南区井尻
8111303,福岡県,福岡市南区,折立町,フクオカケン,フクオカシミナミク,オリタテマチ,福岡県福岡市南区折立町
8111311,福岡県,福岡市南区,横手,フクオカケン,フクオカシミナミク,ヨコテ,福岡県福岡市南区横手
8111312,福岡県,福岡市南区,横手南町,フクオカケン,フクオカシミナミク,ヨコテミナミマチ,福岡県福岡市南区横手南町
8111313,福岡県,福岡市南区,曰佐,フクオカケン,フクオカシミナミク,オサ,福岡県福岡市南区曰佐
8111314,福岡県,福岡市南区,的場,フクオカケン,フクオカシミナミク,マトバ,福岡県福岡市南区的場
8111321,福岡県,福岡市南区,柳瀬,フクオカケン,フクオカシミナミク,ヤナセ,福岡県福岡市南区柳瀬
8111322,福岡県,福岡市南区,弥永団地,フクオカケン,フクオカシミナミク,ヤナガダンチ,福岡県福岡市南区弥永団地
8111323,福岡県,福岡市南区,弥永,フクオカケン,フクオカシミナミク,ヤナガ,福岡県福岡市南区弥永
8111324,福岡県,福岡市南区,警弥郷,フクオカケン,フクオカシミナミク,ケヤゴウ,福岡県福岡市南区警弥郷
8111343,福岡県,福岡市南区,和田,フクオカケン,フクオカシミナミク,ワダ,福岡県福岡市南区和田
8111344,福岡県,福岡市南区,三宅,フクオカケン,フクオカシミナミク,ミヤケ,福岡県福岡市南区三宅
8111345,福岡県,福岡市南区,向新町,フクオカケン,フクオカシミナミク,ムカイシンマチ,福岡県福岡市南区向新町
8111346,福岡県,福岡市南区,老司,フクオカケン,フクオカシミナミク,ロウジ,福岡県福岡市南区老司
8111347,福岡県,福岡市南区,野多目,フクオカケン,フクオカシミナミク,ノタメ,福岡県福岡市南区野多目
8111351,福岡県,福岡市南区,屋形原,フクオカケン,フクオカシミナミク,ヤカタバル,福岡県福岡市南区屋形原
8111352,福岡県,福岡市南区,鶴田,フクオカケン,フクオカシミナミク,ツルタ,福岡県福岡市南区鶴田
8111353,福岡県,福岡市南区,柏原,フクオカケン,フクオカシミナミク,カシワラ,福岡県福岡市南区柏原
8111354,福岡県,福岡市南区,大平寺,フクオカケン,フクオカシミナミク,タイヘイジ,福岡県福岡市南区大平寺
8111355,福岡県,福岡市南区,桧原,フクオカケン,フクオカシミナミク,ヒバル,福岡県福岡市南区桧原
8111356,福岡県,福岡市南区,花畑,フクオカケン,フクオカシミナミク,ハナハタ,福岡県福岡市南区花畑
8111361,福岡県,福岡市南区,西長住,フクオカケン,フクオカシミナミク,ニシナガズミ,福岡県福岡市南区西長住
8111362,福岡県,福岡市南区,長住,フクオカケン,フクオカシミナミク,ナガズミ,福岡県福岡市南区長住
8111364,福岡県,福岡市南区,中尾,フクオカケン,フクオカシミナミク,ナカオ,福岡県福岡市南区中尾
8111365,福岡県,福岡市南区,皿山,フクオカケン,フクオカシミナミク,サラヤマ,福岡県福岡市南区皿山
8112100,福岡県,糟屋郡宇美町,,フクオカケン,カスヤグンウミマチ,,福岡県糟屋郡宇美町
8112100,福岡県,糟屋郡須惠町,,フクオカケン,カスヤグンスエマチ,,福岡県糟屋郡須惠町
8112101,福岡県,糟屋郡宇美町,宇美,フクオカケン,カスヤグンウミマチ,ウミ,福岡県糟屋郡宇美町宇美
8112102,福岡県,糟屋郡宇美町,炭焼,フクオカケン,カスヤグンウミマチ,スミヤキ,福岡県糟屋郡宇美町炭焼
8112103,福岡県,糟屋郡宇美町,四王寺坂,フクオカケン,カスヤグンウミマチ,シオウジザカ,福岡県糟屋郡宇美町四王寺坂
8112104,福岡県,糟屋郡宇美町,井野,フクオカケン,カスヤグンウミマチ,イノ,福岡県糟屋郡宇美町井野
8112105,福岡県,糟屋郡宇美町,四王寺,フクオカケン,カスヤグンウミマチ,シオウジ,福岡県糟屋郡宇美町四王寺
8112106,福岡県,糟屋郡宇美町,ひばりが丘,フクオカケン,カスヤグンウミマチ,ヒバリガオカ,福岡県糟屋郡宇美町ひばりが丘
8112107,福岡県,糟屋郡宇美町,とびたけ,フクオカケン,カスヤグンウミマチ,トビタケ,福岡県糟屋郡宇美町とびたけ
8112108,福岡県,糟屋郡宇美町,ゆりが丘,フクオカケン,カスヤグンウミマチ,ユリガオカ,福岡県糟屋郡宇美町ゆりが丘
8112109,福岡県,糟屋郡宇美町,桜原,フクオカケン,カスヤグンウミマチ,サクラバル,福岡県糟屋郡宇美町桜原
8112111,福岡県,糟屋郡須惠町,新原,フクオカケン,カスヤグンスエマチ,シンバル,福岡県糟屋郡須惠町新原
8112112,福岡県,糟屋郡須惠町,植木,フクオカケン,カスヤグンスエマチ,ウエキ,福岡県糟屋郡須惠町植木
8112113,福岡県,糟屋郡須惠町,須惠,フクオカケン,カスヤグンスエマチ,スエ,福岡県糟屋郡須惠町須惠
8112114,福岡県,糟屋郡須惠町,上須惠,フクオカケン,カスヤグンスエマチ,カミスエ,福岡県糟屋郡須惠町上須惠
8112115,福岡県,糟屋郡須惠町,佐谷,フクオカケン,カスヤグンスエマチ,サタニ,福岡県糟屋郡須惠町佐谷
8112121,福岡県,糟屋郡宇美町,平和,フクオカケン,カスヤグンウミマチ,ヘイワ,福岡県糟屋郡宇美町平和
8112122,福岡県,糟屋郡宇美町,明神坂,フクオカケン,カスヤグンウミマチ,ミョウジンザカ,福岡県糟屋郡宇美町明神坂
8112123,福岡県,糟屋郡宇美町,光正寺,フクオカケン,カスヤグンウミマチ,コウショウジ,福岡県糟屋郡宇美町光正寺
8112124,福岡県,糟屋郡宇美町,若草,フクオカケン,カスヤグンウミマチ,ワカクサ,福岡県糟屋郡宇美町若草
8112125,福岡県,糟屋郡宇美町,宇美東,フクオカケン,カスヤグンウミマチ,ウミヒガシ,福岡県糟屋郡宇美町宇美東
8112126,福岡県,糟屋郡宇美町,障子岳南,フクオカケン,カスヤグンウミマチ,ショウジダケミナミ,福岡県糟屋郡宇美町障子岳南
8112127,福岡県,糟屋郡宇美町,障子岳,フクオカケン,カスヤグンウミマチ,ショウジダケ,福岡県糟屋郡宇美町障子岳
8112128,福岡県,糟屋郡宇美町,宇美中央,フクオカケン,カスヤグンウミマチ,ウミチュウオウ,福岡県糟屋郡宇美町宇美中央
8112129,福岡県,糟屋郡宇美町,神武原,フクオカケン,カスヤグンウミマチ,ジンムバル,福岡県糟屋郡宇美町神武原
8112131,福岡県,糟屋郡宇美町,貴船,フクオカケン,カスヤグンウミマチ,キフネ,福岡県糟屋郡宇美町貴船
8112132,福岡県,糟屋郡宇美町,原田,フクオカケン,カスヤグンウミマチ,ハルダ,福岡県糟屋郡宇美町原田
8112200,福岡県,糟屋郡志免町,,フクオカケン,カスヤグンシメマチ,,福岡県糟屋郡志免町
8112201,福岡県,糟屋郡志免町,桜丘,フクオカケン,カスヤグンシメマチ,サクラガオカ,福岡県糟屋郡志免町桜丘
8112202,福岡県,糟屋郡志免町,志免,フクオカケン,カスヤグンシメマチ,シメ,福岡県糟屋郡志免町志免
8112203,福岡県,糟屋郡志免町,石橋台,フクオカケン,カスヤグンシメマチ,イシバシダイ,福岡県糟屋郡志免町石橋台
8112204,福岡県,糟屋郡志免町,田富,フクオカケン,カスヤグンシメマチ,タドミ,福岡県糟屋郡志免町田富
8112205,福岡県,糟屋郡志免町,別府,フクオカケン,カスヤグンシメマチ,ベフ,福岡県糟屋郡志免町別府
8112206,福岡県,糟屋郡志免町,御手洗,フクオカケン,カスヤグンシメマチ,ミタライ,福岡県糟屋郡志免町御手洗
8112207,福岡県,糟屋郡志免町,南里,フクオカケン,カスヤグンシメマチ,ミナミザト,福岡県糟屋郡志免町南里
8112208,福岡県,糟屋郡志免町,吉原,フクオカケン,カスヤグンシメマチ,ヨシハラ,福岡県糟屋郡志免町吉原
8112209,福岡県,糟屋郡志免町,王子,フクオカケン,カスヤグンシメマチ,オウジ,福岡県糟屋郡志免町王子
8112221,福岡県,糟屋郡須惠町,旅石,フクオカケン,カスヤグンスエマチ,タビイシ,福岡県糟屋郡須惠町旅石
8112231,福岡県,糟屋郡志免町,別府東,フクオカケン,カスヤグンシメマチ,ベフヒガシ,福岡県糟屋郡志免町別府東
8112232,福岡県,糟屋郡志免町,別府西,フクオカケン,カスヤグンシメマチ,ベフニシ,福岡県糟屋郡志免町別府西
8112233,福岡県,糟屋郡志免町,別府北,フクオカケン,カスヤグンシメマチ,ベフキタ,福岡県糟屋郡志免町別府北
8112241,福岡県,糟屋郡志免町,東公園台,フクオカケン,カスヤグンシメマチ,ヒガシコウエンダイ,福岡県糟屋郡志免町東公園台
8112242,福岡県,糟屋郡志免町,松ケ丘,フクオカケン,カスヤグンシメマチ,マツガオカ,福岡県糟屋郡志免町松ケ丘
8112243,福岡県,糟屋郡志免町,志免東,フクオカケン,カスヤグンシメマチ,シメヒガシ,福岡県糟屋郡志免町志免東
8112244,福岡県,糟屋郡志免町,志免中央,フクオカケン,カスヤグンシメマチ,シメチュウオウ,福岡県糟屋郡志免町志免中央
8112245,福岡県,糟屋郡志免町,片峰,フクオカケン,カスヤグンシメマチ,カタミネ,福岡県糟屋郡志免町片峰
8112246,福岡県,糟屋郡志免町,片峰中央,フクオカケン,カスヤグンシメマチ,カタミネチュウオウ,福岡県糟屋郡志免町片峰中央
8112247,福岡県,糟屋郡志免町,向ケ丘,フクオカケン,カスヤグンシメマチ,ムカイガオカ,福岡県糟屋郡志免町向ケ丘
8112248,福岡県,糟屋郡志免町,坂瀬,フクオカケン,カスヤグンシメマチ,サカセ,福岡県糟屋郡志免町坂瀬
8112300,福岡県,糟屋郡粕屋町,,フクオカケン,カスヤグンカスヤマチ,,福岡県糟屋郡粕屋町
8112301,福岡県,糟屋郡粕屋町,上大隈,フクオカケン,カスヤグンカスヤマチ,カミオオクマ,福岡県糟屋郡粕屋町上大隈
8112302,福岡県,糟屋郡粕屋町,大隈,フクオカケン,カスヤグンカスヤマチ,オオクマ,福岡県糟屋郡粕屋町大隈
8112303,福岡県,糟屋郡粕屋町,酒殿,フクオカケン,カスヤグンカスヤマチ,サカド,福岡県糟屋郡粕屋町酒殿
8112304,福岡県,糟屋郡粕屋町,仲原,フクオカケン,カスヤグンカスヤマチ,ナカバル,福岡県糟屋郡粕屋町仲原
8112305,福岡県,糟屋郡粕屋町,柚須,フクオカケン,カスヤグンカスヤマチ,ユス,福岡県糟屋郡粕屋町柚須
8112306,福岡県,糟屋郡粕屋町,阿恵,フクオカケン,カスヤグンカスヤマチ,アエ,福岡県糟屋郡粕屋町阿恵
8112307,福岡県,糟屋郡粕屋町,原町,フクオカケン,カスヤグンカスヤマチ,ハルマチ,福岡県糟屋郡粕屋町原町
8112308,福岡県,糟屋郡粕屋町,内橋,フクオカケン,カスヤグンカスヤマチ,ウチハシ,福岡県糟屋郡粕屋町内橋
8112309,福岡県,糟屋郡粕屋町,駕与丁,フクオカケン,カスヤグンカスヤマチ,カヨイチョウ,福岡県糟屋郡粕屋町駕与丁
8112310,福岡県,糟屋郡粕屋町,花ヶ浦,フクオカケン,カスヤグンカスヤマチ,ハナガウラ,福岡県糟屋郡粕屋町花ヶ浦
8112311,福岡県,糟屋郡粕屋町,長者原,フクオカケン,カスヤグンカスヤマチ,チョウジャバル,福岡県糟屋郡粕屋町長者原
8112312,福岡県,糟屋郡粕屋町,戸原,フクオカケン,カスヤグンカスヤマチ,トバラ,福岡県糟屋郡粕屋町戸原
8112313,福岡県,糟屋郡粕屋町,江辻,フクオカケン,カスヤグンカスヤマチ,エツジ,福岡県糟屋郡粕屋町江辻
8112314,福岡県,糟屋郡粕屋町,若宮,フクオカケン,カスヤグンカスヤマチ,ワカミヤ,福岡県糟屋郡粕屋町若宮
8112315,福岡県,糟屋郡粕屋町,甲仲原,フクオカケン,カスヤグンカスヤマチ,コウナカバル,福岡県糟屋郡粕屋町甲仲原
8112316,福岡県,糟屋郡粕屋町,長者原西,フクオカケン,カスヤグンカスヤマチ,チョウジャバルニシ,福岡県糟屋郡粕屋町長者原西
8112317,福岡県,糟屋郡粕屋町,長者原東,フクオカケン,カスヤグンカスヤマチ,チョウジャバルヒガシ,福岡県糟屋郡粕屋町長者原東
8112318,福岡県,糟屋郡粕屋町,戸原東,フクオカケン,カスヤグンカスヤマチ,トバラヒガシ,福岡県糟屋郡粕屋町戸原東
8112319,福岡県,糟屋郡粕屋町,戸原西,フクオカケン,カスヤグンカスヤマチ,トバラニシ,福岡県糟屋郡粕屋町戸原西
8112320,福岡県,糟屋郡粕屋町,内橋東,フクオカケン,カスヤグンカスヤマチ,ウチハシヒガシ,福岡県糟屋郡粕屋町内橋東
8112321,福岡県,糟屋郡粕屋町,内橋西（その他）,フクオカケン,カスヤグンカスヤマチ,ウチハシニシ(ソノタ),福岡県糟屋郡粕屋町内橋西（その他）
8112400,福岡県,糟屋郡篠栗町,,フクオカケン,カスヤグンササグリマチ,,福岡県糟屋郡篠栗町
8112401,福岡県,糟屋郡篠栗町,高田,フクオカケン,カスヤグンササグリマチ,タカタ,福岡県糟屋郡篠栗町高田
8112402,福岡県,糟屋郡篠栗町,金出,フクオカケン,カスヤグンササグリマチ,カナイデ,福岡県糟屋郡篠栗町金出
8112403,福岡県,糟屋郡篠栗町,萩尾,フクオカケン,カスヤグンササグリマチ,ハギノウ,福岡県糟屋郡篠栗町萩尾
8112404,福岡県,糟屋郡篠栗町,内住,フクオカケン,カスヤグンササグリマチ,ナイジュウ,福岡県糟屋郡篠栗町内住
8112405,福岡県,糟屋郡篠栗町,篠栗,フクオカケン,カスヤグンササグリマチ,ササグリ,福岡県糟屋郡篠栗町篠栗
8112411,福岡県,糟屋郡篠栗町,若杉,フクオカケン,カスヤグンササグリマチ,ワカスギ,福岡県糟屋郡篠栗町若杉
8112412,福岡県,糟屋郡篠栗町,乙犬,フクオカケン,カスヤグンササグリマチ,オトイヌ,福岡県糟屋郡篠栗町乙犬
8112413,福岡県,糟屋郡篠栗町,尾仲,フクオカケン,カスヤグンササグリマチ,オナカ,福岡県糟屋郡篠栗町尾仲
8112414,福岡県,糟屋郡篠栗町,和田,フクオカケン,カスヤグンササグリマチ,ワダ,福岡県糟屋郡篠栗町和田
8112415,福岡県,糟屋郡篠栗町,津波黒,フクオカケン,カスヤグンササグリマチ,ツバクロ,福岡県糟屋郡篠栗町津波黒
8112416,福岡県,糟屋郡篠栗町,田中,フクオカケン,カスヤグンササグリマチ,タナカ,福岡県糟屋郡篠栗町田中
8112417,福岡県,糟屋郡篠栗町,中央,フクオカケン,カスヤグンササグリマチ,チュウオウ,福岡県糟屋郡篠栗町中央
8112418,福岡県,糟屋郡篠栗町,彩り台,フクオカケン,カスヤグンササグリマチ,イロドリダイ,福岡県糟屋郡篠栗町彩り台
8112500,福岡県,糟屋郡久山町,,フクオカケン,カスヤグンヒサヤママチ,,福岡県糟屋郡久山町
8112501,福岡県,糟屋郡久山町,久原,フクオカケン,カスヤグンヒサヤママチ,クバラ,福岡県糟屋郡久山町久原
8112502,福岡県,糟屋郡久山町,山田,フクオカケン,カスヤグンヒサヤママチ,ヤマダ,福岡県糟屋郡久山町山田
8112503,福岡県,糟屋郡久山町,猪野,フクオカケン,カスヤグンヒサヤママチ,イノ,福岡県糟屋郡久山町猪野
8113100,福岡県,古賀市,,フクオカケン,コガシ,,福岡県古賀市
8113101,福岡県,古賀市,天神,フクオカケン,コガシ,テンジン,福岡県古賀市天神
8113102,福岡県,古賀市,駅東,フクオカケン,コガシ,エキヒガシ,福岡県古賀市駅東
8113103,福岡県,古賀市,中央,フクオカケン,コガシ,チュウオウ,福岡県古賀市中央
8113104,福岡県,古賀市,花鶴丘,フクオカケン,コガシ,カヅルガオカ,福岡県古賀市花鶴丘
8113105,福岡県,古賀市,鹿部,フクオカケン,コガシ,シシブ,福岡県古賀市鹿部
8113106,福岡県,古賀市,日吉,フクオカケン,コガシ,ヒヨシ,福岡県古賀市日吉
8113107,福岡県,古賀市,美明,フクオカケン,コガシ,ミアケ,福岡県古賀市美明
8113111,福岡県,古賀市,花見南,フクオカケン,コガシ,ハナミミナミ,福岡県古賀市花見南
8113112,福岡県,古賀市,花見東,フクオカケン,コガシ,ハナミヒガシ,福岡県古賀市花見東
8113113,福岡県,古賀市,千鳥,フクオカケン,コガシ,チドリ,福岡県古賀市千鳥
8113114,福岡県,古賀市,舞の里,フクオカケン,コガシ,マイノサト,福岡県古賀市舞の里
8113115,福岡県,古賀市,久保,フクオカケン,コガシ,クボ,福岡県古賀市久保
8113116,福岡県,古賀市,庄,フクオカケン,コガシ,ショウ,福岡県古賀市庄
8113117,福岡県,古賀市,今の庄,フクオカケン,コガシ,イマノショウ,福岡県古賀市今の庄
8113118,福岡県,古賀市,新久保,フクオカケン,コガシ,シンクボ,福岡県古賀市新久保
8113119,福岡県,古賀市,美郷,フクオカケン,コガシ,ミサト,福岡県古賀市美郷
8113121,福岡県,古賀市,筵内,フクオカケン,コガシ,ムシロウチ,福岡県古賀市筵内
8113122,福岡県,古賀市,薦野,フクオカケン,コガシ,コモノ,福岡県古賀市薦野
8113123,福岡県,古賀市,米多比,フクオカケン,コガシ,ネタビ,福岡県古賀市米多比
8113124,福岡県,古賀市,薬王寺,フクオカケン,コガシ,ヤクオウジ,福岡県古賀市薬王寺
8113125,福岡県,古賀市,谷山,フクオカケン,コガシ,タニヤマ,福岡県古賀市谷山
8113126,福岡県,古賀市,小山田,フクオカケン,コガシ,オヤマダ,福岡県古賀市小山田
8113127,福岡県,古賀市,新原,フクオカケン,コガシ,シンバル,福岡県古賀市新原
8113128,福岡県,古賀市,玄望園,フクオカケン,コガシ,ゲンボウエン,福岡県古賀市玄望園
8113131,福岡県,古賀市,今在家,フクオカケン,コガシ,イマザイケ,福岡県古賀市今在家
8113132,福岡県,古賀市,川原,フクオカケン,コガシ,カワバル,福岡県古賀市川原
8113133,福岡県,古賀市,青柳町,フクオカケン,コガシ,アオヤギマチ,福岡県古賀市青柳町
8113134,福岡県,古賀市,青柳,フクオカケン,コガシ,アオヤギ,福岡県古賀市青柳
8113135,福岡県,古賀市,小竹,フクオカケン,コガシ,オダケ,福岡県古賀市小竹
8113136,福岡県,古賀市,糸ケ浦,フクオカケン,コガシ,イトガウラ,福岡県古賀市糸ケ浦
8113137,福岡県,古賀市,古賀,フクオカケン,コガシ,コガ,福岡県古賀市古賀
8113200,福岡県,福津市,,フクオカケン,フクツシ,,福岡県福津市
8113201,福岡県,福津市,八並,フクオカケン,フクツシ,ヤツナミ,福岡県福津市八並
8113202,福岡県,福津市,畦町,フクオカケン,フクツシ,アゼマチ,福岡県福津市畦町
8113203,福岡県,福津市,本木,フクオカケン,フクツシ,モトギ,福岡県福津市本木
8113204,福岡県,福津市,舎利蔵,フクオカケン,フクツシ,シャリクラ,福岡県福津市舎利蔵
8113205,福岡県,福津市,内殿,フクオカケン,フクツシ,ウチドノ,福岡県福津市内殿
8113206,福岡県,福津市,久末,フクオカケン,フクツシ,ヒサスエ,福岡県福津市久末
8113207,福岡県,福津市,上西郷,フクオカケン,フクツシ,カミサイゴウ,福岡県福津市上西郷
8113208,福岡県,福津市,福間駅東,フクオカケン,フクツシ,フクマエキヒガシ,福岡県福津市福間駅東
8113209,福岡県,福津市,日蒔野,フクオカケン,フクツシ,ヒマキノ,福岡県福津市日蒔野
8113211,福岡県,福津市,有弥の里,フクオカケン,フクツシ,ユミノサト,福岡県福津市有弥の里
8113212,福岡県,福津市,福間南,フクオカケン,フクツシ,フクマミナミ,福岡県福津市福間南
8113213,福岡県,福津市,,フクオカケン,フクツシ,,福岡県福津市
8113214,福岡県,福津市,花見が丘,フクオカケン,フクツシ,ハナミガオカ,福岡県福津市花見が丘
8113215,福岡県,福津市,花見の里,フクオカケン,フクツシ,ハナミノサト,福岡県福津市花見の里
8113216,福岡県,福津市,花見が浜,フクオカケン,フクツシ,ハナミガハマ,福岡県福津市花見が浜
8113217,福岡県,福津市,中央,フクオカケン,フクツシ,チュウオウ,福岡県福津市中央
8113218,福岡県,福津市,手光南,フクオカケン,フクツシ,テビカミナミ,福岡県福津市手光南
8113219,福岡県,福津市,西福間,フクオカケン,フクツシ,ニシフクマ,福岡県福津市西福間
8113220,福岡県,福津市,あけぼの,フクオカケン,フクツシ,アケボノ,福岡県福津市あけぼの
8113221,福岡県,福津市,若木台,フクオカケン,フクツシ,ワカギダイ,福岡県福津市若木台
8113222,福岡県,福津市,津丸,フクオカケン,フクツシ,ツマル,福岡県福津市津丸
8113223,福岡県,福津市,光陽台,フクオカケン,フクツシ,コウヨウダイ,福岡県福津市光陽台
8113224,福岡県,福津市,手光,フクオカケン,フクツシ,テビカ,福岡県福津市手光
8113225,福岡県,福津市,東福間,フクオカケン,フクツシ,ヒガシフクマ,福岡県福津市東福間
8113226,福岡県,福津市,小竹,フクオカケン,フクツシ,オダケ,福岡県福津市小竹
8113227,福岡県,福津市,高平,フクオカケン,フクツシ,タカヒラ,福岡県福津市高平
8113228,福岡県,福津市,光陽台南,フクオカケン,フクツシ,コウヨウダイミナミ,福岡県福津市光陽台南
8113229,福岡県,福津市,桜川,フクオカケン,フクツシ,サクラガワ,福岡県福津市桜川
8113301,福岡県,福津市,在自,フクオカケン,フクツシ,アラジ,福岡県福津市在自
8113302,福岡県,福津市,大石,フクオカケン,フクツシ,オオイシ,福岡県福津市大石
8113303,福岡県,福津市,須多田,フクオカケン,フクツシ,スダタ,福岡県福津市須多田
8113304,福岡県,福津市,津屋崎,フクオカケン,フクツシ,ツヤザキ,福岡県福津市津屋崎
8113305,福岡県,福津市,宮司,フクオカケン,フクツシ,ミヤジ,福岡県福津市宮司
8113306,福岡県,福津市,生家,フクオカケン,フクツシ,ユクエ,福岡県福津市生家
8113307,福岡県,福津市,渡,フクオカケン,フクツシ,ワタリ,福岡県福津市渡
8113308,福岡県,福津市,星ケ丘,フクオカケン,フクツシ,ホシガオカ,福岡県福津市星ケ丘
8113309,福岡県,福津市,宮司元町,フクオカケン,フクツシ,ミヤジモトマチ,福岡県福津市宮司元町
8113311,福岡県,福津市,宮司浜,フクオカケン,フクツシ,ミヤジハマ,福岡県福津市宮司浜
8113312,福岡県,福津市,宮司ヶ丘,フクオカケン,フクツシ,ミヤジガオカ,福岡県福津市宮司ヶ丘
8113400,福岡県,宗像市,,フクオカケン,ムナカタシ,,福岡県宗像市
8113401,福岡県,宗像市,池浦,フクオカケン,ムナカタシ,イケウラ,福岡県宗像市池浦
8113402,福岡県,宗像市,河東,フクオカケン,ムナカタシ,カトウ,福岡県宗像市河東
8113403,福岡県,宗像市,ひかりケ丘,フクオカケン,ムナカタシ,ヒカリガオカ,福岡県宗像市ひかりケ丘
8113404,福岡県,宗像市,城西ケ丘,フクオカケン,ムナカタシ,ジョウセイガオカ,福岡県宗像市城西ケ丘
8113405,福岡県,宗像市,須恵,フクオカケン,ムナカタシ,スエ,福岡県宗像市須恵
8113406,福岡県,宗像市,稲元,フクオカケン,ムナカタシ,イナモト,福岡県宗像市稲元
8113407,福岡県,宗像市,天平台,フクオカケン,ムナカタシ,テンピョウダイ,福岡県宗像市天平台
8113408,福岡県,宗像市,樟陽台,フクオカケン,ムナカタシ,ショウヨウダイ,福岡県宗像市樟陽台
8113411,福岡県,宗像市,山田,フクオカケン,ムナカタシ,ヤマダ,福岡県宗像市山田
8113412,福岡県,宗像市,平等寺,フクオカケン,ムナカタシ,ビョウドウジ,福岡県宗像市平等寺
8113413,福岡県,宗像市,曲（その他）,フクオカケン,ムナカタシ,マガリ(ソノタ),福岡県宗像市曲（その他）
8113414,福岡県,宗像市,光岡,フクオカケン,ムナカタシ,ミツオカ,福岡県宗像市光岡
8113415,福岡県,宗像市,朝野,フクオカケン,ムナカタシ,アサノ,福岡県宗像市朝野
8113416,福岡県,宗像市,宮田,フクオカケン,ムナカタシ,ミヤタ,福岡県宗像市宮田
8113421,福岡県,宗像市,大穂,フクオカケン,ムナカタシ,オオブ,福岡県宗像市大穂
8113422,福岡県,宗像市,王丸,フクオカケン,ムナカタシ,オウマル,福岡県宗像市王丸
8113423,福岡県,宗像市,野坂,フクオカケン,ムナカタシ,ノサカ,福岡県宗像市野坂
8113424,福岡県,宗像市,原町,フクオカケン,ムナカタシ,ハルマチ,福岡県宗像市原町
8113425,福岡県,宗像市,日の里,フクオカケン,ムナカタシ,ヒノサト,福岡県宗像市日の里
8113430,福岡県,宗像市,平井,フクオカケン,ムナカタシ,ヒライ,福岡県宗像市平井
8113431,福岡県,宗像市,田熊,フクオカケン,ムナカタシ,タグマ,福岡県宗像市田熊
8113432,福岡県,宗像市,大井,フクオカケン,ムナカタシ,オオイ,福岡県宗像市大井
8113433,福岡県,宗像市,大井台,フクオカケン,ムナカタシ,オオイダイ,福岡県宗像市大井台
8113434,福岡県,宗像市,村山田,フクオカケン,ムナカタシ,ムラヤマダ,福岡県宗像市村山田
8113435,福岡県,宗像市,用山,フクオカケン,ムナカタシ,モチヤマ,福岡県宗像市用山
8113436,福岡県,宗像市,東郷,フクオカケン,ムナカタシ,トウゴウ,福岡県宗像市東郷
8113437,福岡県,宗像市,久原,フクオカケン,ムナカタシ,クバラ,福岡県宗像市久原
8113438,福岡県,宗像市,和歌美台,フクオカケン,ムナカタシ,ワカミダイ,福岡県宗像市和歌美台
8113439,福岡県,宗像市,三倉,フクオカケン,ムナカタシ,ミクラ,福岡県宗像市三倉
8113440,福岡県,宗像市,大井南,フクオカケン,ムナカタシ,オオイミナミ,福岡県宗像市大井南
8113501,福岡県,宗像市,神湊,フクオカケン,ムナカタシ,コウノミナト,福岡県宗像市神湊
8113502,福岡県,宗像市,江口,フクオカケン,ムナカタシ,エグチ,福岡県宗像市江口
8113503,福岡県,宗像市,牟田尻,フクオカケン,ムナカタシ,ムタジリ,福岡県宗像市牟田尻
8113504,福岡県,宗像市,深田,フクオカケン,ムナカタシ,フカタ,福岡県宗像市深田
8113505,福岡県,宗像市,田島,フクオカケン,ムナカタシ,タシマ,福岡県宗像市田島
8113506,福岡県,宗像市,吉田,フクオカケン,ムナカタシ,ヨシダ,福岡県宗像市吉田
8113507,福岡県,宗像市,多禮,フクオカケン,ムナカタシ,タレ,福岡県宗像市多禮
8113511,福岡県,宗像市,地島,フクオカケン,ムナカタシ,ジノシマ,福岡県宗像市地島
8113512,福岡県,宗像市,鐘崎,フクオカケン,ムナカタシ,カネザキ,福岡県宗像市鐘崎
8113513,福岡県,宗像市,上八,フクオカケン,ムナカタシ,コウジョウ,福岡県宗像市上八
8113514,福岡県,宗像市,田野,フクオカケン,ムナカタシ,タノ,福岡県宗像市田野
8113515,福岡県,宗像市,池田,フクオカケン,ムナカタシ,イケダ,福岡県宗像市池田
8113516,福岡県,宗像市,公園通り,フクオカケン,ムナカタシ,コウエンドオリ,福岡県宗像市公園通り
8113521,福岡県,福津市,勝浦,フクオカケン,フクツシ,カツウラ,福岡県福津市勝浦
8113522,福岡県,福津市,奴山,フクオカケン,フクツシ,ヌヤマ,福岡県福津市奴山
8113701,福岡県,宗像市,大島,フクオカケン,ムナカタシ,オオシマ,福岡県宗像市大島
8114113,福岡県,宗像市,曲（２５、３５）,フクオカケン,ムナカタシ,マガリ(25、35),福岡県宗像市曲（25、35）
8114141,福岡県,宗像市,大谷,フクオカケン,ムナカタシ,オオタニ,福岡県宗像市大谷
8114142,福岡県,宗像市,泉ケ丘,フクオカケン,ムナカタシ,イズミガオカ,福岡県宗像市泉ケ丘
8114143,福岡県,宗像市,三郎丸,フクオカケン,ムナカタシ,サブロウマル,福岡県宗像市三郎丸
8114145,福岡県,宗像市,陵厳寺,フクオカケン,ムナカタシ,リョウゲンジ,福岡県宗像市陵厳寺
8114146,福岡県,宗像市,赤間,フクオカケン,ムナカタシ,アカマ,福岡県宗像市赤間
8114147,福岡県,宗像市,石丸,フクオカケン,ムナカタシ,イシマル,福岡県宗像市石丸
8114148,福岡県,宗像市,赤間文教町,フクオカケン,ムナカタシ,アカマブンキョウマチ,福岡県宗像市赤間文教町
8114151,福岡県,宗像市,城南ケ丘,フクオカケン,ムナカタシ,ジョウナンガオカ,福岡県宗像市城南ケ丘
8114152,福岡県,宗像市,武丸,フクオカケン,ムナカタシ,タケマル,福岡県宗像市武丸
8114153,福岡県,宗像市,吉留,フクオカケン,ムナカタシ,ヨシドメ,福岡県宗像市吉留
8114154,福岡県,宗像市,冨地原,フクオカケン,ムナカタシ,フジワラ,福岡県宗像市冨地原
8114155,福岡県,宗像市,名残,フクオカケン,ムナカタシ,ナゴリ,福岡県宗像市名残
8114156,福岡県,宗像市,自由ケ丘南,フクオカケン,ムナカタシ,ジユウガオカミナミ,福岡県宗像市自由ケ丘南
8114157,福岡県,宗像市,アスティ,フクオカケン,ムナカタシ,アスティ,福岡県宗像市アスティ
8114161,福岡県,宗像市,朝町,フクオカケン,ムナカタシ,アサマチ,福岡県宗像市朝町
8114162,福岡県,宗像市,青葉台,フクオカケン,ムナカタシ,アオバダイ,福岡県宗像市青葉台
8114163,福岡県,宗像市,自由ケ丘,フクオカケン,ムナカタシ,ジユウガオカ,福岡県宗像市自由ケ丘
8114164,福岡県,宗像市,徳重,フクオカケン,ムナカタシ,トクシゲ,福岡県宗像市徳重
8114165,福岡県,宗像市,広陵台,フクオカケン,ムナカタシ,コウリョウダイ,福岡県宗像市広陵台
8114166,福岡県,宗像市,桜,フクオカケン,ムナカタシ,サクラ,福岡県宗像市桜
8114171,福岡県,宗像市,葉山,フクオカケン,ムナカタシ,ハヤマ,福岡県宗像市葉山
8114172,福岡県,宗像市,緑町,フクオカケン,ムナカタシ,ミドリマチ,福岡県宗像市緑町
8114173,福岡県,宗像市,栄町,フクオカケン,ムナカタシ,サカエマチ,福岡県宗像市栄町
8114174,福岡県,宗像市,自由ケ丘西町,フクオカケン,ムナカタシ,ジユウガオカニシマチ,福岡県宗像市自由ケ丘西町
8114175,福岡県,宗像市,田久,フクオカケン,ムナカタシ,タク,福岡県宗像市田久
8114176,福岡県,宗像市,赤間ケ丘,フクオカケン,ムナカタシ,アカマガオカ,福岡県宗像市赤間ケ丘
8114177,福岡県,宗像市,桜美台,フクオカケン,ムナカタシ,オウビダイ,福岡県宗像市桜美台
8114181,福岡県,宗像市,城山ニュータウン,フクオカケン,ムナカタシ,ジョウヤマニュータウン,福岡県宗像市城山ニュータウン
8114182,福岡県,宗像市,城ケ谷,フクオカケン,ムナカタシ,ジョウガタニ,福岡県宗像市城ケ谷
8114183,福岡県,宗像市,土穴,フクオカケン,ムナカタシ,ツチアナ,福岡県宗像市土穴
8114184,福岡県,宗像市,くりえいと,フクオカケン,ムナカタシ,クリエイト,福岡県宗像市くりえいと
8114185,福岡県,宗像市,赤間駅前,フクオカケン,ムナカタシ,アカマエキマエ,福岡県宗像市赤間駅前
8114200,福岡県,遠賀郡岡垣町,,フクオカケン,オンガグンオカガキマチ,,福岡県遠賀郡岡垣町
8114201,福岡県,遠賀郡岡垣町,波津,フクオカケン,オンガグンオカガキマチ,ハツ,福岡県遠賀郡岡垣町波津
8114202,福岡県,遠賀郡岡垣町,原,フクオカケン,オンガグンオカガキマチ,ハラ,福岡県遠賀郡岡垣町原
8114203,福岡県,遠賀郡岡垣町,内浦,フクオカケン,オンガグンオカガキマチ,ウツラ,福岡県遠賀郡岡垣町内浦
8114204,福岡県,遠賀郡岡垣町,手野,フクオカケン,オンガグンオカガキマチ,テノ,福岡県遠賀郡岡垣町手野
8114205,福岡県,遠賀郡岡垣町,三吉,フクオカケン,オンガグンオカガキマチ,ミヨシ,福岡県遠賀郡岡垣町三吉
8114211,福岡県,遠賀郡岡垣町,吉木,フクオカケン,オンガグンオカガキマチ,ヨシキ,福岡県遠賀郡岡垣町吉木
8114212,福岡県,遠賀郡岡垣町,黒山,フクオカケン,オンガグンオカガキマチ,クロヤマ,福岡県遠賀郡岡垣町黒山
8114213,福岡県,遠賀郡岡垣町,糠塚,フクオカケン,オンガグンオカガキマチ,ヌカヅカ,福岡県遠賀郡岡垣町糠塚
8114214,福岡県,遠賀郡岡垣町,松ケ台,フクオカケン,オンガグンオカガキマチ,マツガダイ,福岡県遠賀郡岡垣町松ケ台
8114215,福岡県,遠賀郡岡垣町,旭台,フクオカケン,オンガグンオカガキマチ,アサヒダイ,福岡県遠賀郡岡垣町旭台
8114216,福岡県,遠賀郡岡垣町,旭南,フクオカケン,オンガグンオカガキマチ,アサヒミナミ,福岡県遠賀郡岡垣町旭南
8114217,福岡県,遠賀郡岡垣町,桜台,フクオカケン,オンガグンオカガキマチ,サクラダイ,福岡県遠賀郡岡垣町桜台
8114218,福岡県,遠賀郡岡垣町,中央台,フクオカケン,オンガグンオカガキマチ,チュウオウダイ,福岡県遠賀郡岡垣町中央台
8114220,福岡県,遠賀郡岡垣町,東山田,フクオカケン,オンガグンオカガキマチ,ヒガシヤマダ,福岡県遠賀郡岡垣町東山田
8114221,福岡県,遠賀郡岡垣町,山田,フクオカケン,オンガグンオカガキマチ,ヤマダ,福岡県遠賀郡岡垣町山田
8114222,福岡県,遠賀郡岡垣町,戸切,フクオカケン,オンガグンオカガキマチ,トギリ,福岡県遠賀郡岡垣町戸切
8114223,福岡県,遠賀郡岡垣町,山田峠,フクオカケン,オンガグンオカガキマチ,ヤマダトウゲ,福岡県遠賀郡岡垣町山田峠
8114224,福岡県,遠賀郡岡垣町,鍋田,フクオカケン,オンガグンオカガキマチ,ナベタ,福岡県遠賀郡岡垣町鍋田
8114225,福岡県,遠賀郡岡垣町,東高陽,フクオカケン,オンガグンオカガキマチ,ヒガシコウヨウ,福岡県遠賀郡岡垣町東高陽
8114226,福岡県,遠賀郡岡垣町,南高陽,フクオカケン,オンガグンオカガキマチ,ミナミコウヨウ,福岡県遠賀郡岡垣町南高陽
8114227,福岡県,遠賀郡岡垣町,高陽台,フクオカケン,オンガグンオカガキマチ,コウヨウダイ,福岡県遠賀郡岡垣町高陽台
8114228,福岡県,遠賀郡岡垣町,東松原,フクオカケン,オンガグンオカガキマチ,ヒガシマツバラ,福岡県遠賀郡岡垣町東松原
8114229,福岡県,遠賀郡岡垣町,百合ケ丘,フクオカケン,オンガグンオカガキマチ,ユリガオカ,福岡県遠賀郡岡垣町百合ケ丘
8114231,福岡県,遠賀郡岡垣町,海老津,フクオカケン,オンガグンオカガキマチ,エビツ,福岡県遠賀郡岡垣町海老津
8114232,福岡県,遠賀郡岡垣町,上畑,フクオカケン,オンガグンオカガキマチ,ジョウハタ,福岡県遠賀郡岡垣町上畑
8114233,福岡県,遠賀郡岡垣町,野間,フクオカケン,オンガグンオカガキマチ,ノマ,福岡県遠賀郡岡垣町野間
8114234,福岡県,遠賀郡岡垣町,高倉,フクオカケン,オンガグンオカガキマチ,タカクラ,福岡県遠賀郡岡垣町高倉
8114235,福岡県,遠賀郡岡垣町,公園通り,フクオカケン,オンガグンオカガキマチ,コウエンドオリ,福岡県遠賀郡岡垣町公園通り
8114236,福岡県,遠賀郡岡垣町,海老津駅前,フクオカケン,オンガグンオカガキマチ,エビツエキマエ,福岡県遠賀郡岡垣町海老津駅前
8114237,福岡県,遠賀郡岡垣町,東高倉,フクオカケン,オンガグンオカガキマチ,ヒガシタカクラ,福岡県遠賀郡岡垣町東高倉
8114238,福岡県,遠賀郡岡垣町,海老津駅南,フクオカケン,オンガグンオカガキマチ,エビツエキミナミ,福岡県遠賀郡岡垣町海老津駅南
8114239,福岡県,遠賀郡岡垣町,野間南,フクオカケン,オンガグンオカガキマチ,ノマミナミ,福岡県遠賀郡岡垣町野間南
8114241,福岡県,遠賀郡岡垣町,吉木東,フクオカケン,オンガグンオカガキマチ,ヨシキヒガシ,福岡県遠賀郡岡垣町吉木東
8114242,福岡県,遠賀郡岡垣町,吉木西,フクオカケン,オンガグンオカガキマチ,ヨシキニシ,福岡県遠賀郡岡垣町吉木西
8114300,福岡県,遠賀郡遠賀町,,フクオカケン,オンガグンオンガチョウ,,福岡県遠賀郡遠賀町
8114301,福岡県,遠賀郡遠賀町,島津,フクオカケン,オンガグンオンガチョウ,シマヅ,福岡県遠賀郡遠賀町島津
8114302,福岡県,遠賀郡遠賀町,広渡,フクオカケン,オンガグンオンガチョウ,ヒロワタリ,福岡県遠賀郡遠賀町広渡
8114303,福岡県,遠賀郡遠賀町,今古賀,フクオカケン,オンガグンオンガチョウ,イマコガ,福岡県遠賀郡遠賀町今古賀
8114304,福岡県,遠賀郡遠賀町,若松,フクオカケン,オンガグンオンガチョウ,ワカマツ,福岡県遠賀郡遠賀町若松
8114305,福岡県,遠賀郡遠賀町,松の本,フクオカケン,オンガグンオンガチョウ,マツノモト,福岡県遠賀郡遠賀町松の本
8114306,福岡県,遠賀郡遠賀町,旧停,フクオカケン,オンガグンオンガチョウ,キュウテイ,福岡県遠賀郡遠賀町旧停
8114307,福岡県,遠賀郡遠賀町,遠賀川,フクオカケン,オンガグンオンガチョウ,オンガガワ,福岡県遠賀郡遠賀町遠賀川
8114311,福岡県,遠賀郡遠賀町,老良,フクオカケン,オンガグンオンガチョウ,オイラ,福岡県遠賀郡遠賀町老良
8114312,福岡県,遠賀郡遠賀町,浅木,フクオカケン,オンガグンオンガチョウ,アサギ,福岡県遠賀郡遠賀町浅木
8114313,福岡県,遠賀郡遠賀町,木守,フクオカケン,オンガグンオンガチョウ,キモリ,福岡県遠賀郡遠賀町木守
8114321,福岡県,遠賀郡遠賀町,虫生津,フクオカケン,オンガグンオンガチョウ,ムショウヅ,福岡県遠賀郡遠賀町虫生津
8114322,福岡県,遠賀郡遠賀町,芙蓉,フクオカケン,オンガグンオンガチョウ,フヨウ,福岡県遠賀郡遠賀町芙蓉
8114323,福岡県,遠賀郡遠賀町,若葉台,フクオカケン,オンガグンオンガチョウ,ワカバダイ,福岡県遠賀郡遠賀町若葉台
8114324,福岡県,遠賀郡遠賀町,虫生津南,フクオカケン,オンガグンオンガチョウ,ムショウヅミナミ,福岡県遠賀郡遠賀町虫生津南
8114331,福岡県,遠賀郡遠賀町,別府,フクオカケン,オンガグンオンガチョウ,ベフ,福岡県遠賀郡遠賀町別府
8114332,福岡県,遠賀郡遠賀町,上別府,フクオカケン,オンガグンオンガチョウ,カミベフ,福岡県遠賀郡遠賀町上別府
8114333,福岡県,遠賀郡遠賀町,島門,フクオカケン,オンガグンオンガチョウ,シマド,福岡県遠賀郡遠賀町島門
8114334,福岡県,遠賀郡遠賀町,蓮角,フクオカケン,オンガグンオンガチョウ,レンガク,福岡県遠賀郡遠賀町蓮角
8114341,福岡県,遠賀郡遠賀町,鬼津,フクオカケン,オンガグンオンガチョウ,オニヅ,福岡県遠賀郡遠賀町鬼津
8114342,福岡県,遠賀郡遠賀町,尾崎,フクオカケン,オンガグンオンガチョウ,オザキ,福岡県遠賀郡遠賀町尾崎
8114343,福岡県,遠賀郡遠賀町,田園,フクオカケン,オンガグンオンガチョウ,デンエン,福岡県遠賀郡遠賀町田園
8120000,福岡県,福岡市博多区,,フクオカケン,フクオカシハカタク,,福岡県福岡市博多区
8120001,福岡県,福岡市博多区,大井,フクオカケン,フクオカシハカタク,オオイ,福岡県福岡市博多区大井
8120002,福岡県,福岡市博多区,空港前,フクオカケン,フクオカシハカタク,クウコウマエ,福岡県福岡市博多区空港前
8120003,福岡県,福岡市博多区,下臼井,フクオカケン,フクオカシハカタク,シモウスイ,福岡県福岡市博多区下臼井
8120004,福岡県,福岡市博多区,榎田,フクオカケン,フクオカシハカタク,エノキダ,福岡県福岡市博多区榎田
8120005,福岡県,福岡市博多区,上臼井,フクオカケン,フクオカシハカタク,カミウスイ,福岡県福岡市博多区上臼井
8120006,福岡県,福岡市博多区,上牟田,フクオカケン,フクオカシハカタク,カミムタ,福岡県福岡市博多区上牟田
8120007,福岡県,福岡市博多区,東比恵,フクオカケン,フクオカシハカタク,ヒガシヒエ,福岡県福岡市博多区東比恵
8120008,福岡県,福岡市博多区,東光,フクオカケン,フクオカシハカタク,トウコウ,福岡県福岡市博多区東光
8120011,福岡県,福岡市博多区,博多駅前,フクオカケン,フクオカシハカタク,ハカタエキマエ,福岡県福岡市博多区博多駅前
8120012,福岡県,福岡市博多区,博多駅中央街,フクオカケン,フクオカシハカタク,ハカタエキチュウオウガイ,福岡県福岡市博多区博多駅中央街
8120013,福岡県,福岡市博多区,博多駅東,フクオカケン,フクオカシハカタク,ハカタエキヒガシ,福岡県福岡市博多区博多駅東
8120014,福岡県,福岡市博多区,比恵町,フクオカケン,フクオカシハカタク,ヒエマチ,福岡県福岡市博多区比恵町
8120015,福岡県,福岡市博多区,山王,フクオカケン,フクオカシハカタク,サンノウ,福岡県福岡市博多区山王
8120016,福岡県,福岡市博多区,博多駅南,フクオカケン,フクオカシハカタク,ハカタエキミナミ,福岡県福岡市博多区博多駅南
8120017,福岡県,福岡市博多区,美野島,フクオカケン,フクオカシハカタク,ミノシマ,福岡県福岡市博多区美野島
8120018,福岡県,福岡市博多区,住吉,フクオカケン,フクオカシハカタク,スミヨシ,福岡県福岡市博多区住吉
8120020,福岡県,福岡市博多区,対馬小路,フクオカケン,フクオカシハカタク,ツマショウジ,福岡県福岡市博多区対馬小路
8120021,福岡県,福岡市博多区,築港本町,フクオカケン,フクオカシハカタク,チッコウホンマチ,福岡県福岡市博多区築港本町
8120022,福岡県,福岡市博多区,神屋町,フクオカケン,フクオカシハカタク,カミヤマチ,福岡県福岡市博多区神屋町
8120023,福岡県,福岡市博多区,奈良屋町,フクオカケン,フクオカシハカタク,ナラヤマチ,福岡県福岡市博多区奈良屋町
8120024,福岡県,福岡市博多区,綱場町,フクオカケン,フクオカシハカタク,ツナバマチ,福岡県福岡市博多区綱場町
8120025,福岡県,福岡市博多区,店屋町,フクオカケン,フクオカシハカタク,テンヤマチ,福岡県福岡市博多区店屋町
8120026,福岡県,福岡市博多区,上川端町,フクオカケン,フクオカシハカタク,カミカワバタマチ,福岡県福岡市博多区上川端町
8120027,福岡県,福岡市博多区,下川端町,フクオカケン,フクオカシハカタク,シモカワバタマチ,福岡県福岡市博多区下川端町
8120028,福岡県,福岡市博多区,須崎町,フクオカケン,フクオカシハカタク,スサキマチ,福岡県福岡市博多区須崎町
8120029,福岡県,福岡市博多区,古門戸町,フクオカケン,フクオカシハカタク,コモンドマチ,福岡県福岡市博多区古門戸町
8120031,福岡県,福岡市博多区,沖浜町,フクオカケン,フクオカシハカタク,オキハママチ,福岡県福岡市博多区沖浜町
8120032,福岡県,福岡市博多区,石城町,フクオカケン,フクオカシハカタク,セキジョウマチ,福岡県福岡市博多区石城町
8120033,福岡県,福岡市博多区,大博町,フクオカケン,フクオカシハカタク,タイハクマチ,福岡県福岡市博多区大博町
8120034,福岡県,福岡市博多区,下呉服町,フクオカケン,フクオカシハカタク,シモゴフクマチ,福岡県福岡市博多区下呉服町
8120035,福岡県,福岡市博多区,中呉服町,フクオカケン,フクオカシハカタク,ナカゴフクマチ,福岡県福岡市博多区中呉服町
8120036,福岡県,福岡市博多区,上呉服町,フクオカケン,フクオカシハカタク,カミゴフクマチ,福岡県福岡市博多区上呉服町
8120037,福岡県,福岡市博多区,御供所町,フクオカケン,フクオカシハカタク,ゴクショマチ,福岡県福岡市博多区御供所町
8120038,福岡県,福岡市博多区,祇園町,フクオカケン,フクオカシハカタク,ギオンマチ,福岡県福岡市博多区祇園町
8120039,福岡県,福岡市博多区,冷泉町,フクオカケン,フクオカシハカタク,レイセンマチ,福岡県福岡市博多区冷泉町
8120041,福岡県,福岡市博多区,吉塚,フクオカケン,フクオカシハカタク,ヨシヅカ,福岡県福岡市博多区吉塚
8120042,福岡県,福岡市博多区,豊,フクオカケン,フクオカシハカタク,ユタカ,福岡県福岡市博多区豊
8120043,福岡県,福岡市博多区,堅粕,フクオカケン,フクオカシハカタク,カタカス,福岡県福岡市博多区堅粕
8120044,福岡県,福岡市博多区,千代,フクオカケン,フクオカシハカタク,チヨ,福岡県福岡市博多区千代
8120045,福岡県,福岡市博多区,東公園,フクオカケン,フクオカシハカタク,ヒガシコウエン,福岡県福岡市博多区東公園
8120046,福岡県,福岡市博多区,吉塚本町,フクオカケン,フクオカシハカタク,ヨシヅカホンマチ,福岡県福岡市博多区吉塚本町
8120051,福岡県,福岡市東区,箱崎ふ頭,フクオカケン,フクオカシヒガシク,ハコザキフトウ,福岡県福岡市東区箱崎ふ頭
8120052,福岡県,福岡市東区,貝塚団地,フクオカケン,フクオカシヒガシク,カイヅカダンチ,福岡県福岡市東区貝塚団地
8120053,福岡県,福岡市東区,箱崎,フクオカケン,フクオカシヒガシク,ハコザキ,福岡県福岡市東区箱崎
8120054,福岡県,福岡市東区,馬出,フクオカケン,フクオカシヒガシク,マイダシ,福岡県福岡市東区馬出
8120055,福岡県,福岡市東区,東浜,フクオカケン,フクオカシヒガシク,ヒガシハマ,福岡県福岡市東区東浜
8120061,福岡県,福岡市東区,筥松,フクオカケン,フクオカシヒガシク,ハコマツ,福岡県福岡市東区筥松
8120062,福岡県,福岡市東区,松島（１、２丁目）,フクオカケン,フクオカシヒガシク,マツシマ(1、2チョウメ),福岡県福岡市東区松島（1、2-）
8120063,福岡県,福岡市東区,原田,フクオカケン,フクオカシヒガシク,ハラダ,福岡県福岡市東区原田
8120064,福岡県,福岡市東区,松田,フクオカケン,フクオカシヒガシク,マツダ,福岡県福岡市東区松田
8120065,福岡県,福岡市東区,二又瀬新町,フクオカケン,フクオカシヒガシク,フタマタセシンマチ,福岡県福岡市東区二又瀬新町
8120066,福岡県,福岡市東区,二又瀬,フクオカケン,フクオカシヒガシク,フタマタセ,福岡県福岡市東区二又瀬
8120067,福岡県,福岡市東区,筥松新町,フクオカケン,フクオカシヒガシク,ハコマツシンマチ,福岡県福岡市東区筥松新町
8120068,福岡県,福岡市東区,社領,フクオカケン,フクオカシヒガシク,シャリョウ,福岡県福岡市東区社領
8120069,福岡県,福岡市東区,郷口町,フクオカケン,フクオカシヒガシク,ゴウグチマチ,福岡県福岡市東区郷口町
8120851,福岡県,福岡市博多区,青木,フクオカケン,フクオカシハカタク,アオキ,福岡県福岡市博多区青木
8120852,福岡県,福岡市博多区,東平尾公園,フクオカケン,フクオカシハカタク,ヒガシヒラオコウエン,福岡県福岡市博多区東平尾公園
8120853,福岡県,福岡市博多区,東平尾,フクオカケン,フクオカシハカタク,ヒガシヒラオ,福岡県福岡市博多区東平尾
8120854,福岡県,福岡市博多区,東月隈,フクオカケン,フクオカシハカタク,ヒガシツキグマ,福岡県福岡市博多区東月隈
8120855,福岡県,福岡市博多区,下月隈,フクオカケン,フクオカシハカタク,シモツキグマ,福岡県福岡市博多区下月隈
8120857,福岡県,福岡市博多区,西月隈,フクオカケン,フクオカシハカタク,ニシツキグマ,福岡県福岡市博多区西月隈
8120858,福岡県,福岡市博多区,月隈,フクオカケン,フクオカシハカタク,ツキグマ,福岡県福岡市博多区月隈
8120861,福岡県,福岡市博多区,浦田,フクオカケン,フクオカシハカタク,ウラタ,福岡県福岡市博多区浦田
8120862,福岡県,福岡市博多区,立花寺,フクオカケン,フクオカシハカタク,リュウゲジ,福岡県福岡市博多区立花寺
8120863,福岡県,福岡市博多区,金の隈,フクオカケン,フクオカシハカタク,カネノクマ,福岡県福岡市博多区金の隈
8120871,福岡県,福岡市博多区,東雲町,フクオカケン,フクオカシハカタク,シノノメマチ,福岡県福岡市博多区東雲町
8120872,福岡県,福岡市博多区,春町,フクオカケン,フクオカシハカタク,ハルマチ,福岡県福岡市博多区春町
8120873,福岡県,福岡市博多区,西春町,フクオカケン,フクオカシハカタク,ニシハルマチ,福岡県福岡市博多区西春町
8120874,福岡県,福岡市博多区,光丘町,フクオカケン,フクオカシハカタク,ヒカリガオカマチ,福岡県福岡市博多区光丘町
8120875,福岡県,福岡市博多区,新和町,フクオカケン,フクオカシハカタク,シンワマチ,福岡県福岡市博多区新和町
8120876,福岡県,福岡市博多区,昭南町,フクオカケン,フクオカシハカタク,ショウナンマチ,福岡県福岡市博多区昭南町
8120877,福岡県,福岡市博多区,元町,フクオカケン,フクオカシハカタク,モトマチ,福岡県福岡市博多区元町
8120878,福岡県,福岡市博多区,竹丘町,フクオカケン,フクオカシハカタク,タケオカマチ,福岡県福岡市博多区竹丘町
8120879,福岡県,福岡市博多区,銀天町,フクオカケン,フクオカシハカタク,ギンテンマチ,福岡県福岡市博多区銀天町
8120881,福岡県,福岡市博多区,井相田,フクオカケン,フクオカシハカタク,イソウダ,福岡県福岡市博多区井相田
8120882,福岡県,福岡市博多区,麦野,フクオカケン,フクオカシハカタク,ムギノ,福岡県福岡市博多区麦野
8120883,福岡県,福岡市博多区,南本町,フクオカケン,フクオカシハカタク,ミナミホンマチ,福岡県福岡市博多区南本町
8120884,福岡県,福岡市博多区,寿町,フクオカケン,フクオカシハカタク,コトブキマチ,福岡県福岡市博多区寿町
8120885,福岡県,福岡市博多区,相生町,フクオカケン,フクオカシハカタク,アイオイマチ,福岡県福岡市博多区相生町
8120886,福岡県,福岡市博多区,南八幡町,フクオカケン,フクオカシハカタク,ミナミハチマンマチ,福岡県福岡市博多区南八幡町
8120887,福岡県,福岡市博多区,三筑,フクオカケン,フクオカシハカタク,サンチク,福岡県福岡市博多区三筑
8120888,福岡県,福岡市博多区,板付,フクオカケン,フクオカシハカタク,イタヅケ,福岡県福岡市博多区板付
8120891,福岡県,福岡市博多区,雀居,フクオカケン,フクオカシハカタク,ササイ,福岡県福岡市博多区雀居
8120892,福岡県,福岡市博多区,東那珂,フクオカケン,フクオカシハカタク,ヒガシナカ,福岡県福岡市博多区東那珂
8120893,福岡県,福岡市博多区,那珂,フクオカケン,フクオカシハカタク,ナカ,福岡県福岡市博多区那珂
8120894,福岡県,福岡市博多区,諸岡,フクオカケン,フクオカシハカタク,モロオカ,福岡県福岡市博多区諸岡
8120895,福岡県,福岡市博多区,竹下,フクオカケン,フクオカシハカタク,タケシタ,福岡県福岡市博多区竹下
8120896,福岡県,福岡市博多区,東光寺町,フクオカケン,フクオカシハカタク,トウコウジマチ,福岡県福岡市博多区東光寺町
8120897,福岡県,福岡市博多区,半道橋,フクオカケン,フクオカシハカタク,ハンミチバシ,福岡県福岡市博多区半道橋
8130000,福岡県,福岡市東区,,フクオカケン,フクオカシヒガシク,,福岡県福岡市東区
8130001,福岡県,福岡市東区,唐原,フクオカケン,フクオカシヒガシク,トウノハル,福岡県福岡市東区唐原
8130002,福岡県,福岡市東区,下原,フクオカケン,フクオカシヒガシク,シモバル,福岡県福岡市東区下原
8130003,福岡県,福岡市東区,香住ヶ丘,フクオカケン,フクオカシヒガシク,カスミガオカ,福岡県福岡市東区香住ヶ丘
8130004,福岡県,福岡市東区,松香台,フクオカケン,フクオカシヒガシク,マツカダイ,福岡県福岡市東区松香台
8130005,福岡県,福岡市東区,御島崎,フクオカケン,フクオカシヒガシク,ミシマザキ,福岡県福岡市東区御島崎
8130008,福岡県,糟屋郡粕屋町,内橋西（３丁目１１番５〜８号「多の津団地」）,フクオカケン,カスヤグンカスヤマチ,ウチハシニシ(3チョウメ11バン5-8ゴウタノツダンチ),福岡県糟屋郡粕屋町内橋西（3-11-5〜8-「多の津団地」）
8130011,福岡県,福岡市東区,香椎,フクオカケン,フクオカシヒガシク,カシイ,福岡県福岡市東区香椎
8130012,福岡県,福岡市東区,香椎駅東,フクオカケン,フクオカシヒガシク,カシイエキヒガシ,福岡県福岡市東区香椎駅東
8130013,福岡県,福岡市東区,香椎駅前,フクオカケン,フクオカシヒガシク,カシイエキマエ,福岡県福岡市東区香椎駅前
8130014,福岡県,福岡市東区,香椎台,フクオカケン,フクオカシヒガシク,カシイダイ,福岡県福岡市東区香椎台
8130015,福岡県,福岡市東区,香椎団地,フクオカケン,フクオカシヒガシク,カシイダンチ,福岡県福岡市東区香椎団地
8130016,福岡県,福岡市東区,香椎浜,フクオカケン,フクオカシヒガシク,カシイハマ,福岡県福岡市東区香椎浜
8130017,福岡県,福岡市東区,香椎照葉,フクオカケン,フクオカシヒガシク,カシイテリハ,福岡県福岡市東区香椎照葉
8130018,福岡県,福岡市東区,香椎浜ふ頭,フクオカケン,フクオカシヒガシク,カシイハマフトウ,福岡県福岡市東区香椎浜ふ頭
8130019,福岡県,福岡市東区,みなと香椎,フクオカケン,フクオカシヒガシク,ミナトカシイ,福岡県福岡市東区みなと香椎
8130021,福岡県,福岡市東区,みどりが丘,フクオカケン,フクオカシヒガシク,ミドリガオカ,福岡県福岡市東区みどりが丘
8130023,福岡県,福岡市東区,蒲田,フクオカケン,フクオカシヒガシク,カマタ,福岡県福岡市東区蒲田
8130024,福岡県,福岡市東区,名子,フクオカケン,フクオカシヒガシク,ナゴ,福岡県福岡市東区名子
8130025,福岡県,福岡市東区,青葉,フクオカケン,フクオカシヒガシク,アオバ,福岡県福岡市東区青葉
8130031,福岡県,福岡市東区,八田,フクオカケン,フクオカシヒガシク,ハッタ,福岡県福岡市東区八田
8130032,福岡県,福岡市東区,土井,フクオカケン,フクオカシヒガシク,ドイ,福岡県福岡市東区土井
8130033,福岡県,福岡市東区,多々良,フクオカケン,フクオカシヒガシク,タタラ,福岡県福岡市東区多々良
8130034,福岡県,福岡市東区,多の津,フクオカケン,フクオカシヒガシク,タノツ,福岡県福岡市東区多の津
8130035,福岡県,福岡市東区,松崎,フクオカケン,フクオカシヒガシク,マツザキ,福岡県福岡市東区松崎
8130036,福岡県,福岡市東区,若宮,フクオカケン,フクオカシヒガシク,ワカミヤ,福岡県福岡市東区若宮
8130041,福岡県,福岡市東区,水谷,フクオカケン,フクオカシヒガシク,ミズタニ,福岡県福岡市東区水谷
8130042,福岡県,福岡市東区,舞松原,フクオカケン,フクオカシヒガシク,マイマツバラ,福岡県福岡市東区舞松原
8130043,福岡県,福岡市東区,名島,フクオカケン,フクオカシヒガシク,ナジマ,福岡県福岡市東区名島
8130044,福岡県,福岡市東区,千早,フクオカケン,フクオカシヒガシク,チハヤ,福岡県福岡市東区千早
8130045,福岡県,福岡市東区,城浜団地,フクオカケン,フクオカシヒガシク,シロハマダンチ,福岡県福岡市東区城浜団地
8130062,福岡県,福岡市東区,松島（３〜６丁目）,フクオカケン,フクオカシヒガシク,マツシマ(3-6チョウメ),福岡県福岡市東区松島（3〜6-）
8140000,福岡県,福岡市早良区,,フクオカケン,フクオカシサワラク,,福岡県福岡市早良区
8140001,福岡県,福岡市早良区,百道浜,フクオカケン,フクオカシサワラク,モモチハマ,福岡県福岡市早良区百道浜
8140002,福岡県,福岡市早良区,西新,フクオカケン,フクオカシサワラク,ニシジン,福岡県福岡市早良区西新
8140003,福岡県,福岡市早良区,城西,フクオカケン,フクオカシサワラク,ジョウセイ,福岡県福岡市早良区城西
8140004,福岡県,福岡市早良区,曙,フクオカケン,フクオカシサワラク,アケボノ,福岡県福岡市早良区曙
8140005,福岡県,福岡市早良区,祖原,フクオカケン,フクオカシサワラク,ソハラ,福岡県福岡市早良区祖原
8140006,福岡県,福岡市早良区,百道,フクオカケン,フクオカシサワラク,モモチ,福岡県福岡市早良区百道
8140011,福岡県,福岡市早良区,高取,フクオカケン,フクオカシサワラク,タカトリ,福岡県福岡市早良区高取
8140012,福岡県,福岡市早良区,昭代,フクオカケン,フクオカシサワラク,ショウダイ,福岡県福岡市早良区昭代
8140013,福岡県,福岡市早良区,藤崎,フクオカケン,フクオカシサワラク,フジサキ,福岡県福岡市早良区藤崎
8140014,福岡県,福岡市早良区,弥生,フクオカケン,フクオカシサワラク,ヤヨイ,福岡県福岡市早良区弥生
8140015,福岡県,福岡市早良区,室見,フクオカケン,フクオカシサワラク,ムロミ,福岡県福岡市早良区室見
8140021,福岡県,福岡市早良区,荒江,フクオカケン,フクオカシサワラク,アラエ,福岡県福岡市早良区荒江
8140022,福岡県,福岡市早良区,原,フクオカケン,フクオカシサワラク,ハラ,福岡県福岡市早良区原
8140023,福岡県,福岡市早良区,原団地,フクオカケン,フクオカシサワラク,ハラダンチ,福岡県福岡市早良区原団地
8140031,福岡県,福岡市早良区,南庄,フクオカケン,フクオカシサワラク,ミナミショウ,福岡県福岡市早良区南庄
8140032,福岡県,福岡市早良区,小田部,フクオカケン,フクオカシサワラク,コタベ,福岡県福岡市早良区小田部
8140033,福岡県,福岡市早良区,有田,フクオカケン,フクオカシサワラク,アリタ,福岡県福岡市早良区有田
8140034,福岡県,福岡市早良区,有田団地,フクオカケン,フクオカシサワラク,アリタダンチ,福岡県福岡市早良区有田団地
8140035,福岡県,福岡市早良区,室住団地,フクオカケン,フクオカシサワラク,ムロズミダンチ,福岡県福岡市早良区室住団地
8140100,福岡県,福岡市城南区,,フクオカケン,フクオカシジョウナンク,,福岡県福岡市城南区
8140101,福岡県,福岡市城南区,荒江,フクオカケン,フクオカシジョウナンク,アラエ,福岡県福岡市城南区荒江
8140102,福岡県,福岡市城南区,荒江団地,フクオカケン,フクオカシジョウナンク,アラエダンチ,福岡県福岡市城南区荒江団地
8140103,福岡県,福岡市城南区,鳥飼,フクオカケン,フクオカシジョウナンク,トリカイ,福岡県福岡市城南区鳥飼
8140104,福岡県,福岡市城南区,別府,フクオカケン,フクオカシジョウナンク,ベフ,福岡県福岡市城南区別府
8140105,福岡県,福岡市城南区,城西団地,フクオカケン,フクオカシジョウナンク,ジョウセイダンチ,福岡県福岡市城南区城西団地
8140106,福岡県,福岡市城南区,別府団地,フクオカケン,フクオカシジョウナンク,ベフダンチ,福岡県福岡市城南区別府団地
8140111,福岡県,福岡市城南区,茶山,フクオカケン,フクオカシジョウナンク,チャヤマ,福岡県福岡市城南区茶山
8140112,福岡県,福岡市城南区,友丘,フクオカケン,フクオカシジョウナンク,トモオカ,福岡県福岡市城南区友丘
8140113,福岡県,福岡市城南区,田島,フクオカケン,フクオカシジョウナンク,タシマ,福岡県福岡市城南区田島
8140114,福岡県,福岡市城南区,金山団地,フクオカケン,フクオカシジョウナンク,カナヤマダンチ,福岡県福岡市城南区金山団地
8140121,福岡県,福岡市城南区,神松寺,フクオカケン,フクオカシジョウナンク,シンショウジ,福岡県福岡市城南区神松寺
8140122,福岡県,福岡市城南区,友泉亭,フクオカケン,フクオカシジョウナンク,ユウセンテイ,福岡県福岡市城南区友泉亭
8140123,福岡県,福岡市城南区,長尾,フクオカケン,フクオカシジョウナンク,ナガオ,福岡県福岡市城南区長尾
8140131,福岡県,福岡市城南区,松山,フクオカケン,フクオカシジョウナンク,マツヤマ,福岡県福岡市城南区松山
8140132,福岡県,福岡市城南区,干隈,フクオカケン,フクオカシジョウナンク,ホシクマ,福岡県福岡市城南区干隈
8140133,福岡県,福岡市城南区,七隈,フクオカケン,フクオカシジョウナンク,ナナクマ,福岡県福岡市城南区七隈
8140134,福岡県,福岡市城南区,飯倉,フクオカケン,フクオカシジョウナンク,イイクラ,福岡県福岡市城南区飯倉
8140141,福岡県,福岡市城南区,西片江,フクオカケン,フクオカシジョウナンク,ニシカタエ,福岡県福岡市城南区西片江
8140142,福岡県,福岡市城南区,片江,フクオカケン,フクオカシジョウナンク,カタエ,福岡県福岡市城南区片江
8140143,福岡県,福岡市城南区,南片江,フクオカケン,フクオカシジョウナンク,ミナミカタエ,福岡県福岡市城南区南片江
8140144,福岡県,福岡市城南区,梅林,フクオカケン,フクオカシジョウナンク,ウメバヤシ,福岡県福岡市城南区梅林
8140151,福岡県,福岡市城南区,堤,フクオカケン,フクオカシジョウナンク,ツツミ,福岡県福岡市城南区堤
8140152,福岡県,福岡市城南区,堤団地,フクオカケン,フクオカシジョウナンク,ツツミダンチ,福岡県福岡市城南区堤団地
8140153,福岡県,福岡市城南区,樋井川,フクオカケン,フクオカシジョウナンク,ヒイカワ,福岡県福岡市城南区樋井川
8140154,福岡県,福岡市城南区,宝台団地,フクオカケン,フクオカシジョウナンク,タカラダイダンチ,福岡県福岡市城南区宝台団地
8140155,福岡県,福岡市城南区,東油山,フクオカケン,フクオカシジョウナンク,ヒガシアブラヤマ,福岡県福岡市城南区東油山
8140161,福岡県,福岡市早良区,飯倉,フクオカケン,フクオカシサワラク,イイクラ,福岡県福岡市早良区飯倉
8140162,福岡県,福岡市早良区,星の原団地,フクオカケン,フクオカシサワラク,ホシノハラダンチ,福岡県福岡市早良区星の原団地
8140163,福岡県,福岡市早良区,干隈,フクオカケン,フクオカシサワラク,ホシクマ,福岡県福岡市早良区干隈
8140164,福岡県,福岡市早良区,賀茂,フクオカケン,フクオカシサワラク,カモ,福岡県福岡市早良区賀茂
8140165,福岡県,福岡市早良区,次郎丸,フクオカケン,フクオカシサワラク,ジロウマル,福岡県福岡市早良区次郎丸
8140171,福岡県,福岡市早良区,野芥,フクオカケン,フクオカシサワラク,ノケ,福岡県福岡市早良区野芥
8140172,福岡県,福岡市早良区,梅林,フクオカケン,フクオカシサワラク,ウメバヤシ,福岡県福岡市早良区梅林
8140173,福岡県,福岡市早良区,西油山,フクオカケン,フクオカシサワラク,ニシアブラヤマ,福岡県福岡市早良区西油山
8140174,福岡県,福岡市早良区,田隈,フクオカケン,フクオカシサワラク,タグマ,福岡県福岡市早良区田隈
8140175,福岡県,福岡市早良区,田村,フクオカケン,フクオカシサワラク,タムラ,福岡県福岡市早良区田村
8140176,福岡県,福岡市早良区,四箇田団地,フクオカケン,フクオカシサワラク,シカタダンチ,福岡県福岡市早良区四箇田団地
8140177,福岡県,福岡市早良区,田,フクオカケン,フクオカシサワラク,タ,福岡県福岡市早良区田
8150000,福岡県,福岡市南区,,フクオカケン,フクオカシミナミク,,福岡県福岡市南区
8150001,福岡県,福岡市南区,五十川,フクオカケン,フクオカシミナミク,ゴジッカワ,福岡県福岡市南区五十川
8150004,福岡県,福岡市南区,高木,フクオカケン,フクオカシミナミク,タカキ,福岡県福岡市南区高木
8150031,福岡県,福岡市南区,清水,フクオカケン,フクオカシミナミク,シミズ,福岡県福岡市南区清水
8150032,福岡県,福岡市南区,塩原,フクオカケン,フクオカシミナミク,シオバル,福岡県福岡市南区塩原
8150033,福岡県,福岡市南区,大橋,フクオカケン,フクオカシミナミク,オオハシ,福岡県福岡市南区大橋
8150034,福岡県,福岡市南区,南大橋,フクオカケン,フクオカシミナミク,ミナミオオハシ,福岡県福岡市南区南大橋
8150035,福岡県,福岡市南区,向野,フクオカケン,フクオカシミナミク,ムカイノ,福岡県福岡市南区向野
8150036,福岡県,福岡市南区,筑紫丘,フクオカケン,フクオカシミナミク,チクシガオカ,福岡県福岡市南区筑紫丘
8150037,福岡県,福岡市南区,玉川町,フクオカケン,フクオカシミナミク,タマガワマチ,福岡県福岡市南区玉川町
8150038,福岡県,福岡市南区,大橋団地,フクオカケン,フクオカシミナミク,オオハシダンチ,福岡県福岡市南区大橋団地
8150041,福岡県,福岡市南区,野間,フクオカケン,フクオカシミナミク,ノマ,福岡県福岡市南区野間
8150042,福岡県,福岡市南区,若久,フクオカケン,フクオカシミナミク,ワカヒサ,福岡県福岡市南区若久
8150048,福岡県,福岡市南区,若久団地,フクオカケン,フクオカシミナミク,ワカヒサダンチ,福岡県福岡市南区若久団地
8150063,福岡県,福岡市南区,柳河内,フクオカケン,フクオカシミナミク,ヤナゴウチ,福岡県福岡市南区柳河内
8150071,福岡県,福岡市南区,平和,フクオカケン,フクオカシミナミク,ヘイワ,福岡県福岡市南区平和
8150072,福岡県,福岡市南区,多賀,フクオカケン,フクオカシミナミク,タガ,福岡県福岡市南区多賀
8150073,福岡県,福岡市南区,大池,フクオカケン,フクオカシミナミク,オオイケ,福岡県福岡市南区大池
8150074,福岡県,福岡市南区,寺塚,フクオカケン,フクオカシミナミク,テラヅカ,福岡県福岡市南区寺塚
8150075,福岡県,福岡市南区,長丘,フクオカケン,フクオカシミナミク,ナガオカ,福岡県福岡市南区長丘
8150081,福岡県,福岡市南区,那の川,フクオカケン,フクオカシミナミク,ナノカワ,福岡県福岡市南区那の川
8150082,福岡県,福岡市南区,大楠,フクオカケン,フクオカシミナミク,オオグス,福岡県福岡市南区大楠
8150083,福岡県,福岡市南区,高宮,フクオカケン,フクオカシミナミク,タカミヤ,福岡県福岡市南区高宮
8150084,福岡県,福岡市南区,市崎,フクオカケン,フクオカシミナミク,イチザキ,福岡県福岡市南区市崎
8160000,福岡県,大野城市,,フクオカケン,オオノジョウシ,,福岡県大野城市
8160000,福岡県,春日市,,フクオカケン,カスガシ,,福岡県春日市
8160801,福岡県,春日市,春日原東町,フクオカケン,カスガシ,カスガバルヒガシマチ,福岡県春日市春日原東町
8160802,福岡県,春日市,春日原北町,フクオカケン,カスガシ,カスガバルキタマチ,福岡県春日市春日原北町
8160803,福岡県,春日市,春日原南町,フクオカケン,カスガシ,カスガバルミナミマチ,福岡県春日市春日原南町
8160804,福岡県,春日市,原町,フクオカケン,カスガシ,ハラマチ,福岡県春日市原町
8160805,福岡県,春日市,千歳町,フクオカケン,カスガシ,チトセマチ,福岡県春日市千歳町
8160806,福岡県,春日市,光町,フクオカケン,カスガシ,ヒカリマチ,福岡県春日市光町
8160807,福岡県,春日市,宝町,フクオカケン,カスガシ,タカラマチ,福岡県春日市宝町
8160811,福岡県,春日市,春日公園,フクオカケン,カスガシ,カスガコウエン,福岡県春日市春日公園
8160812,福岡県,春日市,平田台,フクオカケン,カスガシ,ヒラタダイ,福岡県春日市平田台
8160813,福岡県,春日市,惣利,フクオカケン,カスガシ,ソウリ,福岡県春日市惣利
8160814,福岡県,春日市,春日,フクオカケン,カスガシ,カスガ,福岡県春日市春日
8160821,福岡県,春日市,若葉台東,フクオカケン,カスガシ,ワカバダイヒガシ,福岡県春日市若葉台東
8160822,福岡県,春日市,ちくし台,フクオカケン,カスガシ,チクシダイ,福岡県春日市ちくし台
8160823,福岡県,春日市,若葉台西,フクオカケン,カスガシ,ワカバダイニシ,福岡県春日市若葉台西
8160824,福岡県,春日市,小倉,フクオカケン,カスガシ,コクラ,福岡県春日市小倉
8160825,福岡県,春日市,伯玄町,フクオカケン,カスガシ,ハクゲンチョウ,福岡県春日市伯玄町
8160826,福岡県,春日市,小倉東,フクオカケン,カスガシ,コクラヒガシ,福岡県春日市小倉東
8160831,福岡県,春日市,大谷,フクオカケン,カスガシ,オオタニ,福岡県春日市大谷
8160832,福岡県,春日市,紅葉ケ丘西,フクオカケン,カスガシ,モミジガオカニシ,福岡県春日市紅葉ケ丘西
8160833,福岡県,春日市,紅葉ケ丘東,フクオカケン,カスガシ,モミジガオカヒガシ,福岡県春日市紅葉ケ丘東
8160841,福岡県,春日市,塚原台,フクオカケン,カスガシ,ツカハラダイ,福岡県春日市塚原台
8160842,福岡県,春日市,下白水,フクオカケン,カスガシ,シモシロウズ,福岡県春日市下白水
8160843,福岡県,春日市,松ケ丘,フクオカケン,カスガシ,マツガオカ,福岡県春日市松ケ丘
8160844,福岡県,春日市,上白水,フクオカケン,カスガシ,カミシロウズ,福岡県春日市上白水
8160845,福岡県,春日市,白水ケ丘,フクオカケン,カスガシ,シロウズガオカ,福岡県春日市白水ケ丘
8160846,福岡県,春日市,下白水南,フクオカケン,カスガシ,シモシロウズミナミ,福岡県春日市下白水南
8160847,福岡県,春日市,大土居,フクオカケン,カスガシ,オオドイ,福岡県春日市大土居
8160848,福岡県,春日市,白水池,フクオカケン,カスガシ,シロウズイケ,福岡県春日市白水池
8160849,福岡県,春日市,星見ヶ丘,フクオカケン,カスガシ,ホシミガオカ,福岡県春日市星見ヶ丘
8160851,福岡県,春日市,昇町,フクオカケン,カスガシ,ノボリマチ,福岡県春日市昇町
8160852,福岡県,春日市,一の谷,フクオカケン,カスガシ,イチノタニ,福岡県春日市一の谷
8160853,福岡県,春日市,泉,フクオカケン,カスガシ,イズミ,福岡県春日市泉
8160854,福岡県,春日市,下白水北,フクオカケン,カスガシ,シモシロウズキタ,福岡県春日市下白水北
8160855,福岡県,春日市,天神山,フクオカケン,カスガシ,テンジンヤマ,福岡県春日市天神山
8160861,福岡県,春日市,岡本,フクオカケン,カスガシ,オカモト,福岡県春日市岡本
8160862,福岡県,春日市,弥生,フクオカケン,カスガシ,ヤヨイ,福岡県春日市弥生
8160863,福岡県,春日市,須玖南,フクオカケン,カスガシ,スグミナミ,福岡県春日市須玖南
8160864,福岡県,春日市,須玖北,フクオカケン,カスガシ,スグキタ,福岡県春日市須玖北
8160871,福岡県,春日市,須玖,フクオカケン,カスガシ,スグ,福岡県春日市須玖
8160872,福岡県,春日市,桜ケ丘,フクオカケン,カスガシ,サクラガオカ,福岡県春日市桜ケ丘
8160873,福岡県,春日市,日の出町,フクオカケン,カスガシ,ヒノデマチ,福岡県春日市日の出町
8160874,福岡県,春日市,大和町,フクオカケン,カスガシ,ヤマトマチ,福岡県春日市大和町
8160901,福岡県,大野城市,乙金東,フクオカケン,オオノジョウシ,オトガナヒガシ,福岡県大野城市乙金東
8160902,福岡県,大野城市,乙金,フクオカケン,オオノジョウシ,オトガナ,福岡県大野城市乙金
8160903,福岡県,大野城市,乙金台,フクオカケン,オオノジョウシ,オトガナダイ,福岡県大野城市乙金台
8160904,福岡県,大野城市,大池,フクオカケン,オオノジョウシ,オオイケ,福岡県大野城市大池
8160905,福岡県,大野城市,川久保,フクオカケン,オオノジョウシ,カワクボ,福岡県大野城市川久保
8160906,福岡県,大野城市,中,フクオカケン,オオノジョウシ,ナカ,福岡県大野城市中
8160911,福岡県,大野城市,大城,フクオカケン,オオノジョウシ,オオキ,福岡県大野城市大城
8160912,福岡県,大野城市,御笠川,フクオカケン,オオノジョウシ,ミカサガワ,福岡県大野城市御笠川
8160921,福岡県,大野城市,仲畑,フクオカケン,オオノジョウシ,ナカハタ,福岡県大野城市仲畑
8160922,福岡県,大野城市,山田,フクオカケン,オオノジョウシ,ヤマダ,福岡県大野城市山田
8160923,福岡県,大野城市,雑餉隈町,フクオカケン,オオノジョウシ,ザツショノクママチ,福岡県大野城市雑餉隈町
8160924,福岡県,大野城市,栄町,フクオカケン,オオノジョウシ,サカエマチ,福岡県大野城市栄町
8160931,福岡県,大野城市,筒井,フクオカケン,オオノジョウシ,ツツイ,福岡県大野城市筒井
8160932,福岡県,大野城市,瓦田,フクオカケン,オオノジョウシ,カワラダ,福岡県大野城市瓦田
8160933,福岡県,大野城市,瑞穂町,フクオカケン,オオノジョウシ,ミズホマチ,福岡県大野城市瑞穂町
8160934,福岡県,大野城市,曙町,フクオカケン,オオノジョウシ,アケボノマチ,福岡県大野城市曙町
8160935,福岡県,大野城市,錦町,フクオカケン,オオノジョウシ,ニシキマチ,福岡県大野城市錦町
8160941,福岡県,大野城市,東大利,フクオカケン,オオノジョウシ,ヒガシオオリ,福岡県大野城市東大利
8160942,福岡県,大野城市,中央,フクオカケン,オオノジョウシ,チュウオウ,福岡県大野城市中央
8160943,福岡県,大野城市,白木原,フクオカケン,オオノジョウシ,シラキバル,福岡県大野城市白木原
8160951,福岡県,大野城市,下大利団地,フクオカケン,オオノジョウシ,シモオオリダンチ,福岡県大野城市下大利団地
8160952,福岡県,大野城市,下大利,フクオカケン,オオノジョウシ,シモオオリ,福岡県大野城市下大利
8160953,福岡県,大野城市,旭ケ丘,フクオカケン,オオノジョウシ,アサヒガオカ,福岡県大野城市旭ケ丘
8160954,福岡県,大野城市,紫台,フクオカケン,オオノジョウシ,ムラサキダイ,福岡県大野城市紫台
8160955,福岡県,大野城市,上大利,フクオカケン,オオノジョウシ,カミオオリ,福岡県大野城市上大利
8160956,福岡県,大野城市,南大利,フクオカケン,オオノジョウシ,ミナミオオリ,福岡県大野城市南大利
8160961,福岡県,大野城市,緑ケ丘,フクオカケン,オオノジョウシ,ミドリガオカ,福岡県大野城市緑ケ丘
8160962,福岡県,大野城市,つつじケ丘,フクオカケン,オオノジョウシ,ツツジガオカ,福岡県大野城市つつじケ丘
8160963,福岡県,大野城市,宮野台,フクオカケン,オオノジョウシ,ミヤノダイ,福岡県大野城市宮野台
8160964,福岡県,大野城市,南ケ丘,フクオカケン,オオノジョウシ,ミナミガオカ,福岡県大野城市南ケ丘
8160971,福岡県,大野城市,牛頸,フクオカケン,オオノジョウシ,ウシクビ,福岡県大野城市牛頸
8160972,福岡県,大野城市,平野台,フクオカケン,オオノジョウシ,ヒラノダイ,福岡県大野城市平野台
8160973,福岡県,大野城市,横峰,フクオカケン,オオノジョウシ,ヨコミネ,福岡県大野城市横峰
8160981,福岡県,大野城市,若草,フクオカケン,オオノジョウシ,ワカクサ,福岡県大野城市若草
8160982,福岡県,大野城市,畑ケ坂,フクオカケン,オオノジョウシ,ハタガサカ,福岡県大野城市畑ケ坂
8160983,福岡県,大野城市,月の浦,フクオカケン,オオノジョウシ,ツキノウラ,福岡県大野城市月の浦
8180000,福岡県,筑紫野市,,フクオカケン,チクシノシ,,福岡県筑紫野市
8180001,福岡県,筑紫野市,柚須原,フクオカケン,チクシノシ,ユスバル,福岡県筑紫野市柚須原
8180002,福岡県,筑紫野市,香園,フクオカケン,チクシノシ,コウゾノ,福岡県筑紫野市香園
8180003,福岡県,筑紫野市,山家,フクオカケン,チクシノシ,ヤマエ,福岡県筑紫野市山家
8180004,福岡県,筑紫野市,吉木,フクオカケン,チクシノシ,ヨシキ,福岡県筑紫野市吉木
8180005,福岡県,筑紫野市,原,フクオカケン,チクシノシ,ハル,福岡県筑紫野市原
8180006,福岡県,筑紫野市,大石,フクオカケン,チクシノシ,オオイシ,福岡県筑紫野市大石
8180007,福岡県,筑紫野市,本道寺,フクオカケン,チクシノシ,ホンドウジ,福岡県筑紫野市本道寺
8180011,福岡県,筑紫野市,阿志岐,フクオカケン,チクシノシ,アシキ,福岡県筑紫野市阿志岐
8180012,福岡県,筑紫野市,天山,フクオカケン,チクシノシ,アマヤマ,福岡県筑紫野市天山
8180013,福岡県,筑紫野市,岡田,フクオカケン,チクシノシ,オカダ,福岡県筑紫野市岡田
8180014,福岡県,筑紫野市,牛島,フクオカケン,チクシノシ,ウシジマ,福岡県筑紫野市牛島
8180021,福岡県,筑紫野市,下見,フクオカケン,チクシノシ,シタミ,福岡県筑紫野市下見
8180022,福岡県,筑紫野市,筑紫駅前通,フクオカケン,チクシノシ,チクシエキマエドオリ,福岡県筑紫野市筑紫駅前通
8180023,福岡県,筑紫野市,若江,フクオカケン,チクシノシ,ワカエ,福岡県筑紫野市若江
8180024,福岡県,筑紫野市,原田,フクオカケン,チクシノシ,ハルダ,福岡県筑紫野市原田
8180025,福岡県,筑紫野市,筑紫,フクオカケン,チクシノシ,チクシ,福岡県筑紫野市筑紫
8180026,福岡県,筑紫野市,美咲,フクオカケン,チクシノシ,ミサキ,福岡県筑紫野市美咲
8180031,福岡県,筑紫野市,隈,フクオカケン,チクシノシ,クマ,福岡県筑紫野市隈
8180032,福岡県,筑紫野市,西小田,フクオカケン,チクシノシ,ニシオダ,福岡県筑紫野市西小田
8180034,福岡県,筑紫野市,美しが丘南,フクオカケン,チクシノシ,ウツクシガオカミナミ,福岡県筑紫野市美しが丘南
8180035,福岡県,筑紫野市,美しが丘北,フクオカケン,チクシノシ,ウツクシガオカキタ,福岡県筑紫野市美しが丘北
8180036,福岡県,筑紫野市,光が丘,フクオカケン,チクシノシ,ヒカリガオカ,福岡県筑紫野市光が丘
8180041,福岡県,筑紫野市,上古賀,フクオカケン,チクシノシ,カミコガ,福岡県筑紫野市上古賀
8180042,福岡県,筑紫野市,立明寺,フクオカケン,チクシノシ,リュウミョウジ,福岡県筑紫野市立明寺
8180043,福岡県,筑紫野市,むさしケ丘,フクオカケン,チクシノシ,ムサシガオカ,福岡県筑紫野市むさしケ丘
8180044,福岡県,筑紫野市,萩原,フクオカケン,チクシノシ,ハギワラ,福岡県筑紫野市萩原
8180045,福岡県,筑紫野市,平等寺,フクオカケン,チクシノシ,ビョウドウジ,福岡県筑紫野市平等寺
8180046,福岡県,筑紫野市,山口,フクオカケン,チクシノシ,ヤマグチ,福岡県筑紫野市山口
8180047,福岡県,筑紫野市,古賀,フクオカケン,チクシノシ,コガ,福岡県筑紫野市古賀
8180052,福岡県,筑紫野市,武藏,フクオカケン,チクシノシ,ムサシ,福岡県筑紫野市武藏
8180053,福岡県,筑紫野市,天拝坂,フクオカケン,チクシノシ,テンパイザカ,福岡県筑紫野市天拝坂
8180054,福岡県,筑紫野市,杉塚,フクオカケン,チクシノシ,スギヅカ,福岡県筑紫野市杉塚
8180056,福岡県,筑紫野市,二日市北,フクオカケン,チクシノシ,フツカイチキタ,福岡県筑紫野市二日市北
8180057,福岡県,筑紫野市,二日市南,フクオカケン,チクシノシ,フツカイチミナミ,福岡県筑紫野市二日市南
8180058,福岡県,筑紫野市,湯町,フクオカケン,チクシノシ,ユマチ,福岡県筑紫野市湯町
8180059,福岡県,筑紫野市,塔原東,フクオカケン,チクシノシ,トウノハルヒガシ,福岡県筑紫野市塔原東
8180061,福岡県,筑紫野市,紫,フクオカケン,チクシノシ,ムラサキ,福岡県筑紫野市紫
8180063,福岡県,筑紫野市,桜台,フクオカケン,チクシノシ,サクラダイ,福岡県筑紫野市桜台
8180064,福岡県,筑紫野市,常松,フクオカケン,チクシノシ,ツネマツ,福岡県筑紫野市常松
8180065,福岡県,筑紫野市,諸田,フクオカケン,チクシノシ,モロタ,福岡県筑紫野市諸田
8180066,福岡県,筑紫野市,永岡,フクオカケン,チクシノシ,ナガオカ,福岡県筑紫野市永岡
8180067,福岡県,筑紫野市,俗明院,フクオカケン,チクシノシ,ゾクミョウイン,福岡県筑紫野市俗明院
8180068,福岡県,筑紫野市,石崎,フクオカケン,チクシノシ,イシザキ,福岡県筑紫野市石崎
8180071,福岡県,筑紫野市,二日市西,フクオカケン,チクシノシ,フツカイチニシ,福岡県筑紫野市二日市西
8180072,福岡県,筑紫野市,二日市中央,フクオカケン,チクシノシ,フツカイチチュウオウ,福岡県筑紫野市二日市中央
8180073,福岡県,筑紫野市,塔原西,フクオカケン,チクシノシ,トウノハルニシ,福岡県筑紫野市塔原西
8180074,福岡県,筑紫野市,塔原南,フクオカケン,チクシノシ,トウノハルミナミ,福岡県筑紫野市塔原南
8180081,福岡県,筑紫野市,針摺東,フクオカケン,チクシノシ,ハリスリヒガシ,福岡県筑紫野市針摺東
8180082,福岡県,筑紫野市,針摺南,フクオカケン,チクシノシ,ハリスリミナミ,福岡県筑紫野市針摺南
8180083,福岡県,筑紫野市,針摺中央,フクオカケン,チクシノシ,ハリスリチュウオウ,福岡県筑紫野市針摺中央
8180084,福岡県,筑紫野市,針摺西,フクオカケン,チクシノシ,ハリスリニシ,福岡県筑紫野市針摺西
8180085,福岡県,筑紫野市,針摺北,フクオカケン,チクシノシ,ハリスリキタ,福岡県筑紫野市針摺北
8180100,福岡県,太宰府市,,フクオカケン,ダザイフシ,,福岡県太宰府市
8180101,福岡県,太宰府市,観世音寺,フクオカケン,ダザイフシ,カンゼオンジ,福岡県太宰府市観世音寺
8180102,福岡県,太宰府市,白川,フクオカケン,ダザイフシ,シラカワ,福岡県太宰府市白川
8180103,福岡県,太宰府市,朱雀,フクオカケン,ダザイフシ,スザク,福岡県太宰府市朱雀
8180104,福岡県,太宰府市,通古賀,フクオカケン,ダザイフシ,トオノコガ,福岡県太宰府市通古賀
8180105,福岡県,太宰府市,都府楼南,フクオカケン,ダザイフシ,トフロウミナミ,福岡県太宰府市都府楼南
8180110,福岡県,太宰府市,御笠,フクオカケン,ダザイフシ,ミカサ,福岡県太宰府市御笠
8180111,福岡県,太宰府市,三条,フクオカケン,ダザイフシ,サンジョウ,福岡県太宰府市三条
8180114,福岡県,太宰府市,北谷,フクオカケン,ダザイフシ,キタダニ,福岡県太宰府市北谷
8180115,福岡県,太宰府市,内山,フクオカケン,ダザイフシ,ウチヤマ,福岡県太宰府市内山
8180117,福岡県,太宰府市,宰府,フクオカケン,ダザイフシ,サイフ,福岡県太宰府市宰府
8180118,福岡県,太宰府市,石坂,フクオカケン,ダザイフシ,イシザカ,福岡県太宰府市石坂
8180119,福岡県,太宰府市,連歌屋,フクオカケン,ダザイフシ,レンガヤ,福岡県太宰府市連歌屋
8180121,福岡県,太宰府市,青山,フクオカケン,ダザイフシ,アオヤマ,福岡県太宰府市青山
8180122,福岡県,太宰府市,高雄,フクオカケン,ダザイフシ,タカオ,福岡県太宰府市高雄
8180123,福岡県,太宰府市,梅ケ丘,フクオカケン,ダザイフシ,ウメガオカ,福岡県太宰府市梅ケ丘
8180124,福岡県,太宰府市,梅香苑,フクオカケン,ダザイフシ,バイコウエン,福岡県太宰府市梅香苑
8180125,福岡県,太宰府市,五条,フクオカケン,ダザイフシ,ゴジョウ,福岡県太宰府市五条
8180131,福岡県,太宰府市,水城,フクオカケン,ダザイフシ,ミズキ,福岡県太宰府市水城
8180132,福岡県,太宰府市,国分,フクオカケン,ダザイフシ,コクブ,福岡県太宰府市国分
8180133,福岡県,太宰府市,坂本,フクオカケン,ダザイフシ,サカモト,福岡県太宰府市坂本
8180134,福岡県,太宰府市,大佐野,フクオカケン,ダザイフシ,オオザノ,福岡県太宰府市大佐野
8180135,福岡県,太宰府市,向佐野,フクオカケン,ダザイフシ,ムカイザノ,福岡県太宰府市向佐野
8180136,福岡県,太宰府市,長浦台,フクオカケン,ダザイフシ,ナガウラダイ,福岡県太宰府市長浦台
8180137,福岡県,太宰府市,青葉台,フクオカケン,ダザイフシ,アオバダイ,福岡県太宰府市青葉台
8180138,福岡県,太宰府市,吉松,フクオカケン,ダザイフシ,ヨシマツ,福岡県太宰府市吉松
8180139,福岡県,太宰府市,宰都,フクオカケン,ダザイフシ,サイト,福岡県太宰府市宰都
8190000,福岡県,福岡市西区,,フクオカケン,フクオカシニシク,,福岡県福岡市西区
8190001,福岡県,福岡市西区,小戸,フクオカケン,フクオカシニシク,オド,福岡県福岡市西区小戸
8190002,福岡県,福岡市西区,姪の浜,フクオカケン,フクオカシニシク,メイノハマ,福岡県福岡市西区姪の浜
8190005,福岡県,福岡市西区,内浜,フクオカケン,フクオカシニシク,ウチハマ,福岡県福岡市西区内浜
8190006,福岡県,福岡市西区,姪浜駅南,フクオカケン,フクオカシニシク,メイノハマエキミナミ,福岡県福岡市西区姪浜駅南
8190007,福岡県,福岡市西区,愛宕南,フクオカケン,フクオカシニシク,アタゴミナミ,福岡県福岡市西区愛宕南
8190011,福岡県,福岡市西区,小呂島,フクオカケン,フクオカシニシク,オロノシマ,福岡県福岡市西区小呂島
8190012,福岡県,福岡市西区,能古,フクオカケン,フクオカシニシク,ノコ,福岡県福岡市西区能古
8190013,福岡県,福岡市西区,愛宕浜,フクオカケン,フクオカシニシク,アタゴハマ,福岡県福岡市西区愛宕浜
8190014,福岡県,福岡市西区,豊浜,フクオカケン,フクオカシニシク,トヨハマ,福岡県福岡市西区豊浜
8190015,福岡県,福岡市西区,愛宕,フクオカケン,フクオカシニシク,アタゴ,福岡県福岡市西区愛宕
8190021,福岡県,福岡市西区,大町団地,フクオカケン,フクオカシニシク,オオマチダンチ,福岡県福岡市西区大町団地
8190022,福岡県,福岡市西区,福重,フクオカケン,フクオカシニシク,フクシゲ,福岡県福岡市西区福重
8190023,福岡県,福岡市西区,福重団地,フクオカケン,フクオカシニシク,フクシゲダンチ,福岡県福岡市西区福重団地
8190024,福岡県,福岡市西区,十郎川団地,フクオカケン,フクオカシニシク,ジュウロウガワダンチ,福岡県福岡市西区十郎川団地
8190025,福岡県,福岡市西区,石丸,フクオカケン,フクオカシニシク,イシマル,福岡県福岡市西区石丸
8190030,福岡県,福岡市西区,室見が丘,フクオカケン,フクオカシニシク,ムロミガオカ,福岡県福岡市西区室見が丘
8190031,福岡県,福岡市西区,橋本（丁目）,フクオカケン,フクオカシニシク,ハシモト(チョウメ),福岡県福岡市西区橋本（丁目）
8190032,福岡県,福岡市西区,戸切,フクオカケン,フクオカシニシク,トギレ,福岡県福岡市西区戸切
8190033,福岡県,福岡市西区,橋本（大字）,フクオカケン,フクオカシニシク,ハシモト(オオアザ),福岡県福岡市西区橋本（大字）
8190034,福岡県,福岡市西区,田,フクオカケン,フクオカシニシク,タ,福岡県福岡市西区田
8190035,福岡県,福岡市西区,金武,フクオカケン,フクオカシニシク,カナタケ,福岡県福岡市西区金武
8190036,福岡県,福岡市西区,吉武,フクオカケン,フクオカシニシク,ヨシタケ,福岡県福岡市西区吉武
8190037,福岡県,福岡市西区,飯盛,フクオカケン,フクオカシニシク,イイモリ,福岡県福岡市西区飯盛
8190038,福岡県,福岡市西区,羽根戸,フクオカケン,フクオカシニシク,ハネド,福岡県福岡市西区羽根戸
8190039,福岡県,福岡市西区,西入部,フクオカケン,フクオカシニシク,ニシイリベ,福岡県福岡市西区西入部
8190041,福岡県,福岡市西区,拾六町,フクオカケン,フクオカシニシク,ジュウロクチョウ,福岡県福岡市西区拾六町
8190042,福岡県,福岡市西区,壱岐団地,フクオカケン,フクオカシニシク,イキダンチ,福岡県福岡市西区壱岐団地
8190043,福岡県,福岡市西区,野方,フクオカケン,フクオカシニシク,ノカタ,福岡県福岡市西区野方
8190044,福岡県,福岡市西区,生松台,フクオカケン,フクオカシニシク,イキマツダイ,福岡県福岡市西区生松台
8190045,福岡県,福岡市西区,拾六町団地,フクオカケン,フクオカシニシク,ジュウロクチョウダンチ,福岡県福岡市西区拾六町団地
8190046,福岡県,福岡市西区,西の丘,フクオカケン,フクオカシニシク,ニシノオカ,福岡県福岡市西区西の丘
8190051,福岡県,福岡市西区,下山門団地,フクオカケン,フクオカシニシク,シモヤマトダンチ,福岡県福岡市西区下山門団地
8190052,福岡県,福岡市西区,下山門,フクオカケン,フクオカシニシク,シモヤマト,福岡県福岡市西区下山門
8190053,福岡県,福岡市西区,城の原団地,フクオカケン,フクオカシニシク,ジョウノハルダンチ,福岡県福岡市西区城の原団地
8190054,福岡県,福岡市西区,上山門,フクオカケン,フクオカシニシク,カミヤマト,福岡県福岡市西区上山門
8190055,福岡県,福岡市西区,生の松原,フクオカケン,フクオカシニシク,イキノマツバラ,福岡県福岡市西区生の松原
8190161,福岡県,福岡市西区,今宿東,フクオカケン,フクオカシニシク,イマジュクヒガシ,福岡県福岡市西区今宿東
8190162,福岡県,福岡市西区,今宿青木,フクオカケン,フクオカシニシク,イマジュクアオキ,福岡県福岡市西区今宿青木
8190163,福岡県,福岡市西区,今宿上ノ原,フクオカケン,フクオカシニシク,イマジュクカミノハル,福岡県福岡市西区今宿上ノ原
8190164,福岡県,福岡市西区,今宿町,フクオカケン,フクオカシニシク,イマジュクマチ,福岡県福岡市西区今宿町
8190165,福岡県,福岡市西区,今津,フクオカケン,フクオカシニシク,イマヅ,福岡県福岡市西区今津
8190166,福岡県,福岡市西区,横浜（１〜２丁目）,フクオカケン,フクオカシニシク,ヨコハマ(1-2チョウメ),福岡県福岡市西区横浜（1〜2-）
8190167,福岡県,福岡市西区,今宿,フクオカケン,フクオカシニシク,イマジュク,福岡県福岡市西区今宿
8190168,福岡県,福岡市西区,今宿駅前,フクオカケン,フクオカシニシク,イマジュクエキマエ,福岡県福岡市西区今宿駅前
8190169,福岡県,福岡市西区,今宿西,フクオカケン,フクオカシニシク,イマジュクニシ,福岡県福岡市西区今宿西
8190201,福岡県,福岡市西区,宮浦,フクオカケン,フクオカシニシク,ミヤノウラ,福岡県福岡市西区宮浦
8190202,福岡県,福岡市西区,西浦,フクオカケン,フクオカシニシク,ニシノウラ,福岡県福岡市西区西浦
8190203,福岡県,福岡市西区,小田,フクオカケン,フクオカシニシク,コタ,福岡県福岡市西区小田
8190204,福岡県,福岡市西区,草場,フクオカケン,フクオカシニシク,クサバ,福岡県福岡市西区草場
8190205,福岡県,福岡市西区,玄界島,フクオカケン,フクオカシニシク,ゲンカイシマ,福岡県福岡市西区玄界島
8190366,福岡県,福岡市西区,横浜（３丁目）,フクオカケン,フクオカシニシク,ヨコハマ(3チョウメ),福岡県福岡市西区横浜（3-）
8190367,福岡県,福岡市西区,西都,フクオカケン,フクオカシニシク,サイト,福岡県福岡市西区西都
8190370,福岡県,福岡市西区,丸川,フクオカケン,フクオカシニシク,マルガワ,福岡県福岡市西区丸川
8190371,福岡県,福岡市西区,飯氏,フクオカケン,フクオカシニシク,イイジ,福岡県福岡市西区飯氏
8190372,福岡県,福岡市西区,宇田川原,フクオカケン,フクオカシニシク,ウダガワラ,福岡県福岡市西区宇田川原
8190373,福岡県,福岡市西区,周船寺,フクオカケン,フクオカシニシク,スセンジ,福岡県福岡市西区周船寺
8190374,福岡県,福岡市西区,千里,フクオカケン,フクオカシニシク,センリ,福岡県福岡市西区千里
8190375,福岡県,福岡市西区,徳永,フクオカケン,フクオカシニシク,トクナガ,福岡県福岡市西区徳永
8190376,福岡県,福岡市西区,女原,フクオカケン,フクオカシニシク,ミョウバル,福岡県福岡市西区女原
8190377,福岡県,福岡市西区,女原北,フクオカケン,フクオカシニシク,ミョウバルキタ,福岡県福岡市西区女原北
8190378,福岡県,福岡市西区,徳永北,フクオカケン,フクオカシニシク,トクナガキタ,福岡県福岡市西区徳永北
8190379,福岡県,福岡市西区,北原,フクオカケン,フクオカシニシク,キタバル,福岡県福岡市西区北原
8190380,福岡県,福岡市西区,田尻東,フクオカケン,フクオカシニシク,タジリヒガシ,福岡県福岡市西区田尻東
8190381,福岡県,福岡市西区,泉,フクオカケン,フクオカシニシク,イズミ,福岡県福岡市西区泉
8190382,福岡県,福岡市西区,桑原,フクオカケン,フクオカシニシク,クワバラ,福岡県福岡市西区桑原
8190383,福岡県,福岡市西区,田尻,フクオカケン,フクオカシニシク,タジリ,福岡県福岡市西区田尻
8190384,福岡県,福岡市西区,太郎丸,フクオカケン,フクオカシニシク,タロウマル,福岡県福岡市西区太郎丸
8190385,福岡県,福岡市西区,元岡,フクオカケン,フクオカシニシク,モトオカ,福岡県福岡市西区元岡
8190386,福岡県,福岡市西区,元浜,フクオカケン,フクオカシニシク,モトハマ,福岡県福岡市西区元浜
8190387,福岡県,福岡市西区,富士見,フクオカケン,フクオカシニシク,フジミ,福岡県福岡市西区富士見
8190388,福岡県,福岡市西区,九大新町,フクオカケン,フクオカシニシク,キュウダイシンマチ,福岡県福岡市西区九大新町
8190389,福岡県,福岡市西区,学園通,フクオカケン,フクオカシニシク,ガクエンドオリ,福岡県福岡市西区学園通
8191100,福岡県,糸島市,,フクオカケン,イトシマシ,,福岡県糸島市
8191101,福岡県,糸島市,板持,フクオカケン,イトシマシ,イタモチ,福岡県糸島市板持
8191102,福岡県,糸島市,高田,フクオカケン,イトシマシ,タカタ,福岡県糸島市高田
8191103,福岡県,糸島市,池田,フクオカケン,イトシマシ,イケダ,福岡県糸島市池田
8191104,福岡県,糸島市,波多江,フクオカケン,イトシマシ,ハタエ,福岡県糸島市波多江
8191105,福岡県,糸島市,潤,フクオカケン,イトシマシ,ウルウ,福岡県糸島市潤
8191106,福岡県,糸島市,志登,フクオカケン,イトシマシ,シト,福岡県糸島市志登
8191107,福岡県,糸島市,波多江駅北,フクオカケン,イトシマシ,ハタエエキキタ,福岡県糸島市波多江駅北
8191108,福岡県,糸島市,波多江駅南,フクオカケン,イトシマシ,ハタエエキミナミ,福岡県糸島市波多江駅南
8191111,福岡県,糸島市,泊,フクオカケン,イトシマシ,トマリ,福岡県糸島市泊
8191112,福岡県,糸島市,浦志,フクオカケン,イトシマシ,ウラシ,福岡県糸島市浦志
8191113,福岡県,糸島市,前原,フクオカケン,イトシマシ,マエバル,福岡県糸島市前原
8191114,福岡県,糸島市,新田,フクオカケン,イトシマシ,シンデン,福岡県糸島市新田
8191115,福岡県,糸島市,油比,フクオカケン,イトシマシ,ユビ,福岡県糸島市油比
8191116,福岡県,糸島市,前原中央,フクオカケン,イトシマシ,マエバルチュウオウ,福岡県糸島市前原中央
8191117,福岡県,糸島市,前原西,フクオカケン,イトシマシ,マエバルニシ,福岡県糸島市前原西
8191118,福岡県,糸島市,前原北,フクオカケン,イトシマシ,マエバルキタ,福岡県糸島市前原北
8191119,福岡県,糸島市,前原東,フクオカケン,イトシマシ,マエバルヒガシ,福岡県糸島市前原東
8191120,福岡県,糸島市,神在東,フクオカケン,イトシマシ,カミアリヒガシ,福岡県糸島市神在東
8191121,福岡県,糸島市,荻浦,フクオカケン,イトシマシ,オギノウラ,福岡県糸島市荻浦
8191122,福岡県,糸島市,東,フクオカケン,イトシマシ,ヒガシ,福岡県糸島市東
8191123,福岡県,糸島市,神在,フクオカケン,イトシマシ,カミアリ,福岡県糸島市神在
8191124,福岡県,糸島市,加布里,フクオカケン,イトシマシ,カフリ,福岡県糸島市加布里
8191125,福岡県,糸島市,千早新田,フクオカケン,イトシマシ,チハヤシンデン,福岡県糸島市千早新田
8191126,福岡県,糸島市,岩本,フクオカケン,イトシマシ,イワモト,福岡県糸島市岩本
8191127,福岡県,糸島市,有田中央,フクオカケン,イトシマシ,アリタチュウオウ,福岡県糸島市有田中央
8191128,福岡県,糸島市,篠原東,フクオカケン,イトシマシ,シノワラヒガシ,福岡県糸島市篠原東
8191129,福岡県,糸島市,篠原西,フクオカケン,イトシマシ,シノワラニシ,福岡県糸島市篠原西
8191130,福岡県,糸島市,伊都の杜,フクオカケン,イトシマシ,イトノモリ,福岡県糸島市伊都の杜
8191131,福岡県,糸島市,篠原,フクオカケン,イトシマシ,シノワラ,福岡県糸島市篠原
8191132,福岡県,糸島市,有田,フクオカケン,イトシマシ,アリタ,福岡県糸島市有田
8191133,福岡県,糸島市,富,フクオカケン,イトシマシ,トミ,福岡県糸島市富
8191134,福岡県,糸島市,多久,フクオカケン,イトシマシ,タク,福岡県糸島市多久
8191135,福岡県,糸島市,大浦,フクオカケン,イトシマシ,オオウラ,福岡県糸島市大浦
8191136,福岡県,糸島市,美咲が丘,フクオカケン,イトシマシ,ミサキガオカ,福岡県糸島市美咲が丘
8191137,福岡県,糸島市,南風台,フクオカケン,イトシマシ,ミナカゼダイ,福岡県糸島市南風台
8191138,福岡県,糸島市,前原駅南,フクオカケン,イトシマシ,マエバルエキミナミ,福岡県糸島市前原駅南
8191139,福岡県,糸島市,前原南,フクオカケン,イトシマシ,マエバルミナミ,福岡県糸島市前原南
8191141,福岡県,糸島市,蔵持,フクオカケン,イトシマシ,クラモチ,福岡県糸島市蔵持
8191142,福岡県,糸島市,八島,フクオカケン,イトシマシ,ヤシマ,福岡県糸島市八島
8191143,福岡県,糸島市,高上,フクオカケン,イトシマシ,タカウエ,福岡県糸島市高上
8191144,福岡県,糸島市,山北,フクオカケン,イトシマシ,ヤマギタ,福岡県糸島市山北
8191145,福岡県,糸島市,雷山,フクオカケン,イトシマシ,ライザン,福岡県糸島市雷山
8191146,福岡県,糸島市,三坂,フクオカケン,イトシマシ,ミサカ,福岡県糸島市三坂
8191147,福岡県,糸島市,香力,フクオカケン,イトシマシ,コウリキ,福岡県糸島市香力
8191148,福岡県,糸島市,神在西,フクオカケン,イトシマシ,カミアリニシ,福岡県糸島市神在西
8191149,福岡県,糸島市,千早新田西,フクオカケン,イトシマシ,チハヤシンデンニシ,福岡県糸島市千早新田西
8191151,福岡県,糸島市,本,フクオカケン,イトシマシ,ホン,福岡県糸島市本
8191152,福岡県,糸島市,飯原,フクオカケン,イトシマシ,イイバル,福岡県糸島市飯原
8191153,福岡県,糸島市,長野,フクオカケン,イトシマシ,ナガノ,福岡県糸島市長野
8191154,福岡県,糸島市,白糸,フクオカケン,イトシマシ,シライト,福岡県糸島市白糸
8191155,福岡県,糸島市,川付,フクオカケン,イトシマシ,カワツキ,福岡県糸島市川付
8191156,福岡県,糸島市,瀬戸,フクオカケン,イトシマシ,セト,福岡県糸島市瀬戸
8191301,福岡県,糸島市,志摩井田原,フクオカケン,イトシマシ,シマイダハラ,福岡県糸島市志摩井田原
8191302,福岡県,糸島市,志摩吉田,フクオカケン,イトシマシ,シマヨシダ,福岡県糸島市志摩吉田
8191303,福岡県,糸島市,志摩野北,フクオカケン,イトシマシ,シマノギタ,福岡県糸島市志摩野北
8191304,福岡県,糸島市,志摩桜井,フクオカケン,イトシマシ,シマサクライ,福岡県糸島市志摩桜井
8191305,福岡県,糸島市,志摩馬場,フクオカケン,イトシマシ,シマババ,福岡県糸島市志摩馬場
8191306,福岡県,糸島市,志摩松隈,フクオカケン,イトシマシ,シママツグマ,福岡県糸島市志摩松隈
8191311,福岡県,糸島市,志摩津和崎,フクオカケン,イトシマシ,シマツワザキ,福岡県糸島市志摩津和崎
8191312,福岡県,糸島市,志摩初,フクオカケン,イトシマシ,シマハツ,福岡県糸島市志摩初
8191313,福岡県,糸島市,志摩稲留,フクオカケン,イトシマシ,シマイナドメ,福岡県糸島市志摩稲留
8191314,福岡県,糸島市,志摩師吉,フクオカケン,イトシマシ,シマモロヨシ,福岡県糸島市志摩師吉
8191315,福岡県,糸島市,志摩稲葉,フクオカケン,イトシマシ,シマイナバ,福岡県糸島市志摩稲葉
8191321,福岡県,糸島市,志摩小富士,フクオカケン,イトシマシ,シマコフジ,福岡県糸島市志摩小富士
8191322,福岡県,糸島市,志摩御床,フクオカケン,イトシマシ,シマミトコ,福岡県糸島市志摩御床
8191323,福岡県,糸島市,志摩小金丸,フクオカケン,イトシマシ,シマコガネマル,福岡県糸島市志摩小金丸
8191324,福岡県,糸島市,志摩東貝塚,フクオカケン,イトシマシ,シマヒガシカイヅカ,福岡県糸島市志摩東貝塚
8191325,福岡県,糸島市,志摩西貝塚,フクオカケン,イトシマシ,シマニシカイヅカ,福岡県糸島市志摩西貝塚
8191331,福岡県,糸島市,志摩久家,フクオカケン,イトシマシ,シマクガ,福岡県糸島市志摩久家
8191332,福岡県,糸島市,志摩船越,フクオカケン,イトシマシ,シマフナコシ,福岡県糸島市志摩船越
8191333,福岡県,糸島市,志摩新町,フクオカケン,イトシマシ,シマシンマチ,福岡県糸島市志摩新町
8191334,福岡県,糸島市,志摩岐志,フクオカケン,イトシマシ,シマキシ,福岡県糸島市志摩岐志
8191335,福岡県,糸島市,志摩芥屋,フクオカケン,イトシマシ,シマケヤ,福岡県糸島市志摩芥屋
8191336,福岡県,糸島市,志摩姫島,フクオカケン,イトシマシ,シマヒメシマ,福岡県糸島市志摩姫島
8191561,福岡県,糸島市,曽根,フクオカケン,イトシマシ,ソネ,福岡県糸島市曽根
8191562,福岡県,糸島市,井田,フクオカケン,イトシマシ,イタ,福岡県糸島市井田
8191563,福岡県,糸島市,高来寺,フクオカケン,イトシマシ,コウライジ,福岡県糸島市高来寺
8191564,福岡県,糸島市,大門,フクオカケン,イトシマシ,ダイモン,福岡県糸島市大門
8191571,福岡県,糸島市,高祖,フクオカケン,イトシマシ,タカス,福岡県糸島市高祖
8191572,福岡県,糸島市,末永,フクオカケン,イトシマシ,スエナガ,福岡県糸島市末永
8191573,福岡県,糸島市,王丸,フクオカケン,イトシマシ,オウマル,福岡県糸島市王丸
8191574,福岡県,糸島市,川原,フクオカケン,イトシマシ,カワバル,福岡県糸島市川原
8191575,福岡県,糸島市,西堂,フクオカケン,イトシマシ,ニシノドウ,福岡県糸島市西堂
8191581,福岡県,糸島市,瑞梅寺,フクオカケン,イトシマシ,ズイバイジ,福岡県糸島市瑞梅寺
8191582,福岡県,糸島市,井原,フクオカケン,イトシマシ,イワラ,福岡県糸島市井原
8191583,福岡県,糸島市,三雲,フクオカケン,イトシマシ,ミクモ,福岡県糸島市三雲
8191601,福岡県,糸島市,二丈深江,フクオカケン,イトシマシ,ニジョウフカエ,福岡県糸島市二丈深江
8191611,福岡県,糸島市,二丈片山,フクオカケン,イトシマシ,ニジョウカタヤマ,福岡県糸島市二丈片山
8191612,福岡県,糸島市,二丈松末（下松末）,フクオカケン,イトシマシ,ニジョウマスエ(シモマスエ),福岡県糸島市二丈松末（下松末）
8191613,福岡県,糸島市,二丈松末（その他）,フクオカケン,イトシマシ,ニジョウマスエ(ソノタ),福岡県糸島市二丈松末（その他）
8191614,福岡県,糸島市,二丈浜窪,フクオカケン,イトシマシ,ニジョウハマクボ,福岡県糸島市二丈浜窪
8191615,福岡県,糸島市,二丈田中,フクオカケン,イトシマシ,ニジョウタナカ,福岡県糸島市二丈田中
8191616,福岡県,糸島市,二丈武,フクオカケン,イトシマシ,ニジョウタケ,福岡県糸島市二丈武
8191621,福岡県,糸島市,二丈上深江,フクオカケン,イトシマシ,ニジョウカミフカエ,福岡県糸島市二丈上深江
8191622,福岡県,糸島市,二丈一貴山,フクオカケン,イトシマシ,ニジョウイキサン,福岡県糸島市二丈一貴山
8191623,福岡県,糸島市,二丈石崎,フクオカケン,イトシマシ,ニジョウイシザキ,福岡県糸島市二丈石崎
8191624,福岡県,糸島市,二丈満吉,フクオカケン,イトシマシ,ニジョウミツヨシ,福岡県糸島市二丈満吉
8191625,福岡県,糸島市,二丈長石,フクオカケン,イトシマシ,ニジョウナガイシ,福岡県糸島市二丈長石
8191626,福岡県,糸島市,二丈波呂,フクオカケン,イトシマシ,ニジョウハロ,福岡県糸島市二丈波呂
8191627,福岡県,糸島市,二丈松国,フクオカケン,イトシマシ,ニジョウマツクニ,福岡県糸島市二丈松国
8191631,福岡県,糸島市,二丈福井,フクオカケン,イトシマシ,ニジョウフクイ,福岡県糸島市二丈福井
8191641,福岡県,糸島市,二丈吉井,フクオカケン,イトシマシ,ニジョウヨシイ,福岡県糸島市二丈吉井
8191642,福岡県,糸島市,二丈鹿家,フクオカケン,イトシマシ,ニジョウシカカ,福岡県糸島市二丈鹿家
8200000,福岡県,飯塚市,,フクオカケン,イイヅカシ,,福岡県飯塚市
8200001,福岡県,飯塚市,鯰田,フクオカケン,イイヅカシ,ナマズタ,福岡県飯塚市鯰田
8200002,福岡県,飯塚市,川島,フクオカケン,イイヅカシ,カワシマ,福岡県飯塚市川島
8200003,福岡県,飯塚市,立岩,フクオカケン,イイヅカシ,タテイワ,福岡県飯塚市立岩
8200004,福岡県,飯塚市,新立岩,フクオカケン,イイヅカシ,シンタテイワ,福岡県飯塚市新立岩
8200005,福岡県,飯塚市,新飯塚,フクオカケン,イイヅカシ,シンイイヅカ,福岡県飯塚市新飯塚
8200011,福岡県,飯塚市,柏の森,フクオカケン,イイヅカシ,カヤノモリ,福岡県飯塚市柏の森
8200012,福岡県,飯塚市,下三緒,フクオカケン,イイヅカシ,シモミオ,福岡県飯塚市下三緒
8200013,福岡県,飯塚市,上三緒,フクオカケン,イイヅカシ,カミミオ,福岡県飯塚市上三緒
8200014,福岡県,飯塚市,鶴三緒,フクオカケン,イイヅカシ,ツルミオ,福岡県飯塚市鶴三緒
8200015,福岡県,飯塚市,菰田,フクオカケン,イイヅカシ,コモダ,福岡県飯塚市菰田
8200016,福岡県,飯塚市,菰田東,フクオカケン,イイヅカシ,コモダヒガシ,福岡県飯塚市菰田東
8200017,福岡県,飯塚市,菰田西,フクオカケン,イイヅカシ,コモダニシ,福岡県飯塚市菰田西
8200018,福岡県,飯塚市,芳雄町,フクオカケン,イイヅカシ,ヨシオマチ,福岡県飯塚市芳雄町
8200021,福岡県,飯塚市,潤野,フクオカケン,イイヅカシ,ウルノ,福岡県飯塚市潤野
8200022,福岡県,飯塚市,明星寺,フクオカケン,イイヅカシ,ミョウジョウジ,福岡県飯塚市明星寺
8200031,福岡県,飯塚市,西徳前,フクオカケン,イイヅカシ,ニシトクゼン,福岡県飯塚市西徳前
8200032,福岡県,飯塚市,東徳前,フクオカケン,イイヅカシ,ヒガシトクゼン,福岡県飯塚市東徳前
8200033,福岡県,飯塚市,徳前,フクオカケン,イイヅカシ,トクゼン,福岡県飯塚市徳前
8200040,福岡県,飯塚市,吉原町,フクオカケン,イイヅカシ,ヨシハラマチ,福岡県飯塚市吉原町
8200041,福岡県,飯塚市,飯塚,フクオカケン,イイヅカシ,イイヅカ,福岡県飯塚市飯塚
8200042,福岡県,飯塚市,本町,フクオカケン,イイヅカシ,ホンマチ,福岡県飯塚市本町
8200043,福岡県,飯塚市,西町,フクオカケン,イイヅカシ,ニシマチ,福岡県飯塚市西町
8200044,福岡県,飯塚市,横田,フクオカケン,イイヅカシ,ヨコタ,福岡県飯塚市横田
8200045,福岡県,飯塚市,花瀬,フクオカケン,イイヅカシ,ハナセ,福岡県飯塚市花瀬
8200046,福岡県,飯塚市,大日寺,フクオカケン,イイヅカシ,ダイニチジ,福岡県飯塚市大日寺
8200047,福岡県,飯塚市,八木山,フクオカケン,イイヅカシ,ヤキヤマ,福岡県飯塚市八木山
8200048,福岡県,飯塚市,蓮台寺,フクオカケン,イイヅカシ,レンダイジ,福岡県飯塚市蓮台寺
8200049,福岡県,飯塚市,建花寺,フクオカケン,イイヅカシ,ケンゲイジ,福岡県飯塚市建花寺
8200051,福岡県,飯塚市,庄司,フクオカケン,イイヅカシ,ショウシ,福岡県飯塚市庄司
8200052,福岡県,飯塚市,相田,フクオカケン,イイヅカシ,アイダ,福岡県飯塚市相田
8200053,福岡県,飯塚市,伊岐須,フクオカケン,イイヅカシ,イギス,福岡県飯塚市伊岐須
8200054,福岡県,飯塚市,伊川,フクオカケン,イイヅカシ,イカワ,福岡県飯塚市伊川
8200061,福岡県,飯塚市,吉北,フクオカケン,イイヅカシ,ヨシキタ,福岡県飯塚市吉北
8200062,福岡県,飯塚市,目尾,フクオカケン,イイヅカシ,シャカノオ,福岡県飯塚市目尾
8200063,福岡県,飯塚市,柳橋,フクオカケン,イイヅカシ,ヤナギバシ,福岡県飯塚市柳橋
8200064,福岡県,飯塚市,津島,フクオカケン,イイヅカシ,ツシマ,福岡県飯塚市津島
8200065,福岡県,飯塚市,中,フクオカケン,イイヅカシ,ナカ,福岡県飯塚市中
8200066,福岡県,飯塚市,幸袋,フクオカケン,イイヅカシ,コウブクロ,福岡県飯塚市幸袋
8200067,福岡県,飯塚市,川津,フクオカケン,イイヅカシ,カワヅ,福岡県飯塚市川津
8200068,福岡県,飯塚市,片島,フクオカケン,イイヅカシ,カタシマ,福岡県飯塚市片島
8200069,福岡県,飯塚市,宮町,フクオカケン,イイヅカシ,ミヤマチ,福岡県飯塚市宮町
8200070,福岡県,飯塚市,堀池,フクオカケン,イイヅカシ,ホリイケ,福岡県飯塚市堀池
8200071,福岡県,飯塚市,忠隈,フクオカケン,イイヅカシ,タダクマ,福岡県飯塚市忠隈
8200072,福岡県,飯塚市,南尾,フクオカケン,イイヅカシ,ミナミオ,福岡県飯塚市南尾
8200073,福岡県,飯塚市,平恒,フクオカケン,イイヅカシ,ヒラツネ,福岡県飯塚市平恒
8200074,福岡県,飯塚市,楽市,フクオカケン,イイヅカシ,ラクイチ,福岡県飯塚市楽市
8200075,福岡県,飯塚市,天道,フクオカケン,イイヅカシ,テントウ,福岡県飯塚市天道
8200076,福岡県,飯塚市,太郎丸,フクオカケン,イイヅカシ,タロウマル,福岡県飯塚市太郎丸
8200077,福岡県,飯塚市,椋本,フクオカケン,イイヅカシ,ムクモト,福岡県飯塚市椋本
8200078,福岡県,飯塚市,久保白,フクオカケン,イイヅカシ,クボシロ,福岡県飯塚市久保白
8200079,福岡県,飯塚市,高田,フクオカケン,イイヅカシ,タカタ,福岡県飯塚市高田
8200081,福岡県,飯塚市,枝国,フクオカケン,イイヅカシ,エダクニ,福岡県飯塚市枝国
8200082,福岡県,飯塚市,若菜,フクオカケン,イイヅカシ,ワカナ,福岡県飯塚市若菜
8200083,福岡県,飯塚市,秋松,フクオカケン,イイヅカシ,アキマツ,福岡県飯塚市秋松
8200084,福岡県,飯塚市,椿,フクオカケン,イイヅカシ,ツバキ,福岡県飯塚市椿
8200085,福岡県,飯塚市,安恒,フクオカケン,イイヅカシ,ヤスツネ,福岡県飯塚市安恒
8200086,福岡県,飯塚市,津原,フクオカケン,イイヅカシ,ツワラ,福岡県飯塚市津原
8200087,福岡県,飯塚市,舎利蔵,フクオカケン,イイヅカシ,シャリクラ,福岡県飯塚市舎利蔵
8200088,福岡県,飯塚市,弁分,フクオカケン,イイヅカシ,ベンブン,福岡県飯塚市弁分
8200089,福岡県,飯塚市,小正,フクオカケン,イイヅカシ,オバサ,福岡県飯塚市小正
8200101,福岡県,飯塚市,綱分,フクオカケン,イイヅカシ,ツナワキ,福岡県飯塚市綱分
8200102,福岡県,飯塚市,山倉,フクオカケン,イイヅカシ,ヤマクラ,福岡県飯塚市山倉
8200103,福岡県,飯塚市,入水,フクオカケン,イイヅカシ,イリミズ,福岡県飯塚市入水
8200104,福岡県,飯塚市,高倉,フクオカケン,イイヅカシ,タカクラ,福岡県飯塚市高倉
8200105,福岡県,飯塚市,筒野,フクオカケン,イイヅカシ,ツツノ,福岡県飯塚市筒野
8200106,福岡県,飯塚市,赤坂,フクオカケン,イイヅカシ,アカサカ,福岡県飯塚市赤坂
8200111,福岡県,飯塚市,有安,フクオカケン,イイヅカシ,アリヤス,福岡県飯塚市有安
8200112,福岡県,飯塚市,有井,フクオカケン,イイヅカシ,アリイ,福岡県飯塚市有井
8200113,福岡県,飯塚市,庄内元吉,フクオカケン,イイヅカシ,ショウナイモトヨシ,福岡県飯塚市庄内元吉
8200114,福岡県,飯塚市,大門,フクオカケン,イイヅカシ,オオカド,福岡県飯塚市大門
8200115,福岡県,飯塚市,仁保,フクオカケン,イイヅカシ,ニホ,福岡県飯塚市仁保
8200116,福岡県,飯塚市,多田,フクオカケン,イイヅカシ,タダ,福岡県飯塚市多田
8200200,福岡県,嘉麻市,,フクオカケン,カマシ,,福岡県嘉麻市
8200201,福岡県,嘉麻市,漆生,フクオカケン,カマシ,ウルシオ,福岡県嘉麻市漆生
8200202,福岡県,嘉麻市,山野,フクオカケン,カマシ,ヤマノ,福岡県嘉麻市山野
8200203,福岡県,嘉麻市,平,フクオカケン,カマシ,ヒラ,福岡県嘉麻市平
8200204,福岡県,嘉麻市,稲築才田,フクオカケン,カマシ,イナツキサイダ,福岡県嘉麻市稲築才田
8200205,福岡県,嘉麻市,岩崎,フクオカケン,カマシ,イワサキ,福岡県嘉麻市岩崎
8200206,福岡県,嘉麻市,鴨生,フクオカケン,カマシ,カモオ,福岡県嘉麻市鴨生
8200207,福岡県,嘉麻市,口春,フクオカケン,カマシ,クチノハル,福岡県嘉麻市口春
8200301,福岡県,嘉麻市,牛隈,フクオカケン,カマシ,ウシクマ,福岡県嘉麻市牛隈
8200302,福岡県,嘉麻市,大隈町（その他）,フクオカケン,カマシ,オオクママチ(ソノタ),福岡県嘉麻市大隈町（その他）
8200303,福岡県,嘉麻市,中益,フクオカケン,カマシ,ナカマス,福岡県嘉麻市中益
8200304,福岡県,嘉麻市,大隈（その他）,フクオカケン,カマシ,オオクマ(ソノタ),福岡県嘉麻市大隈（その他）
8200305,福岡県,嘉麻市,貞月,フクオカケン,カマシ,サダツキ,福岡県嘉麻市貞月
8200306,福岡県,嘉麻市,上西郷,フクオカケン,カマシ,カミサイゴウ,福岡県嘉麻市上西郷
8200311,福岡県,嘉麻市,上,フクオカケン,カマシ,カミ,福岡県嘉麻市上
8200312,福岡県,嘉麻市,宮吉,フクオカケン,カマシ,ミヤヨシ,福岡県嘉麻市宮吉
8200313,福岡県,嘉麻市,桑野,フクオカケン,カマシ,クワノ,福岡県嘉麻市桑野
8200314,福岡県,嘉麻市,小野谷,フクオカケン,カマシ,オノダニ,福岡県嘉麻市小野谷
8200321,福岡県,嘉麻市,馬見,フクオカケン,カマシ,ウマミ,福岡県嘉麻市馬見
8200322,福岡県,嘉麻市,屏,フクオカケン,カマシ,ヘイ,福岡県嘉麻市屏
8200323,福岡県,嘉麻市,椎木,フクオカケン,カマシ,シイノキ,福岡県嘉麻市椎木
8200331,福岡県,嘉麻市,芥田,フクオカケン,カマシ,アクタダ,福岡県嘉麻市芥田
8200332,福岡県,嘉麻市,千手,フクオカケン,カマシ,センズ,福岡県嘉麻市千手
8200333,福岡県,嘉麻市,大力,フクオカケン,カマシ,ダイリキ,福岡県嘉麻市大力
8200334,福岡県,嘉麻市,泉河内,フクオカケン,カマシ,イズミコウチ,福岡県嘉麻市泉河内
8200335,福岡県,嘉麻市,東畑,フクオカケン,カマシ,ヒガシハタ,福岡県嘉麻市東畑
8200336,福岡県,嘉麻市,嘉穂才田,フクオカケン,カマシ,カホサイタ,福岡県嘉麻市嘉穂才田
8200337,福岡県,嘉麻市,九郎原,フクオカケン,カマシ,クロウバル,福岡県嘉麻市九郎原
8200501,福岡県,嘉麻市,飯田,フクオカケン,カマシ,イイダ,福岡県嘉麻市飯田
8200502,福岡県,嘉麻市,上臼井,フクオカケン,カマシ,カミウスイ,福岡県嘉麻市上臼井
8200503,福岡県,嘉麻市,光代,フクオカケン,カマシ,コウダイ,福岡県嘉麻市光代
8200504,福岡県,嘉麻市,下臼井,フクオカケン,カマシ,シモウスイ,福岡県嘉麻市下臼井
8200505,福岡県,嘉麻市,西郷,フクオカケン,カマシ,ニシノゴウ,福岡県嘉麻市西郷
8200506,福岡県,嘉麻市,平山,フクオカケン,カマシ,ヒラヤマ,福岡県嘉麻市平山
8200600,福岡県,嘉穂郡桂川町,,フクオカケン,カホグンケイセンマチ,,福岡県嘉穂郡桂川町
8200601,福岡県,嘉穂郡桂川町,内山田,フクオカケン,カホグンケイセンマチ,ウチヤマダ,福岡県嘉穂郡桂川町内山田
8200602,福岡県,嘉穂郡桂川町,九郎丸,フクオカケン,カホグンケイセンマチ,クロウマル,福岡県嘉穂郡桂川町九郎丸
8200603,福岡県,嘉穂郡桂川町,寿命,フクオカケン,カホグンケイセンマチ,ジュメイ,福岡県嘉穂郡桂川町寿命
8200604,福岡県,嘉穂郡桂川町,瀬戸,フクオカケン,カホグンケイセンマチ,セト,福岡県嘉穂郡桂川町瀬戸
8200605,福岡県,嘉穂郡桂川町,中屋,フクオカケン,カホグンケイセンマチ,チュウヤ,福岡県嘉穂郡桂川町中屋
8200606,福岡県,嘉穂郡桂川町,土居,フクオカケン,カホグンケイセンマチ,トイ,福岡県嘉穂郡桂川町土居
8200607,福岡県,嘉穂郡桂川町,土師,フクオカケン,カホグンケイセンマチ,ハジ,福岡県嘉穂郡桂川町土師
8200608,福岡県,嘉穂郡桂川町,豆田,フクオカケン,カホグンケイセンマチ,マメダ,福岡県嘉穂郡桂川町豆田
8200609,福岡県,嘉穂郡桂川町,吉隈,フクオカケン,カホグンケイセンマチ,ヨシクマ,福岡県嘉穂郡桂川町吉隈
8200701,福岡県,飯塚市,長尾,フクオカケン,イイヅカシ,ナガオ,福岡県飯塚市長尾
8200702,福岡県,飯塚市,平塚,フクオカケン,イイヅカシ,ヒラツカ,福岡県飯塚市平塚
8200703,福岡県,飯塚市,北古賀,フクオカケン,イイヅカシ,キタコガ,福岡県飯塚市北古賀
8200704,福岡県,飯塚市,阿恵,フクオカケン,イイヅカシ,アエ,福岡県飯塚市阿恵
8200705,福岡県,飯塚市,筑穂元吉,フクオカケン,イイヅカシ,チクホモトヨシ,福岡県飯塚市筑穂元吉
8200706,福岡県,飯塚市,内野,フクオカケン,イイヅカシ,ウチノ,福岡県飯塚市内野
8200707,福岡県,飯塚市,桑曲,フクオカケン,イイヅカシ,クワマガリ,福岡県飯塚市桑曲
8200708,福岡県,飯塚市,弥山,フクオカケン,イイヅカシ,ヤヤマ,福岡県飯塚市弥山
8200709,福岡県,飯塚市,馬敷,フクオカケン,イイヅカシ,マシキ,福岡県飯塚市馬敷
8200711,福岡県,飯塚市,山口,フクオカケン,イイヅカシ,ヤマグチ,福岡県飯塚市山口
8200712,福岡県,飯塚市,大分,フクオカケン,イイヅカシ,ダイブ,福岡県飯塚市大分
8200713,福岡県,飯塚市,内住,フクオカケン,イイヅカシ,ナイジュウ,福岡県飯塚市内住
8201100,福岡県,鞍手郡小竹町,,フクオカケン,クラテグンコタケマチ,,福岡県鞍手郡小竹町
8201101,福岡県,鞍手郡小竹町,御徳,フクオカケン,クラテグンコタケマチ,ゴトク,福岡県鞍手郡小竹町御徳
8201102,福岡県,鞍手郡小竹町,赤地,フクオカケン,クラテグンコタケマチ,アカジ,福岡県鞍手郡小竹町赤地
8201103,福岡県,鞍手郡小竹町,勝野,フクオカケン,クラテグンコタケマチ,カツノ,福岡県鞍手郡小竹町勝野
8201104,福岡県,鞍手郡小竹町,新多,フクオカケン,クラテグンコタケマチ,ニイダ,福岡県鞍手郡小竹町新多
8201105,福岡県,鞍手郡小竹町,新山崎,フクオカケン,クラテグンコタケマチ,シンヤマザキ,福岡県鞍手郡小竹町新山崎
8201106,福岡県,鞍手郡小竹町,南良津,フクオカケン,クラテグンコタケマチ,ナラヅ,福岡県鞍手郡小竹町南良津
8201111,福岡県,飯塚市,勢田,フクオカケン,イイヅカシ,セイタ,福岡県飯塚市勢田
8201112,福岡県,飯塚市,鹿毛馬,フクオカケン,イイヅカシ,カケノウマ,福岡県飯塚市鹿毛馬
8201113,福岡県,飯塚市,佐與,フクオカケン,イイヅカシ,サヨ,福岡県飯塚市佐與
8201114,福岡県,飯塚市,口原,フクオカケン,イイヅカシ,クチノハラ,福岡県飯塚市口原
8210002,福岡県,嘉麻市,大隈町（猪之鼻）,フクオカケン,カマシ,オオクママチ(イノハナ),福岡県嘉麻市大隈町（猪之鼻）
8210004,福岡県,嘉麻市,大隈（１〜１１番地）,フクオカケン,カマシ,オオクマ(1-11バンチ),福岡県嘉麻市大隈（1〜11-）
8210011,福岡県,嘉麻市,下山田,フクオカケン,カマシ,シモヤマダ,福岡県嘉麻市下山田
8210012,福岡県,嘉麻市,上山田,フクオカケン,カマシ,カミヤマダ,福岡県嘉麻市上山田
8210013,福岡県,嘉麻市,熊ケ畑,フクオカケン,カマシ,クマガハタ,福岡県嘉麻市熊ケ畑
8210014,福岡県,嘉麻市,猪国,フクオカケン,カマシ,イノクニ,福岡県嘉麻市猪国
8220000,福岡県,直方市,,フクオカケン,ノオガタシ,,福岡県直方市
8220001,福岡県,直方市,感田,フクオカケン,ノオガタシ,ガンダ,福岡県直方市感田
8220002,福岡県,直方市,頓野,フクオカケン,ノオガタシ,トンノ,福岡県直方市頓野
8220003,福岡県,直方市,上頓野,フクオカケン,ノオガタシ,カミトンノ,福岡県直方市上頓野
8220004,福岡県,直方市,畑,フクオカケン,ノオガタシ,ハタ,福岡県直方市畑
8220005,福岡県,直方市,永満寺,フクオカケン,ノオガタシ,エイマンジ,福岡県直方市永満寺
8220006,福岡県,直方市,上境,フクオカケン,ノオガタシ,カミザカイ,福岡県直方市上境
8220007,福岡県,直方市,下境,フクオカケン,ノオガタシ,シモザカイ,福岡県直方市下境
8220008,福岡県,直方市,湯野原,フクオカケン,ノオガタシ,ユノハラ,福岡県直方市湯野原
8220011,福岡県,直方市,中泉,フクオカケン,ノオガタシ,ナカイズミ,福岡県直方市中泉
8220012,福岡県,直方市,赤地,フクオカケン,ノオガタシ,アカジ,福岡県直方市赤地
8220013,福岡県,直方市,溝堀,フクオカケン,ノオガタシ,ミゾホリ,福岡県直方市溝堀
8220014,福岡県,直方市,丸山町,フクオカケン,ノオガタシ,マルヤママチ,福岡県直方市丸山町
8220015,福岡県,直方市,新町,フクオカケン,ノオガタシ,シンマチ,福岡県直方市新町
8220016,福岡県,直方市,直方,フクオカケン,ノオガタシ,ノオガタ,福岡県直方市直方
8220017,福岡県,直方市,殿町,フクオカケン,ノオガタシ,トノマチ,福岡県直方市殿町
8220021,福岡県,直方市,新知町,フクオカケン,ノオガタシ,シンチマチ,福岡県直方市新知町
8220022,福岡県,直方市,知古,フクオカケン,ノオガタシ,チコ,福岡県直方市知古
8220023,福岡県,直方市,神正町,フクオカケン,ノオガタシ,シンセイマチ,福岡県直方市神正町
8220024,福岡県,直方市,須崎町,フクオカケン,ノオガタシ,スサキマチ,福岡県直方市須崎町
8220025,福岡県,直方市,日吉町,フクオカケン,ノオガタシ,ヒヨシマチ,福岡県直方市日吉町
8220026,福岡県,直方市,津田町,フクオカケン,ノオガタシ,ツダマチ,福岡県直方市津田町
8220027,福岡県,直方市,古町,フクオカケン,ノオガタシ,フルマチ,福岡県直方市古町
8220031,福岡県,直方市,植木,フクオカケン,ノオガタシ,ウエキ,福岡県直方市植木
8220032,福岡県,直方市,下新入,フクオカケン,ノオガタシ,シモシンニュウ,福岡県直方市下新入
8220033,福岡県,直方市,上新入,フクオカケン,ノオガタシ,カミシンニュウ,福岡県直方市上新入
8220034,福岡県,直方市,山部,フクオカケン,ノオガタシ,ヤマベ,福岡県直方市山部
8220101,福岡県,宮若市,福丸,フクオカケン,ミヤワカシ,フクマル,福岡県宮若市福丸
8220111,福岡県,宮若市,金丸,フクオカケン,ミヤワカシ,カナマル,福岡県宮若市金丸
8220112,福岡県,宮若市,原田,フクオカケン,ミヤワカシ,ハラダ,福岡県宮若市原田
8220113,福岡県,宮若市,金生,フクオカケン,ミヤワカシ,カノウ,福岡県宮若市金生
8220121,福岡県,宮若市,湯原,フクオカケン,ミヤワカシ,ユバル,福岡県宮若市湯原
8220122,福岡県,宮若市,下,フクオカケン,ミヤワカシ,シモ,福岡県宮若市下
8220123,福岡県,宮若市,三ケ畑,フクオカケン,ミヤワカシ,サンガハタ,福岡県宮若市三ケ畑
8220124,福岡県,宮若市,縁山畑,フクオカケン,ミヤワカシ,ヘリヤマハタ,福岡県宮若市縁山畑
8220131,福岡県,宮若市,乙野,フクオカケン,ミヤワカシ,オトノ,福岡県宮若市乙野
8220132,福岡県,宮若市,小伏,フクオカケン,ミヤワカシ,コブシ,福岡県宮若市小伏
8220133,福岡県,宮若市,脇田,フクオカケン,ミヤワカシ,ワキタ,福岡県宮若市脇田
8220134,福岡県,宮若市,犬鳴,フクオカケン,ミヤワカシ,イヌナキ,福岡県宮若市犬鳴
8220141,福岡県,宮若市,平,フクオカケン,ミヤワカシ,タイラ,福岡県宮若市平
8220142,福岡県,宮若市,竹原,フクオカケン,ミヤワカシ,タケハラ,福岡県宮若市竹原
8220143,福岡県,宮若市,高野,フクオカケン,ミヤワカシ,タカノ,福岡県宮若市高野
8220144,福岡県,宮若市,稲光,フクオカケン,ミヤワカシ,イナミツ,福岡県宮若市稲光
8220145,福岡県,宮若市,宮永,フクオカケン,ミヤワカシ,ミヤナガ,福岡県宮若市宮永
8220146,福岡県,宮若市,黒丸,フクオカケン,ミヤワカシ,クロマル,福岡県宮若市黒丸
8220151,福岡県,宮若市,水原,フクオカケン,ミヤワカシ,ミズハラ,福岡県宮若市水原
8220152,福岡県,宮若市,沼口,フクオカケン,ミヤワカシ,ヌマグチ,福岡県宮若市沼口
8220153,福岡県,宮若市,山口,フクオカケン,ミヤワカシ,ヤマグチ,福岡県宮若市山口
8221101,福岡県,田川郡福智町,赤池,フクオカケン,タガワグンフクチマチ,アカイケ,福岡県田川郡福智町赤池
8221102,福岡県,田川郡福智町,上野,フクオカケン,タガワグンフクチマチ,アガノ,福岡県田川郡福智町上野
8221103,福岡県,田川郡福智町,市場,フクオカケン,タガワグンフクチマチ,イチバ,福岡県田川郡福智町市場
8221200,福岡県,田川郡福智町,,フクオカケン,タガワグンフクチマチ,,福岡県田川郡福智町
8221201,福岡県,田川郡福智町,金田,フクオカケン,タガワグンフクチマチ,カナダ,福岡県田川郡福智町金田
8221202,福岡県,田川郡福智町,神崎,フクオカケン,タガワグンフクチマチ,コウザキ,福岡県田川郡福智町神崎
8221211,福岡県,田川郡福智町,伊方,フクオカケン,タガワグンフクチマチ,イカタ,福岡県田川郡福智町伊方
8221212,福岡県,田川郡福智町,弁城,フクオカケン,タガワグンフクチマチ,ベンジョウ,福岡県田川郡福智町弁城
8221300,福岡県,田川郡糸田町,,フクオカケン,タガワグンイトダマチ,,福岡県田川郡糸田町
8221301,福岡県,田川郡糸田町,堀川,フクオカケン,タガワグンイトダマチ,ホリカワ,福岡県田川郡糸田町堀川
8221302,福岡県,田川郡糸田町,大熊,フクオカケン,タガワグンイトダマチ,オオクマ,福岡県田川郡糸田町大熊
8221303,福岡県,田川郡糸田町,桃山,フクオカケン,タガワグンイトダマチ,モモヤマ,福岡県田川郡糸田町桃山
8221304,福岡県,田川郡糸田町,自由ケ丘,フクオカケン,タガワグンイトダマチ,ジユウガオカ,福岡県田川郡糸田町自由ケ丘
8221305,福岡県,田川郡糸田町,宮床団地,フクオカケン,タガワグンイトダマチ,ミヤトコダンチ,福岡県田川郡糸田町宮床団地
8221306,福岡県,田川郡糸田町,貴船,フクオカケン,タガワグンイトダマチ,キフネ,福岡県田川郡糸田町貴船
8221307,福岡県,田川郡糸田町,宮床,フクオカケン,タガワグンイトダマチ,ミヤトコ,福岡県田川郡糸田町宮床
8221311,福岡県,田川郡糸田町,北区,フクオカケン,タガワグンイトダマチ,キタク,福岡県田川郡糸田町北区
8221312,福岡県,田川郡糸田町,下糸田,フクオカケン,タガワグンイトダマチ,シモイトダ,福岡県田川郡糸田町下糸田
8221313,福岡県,田川郡糸田町,打越,フクオカケン,タガワグンイトダマチ,ウチコシ,福岡県田川郡糸田町打越
8221314,福岡県,田川郡糸田町,中糸田,フクオカケン,タガワグンイトダマチ,ナカイトダ,福岡県田川郡糸田町中糸田
8221315,福岡県,田川郡糸田町,宮川二,フクオカケン,タガワグンイトダマチ,ミヤガワ2,福岡県田川郡糸田町宮川二
8221316,福岡県,田川郡糸田町,上糸田,フクオカケン,タガワグンイトダマチ,カミイトダ,福岡県田川郡糸田町上糸田
8221317,福岡県,田川郡糸田町,宮川一,フクオカケン,タガワグンイトダマチ,ミヤガワ1,福岡県田川郡糸田町宮川一
8221318,福岡県,田川郡糸田町,原,フクオカケン,タガワグンイトダマチ,ハル,福岡県田川郡糸田町原
8221321,福岡県,田川郡糸田町,宮谷,フクオカケン,タガワグンイトダマチ,ミヤタニ,福岡県田川郡糸田町宮谷
8221322,福岡県,田川郡糸田町,西部,フクオカケン,タガワグンイトダマチ,サイブ,福岡県田川郡糸田町西部
8221323,福岡県,田川郡糸田町,真岡,フクオカケン,タガワグンイトダマチ,シンオカ,福岡県田川郡糸田町真岡
8221324,福岡県,田川郡糸田町,旭ケ丘,フクオカケン,タガワグンイトダマチ,アサヒガオカ,福岡県田川郡糸田町旭ケ丘
8221325,福岡県,田川郡糸田町,南糸田,フクオカケン,タガワグンイトダマチ,ミナミイトダ,福岡県田川郡糸田町南糸田
8221326,福岡県,田川郡糸田町,鼡ケ池,フクオカケン,タガワグンイトダマチ,ネズガイケ,福岡県田川郡糸田町鼡ケ池
8221400,福岡県,田川郡香春町,,フクオカケン,タガワグンカワラマチ,,福岡県田川郡香春町
8221401,福岡県,田川郡香春町,採銅所,フクオカケン,タガワグンカワラマチ,サイドウショ,福岡県田川郡香春町採銅所
8221402,福岡県,田川郡香春町,鏡山,フクオカケン,タガワグンカワラマチ,カガミヤマ,福岡県田川郡香春町鏡山
8221403,福岡県,田川郡香春町,高野,フクオカケン,タガワグンカワラマチ,タカノ,福岡県田川郡香春町高野
8221404,福岡県,田川郡香春町,柿下,フクオカケン,タガワグンカワラマチ,カキシタ,福岡県田川郡香春町柿下
8221405,福岡県,田川郡香春町,中津原,フクオカケン,タガワグンカワラマチ,ナカツバル,福岡県田川郡香春町中津原
8221406,福岡県,田川郡香春町,香春,フクオカケン,タガワグンカワラマチ,カワラ,福岡県田川郡香春町香春
8230000,福岡県,宮若市,,フクオカケン,ミヤワカシ,,福岡県宮若市
8230001,福岡県,宮若市,龍徳,フクオカケン,ミヤワカシ,リュウトク,福岡県宮若市龍徳
8230002,福岡県,宮若市,鶴田,フクオカケン,ミヤワカシ,ツルダ,福岡県宮若市鶴田
8230003,福岡県,宮若市,本城,フクオカケン,ミヤワカシ,ホンジョウ,福岡県宮若市本城
8230004,福岡県,宮若市,磯光,フクオカケン,ミヤワカシ,イソミツ,福岡県宮若市磯光
8230005,福岡県,宮若市,上大隈,フクオカケン,ミヤワカシ,カミオオクマ,福岡県宮若市上大隈
8230011,福岡県,宮若市,宮田,フクオカケン,ミヤワカシ,ミヤタ,福岡県宮若市宮田
8230012,福岡県,宮若市,長井鶴,フクオカケン,ミヤワカシ,ナガイヅル,福岡県宮若市長井鶴
8230013,福岡県,宮若市,芹田,フクオカケン,ミヤワカシ,セリダ,福岡県宮若市芹田
8230014,福岡県,宮若市,下有木,フクオカケン,ミヤワカシ,シモアルキ,福岡県宮若市下有木
8230015,福岡県,宮若市,上有木,フクオカケン,ミヤワカシ,カミアルキ,福岡県宮若市上有木
8230016,福岡県,宮若市,四郎丸,フクオカケン,ミヤワカシ,シロウマル,福岡県宮若市四郎丸
8230017,福岡県,宮若市,倉久,フクオカケン,ミヤワカシ,クラヒサ,福岡県宮若市倉久
8240000,福岡県,行橋市,,フクオカケン,ユクハシシ,,福岡県行橋市
8240001,福岡県,行橋市,行事,フクオカケン,ユクハシシ,ギョウジ,福岡県行橋市行事
8240002,福岡県,行橋市,東大橋,フクオカケン,ユクハシシ,ヒガシオオハシ,福岡県行橋市東大橋
8240003,福岡県,行橋市,大橋,フクオカケン,ユクハシシ,オオハシ,福岡県行橋市大橋
8240004,福岡県,行橋市,金屋,フクオカケン,ユクハシシ,カナヤ,福岡県行橋市金屋
8240005,福岡県,行橋市,中央,フクオカケン,ユクハシシ,チュウオウ,福岡県行橋市中央
8240006,福岡県,行橋市,門樋町,フクオカケン,ユクハシシ,モンピマチ,福岡県行橋市門樋町
8240007,福岡県,行橋市,神田町,フクオカケン,ユクハシシ,ジンデンマチ,福岡県行橋市神田町
8240008,福岡県,行橋市,宮市町,フクオカケン,ユクハシシ,ミヤイチマチ,福岡県行橋市宮市町
8240011,福岡県,行橋市,蓑島,フクオカケン,ユクハシシ,ミノシマ,福岡県行橋市蓑島
8240012,福岡県,行橋市,文久,フクオカケン,ユクハシシ,ブンキュウ,福岡県行橋市文久
8240013,福岡県,行橋市,沓尾,フクオカケン,ユクハシシ,クツオ,福岡県行橋市沓尾
8240014,福岡県,行橋市,長井,フクオカケン,ユクハシシ,ナガイ,福岡県行橋市長井
8240015,福岡県,行橋市,元永,フクオカケン,ユクハシシ,モトナガ,福岡県行橋市元永
8240016,福岡県,行橋市,津留,フクオカケン,ユクハシシ,ツル,福岡県行橋市津留
8240017,福岡県,行橋市,真菰,フクオカケン,ユクハシシ,マコモ,福岡県行橋市真菰
8240018,福岡県,行橋市,今井,フクオカケン,ユクハシシ,イマイ,福岡県行橋市今井
8240021,福岡県,行橋市,馬場,フクオカケン,ユクハシシ,ババ,福岡県行橋市馬場
8240022,福岡県,行橋市,稲童,フクオカケン,ユクハシシ,イナドウ,福岡県行橋市稲童
8240023,福岡県,行橋市,松原,フクオカケン,ユクハシシ,マツバラ,福岡県行橋市松原
8240024,福岡県,行橋市,袋迫,フクオカケン,ユクハシシ,フクロサコ,福岡県行橋市袋迫
8240025,福岡県,行橋市,東徳永,フクオカケン,ユクハシシ,ヒガシトクナガ,福岡県行橋市東徳永
8240026,福岡県,行橋市,道場寺,フクオカケン,ユクハシシ,ドウジョウジ,福岡県行橋市道場寺
8240027,福岡県,行橋市,高瀬,フクオカケン,ユクハシシ,タカセ,福岡県行橋市高瀬
8240028,福岡県,行橋市,辻垣,フクオカケン,ユクハシシ,ツジカキ,福岡県行橋市辻垣
8240031,福岡県,行橋市,西宮市,フクオカケン,ユクハシシ,ニシミヤイチ,福岡県行橋市西宮市
8240032,福岡県,行橋市,南大橋,フクオカケン,ユクハシシ,ミナミオオハシ,福岡県行橋市南大橋
8240033,福岡県,行橋市,北泉,フクオカケン,ユクハシシ,キタイズミ,福岡県行橋市北泉
8240034,福岡県,行橋市,泉中央,フクオカケン,ユクハシシ,イズミチュウオウ,福岡県行橋市泉中央
8240035,福岡県,行橋市,東泉,フクオカケン,ユクハシシ,ヒガシイズミ,福岡県行橋市東泉
8240036,福岡県,行橋市,南泉,フクオカケン,ユクハシシ,ミナミイズミ,福岡県行橋市南泉
8240037,福岡県,行橋市,矢留,フクオカケン,ユクハシシ,ヤドミ,福岡県行橋市矢留
8240038,福岡県,行橋市,西泉,フクオカケン,ユクハシシ,ニシイズミ,福岡県行橋市西泉
8240041,福岡県,行橋市,大野井,フクオカケン,ユクハシシ,オオノイ,福岡県行橋市大野井
8240042,福岡県,行橋市,寺畔,フクオカケン,ユクハシシ,テラナワテ,福岡県行橋市寺畔
8240043,福岡県,行橋市,流末,フクオカケン,ユクハシシ,リュウマツ,福岡県行橋市流末
8240044,福岡県,行橋市,天生田,フクオカケン,ユクハシシ,アモウダ,福岡県行橋市天生田
8240045,福岡県,行橋市,大谷,フクオカケン,ユクハシシ,オオタニ,福岡県行橋市大谷
8240046,福岡県,行橋市,西谷,フクオカケン,ユクハシシ,ニシタニ,福岡県行橋市西谷
8240047,福岡県,行橋市,津積,フクオカケン,ユクハシシ,ツツミ,福岡県行橋市津積
8240048,福岡県,行橋市,宝山,フクオカケン,ユクハシシ,タカラヤマ,福岡県行橋市宝山
8240049,福岡県,行橋市,福原,フクオカケン,ユクハシシ,フクバル,福岡県行橋市福原
8240051,福岡県,行橋市,下検地,フクオカケン,ユクハシシ,シモケンジ,福岡県行橋市下検地
8240052,福岡県,行橋市,上検地,フクオカケン,ユクハシシ,カミケンジ,福岡県行橋市上検地
8240053,福岡県,行橋市,中川,フクオカケン,ユクハシシ,ナカガワ,福岡県行橋市中川
8240054,福岡県,行橋市,下稗田,フクオカケン,ユクハシシ,シモヒエダ,福岡県行橋市下稗田
8240055,福岡県,行橋市,上稗田,フクオカケン,ユクハシシ,カミヒエダ,福岡県行橋市上稗田
8240056,福岡県,行橋市,前田,フクオカケン,ユクハシシ,マエダ,福岡県行橋市前田
8240057,福岡県,行橋市,宮の杜,フクオカケン,ユクハシシ,ミヤノモリ,福岡県行橋市宮の杜
8240058,福岡県,行橋市,長木,フクオカケン,ユクハシシ,オサギ,福岡県行橋市長木
8240061,福岡県,行橋市,草野,フクオカケン,ユクハシシ,クサノ,福岡県行橋市草野
8240062,福岡県,行橋市,下津熊,フクオカケン,ユクハシシ,シモヅクマ,福岡県行橋市下津熊
8240063,福岡県,行橋市,中津熊,フクオカケン,ユクハシシ,ナカヅクマ,福岡県行橋市中津熊
8240064,福岡県,行橋市,上津熊,フクオカケン,ユクハシシ,カミヅクマ,福岡県行橋市上津熊
8240065,福岡県,行橋市,長音寺,フクオカケン,ユクハシシ,チョウオンジ,福岡県行橋市長音寺
8240066,福岡県,行橋市,吉国,フクオカケン,ユクハシシ,ヨシクニ,福岡県行橋市吉国
8240067,福岡県,行橋市,二塚,フクオカケン,ユクハシシ,フタヅカ,福岡県行橋市二塚
8240068,福岡県,行橋市,延永,フクオカケン,ユクハシシ,ノブナガ,福岡県行橋市延永
8240071,福岡県,行橋市,徳永,フクオカケン,ユクハシシ,トクナガ,福岡県行橋市徳永
8240072,福岡県,行橋市,須磨園,フクオカケン,ユクハシシ,スマゾノ,福岡県行橋市須磨園
8240073,福岡県,行橋市,福丸,フクオカケン,ユクハシシ,フクマル,福岡県行橋市福丸
8240074,福岡県,行橋市,常松,フクオカケン,ユクハシシ,ツネマツ,福岡県行橋市常松
8240075,福岡県,行橋市,長尾,フクオカケン,ユクハシシ,ナガオ,福岡県行橋市長尾
8240076,福岡県,行橋市,下崎,フクオカケン,ユクハシシ,シモサキ,福岡県行橋市下崎
8240077,福岡県,行橋市,入覚,フクオカケン,ユクハシシ,ニュウガク,福岡県行橋市入覚
8240078,福岡県,行橋市,高来,フクオカケン,ユクハシシ,タカク,福岡県行橋市高来
8240079,福岡県,行橋市,矢山,フクオカケン,ユクハシシ,ヤヤマ,福岡県行橋市矢山
8240101,福岡県,京都郡みやこ町,徳永,フクオカケン,ミヤコグンミヤコマチ,トクナガ,福岡県京都郡みやこ町徳永
8240102,福岡県,京都郡みやこ町,呰見,フクオカケン,ミヤコグンミヤコマチ,アザミ,福岡県京都郡みやこ町呰見
8240103,福岡県,京都郡みやこ町,下原,フクオカケン,ミヤコグンミヤコマチ,シモバル,福岡県京都郡みやこ町下原
8240104,福岡県,京都郡みやこ町,綾野,フクオカケン,ミヤコグンミヤコマチ,アヤノ,福岡県京都郡みやこ町綾野
8240105,福岡県,京都郡みやこ町,徳政,フクオカケン,ミヤコグンミヤコマチ,トクセイ,福岡県京都郡みやこ町徳政
8240106,福岡県,京都郡みやこ町,有久,フクオカケン,ミヤコグンミヤコマチ,アリヒサ,福岡県京都郡みやこ町有久
8240107,福岡県,京都郡みやこ町,田中,フクオカケン,ミヤコグンミヤコマチ,タナカ,福岡県京都郡みやこ町田中
8240111,福岡県,京都郡みやこ町,上坂,フクオカケン,ミヤコグンミヤコマチ,カミサカ,福岡県京都郡みやこ町上坂
8240112,福岡県,京都郡みやこ町,上原,フクオカケン,ミヤコグンミヤコマチ,カンバル,福岡県京都郡みやこ町上原
8240113,福岡県,京都郡みやこ町,吉岡,フクオカケン,ミヤコグンミヤコマチ,ヨシオカ,福岡県京都郡みやこ町吉岡
8240114,福岡県,京都郡みやこ町,節丸,フクオカケン,ミヤコグンミヤコマチ,セツマル,福岡県京都郡みやこ町節丸
8240115,福岡県,京都郡みやこ町,光冨,フクオカケン,ミヤコグンミヤコマチ,ミツドミ,福岡県京都郡みやこ町光冨
8240121,福岡県,京都郡みやこ町,豊津,フクオカケン,ミヤコグンミヤコマチ,トヨツ,福岡県京都郡みやこ町豊津
8240122,福岡県,京都郡みやこ町,彦徳,フクオカケン,ミヤコグンミヤコマチ,ケンドク,福岡県京都郡みやこ町彦徳
8240123,福岡県,京都郡みやこ町,国分,フクオカケン,ミヤコグンミヤコマチ,コクブ,福岡県京都郡みやこ町国分
8240124,福岡県,京都郡みやこ町,惣社,フクオカケン,ミヤコグンミヤコマチ,ソウシャ,福岡県京都郡みやこ町惣社
8240125,福岡県,京都郡みやこ町,国作,フクオカケン,ミヤコグンミヤコマチ,コクサク,福岡県京都郡みやこ町国作
8240201,福岡県,京都郡みやこ町,犀川下高屋,フクオカケン,ミヤコグンミヤコマチ,サイガワシモタカヤ,福岡県京都郡みやこ町犀川下高屋
8240202,福岡県,京都郡みやこ町,犀川上高屋,フクオカケン,ミヤコグンミヤコマチ,サイガワカミタカヤ,福岡県京都郡みやこ町犀川上高屋
8240203,福岡県,京都郡みやこ町,犀川続命院,フクオカケン,ミヤコグンミヤコマチ,サイガワゾクミョウイン,福岡県京都郡みやこ町犀川続命院
8240204,福岡県,京都郡みやこ町,犀川末江,フクオカケン,ミヤコグンミヤコマチ,サイガワスエ,福岡県京都郡みやこ町犀川末江
8240205,福岡県,京都郡みやこ町,犀川久富,フクオカケン,ミヤコグンミヤコマチ,サイガワヒサドミ,福岡県京都郡みやこ町犀川久富
8240206,福岡県,京都郡みやこ町,犀川八ツ溝,フクオカケン,ミヤコグンミヤコマチ,サイガワヤツミゾ,福岡県京都郡みやこ町犀川八ツ溝
8240207,福岡県,京都郡みやこ町,蔵持,フクオカケン,ミヤコグンミヤコマチ,クラモチ,福岡県京都郡みやこ町蔵持
8240211,福岡県,京都郡みやこ町,今里,フクオカケン,ミヤコグンミヤコマチ,イマサト,福岡県京都郡みやこ町今里
8240212,福岡県,京都郡みやこ町,犀川大熊,フクオカケン,ミヤコグンミヤコマチ,サイガワオオクマ,福岡県京都郡みやこ町犀川大熊
8240213,福岡県,京都郡みやこ町,犀川喜多良,フクオカケン,ミヤコグンミヤコマチ,サイガワキタラ,福岡県京都郡みやこ町犀川喜多良
8240214,福岡県,京都郡みやこ町,犀川鐙畑,フクオカケン,ミヤコグンミヤコマチ,サイガワアブミハタ,福岡県京都郡みやこ町犀川鐙畑
8240215,福岡県,京都郡みやこ町,犀川生立,フクオカケン,ミヤコグンミヤコマチ,サイガワオイタツ,福岡県京都郡みやこ町犀川生立
8240216,福岡県,京都郡みやこ町,犀川谷口,フクオカケン,ミヤコグンミヤコマチ,サイガワタニグチ,福岡県京都郡みやこ町犀川谷口
8240217,福岡県,京都郡みやこ町,犀川古川,フクオカケン,ミヤコグンミヤコマチ,サイガワフルカワ,福岡県京都郡みやこ町犀川古川
8240221,福岡県,京都郡みやこ町,犀川山鹿,フクオカケン,ミヤコグンミヤコマチ,サイガワヤマガ,福岡県京都郡みやこ町犀川山鹿
8240222,福岡県,京都郡みやこ町,犀川大村,フクオカケン,ミヤコグンミヤコマチ,サイガワオオムラ,福岡県京都郡みやこ町犀川大村
8240223,福岡県,京都郡みやこ町,犀川柳瀬,フクオカケン,ミヤコグンミヤコマチ,サイガワヤナセ,福岡県京都郡みやこ町犀川柳瀬
8240224,福岡県,京都郡みやこ町,犀川崎山,フクオカケン,ミヤコグンミヤコマチ,サイガワサキヤマ,福岡県京都郡みやこ町犀川崎山
8240225,福岡県,京都郡みやこ町,犀川大坂,フクオカケン,ミヤコグンミヤコマチ,サイガワオオサカ,福岡県京都郡みやこ町犀川大坂
8240226,福岡県,京都郡みやこ町,松坂,フクオカケン,ミヤコグンミヤコマチ,マツサカ,福岡県京都郡みやこ町松坂
8240231,福岡県,京都郡みやこ町,犀川本庄,フクオカケン,ミヤコグンミヤコマチ,サイガワホンジョウ,福岡県京都郡みやこ町犀川本庄
8240232,福岡県,京都郡みやこ町,桜台,フクオカケン,ミヤコグンミヤコマチ,サクラダイ,福岡県京都郡みやこ町桜台
8240233,福岡県,京都郡みやこ町,犀川花熊,フクオカケン,ミヤコグンミヤコマチ,サイガワハナグマ,福岡県京都郡みやこ町犀川花熊
8240234,福岡県,京都郡みやこ町,下高屋団地,フクオカケン,ミヤコグンミヤコマチ,シモタカヤダンチ,福岡県京都郡みやこ町下高屋団地
8240235,福岡県,京都郡みやこ町,犀川木山,フクオカケン,ミヤコグンミヤコマチ,サイガワキヤマ,福岡県京都郡みやこ町犀川木山
8240241,福岡県,京都郡みやこ町,犀川内垣,フクオカケン,ミヤコグンミヤコマチ,サイガワウチガキ,福岡県京都郡みやこ町犀川内垣
8240242,福岡県,京都郡みやこ町,犀川犬丸,フクオカケン,ミヤコグンミヤコマチ,サイガワイヌマル,福岡県京都郡みやこ町犀川犬丸
8240243,福岡県,京都郡みやこ町,犀川木井馬場,フクオカケン,ミヤコグンミヤコマチ,サイガワキイババ,福岡県京都郡みやこ町犀川木井馬場
8240244,福岡県,京都郡みやこ町,犀川横瀬,フクオカケン,ミヤコグンミヤコマチ,サイガワヨコセ,福岡県京都郡みやこ町犀川横瀬
8240251,福岡県,京都郡みやこ町,犀川下伊良原,フクオカケン,ミヤコグンミヤコマチ,サイガワシモイラハラ,福岡県京都郡みやこ町犀川下伊良原
8240252,福岡県,京都郡みやこ町,犀川上伊良原,フクオカケン,ミヤコグンミヤコマチ,サイガワカミイラハラ,福岡県京都郡みやこ町犀川上伊良原
8240253,福岡県,京都郡みやこ町,犀川帆柱,フクオカケン,ミヤコグンミヤコマチ,サイガワホバシラ,福岡県京都郡みやこ町犀川帆柱
8240254,福岡県,京都郡みやこ町,犀川扇谷,フクオカケン,ミヤコグンミヤコマチ,サイガワオウギダニ,福岡県京都郡みやこ町犀川扇谷
8240400,福岡県,田川郡赤村,,フクオカケン,タガワグンアカムラ,,福岡県田川郡赤村
8240411,福岡県,田川郡添田町,津野,フクオカケン,タガワグンソエダマチ,ツノ,福岡県田川郡添田町津野
8240431,福岡県,田川郡赤村,赤,フクオカケン,タガワグンアカムラ,アカ,福岡県田川郡赤村赤
8240432,福岡県,田川郡赤村,内田,フクオカケン,タガワグンアカムラ,ウチダ,福岡県田川郡赤村内田
8240500,福岡県,田川郡大任町,,フクオカケン,タガワグンオオトウマチ,,福岡県田川郡大任町
8240511,福岡県,田川郡大任町,今任原,フクオカケン,タガワグンオオトウマチ,イマトウバル,福岡県田川郡大任町今任原
8240512,福岡県,田川郡大任町,大行事,フクオカケン,タガワグンオオトウマチ,ダイギョウジ,福岡県田川郡大任町大行事
8240600,福岡県,田川郡添田町,,フクオカケン,タガワグンソエダマチ,,福岡県田川郡添田町
8240601,福岡県,田川郡添田町,庄,フクオカケン,タガワグンソエダマチ,ショウ,福岡県田川郡添田町庄
8240602,福岡県,田川郡添田町,添田,フクオカケン,タガワグンソエダマチ,ソエダ,福岡県田川郡添田町添田
8240603,福岡県,田川郡添田町,中元寺,フクオカケン,タガワグンソエダマチ,チュウガンジ,福岡県田川郡添田町中元寺
8240604,福岡県,田川郡添田町,野田,フクオカケン,タガワグンソエダマチ,ノダ,福岡県田川郡添田町野田
8240721,福岡県,田川郡添田町,英彦山,フクオカケン,タガワグンソエダマチ,ヒコサン,福岡県田川郡添田町英彦山
8240722,福岡県,田川郡添田町,落合,フクオカケン,タガワグンソエダマチ,オチアイ,福岡県田川郡添田町落合
8240723,福岡県,田川郡添田町,桝田,フクオカケン,タガワグンソエダマチ,マスダ,福岡県田川郡添田町桝田
8240800,福岡県,京都郡みやこ町,,フクオカケン,ミヤコグンミヤコマチ,,福岡県京都郡みやこ町
8240801,福岡県,京都郡みやこ町,勝山大久保,フクオカケン,ミヤコグンミヤコマチ,カツヤマオオクボ,福岡県京都郡みやこ町勝山大久保
8240802,福岡県,京都郡みやこ町,勝山松田,フクオカケン,ミヤコグンミヤコマチ,カツヤママツダ,福岡県京都郡みやこ町勝山松田
8240811,福岡県,京都郡みやこ町,勝山箕田,フクオカケン,ミヤコグンミヤコマチ,カツヤマミダ,福岡県京都郡みやこ町勝山箕田
8240812,福岡県,京都郡みやこ町,勝山長川,フクオカケン,ミヤコグンミヤコマチ,カツヤマナガワ,福岡県京都郡みやこ町勝山長川
8240813,福岡県,京都郡みやこ町,勝山宮原,フクオカケン,ミヤコグンミヤコマチ,カツヤマミヤバル,福岡県京都郡みやこ町勝山宮原
8240814,福岡県,京都郡みやこ町,勝山浦河内,フクオカケン,ミヤコグンミヤコマチ,カツヤマウラガワチ,福岡県京都郡みやこ町勝山浦河内
8240815,福岡県,京都郡みやこ町,勝山上矢山,フクオカケン,ミヤコグンミヤコマチ,カツヤマカミヤヤマ,福岡県京都郡みやこ町勝山上矢山
8240816,福岡県,京都郡みやこ町,勝山矢山,フクオカケン,ミヤコグンミヤコマチ,カツヤマヤヤマ,福岡県京都郡みやこ町勝山矢山
8240817,福岡県,京都郡みやこ町,勝山岩熊,フクオカケン,ミヤコグンミヤコマチ,カツヤマイワグマ,福岡県京都郡みやこ町勝山岩熊
8240818,福岡県,京都郡みやこ町,勝山池田,フクオカケン,ミヤコグンミヤコマチ,カツヤマイケダ,福岡県京都郡みやこ町勝山池田
8240821,福岡県,京都郡みやこ町,勝山上田,フクオカケン,ミヤコグンミヤコマチ,カツヤマウエダ,福岡県京都郡みやこ町勝山上田
8240822,福岡県,京都郡みやこ町,勝山黒田,フクオカケン,ミヤコグンミヤコマチ,カツヤマクロダ,福岡県京都郡みやこ町勝山黒田
8250000,福岡県,田川市,,フクオカケン,タガワシ,,福岡県田川市
8250001,福岡県,田川市,伊加利,フクオカケン,タガワシ,イカリ,福岡県田川市伊加利
8250002,福岡県,田川市,伊田,フクオカケン,タガワシ,イタ,福岡県田川市伊田
8250003,福岡県,田川市,白鳥町,フクオカケン,タガワシ,シラトリマチ,福岡県田川市白鳥町
8250004,福岡県,田川市,夏吉,フクオカケン,タガワシ,ナツヨシ,福岡県田川市夏吉
8250005,福岡県,田川市,糒,フクオカケン,タガワシ,ホシイ,福岡県田川市糒
8250011,福岡県,田川市,栄町,フクオカケン,タガワシ,サカエマチ,福岡県田川市栄町
8250012,福岡県,田川市,日の出町,フクオカケン,タガワシ,ヒノデマチ,福岡県田川市日の出町
8250013,福岡県,田川市,中央町,フクオカケン,タガワシ,チュウオウマチ,福岡県田川市中央町
8250014,福岡県,田川市,魚町,フクオカケン,タガワシ,ウオマチ,福岡県田川市魚町
8250015,福岡県,田川市,伊田町,フクオカケン,タガワシ,イタマチ,福岡県田川市伊田町
8250016,福岡県,田川市,新町,フクオカケン,タガワシ,シンマチ,福岡県田川市新町
8250017,福岡県,田川市,寿町,フクオカケン,タガワシ,コトブキマチ,福岡県田川市寿町
8250018,福岡県,田川市,番田町,フクオカケン,タガワシ,バンダマチ,福岡県田川市番田町
8260002,福岡県,田川郡川崎町,池尻（上原、小倉畔）,フクオカケン,タガワグンカワサキマチ,イケジリ(カンバル、コクラノテ),福岡県田川郡川崎町池尻（上原、小倉畔）
8260021,福岡県,田川市,桜町,フクオカケン,タガワシ,サクラマチ,福岡県田川市桜町
8260022,福岡県,田川市,本町,フクオカケン,タガワシ,ホンマチ,福岡県田川市本町
8260023,福岡県,田川市,上本町,フクオカケン,タガワシ,カミホンマチ,福岡県田川市上本町
8260024,福岡県,田川市,西本町,フクオカケン,タガワシ,ニシホンマチ,福岡県田川市西本町
8260025,福岡県,田川市,大黒町,フクオカケン,タガワシ,ダイコクマチ,福岡県田川市大黒町
8260026,福岡県,田川市,春日町,フクオカケン,タガワシ,カスガマチ,福岡県田川市春日町
8260027,福岡県,田川市,宮尾町,フクオカケン,タガワシ,ミヤオマチ,福岡県田川市宮尾町
8260031,福岡県,田川市,千代町,フクオカケン,タガワシ,チヨマチ,福岡県田川市千代町
8260032,福岡県,田川市,平松町,フクオカケン,タガワシ,ヒラマツマチ,福岡県田川市平松町
8260033,福岡県,田川市,丸山町,フクオカケン,タガワシ,マルヤママチ,福岡県田川市丸山町
8260041,福岡県,田川市,弓削田（角銅原、野上、船尾、見立、文字山）,フクオカケン,タガワシ,ユゲタ(カクドウバル、ノガミ、フナオ、ミタテ、モジヤマ),福岡県田川市弓削田（角銅原、野上、船尾、見立、文字山）
8260042,福岡県,田川市,川宮（大藪、新生町、高住町、平岡）,フクオカケン,タガワシ,カワミヤ(オオヤブ、シンセイチョウ、タカスミチョウ、ヒラオカ),福岡県田川市川宮（大藪、新生町、高住町、平岡）
8260043,福岡県,田川市,奈良（青葉町、大浦、会社町、霞ケ丘、後藤寺西団地、後藤寺東団地、希望ケ丘、,フクオカケン,タガワシ,ナラ(アオバチョウ、オオウラ、カイシャマチ、カスミガオカ、ゴトウジニシダンチ、ゴトウジヒガシダンチ、ノゾミガオカ、,福岡県田川市奈良（青葉町、大浦、会社町、霞ケ丘、後藤寺西団地、後藤寺東団地、希望ケ丘、
8260044,福岡県,田川市,位登（猪位金４〜７区、清美町）,フクオカケン,タガワシ,イトウ(イイカネ4-7ク、キヨミチョウ),福岡県田川市位登（猪位金4〜7区、清美町）
8260045,福岡県,田川市,猪国（猪位金１〜３区）,フクオカケン,タガワシ,イノクニ(イイカネ1-3ク),福岡県田川市猪国（猪位金1〜3区）
8270000,福岡県,田川郡川崎町,,フクオカケン,タガワグンカワサキマチ,,福岡県田川郡川崎町
8270001,福岡県,田川郡川崎町,安眞木,フクオカケン,タガワグンカワサキマチ,アマギ,福岡県田川郡川崎町安眞木
8270002,福岡県,田川郡川崎町,池尻（その他）,フクオカケン,タガワグンカワサキマチ,イケジリ(ソノタ),福岡県田川郡川崎町池尻（その他）
8270003,福岡県,田川郡川崎町,川崎,フクオカケン,タガワグンカワサキマチ,カワサキ,福岡県田川郡川崎町川崎
8270004,福岡県,田川郡川崎町,田原,フクオカケン,タガワグンカワサキマチ,タバラ,福岡県田川郡川崎町田原
8280000,福岡県,豊前市,,フクオカケン,ブゼンシ,,福岡県豊前市
8280001,福岡県,豊前市,畠中,フクオカケン,ブゼンシ,ハタケナカ,福岡県豊前市畠中
8280002,福岡県,豊前市,松江,フクオカケン,ブゼンシ,ショウエ,福岡県豊前市松江
8280003,福岡県,豊前市,中村,フクオカケン,ブゼンシ,ナカムラ,福岡県豊前市中村
8280004,福岡県,豊前市,馬場,フクオカケン,ブゼンシ,ババ,福岡県豊前市馬場
8280005,福岡県,豊前市,畑,フクオカケン,ブゼンシ,ハタ,福岡県豊前市畑
8280011,福岡県,豊前市,四郎丸,フクオカケン,ブゼンシ,シロウマル,福岡県豊前市四郎丸
8280012,福岡県,豊前市,鳥越,フクオカケン,ブゼンシ,トリゴエ,福岡県豊前市鳥越
8280013,福岡県,豊前市,川内,フクオカケン,ブゼンシ,カワチ,福岡県豊前市川内
8280021,福岡県,豊前市,八屋,フクオカケン,ブゼンシ,ハチヤ,福岡県豊前市八屋
8280022,福岡県,豊前市,宇島,フクオカケン,ブゼンシ,ウノシマ,福岡県豊前市宇島
8280023,福岡県,豊前市,沓川,フクオカケン,ブゼンシ,クツガワ,福岡県豊前市沓川
8280024,福岡県,豊前市,久松,フクオカケン,ブゼンシ,ヒサマツ,福岡県豊前市久松
8280025,福岡県,豊前市,恒富,フクオカケン,ブゼンシ,ツネドミ,福岡県豊前市恒富
8280026,福岡県,豊前市,清水町,フクオカケン,ブゼンシ,ショウズ,福岡県豊前市清水町
8280027,福岡県,豊前市,赤熊,フクオカケン,ブゼンシ,アカグマ,福岡県豊前市赤熊
8280028,福岡県,豊前市,青豊,フクオカケン,ブゼンシ,セイホウ,福岡県豊前市青豊
8280031,福岡県,豊前市,三毛門,フクオカケン,ブゼンシ,ミケカド,福岡県豊前市三毛門
8280032,福岡県,豊前市,三楽,フクオカケン,ブゼンシ,サンラク,福岡県豊前市三楽
8280033,福岡県,豊前市,六郎,フクオカケン,ブゼンシ,ロクロウ,福岡県豊前市六郎
8280034,福岡県,豊前市,森久,フクオカケン,ブゼンシ,モリヒサ,福岡県豊前市森久
8280035,福岡県,豊前市,市丸,フクオカケン,ブゼンシ,イチマル,福岡県豊前市市丸
8280036,福岡県,豊前市,小犬丸,フクオカケン,ブゼンシ,コイヌマル,福岡県豊前市小犬丸
8280041,福岡県,豊前市,梶屋,フクオカケン,ブゼンシ,カジヤ,福岡県豊前市梶屋
8280042,福岡県,豊前市,堀立,フクオカケン,ブゼンシ,ホリタテ,福岡県豊前市堀立
8280043,福岡県,豊前市,岸井,フクオカケン,ブゼンシ,キシイ,福岡県豊前市岸井
8280044,福岡県,豊前市,小石原,フクオカケン,ブゼンシ,コイシハラ,福岡県豊前市小石原
8280045,福岡県,豊前市,皆毛,フクオカケン,ブゼンシ,カイモ,福岡県豊前市皆毛
8280046,福岡県,豊前市,高田,フクオカケン,ブゼンシ,タカタ,福岡県豊前市高田
8280047,福岡県,豊前市,広瀬,フクオカケン,ブゼンシ,ヒロセ,福岡県豊前市広瀬
8280048,福岡県,豊前市,久路土,フクオカケン,ブゼンシ,キュウロツチ,福岡県豊前市久路土
8280049,福岡県,豊前市,鬼木,フクオカケン,ブゼンシ,オニノキ,福岡県豊前市鬼木
8280051,福岡県,豊前市,吉木,フクオカケン,ブゼンシ,ヨシキ,福岡県豊前市吉木
8280052,福岡県,豊前市,塔田,フクオカケン,ブゼンシ,トウダ,福岡県豊前市塔田
8280053,福岡県,豊前市,千束,フクオカケン,ブゼンシ,チヅカ,福岡県豊前市千束
8280054,福岡県,豊前市,永久,フクオカケン,ブゼンシ,ナガヒサ,福岡県豊前市永久
8280055,福岡県,豊前市,河原田,フクオカケン,ブゼンシ,カワハラダ,福岡県豊前市河原田
8280056,福岡県,豊前市,薬師寺,フクオカケン,ブゼンシ,ヤクシジ,福岡県豊前市薬師寺
8280061,福岡県,豊前市,荒堀,フクオカケン,ブゼンシ,アラホリ,福岡県豊前市荒堀
8280062,福岡県,豊前市,今市,フクオカケン,ブゼンシ,イマイチ,福岡県豊前市今市
8280063,福岡県,豊前市,野田,フクオカケン,ブゼンシ,ノダ,福岡県豊前市野田
8280064,福岡県,豊前市,大西,フクオカケン,ブゼンシ,オオニシ,福岡県豊前市大西
8280065,福岡県,豊前市,青畑,フクオカケン,ブゼンシ,アオハタ,福岡県豊前市青畑
8280066,福岡県,豊前市,大村,フクオカケン,ブゼンシ,オオムラ,福岡県豊前市大村
8280071,福岡県,豊前市,山内,フクオカケン,ブゼンシ,ヤマウチ,福岡県豊前市山内
8280072,福岡県,豊前市,才尾,フクオカケン,ブゼンシ,サイオ,福岡県豊前市才尾
8280073,福岡県,豊前市,挾間,フクオカケン,ブゼンシ,ハサマ,福岡県豊前市挾間
8280074,福岡県,豊前市,下河内,フクオカケン,ブゼンシ,シモカワチ,福岡県豊前市下河内
8280075,福岡県,豊前市,下川底,フクオカケン,ブゼンシ,シモカワソコ,福岡県豊前市下川底
8280076,福岡県,豊前市,中川底,フクオカケン,ブゼンシ,ナカガワソコ,福岡県豊前市中川底
8280077,福岡県,豊前市,上川底,フクオカケン,ブゼンシ,カミカワソコ,福岡県豊前市上川底
8280081,福岡県,豊前市,天和,フクオカケン,ブゼンシ,テンワ,福岡県豊前市天和
8280082,福岡県,豊前市,大河内,フクオカケン,ブゼンシ,オオカワチ,福岡県豊前市大河内
8280083,福岡県,豊前市,岩屋,フクオカケン,ブゼンシ,イワヤ,福岡県豊前市岩屋
8280084,福岡県,豊前市,篠瀬,フクオカケン,ブゼンシ,シノセ,福岡県豊前市篠瀬
8280085,福岡県,豊前市,鳥井畑,フクオカケン,ブゼンシ,トリイハタ,福岡県豊前市鳥井畑
8280086,福岡県,豊前市,求菩提,フクオカケン,ブゼンシ,クボテ,福岡県豊前市求菩提
8290100,福岡県,築上郡築上町,,フクオカケン,チクジョウグンチクジョウマチ,,福岡県築上郡築上町
8290101,福岡県,築上郡築上町,東築城,フクオカケン,チクジョウグンチクジョウマチ,ヒガシツイキ,福岡県築上郡築上町東築城
8290102,福岡県,築上郡築上町,築城,フクオカケン,チクジョウグンチクジョウマチ,ツイキ,福岡県築上郡築上町築城
8290103,福岡県,築上郡築上町,広末,フクオカケン,チクジョウグンチクジョウマチ,ヒロスエ,福岡県築上郡築上町広末
8290104,福岡県,築上郡築上町,小山田,フクオカケン,チクジョウグンチクジョウマチ,オヤマダ,福岡県築上郡築上町小山田
8290105,福岡県,築上郡築上町,上別府,フクオカケン,チクジョウグンチクジョウマチ,カミベフ,福岡県築上郡築上町上別府
8290106,福岡県,築上郡築上町,船迫,フクオカケン,チクジョウグンチクジョウマチ,フナサコ,福岡県築上郡築上町船迫
8290107,福岡県,築上郡築上町,弓の師,フクオカケン,チクジョウグンチクジョウマチ,ユミノシ,福岡県築上郡築上町弓の師
8290108,福岡県,築上郡築上町,下別府,フクオカケン,チクジョウグンチクジョウマチ,シモベフ,福岡県築上郡築上町下別府
8290111,福岡県,築上郡築上町,安武,フクオカケン,チクジョウグンチクジョウマチ,ヤスタケ,福岡県築上郡築上町安武
8290112,福岡県,築上郡築上町,赤幡,フクオカケン,チクジョウグンチクジョウマチ,アカハタ,福岡県築上郡築上町赤幡
8290113,福岡県,築上郡築上町,下香楽,フクオカケン,チクジョウグンチクジョウマチ,シモコウラク,福岡県築上郡築上町下香楽
8290114,福岡県,築上郡築上町,上香楽,フクオカケン,チクジョウグンチクジョウマチ,カミコウラク,福岡県築上郡築上町上香楽
8290115,福岡県,築上郡築上町,上深野,フクオカケン,チクジョウグンチクジョウマチ,カミフカノ,福岡県築上郡築上町上深野
8290116,福岡県,築上郡築上町,下深野,フクオカケン,チクジョウグンチクジョウマチ,シモフカノ,福岡県築上郡築上町下深野
8290117,福岡県,築上郡築上町,袈裟丸,フクオカケン,チクジョウグンチクジョウマチ,ケサマル,福岡県築上郡築上町袈裟丸
8290121,福岡県,築上郡築上町,松丸,フクオカケン,チクジョウグンチクジョウマチ,マツマル,福岡県築上郡築上町松丸
8290122,福岡県,築上郡築上町,伝法寺,フクオカケン,チクジョウグンチクジョウマチ,デンボウジ,福岡県築上郡築上町伝法寺
8290123,福岡県,築上郡築上町,本庄,フクオカケン,チクジョウグンチクジョウマチ,ホンジョウ,福岡県築上郡築上町本庄
8290124,福岡県,築上郡築上町,櫟原,フクオカケン,チクジョウグンチクジョウマチ,イチギバル,福岡県築上郡築上町櫟原
8290125,福岡県,築上郡築上町,寒田,フクオカケン,チクジョウグンチクジョウマチ,サワダ,福岡県築上郡築上町寒田
8290151,福岡県,築上郡築上町,西八田（航空自衛隊築城基地）,フクオカケン,チクジョウグンチクジョウマチ,ニシハッタ(コウクウジエイタイツイキキチ),福岡県築上郡築上町西八田（航空自衛隊築城基地）
8290301,福岡県,築上郡築上町,椎田,フクオカケン,チクジョウグンチクジョウマチ,シイダ,福岡県築上郡築上町椎田
8290302,福岡県,築上郡築上町,臼田,フクオカケン,チクジョウグンチクジョウマチ,ウスダ,福岡県築上郡築上町臼田
8290303,福岡県,築上郡築上町,山本,フクオカケン,チクジョウグンチクジョウマチ,ヤマモト,福岡県築上郡築上町山本
8290304,福岡県,築上郡築上町,小原,フクオカケン,チクジョウグンチクジョウマチ,オバラ,福岡県築上郡築上町小原
8290305,福岡県,築上郡築上町,真如寺,フクオカケン,チクジョウグンチクジョウマチ,シンニョウジ,福岡県築上郡築上町真如寺
8290311,福岡県,築上郡築上町,湊,フクオカケン,チクジョウグンチクジョウマチ,ミナト,福岡県築上郡築上町湊
8290312,福岡県,築上郡築上町,石堂,フクオカケン,チクジョウグンチクジョウマチ,イシドウ,福岡県築上郡築上町石堂
8290313,福岡県,築上郡築上町,有安,フクオカケン,チクジョウグンチクジョウマチ,アリヤス,福岡県築上郡築上町有安
8290314,福岡県,築上郡築上町,上ノ河内,フクオカケン,チクジョウグンチクジョウマチ,ウエノカワチ,福岡県築上郡築上町上ノ河内
8290315,福岡県,築上郡築上町,上り松,フクオカケン,チクジョウグンチクジョウマチ,アガリマツ,福岡県築上郡築上町上り松
8290321,福岡県,築上郡築上町,坂本,フクオカケン,チクジョウグンチクジョウマチ,サカモト,福岡県築上郡築上町坂本
8290322,福岡県,築上郡築上町,日奈古,フクオカケン,チクジョウグンチクジョウマチ,ヒナゴ,福岡県築上郡築上町日奈古
8290323,福岡県,築上郡築上町,極楽寺,フクオカケン,チクジョウグンチクジョウマチ,ゴクラクジ,福岡県築上郡築上町極楽寺
8290331,福岡県,築上郡築上町,高塚,フクオカケン,チクジョウグンチクジョウマチ,タカツカ,福岡県築上郡築上町高塚
8290332,福岡県,築上郡築上町,越路,フクオカケン,チクジョウグンチクジョウマチ,コイジ,福岡県築上郡築上町越路
8290333,福岡県,築上郡築上町,水原,フクオカケン,チクジョウグンチクジョウマチ,ミズハラ,福岡県築上郡築上町水原
8290334,福岡県,築上郡築上町,奈古,フクオカケン,チクジョウグンチクジョウマチ,ナゴ,福岡県築上郡築上町奈古
8290335,福岡県,築上郡築上町,岩丸,フクオカケン,チクジョウグンチクジョウマチ,イワマル,福岡県築上郡築上町岩丸
8290341,福岡県,築上郡築上町,宇留津,フクオカケン,チクジョウグンチクジョウマチ,ウルヅ,福岡県築上郡築上町宇留津
8290342,福岡県,築上郡築上町,東八田,フクオカケン,チクジョウグンチクジョウマチ,ヒガシハッタ,福岡県築上郡築上町東八田
8290343,福岡県,築上郡築上町,西八田（その他）,フクオカケン,チクジョウグンチクジョウマチ,ニシハッタ(ソノタ),福岡県築上郡築上町西八田（その他）
8300001,福岡県,久留米市,小森野,フクオカケン,クルメシ,コモリノ,福岡県久留米市小森野
8300002,福岡県,久留米市,高野,フクオカケン,クルメシ,タカノ,福岡県久留米市高野
8300003,福岡県,久留米市,東櫛原町,フクオカケン,クルメシ,ヒガシクシハラマチ,福岡県久留米市東櫛原町
8300004,福岡県,久留米市,南薫町,フクオカケン,クルメシ,ナンクンマチ,福岡県久留米市南薫町
8300005,福岡県,久留米市,通外町,フクオカケン,クルメシ,トオリホカマチ,福岡県久留米市通外町
8300006,福岡県,久留米市,南薫西町,フクオカケン,クルメシ,ナンクンニシマチ,福岡県久留米市南薫西町
8300011,福岡県,久留米市,旭町,フクオカケン,クルメシ,アサヒマチ,福岡県久留米市旭町
8300012,福岡県,久留米市,日ノ出町,フクオカケン,クルメシ,ヒノデマチ,福岡県久留米市日ノ出町
8300013,福岡県,久留米市,櫛原町,フクオカケン,クルメシ,クシハラマチ,福岡県久留米市櫛原町
8300014,福岡県,久留米市,寺町,フクオカケン,クルメシ,テラマチ,福岡県久留米市寺町
8300015,福岡県,久留米市,螢川町,フクオカケン,クルメシ,ホタルガワマチ,福岡県久留米市螢川町
8300016,福岡県,久留米市,通東町,フクオカケン,クルメシ,トオリヒガシマチ,福岡県久留米市通東町
8300017,福岡県,久留米市,日吉町,フクオカケン,クルメシ,ヒヨシマチ,福岡県久留米市日吉町
8300018,福岡県,久留米市,通町,フクオカケン,クルメシ,トオリマチ,福岡県久留米市通町
8300019,福岡県,久留米市,小森野町,フクオカケン,クルメシ,コモリノマチ,福岡県久留米市小森野町
8300021,福岡県,久留米市,篠山町,フクオカケン,クルメシ,ササヤママチ,福岡県久留米市篠山町
8300022,福岡県,久留米市,城南町,フクオカケン,クルメシ,ジョウナンマチ,福岡県久留米市城南町
8300023,福岡県,久留米市,中央町,フクオカケン,クルメシ,チュウオウマチ,福岡県久留米市中央町
8300024,福岡県,久留米市,縄手町,フクオカケン,クルメシ,ナワテマチ,福岡県久留米市縄手町
8300025,福岡県,久留米市,瀬下町,フクオカケン,クルメシ,セノシタマチ,福岡県久留米市瀬下町
8300026,福岡県,久留米市,長門石町,フクオカケン,クルメシ,ナガトイシマチ,福岡県久留米市長門石町
8300027,福岡県,久留米市,長門石,フクオカケン,クルメシ,ナガトイシ,福岡県久留米市長門石
8300028,福岡県,久留米市,京町,フクオカケン,クルメシ,キョウマチ,福岡県久留米市京町
8300029,福岡県,久留米市,洗町,フクオカケン,クルメシ,アライマチ,福岡県久留米市洗町
8300031,福岡県,久留米市,六ツ門町,フクオカケン,クルメシ,ムツモンマチ,福岡県久留米市六ツ門町
8300032,福岡県,久留米市,東町,フクオカケン,クルメシ,ヒガシマチ,福岡県久留米市東町
8300033,福岡県,久留米市,天神町,フクオカケン,クルメシ,テンジンマチ,福岡県久留米市天神町
8300034,福岡県,久留米市,大手町,フクオカケン,クルメシ,オオテマチ,福岡県久留米市大手町
8300035,福岡県,久留米市,東和町,フクオカケン,クルメシ,トウワマチ,福岡県久留米市東和町
8300036,福岡県,久留米市,篠原町,フクオカケン,クルメシ,シノハラマチ,福岡県久留米市篠原町
8300037,福岡県,久留米市,諏訪野町,フクオカケン,クルメシ,スワノマチ,福岡県久留米市諏訪野町
8300038,福岡県,久留米市,西町,フクオカケン,クルメシ,ニシマチ,福岡県久留米市西町
8300039,福岡県,久留米市,花畑,フクオカケン,クルメシ,ハナバタケ,福岡県久留米市花畑
8300041,福岡県,久留米市,白山町,フクオカケン,クルメシ,シラヤママチ,福岡県久留米市白山町
8300042,福岡県,久留米市,荘島町,フクオカケン,クルメシ,ショウジママチ,福岡県久留米市荘島町
8300043,福岡県,久留米市,松ケ枝町,フクオカケン,クルメシ,マツガエマチ,福岡県久留米市松ケ枝町
8300044,福岡県,久留米市,本町,フクオカケン,クルメシ,ホンマチ,福岡県久留米市本町
8300045,福岡県,久留米市,小頭町,フクオカケン,クルメシ,コガシラマチ,福岡県久留米市小頭町
8300046,福岡県,久留米市,原古賀町,フクオカケン,クルメシ,ハランコガマチ,福岡県久留米市原古賀町
8300047,福岡県,久留米市,津福本町,フクオカケン,クルメシ,ツブクホンマチ,福岡県久留米市津福本町
8300048,福岡県,久留米市,梅満町,フクオカケン,クルメシ,ウメミツマチ,福岡県久留米市梅満町
8300049,福岡県,久留米市,大石町,フクオカケン,クルメシ,オオイシマチ,福岡県久留米市大石町
8300051,福岡県,久留米市,南,フクオカケン,クルメシ,ミナミ,福岡県久留米市南
8300052,福岡県,久留米市,上津町,フクオカケン,クルメシ,カミツマチ,福岡県久留米市上津町
8300053,福岡県,久留米市,藤山町,フクオカケン,クルメシ,フジヤママチ,福岡県久留米市藤山町
8300054,福岡県,久留米市,藤光町,フクオカケン,クルメシ,フジミツマチ,福岡県久留米市藤光町
8300055,福岡県,久留米市,上津,フクオカケン,クルメシ,カミツ,福岡県久留米市上津
8300056,福岡県,久留米市,本山,フクオカケン,クルメシ,モトヤマ,福岡県久留米市本山
8300057,福岡県,久留米市,藤光,フクオカケン,クルメシ,フジミツ,福岡県久留米市藤光
8300058,福岡県,久留米市,野伏間,フクオカケン,クルメシ,ノブスマ,福岡県久留米市野伏間
8300059,福岡県,久留米市,江戸屋敷,フクオカケン,クルメシ,エドヤシキ,福岡県久留米市江戸屋敷
8300061,福岡県,久留米市,津福今町,フクオカケン,クルメシ,ツブクイママチ,福岡県久留米市津福今町
8300062,福岡県,久留米市,荒木町白口,フクオカケン,クルメシ,アラキマチシラクチ,福岡県久留米市荒木町白口
8300063,福岡県,久留米市,荒木町荒木,フクオカケン,クルメシ,アラキマチアラキ,福岡県久留米市荒木町荒木
8300064,福岡県,久留米市,荒木町藤田,フクオカケン,クルメシ,アラキマチフジタ,福岡県久留米市荒木町藤田
8300065,福岡県,久留米市,荒木町今,フクオカケン,クルメシ,アラキマチイマ,福岡県久留米市荒木町今
8300066,福岡県,久留米市,荒木町下荒木,フクオカケン,クルメシ,アラキマチシモアラキ,福岡県久留米市荒木町下荒木
8300070,福岡県,久留米市,大善寺南,フクオカケン,クルメシ,ダイゼンジミナミ,福岡県久留米市大善寺南
8300071,福岡県,久留米市,安武町武島,フクオカケン,クルメシ,ヤスタケマチタケシマ,福岡県久留米市安武町武島
8300072,福岡県,久留米市,安武町安武本,フクオカケン,クルメシ,ヤスタケマチヤスタケホン,福岡県久留米市安武町安武本
8300073,福岡県,久留米市,大善寺町宮本,フクオカケン,クルメシ,ダイゼンジマチミヤモト,福岡県久留米市大善寺町宮本
8300074,福岡県,久留米市,大善寺町夜明,フクオカケン,クルメシ,ダイゼンジマチヨアケ,福岡県久留米市大善寺町夜明
8300075,福岡県,久留米市,大善寺町黒田,フクオカケン,クルメシ,ダイゼンジマチクロダ,福岡県久留米市大善寺町黒田
8300076,福岡県,久留米市,大善寺町藤吉,フクオカケン,クルメシ,ダイゼンジマチフジヨシ,福岡県久留米市大善寺町藤吉
8300077,福岡県,久留米市,大善寺町中津,フクオカケン,クルメシ,ダイゼンジマチナカツ,福岡県久留米市大善寺町中津
8300078,福岡県,久留米市,安武町住吉,フクオカケン,クルメシ,ヤスタケマチスミヨシ,福岡県久留米市安武町住吉
8300079,福岡県,久留米市,大善寺大橋,フクオカケン,クルメシ,ダイゼンジオオハシ,福岡県久留米市大善寺大橋
8300101,福岡県,久留米市,三潴町早津崎,フクオカケン,クルメシ,ミヅママチハヤツザキ,福岡県久留米市三潴町早津崎
8300102,福岡県,久留米市,三潴町田川,フクオカケン,クルメシ,ミヅママチタガワ,福岡県久留米市三潴町田川
8300103,福岡県,久留米市,三潴町高三潴,フクオカケン,クルメシ,ミヅママチタカミズマ,福岡県久留米市三潴町高三潴
8300104,福岡県,久留米市,三潴町原田,フクオカケン,クルメシ,ミヅママチハルダ,福岡県久留米市三潴町原田
8300105,福岡県,久留米市,三潴町草場,フクオカケン,クルメシ,ミヅママチクサバ,福岡県久留米市三潴町草場
8300111,福岡県,久留米市,三潴町西牟田,フクオカケン,クルメシ,ミヅママチニシムタ,福岡県久留米市三潴町西牟田
8300112,福岡県,久留米市,三潴町玉満,フクオカケン,クルメシ,ミヅママチタマミツ,福岡県久留米市三潴町玉満
8300113,福岡県,久留米市,三潴町生岩,フクオカケン,クルメシ,ミヅママチイキイワ,福岡県久留米市三潴町生岩
8300114,福岡県,久留米市,三潴町福光,フクオカケン,クルメシ,ミヅママチフクミツ,福岡県久留米市三潴町福光
8300115,福岡県,久留米市,三潴町壱町原,フクオカケン,クルメシ,ミヅママチイッチョウバル,福岡県久留米市三潴町壱町原
8300116,福岡県,久留米市,三潴町清松,フクオカケン,クルメシ,ミヅママチキヨマツ,福岡県久留米市三潴町清松
8300201,福岡県,久留米市,城島町芦塚,フクオカケン,クルメシ,ジョウジママチアシヅカ,福岡県久留米市城島町芦塚
8300202,福岡県,久留米市,城島町下田,フクオカケン,クルメシ,ジョウジママチシモダ,福岡県久留米市城島町下田
8300203,福岡県,久留米市,城島町浜,フクオカケン,クルメシ,ジョウジママチハマ,福岡県久留米市城島町浜
8300204,福岡県,久留米市,城島町内野,フクオカケン,クルメシ,ジョウジママチウチノ,福岡県久留米市城島町内野
8300205,福岡県,久留米市,城島町大依,フクオカケン,クルメシ,ジョウジママチオオヨリ,福岡県久留米市城島町大依
8300206,福岡県,久留米市,城島町六町原,フクオカケン,クルメシ,ジョウジママチロクチョウバル,福岡県久留米市城島町六町原
8300207,福岡県,久留米市,城島町城島,フクオカケン,クルメシ,ジョウジママチジョウジマ,福岡県久留米市城島町城島
8300211,福岡県,久留米市,城島町楢津,フクオカケン,クルメシ,ジョウジママチナラツ,福岡県久留米市城島町楢津
8300212,福岡県,久留米市,城島町江上上,フクオカケン,クルメシ,ジョウジママチエガミカミ,福岡県久留米市城島町江上上
8300213,福岡県,久留米市,城島町江上,フクオカケン,クルメシ,ジョウジママチエガミ,福岡県久留米市城島町江上
8300214,福岡県,久留米市,城島町江上本,フクオカケン,クルメシ,ジョウジママチエガミホン,福岡県久留米市城島町江上本
8300215,福岡県,久留米市,城島町原中牟田,フクオカケン,クルメシ,ジョウジママチハラナカムタ,福岡県久留米市城島町原中牟田
8300216,福岡県,久留米市,城島町江島,フクオカケン,クルメシ,ジョウジママチエシマ,福岡県久留米市城島町江島
8300221,福岡県,久留米市,城島町浮島,フクオカケン,クルメシ,ジョウジママチウキシマ,福岡県久留米市城島町浮島
8300222,福岡県,久留米市,城島町青木島,フクオカケン,クルメシ,ジョウジママチアオキシマ,福岡県久留米市城島町青木島
8300223,福岡県,久留米市,城島町四郎丸,フクオカケン,クルメシ,ジョウジママチシロウマル,福岡県久留米市城島町四郎丸
8300224,福岡県,久留米市,城島町上青木,フクオカケン,クルメシ,ジョウジママチカミアオキ,福岡県久留米市城島町上青木
8300225,福岡県,久留米市,城島町下青木,フクオカケン,クルメシ,ジョウジママチシモアオキ,福岡県久留米市城島町下青木
8300226,福岡県,久留米市,城島町西青木,フクオカケン,クルメシ,ジョウジママチニシアオキ,福岡県久留米市城島町西青木
8300400,福岡県,三潴郡大木町,,フクオカケン,ミズマグンオオキマチ,,福岡県三潴郡大木町
8300401,福岡県,三潴郡大木町,笹渕,フクオカケン,ミズマグンオオキマチ,ササブチ,福岡県三潴郡大木町笹渕
8300402,福岡県,三潴郡大木町,福土,フクオカケン,ミズマグンオオキマチ,フクド,福岡県三潴郡大木町福土
8300403,福岡県,三潴郡大木町,大角,フクオカケン,ミズマグンオオキマチ,オオズミ,福岡県三潴郡大木町大角
8300404,福岡県,三潴郡大木町,上白垣,フクオカケン,ミズマグンオオキマチ,カミシラカキ,福岡県三潴郡大木町上白垣
8300405,福岡県,三潴郡大木町,横溝,フクオカケン,ミズマグンオオキマチ,ヨコミゾ,福岡県三潴郡大木町横溝
8300406,福岡県,三潴郡大木町,前牟田,フクオカケン,ミズマグンオオキマチ,マエムタ,福岡県三潴郡大木町前牟田
8300411,福岡県,三潴郡大木町,蛭池,フクオカケン,ミズマグンオオキマチ,ヒルイケ,福岡県三潴郡大木町蛭池
8300412,福岡県,三潴郡大木町,侍島,フクオカケン,ミズマグンオオキマチ,サムライジマ,福岡県三潴郡大木町侍島
8300413,福岡県,三潴郡大木町,上牟田口,フクオカケン,ミズマグンオオキマチ,カミムタグチ,福岡県三潴郡大木町上牟田口
8300414,福岡県,三潴郡大木町,上木佐木,フクオカケン,ミズマグンオオキマチ,カミキサキ,福岡県三潴郡大木町上木佐木
8300415,福岡県,三潴郡大木町,絵下古賀,フクオカケン,ミズマグンオオキマチ,エゲコガ,福岡県三潴郡大木町絵下古賀
8300416,福岡県,三潴郡大木町,八町牟田,フクオカケン,ミズマグンオオキマチ,ハッチョウムタ,福岡県三潴郡大木町八町牟田
8300417,福岡県,三潴郡大木町,上八院,フクオカケン,ミズマグンオオキマチ,カミハチイン,福岡県三潴郡大木町上八院
8300421,福岡県,三潴郡大木町,奥牟田,フクオカケン,ミズマグンオオキマチ,オクムタ,福岡県三潴郡大木町奥牟田
8300422,福岡県,三潴郡大木町,高橋,フクオカケン,ミズマグンオオキマチ,タカハシ,福岡県三潴郡大木町高橋
8300423,福岡県,三潴郡大木町,大藪,フクオカケン,ミズマグンオオキマチ,オオヤブ,福岡県三潴郡大木町大藪
8300424,福岡県,三潴郡大木町,三八松,フクオカケン,ミズマグンオオキマチ,ミヤマツ,福岡県三潴郡大木町三八松
8300425,福岡県,三潴郡大木町,筏溝,フクオカケン,ミズマグンオオキマチ,イカダミゾ,福岡県三潴郡大木町筏溝
8301101,福岡県,久留米市,北野町中川,フクオカケン,クルメシ,キタノマチナカガワ,福岡県久留米市北野町中川
8301102,福岡県,久留米市,北野町八重亀,フクオカケン,クルメシ,キタノマチヤエガメ,福岡県久留米市北野町八重亀
8301103,福岡県,久留米市,北野町金島,フクオカケン,クルメシ,キタノマチカネシマ,福岡県久留米市北野町金島
8301104,福岡県,久留米市,北野町大城,フクオカケン,クルメシ,キタノマチオオキ,福岡県久留米市北野町大城
8301105,福岡県,久留米市,北野町中島,フクオカケン,クルメシ,キタノマチナカシマ,福岡県久留米市北野町中島
8301106,福岡県,久留米市,北野町仁王丸,フクオカケン,クルメシ,キタノマチニオウマル,福岡県久留米市北野町仁王丸
8301107,福岡県,久留米市,北野町塚島,フクオカケン,クルメシ,キタノマチツカジマ,福岡県久留米市北野町塚島
8301111,福岡県,久留米市,北野町千代島,フクオカケン,クルメシ,キタノマチチヨジマ,福岡県久留米市北野町千代島
8301112,福岡県,久留米市,北野町陣屋,フクオカケン,クルメシ,キタノマチジンヤ,福岡県久留米市北野町陣屋
8301113,福岡県,久留米市,北野町中,フクオカケン,クルメシ,キタノマチナカ,福岡県久留米市北野町中
8301114,福岡県,久留米市,北野町高良,フクオカケン,クルメシ,キタノマチコウラ,福岡県久留米市北野町高良
8301115,福岡県,久留米市,北野町鳥巣,フクオカケン,クルメシ,キタノマチトリス,福岡県久留米市北野町鳥巣
8301116,福岡県,久留米市,北野町石崎,フクオカケン,クルメシ,キタノマチイシザキ,福岡県久留米市北野町石崎
8301117,福岡県,久留米市,北野町上弓削,フクオカケン,クルメシ,キタノマチカミユゲ,福岡県久留米市北野町上弓削
8301121,福岡県,久留米市,北野町十郎丸,フクオカケン,クルメシ,キタノマチジュウロウマル,福岡県久留米市北野町十郎丸
8301122,福岡県,久留米市,北野町今山,フクオカケン,クルメシ,キタノマチイマヤマ,福岡県久留米市北野町今山
8301123,福岡県,久留米市,北野町冨多,フクオカケン,クルメシ,キタノマチトミタ,福岡県久留米市北野町冨多
8301124,福岡県,久留米市,北野町乙吉,フクオカケン,クルメシ,キタノマチオトヨシ,福岡県久留米市北野町乙吉
8301125,福岡県,久留米市,北野町乙丸,フクオカケン,クルメシ,キタノマチオトマル,福岡県久留米市北野町乙丸
8301126,福岡県,久留米市,北野町稲数,フクオカケン,クルメシ,キタノマチイナカズ,福岡県久留米市北野町稲数
8301127,福岡県,久留米市,北野町赤司,フクオカケン,クルメシ,キタノマチアカシ,福岡県久留米市北野町赤司
8301200,福岡県,三井郡大刀洗町,,フクオカケン,ミイグンタチアライマチ,,福岡県三井郡大刀洗町
8301201,福岡県,三井郡大刀洗町,冨多,フクオカケン,ミイグンタチアライマチ,トミタ,福岡県三井郡大刀洗町冨多
8301202,福岡県,三井郡大刀洗町,菅野,フクオカケン,ミイグンタチアライマチ,スガノ,福岡県三井郡大刀洗町菅野
8301203,福岡県,三井郡大刀洗町,三川,フクオカケン,ミイグンタチアライマチ,ミカワ,福岡県三井郡大刀洗町三川
8301204,福岡県,三井郡大刀洗町,西原,フクオカケン,ミイグンタチアライマチ,ニシバル,福岡県三井郡大刀洗町西原
8301205,福岡県,三井郡大刀洗町,守部,フクオカケン,ミイグンタチアライマチ,モルベ,福岡県三井郡大刀洗町守部
8301206,福岡県,三井郡大刀洗町,中川,フクオカケン,ミイグンタチアライマチ,ナカガワ,福岡県三井郡大刀洗町中川
8301211,福岡県,三井郡大刀洗町,本郷,フクオカケン,ミイグンタチアライマチ,ホンゴウ,福岡県三井郡大刀洗町本郷
8301212,福岡県,三井郡大刀洗町,甲条,フクオカケン,ミイグンタチアライマチ,コウチョウ,福岡県三井郡大刀洗町甲条
8301213,福岡県,三井郡大刀洗町,春日,フクオカケン,ミイグンタチアライマチ,カスガ,福岡県三井郡大刀洗町春日
8301214,福岡県,三井郡大刀洗町,栄田,フクオカケン,ミイグンタチアライマチ,サカエダ,福岡県三井郡大刀洗町栄田
8301221,福岡県,三井郡大刀洗町,高樋,フクオカケン,ミイグンタチアライマチ,タカエ,福岡県三井郡大刀洗町高樋
8301222,福岡県,三井郡大刀洗町,上高橋,フクオカケン,ミイグンタチアライマチ,カミタカハシ,福岡県三井郡大刀洗町上高橋
8301223,福岡県,三井郡大刀洗町,今,フクオカケン,ミイグンタチアライマチ,イマ,福岡県三井郡大刀洗町今
8301224,福岡県,三井郡大刀洗町,鵜木,フクオカケン,ミイグンタチアライマチ,ウノキ,福岡県三井郡大刀洗町鵜木
8301225,福岡県,三井郡大刀洗町,下高橋,フクオカケン,ミイグンタチアライマチ,シモタカハシ,福岡県三井郡大刀洗町下高橋
8301226,福岡県,三井郡大刀洗町,山隈,フクオカケン,ミイグンタチアライマチ,ヤマグマ,福岡県三井郡大刀洗町山隈
8310000,福岡県,大川市,,フクオカケン,オオカワシ,,福岡県大川市
8310001,福岡県,大川市,下青木,フクオカケン,オオカワシ,シモアオキ,福岡県大川市下青木
8310002,福岡県,大川市,下林,フクオカケン,オオカワシ,ゲバヤシ,福岡県大川市下林
8310003,福岡県,大川市,諸富,フクオカケン,オオカワシ,モロドミ,福岡県大川市諸富
8310004,福岡県,大川市,榎津,フクオカケン,オオカワシ,エノキヅ,福岡県大川市榎津
8310005,福岡県,大川市,向島,フクオカケン,オオカワシ,ムカイジマ,福岡県大川市向島
8310006,福岡県,大川市,中古賀,フクオカケン,オオカワシ,ナカコガ,福岡県大川市中古賀
8310007,福岡県,大川市,道海島,フクオカケン,オオカワシ,ドウカイジマ,福岡県大川市道海島
8310008,福岡県,大川市,鐘ケ江,フクオカケン,オオカワシ,カネガエ,福岡県大川市鐘ケ江
8310011,福岡県,大川市,下白垣,フクオカケン,オオカワシ,シモシラカキ,福岡県大川市下白垣
8310012,福岡県,大川市,上白垣,フクオカケン,オオカワシ,カミシラカキ,福岡県大川市上白垣
8310013,福岡県,大川市,中八院,フクオカケン,オオカワシ,ナカハチイン,福岡県大川市中八院
8310014,福岡県,大川市,中木室,フクオカケン,オオカワシ,ナカキムロ,福岡県大川市中木室
8310015,福岡県,大川市,本木室,フクオカケン,オオカワシ,ホンギムロ,福岡県大川市本木室
8310016,福岡県,大川市,酒見,フクオカケン,オオカワシ,サケミ,福岡県大川市酒見
8310017,福岡県,大川市,下八院,フクオカケン,オオカワシ,シモハチイン,福岡県大川市下八院
8310021,福岡県,大川市,大橋,フクオカケン,オオカワシ,オオハシ,福岡県大川市大橋
8310022,福岡県,大川市,下木佐木,フクオカケン,オオカワシ,シモキサキ,福岡県大川市下木佐木
8310023,福岡県,大川市,下牟田口,フクオカケン,オオカワシ,シモムタグチ,福岡県大川市下牟田口
8310024,福岡県,大川市,鬼古賀,フクオカケン,オオカワシ,オニコガ,福岡県大川市鬼古賀
8310025,福岡県,大川市,坂井,フクオカケン,オオカワシ,サカイ,福岡県大川市坂井
8310026,福岡県,大川市,三丸,フクオカケン,オオカワシ,ミツマル,福岡県大川市三丸
8310027,福岡県,大川市,荻島,フクオカケン,オオカワシ,オギシマ,福岡県大川市荻島
8310028,福岡県,大川市,郷原,フクオカケン,オオカワシ,ゴウバル,福岡県大川市郷原
8310031,福岡県,大川市,上巻,フクオカケン,オオカワシ,アゲマキ,福岡県大川市上巻
8310032,福岡県,大川市,北古賀,フクオカケン,オオカワシ,キタコガ,福岡県大川市北古賀
8310033,福岡県,大川市,幡保,フクオカケン,オオカワシ,ハタホ,福岡県大川市幡保
8310034,福岡県,大川市,一木,フクオカケン,オオカワシ,ヒトツキ,福岡県大川市一木
8310035,福岡県,大川市,津,フクオカケン,オオカワシ,ツ,福岡県大川市津
8310041,福岡県,大川市,小保,フクオカケン,オオカワシ,コボ,福岡県大川市小保
8310042,福岡県,大川市,九網,フクオカケン,オオカワシ,クアミ,福岡県大川市九網
8310043,福岡県,大川市,新田,フクオカケン,オオカワシ,シンデン,福岡県大川市新田
8310044,福岡県,大川市,紅粉屋,フクオカケン,オオカワシ,ベニヤ,福岡県大川市紅粉屋
8310045,福岡県,大川市,大野島,フクオカケン,オオカワシ,オオノシマ,福岡県大川市大野島
8320000,福岡県,柳川市,,フクオカケン,ヤナガワシ,,福岡県柳川市
8320001,福岡県,柳川市,蒲生,フクオカケン,ヤナガワシ,ガモウ,福岡県柳川市蒲生
8320002,福岡県,柳川市,高島,フクオカケン,ヤナガワシ,タカシマ,福岡県柳川市高島
8320003,福岡県,柳川市,立石,フクオカケン,ヤナガワシ,タテイシ,福岡県柳川市立石
8320004,福岡県,柳川市,矢加部,フクオカケン,ヤナガワシ,ヤカベ,福岡県柳川市矢加部
8320005,福岡県,柳川市,西蒲池,フクオカケン,ヤナガワシ,ニシカマチ,福岡県柳川市西蒲池
8320006,福岡県,柳川市,東蒲池,フクオカケン,ヤナガワシ,ヒガシカマチ,福岡県柳川市東蒲池
8320007,福岡県,柳川市,金納,フクオカケン,ヤナガワシ,カンノ,福岡県柳川市金納
8320011,福岡県,柳川市,保加町,フクオカケン,ヤナガワシ,ホカマチ,福岡県柳川市保加町
8320012,福岡県,柳川市,中町,フクオカケン,ヤナガワシ,ナカマチ,福岡県柳川市中町
8320013,福岡県,柳川市,上町,フクオカケン,ヤナガワシ,カミマチ,福岡県柳川市上町
8320014,福岡県,柳川市,八百屋町,フクオカケン,ヤナガワシ,ヤオヤマチ,福岡県柳川市八百屋町
8320015,福岡県,柳川市,西魚屋町,フクオカケン,ヤナガワシ,ニシウオヤマチ,福岡県柳川市西魚屋町
8320016,福岡県,柳川市,蟹町,フクオカケン,ヤナガワシ,カニマチ,福岡県柳川市蟹町
8320017,福岡県,柳川市,材木町,フクオカケン,ヤナガワシ,ザイモクマチ,福岡県柳川市材木町
8320018,福岡県,柳川市,本船津町,フクオカケン,ヤナガワシ,モトフナツマチ,福岡県柳川市本船津町
8320021,福岡県,柳川市,隅町,フクオカケン,ヤナガワシ,スミマチ,福岡県柳川市隅町
8320022,福岡県,柳川市,旭町,フクオカケン,ヤナガワシ,アサヒマチ,福岡県柳川市旭町
8320023,福岡県,柳川市,京町,フクオカケン,ヤナガワシ,キョウマチ,福岡県柳川市京町
8320024,福岡県,柳川市,辻町,フクオカケン,ヤナガワシ,ツジマチ,福岡県柳川市辻町
8320025,福岡県,柳川市,恵美須町,フクオカケン,ヤナガワシ,エビスマチ,福岡県柳川市恵美須町
8320026,福岡県,柳川市,曙町,フクオカケン,ヤナガワシ,アケボノマチ,福岡県柳川市曙町
8320027,福岡県,柳川市,横山町,フクオカケン,ヤナガワシ,ヨコヤママチ,福岡県柳川市横山町
8320028,福岡県,柳川市,常盤町,フクオカケン,ヤナガワシ,トキワマチ,福岡県柳川市常盤町
8320029,福岡県,柳川市,八軒町,フクオカケン,ヤナガワシ,ハチケンマチ,福岡県柳川市八軒町
8320031,福岡県,柳川市,椿原町,フクオカケン,ヤナガワシ,ツバハラマチ,福岡県柳川市椿原町
8320032,福岡県,柳川市,新町,フクオカケン,ヤナガワシ,シンマチ,福岡県柳川市新町
8320033,福岡県,柳川市,南長柄町,フクオカケン,ヤナガワシ,ミナミナガエマチ,福岡県柳川市南長柄町
8320034,福岡県,柳川市,北長柄町,フクオカケン,ヤナガワシ,キタナガエマチ,福岡県柳川市北長柄町
8320035,福岡県,柳川市,東魚屋町,フクオカケン,ヤナガワシ,ヒガシウオヤマチ,福岡県柳川市東魚屋町
8320036,福岡県,柳川市,小道具町,フクオカケン,ヤナガワシ,コドウグマチ,福岡県柳川市小道具町
8320037,福岡県,柳川市,細工町,フクオカケン,ヤナガワシ,サイクマチ,福岡県柳川市細工町
8320041,福岡県,柳川市,片原町,フクオカケン,ヤナガワシ,カタハラマチ,福岡県柳川市片原町
8320042,福岡県,柳川市,一新町,フクオカケン,ヤナガワシ,イッシンマチ,福岡県柳川市一新町
8320043,福岡県,柳川市,出来町,フクオカケン,ヤナガワシ,デキマチ,福岡県柳川市出来町
8320044,福岡県,柳川市,袋町,フクオカケン,ヤナガワシ,フクロマチ,福岡県柳川市袋町
8320045,福岡県,柳川市,本町,フクオカケン,ヤナガワシ,ホンマチ,福岡県柳川市本町
8320046,福岡県,柳川市,奥州町,フクオカケン,ヤナガワシ,オウシュウマチ,福岡県柳川市奥州町
8320050,福岡県,柳川市,矢留町,フクオカケン,ヤナガワシ,ヤドミマチ,福岡県柳川市矢留町
8320051,福岡県,柳川市,佃町,フクオカケン,ヤナガワシ,ツクダマチ,福岡県柳川市佃町
8320052,福岡県,柳川市,橋本町,フクオカケン,ヤナガワシ,ハシモトマチ,福岡県柳川市橋本町
8320053,福岡県,柳川市,大浜町,フクオカケン,ヤナガワシ,オオハママチ,福岡県柳川市大浜町
8320054,福岡県,柳川市,有明町,フクオカケン,ヤナガワシ,アリアケマチ,福岡県柳川市有明町
8320055,福岡県,柳川市,吉富町,フクオカケン,ヤナガワシ,ヨシトミマチ,福岡県柳川市吉富町
8320056,福岡県,柳川市,矢留本町,フクオカケン,ヤナガワシ,ヤドミホンマチ,福岡県柳川市矢留本町
8320057,福岡県,柳川市,弥四郎町,フクオカケン,ヤナガワシ,ヤシロウマチ,福岡県柳川市弥四郎町
8320058,福岡県,柳川市,上宮永町,フクオカケン,ヤナガワシ,カミミヤナガマチ,福岡県柳川市上宮永町
8320059,福岡県,柳川市,下宮永町,フクオカケン,ヤナガワシ,シモミヤナガマチ,福岡県柳川市下宮永町
8320061,福岡県,柳川市,本城町,フクオカケン,ヤナガワシ,ホンジョウマチ,福岡県柳川市本城町
8320062,福岡県,柳川市,城南町,フクオカケン,ヤナガワシ,ジョウナンマチ,福岡県柳川市城南町
8320063,福岡県,柳川市,茂庵町,フクオカケン,ヤナガワシ,モアンマチ,福岡県柳川市茂庵町
8320064,福岡県,柳川市,宮永町,フクオカケン,ヤナガワシ,ミヤナガマチ,福岡県柳川市宮永町
8320065,福岡県,柳川市,沖端町,フクオカケン,ヤナガワシ,オキノハタマチ,福岡県柳川市沖端町
8320066,福岡県,柳川市,稲荷町,フクオカケン,ヤナガワシ,イナリマチ,福岡県柳川市稲荷町
8320067,福岡県,柳川市,鬼童町,フクオカケン,ヤナガワシ,オンドウマチ,福岡県柳川市鬼童町
8320068,福岡県,柳川市,城隅町,フクオカケン,ヤナガワシ,ジョウグウマチ,福岡県柳川市城隅町
8320069,福岡県,柳川市,新外町,フクオカケン,ヤナガワシ,シンホカマチ,福岡県柳川市新外町
8320071,福岡県,柳川市,新船津町,フクオカケン,ヤナガワシ,シンフナツマチ,福岡県柳川市新船津町
8320072,福岡県,柳川市,糀屋町,フクオカケン,ヤナガワシ,コウジヤマチ,福岡県柳川市糀屋町
8320073,福岡県,柳川市,鍛冶屋町,フクオカケン,ヤナガワシ,カジヤマチ,福岡県柳川市鍛冶屋町
8320074,福岡県,柳川市,元町,フクオカケン,ヤナガワシ,モトマチ,福岡県柳川市元町
8320075,福岡県,柳川市,柳町,フクオカケン,ヤナガワシ,ヤナギマチ,福岡県柳川市柳町
8320076,福岡県,柳川市,坂本町,フクオカケン,ヤナガワシ,サカモトマチ,福岡県柳川市坂本町
8320077,福岡県,柳川市,筑紫町,フクオカケン,ヤナガワシ,チクシマチ,福岡県柳川市筑紫町
8320081,福岡県,柳川市,西浜武,フクオカケン,ヤナガワシ,ニシハマタケ,福岡県柳川市西浜武
8320082,福岡県,柳川市,古賀,フクオカケン,ヤナガワシ,コガ,福岡県柳川市古賀
8320083,福岡県,柳川市,南浜武,フクオカケン,ヤナガワシ,ミナミハマタケ,福岡県柳川市南浜武
8320084,福岡県,柳川市,昭南町,フクオカケン,ヤナガワシ,ショウナンマチ,福岡県柳川市昭南町
8320085,福岡県,柳川市,吉原,フクオカケン,ヤナガワシ,ヨシハラ,福岡県柳川市吉原
8320086,福岡県,柳川市,久々原,フクオカケン,ヤナガワシ,クグハラ,福岡県柳川市久々原
8320087,福岡県,柳川市,七ツ家,フクオカケン,ヤナガワシ,ナナツエ,福岡県柳川市七ツ家
8320088,福岡県,柳川市,間,フクオカケン,ヤナガワシ,ハサマ,福岡県柳川市間
8320089,福岡県,柳川市,田脇,フクオカケン,ヤナガワシ,タワキ,福岡県柳川市田脇
8320801,福岡県,柳川市,三橋町起田,フクオカケン,ヤナガワシ,ミツハシマチオキダ,福岡県柳川市三橋町起田
8320802,福岡県,柳川市,三橋町吉開,フクオカケン,ヤナガワシ,ミツハシマチヨシガイ,福岡県柳川市三橋町吉開
8320803,福岡県,柳川市,三橋町新村,フクオカケン,ヤナガワシ,ミツハシマチミムラ,福岡県柳川市三橋町新村
8320804,福岡県,柳川市,三橋町木元,フクオカケン,ヤナガワシ,ミツハシマチキノモト,福岡県柳川市三橋町木元
8320805,福岡県,柳川市,三橋町磯鳥,フクオカケン,ヤナガワシ,ミツハシマチイソドリ,福岡県柳川市三橋町磯鳥
8320806,福岡県,柳川市,三橋町柳河,フクオカケン,ヤナガワシ,ミツハシマチヤナガワ,福岡県柳川市三橋町柳河
8320807,福岡県,柳川市,三橋町枝光,フクオカケン,ヤナガワシ,ミツハシマチエダミツ,福岡県柳川市三橋町枝光
8320811,福岡県,柳川市,三橋町中山,フクオカケン,ヤナガワシ,ミツハシマチナカヤマ,福岡県柳川市三橋町中山
8320812,福岡県,柳川市,三橋町五拾町,フクオカケン,ヤナガワシ,ミツハシマチゴジッチョウ,福岡県柳川市三橋町五拾町
8320813,福岡県,柳川市,三橋町棚町,フクオカケン,ヤナガワシ,ミツハシマチタノマチ,福岡県柳川市三橋町棚町
8320814,福岡県,柳川市,三橋町垂見,フクオカケン,ヤナガワシ,ミツハシマチタルミ,福岡県柳川市三橋町垂見
8320815,福岡県,柳川市,三橋町白鳥,フクオカケン,ヤナガワシ,ミツハシマチシラトリ,福岡県柳川市三橋町白鳥
8320816,福岡県,柳川市,三橋町久末,フクオカケン,ヤナガワシ,ミツハシマチヒサスエ,福岡県柳川市三橋町久末
8320821,福岡県,柳川市,三橋町百町,フクオカケン,ヤナガワシ,ミツハシマチヒャクチョウ,福岡県柳川市三橋町百町
8320822,福岡県,柳川市,三橋町下百町,フクオカケン,ヤナガワシ,ミツハシマチシモヒャクチョウ,福岡県柳川市三橋町下百町
8320823,福岡県,柳川市,三橋町今古賀,フクオカケン,ヤナガワシ,ミツハシマチイマコガ,福岡県柳川市三橋町今古賀
8320824,福岡県,柳川市,三橋町藤吉,フクオカケン,ヤナガワシ,ミツハシマチフジヨシ,福岡県柳川市三橋町藤吉
8320825,福岡県,柳川市,三橋町江曲,フクオカケン,ヤナガワシ,ミツハシマチエマガリ,福岡県柳川市三橋町江曲
8320826,福岡県,柳川市,三橋町高畑,フクオカケン,ヤナガワシ,ミツハシマチタカハタケ,福岡県柳川市三橋町高畑
8320827,福岡県,柳川市,三橋町蒲船津,フクオカケン,ヤナガワシ,ミツハシマチカマフナツ,福岡県柳川市三橋町蒲船津
8320828,福岡県,柳川市,三橋町正行,フクオカケン,ヤナガワシ,ミツハシマチマサユキ,福岡県柳川市三橋町正行
8330000,福岡県,筑後市,,フクオカケン,チクゴシ,,福岡県筑後市
8330001,福岡県,筑後市,一条,フクオカケン,チクゴシ,イチジョウ,福岡県筑後市一条
8330002,福岡県,筑後市,前津,フクオカケン,チクゴシ,マエヅ,福岡県筑後市前津
8330003,福岡県,筑後市,羽犬塚,フクオカケン,チクゴシ,ハイヌヅカ,福岡県筑後市羽犬塚
8330004,福岡県,筑後市,徳久,フクオカケン,チクゴシ,トクヒサ,福岡県筑後市徳久
8330005,福岡県,筑後市,長浜,フクオカケン,チクゴシ,ナガハマ,福岡県筑後市長浜
8330006,福岡県,筑後市,新溝,フクオカケン,チクゴシ,シンミゾ,福岡県筑後市新溝
8330007,福岡県,筑後市,鶴田,フクオカケン,チクゴシ,ツルダ,福岡県筑後市鶴田
8330011,福岡県,筑後市,久恵,フクオカケン,チクゴシ,クエ,福岡県筑後市久恵
8330012,福岡県,筑後市,溝口,フクオカケン,チクゴシ,ミゾクチ,福岡県筑後市溝口
8330013,福岡県,筑後市,北長田,フクオカケン,チクゴシ,キタナガタ,福岡県筑後市北長田
8330014,福岡県,筑後市,尾島,フクオカケン,チクゴシ,オシマ,福岡県筑後市尾島
8330015,福岡県,筑後市,津島,フクオカケン,チクゴシ,ツシマ,福岡県筑後市津島
8330016,福岡県,筑後市,常用,フクオカケン,チクゴシ,ツネモチ,福岡県筑後市常用
8330017,福岡県,筑後市,志,フクオカケン,チクゴシ,シムラ,福岡県筑後市志
8330021,福岡県,筑後市,下妻,フクオカケン,チクゴシ,シモツマ,福岡県筑後市下妻
8330022,福岡県,筑後市,富安,フクオカケン,チクゴシ,トミヤス,福岡県筑後市富安
8330023,福岡県,筑後市,馬間田,フクオカケン,チクゴシ,ママダ,福岡県筑後市馬間田
8330024,福岡県,筑後市,中牟田,フクオカケン,チクゴシ,ナカムタ,福岡県筑後市中牟田
8330025,福岡県,筑後市,中折地,フクオカケン,チクゴシ,ナカオリジ,福岡県筑後市中折地
8330026,福岡県,筑後市,折地,フクオカケン,チクゴシ,オリジ,福岡県筑後市折地
8330027,福岡県,筑後市,水田,フクオカケン,チクゴシ,ミズタ,福岡県筑後市水田
8330031,福岡県,筑後市,山ノ井,フクオカケン,チクゴシ,ヤマノイ,福岡県筑後市山ノ井
8330032,福岡県,筑後市,野町,フクオカケン,チクゴシ,ノマチ,福岡県筑後市野町
8330033,福岡県,筑後市,上北島,フクオカケン,チクゴシ,カミキタジマ,福岡県筑後市上北島
8330034,福岡県,筑後市,下北島,フクオカケン,チクゴシ,シモキタジマ,福岡県筑後市下北島
8330035,福岡県,筑後市,古島,フクオカケン,チクゴシ,コジマ,福岡県筑後市古島
8330036,福岡県,筑後市,井田,フクオカケン,チクゴシ,セイデン,福岡県筑後市井田
8330037,福岡県,筑後市,島田,フクオカケン,チクゴシ,シマダ,福岡県筑後市島田
8330041,福岡県,筑後市,和泉,フクオカケン,チクゴシ,イズミ,福岡県筑後市和泉
8330042,福岡県,筑後市,長崎,フクオカケン,チクゴシ,ナガサキ,福岡県筑後市長崎
8330043,福岡県,筑後市,庄島,フクオカケン,チクゴシ,ショウジマ,福岡県筑後市庄島
8330044,福岡県,筑後市,富久,フクオカケン,チクゴシ,トミヒサ,福岡県筑後市富久
8330045,福岡県,筑後市,四ケ所,フクオカケン,チクゴシ,シカショ,福岡県筑後市四ケ所
8330046,福岡県,筑後市,江口,フクオカケン,チクゴシ,エグチ,福岡県筑後市江口
8330047,福岡県,筑後市,若菜,フクオカケン,チクゴシ,ワカナ,福岡県筑後市若菜
8330051,福岡県,筑後市,富重,フクオカケン,チクゴシ,トミシゲ,福岡県筑後市富重
8330052,福岡県,筑後市,高江,フクオカケン,チクゴシ,タカエ,福岡県筑後市高江
8330053,福岡県,筑後市,西牟田,フクオカケン,チクゴシ,ニシムタ,福岡県筑後市西牟田
8330054,福岡県,筑後市,蔵数,フクオカケン,チクゴシ,クラカズ,福岡県筑後市蔵数
8330055,福岡県,筑後市,熊野,フクオカケン,チクゴシ,クマノ,福岡県筑後市熊野
8330056,福岡県,筑後市,久富,フクオカケン,チクゴシ,ヒサドミ,福岡県筑後市久富
8340000,福岡県,八女市,,フクオカケン,ヤメシ,,福岡県八女市
8340001,福岡県,八女市,宅間田,フクオカケン,ヤメシ,タクマダ,福岡県八女市宅間田
8340002,福岡県,八女市,黒土,フクオカケン,ヤメシ,クロツチ,福岡県八女市黒土
8340003,福岡県,八女市,平田,フクオカケン,ヤメシ,ヒラタ,福岡県八女市平田
8340004,福岡県,八女市,納楚,フクオカケン,ヤメシ,ノウソ,福岡県八女市納楚
8340005,福岡県,八女市,大島,フクオカケン,ヤメシ,オオジマ,福岡県八女市大島
8340006,福岡県,八女市,吉田,フクオカケン,ヤメシ,ヨシダ,福岡県八女市吉田
8340011,福岡県,八女市,長野,フクオカケン,ヤメシ,ナガノ,福岡県八女市長野
8340012,福岡県,八女市,山内,フクオカケン,ヤメシ,ヤマウチ,福岡県八女市山内
8340013,福岡県,八女市,大籠,フクオカケン,ヤメシ,オオゴモリ,福岡県八女市大籠
8340014,福岡県,八女市,忠見,フクオカケン,ヤメシ,タダミ,福岡県八女市忠見
8340015,福岡県,八女市,本,フクオカケン,ヤメシ,ホン,福岡県八女市本
8340016,福岡県,八女市,豊福,フクオカケン,ヤメシ,トヨブク,福岡県八女市豊福
8340021,福岡県,八女市,北田形,フクオカケン,ヤメシ,キタタガタ,福岡県八女市北田形
8340022,福岡県,八女市,柳島,フクオカケン,ヤメシ,ヤナジマ,福岡県八女市柳島
8340023,福岡県,八女市,馬場,フクオカケン,ヤメシ,ババ,福岡県八女市馬場
8340024,福岡県,八女市,津江,フクオカケン,ヤメシ,ツノエ,福岡県八女市津江
8340025,福岡県,八女市,祈祷院,フクオカケン,ヤメシ,キトウイン,福岡県八女市祈祷院
8340026,福岡県,八女市,井延,フクオカケン,ヤメシ,イノブ,福岡県八女市井延
8340031,福岡県,八女市,本町,フクオカケン,ヤメシ,モトマチ,福岡県八女市本町
8340032,福岡県,八女市,宮野,フクオカケン,ヤメシ,ミヤノ,福岡県八女市宮野
8340033,福岡県,八女市,柳瀬,フクオカケン,ヤメシ,ヤナゼ,福岡県八女市柳瀬
8340034,福岡県,八女市,高塚,フクオカケン,ヤメシ,タカツカ,福岡県八女市高塚
8340041,福岡県,八女市,緒玉,フクオカケン,ヤメシ,オダマ,福岡県八女市緒玉
8340042,福岡県,八女市,酒井田,フクオカケン,ヤメシ,サカイダ,福岡県八女市酒井田
8340043,福岡県,八女市,光,フクオカケン,ヤメシ,ヒカリ,福岡県八女市光
8340044,福岡県,八女市,矢原,フクオカケン,ヤメシ,ヤバラ,福岡県八女市矢原
8340045,福岡県,八女市,平,フクオカケン,ヤメシ,タイラ,福岡県八女市平
8340046,福岡県,八女市,国武,フクオカケン,ヤメシ,クニタケ,福岡県八女市国武
8340047,福岡県,八女市,稲富,フクオカケン,ヤメシ,イナドミ,福岡県八女市稲富
8340051,福岡県,八女市,立野,フクオカケン,ヤメシ,タテノ,福岡県八女市立野
8340052,福岡県,八女市,新庄,フクオカケン,ヤメシ,シンジョウ,福岡県八女市新庄
8340053,福岡県,八女市,川犬,フクオカケン,ヤメシ,カワイヌ,福岡県八女市川犬
8340054,福岡県,八女市,前古賀,フクオカケン,ヤメシ,マエコガ,福岡県八女市前古賀
8340055,福岡県,八女市,鵜池,フクオカケン,ヤメシ,ウノイケ,福岡県八女市鵜池
8340061,福岡県,八女市,今福,フクオカケン,ヤメシ,イマブク,福岡県八女市今福
8340062,福岡県,八女市,岩崎,フクオカケン,ヤメシ,イワサキ,福岡県八女市岩崎
8340063,福岡県,八女市,本村,フクオカケン,ヤメシ,モトムラ,福岡県八女市本村
8340064,福岡県,八女市,蒲原,フクオカケン,ヤメシ,カマハラ,福岡県八女市蒲原
8340065,福岡県,八女市,亀甲,フクオカケン,ヤメシ,カメノコウ,福岡県八女市亀甲
8340066,福岡県,八女市,室岡,フクオカケン,ヤメシ,ムロオカ,福岡県八女市室岡
8340067,福岡県,八女市,龍ケ原,フクオカケン,ヤメシ,タツガハラ,福岡県八女市龍ケ原
8340071,福岡県,八女市,立花町田形,フクオカケン,ヤメシ,タチバナマチタガタ,福岡県八女市立花町田形
8340072,福岡県,八女市,立花町遠久谷,フクオカケン,ヤメシ,タチバナマチトオクダニ,福岡県八女市立花町遠久谷
8340073,福岡県,八女市,立花町下辺春,フクオカケン,ヤメシ,タチバナマチシモヘバル,福岡県八女市立花町下辺春
8340074,福岡県,八女市,立花町谷川,フクオカケン,ヤメシ,タチバナマチタニガワ,福岡県八女市立花町谷川
8340075,福岡県,八女市,立花町原島,フクオカケン,ヤメシ,タチバナマチハルジマ,福岡県八女市立花町原島
8340081,福岡県,八女市,立花町山崎,フクオカケン,ヤメシ,タチバナマチヤマサキ,福岡県八女市立花町山崎
8340082,福岡県,八女市,立花町兼松,フクオカケン,ヤメシ,タチバナマチカネマツ,福岡県八女市立花町兼松
8340083,福岡県,八女市,立花町上辺春,フクオカケン,ヤメシ,タチバナマチカミヘバル,福岡県八女市立花町上辺春
8340084,福岡県,八女市,立花町白木,フクオカケン,ヤメシ,タチバナマチシラキ,福岡県八女市立花町白木
8340085,福岡県,八女市,立花町北山,フクオカケン,ヤメシ,タチバナマチキタヤマ,福岡県八女市立花町北山
8340100,福岡県,八女郡広川町,,フクオカケン,ヤメグンヒロカワマチ,,福岡県八女郡広川町
8340101,福岡県,八女郡広川町,小椎尾,フクオカケン,ヤメグンヒロカワマチ,コジオ,福岡県八女郡広川町小椎尾
8340102,福岡県,八女郡広川町,水原,フクオカケン,ヤメグンヒロカワマチ,ミズハラ,福岡県八女郡広川町水原
8340103,福岡県,八女郡広川町,六田,フクオカケン,ヤメグンヒロカワマチ,ロクタ,福岡県八女郡広川町六田
8340104,福岡県,八女郡広川町,吉常,フクオカケン,ヤメグンヒロカワマチ,ヨシツネ,福岡県八女郡広川町吉常
8340105,福岡県,八女郡広川町,長延,フクオカケン,ヤメグンヒロカワマチ,ナガノブ,福岡県八女郡広川町長延
8340111,福岡県,八女郡広川町,日吉,フクオカケン,ヤメグンヒロカワマチ,ヒヨシ,福岡県八女郡広川町日吉
8340112,福岡県,八女郡広川町,久泉,フクオカケン,ヤメグンヒロカワマチ,ヒサイズミ,福岡県八女郡広川町久泉
8340113,福岡県,八女郡広川町,川上,フクオカケン,ヤメグンヒロカワマチ,カワカミ,福岡県八女郡広川町川上
8340114,福岡県,八女郡広川町,太田,フクオカケン,ヤメグンヒロカワマチ,オオタ,福岡県八女郡広川町太田
8340115,福岡県,八女郡広川町,新代,フクオカケン,ヤメグンヒロカワマチ,ニイシロ,福岡県八女郡広川町新代
8340121,福岡県,八女郡広川町,広川,フクオカケン,ヤメグンヒロカワマチ,ヒロカワ,福岡県八女郡広川町広川
8340122,福岡県,八女郡広川町,一條,フクオカケン,ヤメグンヒロカワマチ,イチジョウ,福岡県八女郡広川町一條
8340123,福岡県,八女郡広川町,藤田,フクオカケン,ヤメグンヒロカワマチ,フジタ,福岡県八女郡広川町藤田
8340201,福岡県,八女市,星野村,フクオカケン,ヤメシ,ホシノムラ,福岡県八女市星野村
8341101,福岡県,八女市,上陽町上横山,フクオカケン,ヤメシ,ジョウヨウマチカミヨコヤマ,福岡県八女市上陽町上横山
8341102,福岡県,八女市,上陽町北川内,フクオカケン,ヤメシ,ジョウヨウマチキタカワウチ,福岡県八女市上陽町北川内
8341103,福岡県,八女市,上陽町久木原,フクオカケン,ヤメシ,ジョウヨウマチクキハラ,福岡県八女市上陽町久木原
8341104,福岡県,八女市,上陽町下横山,フクオカケン,ヤメシ,ジョウヨウマチシモヨコヤマ,福岡県八女市上陽町下横山
8341201,福岡県,八女市,黒木町北大淵,フクオカケン,ヤメシ,クロギマチキタオオブチ,福岡県八女市黒木町北大淵
8341202,福岡県,八女市,黒木町大淵,フクオカケン,ヤメシ,クロギマチオオブチ,福岡県八女市黒木町大淵
8341203,福岡県,八女市,黒木町北木屋,フクオカケン,ヤメシ,クロギマチキタゴヤ,福岡県八女市黒木町北木屋
8341204,福岡県,八女市,黒木町木屋,フクオカケン,ヤメシ,クロギマチコヤ,福岡県八女市黒木町木屋
8341205,福岡県,八女市,黒木町田代,フクオカケン,ヤメシ,クロギマチタシロ,福岡県八女市黒木町田代
8341211,福岡県,八女市,黒木町土窪,フクオカケン,ヤメシ,クロギマチツチクボ,福岡県八女市黒木町土窪
8341212,福岡県,八女市,黒木町鹿子生,フクオカケン,ヤメシ,クロギマチカコオ,福岡県八女市黒木町鹿子生
8341213,福岡県,八女市,黒木町本分,フクオカケン,ヤメシ,クロギマチホンブン,福岡県八女市黒木町本分
8341214,福岡県,八女市,黒木町田本,フクオカケン,ヤメシ,クロギマチタモト,福岡県八女市黒木町田本
8341215,福岡県,八女市,黒木町湯辺田,フクオカケン,ヤメシ,クロギマチユベタ,福岡県八女市黒木町湯辺田
8341216,福岡県,八女市,黒木町桑原,フクオカケン,ヤメシ,クロギマチクワハラ,福岡県八女市黒木町桑原
8341217,福岡県,八女市,黒木町黒木,フクオカケン,ヤメシ,クロギマチクロギ,福岡県八女市黒木町黒木
8341221,福岡県,八女市,黒木町今,フクオカケン,ヤメシ,クロギマチイマ,福岡県八女市黒木町今
8341222,福岡県,八女市,黒木町笠原,フクオカケン,ヤメシ,クロギマチカサハラ,福岡県八女市黒木町笠原
8341401,福岡県,八女市,矢部村北矢部,フクオカケン,ヤメシ,ヤベムラキタヤベ,福岡県八女市矢部村北矢部
8341402,福岡県,八女市,矢部村矢部,フクオカケン,ヤメシ,ヤベムラヤベ,福岡県八女市矢部村矢部
8350000,福岡県,みやま市,,フクオカケン,ミヤマシ,,福岡県みやま市
8350001,福岡県,みやま市,瀬高町廣瀬,フクオカケン,ミヤマシ,セタカマチヒロセ,福岡県みやま市瀬高町廣瀬
8350002,福岡県,みやま市,瀬高町小田,フクオカケン,ミヤマシ,セタカマチオダ,福岡県みやま市瀬高町小田
8350003,福岡県,みやま市,瀬高町本吉,フクオカケン,ミヤマシ,セタカマチモトヨシ,福岡県みやま市瀬高町本吉
8350004,福岡県,みやま市,瀬高町山門,フクオカケン,ミヤマシ,セタカマチヤマト,福岡県みやま市瀬高町山門
8350005,福岡県,みやま市,瀬高町大草,フクオカケン,ミヤマシ,セタカマチオオクサ,福岡県みやま市瀬高町大草
8350006,福岡県,みやま市,瀬高町坂田,フクオカケン,ミヤマシ,セタカマチサカタ,福岡県みやま市瀬高町坂田
8350007,福岡県,みやま市,瀬高町長田,フクオカケン,ミヤマシ,セタカマチナガタ,福岡県みやま市瀬高町長田
8350011,福岡県,みやま市,瀬高町松田,フクオカケン,ミヤマシ,セタカマチマツダ,福岡県みやま市瀬高町松田
8350012,福岡県,みやま市,瀬高町大廣園,フクオカケン,ミヤマシ,セタカマチオオヒロゾノ,福岡県みやま市瀬高町大廣園
8350013,福岡県,みやま市,瀬高町太神,フクオカケン,ミヤマシ,セタカマチオオガ,福岡県みやま市瀬高町太神
8350014,福岡県,みやま市,瀬高町河内,フクオカケン,ミヤマシ,セタカマチカワチ,福岡県みやま市瀬高町河内
8350015,福岡県,みやま市,瀬高町泰仙寺,フクオカケン,ミヤマシ,セタカマチタイセンジ,福岡県みやま市瀬高町泰仙寺
8350016,福岡県,みやま市,瀬高町濱田,フクオカケン,ミヤマシ,セタカマチハマダ,福岡県みやま市瀬高町濱田
8350017,福岡県,みやま市,瀬高町東津留,フクオカケン,ミヤマシ,セタカマチヒガシツル,福岡県みやま市瀬高町東津留
8350018,福岡県,みやま市,瀬高町高柳,フクオカケン,ミヤマシ,セタカマチタカヤナギ,福岡県みやま市瀬高町高柳
8350019,福岡県,みやま市,瀬高町大江,フクオカケン,ミヤマシ,セタカマチオオエ,福岡県みやま市瀬高町大江
8350021,福岡県,みやま市,瀬高町本郷,フクオカケン,ミヤマシ,セタカマチホンゴウ,福岡県みやま市瀬高町本郷
8350022,福岡県,みやま市,瀬高町文廣,フクオカケン,ミヤマシ,セタカマチアヤヒロ,福岡県みやま市瀬高町文廣
8350023,福岡県,みやま市,瀬高町小川,フクオカケン,ミヤマシ,セタカマチオガワ,福岡県みやま市瀬高町小川
8350024,福岡県,みやま市,瀬高町下庄,フクオカケン,ミヤマシ,セタカマチシモノショウ,福岡県みやま市瀬高町下庄
8350025,福岡県,みやま市,瀬高町上庄,フクオカケン,ミヤマシ,セタカマチカミノショウ,福岡県みやま市瀬高町上庄
8350101,福岡県,みやま市,山川町立山,フクオカケン,ミヤマシ,ヤマカワマチタチヤマ,福岡県みやま市山川町立山
8350102,福岡県,みやま市,山川町尾野,フクオカケン,ミヤマシ,ヤマカワマチオノ,福岡県みやま市山川町尾野
8350103,福岡県,みやま市,山川町清水,フクオカケン,ミヤマシ,ヤマカワマチシミズ,福岡県みやま市山川町清水
8350104,福岡県,みやま市,山川町河原内,フクオカケン,ミヤマシ,ヤマカワマチカワハラウチ,福岡県みやま市山川町河原内
8350111,福岡県,みやま市,山川町真弓,フクオカケン,ミヤマシ,ヤマカワマチマユミ,福岡県みやま市山川町真弓
8350112,福岡県,みやま市,山川町北関,フクオカケン,ミヤマシ,ヤマカワマチキタノセキ,福岡県みやま市山川町北関
8350113,福岡県,みやま市,山川町重冨,フクオカケン,ミヤマシ,ヤマカワマチシゲトミ,福岡県みやま市山川町重冨
8350114,福岡県,みやま市,山川町甲田,フクオカケン,ミヤマシ,ヤマカワマチコウダ,福岡県みやま市山川町甲田
8350115,福岡県,みやま市,山川町原町,フクオカケン,ミヤマシ,ヤマカワマチハラマチ,福岡県みやま市山川町原町
8350131,福岡県,みやま市,高田町舞鶴,フクオカケン,ミヤマシ,タカタマチマイヅル,福岡県みやま市高田町舞鶴
8350132,福岡県,みやま市,高田町亀谷,フクオカケン,ミヤマシ,タカタマチカメタニ,福岡県みやま市高田町亀谷
8350133,福岡県,みやま市,高田町田浦,フクオカケン,ミヤマシ,タカタマチタノウラ,福岡県みやま市高田町田浦
8350134,福岡県,みやま市,高田町飯江,フクオカケン,ミヤマシ,タカタマチハエ,福岡県みやま市高田町飯江
8350135,福岡県,みやま市,高田町竹飯,フクオカケン,ミヤマシ,タカタマチタケイ,福岡県みやま市高田町竹飯
8350136,福岡県,みやま市,高田町海津,フクオカケン,ミヤマシ,タカタマチカイヅ,福岡県みやま市高田町海津
8360000,福岡県,大牟田市,,フクオカケン,オオムタシ,,福岡県大牟田市
8360001,福岡県,大牟田市,昭和開,フクオカケン,オオムタシ,ショウワビラキ,福岡県大牟田市昭和開
8360002,福岡県,大牟田市,岬,フクオカケン,オオムタシ,ミサキ,福岡県大牟田市岬
8360003,福岡県,大牟田市,唐船,フクオカケン,オオムタシ,トウセン,福岡県大牟田市唐船
8360004,福岡県,大牟田市,手鎌,フクオカケン,オオムタシ,テガマ,福岡県大牟田市手鎌
8360005,福岡県,大牟田市,椿黒町,フクオカケン,オオムタシ,ツバクロマチ,福岡県大牟田市椿黒町
8360006,福岡県,大牟田市,大黒町,フクオカケン,オオムタシ,ダイコクマチ,福岡県大牟田市大黒町
8360007,福岡県,大牟田市,城町,フクオカケン,オオムタシ,シロマチ,福岡県大牟田市城町
8360011,福岡県,大牟田市,健老町,フクオカケン,オオムタシ,ケンロウマチ,福岡県大牟田市健老町
8360012,福岡県,大牟田市,明治町,フクオカケン,オオムタシ,メイジマチ,福岡県大牟田市明治町
8360013,福岡県,大牟田市,中町,フクオカケン,オオムタシ,ナカマチ,福岡県大牟田市中町
8360014,福岡県,大牟田市,恵比須町,フクオカケン,オオムタシ,エビスマチ,福岡県大牟田市恵比須町
8360015,福岡県,大牟田市,天神町,フクオカケン,オオムタシ,テンジンマチ,福岡県大牟田市天神町
8360016,福岡県,大牟田市,北磯町,フクオカケン,オオムタシ,キタイソマチ,福岡県大牟田市北磯町
8360017,福岡県,大牟田市,新開町,フクオカケン,オオムタシ,シンカイマチ,福岡県大牟田市新開町
8360021,福岡県,大牟田市,浜町,フクオカケン,オオムタシ,ハママチ,福岡県大牟田市浜町
8360022,福岡県,大牟田市,港町,フクオカケン,オオムタシ,ミナトマチ,福岡県大牟田市港町
8360023,福岡県,大牟田市,中島町,フクオカケン,オオムタシ,ナカシママチ,福岡県大牟田市中島町
8360024,福岡県,大牟田市,住吉町,フクオカケン,オオムタシ,スミヨシマチ,福岡県大牟田市住吉町
8360025,福岡県,大牟田市,中友町,フクオカケン,オオムタシ,ナカトモマチ,福岡県大牟田市中友町
8360026,福岡県,大牟田市,浜田町,フクオカケン,オオムタシ,ハマダマチ,福岡県大牟田市浜田町
8360027,福岡県,大牟田市,西浜田町,フクオカケン,オオムタシ,ニシハマダマチ,福岡県大牟田市西浜田町
8360031,福岡県,大牟田市,西新町,フクオカケン,オオムタシ,ニシシンマチ,福岡県大牟田市西新町
8360032,福岡県,大牟田市,新地町,フクオカケン,オオムタシ,シンチマチ,福岡県大牟田市新地町
8360033,福岡県,大牟田市,松原町,フクオカケン,オオムタシ,マツバラマチ,福岡県大牟田市松原町
8360034,福岡県,大牟田市,小浜町,フクオカケン,オオムタシ,コハママチ,福岡県大牟田市小浜町
8360035,福岡県,大牟田市,千代町,フクオカケン,オオムタシ,チヨマチ,福岡県大牟田市千代町
8360036,福岡県,大牟田市,小川町,フクオカケン,オオムタシ,オガワマチ,福岡県大牟田市小川町
8360037,福岡県,大牟田市,岬町,フクオカケン,オオムタシ,ミサキマチ,福岡県大牟田市岬町
8360041,福岡県,大牟田市,新栄町,フクオカケン,オオムタシ,シンサカエマチ,福岡県大牟田市新栄町
8360042,福岡県,大牟田市,栄町,フクオカケン,オオムタシ,サカエマチ,福岡県大牟田市栄町
8360043,福岡県,大牟田市,橋口町,フクオカケン,オオムタシ,ハシグチマチ,福岡県大牟田市橋口町
8360044,福岡県,大牟田市,古町,フクオカケン,オオムタシ,フルマチ,福岡県大牟田市古町
8360045,福岡県,大牟田市,久保田町,フクオカケン,オオムタシ,クボタマチ,福岡県大牟田市久保田町
8360046,福岡県,大牟田市,本町,フクオカケン,オオムタシ,ホンマチ,福岡県大牟田市本町
8360047,福岡県,大牟田市,大正町,フクオカケン,オオムタシ,タイショウマチ,福岡県大牟田市大正町
8360051,福岡県,大牟田市,諏訪町,フクオカケン,オオムタシ,スワマチ,福岡県大牟田市諏訪町
8360052,福岡県,大牟田市,白金町,フクオカケン,オオムタシ,シラガネマチ,福岡県大牟田市白金町
8360053,福岡県,大牟田市,山下町,フクオカケン,オオムタシ,ヤマシタマチ,福岡県大牟田市山下町
8360054,福岡県,大牟田市,天領町,フクオカケン,オオムタシ,テンリョウマチ,福岡県大牟田市天領町
8360055,福岡県,大牟田市,樋口町,フクオカケン,オオムタシ,ヒグチマチ,福岡県大牟田市樋口町
8360056,福岡県,大牟田市,姫島町,フクオカケン,オオムタシ,ヒメシママチ,福岡県大牟田市姫島町
8360057,福岡県,大牟田市,汐屋町,フクオカケン,オオムタシ,シオヤマチ,福岡県大牟田市汐屋町
8360061,福岡県,大牟田市,新港町,フクオカケン,オオムタシ,シンコウマチ,福岡県大牟田市新港町
8360062,福岡県,大牟田市,西港町,フクオカケン,オオムタシ,ニシミナトマチ,福岡県大牟田市西港町
8360063,福岡県,大牟田市,入船町,フクオカケン,オオムタシ,イリフネマチ,福岡県大牟田市入船町
8360064,福岡県,大牟田市,高砂町,フクオカケン,オオムタシ,タカサゴマチ,福岡県大牟田市高砂町
8360065,福岡県,大牟田市,三川町,フクオカケン,オオムタシ,ミカワマチ,福岡県大牟田市三川町
8360066,福岡県,大牟田市,浪花町,フクオカケン,オオムタシ,ナニワマチ,福岡県大牟田市浪花町
8360067,福岡県,大牟田市,四山町,フクオカケン,オオムタシ,ヨツヤママチ,福岡県大牟田市四山町
8360071,福岡県,大牟田市,加納町,フクオカケン,オオムタシ,カノウマチ,福岡県大牟田市加納町
8360072,福岡県,大牟田市,上屋敷町,フクオカケン,オオムタシ,カミヤシキマチ,福岡県大牟田市上屋敷町
8360073,福岡県,大牟田市,船津町,フクオカケン,オオムタシ,フナツマチ,福岡県大牟田市船津町
8360074,福岡県,大牟田市,藤田町,フクオカケン,オオムタシ,フジタマチ,福岡県大牟田市藤田町
8360075,福岡県,大牟田市,南船津町,フクオカケン,オオムタシ,ミナミフナツマチ,福岡県大牟田市南船津町
8360076,福岡県,大牟田市,三里町,フクオカケン,オオムタシ,ミサトマチ,福岡県大牟田市三里町
8360077,福岡県,大牟田市,早米来町,フクオカケン,オオムタシ,ゾウメキマチ,福岡県大牟田市早米来町
8360081,福岡県,大牟田市,田端町,フクオカケン,オオムタシ,タバタマチ,福岡県大牟田市田端町
8360082,福岡県,大牟田市,片平町,フクオカケン,オオムタシ,カタヒラマチ,福岡県大牟田市片平町
8360083,福岡県,大牟田市,長田町,フクオカケン,オオムタシ,ナガタマチ,福岡県大牟田市長田町
8360084,福岡県,大牟田市,馬場町,フクオカケン,オオムタシ,ババマチ,福岡県大牟田市馬場町
8360085,福岡県,大牟田市,一部町,フクオカケン,オオムタシ,イチブマチ,福岡県大牟田市一部町
8360086,福岡県,大牟田市,馬込町,フクオカケン,オオムタシ,マゴメマチ,福岡県大牟田市馬込町
8360087,福岡県,大牟田市,飯田町,フクオカケン,オオムタシ,イイダマチ,福岡県大牟田市飯田町
8360091,福岡県,大牟田市,沖田町,フクオカケン,オオムタシ,オキタマチ,福岡県大牟田市沖田町
8360092,福岡県,大牟田市,桜町,フクオカケン,オオムタシ,サクラマチ,福岡県大牟田市桜町
8360093,福岡県,大牟田市,神田町,フクオカケン,オオムタシ,カンダマチ,福岡県大牟田市神田町
8360094,福岡県,大牟田市,臼井町,フクオカケン,オオムタシ,ウスイマチ,福岡県大牟田市臼井町
8360095,福岡県,大牟田市,野添町,フクオカケン,オオムタシ,ノゾエマチ,福岡県大牟田市野添町
8360096,福岡県,大牟田市,萩尾町,フクオカケン,オオムタシ,ハギオマチ,福岡県大牟田市萩尾町
8360097,福岡県,大牟田市,東萩尾町,フクオカケン,オオムタシ,ヒガシハギオマチ,福岡県大牟田市東萩尾町
8360801,福岡県,大牟田市,柿園町,フクオカケン,オオムタシ,カキゾノマチ,福岡県大牟田市柿園町
8360802,福岡県,大牟田市,日出町,フクオカケン,オオムタシ,ヒノデマチ,福岡県大牟田市日出町
8360803,福岡県,大牟田市,鳥塚町,フクオカケン,オオムタシ,トリツカマチ,福岡県大牟田市鳥塚町
8360804,福岡県,大牟田市,長溝町,フクオカケン,オオムタシ,ナガミゾマチ,福岡県大牟田市長溝町
8360805,福岡県,大牟田市,通町,フクオカケン,オオムタシ,トオリチョウ,福岡県大牟田市通町
8360806,福岡県,大牟田市,東新町,フクオカケン,オオムタシ,ヒガシシンマチ,福岡県大牟田市東新町
8360807,福岡県,大牟田市,旭町,フクオカケン,オオムタシ,アサヒマチ,福岡県大牟田市旭町
8360811,福岡県,大牟田市,八尻町,フクオカケン,オオムタシ,ハチジリマチ,福岡県大牟田市八尻町
8360812,福岡県,大牟田市,亀甲町,フクオカケン,オオムタシ,カメノコマチ,福岡県大牟田市亀甲町
8360813,福岡県,大牟田市,平原町,フクオカケン,オオムタシ,ヒラバルマチ,福岡県大牟田市平原町
8360814,福岡県,大牟田市,龍湖瀬町,フクオカケン,オオムタシ,リュウゴゼマチ,福岡県大牟田市龍湖瀬町
8360815,福岡県,大牟田市,瓦町,フクオカケン,オオムタシ,カワラマチ,福岡県大牟田市瓦町
8360816,福岡県,大牟田市,八本町,フクオカケン,オオムタシ,ハチホンマチ,福岡県大牟田市八本町
8360817,福岡県,大牟田市,浅牟田町,フクオカケン,オオムタシ,アサムタマチ,福岡県大牟田市浅牟田町
8360821,福岡県,大牟田市,東泉町,フクオカケン,オオムタシ,ヒガシイズミマチ,福岡県大牟田市東泉町
8360822,福岡県,大牟田市,稲荷町,フクオカケン,オオムタシ,トウカマチ,福岡県大牟田市稲荷町
8360823,福岡県,大牟田市,亀谷町,フクオカケン,オオムタシ,カメタニマチ,福岡県大牟田市亀谷町
8360824,福岡県,大牟田市,大浦町,フクオカケン,オオムタシ,オオウラマチ,福岡県大牟田市大浦町
8360825,福岡県,大牟田市,三坑町,フクオカケン,オオムタシ,サンコウマチ,福岡県大牟田市三坑町
8360826,福岡県,大牟田市,焼石町,フクオカケン,オオムタシ,ヤケイシマチ,福岡県大牟田市焼石町
8360827,福岡県,大牟田市,東宮浦町,フクオカケン,オオムタシ,ヒガシミヤウラマチ,福岡県大牟田市東宮浦町
8360831,福岡県,大牟田市,泉町,フクオカケン,オオムタシ,イズミマチ,福岡県大牟田市泉町
8360832,福岡県,大牟田市,常盤町,フクオカケン,オオムタシ,トキワマチ,福岡県大牟田市常盤町
8360833,福岡県,大牟田市,山上町,フクオカケン,オオムタシ,ヤマノウエマチ,福岡県大牟田市山上町
8360834,福岡県,大牟田市,一本町,フクオカケン,オオムタシ,イッポンマチ,福岡県大牟田市一本町
8360835,福岡県,大牟田市,西宮浦町,フクオカケン,オオムタシ,ニシミヤウラマチ,福岡県大牟田市西宮浦町
8360836,福岡県,大牟田市,左古町,フクオカケン,オオムタシ,サコマチ,福岡県大牟田市左古町
8360837,福岡県,大牟田市,谷町,フクオカケン,オオムタシ,タニマチ,福岡県大牟田市谷町
8360841,福岡県,大牟田市,築町,フクオカケン,オオムタシ,チクマチ,福岡県大牟田市築町
8360842,福岡県,大牟田市,有明町,フクオカケン,オオムタシ,ユウメイマチ,福岡県大牟田市有明町
8360843,福岡県,大牟田市,不知火町,フクオカケン,オオムタシ,シラヌヒマチ,福岡県大牟田市不知火町
8360844,福岡県,大牟田市,浄真町,フクオカケン,オオムタシ,ジョウシンマチ,福岡県大牟田市浄真町
8360845,福岡県,大牟田市,正山町,フクオカケン,オオムタシ,ショウザンマチ,福岡県大牟田市正山町
8360846,福岡県,大牟田市,右京町,フクオカケン,オオムタシ,ウキョウマチ,福岡県大牟田市右京町
8360847,福岡県,大牟田市,八江町,フクオカケン,オオムタシ,ヤツエマチ,福岡県大牟田市八江町
8360851,福岡県,大牟田市,笹林町,フクオカケン,オオムタシ,ササバヤシマチ,福岡県大牟田市笹林町
8360852,福岡県,大牟田市,曙町,フクオカケン,オオムタシ,アケボノマチ,福岡県大牟田市曙町
8360853,福岡県,大牟田市,上町,フクオカケン,オオムタシ,カミマチ,福岡県大牟田市上町
8360854,福岡県,大牟田市,出雲町,フクオカケン,オオムタシ,イズモマチ,福岡県大牟田市出雲町
8360855,福岡県,大牟田市,松浦町,フクオカケン,オオムタシ,マツウラマチ,福岡県大牟田市松浦町
8360856,福岡県,大牟田市,宮坂町,フクオカケン,オオムタシ,ミヤサカマチ,福岡県大牟田市宮坂町
8360857,福岡県,大牟田市,宮山町,フクオカケン,オオムタシ,ミヤヤママチ,福岡県大牟田市宮山町
8360861,福岡県,大牟田市,宝坂町,フクオカケン,オオムタシ,タカラザカマチ,福岡県大牟田市宝坂町
8360862,福岡県,大牟田市,原山町,フクオカケン,オオムタシ,ハラヤママチ,福岡県大牟田市原山町
8360863,福岡県,大牟田市,一浦町,フクオカケン,オオムタシ,イチノウラマチ,福岡県大牟田市一浦町
8360864,福岡県,大牟田市,真道寺町,フクオカケン,オオムタシ,シンドウジマチ,福岡県大牟田市真道寺町
8360865,福岡県,大牟田市,七浦町,フクオカケン,オオムタシ,ナナウラマチ,福岡県大牟田市七浦町
8360866,福岡県,大牟田市,上官町,フクオカケン,オオムタシ,ジョウカンマチ,福岡県大牟田市上官町
8360867,福岡県,大牟田市,花園町,フクオカケン,オオムタシ,ハナゾノマチ,福岡県大牟田市花園町
8360871,福岡県,大牟田市,昭和町,フクオカケン,オオムタシ,ショウワマチ,福岡県大牟田市昭和町
8360872,福岡県,大牟田市,黄金町,フクオカケン,オオムタシ,コガネマチ,福岡県大牟田市黄金町
8360873,福岡県,大牟田市,駛馬町,フクオカケン,オオムタシ,ハヤメマチ,福岡県大牟田市駛馬町
8360874,福岡県,大牟田市,末広町,フクオカケン,オオムタシ,スエヒロマチ,福岡県大牟田市末広町
8360875,福岡県,大牟田市,宮原町,フクオカケン,オオムタシ,ミヤハラマチ,福岡県大牟田市宮原町
8360876,福岡県,大牟田市,若宮町,フクオカケン,オオムタシ,ワカミヤマチ,福岡県大牟田市若宮町
8360877,福岡県,大牟田市,延命寺町,フクオカケン,オオムタシ,エンメイジマチ,福岡県大牟田市延命寺町
8360881,福岡県,大牟田市,米生町,フクオカケン,オオムタシ,ヨネオマチ,福岡県大牟田市米生町
8360882,福岡県,大牟田市,臼井新町,フクオカケン,オオムタシ,ウスイシンマチ,福岡県大牟田市臼井新町
8360883,福岡県,大牟田市,馬渡町,フクオカケン,オオムタシ,マワタリマチ,福岡県大牟田市馬渡町
8360884,福岡県,大牟田市,笹原町,フクオカケン,オオムタシ,ササハラマチ,福岡県大牟田市笹原町
8360885,福岡県,大牟田市,下池町,フクオカケン,オオムタシ,シモイケマチ,福岡県大牟田市下池町
8360886,福岡県,大牟田市,勝立,フクオカケン,オオムタシ,カツダチ,福岡県大牟田市勝立
8360891,福岡県,大牟田市,合成町,フクオカケン,オオムタシ,ゴウセイマチ,福岡県大牟田市合成町
8360892,福岡県,大牟田市,早鐘町,フクオカケン,オオムタシ,ハヤガネマチ,福岡県大牟田市早鐘町
8360893,福岡県,大牟田市,櫟野,フクオカケン,オオムタシ,イチノ,福岡県大牟田市櫟野
8360894,福岡県,大牟田市,教楽来,フクオカケン,オオムタシ,キョウラギ,福岡県大牟田市教楽来
8360895,福岡県,大牟田市,新勝立町,フクオカケン,オオムタシ,シンカツダチマチ,福岡県大牟田市新勝立町
8360896,福岡県,大牟田市,天道町,フクオカケン,オオムタシ,テンドウマチ,福岡県大牟田市天道町
8360897,福岡県,大牟田市,青葉町,フクオカケン,オオムタシ,アオバマチ,福岡県大牟田市青葉町
8370901,福岡県,大牟田市,四ケ,フクオカケン,オオムタシ,シカ,福岡県大牟田市四ケ
8370902,福岡県,大牟田市,上内,フクオカケン,オオムタシ,カミウチ,福岡県大牟田市上内
8370903,福岡県,大牟田市,宮崎,フクオカケン,オオムタシ,ミヤザキ,福岡県大牟田市宮崎
8370904,福岡県,大牟田市,吉野,フクオカケン,オオムタシ,ヨシノ,福岡県大牟田市吉野
8370905,福岡県,大牟田市,甘木,フクオカケン,オオムタシ,アマギ,福岡県大牟田市甘木
8370906,福岡県,大牟田市,倉永,フクオカケン,オオムタシ,クラナガ,福岡県大牟田市倉永
8370907,福岡県,大牟田市,四箇新町,フクオカケン,オオムタシ,シカシンマチ,福岡県大牟田市四箇新町
8370910,福岡県,大牟田市,岩本新町,フクオカケン,オオムタシ,イワモトシンマチ,福岡県大牟田市岩本新町
8370911,福岡県,大牟田市,橘,フクオカケン,オオムタシ,タチバナ,福岡県大牟田市橘
8370912,福岡県,大牟田市,白銀,フクオカケン,オオムタシ,シラガネ,福岡県大牟田市白銀
8370913,福岡県,大牟田市,岩本,フクオカケン,オオムタシ,イワモト,福岡県大牟田市岩本
8370914,福岡県,大牟田市,宮部,フクオカケン,オオムタシ,ミヤベ,福岡県大牟田市宮部
8370915,福岡県,大牟田市,久福木,フクオカケン,オオムタシ,クブキ,福岡県大牟田市久福木
8370916,福岡県,大牟田市,田隈,フクオカケン,オオムタシ,タクマ,福岡県大牟田市田隈
8370917,福岡県,大牟田市,草木,フクオカケン,オオムタシ,クサギ,福岡県大牟田市草木
8370921,福岡県,大牟田市,三池,フクオカケン,オオムタシ,ミイケ,福岡県大牟田市三池
8370922,福岡県,大牟田市,今山,フクオカケン,オオムタシ,イマヤマ,福岡県大牟田市今山
8370923,福岡県,大牟田市,新町,フクオカケン,オオムタシ,シンマチ,福岡県大牟田市新町
8370924,福岡県,大牟田市,歴木,フクオカケン,オオムタシ,クヌギ,福岡県大牟田市歴木
8370925,福岡県,大牟田市,白川,フクオカケン,オオムタシ,シラカワ,福岡県大牟田市白川
8370926,福岡県,大牟田市,上白川町,フクオカケン,オオムタシ,カミシラカワマチ,福岡県大牟田市上白川町
8370927,福岡県,大牟田市,中白川町,フクオカケン,オオムタシ,ナカシラカワマチ,福岡県大牟田市中白川町
8370928,福岡県,大牟田市,下白川町,フクオカケン,オオムタシ,シモシラカワマチ,福岡県大牟田市下白川町
8380000,福岡県,朝倉市,,フクオカケン,アサクラシ,,福岡県朝倉市
8380000,福岡県,朝倉郡筑前町,,フクオカケン,アサクラグンチクゼンマチ,,福岡県朝倉郡筑前町
8380001,福岡県,朝倉市,秋月,フクオカケン,アサクラシ,アキヅキ,福岡県朝倉市秋月
8380002,福岡県,朝倉市,長谷山,フクオカケン,アサクラシ,ハセヤマ,福岡県朝倉市長谷山
8380003,福岡県,朝倉市,楢原,フクオカケン,アサクラシ,ナラハラ,福岡県朝倉市楢原
8380004,福岡県,朝倉市,隈江,フクオカケン,アサクラシ,クマエ,福岡県朝倉市隈江
8380005,福岡県,朝倉市,甘水,フクオカケン,アサクラシ,アモウズ,福岡県朝倉市甘水
8380011,福岡県,朝倉市,秋月野鳥,フクオカケン,アサクラシ,アキヅキノトリ,福岡県朝倉市秋月野鳥
8380012,福岡県,朝倉市,江川,フクオカケン,アサクラシ,エガワ,福岡県朝倉市江川
8380013,福岡県,朝倉市,田代,フクオカケン,アサクラシ,タシロ,福岡県朝倉市田代
8380014,福岡県,朝倉市,山見,フクオカケン,アサクラシ,ヤマミ,福岡県朝倉市山見
8380015,福岡県,朝倉市,持丸,フクオカケン,アサクラシ,モチマル,福岡県朝倉市持丸
8380016,福岡県,朝倉市,下渕,フクオカケン,アサクラシ,シタフチ,福岡県朝倉市下渕
8380017,福岡県,朝倉市,千手,フクオカケン,アサクラシ,センズ,福岡県朝倉市千手
8380018,福岡県,朝倉市,日向石,フクオカケン,アサクラシ,ヒュウガイシ,福岡県朝倉市日向石
8380019,福岡県,朝倉市,上秋月,フクオカケン,アサクラシ,カミアキヅキ,福岡県朝倉市上秋月
8380020,福岡県,朝倉市,美奈宜の杜,フクオカケン,アサクラシ,ミナギノモリ,福岡県朝倉市美奈宜の杜
8380021,福岡県,朝倉市,矢野竹,フクオカケン,アサクラシ,ヤノタケ,福岡県朝倉市矢野竹
8380022,福岡県,朝倉市,城,フクオカケン,アサクラシ,シロ,福岡県朝倉市城
8380023,福岡県,朝倉市,三奈木,フクオカケン,アサクラシ,ミナギ,福岡県朝倉市三奈木
8380024,福岡県,朝倉市,牛鶴,フクオカケン,アサクラシ,ウシヅル,福岡県朝倉市牛鶴
8380025,福岡県,朝倉市,相窪,フクオカケン,アサクラシ,アイノクボ,福岡県朝倉市相窪
8380026,福岡県,朝倉市,柿原,フクオカケン,アサクラシ,カキバル,福岡県朝倉市柿原
8380027,福岡県,朝倉市,板屋,フクオカケン,アサクラシ,イタヤ,福岡県朝倉市板屋
8380028,福岡県,朝倉市,屋形原,フクオカケン,アサクラシ,ヤカタバル,福岡県朝倉市屋形原
8380029,福岡県,朝倉市,荷原,フクオカケン,アサクラシ,イナイバル,福岡県朝倉市荷原
8380031,福岡県,朝倉市,屋永,フクオカケン,アサクラシ,ヤナガ,福岡県朝倉市屋永
8380032,福岡県,朝倉市,中島田,フクオカケン,アサクラシ,ナカシマダ,福岡県朝倉市中島田
8380033,福岡県,朝倉市,田島,フクオカケン,アサクラシ,タシマ,福岡県朝倉市田島
8380034,福岡県,朝倉市,福光,フクオカケン,アサクラシ,フクミツ,福岡県朝倉市福光
8380035,福岡県,朝倉市,中,フクオカケン,アサクラシ,ナカ,福岡県朝倉市中
8380036,福岡県,朝倉市,片延,フクオカケン,アサクラシ,カタノブ,福岡県朝倉市片延
8380037,福岡県,朝倉市,林田,フクオカケン,アサクラシ,ハヤシダ,福岡県朝倉市林田
8380038,福岡県,朝倉市,鵜木,フクオカケン,アサクラシ,ウノキ,福岡県朝倉市鵜木
8380039,福岡県,朝倉市,桑原,フクオカケン,アサクラシ,クワバラ,福岡県朝倉市桑原
8380041,福岡県,朝倉市,鎌崎,フクオカケン,アサクラシ,カマサキ,福岡県朝倉市鎌崎
8380042,福岡県,朝倉市,上畑,フクオカケン,アサクラシ,ウエハタ,福岡県朝倉市上畑
8380043,福岡県,朝倉市,長田,フクオカケン,アサクラシ,ナガタ,福岡県朝倉市長田
8380044,福岡県,朝倉市,八重津,フクオカケン,アサクラシ,ヤエヅ,福岡県朝倉市八重津
8380045,福岡県,朝倉市,白鳥,フクオカケン,アサクラシ,シラトリ,福岡県朝倉市白鳥
8380046,福岡県,朝倉市,倉吉,フクオカケン,アサクラシ,クラヨシ,福岡県朝倉市倉吉
8380047,福岡県,朝倉市,徳渕,フクオカケン,アサクラシ,トクノフチ,福岡県朝倉市徳渕
8380048,福岡県,朝倉市,金丸,フクオカケン,アサクラシ,カナマル,福岡県朝倉市金丸
8380051,福岡県,朝倉市,小田,フクオカケン,アサクラシ,オタ,福岡県朝倉市小田
8380052,福岡県,朝倉市,小隈,フクオカケン,アサクラシ,オグマ,福岡県朝倉市小隈
8380053,福岡県,朝倉市,中寒水,フクオカケン,アサクラシ,ナカソウズ,福岡県朝倉市中寒水
8380054,福岡県,朝倉市,草水,フクオカケン,アサクラシ,ソウズ,福岡県朝倉市草水
8380055,福岡県,朝倉市,下浦,フクオカケン,アサクラシ,シモウラ,福岡県朝倉市下浦
8380056,福岡県,朝倉市,中原,フクオカケン,アサクラシ,ナカバル,福岡県朝倉市中原
8380057,福岡県,朝倉市,上浦,フクオカケン,アサクラシ,カミウラ,福岡県朝倉市上浦
8380058,福岡県,朝倉市,馬田,フクオカケン,アサクラシ,マダ,福岡県朝倉市馬田
8380059,福岡県,朝倉市,平塚,フクオカケン,アサクラシ,ヒラヅカ,福岡県朝倉市平塚
8380061,福岡県,朝倉市,菩提寺,フクオカケン,アサクラシ,ボダイジ,福岡県朝倉市菩提寺
8380062,福岡県,朝倉市,堤,フクオカケン,アサクラシ,ツツミ,福岡県朝倉市堤
8380063,福岡県,朝倉市,古賀,フクオカケン,アサクラシ,コガ,福岡県朝倉市古賀
8380064,福岡県,朝倉市,頓田,フクオカケン,アサクラシ,トンタ,福岡県朝倉市頓田
8380065,福岡県,朝倉市,一木,フクオカケン,アサクラシ,ヒトツギ,福岡県朝倉市一木
8380066,福岡県,朝倉市,千代丸,フクオカケン,アサクラシ,チヨマル,福岡県朝倉市千代丸
8380067,福岡県,朝倉市,牛木,フクオカケン,アサクラシ,ウシギ,福岡県朝倉市牛木
8380068,福岡県,朝倉市,甘木,フクオカケン,アサクラシ,アマギ,福岡県朝倉市甘木
8380069,福岡県,朝倉市,来春,フクオカケン,アサクラシ,ライハ,福岡県朝倉市来春
8380071,福岡県,朝倉市,佐田,フクオカケン,アサクラシ,サダ,福岡県朝倉市佐田
8380072,福岡県,朝倉市,黒川,フクオカケン,アサクラシ,クロガワ,福岡県朝倉市黒川
8380100,福岡県,小郡市,,フクオカケン,オゴオリシ,,福岡県小郡市
8380101,福岡県,小郡市,美鈴が丘,フクオカケン,オゴオリシ,ミスズガオカ,福岡県小郡市美鈴が丘
8380102,福岡県,小郡市,津古,フクオカケン,オゴオリシ,ツコ,福岡県小郡市津古
8380103,福岡県,小郡市,三国が丘,フクオカケン,オゴオリシ,ミクニガオカ,福岡県小郡市三国が丘
8380104,福岡県,小郡市,乙隈,フクオカケン,オゴオリシ,オトグマ,福岡県小郡市乙隈
8380105,福岡県,小郡市,横隈,フクオカケン,オゴオリシ,ヨコグマ,福岡県小郡市横隈
8380106,福岡県,小郡市,三沢,フクオカケン,オゴオリシ,ミツサワ,福岡県小郡市三沢
8380107,福岡県,小郡市,希みが丘,フクオカケン,オゴオリシ,ノゾミガオカ,福岡県小郡市希みが丘
8380108,福岡県,小郡市,美鈴の杜,フクオカケン,オゴオリシ,ミスズノモリ,福岡県小郡市美鈴の杜
8380109,福岡県,小郡市,あすみ,フクオカケン,オゴオリシ,アスミ,福岡県小郡市あすみ
8380111,福岡県,小郡市,吹上,フクオカケン,オゴオリシ,フキアゲ,福岡県小郡市吹上
8380112,福岡県,小郡市,干潟,フクオカケン,オゴオリシ,ヒカタ,福岡県小郡市干潟
8380113,福岡県,小郡市,山隈,フクオカケン,オゴオリシ,ヤマグマ,福岡県小郡市山隈
8380114,福岡県,小郡市,井上,フクオカケン,オゴオリシ,イノウエ,福岡県小郡市井上
8380115,福岡県,小郡市,大保,フクオカケン,オゴオリシ,オオホ,福岡県小郡市大保
8380116,福岡県,小郡市,力武,フクオカケン,オゴオリシ,リキタケ,福岡県小郡市力武
8380121,福岡県,小郡市,上岩田,フクオカケン,オゴオリシ,カミイワタ,福岡県小郡市上岩田
8380122,福岡県,小郡市,松崎,フクオカケン,オゴオリシ,マツザキ,福岡県小郡市松崎
8380123,福岡県,小郡市,下岩田,フクオカケン,オゴオリシ,シモイワタ,福岡県小郡市下岩田
8380124,福岡県,小郡市,古飯,フクオカケン,オゴオリシ,フルエ,福岡県小郡市古飯
8380125,福岡県,小郡市,二タ,フクオカケン,オゴオリシ,フタ,福岡県小郡市二タ
8380126,福岡県,小郡市,二森,フクオカケン,オゴオリシ,フタモリ,福岡県小郡市二森
8380127,福岡県,小郡市,大崎,フクオカケン,オゴオリシ,オオザキ,福岡県小郡市大崎
8380128,福岡県,小郡市,稲吉,フクオカケン,オゴオリシ,イナヨシ,福岡県小郡市稲吉
8380131,福岡県,小郡市,平方,フクオカケン,オゴオリシ,ヒラカタ,福岡県小郡市平方
8380132,福岡県,小郡市,光行,フクオカケン,オゴオリシ,ミツユキ,福岡県小郡市光行
8380133,福岡県,小郡市,八坂,フクオカケン,オゴオリシ,ヤサカ,福岡県小郡市八坂
8380134,福岡県,小郡市,下西鰺坂,フクオカケン,オゴオリシ,シモニシアジサカ,福岡県小郡市下西鰺坂
8380135,福岡県,小郡市,赤川,フクオカケン,オゴオリシ,アカガワ,福岡県小郡市赤川
8380136,福岡県,小郡市,上西鰺坂,フクオカケン,オゴオリシ,カミニシアジサカ,福岡県小郡市上西鰺坂
8380137,福岡県,小郡市,福童,フクオカケン,オゴオリシ,フクドウ,福岡県小郡市福童
8380138,福岡県,小郡市,寺福童,フクオカケン,オゴオリシ,テラフクドウ,福岡県小郡市寺福童
8380141,福岡県,小郡市,小郡,フクオカケン,オゴオリシ,オゴオリ,福岡県小郡市小郡
8380142,福岡県,小郡市,大板井,フクオカケン,オゴオリシ,オオイタイ,福岡県小郡市大板井
8380143,福岡県,小郡市,小板井,フクオカケン,オゴオリシ,コイタイ,福岡県小郡市小板井
8380144,福岡県,小郡市,祇園,フクオカケン,オゴオリシ,ギオン,福岡県小郡市祇園
8380201,福岡県,朝倉郡筑前町,櫛木,フクオカケン,アサクラグンチクゼンマチ,クシギ,福岡県朝倉郡筑前町櫛木
8380202,福岡県,朝倉郡筑前町,三箇山,フクオカケン,アサクラグンチクゼンマチ,サンガヤマ,福岡県朝倉郡筑前町三箇山
8380203,福岡県,朝倉郡筑前町,畑嶋,フクオカケン,アサクラグンチクゼンマチ,ハタジマ,福岡県朝倉郡筑前町畑嶋
8380204,福岡県,朝倉郡筑前町,長者町,フクオカケン,アサクラグンチクゼンマチ,チョウジャマチ,福岡県朝倉郡筑前町長者町
8380205,福岡県,朝倉郡筑前町,三並,フクオカケン,アサクラグンチクゼンマチ,ミナミ,福岡県朝倉郡筑前町三並
8380206,福岡県,朝倉郡筑前町,曽根田,フクオカケン,アサクラグンチクゼンマチ,ソネダ,福岡県朝倉郡筑前町曽根田
8380207,福岡県,朝倉郡筑前町,三牟田,フクオカケン,アサクラグンチクゼンマチ,ミムタ,福岡県朝倉郡筑前町三牟田
8380211,福岡県,朝倉郡筑前町,下高場,フクオカケン,アサクラグンチクゼンマチ,シモタカバ,福岡県朝倉郡筑前町下高場
8380212,福岡県,朝倉郡筑前町,四三嶋,フクオカケン,アサクラグンチクゼンマチ,シソジマ,福岡県朝倉郡筑前町四三嶋
8380213,福岡県,朝倉郡筑前町,安野,フクオカケン,アサクラグンチクゼンマチ,ヤスノ,福岡県朝倉郡筑前町安野
8380214,福岡県,朝倉郡筑前町,東小田,フクオカケン,アサクラグンチクゼンマチ,ヒガシオダ,福岡県朝倉郡筑前町東小田
8380215,福岡県,朝倉郡筑前町,篠隈,フクオカケン,アサクラグンチクゼンマチ,シノクマ,福岡県朝倉郡筑前町篠隈
8380221,福岡県,朝倉郡筑前町,吹田,フクオカケン,アサクラグンチクゼンマチ,フキダ,福岡県朝倉郡筑前町吹田
8380222,福岡県,朝倉郡筑前町,赤坂,フクオカケン,アサクラグンチクゼンマチ,アカサカ,福岡県朝倉郡筑前町赤坂
8380223,福岡県,朝倉郡筑前町,砥上,フクオカケン,アサクラグンチクゼンマチ,トカミ,福岡県朝倉郡筑前町砥上
8380224,福岡県,朝倉郡筑前町,松延,フクオカケン,アサクラグンチクゼンマチ,マツノブ,福岡県朝倉郡筑前町松延
8380225,福岡県,朝倉郡筑前町,石櫃,フクオカケン,アサクラグンチクゼンマチ,イシビツ,福岡県朝倉郡筑前町石櫃
8380226,福岡県,朝倉郡筑前町,中牟田,フクオカケン,アサクラグンチクゼンマチ,ナカムタ,福岡県朝倉郡筑前町中牟田
8380227,福岡県,朝倉郡筑前町,朝日,フクオカケン,アサクラグンチクゼンマチ,アサヒ,福岡県朝倉郡筑前町朝日
8380228,福岡県,朝倉郡筑前町,二,フクオカケン,アサクラグンチクゼンマチ,フタ,福岡県朝倉郡筑前町二
8380801,福岡県,朝倉郡筑前町,栗田,フクオカケン,アサクラグンチクゼンマチ,クリダ,福岡県朝倉郡筑前町栗田
8380802,福岡県,朝倉郡筑前町,久光,フクオカケン,アサクラグンチクゼンマチ,ヒサミツ,福岡県朝倉郡筑前町久光
8380803,福岡県,朝倉郡筑前町,当所,フクオカケン,アサクラグンチクゼンマチ,トウショ,福岡県朝倉郡筑前町当所
8380804,福岡県,朝倉郡筑前町,森山,フクオカケン,アサクラグンチクゼンマチ,モリヤマ,福岡県朝倉郡筑前町森山
8380811,福岡県,朝倉郡筑前町,弥永,フクオカケン,アサクラグンチクゼンマチ,イヤナガ,福岡県朝倉郡筑前町弥永
8380812,福岡県,朝倉郡筑前町,大塚,フクオカケン,アサクラグンチクゼンマチ,オオヅカ,福岡県朝倉郡筑前町大塚
8380813,福岡県,朝倉郡筑前町,依井,フクオカケン,アサクラグンチクゼンマチ,ヨリイ,福岡県朝倉郡筑前町依井
8380814,福岡県,朝倉郡筑前町,高田,フクオカケン,アサクラグンチクゼンマチ,タカタ,福岡県朝倉郡筑前町高田
8380815,福岡県,朝倉郡筑前町,野町,フクオカケン,アサクラグンチクゼンマチ,ノマチ,福岡県朝倉郡筑前町野町
8380816,福岡県,朝倉郡筑前町,新町,フクオカケン,アサクラグンチクゼンマチ,シンマチ,福岡県朝倉郡筑前町新町
8380817,福岡県,朝倉郡筑前町,朝園,フクオカケン,アサクラグンチクゼンマチ,アサゾノ,福岡県朝倉郡筑前町朝園
8380821,福岡県,朝倉郡筑前町,上高場,フクオカケン,アサクラグンチクゼンマチ,カミタカバ,福岡県朝倉郡筑前町上高場
8380822,福岡県,朝倉郡筑前町,高上,フクオカケン,アサクラグンチクゼンマチ,タコエ,福岡県朝倉郡筑前町高上
8380823,福岡県,朝倉郡筑前町,山隈,フクオカケン,アサクラグンチクゼンマチ,ヤマグマ,福岡県朝倉郡筑前町山隈
8380824,福岡県,朝倉郡筑前町,原地蔵,フクオカケン,アサクラグンチクゼンマチ,ハラジゾウ,福岡県朝倉郡筑前町原地蔵
8380825,福岡県,朝倉郡筑前町,大久保,フクオカケン,アサクラグンチクゼンマチ,オオクボ,福岡県朝倉郡筑前町大久保
8381301,福岡県,朝倉市,烏集院,フクオカケン,アサクラシ,ウスノイン,福岡県朝倉市烏集院
8381302,福岡県,朝倉市,宮野,フクオカケン,アサクラシ,ミヤノ,福岡県朝倉市宮野
8381303,福岡県,朝倉市,比良松,フクオカケン,アサクラシ,ヒラマツ,福岡県朝倉市比良松
8381304,福岡県,朝倉市,須川,フクオカケン,アサクラシ,スガワ,福岡県朝倉市須川
8381305,福岡県,朝倉市,菱野,フクオカケン,アサクラシ,ヒシノ,福岡県朝倉市菱野
8381306,福岡県,朝倉市,山田,フクオカケン,アサクラシ,ヤマダ,福岡県朝倉市山田
8381307,福岡県,朝倉市,古毛,フクオカケン,アサクラシ,コモ,福岡県朝倉市古毛
8381311,福岡県,朝倉市,多々連,フクオカケン,アサクラシ,タダレ,福岡県朝倉市多々連
8381312,福岡県,朝倉市,田中,フクオカケン,アサクラシ,タナカ,福岡県朝倉市田中
8381313,福岡県,朝倉市,上寺,フクオカケン,アサクラシ,カミデラ,福岡県朝倉市上寺
8381314,福岡県,朝倉市,長渕,フクオカケン,アサクラシ,ナガフチ,福岡県朝倉市長渕
8381315,福岡県,朝倉市,入地,フクオカケン,アサクラシ,イリジ,福岡県朝倉市入地
8381316,福岡県,朝倉市,大庭,フクオカケン,アサクラシ,オオバ,福岡県朝倉市大庭
8381317,福岡県,朝倉市,石成,フクオカケン,アサクラシ,イシナリ,福岡県朝倉市石成
8381501,福岡県,朝倉市,杷木赤谷,フクオカケン,アサクラシ,ハキアカダニ,福岡県朝倉市杷木赤谷
8381502,福岡県,朝倉市,杷木松末,フクオカケン,アサクラシ,ハキマスエ,福岡県朝倉市杷木松末
8381503,福岡県,朝倉市,杷木大山,フクオカケン,アサクラシ,ハキオオヤマ,福岡県朝倉市杷木大山
8381504,福岡県,朝倉市,杷木星丸,フクオカケン,アサクラシ,ハキホシマル,福岡県朝倉市杷木星丸
8381505,福岡県,朝倉市,杷木穂坂,フクオカケン,アサクラシ,ハキホサカ,福岡県朝倉市杷木穂坂
8381506,福岡県,朝倉市,杷木林田,フクオカケン,アサクラシ,ハキハヤシダ,福岡県朝倉市杷木林田
8381507,福岡県,朝倉市,杷木白木,フクオカケン,アサクラシ,ハキシラキ,福岡県朝倉市杷木白木
8381511,福岡県,朝倉市,杷木池田,フクオカケン,アサクラシ,ハキイケダ,福岡県朝倉市杷木池田
8381512,福岡県,朝倉市,杷木寒水,フクオカケン,アサクラシ,ハキソウズ,福岡県朝倉市杷木寒水
8381513,福岡県,朝倉市,杷木古賀,フクオカケン,アサクラシ,ハキコガ,福岡県朝倉市杷木古賀
8381514,福岡県,朝倉市,杷木久喜宮,フクオカケン,アサクラシ,ハキクグミヤ,福岡県朝倉市杷木久喜宮
8381515,福岡県,朝倉市,杷木若市,フクオカケン,アサクラシ,ハキワカイチ,福岡県朝倉市杷木若市
8381521,福岡県,朝倉市,杷木志波,フクオカケン,アサクラシ,ハキシワ,福岡県朝倉市杷木志波
8381601,福岡県,朝倉郡東峰村,小石原,フクオカケン,アサクラグントウホウムラ,コイシワラ,福岡県朝倉郡東峰村小石原
8381602,福岡県,朝倉郡東峰村,小石原鼓,フクオカケン,アサクラグントウホウムラ,コイシワラツヅミ,福岡県朝倉郡東峰村小石原鼓
8381700,福岡県,朝倉郡東峰村,,フクオカケン,アサクラグントウホウムラ,,福岡県朝倉郡東峰村
8381701,福岡県,朝倉郡東峰村,宝珠山,フクオカケン,アサクラグントウホウムラ,ホウシュヤマ,福岡県朝倉郡東峰村宝珠山
8381702,福岡県,朝倉郡東峰村,福井,フクオカケン,アサクラグントウホウムラ,フクイ,福岡県朝倉郡東峰村福井
8390000,福岡県,久留米市,,フクオカケン,クルメシ,,福岡県久留米市
8390201,福岡県,みやま市,高田町昭和開,フクオカケン,ミヤマシ,タカタマチショウワビラキ,福岡県みやま市高田町昭和開
8390202,福岡県,みやま市,高田町永治,フクオカケン,ミヤマシ,タカタマチエイジ,福岡県みやま市高田町永治
8390203,福岡県,みやま市,高田町黒崎開,フクオカケン,ミヤマシ,タカタマチクロサキビラキ,福岡県みやま市高田町黒崎開
8390204,福岡県,みやま市,高田町北新開,フクオカケン,ミヤマシ,タカタマチキタシンガイ,福岡県みやま市高田町北新開
8390205,福岡県,みやま市,高田町南新開,フクオカケン,ミヤマシ,タカタマチミナミシンガイ,福岡県みやま市高田町南新開
8390211,福岡県,みやま市,高田町徳島,フクオカケン,ミヤマシ,タカタマチトクシマ,福岡県みやま市高田町徳島
8390212,福岡県,みやま市,高田町江浦町,フクオカケン,ミヤマシ,タカタマチエノウラマチ,福岡県みやま市高田町江浦町
8390213,福岡県,みやま市,高田町江浦,フクオカケン,ミヤマシ,タカタマチエノウラ,福岡県みやま市高田町江浦
8390214,福岡県,みやま市,高田町今福,フクオカケン,ミヤマシ,タカタマチイマブク,福岡県みやま市高田町今福
8390215,福岡県,みやま市,高田町濃施,フクオカケン,ミヤマシ,タカタマチノセ,福岡県みやま市高田町濃施
8390221,福岡県,みやま市,高田町下楠田,フクオカケン,ミヤマシ,タカタマチシモクスダ,福岡県みやま市高田町下楠田
8390222,福岡県,みやま市,高田町原,フクオカケン,ミヤマシ,タカタマチハル,福岡県みやま市高田町原
8390223,福岡県,みやま市,高田町岩津,フクオカケン,ミヤマシ,タカタマチイワツ,福岡県みやま市高田町岩津
8390224,福岡県,みやま市,高田町田尻,フクオカケン,ミヤマシ,タカタマチタジリ,福岡県みやま市高田町田尻
8390225,福岡県,みやま市,高田町上楠田,フクオカケン,ミヤマシ,タカタマチカミクスダ,福岡県みやま市高田町上楠田
8390241,福岡県,柳川市,大和町徳益,フクオカケン,ヤナガワシ,ヤマトマチトクマス,福岡県柳川市大和町徳益
8390242,福岡県,柳川市,大和町豊原,フクオカケン,ヤナガワシ,ヤマトマチトヨハラ,福岡県柳川市大和町豊原
8390243,福岡県,柳川市,大和町塩塚,フクオカケン,ヤナガワシ,ヤマトマチシオツカ,福岡県柳川市大和町塩塚
8390244,福岡県,柳川市,大和町六合,フクオカケン,ヤナガワシ,ヤマトマチロクゴウ,福岡県柳川市大和町六合
8390251,福岡県,柳川市,大和町明野,フクオカケン,ヤナガワシ,ヤマトマチアケノ,福岡県柳川市大和町明野
8390252,福岡県,柳川市,大和町栄,フクオカケン,ヤナガワシ,ヤマトマチサカエ,福岡県柳川市大和町栄
8390253,福岡県,柳川市,大和町鷹ノ尾,フクオカケン,ヤナガワシ,ヤマトマチタカノオ,福岡県柳川市大和町鷹ノ尾
8390254,福岡県,柳川市,大和町中島,フクオカケン,ヤナガワシ,ヤマトマチナカシマ,福岡県柳川市大和町中島
8390261,福岡県,柳川市,大和町皿垣開,フクオカケン,ヤナガワシ,ヤマトマチサラカキビラキ,福岡県柳川市大和町皿垣開
8390262,福岡県,柳川市,大和町永田開,フクオカケン,ヤナガワシ,ヤマトマチナガタビラキ,福岡県柳川市大和町永田開
8390263,福岡県,柳川市,大和町大坪,フクオカケン,ヤナガワシ,ヤマトマチオオツボ,福岡県柳川市大和町大坪
8390264,福岡県,柳川市,大和町谷垣,フクオカケン,ヤナガワシ,ヤマトマチタニガキ,福岡県柳川市大和町谷垣
8390801,福岡県,久留米市,宮ノ陣,フクオカケン,クルメシ,ミヤノジン,福岡県久留米市宮ノ陣
8390802,福岡県,久留米市,宮ノ陣町五郎丸,フクオカケン,クルメシ,ミヤノジンマチゴロウマル,福岡県久留米市宮ノ陣町五郎丸
8390803,福岡県,久留米市,宮ノ陣町大杜,フクオカケン,クルメシ,ミヤノジンマチオオト,福岡県久留米市宮ノ陣町大杜
8390804,福岡県,久留米市,宮ノ陣町若松,フクオカケン,クルメシ,ミヤノジンマチワカマツ,福岡県久留米市宮ノ陣町若松
8390805,福岡県,久留米市,宮ノ陣町八丁島,フクオカケン,クルメシ,ミヤノジンマチハッチョウジマ,福岡県久留米市宮ノ陣町八丁島
8390806,福岡県,久留米市,東合川干出町,フクオカケン,クルメシ,ヒガシアイカワヒイデマチ,福岡県久留米市東合川干出町
8390807,福岡県,久留米市,東合川町,フクオカケン,クルメシ,ヒガシアイカワマチ,福岡県久留米市東合川町
8390808,福岡県,久留米市,東合川新町,フクオカケン,クルメシ,ヒガシアイカワシンマチ,福岡県久留米市東合川新町
8390809,福岡県,久留米市,東合川,フクオカケン,クルメシ,ヒガシアイカワ,福岡県久留米市東合川
8390811,福岡県,久留米市,山川神代,フクオカケン,クルメシ,ヤマカワクマシロ,福岡県久留米市山川神代
8390812,福岡県,久留米市,山川安居野,フクオカケン,クルメシ,ヤマカワアイノ,福岡県久留米市山川安居野
8390813,福岡県,久留米市,山川市ノ上町,フクオカケン,クルメシ,ヤマカワイチノウエマチ,福岡県久留米市山川市ノ上町
8390814,福岡県,久留米市,山川追分,フクオカケン,クルメシ,ヤマカワオイワケ,福岡県久留米市山川追分
8390815,福岡県,久留米市,山川沓形町,フクオカケン,クルメシ,ヤマカワクツガタマチ,福岡県久留米市山川沓形町
8390816,福岡県,久留米市,山川野口町,フクオカケン,クルメシ,ヤマカワノグチマチ,福岡県久留米市山川野口町
8390817,福岡県,久留米市,山川町,フクオカケン,クルメシ,ヤマカワマチ,福岡県久留米市山川町
8390821,福岡県,久留米市,太郎原町,フクオカケン,クルメシ,ダイロバルマチ,福岡県久留米市太郎原町
8390822,福岡県,久留米市,善導寺町木塚,フクオカケン,クルメシ,ゼンドウジマチキヅカ,福岡県久留米市善導寺町木塚
8390823,福岡県,久留米市,善導寺町与田,フクオカケン,クルメシ,ゼンドウジマチヨダ,福岡県久留米市善導寺町与田
8390824,福岡県,久留米市,善導寺町飯田,フクオカケン,クルメシ,ゼンドウジマチイイダ,福岡県久留米市善導寺町飯田
8390825,福岡県,久留米市,善導寺町島,フクオカケン,クルメシ,ゼンドウジマチシマ,福岡県久留米市善導寺町島
8390826,福岡県,久留米市,山本町耳納,フクオカケン,クルメシ,ヤマモトマチミノウ,福岡県久留米市山本町耳納
8390827,福岡県,久留米市,山本町豊田,フクオカケン,クルメシ,ヤマモトマチトヨダ,福岡県久留米市山本町豊田
8390831,福岡県,久留米市,大橋町蜷川,フクオカケン,クルメシ,オオハシマチニナガワ,福岡県久留米市大橋町蜷川
8390832,福岡県,久留米市,大橋町合楽,フクオカケン,クルメシ,オオハシマチアイラク,福岡県久留米市大橋町合楽
8390833,福岡県,久留米市,大橋町常持,フクオカケン,クルメシ,オオハシマチツネモチ,福岡県久留米市大橋町常持
8390834,福岡県,久留米市,草野町紅桃林,フクオカケン,クルメシ,クサノマチコトバヤシ,福岡県久留米市草野町紅桃林
8390835,福岡県,久留米市,草野町草野,フクオカケン,クルメシ,クサノマチクサノ,福岡県久留米市草野町草野
8390836,福岡県,久留米市,草野町吉木,フクオカケン,クルメシ,クサノマチヨシキ,福岡県久留米市草野町吉木
8390837,福岡県,久留米市,草野町矢作,フクオカケン,クルメシ,クサノマチヤハギ,福岡県久留米市草野町矢作
8390841,福岡県,久留米市,御井旗崎,フクオカケン,クルメシ,ミイハタザキ,福岡県久留米市御井旗崎
8390842,福岡県,久留米市,御井朝妻,フクオカケン,クルメシ,ミイアサヅマ,福岡県久留米市御井朝妻
8390843,福岡県,久留米市,朝妻町,フクオカケン,クルメシ,アサヅママチ,福岡県久留米市朝妻町
8390851,福岡県,久留米市,御井町,フクオカケン,クルメシ,ミイマチ,福岡県久留米市御井町
8390852,福岡県,久留米市,高良内町,フクオカケン,クルメシ,コウラウチマチ,福岡県久留米市高良内町
8390853,福岡県,久留米市,青峰,フクオカケン,クルメシ,セイホウ,福岡県久留米市青峰
8390861,福岡県,久留米市,合川町,フクオカケン,クルメシ,アイカワマチ,福岡県久留米市合川町
8390862,福岡県,久留米市,野中町,フクオカケン,クルメシ,ノナカマチ,福岡県久留米市野中町
8390863,福岡県,久留米市,国分町,フクオカケン,クルメシ,コクブマチ,福岡県久留米市国分町
8390864,福岡県,久留米市,百年公園,フクオカケン,クルメシ,ヒャクネンコウエン,福岡県久留米市百年公園
8390865,福岡県,久留米市,新合川,フクオカケン,クルメシ,シンアイカワ,福岡県久留米市新合川
8391201,福岡県,久留米市,田主丸町長栖,フクオカケン,クルメシ,タヌシマルマチナガス,福岡県久留米市田主丸町長栖
8391202,福岡県,久留米市,田主丸町鷹取,フクオカケン,クルメシ,タヌシマルマチタカトリ,福岡県久留米市田主丸町鷹取
8391203,福岡県,久留米市,田主丸町秋成,フクオカケン,クルメシ,タヌシマルマチアキナリ,福岡県久留米市田主丸町秋成
8391204,福岡県,久留米市,田主丸町殖木,フクオカケン,クルメシ,タヌシマルマチフエキ,福岡県久留米市田主丸町殖木
8391205,福岡県,久留米市,田主丸町船越,フクオカケン,クルメシ,タヌシマルマチフナゴシ,福岡県久留米市田主丸町船越
8391206,福岡県,久留米市,田主丸町吉本,フクオカケン,クルメシ,タヌシマルマチヨシモト,福岡県久留米市田主丸町吉本
8391211,福岡県,久留米市,田主丸町森部,フクオカケン,クルメシ,タヌシマルマチモリベ,福岡県久留米市田主丸町森部
8391212,福岡県,久留米市,田主丸町石垣,フクオカケン,クルメシ,タヌシマルマチイシカキ,福岡県久留米市田主丸町石垣
8391213,福岡県,久留米市,田主丸町益生田,フクオカケン,クルメシ,タヌシマルマチマスオダ,福岡県久留米市田主丸町益生田
8391214,福岡県,久留米市,田主丸町地徳,フクオカケン,クルメシ,タヌシマルマチチトク,福岡県久留米市田主丸町地徳
8391215,福岡県,久留米市,田主丸町竹野,フクオカケン,クルメシ,タヌシマルマチタケノ,福岡県久留米市田主丸町竹野
8391216,福岡県,久留米市,田主丸町中尾,フクオカケン,クルメシ,タヌシマルマチナカオ,福岡県久留米市田主丸町中尾
8391221,福岡県,久留米市,田主丸町上原,フクオカケン,クルメシ,タヌシマルマチカミハル,福岡県久留米市田主丸町上原
8391222,福岡県,久留米市,田主丸町志塚島,フクオカケン,クルメシ,タヌシマルマチシツカシマ,福岡県久留米市田主丸町志塚島
8391223,福岡県,久留米市,田主丸町以真恵,フクオカケン,クルメシ,タヌシマルマチイマエ,福岡県久留米市田主丸町以真恵
8391224,福岡県,久留米市,田主丸町牧,フクオカケン,クルメシ,タヌシマルマチマキ,福岡県久留米市田主丸町牧
8391225,福岡県,久留米市,田主丸町菅原,フクオカケン,クルメシ,タヌシマルマチスガハラ,福岡県久留米市田主丸町菅原
8391226,福岡県,久留米市,田主丸町八幡,フクオカケン,クルメシ,タヌシマルマチヤハタ,福岡県久留米市田主丸町八幡
8391227,福岡県,久留米市,田主丸町朝森,フクオカケン,クルメシ,タヌシマルマチアサモリ,福岡県久留米市田主丸町朝森
8391228,福岡県,久留米市,田主丸町恵利,フクオカケン,クルメシ,タヌシマルマチエリ,福岡県久留米市田主丸町恵利
8391231,福岡県,久留米市,田主丸町野田,フクオカケン,クルメシ,タヌシマルマチノダ,福岡県久留米市田主丸町野田
8391232,福岡県,久留米市,田主丸町常盤,フクオカケン,クルメシ,タヌシマルマチトキワ,福岡県久留米市田主丸町常盤
8391233,福岡県,久留米市,田主丸町田主丸,フクオカケン,クルメシ,タヌシマルマチタヌシマル,福岡県久留米市田主丸町田主丸
8391234,福岡県,久留米市,田主丸町豊城,フクオカケン,クルメシ,タヌシマルマチトヨキ,福岡県久留米市田主丸町豊城
8391301,福岡県,うきは市,吉井町桜井,フクオカケン,ウキハシ,ヨシイマチサクライ,福岡県うきは市吉井町桜井
8391302,福岡県,うきは市,吉井町徳丸,フクオカケン,ウキハシ,ヨシイマチトクマル,福岡県うきは市吉井町徳丸
8391303,福岡県,うきは市,吉井町宮田,フクオカケン,ウキハシ,ヨシイマチミヤダ,福岡県うきは市吉井町宮田
8391304,福岡県,うきは市,吉井町千年,フクオカケン,ウキハシ,ヨシイマチチトセ,福岡県うきは市吉井町千年
8391305,福岡県,うきは市,吉井町福永,フクオカケン,ウキハシ,ヨシイマチフクナガ,福岡県うきは市吉井町福永
8391306,福岡県,うきは市,吉井町新治,フクオカケン,ウキハシ,ヨシイマチニイハル,福岡県うきは市吉井町新治
8391307,福岡県,うきは市,吉井町橘田,フクオカケン,ウキハシ,ヨシイマチタチバナダ,福岡県うきは市吉井町橘田
8391308,福岡県,うきは市,吉井町八和田,フクオカケン,ウキハシ,ヨシイマチヤワタ,福岡県うきは市吉井町八和田
8391311,福岡県,うきは市,吉井町若宮,フクオカケン,ウキハシ,ヨシイマチワカミヤ,福岡県うきは市吉井町若宮
8391312,福岡県,うきは市,吉井町清瀬,フクオカケン,ウキハシ,ヨシイマチキヨセ,福岡県うきは市吉井町清瀬
8391321,福岡県,うきは市,吉井町,フクオカケン,ウキハシ,ヨシイマチ,福岡県うきは市吉井町
8391331,福岡県,うきは市,吉井町屋部,フクオカケン,ウキハシ,ヨシイマチヤベ,福岡県うきは市吉井町屋部
8391332,福岡県,うきは市,吉井町福益,フクオカケン,ウキハシ,ヨシイマチフクマス,福岡県うきは市吉井町福益
8391333,福岡県,うきは市,吉井町富永,フクオカケン,ウキハシ,ヨシイマチトミナガ,福岡県うきは市吉井町富永
8391341,福岡県,うきは市,吉井町江南,フクオカケン,ウキハシ,ヨシイマチエナミ,福岡県うきは市吉井町江南
8391342,福岡県,うきは市,吉井町生葉,フクオカケン,ウキハシ,ヨシイマチイクハ,福岡県うきは市吉井町生葉
8391343,福岡県,うきは市,吉井町鷹取,フクオカケン,ウキハシ,ヨシイマチタカトリ,福岡県うきは市吉井町鷹取
8391344,福岡県,うきは市,吉井町長栖,フクオカケン,ウキハシ,ヨシイマチナガス,福岡県うきは市吉井町長栖
8391400,福岡県,うきは市,,フクオカケン,ウキハシ,,福岡県うきは市
8391401,福岡県,うきは市,浮羽町朝田,フクオカケン,ウキハシ,ウキハマチアサダ,福岡県うきは市浮羽町朝田
8391402,福岡県,うきは市,浮羽町浮羽,フクオカケン,ウキハシ,ウキハマチウキハ,福岡県うきは市浮羽町浮羽
8391403,福岡県,うきは市,浮羽町東隈上,フクオカケン,ウキハシ,ウキハマチヒガシクマノウエ,福岡県うきは市浮羽町東隈上
8391404,福岡県,うきは市,浮羽町西隈上,フクオカケン,ウキハシ,ウキハマチニシクマノウエ,福岡県うきは市浮羽町西隈上
8391405,福岡県,うきは市,浮羽町古川,フクオカケン,ウキハシ,ウキハマチフルカワ,福岡県うきは市浮羽町古川
8391406,福岡県,うきは市,浮羽町高見,フクオカケン,ウキハシ,ウキハマチタカミ,福岡県うきは市浮羽町高見
8391407,福岡県,うきは市,浮羽町三春,フクオカケン,ウキハシ,ウキハマチミハル,福岡県うきは市浮羽町三春
8391408,福岡県,うきは市,浮羽町山北,フクオカケン,ウキハシ,ウキハマチヤマキタ,福岡県うきは市浮羽町山北
8391411,福岡県,うきは市,浮羽町流川,フクオカケン,ウキハシ,ウキハマチナガレカワ,福岡県うきは市浮羽町流川
8391412,福岡県,うきは市,浮羽町小塩,フクオカケン,ウキハシ,ウキハマチコジオ,福岡県うきは市浮羽町小塩
8391413,福岡県,うきは市,浮羽町新川,フクオカケン,ウキハシ,ウキハマチニイカワ,福岡県うきは市浮羽町新川
8391414,福岡県,うきは市,浮羽町田篭,フクオカケン,ウキハシ,ウキハマチタゴモリ,福岡県うきは市浮羽町田篭
8391415,福岡県,うきは市,浮羽町妹川,フクオカケン,ウキハシ,ウキハマチイモガワ,福岡県うきは市浮羽町妹川
8710000,福岡県,築上郡吉富町,,フクオカケン,チクジョウグンヨシトミマチ,,福岡県築上郡吉富町
8710226,福岡県,築上郡上毛町,原井（有野）,フクオカケン,チクジョウグンコウゲマチ,ハライ(アリノ),福岡県築上郡上毛町原井（有野）
8710801,福岡県,築上郡吉富町,小祝,フクオカケン,チクジョウグンヨシトミマチ,コイワイ,福岡県築上郡吉富町小祝
8710802,福岡県,築上郡吉富町,小犬丸,フクオカケン,チクジョウグンヨシトミマチ,コイヌマル,福岡県築上郡吉富町小犬丸
8710811,福岡県,築上郡吉富町,広津,フクオカケン,チクジョウグンヨシトミマチ,ヒロツ,福岡県築上郡吉富町広津
8710821,福岡県,築上郡吉富町,幸子,フクオカケン,チクジョウグンヨシトミマチ,コウジ,福岡県築上郡吉富町幸子
8710822,福岡県,築上郡吉富町,今吉,フクオカケン,チクジョウグンヨシトミマチ,イマヨシ,福岡県築上郡吉富町今吉
8710823,福岡県,築上郡吉富町,別府,フクオカケン,チクジョウグンヨシトミマチ,ビョウ,福岡県築上郡吉富町別府
8710831,福岡県,築上郡吉富町,直江,フクオカケン,チクジョウグンヨシトミマチ,ナオエ,福岡県築上郡吉富町直江
8710832,福岡県,築上郡吉富町,鈴熊,フクオカケン,チクジョウグンヨシトミマチ,スズクマ,福岡県築上郡吉富町鈴熊
8710833,福岡県,築上郡吉富町,楡生,フクオカケン,チクジョウグンヨシトミマチ,ニリョウ,福岡県築上郡吉富町楡生
8710834,福岡県,築上郡吉富町,土屋,フクオカケン,チクジョウグンヨシトミマチ,ツチヤ,福岡県築上郡吉富町土屋
8710900,福岡県,築上郡上毛町,,フクオカケン,チクジョウグンコウゲマチ,,福岡県築上郡上毛町
8710901,福岡県,築上郡上毛町,成恒,フクオカケン,チクジョウグンコウゲマチ,ナリツネ,福岡県築上郡上毛町成恒
8710902,福岡県,築上郡上毛町,大ノ瀬,フクオカケン,チクジョウグンコウゲマチ,ダイノセ,福岡県築上郡上毛町大ノ瀬
8710903,福岡県,築上郡上毛町,八ツ並,フクオカケン,チクジョウグンコウゲマチ,ヤツナミ,福岡県築上郡上毛町八ツ並
8710904,福岡県,築上郡上毛町,安雲,フクオカケン,チクジョウグンコウゲマチ,アクモ,福岡県築上郡上毛町安雲
8710905,福岡県,築上郡上毛町,尻高,フクオカケン,チクジョウグンコウゲマチ,シダカ,福岡県築上郡上毛町尻高
8710906,福岡県,築上郡上毛町,矢方,フクオカケン,チクジョウグンコウゲマチ,ヤカタ,福岡県築上郡上毛町矢方
8710907,福岡県,築上郡上毛町,緒方,フクオカケン,チクジョウグンコウゲマチ,オガタ,福岡県築上郡上毛町緒方
8710911,福岡県,築上郡上毛町,中村,フクオカケン,チクジョウグンコウゲマチ,ナカムラ,福岡県築上郡上毛町中村
8710912,福岡県,築上郡上毛町,吉岡,フクオカケン,チクジョウグンコウゲマチ,ヨシオカ,福岡県築上郡上毛町吉岡
8710913,福岡県,築上郡上毛町,垂水,フクオカケン,チクジョウグンコウゲマチ,タルミ,福岡県築上郡上毛町垂水
8710914,福岡県,築上郡上毛町,宇野,フクオカケン,チクジョウグンコウゲマチ,ウノ,福岡県築上郡上毛町宇野
8710921,福岡県,築上郡上毛町,土佐井,フクオカケン,チクジョウグンコウゲマチ,ツチサイ,福岡県築上郡上毛町土佐井
8710922,福岡県,築上郡上毛町,東下,フクオカケン,チクジョウグンコウゲマチ,ヒガシシモ,福岡県築上郡上毛町東下
8710923,福岡県,築上郡上毛町,下唐原,フクオカケン,チクジョウグンコウゲマチ,シモトウバル,福岡県築上郡上毛町下唐原
8710924,福岡県,築上郡上毛町,上唐原,フクオカケン,チクジョウグンコウゲマチ,カミトウバル,福岡県築上郡上毛町上唐原
8710925,福岡県,築上郡上毛町,百留,フクオカケン,チクジョウグンコウゲマチ,ヒャクドミ,福岡県築上郡上毛町百留
8710926,福岡県,築上郡上毛町,原井（その他）,フクオカケン,チクジョウグンコウゲマチ,ハライ(ソノタ),福岡県築上郡上毛町原井（その他）
8710927,福岡県,築上郡上毛町,東上,フクオカケン,チクジョウグンコウゲマチ,ヒガシカミ,福岡県築上郡上毛町東上
8710928,福岡県,築上郡上毛町,西友枝,フクオカケン,チクジョウグンコウゲマチ,ニシトモエダ,福岡県築上郡上毛町西友枝
