zipcode,prefecture_name,city,town,prefecture_kana,city_kana,town_kana,normalized_address
8400001,佐賀県,佐賀市,巨勢町修理田,サガケン,サガシ,コセマチシュリタ,佐賀県佐賀市巨勢町修理田
8400002,佐賀県,佐賀市,蓮池町見島,サガケン,サガシ,ハスイケマチミシマ,佐賀県佐賀市蓮池町見島
8400003,佐賀県,佐賀市,蓮池町古賀,サガケン,サガシ,ハスイケマチコガ,佐賀県佐賀市蓮池町古賀
8400004,佐賀県,佐賀市,蓮池町小松,サガケン,サガシ,ハスイケマチコマツ,佐賀県佐賀市蓮池町小松
8400005,佐賀県,佐賀市,蓮池町蓮池,サガケン,サガシ,ハスイケマチハスイケ,佐賀県佐賀市蓮池町蓮池
8400006,佐賀県,佐賀市,巨勢町東西,サガケン,サガシ,コセマチトウザイ,佐賀県佐賀市巨勢町東西
8400007,佐賀県,佐賀市,巨勢町高尾,サガケン,サガシ,コセマチタカオ,佐賀県佐賀市巨勢町高尾
8400008,佐賀県,佐賀市,巨勢町牛島,サガケン,サガシ,コセマチウシジマ,佐賀県佐賀市巨勢町牛島
8400011,佐賀県,佐賀市,北川副町江上,サガケン,サガシ,キタカワソエマチエガミ,佐賀県佐賀市北川副町江上
8400012,佐賀県,佐賀市,北川副町光法,サガケン,サガシ,キタカワソエマチミツノリ,佐賀県佐賀市北川副町光法
8400013,佐賀県,佐賀市,北川副町新郷,サガケン,サガシ,キタカワソエマチシンゴウ,佐賀県佐賀市北川副町新郷
8400015,佐賀県,佐賀市,木原,サガケン,サガシ,キハラ,佐賀県佐賀市木原
8400016,佐賀県,佐賀市,南佐賀,サガケン,サガシ,ミナミサガ,佐賀県佐賀市南佐賀
8400017,佐賀県,佐賀市,新郷本町,サガケン,サガシ,シンゴウホンマチ,佐賀県佐賀市新郷本町
8400021,佐賀県,佐賀市,鬼丸町,サガケン,サガシ,オニマルチョウ,佐賀県佐賀市鬼丸町
8400022,佐賀県,佐賀市,中の館町,サガケン,サガシ,ナカノタテマチ,佐賀県佐賀市中の館町
8400023,佐賀県,佐賀市,本庄町袋,サガケン,サガシ,ホンジョウマチフクロ,佐賀県佐賀市本庄町袋
8400024,佐賀県,佐賀市,本庄町末次,サガケン,サガシ,ホンジョウマチスエツグ,佐賀県佐賀市本庄町末次
8400025,佐賀県,佐賀市,本庄町鹿子,サガケン,サガシ,ホンジョウマチカノコ,佐賀県佐賀市本庄町鹿子
8400026,佐賀県,佐賀市,本庄町正里,サガケン,サガシ,ホンジョウマチショウリ,佐賀県佐賀市本庄町正里
8400027,佐賀県,佐賀市,本庄町本庄,サガケン,サガシ,ホンジョウマチホンジョウ,佐賀県佐賀市本庄町本庄
8400031,佐賀県,佐賀市,下田町,サガケン,サガシ,シモダマチ,佐賀県佐賀市下田町
8400032,佐賀県,佐賀市,末広,サガケン,サガシ,スエヒロ,佐賀県佐賀市末広
8400033,佐賀県,佐賀市,光,サガケン,サガシ,ヒカリ,佐賀県佐賀市光
8400034,佐賀県,佐賀市,西与賀町厘外,サガケン,サガシ,ニシヨカマチリンゲ,佐賀県佐賀市西与賀町厘外
8400035,佐賀県,佐賀市,西与賀町今津,サガケン,サガシ,ニシヨカマチイマヅ,佐賀県佐賀市西与賀町今津
8400036,佐賀県,佐賀市,西与賀町高太郎,サガケン,サガシ,ニシヨカマチタカタロウ,佐賀県佐賀市西与賀町高太郎
8400037,佐賀県,佐賀市,西与賀町相応津,サガケン,サガシ,ニシヨカマチソウオウツ,佐賀県佐賀市西与賀町相応津
8400041,佐賀県,佐賀市,城内,サガケン,サガシ,ジョウナイ,佐賀県佐賀市城内
8400042,佐賀県,佐賀市,赤松町,サガケン,サガシ,アカマツマチ,佐賀県佐賀市赤松町
8400043,佐賀県,佐賀市,精町,サガケン,サガシ,シラゲマチ,佐賀県佐賀市精町
8400044,佐賀県,佐賀市,道祖元町,サガケン,サガシ,サヤノモトマチ,佐賀県佐賀市道祖元町
8400045,佐賀県,佐賀市,西田代,サガケン,サガシ,ニシタシロ,佐賀県佐賀市西田代
8400046,佐賀県,佐賀市,西魚町,サガケン,サガシ,ニシウオマチ,佐賀県佐賀市西魚町
8400047,佐賀県,佐賀市,与賀町,サガケン,サガシ,ヨカマチ,佐賀県佐賀市与賀町
8400051,佐賀県,佐賀市,田代,サガケン,サガシ,タシロ,佐賀県佐賀市田代
8400052,佐賀県,佐賀市,今宿町,サガケン,サガシ,イマシュクマチ,佐賀県佐賀市今宿町
8400053,佐賀県,佐賀市,朝日町,サガケン,サガシ,アサヒマチ,佐賀県佐賀市朝日町
8400054,佐賀県,佐賀市,水ケ江,サガケン,サガシ,ミズガエ,佐賀県佐賀市水ケ江
8400055,佐賀県,佐賀市,材木,サガケン,サガシ,ザイモク,佐賀県佐賀市材木
8400056,佐賀県,佐賀市,紺屋町,サガケン,サガシ,コンヤマチ,佐賀県佐賀市紺屋町
8400201,佐賀県,佐賀市,大和町尼寺,サガケン,サガシ,ヤマトチョウニイジ,佐賀県佐賀市大和町尼寺
8400202,佐賀県,佐賀市,大和町久池井,サガケン,サガシ,ヤマトチョウクチイ,佐賀県佐賀市大和町久池井
8400203,佐賀県,佐賀市,大和町梅野,サガケン,サガシ,ヤマトチョウウメノ,佐賀県佐賀市大和町梅野
8400204,佐賀県,佐賀市,大和町松瀬,サガケン,サガシ,ヤマトチョウマツセ,佐賀県佐賀市大和町松瀬
8400205,佐賀県,佐賀市,大和町名尾,サガケン,サガシ,ヤマトチョウナオ,佐賀県佐賀市大和町名尾
8400211,佐賀県,佐賀市,大和町東山田,サガケン,サガシ,ヤマトチョウヒガシヤマダ,佐賀県佐賀市大和町東山田
8400212,佐賀県,佐賀市,大和町池上,サガケン,サガシ,ヤマトチョウイケノウエ,佐賀県佐賀市大和町池上
8400213,佐賀県,佐賀市,大和町久留間,サガケン,サガシ,ヤマトチョウクルマ,佐賀県佐賀市大和町久留間
8400214,佐賀県,佐賀市,大和町川上,サガケン,サガシ,ヤマトチョウカワカミ,佐賀県佐賀市大和町川上
8400215,佐賀県,佐賀市,大和町八反原,サガケン,サガシ,ヤマトチョウハッタバル,佐賀県佐賀市大和町八反原
8400501,佐賀県,佐賀市,富士町古湯,サガケン,サガシ,フジチョウフルユ,佐賀県佐賀市富士町古湯
8400502,佐賀県,佐賀市,富士町杉山,サガケン,サガシ,フジチョウスギヤマ,佐賀県佐賀市富士町杉山
8400503,佐賀県,佐賀市,富士町市川,サガケン,サガシ,フジチョウイチカワ,佐賀県佐賀市富士町市川
8400504,佐賀県,佐賀市,富士町苣木,サガケン,サガシ,フジチョウチャノキ,佐賀県佐賀市富士町苣木
8400511,佐賀県,佐賀市,富士町鎌原,サガケン,サガシ,フジチョウカマバル,佐賀県佐賀市富士町鎌原
8400512,佐賀県,佐賀市,富士町上熊川,サガケン,サガシ,フジチョウカミクマカワ,佐賀県佐賀市富士町上熊川
8400513,佐賀県,佐賀市,富士町下熊川,サガケン,サガシ,フジチョウシモクマカワ,佐賀県佐賀市富士町下熊川
8400514,佐賀県,佐賀市,富士町内野,サガケン,サガシ,フジチョウウチノ,佐賀県佐賀市富士町内野
8400515,佐賀県,佐賀市,富士町松瀬,サガケン,サガシ,フジチョウマツセ,佐賀県佐賀市富士町松瀬
8400516,佐賀県,佐賀市,富士町梅野,サガケン,サガシ,フジチョウウメノ,佐賀県佐賀市富士町梅野
8400521,佐賀県,佐賀市,富士町小副川,サガケン,サガシ,フジチョウオソエガワ,佐賀県佐賀市富士町小副川
8400522,佐賀県,佐賀市,富士町畑瀬,サガケン,サガシ,フジチョウハタセ,佐賀県佐賀市富士町畑瀬
8400531,佐賀県,佐賀市,富士町栗並,サガケン,サガシ,フジチョウクリナミ,佐賀県佐賀市富士町栗並
8400532,佐賀県,佐賀市,富士町大野,サガケン,サガシ,フジチョウオオノ,佐賀県佐賀市富士町大野
8400533,佐賀県,佐賀市,富士町大串,サガケン,サガシ,フジチョウオオクシ,佐賀県佐賀市富士町大串
8400534,佐賀県,佐賀市,富士町中原,サガケン,サガシ,フジチョウナカバル,佐賀県佐賀市富士町中原
8400535,佐賀県,佐賀市,富士町下無津呂,サガケン,サガシ,フジチョウシモムツロ,佐賀県佐賀市富士町下無津呂
8400536,佐賀県,佐賀市,富士町上無津呂,サガケン,サガシ,フジチョウカミムツロ,佐賀県佐賀市富士町上無津呂
8400537,佐賀県,佐賀市,富士町麻那古,サガケン,サガシ,フジチョウマナゴ,佐賀県佐賀市富士町麻那古
8400541,佐賀県,佐賀市,富士町関屋,サガケン,サガシ,フジチョウセキヤ,佐賀県佐賀市富士町関屋
8400542,佐賀県,佐賀市,富士町藤瀬,サガケン,サガシ,フジチョウフジセ,佐賀県佐賀市富士町藤瀬
8400543,佐賀県,佐賀市,富士町古場,サガケン,サガシ,フジチョウコバ,佐賀県佐賀市富士町古場
8400544,佐賀県,佐賀市,富士町下合瀬,サガケン,サガシ,フジチョウシモオオセ,佐賀県佐賀市富士町下合瀬
8400545,佐賀県,佐賀市,富士町上合瀬,サガケン,サガシ,フジチョウカミオオセ,佐賀県佐賀市富士町上合瀬
8400801,佐賀県,佐賀市,駅前中央,サガケン,サガシ,エキマエチュウオウ,佐賀県佐賀市駅前中央
8400802,佐賀県,佐賀市,大財北町,サガケン,サガシ,オオタカラキタマチ,佐賀県佐賀市大財北町
8400803,佐賀県,佐賀市,栄町,サガケン,サガシ,サカエマチ,佐賀県佐賀市栄町
8400804,佐賀県,佐賀市,神野東,サガケン,サガシ,コウノヒガシ,佐賀県佐賀市神野東
8400805,佐賀県,佐賀市,神野西,サガケン,サガシ,コウノニシ,佐賀県佐賀市神野西
8400806,佐賀県,佐賀市,神園,サガケン,サガシ,カミゾノ,佐賀県佐賀市神園
8400811,佐賀県,佐賀市,大財,サガケン,サガシ,オオタカラ,佐賀県佐賀市大財
8400812,佐賀県,佐賀市,愛敬町,サガケン,サガシ,アイケイチョウ,佐賀県佐賀市愛敬町
8400813,佐賀県,佐賀市,唐人,サガケン,サガシ,トウジン,佐賀県佐賀市唐人
8400814,佐賀県,佐賀市,成章町,サガケン,サガシ,セイショウマチ,佐賀県佐賀市成章町
8400815,佐賀県,佐賀市,天神,サガケン,サガシ,テンジン,佐賀県佐賀市天神
8400816,佐賀県,佐賀市,駅南本町,サガケン,サガシ,エキミナミホンマチ,佐賀県佐賀市駅南本町
8400821,佐賀県,佐賀市,東佐賀町,サガケン,サガシ,ヒガシサガマチ,佐賀県佐賀市東佐賀町
8400822,佐賀県,佐賀市,高木町,サガケン,サガシ,タカギマチ,佐賀県佐賀市高木町
8400823,佐賀県,佐賀市,柳町,サガケン,サガシ,ヤナギマチ,佐賀県佐賀市柳町
8400824,佐賀県,佐賀市,呉服元町,サガケン,サガシ,ゴフクモトマチ,佐賀県佐賀市呉服元町
8400825,佐賀県,佐賀市,中央本町,サガケン,サガシ,チュウオウホンマチ,佐賀県佐賀市中央本町
8400826,佐賀県,佐賀市,白山,サガケン,サガシ,シラヤマ,佐賀県佐賀市白山
8400831,佐賀県,佐賀市,松原,サガケン,サガシ,マツバラ,佐賀県佐賀市松原
8400832,佐賀県,佐賀市,堀川町,サガケン,サガシ,ホリカワチョウ,佐賀県佐賀市堀川町
8400833,佐賀県,佐賀市,中の小路,サガケン,サガシ,ナカノコウジ,佐賀県佐賀市中の小路
8400834,佐賀県,佐賀市,八幡小路,サガケン,サガシ,ハチマンコウジ,佐賀県佐賀市八幡小路
8400841,佐賀県,佐賀市,緑小路,サガケン,サガシ,ミドリコウジ,佐賀県佐賀市緑小路
8400842,佐賀県,佐賀市,多布施,サガケン,サガシ,タフセ,佐賀県佐賀市多布施
8400843,佐賀県,佐賀市,川原町,サガケン,サガシ,カワハラマチ,佐賀県佐賀市川原町
8400844,佐賀県,佐賀市,伊勢町,サガケン,サガシ,イセマチ,佐賀県佐賀市伊勢町
8400845,佐賀県,佐賀市,六座町,サガケン,サガシ,ロクザマチ,佐賀県佐賀市六座町
8400850,佐賀県,佐賀市,新栄東,サガケン,サガシ,シンエイヒガシ,佐賀県佐賀市新栄東
8400851,佐賀県,佐賀市,天祐,サガケン,サガシ,テンユウ,佐賀県佐賀市天祐
8400852,佐賀県,佐賀市,中折町,サガケン,サガシ,ナカオレマチ,佐賀県佐賀市中折町
8400853,佐賀県,佐賀市,長瀬町,サガケン,サガシ,ナガセマチ,佐賀県佐賀市長瀬町
8400854,佐賀県,佐賀市,八戸,サガケン,サガシ,ヤエ,佐賀県佐賀市八戸
8400855,佐賀県,佐賀市,昭栄町,サガケン,サガシ,ショウエイマチ,佐賀県佐賀市昭栄町
8400856,佐賀県,佐賀市,新生町,サガケン,サガシ,シンセイマチ,佐賀県佐賀市新生町
8400857,佐賀県,佐賀市,鍋島町八戸,サガケン,サガシ,ナベシママチヤエ,佐賀県佐賀市鍋島町八戸
8400858,佐賀県,佐賀市,天祐団地,サガケン,サガシ,テンユウダンチ,佐賀県佐賀市天祐団地
8400859,佐賀県,佐賀市,新栄西,サガケン,サガシ,シンエイニシ,佐賀県佐賀市新栄西
8400861,佐賀県,佐賀市,嘉瀬町中原,サガケン,サガシ,カセマチナカバル,佐賀県佐賀市嘉瀬町中原
8400862,佐賀県,佐賀市,嘉瀬町扇町,サガケン,サガシ,カセマチオウギマチ,佐賀県佐賀市嘉瀬町扇町
8400863,佐賀県,佐賀市,嘉瀬町十五,サガケン,サガシ,カセマチジュウゴ,佐賀県佐賀市嘉瀬町十五
8400864,佐賀県,佐賀市,嘉瀬町荻野,サガケン,サガシ,カセマチオギノ,佐賀県佐賀市嘉瀬町荻野
8401101,佐賀県,三養基郡みやき町,西島,サガケン,ミヤキグンミヤキチョウ,ニシジマ,佐賀県三養基郡みやき町西島
8401102,佐賀県,三養基郡みやき町,天建寺,サガケン,ミヤキグンミヤキチョウ,テンケンジ,佐賀県三養基郡みやき町天建寺
8401103,佐賀県,三養基郡みやき町,坂口,サガケン,ミヤキグンミヤキチョウ,サカグチ,佐賀県三養基郡みやき町坂口
8401104,佐賀県,三養基郡みやき町,東津,サガケン,ミヤキグンミヤキチョウ,ヒガシツ,佐賀県三養基郡みやき町東津
8401105,佐賀県,三養基郡みやき町,寄人,サガケン,ミヤキグンミヤキチョウ,ヨリウト,佐賀県三養基郡みやき町寄人
8401106,佐賀県,三養基郡みやき町,市武,サガケン,ミヤキグンミヤキチョウ,イチタケ,佐賀県三養基郡みやき町市武
8402101,佐賀県,佐賀市,諸富町大堂,サガケン,サガシ,モロドミチョウオオドウ,佐賀県佐賀市諸富町大堂
8402102,佐賀県,佐賀市,諸富町為重,サガケン,サガシ,モロドミチョウタメシゲ,佐賀県佐賀市諸富町為重
8402103,佐賀県,佐賀市,諸富町寺井津,サガケン,サガシ,モロドミチョウテライツ,佐賀県佐賀市諸富町寺井津
8402104,佐賀県,佐賀市,諸富町徳富,サガケン,サガシ,モロドミチョウトクドミ,佐賀県佐賀市諸富町徳富
8402105,佐賀県,佐賀市,諸富町諸富津,サガケン,サガシ,モロドミチョウモロドミツ,佐賀県佐賀市諸富町諸富津
8402106,佐賀県,佐賀市,諸富町山領,サガケン,サガシ,モロドミチョウヤマリョウ,佐賀県佐賀市諸富町山領
8402201,佐賀県,佐賀市,川副町福富,サガケン,サガシ,カワソエマチフクドミ,佐賀県佐賀市川副町福富
8402202,佐賀県,佐賀市,川副町早津江津,サガケン,サガシ,カワソエマチハヤツエツ,佐賀県佐賀市川副町早津江津
8402203,佐賀県,佐賀市,川副町早津江,サガケン,サガシ,カワソエマチハヤツエ,佐賀県佐賀市川副町早津江
8402204,佐賀県,佐賀市,川副町西古賀,サガケン,サガシ,カワソエマチニシコガ,佐賀県佐賀市川副町西古賀
8402205,佐賀県,佐賀市,川副町南里,サガケン,サガシ,カワソエマチナンリ,佐賀県佐賀市川副町南里
8402211,佐賀県,佐賀市,川副町大詫間,サガケン,サガシ,カワソエマチオオダクマ,佐賀県佐賀市川副町大詫間
8402212,佐賀県,佐賀市,川副町犬井道,サガケン,サガシ,カワソエマチイヌイドウ,佐賀県佐賀市川副町犬井道
8402213,佐賀県,佐賀市,川副町鹿江,サガケン,サガシ,カワソエマチカノエ,佐賀県佐賀市川副町鹿江
8402214,佐賀県,佐賀市,川副町小々森,サガケン,サガシ,カワソエマチコゴモリ,佐賀県佐賀市川副町小々森
8402221,佐賀県,佐賀市,東与賀町下古賀,サガケン,サガシ,ヒガシヨカチョウシモコガ,佐賀県佐賀市東与賀町下古賀
8402222,佐賀県,佐賀市,東与賀町田中,サガケン,サガシ,ヒガシヨカチョウタナカ,佐賀県佐賀市東与賀町田中
8402223,佐賀県,佐賀市,東与賀町飯盛,サガケン,サガシ,ヒガシヨカチョウイサガイ,佐賀県佐賀市東与賀町飯盛
8410000,佐賀県,鳥栖市,,サガケン,トスシ,,佐賀県鳥栖市
8410001,佐賀県,鳥栖市,今町,サガケン,トスシ,イママチ,佐賀県鳥栖市今町
8410002,佐賀県,鳥栖市,柚比町,サガケン,トスシ,ユビマチ,佐賀県鳥栖市柚比町
8410003,佐賀県,鳥栖市,加藤田町,サガケン,トスシ,カトウダマチ,佐賀県鳥栖市加藤田町
8410004,佐賀県,鳥栖市,神辺町,サガケン,トスシ,コウノエマチ,佐賀県鳥栖市神辺町
8410005,佐賀県,鳥栖市,弥生が丘,サガケン,トスシ,ヤヨイガオカ,佐賀県鳥栖市弥生が丘
8410011,佐賀県,鳥栖市,永吉町,サガケン,トスシ,ナガヨシマチ,佐賀県鳥栖市永吉町
8410012,佐賀県,鳥栖市,田代昌町,サガケン,トスシ,タシロショウマチ,佐賀県鳥栖市田代昌町
8410013,佐賀県,鳥栖市,田代新町,サガケン,トスシ,タシロシンマチ,佐賀県鳥栖市田代新町
8410014,佐賀県,鳥栖市,桜町,サガケン,トスシ,サクラマチ,佐賀県鳥栖市桜町
8410015,佐賀県,鳥栖市,田代上町,サガケン,トスシ,タシロカンマチ,佐賀県鳥栖市田代上町
8410016,佐賀県,鳥栖市,田代外町,サガケン,トスシ,タシロホカマチ,佐賀県鳥栖市田代外町
8410017,佐賀県,鳥栖市,田代大官町,サガケン,トスシ,タシロダイカンマチ,佐賀県鳥栖市田代大官町
8410018,佐賀県,鳥栖市,田代本町,サガケン,トスシ,タシロホンマチ,佐賀県鳥栖市田代本町
8410021,佐賀県,鳥栖市,幡崎町,サガケン,トスシ,ハタザキマチ,佐賀県鳥栖市幡崎町
8410022,佐賀県,鳥栖市,飯田町,サガケン,トスシ,イイダマチ,佐賀県鳥栖市飯田町
8410023,佐賀県,鳥栖市,姫方町,サガケン,トスシ,ヒメカタマチ,佐賀県鳥栖市姫方町
8410024,佐賀県,鳥栖市,原町,サガケン,トスシ,ハルマチ,佐賀県鳥栖市原町
8410025,佐賀県,鳥栖市,曽根崎町,サガケン,トスシ,ソネザキマチ,佐賀県鳥栖市曽根崎町
8410026,佐賀県,鳥栖市,本鳥栖町,サガケン,トスシ,ホンドスマチ,佐賀県鳥栖市本鳥栖町
8410027,佐賀県,鳥栖市,松原町,サガケン,トスシ,マツバラマチ,佐賀県鳥栖市松原町
8410031,佐賀県,鳥栖市,鎗田町,サガケン,トスシ,ヤリタマチ,佐賀県鳥栖市鎗田町
8410032,佐賀県,鳥栖市,大正町,サガケン,トスシ,タイショウマチ,佐賀県鳥栖市大正町
8410033,佐賀県,鳥栖市,本通町,サガケン,トスシ,ホンドオリマチ,佐賀県鳥栖市本通町
8410034,佐賀県,鳥栖市,京町,サガケン,トスシ,キョウマチ,佐賀県鳥栖市京町
8410035,佐賀県,鳥栖市,東町,サガケン,トスシ,ヒガシマチ,佐賀県鳥栖市東町
8410036,佐賀県,鳥栖市,秋葉町,サガケン,トスシ,アキバマチ,佐賀県鳥栖市秋葉町
8410037,佐賀県,鳥栖市,本町,サガケン,トスシ,ホンマチ,佐賀県鳥栖市本町
8410038,佐賀県,鳥栖市,古野町,サガケン,トスシ,フルノマチ,佐賀県鳥栖市古野町
8410039,佐賀県,鳥栖市,土井町,サガケン,トスシ,ドイマチ,佐賀県鳥栖市土井町
8410041,佐賀県,鳥栖市,酒井東町,サガケン,トスシ,サカイヒガシマチ,佐賀県鳥栖市酒井東町
8410042,佐賀県,鳥栖市,酒井西町,サガケン,トスシ,サカイニシマチ,佐賀県鳥栖市酒井西町
8410043,佐賀県,鳥栖市,水屋町,サガケン,トスシ,ミズヤマチ,佐賀県鳥栖市水屋町
8410044,佐賀県,鳥栖市,高田町,サガケン,トスシ,タカタマチ,佐賀県鳥栖市高田町
8410045,佐賀県,鳥栖市,安楽寺町,サガケン,トスシ,アンラクジマチ,佐賀県鳥栖市安楽寺町
8410046,佐賀県,鳥栖市,真木町,サガケン,トスシ,マキマチ,佐賀県鳥栖市真木町
8410047,佐賀県,鳥栖市,今泉町,サガケン,トスシ,イマイズミマチ,佐賀県鳥栖市今泉町
8410048,佐賀県,鳥栖市,藤木町,サガケン,トスシ,フジノキマチ,佐賀県鳥栖市藤木町
8410051,佐賀県,鳥栖市,元町,サガケン,トスシ,モトマチ,佐賀県鳥栖市元町
8410052,佐賀県,鳥栖市,宿町,サガケン,トスシ,シュクマチ,佐賀県鳥栖市宿町
8410053,佐賀県,鳥栖市,布津原町,サガケン,トスシ,フツハラマチ,佐賀県鳥栖市布津原町
8410054,佐賀県,鳥栖市,蔵上町,サガケン,トスシ,クラノウエマチ,佐賀県鳥栖市蔵上町
8410055,佐賀県,鳥栖市,養父町,サガケン,トスシ,ヤブマチ,佐賀県鳥栖市養父町
8410056,佐賀県,鳥栖市,蔵上,サガケン,トスシ,クラノウエ,佐賀県鳥栖市蔵上
8410061,佐賀県,鳥栖市,轟木町,サガケン,トスシ,トドロキマチ,佐賀県鳥栖市轟木町
8410062,佐賀県,鳥栖市,幸津町,サガケン,トスシ,サイツマチ,佐賀県鳥栖市幸津町
8410063,佐賀県,鳥栖市,下野町,サガケン,トスシ,シモノマチ,佐賀県鳥栖市下野町
8410064,佐賀県,鳥栖市,三島町,サガケン,トスシ,ミシママチ,佐賀県鳥栖市三島町
8410065,佐賀県,鳥栖市,前田町,サガケン,トスシ,マエダマチ,佐賀県鳥栖市前田町
8410066,佐賀県,鳥栖市,儀徳町,サガケン,トスシ,ギトクマチ,佐賀県鳥栖市儀徳町
8410067,佐賀県,鳥栖市,西田町,サガケン,トスシ,ニシダマチ,佐賀県鳥栖市西田町
8410068,佐賀県,鳥栖市,あさひ新町,サガケン,トスシ,アサヒシンマチ,佐賀県鳥栖市あさひ新町
8410071,佐賀県,鳥栖市,原古賀町,サガケン,トスシ,ハラコガマチ,佐賀県鳥栖市原古賀町
8410072,佐賀県,鳥栖市,村田町,サガケン,トスシ,ムラタマチ,佐賀県鳥栖市村田町
8410073,佐賀県,鳥栖市,江島町,サガケン,トスシ,エジママチ,佐賀県鳥栖市江島町
8410074,佐賀県,鳥栖市,西新町,サガケン,トスシ,ニシシンマチ,佐賀県鳥栖市西新町
8410075,佐賀県,鳥栖市,立石町,サガケン,トスシ,タテイシマチ,佐賀県鳥栖市立石町
8410076,佐賀県,鳥栖市,平田町,サガケン,トスシ,ヒラタマチ,佐賀県鳥栖市平田町
8410081,佐賀県,鳥栖市,萱方町,サガケン,トスシ,カヤカタマチ,佐賀県鳥栖市萱方町
8410082,佐賀県,鳥栖市,浅井町,サガケン,トスシ,アサイマチ,佐賀県鳥栖市浅井町
8410083,佐賀県,鳥栖市,古賀町,サガケン,トスシ,コガマチ,佐賀県鳥栖市古賀町
8410084,佐賀県,鳥栖市,山浦町,サガケン,トスシ,ヤマウラマチ,佐賀県鳥栖市山浦町
8410085,佐賀県,鳥栖市,山都町,サガケン,トスシ,ヤマトマチ,佐賀県鳥栖市山都町
8410086,佐賀県,鳥栖市,牛原町,サガケン,トスシ,ウシワラマチ,佐賀県鳥栖市牛原町
8410087,佐賀県,鳥栖市,河内町,サガケン,トスシ,カワチマチ,佐賀県鳥栖市河内町
8410088,佐賀県,鳥栖市,桜ケ丘町,サガケン,トスシ,サクラガオカマチ,佐賀県鳥栖市桜ケ丘町
8410089,佐賀県,鳥栖市,虹ケ丘町,サガケン,トスシ,ニジガオカマチ,佐賀県鳥栖市虹ケ丘町
8410200,佐賀県,三養基郡基山町,,サガケン,ミヤキグンキヤマチョウ,,佐賀県三養基郡基山町
8410201,佐賀県,三養基郡基山町,小倉,サガケン,ミヤキグンキヤマチョウ,コクラ,佐賀県三養基郡基山町小倉
8410202,佐賀県,三養基郡基山町,長野,サガケン,ミヤキグンキヤマチョウ,ナガノ,佐賀県三養基郡基山町長野
8410203,佐賀県,三養基郡基山町,園部,サガケン,ミヤキグンキヤマチョウ,ソノベ,佐賀県三養基郡基山町園部
8410204,佐賀県,三養基郡基山町,宮浦,サガケン,ミヤキグンキヤマチョウ,ミヤウラ,佐賀県三養基郡基山町宮浦
8410205,佐賀県,三養基郡基山町,けやき台,サガケン,ミヤキグンキヤマチョウ,ケヤキダイ,佐賀県三養基郡基山町けやき台
8420000,佐賀県,神埼市,,サガケン,カンザキシ,,佐賀県神埼市
8420000,佐賀県,神埼郡吉野ヶ里町,,サガケン,カンザキグンヨシノガリチョウ,,佐賀県神埼郡吉野ヶ里町
8420001,佐賀県,神埼市,神埼町神埼,サガケン,カンザキシ,カンザキマチカンザキ,佐賀県神埼市神埼町神埼
8420002,佐賀県,神埼市,神埼町田道ケ里,サガケン,カンザキシ,カンザキマチタミチガリ,佐賀県神埼市神埼町田道ケ里
8420003,佐賀県,神埼市,神埼町本堀,サガケン,カンザキシ,カンザキマチモトホリ,佐賀県神埼市神埼町本堀
8420004,佐賀県,神埼市,神埼町永歌,サガケン,カンザキシ,カンザキマチナガウタ,佐賀県神埼市神埼町永歌
8420005,佐賀県,神埼市,神埼町西小津ケ里,サガケン,カンザキシ,カンザキマチニシオヅガリ,佐賀県神埼市神埼町西小津ケ里
8420006,佐賀県,神埼市,神埼町枝ケ里,サガケン,カンザキシ,カンザキマチエダガリ,佐賀県神埼市神埼町枝ケ里
8420007,佐賀県,神埼市,神埼町鶴（３０００番地以降）,サガケン,カンザキシ,カンザキマチツル(3000バンチイコウ),佐賀県神埼市神埼町鶴（3000-以降）
8420011,佐賀県,神埼市,神埼町竹,サガケン,カンザキシ,カンザキマチタケ,佐賀県神埼市神埼町竹
8420012,佐賀県,神埼市,神埼町横武,サガケン,カンザキシ,カンザキマチヨコタケ,佐賀県神埼市神埼町横武
8420013,佐賀県,神埼市,神埼町本告牟田,サガケン,カンザキシ,カンザキマチモトオリムタ,佐賀県神埼市神埼町本告牟田
8420014,佐賀県,神埼市,神埼町姉川,サガケン,カンザキシ,カンザキマチアネガワ,佐賀県神埼市神埼町姉川
8420015,佐賀県,神埼市,神埼町尾崎,サガケン,カンザキシ,カンザキマチオサキ,佐賀県神埼市神埼町尾崎
8420031,佐賀県,神埼郡吉野ヶ里町,吉田,サガケン,カンザキグンヨシノガリチョウ,ヨシダ,佐賀県神埼郡吉野ヶ里町吉田
8420032,佐賀県,神埼郡吉野ヶ里町,立野,サガケン,カンザキグンヨシノガリチョウ,タテノ,佐賀県神埼郡吉野ヶ里町立野
8420033,佐賀県,神埼郡吉野ヶ里町,豆田,サガケン,カンザキグンヨシノガリチョウ,マメダ,佐賀県神埼郡吉野ヶ里町豆田
8420034,佐賀県,神埼郡吉野ヶ里町,箱川,サガケン,カンザキグンヨシノガリチョウ,ハコガワ,佐賀県神埼郡吉野ヶ里町箱川
8420035,佐賀県,神埼郡吉野ヶ里町,田手,サガケン,カンザキグンヨシノガリチョウ,タデ,佐賀県神埼郡吉野ヶ里町田手
8420051,佐賀県,神埼市,千代田町黒井,サガケン,カンザキシ,チヨダチョウクロイ,佐賀県神埼市千代田町黒井
8420052,佐賀県,神埼市,千代田町姉,サガケン,カンザキシ,チヨダチョウアネ,佐賀県神埼市千代田町姉
8420053,佐賀県,神埼市,千代田町直鳥,サガケン,カンザキシ,チヨダチョウナオトリ,佐賀県神埼市千代田町直鳥
8420054,佐賀県,神埼市,千代田町餘江,サガケン,カンザキシ,チヨダチョウアマリエ,佐賀県神埼市千代田町餘江
8420055,佐賀県,神埼市,千代田町下西,サガケン,カンザキシ,チヨダチョウシモサイ,佐賀県神埼市千代田町下西
8420056,佐賀県,神埼市,千代田町境原,サガケン,カンザキシ,チヨダチョウサカイバル,佐賀県神埼市千代田町境原
8420061,佐賀県,神埼市,千代田町詫田,サガケン,カンザキシ,チヨダチョウタクタ,佐賀県神埼市千代田町詫田
8420062,佐賀県,神埼市,千代田町柳島,サガケン,カンザキシ,チヨダチョウヤナギシマ,佐賀県神埼市千代田町柳島
8420063,佐賀県,神埼市,千代田町迎島,サガケン,カンザキシ,チヨダチョウムカイシマ,佐賀県神埼市千代田町迎島
8420064,佐賀県,神埼市,千代田町渡瀬,サガケン,カンザキシ,チヨダチョウワタゼ,佐賀県神埼市千代田町渡瀬
8420065,佐賀県,神埼市,千代田町崎村,サガケン,カンザキシ,チヨダチョウサキムラ,佐賀県神埼市千代田町崎村
8420066,佐賀県,神埼市,千代田町用作,サガケン,カンザキシ,チヨダチョウヨウサク,佐賀県神埼市千代田町用作
8420067,佐賀県,神埼市,千代田町嘉納,サガケン,カンザキシ,チヨダチョウカノウ,佐賀県神埼市千代田町嘉納
8420068,佐賀県,神埼市,千代田町下板,サガケン,カンザキシ,チヨダチョウシモイタ,佐賀県神埼市千代田町下板
8420101,佐賀県,神埼郡吉野ヶ里町,松隈,サガケン,カンザキグンヨシノガリチョウ,マツグマ,佐賀県神埼郡吉野ヶ里町松隈
8420102,佐賀県,神埼郡吉野ヶ里町,石動,サガケン,カンザキグンヨシノガリチョウ,イシナリ,佐賀県神埼郡吉野ヶ里町石動
8420103,佐賀県,神埼郡吉野ヶ里町,大曲,サガケン,カンザキグンヨシノガリチョウ,オオマガリ,佐賀県神埼郡吉野ヶ里町大曲
8420104,佐賀県,神埼郡吉野ヶ里町,三津,サガケン,カンザキグンヨシノガリチョウ,ミツ,佐賀県神埼郡吉野ヶ里町三津
8420107,佐賀県,神埼市,神埼町鶴（１〜２９９９番地）,サガケン,カンザキシ,カンザキマチツル(1-2999バンチ),佐賀県神埼市神埼町鶴（1〜2999-）
8420121,佐賀県,神埼市,神埼町志波屋,サガケン,カンザキシ,カンザキマチシワヤ,佐賀県神埼市神埼町志波屋
8420122,佐賀県,神埼市,神埼町城原,サガケン,カンザキシ,カンザキマチジョウバル,佐賀県神埼市神埼町城原
8420123,佐賀県,神埼市,神埼町的,サガケン,カンザキシ,カンザキマチイクワ,佐賀県神埼市神埼町的
8420201,佐賀県,神埼市,脊振町広滝,サガケン,カンザキシ,セフリマチヒロタキ,佐賀県神埼市脊振町広滝
8420202,佐賀県,神埼市,脊振町鹿路,サガケン,カンザキシ,セフリマチロクロ,佐賀県神埼市脊振町鹿路
8420203,佐賀県,神埼市,脊振町服巻,サガケン,カンザキシ,セフリマチハラマキ,佐賀県神埼市脊振町服巻
8420301,佐賀県,佐賀市,三瀬村三瀬,サガケン,サガシ,ミツセムラミツセ,佐賀県佐賀市三瀬村三瀬
8420302,佐賀県,佐賀市,三瀬村藤原,サガケン,サガシ,ミツセムラフジバル,佐賀県佐賀市三瀬村藤原
8420303,佐賀県,佐賀市,三瀬村杠,サガケン,サガシ,ミツセムラユズリハ,佐賀県佐賀市三瀬村杠
8430000,佐賀県,武雄市,,サガケン,タケオシ,,佐賀県武雄市
8430001,佐賀県,武雄市,朝日町甘久,サガケン,タケオシ,アサヒチョウアマグ,佐賀県武雄市朝日町甘久
8430002,佐賀県,武雄市,朝日町中野,サガケン,タケオシ,アサヒチョウナカノ,佐賀県武雄市朝日町中野
8430003,佐賀県,武雄市,朝日町芦原,サガケン,タケオシ,アサヒチョウアシハラ,佐賀県武雄市朝日町芦原
8430011,佐賀県,武雄市,橘町芦原,サガケン,タケオシ,タチバナチョウアシハラ,佐賀県武雄市橘町芦原
8430012,佐賀県,武雄市,橘町片白,サガケン,タケオシ,タチバナチョウカタジロ,佐賀県武雄市橘町片白
8430013,佐賀県,武雄市,橘町大日,サガケン,タケオシ,タチバナチョウダイニチ,佐賀県武雄市橘町大日
8430014,佐賀県,武雄市,橘町永島,サガケン,タケオシ,タチバナチョウナガシマ,佐賀県武雄市橘町永島
8430021,佐賀県,武雄市,武雄町永島,サガケン,タケオシ,タケオチョウナガシマ,佐賀県武雄市武雄町永島
8430022,佐賀県,武雄市,武雄町武雄,サガケン,タケオシ,タケオチョウタケオ,佐賀県武雄市武雄町武雄
8430023,佐賀県,武雄市,武雄町昭和,サガケン,タケオシ,タケオチョウショウワ,佐賀県武雄市武雄町昭和
8430024,佐賀県,武雄市,武雄町富岡,サガケン,タケオシ,タケオチョウトミオカ,佐賀県武雄市武雄町富岡
8430151,佐賀県,武雄市,若木町川古,サガケン,タケオシ,ワカキチョウカワゴ,佐賀県武雄市若木町川古
8430152,佐賀県,武雄市,若木町本部,サガケン,タケオシ,ワカキチョウモトベ,佐賀県武雄市若木町本部
8430153,佐賀県,武雄市,若木町桃川,サガケン,タケオシ,ワカキチョウモモノカワ,佐賀県武雄市若木町桃川
8430231,佐賀県,武雄市,西川登町小田志,サガケン,タケオシ,ニシカワノボリチョウコタジ,佐賀県武雄市西川登町小田志
8430232,佐賀県,武雄市,西川登町神六,サガケン,タケオシ,ニシカワノボリチョウジンロク,佐賀県武雄市西川登町神六
8430233,佐賀県,武雄市,東川登町永野,サガケン,タケオシ,ヒガシカワノボリチョウナガノ,佐賀県武雄市東川登町永野
8430234,佐賀県,武雄市,東川登町袴野,サガケン,タケオシ,ヒガシカワノボリチョウハカマノ,佐賀県武雄市東川登町袴野
8430300,佐賀県,嬉野市,,サガケン,ウレシノシ,,佐賀県嬉野市
8430301,佐賀県,嬉野市,嬉野町下宿,サガケン,ウレシノシ,ウレシノマチシモジュク,佐賀県嬉野市嬉野町下宿
8430302,佐賀県,嬉野市,嬉野町下野,サガケン,ウレシノシ,ウレシノマチシモノ,佐賀県嬉野市嬉野町下野
8430303,佐賀県,嬉野市,嬉野町吉田,サガケン,ウレシノシ,ウレシノマチヨシダ,佐賀県嬉野市嬉野町吉田
8430304,佐賀県,嬉野市,嬉野町岩屋川内,サガケン,ウレシノシ,ウレシノマチイワヤガワチ,佐賀県嬉野市嬉野町岩屋川内
8430305,佐賀県,嬉野市,嬉野町不動山,サガケン,ウレシノシ,ウレシノマチフドウヤマ,佐賀県嬉野市嬉野町不動山
8440000,佐賀県,西松浦郡有田町,,サガケン,ニシマツウラグンアリタチョウ,,佐賀県西松浦郡有田町
8440001,佐賀県,西松浦郡有田町,泉山,サガケン,ニシマツウラグンアリタチョウ,イズミヤマ,佐賀県西松浦郡有田町泉山
8440002,佐賀県,西松浦郡有田町,中樽,サガケン,ニシマツウラグンアリタチョウ,ナカダル,佐賀県西松浦郡有田町中樽
8440003,佐賀県,西松浦郡有田町,上幸平,サガケン,ニシマツウラグンアリタチョウ,カミコウヒラ,佐賀県西松浦郡有田町上幸平
8440004,佐賀県,西松浦郡有田町,大樽,サガケン,ニシマツウラグンアリタチョウ,オオダル,佐賀県西松浦郡有田町大樽
8440005,佐賀県,西松浦郡有田町,幸平,サガケン,ニシマツウラグンアリタチョウ,コウビラ,佐賀県西松浦郡有田町幸平
8440006,佐賀県,西松浦郡有田町,赤絵町,サガケン,ニシマツウラグンアリタチョウ,アカエマチ,佐賀県西松浦郡有田町赤絵町
8440007,佐賀県,西松浦郡有田町,白川,サガケン,ニシマツウラグンアリタチョウ,シラカワ,佐賀県西松浦郡有田町白川
8440008,佐賀県,西松浦郡有田町,稗古場,サガケン,ニシマツウラグンアリタチョウ,ヒエコバ,佐賀県西松浦郡有田町稗古場
8440009,佐賀県,西松浦郡有田町,中の原,サガケン,ニシマツウラグンアリタチョウ,ナカノハラ,佐賀県西松浦郡有田町中の原
8440011,佐賀県,西松浦郡有田町,岩谷川内,サガケン,ニシマツウラグンアリタチョウ,イワタニガワチ,佐賀県西松浦郡有田町岩谷川内
8440012,佐賀県,西松浦郡有田町,桑古場,サガケン,ニシマツウラグンアリタチョウ,クワコバ,佐賀県西松浦郡有田町桑古場
8440013,佐賀県,西松浦郡有田町,大野,サガケン,ニシマツウラグンアリタチョウ,オオノ,佐賀県西松浦郡有田町大野
8440014,佐賀県,西松浦郡有田町,戸矢,サガケン,ニシマツウラグンアリタチョウ,トヤ,佐賀県西松浦郡有田町戸矢
8440015,佐賀県,西松浦郡有田町,古木場,サガケン,ニシマツウラグンアリタチョウ,フルコバ,佐賀県西松浦郡有田町古木場
8440016,佐賀県,西松浦郡有田町,境野,サガケン,ニシマツウラグンアリタチョウ,サカイノ,佐賀県西松浦郡有田町境野
8440017,佐賀県,西松浦郡有田町,戸杓,サガケン,ニシマツウラグンアリタチョウ,トシャク,佐賀県西松浦郡有田町戸杓
8440018,佐賀県,西松浦郡有田町,本町,サガケン,ニシマツウラグンアリタチョウ,ホンマチ,佐賀県西松浦郡有田町本町
8440021,佐賀県,西松浦郡有田町,応法,サガケン,ニシマツウラグンアリタチョウ,オウボウ,佐賀県西松浦郡有田町応法
8440022,佐賀県,西松浦郡有田町,黒牟田,サガケン,ニシマツウラグンアリタチョウ,クロムタ,佐賀県西松浦郡有田町黒牟田
8440023,佐賀県,西松浦郡有田町,丸尾,サガケン,ニシマツウラグンアリタチョウ,マルオ,佐賀県西松浦郡有田町丸尾
8440024,佐賀県,西松浦郡有田町,赤坂,サガケン,ニシマツウラグンアリタチョウ,アカサカ,佐賀県西松浦郡有田町赤坂
8440025,佐賀県,西松浦郡有田町,外尾山,サガケン,ニシマツウラグンアリタチョウ,ホカオヤマ,佐賀県西松浦郡有田町外尾山
8440026,佐賀県,西松浦郡有田町,外尾町,サガケン,ニシマツウラグンアリタチョウ,ホカオマチ,佐賀県西松浦郡有田町外尾町
8440027,佐賀県,西松浦郡有田町,南原,サガケン,ニシマツウラグンアリタチョウ,ナンバル,佐賀県西松浦郡有田町南原
8440028,佐賀県,西松浦郡有田町,南山,サガケン,ニシマツウラグンアリタチョウ,ナンザン,佐賀県西松浦郡有田町南山
8450000,佐賀県,小城市,,サガケン,オギシ,,佐賀県小城市
8450001,佐賀県,小城市,小城町,サガケン,オギシ,オギマチ,佐賀県小城市小城町
8450002,佐賀県,小城市,小城町畑田,サガケン,オギシ,オギマチハタケダ,佐賀県小城市小城町畑田
8450003,佐賀県,小城市,小城町岩蔵,サガケン,オギシ,オギマチイワクラ,佐賀県小城市小城町岩蔵
8450004,佐賀県,小城市,小城町松尾,サガケン,オギシ,オギマチマツオ,佐賀県小城市小城町松尾
8450005,佐賀県,小城市,小城町東新町,サガケン,オギシ,オギマチヒガシシンマチ,佐賀県小城市小城町東新町
8450011,佐賀県,小城市,小城町船田,サガケン,オギシ,オギマチフナダ,佐賀県小城市小城町船田
8450012,佐賀県,小城市,小城町池上,サガケン,オギシ,オギマチイケノウエ,佐賀県小城市小城町池上
8450013,佐賀県,小城市,小城町栗原,サガケン,オギシ,オギマチクリハラ,佐賀県小城市小城町栗原
8450014,佐賀県,小城市,小城町晴気,サガケン,オギシ,オギマチハルケ,佐賀県小城市小城町晴気
8450021,佐賀県,小城市,三日月町長神田,サガケン,オギシ,ミカツキチョウチョウカンダ,佐賀県小城市三日月町長神田
8450022,佐賀県,小城市,三日月町久米,サガケン,オギシ,ミカツキチョウクメ,佐賀県小城市三日月町久米
8450023,佐賀県,小城市,三日月町織島,サガケン,オギシ,ミカツキチョウオリシマ,佐賀県小城市三日月町織島
8450024,佐賀県,小城市,三日月町道辺,サガケン,オギシ,ミカツキチョウミチベ,佐賀県小城市三日月町道辺
8450025,佐賀県,小城市,三日月町三ケ島,サガケン,オギシ,ミカツキチョウミカシマ,佐賀県小城市三日月町三ケ島
8450031,佐賀県,小城市,三日月町堀江,サガケン,オギシ,ミカツキチョウホリエ,佐賀県小城市三日月町堀江
8450032,佐賀県,小城市,三日月町金田,サガケン,オギシ,ミカツキチョウカナダ,佐賀県小城市三日月町金田
8450033,佐賀県,小城市,三日月町樋口,サガケン,オギシ,ミカツキチョウヒグチ,佐賀県小城市三日月町樋口
8450034,佐賀県,小城市,三日月町甲柳原,サガケン,オギシ,ミカツキチョウコウヤナギハラ,佐賀県小城市三日月町甲柳原
8450035,佐賀県,小城市,三日月町石木,サガケン,オギシ,ミカツキチョウイシキ,佐賀県小城市三日月町石木
8460000,佐賀県,多久市,,サガケン,タクシ,,佐賀県多久市
8460001,佐賀県,多久市,北多久町,サガケン,タクシ,キタタクマチ,佐賀県多久市北多久町
8460002,佐賀県,多久市,北多久町小侍,サガケン,タクシ,キタタクマチコサムライ,佐賀県多久市北多久町小侍
8460003,佐賀県,多久市,北多久町多久原,サガケン,タクシ,キタタクマチタクバル,佐賀県多久市北多久町多久原
8460004,佐賀県,多久市,北多久町中多久,サガケン,タクシ,キタタクマチナカタク,佐賀県多久市北多久町中多久
8460005,佐賀県,多久市,北多久町砂原,サガケン,タクシ,キタタクマチスナハラ,佐賀県多久市北多久町砂原
8460006,佐賀県,多久市,北多久町莇原,サガケン,タクシ,キタタクマチアザミバル,佐賀県多久市北多久町莇原
8460007,佐賀県,多久市,北多久町メイプルタウン,サガケン,タクシ,キタタクマチメイプルタウン,佐賀県多久市北多久町メイプルタウン
8460011,佐賀県,多久市,東多久町,サガケン,タクシ,ヒガシタクマチ,佐賀県多久市東多久町
8460012,佐賀県,多久市,東多久町別府,サガケン,タクシ,ヒガシタクマチベフ,佐賀県多久市東多久町別府
8460013,佐賀県,多久市,東多久町古賀,サガケン,タクシ,ヒガシタクマチコガ,佐賀県多久市東多久町古賀
8460014,佐賀県,多久市,東多久町納所,サガケン,タクシ,ヒガシタクマチノウソ,佐賀県多久市東多久町納所
8460021,佐賀県,多久市,南多久町,サガケン,タクシ,ミナミタクマチ,佐賀県多久市南多久町
8460022,佐賀県,多久市,南多久町泉町,サガケン,タクシ,ミナミタクマチイズミマチ,佐賀県多久市南多久町泉町
8460023,佐賀県,多久市,南多久町長尾,サガケン,タクシ,ミナミタクマチナガオ,佐賀県多久市南多久町長尾
8460024,佐賀県,多久市,南多久町下多久,サガケン,タクシ,ミナミタクマチシモタク,佐賀県多久市南多久町下多久
8460025,佐賀県,多久市,南多久町花祭,サガケン,タクシ,ミナミタクマチハナマツリ,佐賀県多久市南多久町花祭
8460031,佐賀県,多久市,多久町,サガケン,タクシ,タクマチ,佐賀県多久市多久町
8460041,佐賀県,多久市,西多久町,サガケン,タクシ,ニシタクマチ,佐賀県多久市西多久町
8470000,佐賀県,唐津市,,サガケン,カラツシ,,佐賀県唐津市
8470001,佐賀県,唐津市,双水,サガケン,カラツシ,ソウズイ,佐賀県唐津市双水
8470002,佐賀県,唐津市,山本,サガケン,カラツシ,ヤマモト,佐賀県唐津市山本
8470003,佐賀県,唐津市,橋本,サガケン,カラツシ,ハシモト,佐賀県唐津市橋本
8470004,佐賀県,唐津市,養母田,サガケン,カラツシ,ヤブタ,佐賀県唐津市養母田
8470005,佐賀県,唐津市,養母田鬼塚,サガケン,カラツシ,ヤブタオニヅカ,佐賀県唐津市養母田鬼塚
8470011,佐賀県,唐津市,栄町,サガケン,カラツシ,サカエマチ,佐賀県唐津市栄町
8470012,佐賀県,唐津市,大名小路,サガケン,カラツシ,ダイミョウコウジ,佐賀県唐津市大名小路
8470013,佐賀県,唐津市,南城内,サガケン,カラツシ,ミナミジョウナイ,佐賀県唐津市南城内
8470014,佐賀県,唐津市,西城内,サガケン,カラツシ,ニシジョウナイ,佐賀県唐津市西城内
8470015,佐賀県,唐津市,北城内,サガケン,カラツシ,キタジョウナイ,佐賀県唐津市北城内
8470016,佐賀県,唐津市,東城内,サガケン,カラツシ,ヒガシジョウナイ,佐賀県唐津市東城内
8470017,佐賀県,唐津市,東唐津,サガケン,カラツシ,ヒガシカラツ,佐賀県唐津市東唐津
8470021,佐賀県,唐津市,松南町,サガケン,カラツシ,ショウナンチョウ,佐賀県唐津市松南町
8470022,佐賀県,唐津市,鏡,サガケン,カラツシ,カガミ,佐賀県唐津市鏡
8470023,佐賀県,唐津市,半田,サガケン,カラツシ,ハダ,佐賀県唐津市半田
8470024,佐賀県,唐津市,東宇木,サガケン,カラツシ,ヒガシウキ,佐賀県唐津市東宇木
8470025,佐賀県,唐津市,宇木,サガケン,カラツシ,ウキ,佐賀県唐津市宇木
8470026,佐賀県,唐津市,柏崎,サガケン,カラツシ,カシワザキ,佐賀県唐津市柏崎
8470027,佐賀県,唐津市,高島,サガケン,カラツシ,タカシマ,佐賀県唐津市高島
8470028,佐賀県,唐津市,鏡新開,サガケン,カラツシ,カガミシンカイ,佐賀県唐津市鏡新開
8470031,佐賀県,唐津市,原,サガケン,カラツシ,ハル,佐賀県唐津市原
8470032,佐賀県,唐津市,夕日,サガケン,カラツシ,ユウヒ,佐賀県唐津市夕日
8470033,佐賀県,唐津市,久里,サガケン,カラツシ,クリ,佐賀県唐津市久里
8470034,佐賀県,唐津市,中原,サガケン,カラツシ,ナカバル,佐賀県唐津市中原
8470041,佐賀県,唐津市,千代田町,サガケン,カラツシ,チヨダマチ,佐賀県唐津市千代田町
8470042,佐賀県,唐津市,魚屋町,サガケン,カラツシ,ウオヤマチ,佐賀県唐津市魚屋町
8470043,佐賀県,唐津市,新興町（東新興町）,サガケン,カラツシ,シンコウマチ(ヒガシシンコウマチ),佐賀県唐津市新興町（東新興町）
8470044,佐賀県,唐津市,木綿町,サガケン,カラツシ,キワタマチ,佐賀県唐津市木綿町
8470045,佐賀県,唐津市,京町,サガケン,カラツシ,キョウマチ,佐賀県唐津市京町
8470046,佐賀県,唐津市,高砂町,サガケン,カラツシ,タカサゴマチ,佐賀県唐津市高砂町
8470047,佐賀県,唐津市,本町,サガケン,カラツシ,ホンマチ,佐賀県唐津市本町
8470051,佐賀県,唐津市,中町,サガケン,カラツシ,ナカマチ,佐賀県唐津市中町
8470052,佐賀県,唐津市,呉服町,サガケン,カラツシ,ゴフクマチ,佐賀県唐津市呉服町
8470053,佐賀県,唐津市,紺屋町,サガケン,カラツシ,コンヤマチ,佐賀県唐津市紺屋町
8470054,佐賀県,唐津市,米屋町,サガケン,カラツシ,コメヤマチ,佐賀県唐津市米屋町
8470055,佐賀県,唐津市,刀町,サガケン,カラツシ,カタナマチ,佐賀県唐津市刀町
8470056,佐賀県,唐津市,坊主町,サガケン,カラツシ,ボウズマチ,佐賀県唐津市坊主町
8470061,佐賀県,唐津市,材木町,サガケン,カラツシ,ザイモクマチ,佐賀県唐津市材木町
8470062,佐賀県,唐津市,船宮町,サガケン,カラツシ,フナミヤマチ,佐賀県唐津市船宮町
8470063,佐賀県,唐津市,東町,サガケン,カラツシ,ヒガシマチ,佐賀県唐津市東町
8470064,佐賀県,唐津市,元石町,サガケン,カラツシ,モトイシマチ,佐賀県唐津市元石町
8470065,佐賀県,唐津市,水主町,サガケン,カラツシ,カコマチ,佐賀県唐津市水主町
8470066,佐賀県,唐津市,大石町,サガケン,カラツシ,オオイシマチ,佐賀県唐津市大石町
8470067,佐賀県,唐津市,十人町,サガケン,カラツシ,ジュウニンマチ,佐賀県唐津市十人町
8470071,佐賀県,唐津市,和多田海士町,サガケン,カラツシ,ワタダアママチ,佐賀県唐津市和多田海士町
8470072,佐賀県,唐津市,和多田百人町,サガケン,カラツシ,ワタダヒャクニンマチ,佐賀県唐津市和多田百人町
8470073,佐賀県,唐津市,和多田東百人町,サガケン,カラツシ,ワタダヒガシヒャクニンマチ,佐賀県唐津市和多田東百人町
8470074,佐賀県,唐津市,和多田先石,サガケン,カラツシ,ワタダサキイシ,佐賀県唐津市和多田先石
8470075,佐賀県,唐津市,和多田用尺,サガケン,カラツシ,ワタダヨウジャク,佐賀県唐津市和多田用尺
8470081,佐賀県,唐津市,和多田南先石,サガケン,カラツシ,ワタダミナミサキイシ,佐賀県唐津市和多田南先石
8470082,佐賀県,唐津市,和多田天満町,サガケン,カラツシ,ワタダテンマンチョウ,佐賀県唐津市和多田天満町
8470083,佐賀県,唐津市,和多田大土井,サガケン,カラツシ,ワタダオオドイ,佐賀県唐津市和多田大土井
8470084,佐賀県,唐津市,和多田西山,サガケン,カラツシ,ワタダニシヤマ,佐賀県唐津市和多田西山
8470085,佐賀県,唐津市,和多田本村,サガケン,カラツシ,ワタダホンムラ,佐賀県唐津市和多田本村
8470101,佐賀県,唐津市,中瀬通,サガケン,カラツシ,ナカノセドオリ,佐賀県唐津市中瀬通
8470102,佐賀県,唐津市,八幡町,サガケン,カラツシ,ヤハタマチ,佐賀県唐津市八幡町
8470103,佐賀県,唐津市,橋本町,サガケン,カラツシ,ハシモトマチ,佐賀県唐津市橋本町
8470104,佐賀県,唐津市,桜町,サガケン,カラツシ,サクラマチ,佐賀県唐津市桜町
8470111,佐賀県,唐津市,佐志,サガケン,カラツシ,サシ,佐賀県唐津市佐志
8470112,佐賀県,唐津市,佐志南,サガケン,カラツシ,サシミナミ,佐賀県唐津市佐志南
8470113,佐賀県,唐津市,佐志中里,サガケン,カラツシ,サシナカザト,佐賀県唐津市佐志中里
8470114,佐賀県,唐津市,佐志中通,サガケン,カラツシ,サシナカドオリ,佐賀県唐津市佐志中通
8470115,佐賀県,唐津市,佐志浜町,サガケン,カラツシ,サシハママチ,佐賀県唐津市佐志浜町
8470121,佐賀県,唐津市,鳩川,サガケン,カラツシ,ハトガワ,佐賀県唐津市鳩川
8470122,佐賀県,唐津市,唐房,サガケン,カラツシ,トウボウ,佐賀県唐津市唐房
8470123,佐賀県,唐津市,枝去木,サガケン,カラツシ,エザルキ,佐賀県唐津市枝去木
8470124,佐賀県,唐津市,浦,サガケン,カラツシ,ウラ,佐賀県唐津市浦
8470131,佐賀県,唐津市,神集島,サガケン,カラツシ,カシワジマ,佐賀県唐津市神集島
8470132,佐賀県,唐津市,相賀,サガケン,カラツシ,オウカ,佐賀県唐津市相賀
8470133,佐賀県,唐津市,湊町,サガケン,カラツシ,ミナトマチ,佐賀県唐津市湊町
8470134,佐賀県,唐津市,中里,サガケン,カラツシ,ナカザト,佐賀県唐津市中里
8470135,佐賀県,唐津市,屋形石,サガケン,カラツシ,ヤカタイシ,佐賀県唐津市屋形石
8470136,佐賀県,唐津市,横野,サガケン,カラツシ,ヨコノ,佐賀県唐津市横野
8470301,佐賀県,唐津市,呼子町大友,サガケン,カラツシ,ヨブコチョウオオドモ,佐賀県唐津市呼子町大友
8470302,佐賀県,唐津市,呼子町小友,サガケン,カラツシ,ヨブコチョウコドモ,佐賀県唐津市呼子町小友
8470303,佐賀県,唐津市,呼子町呼子,サガケン,カラツシ,ヨブコチョウヨブコ,佐賀県唐津市呼子町呼子
8470304,佐賀県,唐津市,呼子町殿ノ浦,サガケン,カラツシ,ヨブコチョウトノノウラ,佐賀県唐津市呼子町殿ノ浦
8470305,佐賀県,唐津市,呼子町加部島,サガケン,カラツシ,ヨブコチョウカベシマ,佐賀県唐津市呼子町加部島
8470306,佐賀県,唐津市,呼子町小川島,サガケン,カラツシ,ヨブコチョウオガワシマ,佐賀県唐津市呼子町小川島
8470311,佐賀県,唐津市,鎮西町丸田,サガケン,カラツシ,チンゼイマチマルダ,佐賀県唐津市鎮西町丸田
8470312,佐賀県,唐津市,鎮西町赤木,サガケン,カラツシ,チンゼイマチアカギ,佐賀県唐津市鎮西町赤木
8470313,佐賀県,唐津市,鎮西町塩鶴,サガケン,カラツシ,チンゼイマチシオヅル,佐賀県唐津市鎮西町塩鶴
8470314,佐賀県,唐津市,鎮西町菖蒲,サガケン,カラツシ,チンゼイマチショウブ,佐賀県唐津市鎮西町菖蒲
8470315,佐賀県,唐津市,鎮西町八床,サガケン,カラツシ,チンゼイマチヤトコ,佐賀県唐津市鎮西町八床
8470316,佐賀県,唐津市,鎮西町中野,サガケン,カラツシ,チンゼイマチナカノ,佐賀県唐津市鎮西町中野
8470317,佐賀県,唐津市,鎮西町加唐島,サガケン,カラツシ,チンゼイマチカカラシマ,佐賀県唐津市鎮西町加唐島
8470321,佐賀県,唐津市,鎮西町横竹,サガケン,カラツシ,チンゼイマチヨコタケ,佐賀県唐津市鎮西町横竹
8470322,佐賀県,唐津市,鎮西町打上,サガケン,カラツシ,チンゼイマチウチアゲ,佐賀県唐津市鎮西町打上
8470323,佐賀県,唐津市,鎮西町岩野,サガケン,カラツシ,チンゼイマチイワノ,佐賀県唐津市鎮西町岩野
8470324,佐賀県,唐津市,鎮西町高野,サガケン,カラツシ,チンゼイマチコウノ,佐賀県唐津市鎮西町高野
8470325,佐賀県,唐津市,鎮西町加倉,サガケン,カラツシ,チンゼイマチカクラ,佐賀県唐津市鎮西町加倉
8470326,佐賀県,唐津市,鎮西町早田,サガケン,カラツシ,チンゼイマチハヤタ,佐賀県唐津市鎮西町早田
8470327,佐賀県,唐津市,鎮西町石室,サガケン,カラツシ,チンゼイマチイシムロ,佐賀県唐津市鎮西町石室
8470401,佐賀県,唐津市,鎮西町名護屋,サガケン,カラツシ,チンゼイマチナゴヤ,佐賀県唐津市鎮西町名護屋
8470402,佐賀県,唐津市,鎮西町野元,サガケン,カラツシ,チンゼイマチノモト,佐賀県唐津市鎮西町野元
8470403,佐賀県,唐津市,鎮西町串,サガケン,カラツシ,チンゼイマチクシ,佐賀県唐津市鎮西町串
8470404,佐賀県,唐津市,鎮西町波戸,サガケン,カラツシ,チンゼイマチハド,佐賀県唐津市鎮西町波戸
8470405,佐賀県,唐津市,鎮西町馬渡島,サガケン,カラツシ,チンゼイマチマダラシマ,佐賀県唐津市鎮西町馬渡島
8470406,佐賀県,唐津市,鎮西町松島,サガケン,カラツシ,チンゼイマチマツシマ,佐賀県唐津市鎮西町松島
8470801,佐賀県,唐津市,東山,サガケン,カラツシ,ヒガシヤマ,佐賀県唐津市東山
8470802,佐賀県,唐津市,梨川内,サガケン,カラツシ,ナシガワチ,佐賀県唐津市梨川内
8470803,佐賀県,唐津市,大良,サガケン,カラツシ,ダイラ,佐賀県唐津市大良
8470804,佐賀県,唐津市,後川内,サガケン,カラツシ,ウシロガワチ,佐賀県唐津市後川内
8470811,佐賀県,唐津市,八百屋町,サガケン,カラツシ,ヤオヤマチ,佐賀県唐津市八百屋町
8470812,佐賀県,唐津市,平野町,サガケン,カラツシ,ヒラノマチ,佐賀県唐津市平野町
8470813,佐賀県,唐津市,新町,サガケン,カラツシ,シンマチ,佐賀県唐津市新町
8470814,佐賀県,唐津市,弓鷹町,サガケン,カラツシ,ユミタカマチ,佐賀県唐津市弓鷹町
8470815,佐賀県,唐津市,西寺町,サガケン,カラツシ,ニシデラマチ,佐賀県唐津市西寺町
8470816,佐賀県,唐津市,新興町（西新興町）,サガケン,カラツシ,シンコウマチ(ニシシンコウマチ),佐賀県唐津市新興町（西新興町）
8470817,佐賀県,唐津市,熊原町,サガケン,カラツシ,クマノハラマチ,佐賀県唐津市熊原町
8470821,佐賀県,唐津市,町田,サガケン,カラツシ,チョウダ,佐賀県唐津市町田
8470822,佐賀県,唐津市,長谷,サガケン,カラツシ,ナガタニ,佐賀県唐津市長谷
8470823,佐賀県,唐津市,旭が丘,サガケン,カラツシ,アサヒガオカ,佐賀県唐津市旭が丘
8470824,佐賀県,唐津市,神田,サガケン,カラツシ,コウダ,佐賀県唐津市神田
8470825,佐賀県,唐津市,見借,サガケン,カラツシ,ミルカシ,佐賀県唐津市見借
8470831,佐賀県,唐津市,千々賀,サガケン,カラツシ,チチカ,佐賀県唐津市千々賀
8470832,佐賀県,唐津市,石志,サガケン,カラツシ,イシシ,佐賀県唐津市石志
8470833,佐賀県,唐津市,畑島,サガケン,カラツシ,ハタシマ,佐賀県唐津市畑島
8470834,佐賀県,唐津市,山田,サガケン,カラツシ,ヤマダ,佐賀県唐津市山田
8470841,佐賀県,唐津市,朝日町,サガケン,カラツシ,アサヒマチ,佐賀県唐津市朝日町
8470842,佐賀県,唐津市,山下町,サガケン,カラツシ,ヤマシタマチ,佐賀県唐津市山下町
8470843,佐賀県,唐津市,桜馬場,サガケン,カラツシ,サクラノババ,佐賀県唐津市桜馬場
8470844,佐賀県,唐津市,菜畑,サガケン,カラツシ,ナバタケ,佐賀県唐津市菜畑
8470851,佐賀県,唐津市,富士見町,サガケン,カラツシ,フジミマチ,佐賀県唐津市富士見町
8470852,佐賀県,唐津市,元旗町,サガケン,カラツシ,モトハタマチ,佐賀県唐津市元旗町
8470853,佐賀県,唐津市,江川町,サガケン,カラツシ,エガワマチ,佐賀県唐津市江川町
8470854,佐賀県,唐津市,西旗町,サガケン,カラツシ,ニシハタマチ,佐賀県唐津市西旗町
8470855,佐賀県,唐津市,西浜町,サガケン,カラツシ,ニシハママチ,佐賀県唐津市西浜町
8470861,佐賀県,唐津市,二タ子,サガケン,カラツシ,フタゴ,佐賀県唐津市二タ子
8470862,佐賀県,唐津市,中山町,サガケン,カラツシ,ナカヤママチ,佐賀県唐津市中山町
8470863,佐賀県,唐津市,妙見町,サガケン,カラツシ,ミョウケンマチ,佐賀県唐津市妙見町
8470871,佐賀県,唐津市,東大島町,サガケン,カラツシ,ヒガシオオシママチ,佐賀県唐津市東大島町
8470872,佐賀県,唐津市,西大島町,サガケン,カラツシ,ニシオオシママチ,佐賀県唐津市西大島町
8470873,佐賀県,唐津市,海岸通,サガケン,カラツシ,カイガンドオリ,佐賀県唐津市海岸通
8470874,佐賀県,唐津市,藤崎通,サガケン,カラツシ,フジサキドオリ,佐賀県唐津市藤崎通
8470875,佐賀県,唐津市,西唐津,サガケン,カラツシ,ニシカラツ,佐賀県唐津市西唐津
8470876,佐賀県,唐津市,南富士見町,サガケン,カラツシ,ミナミフジミチョウ,佐賀県唐津市南富士見町
8470881,佐賀県,唐津市,竹木場,サガケン,カラツシ,タケコバ,佐賀県唐津市竹木場
8470882,佐賀県,唐津市,菅牟田,サガケン,カラツシ,スガムタ,佐賀県唐津市菅牟田
8470883,佐賀県,唐津市,重河内,サガケン,カラツシ,シゲカワチ,佐賀県唐津市重河内
8470884,佐賀県,唐津市,熊ノ峰,サガケン,カラツシ,クマノミネ,佐賀県唐津市熊ノ峰
8470885,佐賀県,唐津市,唐川,サガケン,カラツシ,トウノカワ,佐賀県唐津市唐川
8471101,佐賀県,唐津市,七山荒川,サガケン,カラツシ,ナナヤマアラカワ,佐賀県唐津市七山荒川
8471102,佐賀県,唐津市,七山馬川,サガケン,カラツシ,ナナヤママノカワ,佐賀県唐津市七山馬川
8471103,佐賀県,唐津市,七山池原,サガケン,カラツシ,ナナヤマイケバル,佐賀県唐津市七山池原
8471104,佐賀県,唐津市,七山木浦,サガケン,カラツシ,ナナヤマキウラ,佐賀県唐津市七山木浦
8471105,佐賀県,唐津市,七山仁部,サガケン,カラツシ,ナナヤマニブ,佐賀県唐津市七山仁部
8471106,佐賀県,唐津市,七山滝川,サガケン,カラツシ,ナナヤマタキガワ,佐賀県唐津市七山滝川
8471107,佐賀県,唐津市,七山藤川,サガケン,カラツシ,ナナヤマフジカワ,佐賀県唐津市七山藤川
8471108,佐賀県,唐津市,七山白木,サガケン,カラツシ,ナナヤマシラキ,佐賀県唐津市七山白木
8471201,佐賀県,唐津市,北波多徳須恵,サガケン,カラツシ,キタハタトクスエ,佐賀県唐津市北波多徳須恵
8471202,佐賀県,唐津市,北波多田中,サガケン,カラツシ,キタハタタナカ,佐賀県唐津市北波多田中
8471203,佐賀県,唐津市,北波多山彦,サガケン,カラツシ,キタハタヤマヒコ,佐賀県唐津市北波多山彦
8471211,佐賀県,唐津市,北波多岸山,サガケン,カラツシ,キタハタキシヤマ,佐賀県唐津市北波多岸山
8471212,佐賀県,唐津市,北波多大杉,サガケン,カラツシ,キタハタオオスギ,佐賀県唐津市北波多大杉
8471213,佐賀県,唐津市,北波多竹有,サガケン,カラツシ,キタハタタケアリ,佐賀県唐津市北波多竹有
8471214,佐賀県,唐津市,北波多稗田,サガケン,カラツシ,キタハタヒエダ,佐賀県唐津市北波多稗田
8471221,佐賀県,唐津市,北波多上平野,サガケン,カラツシ,キタハタカミヒラノ,佐賀県唐津市北波多上平野
8471222,佐賀県,唐津市,北波多成渕,サガケン,カラツシ,キタハタナルフチ,佐賀県唐津市北波多成渕
8471223,佐賀県,唐津市,北波多下平野,サガケン,カラツシ,キタハタシモヒラノ,佐賀県唐津市北波多下平野
8471224,佐賀県,唐津市,北波多行合野,サガケン,カラツシ,キタハタユキアイノ,佐賀県唐津市北波多行合野
8471225,佐賀県,唐津市,北波多志気,サガケン,カラツシ,キタハタシゲ,佐賀県唐津市北波多志気
8471400,佐賀県,東松浦郡玄海町,,サガケン,ヒガシマツウラグンゲンカイチョウ,,佐賀県東松浦郡玄海町
8471401,佐賀県,東松浦郡玄海町,小加倉,サガケン,ヒガシマツウラグンゲンカイチョウ,コガクラ,佐賀県東松浦郡玄海町小加倉
8471402,佐賀県,東松浦郡玄海町,有浦下,サガケン,ヒガシマツウラグンゲンカイチョウ,アリウラシモ,佐賀県東松浦郡玄海町有浦下
8471403,佐賀県,東松浦郡玄海町,有浦上,サガケン,ヒガシマツウラグンゲンカイチョウ,アリウラカミ,佐賀県東松浦郡玄海町有浦上
8471404,佐賀県,東松浦郡玄海町,長倉,サガケン,ヒガシマツウラグンゲンカイチョウ,ナガクラ,佐賀県東松浦郡玄海町長倉
8471405,佐賀県,東松浦郡玄海町,藤平,サガケン,ヒガシマツウラグンゲンカイチョウ,フジヒラ,佐賀県東松浦郡玄海町藤平
8471411,佐賀県,東松浦郡玄海町,轟木,サガケン,ヒガシマツウラグンゲンカイチョウ,トドロキ,佐賀県東松浦郡玄海町轟木
8471412,佐賀県,東松浦郡玄海町,田代,サガケン,ヒガシマツウラグンゲンカイチョウ,タシロ,佐賀県東松浦郡玄海町田代
8471413,佐賀県,東松浦郡玄海町,大鳥,サガケン,ヒガシマツウラグンゲンカイチョウ,オオトリ,佐賀県東松浦郡玄海町大鳥
8471414,佐賀県,東松浦郡玄海町,湯野尾,サガケン,ヒガシマツウラグンゲンカイチョウ,ユノオ,佐賀県東松浦郡玄海町湯野尾
8471415,佐賀県,東松浦郡玄海町,座川内,サガケン,ヒガシマツウラグンゲンカイチョウ,ソソロガワチ,佐賀県東松浦郡玄海町座川内
8471416,佐賀県,東松浦郡玄海町,牟形,サガケン,ヒガシマツウラグンゲンカイチョウ,ムカタ,佐賀県東松浦郡玄海町牟形
8471421,佐賀県,東松浦郡玄海町,諸浦,サガケン,ヒガシマツウラグンゲンカイチョウ,モロウラ,佐賀県東松浦郡玄海町諸浦
8471422,佐賀県,東松浦郡玄海町,新田,サガケン,ヒガシマツウラグンゲンカイチョウ,シンデン,佐賀県東松浦郡玄海町新田
8471423,佐賀県,東松浦郡玄海町,石田,サガケン,ヒガシマツウラグンゲンカイチョウ,イシダ,佐賀県東松浦郡玄海町石田
8471424,佐賀県,東松浦郡玄海町,栄,サガケン,ヒガシマツウラグンゲンカイチョウ,サカエ,佐賀県東松浦郡玄海町栄
8471425,佐賀県,東松浦郡玄海町,花の木,サガケン,ヒガシマツウラグンゲンカイチョウ,ハナノキ,佐賀県東松浦郡玄海町花の木
8471431,佐賀県,東松浦郡玄海町,普恩寺,サガケン,ヒガシマツウラグンゲンカイチョウ,フオンジ,佐賀県東松浦郡玄海町普恩寺
8471432,佐賀県,東松浦郡玄海町,平尾,サガケン,ヒガシマツウラグンゲンカイチョウ,ヒラオ,佐賀県東松浦郡玄海町平尾
8471433,佐賀県,東松浦郡玄海町,浜野浦,サガケン,ヒガシマツウラグンゲンカイチョウ,ハマノウラ,佐賀県東松浦郡玄海町浜野浦
8471434,佐賀県,東松浦郡玄海町,大薗,サガケン,ヒガシマツウラグンゲンカイチョウ,オオゾノ,佐賀県東松浦郡玄海町大薗
8471435,佐賀県,東松浦郡玄海町,仮屋,サガケン,ヒガシマツウラグンゲンカイチョウ,カリヤ,佐賀県東松浦郡玄海町仮屋
8471441,佐賀県,東松浦郡玄海町,今村,サガケン,ヒガシマツウラグンゲンカイチョウ,イマムラ,佐賀県東松浦郡玄海町今村
8471442,佐賀県,東松浦郡玄海町,値賀川内,サガケン,ヒガシマツウラグンゲンカイチョウ,チカガワチ,佐賀県東松浦郡玄海町値賀川内
8471443,佐賀県,東松浦郡玄海町,仮立,サガケン,ヒガシマツウラグンゲンカイチョウ,カリダチ,佐賀県東松浦郡玄海町仮立
8471444,佐賀県,東松浦郡玄海町,中通,サガケン,ヒガシマツウラグンゲンカイチョウ,ナカドオリ,佐賀県東松浦郡玄海町中通
8471445,佐賀県,東松浦郡玄海町,下宮,サガケン,ヒガシマツウラグンゲンカイチョウ,シモミヤ,佐賀県東松浦郡玄海町下宮
8471446,佐賀県,東松浦郡玄海町,外津,サガケン,ヒガシマツウラグンゲンカイチョウ,ホカワヅ,佐賀県東松浦郡玄海町外津
8471501,佐賀県,唐津市,肥前町切木,サガケン,カラツシ,ヒゼンマチキリゴ,佐賀県唐津市肥前町切木
8471502,佐賀県,唐津市,肥前町赤坂,サガケン,カラツシ,ヒゼンマチアカサカ,佐賀県唐津市肥前町赤坂
8471503,佐賀県,唐津市,肥前町湯野浦,サガケン,カラツシ,ヒゼンマチユノウラ,佐賀県唐津市肥前町湯野浦
8471504,佐賀県,唐津市,肥前町中浦,サガケン,カラツシ,ヒゼンマチナカウラ,佐賀県唐津市肥前町中浦
8471505,佐賀県,唐津市,肥前町杉野浦,サガケン,カラツシ,ヒゼンマチスギノウラ,佐賀県唐津市肥前町杉野浦
8471506,佐賀県,唐津市,肥前町大浦,サガケン,カラツシ,ヒゼンマチオオウラ,佐賀県唐津市肥前町大浦
8471507,佐賀県,唐津市,肥前町満越,サガケン,カラツシ,ヒゼンマチミツコシ,佐賀県唐津市肥前町満越
8471511,佐賀県,唐津市,肥前町新木場,サガケン,カラツシ,ヒゼンマチニイコバ,佐賀県唐津市肥前町新木場
8471512,佐賀県,唐津市,肥前町梅崎,サガケン,カラツシ,ヒゼンマチウメザキ,佐賀県唐津市肥前町梅崎
8471513,佐賀県,唐津市,肥前町寺浦,サガケン,カラツシ,ヒゼンマチテラウラ,佐賀県唐津市肥前町寺浦
8471514,佐賀県,唐津市,肥前町仁田野尾,サガケン,カラツシ,ヒゼンマチニタノオ,佐賀県唐津市肥前町仁田野尾
8471515,佐賀県,唐津市,肥前町万賀里川,サガケン,カラツシ,ヒゼンマチマガリカワ,佐賀県唐津市肥前町万賀里川
8471516,佐賀県,唐津市,肥前町瓜ケ坂,サガケン,カラツシ,ヒゼンマチウリガサカ,佐賀県唐津市肥前町瓜ケ坂
8471517,佐賀県,唐津市,肥前町上ケ倉,サガケン,カラツシ,ヒゼンマチアゲクラ,佐賀県唐津市肥前町上ケ倉
8471521,佐賀県,唐津市,肥前町田野,サガケン,カラツシ,ヒゼンマチタノ,佐賀県唐津市肥前町田野
8471522,佐賀県,唐津市,肥前町犬頭,サガケン,カラツシ,ヒゼンマチイヌガシラ,佐賀県唐津市肥前町犬頭
8471523,佐賀県,唐津市,肥前町星賀,サガケン,カラツシ,ヒゼンマチホシカ,佐賀県唐津市肥前町星賀
8471524,佐賀県,唐津市,肥前町向島,サガケン,カラツシ,ヒゼンマチムクシマ,佐賀県唐津市肥前町向島
8471525,佐賀県,唐津市,肥前町納所,サガケン,カラツシ,ヒゼンマチノウサ,佐賀県唐津市肥前町納所
8471526,佐賀県,唐津市,肥前町入野,サガケン,カラツシ,ヒゼンマチイリノ,佐賀県唐津市肥前町入野
8471527,佐賀県,唐津市,肥前町鶴牧,サガケン,カラツシ,ヒゼンマチツルマキ,佐賀県唐津市肥前町鶴牧
8480000,佐賀県,伊万里市,,サガケン,イマリシ,,佐賀県伊万里市
8480001,佐賀県,伊万里市,南波多町重橋,サガケン,イマリシ,ミナミハタチョウジュウバシ,佐賀県伊万里市南波多町重橋
8480002,佐賀県,伊万里市,南波多町谷口,サガケン,イマリシ,ミナミハタチョウタニグチ,佐賀県伊万里市南波多町谷口
8480003,佐賀県,伊万里市,南波多町古里,サガケン,イマリシ,ミナミハタチョウフルサト,佐賀県伊万里市南波多町古里
8480004,佐賀県,伊万里市,南波多町水留,サガケン,イマリシ,ミナミハタチョウツヅミ,佐賀県伊万里市南波多町水留
8480005,佐賀県,伊万里市,南波多町大曲,サガケン,イマリシ,ミナミハタチョウオオマガリ,佐賀県伊万里市南波多町大曲
8480006,佐賀県,伊万里市,南波多町高瀬,サガケン,イマリシ,ミナミハタチョウタカゼ,佐賀県伊万里市南波多町高瀬
8480007,佐賀県,伊万里市,南波多町井手野,サガケン,イマリシ,ミナミハタチョウイデノ,佐賀県伊万里市南波多町井手野
8480011,佐賀県,伊万里市,南波多町大川原,サガケン,イマリシ,ミナミハタチョウオオカワバル,佐賀県伊万里市南波多町大川原
8480012,佐賀県,伊万里市,南波多町古川,サガケン,イマリシ,ミナミハタチョウフルコ,佐賀県伊万里市南波多町古川
8480013,佐賀県,伊万里市,南波多町笠椎,サガケン,イマリシ,ミナミハタチョウカサジ,佐賀県伊万里市南波多町笠椎
8480014,佐賀県,伊万里市,南波多町小麦原,サガケン,イマリシ,ミナミハタチョウコムギハル,佐賀県伊万里市南波多町小麦原
8480015,佐賀県,伊万里市,南波多町府招,サガケン,イマリシ,ミナミハタチョウフマネキ,佐賀県伊万里市南波多町府招
8480016,佐賀県,伊万里市,南波多町原屋敷,サガケン,イマリシ,ミナミハタチョウハラヤシキ,佐賀県伊万里市南波多町原屋敷
8480021,佐賀県,伊万里市,大坪町甲,サガケン,イマリシ,オオツボチョウコウ,佐賀県伊万里市大坪町甲
8480022,佐賀県,伊万里市,大坪町乙,サガケン,イマリシ,オオツボチョウオツ,佐賀県伊万里市大坪町乙
8480023,佐賀県,伊万里市,大坪町丙,サガケン,イマリシ,オオツボチョウヘイ,佐賀県伊万里市大坪町丙
8480024,佐賀県,伊万里市,大川内町甲,サガケン,イマリシ,オオカワチチョウコウ,佐賀県伊万里市大川内町甲
8480025,佐賀県,伊万里市,大川内町乙,サガケン,イマリシ,オオカワチチョウオツ,佐賀県伊万里市大川内町乙
8480026,佐賀県,伊万里市,大川内町丙,サガケン,イマリシ,オオカワチチョウヘイ,佐賀県伊万里市大川内町丙
8480027,佐賀県,伊万里市,立花町,サガケン,イマリシ,タチバナチョウ,佐賀県伊万里市立花町
8480028,佐賀県,伊万里市,脇田町,サガケン,イマリシ,ワキダチョウ,佐賀県伊万里市脇田町
8480031,佐賀県,伊万里市,二里町八谷搦,サガケン,イマリシ,ニリチョウハチヤガラミ,佐賀県伊万里市二里町八谷搦
8480032,佐賀県,伊万里市,二里町大里甲,サガケン,イマリシ,ニリチョウオオザトコウ,佐賀県伊万里市二里町大里甲
8480033,佐賀県,伊万里市,二里町中里乙,サガケン,イマリシ,ニリチョウナカザトオツ,佐賀県伊万里市二里町中里乙
8480034,佐賀県,伊万里市,二里町中里甲,サガケン,イマリシ,ニリチョウナカザトコウ,佐賀県伊万里市二里町中里甲
8480035,佐賀県,伊万里市,二里町大里乙,サガケン,イマリシ,ニリチョウオオザトオツ,佐賀県伊万里市二里町大里乙
8480041,佐賀県,伊万里市,新天町,サガケン,イマリシ,シンテンチョウ,佐賀県伊万里市新天町
8480042,佐賀県,伊万里市,蓮池町,サガケン,イマリシ,ハスイケチョウ,佐賀県伊万里市蓮池町
8480043,佐賀県,伊万里市,瀬戸町,サガケン,イマリシ,セトチョウ,佐賀県伊万里市瀬戸町
8480044,佐賀県,伊万里市,木須町,サガケン,イマリシ,キスチョウ,佐賀県伊万里市木須町
8480045,佐賀県,伊万里市,松島町,サガケン,イマリシ,マツシマチョウ,佐賀県伊万里市松島町
8480046,佐賀県,伊万里市,伊万里町乙,サガケン,イマリシ,イマリチョウオツ,佐賀県伊万里市伊万里町乙
8480047,佐賀県,伊万里市,伊万里町甲,サガケン,イマリシ,イマリチョウコウ,佐賀県伊万里市伊万里町甲
8480101,佐賀県,伊万里市,波多津町辻,サガケン,イマリシ,ハタツチョウツジ,佐賀県伊万里市波多津町辻
8480102,佐賀県,伊万里市,波多津町畑津,サガケン,イマリシ,ハタツチョウハタツ,佐賀県伊万里市波多津町畑津
8480103,佐賀県,伊万里市,波多津町内野,サガケン,イマリシ,ハタツチョウウチノ,佐賀県伊万里市波多津町内野
8480104,佐賀県,伊万里市,波多津町煤屋,サガケン,イマリシ,ハタツチョウススヤ,佐賀県伊万里市波多津町煤屋
8480105,佐賀県,伊万里市,波多津町馬蛤潟,サガケン,イマリシ,ハタツチョウマテガタ,佐賀県伊万里市波多津町馬蛤潟
8480111,佐賀県,伊万里市,波多津町木場,サガケン,イマリシ,ハタツチョウコバ,佐賀県伊万里市波多津町木場
8480112,佐賀県,伊万里市,波多津町田代,サガケン,イマリシ,ハタツチョウタシロ,佐賀県伊万里市波多津町田代
8480113,佐賀県,伊万里市,波多津町板木,サガケン,イマリシ,ハタツチョウイタギ,佐賀県伊万里市波多津町板木
8480114,佐賀県,伊万里市,波多津町津留主屋,サガケン,イマリシ,ハタツチョウツルヌシヤ,佐賀県伊万里市波多津町津留主屋
8480115,佐賀県,伊万里市,波多津町中山,サガケン,イマリシ,ハタツチョウナカヤマ,佐賀県伊万里市波多津町中山
8480116,佐賀県,伊万里市,波多津町井野尾,サガケン,イマリシ,ハタツチョウイノオ,佐賀県伊万里市波多津町井野尾
8480117,佐賀県,伊万里市,波多津町筒井,サガケン,イマリシ,ハタツチョウツツイ,佐賀県伊万里市波多津町筒井
8480121,佐賀県,伊万里市,黒川町塩屋,サガケン,イマリシ,クロガワチョウシオヤ,佐賀県伊万里市黒川町塩屋
8480122,佐賀県,伊万里市,黒川町福田,サガケン,イマリシ,クロガワチョウフクダ,佐賀県伊万里市黒川町福田
8480123,佐賀県,伊万里市,黒川町大黒川,サガケン,イマリシ,クロガワチョウオオクロガワ,佐賀県伊万里市黒川町大黒川
8480124,佐賀県,伊万里市,黒川町（名村団地）,サガケン,イマリシ,クロガワチョウ(ナムラダンチ),佐賀県伊万里市黒川町（名村団地）
8480125,佐賀県,伊万里市,黒川町小黒川,サガケン,イマリシ,クロガワチョウコクロガワ,佐賀県伊万里市黒川町小黒川
8480131,佐賀県,伊万里市,黒川町畑川内,サガケン,イマリシ,クロガワチョウハタガワチ,佐賀県伊万里市黒川町畑川内
8480132,佐賀県,伊万里市,黒川町長尾,サガケン,イマリシ,クロガワチョウナガオ,佐賀県伊万里市黒川町長尾
8480133,佐賀県,伊万里市,黒川町真手野,サガケン,イマリシ,クロガワチョウマテノ,佐賀県伊万里市黒川町真手野
8480134,佐賀県,伊万里市,黒川町花房,サガケン,イマリシ,クロガワチョウハナブサ,佐賀県伊万里市黒川町花房
8480141,佐賀県,伊万里市,黒川町清水,サガケン,イマリシ,クロガワチョウシミズ,佐賀県伊万里市黒川町清水
8480142,佐賀県,伊万里市,黒川町立目,サガケン,イマリシ,クロガワチョウタチメ,佐賀県伊万里市黒川町立目
8480143,佐賀県,伊万里市,黒川町牟田,サガケン,イマリシ,クロガワチョウムタ,佐賀県伊万里市黒川町牟田
8480144,佐賀県,伊万里市,黒川町横野,サガケン,イマリシ,クロガワチョウヨコノ,佐賀県伊万里市黒川町横野
8480145,佐賀県,伊万里市,黒川町椿原,サガケン,イマリシ,クロガワチョウツバキハラ,佐賀県伊万里市黒川町椿原
8480146,佐賀県,伊万里市,黒川町黒塩,サガケン,イマリシ,クロガワチョウクロシオ,佐賀県伊万里市黒川町黒塩
8490000,佐賀県,佐賀市,,サガケン,サガシ,,佐賀県佐賀市
8490100,佐賀県,三養基郡みやき町,,サガケン,ミヤキグンミヤキチョウ,,佐賀県三養基郡みやき町
8490100,佐賀県,三養基郡上峰町,,サガケン,ミヤキグンカミミネチョウ,,佐賀県三養基郡上峰町
8490101,佐賀県,三養基郡みやき町,原古賀,サガケン,ミヤキグンミヤキチョウ,ハルコガ,佐賀県三養基郡みやき町原古賀
8490102,佐賀県,三養基郡みやき町,簑原,サガケン,ミヤキグンミヤキチョウ,ミノバル,佐賀県三養基郡みやき町簑原
8490111,佐賀県,三養基郡みやき町,白壁,サガケン,ミヤキグンミヤキチョウ,シラカベ,佐賀県三養基郡みやき町白壁
8490112,佐賀県,三養基郡みやき町,江口,サガケン,ミヤキグンミヤキチョウ,エグチ,佐賀県三養基郡みやき町江口
8490113,佐賀県,三養基郡みやき町,東尾,サガケン,ミヤキグンミヤキチョウ,ヒガシオ,佐賀県三養基郡みやき町東尾
8490114,佐賀県,三養基郡みやき町,中津隈,サガケン,ミヤキグンミヤキチョウ,ナカツクマ,佐賀県三養基郡みやき町中津隈
8490121,佐賀県,三養基郡上峰町,江迎,サガケン,ミヤキグンカミミネチョウ,エムカイ,佐賀県三養基郡上峰町江迎
8490122,佐賀県,三養基郡上峰町,前牟田,サガケン,ミヤキグンカミミネチョウ,マエムタ,佐賀県三養基郡上峰町前牟田
8490123,佐賀県,三養基郡上峰町,坊所,サガケン,ミヤキグンカミミネチョウ,ボウジョ,佐賀県三養基郡上峰町坊所
8490124,佐賀県,三養基郡上峰町,堤,サガケン,ミヤキグンカミミネチョウ,ツツミ,佐賀県三養基郡上峰町堤
8490201,佐賀県,佐賀市,久保田町徳万,サガケン,サガシ,クボタチョウトクマン,佐賀県佐賀市久保田町徳万
8490202,佐賀県,佐賀市,久保田町久富,サガケン,サガシ,クボタチョウヒサドミ,佐賀県佐賀市久保田町久富
8490203,佐賀県,佐賀市,久保田町新田,サガケン,サガシ,クボタチョウシンデン,佐賀県佐賀市久保田町新田
8490204,佐賀県,佐賀市,久保田町久保田,サガケン,サガシ,クボタチョウクボタ,佐賀県佐賀市久保田町久保田
8490205,佐賀県,佐賀市,久保田町江戸,サガケン,サガシ,クボタチョウエド,佐賀県佐賀市久保田町江戸
8490301,佐賀県,小城市,牛津町乙柳,サガケン,オギシ,ウシヅチョウオトヤナギ,佐賀県小城市牛津町乙柳
8490302,佐賀県,小城市,牛津町柿樋瀬,サガケン,オギシ,ウシヅチョウカキヒセ,佐賀県小城市牛津町柿樋瀬
8490303,佐賀県,小城市,牛津町牛津,サガケン,オギシ,ウシヅチョウウシヅ,佐賀県小城市牛津町牛津
8490304,佐賀県,小城市,牛津町下砥川,サガケン,オギシ,ウシヅチョウシモトガワ,佐賀県小城市牛津町下砥川
8490305,佐賀県,小城市,牛津町上砥川,サガケン,オギシ,ウシヅチョウカミトガワ,佐賀県小城市牛津町上砥川
8490306,佐賀県,小城市,牛津町勝,サガケン,オギシ,ウシヅチョウカツ,佐賀県小城市牛津町勝
8490311,佐賀県,小城市,芦刈町芦溝,サガケン,オギシ,アシカリチョウアシミゾ,佐賀県小城市芦刈町芦溝
8490312,佐賀県,小城市,芦刈町下古賀,サガケン,オギシ,アシカリチョウシモコガ,佐賀県小城市芦刈町下古賀
8490313,佐賀県,小城市,芦刈町永田,サガケン,オギシ,アシカリチョウナガタ,佐賀県小城市芦刈町永田
8490314,佐賀県,小城市,芦刈町三王崎,サガケン,オギシ,アシカリチョウミオウザキ,佐賀県小城市芦刈町三王崎
8490315,佐賀県,小城市,芦刈町浜枝川,サガケン,オギシ,アシカリチョウハマエダガワ,佐賀県小城市芦刈町浜枝川
8490316,佐賀県,小城市,芦刈町道免,サガケン,オギシ,アシカリチョウドウメ,佐賀県小城市芦刈町道免
8490401,佐賀県,杵島郡白石町,福富,サガケン,キシマグンシロイシチョウ,フクドミ,佐賀県杵島郡白石町福富
8490402,佐賀県,杵島郡白石町,福富下分,サガケン,キシマグンシロイシチョウ,フクドミシモブン,佐賀県杵島郡白石町福富下分
8490403,佐賀県,杵島郡白石町,八平,サガケン,キシマグンシロイシチョウ,ハチヘイ,佐賀県杵島郡白石町八平
8490500,佐賀県,杵島郡江北町,,サガケン,キシマグンコウホクマチ,,佐賀県杵島郡江北町
8490501,佐賀県,杵島郡江北町,山口,サガケン,キシマグンコウホクマチ,ヤマグチ,佐賀県杵島郡江北町山口
8490502,佐賀県,杵島郡江北町,佐留志,サガケン,キシマグンコウホクマチ,サルシ,佐賀県杵島郡江北町佐留志
8490503,佐賀県,杵島郡江北町,惣領分,サガケン,キシマグンコウホクマチ,ソウリョウブン,佐賀県杵島郡江北町惣領分
8490504,佐賀県,杵島郡江北町,八町,サガケン,キシマグンコウホクマチ,ハッチョウ,佐賀県杵島郡江北町八町
8490505,佐賀県,杵島郡江北町,下小田,サガケン,キシマグンコウホクマチ,シモオダ,佐賀県杵島郡江北町下小田
8490506,佐賀県,杵島郡江北町,上小田,サガケン,キシマグンコウホクマチ,カミオダ,佐賀県杵島郡江北町上小田
8490901,佐賀県,佐賀市,久保泉町川久保,サガケン,サガシ,クボイズミマチカワクボ,佐賀県佐賀市久保泉町川久保
8490902,佐賀県,佐賀市,久保泉町上和泉,サガケン,サガシ,クボイズミマチカミイズミ,佐賀県佐賀市久保泉町上和泉
8490903,佐賀県,佐賀市,久保泉町下和泉,サガケン,サガシ,クボイズミマチシモイズミ,佐賀県佐賀市久保泉町下和泉
8490904,佐賀県,佐賀市,金立町薬師丸,サガケン,サガシ,キンリュウマチヤクシマル,佐賀県佐賀市金立町薬師丸
8490905,佐賀県,佐賀市,金立町千布,サガケン,サガシ,キンリュウマチチフ,佐賀県佐賀市金立町千布
8490906,佐賀県,佐賀市,金立町金立,サガケン,サガシ,キンリュウマチキンリュウ,佐賀県佐賀市金立町金立
8490911,佐賀県,佐賀市,兵庫町若宮,サガケン,サガシ,ヒョウゴマチワカミヤ,佐賀県佐賀市兵庫町若宮
8490912,佐賀県,佐賀市,兵庫町瓦町,サガケン,サガシ,ヒョウゴマチカワラマチ,佐賀県佐賀市兵庫町瓦町
8490913,佐賀県,佐賀市,兵庫町渕,サガケン,サガシ,ヒョウゴマチフチ,佐賀県佐賀市兵庫町渕
8490914,佐賀県,佐賀市,兵庫町西渕,サガケン,サガシ,ヒョウゴマチニシブチ,佐賀県佐賀市兵庫町西渕
8490915,佐賀県,佐賀市,兵庫町藤木,サガケン,サガシ,ヒョウゴマチフジノキ,佐賀県佐賀市兵庫町藤木
8490916,佐賀県,佐賀市,高木瀬町東高木,サガケン,サガシ,タカキセマチヒガシタカギ,佐賀県佐賀市高木瀬町東高木
8490917,佐賀県,佐賀市,高木瀬町長瀬,サガケン,サガシ,タカキセマチナガセ,佐賀県佐賀市高木瀬町長瀬
8490918,佐賀県,佐賀市,兵庫南,サガケン,サガシ,ヒョウゴミナミ,佐賀県佐賀市兵庫南
8490919,佐賀県,佐賀市,兵庫北,サガケン,サガシ,ヒョウゴキタ,佐賀県佐賀市兵庫北
8490921,佐賀県,佐賀市,高木瀬西,サガケン,サガシ,タカキセニシ,佐賀県佐賀市高木瀬西
8490922,佐賀県,佐賀市,高木瀬東,サガケン,サガシ,タカキセヒガシ,佐賀県佐賀市高木瀬東
8490923,佐賀県,佐賀市,日の出,サガケン,サガシ,ヒノデ,佐賀県佐賀市日の出
8490924,佐賀県,佐賀市,新中町,サガケン,サガシ,シンナカマチ,佐賀県佐賀市新中町
8490925,佐賀県,佐賀市,八丁畷町,サガケン,サガシ,ハッチョウナワテマチ,佐賀県佐賀市八丁畷町
8490926,佐賀県,佐賀市,若宮,サガケン,サガシ,ワカミヤ,佐賀県佐賀市若宮
8490927,佐賀県,佐賀市,高木瀬団地,サガケン,サガシ,タカキセダンチ,佐賀県佐賀市高木瀬団地
8490928,佐賀県,佐賀市,若楠,サガケン,サガシ,ワカクス,佐賀県佐賀市若楠
8490931,佐賀県,佐賀市,鍋島町蛎久,サガケン,サガシ,ナベシママチカキヒサ,佐賀県佐賀市鍋島町蛎久
8490932,佐賀県,佐賀市,鍋島町八戸溝,サガケン,サガシ,ナベシママチヤエミゾ,佐賀県佐賀市鍋島町八戸溝
8490933,佐賀県,佐賀市,卸本町,サガケン,サガシ,オロシホンマチ,佐賀県佐賀市卸本町
8490934,佐賀県,佐賀市,開成,サガケン,サガシ,カイセイ,佐賀県佐賀市開成
8490935,佐賀県,佐賀市,八戸溝,サガケン,サガシ,ヤエミゾ,佐賀県佐賀市八戸溝
8490936,佐賀県,佐賀市,鍋島町森田,サガケン,サガシ,ナベシママチモリタ,佐賀県佐賀市鍋島町森田
8490937,佐賀県,佐賀市,鍋島,サガケン,サガシ,ナベシマ,佐賀県佐賀市鍋島
8490938,佐賀県,佐賀市,鍋島町鍋島,サガケン,サガシ,ナベシママチナベシマ,佐賀県佐賀市鍋島町鍋島
8491100,佐賀県,杵島郡白石町,,サガケン,キシマグンシロイシチョウ,,佐賀県杵島郡白石町
8491101,佐賀県,杵島郡白石町,今泉,サガケン,キシマグンシロイシチョウ,イマイズミ,佐賀県杵島郡白石町今泉
8491102,佐賀県,杵島郡白石町,大渡,サガケン,キシマグンシロイシチョウ,オオワタリ,佐賀県杵島郡白石町大渡
8491103,佐賀県,杵島郡白石町,築切,サガケン,キシマグンシロイシチョウ,ツイキリ,佐賀県杵島郡白石町築切
8491104,佐賀県,杵島郡白石町,堤,サガケン,キシマグンシロイシチョウ,ツツミ,佐賀県杵島郡白石町堤
8491105,佐賀県,杵島郡白石町,遠江,サガケン,キシマグンシロイシチョウ,トオノエ,佐賀県杵島郡白石町遠江
8491106,佐賀県,杵島郡白石町,廿治,サガケン,キシマグンシロイシチョウ,ハタチ,佐賀県杵島郡白石町廿治
8491111,佐賀県,杵島郡白石町,東郷,サガケン,キシマグンシロイシチョウ,ヒガシゴウ,佐賀県杵島郡白石町東郷
8491112,佐賀県,杵島郡白石町,福田,サガケン,キシマグンシロイシチョウ,フクタ,佐賀県杵島郡白石町福田
8491113,佐賀県,杵島郡白石町,福吉,サガケン,キシマグンシロイシチョウ,フクヨシ,佐賀県杵島郡白石町福吉
8491114,佐賀県,杵島郡白石町,馬洗,サガケン,キシマグンシロイシチョウ,モウライ,佐賀県杵島郡白石町馬洗
8491115,佐賀県,杵島郡白石町,湯崎,サガケン,キシマグンシロイシチョウ,ユザキ,佐賀県杵島郡白石町湯崎
8491116,佐賀県,杵島郡白石町,横手,サガケン,キシマグンシロイシチョウ,ヨコテ,佐賀県杵島郡白石町横手
8491201,佐賀県,杵島郡白石町,牛屋,サガケン,キシマグンシロイシチョウ,ウシヤ,佐賀県杵島郡白石町牛屋
8491202,佐賀県,杵島郡白石町,新明,サガケン,キシマグンシロイシチョウ,シンメイ,佐賀県杵島郡白石町新明
8491203,佐賀県,杵島郡白石町,戸ケ里,サガケン,キシマグンシロイシチョウ,トガリ,佐賀県杵島郡白石町戸ケ里
8491204,佐賀県,杵島郡白石町,坂田,サガケン,キシマグンシロイシチョウ,サカタ,佐賀県杵島郡白石町坂田
8491205,佐賀県,杵島郡白石町,田野上,サガケン,キシマグンシロイシチョウ,タノウエ,佐賀県杵島郡白石町田野上
8491206,佐賀県,杵島郡白石町,辺田,サガケン,キシマグンシロイシチョウ,ヘタ,佐賀県杵島郡白石町辺田
8491207,佐賀県,杵島郡白石町,深浦,サガケン,キシマグンシロイシチョウ,フカウラ,佐賀県杵島郡白石町深浦
8491208,佐賀県,杵島郡白石町,新開,サガケン,キシマグンシロイシチョウ,シンカイ,佐賀県杵島郡白石町新開
8491221,佐賀県,杵島郡白石町,新拓,サガケン,キシマグンシロイシチョウ,シンタク,佐賀県杵島郡白石町新拓
8491300,佐賀県,鹿島市,,サガケン,カシマシ,,佐賀県鹿島市
8491301,佐賀県,鹿島市,常広,サガケン,カシマシ,ツネヒロ,佐賀県鹿島市常広
8491302,佐賀県,鹿島市,井手,サガケン,カシマシ,イデ,佐賀県鹿島市井手
8491303,佐賀県,鹿島市,森,サガケン,カシマシ,モリ,佐賀県鹿島市森
8491304,佐賀県,鹿島市,中村,サガケン,カシマシ,ナカムラ,佐賀県鹿島市中村
8491311,佐賀県,鹿島市,高津原,サガケン,カシマシ,タカツハラ,佐賀県鹿島市高津原
8491312,佐賀県,鹿島市,納富分,サガケン,カシマシ,ノウドミブン,佐賀県鹿島市納富分
8491313,佐賀県,鹿島市,重ノ木,サガケン,カシマシ,ジュウノキ,佐賀県鹿島市重ノ木
8491314,佐賀県,鹿島市,山浦,サガケン,カシマシ,ヤマウラ,佐賀県鹿島市山浦
8491315,佐賀県,鹿島市,三河内,サガケン,カシマシ,ミカワチ,佐賀県鹿島市三河内
8491321,佐賀県,鹿島市,古枝,サガケン,カシマシ,フルエダ,佐賀県鹿島市古枝
8491322,佐賀県,鹿島市,浜町,サガケン,カシマシ,ハママチ,佐賀県鹿島市浜町
8491323,佐賀県,鹿島市,音成,サガケン,カシマシ,オトナリ,佐賀県鹿島市音成
8491324,佐賀県,鹿島市,飯田,サガケン,カシマシ,イイダ,佐賀県鹿島市飯田
8491401,佐賀県,嬉野市,塩田町久間甲,サガケン,ウレシノシ,シオタチョウクマコウ,佐賀県嬉野市塩田町久間甲
8491402,佐賀県,嬉野市,塩田町久間乙,サガケン,ウレシノシ,シオタチョウクマオツ,佐賀県嬉野市塩田町久間乙
8491403,佐賀県,嬉野市,塩田町久間丙,サガケン,ウレシノシ,シオタチョウクマヘイ,佐賀県嬉野市塩田町久間丙
8491404,佐賀県,嬉野市,塩田町久間丁,サガケン,ウレシノシ,シオタチョウクマテイ,佐賀県嬉野市塩田町久間丁
8491411,佐賀県,嬉野市,塩田町馬場下甲,サガケン,ウレシノシ,シオタチョウババシタコウ,佐賀県嬉野市塩田町馬場下甲
8491412,佐賀県,嬉野市,塩田町馬場下乙,サガケン,ウレシノシ,シオタチョウババシタオツ,佐賀県嬉野市塩田町馬場下乙
8491413,佐賀県,嬉野市,塩田町馬場下丙,サガケン,ウレシノシ,シオタチョウババシタヘイ,佐賀県嬉野市塩田町馬場下丙
8491414,佐賀県,嬉野市,塩田町大草野甲,サガケン,ウレシノシ,シオタチョウオオクサノコウ,佐賀県嬉野市塩田町大草野甲
8491415,佐賀県,嬉野市,塩田町大草野丙,サガケン,ウレシノシ,シオタチョウオオクサノヘイ,佐賀県嬉野市塩田町大草野丙
8491416,佐賀県,嬉野市,塩田町大草野乙,サガケン,ウレシノシ,シオタチョウオオクサノオツ,佐賀県嬉野市塩田町大草野乙
8491421,佐賀県,嬉野市,塩田町真崎,サガケン,ウレシノシ,シオタチョウマツサキ,佐賀県嬉野市塩田町真崎
8491422,佐賀県,嬉野市,塩田町谷所甲,サガケン,ウレシノシ,シオタチョウタニドコロコウ,佐賀県嬉野市塩田町谷所甲
8491423,佐賀県,嬉野市,塩田町谷所乙,サガケン,ウレシノシ,シオタチョウタニドコロオツ,佐賀県嬉野市塩田町谷所乙
8491424,佐賀県,嬉野市,塩田町谷所丙,サガケン,ウレシノシ,シオタチョウタニドコロヘイ,佐賀県嬉野市塩田町谷所丙
8491425,佐賀県,嬉野市,塩田町五町田甲,サガケン,ウレシノシ,シオタチョウゴチョウダコウ,佐賀県嬉野市塩田町五町田甲
8491426,佐賀県,嬉野市,塩田町五町田乙,サガケン,ウレシノシ,シオタチョウゴチョウダオツ,佐賀県嬉野市塩田町五町田乙
8491600,佐賀県,藤津郡太良町,,サガケン,フジツグンタラチョウ,,佐賀県藤津郡太良町
8491601,佐賀県,藤津郡太良町,伊福甲,サガケン,フジツグンタラチョウ,イフクコウ,佐賀県藤津郡太良町伊福甲
8491602,佐賀県,藤津郡太良町,多良,サガケン,フジツグンタラチョウ,タラ,佐賀県藤津郡太良町多良
8491603,佐賀県,藤津郡太良町,糸岐,サガケン,フジツグンタラチョウ,イトキ,佐賀県藤津郡太良町糸岐
8491611,佐賀県,藤津郡太良町,大浦戊,サガケン,フジツグンタラチョウ,オオウラボ,佐賀県藤津郡太良町大浦戊
8491612,佐賀県,藤津郡太良町,大浦丁,サガケン,フジツグンタラチョウ,オオウラテイ,佐賀県藤津郡太良町大浦丁
8491613,佐賀県,藤津郡太良町,大浦丙,サガケン,フジツグンタラチョウ,オオウラヘイ,佐賀県藤津郡太良町大浦丙
8491614,佐賀県,藤津郡太良町,大浦甲,サガケン,フジツグンタラチョウ,オオウラコウ,佐賀県藤津郡太良町大浦甲
8491615,佐賀県,藤津郡太良町,大浦乙,サガケン,フジツグンタラチョウ,オオウラオツ,佐賀県藤津郡太良町大浦乙
8491616,佐賀県,藤津郡太良町,大浦己,サガケン,フジツグンタラチョウ,オオウラキ,佐賀県藤津郡太良町大浦己
8492100,佐賀県,杵島郡大町町,,サガケン,キシマグンオオマチチョウ,,佐賀県杵島郡大町町
8492101,佐賀県,杵島郡大町町,大町,サガケン,キシマグンオオマチチョウ,オオマチ,佐賀県杵島郡大町町大町
8492102,佐賀県,杵島郡大町町,福母,サガケン,キシマグンオオマチチョウ,フクモ,佐賀県杵島郡大町町福母
8492201,佐賀県,武雄市,北方町志久,サガケン,タケオシ,キタガタチョウシク,佐賀県武雄市北方町志久
8492202,佐賀県,武雄市,北方町大渡,サガケン,タケオシ,キタガタチョウオオワタリ,佐賀県武雄市北方町大渡
8492203,佐賀県,武雄市,北方町芦原,サガケン,タケオシ,キタガタチョウアシハラ,佐賀県武雄市北方町芦原
8492204,佐賀県,武雄市,北方町大崎,サガケン,タケオシ,キタガタチョウオオサキ,佐賀県武雄市北方町大崎
8492301,佐賀県,武雄市,山内町犬走,サガケン,タケオシ,ヤマウチチョウイヌバシリ,佐賀県武雄市山内町犬走
8492302,佐賀県,武雄市,山内町鳥海,サガケン,タケオシ,ヤマウチチョウトノミ,佐賀県武雄市山内町鳥海
8492303,佐賀県,武雄市,山内町三間坂,サガケン,タケオシ,ヤマウチチョウミマサカ,佐賀県武雄市山内町三間坂
8492304,佐賀県,武雄市,山内町大野,サガケン,タケオシ,ヤマウチチョウオオノ,佐賀県武雄市山内町大野
8492305,佐賀県,武雄市,山内町宮野,サガケン,タケオシ,ヤマウチチョウミヤノ,佐賀県武雄市山内町宮野
8492341,佐賀県,武雄市,武内町梅野,サガケン,タケオシ,タケウチチョウウメノ,佐賀県武雄市武内町梅野
8492342,佐賀県,武雄市,武内町真手野,サガケン,タケオシ,タケウチチョウマテノ,佐賀県武雄市武内町真手野
8493101,佐賀県,唐津市,厳木町天川,サガケン,カラツシ,キュウラギマチアマガワ,佐賀県唐津市厳木町天川
8493102,佐賀県,唐津市,厳木町鳥越,サガケン,カラツシ,キュウラギマチトリゴエ,佐賀県唐津市厳木町鳥越
8493103,佐賀県,唐津市,厳木町広川,サガケン,カラツシ,キュウラギマチヒロカワ,佐賀県唐津市厳木町広川
8493104,佐賀県,唐津市,厳木町星領,サガケン,カラツシ,キュウラギマチホシリョウ,佐賀県唐津市厳木町星領
8493111,佐賀県,唐津市,厳木町広瀬,サガケン,カラツシ,キュウラギマチヒロセ,佐賀県唐津市厳木町広瀬
8493112,佐賀県,唐津市,厳木町中島,サガケン,カラツシ,キュウラギマチナカシマ,佐賀県唐津市厳木町中島
8493113,佐賀県,唐津市,厳木町牧瀬,サガケン,カラツシ,キュウラギマチマキセ,佐賀県唐津市厳木町牧瀬
8493114,佐賀県,唐津市,厳木町浦川内,サガケン,カラツシ,キュウラギマチウラガワチ,佐賀県唐津市厳木町浦川内
8493115,佐賀県,唐津市,厳木町平之,サガケン,カラツシ,キュウラギマチヒラノ,佐賀県唐津市厳木町平之
8493121,佐賀県,唐津市,厳木町瀬戸木場,サガケン,カラツシ,キュウラギマチセトコバ,佐賀県唐津市厳木町瀬戸木場
8493122,佐賀県,唐津市,厳木町浪瀬,サガケン,カラツシ,キュウラギマチナミセ,佐賀県唐津市厳木町浪瀬
8493123,佐賀県,唐津市,厳木町岩屋,サガケン,カラツシ,キュウラギマチイワヤ,佐賀県唐津市厳木町岩屋
8493131,佐賀県,唐津市,厳木町厳木,サガケン,カラツシ,キュウラギマチキュウラギ,佐賀県唐津市厳木町厳木
8493132,佐賀県,唐津市,厳木町うつぼ木,サガケン,カラツシ,キュウラギマチウツボキ,佐賀県唐津市厳木町うつぼ木
8493133,佐賀県,唐津市,厳木町本山,サガケン,カラツシ,キュウラギマチモトヤマ,佐賀県唐津市厳木町本山
8493201,佐賀県,唐津市,相知町相知,サガケン,カラツシ,オウチチョウオウチ,佐賀県唐津市相知町相知
8493202,佐賀県,唐津市,相知町平山下,サガケン,カラツシ,オウチチョウヒラヤマシモ,佐賀県唐津市相知町平山下
8493203,佐賀県,唐津市,相知町平山上,サガケン,カラツシ,オウチチョウヒラヤマカミ,佐賀県唐津市相知町平山上
8493211,佐賀県,唐津市,相知町千束,サガケン,カラツシ,オウチチョウセンゾク,佐賀県唐津市相知町千束
8493212,佐賀県,唐津市,相知町横枕,サガケン,カラツシ,オウチチョウヨコマクラ,佐賀県唐津市相知町横枕
8493213,佐賀県,唐津市,相知町湯屋,サガケン,カラツシ,オウチチョウユヤ,佐賀県唐津市相知町湯屋
8493214,佐賀県,唐津市,相知町田頭,サガケン,カラツシ,オウチチョウタガシラ,佐賀県唐津市相知町田頭
8493215,佐賀県,唐津市,相知町楠,サガケン,カラツシ,オウチチョウクス,佐賀県唐津市相知町楠
8493216,佐賀県,唐津市,相知町町切,サガケン,カラツシ,オウチチョウチョウギリ,佐賀県唐津市相知町町切
8493217,佐賀県,唐津市,相知町長部田,サガケン,カラツシ,オウチチョウナガヘタ,佐賀県唐津市相知町長部田
8493218,佐賀県,唐津市,相知町中山,サガケン,カラツシ,オウチチョウナカヤマ,佐賀県唐津市相知町中山
8493219,佐賀県,唐津市,相知町鷹取,サガケン,カラツシ,オウチチョウタカトリ,佐賀県唐津市相知町鷹取
8493221,佐賀県,唐津市,相知町大野,サガケン,カラツシ,オウチチョウオオノ,佐賀県唐津市相知町大野
8493222,佐賀県,唐津市,相知町黒岩,サガケン,カラツシ,オウチチョウクロイワ,佐賀県唐津市相知町黒岩
8493223,佐賀県,唐津市,相知町伊岐佐,サガケン,カラツシ,オウチチョウイキサ,佐賀県唐津市相知町伊岐佐
8493224,佐賀県,唐津市,相知町山崎,サガケン,カラツシ,オウチチョウヤマサキ,佐賀県唐津市相知町山崎
8493231,佐賀県,唐津市,相知町牟田部,サガケン,カラツシ,オウチチョウムタベ,佐賀県唐津市相知町牟田部
8493232,佐賀県,唐津市,相知町久保,サガケン,カラツシ,オウチチョウクボ,佐賀県唐津市相知町久保
8493233,佐賀県,唐津市,相知町佐里,サガケン,カラツシ,オウチチョウサリ,佐賀県唐津市相知町佐里
8494141,佐賀県,西松浦郡有田町,二ノ瀬,サガケン,ニシマツウラグンアリタチョウ,ニノセ,佐賀県西松浦郡有田町二ノ瀬
8494142,佐賀県,西松浦郡有田町,山谷牧,サガケン,ニシマツウラグンアリタチョウ,ヤマダニマキ,佐賀県西松浦郡有田町山谷牧
8494143,佐賀県,西松浦郡有田町,下山谷,サガケン,ニシマツウラグンアリタチョウ,シモヤマダニ,佐賀県西松浦郡有田町下山谷
8494144,佐賀県,西松浦郡有田町,上山谷,サガケン,ニシマツウラグンアリタチョウ,カミヤマダニ,佐賀県西松浦郡有田町上山谷
8494145,佐賀県,西松浦郡有田町,山谷切口,サガケン,ニシマツウラグンアリタチョウ,ヤマダニキリグチ,佐賀県西松浦郡有田町山谷切口
8494146,佐賀県,西松浦郡有田町,岳,サガケン,ニシマツウラグンアリタチョウ,タケ,佐賀県西松浦郡有田町岳
8494151,佐賀県,西松浦郡有田町,広瀬山,サガケン,ニシマツウラグンアリタチョウ,ヒロセヤマ,佐賀県西松浦郡有田町広瀬山
8494152,佐賀県,西松浦郡有田町,広瀬,サガケン,ニシマツウラグンアリタチョウ,ヒロセ,佐賀県西松浦郡有田町広瀬
8494153,佐賀県,西松浦郡有田町,立部,サガケン,ニシマツウラグンアリタチョウ,タチベ,佐賀県西松浦郡有田町立部
8494154,佐賀県,西松浦郡有田町,大木宿,サガケン,ニシマツウラグンアリタチョウ,オオギシュク,佐賀県西松浦郡有田町大木宿
8494155,佐賀県,西松浦郡有田町,山本,サガケン,ニシマツウラグンアリタチョウ,ヤマモト,佐賀県西松浦郡有田町山本
8494156,佐賀県,西松浦郡有田町,桑木原,サガケン,ニシマツウラグンアリタチョウ,クワノキバル,佐賀県西松浦郡有田町桑木原
8494161,佐賀県,西松浦郡有田町,蔵宿,サガケン,ニシマツウラグンアリタチョウ,ゾウシュク,佐賀県西松浦郡有田町蔵宿
8494162,佐賀県,西松浦郡有田町,上内野,サガケン,ニシマツウラグンアリタチョウ,カミウチノ,佐賀県西松浦郡有田町上内野
8494163,佐賀県,西松浦郡有田町,下内野,サガケン,ニシマツウラグンアリタチョウ,シモウチノ,佐賀県西松浦郡有田町下内野
8494164,佐賀県,西松浦郡有田町,仏ノ原,サガケン,ニシマツウラグンアリタチョウ,ホトケノハラ,佐賀県西松浦郡有田町仏ノ原
8494165,佐賀県,西松浦郡有田町,黒川,サガケン,ニシマツウラグンアリタチョウ,クロゴウ,佐賀県西松浦郡有田町黒川
8494166,佐賀県,西松浦郡有田町,北ノ川内,サガケン,ニシマツウラグンアリタチョウ,キタノカワチ,佐賀県西松浦郡有田町北ノ川内
8494171,佐賀県,西松浦郡有田町,代々木,サガケン,ニシマツウラグンアリタチョウ,ヨヨギ,佐賀県西松浦郡有田町代々木
8494172,佐賀県,西松浦郡有田町,下本,サガケン,ニシマツウラグンアリタチョウ,シモホン,佐賀県西松浦郡有田町下本
8494173,佐賀県,西松浦郡有田町,舞原,サガケン,ニシマツウラグンアリタチョウ,マイバル,佐賀県西松浦郡有田町舞原
8494174,佐賀県,西松浦郡有田町,上本,サガケン,ニシマツウラグンアリタチョウ,カミホン,佐賀県西松浦郡有田町上本
8494175,佐賀県,西松浦郡有田町,楠木原,サガケン,ニシマツウラグンアリタチョウ,クスノキバル,佐賀県西松浦郡有田町楠木原
8494176,佐賀県,西松浦郡有田町,原明,サガケン,ニシマツウラグンアリタチョウ,ハラアケ,佐賀県西松浦郡有田町原明
8494251,佐賀県,伊万里市,山代町楠久,サガケン,イマリシ,ヤマシロチョウクスク,佐賀県伊万里市山代町楠久
8494252,佐賀県,伊万里市,山代町楠久津,サガケン,イマリシ,ヤマシロチョウクスクツ,佐賀県伊万里市山代町楠久津
8494253,佐賀県,伊万里市,山代町峰,サガケン,イマリシ,ヤマシロチョウミネ,佐賀県伊万里市山代町峰
8494254,佐賀県,伊万里市,山代町城,サガケン,イマリシ,ヤマシロチョウジョウ,佐賀県伊万里市山代町城
8494255,佐賀県,伊万里市,山代町福川内,サガケン,イマリシ,ヤマシロチョウフクガワチ,佐賀県伊万里市山代町福川内
8494256,佐賀県,伊万里市,山代町久原,サガケン,イマリシ,ヤマシロチョウクバラ,佐賀県伊万里市山代町久原
8494261,佐賀県,伊万里市,山代町立岩,サガケン,イマリシ,ヤマシロチョウタチイワ,佐賀県伊万里市山代町立岩
8494262,佐賀県,伊万里市,山代町西分,サガケン,イマリシ,ヤマシロチョウニシブン,佐賀県伊万里市山代町西分
8494263,佐賀県,伊万里市,山代町西大久保,サガケン,イマリシ,ヤマシロチョウニシオオクボ,佐賀県伊万里市山代町西大久保
8494264,佐賀県,伊万里市,山代町東分,サガケン,イマリシ,ヤマシロチョウヒガシブン,佐賀県伊万里市山代町東分
8494271,佐賀県,伊万里市,東山代町長浜,サガケン,イマリシ,ヒガシヤマシロチョウナガハマ,佐賀県伊万里市東山代町長浜
8494272,佐賀県,伊万里市,東山代町日尾,サガケン,イマリシ,ヒガシヤマシロチョウヒオ,佐賀県伊万里市東山代町日尾
8494273,佐賀県,伊万里市,東山代町天神,サガケン,イマリシ,ヒガシヤマシロチョウテンジン,佐賀県伊万里市東山代町天神
8494274,佐賀県,伊万里市,東山代町脇野,サガケン,イマリシ,ヒガシヤマシロチョウワキノ,佐賀県伊万里市東山代町脇野
8494281,佐賀県,伊万里市,東山代町大久保,サガケン,イマリシ,ヒガシヤマシロチョウオオクボ,佐賀県伊万里市東山代町大久保
8494282,佐賀県,伊万里市,東山代町里,サガケン,イマリシ,ヒガシヤマシロチョウサト,佐賀県伊万里市東山代町里
8494283,佐賀県,伊万里市,東山代町東大久保,サガケン,イマリシ,ヒガシヤマシロチョウヒガシオオクボ,佐賀県伊万里市東山代町東大久保
8494284,佐賀県,伊万里市,東山代町浦川内,サガケン,イマリシ,ヒガシヤマシロチョウウラガワチ,佐賀県伊万里市東山代町浦川内
8494285,佐賀県,伊万里市,東山代町滝川内,サガケン,イマリシ,ヒガシヤマシロチョウタキガワチ,佐賀県伊万里市東山代町滝川内
8494286,佐賀県,伊万里市,東山代町川内野,サガケン,イマリシ,ヒガシヤマシロチョウカワチノ,佐賀県伊万里市東山代町川内野
8495101,佐賀県,唐津市,浜玉町岡口,サガケン,カラツシ,ハマタママチオカグチ,佐賀県唐津市浜玉町岡口
8495102,佐賀県,唐津市,浜玉町五反田,サガケン,カラツシ,ハマタママチゴタンダ,佐賀県唐津市浜玉町五反田
8495103,佐賀県,唐津市,浜玉町大江,サガケン,カラツシ,ハマタママチオオエ,佐賀県唐津市浜玉町大江
8495104,佐賀県,唐津市,浜玉町渕上,サガケン,カラツシ,ハマタママチフチノウエ,佐賀県唐津市浜玉町渕上
8495105,佐賀県,唐津市,浜玉町谷口,サガケン,カラツシ,ハマタママチタニグチ,佐賀県唐津市浜玉町谷口
8495111,佐賀県,唐津市,浜玉町南山,サガケン,カラツシ,ハマタママチミナミヤマ,佐賀県唐津市浜玉町南山
8495112,佐賀県,唐津市,浜玉町平原,サガケン,カラツシ,ハマタママチヒラバル,佐賀県唐津市浜玉町平原
8495113,佐賀県,唐津市,浜玉町鳥巣,サガケン,カラツシ,ハマタママチトリス,佐賀県唐津市浜玉町鳥巣
8495121,佐賀県,唐津市,浜玉町横田上,サガケン,カラツシ,ハマタママチヨコタカミ,佐賀県唐津市浜玉町横田上
8495122,佐賀県,唐津市,浜玉町横田下,サガケン,カラツシ,ハマタママチヨコタシモ,佐賀県唐津市浜玉町横田下
8495123,佐賀県,唐津市,浜玉町東山田,サガケン,カラツシ,ハマタママチヒガシヤマダ,佐賀県唐津市浜玉町東山田
8495124,佐賀県,唐津市,浜玉町山瀬,サガケン,カラツシ,ハマタママチヤマセ,佐賀県唐津市浜玉町山瀬
8495131,佐賀県,唐津市,浜玉町浜崎,サガケン,カラツシ,ハマタママチハマサキ,佐賀県唐津市浜玉町浜崎
8495251,佐賀県,伊万里市,大川町大川野,サガケン,イマリシ,オオカワチョウオオカワノ,佐賀県伊万里市大川町大川野
8495252,佐賀県,伊万里市,大川町川西,サガケン,イマリシ,オオカワチョウカワニシ,佐賀県伊万里市大川町川西
8495253,佐賀県,伊万里市,大川町駒鳴,サガケン,イマリシ,オオカワチョウコマナキ,佐賀県伊万里市大川町駒鳴
8495254,佐賀県,伊万里市,大川町立川,サガケン,イマリシ,オオカワチョウタツガワ,佐賀県伊万里市大川町立川
8495255,佐賀県,伊万里市,大川町山口,サガケン,イマリシ,オオカワチョウヤマグチ,佐賀県伊万里市大川町山口
8495256,佐賀県,伊万里市,大川町東田代,サガケン,イマリシ,オオカワチョウヒガシタシロ,佐賀県伊万里市大川町東田代
8495257,佐賀県,伊万里市,大川町川原,サガケン,イマリシ,オオカワチョウカワバル,佐賀県伊万里市大川町川原
8495261,佐賀県,伊万里市,松浦町桃川,サガケン,イマリシ,マツウラチョウモモノカワ,佐賀県伊万里市松浦町桃川
8495262,佐賀県,伊万里市,松浦町中野原,サガケン,イマリシ,マツウラチョウナカノハラ,佐賀県伊万里市松浦町中野原
8495263,佐賀県,伊万里市,松浦町山形,サガケン,イマリシ,マツウラチョウヤマガタ,佐賀県伊万里市松浦町山形
8495264,佐賀県,伊万里市,松浦町提川,サガケン,イマリシ,マツウラチョウサゲノカワ,佐賀県伊万里市松浦町提川
