zipcode,prefecture_name,city,town,prefecture_kana,city_kana,town_kana,normalized_address
8115100,長崎県,壱岐市,,ナガサキケン,イキシ,,長崎県壱岐市
8115101,長崎県,壱岐市,郷ノ浦町長峰本村触,ナガサキケン,イキシ,ゴウノウラチョウナガミネホンムラフレ,長崎県壱岐市郷ノ浦町長峰本村触
8115102,長崎県,壱岐市,郷ノ浦町長峰東触,ナガサキケン,イキシ,ゴウノウラチョウナガミネヒガシフレ,長崎県壱岐市郷ノ浦町長峰東触
8115103,長崎県,壱岐市,郷ノ浦町新田触,ナガサキケン,イキシ,ゴウノウラチョウシンデンフレ,長崎県壱岐市郷ノ浦町新田触
8115104,長崎県,壱岐市,郷ノ浦町里触,ナガサキケン,イキシ,ゴウノウラチョウサトフレ,長崎県壱岐市郷ノ浦町里触
8115105,長崎県,壱岐市,郷ノ浦町小牧西触,ナガサキケン,イキシ,ゴウノウラチョウコマキニシフレ,長崎県壱岐市郷ノ浦町小牧西触
8115106,長崎県,壱岐市,郷ノ浦町小牧東触,ナガサキケン,イキシ,ゴウノウラチョウコマキヒガシフレ,長崎県壱岐市郷ノ浦町小牧東触
8115107,長崎県,壱岐市,郷ノ浦町有安触,ナガサキケン,イキシ,ゴウノウラチョウアリヤスフレ,長崎県壱岐市郷ノ浦町有安触
8115111,長崎県,壱岐市,郷ノ浦町半城本村触,ナガサキケン,イキシ,ゴウノウラチョウハンセイホンムラフレ,長崎県壱岐市郷ノ浦町半城本村触
8115112,長崎県,壱岐市,郷ノ浦町大浦触,ナガサキケン,イキシ,ゴウノウラチョウオオウラフレ,長崎県壱岐市郷ノ浦町大浦触
8115113,長崎県,壱岐市,郷ノ浦町牛方触,ナガサキケン,イキシ,ゴウノウラチョウウシカタフレ,長崎県壱岐市郷ノ浦町牛方触
8115114,長崎県,壱岐市,郷ノ浦町柳田触,ナガサキケン,イキシ,ゴウノウラチョウヤナギダフレ,長崎県壱岐市郷ノ浦町柳田触
8115115,長崎県,壱岐市,郷ノ浦町木田触,ナガサキケン,イキシ,ゴウノウラチョウキダフレ,長崎県壱岐市郷ノ浦町木田触
8115116,長崎県,壱岐市,郷ノ浦町物部本村触,ナガサキケン,イキシ,ゴウノウラチョウモノベホンムラフレ,長崎県壱岐市郷ノ浦町物部本村触
8115117,長崎県,壱岐市,郷ノ浦町田中触,ナガサキケン,イキシ,ゴウノウラチョウタナカフレ,長崎県壱岐市郷ノ浦町田中触
8115121,長崎県,壱岐市,郷ノ浦町平人触,ナガサキケン,イキシ,ゴウノウラチョウヒロウトフレ,長崎県壱岐市郷ノ浦町平人触
8115122,長崎県,壱岐市,郷ノ浦町大原触,ナガサキケン,イキシ,ゴウノウラチョウタイバルフレ,長崎県壱岐市郷ノ浦町大原触
8115123,長崎県,壱岐市,郷ノ浦町釘山触,ナガサキケン,イキシ,ゴウノウラチョウクギヤマフレ,長崎県壱岐市郷ノ浦町釘山触
8115124,長崎県,壱岐市,郷ノ浦町志原南触,ナガサキケン,イキシ,ゴウノウラチョウシハラミナミフレ,長崎県壱岐市郷ノ浦町志原南触
8115125,長崎県,壱岐市,郷ノ浦町志原西触,ナガサキケン,イキシ,ゴウノウラチョウシハラニシフレ,長崎県壱岐市郷ノ浦町志原西触
8115131,長崎県,壱岐市,郷ノ浦町永田触,ナガサキケン,イキシ,ゴウノウラチョウナガタフレ,長崎県壱岐市郷ノ浦町永田触
8115132,長崎県,壱岐市,郷ノ浦町東触,ナガサキケン,イキシ,ゴウノウラチョウヒガシフレ,長崎県壱岐市郷ノ浦町東触
8115133,長崎県,壱岐市,郷ノ浦町本村触,ナガサキケン,イキシ,ゴウノウラチョウホンムラフレ,長崎県壱岐市郷ノ浦町本村触
8115134,長崎県,壱岐市,郷ノ浦町庄触,ナガサキケン,イキシ,ゴウノウラチョウショウフレ,長崎県壱岐市郷ノ浦町庄触
8115135,長崎県,壱岐市,郷ノ浦町郷ノ浦,ナガサキケン,イキシ,ゴウノウラチョウゴウノウラ,長崎県壱岐市郷ノ浦町郷ノ浦
8115136,長崎県,壱岐市,郷ノ浦町片原触,ナガサキケン,イキシ,ゴウノウラチョウカタバルフレ,長崎県壱岐市郷ノ浦町片原触
8115141,長崎県,壱岐市,郷ノ浦町若松触,ナガサキケン,イキシ,ゴウノウラチョウワカマツフレ,長崎県壱岐市郷ノ浦町若松触
8115142,長崎県,壱岐市,郷ノ浦町坪触,ナガサキケン,イキシ,ゴウノウラチョウツボフレ,長崎県壱岐市郷ノ浦町坪触
8115143,長崎県,壱岐市,郷ノ浦町初山西触,ナガサキケン,イキシ,ゴウノウラチョウハツヤマニシフレ,長崎県壱岐市郷ノ浦町初山西触
8115144,長崎県,壱岐市,郷ノ浦町初山東触,ナガサキケン,イキシ,ゴウノウラチョウハツヤマヒガシフレ,長崎県壱岐市郷ノ浦町初山東触
8115151,長崎県,壱岐市,郷ノ浦町渡良浦,ナガサキケン,イキシ,ゴウノウラチョウワタラウラ,長崎県壱岐市郷ノ浦町渡良浦
8115152,長崎県,壱岐市,郷ノ浦町渡良南触,ナガサキケン,イキシ,ゴウノウラチョウワタラミナミフレ,長崎県壱岐市郷ノ浦町渡良南触
8115153,長崎県,壱岐市,郷ノ浦町渡良西触,ナガサキケン,イキシ,ゴウノウラチョウワタラニシフレ,長崎県壱岐市郷ノ浦町渡良西触
8115154,長崎県,壱岐市,郷ノ浦町渡良東触,ナガサキケン,イキシ,ゴウノウラチョウワタラヒガシフレ,長崎県壱岐市郷ノ浦町渡良東触
8115155,長崎県,壱岐市,郷ノ浦町麦谷触,ナガサキケン,イキシ,ゴウノウラチョウムギヤフレ,長崎県壱岐市郷ノ浦町麦谷触
8115161,長崎県,壱岐市,郷ノ浦町大島,ナガサキケン,イキシ,ゴウノウラチョウオオシマ,長崎県壱岐市郷ノ浦町大島
8115162,長崎県,壱岐市,郷ノ浦町長島,ナガサキケン,イキシ,ゴウノウラチョウナガシマ,長崎県壱岐市郷ノ浦町長島
8115163,長崎県,壱岐市,郷ノ浦町原島,ナガサキケン,イキシ,ゴウノウラチョウハルシマ,長崎県壱岐市郷ノ浦町原島
8115201,長崎県,壱岐市,石田町山崎触,ナガサキケン,イキシ,イシダチョウヤマサキフレ,長崎県壱岐市石田町山崎触
8115202,長崎県,壱岐市,石田町筒城仲触,ナガサキケン,イキシ,イシダチョウツツキナカフレ,長崎県壱岐市石田町筒城仲触
8115203,長崎県,壱岐市,石田町筒城東触,ナガサキケン,イキシ,イシダチョウツツキヒガシフレ,長崎県壱岐市石田町筒城東触
8115204,長崎県,壱岐市,石田町筒城西触,ナガサキケン,イキシ,イシダチョウツツキニシフレ,長崎県壱岐市石田町筒城西触
8115211,長崎県,壱岐市,石田町石田東触,ナガサキケン,イキシ,イシダチョウイシダヒガシフレ,長崎県壱岐市石田町石田東触
8115212,長崎県,壱岐市,石田町本村触,ナガサキケン,イキシ,イシダチョウホンムラフレ,長崎県壱岐市石田町本村触
8115213,長崎県,壱岐市,石田町南触,ナガサキケン,イキシ,イシダチョウミナミフレ,長崎県壱岐市石田町南触
8115214,長崎県,壱岐市,石田町印通寺浦,ナガサキケン,イキシ,イシダチョウインドオジウラ,長崎県壱岐市石田町印通寺浦
8115215,長崎県,壱岐市,石田町石田西触,ナガサキケン,イキシ,イシダチョウイシダニシフレ,長崎県壱岐市石田町石田西触
8115221,長崎県,壱岐市,石田町池田東触,ナガサキケン,イキシ,イシダチョウイケダヒガシフレ,長崎県壱岐市石田町池田東触
8115222,長崎県,壱岐市,石田町池田仲触,ナガサキケン,イキシ,イシダチョウイケダナカフレ,長崎県壱岐市石田町池田仲触
8115223,長崎県,壱岐市,石田町久喜触,ナガサキケン,イキシ,イシダチョウクキフレ,長崎県壱岐市石田町久喜触
8115224,長崎県,壱岐市,石田町池田西触,ナガサキケン,イキシ,イシダチョウイケダニシフレ,長崎県壱岐市石田町池田西触
8115225,長崎県,壱岐市,石田町湯岳興触,ナガサキケン,イキシ,イシダチョウユタケコウフレ,長崎県壱岐市石田町湯岳興触
8115226,長崎県,壱岐市,石田町湯岳射手吉触,ナガサキケン,イキシ,イシダチョウユタケイテヨシフレ,長崎県壱岐市石田町湯岳射手吉触
8115301,長崎県,壱岐市,芦辺町芦辺浦,ナガサキケン,イキシ,アシベチョウアシベウラ,長崎県壱岐市芦辺町芦辺浦
8115311,長崎県,壱岐市,芦辺町諸吉本村触,ナガサキケン,イキシ,アシベチョウモロヨシホンムラフレ,長崎県壱岐市芦辺町諸吉本村触
8115312,長崎県,壱岐市,芦辺町諸吉南触,ナガサキケン,イキシ,アシベチョウモロヨシミナミフレ,長崎県壱岐市芦辺町諸吉南触
8115313,長崎県,壱岐市,芦辺町諸吉仲触,ナガサキケン,イキシ,アシベチョウモロヨシナカフレ,長崎県壱岐市芦辺町諸吉仲触
8115314,長崎県,壱岐市,芦辺町諸吉東触,ナガサキケン,イキシ,アシベチョウモロヨシヒガシフレ,長崎県壱岐市芦辺町諸吉東触
8115315,長崎県,壱岐市,芦辺町諸吉二亦触,ナガサキケン,イキシ,アシベチョウモロヨシフタマタフレ,長崎県壱岐市芦辺町諸吉二亦触
8115316,長崎県,壱岐市,芦辺町諸吉大石触,ナガサキケン,イキシ,アシベチョウモロヨシオオイシフレ,長崎県壱岐市芦辺町諸吉大石触
8115321,長崎県,壱岐市,芦辺町深江栄触,ナガサキケン,イキシ,アシベチョウフカエサカエフレ,長崎県壱岐市芦辺町深江栄触
8115322,長崎県,壱岐市,芦辺町深江鶴亀触,ナガサキケン,イキシ,アシベチョウフカエツルキフレ,長崎県壱岐市芦辺町深江鶴亀触
8115323,長崎県,壱岐市,芦辺町深江平触,ナガサキケン,イキシ,アシベチョウフカエヒラフレ,長崎県壱岐市芦辺町深江平触
8115324,長崎県,壱岐市,芦辺町深江東触,ナガサキケン,イキシ,アシベチョウフカエヒガシフレ,長崎県壱岐市芦辺町深江東触
8115325,長崎県,壱岐市,芦辺町深江南触,ナガサキケン,イキシ,アシベチョウフカエミナミフレ,長崎県壱岐市芦辺町深江南触
8115326,長崎県,壱岐市,芦辺町深江本村触,ナガサキケン,イキシ,アシベチョウフカエホンムラフレ,長崎県壱岐市芦辺町深江本村触
8115461,長崎県,壱岐市,芦辺町瀬戸浦,ナガサキケン,イキシ,アシベチョウセトウラ,長崎県壱岐市芦辺町瀬戸浦
8115462,長崎県,壱岐市,芦辺町箱崎大左右触,ナガサキケン,イキシ,アシベチョウハコザキタイソウフレ,長崎県壱岐市芦辺町箱崎大左右触
8115463,長崎県,壱岐市,芦辺町箱崎中山触,ナガサキケン,イキシ,アシベチョウハコザキナカヤマフレ,長崎県壱岐市芦辺町箱崎中山触
8115464,長崎県,壱岐市,芦辺町箱崎谷江触,ナガサキケン,イキシ,アシベチョウハコザキタニエフレ,長崎県壱岐市芦辺町箱崎谷江触
8115465,長崎県,壱岐市,芦辺町箱崎釘ノ尾触,ナガサキケン,イキシ,アシベチョウハコザキクギノオフレ,長崎県壱岐市芦辺町箱崎釘ノ尾触
8115466,長崎県,壱岐市,芦辺町箱崎本村触,ナガサキケン,イキシ,アシベチョウハコザキホンムラフレ,長崎県壱岐市芦辺町箱崎本村触
8115467,長崎県,壱岐市,芦辺町箱崎江角触,ナガサキケン,イキシ,アシベチョウハコザキエスミフレ,長崎県壱岐市芦辺町箱崎江角触
8115468,長崎県,壱岐市,芦辺町箱崎諸津触,ナガサキケン,イキシ,アシベチョウハコザキモロツフレ,長崎県壱岐市芦辺町箱崎諸津触
8115501,長崎県,壱岐市,勝本町勝本浦,ナガサキケン,イキシ,カツモトチョウカツモトウラ,長崎県壱岐市勝本町勝本浦
8115511,長崎県,壱岐市,勝本町仲触,ナガサキケン,イキシ,カツモトチョウナカフレ,長崎県壱岐市勝本町仲触
8115512,長崎県,壱岐市,勝本町東触,ナガサキケン,イキシ,カツモトチョウヒガシフレ,長崎県壱岐市勝本町東触
8115513,長崎県,壱岐市,勝本町北触,ナガサキケン,イキシ,カツモトチョウキタフレ,長崎県壱岐市勝本町北触
8115521,長崎県,壱岐市,勝本町西戸触,ナガサキケン,イキシ,カツモトチョウサイドフレ,長崎県壱岐市勝本町西戸触
8115522,長崎県,壱岐市,勝本町新城東触,ナガサキケン,イキシ,カツモトチョウシンジョウヒガシフレ,長崎県壱岐市勝本町新城東触
8115523,長崎県,壱岐市,勝本町片山触,ナガサキケン,イキシ,カツモトチョウカタヤマフレ,長崎県壱岐市勝本町片山触
8115531,長崎県,壱岐市,勝本町坂本触,ナガサキケン,イキシ,カツモトチョウサカモトフレ,長崎県壱岐市勝本町坂本触
8115532,長崎県,壱岐市,勝本町大久保触,ナガサキケン,イキシ,カツモトチョウオオクボフレ,長崎県壱岐市勝本町大久保触
8115533,長崎県,壱岐市,勝本町新城西触,ナガサキケン,イキシ,カツモトチョウシンジョウニシフレ,長崎県壱岐市勝本町新城西触
8115541,長崎県,壱岐市,勝本町本宮西触,ナガサキケン,イキシ,カツモトチョウホングウニシフレ,長崎県壱岐市勝本町本宮西触
8115542,長崎県,壱岐市,勝本町本宮東触,ナガサキケン,イキシ,カツモトチョウホングウヒガシフレ,長崎県壱岐市勝本町本宮東触
8115543,長崎県,壱岐市,勝本町上場触,ナガサキケン,イキシ,カツモトチョウウワバフレ,長崎県壱岐市勝本町上場触
8115544,長崎県,壱岐市,勝本町布気触,ナガサキケン,イキシ,カツモトチョウフケフレ,長崎県壱岐市勝本町布気触
8115545,長崎県,壱岐市,勝本町本宮南触,ナガサキケン,イキシ,カツモトチョウホングウミナミフレ,長崎県壱岐市勝本町本宮南触
8115546,長崎県,壱岐市,勝本町本宮仲触,ナガサキケン,イキシ,カツモトチョウホングウナカフレ,長崎県壱岐市勝本町本宮仲触
8115551,長崎県,壱岐市,勝本町湯本浦,ナガサキケン,イキシ,カツモトチョウユノモトウラ,長崎県壱岐市勝本町湯本浦
8115552,長崎県,壱岐市,勝本町百合畑触,ナガサキケン,イキシ,カツモトチョウユリハタフレ,長崎県壱岐市勝本町百合畑触
8115553,長崎県,壱岐市,勝本町立石東触,ナガサキケン,イキシ,カツモトチョウタテイシヒガシフレ,長崎県壱岐市勝本町立石東触
8115554,長崎県,壱岐市,勝本町立石仲触,ナガサキケン,イキシ,カツモトチョウタテイシナカフレ,長崎県壱岐市勝本町立石仲触
8115555,長崎県,壱岐市,勝本町立石南触,ナガサキケン,イキシ,カツモトチョウタテイシミナミフレ,長崎県壱岐市勝本町立石南触
8115556,長崎県,壱岐市,勝本町立石西触,ナガサキケン,イキシ,カツモトチョウタテイシニシフレ,長崎県壱岐市勝本町立石西触
8115731,長崎県,壱岐市,芦辺町国分当田触,ナガサキケン,イキシ,アシベチョウコクブトウダフレ,長崎県壱岐市芦辺町国分当田触
8115732,長崎県,壱岐市,芦辺町国分東触,ナガサキケン,イキシ,アシベチョウコクブヒガシフレ,長崎県壱岐市芦辺町国分東触
8115733,長崎県,壱岐市,芦辺町国分川迎触,ナガサキケン,イキシ,アシベチョウコクブカワムカエフレ,長崎県壱岐市芦辺町国分川迎触
8115734,長崎県,壱岐市,芦辺町国分本村触,ナガサキケン,イキシ,アシベチョウコクブホンムラフレ,長崎県壱岐市芦辺町国分本村触
8115741,長崎県,壱岐市,芦辺町住吉山信触,ナガサキケン,イキシ,アシベチョウスミヨシヤマノブフレ,長崎県壱岐市芦辺町住吉山信触
8115742,長崎県,壱岐市,芦辺町住吉東触,ナガサキケン,イキシ,アシベチョウスミヨシヒガシフレ,長崎県壱岐市芦辺町住吉東触
8115743,長崎県,壱岐市,芦辺町住吉前触,ナガサキケン,イキシ,アシベチョウスミヨシマエフレ,長崎県壱岐市芦辺町住吉前触
8115744,長崎県,壱岐市,芦辺町住吉後触,ナガサキケン,イキシ,アシベチョウスミヨシウシロフレ,長崎県壱岐市芦辺町住吉後触
8115751,長崎県,壱岐市,芦辺町中野郷仲触,ナガサキケン,イキシ,アシベチョウナカノゴウナカフレ,長崎県壱岐市芦辺町中野郷仲触
8115752,長崎県,壱岐市,芦辺町中野郷東触,ナガサキケン,イキシ,アシベチョウナカノゴウヒガシフレ,長崎県壱岐市芦辺町中野郷東触
8115753,長崎県,壱岐市,芦辺町湯岳本村触,ナガサキケン,イキシ,アシベチョウユタケホンムラフレ,長崎県壱岐市芦辺町湯岳本村触
8115754,長崎県,壱岐市,芦辺町湯岳今坂触,ナガサキケン,イキシ,アシベチョウユタケコンザカフレ,長崎県壱岐市芦辺町湯岳今坂触
8115755,長崎県,壱岐市,芦辺町湯岳興触,ナガサキケン,イキシ,アシベチョウユタケコウフレ,長崎県壱岐市芦辺町湯岳興触
8115756,長崎県,壱岐市,芦辺町中野郷本村触,ナガサキケン,イキシ,アシベチョウナカノゴウホンムラフレ,長崎県壱岐市芦辺町中野郷本村触
8115757,長崎県,壱岐市,芦辺町中野郷西触,ナガサキケン,イキシ,アシベチョウナカノゴウニシフレ,長崎県壱岐市芦辺町中野郷西触
8170000,長崎県,対馬市,,ナガサキケン,ツシマシ,,長崎県対馬市
8170001,長崎県,対馬市,厳原町小浦,ナガサキケン,ツシマシ,イヅハラマチコウラ,長崎県対馬市厳原町小浦
8170002,長崎県,対馬市,厳原町曲,ナガサキケン,ツシマシ,イヅハラマチマガリ,長崎県対馬市厳原町曲
8170003,長崎県,対馬市,厳原町南室,ナガサキケン,ツシマシ,イヅハラマチナムロ,長崎県対馬市厳原町南室
8170005,長崎県,対馬市,厳原町桟原,ナガサキケン,ツシマシ,イヅハラマチサジキバラ,長崎県対馬市厳原町桟原
8170006,長崎県,対馬市,厳原町北里,ナガサキケン,ツシマシ,イヅハラマチキタザト,長崎県対馬市厳原町北里
8170011,長崎県,対馬市,厳原町宮谷,ナガサキケン,ツシマシ,イヅハラマチミヤダニ,長崎県対馬市厳原町宮谷
8170012,長崎県,対馬市,厳原町日吉,ナガサキケン,ツシマシ,イヅハラマチヒヨシ,長崎県対馬市厳原町日吉
8170013,長崎県,対馬市,厳原町中村,ナガサキケン,ツシマシ,イヅハラマチナカムラ,長崎県対馬市厳原町中村
8170014,長崎県,対馬市,厳原町天道茂,ナガサキケン,ツシマシ,イヅハラマチテンドウシゲ,長崎県対馬市厳原町天道茂
8170015,長崎県,対馬市,厳原町西里,ナガサキケン,ツシマシ,イヅハラマチニシザト,長崎県対馬市厳原町西里
8170016,長崎県,対馬市,厳原町東里,ナガサキケン,ツシマシ,イヅハラマチヒガシザト,長崎県対馬市厳原町東里
8170021,長崎県,対馬市,厳原町今屋敷,ナガサキケン,ツシマシ,イヅハラマチイマヤシキ,長崎県対馬市厳原町今屋敷
8170022,長崎県,対馬市,厳原町国分,ナガサキケン,ツシマシ,イヅハラマチコクブ,長崎県対馬市厳原町国分
8170023,長崎県,対馬市,厳原町田渕,ナガサキケン,ツシマシ,イヅハラマチタブチ,長崎県対馬市厳原町田渕
8170024,長崎県,対馬市,厳原町大手橋,ナガサキケン,ツシマシ,イヅハラマチオオテバシ,長崎県対馬市厳原町大手橋
8170031,長崎県,対馬市,厳原町久田道,ナガサキケン,ツシマシ,イヅハラマチクタミチ,長崎県対馬市厳原町久田道
8170032,長崎県,対馬市,厳原町久田,ナガサキケン,ツシマシ,イヅハラマチクタ,長崎県対馬市厳原町久田
8170033,長崎県,対馬市,厳原町尾浦,ナガサキケン,ツシマシ,イヅハラマチオウラ,長崎県対馬市厳原町尾浦
8170034,長崎県,対馬市,厳原町安神,ナガサキケン,ツシマシ,イヅハラマチアガミ,長崎県対馬市厳原町安神
8170035,長崎県,対馬市,厳原町久和,ナガサキケン,ツシマシ,イヅハラマチクワ,長崎県対馬市厳原町久和
8170151,長崎県,対馬市,厳原町与良内院,ナガサキケン,ツシマシ,イヅハラマチヨラナイイン,長崎県対馬市厳原町与良内院
8170152,長崎県,対馬市,厳原町豆酘内院,ナガサキケン,ツシマシ,イヅハラマチツツナイイン,長崎県対馬市厳原町豆酘内院
8170153,長崎県,対馬市,厳原町浅藻,ナガサキケン,ツシマシ,イヅハラマチアザモ,長崎県対馬市厳原町浅藻
8170154,長崎県,対馬市,厳原町豆酘,ナガサキケン,ツシマシ,イヅハラマチツツ,長崎県対馬市厳原町豆酘
8170155,長崎県,対馬市,厳原町豆酘瀬,ナガサキケン,ツシマシ,イヅハラマチツツセ,長崎県対馬市厳原町豆酘瀬
8170156,長崎県,対馬市,厳原町佐須瀬,ナガサキケン,ツシマシ,イヅハラマチサスセ,長崎県対馬市厳原町佐須瀬
8170157,長崎県,対馬市,厳原町内山,ナガサキケン,ツシマシ,イヅハラマチウチヤマ,長崎県対馬市厳原町内山
8170241,長崎県,対馬市,厳原町阿連,ナガサキケン,ツシマシ,イヅハラマチアレ,長崎県対馬市厳原町阿連
8170242,長崎県,対馬市,厳原町下原,ナガサキケン,ツシマシ,イヅハラマチシモバル,長崎県対馬市厳原町下原
8170243,長崎県,対馬市,厳原町樫根,ナガサキケン,ツシマシ,イヅハラマチカシネ,長崎県対馬市厳原町樫根
8170244,長崎県,対馬市,厳原町久根浜,ナガサキケン,ツシマシ,イヅハラマチクネハマ,長崎県対馬市厳原町久根浜
8170245,長崎県,対馬市,厳原町久根田舎,ナガサキケン,ツシマシ,イヅハラマチクネイナカ,長崎県対馬市厳原町久根田舎
8170246,長崎県,対馬市,厳原町上槻,ナガサキケン,ツシマシ,イヅハラマチコウツキ,長崎県対馬市厳原町上槻
8170247,長崎県,対馬市,厳原町椎根,ナガサキケン,ツシマシ,イヅハラマチシイネ,長崎県対馬市厳原町椎根
8170248,長崎県,対馬市,厳原町小茂田,ナガサキケン,ツシマシ,イヅハラマチコモダ,長崎県対馬市厳原町小茂田
8170321,長崎県,対馬市,美津島町洲藻,ナガサキケン,ツシマシ,ミツシママチスモ,長崎県対馬市美津島町洲藻
8170322,長崎県,対馬市,美津島町鶏知,ナガサキケン,ツシマシ,ミツシママチケチ,長崎県対馬市美津島町鶏知
8170323,長崎県,対馬市,美津島町大船越,ナガサキケン,ツシマシ,ミツシママチオオフナコシ,長崎県対馬市美津島町大船越
8170324,長崎県,対馬市,美津島町久須保,ナガサキケン,ツシマシ,ミツシママチクスボ,長崎県対馬市美津島町久須保
8170325,長崎県,対馬市,美津島町緒方,ナガサキケン,ツシマシ,ミツシママチオカタ,長崎県対馬市美津島町緒方
8170326,長崎県,対馬市,美津島町根緒,ナガサキケン,ツシマシ,ミツシママチネオ,長崎県対馬市美津島町根緒
8170431,長崎県,対馬市,美津島町尾崎,ナガサキケン,ツシマシ,ミツシママチオサキ,長崎県対馬市美津島町尾崎
8170432,長崎県,対馬市,美津島町今里,ナガサキケン,ツシマシ,ミツシママチイマザト,長崎県対馬市美津島町今里
8170433,長崎県,対馬市,美津島町加志,ナガサキケン,ツシマシ,ミツシママチカシ,長崎県対馬市美津島町加志
8170434,長崎県,対馬市,美津島町吹崎,ナガサキケン,ツシマシ,ミツシママチフクザキ,長崎県対馬市美津島町吹崎
8170435,長崎県,対馬市,美津島町箕形,ナガサキケン,ツシマシ,ミツシママチミカタ,長崎県対馬市美津島町箕形
8170511,長崎県,対馬市,美津島町竹敷,ナガサキケン,ツシマシ,ミツシママチタケシキ,長崎県対馬市美津島町竹敷
8170512,長崎県,対馬市,美津島町黒瀬,ナガサキケン,ツシマシ,ミツシママチクロセ,長崎県対馬市美津島町黒瀬
8170513,長崎県,対馬市,美津島町昼ケ浦,ナガサキケン,ツシマシ,ミツシママチヒルガウラ,長崎県対馬市美津島町昼ケ浦
8170514,長崎県,対馬市,美津島町島山,ナガサキケン,ツシマシ,ミツシママチシマヤマ,長崎県対馬市美津島町島山
8171101,長崎県,対馬市,美津島町小船越,ナガサキケン,ツシマシ,ミツシママチコフナコシ,長崎県対馬市美津島町小船越
8171102,長崎県,対馬市,美津島町芦浦,ナガサキケン,ツシマシ,ミツシママチヨシガウラ,長崎県対馬市美津島町芦浦
8171103,長崎県,対馬市,美津島町賀谷,ナガサキケン,ツシマシ,ミツシママチガヤ,長崎県対馬市美津島町賀谷
8171104,長崎県,対馬市,美津島町濃部,ナガサキケン,ツシマシ,ミツシママチノブ,長崎県対馬市美津島町濃部
8171105,長崎県,対馬市,美津島町大山,ナガサキケン,ツシマシ,ミツシママチオヤマ,長崎県対馬市美津島町大山
8171106,長崎県,対馬市,美津島町犬吠,ナガサキケン,ツシマシ,ミツシママチイヌボエ,長崎県対馬市美津島町犬吠
8171107,長崎県,対馬市,美津島町鴨居瀬,ナガサキケン,ツシマシ,ミツシママチカモイセ,長崎県対馬市美津島町鴨居瀬
8171201,長崎県,対馬市,豊玉町仁位,ナガサキケン,ツシマシ,トヨタママチニイ,長崎県対馬市豊玉町仁位
8171202,長崎県,対馬市,豊玉町和板,ナガサキケン,ツシマシ,トヨタママチワイタ,長崎県対馬市豊玉町和板
8171212,長崎県,対馬市,豊玉町曽,ナガサキケン,ツシマシ,トヨタママチソ,長崎県対馬市豊玉町曽
8171213,長崎県,対馬市,豊玉町千尋藻,ナガサキケン,ツシマシ,トヨタママチチロモ,長崎県対馬市豊玉町千尋藻
8171214,長崎県,対馬市,豊玉町鑓川,ナガサキケン,ツシマシ,トヨタママチヤリカワ,長崎県対馬市豊玉町鑓川
8171223,長崎県,対馬市,豊玉町横浦,ナガサキケン,ツシマシ,トヨタママチヨコウラ,長崎県対馬市豊玉町横浦
8171231,長崎県,対馬市,豊玉町糸瀬,ナガサキケン,ツシマシ,トヨタママチイトセ,長崎県対馬市豊玉町糸瀬
8171232,長崎県,対馬市,豊玉町嵯峨,ナガサキケン,ツシマシ,トヨタママチサガ,長崎県対馬市豊玉町嵯峨
8171233,長崎県,対馬市,豊玉町貝鮒,ナガサキケン,ツシマシ,トヨタママチカイフナ,長崎県対馬市豊玉町貝鮒
8171234,長崎県,対馬市,豊玉町佐志賀,ナガサキケン,ツシマシ,トヨタママチサシカ,長崎県対馬市豊玉町佐志賀
8171241,長崎県,対馬市,豊玉町貝口,ナガサキケン,ツシマシ,トヨタママチカイグチ,長崎県対馬市豊玉町貝口
8171245,長崎県,対馬市,豊玉町唐洲,ナガサキケン,ツシマシ,トヨタママチカラス,長崎県対馬市豊玉町唐洲
8171246,長崎県,対馬市,豊玉町廻,ナガサキケン,ツシマシ,トヨタママチマワリ,長崎県対馬市豊玉町廻
8171251,長崎県,対馬市,豊玉町田,ナガサキケン,ツシマシ,トヨタママチタ,長崎県対馬市豊玉町田
8171252,長崎県,対馬市,豊玉町大綱,ナガサキケン,ツシマシ,トヨタママチオオツナ,長崎県対馬市豊玉町大綱
8171253,長崎県,対馬市,豊玉町卯麦,ナガサキケン,ツシマシ,トヨタママチウムギ,長崎県対馬市豊玉町卯麦
8171254,長崎県,対馬市,豊玉町佐保,ナガサキケン,ツシマシ,トヨタママチサホ,長崎県対馬市豊玉町佐保
8171255,長崎県,対馬市,豊玉町志多浦,ナガサキケン,ツシマシ,トヨタママチシタノウラ,長崎県対馬市豊玉町志多浦
8171256,長崎県,対馬市,豊玉町小綱,ナガサキケン,ツシマシ,トヨタママチコヅナ,長崎県対馬市豊玉町小綱
8171257,長崎県,対馬市,豊玉町銘,ナガサキケン,ツシマシ,トヨタママチメイ,長崎県対馬市豊玉町銘
8171301,長崎県,対馬市,峰町三根,ナガサキケン,ツシマシ,ミネマチミネ,長崎県対馬市峰町三根
8171302,長崎県,対馬市,峰町狩尾,ナガサキケン,ツシマシ,ミネマチカリオ,長崎県対馬市峰町狩尾
8171303,長崎県,対馬市,峰町木坂,ナガサキケン,ツシマシ,ミネマチキサカ,長崎県対馬市峰町木坂
8171304,長崎県,対馬市,峰町青海,ナガサキケン,ツシマシ,ミネマチオウミ,長崎県対馬市峰町青海
8171305,長崎県,対馬市,峰町津柳,ナガサキケン,ツシマシ,ミネマチツヤナギ,長崎県対馬市峰町津柳
8171306,長崎県,対馬市,峰町吉田,ナガサキケン,ツシマシ,ミネマチヨシダ,長崎県対馬市峰町吉田
8171307,長崎県,対馬市,峰町賀佐,ナガサキケン,ツシマシ,ミネマチカサ,長崎県対馬市峰町賀佐
8171411,長崎県,対馬市,峰町櫛,ナガサキケン,ツシマシ,ミネマチクシ,長崎県対馬市峰町櫛
8171412,長崎県,対馬市,峰町佐賀,ナガサキケン,ツシマシ,ミネマチサカ,長崎県対馬市峰町佐賀
8171413,長崎県,対馬市,峰町志多賀,ナガサキケン,ツシマシ,ミネマチシタカ,長崎県対馬市峰町志多賀
8171511,長崎県,対馬市,上県町鹿見,ナガサキケン,ツシマシ,カミアガタマチシシミ,長崎県対馬市上県町鹿見
8171512,長崎県,対馬市,上県町久原,ナガサキケン,ツシマシ,カミアガタマチクバラ,長崎県対馬市上県町久原
8171513,長崎県,対馬市,上県町女連,ナガサキケン,ツシマシ,カミアガタマチウナツラ,長崎県対馬市上県町女連
8171521,長崎県,対馬市,上県町飼所,ナガサキケン,ツシマシ,カミアガタマチカイドコロ,長崎県対馬市上県町飼所
8171522,長崎県,対馬市,上県町樫滝,ナガサキケン,ツシマシ,カミアガタマチカシタキ,長崎県対馬市上県町樫滝
8171523,長崎県,対馬市,上県町瀬田,ナガサキケン,ツシマシ,カミアガタマチセタ,長崎県対馬市上県町瀬田
8171524,長崎県,対馬市,上県町犬ケ浦,ナガサキケン,ツシマシ,カミアガタマチイヌガウラ,長崎県対馬市上県町犬ケ浦
8171525,長崎県,対馬市,上県町御園,ナガサキケン,ツシマシ,カミアガタマチミソ,長崎県対馬市上県町御園
8171531,長崎県,対馬市,上県町越高,ナガサキケン,ツシマシ,カミアガタマチコシタカ,長崎県対馬市上県町越高
8171532,長崎県,対馬市,上県町伊奈,ナガサキケン,ツシマシ,カミアガタマチイナ,長崎県対馬市上県町伊奈
8171533,長崎県,対馬市,上県町志多留,ナガサキケン,ツシマシ,カミアガタマチシタル,長崎県対馬市上県町志多留
8171601,長崎県,対馬市,上県町西津屋,ナガサキケン,ツシマシ,カミアガタマチニシツヤ,長崎県対馬市上県町西津屋
8171602,長崎県,対馬市,上県町佐須奈,ナガサキケン,ツシマシ,カミアガタマチサスナ,長崎県対馬市上県町佐須奈
8171603,長崎県,対馬市,上県町佐護,ナガサキケン,ツシマシ,カミアガタマチサゴ,長崎県対馬市上県町佐護
8171701,長崎県,対馬市,上対馬町比田勝,ナガサキケン,ツシマシ,カミツシママチヒタカツ,長崎県対馬市上対馬町比田勝
8171702,長崎県,対馬市,上対馬町古里,ナガサキケン,ツシマシ,カミツシママチフルサト,長崎県対馬市上対馬町古里
8171703,長崎県,対馬市,上対馬町西泊,ナガサキケン,ツシマシ,カミツシママチニシドマリ,長崎県対馬市上対馬町西泊
8171704,長崎県,対馬市,上対馬町網代,ナガサキケン,ツシマシ,カミツシママチアジロ,長崎県対馬市上対馬町網代
8171711,長崎県,対馬市,上対馬町冨浦,ナガサキケン,ツシマシ,カミツシママチトミガウラ,長崎県対馬市上対馬町冨浦
8171712,長崎県,対馬市,上対馬町唐舟志,ナガサキケン,ツシマシ,カミツシママチトウジュウシ,長崎県対馬市上対馬町唐舟志
8171713,長崎県,対馬市,上対馬町浜久須,ナガサキケン,ツシマシ,カミツシママチハマグス,長崎県対馬市上対馬町浜久須
8171714,長崎県,対馬市,上対馬町玖須,ナガサキケン,ツシマシ,カミツシママチクス,長崎県対馬市上対馬町玖須
8171715,長崎県,対馬市,上対馬町大増,ナガサキケン,ツシマシ,カミツシママチオオマス,長崎県対馬市上対馬町大増
8171721,長崎県,対馬市,上対馬町河内,ナガサキケン,ツシマシ,カミツシママチカワチ,長崎県対馬市上対馬町河内
8171722,長崎県,対馬市,上対馬町大浦,ナガサキケン,ツシマシ,カミツシママチオオウラ,長崎県対馬市上対馬町大浦
8171723,長崎県,対馬市,上対馬町鰐浦,ナガサキケン,ツシマシ,カミツシママチワニウラ,長崎県対馬市上対馬町鰐浦
8171724,長崎県,対馬市,上対馬町豊,ナガサキケン,ツシマシ,カミツシママチトヨ,長崎県対馬市上対馬町豊
8171725,長崎県,対馬市,上対馬町泉,ナガサキケン,ツシマシ,カミツシママチイズミ,長崎県対馬市上対馬町泉
8172241,長崎県,対馬市,上対馬町小鹿,ナガサキケン,ツシマシ,カミツシママチオシカ,長崎県対馬市上対馬町小鹿
8172242,長崎県,対馬市,上対馬町一重,ナガサキケン,ツシマシ,カミツシママチヒトエ,長崎県対馬市上対馬町一重
8172243,長崎県,対馬市,上対馬町芦見,ナガサキケン,ツシマシ,カミツシママチアシミ,長崎県対馬市上対馬町芦見
8172331,長崎県,対馬市,上対馬町琴,ナガサキケン,ツシマシ,カミツシママチキン,長崎県対馬市上対馬町琴
8172332,長崎県,対馬市,上対馬町五根緒,ナガサキケン,ツシマシ,カミツシママチゴネオ,長崎県対馬市上対馬町五根緒
8172333,長崎県,対馬市,上対馬町舟志,ナガサキケン,ツシマシ,カミツシママチシュウシ,長崎県対馬市上対馬町舟志
8480401,長崎県,松浦市,福島町喜内瀬免,ナガサキケン,マツウラシ,フクシマチョウキナイセメン,長崎県松浦市福島町喜内瀬免
8480402,長崎県,松浦市,福島町端免,ナガサキケン,マツウラシ,フクシマチョウハシメン,長崎県松浦市福島町端免
8480403,長崎県,松浦市,福島町塩浜免,ナガサキケン,マツウラシ,フクシマチョウシオハマメン,長崎県松浦市福島町塩浜免
8480404,長崎県,松浦市,福島町浅谷免,ナガサキケン,マツウラシ,フクシマチョウアサガイメン,長崎県松浦市福島町浅谷免
8480405,長崎県,松浦市,福島町土谷免,ナガサキケン,マツウラシ,フクシマチョウドヤメン,長崎県松浦市福島町土谷免
8480406,長崎県,松浦市,福島町原免,ナガサキケン,マツウラシ,フクシマチョウハルメン,長崎県松浦市福島町原免
8480407,長崎県,松浦市,福島町鍋串免,ナガサキケン,マツウラシ,フクシマチョウナベグシメン,長崎県松浦市福島町鍋串免
8480408,長崎県,松浦市,福島町里免,ナガサキケン,マツウラシ,フクシマチョウサトメン,長崎県松浦市福島町里免
8500000,長崎県,長崎市,,ナガサキケン,ナガサキシ,,長崎県長崎市
8500001,長崎県,長崎市,西山,ナガサキケン,ナガサキシ,ニシヤマ,長崎県長崎市西山
8500002,長崎県,長崎市,木場町,ナガサキケン,ナガサキシ,コバマチ,長崎県長崎市木場町
8500003,長崎県,長崎市,片淵,ナガサキケン,ナガサキシ,カタフチ,長崎県長崎市片淵
8500004,長崎県,長崎市,下西山町,ナガサキケン,ナガサキシ,シモニシヤママチ,長崎県長崎市下西山町
8500005,長崎県,長崎市,西山本町,ナガサキケン,ナガサキシ,ニシヤマホンマチ,長崎県長崎市西山本町
8500006,長崎県,長崎市,上西山町,ナガサキケン,ナガサキシ,カミニシヤママチ,長崎県長崎市上西山町
8500007,長崎県,長崎市,立山,ナガサキケン,ナガサキシ,タテヤマ,長崎県長崎市立山
8500011,長崎県,長崎市,鳴滝,ナガサキケン,ナガサキシ,ナルタキ,長崎県長崎市鳴滝
8500012,長崎県,長崎市,本河内,ナガサキケン,ナガサキシ,ホンゴウチ,長崎県長崎市本河内
8500013,長崎県,長崎市,中川,ナガサキケン,ナガサキシ,ナカガワ,長崎県長崎市中川
8500014,長崎県,長崎市,新中川町,ナガサキケン,ナガサキシ,シンナカガワマチ,長崎県長崎市新中川町
8500015,長崎県,長崎市,桜馬場,ナガサキケン,ナガサキシ,サクラババ,長崎県長崎市桜馬場
8500016,長崎県,長崎市,夫婦川町,ナガサキケン,ナガサキシ,フウフガワマチ,長崎県長崎市夫婦川町
8500017,長崎県,長崎市,新大工町,ナガサキケン,ナガサキシ,シンダイクマチ,長崎県長崎市新大工町
8500018,長崎県,長崎市,伊勢町,ナガサキケン,ナガサキシ,イセマチ,長崎県長崎市伊勢町
8500021,長崎県,長崎市,炉粕町,ナガサキケン,ナガサキシ,ロカスマチ,長崎県長崎市炉粕町
8500022,長崎県,長崎市,馬町,ナガサキケン,ナガサキシ,ウママチ,長崎県長崎市馬町
8500023,長崎県,長崎市,出来大工町,ナガサキケン,ナガサキシ,デキダイクマチ,長崎県長崎市出来大工町
8500024,長崎県,長崎市,大井手町,ナガサキケン,ナガサキシ,オオイデマチ,長崎県長崎市大井手町
8500025,長崎県,長崎市,今博多町,ナガサキケン,ナガサキシ,イマハカタマチ,長崎県長崎市今博多町
8500026,長崎県,長崎市,古町,ナガサキケン,ナガサキシ,フルマチ,長崎県長崎市古町
8500027,長崎県,長崎市,桶屋町,ナガサキケン,ナガサキシ,オケヤマチ,長崎県長崎市桶屋町
8500028,長崎県,長崎市,勝山町,ナガサキケン,ナガサキシ,カツヤママチ,長崎県長崎市勝山町
8500029,長崎県,長崎市,八百屋町,ナガサキケン,ナガサキシ,ヤオヤマチ,長崎県長崎市八百屋町
8500031,長崎県,長崎市,桜町,ナガサキケン,ナガサキシ,サクラマチ,長崎県長崎市桜町
8500032,長崎県,長崎市,興善町,ナガサキケン,ナガサキシ,コウゼンマチ,長崎県長崎市興善町
8500033,長崎県,長崎市,万才町,ナガサキケン,ナガサキシ,マンザイマチ,長崎県長崎市万才町
8500034,長崎県,長崎市,樺島町,ナガサキケン,ナガサキシ,カバシママチ,長崎県長崎市樺島町
8500035,長崎県,長崎市,元船町,ナガサキケン,ナガサキシ,モトフナマチ,長崎県長崎市元船町
8500036,長崎県,長崎市,五島町,ナガサキケン,ナガサキシ,ゴトウマチ,長崎県長崎市五島町
8500037,長崎県,長崎市,金屋町,ナガサキケン,ナガサキシ,カナヤマチ,長崎県長崎市金屋町
8500041,長崎県,長崎市,浜平,ナガサキケン,ナガサキシ,ハマヒラ,長崎県長崎市浜平
8500042,長崎県,長崎市,御船蔵町,ナガサキケン,ナガサキシ,オフナグラマチ,長崎県長崎市御船蔵町
8500043,長崎県,長崎市,八千代町,ナガサキケン,ナガサキシ,ヤチヨマチ,長崎県長崎市八千代町
8500044,長崎県,長崎市,天神町,ナガサキケン,ナガサキシ,テンジンマチ,長崎県長崎市天神町
8500045,長崎県,長崎市,宝町,ナガサキケン,ナガサキシ,タカラマチ,長崎県長崎市宝町
8500046,長崎県,長崎市,幸町,ナガサキケン,ナガサキシ,サイワイマチ,長崎県長崎市幸町
8500047,長崎県,長崎市,銭座町,ナガサキケン,ナガサキシ,ゼンザマチ,長崎県長崎市銭座町
8500048,長崎県,長崎市,上銭座町,ナガサキケン,ナガサキシ,カミゼンザマチ,長崎県長崎市上銭座町
8500051,長崎県,長崎市,西坂町,ナガサキケン,ナガサキシ,ニシザカマチ,長崎県長崎市西坂町
8500052,長崎県,長崎市,筑後町,ナガサキケン,ナガサキシ,チクゴマチ,長崎県長崎市筑後町
8500053,長崎県,長崎市,玉園町,ナガサキケン,ナガサキシ,タマゾノマチ,長崎県長崎市玉園町
8500054,長崎県,長崎市,上町,ナガサキケン,ナガサキシ,ウワマチ,長崎県長崎市上町
8500055,長崎県,長崎市,中町,ナガサキケン,ナガサキシ,ナカマチ,長崎県長崎市中町
8500056,長崎県,長崎市,恵美須町,ナガサキケン,ナガサキシ,エビスマチ,長崎県長崎市恵美須町
8500057,長崎県,長崎市,大黒町,ナガサキケン,ナガサキシ,ダイコクマチ,長崎県長崎市大黒町
8500058,長崎県,長崎市,尾上町,ナガサキケン,ナガサキシ,オノウエマチ,長崎県長崎市尾上町
8500061,長崎県,長崎市,水の浦町,ナガサキケン,ナガサキシ,ミズノウラマチ,長崎県長崎市水の浦町
8500062,長崎県,長崎市,大谷町,ナガサキケン,ナガサキシ,オオタニマチ,長崎県長崎市大谷町
8500063,長崎県,長崎市,飽の浦町,ナガサキケン,ナガサキシ,アクノウラマチ,長崎県長崎市飽の浦町
8500064,長崎県,長崎市,秋月町,ナガサキケン,ナガサキシ,アキヅキマチ,長崎県長崎市秋月町
8500065,長崎県,長崎市,入船町,ナガサキケン,ナガサキシ,イリフネマチ,長崎県長崎市入船町
8500066,長崎県,長崎市,大浜町,ナガサキケン,ナガサキシ,オオハママチ,長崎県長崎市大浜町
8500067,長崎県,長崎市,小浦町,ナガサキケン,ナガサキシ,コウラマチ,長崎県長崎市小浦町
8500068,長崎県,長崎市,福田本町,ナガサキケン,ナガサキシ,フクダホンマチ,長崎県長崎市福田本町
8500071,長崎県,長崎市,塩浜町,ナガサキケン,ナガサキシ,シオハママチ,長崎県長崎市塩浜町
8500072,長崎県,長崎市,岩瀬道町,ナガサキケン,ナガサキシ,イワセドウマチ,長崎県長崎市岩瀬道町
8500073,長崎県,長崎市,東立神町,ナガサキケン,ナガサキシ,ヒガシタテガミマチ,長崎県長崎市東立神町
8500074,長崎県,長崎市,西立神町,ナガサキケン,ナガサキシ,ニシタテガミマチ,長崎県長崎市西立神町
8500075,長崎県,長崎市,西泊町,ナガサキケン,ナガサキシ,ニシドマリマチ,長崎県長崎市西泊町
8500076,長崎県,長崎市,木鉢町,ナガサキケン,ナガサキシ,キバチマチ,長崎県長崎市木鉢町
8500077,長崎県,長崎市,小瀬戸町,ナガサキケン,ナガサキシ,コセドマチ,長崎県長崎市小瀬戸町
8500078,長崎県,長崎市,神ノ島町,ナガサキケン,ナガサキシ,カミノシママチ,長崎県長崎市神ノ島町
8500079,長崎県,長崎市,みなと坂,ナガサキケン,ナガサキシ,ミナトザカ,長崎県長崎市みなと坂
8500801,長崎県,長崎市,八幡町,ナガサキケン,ナガサキシ,ヤハタマチ,長崎県長崎市八幡町
8500802,長崎県,長崎市,伊良林,ナガサキケン,ナガサキシ,イラバヤシ,長崎県長崎市伊良林
8500803,長崎県,長崎市,風頭町,ナガサキケン,ナガサキシ,カザガシラマチ,長崎県長崎市風頭町
8500804,長崎県,長崎市,彦見町,ナガサキケン,ナガサキシ,ヒコミマチ,長崎県長崎市彦見町
8500811,長崎県,長崎市,矢の平,ナガサキケン,ナガサキシ,ヤノヒラ,長崎県長崎市矢の平
8500812,長崎県,長崎市,白木町,ナガサキケン,ナガサキシ,シロキマチ,長崎県長崎市白木町
8500813,長崎県,長崎市,八つ尾町,ナガサキケン,ナガサキシ,ヤツオマチ,長崎県長崎市八つ尾町
8500821,長崎県,長崎市,高平町,ナガサキケン,ナガサキシ,タカヒラマチ,長崎県長崎市高平町
8500822,長崎県,長崎市,愛宕,ナガサキケン,ナガサキシ,アタゴ,長崎県長崎市愛宕
8500823,長崎県,長崎市,弥生町,ナガサキケン,ナガサキシ,ヤヨイマチ,長崎県長崎市弥生町
8500824,長崎県,長崎市,三景台町,ナガサキケン,ナガサキシ,サンケイダイマチ,長崎県長崎市三景台町
8500831,長崎県,長崎市,鍛冶屋町,ナガサキケン,ナガサキシ,カジヤマチ,長崎県長崎市鍛冶屋町
8500832,長崎県,長崎市,油屋町,ナガサキケン,ナガサキシ,アブラヤマチ,長崎県長崎市油屋町
8500833,長崎県,長崎市,東小島町,ナガサキケン,ナガサキシ,ヒガシコシママチ,長崎県長崎市東小島町
8500834,長崎県,長崎市,上小島,ナガサキケン,ナガサキシ,カミコシマ,長崎県長崎市上小島
8500835,長崎県,長崎市,桜木町,ナガサキケン,ナガサキシ,サクラギマチ,長崎県長崎市桜木町
8500836,長崎県,長崎市,中小島,ナガサキケン,ナガサキシ,ナカコシマ,長崎県長崎市中小島
8500837,長崎県,長崎市,西小島,ナガサキケン,ナガサキシ,ニシコシマ,長崎県長崎市西小島
8500841,長崎県,長崎市,銅座町,ナガサキケン,ナガサキシ,ドウザマチ,長崎県長崎市銅座町
8500842,長崎県,長崎市,新地町,ナガサキケン,ナガサキシ,シンチマチ,長崎県長崎市新地町
8500843,長崎県,長崎市,常盤町,ナガサキケン,ナガサキシ,トキワマチ,長崎県長崎市常盤町
8500851,長崎県,長崎市,古川町,ナガサキケン,ナガサキシ,フルカワマチ,長崎県長崎市古川町
8500852,長崎県,長崎市,万屋町,ナガサキケン,ナガサキシ,ヨロズヤマチ,長崎県長崎市万屋町
8500853,長崎県,長崎市,浜町,ナガサキケン,ナガサキシ,ハママチ,長崎県長崎市浜町
8500854,長崎県,長崎市,銀屋町,ナガサキケン,ナガサキシ,ギンヤマチ,長崎県長崎市銀屋町
8500855,長崎県,長崎市,東古川町,ナガサキケン,ナガサキシ,ヒガシフルカワマチ,長崎県長崎市東古川町
8500861,長崎県,長崎市,江戸町,ナガサキケン,ナガサキシ,エドマチ,長崎県長崎市江戸町
8500862,長崎県,長崎市,出島町,ナガサキケン,ナガサキシ,デジママチ,長崎県長崎市出島町
8500871,長崎県,長崎市,麹屋町,ナガサキケン,ナガサキシ,コウジヤマチ,長崎県長崎市麹屋町
8500872,長崎県,長崎市,寺町,ナガサキケン,ナガサキシ,テラマチ,長崎県長崎市寺町
8500873,長崎県,長崎市,諏訪町,ナガサキケン,ナガサキシ,スワマチ,長崎県長崎市諏訪町
8500874,長崎県,長崎市,魚の町,ナガサキケン,ナガサキシ,ウオノマチ,長崎県長崎市魚の町
8500875,長崎県,長崎市,栄町,ナガサキケン,ナガサキシ,サカエマチ,長崎県長崎市栄町
8500876,長崎県,長崎市,賑町,ナガサキケン,ナガサキシ,ニギワイマチ,長崎県長崎市賑町
8500877,長崎県,長崎市,築町,ナガサキケン,ナガサキシ,ツキマチ,長崎県長崎市築町
8500901,長崎県,長崎市,本石灰町,ナガサキケン,ナガサキシ,モトシックイマチ,長崎県長崎市本石灰町
8500902,長崎県,長崎市,丸山町,ナガサキケン,ナガサキシ,マルヤママチ,長崎県長崎市丸山町
8500903,長崎県,長崎市,寄合町,ナガサキケン,ナガサキシ,ヨリアイマチ,長崎県長崎市寄合町
8500904,長崎県,長崎市,船大工町,ナガサキケン,ナガサキシ,フナダイクマチ,長崎県長崎市船大工町
8500905,長崎県,長崎市,籠町,ナガサキケン,ナガサキシ,カゴマチ,長崎県長崎市籠町
8500906,長崎県,長崎市,館内町,ナガサキケン,ナガサキシ,カンナイマチ,長崎県長崎市館内町
8500907,長崎県,長崎市,稲田町,ナガサキケン,ナガサキシ,イナダマチ,長崎県長崎市稲田町
8500908,長崎県,長崎市,十人町,ナガサキケン,ナガサキシ,ジュウニンマチ,長崎県長崎市十人町
8500909,長崎県,長崎市,梅香崎町,ナガサキケン,ナガサキシ,ウメガサキマチ,長崎県長崎市梅香崎町
8500911,長崎県,長崎市,東山手町,ナガサキケン,ナガサキシ,ヒガシヤマテマチ,長崎県長崎市東山手町
8500912,長崎県,長崎市,中新町,ナガサキケン,ナガサキシ,ナカシンマチ,長崎県長崎市中新町
8500913,長崎県,長崎市,元町,ナガサキケン,ナガサキシ,モトマチ,長崎県長崎市元町
8500914,長崎県,長崎市,日の出町,ナガサキケン,ナガサキシ,ヒノデマチ,長崎県長崎市日の出町
8500915,長崎県,長崎市,東山町,ナガサキケン,ナガサキシ,ヒガシヤママチ,長崎県長崎市東山町
8500916,長崎県,長崎市,大浦東町,ナガサキケン,ナガサキシ,オオウラヒガシマチ,長崎県長崎市大浦東町
8500917,長崎県,長崎市,下町,ナガサキケン,ナガサキシ,シタマチ,長崎県長崎市下町
8500918,長崎県,長崎市,大浦町,ナガサキケン,ナガサキシ,オオウラマチ,長崎県長崎市大浦町
8500921,長崎県,長崎市,松が枝町,ナガサキケン,ナガサキシ,マツガエマチ,長崎県長崎市松が枝町
8500922,長崎県,長崎市,相生町,ナガサキケン,ナガサキシ,アイオイマチ,長崎県長崎市相生町
8500923,長崎県,長崎市,上田町,ナガサキケン,ナガサキシ,ウエダマチ,長崎県長崎市上田町
8500924,長崎県,長崎市,出雲,ナガサキケン,ナガサキシ,イズモ,長崎県長崎市出雲
8500931,長崎県,長崎市,南山手町,ナガサキケン,ナガサキシ,ミナミヤマテマチ,長崎県長崎市南山手町
8500932,長崎県,長崎市,東琴平,ナガサキケン,ナガサキシ,ヒガシコトヒラ,長崎県長崎市東琴平
8500933,長崎県,長崎市,西琴平町,ナガサキケン,ナガサキシ,ニシコトヒラマチ,長崎県長崎市西琴平町
8500934,長崎県,長崎市,小菅町,ナガサキケン,ナガサキシ,コスゲマチ,長崎県長崎市小菅町
8500935,長崎県,長崎市,古河町,ナガサキケン,ナガサキシ,フルコマチ,長崎県長崎市古河町
8500936,長崎県,長崎市,浪の平町,ナガサキケン,ナガサキシ,ナミノヒラマチ,長崎県長崎市浪の平町
8500937,長崎県,長崎市,小曽根町,ナガサキケン,ナガサキシ,コゾネマチ,長崎県長崎市小曽根町
8500941,長崎県,長崎市,高丘,ナガサキケン,ナガサキシ,タカオカ,長崎県長崎市高丘
8500942,長崎県,長崎市,南町,ナガサキケン,ナガサキシ,ミナミマチ,長崎県長崎市南町
8500943,長崎県,長崎市,南が丘町,ナガサキケン,ナガサキシ,ミナミガオカマチ,長崎県長崎市南が丘町
8500944,長崎県,長崎市,八景町,ナガサキケン,ナガサキシ,ハッケイマチ,長崎県長崎市八景町
8500945,長崎県,長崎市,星取,ナガサキケン,ナガサキシ,ホシトリ,長崎県長崎市星取
8500946,長崎県,長崎市,川上町,ナガサキケン,ナガサキシ,カワカミマチ,長崎県長崎市川上町
8500947,長崎県,長崎市,椎の木町,ナガサキケン,ナガサキシ,シイノキマチ,長崎県長崎市椎の木町
8500951,長崎県,長崎市,国分町,ナガサキケン,ナガサキシ,コクブマチ,長崎県長崎市国分町
8500952,長崎県,長崎市,戸町,ナガサキケン,ナガサキシ,トマチ,長崎県長崎市戸町
8500953,長崎県,長崎市,上戸町,ナガサキケン,ナガサキシ,カミトマチ,長崎県長崎市上戸町
8500954,長崎県,長崎市,新戸町,ナガサキケン,ナガサキシ,シントマチ,長崎県長崎市新戸町
8500961,長崎県,長崎市,小ケ倉町,ナガサキケン,ナガサキシ,コガクラマチ,長崎県長崎市小ケ倉町
8500962,長崎県,長崎市,新小が倉,ナガサキケン,ナガサキシ,シンコガクラ,長崎県長崎市新小が倉
8500963,長崎県,長崎市,ダイヤランド,ナガサキケン,ナガサキシ,ダイヤランド,長崎県長崎市ダイヤランド
8500964,長崎県,長崎市,大山町,ナガサキケン,ナガサキシ,オオヤママチ,長崎県長崎市大山町
8500971,長崎県,長崎市,磯道町,ナガサキケン,ナガサキシ,イソミチマチ,長崎県長崎市磯道町
8500972,長崎県,長崎市,古道町,ナガサキケン,ナガサキシ,フルミチマチ,長崎県長崎市古道町
8500973,長崎県,長崎市,鹿尾町,ナガサキケン,ナガサキシ,カノオマチ,長崎県長崎市鹿尾町
8500974,長崎県,長崎市,京太郎町,ナガサキケン,ナガサキシ,キョウタロウマチ,長崎県長崎市京太郎町
8500975,長崎県,長崎市,三和町,ナガサキケン,ナガサキシ,サンワマチ,長崎県長崎市三和町
8500976,長崎県,長崎市,毛井首町,ナガサキケン,ナガサキシ,ケイクビマチ,長崎県長崎市毛井首町
8500977,長崎県,長崎市,土井首町,ナガサキケン,ナガサキシ,ドイノクビマチ,長崎県長崎市土井首町
8500981,長崎県,長崎市,草住町,ナガサキケン,ナガサキシ,クサズミマチ,長崎県長崎市草住町
8500982,長崎県,長崎市,柳田町,ナガサキケン,ナガサキシ,ヤナギダマチ,長崎県長崎市柳田町
8500983,長崎県,長崎市,米山町,ナガサキケン,ナガサキシ,コメノヤママチ,長崎県長崎市米山町
8500984,長崎県,長崎市,鶴見台,ナガサキケン,ナガサキシ,ツルミダイ,長崎県長崎市鶴見台
8500985,長崎県,長崎市,平瀬町,ナガサキケン,ナガサキシ,ヒラセマチ,長崎県長崎市平瀬町
8500991,長崎県,長崎市,末石町,ナガサキケン,ナガサキシ,スエイシマチ,長崎県長崎市末石町
8500992,長崎県,長崎市,江川町,ナガサキケン,ナガサキシ,エガワマチ,長崎県長崎市江川町
8500993,長崎県,長崎市,八郎岳町,ナガサキケン,ナガサキシ,ハチロウダケマチ,長崎県長崎市八郎岳町
8500994,長崎県,長崎市,竿浦町,ナガサキケン,ナガサキシ,サオノウラマチ,長崎県長崎市竿浦町
8500995,長崎県,長崎市,平山町,ナガサキケン,ナガサキシ,ヒラヤママチ,長崎県長崎市平山町
8500996,長崎県,長崎市,平山台,ナガサキケン,ナガサキシ,ヒラヤマダイ,長崎県長崎市平山台
8510101,長崎県,長崎市,古賀町,ナガサキケン,ナガサキシ,コガマチ,長崎県長崎市古賀町
8510102,長崎県,長崎市,つつじが丘,ナガサキケン,ナガサキシ,ツツジガオカ,長崎県長崎市つつじが丘
8510103,長崎県,長崎市,中里町,ナガサキケン,ナガサキシ,ナカザトマチ,長崎県長崎市中里町
8510104,長崎県,長崎市,船石町,ナガサキケン,ナガサキシ,フナイシマチ,長崎県長崎市船石町
8510111,長崎県,長崎市,上戸石町,ナガサキケン,ナガサキシ,カミトイシマチ,長崎県長崎市上戸石町
8510112,長崎県,長崎市,川内町,ナガサキケン,ナガサキシ,カワチマチ,長崎県長崎市川内町
8510113,長崎県,長崎市,戸石町,ナガサキケン,ナガサキシ,トイシマチ,長崎県長崎市戸石町
8510114,長崎県,長崎市,牧島町,ナガサキケン,ナガサキシ,マキシママチ,長崎県長崎市牧島町
8510115,長崎県,長崎市,かき道,ナガサキケン,ナガサキシ,カキドウ,長崎県長崎市かき道
8510116,長崎県,長崎市,東町,ナガサキケン,ナガサキシ,ヒガシマチ,長崎県長崎市東町
8510121,長崎県,長崎市,宿町,ナガサキケン,ナガサキシ,シュクマチ,長崎県長崎市宿町
8510122,長崎県,長崎市,界,ナガサキケン,ナガサキシ,サカイ,長崎県長崎市界
8510123,長崎県,長崎市,網場町,ナガサキケン,ナガサキシ,アバマチ,長崎県長崎市網場町
8510124,長崎県,長崎市,春日町,ナガサキケン,ナガサキシ,カスガマチ,長崎県長崎市春日町
8510125,長崎県,長崎市,潮見町,ナガサキケン,ナガサキシ,シオミマチ,長崎県長崎市潮見町
8510126,長崎県,長崎市,芒塚町,ナガサキケン,ナガサキシ,ススキヅカマチ,長崎県長崎市芒塚町
8510131,長崎県,長崎市,松原町,ナガサキケン,ナガサキシ,マツバラマチ,長崎県長崎市松原町
8510132,長崎県,長崎市,鶴の尾町,ナガサキケン,ナガサキシ,ツルノオマチ,長崎県長崎市鶴の尾町
8510133,長崎県,長崎市,矢上町,ナガサキケン,ナガサキシ,ヤガミマチ,長崎県長崎市矢上町
8510134,長崎県,長崎市,田中町,ナガサキケン,ナガサキシ,タナカマチ,長崎県長崎市田中町
8510135,長崎県,長崎市,現川町,ナガサキケン,ナガサキシ,ウツツガワマチ,長崎県長崎市現川町
8510136,長崎県,長崎市,平間町,ナガサキケン,ナガサキシ,ヒラママチ,長崎県長崎市平間町
8510137,長崎県,長崎市,高城台,ナガサキケン,ナガサキシ,タカシロダイ,長崎県長崎市高城台
8510241,長崎県,長崎市,茂木町,ナガサキケン,ナガサキシ,モギマチ,長崎県長崎市茂木町
8510242,長崎県,長崎市,北浦町,ナガサキケン,ナガサキシ,キタウラマチ,長崎県長崎市北浦町
8510243,長崎県,長崎市,宮摺町,ナガサキケン,ナガサキシ,ミヤズリマチ,長崎県長崎市宮摺町
8510244,長崎県,長崎市,大崎町,ナガサキケン,ナガサキシ,オオサキマチ,長崎県長崎市大崎町
8510245,長崎県,長崎市,千々町,ナガサキケン,ナガサキシ,チヂマチ,長崎県長崎市千々町
8510251,長崎県,長崎市,田上,ナガサキケン,ナガサキシ,タガミ,長崎県長崎市田上
8510252,長崎県,長崎市,田手原町,ナガサキケン,ナガサキシ,タデワラマチ,長崎県長崎市田手原町
8510253,長崎県,長崎市,早坂町,ナガサキケン,ナガサキシ,ハヤサカマチ,長崎県長崎市早坂町
8510254,長崎県,長崎市,飯香浦町,ナガサキケン,ナガサキシ,イカノウラマチ,長崎県長崎市飯香浦町
8510255,長崎県,長崎市,太田尾町,ナガサキケン,ナガサキシ,オオタオマチ,長崎県長崎市太田尾町
8510301,長崎県,長崎市,深堀町,ナガサキケン,ナガサキシ,フカホリマチ,長崎県長崎市深堀町
8510302,長崎県,長崎市,大籠町,ナガサキケン,ナガサキシ,オオゴモリマチ,長崎県長崎市大籠町
8510310,長崎県,長崎市,香焼町,ナガサキケン,ナガサキシ,コウヤギマチ,長崎県長崎市香焼町
8510401,長崎県,長崎市,蚊焼町,ナガサキケン,ナガサキシ,カヤキマチ,長崎県長崎市蚊焼町
8510402,長崎県,長崎市,晴海台町,ナガサキケン,ナガサキシ,ハルミダイマチ,長崎県長崎市晴海台町
8510403,長崎県,長崎市,布巻町,ナガサキケン,ナガサキシ,ヌノマキマチ,長崎県長崎市布巻町
8510404,長崎県,長崎市,藤田尾町,ナガサキケン,ナガサキシ,トウダオマチ,長崎県長崎市藤田尾町
8510405,長崎県,長崎市,為石町,ナガサキケン,ナガサキシ,タメシマチ,長崎県長崎市為石町
8510406,長崎県,長崎市,椿が丘町,ナガサキケン,ナガサキシ,ツバキガオカマチ,長崎県長崎市椿が丘町
8510407,長崎県,長崎市,川原町,ナガサキケン,ナガサキシ,カワラマチ,長崎県長崎市川原町
8510408,長崎県,長崎市,宮崎町,ナガサキケン,ナガサキシ,ミヤザキマチ,長崎県長崎市宮崎町
8510501,長崎県,長崎市,黒浜町,ナガサキケン,ナガサキシ,クロハママチ,長崎県長崎市黒浜町
8510502,長崎県,長崎市,以下宿町,ナガサキケン,ナガサキシ,イガヤドマチ,長崎県長崎市以下宿町
8510503,長崎県,長崎市,高浜町,ナガサキケン,ナガサキシ,タカハママチ,長崎県長崎市高浜町
8510504,長崎県,長崎市,南越町,ナガサキケン,ナガサキシ,ナンゴシマチ,長崎県長崎市南越町
8510505,長崎県,長崎市,野母町,ナガサキケン,ナガサキシ,ノモマチ,長崎県長崎市野母町
8510506,長崎県,長崎市,脇岬町,ナガサキケン,ナガサキシ,ワキミサキマチ,長崎県長崎市脇岬町
8510507,長崎県,長崎市,野母崎樺島町,ナガサキケン,ナガサキシ,ノモザキカバシママチ,長崎県長崎市野母崎樺島町
8511121,長崎県,長崎市,見崎町,ナガサキケン,ナガサキシ,ミサキマチ,長崎県長崎市見崎町
8511122,長崎県,長崎市,相川町,ナガサキケン,ナガサキシ,アイガワマチ,長崎県長崎市相川町
8511123,長崎県,長崎市,四杖町,ナガサキケン,ナガサキシ,ヨツエマチ,長崎県長崎市四杖町
8511124,長崎県,長崎市,牧野町,ナガサキケン,ナガサキシ,マキノマチ,長崎県長崎市牧野町
8511125,長崎県,長崎市,園田町,ナガサキケン,ナガサキシ,ソノダマチ,長崎県長崎市園田町
8511131,長崎県,長崎市,上浦町,ナガサキケン,ナガサキシ,カミウラマチ,長崎県長崎市上浦町
8511132,長崎県,長崎市,小江原,ナガサキケン,ナガサキシ,コエバル,長崎県長崎市小江原
8511133,長崎県,長崎市,小江町,ナガサキケン,ナガサキシ,コエマチ,長崎県長崎市小江町
8511134,長崎県,長崎市,柿泊町,ナガサキケン,ナガサキシ,カキドマリマチ,長崎県長崎市柿泊町
8511135,長崎県,長崎市,手熊町,ナガサキケン,ナガサキシ,テグママチ,長崎県長崎市手熊町
8511136,長崎県,長崎市,向町,ナガサキケン,ナガサキシ,ムカエマチ,長崎県長崎市向町
8511137,長崎県,長崎市,式見町,ナガサキケン,ナガサキシ,シキミマチ,長崎県長崎市式見町
8511201,長崎県,長崎市,伊王島町,ナガサキケン,ナガサキシ,イオウジママチ,長崎県長崎市伊王島町
8511315,長崎県,長崎市,高島町,ナガサキケン,ナガサキシ,タカシママチ,長崎県長崎市高島町
8512100,長崎県,西彼杵郡時津町,,ナガサキケン,ニシソノギグントギツチョウ,,長崎県西彼杵郡時津町
8512100,長崎県,西彼杵郡長与町,,ナガサキケン,ニシソノギグンナガヨチョウ,,長崎県西彼杵郡長与町
8512101,長崎県,西彼杵郡時津町,西時津郷,ナガサキケン,ニシソノギグントギツチョウ,ニシトギツゴウ,長崎県西彼杵郡時津町西時津郷
8512102,長崎県,西彼杵郡時津町,浜田郷,ナガサキケン,ニシソノギグントギツチョウ,ハマダゴウ,長崎県西彼杵郡時津町浜田郷
8512103,長崎県,西彼杵郡時津町,元村郷,ナガサキケン,ニシソノギグントギツチョウ,モトムラゴウ,長崎県西彼杵郡時津町元村郷
8512104,長崎県,西彼杵郡時津町,野田郷,ナガサキケン,ニシソノギグントギツチョウ,ノダゴウ,長崎県西彼杵郡時津町野田郷
8512105,長崎県,西彼杵郡時津町,浦郷,ナガサキケン,ニシソノギグントギツチョウ,ウラゴウ,長崎県西彼杵郡時津町浦郷
8512106,長崎県,西彼杵郡時津町,左底郷,ナガサキケン,ニシソノギグントギツチョウ,サソコゴウ,長崎県西彼杵郡時津町左底郷
8512107,長崎県,西彼杵郡時津町,久留里郷,ナガサキケン,ニシソノギグントギツチョウ,クルリゴウ,長崎県西彼杵郡時津町久留里郷
8512108,長崎県,西彼杵郡時津町,日並郷,ナガサキケン,ニシソノギグントギツチョウ,ヒナミゴウ,長崎県西彼杵郡時津町日並郷
8512111,長崎県,西彼杵郡時津町,子々川郷,ナガサキケン,ニシソノギグントギツチョウ,シシガワゴウ,長崎県西彼杵郡時津町子々川郷
8512121,長崎県,西彼杵郡長与町,岡郷,ナガサキケン,ニシソノギグンナガヨチョウ,オカゴウ,長崎県西彼杵郡長与町岡郷
8512122,長崎県,西彼杵郡長与町,本川内郷,ナガサキケン,ニシソノギグンナガヨチョウ,ホンガワチゴウ,長崎県西彼杵郡長与町本川内郷
8512123,長崎県,西彼杵郡長与町,平木場郷,ナガサキケン,ニシソノギグンナガヨチョウ,ヒラコバゴウ,長崎県西彼杵郡長与町平木場郷
8512124,長崎県,西彼杵郡長与町,丸田郷,ナガサキケン,ニシソノギグンナガヨチョウ,マルタゴウ,長崎県西彼杵郡長与町丸田郷
8512125,長崎県,西彼杵郡長与町,三根郷,ナガサキケン,ニシソノギグンナガヨチョウ,ミネゴウ,長崎県西彼杵郡長与町三根郷
8512126,長崎県,西彼杵郡長与町,吉無田郷,ナガサキケン,ニシソノギグンナガヨチョウ,ヨシムタゴウ,長崎県西彼杵郡長与町吉無田郷
8512127,長崎県,西彼杵郡長与町,高田郷,ナガサキケン,ニシソノギグンナガヨチョウ,コウダゴウ,長崎県西彼杵郡長与町高田郷
8512128,長崎県,西彼杵郡長与町,嬉里郷,ナガサキケン,ニシソノギグンナガヨチョウ,ウレリゴウ,長崎県西彼杵郡長与町嬉里郷
8512129,長崎県,西彼杵郡長与町,斉藤郷,ナガサキケン,ニシソノギグンナガヨチョウ,サイトウゴウ,長崎県西彼杵郡長与町斉藤郷
8512130,長崎県,西彼杵郡長与町,まなび野,ナガサキケン,ニシソノギグンナガヨチョウ,マナビノ,長崎県西彼杵郡長与町まなび野
8512131,長崎県,西彼杵郡長与町,北陽台,ナガサキケン,ニシソノギグンナガヨチョウ,ホクヨウダイ,長崎県西彼杵郡長与町北陽台
8512201,長崎県,長崎市,畦町,ナガサキケン,ナガサキシ,アゼマチ,長崎県長崎市畦町
8512202,長崎県,長崎市,樫山町,ナガサキケン,ナガサキシ,カシヤママチ,長崎県長崎市樫山町
8512203,長崎県,長崎市,三重田町,ナガサキケン,ナガサキシ,ミエダマチ,長崎県長崎市三重田町
8512204,長崎県,長崎市,三重町,ナガサキケン,ナガサキシ,ミエマチ,長崎県長崎市三重町
8512205,長崎県,長崎市,松崎町,ナガサキケン,ナガサキシ,マツザキマチ,長崎県長崎市松崎町
8512206,長崎県,長崎市,三京町,ナガサキケン,ナガサキシ,サンキョウマチ,長崎県長崎市三京町
8512207,長崎県,長崎市,さくらの里,ナガサキケン,ナガサキシ,サクラノサト,長崎県長崎市さくらの里
8512211,長崎県,長崎市,京泊,ナガサキケン,ナガサキシ,キョウドマリ,長崎県長崎市京泊
8512212,長崎県,長崎市,畝刈町,ナガサキケン,ナガサキシ,アゼカリマチ,長崎県長崎市畝刈町
8512213,長崎県,長崎市,多以良町,ナガサキケン,ナガサキシ,タイラマチ,長崎県長崎市多以良町
8512214,長崎県,長崎市,鳴見町,ナガサキケン,ナガサキシ,ナルミマチ,長崎県長崎市鳴見町
8512215,長崎県,長崎市,鳴見台,ナガサキケン,ナガサキシ,ナルミダイ,長崎県長崎市鳴見台
8512216,長崎県,長崎市,豊洋台,ナガサキケン,ナガサキシ,ホウヨウダイ,長崎県長崎市豊洋台
8512321,長崎県,長崎市,赤首町,ナガサキケン,ナガサキシ,アカクビマチ,長崎県長崎市赤首町
8512322,長崎県,長崎市,西出津町,ナガサキケン,ナガサキシ,ニシシツマチ,長崎県長崎市西出津町
8512323,長崎県,長崎市,新牧野町,ナガサキケン,ナガサキシ,シンマキノマチ,長崎県長崎市新牧野町
8512324,長崎県,長崎市,上黒崎町,ナガサキケン,ナガサキシ,カミクロサキマチ,長崎県長崎市上黒崎町
8512325,長崎県,長崎市,永田町,ナガサキケン,ナガサキシ,ナガタマチ,長崎県長崎市永田町
8512326,長崎県,長崎市,下黒崎町,ナガサキケン,ナガサキシ,シモクロサキマチ,長崎県長崎市下黒崎町
8512327,長崎県,長崎市,東出津町,ナガサキケン,ナガサキシ,ヒガシシツマチ,長崎県長崎市東出津町
8512401,長崎県,長崎市,神浦口福町,ナガサキケン,ナガサキシ,コウノウラクチブクマチ,長崎県長崎市神浦口福町
8512403,長崎県,長崎市,神浦江川町,ナガサキケン,ナガサキシ,コウノウラエガワマチ,長崎県長崎市神浦江川町
8512404,長崎県,長崎市,神浦丸尾町,ナガサキケン,ナガサキシ,コウノウラマルオマチ,長崎県長崎市神浦丸尾町
8512405,長崎県,長崎市,神浦向町,ナガサキケン,ナガサキシ,コウノウラムカイマチ,長崎県長崎市神浦向町
8512411,長崎県,長崎市,神浦扇山町,ナガサキケン,ナガサキシ,コウノウラオオギヤママチ,長崎県長崎市神浦扇山町
8512413,長崎県,長崎市,神浦夏井町,ナガサキケン,ナガサキシ,コウノウラナツイマチ,長崎県長崎市神浦夏井町
8512421,長崎県,長崎市,神浦北大中尾町,ナガサキケン,ナガサキシ,コウノウラキタオオナカオマチ,長崎県長崎市神浦北大中尾町
8512422,長崎県,長崎市,神浦上大中尾町,ナガサキケン,ナガサキシ,コウノウラカミオオナカオマチ,長崎県長崎市神浦上大中尾町
8512423,長崎県,長崎市,神浦下大中尾町,ナガサキケン,ナガサキシ,コウノウラシモオオナカオマチ,長崎県長崎市神浦下大中尾町
8512424,長崎県,長崎市,神浦上道徳町,ナガサキケン,ナガサキシ,コウノウラカミドウトクマチ,長崎県長崎市神浦上道徳町
8512425,長崎県,長崎市,神浦下道徳町,ナガサキケン,ナガサキシ,コウノウラシモドウトクマチ,長崎県長崎市神浦下道徳町
8512426,長崎県,長崎市,上大野町,ナガサキケン,ナガサキシ,カミオオノマチ,長崎県長崎市上大野町
8512427,長崎県,長崎市,下大野町,ナガサキケン,ナガサキシ,シモオオノマチ,長崎県長崎市下大野町
8513101,長崎県,長崎市,西海町,ナガサキケン,ナガサキシ,ニシウミマチ,長崎県長崎市西海町
8513102,長崎県,長崎市,琴海村松町,ナガサキケン,ナガサキシ,キンカイムラマツマチ,長崎県長崎市琴海村松町
8513103,長崎県,長崎市,琴海戸根町,ナガサキケン,ナガサキシ,キンカイトネマチ,長崎県長崎市琴海戸根町
8513211,長崎県,長崎市,琴海戸根原町,ナガサキケン,ナガサキシ,キンカイトネハラマチ,長崎県長崎市琴海戸根原町
8513212,長崎県,長崎市,長浦町,ナガサキケン,ナガサキシ,ナガウラマチ,長崎県長崎市長浦町
8513213,長崎県,長崎市,琴海形上町,ナガサキケン,ナガサキシ,キンカイカタガミマチ,長崎県長崎市琴海形上町
8513214,長崎県,長崎市,琴海大平町,ナガサキケン,ナガサキシ,キンカイオオヒラマチ,長崎県長崎市琴海大平町
8513215,長崎県,長崎市,琴海尾戸町,ナガサキケン,ナガサキシ,キンカイオドマチ,長崎県長崎市琴海尾戸町
8513301,長崎県,西海市,西彼町宮浦郷,ナガサキケン,サイカイシ,セイヒチョウミヤウラゴウ,長崎県西海市西彼町宮浦郷
8513302,長崎県,西海市,西彼町中山郷,ナガサキケン,サイカイシ,セイヒチョウナカヤマゴウ,長崎県西海市西彼町中山郷
8513303,長崎県,西海市,西彼町亀浦郷,ナガサキケン,サイカイシ,セイヒチョウカメウラゴウ,長崎県西海市西彼町亀浦郷
8513304,長崎県,西海市,西彼町上岳郷,ナガサキケン,サイカイシ,セイヒチョウカミダケゴウ,長崎県西海市西彼町上岳郷
8513305,長崎県,西海市,西彼町喰場郷,ナガサキケン,サイカイシ,セイヒチョウジキバゴウ,長崎県西海市西彼町喰場郷
8513306,長崎県,西海市,西彼町鳥加郷（川山）,ナガサキケン,サイカイシ,セイヒチョウトリカゴウ(カワヤマ),長崎県西海市西彼町鳥加郷（川山）
8513311,長崎県,西海市,西彼町下岳郷,ナガサキケン,サイカイシ,セイヒチョウシモタケゴウ,長崎県西海市西彼町下岳郷
8513312,長崎県,西海市,西彼町白崎郷,ナガサキケン,サイカイシ,セイヒチョウシロサキゴウ,長崎県西海市西彼町白崎郷
8513313,長崎県,西海市,西彼町風早郷,ナガサキケン,サイカイシ,セイヒチョウカザハヤゴウ,長崎県西海市西彼町風早郷
8513314,長崎県,西海市,西彼町白似田郷,ナガサキケン,サイカイシ,セイヒチョウシラニタゴウ,長崎県西海市西彼町白似田郷
8513315,長崎県,西海市,西彼町平原郷,ナガサキケン,サイカイシ,セイヒチョウヒラバルゴウ,長崎県西海市西彼町平原郷
8513406,長崎県,西海市,西彼町鳥加郷（その他）,ナガサキケン,サイカイシ,セイヒチョウトリカゴウ(ソノタ),長崎県西海市西彼町鳥加郷（その他）
8513421,長崎県,西海市,西彼町伊ノ浦郷,ナガサキケン,サイカイシ,セイヒチョウイノウラゴウ,長崎県西海市西彼町伊ノ浦郷
8513422,長崎県,西海市,西彼町小迎郷,ナガサキケン,サイカイシ,セイヒチョウコムカエゴウ,長崎県西海市西彼町小迎郷
8513423,長崎県,西海市,西彼町八木原郷,ナガサキケン,サイカイシ,セイヒチョウヤキハラゴウ,長崎県西海市西彼町八木原郷
8513424,長崎県,西海市,西彼町大串郷,ナガサキケン,サイカイシ,セイヒチョウオオクシゴウ,長崎県西海市西彼町大串郷
8513425,長崎県,西海市,西彼町平山郷,ナガサキケン,サイカイシ,セイヒチョウヒラヤマゴウ,長崎県西海市西彼町平山郷
8513500,長崎県,西海市,,ナガサキケン,サイカイシ,,長崎県西海市
8513501,長崎県,西海市,西海町丹納郷,ナガサキケン,サイカイシ,サイカイチョウタンノウゴウ,長崎県西海市西海町丹納郷
8513502,長崎県,西海市,西海町川内郷,ナガサキケン,サイカイシ,サイカイチョウカワチゴウ,長崎県西海市西海町川内郷
8513503,長崎県,西海市,西海町太田原郷,ナガサキケン,サイカイシ,サイカイチョウオオタハラゴウ,長崎県西海市西海町太田原郷
8513504,長崎県,西海市,西海町木場郷,ナガサキケン,サイカイシ,サイカイチョウコバゴウ,長崎県西海市西海町木場郷
8513505,長崎県,西海市,西海町太田和郷,ナガサキケン,サイカイシ,サイカイチョウオオタワゴウ,長崎県西海市西海町太田和郷
8513506,長崎県,西海市,西海町黒口郷,ナガサキケン,サイカイシ,サイカイチョウクロクチゴウ,長崎県西海市西海町黒口郷
8513507,長崎県,西海市,西海町天久保郷,ナガサキケン,サイカイシ,サイカイチョウアマクボゴウ,長崎県西海市西海町天久保郷
8513508,長崎県,西海市,西海町面高郷,ナガサキケン,サイカイシ,サイカイチョウオモダカゴウ,長崎県西海市西海町面高郷
8513509,長崎県,西海市,西海町横瀬郷,ナガサキケン,サイカイシ,サイカイチョウヨコセゴウ,長崎県西海市西海町横瀬郷
8513511,長崎県,西海市,西海町水浦郷,ナガサキケン,サイカイシ,サイカイチョウミズノウラゴウ,長崎県西海市西海町水浦郷
8528001,長崎県,長崎市,光町,ナガサキケン,ナガサキシ,ヒカリマチ,長崎県長崎市光町
8528002,長崎県,長崎市,弁天町,ナガサキケン,ナガサキシ,ベンテンマチ,長崎県長崎市弁天町
8528003,長崎県,長崎市,旭町,ナガサキケン,ナガサキシ,アサヒマチ,長崎県長崎市旭町
8528004,長崎県,長崎市,丸尾町,ナガサキケン,ナガサキシ,マルオマチ,長崎県長崎市丸尾町
8528005,長崎県,長崎市,大鳥町,ナガサキケン,ナガサキシ,オオトリマチ,長崎県長崎市大鳥町
8528006,長崎県,長崎市,平戸小屋町,ナガサキケン,ナガサキシ,ヒラドゴヤマチ,長崎県長崎市平戸小屋町
8528007,長崎県,長崎市,江の浦町,ナガサキケン,ナガサキシ,エノウラマチ,長崎県長崎市江の浦町
8528008,長崎県,長崎市,曙町,ナガサキケン,ナガサキシ,アケボノマチ,長崎県長崎市曙町
8528011,長崎県,長崎市,稲佐町,ナガサキケン,ナガサキシ,イナサマチ,長崎県長崎市稲佐町
8528012,長崎県,長崎市,淵町,ナガサキケン,ナガサキシ,フチマチ,長崎県長崎市淵町
8528013,長崎県,長崎市,梁川町,ナガサキケン,ナガサキシ,ヤナガワマチ,長崎県長崎市梁川町
8528014,長崎県,長崎市,竹の久保町,ナガサキケン,ナガサキシ,タケノクボマチ,長崎県長崎市竹の久保町
8528015,長崎県,長崎市,春木町,ナガサキケン,ナガサキシ,ハルキマチ,長崎県長崎市春木町
8528016,長崎県,長崎市,宝栄町,ナガサキケン,ナガサキシ,ホウエイマチ,長崎県長崎市宝栄町
8528017,長崎県,長崎市,岩見町,ナガサキケン,ナガサキシ,イワミマチ,長崎県長崎市岩見町
8528021,長崎県,長崎市,城山町,ナガサキケン,ナガサキシ,シロヤママチ,長崎県長崎市城山町
8528022,長崎県,長崎市,富士見町,ナガサキケン,ナガサキシ,フジミマチ,長崎県長崎市富士見町
8528023,長崎県,長崎市,若草町,ナガサキケン,ナガサキシ,ワカクサマチ,長崎県長崎市若草町
8528024,長崎県,長崎市,花園町,ナガサキケン,ナガサキシ,ハナゾノマチ,長崎県長崎市花園町
8528025,長崎県,長崎市,立岩町,ナガサキケン,ナガサキシ,タテイワマチ,長崎県長崎市立岩町
8528026,長崎県,長崎市,金堀町,ナガサキケン,ナガサキシ,カナホリマチ,長崎県長崎市金堀町
8528027,長崎県,長崎市,城山台,ナガサキケン,ナガサキシ,シロヤマダイ,長崎県長崎市城山台
8528031,長崎県,長崎市,三芳町,ナガサキケン,ナガサキシ,ミヨシマチ,長崎県長崎市三芳町
8528032,長崎県,長崎市,江里町,ナガサキケン,ナガサキシ,エリマチ,長崎県長崎市江里町
8528033,長崎県,長崎市,緑が丘町,ナガサキケン,ナガサキシ,ミドリガオカマチ,長崎県長崎市緑が丘町
8528034,長崎県,長崎市,城栄町,ナガサキケン,ナガサキシ,ジョウエイマチ,長崎県長崎市城栄町
8528035,長崎県,長崎市,油木町,ナガサキケン,ナガサキシ,アブラギマチ,長崎県長崎市油木町
8528036,長崎県,長崎市,青山町,ナガサキケン,ナガサキシ,アオヤママチ,長崎県長崎市青山町
8528041,長崎県,長崎市,清水町,ナガサキケン,ナガサキシ,シミズマチ,長崎県長崎市清水町
8528042,長崎県,長崎市,白鳥町,ナガサキケン,ナガサキシ,シラトリマチ,長崎県長崎市白鳥町
8528043,長崎県,長崎市,西町,ナガサキケン,ナガサキシ,ニシマチ,長崎県長崎市西町
8528044,長崎県,長崎市,音無町,ナガサキケン,ナガサキシ,オトナシマチ,長崎県長崎市音無町
8528045,長崎県,長崎市,錦,ナガサキケン,ナガサキシ,ニシキ,長崎県長崎市錦
8528046,長崎県,長崎市,柳谷町,ナガサキケン,ナガサキシ,ヤナギダニマチ,長崎県長崎市柳谷町
8528047,長崎県,長崎市,若竹町,ナガサキケン,ナガサキシ,ワカタケマチ,長崎県長崎市若竹町
8528051,長崎県,長崎市,西北町,ナガサキケン,ナガサキシ,ニシキタマチ,長崎県長崎市西北町
8528052,長崎県,長崎市,岩屋町,ナガサキケン,ナガサキシ,イワヤマチ,長崎県長崎市岩屋町
8528053,長崎県,長崎市,葉山,ナガサキケン,ナガサキシ,ハヤマ,長崎県長崎市葉山
8528054,長崎県,長崎市,エミネント葉山町,ナガサキケン,ナガサキシ,エミネントハヤママチ,長崎県長崎市エミネント葉山町
8528055,長崎県,長崎市,虹が丘町,ナガサキケン,ナガサキシ,ニジガオカマチ,長崎県長崎市虹が丘町
8528056,長崎県,長崎市,大宮町,ナガサキケン,ナガサキシ,オオミヤマチ,長崎県長崎市大宮町
8528061,長崎県,長崎市,滑石,ナガサキケン,ナガサキシ,ナメシ,長崎県長崎市滑石
8528062,長崎県,長崎市,大園町,ナガサキケン,ナガサキシ,オオゾノマチ,長崎県長崎市大園町
8528063,長崎県,長崎市,北栄町,ナガサキケン,ナガサキシ,ホクエイマチ,長崎県長崎市北栄町
8528064,長崎県,長崎市,北陽町,ナガサキケン,ナガサキシ,ホクヨウマチ,長崎県長崎市北陽町
8528065,長崎県,長崎市,横尾,ナガサキケン,ナガサキシ,ヨコオ,長崎県長崎市横尾
8528101,長崎県,長崎市,江平,ナガサキケン,ナガサキシ,エビラ,長崎県長崎市江平
8528102,長崎県,長崎市,坂本,ナガサキケン,ナガサキシ,サカモト,長崎県長崎市坂本
8528103,長崎県,長崎市,緑町,ナガサキケン,ナガサキシ,ミドリマチ,長崎県長崎市緑町
8528104,長崎県,長崎市,茂里町,ナガサキケン,ナガサキシ,モリマチ,長崎県長崎市茂里町
8528105,長崎県,長崎市,目覚町,ナガサキケン,ナガサキシ,メザメマチ,長崎県長崎市目覚町
8528106,長崎県,長崎市,岩川町,ナガサキケン,ナガサキシ,イワカワマチ,長崎県長崎市岩川町
8528107,長崎県,長崎市,浜口町,ナガサキケン,ナガサキシ,ハマグチマチ,長崎県長崎市浜口町
8528108,長崎県,長崎市,川口町,ナガサキケン,ナガサキシ,カワグチマチ,長崎県長崎市川口町
8528111,長崎県,長崎市,高尾町,ナガサキケン,ナガサキシ,タカオマチ,長崎県長崎市高尾町
8528112,長崎県,長崎市,本尾町,ナガサキケン,ナガサキシ,モトオマチ,長崎県長崎市本尾町
8528113,長崎県,長崎市,上野町,ナガサキケン,ナガサキシ,ウエノマチ,長崎県長崎市上野町
8528114,長崎県,長崎市,橋口町,ナガサキケン,ナガサキシ,ハシグチマチ,長崎県長崎市橋口町
8528115,長崎県,長崎市,岡町,ナガサキケン,ナガサキシ,オカマチ,長崎県長崎市岡町
8528116,長崎県,長崎市,平和町,ナガサキケン,ナガサキシ,ヘイワマチ,長崎県長崎市平和町
8528117,長崎県,長崎市,平野町,ナガサキケン,ナガサキシ,ヒラノマチ,長崎県長崎市平野町
8528118,長崎県,長崎市,松山町,ナガサキケン,ナガサキシ,マツヤママチ,長崎県長崎市松山町
8528121,長崎県,長崎市,三川町,ナガサキケン,ナガサキシ,ミカワマチ,長崎県長崎市三川町
8528122,長崎県,長崎市,西山台,ナガサキケン,ナガサキシ,ニシヤマダイ,長崎県長崎市西山台
8528123,長崎県,長崎市,三原,ナガサキケン,ナガサキシ,ミハラ,長崎県長崎市三原
8528124,長崎県,長崎市,辻町,ナガサキケン,ナガサキシ,ツジマチ,長崎県長崎市辻町
8528125,長崎県,長崎市,小峰町,ナガサキケン,ナガサキシ,コミネマチ,長崎県長崎市小峰町
8528126,長崎県,長崎市,石神町,ナガサキケン,ナガサキシ,イシガミマチ,長崎県長崎市石神町
8528127,長崎県,長崎市,大手,ナガサキケン,ナガサキシ,オオテ,長崎県長崎市大手
8528131,長崎県,長崎市,文教町,ナガサキケン,ナガサキシ,ブンキョウマチ,長崎県長崎市文教町
8528132,長崎県,長崎市,扇町,ナガサキケン,ナガサキシ,オウギマチ,長崎県長崎市扇町
8528133,長崎県,長崎市,本原町,ナガサキケン,ナガサキシ,モトハラマチ,長崎県長崎市本原町
8528134,長崎県,長崎市,大橋町,ナガサキケン,ナガサキシ,オオバシマチ,長崎県長崎市大橋町
8528135,長崎県,長崎市,千歳町,ナガサキケン,ナガサキシ,チトセマチ,長崎県長崎市千歳町
8528136,長崎県,長崎市,家野町,ナガサキケン,ナガサキシ,イエノマチ,長崎県長崎市家野町
8528137,長崎県,長崎市,若葉町,ナガサキケン,ナガサキシ,ワカバマチ,長崎県長崎市若葉町
8528141,長崎県,長崎市,畦別当町,ナガサキケン,ナガサキシ,アゼベツトウマチ,長崎県長崎市畦別当町
8528142,長崎県,長崎市,三ツ山町,ナガサキケン,ナガサキシ,ミツヤママチ,長崎県長崎市三ツ山町
8528143,長崎県,長崎市,川平町,ナガサキケン,ナガサキシ,カワヒラマチ,長崎県長崎市川平町
8528144,長崎県,長崎市,女の都,ナガサキケン,ナガサキシ,メノト,長崎県長崎市女の都
8528145,長崎県,長崎市,昭和,ナガサキケン,ナガサキシ,ショウワ,長崎県長崎市昭和
8528146,長崎県,長崎市,けやき台町,ナガサキケン,ナガサキシ,ケヤキダイマチ,長崎県長崎市けやき台町
8528151,長崎県,長崎市,泉,ナガサキケン,ナガサキシ,イズミ,長崎県長崎市泉
8528152,長崎県,長崎市,住吉台町,ナガサキケン,ナガサキシ,スミヨシダイマチ,長崎県長崎市住吉台町
8528153,長崎県,長崎市,花丘町,ナガサキケン,ナガサキシ,ハナオカマチ,長崎県長崎市花丘町
8528154,長崎県,長崎市,住吉町,ナガサキケン,ナガサキシ,スミヨシマチ,長崎県長崎市住吉町
8528155,長崎県,長崎市,中園町,ナガサキケン,ナガサキシ,ナカゾノマチ,長崎県長崎市中園町
8528156,長崎県,長崎市,赤迫,ナガサキケン,ナガサキシ,アカサコ,長崎県長崎市赤迫
8528157,長崎県,長崎市,泉町,ナガサキケン,ナガサキシ,イズミマチ,長崎県長崎市泉町
8530000,長崎県,五島市,,ナガサキケン,ゴトウシ,,長崎県五島市
8530001,長崎県,五島市,栄町,ナガサキケン,ゴトウシ,サカエマチ,長崎県五島市栄町
8530002,長崎県,五島市,中央町,ナガサキケン,ゴトウシ,チュウオウマチ,長崎県五島市中央町
8530003,長崎県,五島市,錦町,ナガサキケン,ゴトウシ,ニシキマチ,長崎県五島市錦町
8530004,長崎県,五島市,幸町,ナガサキケン,ゴトウシ,サイワイマチ,長崎県五島市幸町
8530005,長崎県,五島市,末広町,ナガサキケン,ゴトウシ,スエヒロマチ,長崎県五島市末広町
8530006,長崎県,五島市,江川町,ナガサキケン,ゴトウシ,エガワマチ,長崎県五島市江川町
8530007,長崎県,五島市,福江町,ナガサキケン,ゴトウシ,フクエチョウ,長崎県五島市福江町
8530011,長崎県,五島市,下大津町,ナガサキケン,ゴトウシ,シモオオヅチョウ,長崎県五島市下大津町
8530012,長崎県,五島市,長手町,ナガサキケン,ゴトウシ,ナガテチョウ,長崎県五島市長手町
8530013,長崎県,五島市,上大津町,ナガサキケン,ゴトウシ,カミオオヅチョウ,長崎県五島市上大津町
8530014,長崎県,五島市,三尾野町,ナガサキケン,ゴトウシ,ミオノチョウ,長崎県五島市三尾野町
8530015,長崎県,五島市,東浜町,ナガサキケン,ゴトウシ,ヒガシハママチ,長崎県五島市東浜町
8530016,長崎県,五島市,紺屋町,ナガサキケン,ゴトウシ,コンヤマチ,長崎県五島市紺屋町
8530017,長崎県,五島市,武家屋敷,ナガサキケン,ゴトウシ,ブケヤシキ,長崎県五島市武家屋敷
8530018,長崎県,五島市,池田町,ナガサキケン,ゴトウシ,イケダマチ,長崎県五島市池田町
8530021,長崎県,五島市,下崎山町,ナガサキケン,ゴトウシ,シモサキヤマチョウ,長崎県五島市下崎山町
8530022,長崎県,五島市,向町,ナガサキケン,ゴトウシ,ムカエチョウ,長崎県五島市向町
8530023,長崎県,五島市,上崎山町,ナガサキケン,ゴトウシ,カミサキヤマチョウ,長崎県五島市上崎山町
8530024,長崎県,五島市,野々切町,ナガサキケン,ゴトウシ,ノノキレチョウ,長崎県五島市野々切町
8530025,長崎県,五島市,小泊町,ナガサキケン,ゴトウシ,オドマリチョウ,長崎県五島市小泊町
8530026,長崎県,五島市,浜町,ナガサキケン,ゴトウシ,ハマチョウ,長崎県五島市浜町
8530027,長崎県,五島市,増田町,ナガサキケン,ゴトウシ,マスダチョウ,長崎県五島市増田町
8530031,長崎県,五島市,吉久木町,ナガサキケン,ゴトウシ,ヨシクギチョウ,長崎県五島市吉久木町
8530032,長崎県,五島市,大荒町,ナガサキケン,ゴトウシ,オオアレチョウ,長崎県五島市大荒町
8530033,長崎県,五島市,木場町,ナガサキケン,ゴトウシ,コバチョウ,長崎県五島市木場町
8530041,長崎県,五島市,籠淵町,ナガサキケン,ゴトウシ,コモリブチチョウ,長崎県五島市籠淵町
8530042,長崎県,五島市,吉田町,ナガサキケン,ゴトウシ,ヨシダチョウ,長崎県五島市吉田町
8530043,長崎県,五島市,高田町,ナガサキケン,ゴトウシ,コウダチョウ,長崎県五島市高田町
8530044,長崎県,五島市,堤町,ナガサキケン,ゴトウシ,ツツミチョウ,長崎県五島市堤町
8530051,長崎県,五島市,平蔵町,ナガサキケン,ゴトウシ,ヒラゾウチョウ,長崎県五島市平蔵町
8530052,長崎県,五島市,松山町,ナガサキケン,ゴトウシ,マツヤマチョウ,長崎県五島市松山町
8530053,長崎県,五島市,奥浦町,ナガサキケン,ゴトウシ,オクウラチョウ,長崎県五島市奥浦町
8530054,長崎県,五島市,戸岐町,ナガサキケン,ゴトウシ,トギチョウ,長崎県五島市戸岐町
8530061,長崎県,五島市,黄島町,ナガサキケン,ゴトウシ,オウシマチョウ,長崎県五島市黄島町
8530062,長崎県,五島市,赤島町,ナガサキケン,ゴトウシ,アカシマチョウ,長崎県五島市赤島町
8530063,長崎県,五島市,新港町,ナガサキケン,ゴトウシ,シンミナトマチ,長崎県五島市新港町
8530064,長崎県,五島市,三尾野,ナガサキケン,ゴトウシ,ミオノ,長崎県五島市三尾野
8530065,長崎県,五島市,坂の上,ナガサキケン,ゴトウシ,サカノウエ,長崎県五島市坂の上
8530066,長崎県,五島市,大円寺町,ナガサキケン,ゴトウシ,ダイエンジチョウ,長崎県五島市大円寺町
8530201,長崎県,五島市,富江町富江,ナガサキケン,ゴトウシ,トミエマチトミエ,長崎県五島市富江町富江
8530202,長崎県,五島市,富江町松尾,ナガサキケン,ゴトウシ,トミエマチマツオ,長崎県五島市富江町松尾
8530203,長崎県,五島市,富江町田尾,ナガサキケン,ゴトウシ,トミエマチタオ,長崎県五島市富江町田尾
8530204,長崎県,五島市,富江町繁敷,ナガサキケン,ゴトウシ,トミエマチシゲジキ,長崎県五島市富江町繁敷
8530205,長崎県,五島市,富江町狩立,ナガサキケン,ゴトウシ,トミエマチカリタテ,長崎県五島市富江町狩立
8530206,長崎県,五島市,富江町山手,ナガサキケン,ゴトウシ,トミエマチヤマテ,長崎県五島市富江町山手
8530207,長崎県,五島市,富江町長峰,ナガサキケン,ゴトウシ,トミエマチナガミネ,長崎県五島市富江町長峰
8530208,長崎県,五島市,富江町黒島,ナガサキケン,ゴトウシ,トミエマチクロシマ,長崎県五島市富江町黒島
8530211,長崎県,五島市,富江町黒瀬,ナガサキケン,ゴトウシ,トミエマチクロセ,長崎県五島市富江町黒瀬
8530212,長崎県,五島市,富江町山下,ナガサキケン,ゴトウシ,トミエマチヤマシタ,長崎県五島市富江町山下
8530213,長崎県,五島市,富江町岳,ナガサキケン,ゴトウシ,トミエマチタケ,長崎県五島市富江町岳
8530214,長崎県,五島市,富江町土取,ナガサキケン,ゴトウシ,トミエマチツチトリ,長崎県五島市富江町土取
8530215,長崎県,五島市,富江町職人,ナガサキケン,ゴトウシ,トミエマチショクニン,長崎県五島市富江町職人
8530311,長崎県,五島市,岐宿町二本楠,ナガサキケン,ゴトウシ,キシクマチニホングス,長崎県五島市岐宿町二本楠
8530312,長崎県,五島市,岐宿町中嶽,ナガサキケン,ゴトウシ,キシクマチナカダケ,長崎県五島市岐宿町中嶽
8530313,長崎県,五島市,岐宿町松山,ナガサキケン,ゴトウシ,キシクマチマツヤマ,長崎県五島市岐宿町松山
8530411,長崎県,五島市,玉之浦町玉之浦,ナガサキケン,ゴトウシ,タマノウラマチタマノウラ,長崎県五島市玉之浦町玉之浦
8530412,長崎県,五島市,玉之浦町立谷,ナガサキケン,ゴトウシ,タマノウラマチタチヤ,長崎県五島市玉之浦町立谷
8530413,長崎県,五島市,玉之浦町大宝,ナガサキケン,ゴトウシ,タマノウラマチダイホウ,長崎県五島市玉之浦町大宝
8530501,長崎県,五島市,玉之浦町荒川,ナガサキケン,ゴトウシ,タマノウラマチアラカワ,長崎県五島市玉之浦町荒川
8530502,長崎県,五島市,玉之浦町幾久山,ナガサキケン,ゴトウシ,タマノウラマチイツクヤマ,長崎県五島市玉之浦町幾久山
8530503,長崎県,五島市,玉之浦町小川,ナガサキケン,ゴトウシ,タマノウラマチオガワ,長崎県五島市玉之浦町小川
8530504,長崎県,五島市,玉之浦町丹奈,ナガサキケン,ゴトウシ,タマノウラマチタンナ,長崎県五島市玉之浦町丹奈
8530505,長崎県,五島市,玉之浦町中須,ナガサキケン,ゴトウシ,タマノウラマチナカス,長崎県五島市玉之浦町中須
8530506,長崎県,五島市,玉之浦町上の平,ナガサキケン,ゴトウシ,タマノウラマチカミノヒラ,長崎県五島市玉之浦町上の平
8530507,長崎県,五島市,玉之浦町頓泊,ナガサキケン,ゴトウシ,タマノウラマチトントマリ,長崎県五島市玉之浦町頓泊
8530508,長崎県,五島市,玉之浦町布浦,ナガサキケン,ゴトウシ,タマノウラマチヌノウラ,長崎県五島市玉之浦町布浦
8530601,長崎県,五島市,三井楽町濱ノ畔,ナガサキケン,ゴトウシ,ミイラクマチハマノクリ,長崎県五島市三井楽町濱ノ畔
8530602,長崎県,五島市,三井楽町大川,ナガサキケン,ゴトウシ,ミイラクマチオオカワ,長崎県五島市三井楽町大川
8530603,長崎県,五島市,三井楽町柏,ナガサキケン,ゴトウシ,ミイラクマチカシワ,長崎県五島市三井楽町柏
8530604,長崎県,五島市,三井楽町貝津,ナガサキケン,ゴトウシ,ミイラクマチカイツ,長崎県五島市三井楽町貝津
8530605,長崎県,五島市,三井楽町濱窄,ナガサキケン,ゴトウシ,ミイラクマチハマサコ,長崎県五島市三井楽町濱窄
8530606,長崎県,五島市,三井楽町丑ノ浦,ナガサキケン,ゴトウシ,ミイラクマチウシノウラ,長崎県五島市三井楽町丑ノ浦
8530607,長崎県,五島市,三井楽町嶽,ナガサキケン,ゴトウシ,ミイラクマチタケ,長崎県五島市三井楽町嶽
8530608,長崎県,五島市,三井楽町波砂間,ナガサキケン,ゴトウシ,ミイラクマチハサマ,長崎県五島市三井楽町波砂間
8530609,長崎県,五島市,三井楽町渕ノ元,ナガサキケン,ゴトウシ,ミイラクマチフチノモト,長崎県五島市三井楽町渕ノ元
8530611,長崎県,五島市,三井楽町嵯峨島,ナガサキケン,ゴトウシ,ミイラクマチサガノシマ,長崎県五島市三井楽町嵯峨島
8530612,長崎県,五島市,三井楽町高崎,ナガサキケン,ゴトウシ,ミイラクマチタカサキ,長崎県五島市三井楽町高崎
8530613,長崎県,五島市,三井楽町塩水,ナガサキケン,ゴトウシ,ミイラクマチシオミズ,長崎県五島市三井楽町塩水
8530701,長崎県,五島市,岐宿町岐宿,ナガサキケン,ゴトウシ,キシクマチキシク,長崎県五島市岐宿町岐宿
8530702,長崎県,五島市,岐宿町川原,ナガサキケン,ゴトウシ,キシクマチカワラ,長崎県五島市岐宿町川原
8530703,長崎県,五島市,岐宿町楠原,ナガサキケン,ゴトウシ,キシクマチクスハラ,長崎県五島市岐宿町楠原
8530704,長崎県,五島市,岐宿町河務,ナガサキケン,ゴトウシ,キシクマチコウム,長崎県五島市岐宿町河務
8530705,長崎県,五島市,岐宿町戸岐ノ首,ナガサキケン,ゴトウシ,キシクマチトギノクビ,長崎県五島市岐宿町戸岐ノ首
8530706,長崎県,五島市,岐宿町唐船ノ浦,ナガサキケン,ゴトウシ,キシクマチトウセンノウラ,長崎県五島市岐宿町唐船ノ浦
8532171,長崎県,五島市,久賀町,ナガサキケン,ゴトウシ,ヒサカチョウ,長崎県五島市久賀町
8532172,長崎県,五島市,蕨町,ナガサキケン,ゴトウシ,ワラビチョウ,長崎県五島市蕨町
8532173,長崎県,五島市,田ノ浦町,ナガサキケン,ゴトウシ,タノウラチョウ,長崎県五島市田ノ浦町
8532174,長崎県,五島市,猪之木町,ナガサキケン,ゴトウシ,イノキチョウ,長崎県五島市猪之木町
8532201,長崎県,五島市,奈留町浦,ナガサキケン,ゴトウシ,ナルマチウラ,長崎県五島市奈留町浦
8532202,長崎県,五島市,奈留町大串,ナガサキケン,ゴトウシ,ナルマチオオクシ,長崎県五島市奈留町大串
8532203,長崎県,五島市,奈留町泊,ナガサキケン,ゴトウシ,ナルマチトマリ,長崎県五島市奈留町泊
8532204,長崎県,五島市,奈留町船廻,ナガサキケン,ゴトウシ,ナルマチフナマワリ,長崎県五島市奈留町船廻
8532301,長崎県,南松浦郡新上五島町,若松郷,ナガサキケン,ミナミマツウラグンシンカミゴトウチョウ,ワカマツゴウ,長崎県南松浦郡新上五島町若松郷
8532302,長崎県,南松浦郡新上五島町,桐古里郷,ナガサキケン,ミナミマツウラグンシンカミゴトウチョウ,キリフルサトゴウ,長崎県南松浦郡新上五島町桐古里郷
8532303,長崎県,南松浦郡新上五島町,宿ノ浦郷,ナガサキケン,ミナミマツウラグンシンカミゴトウチョウ,シュクノウラゴウ,長崎県南松浦郡新上五島町宿ノ浦郷
8532304,長崎県,南松浦郡新上五島町,荒川郷,ナガサキケン,ミナミマツウラグンシンカミゴトウチョウ,アラカワゴウ,長崎県南松浦郡新上五島町荒川郷
8532305,長崎県,南松浦郡新上五島町,西神ノ浦郷,ナガサキケン,ミナミマツウラグンシンカミゴトウチョウ,ニシコウノウラゴウ,長崎県南松浦郡新上五島町西神ノ浦郷
8532311,長崎県,南松浦郡新上五島町,榊ノ浦郷,ナガサキケン,ミナミマツウラグンシンカミゴトウチョウ,サカキノウラゴウ,長崎県南松浦郡新上五島町榊ノ浦郷
8532312,長崎県,南松浦郡新上五島町,日島郷,ナガサキケン,ミナミマツウラグンシンカミゴトウチョウ,ヒノシマゴウ,長崎県南松浦郡新上五島町日島郷
8532313,長崎県,南松浦郡新上五島町,有福郷,ナガサキケン,ミナミマツウラグンシンカミゴトウチョウ,アリフクゴウ,長崎県南松浦郡新上五島町有福郷
8532314,長崎県,南松浦郡新上五島町,漁生浦郷,ナガサキケン,ミナミマツウラグンシンカミゴトウチョウ,リョウセウラゴウ,長崎県南松浦郡新上五島町漁生浦郷
8532315,長崎県,南松浦郡新上五島町,間伏郷,ナガサキケン,ミナミマツウラグンシンカミゴトウチョウ,マブシゴウ,長崎県南松浦郡新上五島町間伏郷
8532481,長崎県,五島市,伊福貴町,ナガサキケン,ゴトウシ,イフキチョウ,長崎県五島市伊福貴町
8532482,長崎県,五島市,本窯町,ナガサキケン,ゴトウシ,モトガマチョウ,長崎県五島市本窯町
8533101,長崎県,南松浦郡新上五島町,奈良尾郷,ナガサキケン,ミナミマツウラグンシンカミゴトウチョウ,ナラオゴウ,長崎県南松浦郡新上五島町奈良尾郷
8533102,長崎県,南松浦郡新上五島町,岩瀬浦郷,ナガサキケン,ミナミマツウラグンシンカミゴトウチョウ,イワセウラゴウ,長崎県南松浦郡新上五島町岩瀬浦郷
8533321,長崎県,南松浦郡新上五島町,鯛ノ浦郷,ナガサキケン,ミナミマツウラグンシンカミゴトウチョウ,タイノウラゴウ,長崎県南松浦郡新上五島町鯛ノ浦郷
8533322,長崎県,南松浦郡新上五島町,阿瀬津郷,ナガサキケン,ミナミマツウラグンシンカミゴトウチョウ,アゼツゴウ,長崎県南松浦郡新上五島町阿瀬津郷
8533323,長崎県,南松浦郡新上五島町,東神ノ浦郷,ナガサキケン,ミナミマツウラグンシンカミゴトウチョウ,ヒガシコウノウラゴウ,長崎県南松浦郡新上五島町東神ノ浦郷
8540000,長崎県,諫早市,,ナガサキケン,イサハヤシ,,長崎県諫早市
8540001,長崎県,諫早市,福田町,ナガサキケン,イサハヤシ,フクダマチ,長崎県諫早市福田町
8540002,長崎県,諫早市,日の出町,ナガサキケン,イサハヤシ,ヒノデマチ,長崎県諫早市日の出町
8540003,長崎県,諫早市,泉町,ナガサキケン,イサハヤシ,イズミマチ,長崎県諫早市泉町
8540004,長崎県,諫早市,金谷町,ナガサキケン,イサハヤシ,カナヤマチ,長崎県諫早市金谷町
8540005,長崎県,諫早市,城見町,ナガサキケン,イサハヤシ,シロミマチ,長崎県諫早市城見町
8540006,長崎県,諫早市,天満町,ナガサキケン,イサハヤシ,テンマンマチ,長崎県諫早市天満町
8540007,長崎県,諫早市,目代町,ナガサキケン,イサハヤシ,メシロマチ,長崎県諫早市目代町
8540011,長崎県,諫早市,八天町,ナガサキケン,イサハヤシ,ハッテンマチ,長崎県諫早市八天町
8540012,長崎県,諫早市,本町,ナガサキケン,イサハヤシ,ホンマチ,長崎県諫早市本町
8540013,長崎県,諫早市,栄町,ナガサキケン,イサハヤシ,サカエマチ,長崎県諫早市栄町
8540014,長崎県,諫早市,東小路町,ナガサキケン,イサハヤシ,ヒガシコウジマチ,長崎県諫早市東小路町
8540015,長崎県,諫早市,西小路町,ナガサキケン,イサハヤシ,ニシコウジマチ,長崎県諫早市西小路町
8540016,長崎県,諫早市,高城町,ナガサキケン,イサハヤシ,タカシロマチ,長崎県諫早市高城町
8540021,長崎県,諫早市,仲沖町,ナガサキケン,イサハヤシ,ナカオキマチ,長崎県諫早市仲沖町
8540022,長崎県,諫早市,幸町,ナガサキケン,イサハヤシ,サイワイマチ,長崎県諫早市幸町
8540023,長崎県,諫早市,厚生町,ナガサキケン,イサハヤシ,コウセイマチ,長崎県諫早市厚生町
8540024,長崎県,諫早市,上町,ナガサキケン,イサハヤシ,カミマチ,長崎県諫早市上町
8540025,長崎県,諫早市,八坂町,ナガサキケン,イサハヤシ,ヤサカマチ,長崎県諫早市八坂町
8540026,長崎県,諫早市,東本町,ナガサキケン,イサハヤシ,ヒガシホンマチ,長崎県諫早市東本町
8540027,長崎県,諫早市,旭町,ナガサキケン,イサハヤシ,アサヒマチ,長崎県諫早市旭町
8540031,長崎県,諫早市,小野島町,ナガサキケン,イサハヤシ,オノジママチ,長崎県諫早市小野島町
8540032,長崎県,諫早市,赤崎町,ナガサキケン,イサハヤシ,アカサキマチ,長崎県諫早市赤崎町
8540033,長崎県,諫早市,黒崎町,ナガサキケン,イサハヤシ,クロサキマチ,長崎県諫早市黒崎町
8540034,長崎県,諫早市,小野町,ナガサキケン,イサハヤシ,オノマチ,長崎県諫早市小野町
8540035,長崎県,諫早市,宗方町,ナガサキケン,イサハヤシ,ムナカタマチ,長崎県諫早市宗方町
8540036,長崎県,諫早市,長野町,ナガサキケン,イサハヤシ,ナガノマチ,長崎県諫早市長野町
8540037,長崎県,諫早市,川内町,ナガサキケン,イサハヤシ,カワチマチ,長崎県諫早市川内町
8540038,長崎県,諫早市,中央干拓,ナガサキケン,イサハヤシ,チュウオウカンタク,長崎県諫早市中央干拓
8540041,長崎県,諫早市,船越町,ナガサキケン,イサハヤシ,フナコシマチ,長崎県諫早市船越町
8540042,長崎県,諫早市,上野町,ナガサキケン,イサハヤシ,ウエノマチ,長崎県諫早市上野町
8540043,長崎県,諫早市,立石町,ナガサキケン,イサハヤシ,タテイシマチ,長崎県諫早市立石町
8540044,長崎県,諫早市,西郷町,ナガサキケン,イサハヤシ,ニシゴウマチ,長崎県諫早市西郷町
8540045,長崎県,諫早市,新道町,ナガサキケン,イサハヤシ,シンミチマチ,長崎県諫早市新道町
8540046,長崎県,諫早市,原口町,ナガサキケン,イサハヤシ,ハラグチマチ,長崎県諫早市原口町
8540047,長崎県,諫早市,野中町,ナガサキケン,イサハヤシ,ノナカマチ,長崎県諫早市野中町
8540051,長崎県,諫早市,鷲崎町,ナガサキケン,イサハヤシ,ワシザキマチ,長崎県諫早市鷲崎町
8540052,長崎県,諫早市,川床町,ナガサキケン,イサハヤシ,カワトコマチ,長崎県諫早市川床町
8540053,長崎県,諫早市,小川町,ナガサキケン,イサハヤシ,オガワマチ,長崎県諫早市小川町
8540054,長崎県,諫早市,小ケ倉町,ナガサキケン,イサハヤシ,コガクラマチ,長崎県諫早市小ケ倉町
8540055,長崎県,諫早市,栗面町,ナガサキケン,イサハヤシ,クレモマチ,長崎県諫早市栗面町
8540056,長崎県,諫早市,土師野尾町,ナガサキケン,イサハヤシ,ハジノオマチ,長崎県諫早市土師野尾町
8540057,長崎県,諫早市,平山町,ナガサキケン,イサハヤシ,ヒラヤママチ,長崎県諫早市平山町
8540061,長崎県,諫早市,宇都町,ナガサキケン,イサハヤシ,ウヅマチ,長崎県諫早市宇都町
8540062,長崎県,諫早市,小船越町,ナガサキケン,イサハヤシ,オブナコシマチ,長崎県諫早市小船越町
8540063,長崎県,諫早市,貝津町,ナガサキケン,イサハヤシ,カイヅマチ,長崎県諫早市貝津町
8540064,長崎県,諫早市,若葉町,ナガサキケン,イサハヤシ,ワカバマチ,長崎県諫早市若葉町
8540065,長崎県,諫早市,津久葉町,ナガサキケン,イサハヤシ,ツクバマチ,長崎県諫早市津久葉町
8540066,長崎県,諫早市,久山町,ナガサキケン,イサハヤシ,クヤママチ,長崎県諫早市久山町
8540067,長崎県,諫早市,久山台,ナガサキケン,イサハヤシ,クヤマダイ,長崎県諫早市久山台
8540068,長崎県,諫早市,青葉台,ナガサキケン,イサハヤシ,アオバダイ,長崎県諫早市青葉台
8540069,長崎県,諫早市,貝津ヶ丘,ナガサキケン,イサハヤシ,カイヅガオカ,長崎県諫早市貝津ヶ丘
8540071,長崎県,諫早市,永昌東町,ナガサキケン,イサハヤシ,エイショウヒガシマチ,長崎県諫早市永昌東町
8540072,長崎県,諫早市,永昌町,ナガサキケン,イサハヤシ,エイショウマチ,長崎県諫早市永昌町
8540073,長崎県,諫早市,中尾町,ナガサキケン,イサハヤシ,ナカオマチ,長崎県諫早市中尾町
8540074,長崎県,諫早市,山川町,ナガサキケン,イサハヤシ,ヤマカワマチ,長崎県諫早市山川町
8540075,長崎県,諫早市,馬渡町,ナガサキケン,イサハヤシ,マワタリマチ,長崎県諫早市馬渡町
8540076,長崎県,諫早市,堂崎町,ナガサキケン,イサハヤシ,ドウザキマチ,長崎県諫早市堂崎町
8540077,長崎県,諫早市,白岩町,ナガサキケン,イサハヤシ,シライワマチ,長崎県諫早市白岩町
8540081,長崎県,諫早市,栄田町,ナガサキケン,イサハヤシ,エイダマチ,長崎県諫早市栄田町
8540082,長崎県,諫早市,西栄田町,ナガサキケン,イサハヤシ,ニシエイダマチ,長崎県諫早市西栄田町
8540083,長崎県,諫早市,津水町,ナガサキケン,イサハヤシ,ツミズマチ,長崎県諫早市津水町
8540084,長崎県,諫早市,真崎町,ナガサキケン,イサハヤシ,マサキマチ,長崎県諫早市真崎町
8540085,長崎県,諫早市,破籠井町,ナガサキケン,イサハヤシ,ワリゴイマチ,長崎県諫早市破籠井町
8540086,長崎県,諫早市,堀の内町,ナガサキケン,イサハヤシ,ホリノウチマチ,長崎県諫早市堀の内町
8540087,長崎県,諫早市,大さこ町,ナガサキケン,イサハヤシ,オオサコマチ,長崎県諫早市大さこ町
8540091,長崎県,諫早市,富川町,ナガサキケン,イサハヤシ,トミガワマチ,長崎県諫早市富川町
8540092,長崎県,諫早市,湯野尾町,ナガサキケン,イサハヤシ,ユノオマチ,長崎県諫早市湯野尾町
8540093,長崎県,諫早市,本野町,ナガサキケン,イサハヤシ,モトノマチ,長崎県諫早市本野町
8540094,長崎県,諫早市,本明町,ナガサキケン,イサハヤシ,ホンミョウマチ,長崎県諫早市本明町
8540095,長崎県,諫早市,上大渡野町,ナガサキケン,イサハヤシ,カミオオワタノマチ,長崎県諫早市上大渡野町
8540096,長崎県,諫早市,下大渡野町,ナガサキケン,イサハヤシ,シモオオワタノマチ,長崎県諫早市下大渡野町
8540121,長崎県,諫早市,有喜町,ナガサキケン,イサハヤシ,ウキマチ,長崎県諫早市有喜町
8540122,長崎県,諫早市,鶴田町,ナガサキケン,イサハヤシ,ツルタマチ,長崎県諫早市鶴田町
8540123,長崎県,諫早市,天神町,ナガサキケン,イサハヤシ,テンジンマチ,長崎県諫早市天神町
8540124,長崎県,諫早市,中通町,ナガサキケン,イサハヤシ,ナカドオリマチ,長崎県諫早市中通町
8540125,長崎県,諫早市,早見町,ナガサキケン,イサハヤシ,ハヤミマチ,長崎県諫早市早見町
8540126,長崎県,諫早市,松里町,ナガサキケン,イサハヤシ,マツザトマチ,長崎県諫早市松里町
8540201,長崎県,諫早市,森山町下井牟田,ナガサキケン,イサハヤシ,モリヤマチョウシモイムタ,長崎県諫早市森山町下井牟田
8540202,長崎県,諫早市,森山町慶師野,ナガサキケン,イサハヤシ,モリヤマチョウケイシノ,長崎県諫早市森山町慶師野
8540203,長崎県,諫早市,森山町本村,ナガサキケン,イサハヤシ,モリヤマチョウホンムラ,長崎県諫早市森山町本村
8540204,長崎県,諫早市,森山町田尻,ナガサキケン,イサハヤシ,モリヤマチョウタジリ,長崎県諫早市森山町田尻
8540205,長崎県,諫早市,森山町杉谷,ナガサキケン,イサハヤシ,モリヤマチョウスギタニ,長崎県諫早市森山町杉谷
8540206,長崎県,諫早市,森山町唐比北,ナガサキケン,イサハヤシ,モリヤマチョウカラコキタ,長崎県諫早市森山町唐比北
8540207,長崎県,諫早市,森山町唐比東,ナガサキケン,イサハヤシ,モリヤマチョウカラコヒガシ,長崎県諫早市森山町唐比東
8540208,長崎県,諫早市,森山町唐比西,ナガサキケン,イサハヤシ,モリヤマチョウカラコニシ,長崎県諫早市森山町唐比西
8540209,長崎県,諫早市,森山町上井牟田,ナガサキケン,イサハヤシ,モリヤマチョウカミイムタ,長崎県諫早市森山町上井牟田
8540301,長崎県,雲仙市,愛野町甲,ナガサキケン,ウンゼンシ,アイノマチコウ,長崎県雲仙市愛野町甲
8540302,長崎県,雲仙市,愛野町乙,ナガサキケン,ウンゼンシ,アイノマチオツ,長崎県雲仙市愛野町乙
8540401,長崎県,雲仙市,千々石町甲,ナガサキケン,ウンゼンシ,チヂワチョウコウ,長崎県雲仙市千々石町甲
8540402,長崎県,雲仙市,千々石町乙,ナガサキケン,ウンゼンシ,チヂワチョウオツ,長崎県雲仙市千々石町乙
8540403,長崎県,雲仙市,千々石町丙,ナガサキケン,ウンゼンシ,チヂワチョウヘイ,長崎県雲仙市千々石町丙
8540404,長崎県,雲仙市,千々石町丁,ナガサキケン,ウンゼンシ,チヂワチョウテイ,長崎県雲仙市千々石町丁
8540405,長崎県,雲仙市,千々石町戊,ナガサキケン,ウンゼンシ,チヂワチョウボ,長崎県雲仙市千々石町戊
8540406,長崎県,雲仙市,千々石町己,ナガサキケン,ウンゼンシ,チヂワチョウキ,長崎県雲仙市千々石町己
8540407,長崎県,雲仙市,千々石町庚,ナガサキケン,ウンゼンシ,チヂワチョウコウ,長崎県雲仙市千々石町庚
8540500,長崎県,雲仙市,,ナガサキケン,ウンゼンシ,,長崎県雲仙市
8540501,長崎県,雲仙市,小浜町大亀,ナガサキケン,ウンゼンシ,オバマチョウオオカメ,長崎県雲仙市小浜町大亀
8540502,長崎県,雲仙市,小浜町山畑,ナガサキケン,ウンゼンシ,オバマチョウヤマハタ,長崎県雲仙市小浜町山畑
8540503,長崎県,雲仙市,小浜町飛子,ナガサキケン,ウンゼンシ,オバマチョウトビコ,長崎県雲仙市小浜町飛子
8540504,長崎県,雲仙市,小浜町金浜,ナガサキケン,ウンゼンシ,オバマチョウカナハマ,長崎県雲仙市小浜町金浜
8540505,長崎県,雲仙市,小浜町木場,ナガサキケン,ウンゼンシ,オバマチョウコバ,長崎県雲仙市小浜町木場
8540511,長崎県,雲仙市,小浜町南木指,ナガサキケン,ウンゼンシ,オバマチョウミナミキサシ,長崎県雲仙市小浜町南木指
8540512,長崎県,雲仙市,小浜町北木指,ナガサキケン,ウンゼンシ,オバマチョウキタキサシ,長崎県雲仙市小浜町北木指
8540513,長崎県,雲仙市,小浜町南本町,ナガサキケン,ウンゼンシ,オバマチョウミナミホンマチ,長崎県雲仙市小浜町南本町
8540514,長崎県,雲仙市,小浜町北本町,ナガサキケン,ウンゼンシ,オバマチョウキタホンマチ,長崎県雲仙市小浜町北本町
8540515,長崎県,雲仙市,小浜町北野,ナガサキケン,ウンゼンシ,オバマチョウキタノ,長崎県雲仙市小浜町北野
8540516,長崎県,雲仙市,小浜町富津,ナガサキケン,ウンゼンシ,オバマチョウトミツ,長崎県雲仙市小浜町富津
8540517,長崎県,雲仙市,小浜町マリーナ,ナガサキケン,ウンゼンシ,オバマチョウマリーナ,長崎県雲仙市小浜町マリーナ
8540621,長崎県,雲仙市,小浜町雲仙,ナガサキケン,ウンゼンシ,オバマチョウウンゼン,長崎県雲仙市小浜町雲仙
8540701,長崎県,雲仙市,南串山町甲,ナガサキケン,ウンゼンシ,ミナミクシヤマチョウコウ,長崎県雲仙市南串山町甲
8540702,長崎県,雲仙市,南串山町乙,ナガサキケン,ウンゼンシ,ミナミクシヤマチョウオツ,長崎県雲仙市南串山町乙
8540703,長崎県,雲仙市,南串山町丙,ナガサキケン,ウンゼンシ,ミナミクシヤマチョウヘイ,長崎県雲仙市南串山町丙
8541101,長崎県,諫早市,飯盛町野中,ナガサキケン,イサハヤシ,イイモリチョウノナカ,長崎県諫早市飯盛町野中
8541102,長崎県,諫早市,飯盛町山口,ナガサキケン,イサハヤシ,イイモリチョウヤマグチ,長崎県諫早市飯盛町山口
8541103,長崎県,諫早市,飯盛町中山,ナガサキケン,イサハヤシ,イイモリチョウナカヤマ,長崎県諫早市飯盛町中山
8541104,長崎県,諫早市,飯盛町上原,ナガサキケン,イサハヤシ,イイモリチョウウエハラ,長崎県諫早市飯盛町上原
8541105,長崎県,諫早市,飯盛町後田,ナガサキケン,イサハヤシ,イイモリチョウウシロダ,長崎県諫早市飯盛町後田
8541111,長崎県,諫早市,飯盛町平古場,ナガサキケン,イサハヤシ,イイモリチョウヒラコバ,長崎県諫早市飯盛町平古場
8541112,長崎県,諫早市,飯盛町開,ナガサキケン,イサハヤシ,イイモリチョウヒラキ,長崎県諫早市飯盛町開
8541113,長崎県,諫早市,飯盛町下釜,ナガサキケン,イサハヤシ,イイモリチョウシモガマ,長崎県諫早市飯盛町下釜
8541114,長崎県,諫早市,飯盛町久保,ナガサキケン,イサハヤシ,イイモリチョウクボ,長崎県諫早市飯盛町久保
8541121,長崎県,諫早市,飯盛町古場,ナガサキケン,イサハヤシ,イイモリチョウコバ,長崎県諫早市飯盛町古場
8541122,長崎県,諫早市,飯盛町佐田,ナガサキケン,イサハヤシ,イイモリチョウサダ,長崎県諫早市飯盛町佐田
8541123,長崎県,諫早市,飯盛町里,ナガサキケン,イサハヤシ,イイモリチョウサト,長崎県諫早市飯盛町里
8541124,長崎県,諫早市,飯盛町川下,ナガサキケン,イサハヤシ,イイモリチョウカワシモ,長崎県諫早市飯盛町川下
8541125,長崎県,諫早市,飯盛町池下,ナガサキケン,イサハヤシ,イイモリチョウイケシモ,長崎県諫早市飯盛町池下
8550000,長崎県,島原市,,ナガサキケン,シマバラシ,,長崎県島原市
8550001,長崎県,島原市,中野町,ナガサキケン,シマバラシ,ナカノマチ,長崎県島原市中野町
8550002,長崎県,島原市,洗切町,ナガサキケン,シマバラシ,アライキリマチ,長崎県島原市洗切町
8550003,長崎県,島原市,三会町,ナガサキケン,シマバラシ,ミエマチ,長崎県島原市三会町
8550004,長崎県,島原市,亀の甲町,ナガサキケン,シマバラシ,カメノコウマチ,長崎県島原市亀の甲町
8550005,長崎県,島原市,中原町,ナガサキケン,シマバラシ,ナカバラマチ,長崎県島原市中原町
8550006,長崎県,島原市,寺中町,ナガサキケン,シマバラシ,ジチュウマチ,長崎県島原市寺中町
8550007,長崎県,島原市,津吹町,ナガサキケン,シマバラシ,ツブキマチ,長崎県島原市津吹町
8550008,長崎県,島原市,原口町,ナガサキケン,シマバラシ,ハラグチマチ,長崎県島原市原口町
8550011,長崎県,島原市,御手水町,ナガサキケン,シマバラシ,オチョウズマチ,長崎県島原市御手水町
8550012,長崎県,島原市,大手原町,ナガサキケン,シマバラシ,オオテバラマチ,長崎県島原市大手原町
8550013,長崎県,島原市,稗田町,ナガサキケン,シマバラシ,ヒエダマチ,長崎県島原市稗田町
8550014,長崎県,島原市,下宮町,ナガサキケン,シマバラシ,シモミヤマチ,長崎県島原市下宮町
8550015,長崎県,島原市,出平町,ナガサキケン,シマバラシ,イデヒラマチ,長崎県島原市出平町
8550016,長崎県,島原市,山寺町,ナガサキケン,シマバラシ,ヤマデラマチ,長崎県島原市山寺町
8550017,長崎県,島原市,江里町,ナガサキケン,シマバラシ,エリマチ,長崎県島原市江里町
8550018,長崎県,島原市,西町,ナガサキケン,シマバラシ,ニシマチ,長崎県島原市西町
8550021,長崎県,島原市,油堀町,ナガサキケン,シマバラシ,アブラボリマチ,長崎県島原市油堀町
8550022,長崎県,島原市,長貫町,ナガサキケン,シマバラシ,ナガヌキマチ,長崎県島原市長貫町
8550023,長崎県,島原市,出の川町,ナガサキケン,シマバラシ,イデノカワマチ,長崎県島原市出の川町
8550024,長崎県,島原市,広高野町,ナガサキケン,シマバラシ,ヒロコウヤマチ,長崎県島原市広高野町
8550025,長崎県,島原市,立野町,ナガサキケン,シマバラシ,タテノマチ,長崎県島原市立野町
8550026,長崎県,島原市,礫石原町,ナガサキケン,シマバラシ,クレイシバルマチ,長崎県島原市礫石原町
8550031,長崎県,島原市,前浜町,ナガサキケン,シマバラシ,マエハママチ,長崎県島原市前浜町
8550032,長崎県,島原市,北門町,ナガサキケン,シマバラシ,キタモンマチ,長崎県島原市北門町
8550033,長崎県,島原市,新馬場町,ナガサキケン,シマバラシ,シンババマチ,長崎県島原市新馬場町
8550034,長崎県,島原市,田町,ナガサキケン,シマバラシ,タマチ,長崎県島原市田町
8550035,長崎県,島原市,先魁町,ナガサキケン,シマバラシ,サキガケマチ,長崎県島原市先魁町
8550036,長崎県,島原市,城内,ナガサキケン,シマバラシ,ジョウナイ,長崎県島原市城内
8550038,長崎県,島原市,,ナガサキケン,シマバラシ,,長崎県島原市
8550041,長崎県,島原市,宮の町,ナガサキケン,シマバラシ,ミヤノマチ,長崎県島原市宮の町
8550042,長崎県,島原市,片町,ナガサキケン,シマバラシ,カタマチ,長崎県島原市片町
8550043,長崎県,島原市,新田町,ナガサキケン,シマバラシ,シンデンマチ,長崎県島原市新田町
8550044,長崎県,島原市,中町,ナガサキケン,シマバラシ,ナカマチ,長崎県島原市中町
8550045,長崎県,島原市,上の町,ナガサキケン,シマバラシ,ウエノマチ,長崎県島原市上の町
8550046,長崎県,島原市,今川町,ナガサキケン,シマバラシ,イマガワマチ,長崎県島原市今川町
8550051,長崎県,島原市,桜門町,ナガサキケン,シマバラシ,サクラモンマチ,長崎県島原市桜門町
8550052,長崎県,島原市,下の丁,ナガサキケン,シマバラシ,シタノチョウ,長崎県島原市下の丁
8550053,長崎県,島原市,城西中の丁,ナガサキケン,シマバラシ,ジョウセイナカノチョウ,長崎県島原市城西中の丁
8550054,長崎県,島原市,古丁,ナガサキケン,シマバラシ,フルチョウ,長崎県島原市古丁
8550055,長崎県,島原市,下新丁,ナガサキケン,シマバラシ,シタジンチョウ,長崎県島原市下新丁
8550056,長崎県,島原市,浦の川,ナガサキケン,シマバラシ,ウラノカワ,長崎県島原市浦の川
8550057,長崎県,島原市,新建,ナガサキケン,シマバラシ,シンダチ,長崎県島原市新建
8550058,長崎県,島原市,北原町,ナガサキケン,シマバラシ,キタバラマチ,長崎県島原市北原町
8550059,長崎県,島原市,江戸丁,ナガサキケン,シマバラシ,エドチョウ,長崎県島原市江戸丁
8550061,長崎県,島原市,中尾町,ナガサキケン,シマバラシ,ナカオマチ,長崎県島原市中尾町
8550062,長崎県,島原市,本町,ナガサキケン,シマバラシ,ホンマチ,長崎県島原市本町
8550063,長崎県,島原市,原町,ナガサキケン,シマバラシ,ハラマチ,長崎県島原市原町
8550064,長崎県,島原市,柏野町,ナガサキケン,シマバラシ,カシワノマチ,長崎県島原市柏野町
8550065,長崎県,島原市,南柏野町,ナガサキケン,シマバラシ,ミナミカシワノマチ,長崎県島原市南柏野町
8550066,長崎県,島原市,柿の木町,ナガサキケン,シマバラシ,カキノキマチ,長崎県島原市柿の木町
8550067,長崎県,島原市,上新丁,ナガサキケン,シマバラシ,ウワジンチョウ,長崎県島原市上新丁
8550068,長崎県,島原市,杉山町,ナガサキケン,シマバラシ,スギヤママチ,長崎県島原市杉山町
8550071,長崎県,島原市,宇土町,ナガサキケン,シマバラシ,ウトマチ,長崎県島原市宇土町
8550072,長崎県,島原市,六ツ木町,ナガサキケン,シマバラシ,ムツギマチ,長崎県島原市六ツ木町
8550073,長崎県,島原市,本光寺町,ナガサキケン,シマバラシ,ホンコウジマチ,長崎県島原市本光寺町
8550074,長崎県,島原市,城見町,ナガサキケン,シマバラシ,シロミマチ,長崎県島原市城見町
8550075,長崎県,島原市,下折橋町,ナガサキケン,シマバラシ,シモオリハシマチ,長崎県島原市下折橋町
8550076,長崎県,島原市,上折橋町,ナガサキケン,シマバラシ,カミオリハシマチ,長崎県島原市上折橋町
8550077,長崎県,島原市,南千本木町,ナガサキケン,シマバラシ,ミナミセンボンギマチ,長崎県島原市南千本木町
8550078,長崎県,島原市,北千本木町,ナガサキケン,シマバラシ,キタセンボンギマチ,長崎県島原市北千本木町
8550801,長崎県,島原市,高島,ナガサキケン,シマバラシ,タカジマ,長崎県島原市高島
8550802,長崎県,島原市,弁天町,ナガサキケン,シマバラシ,ベンテンマチ,長崎県島原市弁天町
8550803,長崎県,島原市,新町,ナガサキケン,シマバラシ,シンマチ,長崎県島原市新町
8550804,長崎県,島原市,万町,ナガサキケン,シマバラシ,ヨロズマチ,長崎県島原市万町
8550805,長崎県,島原市,堀町,ナガサキケン,シマバラシ,ホリマチ,長崎県島原市堀町
8550806,長崎県,島原市,中堀町,ナガサキケン,シマバラシ,ナカホリマチ,長崎県島原市中堀町
8550807,長崎県,島原市,白土町,ナガサキケン,シマバラシ,シラチマチ,長崎県島原市白土町
8550808,長崎県,島原市,加美町,ナガサキケン,シマバラシ,カミマチ,長崎県島原市加美町
8550809,長崎県,島原市,桜町,ナガサキケン,シマバラシ,サクラマチ,長崎県島原市桜町
8550811,長崎県,島原市,白土桃山,ナガサキケン,シマバラシ,シラチモモヤマ,長崎県島原市白土桃山
8550812,長崎県,島原市,霊南,ナガサキケン,シマバラシ,レイナン,長崎県島原市霊南
8550813,長崎県,島原市,有馬船津町,ナガサキケン,シマバラシ,アリマフナツマチ,長崎県島原市有馬船津町
8550814,長崎県,島原市,津町,ナガサキケン,シマバラシ,ツマチ,長崎県島原市津町
8550815,長崎県,島原市,元船津町,ナガサキケン,シマバラシ,モトフナツマチ,長崎県島原市元船津町
8550816,長崎県,島原市,蛭子町,ナガサキケン,シマバラシ,エビスマチ,長崎県島原市蛭子町
8550817,長崎県,島原市,浦田,ナガサキケン,シマバラシ,ウラタ,長崎県島原市浦田
8550821,長崎県,島原市,湊新地町,ナガサキケン,シマバラシ,ミナトシンチマチ,長崎県島原市湊新地町
8550822,長崎県,島原市,中組町,ナガサキケン,シマバラシ,ナカグミマチ,長崎県島原市中組町
8550823,長崎県,島原市,湊町,ナガサキケン,シマバラシ,ミナトマチ,長崎県島原市湊町
8550824,長崎県,島原市,白山町,ナガサキケン,シマバラシ,ハクサンマチ,長崎県島原市白山町
8550825,長崎県,島原市,広馬場町,ナガサキケン,シマバラシ,ヒロババマチ,長崎県島原市広馬場町
8550831,長崎県,島原市,湊道,ナガサキケン,シマバラシ,ミナトミチ,長崎県島原市湊道
8550832,長崎県,島原市,坂上町,ナガサキケン,シマバラシ,サカウエマチ,長崎県島原市坂上町
8550833,長崎県,島原市,坂下町,ナガサキケン,シマバラシ,サカシタマチ,長崎県島原市坂下町
8550834,長崎県,島原市,八幡町,ナガサキケン,シマバラシ,ヤハタマチ,長崎県島原市八幡町
8550835,長崎県,島原市,西八幡町,ナガサキケン,シマバラシ,ニシヤハタマチ,長崎県島原市西八幡町
8550836,長崎県,島原市,湖南町,ナガサキケン,シマバラシ,コナンマチ,長崎県島原市湖南町
8550841,長崎県,島原市,崩山町,ナガサキケン,シマバラシ,クエヤママチ,長崎県島原市崩山町
8550842,長崎県,島原市,栄町,ナガサキケン,シマバラシ,サカエマチ,長崎県島原市栄町
8550843,長崎県,島原市,新山,ナガサキケン,シマバラシ,シンヤマ,長崎県島原市新山
8550851,長崎県,島原市,萩原,ナガサキケン,シマバラシ,ハギハラ,長崎県島原市萩原
8550852,長崎県,島原市,寺町,ナガサキケン,シマバラシ,テラマチ,長崎県島原市寺町
8550853,長崎県,島原市,上の原,ナガサキケン,シマバラシ,ウエノハラ,長崎県島原市上の原
8550854,長崎県,島原市,萩が丘,ナガサキケン,シマバラシ,ハギガオカ,長崎県島原市萩が丘
8550855,長崎県,島原市,青葉町,ナガサキケン,シマバラシ,アオバマチ,長崎県島原市青葉町
8550856,長崎県,島原市,小山町,ナガサキケン,シマバラシ,コヤママチ,長崎県島原市小山町
8550861,長崎県,島原市,下川尻町,ナガサキケン,シマバラシ,シモカワシリマチ,長崎県島原市下川尻町
8550862,長崎県,島原市,新湊,ナガサキケン,シマバラシ,シンミナト,長崎県島原市新湊
8550863,長崎県,島原市,親和町,ナガサキケン,シマバラシ,シンワマチ,長崎県島原市親和町
8550864,長崎県,島原市,秩父が浦町,ナガサキケン,シマバラシ,チチブガウラマチ,長崎県島原市秩父が浦町
8550865,長崎県,島原市,船泊町,ナガサキケン,シマバラシ,フナドマリマチ,長崎県島原市船泊町
8550866,長崎県,島原市,南下川尻町,ナガサキケン,シマバラシ,ミナミシモカワシリマチ,長崎県島原市南下川尻町
8550867,長崎県,島原市,緑町,ナガサキケン,シマバラシ,ミドリマチ,長崎県島原市緑町
8550871,長崎県,島原市,南崩山町,ナガサキケン,シマバラシ,ミナミクエヤママチ,長崎県島原市南崩山町
8550872,長崎県,島原市,梅園町,ナガサキケン,シマバラシ,ウメゾノマチ,長崎県島原市梅園町
8550873,長崎県,島原市,北安徳町,ナガサキケン,シマバラシ,キタアントクマチ,長崎県島原市北安徳町
8550874,長崎県,島原市,鎌田町,ナガサキケン,シマバラシ,カマダマチ,長崎県島原市鎌田町
8550875,長崎県,島原市,中安徳町,ナガサキケン,シマバラシ,ナカアントクマチ,長崎県島原市中安徳町
8550876,長崎県,島原市,南安徳町,ナガサキケン,シマバラシ,ミナミアントクマチ,長崎県島原市南安徳町
8550877,長崎県,島原市,浜の町,ナガサキケン,シマバラシ,ハマノマチ,長崎県島原市浜の町
8550878,長崎県,島原市,大下町,ナガサキケン,シマバラシ,オオジモマチ,長崎県島原市大下町
8550879,長崎県,島原市,平成町,ナガサキケン,シマバラシ,ヘイセイマチ,長崎県島原市平成町
8550881,長崎県,島原市,門内町,ナガサキケン,シマバラシ,カドウチマチ,長崎県島原市門内町
8550882,長崎県,島原市,札の元町,ナガサキケン,シマバラシ,フダノモトマチ,長崎県島原市札の元町
8550883,長崎県,島原市,天神元町,ナガサキケン,シマバラシ,テンジンモトマチ,長崎県島原市天神元町
8550884,長崎県,島原市,仁田町,ナガサキケン,シマバラシ,ニタマチ,長崎県島原市仁田町
8550885,長崎県,島原市,白谷町,ナガサキケン,シマバラシ,シラタニマチ,長崎県島原市白谷町
8550886,長崎県,島原市,北上木場町,ナガサキケン,シマバラシ,キタカミコバマチ,長崎県島原市北上木場町
8550887,長崎県,島原市,南上木場町,ナガサキケン,シマバラシ,ミナミカミコバマチ,長崎県島原市南上木場町
8560000,長崎県,大村市,,ナガサキケン,オオムラシ,,長崎県大村市
8560001,長崎県,大村市,武留路町,ナガサキケン,オオムラシ,ムルロマチ,長崎県大村市武留路町
8560002,長崎県,大村市,東野岳町,ナガサキケン,オオムラシ,ヒガシノダケマチ,長崎県大村市東野岳町
8560003,長崎県,大村市,野岳町,ナガサキケン,オオムラシ,ノダケマチ,長崎県大村市野岳町
8560004,長崎県,大村市,立福寺町,ナガサキケン,オオムラシ,リフクジマチ,長崎県大村市立福寺町
8560005,長崎県,大村市,弥勒寺町,ナガサキケン,オオムラシ,ミロクジマチ,長崎県大村市弥勒寺町
8560006,長崎県,大村市,福重町,ナガサキケン,オオムラシ,フクシゲマチ,長崎県大村市福重町
8560007,長崎県,大村市,草場町,ナガサキケン,オオムラシ,クサバマチ,長崎県大村市草場町
8560008,長崎県,大村市,松原,ナガサキケン,オオムラシ,マツバラ,長崎県大村市松原
8560009,長崎県,大村市,松原本町,ナガサキケン,オオムラシ,マツバラホンマチ,長崎県大村市松原本町
8560011,長崎県,大村市,重井田町,ナガサキケン,オオムラシ,シゲイダマチ,長崎県大村市重井田町
8560012,長崎県,大村市,黒木町,ナガサキケン,オオムラシ,クロキマチ,長崎県大村市黒木町
8560013,長崎県,大村市,中岳町,ナガサキケン,オオムラシ,ナカダケマチ,長崎県大村市中岳町
8560014,長崎県,大村市,田下町,ナガサキケン,オオムラシ,タジモマチ,長崎県大村市田下町
8560015,長崎県,大村市,宮代町,ナガサキケン,オオムラシ,ミヤダイマチ,長崎県大村市宮代町
8560016,長崎県,大村市,原町,ナガサキケン,オオムラシ,ハラマチ,長崎県大村市原町
8560017,長崎県,大村市,荒瀬町,ナガサキケン,オオムラシ,アラセマチ,長崎県大村市荒瀬町
8560018,長崎県,大村市,今富町,ナガサキケン,オオムラシ,イマトミマチ,長崎県大村市今富町
8560019,長崎県,大村市,野田町,ナガサキケン,オオムラシ,ノダマチ,長崎県大村市野田町
8560020,長崎県,大村市,小路口本町,ナガサキケン,オオムラシ,オログチホンマチ,長崎県大村市小路口本町
8560021,長崎県,大村市,鬼橋町,ナガサキケン,オオムラシ,オニバシマチ,長崎県大村市鬼橋町
8560022,長崎県,大村市,雄ケ原町,ナガサキケン,オオムラシ,マスラガハラマチ,長崎県大村市雄ケ原町
8560023,長崎県,大村市,上諏訪町,ナガサキケン,オオムラシ,カミスワマチ,長崎県大村市上諏訪町
8560024,長崎県,大村市,諏訪,ナガサキケン,オオムラシ,スワ,長崎県大村市諏訪
8560025,長崎県,大村市,小路口町,ナガサキケン,オオムラシ,オログチマチ,長崎県大村市小路口町
8560026,長崎県,大村市,池田,ナガサキケン,オオムラシ,イケダ,長崎県大村市池田
8560027,長崎県,大村市,植松,ナガサキケン,オオムラシ,ウエマツ,長崎県大村市植松
8560028,長崎県,大村市,坂口町,ナガサキケン,オオムラシ,サカグチマチ,長崎県大村市坂口町
8560029,長崎県,大村市,池田新町,ナガサキケン,オオムラシ,イケダシンマチ,長崎県大村市池田新町
8560031,長崎県,大村市,三城町,ナガサキケン,オオムラシ,サンジョウチョウ,長崎県大村市三城町
8560032,長崎県,大村市,東大村,ナガサキケン,オオムラシ,ヒガシオオムラ,長崎県大村市東大村
8560033,長崎県,大村市,荒平町,ナガサキケン,オオムラシ,アラヒラマチ,長崎県大村市荒平町
8560034,長崎県,大村市,水計町,ナガサキケン,オオムラシ,ミズハカリマチ,長崎県大村市水計町
8560035,長崎県,大村市,武部町,ナガサキケン,オオムラシ,タケベマチ,長崎県大村市武部町
8560041,長崎県,大村市,徳泉川内町,ナガサキケン,オオムラシ,トクセンガワチマチ,長崎県大村市徳泉川内町
8560042,長崎県,大村市,平町,ナガサキケン,オオムラシ,ヒラマチ,長崎県大村市平町
8560043,長崎県,大村市,小川内町,ナガサキケン,オオムラシ,オガワウチマチ,長崎県大村市小川内町
8560044,長崎県,大村市,岩松町,ナガサキケン,オオムラシ,イワマツマチ,長崎県大村市岩松町
8560045,長崎県,大村市,向木場町,ナガサキケン,オオムラシ,ムカイコバマチ,長崎県大村市向木場町
8560046,長崎県,大村市,木場,ナガサキケン,オオムラシ,コバ,長崎県大村市木場
8560047,長崎県,大村市,須田ノ木町,ナガサキケン,オオムラシ,スダノキマチ,長崎県大村市須田ノ木町
8560048,長崎県,大村市,赤佐古町,ナガサキケン,オオムラシ,アカサコマチ,長崎県大村市赤佐古町
8560801,長崎県,大村市,寿古町,ナガサキケン,オオムラシ,スコマチ,長崎県大村市寿古町
8560802,長崎県,大村市,皆同町,ナガサキケン,オオムラシ,カイドウマチ,長崎県大村市皆同町
8560803,長崎県,大村市,竹松町,ナガサキケン,オオムラシ,タケマツマチ,長崎県大村市竹松町
8560804,長崎県,大村市,大川田町,ナガサキケン,オオムラシ,オオカワダマチ,長崎県大村市大川田町
8560805,長崎県,大村市,竹松本町,ナガサキケン,オオムラシ,タケマツホンマチ,長崎県大村市竹松本町
8560806,長崎県,大村市,富の原,ナガサキケン,オオムラシ,トミノハラ,長崎県大村市富の原
8560807,長崎県,大村市,宮小路,ナガサキケン,オオムラシ,ミヤショウジ,長崎県大村市宮小路
8560808,長崎県,大村市,黒丸町,ナガサキケン,オオムラシ,クロマルマチ,長崎県大村市黒丸町
8560809,長崎県,大村市,沖田町,ナガサキケン,オオムラシ,オキタマチ,長崎県大村市沖田町
8560811,長崎県,大村市,原口町,ナガサキケン,オオムラシ,ハラグチマチ,長崎県大村市原口町
8560812,長崎県,大村市,桜馬場,ナガサキケン,オオムラシ,サクラババ,長崎県大村市桜馬場
8560813,長崎県,大村市,西大村本町,ナガサキケン,オオムラシ,ニシオオムラホンマチ,長崎県大村市西大村本町
8560814,長崎県,大村市,松並,ナガサキケン,オオムラシ,マツナミ,長崎県大村市松並
8560815,長崎県,大村市,森園町,ナガサキケン,オオムラシ,モリゾノマチ,長崎県大村市森園町
8560816,長崎県,大村市,箕島町,ナガサキケン,オオムラシ,ミシママチ,長崎県大村市箕島町
8560817,長崎県,大村市,古賀島町,ナガサキケン,オオムラシ,コガシママチ,長崎県大村市古賀島町
8560818,長崎県,大村市,今津町,ナガサキケン,オオムラシ,イマヅマチ,長崎県大村市今津町
8560820,長崎県,大村市,協和町,ナガサキケン,オオムラシ,キョウワマチ,長崎県大村市協和町
8560821,長崎県,大村市,西乾馬場町,ナガサキケン,オオムラシ,ニシイヌイババマチ,長崎県大村市西乾馬場町
8560822,長崎県,大村市,古町,ナガサキケン,オオムラシ,フルマチ,長崎県大村市古町
8560823,長崎県,大村市,乾馬場町,ナガサキケン,オオムラシ,イヌイババマチ,長崎県大村市乾馬場町
8560824,長崎県,大村市,水田町,ナガサキケン,オオムラシ,ミズタマチ,長崎県大村市水田町
8560825,長崎県,大村市,西三城町,ナガサキケン,オオムラシ,ニシサンジョウチョウ,長崎県大村市西三城町
8560826,長崎県,大村市,東三城町,ナガサキケン,オオムラシ,ヒガシサンジョウチョウ,長崎県大村市東三城町
8560827,長崎県,大村市,水主町,ナガサキケン,オオムラシ,カコマチ,長崎県大村市水主町
8560828,長崎県,大村市,杭出津,ナガサキケン,オオムラシ,クイデツ,長崎県大村市杭出津
8560829,長崎県,大村市,松山町,ナガサキケン,オオムラシ,マツヤママチ,長崎県大村市松山町
8560831,長崎県,大村市,東本町,ナガサキケン,オオムラシ,ヒガシホンマチ,長崎県大村市東本町
8560832,長崎県,大村市,本町,ナガサキケン,オオムラシ,ホンマチ,長崎県大村市本町
8560833,長崎県,大村市,片町,ナガサキケン,オオムラシ,カタマチ,長崎県大村市片町
8560834,長崎県,大村市,玖島,ナガサキケン,オオムラシ,クシマ,長崎県大村市玖島
8560835,長崎県,大村市,久原,ナガサキケン,オオムラシ,クバラ,長崎県大村市久原
8560836,長崎県,大村市,幸町,ナガサキケン,オオムラシ,サイワイマチ,長崎県大村市幸町
8560837,長崎県,大村市,西本町,ナガサキケン,オオムラシ,ニシホンマチ,長崎県大村市西本町
8560841,長崎県,大村市,陰平町,ナガサキケン,オオムラシ,カゲヒラマチ,長崎県大村市陰平町
8560842,長崎県,大村市,中里町,ナガサキケン,オオムラシ,ナカザトマチ,長崎県大村市中里町
8560843,長崎県,大村市,今村町,ナガサキケン,オオムラシ,イマムラマチ,長崎県大村市今村町
8560844,長崎県,大村市,溝陸町,ナガサキケン,オオムラシ,ミゾロクマチ,長崎県大村市溝陸町
8560845,長崎県,大村市,大里町,ナガサキケン,オオムラシ,オオザトマチ,長崎県大村市大里町
8560846,長崎県,大村市,日泊町,ナガサキケン,オオムラシ,ヒドマルマチ,長崎県大村市日泊町
8560847,長崎県,大村市,西部町,ナガサキケン,オオムラシ,セイブマチ,長崎県大村市西部町
8570000,長崎県,佐世保市,,ナガサキケン,サセボシ,,長崎県佐世保市
8570001,長崎県,佐世保市,烏帽子町,ナガサキケン,サセボシ,エボシチョウ,長崎県佐世保市烏帽子町
8570011,長崎県,佐世保市,春日町,ナガサキケン,サセボシ,カスガチョウ,長崎県佐世保市春日町
8570012,長崎県,佐世保市,桜木町,ナガサキケン,サセボシ,サクラギチョウ,長崎県佐世保市桜木町
8570013,長崎県,佐世保市,赤木町,ナガサキケン,サセボシ,アカギチョウ,長崎県佐世保市赤木町
8570014,長崎県,佐世保市,田代町,ナガサキケン,サセボシ,タシロチョウ,長崎県佐世保市田代町
8570015,長崎県,佐世保市,松山町,ナガサキケン,サセボシ,マツヤマチョウ,長崎県佐世保市松山町
8570016,長崎県,佐世保市,俵町,ナガサキケン,サセボシ,タワラマチ,長崎県佐世保市俵町
8570017,長崎県,佐世保市,梅田町,ナガサキケン,サセボシ,ウメダマチ,長崎県佐世保市梅田町
8570018,長崎県,佐世保市,横尾町,ナガサキケン,サセボシ,ヨコオチョウ,長崎県佐世保市横尾町
8570021,長崎県,佐世保市,折橋町,ナガサキケン,サセボシ,オリハシチョウ,長崎県佐世保市折橋町
8570022,長崎県,佐世保市,山手町,ナガサキケン,サセボシ,ヤマテチョウ,長崎県佐世保市山手町
8570023,長崎県,佐世保市,名切町,ナガサキケン,サセボシ,ナキリチョウ,長崎県佐世保市名切町
8570024,長崎県,佐世保市,花園町,ナガサキケン,サセボシ,ハナゾノチョウ,長崎県佐世保市花園町
8570025,長崎県,佐世保市,熊野町,ナガサキケン,サセボシ,クマノチョウ,長崎県佐世保市熊野町
8570026,長崎県,佐世保市,宮地町,ナガサキケン,サセボシ,ミヤジチョウ,長崎県佐世保市宮地町
8570027,長崎県,佐世保市,谷郷町,ナガサキケン,サセボシ,タニゴウチョウ,長崎県佐世保市谷郷町
8570028,長崎県,佐世保市,八幡町,ナガサキケン,サセボシ,ハチマンチョウ,長崎県佐世保市八幡町
8570031,長崎県,佐世保市,保立町,ナガサキケン,サセボシ,ホタテチョウ,長崎県佐世保市保立町
8570032,長崎県,佐世保市,宮田町,ナガサキケン,サセボシ,ミヤダマチ,長崎県佐世保市宮田町
8570033,長崎県,佐世保市,城山町,ナガサキケン,サセボシ,シロヤマチョウ,長崎県佐世保市城山町
8570034,長崎県,佐世保市,万徳町,ナガサキケン,サセボシ,マントクチョウ,長崎県佐世保市万徳町
8570035,長崎県,佐世保市,福田町,ナガサキケン,サセボシ,フクダマチ,長崎県佐世保市福田町
8570036,長崎県,佐世保市,清水町,ナガサキケン,サセボシ,シミズチョウ,長崎県佐世保市清水町
8570037,長崎県,佐世保市,石坂町,ナガサキケン,サセボシ,イシザカチョウ,長崎県佐世保市石坂町
8570038,長崎県,佐世保市,中通町,ナガサキケン,サセボシ,ナカドオリチョウ,長崎県佐世保市中通町
8570040,長崎県,佐世保市,比良町,ナガサキケン,サセボシ,ヒラマチ,長崎県佐世保市比良町
8570041,長崎県,佐世保市,木場田町,ナガサキケン,サセボシ,コバタチョウ,長崎県佐世保市木場田町
8570042,長崎県,佐世保市,高砂町,ナガサキケン,サセボシ,タカサゴチョウ,長崎県佐世保市高砂町
8570043,長崎県,佐世保市,天満町,ナガサキケン,サセボシ,テンマチョウ,長崎県佐世保市天満町
8570044,長崎県,佐世保市,相生町,ナガサキケン,サセボシ,アイオイチョウ,長崎県佐世保市相生町
8570045,長崎県,佐世保市,園田町,ナガサキケン,サセボシ,ソノダマチ,長崎県佐世保市園田町
8570046,長崎県,佐世保市,長尾町,ナガサキケン,サセボシ,ナガオチョウ,長崎県佐世保市長尾町
8570047,長崎県,佐世保市,矢岳町,ナガサキケン,サセボシ,ヤタケチョウ,長崎県佐世保市矢岳町
8570048,長崎県,佐世保市,西大久保町,ナガサキケン,サセボシ,ニシオオクボチョウ,長崎県佐世保市西大久保町
8570049,長崎県,佐世保市,東大久保町,ナガサキケン,サセボシ,ヒガシオオクボチョウ,長崎県佐世保市東大久保町
8570051,長崎県,佐世保市,浜田町,ナガサキケン,サセボシ,ハマダマチ,長崎県佐世保市浜田町
8570052,長崎県,佐世保市,松浦町,ナガサキケン,サセボシ,マツウラチョウ,長崎県佐世保市松浦町
8570053,長崎県,佐世保市,常盤町,ナガサキケン,サセボシ,トキワチョウ,長崎県佐世保市常盤町
8570054,長崎県,佐世保市,栄町,ナガサキケン,サセボシ,サカエマチ,長崎県佐世保市栄町
8570055,長崎県,佐世保市,湊町,ナガサキケン,サセボシ,ミナトマチ,長崎県佐世保市湊町
8570056,長崎県,佐世保市,平瀬町,ナガサキケン,サセボシ,ヒラセチョウ,長崎県佐世保市平瀬町
8570057,長崎県,佐世保市,泉町,ナガサキケン,サセボシ,イズミチョウ,長崎県佐世保市泉町
8570058,長崎県,佐世保市,上町,ナガサキケン,サセボシ,ウワマチ,長崎県佐世保市上町
8570059,長崎県,佐世保市,元町,ナガサキケン,サセボシ,モトマチ,長崎県佐世保市元町
8570061,長崎県,佐世保市,今福町,ナガサキケン,サセボシ,イマブクチョウ,長崎県佐世保市今福町
8570062,長崎県,佐世保市,金比良町,ナガサキケン,サセボシ,コンピラチョウ,長崎県佐世保市金比良町
8570063,長崎県,佐世保市,立神町,ナガサキケン,サセボシ,タテガミチョウ,長崎県佐世保市立神町
8570064,長崎県,佐世保市,赤崎町,ナガサキケン,サセボシ,アカサキチョウ,長崎県佐世保市赤崎町
8570065,長崎県,佐世保市,小野町（１２００〜１４９９番地）,ナガサキケン,サセボシ,オノチョウ(1200-1499バンチ),長崎県佐世保市小野町（1200〜1499-）
8570066,長崎県,佐世保市,小島町,ナガサキケン,サセボシ,コジマチョウ,長崎県佐世保市小島町
8570067,長崎県,佐世保市,神島町,ナガサキケン,サセボシ,カミシマチョウ,長崎県佐世保市神島町
8570068,長崎県,佐世保市,御船町,ナガサキケン,サセボシ,ミフネチョウ,長崎県佐世保市御船町
8570069,長崎県,佐世保市,鵜渡越町,ナガサキケン,サセボシ,ウドゴエチョウ,長崎県佐世保市鵜渡越町
8570071,長崎県,長崎市,池島町,ナガサキケン,ナガサキシ,イケシママチ,長崎県長崎市池島町
8570101,長崎県,佐世保市,知見寺町,ナガサキケン,サセボシ,チケンジチョウ,長崎県佐世保市知見寺町
8570102,長崎県,佐世保市,松瀬町,ナガサキケン,サセボシ,マツセチョウ,長崎県佐世保市松瀬町
8570103,長崎県,佐世保市,原分町,ナガサキケン,サセボシ,ハルブンチョウ,長崎県佐世保市原分町
8570104,長崎県,佐世保市,楠木町,ナガサキケン,サセボシ,クスノキチョウ,長崎県佐世保市楠木町
8570105,長崎県,佐世保市,白仁田町,ナガサキケン,サセボシ,シラニタチョウ,長崎県佐世保市白仁田町
8570106,長崎県,佐世保市,菰田町,ナガサキケン,サセボシ,コモダチョウ,長崎県佐世保市菰田町
8570111,長崎県,佐世保市,筒井町,ナガサキケン,サセボシ,ツツイチョウ,長崎県佐世保市筒井町
8570112,長崎県,佐世保市,柚木町,ナガサキケン,サセボシ,ユノキチョウ,長崎県佐世保市柚木町
8570113,長崎県,佐世保市,下宇戸町,ナガサキケン,サセボシ,シモウドチョウ,長崎県佐世保市下宇戸町
8570114,長崎県,佐世保市,小舟町,ナガサキケン,サセボシ,コフネチョウ,長崎県佐世保市小舟町
8570115,長崎県,佐世保市,柚木元町,ナガサキケン,サセボシ,ユノキモトマチ,長崎県佐世保市柚木元町
8570121,長崎県,佐世保市,潜木町,ナガサキケン,サセボシ,クグルギチョウ,長崎県佐世保市潜木町
8570122,長崎県,佐世保市,里美町,ナガサキケン,サセボシ,サトヨシチョウ,長崎県佐世保市里美町
8570123,長崎県,佐世保市,川谷町,ナガサキケン,サセボシ,カワタニチョウ,長崎県佐世保市川谷町
8570124,長崎県,佐世保市,戸ケ倉町,ナガサキケン,サセボシ,トガクラチョウ,長崎県佐世保市戸ケ倉町
8570125,長崎県,佐世保市,高花町,ナガサキケン,サセボシ,タカハナチョウ,長崎県佐世保市高花町
8570126,長崎県,佐世保市,上柚木町,ナガサキケン,サセボシ,カミユノキチョウ,長崎県佐世保市上柚木町
8570131,長崎県,佐世保市,大野町,ナガサキケン,サセボシ,オオノチョウ,長崎県佐世保市大野町
8570132,長崎県,佐世保市,松原町,ナガサキケン,サセボシ,マツバラチョウ,長崎県佐世保市松原町
8570133,長崎県,佐世保市,矢峰町,ナガサキケン,サセボシ,ヤミネチョウ,長崎県佐世保市矢峰町
8570134,長崎県,佐世保市,瀬戸越,ナガサキケン,サセボシ,セトゴエ,長崎県佐世保市瀬戸越
8570135,長崎県,佐世保市,瀬戸越町,ナガサキケン,サセボシ,セトゴエチョウ,長崎県佐世保市瀬戸越町
8570136,長崎県,佐世保市,田原町,ナガサキケン,サセボシ,タバルチョウ,長崎県佐世保市田原町
8570141,長崎県,佐世保市,十文野町,ナガサキケン,サセボシ,トモンノチョウ,長崎県佐世保市十文野町
8570142,長崎県,佐世保市,野中町,ナガサキケン,サセボシ,ノナカチョウ,長崎県佐世保市野中町
8570143,長崎県,佐世保市,吉岡町,ナガサキケン,サセボシ,ヨシオカチョウ,長崎県佐世保市吉岡町
8570144,長崎県,佐世保市,皆瀬町,ナガサキケン,サセボシ,カイゼチョウ,長崎県佐世保市皆瀬町
8570145,長崎県,佐世保市,牧の地町,ナガサキケン,サセボシ,マキノジチョウ,長崎県佐世保市牧の地町
8570146,長崎県,佐世保市,小川内町,ナガサキケン,サセボシ,オガワチチョウ,長崎県佐世保市小川内町
8570300,長崎県,北松浦郡佐々町,,ナガサキケン,キタマツウラグンサザチョウ,,長崎県北松浦郡佐々町
8570311,長崎県,北松浦郡佐々町,本田原免,ナガサキケン,キタマツウラグンサザチョウ,ホンタバルメン,長崎県北松浦郡佐々町本田原免
8570312,長崎県,北松浦郡佐々町,市場免,ナガサキケン,キタマツウラグンサザチョウ,イチバメン,長崎県北松浦郡佐々町市場免
8570313,長崎県,北松浦郡佐々町,鴨川免,ナガサキケン,キタマツウラグンサザチョウ,カモガワメン,長崎県北松浦郡佐々町鴨川免
8570314,長崎県,北松浦郡佐々町,古川免,ナガサキケン,キタマツウラグンサザチョウ,フルカワメン,長崎県北松浦郡佐々町古川免
8570315,長崎県,北松浦郡佐々町,志方免,ナガサキケン,キタマツウラグンサザチョウ,シカタメン,長崎県北松浦郡佐々町志方免
8570321,長崎県,北松浦郡佐々町,市瀬免,ナガサキケン,キタマツウラグンサザチョウ,イチノセメン,長崎県北松浦郡佐々町市瀬免
8570322,長崎県,北松浦郡佐々町,松瀬免,ナガサキケン,キタマツウラグンサザチョウ,マツセメン,長崎県北松浦郡佐々町松瀬免
8570323,長崎県,北松浦郡佐々町,江里免,ナガサキケン,キタマツウラグンサザチョウ,エリメン,長崎県北松浦郡佐々町江里免
8570324,長崎県,北松浦郡佐々町,大茂免,ナガサキケン,キタマツウラグンサザチョウ,オオシゲメン,長崎県北松浦郡佐々町大茂免
8570331,長崎県,北松浦郡佐々町,野寄免,ナガサキケン,キタマツウラグンサザチョウ,ノヨリメン,長崎県北松浦郡佐々町野寄免
8570332,長崎県,北松浦郡佐々町,栗林免,ナガサキケン,キタマツウラグンサザチョウ,クリバヤシメン,長崎県北松浦郡佐々町栗林免
8570333,長崎県,北松浦郡佐々町,中川原免,ナガサキケン,キタマツウラグンサザチョウ,ナカガワラメン,長崎県北松浦郡佐々町中川原免
8570334,長崎県,北松浦郡佐々町,石木場免,ナガサキケン,キタマツウラグンサザチョウ,イシコバメン,長崎県北松浦郡佐々町石木場免
8570335,長崎県,北松浦郡佐々町,皆瀬免,ナガサキケン,キタマツウラグンサザチョウ,カイゼメン,長崎県北松浦郡佐々町皆瀬免
8570336,長崎県,北松浦郡佐々町,神田免,ナガサキケン,キタマツウラグンサザチョウ,コウダメン,長崎県北松浦郡佐々町神田免
8570337,長崎県,北松浦郡佐々町,八口免,ナガサキケン,キタマツウラグンサザチョウ,ヤクチメン,長崎県北松浦郡佐々町八口免
8570338,長崎県,北松浦郡佐々町,角山免,ナガサキケン,キタマツウラグンサザチョウ,ツノヤマメン,長崎県北松浦郡佐々町角山免
8570341,長崎県,北松浦郡佐々町,羽須和免,ナガサキケン,キタマツウラグンサザチョウ,ハスワメン,長崎県北松浦郡佐々町羽須和免
8570342,長崎県,北松浦郡佐々町,平野免,ナガサキケン,キタマツウラグンサザチョウ,ヒラノメン,長崎県北松浦郡佐々町平野免
8570343,長崎県,北松浦郡佐々町,木場免,ナガサキケン,キタマツウラグンサザチョウ,コバメン,長崎県北松浦郡佐々町木場免
8570344,長崎県,北松浦郡佐々町,迎木場免,ナガサキケン,キタマツウラグンサザチョウ,ムカエコバメン,長崎県北松浦郡佐々町迎木場免
8570351,長崎県,北松浦郡佐々町,須崎免,ナガサキケン,キタマツウラグンサザチョウ,スサキメン,長崎県北松浦郡佐々町須崎免
8570352,長崎県,北松浦郡佐々町,口石免,ナガサキケン,キタマツウラグンサザチョウ,クチイシメン,長崎県北松浦郡佐々町口石免
8570353,長崎県,北松浦郡佐々町,沖田免,ナガサキケン,キタマツウラグンサザチョウ,オキタメン,長崎県北松浦郡佐々町沖田免
8570361,長崎県,北松浦郡佐々町,小浦免,ナガサキケン,キタマツウラグンサザチョウ,コウラメン,長崎県北松浦郡佐々町小浦免
8570401,長崎県,佐世保市,小佐々町黒石,ナガサキケン,サセボシ,コサザチョウクロイシ,長崎県佐世保市小佐々町黒石
8570402,長崎県,佐世保市,小佐々町小坂,ナガサキケン,サセボシ,コサザチョウコサカ,長崎県佐世保市小佐々町小坂
8570403,長崎県,佐世保市,小佐々町臼ノ浦,ナガサキケン,サセボシ,コサザチョウウスノウラ,長崎県佐世保市小佐々町臼ノ浦
8570404,長崎県,佐世保市,小佐々町田原,ナガサキケン,サセボシ,コサザチョウタバル,長崎県佐世保市小佐々町田原
8570405,長崎県,佐世保市,小佐々町葛籠,ナガサキケン,サセボシ,コサザチョウツヅラ,長崎県佐世保市小佐々町葛籠
8570406,長崎県,佐世保市,小佐々町平原,ナガサキケン,サセボシ,コサザチョウヒラバル,長崎県佐世保市小佐々町平原
8570411,長崎県,佐世保市,小佐々町岳ノ木場,ナガサキケン,サセボシ,コサザチョウタケノコバ,長崎県佐世保市小佐々町岳ノ木場
8570412,長崎県,佐世保市,小佐々町西川内,ナガサキケン,サセボシ,コサザチョウニシカワウチ,長崎県佐世保市小佐々町西川内
8570413,長崎県,佐世保市,小佐々町楠泊,ナガサキケン,サセボシ,コサザチョウクスドマリ,長崎県佐世保市小佐々町楠泊
8570414,長崎県,佐世保市,小佐々町矢岳,ナガサキケン,サセボシ,コサザチョウヤダケ,長崎県佐世保市小佐々町矢岳
8570431,長崎県,佐世保市,浅子町,ナガサキケン,サセボシ,アサゴチョウ,長崎県佐世保市浅子町
8570801,長崎県,佐世保市,祇園町,ナガサキケン,サセボシ,ギオンチョウ,長崎県佐世保市祇園町
8570802,長崎県,佐世保市,高天町,ナガサキケン,サセボシ,コウテンチョウ,長崎県佐世保市高天町
8570803,長崎県,佐世保市,勝富町,ナガサキケン,サセボシ,カツトミチョウ,長崎県佐世保市勝富町
8570804,長崎県,佐世保市,松川町,ナガサキケン,サセボシ,マツカワチョウ,長崎県佐世保市松川町
8570805,長崎県,佐世保市,光月町,ナガサキケン,サセボシ,コウゲツチョウ,長崎県佐世保市光月町
8570806,長崎県,佐世保市,島瀬町,ナガサキケン,サセボシ,シマノセチョウ,長崎県佐世保市島瀬町
8570811,長崎県,佐世保市,高梨町,ナガサキケン,サセボシ,タカナシチョウ,長崎県佐世保市高梨町
8570812,長崎県,佐世保市,須佐町,ナガサキケン,サセボシ,スサマチ,長崎県佐世保市須佐町
8570813,長崎県,佐世保市,小佐世保町,ナガサキケン,サセボシ,コサセボチョウ,長崎県佐世保市小佐世保町
8570821,長崎県,佐世保市,白木町,ナガサキケン,サセボシ,シラキチョウ,長崎県佐世保市白木町
8570822,長崎県,佐世保市,山祇町,ナガサキケン,サセボシ,ヤマズミチョウ,長崎県佐世保市山祇町
8570831,長崎県,佐世保市,須田尾町,ナガサキケン,サセボシ,スダオチョウ,長崎県佐世保市須田尾町
8570832,長崎県,佐世保市,藤原町,ナガサキケン,サセボシ,フジワラチョウ,長崎県佐世保市藤原町
8570833,長崎県,佐世保市,若葉町,ナガサキケン,サセボシ,ワカバチョウ,長崎県佐世保市若葉町
8570834,長崎県,佐世保市,潮見町,ナガサキケン,サセボシ,シオミチョウ,長崎県佐世保市潮見町
8570841,長崎県,佐世保市,大宮町,ナガサキケン,サセボシ,オオミヤチョウ,長崎県佐世保市大宮町
8570842,長崎県,佐世保市,東山町,ナガサキケン,サセボシ,ヒガシヤマチョウ,長崎県佐世保市東山町
8570843,長崎県,佐世保市,大黒町,ナガサキケン,サセボシ,ダイコクチョウ,長崎県佐世保市大黒町
8570851,長崎県,佐世保市,稲荷町,ナガサキケン,サセボシ,イナリチョウ,長崎県佐世保市稲荷町
8570852,長崎県,佐世保市,干尽町,ナガサキケン,サセボシ,ヒヅクシマチ,長崎県佐世保市干尽町
8570853,長崎県,佐世保市,前畑町,ナガサキケン,サセボシ,マエハタチョウ,長崎県佐世保市前畑町
8570854,長崎県,佐世保市,福石町,ナガサキケン,サセボシ,フクイシチョウ,長崎県佐世保市福石町
8570855,長崎県,佐世保市,新港町,ナガサキケン,サセボシ,シンミナトマチ,長崎県佐世保市新港町
8570861,長崎県,佐世保市,峰坂町,ナガサキケン,サセボシ,ミネノサカチョウ,長崎県佐世保市峰坂町
8570862,長崎県,佐世保市,白南風町,ナガサキケン,サセボシ,シラハエチョウ,長崎県佐世保市白南風町
8570863,長崎県,佐世保市,三浦町,ナガサキケン,サセボシ,ミウラチョウ,長崎県佐世保市三浦町
8570864,長崎県,佐世保市,戸尾町,ナガサキケン,サセボシ,トノオチョウ,長崎県佐世保市戸尾町
8570871,長崎県,佐世保市,本島町,ナガサキケン,サセボシ,モトシマチョウ,長崎県佐世保市本島町
8570872,長崎県,佐世保市,上京町,ナガサキケン,サセボシ,カミキョウマチ,長崎県佐世保市上京町
8570873,長崎県,佐世保市,宮崎町,ナガサキケン,サセボシ,ミヤザキチョウ,長崎県佐世保市宮崎町
8570874,長崎県,佐世保市,京坪町,ナガサキケン,サセボシ,キョウノツボチョウ,長崎県佐世保市京坪町
8570875,長崎県,佐世保市,下京町,ナガサキケン,サセボシ,シモキョウマチ,長崎県佐世保市下京町
8570876,長崎県,佐世保市,塩浜町,ナガサキケン,サセボシ,シオハマチョウ,長崎県佐世保市塩浜町
8570877,長崎県,佐世保市,万津町,ナガサキケン,サセボシ,ヨロヅチョウ,長崎県佐世保市万津町
8570878,長崎県,佐世保市,山県町,ナガサキケン,サセボシ,ヤマガタチョウ,長崎県佐世保市山県町
8570879,長崎県,佐世保市,島地町,ナガサキケン,サセボシ,シマンジチョウ,長崎県佐世保市島地町
8571151,長崎県,佐世保市,日宇町,ナガサキケン,サセボシ,ヒウチョウ,長崎県佐世保市日宇町
8571152,長崎県,佐世保市,黒髪町,ナガサキケン,サセボシ,クロカミチョウ,長崎県佐世保市黒髪町
8571153,長崎県,佐世保市,もみじが丘町,ナガサキケン,サセボシ,モミジガオカマチ,長崎県佐世保市もみじが丘町
8571161,長崎県,佐世保市,大塔町,ナガサキケン,サセボシ,ダイトウチョウ,長崎県佐世保市大塔町
8571162,長崎県,佐世保市,卸本町,ナガサキケン,サセボシ,オロシホンマチ,長崎県佐世保市卸本町
8571163,長崎県,佐世保市,大岳台町,ナガサキケン,サセボシ,オオタケダイマチ,長崎県佐世保市大岳台町
8571164,長崎県,佐世保市,白岳町,ナガサキケン,サセボシ,シラタケチョウ,長崎県佐世保市白岳町
8571165,長崎県,佐世保市,大和町,ナガサキケン,サセボシ,ヤマトチョウ,長崎県佐世保市大和町
8571166,長崎県,佐世保市,木風町,ナガサキケン,サセボシ,キカゼチョウ,長崎県佐世保市木風町
8571167,長崎県,佐世保市,ひうみ町,ナガサキケン,サセボシ,ヒウミマチ,長崎県佐世保市ひうみ町
8571171,長崎県,佐世保市,沖新町,ナガサキケン,サセボシ,オキシンマチ,長崎県佐世保市沖新町
8571172,長崎県,佐世保市,東浜町,ナガサキケン,サセボシ,ヒガシハマチョウ,長崎県佐世保市東浜町
8571173,長崎県,佐世保市,十郎新町,ナガサキケン,サセボシ,ジュウロウシンマチ,長崎県佐世保市十郎新町
8571174,長崎県,佐世保市,天神,ナガサキケン,サセボシ,テンジン,長崎県佐世保市天神
8571175,長崎県,佐世保市,天神町,ナガサキケン,サセボシ,テンジンチョウ,長崎県佐世保市天神町
8571176,長崎県,佐世保市,崎辺町,ナガサキケン,サセボシ,サキベチョウ,長崎県佐世保市崎辺町
8571231,長崎県,佐世保市,船越町,ナガサキケン,サセボシ,フナコシチョウ,長崎県佐世保市船越町
8571232,長崎県,佐世保市,下船越町,ナガサキケン,サセボシ,シモフナコシチョウ,長崎県佐世保市下船越町
8571233,長崎県,佐世保市,庵浦町,ナガサキケン,サセボシ,イオノウラチョウ,長崎県佐世保市庵浦町
8571234,長崎県,佐世保市,野崎町,ナガサキケン,サセボシ,ノザキチョウ,長崎県佐世保市野崎町
8571235,長崎県,佐世保市,俵ケ浦町,ナガサキケン,サセボシ,タワラガウラチョウ,長崎県佐世保市俵ケ浦町
8572221,長崎県,西海市,西海町中浦南郷,ナガサキケン,サイカイシ,サイカイチョウナカウラミナミゴウ,長崎県西海市西海町中浦南郷
8572222,長崎県,西海市,西海町中浦北郷,ナガサキケン,サイカイシ,サイカイチョウナカウラキタゴウ,長崎県西海市西海町中浦北郷
8572223,長崎県,西海市,西海町七釜郷,ナガサキケン,サイカイシ,サイカイチョウナナツガマゴウ,長崎県西海市西海町七釜郷
8572301,長崎県,西海市,大瀬戸町瀬戸板浦郷,ナガサキケン,サイカイシ,オオセトチョウセトイタノウラゴウ,長崎県西海市大瀬戸町瀬戸板浦郷
8572302,長崎県,西海市,大瀬戸町瀬戸樫浦郷,ナガサキケン,サイカイシ,オオセトチョウセトカシノウラゴウ,長崎県西海市大瀬戸町瀬戸樫浦郷
8572303,長崎県,西海市,大瀬戸町瀬戸西濱郷,ナガサキケン,サイカイシ,オオセトチョウセトニシハマゴウ,長崎県西海市大瀬戸町瀬戸西濱郷
8572304,長崎県,西海市,大瀬戸町瀬戸下山郷,ナガサキケン,サイカイシ,オオセトチョウセトシタヤマゴウ,長崎県西海市大瀬戸町瀬戸下山郷
8572305,長崎県,西海市,大瀬戸町瀬戸羽出川郷,ナガサキケン,サイカイシ,オオセトチョウセトハデガワゴウ,長崎県西海市大瀬戸町瀬戸羽出川郷
8572306,長崎県,西海市,大瀬戸町瀬戸東濱郷,ナガサキケン,サイカイシ,オオセトチョウセトヒガシハマゴウ,長崎県西海市大瀬戸町瀬戸東濱郷
8572307,長崎県,西海市,大瀬戸町瀬戸福島郷,ナガサキケン,サイカイシ,オオセトチョウセトフクシマゴウ,長崎県西海市大瀬戸町瀬戸福島郷
8572311,長崎県,西海市,大瀬戸町多以良外郷,ナガサキケン,サイカイシ,オオセトチョウタイラソトゴウ,長崎県西海市大瀬戸町多以良外郷
8572312,長崎県,西海市,大瀬戸町多以良内郷,ナガサキケン,サイカイシ,オオセトチョウタイラウチゴウ,長崎県西海市大瀬戸町多以良内郷
8572321,長崎県,西海市,大瀬戸町雪浦幸物郷,ナガサキケン,サイカイシ,オオセトチョウユキノウラコウブツゴウ,長崎県西海市大瀬戸町雪浦幸物郷
8572322,長崎県,西海市,大瀬戸町雪浦久良木郷,ナガサキケン,サイカイシ,オオセトチョウユキノウラキュウラギゴウ,長崎県西海市大瀬戸町雪浦久良木郷
8572323,長崎県,西海市,大瀬戸町雪浦河通郷,ナガサキケン,サイカイシ,オオセトチョウユキノウラゴウツウゴウ,長崎県西海市大瀬戸町雪浦河通郷
8572324,長崎県,西海市,大瀬戸町雪浦奥浦郷,ナガサキケン,サイカイシ,オオセトチョウユキノウラオクウラゴウ,長崎県西海市大瀬戸町雪浦奥浦郷
8572325,長崎県,西海市,大瀬戸町雪浦小松郷,ナガサキケン,サイカイシ,オオセトチョウユキノウラコマツゴウ,長崎県西海市大瀬戸町雪浦小松郷
8572326,長崎県,西海市,大瀬戸町雪浦下郷,ナガサキケン,サイカイシ,オオセトチョウユキノウラシモゴウ,長崎県西海市大瀬戸町雪浦下郷
8572327,長崎県,西海市,大瀬戸町雪浦上郷,ナガサキケン,サイカイシ,オオセトチョウユキノウラカミゴウ,長崎県西海市大瀬戸町雪浦上郷
8572328,長崎県,西海市,大瀬戸町雪浦下釜郷,ナガサキケン,サイカイシ,オオセトチョウユキノウラシモノカマゴウ,長崎県西海市大瀬戸町雪浦下釜郷
8572401,長崎県,西海市,大島町黒瀬,ナガサキケン,サイカイシ,オオシマチョウクロセ,長崎県西海市大島町黒瀬
8572402,長崎県,西海市,大島町内浦地区,ナガサキケン,サイカイシ,オオシマチョウウチウラチク,長崎県西海市大島町内浦地区
8572403,長崎県,西海市,大島町馬込,ナガサキケン,サイカイシ,オオシマチョウマゴメ,長崎県西海市大島町馬込
8572405,長崎県,西海市,大島町中央地区,ナガサキケン,サイカイシ,オオシマチョウチュウオウチク,長崎県西海市大島町中央地区
8572411,長崎県,西海市,大島町寺島,ナガサキケン,サイカイシ,オオシマチョウテラシマ,長崎県西海市大島町寺島
8572412,長崎県,西海市,大島町真砂,ナガサキケン,サイカイシ,オオシマチョウマサゴ,長崎県西海市大島町真砂
8572413,長崎県,西海市,大島町間瀬,ナガサキケン,サイカイシ,オオシマチョウマゼ,長崎県西海市大島町間瀬
8572417,長崎県,西海市,大島町百合が丘,ナガサキケン,サイカイシ,オオシマチョウユリガオカ,長崎県西海市大島町百合が丘
8572418,長崎県,西海市,大島町徳万,ナガサキケン,サイカイシ,オオシマチョウトクマン,長崎県西海市大島町徳万
8572419,長崎県,西海市,大島町蛤,ナガサキケン,サイカイシ,オオシマチョウハマグリ,長崎県西海市大島町蛤
8572421,長崎県,西海市,大島町中戸,ナガサキケン,サイカイシ,オオシマチョウナカト,長崎県西海市大島町中戸
8572422,長崎県,西海市,大島町太田尾,ナガサキケン,サイカイシ,オオシマチョウオオダオ,長崎県西海市大島町太田尾
8572423,長崎県,西海市,大島町塔尾,ナガサキケン,サイカイシ,オオシマチョウトオノオ,長崎県西海市大島町塔尾
8572424,長崎県,西海市,大島町塩田,ナガサキケン,サイカイシ,オオシマチョウシオダ,長崎県西海市大島町塩田
8572425,長崎県,西海市,大島町田浦,ナガサキケン,サイカイシ,オオシマチョウタノウラ,長崎県西海市大島町田浦
8572426,長崎県,西海市,大島町大島,ナガサキケン,サイカイシ,オオシマチョウオオジマ,長崎県西海市大島町大島
8572427,長崎県,西海市,,ナガサキケン,サイカイシ,,長崎県西海市
8572531,長崎県,西海市,大瀬戸町松島内郷,ナガサキケン,サイカイシ,オオセトチョウマツシマウチゴウ,長崎県西海市大瀬戸町松島内郷
8572532,長崎県,西海市,大瀬戸町松島外郷,ナガサキケン,サイカイシ,オオセトチョウマツシマソトゴウ,長崎県西海市大瀬戸町松島外郷
8573101,長崎県,西海市,崎戸町蠣浦郷,ナガサキケン,サイカイシ,サキトチョウカキノウラゴウ,長崎県西海市崎戸町蠣浦郷
8573102,長崎県,西海市,崎戸町本郷,ナガサキケン,サイカイシ,サキトチョウホンゴウ,長崎県西海市崎戸町本郷
8573103,長崎県,西海市,崎戸町江島,ナガサキケン,サイカイシ,サキトチョウエノシマ,長崎県西海市崎戸町江島
8573271,長崎県,佐世保市,黒島町,ナガサキケン,サセボシ,クロシマチョウ,長崎県佐世保市黒島町
8573311,長崎県,西海市,崎戸町平島,ナガサキケン,サイカイシ,サキトチョウヒラシマ,長崎県西海市崎戸町平島
8574101,長崎県,南松浦郡新上五島町,赤尾郷,ナガサキケン,ミナミマツウラグンシンカミゴトウチョウ,アカオゴウ,長崎県南松浦郡新上五島町赤尾郷
8574102,長崎県,南松浦郡新上五島町,友住郷,ナガサキケン,ミナミマツウラグンシンカミゴトウチョウ,トモスミゴウ,長崎県南松浦郡新上五島町友住郷
8574103,長崎県,南松浦郡新上五島町,江ノ浜郷,ナガサキケン,ミナミマツウラグンシンカミゴトウチョウ,エノハマゴウ,長崎県南松浦郡新上五島町江ノ浜郷
8574211,長崎県,南松浦郡新上五島町,有川郷,ナガサキケン,ミナミマツウラグンシンカミゴトウチョウ,アリカワゴウ,長崎県南松浦郡新上五島町有川郷
8574212,長崎県,南松浦郡新上五島町,小河原郷,ナガサキケン,ミナミマツウラグンシンカミゴトウチョウ,オガワラゴウ,長崎県南松浦郡新上五島町小河原郷
8574213,長崎県,南松浦郡新上五島町,太田郷,ナガサキケン,ミナミマツウラグンシンカミゴトウチョウ,オオタゴウ,長崎県南松浦郡新上五島町太田郷
8574214,長崎県,南松浦郡新上五島町,七目郷,ナガサキケン,ミナミマツウラグンシンカミゴトウチョウ,ナナメゴウ,長崎県南松浦郡新上五島町七目郷
8574400,長崎県,南松浦郡新上五島町,,ナガサキケン,ミナミマツウラグンシンカミゴトウチョウ,,長崎県南松浦郡新上五島町
8574401,長崎県,南松浦郡新上五島町,網上郷,ナガサキケン,ミナミマツウラグンシンカミゴトウチョウ,アミアゲゴウ,長崎県南松浦郡新上五島町網上郷
8574402,長崎県,南松浦郡新上五島町,奈摩郷,ナガサキケン,ミナミマツウラグンシンカミゴトウチョウ,ナマゴウ,長崎県南松浦郡新上五島町奈摩郷
8574404,長崎県,南松浦郡新上五島町,青方郷,ナガサキケン,ミナミマツウラグンシンカミゴトウチョウ,アオカタゴウ,長崎県南松浦郡新上五島町青方郷
8574405,長崎県,南松浦郡新上五島町,船崎郷,ナガサキケン,ミナミマツウラグンシンカミゴトウチョウ,フナサキゴウ,長崎県南松浦郡新上五島町船崎郷
8574411,長崎県,南松浦郡新上五島町,相河郷,ナガサキケン,ミナミマツウラグンシンカミゴトウチョウ,アイコゴウ,長崎県南松浦郡新上五島町相河郷
8574412,長崎県,南松浦郡新上五島町,三日ノ浦郷,ナガサキケン,ミナミマツウラグンシンカミゴトウチョウ,ミカノウラゴウ,長崎県南松浦郡新上五島町三日ノ浦郷
8574413,長崎県,南松浦郡新上五島町,今里郷,ナガサキケン,ミナミマツウラグンシンカミゴトウチョウ,イマザトゴウ,長崎県南松浦郡新上五島町今里郷
8574414,長崎県,南松浦郡新上五島町,飯ノ瀬戸郷,ナガサキケン,ミナミマツウラグンシンカミゴトウチョウ,イノセドゴウ,長崎県南松浦郡新上五島町飯ノ瀬戸郷
8574415,長崎県,南松浦郡新上五島町,続浜ノ浦郷,ナガサキケン,ミナミマツウラグンシンカミゴトウチョウ,ツヅキハマノウラゴウ,長崎県南松浦郡新上五島町続浜ノ浦郷
8574416,長崎県,南松浦郡新上五島町,道土井郷,ナガサキケン,ミナミマツウラグンシンカミゴトウチョウ,ミチドイゴウ,長崎県南松浦郡新上五島町道土井郷
8574511,長崎県,南松浦郡新上五島町,浦桑郷,ナガサキケン,ミナミマツウラグンシンカミゴトウチョウ,ウラクワゴウ,長崎県南松浦郡新上五島町浦桑郷
8574512,長崎県,南松浦郡新上五島町,榎津郷,ナガサキケン,ミナミマツウラグンシンカミゴトウチョウ,エノキヅゴウ,長崎県南松浦郡新上五島町榎津郷
8574513,長崎県,南松浦郡新上五島町,丸尾郷,ナガサキケン,ミナミマツウラグンシンカミゴトウチョウ,マルオゴウ,長崎県南松浦郡新上五島町丸尾郷
8574514,長崎県,南松浦郡新上五島町,似首郷,ナガサキケン,ミナミマツウラグンシンカミゴトウチョウ,ニタクビゴウ,長崎県南松浦郡新上五島町似首郷
8574601,長崎県,南松浦郡新上五島町,小串郷,ナガサキケン,ミナミマツウラグンシンカミゴトウチョウ,コグシゴウ,長崎県南松浦郡新上五島町小串郷
8574602,長崎県,南松浦郡新上五島町,曽根郷,ナガサキケン,ミナミマツウラグンシンカミゴトウチョウ,ソネゴウ,長崎県南松浦郡新上五島町曽根郷
8574603,長崎県,南松浦郡新上五島町,立串郷,ナガサキケン,ミナミマツウラグンシンカミゴトウチョウ,タテクシゴウ,長崎県南松浦郡新上五島町立串郷
8574604,長崎県,南松浦郡新上五島町,津和崎郷,ナガサキケン,ミナミマツウラグンシンカミゴトウチョウ,ツワザキゴウ,長崎県南松浦郡新上五島町津和崎郷
8574700,長崎県,北松浦郡小値賀町,,ナガサキケン,キタマツウラグンオヂカチョウ,,長崎県北松浦郡小値賀町
8574701,長崎県,北松浦郡小値賀町,笛吹郷,ナガサキケン,キタマツウラグンオヂカチョウ,フエフキゴウ,長崎県北松浦郡小値賀町笛吹郷
8574702,長崎県,北松浦郡小値賀町,前方郷,ナガサキケン,キタマツウラグンオヂカチョウ,マエガタゴウ,長崎県北松浦郡小値賀町前方郷
8574703,長崎県,北松浦郡小値賀町,中村郷,ナガサキケン,キタマツウラグンオヂカチョウ,ナカムラゴウ,長崎県北松浦郡小値賀町中村郷
8574704,長崎県,北松浦郡小値賀町,柳郷,ナガサキケン,キタマツウラグンオヂカチョウ,ヤナギゴウ,長崎県北松浦郡小値賀町柳郷
8574705,長崎県,北松浦郡小値賀町,浜津郷,ナガサキケン,キタマツウラグンオヂカチョウ,ハマヅゴウ,長崎県北松浦郡小値賀町浜津郷
8574706,長崎県,北松浦郡小値賀町,黒島郷,ナガサキケン,キタマツウラグンオヂカチョウ,クロシマゴウ,長崎県北松浦郡小値賀町黒島郷
8574707,長崎県,北松浦郡小値賀町,班島郷,ナガサキケン,キタマツウラグンオヂカチョウ,マダラシマゴウ,長崎県北松浦郡小値賀町班島郷
8574708,長崎県,北松浦郡小値賀町,大島郷,ナガサキケン,キタマツウラグンオヂカチョウ,オオシマゴウ,長崎県北松浦郡小値賀町大島郷
8574709,長崎県,北松浦郡小値賀町,野崎郷,ナガサキケン,キタマツウラグンオヂカチョウ,ノザキゴウ,長崎県北松浦郡小値賀町野崎郷
8574711,長崎県,北松浦郡小値賀町,納島郷,ナガサキケン,キタマツウラグンオヂカチョウ,ノウシマゴウ,長崎県北松浦郡小値賀町納島郷
8574712,長崎県,北松浦郡小値賀町,六島郷,ナガサキケン,キタマツウラグンオヂカチョウ,ムシマゴウ,長崎県北松浦郡小値賀町六島郷
8574811,長崎県,佐世保市,宇久町神浦,ナガサキケン,サセボシ,ウクマチコウノウラ,長崎県佐世保市宇久町神浦
8574812,長崎県,佐世保市,宇久町小浜,ナガサキケン,サセボシ,ウクマチオバマ,長崎県佐世保市宇久町小浜
8574813,長崎県,佐世保市,宇久町飯良,ナガサキケン,サセボシ,ウクマチイイラ,長崎県佐世保市宇久町飯良
8574814,長崎県,佐世保市,宇久町本飯良,ナガサキケン,サセボシ,ウクマチモトイイラ,長崎県佐世保市宇久町本飯良
8574815,長崎県,佐世保市,宇久町大久保,ナガサキケン,サセボシ,ウクマチオオクボ,長崎県佐世保市宇久町大久保
8574816,長崎県,佐世保市,宇久町寺島,ナガサキケン,サセボシ,ウクマチテラシマ,長崎県佐世保市宇久町寺島
8574901,長崎県,佐世保市,宇久町平,ナガサキケン,サセボシ,ウクマチタイラ,長崎県佐世保市宇久町平
8574902,長崎県,佐世保市,宇久町野方,ナガサキケン,サセボシ,ウクマチノガタ,長崎県佐世保市宇久町野方
8574903,長崎県,佐世保市,宇久町太田江,ナガサキケン,サセボシ,ウクマチオオダエ,長崎県佐世保市宇久町太田江
8574904,長崎県,佐世保市,宇久町木場,ナガサキケン,サセボシ,ウクマチコバ,長崎県佐世保市宇久町木場
8580901,長崎県,佐世保市,岳野町,ナガサキケン,サセボシ,タケノチョウ,長崎県佐世保市岳野町
8580902,長崎県,佐世保市,踊石町,ナガサキケン,サセボシ,オドリイシチョウ,長崎県佐世保市踊石町
8580903,長崎県,佐世保市,上本山町,ナガサキケン,サセボシ,カミモトヤマチョウ,長崎県佐世保市上本山町
8580904,長崎県,佐世保市,中里町,ナガサキケン,サセボシ,ナカザトチョウ,長崎県佐世保市中里町
8580905,長崎県,佐世保市,下本山町,ナガサキケン,サセボシ,シモモトヤマチョウ,長崎県佐世保市下本山町
8580906,長崎県,佐世保市,八の久保町,ナガサキケン,サセボシ,ハチノクボチョウ,長崎県佐世保市八の久保町
8580907,長崎県,佐世保市,棚方町,ナガサキケン,サセボシ,タナガタチョウ,長崎県佐世保市棚方町
8580908,長崎県,佐世保市,光町,ナガサキケン,サセボシ,ヒカリマチ,長崎県佐世保市光町
8580911,長崎県,佐世保市,竹辺町,ナガサキケン,サセボシ,タケベチョウ,長崎県佐世保市竹辺町
8580912,長崎県,佐世保市,母ケ浦町,ナガサキケン,サセボシ,ホウガウラチョウ,長崎県佐世保市母ケ浦町
8580913,長崎県,佐世保市,新田町,ナガサキケン,サセボシ,シンデンチョウ,長崎県佐世保市新田町
8580914,長崎県,佐世保市,川下町,ナガサキケン,サセボシ,カワシモチョウ,長崎県佐世保市川下町
8580915,長崎県,佐世保市,上相浦町,ナガサキケン,サセボシ,カミアイノウラチョウ,長崎県佐世保市上相浦町
8580916,長崎県,佐世保市,木宮町,ナガサキケン,サセボシ,キノミヤチョウ,長崎県佐世保市木宮町
8580917,長崎県,佐世保市,愛宕町,ナガサキケン,サセボシ,アタゴチョウ,長崎県佐世保市愛宕町
8580918,長崎県,佐世保市,相浦町,ナガサキケン,サセボシ,アイノウラチョウ,長崎県佐世保市相浦町
8580921,長崎県,佐世保市,長坂町,ナガサキケン,サセボシ,ナガサカチョウ,長崎県佐世保市長坂町
8580922,長崎県,佐世保市,鹿子前町,ナガサキケン,サセボシ,カシマエチョウ,長崎県佐世保市鹿子前町
8580923,長崎県,佐世保市,日野町,ナガサキケン,サセボシ,ヒノチョウ,長崎県佐世保市日野町
8580924,長崎県,佐世保市,星和台町,ナガサキケン,サセボシ,セイワダイマチ,長崎県佐世保市星和台町
8580925,長崎県,佐世保市,椎木町,ナガサキケン,サセボシ,シイノキチョウ,長崎県佐世保市椎木町
8580926,長崎県,佐世保市,大潟町,ナガサキケン,サセボシ,オオガタチョウ,長崎県佐世保市大潟町
8580931,長崎県,佐世保市,高島町,ナガサキケン,サセボシ,タカシマチョウ,長崎県佐世保市高島町
8580965,長崎県,佐世保市,小野町（その他）,ナガサキケン,サセボシ,オノチョウ(ソノタ),長崎県佐世保市小野町（その他）
8590101,長崎県,諫早市,高来町大戸,ナガサキケン,イサハヤシ,タカキチョウオオト,長崎県諫早市高来町大戸
8590102,長崎県,諫早市,高来町折山,ナガサキケン,イサハヤシ,タカキチョウオリヤマ,長崎県諫早市高来町折山
8590103,長崎県,諫早市,高来町古場,ナガサキケン,イサハヤシ,タカキチョウコバ,長崎県諫早市高来町古場
8590104,長崎県,諫早市,高来町建山,ナガサキケン,イサハヤシ,タカキチョウタチヤマ,長崎県諫早市高来町建山
8590105,長崎県,諫早市,高来町船津,ナガサキケン,イサハヤシ,タカキチョウフナツ,長崎県諫早市高来町船津
8590106,長崎県,諫早市,高来町冨地戸,ナガサキケン,イサハヤシ,タカキチョウフジト,長崎県諫早市高来町冨地戸
8590111,長崎県,諫早市,高来町上与,ナガサキケン,イサハヤシ,タカキチョウウワグミ,長崎県諫早市高来町上与
8590112,長崎県,諫早市,高来町小船津,ナガサキケン,イサハヤシ,タカキチョウコブナツ,長崎県諫早市高来町小船津
8590113,長崎県,諫早市,高来町下与,ナガサキケン,イサハヤシ,タカキチョウシタグミ,長崎県諫早市高来町下与
8590114,長崎県,諫早市,高来町西平原,ナガサキケン,イサハヤシ,タカキチョウニシヒラバル,長崎県諫早市高来町西平原
8590115,長崎県,諫早市,高来町西尾,ナガサキケン,イサハヤシ,タカキチョウニシノオ,長崎県諫早市高来町西尾
8590116,長崎県,諫早市,高来町平田,ナガサキケン,イサハヤシ,タカキチョウヒラタ,長崎県諫早市高来町平田
8590117,長崎県,諫早市,高来町峰,ナガサキケン,イサハヤシ,タカキチョウミネ,長崎県諫早市高来町峰
8590121,長崎県,諫早市,高来町泉,ナガサキケン,イサハヤシ,タカキチョウイズミ,長崎県諫早市高来町泉
8590122,長崎県,諫早市,高来町黒崎,ナガサキケン,イサハヤシ,タカキチョウクロサキ,長崎県諫早市高来町黒崎
8590123,長崎県,諫早市,高来町小峰,ナガサキケン,イサハヤシ,タカキチョウコミネ,長崎県諫早市高来町小峰
8590124,長崎県,諫早市,高来町里,ナガサキケン,イサハヤシ,タカキチョウサト,長崎県諫早市高来町里
8590125,長崎県,諫早市,高来町善住寺,ナガサキケン,イサハヤシ,タカキチョウゼンジュウジ,長崎県諫早市高来町善住寺
8590126,長崎県,諫早市,高来町法川,ナガサキケン,イサハヤシ,タカキチョウノリガワ,長崎県諫早市高来町法川
8590127,長崎県,諫早市,高来町町名,ナガサキケン,イサハヤシ,タカキチョウマチミョウ,長崎県諫早市高来町町名
8590131,長崎県,諫早市,高来町神津倉,ナガサキケン,イサハヤシ,タカキチョウコウヅクラ,長崎県諫早市高来町神津倉
8590132,長崎県,諫早市,高来町三部壱,ナガサキケン,イサハヤシ,タカキチョウサンブイチ,長崎県諫早市高来町三部壱
8590133,長崎県,諫早市,高来町東平原,ナガサキケン,イサハヤシ,タカキチョウヒガシヒラバル,長崎県諫早市高来町東平原
8590141,長崎県,諫早市,高来町汲水,ナガサキケン,イサハヤシ,タカキチョウクミズ,長崎県諫早市高来町汲水
8590142,長崎県,諫早市,高来町黒新田,ナガサキケン,イサハヤシ,タカキチョウクロニタ,長崎県諫早市高来町黒新田
8590143,長崎県,諫早市,高来町坂元,ナガサキケン,イサハヤシ,タカキチョウサカモト,長崎県諫早市高来町坂元
8590144,長崎県,諫早市,高来町溝口,ナガサキケン,イサハヤシ,タカキチョウミゾグチ,長崎県諫早市高来町溝口
8590145,長崎県,諫早市,高来町山道,ナガサキケン,イサハヤシ,タカキチョウヤマミチ,長崎県諫早市高来町山道
8590146,長崎県,諫早市,高来町金崎,ナガサキケン,イサハヤシ,タカキチョウカナサキ,長崎県諫早市高来町金崎
8590147,長崎県,諫早市,高来町水ノ浦,ナガサキケン,イサハヤシ,タカキチョウミズノウラ,長崎県諫早市高来町水ノ浦
8590151,長崎県,諫早市,小長井町打越,ナガサキケン,イサハヤシ,コナガイチョウウチコシ,長崎県諫早市小長井町打越
8590152,長崎県,諫早市,小長井町大搦,ナガサキケン,イサハヤシ,コナガイチョウオオガラミ,長崎県諫早市小長井町大搦
8590153,長崎県,諫早市,小長井町大峰,ナガサキケン,イサハヤシ,コナガイチョウオオミネ,長崎県諫早市小長井町大峰
8590154,長崎県,諫早市,小長井町川内,ナガサキケン,イサハヤシ,コナガイチョウコウチ,長崎県諫早市小長井町川内
8590161,長崎県,諫早市,小長井町古場,ナガサキケン,イサハヤシ,コナガイチョウコバ,長崎県諫早市小長井町古場
8590162,長崎県,諫早市,小長井町新田原,ナガサキケン,イサハヤシ,コナガイチョウシンタバル,長崎県諫早市小長井町新田原
8590163,長崎県,諫早市,小長井町田原,ナガサキケン,イサハヤシ,コナガイチョウタバル,長崎県諫早市小長井町田原
8590164,長崎県,諫早市,小長井町牧,ナガサキケン,イサハヤシ,コナガイチョウマキ,長崎県諫早市小長井町牧
8590165,長崎県,諫早市,小長井町小川原浦,ナガサキケン,イサハヤシ,コナガイチョウオガワハラウラ,長崎県諫早市小長井町小川原浦
8590166,長崎県,諫早市,小長井町井崎,ナガサキケン,イサハヤシ,コナガイチョウイザキ,長崎県諫早市小長井町井崎
8590167,長崎県,諫早市,小長井町遠竹,ナガサキケン,イサハヤシ,コナガイチョウトオダケ,長崎県諫早市小長井町遠竹
8590171,長崎県,諫早市,高来町小江干拓,ナガサキケン,イサハヤシ,タカキチョウオエカンタク,長崎県諫早市高来町小江干拓
8590301,長崎県,諫早市,長田町,ナガサキケン,イサハヤシ,ナガタマチ,長崎県諫早市長田町
8590302,長崎県,諫早市,正久寺町,ナガサキケン,イサハヤシ,ショウキュウジマチ,長崎県諫早市正久寺町
8590303,長崎県,諫早市,高天町,ナガサキケン,イサハヤシ,コウテンマチ,長崎県諫早市高天町
8590304,長崎県,諫早市,白浜町,ナガサキケン,イサハヤシ,シラハママチ,長崎県諫早市白浜町
8590305,長崎県,諫早市,猿崎町,ナガサキケン,イサハヤシ,サルザキマチ,長崎県諫早市猿崎町
8590306,長崎県,諫早市,白原町,ナガサキケン,イサハヤシ,シラハラマチ,長崎県諫早市白原町
8590307,長崎県,諫早市,白木峰町,ナガサキケン,イサハヤシ,シラキミネマチ,長崎県諫早市白木峰町
8590311,長崎県,諫早市,小豆崎町,ナガサキケン,イサハヤシ,アズキサキマチ,長崎県諫早市小豆崎町
8590312,長崎県,諫早市,西里町,ナガサキケン,イサハヤシ,ニシザトマチ,長崎県諫早市西里町
8590313,長崎県,諫早市,中田町,ナガサキケン,イサハヤシ,ナカダマチ,長崎県諫早市中田町
8590314,長崎県,諫早市,御手水町,ナガサキケン,イサハヤシ,オチョウズマチ,長崎県諫早市御手水町
8590315,長崎県,諫早市,大場町,ナガサキケン,イサハヤシ,オオバマチ,長崎県諫早市大場町
8590401,長崎県,諫早市,多良見町化屋,ナガサキケン,イサハヤシ,タラミチョウケヤ,長崎県諫早市多良見町化屋
8590402,長崎県,諫早市,多良見町囲,ナガサキケン,イサハヤシ,タラミチョウカコイ,長崎県諫早市多良見町囲
8590403,長崎県,諫早市,多良見町市布,ナガサキケン,イサハヤシ,タラミチョウイチヌノ,長崎県諫早市多良見町市布
8590404,長崎県,諫早市,多良見町西川内,ナガサキケン,イサハヤシ,タラミチョウニシカワウチ,長崎県諫早市多良見町西川内
8590405,長崎県,諫早市,多良見町中里,ナガサキケン,イサハヤシ,タラミチョウナカザト,長崎県諫早市多良見町中里
8590406,長崎県,諫早市,多良見町木床,ナガサキケン,イサハヤシ,タラミチョウキドコ,長崎県諫早市多良見町木床
8590407,長崎県,諫早市,多良見町シーサイド,ナガサキケン,イサハヤシ,タラミチョウシーサイド,長崎県諫早市多良見町シーサイド
8590411,長崎県,諫早市,多良見町東園,ナガサキケン,イサハヤシ,タラミチョウヒガシゾノ,長崎県諫早市多良見町東園
8590412,長崎県,諫早市,多良見町西園,ナガサキケン,イサハヤシ,タラミチョウニシゾノ,長崎県諫早市多良見町西園
8590413,長崎県,諫早市,多良見町野副,ナガサキケン,イサハヤシ,タラミチョウノゾエ,長崎県諫早市多良見町野副
8590414,長崎県,諫早市,多良見町元釜,ナガサキケン,イサハヤシ,タラミチョウモトガマ,長崎県諫早市多良見町元釜
8590415,長崎県,諫早市,多良見町山川内,ナガサキケン,イサハヤシ,タラミチョウヤマガワウチ,長崎県諫早市多良見町山川内
8590416,長崎県,諫早市,多良見町野川内,ナガサキケン,イサハヤシ,タラミチョウノガワウチ,長崎県諫早市多良見町野川内
8590417,長崎県,諫早市,多良見町舟津,ナガサキケン,イサハヤシ,タラミチョウフナツ,長崎県諫早市多良見町舟津
8590418,長崎県,諫早市,多良見町佐瀬,ナガサキケン,イサハヤシ,タラミチョウサセ,長崎県諫早市多良見町佐瀬
8591101,長崎県,雲仙市,吾妻町本村名,ナガサキケン,ウンゼンシ,アヅマチョウモトムラミョウ,長崎県雲仙市吾妻町本村名
8591102,長崎県,雲仙市,吾妻町木場名,ナガサキケン,ウンゼンシ,アヅマチョウコバミョウ,長崎県雲仙市吾妻町木場名
8591103,長崎県,雲仙市,吾妻町平江名,ナガサキケン,ウンゼンシ,アヅマチョウヒラエミョウ,長崎県雲仙市吾妻町平江名
8591104,長崎県,雲仙市,吾妻町古城名,ナガサキケン,ウンゼンシ,アヅマチョウフルシロミョウ,長崎県雲仙市吾妻町古城名
8591105,長崎県,雲仙市,吾妻町田之平名,ナガサキケン,ウンゼンシ,アヅマチョウタノヒラミョウ,長崎県雲仙市吾妻町田之平名
8591106,長崎県,雲仙市,吾妻町大木場名,ナガサキケン,ウンゼンシ,アヅマチョウオオコバミョウ,長崎県雲仙市吾妻町大木場名
8591107,長崎県,雲仙市,吾妻町牛口名,ナガサキケン,ウンゼンシ,アヅマチョウウシグチミョウ,長崎県雲仙市吾妻町牛口名
8591111,長崎県,雲仙市,吾妻町馬場名,ナガサキケン,ウンゼンシ,アヅマチョウババミョウ,長崎県雲仙市吾妻町馬場名
8591112,長崎県,雲仙市,吾妻町栗林名,ナガサキケン,ウンゼンシ,アヅマチョウクリバヤシミョウ,長崎県雲仙市吾妻町栗林名
8591113,長崎県,雲仙市,吾妻町布江名,ナガサキケン,ウンゼンシ,アヅマチョウヌノエミョウ,長崎県雲仙市吾妻町布江名
8591114,長崎県,雲仙市,吾妻町川床名,ナガサキケン,ウンゼンシ,アヅマチョウカワトコミョウ,長崎県雲仙市吾妻町川床名
8591115,長崎県,雲仙市,吾妻町永中名,ナガサキケン,ウンゼンシ,アヅマチョウエイチュウミョウ,長崎県雲仙市吾妻町永中名
8591116,長崎県,雲仙市,吾妻町阿母名,ナガサキケン,ウンゼンシ,アヅマチョウアボミョウ,長崎県雲仙市吾妻町阿母名
8591201,長崎県,雲仙市,瑞穂町西郷庚,ナガサキケン,ウンゼンシ,ミズホチョウサイゴウコウ,長崎県雲仙市瑞穂町西郷庚
8591202,長崎県,雲仙市,瑞穂町西郷甲,ナガサキケン,ウンゼンシ,ミズホチョウサイゴウコウ,長崎県雲仙市瑞穂町西郷甲
8591203,長崎県,雲仙市,瑞穂町西郷乙,ナガサキケン,ウンゼンシ,ミズホチョウサイゴウオツ,長崎県雲仙市瑞穂町西郷乙
8591204,長崎県,雲仙市,瑞穂町西郷丙,ナガサキケン,ウンゼンシ,ミズホチョウサイゴウヘイ,長崎県雲仙市瑞穂町西郷丙
8591205,長崎県,雲仙市,瑞穂町西郷丁,ナガサキケン,ウンゼンシ,ミズホチョウサイゴウテイ,長崎県雲仙市瑞穂町西郷丁
8591206,長崎県,雲仙市,瑞穂町西郷辛,ナガサキケン,ウンゼンシ,ミズホチョウサイゴウシン,長崎県雲仙市瑞穂町西郷辛
8591211,長崎県,雲仙市,瑞穂町西郷戊,ナガサキケン,ウンゼンシ,ミズホチョウサイゴウボ,長崎県雲仙市瑞穂町西郷戊
8591212,長崎県,雲仙市,瑞穂町西郷己,ナガサキケン,ウンゼンシ,ミズホチョウサイゴウキ,長崎県雲仙市瑞穂町西郷己
8591213,長崎県,雲仙市,瑞穂町伊福甲,ナガサキケン,ウンゼンシ,ミズホチョウイフクコウ,長崎県雲仙市瑞穂町伊福甲
8591214,長崎県,雲仙市,瑞穂町伊福乙,ナガサキケン,ウンゼンシ,ミズホチョウイフクオツ,長崎県雲仙市瑞穂町伊福乙
8591215,長崎県,雲仙市,瑞穂町古部甲,ナガサキケン,ウンゼンシ,ミズホチョウコベコウ,長崎県雲仙市瑞穂町古部甲
8591216,長崎県,雲仙市,瑞穂町古部乙,ナガサキケン,ウンゼンシ,ミズホチョウコベオツ,長崎県雲仙市瑞穂町古部乙
8591301,長崎県,雲仙市,国見町神代甲,ナガサキケン,ウンゼンシ,クニミチョウコウジロコウ,長崎県雲仙市国見町神代甲
8591302,長崎県,雲仙市,国見町神代乙,ナガサキケン,ウンゼンシ,クニミチョウコウジロオツ,長崎県雲仙市国見町神代乙
8591303,長崎県,雲仙市,国見町神代丙,ナガサキケン,ウンゼンシ,クニミチョウコウジロヘイ,長崎県雲仙市国見町神代丙
8591304,長崎県,雲仙市,国見町神代丁,ナガサキケン,ウンゼンシ,クニミチョウコウジロテイ,長崎県雲仙市国見町神代丁
8591305,長崎県,雲仙市,国見町神代戊,ナガサキケン,ウンゼンシ,クニミチョウコウジロボ,長崎県雲仙市国見町神代戊
8591306,長崎県,雲仙市,国見町神代己,ナガサキケン,ウンゼンシ,クニミチョウコウジロキ,長崎県雲仙市国見町神代己
8591307,長崎県,雲仙市,国見町神代庚,ナガサキケン,ウンゼンシ,クニミチョウコウジロコウ,長崎県雲仙市国見町神代庚
8591308,長崎県,雲仙市,国見町神代辛,ナガサキケン,ウンゼンシ,クニミチョウコウジロシン,長崎県雲仙市国見町神代辛
8591311,長崎県,雲仙市,国見町土黒甲,ナガサキケン,ウンゼンシ,クニミチョウヒジクロコウ,長崎県雲仙市国見町土黒甲
8591312,長崎県,雲仙市,国見町土黒乙,ナガサキケン,ウンゼンシ,クニミチョウヒジクロオツ,長崎県雲仙市国見町土黒乙
8591313,長崎県,雲仙市,国見町土黒丙,ナガサキケン,ウンゼンシ,クニミチョウヒジクロヘイ,長崎県雲仙市国見町土黒丙
8591314,長崎県,雲仙市,国見町土黒丁,ナガサキケン,ウンゼンシ,クニミチョウヒジクロテイ,長崎県雲仙市国見町土黒丁
8591315,長崎県,雲仙市,国見町土黒戊,ナガサキケン,ウンゼンシ,クニミチョウヒジクロボ,長崎県雲仙市国見町土黒戊
8591316,長崎県,雲仙市,国見町土黒己,ナガサキケン,ウンゼンシ,クニミチョウヒジクロキ,長崎県雲仙市国見町土黒己
8591317,長崎県,雲仙市,国見町土黒庚,ナガサキケン,ウンゼンシ,クニミチョウヒジクロコウ,長崎県雲仙市国見町土黒庚
8591321,長崎県,雲仙市,国見町多比良甲,ナガサキケン,ウンゼンシ,クニミチョウタイラコウ,長崎県雲仙市国見町多比良甲
8591322,長崎県,雲仙市,国見町多比良乙,ナガサキケン,ウンゼンシ,クニミチョウタイラオツ,長崎県雲仙市国見町多比良乙
8591323,長崎県,雲仙市,国見町多比良丙,ナガサキケン,ウンゼンシ,クニミチョウタイラヘイ,長崎県雲仙市国見町多比良丙
8591324,長崎県,雲仙市,国見町多比良丁,ナガサキケン,ウンゼンシ,クニミチョウタイラテイ,長崎県雲仙市国見町多比良丁
8591325,長崎県,雲仙市,国見町多比良戊,ナガサキケン,ウンゼンシ,クニミチョウタイラボ,長崎県雲仙市国見町多比良戊
8591401,長崎県,島原市,有明町湯江甲,ナガサキケン,シマバラシ,アリアケチョウユエコウ,長崎県島原市有明町湯江甲
8591402,長崎県,島原市,有明町湯江乙,ナガサキケン,シマバラシ,アリアケチョウユエオツ,長崎県島原市有明町湯江乙
8591403,長崎県,島原市,有明町湯江丙,ナガサキケン,シマバラシ,アリアケチョウユエヘイ,長崎県島原市有明町湯江丙
8591404,長崎県,島原市,有明町湯江丁,ナガサキケン,シマバラシ,アリアケチョウユエテイ,長崎県島原市有明町湯江丁
8591411,長崎県,島原市,有明町大三東甲,ナガサキケン,シマバラシ,アリアケチョウオオミサキコウ,長崎県島原市有明町大三東甲
8591412,長崎県,島原市,有明町大三東乙,ナガサキケン,シマバラシ,アリアケチョウオオミサキオツ,長崎県島原市有明町大三東乙
8591413,長崎県,島原市,有明町大三東丙,ナガサキケン,シマバラシ,アリアケチョウオオミサキヘイ,長崎県島原市有明町大三東丙
8591414,長崎県,島原市,有明町大三東丁,ナガサキケン,シマバラシ,アリアケチョウオオミサキテイ,長崎県島原市有明町大三東丁
8591415,長崎県,島原市,有明町大三東戊,ナガサキケン,シマバラシ,アリアケチョウオオミサキボ,長崎県島原市有明町大三東戊
8591501,長崎県,南島原市,深江町甲,ナガサキケン,ミナミシマバラシ,フカエチョウコウ,長崎県南島原市深江町甲
8591502,長崎県,南島原市,深江町乙,ナガサキケン,ミナミシマバラシ,フカエチョウオツ,長崎県南島原市深江町乙
8591503,長崎県,南島原市,深江町丙,ナガサキケン,ミナミシマバラシ,フカエチョウヘイ,長崎県南島原市深江町丙
8591504,長崎県,南島原市,深江町丁,ナガサキケン,ミナミシマバラシ,フカエチョウテイ,長崎県南島原市深江町丁
8591505,長崎県,南島原市,深江町戊,ナガサキケン,ミナミシマバラシ,フカエチョウボ,長崎県南島原市深江町戊
8592111,長崎県,南島原市,布津町甲,ナガサキケン,ミナミシマバラシ,フツチョウコウ,長崎県南島原市布津町甲
8592112,長崎県,南島原市,布津町乙,ナガサキケン,ミナミシマバラシ,フツチョウオツ,長崎県南島原市布津町乙
8592113,長崎県,南島原市,布津町丙,ナガサキケン,ミナミシマバラシ,フツチョウヘイ,長崎県南島原市布津町丙
8592121,長崎県,南島原市,有家町石田,ナガサキケン,ミナミシマバラシ,アリエチョウイシダ,長崎県南島原市有家町石田
8592122,長崎県,南島原市,有家町大苑,ナガサキケン,ミナミシマバラシ,アリエチョウオオゾノ,長崎県南島原市有家町大苑
8592123,長崎県,南島原市,有家町原尾,ナガサキケン,ミナミシマバラシ,アリエチョウハラオ,長崎県南島原市有家町原尾
8592201,長崎県,南島原市,有家町久保,ナガサキケン,ミナミシマバラシ,アリエチョウクボ,長崎県南島原市有家町久保
8592202,長崎県,南島原市,有家町山川,ナガサキケン,ミナミシマバラシ,アリエチョウヤマガワ,長崎県南島原市有家町山川
8592203,長崎県,南島原市,有家町尾上,ナガサキケン,ミナミシマバラシ,アリエチョウオノウエ,長崎県南島原市有家町尾上
8592204,長崎県,南島原市,有家町蒲河,ナガサキケン,ミナミシマバラシ,アリエチョウカマガ,長崎県南島原市有家町蒲河
8592205,長崎県,南島原市,有家町小川,ナガサキケン,ミナミシマバラシ,アリエチョウコガワ,長崎県南島原市有家町小川
8592206,長崎県,南島原市,有家町中須川,ナガサキケン,ミナミシマバラシ,アリエチョウナカスカワ,長崎県南島原市有家町中須川
8592211,長崎県,南島原市,西有家町里坊,ナガサキケン,ミナミシマバラシ,ニシアリエチョウサトボウ,長崎県南島原市西有家町里坊
8592212,長崎県,南島原市,西有家町須川,ナガサキケン,ミナミシマバラシ,ニシアリエチョウスカワ,長崎県南島原市西有家町須川
8592213,長崎県,南島原市,西有家町見岳,ナガサキケン,ミナミシマバラシ,ニシアリエチョウミダケ,長崎県南島原市西有家町見岳
8592214,長崎県,南島原市,西有家町慈恩寺,ナガサキケン,ミナミシマバラシ,ニシアリエチョウジオンジ,長崎県南島原市西有家町慈恩寺
8592215,長崎県,南島原市,西有家町長野,ナガサキケン,ミナミシマバラシ,ニシアリエチョウナガノ,長崎県南島原市西有家町長野
8592216,長崎県,南島原市,西有家町龍石,ナガサキケン,ミナミシマバラシ,ニシアリエチョウタツイシ,長崎県南島原市西有家町龍石
8592301,長崎県,南島原市,北有馬町甲,ナガサキケン,ミナミシマバラシ,キタアリマチョウコウ,長崎県南島原市北有馬町甲
8592302,長崎県,南島原市,北有馬町乙,ナガサキケン,ミナミシマバラシ,キタアリマチョウオツ,長崎県南島原市北有馬町乙
8592303,長崎県,南島原市,北有馬町丙,ナガサキケン,ミナミシマバラシ,キタアリマチョウヘイ,長崎県南島原市北有馬町丙
8592304,長崎県,南島原市,北有馬町丁,ナガサキケン,ミナミシマバラシ,キタアリマチョウテイ,長崎県南島原市北有馬町丁
8592305,長崎県,南島原市,北有馬町戊,ナガサキケン,ミナミシマバラシ,キタアリマチョウボ,長崎県南島原市北有馬町戊
8592306,長崎県,南島原市,北有馬町己,ナガサキケン,ミナミシマバラシ,キタアリマチョウキ,長崎県南島原市北有馬町己
8592316,長崎県,南島原市,南有馬町己（古園轟河）,ナガサキケン,ミナミシマバラシ,ミナミアリマチョウキ(フルゾノトロツゴ),長崎県南島原市南有馬町己（古園轟河）
8592411,長崎県,南島原市,南有馬町甲,ナガサキケン,ミナミシマバラシ,ミナミアリマチョウコウ,長崎県南島原市南有馬町甲
8592412,長崎県,南島原市,南有馬町乙,ナガサキケン,ミナミシマバラシ,ミナミアリマチョウオツ,長崎県南島原市南有馬町乙
8592413,長崎県,南島原市,南有馬町丙,ナガサキケン,ミナミシマバラシ,ミナミアリマチョウヘイ,長崎県南島原市南有馬町丙
8592414,長崎県,南島原市,南有馬町丁,ナガサキケン,ミナミシマバラシ,ミナミアリマチョウテイ,長崎県南島原市南有馬町丁
8592415,長崎県,南島原市,南有馬町戊,ナガサキケン,ミナミシマバラシ,ミナミアリマチョウボ,長崎県南島原市南有馬町戊
8592416,長崎県,南島原市,南有馬町己（その他）,ナガサキケン,ミナミシマバラシ,ミナミアリマチョウキ(ソノタ),長崎県南島原市南有馬町己（その他）
8592501,長崎県,南島原市,口之津町乙,ナガサキケン,ミナミシマバラシ,クチノツチョウオツ,長崎県南島原市口之津町乙
8592502,長崎県,南島原市,口之津町甲,ナガサキケン,ミナミシマバラシ,クチノツチョウコウ,長崎県南島原市口之津町甲
8592503,長崎県,南島原市,口之津町丁,ナガサキケン,ミナミシマバラシ,クチノツチョウテイ,長崎県南島原市口之津町丁
8592504,長崎県,南島原市,口之津町丙,ナガサキケン,ミナミシマバラシ,クチノツチョウヘイ,長崎県南島原市口之津町丙
8592600,長崎県,南島原市,,ナガサキケン,ミナミシマバラシ,,長崎県南島原市
8592601,長崎県,南島原市,加津佐町己,ナガサキケン,ミナミシマバラシ,カヅサチョウキ,長崎県南島原市加津佐町己
8592602,長崎県,南島原市,加津佐町戊,ナガサキケン,ミナミシマバラシ,カヅサチョウボ,長崎県南島原市加津佐町戊
8592603,長崎県,南島原市,加津佐町丁,ナガサキケン,ミナミシマバラシ,カヅサチョウテイ,長崎県南島原市加津佐町丁
8592604,長崎県,南島原市,加津佐町丙,ナガサキケン,ミナミシマバラシ,カヅサチョウヘイ,長崎県南島原市加津佐町丙
8592605,長崎県,南島原市,加津佐町乙,ナガサキケン,ミナミシマバラシ,カヅサチョウオツ,長崎県南島原市加津佐町乙
8592606,長崎県,南島原市,加津佐町甲,ナガサキケン,ミナミシマバラシ,カヅサチョウコウ,長崎県南島原市加津佐町甲
8593151,長崎県,佐世保市,三川内本町,ナガサキケン,サセボシ,ミカワチホンマチ,長崎県佐世保市三川内本町
8593152,長崎県,佐世保市,新行江町,ナガサキケン,サセボシ,シンギョウエチョウ,長崎県佐世保市新行江町
8593153,長崎県,佐世保市,三川内新町,ナガサキケン,サセボシ,ミカワチシンマチ,長崎県佐世保市三川内新町
8593154,長崎県,佐世保市,塩浸町,ナガサキケン,サセボシ,シオヒタシチョウ,長崎県佐世保市塩浸町
8593155,長崎県,佐世保市,三川内町,ナガサキケン,サセボシ,ミカワチチョウ,長崎県佐世保市三川内町
8593156,長崎県,佐世保市,下の原町,ナガサキケン,サセボシ,シモノハルチョウ,長崎県佐世保市下の原町
8593157,長崎県,佐世保市,桑木場町,ナガサキケン,サセボシ,クワコバチョウ,長崎県佐世保市桑木場町
8593158,長崎県,佐世保市,新替町,ナガサキケン,サセボシ,シンガエチョウ,長崎県佐世保市新替町
8593161,長崎県,佐世保市,口の尾町,ナガサキケン,サセボシ,クチノオチョウ,長崎県佐世保市口の尾町
8593162,長崎県,佐世保市,吉福町,ナガサキケン,サセボシ,ヨシフクチョウ,長崎県佐世保市吉福町
8593163,長崎県,佐世保市,横手町,ナガサキケン,サセボシ,ヨコテチョウ,長崎県佐世保市横手町
8593164,長崎県,佐世保市,心野町,ナガサキケン,サセボシ,ココンノチョウ,長崎県佐世保市心野町
8593165,長崎県,佐世保市,江永町,ナガサキケン,サセボシ,エナガチョウ,長崎県佐世保市江永町
8593166,長崎県,佐世保市,木原町,ナガサキケン,サセボシ,キハラチョウ,長崎県佐世保市木原町
8593201,長崎県,佐世保市,平松町,ナガサキケン,サセボシ,ヒラマツチョウ,長崎県佐世保市平松町
8593202,長崎県,佐世保市,上原町,ナガサキケン,サセボシ,ウワバルチョウ,長崎県佐世保市上原町
8593203,長崎県,佐世保市,陣の内町,ナガサキケン,サセボシ,ジンノウチチョウ,長崎県佐世保市陣の内町
8593204,長崎県,佐世保市,若竹台町,ナガサキケン,サセボシ,ワカタケダイマチ,長崎県佐世保市若竹台町
8593205,長崎県,佐世保市,田の浦町,ナガサキケン,サセボシ,タノウラチョウ,長崎県佐世保市田の浦町
8593211,長崎県,佐世保市,早苗町,ナガサキケン,サセボシ,サナエチョウ,長崎県佐世保市早苗町
8593212,長崎県,佐世保市,花高,ナガサキケン,サセボシ,ハナタカ,長崎県佐世保市花高
8593213,長崎県,佐世保市,権常寺町,ナガサキケン,サセボシ,ゴンジョウジチョウ,長崎県佐世保市権常寺町
8593214,長崎県,佐世保市,権常寺,ナガサキケン,サセボシ,ゴンジョウジ,長崎県佐世保市権常寺
8593215,長崎県,佐世保市,早岐,ナガサキケン,サセボシ,ハイキ,長崎県佐世保市早岐
8593216,長崎県,佐世保市,勝海町,ナガサキケン,サセボシ,カツウミチョウ,長崎県佐世保市勝海町
8593221,長崎県,佐世保市,中原町,ナガサキケン,サセボシ,ナカハラチョウ,長崎県佐世保市中原町
8593222,長崎県,佐世保市,広田町,ナガサキケン,サセボシ,ヒロダチョウ,長崎県佐世保市広田町
8593223,長崎県,佐世保市,広田,ナガサキケン,サセボシ,ヒロタ,長崎県佐世保市広田
8593224,長崎県,佐世保市,重尾町,ナガサキケン,サセボシ,シゲオチョウ,長崎県佐世保市重尾町
8593225,長崎県,佐世保市,浦川内町,ナガサキケン,サセボシ,ウラガワチチョウ,長崎県佐世保市浦川内町
8593226,長崎県,佐世保市,崎岡町,ナガサキケン,サセボシ,サキオカチョウ,長崎県佐世保市崎岡町
8593231,長崎県,佐世保市,瀬道町,ナガサキケン,サセボシ,セドウチョウ,長崎県佐世保市瀬道町
8593232,長崎県,佐世保市,萩坂町,ナガサキケン,サセボシ,ハギサカチョウ,長崎県佐世保市萩坂町
8593233,長崎県,佐世保市,奥山町,ナガサキケン,サセボシ,オクヤマチョウ,長崎県佐世保市奥山町
8593234,長崎県,佐世保市,長畑町,ナガサキケン,サセボシ,ナガハタチョウ,長崎県佐世保市長畑町
8593235,長崎県,佐世保市,宮津町,ナガサキケン,サセボシ,ミヤヅチョウ,長崎県佐世保市宮津町
8593236,長崎県,佐世保市,南風崎町,ナガサキケン,サセボシ,ハエノサキチョウ,長崎県佐世保市南風崎町
8593237,長崎県,佐世保市,城間町,ナガサキケン,サセボシ,ジョウマチョウ,長崎県佐世保市城間町
8593241,長崎県,佐世保市,有福町,ナガサキケン,サセボシ,アリフクチョウ,長崎県佐世保市有福町
8593242,長崎県,佐世保市,指方町,ナガサキケン,サセボシ,サシカタチョウ,長崎県佐世保市指方町
8593243,長崎県,佐世保市,ハウステンボス町,ナガサキケン,サセボシ,ハウステンボスマチ,長崎県佐世保市ハウステンボス町
8593244,長崎県,佐世保市,江上町,ナガサキケン,サセボシ,エガミチョウ,長崎県佐世保市江上町
8593451,長崎県,佐世保市,針尾東町,ナガサキケン,サセボシ,ハリオヒガシマチ,長崎県佐世保市針尾東町
8593452,長崎県,佐世保市,針尾中町,ナガサキケン,サセボシ,ハリオナカマチ,長崎県佐世保市針尾中町
8593453,長崎県,佐世保市,針尾西町,ナガサキケン,サセボシ,ハリオニシマチ,長崎県佐世保市針尾西町
8593454,長崎県,佐世保市,針尾北町,ナガサキケン,サセボシ,ハリオキタマチ,長崎県佐世保市針尾北町
8593600,長崎県,東彼杵郡川棚町,,ナガサキケン,ヒガシソノギグンカワタナチョウ,,長崎県東彼杵郡川棚町
8593601,長崎県,東彼杵郡川棚町,猪乗川内郷,ナガサキケン,ヒガシソノギグンカワタナチョウ,イノリゴウチゴウ,長崎県東彼杵郡川棚町猪乗川内郷
8593602,長崎県,東彼杵郡川棚町,木場郷,ナガサキケン,ヒガシソノギグンカワタナチョウ,コバゴウ,長崎県東彼杵郡川棚町木場郷
8593603,長崎県,東彼杵郡川棚町,岩屋郷,ナガサキケン,ヒガシソノギグンカワタナチョウ,イワヤゴウ,長崎県東彼杵郡川棚町岩屋郷
8593604,長崎県,東彼杵郡川棚町,石木郷,ナガサキケン,ヒガシソノギグンカワタナチョウ,イシキゴウ,長崎県東彼杵郡川棚町石木郷
8593605,長崎県,東彼杵郡川棚町,百津郷,ナガサキケン,ヒガシソノギグンカワタナチョウ,モモヅゴウ,長崎県東彼杵郡川棚町百津郷
8593606,長崎県,東彼杵郡川棚町,小音琴郷,ナガサキケン,ヒガシソノギグンカワタナチョウ,コネゴトゴウ,長崎県東彼杵郡川棚町小音琴郷
8593607,長崎県,東彼杵郡川棚町,城山町,ナガサキケン,ヒガシソノギグンカワタナチョウ,シロヤマチョウ,長崎県東彼杵郡川棚町城山町
8593608,長崎県,東彼杵郡川棚町,栄町,ナガサキケン,ヒガシソノギグンカワタナチョウ,サカエマチ,長崎県東彼杵郡川棚町栄町
8593611,長崎県,東彼杵郡川棚町,中山郷,ナガサキケン,ヒガシソノギグンカワタナチョウ,ナカヤマゴウ,長崎県東彼杵郡川棚町中山郷
8593612,長崎県,東彼杵郡川棚町,五反田郷,ナガサキケン,ヒガシソノギグンカワタナチョウ,ゴタンダゴウ,長崎県東彼杵郡川棚町五反田郷
8593613,長崎県,東彼杵郡川棚町,上組郷,ナガサキケン,ヒガシソノギグンカワタナチョウ,カミグミゴウ,長崎県東彼杵郡川棚町上組郷
8593614,長崎県,東彼杵郡川棚町,中組郷,ナガサキケン,ヒガシソノギグンカワタナチョウ,ナカグミゴウ,長崎県東彼杵郡川棚町中組郷
8593615,長崎県,東彼杵郡川棚町,下組郷,ナガサキケン,ヒガシソノギグンカワタナチョウ,シモグミゴウ,長崎県東彼杵郡川棚町下組郷
8593616,長崎県,東彼杵郡川棚町,白石郷,ナガサキケン,ヒガシソノギグンカワタナチョウ,シロイシゴウ,長崎県東彼杵郡川棚町白石郷
8593617,長崎県,東彼杵郡川棚町,三越郷,ナガサキケン,ヒガシソノギグンカワタナチョウ,ミツゴエゴウ,長崎県東彼杵郡川棚町三越郷
8593618,長崎県,東彼杵郡川棚町,小串郷,ナガサキケン,ヒガシソノギグンカワタナチョウ,オグシゴウ,長崎県東彼杵郡川棚町小串郷
8593619,長崎県,東彼杵郡川棚町,新谷郷,ナガサキケン,ヒガシソノギグンカワタナチョウ,シンガエゴウ,長崎県東彼杵郡川棚町新谷郷
8593700,長崎県,東彼杵郡波佐見町,,ナガサキケン,ヒガシソノギグンハサミチョウ,,長崎県東彼杵郡波佐見町
8593701,長崎県,東彼杵郡波佐見町,折敷瀬郷,ナガサキケン,ヒガシソノギグンハサミチョウ,オリシキセゴウ,長崎県東彼杵郡波佐見町折敷瀬郷
8593702,長崎県,東彼杵郡波佐見町,湯無田郷,ナガサキケン,ヒガシソノギグンハサミチョウ,ユムタゴウ,長崎県東彼杵郡波佐見町湯無田郷
8593703,長崎県,東彼杵郡波佐見町,野々川郷,ナガサキケン,ヒガシソノギグンハサミチョウ,ノノカワゴウ,長崎県東彼杵郡波佐見町野々川郷
8593704,長崎県,東彼杵郡波佐見町,小樽郷,ナガサキケン,ヒガシソノギグンハサミチョウ,コダルゴウ,長崎県東彼杵郡波佐見町小樽郷
8593705,長崎県,東彼杵郡波佐見町,永尾郷,ナガサキケン,ヒガシソノギグンハサミチョウ,ナガオゴウ,長崎県東彼杵郡波佐見町永尾郷
8593706,長崎県,東彼杵郡波佐見町,三股郷,ナガサキケン,ヒガシソノギグンハサミチョウ,ミツマタゴウ,長崎県東彼杵郡波佐見町三股郷
8593711,長崎県,東彼杵郡波佐見町,井石郷,ナガサキケン,ヒガシソノギグンハサミチョウ,イセキゴウ,長崎県東彼杵郡波佐見町井石郷
8593712,長崎県,東彼杵郡波佐見町,中尾郷,ナガサキケン,ヒガシソノギグンハサミチョウ,ナカオゴウ,長崎県東彼杵郡波佐見町中尾郷
8593713,長崎県,東彼杵郡波佐見町,鬼木郷,ナガサキケン,ヒガシソノギグンハサミチョウ,オニギゴウ,長崎県東彼杵郡波佐見町鬼木郷
8593714,長崎県,東彼杵郡波佐見町,金屋郷,ナガサキケン,ヒガシソノギグンハサミチョウ,カナヤゴウ,長崎県東彼杵郡波佐見町金屋郷
8593715,長崎県,東彼杵郡波佐見町,宿郷,ナガサキケン,ヒガシソノギグンハサミチョウ,シュクゴウ,長崎県東彼杵郡波佐見町宿郷
8593716,長崎県,東彼杵郡波佐見町,田ノ頭郷,ナガサキケン,ヒガシソノギグンハサミチョウ,タノカシラゴウ,長崎県東彼杵郡波佐見町田ノ頭郷
8593721,長崎県,東彼杵郡波佐見町,川内郷,ナガサキケン,ヒガシソノギグンハサミチョウ,カワチゴウ,長崎県東彼杵郡波佐見町川内郷
8593722,長崎県,東彼杵郡波佐見町,岳辺田郷,ナガサキケン,ヒガシソノギグンハサミチョウ,タケベタゴウ,長崎県東彼杵郡波佐見町岳辺田郷
8593723,長崎県,東彼杵郡波佐見町,平野郷,ナガサキケン,ヒガシソノギグンハサミチョウ,ヒラノゴウ,長崎県東彼杵郡波佐見町平野郷
8593724,長崎県,東彼杵郡波佐見町,志折郷,ナガサキケン,ヒガシソノギグンハサミチョウ,シオリゴウ,長崎県東彼杵郡波佐見町志折郷
8593725,長崎県,東彼杵郡波佐見町,長野郷,ナガサキケン,ヒガシソノギグンハサミチョウ,ナガノゴウ,長崎県東彼杵郡波佐見町長野郷
8593726,長崎県,東彼杵郡波佐見町,稗木場郷,ナガサキケン,ヒガシソノギグンハサミチョウ,ヒエコバゴウ,長崎県東彼杵郡波佐見町稗木場郷
8593727,長崎県,東彼杵郡波佐見町,皿山郷,ナガサキケン,ヒガシソノギグンハサミチョウ,サラヤマゴウ,長崎県東彼杵郡波佐見町皿山郷
8593728,長崎県,東彼杵郡波佐見町,村木郷,ナガサキケン,ヒガシソノギグンハサミチョウ,ムラギゴウ,長崎県東彼杵郡波佐見町村木郷
8593800,長崎県,東彼杵郡東彼杵町,,ナガサキケン,ヒガシソノギグンヒガシソノギチョウ,,長崎県東彼杵郡東彼杵町
8593801,長崎県,東彼杵郡東彼杵町,中尾郷,ナガサキケン,ヒガシソノギグンヒガシソノギチョウ,ナカオゴウ,長崎県東彼杵郡東彼杵町中尾郷
8593802,長崎県,東彼杵郡東彼杵町,坂本郷,ナガサキケン,ヒガシソノギグンヒガシソノギチョウ,サカモトゴウ,長崎県東彼杵郡東彼杵町坂本郷
8593803,長崎県,東彼杵郡東彼杵町,菅無田郷,ナガサキケン,ヒガシソノギグンヒガシソノギチョウ,スガムタゴウ,長崎県東彼杵郡東彼杵町菅無田郷
8593804,長崎県,東彼杵郡東彼杵町,法音寺郷,ナガサキケン,ヒガシソノギグンヒガシソノギチョウ,ホウオンジゴウ,長崎県東彼杵郡東彼杵町法音寺郷
8593805,長崎県,東彼杵郡東彼杵町,川内郷,ナガサキケン,ヒガシソノギグンヒガシソノギチョウ,カワチゴウ,長崎県東彼杵郡東彼杵町川内郷
8593806,長崎県,東彼杵郡東彼杵町,三根郷,ナガサキケン,ヒガシソノギグンヒガシソノギチョウ,ミネゴウ,長崎県東彼杵郡東彼杵町三根郷
8593807,長崎県,東彼杵郡東彼杵町,彼杵宿郷,ナガサキケン,ヒガシソノギグンヒガシソノギチョウ,ソノギシュクゴウ,長崎県東彼杵郡東彼杵町彼杵宿郷
8593808,長崎県,東彼杵郡東彼杵町,蔵本郷,ナガサキケン,ヒガシソノギグンヒガシソノギチョウ,クラモトゴウ,長崎県東彼杵郡東彼杵町蔵本郷
8593809,長崎県,東彼杵郡東彼杵町,口木田郷,ナガサキケン,ヒガシソノギグンヒガシソノギチョウ,クチキダゴウ,長崎県東彼杵郡東彼杵町口木田郷
8593811,長崎県,東彼杵郡東彼杵町,大音琴郷,ナガサキケン,ヒガシソノギグンヒガシソノギチョウ,オオネゴトゴウ,長崎県東彼杵郡東彼杵町大音琴郷
8593812,長崎県,東彼杵郡東彼杵町,小音琴郷,ナガサキケン,ヒガシソノギグンヒガシソノギチョウ,コネゴトゴウ,長崎県東彼杵郡東彼杵町小音琴郷
8593921,長崎県,東彼杵郡東彼杵町,千綿宿郷,ナガサキケン,ヒガシソノギグンヒガシソノギチョウ,チワタシュクゴウ,長崎県東彼杵郡東彼杵町千綿宿郷
8593922,長崎県,東彼杵郡東彼杵町,八反田郷,ナガサキケン,ヒガシソノギグンヒガシソノギチョウ,ハチタンダゴウ,長崎県東彼杵郡東彼杵町八反田郷
8593923,長崎県,東彼杵郡東彼杵町,瀬戸郷,ナガサキケン,ヒガシソノギグンヒガシソノギチョウ,セトゴウ,長崎県東彼杵郡東彼杵町瀬戸郷
8593924,長崎県,東彼杵郡東彼杵町,太ノ浦郷,ナガサキケン,ヒガシソノギグンヒガシソノギチョウ,タノウラゴウ,長崎県東彼杵郡東彼杵町太ノ浦郷
8593925,長崎県,東彼杵郡東彼杵町,中岳郷,ナガサキケン,ヒガシソノギグンヒガシソノギチョウ,ナカタケゴウ,長崎県東彼杵郡東彼杵町中岳郷
8593926,長崎県,東彼杵郡東彼杵町,蕪郷,ナガサキケン,ヒガシソノギグンヒガシソノギチョウ,カブラゴウ,長崎県東彼杵郡東彼杵町蕪郷
8593927,長崎県,東彼杵郡東彼杵町,駄地郷,ナガサキケン,ヒガシソノギグンヒガシソノギチョウ,ダジゴウ,長崎県東彼杵郡東彼杵町駄地郷
8593928,長崎県,東彼杵郡東彼杵町,平似田郷,ナガサキケン,ヒガシソノギグンヒガシソノギチョウ,ヒラニタゴウ,長崎県東彼杵郡東彼杵町平似田郷
8593929,長崎県,東彼杵郡東彼杵町,里郷,ナガサキケン,ヒガシソノギグンヒガシソノギチョウ,サトゴウ,長崎県東彼杵郡東彼杵町里郷
8593931,長崎県,東彼杵郡東彼杵町,木場郷,ナガサキケン,ヒガシソノギグンヒガシソノギチョウ,コバゴウ,長崎県東彼杵郡東彼杵町木場郷
8593932,長崎県,東彼杵郡東彼杵町,遠目郷,ナガサキケン,ヒガシソノギグンヒガシソノギチョウ,トオメゴウ,長崎県東彼杵郡東彼杵町遠目郷
8593933,長崎県,東彼杵郡東彼杵町,一ッ石郷,ナガサキケン,ヒガシソノギグンヒガシソノギチョウ,ヒトツイシゴウ,長崎県東彼杵郡東彼杵町一ッ石郷
8594301,長崎県,松浦市,鷹島町阿翁浦免,ナガサキケン,マツウラシ,タカシマチョウアオウウラメン,長崎県松浦市鷹島町阿翁浦免
8594302,長崎県,松浦市,鷹島町阿翁免,ナガサキケン,マツウラシ,タカシマチョウアオウメン,長崎県松浦市鷹島町阿翁免
8594303,長崎県,松浦市,鷹島町神崎免,ナガサキケン,マツウラシ,タカシマチョウコウザキメン,長崎県松浦市鷹島町神崎免
8594304,長崎県,松浦市,鷹島町里免,ナガサキケン,マツウラシ,タカシマチョウサトメン,長崎県松浦市鷹島町里免
8594305,長崎県,松浦市,鷹島町中通免,ナガサキケン,マツウラシ,タカシマチョウナカドオリメン,長崎県松浦市鷹島町中通免
8594306,長崎県,松浦市,鷹島町原免,ナガサキケン,マツウラシ,タカシマチョウハルメン,長崎県松浦市鷹島町原免
8594307,長崎県,松浦市,鷹島町三里免,ナガサキケン,マツウラシ,タカシマチョウサンリメン,長崎県松浦市鷹島町三里免
8594308,長崎県,松浦市,鷹島町船唐津免,ナガサキケン,マツウラシ,タカシマチョウフナトウヅメン,長崎県松浦市鷹島町船唐津免
8594309,長崎県,松浦市,鷹島町黒島免,ナガサキケン,マツウラシ,タカシマチョウクロシマメン,長崎県松浦市鷹島町黒島免
8594500,長崎県,松浦市,,ナガサキケン,マツウラシ,,長崎県松浦市
8594501,長崎県,松浦市,志佐町浦免,ナガサキケン,マツウラシ,シサチョウウラメン,長崎県松浦市志佐町浦免
8594502,長崎県,松浦市,志佐町里免,ナガサキケン,マツウラシ,シサチョウサトメン,長崎県松浦市志佐町里免
8594503,長崎県,松浦市,志佐町高野免,ナガサキケン,マツウラシ,シサチョウタカノメン,長崎県松浦市志佐町高野免
8594504,長崎県,松浦市,志佐町栢木免,ナガサキケン,マツウラシ,シサチョウカヤノキメン,長崎県松浦市志佐町栢木免
8594505,長崎県,松浦市,志佐町西山免,ナガサキケン,マツウラシ,シサチョウニシヤマメン,長崎県松浦市志佐町西山免
8594506,長崎県,松浦市,志佐町白浜免,ナガサキケン,マツウラシ,シサチョウシラハマメン,長崎県松浦市志佐町白浜免
8594507,長崎県,松浦市,志佐町庄野免,ナガサキケン,マツウラシ,シサチョウショウノメン,長崎県松浦市志佐町庄野免
8594511,長崎県,松浦市,志佐町赤木免,ナガサキケン,マツウラシ,シサチョウアカギメン,長崎県松浦市志佐町赤木免
8594512,長崎県,松浦市,志佐町笛吹免,ナガサキケン,マツウラシ,シサチョウフエフキメン,長崎県松浦市志佐町笛吹免
8594513,長崎県,松浦市,志佐町田ノ平免,ナガサキケン,マツウラシ,シサチョウタノヒラメン,長崎県松浦市志佐町田ノ平免
8594514,長崎県,松浦市,志佐町柚木川内免,ナガサキケン,マツウラシ,シサチョウユノキガワチメン,長崎県松浦市志佐町柚木川内免
8594515,長崎県,松浦市,志佐町稗木場免,ナガサキケン,マツウラシ,シサチョウヒエコバメン,長崎県松浦市志佐町稗木場免
8594516,長崎県,松浦市,志佐町長野免,ナガサキケン,マツウラシ,シサチョウナガノメン,長崎県松浦市志佐町長野免
8594517,長崎県,松浦市,志佐町横辺田免,ナガサキケン,マツウラシ,シサチョウヨコベタメン,長崎県松浦市志佐町横辺田免
8594518,長崎県,松浦市,志佐町池成免,ナガサキケン,マツウラシ,シサチョウイケナリメン,長崎県松浦市志佐町池成免
8594521,長崎県,松浦市,今福町北免,ナガサキケン,マツウラシ,イマフクチョウキタメン,長崎県松浦市今福町北免
8594522,長崎県,松浦市,今福町東免,ナガサキケン,マツウラシ,イマフクチョウヒガシメン,長崎県松浦市今福町東免
8594523,長崎県,松浦市,今福町滑栄免,ナガサキケン,マツウラシ,イマフクチョウナベルバエメン,長崎県松浦市今福町滑栄免
8594524,長崎県,松浦市,今福町木場免,ナガサキケン,マツウラシ,イマフクチョウコバメン,長崎県松浦市今福町木場免
8594525,長崎県,松浦市,今福町寺上免,ナガサキケン,マツウラシ,イマフクチョウテラゲメン,長崎県松浦市今福町寺上免
8594526,長崎県,松浦市,今福町坂野免,ナガサキケン,マツウラシ,イマフクチョウサカノメン,長崎県松浦市今福町坂野免
8594527,長崎県,松浦市,今福町仏坂免,ナガサキケン,マツウラシ,イマフクチョウホトケザカメン,長崎県松浦市今福町仏坂免
8594528,長崎県,松浦市,今福町浦免,ナガサキケン,マツウラシ,イマフクチョウウラメン,長崎県松浦市今福町浦免
8594529,長崎県,松浦市,今福町飛島免,ナガサキケン,マツウラシ,イマフクチョウトビシマメン,長崎県松浦市今福町飛島免
8594531,長崎県,松浦市,調川町平尾免,ナガサキケン,マツウラシ,ツキノカワチョウヒラオメン,長崎県松浦市調川町平尾免
8594532,長崎県,松浦市,調川町中免,ナガサキケン,マツウラシ,ツキノカワチョウナカメン,長崎県松浦市調川町中免
8594533,長崎県,松浦市,調川町上免,ナガサキケン,マツウラシ,ツキノカワチョウカミメン,長崎県松浦市調川町上免
8594534,長崎県,松浦市,調川町白井免,ナガサキケン,マツウラシ,ツキノカワチョウシライメン,長崎県松浦市調川町白井免
8594535,長崎県,松浦市,調川町松山田免,ナガサキケン,マツウラシ,ツキノカワチョウマツヤマダメン,長崎県松浦市調川町松山田免
8594536,長崎県,松浦市,調川町下免,ナガサキケン,マツウラシ,ツキノカワチョウシモメン,長崎県松浦市調川町下免
8594741,長崎県,松浦市,星鹿町北久保免,ナガサキケン,マツウラシ,ホシカチョウキタクボメン,長崎県松浦市星鹿町北久保免
8594742,長崎県,松浦市,星鹿町牟田免,ナガサキケン,マツウラシ,ホシカチョウムタメン,長崎県松浦市星鹿町牟田免
8594743,長崎県,松浦市,星鹿町下田免,ナガサキケン,マツウラシ,ホシカチョウシモダメン,長崎県松浦市星鹿町下田免
8594744,長崎県,松浦市,星鹿町岳崎免,ナガサキケン,マツウラシ,ホシカチョウタケザキメン,長崎県松浦市星鹿町岳崎免
8594745,長崎県,松浦市,星鹿町青島免,ナガサキケン,マツウラシ,ホシカチョウアオシマメン,長崎県松浦市星鹿町青島免
8594751,長崎県,松浦市,御厨町池田免,ナガサキケン,マツウラシ,ミクリヤチョウイケダメン,長崎県松浦市御厨町池田免
8594752,長崎県,松浦市,御厨町里免,ナガサキケン,マツウラシ,ミクリヤチョウサトメン,長崎県松浦市御厨町里免
8594753,長崎県,松浦市,御厨町中野免,ナガサキケン,マツウラシ,ミクリヤチョウナカノメン,長崎県松浦市御厨町中野免
8594754,長崎県,松浦市,御厨町北平免,ナガサキケン,マツウラシ,ミクリヤチョウキタビラメン,長崎県松浦市御厨町北平免
8594755,長崎県,松浦市,御厨町横久保免,ナガサキケン,マツウラシ,ミクリヤチョウヨコクボメン,長崎県松浦市御厨町横久保免
8594756,長崎県,松浦市,御厨町前田免,ナガサキケン,マツウラシ,ミクリヤチョウマエダメン,長崎県松浦市御厨町前田免
8594757,長崎県,松浦市,御厨町高野免,ナガサキケン,マツウラシ,ミクリヤチョウタカノメン,長崎県松浦市御厨町高野免
8594758,長崎県,松浦市,御厨町大崎免,ナガサキケン,マツウラシ,ミクリヤチョウオオサキメン,長崎県松浦市御厨町大崎免
8594761,長崎県,松浦市,御厨町田原免,ナガサキケン,マツウラシ,ミクリヤチョウタバルメン,長崎県松浦市御厨町田原免
8594761,長崎県,松浦市,御厨町相坂免,ナガサキケン,マツウラシ,ミクリヤチョウアイサカメン,長崎県松浦市御厨町相坂免
8594762,長崎県,松浦市,御厨町小船免,ナガサキケン,マツウラシ,ミクリヤチョウコブネメン,長崎県松浦市御厨町小船免
8594763,長崎県,松浦市,御厨町山根免,ナガサキケン,マツウラシ,ミクリヤチョウヤマネメン,長崎県松浦市御厨町山根免
8594764,長崎県,松浦市,御厨町狩原免,ナガサキケン,マツウラシ,ミクリヤチョウカリハラメン,長崎県松浦市御厨町狩原免
8594765,長崎県,松浦市,御厨町米ノ山免,ナガサキケン,マツウラシ,ミクリヤチョウコメノヤマメン,長崎県松浦市御厨町米ノ山免
8594766,長崎県,松浦市,御厨町普住免,ナガサキケン,マツウラシ,ミクリヤチョウフジュウメン,長崎県松浦市御厨町普住免
8594767,長崎県,松浦市,御厨町川内免,ナガサキケン,マツウラシ,ミクリヤチョウカワチメン,長崎県松浦市御厨町川内免
8594768,長崎県,松浦市,御厨町西田免,ナガサキケン,マツウラシ,ミクリヤチョウニシダメン,長崎県松浦市御厨町西田免
8594769,長崎県,松浦市,御厨町西木場免,ナガサキケン,マツウラシ,ミクリヤチョウニシコバメン,長崎県松浦市御厨町西木場免
8594771,長崎県,松浦市,御厨町下登木免,ナガサキケン,マツウラシ,ミクリヤチョウシモノボリキメン,長崎県松浦市御厨町下登木免
8594772,長崎県,松浦市,御厨町寺ノ尾免,ナガサキケン,マツウラシ,ミクリヤチョウテラノオメン,長崎県松浦市御厨町寺ノ尾免
8594773,長崎県,松浦市,御厨町上登木免,ナガサキケン,マツウラシ,ミクリヤチョウカミノボリキメン,長崎県松浦市御厨町上登木免
8594774,長崎県,松浦市,御厨町立木免,ナガサキケン,マツウラシ,ミクリヤチョウタチキメン,長崎県松浦市御厨町立木免
8594775,長崎県,松浦市,御厨町郭公尾免,ナガサキケン,マツウラシ,ミクリヤチョウコッコウノオメン,長崎県松浦市御厨町郭公尾免
8594776,長崎県,松浦市,御厨町木場免,ナガサキケン,マツウラシ,ミクリヤチョウコバメン,長崎県松浦市御厨町木場免
8594777,長崎県,松浦市,御厨町板橋免,ナガサキケン,マツウラシ,ミクリヤチョウイタバシメン,長崎県松浦市御厨町板橋免
8594778,長崎県,松浦市,御厨町田代免,ナガサキケン,マツウラシ,ミクリヤチョウタシロメン,長崎県松浦市御厨町田代免
8594801,長崎県,平戸市,田平町岳崎免,ナガサキケン,ヒラドシ,タビラチョウタケザキメン,長崎県平戸市田平町岳崎免
8594802,長崎県,平戸市,田平町福崎免,ナガサキケン,ヒラドシ,タビラチョウフクザキメン,長崎県平戸市田平町福崎免
8594803,長崎県,平戸市,田平町小崎免,ナガサキケン,ヒラドシ,タビラチョウコザキメン,長崎県平戸市田平町小崎免
8594804,長崎県,平戸市,田平町上亀免,ナガサキケン,ヒラドシ,タビラチョウカミガメメン,長崎県平戸市田平町上亀免
8594805,長崎県,平戸市,田平町本山免,ナガサキケン,ヒラドシ,タビラチョウモトヤマメン,長崎県平戸市田平町本山免
8594806,長崎県,平戸市,田平町下亀免,ナガサキケン,ヒラドシ,タビラチョウシモガメメン,長崎県平戸市田平町下亀免
8594807,長崎県,平戸市,田平町里免,ナガサキケン,ヒラドシ,タビラチョウサトメン,長崎県平戸市田平町里免
8594811,長崎県,平戸市,田平町古梶免,ナガサキケン,ヒラドシ,タビラチョウフルカジメン,長崎県平戸市田平町古梶免
8594812,長崎県,平戸市,田平町田代免,ナガサキケン,ヒラドシ,タビラチョウタシロメン,長崎県平戸市田平町田代免
8594813,長崎県,平戸市,田平町深月免,ナガサキケン,ヒラドシ,タビラチョウフカツキメン,長崎県平戸市田平町深月免
8594814,長崎県,平戸市,田平町以善免,ナガサキケン,ヒラドシ,タビラチョウイヨシメン,長崎県平戸市田平町以善免
8594815,長崎県,平戸市,田平町下寺免,ナガサキケン,ヒラドシ,タビラチョウシモデラメン,長崎県平戸市田平町下寺免
8594821,長崎県,平戸市,田平町大久保免,ナガサキケン,ヒラドシ,タビラチョウオオクボメン,長崎県平戸市田平町大久保免
8594822,長崎県,平戸市,田平町一関免,ナガサキケン,ヒラドシ,タビラチョウイッセキメン,長崎県平戸市田平町一関免
8594823,長崎県,平戸市,田平町荻田免,ナガサキケン,ヒラドシ,タビラチョウオギタメン,長崎県平戸市田平町荻田免
8594824,長崎県,平戸市,田平町小手田免,ナガサキケン,ヒラドシ,タビラチョウコテダメン,長崎県平戸市田平町小手田免
8594825,長崎県,平戸市,田平町山内免,ナガサキケン,ヒラドシ,タビラチョウヤマウチメン,長崎県平戸市田平町山内免
8594826,長崎県,平戸市,田平町野田免,ナガサキケン,ヒラドシ,タビラチョウノダメン,長崎県平戸市田平町野田免
8594827,長崎県,平戸市,田平町横島免,ナガサキケン,ヒラドシ,タビラチョウヨコシマメン,長崎県平戸市田平町横島免
8595100,長崎県,平戸市,,ナガサキケン,ヒラドシ,,長崎県平戸市
8595101,長崎県,平戸市,度島町,ナガサキケン,ヒラドシ,タクシマチョウ,長崎県平戸市度島町
8595102,長崎県,平戸市,大久保町,ナガサキケン,ヒラドシ,オオクボチョウ,長崎県平戸市大久保町
8595103,長崎県,平戸市,田助町,ナガサキケン,ヒラドシ,タスケチョウ,長崎県平戸市田助町
8595104,長崎県,平戸市,崎方町,ナガサキケン,ヒラドシ,サキガタチョウ,長崎県平戸市崎方町
8595111,長崎県,平戸市,浦の町,ナガサキケン,ヒラドシ,ウラノチョウ,長崎県平戸市浦の町
8595112,長崎県,平戸市,宮の町,ナガサキケン,ヒラドシ,ミヤノチョウ,長崎県平戸市宮の町
8595113,長崎県,平戸市,木引田町,ナガサキケン,ヒラドシ,キヒキダチョウ,長崎県平戸市木引田町
8595114,長崎県,平戸市,築地町,ナガサキケン,ヒラドシ,ツキジチョウ,長崎県平戸市築地町
8595115,長崎県,平戸市,新町,ナガサキケン,ヒラドシ,シンマチ,長崎県平戸市新町
8595116,長崎県,平戸市,職人町,ナガサキケン,ヒラドシ,ショクニンチョウ,長崎県平戸市職人町
8595117,長崎県,平戸市,魚の棚町,ナガサキケン,ヒラドシ,ウオノタナチョウ,長崎県平戸市魚の棚町
8595118,長崎県,平戸市,紺屋町,ナガサキケン,ヒラドシ,コウヤマチ,長崎県平戸市紺屋町
8595121,長崎県,平戸市,岩の上町,ナガサキケン,ヒラドシ,イワノウエチョウ,長崎県平戸市岩の上町
8595122,長崎県,平戸市,明の川内町,ナガサキケン,ヒラドシ,アケノカワチチョウ,長崎県平戸市明の川内町
8595123,長崎県,平戸市,大野町,ナガサキケン,ヒラドシ,オオノチョウ,長崎県平戸市大野町
8595131,長崎県,平戸市,大山町,ナガサキケン,ヒラドシ,オオヤマチョウ,長崎県平戸市大山町
8595132,長崎県,平戸市,川内町,ナガサキケン,ヒラドシ,カワチチョウ,長崎県平戸市川内町
8595133,長崎県,平戸市,中野大久保町,ナガサキケン,ヒラドシ,ナカノオオクボチョウ,長崎県平戸市中野大久保町
8595134,長崎県,平戸市,水垂町,ナガサキケン,ヒラドシ,ミズタリチョウ,長崎県平戸市水垂町
8595141,長崎県,平戸市,山中町,ナガサキケン,ヒラドシ,ヤマナカチョウ,長崎県平戸市山中町
8595142,長崎県,平戸市,主師町,ナガサキケン,ヒラドシ,シュウシチョウ,長崎県平戸市主師町
8595143,長崎県,平戸市,坊方町,ナガサキケン,ヒラドシ,ボウガタチョウ,長崎県平戸市坊方町
8595144,長崎県,平戸市,下中野町,ナガサキケン,ヒラドシ,シモナカノチョウ,長崎県平戸市下中野町
8595145,長崎県,平戸市,古江町,ナガサキケン,ヒラドシ,フルエチョウ,長崎県平戸市古江町
8595151,長崎県,平戸市,木引町,ナガサキケン,ヒラドシ,コヒキチョウ,長崎県平戸市木引町
8595152,長崎県,平戸市,鏡川町,ナガサキケン,ヒラドシ,カガミガワチョウ,長崎県平戸市鏡川町
8595153,長崎県,平戸市,戸石川町,ナガサキケン,ヒラドシ,トイシガワチョウ,長崎県平戸市戸石川町
8595361,長崎県,平戸市,紐差町,ナガサキケン,ヒラドシ,ヒモサシチョウ,長崎県平戸市紐差町
8595362,長崎県,平戸市,木ケ津町,ナガサキケン,ヒラドシ,キガツチョウ,長崎県平戸市木ケ津町
8595363,長崎県,平戸市,草積町,ナガサキケン,ヒラドシ,クサヅミチョウ,長崎県平戸市草積町
8595364,長崎県,平戸市,迎紐差町,ナガサキケン,ヒラドシ,ムカエヒモサシチョウ,長崎県平戸市迎紐差町
8595365,長崎県,平戸市,木場町,ナガサキケン,ヒラドシ,コバチョウ,長崎県平戸市木場町
8595366,長崎県,平戸市,宝亀町,ナガサキケン,ヒラドシ,ホウキチョウ,長崎県平戸市宝亀町
8595371,長崎県,平戸市,獅子町,ナガサキケン,ヒラドシ,シシチョウ,長崎県平戸市獅子町
8595372,長崎県,平戸市,高越町,ナガサキケン,ヒラドシ,タカゴエチョウ,長崎県平戸市高越町
8595373,長崎県,平戸市,春日町,ナガサキケン,ヒラドシ,カスガチョウ,長崎県平戸市春日町
8595374,長崎県,平戸市,深川町,ナガサキケン,ヒラドシ,フカガワチョウ,長崎県平戸市深川町
8595375,長崎県,平戸市,朶の原町,ナガサキケン,ヒラドシ,ヘゴノハラチョウ,長崎県平戸市朶の原町
8595376,長崎県,平戸市,大石脇町,ナガサキケン,ヒラドシ,オオイシワキチョウ,長崎県平戸市大石脇町
8595381,長崎県,平戸市,根獅子町,ナガサキケン,ヒラドシ,ネシコチョウ,長崎県平戸市根獅子町
8595382,長崎県,平戸市,飯良町,ナガサキケン,ヒラドシ,イイラチョウ,長崎県平戸市飯良町
8595383,長崎県,平戸市,大川原町,ナガサキケン,ヒラドシ,オオカワラチョウ,長崎県平戸市大川原町
8595384,長崎県,平戸市,赤松町,ナガサキケン,ヒラドシ,アカマツチョウ,長崎県平戸市赤松町
8595501,長崎県,平戸市,堤町,ナガサキケン,ヒラドシ,ツツミチョウ,長崎県平戸市堤町
8595502,長崎県,平戸市,猪渡谷町,ナガサキケン,ヒラドシ,イトヤチョウ,長崎県平戸市猪渡谷町
8595503,長崎県,平戸市,上中津良町,ナガサキケン,ヒラドシ,カミナカツラチョウ,長崎県平戸市上中津良町
8595504,長崎県,平戸市,下中津良町,ナガサキケン,ヒラドシ,シモナカツラチョウ,長崎県平戸市下中津良町
8595505,長崎県,平戸市,敷佐町,ナガサキケン,ヒラドシ,シキサチョウ,長崎県平戸市敷佐町
8595511,長崎県,平戸市,神船町,ナガサキケン,ヒラドシ,シブネチョウ,長崎県平戸市神船町
8595512,長崎県,平戸市,津吉町,ナガサキケン,ヒラドシ,ツヨシチョウ,長崎県平戸市津吉町
8595513,長崎県,平戸市,辻町,ナガサキケン,ヒラドシ,ツジチョウ,長崎県平戸市辻町
8595514,長崎県,平戸市,無代寺町,ナガサキケン,ヒラドシ,ブダイジチョウ,長崎県平戸市無代寺町
8595515,長崎県,平戸市,鮎川町,ナガサキケン,ヒラドシ,アユカワチョウ,長崎県平戸市鮎川町
8595516,長崎県,平戸市,大佐志町,ナガサキケン,ヒラドシ,オオサシチョウ,長崎県平戸市大佐志町
8595521,長崎県,平戸市,船木町,ナガサキケン,ヒラドシ,フナギチョウ,長崎県平戸市船木町
8595522,長崎県,平戸市,神ノ川町,ナガサキケン,ヒラドシ,コウノカワチョウ,長崎県平戸市神ノ川町
8595523,長崎県,平戸市,前津吉町,ナガサキケン,ヒラドシ,マエツヨシチョウ,長崎県平戸市前津吉町
8595524,長崎県,平戸市,神上町,ナガサキケン,ヒラドシ,カミアゲチョウ,長崎県平戸市神上町
8595525,長崎県,平戸市,東中山町,ナガサキケン,ヒラドシ,ヒガシナカヤマチョウ,長崎県平戸市東中山町
8595526,長崎県,平戸市,西中山町,ナガサキケン,ヒラドシ,ニシナカヤマチョウ,長崎県平戸市西中山町
8595527,長崎県,平戸市,田代町,ナガサキケン,ヒラドシ,タシロチョウ,長崎県平戸市田代町
8595531,長崎県,平戸市,早福町,ナガサキケン,ヒラドシ,ハイフクチョウ,長崎県平戸市早福町
8595532,長崎県,平戸市,大志々伎町,ナガサキケン,ヒラドシ,オオシジキチョウ,長崎県平戸市大志々伎町
8595533,長崎県,平戸市,志々伎町,ナガサキケン,ヒラドシ,シジキチョウ,長崎県平戸市志々伎町
8595534,長崎県,平戸市,小田町,ナガサキケン,ヒラドシ,オダチョウ,長崎県平戸市小田町
8595535,長崎県,平戸市,野子町,ナガサキケン,ヒラドシ,ノコチョウ,長崎県平戸市野子町
8595701,長崎県,平戸市,生月町壱部,ナガサキケン,ヒラドシ,イキツキチョウイチブ,長崎県平戸市生月町壱部
8595702,長崎県,平戸市,生月町壱部浦,ナガサキケン,ヒラドシ,イキツキチョウイチブウラ,長崎県平戸市生月町壱部浦
8595703,長崎県,平戸市,生月町里免,ナガサキケン,ヒラドシ,イキツキチョウサトメン,長崎県平戸市生月町里免
8595704,長崎県,平戸市,生月町山田免,ナガサキケン,ヒラドシ,イキツキチョウヤマダメン,長崎県平戸市生月町山田免
8595705,長崎県,平戸市,生月町舘浦,ナガサキケン,ヒラドシ,イキツキチョウタチウラ,長崎県平戸市生月町舘浦
8595706,長崎県,平戸市,生月町南免,ナガサキケン,ヒラドシ,イキツキチョウミナミメン,長崎県平戸市生月町南免
8595707,長崎県,平戸市,生月町御崎,ナガサキケン,ヒラドシ,イキツキチョウミサキ,長崎県平戸市生月町御崎
8595801,長崎県,平戸市,大島村神浦,ナガサキケン,ヒラドシ,オオシマムラコウノウラ,長崎県平戸市大島村神浦
8595802,長崎県,平戸市,大島村前平,ナガサキケン,ヒラドシ,オオシマムラマエビラ,長崎県平戸市大島村前平
8595803,長崎県,平戸市,大島村西宇戸,ナガサキケン,ヒラドシ,オオシマムラニシウド,長崎県平戸市大島村西宇戸
8595804,長崎県,平戸市,大島村大根坂,ナガサキケン,ヒラドシ,オオシマムラオオネザカ,長崎県平戸市大島村大根坂
8595805,長崎県,平戸市,大島村的山川内,ナガサキケン,ヒラドシ,オオシマムラアヅチカワチ,長崎県平戸市大島村的山川内
8595806,長崎県,平戸市,大島村的山戸田,ナガサキケン,ヒラドシ,オオシマムラアヅチトダ,長崎県平戸市大島村的山戸田
8596101,長崎県,佐世保市,江迎町長坂,ナガサキケン,サセボシ,エムカエチョウナガサカ,長崎県佐世保市江迎町長坂
8596102,長崎県,佐世保市,江迎町上川内,ナガサキケン,サセボシ,エムカエチョウカミガワチ,長崎県佐世保市江迎町上川内
8596103,長崎県,佐世保市,江迎町埋立,ナガサキケン,サセボシ,エムカエチョウウメタテ,長崎県佐世保市江迎町埋立
8596104,長崎県,佐世保市,江迎町末橘,ナガサキケン,サセボシ,エムカエチョウスエタチバナ,長崎県佐世保市江迎町末橘
8596105,長崎県,佐世保市,江迎町梶ノ村,ナガサキケン,サセボシ,エムカエチョウカジノムラ,長崎県佐世保市江迎町梶ノ村
8596106,長崎県,佐世保市,江迎町北田,ナガサキケン,サセボシ,エムカエチョウキタダ,長崎県佐世保市江迎町北田
8596111,長崎県,佐世保市,江迎町飯良坂,ナガサキケン,サセボシ,エムカエチョウイイラザカ,長崎県佐世保市江迎町飯良坂
8596112,長崎県,佐世保市,江迎町根引,ナガサキケン,サセボシ,エムカエチョウネビキ,長崎県佐世保市江迎町根引
8596113,長崎県,佐世保市,江迎町栗越,ナガサキケン,サセボシ,エムカエチョウクリコシ,長崎県佐世保市江迎町栗越
8596114,長崎県,佐世保市,江迎町箙尾,ナガサキケン,サセボシ,エムカエチョウエビラオ,長崎県佐世保市江迎町箙尾
8596115,長崎県,佐世保市,江迎町中尾,ナガサキケン,サセボシ,エムカエチョウナカオ,長崎県佐世保市江迎町中尾
8596121,長崎県,佐世保市,江迎町奥川内,ナガサキケン,サセボシ,エムカエチョウオクガワチ,長崎県佐世保市江迎町奥川内
8596122,長崎県,佐世保市,江迎町七腕,ナガサキケン,サセボシ,エムカエチョウナナカイ,長崎県佐世保市江迎町七腕
8596123,長崎県,佐世保市,江迎町小川内,ナガサキケン,サセボシ,エムカエチョウコガワチ,長崎県佐世保市江迎町小川内
8596124,長崎県,佐世保市,江迎町乱橋,ナガサキケン,サセボシ,エムカエチョウミダレバシ,長崎県佐世保市江迎町乱橋
8596125,長崎県,佐世保市,江迎町三浦,ナガサキケン,サセボシ,エムカエチョウミウラ,長崎県佐世保市江迎町三浦
8596126,長崎県,佐世保市,江迎町北平,ナガサキケン,サセボシ,エムカエチョウキタヒラ,長崎県佐世保市江迎町北平
8596131,長崎県,佐世保市,江迎町赤坂,ナガサキケン,サセボシ,エムカエチョウアカサカ,長崎県佐世保市江迎町赤坂
8596132,長崎県,佐世保市,江迎町志戸氏,ナガサキケン,サセボシ,エムカエチョウシトノウジ,長崎県佐世保市江迎町志戸氏
8596133,長崎県,佐世保市,江迎町猪調,ナガサキケン,サセボシ,エムカエチョウイノツキ,長崎県佐世保市江迎町猪調
8596134,長崎県,佐世保市,江迎町田ノ元,ナガサキケン,サセボシ,エムカエチョウタノモト,長崎県佐世保市江迎町田ノ元
8596141,長崎県,佐世保市,鹿町町新深江,ナガサキケン,サセボシ,シカマチチョウシンフカエ,長崎県佐世保市鹿町町新深江
8596142,長崎県,佐世保市,鹿町町深江,ナガサキケン,サセボシ,シカマチチョウフカエ,長崎県佐世保市鹿町町深江
8596143,長崎県,佐世保市,鹿町町深江潟,ナガサキケン,サセボシ,シカマチチョウフカエガタ,長崎県佐世保市鹿町町深江潟
8596144,長崎県,佐世保市,鹿町町鹿町,ナガサキケン,サセボシ,シカマチチョウシカマチ,長崎県佐世保市鹿町町鹿町
8596145,長崎県,佐世保市,鹿町町土肥ノ浦,ナガサキケン,サセボシ,シカマチチョウドイノウラ,長崎県佐世保市鹿町町土肥ノ浦
8596201,長崎県,佐世保市,鹿町町大屋,ナガサキケン,サセボシ,シカマチチョウオオヤ,長崎県佐世保市鹿町町大屋
8596202,長崎県,佐世保市,鹿町町上歌ヶ浦,ナガサキケン,サセボシ,シカマチチョウカミウタガウラ,長崎県佐世保市鹿町町上歌ヶ浦
8596203,長崎県,佐世保市,鹿町町口ノ里,ナガサキケン,サセボシ,シカマチチョウクチノサト,長崎県佐世保市鹿町町口ノ里
8596204,長崎県,佐世保市,鹿町町下歌ヶ浦,ナガサキケン,サセボシ,シカマチチョウシモウタガウラ,長崎県佐世保市鹿町町下歌ヶ浦
8596205,長崎県,佐世保市,鹿町町中野,ナガサキケン,サセボシ,シカマチチョウナカノ,長崎県佐世保市鹿町町中野
8596206,長崎県,佐世保市,鹿町町長串,ナガサキケン,サセボシ,シカマチチョウナグシ,長崎県佐世保市鹿町町長串
8596207,長崎県,佐世保市,鹿町町船ノ村,ナガサキケン,サセボシ,シカマチチョウフネノムラ,長崎県佐世保市鹿町町船ノ村
8596301,長崎県,佐世保市,吉井町草ノ尾,ナガサキケン,サセボシ,ヨシイチョウソウノオ,長崎県佐世保市吉井町草ノ尾
8596302,長崎県,佐世保市,吉井町福井,ナガサキケン,サセボシ,ヨシイチョウフクイ,長崎県佐世保市吉井町福井
8596303,長崎県,佐世保市,吉井町板樋,ナガサキケン,サセボシ,ヨシイチョウイタビ,長崎県佐世保市吉井町板樋
8596304,長崎県,佐世保市,吉井町梶木場,ナガサキケン,サセボシ,ヨシイチョウカジコバ,長崎県佐世保市吉井町梶木場
8596305,長崎県,佐世保市,吉井町直谷,ナガサキケン,サセボシ,ヨシイチョウナオヤ,長崎県佐世保市吉井町直谷
8596311,長崎県,佐世保市,吉井町橋川内,ナガサキケン,サセボシ,ヨシイチョウハシカワチ,長崎県佐世保市吉井町橋川内
8596312,長崎県,佐世保市,吉井町橋口,ナガサキケン,サセボシ,ヨシイチョウハシグチ,長崎県佐世保市吉井町橋口
8596313,長崎県,佐世保市,吉井町上吉田,ナガサキケン,サセボシ,ヨシイチョウカミヨシダ,長崎県佐世保市吉井町上吉田
8596314,長崎県,佐世保市,吉井町田原,ナガサキケン,サセボシ,ヨシイチョウタバル,長崎県佐世保市吉井町田原
8596315,長崎県,佐世保市,吉井町下原,ナガサキケン,サセボシ,ヨシイチョウシモバル,長崎県佐世保市吉井町下原
8596316,長崎県,佐世保市,吉井町乙石尾,ナガサキケン,サセボシ,ヨシイチョウオツイシオ,長崎県佐世保市吉井町乙石尾
8596317,長崎県,佐世保市,吉井町高峰,ナガサキケン,サセボシ,ヨシイチョウタカミネ,長崎県佐世保市吉井町高峰
8596321,長崎県,佐世保市,吉井町前岳,ナガサキケン,サセボシ,ヨシイチョウマエダケ,長崎県佐世保市吉井町前岳
8596322,長崎県,佐世保市,吉井町踊瀬,ナガサキケン,サセボシ,ヨシイチョウオドリゼ,長崎県佐世保市吉井町踊瀬
8596323,長崎県,佐世保市,吉井町春明,ナガサキケン,サセボシ,ヨシイチョウハルアケ,長崎県佐世保市吉井町春明
8596324,長崎県,佐世保市,吉井町吉元,ナガサキケン,サセボシ,ヨシイチョウヨシモト,長崎県佐世保市吉井町吉元
8596325,長崎県,佐世保市,吉井町大渡,ナガサキケン,サセボシ,ヨシイチョウオオワタリ,長崎県佐世保市吉井町大渡
8596326,長崎県,佐世保市,吉井町立石,ナガサキケン,サセボシ,ヨシイチョウタテイシ,長崎県佐世保市吉井町立石
8596401,長崎県,佐世保市,世知原町赤木場,ナガサキケン,サセボシ,セチバルチョウアカコバ,長崎県佐世保市世知原町赤木場
8596402,長崎県,佐世保市,世知原町岩谷口,ナガサキケン,サセボシ,セチバルチョウイワヤグチ,長崎県佐世保市世知原町岩谷口
8596403,長崎県,佐世保市,世知原町上野原,ナガサキケン,サセボシ,セチバルチョウウエノハラ,長崎県佐世保市世知原町上野原
8596404,長崎県,佐世保市,世知原町太田,ナガサキケン,サセボシ,セチバルチョウオオタ,長崎県佐世保市世知原町太田
8596405,長崎県,佐世保市,世知原町開作,ナガサキケン,サセボシ,セチバルチョウカイサク,長崎県佐世保市世知原町開作
8596406,長崎県,佐世保市,世知原町木浦原,ナガサキケン,サセボシ,セチバルチョウキウラバル,長崎県佐世保市世知原町木浦原
8596407,長崎県,佐世保市,世知原町北川内,ナガサキケン,サセボシ,セチバルチョウキタガワチ,長崎県佐世保市世知原町北川内
8596408,長崎県,佐世保市,世知原町栗迎,ナガサキケン,サセボシ,セチバルチョウクリムカエ,長崎県佐世保市世知原町栗迎
8596409,長崎県,佐世保市,世知原町中通,ナガサキケン,サセボシ,セチバルチョウナカドオリ,長崎県佐世保市世知原町中通
8596411,長崎県,佐世保市,世知原町長田代,ナガサキケン,サセボシ,セチバルチョウナガタシロ,長崎県佐世保市世知原町長田代
8596412,長崎県,佐世保市,世知原町西ノ岳,ナガサキケン,サセボシ,セチバルチョウニシノタケ,長崎県佐世保市世知原町西ノ岳
8596413,長崎県,佐世保市,世知原町笥瀬,ナガサキケン,サセボシ,セチバルチョウヤナゼ,長崎県佐世保市世知原町笥瀬
8596414,長崎県,佐世保市,世知原町矢櫃,ナガサキケン,サセボシ,セチバルチョウヤビツ,長崎県佐世保市世知原町矢櫃
8596415,長崎県,佐世保市,世知原町槍巻,ナガサキケン,サセボシ,セチバルチョウヤリマキ,長崎県佐世保市世知原町槍巻
