zipcode,prefecture_name,city,town,prefecture_kana,city_kana,town_kana,normalized_address
8600001,熊本県,熊本市中央区,千葉城町,クマモトケン,クマモトシチュウオウク,チバジョウマチ,熊本県熊本市中央区千葉城町
8600002,熊本県,熊本市中央区,本丸,クマモトケン,クマモトシチュウオウク,ホンマル,熊本県熊本市中央区本丸
8600003,熊本県,熊本市中央区,古城町,クマモトケン,クマモトシチュウオウク,コジョウマチ,熊本県熊本市中央区古城町
8600004,熊本県,熊本市中央区,新町,クマモトケン,クマモトシチュウオウク,シンマチ,熊本県熊本市中央区新町
8600005,熊本県,熊本市中央区,宮内,クマモトケン,クマモトシチュウオウク,ミヤウチ,熊本県熊本市中央区宮内
8600006,熊本県,熊本市中央区,段山本町,クマモトケン,クマモトシチュウオウク,ダニヤマホンマチ,熊本県熊本市中央区段山本町
8600007,熊本県,熊本市中央区,古京町,クマモトケン,クマモトシチュウオウク,フルキョウマチ,熊本県熊本市中央区古京町
8600008,熊本県,熊本市中央区,二の丸,クマモトケン,クマモトシチュウオウク,ニノマル,熊本県熊本市中央区二の丸
8600011,熊本県,熊本市中央区,新鍛冶屋町,クマモトケン,クマモトシチュウオウク,シンカジヤマチ,熊本県熊本市中央区新鍛冶屋町
8600012,熊本県,熊本市中央区,紺屋今町,クマモトケン,クマモトシチュウオウク,コウヤイママチ,熊本県熊本市中央区紺屋今町
8600013,熊本県,熊本市中央区,通町,クマモトケン,クマモトシチュウオウク,トオリチョウ,熊本県熊本市中央区通町
8600014,熊本県,熊本市中央区,慶徳堀町,クマモトケン,クマモトシチュウオウク,ケイトクボリマチ,熊本県熊本市中央区慶徳堀町
8600015,熊本県,熊本市中央区,古川町,クマモトケン,クマモトシチュウオウク,フルカワマチ,熊本県熊本市中央区古川町
8600016,熊本県,熊本市中央区,山崎町,クマモトケン,クマモトシチュウオウク,ヤマサキマチ,熊本県熊本市中央区山崎町
8600017,熊本県,熊本市中央区,練兵町,クマモトケン,クマモトシチュウオウク,レンペイチョウ,熊本県熊本市中央区練兵町
8600018,熊本県,熊本市中央区,船場町下,クマモトケン,クマモトシチュウオウク,センバマチシモ,熊本県熊本市中央区船場町下
8600019,熊本県,熊本市中央区,船場町,クマモトケン,クマモトシチュウオウク,センバマチ,熊本県熊本市中央区船場町
8600021,熊本県,熊本市中央区,上鍛冶屋町,クマモトケン,クマモトシチュウオウク,カミカジヤマチ,熊本県熊本市中央区上鍛冶屋町
8600022,熊本県,熊本市中央区,横紺屋町,クマモトケン,クマモトシチュウオウク,ヨココウヤマチ,熊本県熊本市中央区横紺屋町
8600023,熊本県,熊本市中央区,河原町,クマモトケン,クマモトシチュウオウク,カワラマチ,熊本県熊本市中央区河原町
8600024,熊本県,熊本市中央区,松原町,クマモトケン,クマモトシチュウオウク,マツバラマチ,熊本県熊本市中央区松原町
8600025,熊本県,熊本市中央区,紺屋町,クマモトケン,クマモトシチュウオウク,コウヤマチ,熊本県熊本市中央区紺屋町
8600026,熊本県,熊本市中央区,鍛冶屋町,クマモトケン,クマモトシチュウオウク,カジヤマチ,熊本県熊本市中央区鍛冶屋町
8600027,熊本県,熊本市中央区,西唐人町,クマモトケン,クマモトシチュウオウク,ニシトウジンマチ,熊本県熊本市中央区西唐人町
8600028,熊本県,熊本市中央区,中唐人町,クマモトケン,クマモトシチュウオウク,ナカトウジンマチ,熊本県熊本市中央区中唐人町
8600029,熊本県,熊本市中央区,米屋町,クマモトケン,クマモトシチュウオウク,コメヤマチ,熊本県熊本市中央区米屋町
8600031,熊本県,熊本市中央区,魚屋町,クマモトケン,クマモトシチュウオウク,ウオヤマチ,熊本県熊本市中央区魚屋町
8600032,熊本県,熊本市中央区,万町,クマモトケン,クマモトシチュウオウク,ヨロズマチ,熊本県熊本市中央区万町
8600033,熊本県,熊本市中央区,紺屋阿弥陀寺町,クマモトケン,クマモトシチュウオウク,コウヤアミダジマチ,熊本県熊本市中央区紺屋阿弥陀寺町
8600034,熊本県,熊本市中央区,東阿弥陀寺町,クマモトケン,クマモトシチュウオウク,ヒガシアミダジマチ,熊本県熊本市中央区東阿弥陀寺町
8600035,熊本県,熊本市中央区,呉服町,クマモトケン,クマモトシチュウオウク,ゴフクマチ,熊本県熊本市中央区呉服町
8600036,熊本県,熊本市中央区,古大工町,クマモトケン,クマモトシチュウオウク,フルダイクマチ,熊本県熊本市中央区古大工町
8600037,熊本県,熊本市中央区,西阿弥陀寺町,クマモトケン,クマモトシチュウオウク,ニシアミダジマチ,熊本県熊本市中央区西阿弥陀寺町
8600038,熊本県,熊本市中央区,古桶屋町,クマモトケン,クマモトシチュウオウク,フルオケヤマチ,熊本県熊本市中央区古桶屋町
8600039,熊本県,熊本市中央区,川端町,クマモトケン,クマモトシチュウオウク,カワバタマチ,熊本県熊本市中央区川端町
8600041,熊本県,熊本市中央区,細工町,クマモトケン,クマモトシチュウオウク,サイクマチ,熊本県熊本市中央区細工町
8600042,熊本県,熊本市中央区,小沢町,クマモトケン,クマモトシチュウオウク,コザワマチ,熊本県熊本市中央区小沢町
8600043,熊本県,熊本市中央区,板屋町,クマモトケン,クマモトシチュウオウク,イタヤマチ,熊本県熊本市中央区板屋町
8600044,熊本県,熊本市西区,谷尾崎町,クマモトケン,クマモトシニシク,タニオザキマチ,熊本県熊本市西区谷尾崎町
8600045,熊本県,熊本市西区,戸坂町,クマモトケン,クマモトシニシク,トサカマチ,熊本県熊本市西区戸坂町
8600046,熊本県,熊本市中央区,横手,クマモトケン,クマモトシチュウオウク,ヨコテ,熊本県熊本市中央区横手
8600046,熊本県,熊本市西区,横手,クマモトケン,クマモトシニシク,ヨコテ,熊本県熊本市西区横手
8600047,熊本県,熊本市西区,春日,クマモトケン,クマモトシニシク,カスガ,熊本県熊本市西区春日
8600048,熊本県,熊本市西区,池上町,クマモトケン,クマモトシニシク,イケノウエマチ,熊本県熊本市西区池上町
8600051,熊本県,熊本市西区,二本木,クマモトケン,クマモトシニシク,ニホンギ,熊本県熊本市西区二本木
8600052,熊本県,熊本市西区,田崎本町,クマモトケン,クマモトシニシク,タサキホンマチ,熊本県熊本市西区田崎本町
8600053,熊本県,熊本市西区,田崎,クマモトケン,クマモトシニシク,タサキ,熊本県熊本市西区田崎
8600054,熊本県,熊本市西区,八島,クマモトケン,クマモトシニシク,ヤシマ,熊本県熊本市西区八島
8600055,熊本県,熊本市西区,蓮台寺,クマモトケン,クマモトシニシク,レンダイジ,熊本県熊本市西区蓮台寺
8600056,熊本県,熊本市西区,新土河原,クマモトケン,クマモトシニシク,シントガワラ,熊本県熊本市西区新土河原
8600057,熊本県,熊本市西区,八島町,クマモトケン,クマモトシニシク,ヤシママチ,熊本県熊本市西区八島町
8600058,熊本県,熊本市西区,田崎町,クマモトケン,クマモトシニシク,タサキマチ,熊本県熊本市西区田崎町
8600059,熊本県,熊本市西区,野中,クマモトケン,クマモトシニシク,ノナカ,熊本県熊本市西区野中
8600061,熊本県,熊本市西区,上高橋,クマモトケン,クマモトシニシク,カミタカハシ,熊本県熊本市西区上高橋
8600062,熊本県,熊本市西区,高橋町,クマモトケン,クマモトシニシク,タカハシマチ,熊本県熊本市西区高橋町
8600063,熊本県,熊本市西区,城山上代町,クマモトケン,クマモトシニシク,ジョウザンカミダイマチ,熊本県熊本市西区城山上代町
8600064,熊本県,熊本市西区,城山半田,クマモトケン,クマモトシニシク,ジョウザンハンダ,熊本県熊本市西区城山半田
8600065,熊本県,熊本市西区,城山薬師,クマモトケン,クマモトシニシク,ジョウザンヤクシ,熊本県熊本市西区城山薬師
8600066,熊本県,熊本市西区,城山下代,クマモトケン,クマモトシニシク,ジョウザンシモダイ,熊本県熊本市西区城山下代
8600067,熊本県,熊本市西区,城山大塘,クマモトケン,クマモトシニシク,ジョウザンオオドモ,熊本県熊本市西区城山大塘
8600068,熊本県,熊本市西区,上代,クマモトケン,クマモトシニシク,カミダイ,熊本県熊本市西区上代
8600071,熊本県,熊本市西区,池亀町,クマモトケン,クマモトシニシク,イケガメマチ,熊本県熊本市西区池亀町
8600072,熊本県,熊本市西区,花園,クマモトケン,クマモトシニシク,ハナゾノ,熊本県熊本市西区花園
8600073,熊本県,熊本市中央区,島崎,クマモトケン,クマモトシチュウオウク,シマサキ,熊本県熊本市中央区島崎
8600073,熊本県,熊本市西区,島崎,クマモトケン,クマモトシニシク,シマサキ,熊本県熊本市西区島崎
8600074,熊本県,熊本市西区,出町,クマモトケン,クマモトシニシク,デマチ,熊本県熊本市西区出町
8600075,熊本県,熊本市西区,稗田町,クマモトケン,クマモトシニシク,ヒエダマチ,熊本県熊本市西区稗田町
8600076,熊本県,熊本市中央区,壺川,クマモトケン,クマモトシチュウオウク,コセン,熊本県熊本市中央区壺川
8600077,熊本県,熊本市中央区,内坪井町,クマモトケン,クマモトシチュウオウク,ウチツボイマチ,熊本県熊本市中央区内坪井町
8600078,熊本県,熊本市中央区,京町,クマモトケン,クマモトシチュウオウク,キョウマチ,熊本県熊本市中央区京町
8600079,熊本県,熊本市西区,上熊本,クマモトケン,クマモトシニシク,カミクマモト,熊本県熊本市西区上熊本
8600081,熊本県,熊本市中央区,京町本丁,クマモトケン,クマモトシチュウオウク,キョウマチホンチョウ,熊本県熊本市中央区京町本丁
8600081,熊本県,熊本市西区,京町本丁,クマモトケン,クマモトシニシク,キョウマチホンチョウ,熊本県熊本市西区京町本丁
8600082,熊本県,熊本市北区,池田,クマモトケン,クマモトシキタク,イケダ,熊本県熊本市北区池田
8600082,熊本県,熊本市西区,池田,クマモトケン,クマモトシニシク,イケダ,熊本県熊本市西区池田
8600083,熊本県,熊本市北区,大窪,クマモトケン,クマモトシキタク,オオクボ,熊本県熊本市北区大窪
8600084,熊本県,熊本市北区,山室,クマモトケン,クマモトシキタク,ヤマムロ,熊本県熊本市北区山室
8600085,熊本県,熊本市北区,高平,クマモトケン,クマモトシキタク,タカヒラ,熊本県熊本市北区高平
8600086,熊本県,熊本市北区,打越町,クマモトケン,クマモトシキタク,ウチゴシマチ,熊本県熊本市北区打越町
8600087,熊本県,熊本市北区,清水町打越,クマモトケン,クマモトシキタク,シミズマチウチゴシ,熊本県熊本市北区清水町打越
8600088,熊本県,熊本市北区,津浦町,クマモトケン,クマモトシキタク,ツノウラマチ,熊本県熊本市北区津浦町
8600088,熊本県,熊本市西区,津浦町,クマモトケン,クマモトシニシク,ツノウラマチ,熊本県熊本市西区津浦町
8600801,熊本県,熊本市中央区,安政町,クマモトケン,クマモトシチュウオウク,アンセイマチ,熊本県熊本市中央区安政町
8600802,熊本県,熊本市中央区,中央街,クマモトケン,クマモトシチュウオウク,チュウオウガイ,熊本県熊本市中央区中央街
8600803,熊本県,熊本市中央区,新市街,クマモトケン,クマモトシチュウオウク,シンシガイ,熊本県熊本市中央区新市街
8600804,熊本県,熊本市中央区,辛島町,クマモトケン,クマモトシチュウオウク,カラシマチョウ,熊本県熊本市中央区辛島町
8600805,熊本県,熊本市中央区,桜町,クマモトケン,クマモトシチュウオウク,サクラマチ,熊本県熊本市中央区桜町
8600806,熊本県,熊本市中央区,花畑町,クマモトケン,クマモトシチュウオウク,ハナバタチョウ,熊本県熊本市中央区花畑町
8600807,熊本県,熊本市中央区,下通,クマモトケン,クマモトシチュウオウク,シモトオリ,熊本県熊本市中央区下通
8600808,熊本県,熊本市中央区,手取本町,クマモトケン,クマモトシチュウオウク,テトリホンチョウ,熊本県熊本市中央区手取本町
8600811,熊本県,熊本市中央区,本荘,クマモトケン,クマモトシチュウオウク,ホンジョウ,熊本県熊本市中央区本荘
8600812,熊本県,熊本市中央区,南熊本,クマモトケン,クマモトシチュウオウク,ミナミクマモト,熊本県熊本市中央区南熊本
8600813,熊本県,熊本市中央区,琴平,クマモトケン,クマモトシチュウオウク,コトヒラ,熊本県熊本市中央区琴平
8600814,熊本県,熊本市中央区,琴平本町,クマモトケン,クマモトシチュウオウク,コトヒラホンマチ,熊本県熊本市中央区琴平本町
8600815,熊本県,熊本市中央区,春竹町,クマモトケン,クマモトシチュウオウク,ハルタケマチ,熊本県熊本市中央区春竹町
8600816,熊本県,熊本市中央区,本荘町,クマモトケン,クマモトシチュウオウク,ホンジョウマチ,熊本県熊本市中央区本荘町
8600817,熊本県,熊本市中央区,迎町,クマモトケン,クマモトシチュウオウク,ムカエマチ,熊本県熊本市中央区迎町
8600818,熊本県,熊本市中央区,弥生町,クマモトケン,クマモトシチュウオウク,ヤヨイチョウ,熊本県熊本市中央区弥生町
8600821,熊本県,熊本市中央区,本山,クマモトケン,クマモトシチュウオウク,モトヤマ,熊本県熊本市中央区本山
8600822,熊本県,熊本市中央区,本山町,クマモトケン,クマモトシチュウオウク,モトヤママチ,熊本県熊本市中央区本山町
8600823,熊本県,熊本市中央区,世安町,クマモトケン,クマモトシチュウオウク,ヨヤスマチ,熊本県熊本市中央区世安町
8600824,熊本県,熊本市中央区,十禅寺,クマモトケン,クマモトシチュウオウク,ジュウゼンジ,熊本県熊本市中央区十禅寺
8600824,熊本県,熊本市南区,十禅寺,クマモトケン,クマモトシミナミク,ジュウゼンジ,熊本県熊本市南区十禅寺
8600826,熊本県,熊本市南区,平田,クマモトケン,クマモトシミナミク,ヒラタ,熊本県熊本市南区平田
8600827,熊本県,熊本市中央区,世安,クマモトケン,クマモトシチュウオウク,ヨヤス,熊本県熊本市中央区世安
8600831,熊本県,熊本市中央区,八王寺町,クマモトケン,クマモトシチュウオウク,ハチオウジマチ,熊本県熊本市中央区八王寺町
8600831,熊本県,熊本市南区,八王寺町,クマモトケン,クマモトシミナミク,ハチオウジマチ,熊本県熊本市南区八王寺町
8600832,熊本県,熊本市中央区,萩原町,クマモトケン,クマモトシチュウオウク,ハギワラマチ,熊本県熊本市中央区萩原町
8600833,熊本県,熊本市中央区,平成,クマモトケン,クマモトシチュウオウク,ヘイセイ,熊本県熊本市中央区平成
8600833,熊本県,熊本市南区,平成,クマモトケン,クマモトシミナミク,ヘイセイ,熊本県熊本市南区平成
8600834,熊本県,熊本市南区,江越,クマモトケン,クマモトシミナミク,エゴエ,熊本県熊本市南区江越
8600841,熊本県,熊本市中央区,井川淵町,クマモトケン,クマモトシチュウオウク,イガワブチマチ,熊本県熊本市中央区井川淵町
8600842,熊本県,熊本市中央区,南千反畑町,クマモトケン,クマモトシチュウオウク,ミナミセンダンバタマチ,熊本県熊本市中央区南千反畑町
8600843,熊本県,熊本市中央区,草葉町,クマモトケン,クマモトシチュウオウク,クサバチョウ,熊本県熊本市中央区草葉町
8600844,熊本県,熊本市中央区,水道町,クマモトケン,クマモトシチュウオウク,スイドウチョウ,熊本県熊本市中央区水道町
8600845,熊本県,熊本市中央区,上通町,クマモトケン,クマモトシチュウオウク,カミトオリチョウ,熊本県熊本市中央区上通町
8600846,熊本県,熊本市中央区,城東町,クマモトケン,クマモトシチュウオウク,ジョウトウマチ,熊本県熊本市中央区城東町
8600847,熊本県,熊本市中央区,上林町,クマモトケン,クマモトシチュウオウク,カミバヤシマチ,熊本県熊本市中央区上林町
8600848,熊本県,熊本市中央区,南坪井町,クマモトケン,クマモトシチュウオウク,ミナミツボイマチ,熊本県熊本市中央区南坪井町
8600851,熊本県,熊本市中央区,子飼本町,クマモトケン,クマモトシチュウオウク,コカイホンマチ,熊本県熊本市中央区子飼本町
8600852,熊本県,熊本市中央区,薬園町,クマモトケン,クマモトシチュウオウク,ヤクエンチョウ,熊本県熊本市中央区薬園町
8600853,熊本県,熊本市中央区,西子飼町,クマモトケン,クマモトシチュウオウク,ニシコカイマチ,熊本県熊本市中央区西子飼町
8600854,熊本県,熊本市中央区,東子飼町,クマモトケン,クマモトシチュウオウク,ヒガシコカイマチ,熊本県熊本市中央区東子飼町
8600855,熊本県,熊本市中央区,北千反畑町,クマモトケン,クマモトシチュウオウク,キタセンダンバタマチ,熊本県熊本市中央区北千反畑町
8600856,熊本県,熊本市中央区,妙体寺町,クマモトケン,クマモトシチュウオウク,ミョウタイジマチ,熊本県熊本市中央区妙体寺町
8600861,熊本県,熊本市北区,黒髪町坪井,クマモトケン,クマモトシキタク,クロカミマチツボイ,熊本県熊本市北区黒髪町坪井
8600862,熊本県,熊本市中央区,黒髪,クマモトケン,クマモトシチュウオウク,クロカミ,熊本県熊本市中央区黒髪
8600862,熊本県,熊本市北区,黒髪,クマモトケン,クマモトシキタク,クロカミ,熊本県熊本市北区黒髪
8600863,熊本県,熊本市中央区,坪井,クマモトケン,クマモトシチュウオウク,ツボイ,熊本県熊本市中央区坪井
8610000,熊本県,熊本市中央区,,クマモトケン,クマモトシチュウオウク,,熊本県熊本市中央区
8610000,熊本県,熊本市北区,,クマモトケン,クマモトシキタク,,熊本県熊本市北区
8610000,熊本県,熊本市南区,,クマモトケン,クマモトシミナミク,,熊本県熊本市南区
8610000,熊本県,熊本市東区,,クマモトケン,クマモトシヒガシク,,熊本県熊本市東区
8610000,熊本県,熊本市西区,,クマモトケン,クマモトシニシク,,熊本県熊本市西区
8610101,熊本県,熊本市北区,植木町山本,クマモトケン,クマモトシキタク,ウエキマチヤマモト,熊本県熊本市北区植木町山本
8610102,熊本県,熊本市北区,植木町内,クマモトケン,クマモトシキタク,ウエキマチウチ,熊本県熊本市北区植木町内
8610103,熊本県,熊本市北区,植木町清水,クマモトケン,クマモトシキタク,ウエキマチキヨミズ,熊本県熊本市北区植木町清水
8610104,熊本県,熊本市北区,植木町今藤,クマモトケン,クマモトシキタク,ウエキマチイマフジ,熊本県熊本市北区植木町今藤
8610105,熊本県,熊本市北区,植木町味取,クマモトケン,クマモトシキタク,ウエキマチミトリ,熊本県熊本市北区植木町味取
8610106,熊本県,熊本市北区,植木町豊田,クマモトケン,クマモトシキタク,ウエキマチトヨダ,熊本県熊本市北区植木町豊田
8610111,熊本県,熊本市北区,植木町宮原,クマモトケン,クマモトシキタク,ウエキマチミヤバル,熊本県熊本市北区植木町宮原
8610112,熊本県,熊本市北区,植木町田底,クマモトケン,クマモトシキタク,ウエキマチタソコ,熊本県熊本市北区植木町田底
8610113,熊本県,熊本市北区,植木町伊知坊,クマモトケン,クマモトシキタク,ウエキマチイチボウ,熊本県熊本市北区植木町伊知坊
8610114,熊本県,熊本市北区,植木町舟島,クマモトケン,クマモトシキタク,ウエキマチフナジマ,熊本県熊本市北区植木町舟島
8610115,熊本県,熊本市北区,植木町米塚,クマモトケン,クマモトシキタク,ウエキマチヨネツカ,熊本県熊本市北区植木町米塚
8610116,熊本県,熊本市北区,植木町色出,クマモトケン,クマモトシキタク,ウエキマチシキデ,熊本県熊本市北区植木町色出
8610117,熊本県,熊本市北区,植木町正清,クマモトケン,クマモトシキタク,ウエキマチショウセイ,熊本県熊本市北区植木町正清
8610121,熊本県,熊本市北区,植木町平井,クマモトケン,クマモトシキタク,ウエキマチヒライ,熊本県熊本市北区植木町平井
8610122,熊本県,熊本市北区,植木町古閑,クマモトケン,クマモトシキタク,ウエキマチコガ,熊本県熊本市北区植木町古閑
8610123,熊本県,熊本市北区,植木町有泉,クマモトケン,クマモトシキタク,ウエキマチアリズミ,熊本県熊本市北区植木町有泉
8610124,熊本県,熊本市北区,植木町石川,クマモトケン,クマモトシキタク,ウエキマチイシカワ,熊本県熊本市北区植木町石川
8610125,熊本県,熊本市北区,植木町小野,クマモトケン,クマモトシキタク,ウエキマチオノ,熊本県熊本市北区植木町小野
8610126,熊本県,熊本市北区,植木町大井,クマモトケン,クマモトシキタク,ウエキマチオオイ,熊本県熊本市北区植木町大井
8610127,熊本県,熊本市北区,植木町亀甲,クマモトケン,クマモトシキタク,ウエキマチカメコウ,熊本県熊本市北区植木町亀甲
8610131,熊本県,熊本市北区,植木町広住,クマモトケン,クマモトシキタク,ウエキマチヒロズミ,熊本県熊本市北区植木町広住
8610132,熊本県,熊本市北区,植木町植木,クマモトケン,クマモトシキタク,ウエキマチウエキ,熊本県熊本市北区植木町植木
8610133,熊本県,熊本市北区,植木町滴水,クマモトケン,クマモトシキタク,ウエキマチタルミズ,熊本県熊本市北区植木町滴水
8610134,熊本県,熊本市北区,植木町舞尾,クマモトケン,クマモトシキタク,ウエキマチモウノ,熊本県熊本市北区植木町舞尾
8610135,熊本県,熊本市北区,植木町一木,クマモトケン,クマモトシキタク,ウエキマチヒトツギ,熊本県熊本市北区植木町一木
8610136,熊本県,熊本市北区,植木町岩野,クマモトケン,クマモトシキタク,ウエキマチイワノ,熊本県熊本市北区植木町岩野
8610141,熊本県,熊本市北区,植木町投刀塚,クマモトケン,クマモトシキタク,ウエキマチナタツカ,熊本県熊本市北区植木町投刀塚
8610142,熊本県,熊本市北区,植木町鐙田,クマモトケン,クマモトシキタク,ウエキマチアブミダ,熊本県熊本市北区植木町鐙田
8610143,熊本県,熊本市北区,植木町大和,クマモトケン,クマモトシキタク,ウエキマチダイワ,熊本県熊本市北区植木町大和
8610144,熊本県,熊本市北区,植木町平野,クマモトケン,クマモトシキタク,ウエキマチヒラノ,熊本県熊本市北区植木町平野
8610145,熊本県,熊本市北区,植木町荻迫,クマモトケン,クマモトシキタク,ウエキマチオギサコ,熊本県熊本市北区植木町荻迫
8610146,熊本県,熊本市北区,植木町辺田野,クマモトケン,クマモトシキタク,ウエキマチヘタノ,熊本県熊本市北区植木町辺田野
8610151,熊本県,熊本市北区,植木町木留,クマモトケン,クマモトシキタク,ウエキマチキトメ,熊本県熊本市北区植木町木留
8610152,熊本県,熊本市北区,植木町上古閑,クマモトケン,クマモトシキタク,ウエキマチウエコガ,熊本県熊本市北区植木町上古閑
8610153,熊本県,熊本市北区,植木町円台寺,クマモトケン,クマモトシキタク,ウエキマチエンダイジ,熊本県熊本市北区植木町円台寺
8610154,熊本県,熊本市北区,植木町那知,クマモトケン,クマモトシキタク,ウエキマチナチ,熊本県熊本市北区植木町那知
8610155,熊本県,熊本市北区,植木町轟,クマモトケン,クマモトシキタク,ウエキマチトドロキ,熊本県熊本市北区植木町轟
8610156,熊本県,熊本市北区,植木町後古閑,クマモトケン,クマモトシキタク,ウエキマチウシロコガ,熊本県熊本市北区植木町後古閑
8610161,熊本県,熊本市北区,植木町鞍掛,クマモトケン,クマモトシキタク,ウエキマチクラカケ,熊本県熊本市北区植木町鞍掛
8610162,熊本県,熊本市北区,植木町富応,クマモトケン,クマモトシキタク,ウエキマチトミオウ,熊本県熊本市北区植木町富応
8610163,熊本県,熊本市北区,植木町豊岡,クマモトケン,クマモトシキタク,ウエキマチトヨオカ,熊本県熊本市北区植木町豊岡
8610164,熊本県,熊本市北区,植木町鈴麦,クマモトケン,クマモトシキタク,ウエキマチスズムギ,熊本県熊本市北区植木町鈴麦
8610165,熊本県,熊本市北区,植木町平原,クマモトケン,クマモトシキタク,ウエキマチヒラバル,熊本県熊本市北区植木町平原
8610301,熊本県,山鹿市,鹿本町庄,クマモトケン,ヤマガシ,カモトマチショウ,熊本県山鹿市鹿本町庄
8610302,熊本県,山鹿市,鹿本町津袋,クマモトケン,ヤマガシ,カモトマチツブクロ,熊本県山鹿市鹿本町津袋
8610303,熊本県,山鹿市,鹿本町高橋,クマモトケン,ヤマガシ,カモトマチタカハシ,熊本県山鹿市鹿本町高橋
8610304,熊本県,山鹿市,鹿本町御宇田,クマモトケン,ヤマガシ,カモトマチミウタ,熊本県山鹿市鹿本町御宇田
8610311,熊本県,山鹿市,鹿本町石渕,クマモトケン,ヤマガシ,カモトマチイシブチ,熊本県山鹿市鹿本町石渕
8610312,熊本県,山鹿市,鹿本町梶屋,クマモトケン,ヤマガシ,カモトマチカジヤ,熊本県山鹿市鹿本町梶屋
8610313,熊本県,山鹿市,鹿本町中富,クマモトケン,ヤマガシ,カモトマチナカドミ,熊本県山鹿市鹿本町中富
8610314,熊本県,山鹿市,鹿本町中川,クマモトケン,ヤマガシ,カモトマチナカガワ,熊本県山鹿市鹿本町中川
8610315,熊本県,山鹿市,鹿本町小嶋,クマモトケン,ヤマガシ,カモトマチオシマ,熊本県山鹿市鹿本町小嶋
8610316,熊本県,山鹿市,鹿本町下高橋,クマモトケン,ヤマガシ,カモトマチシモタカハシ,熊本県山鹿市鹿本町下高橋
8610321,熊本県,山鹿市,鹿本町分田,クマモトケン,ヤマガシ,カモトマチブンダ,熊本県山鹿市鹿本町分田
8610322,熊本県,山鹿市,鹿本町中分田,クマモトケン,ヤマガシ,カモトマチナカブンダ,熊本県山鹿市鹿本町中分田
8610323,熊本県,山鹿市,鹿本町下分田,クマモトケン,ヤマガシ,カモトマチシモブンダ,熊本県山鹿市鹿本町下分田
8610324,熊本県,山鹿市,鹿本町小柳,クマモトケン,ヤマガシ,カモトマチコヤナギ,熊本県山鹿市鹿本町小柳
8610331,熊本県,山鹿市,鹿本町来民,クマモトケン,ヤマガシ,カモトマチクタミ,熊本県山鹿市鹿本町来民
8610381,熊本県,山鹿市,藤井,クマモトケン,ヤマガシ,フジイ,熊本県山鹿市藤井
8610382,熊本県,山鹿市,方保田,クマモトケン,ヤマガシ,カトウダ,熊本県山鹿市方保田
8610401,熊本県,山鹿市,菊鹿町長,クマモトケン,ヤマガシ,キクカマチナガ,熊本県山鹿市菊鹿町長
8610402,熊本県,山鹿市,菊鹿町太田,クマモトケン,ヤマガシ,キクカマチオオダ,熊本県山鹿市菊鹿町太田
8610403,熊本県,山鹿市,菊鹿町五郎丸,クマモトケン,ヤマガシ,キクカマチゴロウマル,熊本県山鹿市菊鹿町五郎丸
8610404,熊本県,山鹿市,菊鹿町上永野,クマモトケン,ヤマガシ,キクカマチカミナガノ,熊本県山鹿市菊鹿町上永野
8610405,熊本県,山鹿市,菊鹿町下永野,クマモトケン,ヤマガシ,キクカマチシモナガノ,熊本県山鹿市菊鹿町下永野
8610406,熊本県,山鹿市,菊鹿町下内田,クマモトケン,ヤマガシ,キクカマチシモウチダ,熊本県山鹿市菊鹿町下内田
8610411,熊本県,山鹿市,菊鹿町山内,クマモトケン,ヤマガシ,キクカマチヤマウチ,熊本県山鹿市菊鹿町山内
8610412,熊本県,山鹿市,菊鹿町相良,クマモトケン,ヤマガシ,キクカマチアイラ,熊本県山鹿市菊鹿町相良
8610413,熊本県,山鹿市,菊鹿町矢谷,クマモトケン,ヤマガシ,キクカマチヤタニ,熊本県山鹿市菊鹿町矢谷
8610414,熊本県,山鹿市,菊鹿町上内田,クマモトケン,ヤマガシ,キクカマチカミウチダ,熊本県山鹿市菊鹿町上内田
8610421,熊本県,山鹿市,菊鹿町阿佐古,クマモトケン,ヤマガシ,キクカマチアサゴ,熊本県山鹿市菊鹿町阿佐古
8610422,熊本県,山鹿市,菊鹿町宮原,クマモトケン,ヤマガシ,キクカマチミヤノハル,熊本県山鹿市菊鹿町宮原
8610423,熊本県,山鹿市,菊鹿町池永,クマモトケン,ヤマガシ,キクカマチイケナガ,熊本県山鹿市菊鹿町池永
8610424,熊本県,山鹿市,菊鹿町松尾,クマモトケン,ヤマガシ,キクカマチマツオ,熊本県山鹿市菊鹿町松尾
8610425,熊本県,山鹿市,菊鹿町米原,クマモトケン,ヤマガシ,キクカマチヨナバル,熊本県山鹿市菊鹿町米原
8610426,熊本県,山鹿市,菊鹿町木野,クマモトケン,ヤマガシ,キクカマチキノ,熊本県山鹿市菊鹿町木野
8610500,熊本県,山鹿市,,クマモトケン,ヤマガシ,,熊本県山鹿市
8610501,熊本県,山鹿市,山鹿,クマモトケン,ヤマガシ,ヤマガ,熊本県山鹿市山鹿
8610511,熊本県,山鹿市,熊入町,クマモトケン,ヤマガシ,クマイリマチ,熊本県山鹿市熊入町
8610512,熊本県,山鹿市,泉町,クマモトケン,ヤマガシ,イズミマチ,熊本県山鹿市泉町
8610513,熊本県,山鹿市,宗方,クマモトケン,ヤマガシ,ムナカタ,熊本県山鹿市宗方
8610514,熊本県,山鹿市,新町,クマモトケン,ヤマガシ,シンマチ,熊本県山鹿市新町
8610515,熊本県,山鹿市,昭和町,クマモトケン,ヤマガシ,ショウワマチ,熊本県山鹿市昭和町
8610516,熊本県,山鹿市,中央通,クマモトケン,ヤマガシ,チュウオウドオリ,熊本県山鹿市中央通
8610517,熊本県,山鹿市,大橋通,クマモトケン,ヤマガシ,オオハシドオリ,熊本県山鹿市大橋通
8610518,熊本県,山鹿市,宗方通,クマモトケン,ヤマガシ,ムナカタドオリ,熊本県山鹿市宗方通
8610519,熊本県,山鹿市,川端町,クマモトケン,ヤマガシ,カワバタマチ,熊本県山鹿市川端町
8610521,熊本県,山鹿市,小坂,クマモトケン,ヤマガシ,オサカ,熊本県山鹿市小坂
8610522,熊本県,山鹿市,久原,クマモトケン,ヤマガシ,クバル,熊本県山鹿市久原
8610523,熊本県,山鹿市,蒲生,クマモトケン,ヤマガシ,カモウ,熊本県山鹿市蒲生
8610524,熊本県,山鹿市,上吉田,クマモトケン,ヤマガシ,カミヨシダ,熊本県山鹿市上吉田
8610525,熊本県,山鹿市,名塚,クマモトケン,ヤマガシ,ナヅカ,熊本県山鹿市名塚
8610526,熊本県,山鹿市,下吉田,クマモトケン,ヤマガシ,シモヨシダ,熊本県山鹿市下吉田
8610527,熊本県,山鹿市,寺島,クマモトケン,ヤマガシ,テラジマ,熊本県山鹿市寺島
8610531,熊本県,山鹿市,中,クマモトケン,ヤマガシ,ナカ,熊本県山鹿市中
8610532,熊本県,山鹿市,鹿校通,クマモトケン,ヤマガシ,カコウトオリ,熊本県山鹿市鹿校通
8610533,熊本県,山鹿市,古閑,クマモトケン,ヤマガシ,コガ,熊本県山鹿市古閑
8610534,熊本県,山鹿市,長坂,クマモトケン,ヤマガシ,ナガサカ,熊本県山鹿市長坂
8610535,熊本県,山鹿市,南島,クマモトケン,ヤマガシ,ミナミジマ,熊本県山鹿市南島
8610541,熊本県,山鹿市,鍋田,クマモトケン,ヤマガシ,ナベタ,熊本県山鹿市鍋田
8610542,熊本県,山鹿市,志々岐,クマモトケン,ヤマガシ,シジキ,熊本県山鹿市志々岐
8610543,熊本県,山鹿市,小原,クマモトケン,ヤマガシ,オバル,熊本県山鹿市小原
8610544,熊本県,山鹿市,保多田,クマモトケン,ヤマガシ,ホダタ,熊本県山鹿市保多田
8610545,熊本県,山鹿市,西牧,クマモトケン,ヤマガシ,ニシマキ,熊本県山鹿市西牧
8610546,熊本県,山鹿市,坂田,クマモトケン,ヤマガシ,サカダ,熊本県山鹿市坂田
8610547,熊本県,山鹿市,麻生野,クマモトケン,ヤマガシ,アゾノ,熊本県山鹿市麻生野
8610548,熊本県,山鹿市,椿井,クマモトケン,ヤマガシ,ツバイ,熊本県山鹿市椿井
8610551,熊本県,山鹿市,津留,クマモトケン,ヤマガシ,ツル,熊本県山鹿市津留
8610552,熊本県,山鹿市,杉,クマモトケン,ヤマガシ,スギ,熊本県山鹿市杉
8610553,熊本県,山鹿市,石,クマモトケン,ヤマガシ,イシ,熊本県山鹿市石
8610554,熊本県,山鹿市,城,クマモトケン,ヤマガシ,ジョウ,熊本県山鹿市城
8610555,熊本県,山鹿市,小群,クマモトケン,ヤマガシ,オムレ,熊本県山鹿市小群
8610556,熊本県,山鹿市,平山,クマモトケン,ヤマガシ,ヒラヤマ,熊本県山鹿市平山
8610561,熊本県,山鹿市,鹿央町岩原,クマモトケン,ヤマガシ,カオウマチイワバル,熊本県山鹿市鹿央町岩原
8610562,熊本県,山鹿市,鹿央町持松,クマモトケン,ヤマガシ,カオウマチモチマツ,熊本県山鹿市鹿央町持松
8610563,熊本県,山鹿市,鹿央町千田,クマモトケン,ヤマガシ,カオウマチチダ,熊本県山鹿市鹿央町千田
8610564,熊本県,山鹿市,鹿央町広,クマモトケン,ヤマガシ,カオウマチヒロ,熊本県山鹿市鹿央町広
8610565,熊本県,山鹿市,鹿央町合里,クマモトケン,ヤマガシ,カオウマチアイザト,熊本県山鹿市鹿央町合里
8610571,熊本県,山鹿市,鹿央町北谷,クマモトケン,ヤマガシ,カオウマチキタダニ,熊本県山鹿市鹿央町北谷
8610572,熊本県,山鹿市,鹿央町仁王堂,クマモトケン,ヤマガシ,カオウマチニオウドウ,熊本県山鹿市鹿央町仁王堂
8610573,熊本県,山鹿市,鹿央町霜野,クマモトケン,ヤマガシ,カオウマチシモノ,熊本県山鹿市鹿央町霜野
8610574,熊本県,山鹿市,鹿央町梅木谷,クマモトケン,ヤマガシ,カオウマチウメノキダニ,熊本県山鹿市鹿央町梅木谷
8610575,熊本県,山鹿市,鹿央町中浦,クマモトケン,ヤマガシ,カオウマチチュウノウラ,熊本県山鹿市鹿央町中浦
8610576,熊本県,山鹿市,鹿央町大浦,クマモトケン,ヤマガシ,カオウマチオオウラ,熊本県山鹿市鹿央町大浦
8610601,熊本県,山鹿市,鹿北町四丁,クマモトケン,ヤマガシ,カホクマチシチョウ,熊本県山鹿市鹿北町四丁
8610602,熊本県,山鹿市,鹿北町芋生,クマモトケン,ヤマガシ,カホクマチイモウ,熊本県山鹿市鹿北町芋生
8610603,熊本県,山鹿市,鹿北町岩野,クマモトケン,ヤマガシ,カホクマチイワノ,熊本県山鹿市鹿北町岩野
8610604,熊本県,山鹿市,鹿北町椎持,クマモトケン,ヤマガシ,カホクマチシイモチ,熊本県山鹿市鹿北町椎持
8610605,熊本県,山鹿市,鹿北町多久,クマモトケン,ヤマガシ,カホクマチタク,熊本県山鹿市鹿北町多久
8610800,熊本県,玉名郡南関町,,クマモトケン,タマナグンナンカンマチ,,熊本県玉名郡南関町
8610801,熊本県,玉名郡南関町,関外目,クマモトケン,タマナグンナンカンマチ,セキホカメ,熊本県玉名郡南関町関外目
8610802,熊本県,玉名郡南関町,関東,クマモトケン,タマナグンナンカンマチ,セキヒガシ,熊本県玉名郡南関町関東
8610803,熊本県,玉名郡南関町,関町,クマモトケン,タマナグンナンカンマチ,セキマチ,熊本県玉名郡南関町関町
8610804,熊本県,玉名郡南関町,関村,クマモトケン,タマナグンナンカンマチ,セキムラ,熊本県玉名郡南関町関村
8610805,熊本県,玉名郡南関町,関下,クマモトケン,タマナグンナンカンマチ,セキシモ,熊本県玉名郡南関町関下
8610811,熊本県,玉名郡南関町,小原,クマモトケン,タマナグンナンカンマチ,コバル,熊本県玉名郡南関町小原
8610812,熊本県,玉名郡南関町,相谷,クマモトケン,タマナグンナンカンマチ,アイノタニ,熊本県玉名郡南関町相谷
8610813,熊本県,玉名郡南関町,肥猪町,クマモトケン,タマナグンナンカンマチ,コエイマチ,熊本県玉名郡南関町肥猪町
8610814,熊本県,玉名郡南関町,肥猪,クマモトケン,タマナグンナンカンマチ,コエイ,熊本県玉名郡南関町肥猪
8610815,熊本県,玉名郡南関町,豊永,クマモトケン,タマナグンナンカンマチ,トヨナガ,熊本県玉名郡南関町豊永
8610821,熊本県,玉名郡南関町,下坂下,クマモトケン,タマナグンナンカンマチ,シモサカシタ,熊本県玉名郡南関町下坂下
8610822,熊本県,玉名郡南関町,上坂下,クマモトケン,タマナグンナンカンマチ,カミサカシタ,熊本県玉名郡南関町上坂下
8610823,熊本県,玉名郡南関町,四ツ原,クマモトケン,タマナグンナンカンマチ,ヨツハラ,熊本県玉名郡南関町四ツ原
8610831,熊本県,玉名郡南関町,細永,クマモトケン,タマナグンナンカンマチ,ホソナガ,熊本県玉名郡南関町細永
8610832,熊本県,玉名郡南関町,今,クマモトケン,タマナグンナンカンマチ,イマ,熊本県玉名郡南関町今
8610833,熊本県,玉名郡南関町,高久野,クマモトケン,タマナグンナンカンマチ,タカクノ,熊本県玉名郡南関町高久野
8610834,熊本県,玉名郡南関町,宮尾,クマモトケン,タマナグンナンカンマチ,ミヤオ,熊本県玉名郡南関町宮尾
8610835,熊本県,玉名郡南関町,長山,クマモトケン,タマナグンナンカンマチ,ナガヤマ,熊本県玉名郡南関町長山
8610836,熊本県,玉名郡南関町,久重,クマモトケン,タマナグンナンカンマチ,クシゲ,熊本県玉名郡南関町久重
8610837,熊本県,玉名郡南関町,上長田,クマモトケン,タマナグンナンカンマチ,カミナガタ,熊本県玉名郡南関町上長田
8610901,熊本県,玉名郡和水町,上和仁,クマモトケン,タマナグンナゴミマチ,カミワニ,熊本県玉名郡和水町上和仁
8610902,熊本県,玉名郡和水町,中和仁,クマモトケン,タマナグンナゴミマチ,ナカワニ,熊本県玉名郡和水町中和仁
8610903,熊本県,玉名郡和水町,和仁,クマモトケン,タマナグンナゴミマチ,ワニ,熊本県玉名郡和水町和仁
8610904,熊本県,玉名郡和水町,東吉地,クマモトケン,タマナグンナゴミマチ,ヒガシヨシジ,熊本県玉名郡和水町東吉地
8610905,熊本県,玉名郡和水町,中林,クマモトケン,タマナグンナゴミマチ,ナカバヤシ,熊本県玉名郡和水町中林
8610906,熊本県,玉名郡和水町,西吉地,クマモトケン,タマナグンナゴミマチ,ニシヨシジ,熊本県玉名郡和水町西吉地
8610911,熊本県,玉名郡和水町,上十町,クマモトケン,タマナグンナゴミマチ,カミジッチョウ,熊本県玉名郡和水町上十町
8610912,熊本県,玉名郡和水町,中十町,クマモトケン,タマナグンナゴミマチ,ナカジッチョウ,熊本県玉名郡和水町中十町
8610913,熊本県,玉名郡和水町,板楠,クマモトケン,タマナグンナゴミマチ,イタクス,熊本県玉名郡和水町板楠
8610914,熊本県,玉名郡和水町,上板楠,クマモトケン,タマナグンナゴミマチ,カミイタクス,熊本県玉名郡和水町上板楠
8610915,熊本県,玉名郡和水町,山十町,クマモトケン,タマナグンナゴミマチ,ヤマジッチョウ,熊本県玉名郡和水町山十町
8610921,熊本県,玉名郡和水町,津田,クマモトケン,タマナグンナゴミマチ,ツダ,熊本県玉名郡和水町津田
8610922,熊本県,玉名郡和水町,岩,クマモトケン,タマナグンナゴミマチ,イワ,熊本県玉名郡和水町岩
8610923,熊本県,玉名郡和水町,平野,クマモトケン,タマナグンナゴミマチ,ヒラノ,熊本県玉名郡和水町平野
8610924,熊本県,玉名郡和水町,大田黒,クマモトケン,タマナグンナゴミマチ,オオタグロ,熊本県玉名郡和水町大田黒
8610925,熊本県,玉名郡和水町,野田,クマモトケン,タマナグンナゴミマチ,ノダ,熊本県玉名郡和水町野田
8611100,熊本県,合志市,,クマモトケン,コウシシ,,熊本県合志市
8611101,熊本県,合志市,合生,クマモトケン,コウシシ,アイオイ,熊本県合志市合生
8611102,熊本県,合志市,須屋,クマモトケン,コウシシ,スヤ,熊本県合志市須屋
8611103,熊本県,合志市,野々島,クマモトケン,コウシシ,ノノシマ,熊本県合志市野々島
8611104,熊本県,合志市,御代志,クマモトケン,コウシシ,ミヨシ,熊本県合志市御代志
8611105,熊本県,合志市,上生,クマモトケン,コウシシ,ワブ,熊本県合志市上生
8611111,熊本県,合志市,上庄,クマモトケン,コウシシ,カミノショウ,熊本県合志市上庄
8611112,熊本県,合志市,幾久富,クマモトケン,コウシシ,キクドミ,熊本県合志市幾久富
8611113,熊本県,合志市,栄,クマモトケン,コウシシ,サカエ,熊本県合志市栄
8611114,熊本県,合志市,竹迫,クマモトケン,コウシシ,タカバ,熊本県合志市竹迫
8611115,熊本県,合志市,豊岡,クマモトケン,コウシシ,トヨオカ,熊本県合志市豊岡
8611116,熊本県,合志市,福原,クマモトケン,コウシシ,フクハラ,熊本県合志市福原
8611201,熊本県,菊池市,泗水町吉富,クマモトケン,キクチシ,シスイマチヨシトミ,熊本県菊池市泗水町吉富
8611202,熊本県,菊池市,泗水町富納,クマモトケン,キクチシ,シスイマチトミノウ,熊本県菊池市泗水町富納
8611203,熊本県,菊池市,泗水町住吉,クマモトケン,キクチシ,シスイマチスミヨシ,熊本県菊池市泗水町住吉
8611204,熊本県,菊池市,泗水町永,クマモトケン,キクチシ,シスイマチナガ,熊本県菊池市泗水町永
8611205,熊本県,菊池市,泗水町福本,クマモトケン,キクチシ,シスイマチフクモト,熊本県菊池市泗水町福本
8611211,熊本県,菊池市,泗水町亀尾,クマモトケン,キクチシ,シスイマチカメオ,熊本県菊池市泗水町亀尾
8611212,熊本県,菊池市,泗水町豊水,クマモトケン,キクチシ,シスイマチトヨミズ,熊本県菊池市泗水町豊水
8611213,熊本県,菊池市,泗水町南田島,クマモトケン,キクチシ,シスイマチミナミタシマ,熊本県菊池市泗水町南田島
8611214,熊本県,菊池市,泗水町田島,クマモトケン,キクチシ,シスイマチタシマ,熊本県菊池市泗水町田島
8611300,熊本県,菊池市,,クマモトケン,キクチシ,,熊本県菊池市
8611301,熊本県,菊池市,木庭,クマモトケン,キクチシ,コバ,熊本県菊池市木庭
8611302,熊本県,菊池市,下河原,クマモトケン,キクチシ,シモカワハル,熊本県菊池市下河原
8611303,熊本県,菊池市,今,クマモトケン,キクチシ,イマ,熊本県菊池市今
8611304,熊本県,菊池市,深川,クマモトケン,キクチシ,フカガワ,熊本県菊池市深川
8611305,熊本県,菊池市,北宮,クマモトケン,キクチシ,キタミヤ,熊本県菊池市北宮
8611306,熊本県,菊池市,大琳寺,クマモトケン,キクチシ,ダイリンジ,熊本県菊池市大琳寺
8611307,熊本県,菊池市,片角,クマモトケン,キクチシ,カタカク,熊本県菊池市片角
8611308,熊本県,菊池市,亘,クマモトケン,キクチシ,ワタル,熊本県菊池市亘
8611309,熊本県,菊池市,藤田,クマモトケン,キクチシ,フジタ,熊本県菊池市藤田
8611311,熊本県,菊池市,赤星,クマモトケン,キクチシ,アカホシ,熊本県菊池市赤星
8611312,熊本県,菊池市,森北,クマモトケン,キクチシ,モリキタ,熊本県菊池市森北
8611313,熊本県,菊池市,出田,クマモトケン,キクチシ,イデタ,熊本県菊池市出田
8611314,熊本県,菊池市,広瀬,クマモトケン,キクチシ,ヒロセ,熊本県菊池市広瀬
8611315,熊本県,菊池市,木柑子,クマモトケン,キクチシ,キコウジ,熊本県菊池市木柑子
8611316,熊本県,菊池市,長田,クマモトケン,キクチシ,ナガタ,熊本県菊池市長田
8611317,熊本県,菊池市,村田,クマモトケン,キクチシ,ムラダ,熊本県菊池市村田
8611321,熊本県,菊池市,稗方,クマモトケン,キクチシ,ヒエガタ,熊本県菊池市稗方
8611322,熊本県,菊池市,玉祥寺,クマモトケン,キクチシ,ギョクショウジ,熊本県菊池市玉祥寺
8611323,熊本県,菊池市,西寺,クマモトケン,キクチシ,ニシデラ,熊本県菊池市西寺
8611324,熊本県,菊池市,野間口,クマモトケン,キクチシ,ノマグチ,熊本県菊池市野間口
8611325,熊本県,菊池市,袈裟尾,クマモトケン,キクチシ,ケサオ,熊本県菊池市袈裟尾
8611326,熊本県,菊池市,木野,クマモトケン,キクチシ,キノ,熊本県菊池市木野
8611331,熊本県,菊池市,隈府,クマモトケン,キクチシ,ワイフ,熊本県菊池市隈府
8611341,熊本県,菊池市,七城町清水,クマモトケン,キクチシ,シチジョウマチキヨミズ,熊本県菊池市七城町清水
8611342,熊本県,菊池市,七城町亀尾,クマモトケン,キクチシ,シチジョウマチカメオ,熊本県菊池市七城町亀尾
8611343,熊本県,菊池市,七城町林原,クマモトケン,キクチシ,シチジョウマチハヤシバル,熊本県菊池市七城町林原
8611344,熊本県,菊池市,七城町蘇崎,クマモトケン,キクチシ,シチジョウマチソサキ,熊本県菊池市七城町蘇崎
8611345,熊本県,菊池市,七城町小野崎,クマモトケン,キクチシ,シチジョウマチオノザキ,熊本県菊池市七城町小野崎
8611346,熊本県,菊池市,七城町橋田,クマモトケン,キクチシ,シチジョウマチハシタ,熊本県菊池市七城町橋田
8611351,熊本県,菊池市,七城町砂田,クマモトケン,キクチシ,シチジョウマチスナダ,熊本県菊池市七城町砂田
8611352,熊本県,菊池市,七城町新古閑,クマモトケン,キクチシ,シチジョウマチシンコガ,熊本県菊池市七城町新古閑
8611353,熊本県,菊池市,七城町甲佐町,クマモトケン,キクチシ,シチジョウマチコウサマチ,熊本県菊池市七城町甲佐町
8611354,熊本県,菊池市,七城町菰入,クマモトケン,キクチシ,シチジョウマチコモイリ,熊本県菊池市七城町菰入
8611355,熊本県,菊池市,七城町高島,クマモトケン,キクチシ,シチジョウマチタカジマ,熊本県菊池市七城町高島
8611356,熊本県,菊池市,七城町加恵,クマモトケン,キクチシ,シチジョウマチカエ,熊本県菊池市七城町加恵
8611357,熊本県,菊池市,七城町高田,クマモトケン,キクチシ,シチジョウマチタカタ,熊本県菊池市七城町高田
8611361,熊本県,菊池市,七城町水次,クマモトケン,キクチシ,シチジョウマチミツギ,熊本県菊池市七城町水次
8611362,熊本県,菊池市,七城町山崎,クマモトケン,キクチシ,シチジョウマチヤマサキ,熊本県菊池市七城町山崎
8611363,熊本県,菊池市,七城町荒牧,クマモトケン,キクチシ,シチジョウマチアラマキ,熊本県菊池市七城町荒牧
8611364,熊本県,菊池市,七城町辺田,クマモトケン,キクチシ,シチジョウマチヘタ,熊本県菊池市七城町辺田
8611365,熊本県,菊池市,七城町台,クマモトケン,キクチシ,シチジョウマチウテナ,熊本県菊池市七城町台
8611366,熊本県,菊池市,七城町瀬戸口,クマモトケン,キクチシ,シチジョウマチセトグチ,熊本県菊池市七城町瀬戸口
8611367,熊本県,菊池市,七城町流川,クマモトケン,キクチシ,シチジョウマチナガレカワ,熊本県菊池市七城町流川
8611368,熊本県,菊池市,七城町岡田,クマモトケン,キクチシ,シチジョウマチオカダ,熊本県菊池市七城町岡田
8611441,熊本県,菊池市,原,クマモトケン,キクチシ,ハル,熊本県菊池市原
8611442,熊本県,菊池市,四町分,クマモトケン,キクチシ,シチョウブン,熊本県菊池市四町分
8611671,熊本県,菊池市,班蛇口,クマモトケン,キクチシ,ハンジャク,熊本県菊池市班蛇口
8611672,熊本県,菊池市,龍門,クマモトケン,キクチシ,リュウモン,熊本県菊池市龍門
8611673,熊本県,菊池市,小木,クマモトケン,キクチシ,オギ,熊本県菊池市小木
8611681,熊本県,菊池市,雪野,クマモトケン,キクチシ,ユキノ,熊本県菊池市雪野
8611682,熊本県,菊池市,重味,クマモトケン,キクチシ,シゲミ,熊本県菊池市重味
8611683,熊本県,菊池市,大平,クマモトケン,キクチシ,オオヒラ,熊本県菊池市大平
8611684,熊本県,菊池市,豊間,クマモトケン,キクチシ,トヨマ,熊本県菊池市豊間
8611685,熊本県,菊池市,西迫間,クマモトケン,キクチシ,ニシハザマ,熊本県菊池市西迫間
8611686,熊本県,菊池市,市野瀬,クマモトケン,キクチシ,イチノセ,熊本県菊池市市野瀬
8612101,熊本県,熊本市東区,桜木,クマモトケン,クマモトシヒガシク,サクラギ,熊本県熊本市東区桜木
8612102,熊本県,熊本市東区,沼山津,クマモトケン,クマモトシヒガシク,ヌヤマヅ,熊本県熊本市東区沼山津
8612103,熊本県,熊本市東区,若葉（４〜６丁目）,クマモトケン,クマモトシヒガシク,ワカバ(4-6チョウメ),熊本県熊本市東区若葉（4〜6-）
8612104,熊本県,熊本市東区,秋津,クマモトケン,クマモトシヒガシク,アキツ,熊本県熊本市東区秋津
8612105,熊本県,熊本市東区,秋津町秋田,クマモトケン,クマモトシヒガシク,アキツマチアキタ,熊本県熊本市東区秋津町秋田
8612106,熊本県,熊本市東区,東野,クマモトケン,クマモトシヒガシク,ヒガシノ,熊本県熊本市東区東野
8612107,熊本県,熊本市東区,秋津新町,クマモトケン,クマモトシヒガシク,アキツシンマチ,熊本県熊本市東区秋津新町
8612108,熊本県,熊本市東区,昭和町,クマモトケン,クマモトシヒガシク,ショウワマチ,熊本県熊本市東区昭和町
8612118,熊本県,熊本市東区,花立（１〜４丁目）,クマモトケン,クマモトシヒガシク,ハナタテ(1-4チョウメ),熊本県熊本市東区花立（1〜4-）
8612200,熊本県,上益城郡益城町,,クマモトケン,カミマシキグンマシキマチ,,熊本県上益城郡益城町
8612201,熊本県,上益城郡益城町,寺中,クマモトケン,カミマシキグンマシキマチ,ジチュウ,熊本県上益城郡益城町寺中
8612202,熊本県,上益城郡益城町,田原,クマモトケン,カミマシキグンマシキマチ,タバル,熊本県上益城郡益城町田原
8612203,熊本県,上益城郡益城町,上陳,クマモトケン,カミマシキグンマシキマチ,カミジン,熊本県上益城郡益城町上陳
8612204,熊本県,上益城郡益城町,小谷,クマモトケン,カミマシキグンマシキマチ,オヤツ,熊本県上益城郡益城町小谷
8612205,熊本県,上益城郡益城町,杉堂,クマモトケン,カミマシキグンマシキマチ,スギドウ,熊本県上益城郡益城町杉堂
8612206,熊本県,上益城郡益城町,下陳,クマモトケン,カミマシキグンマシキマチ,シモジン,熊本県上益城郡益城町下陳
8612211,熊本県,上益城郡益城町,福原,クマモトケン,カミマシキグンマシキマチ,フクハラ,熊本県上益城郡益城町福原
8612212,熊本県,上益城郡益城町,平田,クマモトケン,カミマシキグンマシキマチ,ヒラタ,熊本県上益城郡益城町平田
8612221,熊本県,上益城郡益城町,赤井,クマモトケン,カミマシキグンマシキマチ,アカイ,熊本県上益城郡益城町赤井
8612222,熊本県,上益城郡益城町,砥川,クマモトケン,カミマシキグンマシキマチ,トガワ,熊本県上益城郡益城町砥川
8612223,熊本県,上益城郡益城町,小池,クマモトケン,カミマシキグンマシキマチ,オイケ,熊本県上益城郡益城町小池
8612224,熊本県,上益城郡益城町,島田,クマモトケン,カミマシキグンマシキマチ,シマダ,熊本県上益城郡益城町島田
8612231,熊本県,上益城郡益城町,安永,クマモトケン,カミマシキグンマシキマチ,ヤスナガ,熊本県上益城郡益城町安永
8612232,熊本県,上益城郡益城町,馬水,クマモトケン,カミマシキグンマシキマチ,マミズ,熊本県上益城郡益城町馬水
8612233,熊本県,上益城郡益城町,惣領,クマモトケン,カミマシキグンマシキマチ,ソウリョウ,熊本県上益城郡益城町惣領
8612234,熊本県,上益城郡益城町,古閑,クマモトケン,カミマシキグンマシキマチ,コガ,熊本県上益城郡益城町古閑
8612235,熊本県,上益城郡益城町,福富,クマモトケン,カミマシキグンマシキマチ,フクドミ,熊本県上益城郡益城町福富
8612236,熊本県,上益城郡益城町,広崎,クマモトケン,カミマシキグンマシキマチ,ヒロサキ,熊本県上益城郡益城町広崎
8612241,熊本県,上益城郡益城町,宮園,クマモトケン,カミマシキグンマシキマチ,ミヤゾノ,熊本県上益城郡益城町宮園
8612242,熊本県,上益城郡益城町,木山,クマモトケン,カミマシキグンマシキマチ,キヤマ,熊本県上益城郡益城町木山
8612243,熊本県,上益城郡益城町,辻の城,クマモトケン,カミマシキグンマシキマチ,ツジノシロ,熊本県上益城郡益城町辻の城
8612244,熊本県,上益城郡益城町,寺迫,クマモトケン,カミマシキグンマシキマチ,テラサコ,熊本県上益城郡益城町寺迫
8612400,熊本県,阿蘇郡西原村,,クマモトケン,アソグンニシハラムラ,,熊本県阿蘇郡西原村
8612401,熊本県,阿蘇郡西原村,鳥子,クマモトケン,アソグンニシハラムラ,トリコ,熊本県阿蘇郡西原村鳥子
8612402,熊本県,阿蘇郡西原村,小森,クマモトケン,アソグンニシハラムラ,コモリ,熊本県阿蘇郡西原村小森
8612403,熊本県,阿蘇郡西原村,布田,クマモトケン,アソグンニシハラムラ,フタ,熊本県阿蘇郡西原村布田
8612404,熊本県,阿蘇郡西原村,河原,クマモトケン,アソグンニシハラムラ,カワハラ,熊本県阿蘇郡西原村河原
8612405,熊本県,阿蘇郡西原村,宮山,クマモトケン,アソグンニシハラムラ,ミヤヤマ,熊本県阿蘇郡西原村宮山
8613100,熊本県,上益城郡嘉島町,,クマモトケン,カミマシキグンカシママチ,,熊本県上益城郡嘉島町
8613101,熊本県,上益城郡嘉島町,鯰,クマモトケン,カミマシキグンカシママチ,ナマズ,熊本県上益城郡嘉島町鯰
8613102,熊本県,上益城郡嘉島町,下六嘉,クマモトケン,カミマシキグンカシママチ,シモロッカ,熊本県上益城郡嘉島町下六嘉
8613103,熊本県,上益城郡嘉島町,井寺,クマモトケン,カミマシキグンカシママチ,イテラ,熊本県上益城郡嘉島町井寺
8613104,熊本県,上益城郡嘉島町,北甘木,クマモトケン,カミマシキグンカシママチ,キタアマギ,熊本県上益城郡嘉島町北甘木
8613105,熊本県,上益城郡嘉島町,上六嘉,クマモトケン,カミマシキグンカシママチ,カミロッカ,熊本県上益城郡嘉島町上六嘉
8613106,熊本県,上益城郡嘉島町,上島,クマモトケン,カミマシキグンカシママチ,ウエジマ,熊本県上益城郡嘉島町上島
8613107,熊本県,上益城郡嘉島町,上仲間,クマモトケン,カミマシキグンカシママチ,カミナカマ,熊本県上益城郡嘉島町上仲間
8613108,熊本県,上益城郡嘉島町,下仲間,クマモトケン,カミマシキグンカシママチ,シモナカマ,熊本県上益城郡嘉島町下仲間
8613109,熊本県,上益城郡嘉島町,犬渕,クマモトケン,カミマシキグンカシママチ,イヌブチ,熊本県上益城郡嘉島町犬渕
8613131,熊本県,上益城郡御船町,豊秋,クマモトケン,カミマシキグンミフネマチ,トヨアキ,熊本県上益城郡御船町豊秋
8613200,熊本県,上益城郡御船町,,クマモトケン,カミマシキグンミフネマチ,,熊本県上益城郡御船町
8613201,熊本県,上益城郡御船町,陣,クマモトケン,カミマシキグンミフネマチ,ジン,熊本県上益城郡御船町陣
8613202,熊本県,上益城郡御船町,小坂,クマモトケン,カミマシキグンミフネマチ,オザカ,熊本県上益城郡御船町小坂
8613203,熊本県,上益城郡御船町,高木,クマモトケン,カミマシキグンミフネマチ,タカキ,熊本県上益城郡御船町高木
8613204,熊本県,上益城郡御船町,木倉,クマモトケン,カミマシキグンミフネマチ,キノクラ,熊本県上益城郡御船町木倉
8613205,熊本県,上益城郡御船町,滝川,クマモトケン,カミマシキグンミフネマチ,タキガワ,熊本県上益城郡御船町滝川
8613206,熊本県,上益城郡御船町,辺田見,クマモトケン,カミマシキグンミフネマチ,ヘタミ,熊本県上益城郡御船町辺田見
8613207,熊本県,上益城郡御船町,御船,クマモトケン,カミマシキグンミフネマチ,ミフネ,熊本県上益城郡御船町御船
8613208,熊本県,上益城郡御船町,滝尾,クマモトケン,カミマシキグンミフネマチ,タキオ,熊本県上益城郡御船町滝尾
8613211,熊本県,上益城郡御船町,水越,クマモトケン,カミマシキグンミフネマチ,ミズコシ,熊本県上益城郡御船町水越
8613241,熊本県,上益城郡甲佐町,早川,クマモトケン,カミマシキグンコウサマチ,ソウガワ,熊本県上益城郡甲佐町早川
8613242,熊本県,上益城郡甲佐町,糸田,クマモトケン,カミマシキグンコウサマチ,イトダ,熊本県上益城郡甲佐町糸田
8613243,熊本県,上益城郡甲佐町,白旗,クマモトケン,カミマシキグンコウサマチ,シラハタ,熊本県上益城郡甲佐町白旗
8613244,熊本県,上益城郡甲佐町,芝原,クマモトケン,カミマシキグンコウサマチ,シバワラ,熊本県上益城郡甲佐町芝原
8613245,熊本県,上益城郡甲佐町,吉田,クマモトケン,カミマシキグンコウサマチ,ヨシダ,熊本県上益城郡甲佐町吉田
8613321,熊本県,上益城郡御船町,七滝（その他）,クマモトケン,カミマシキグンミフネマチ,ナナタキ(ソノタ),熊本県上益城郡御船町七滝（その他）
8613322,熊本県,上益城郡御船町,上野,クマモトケン,カミマシキグンミフネマチ,ウエノ,熊本県上益城郡御船町上野
8613323,熊本県,上益城郡御船町,田代,クマモトケン,カミマシキグンミフネマチ,タシロ,熊本県上益城郡御船町田代
8613421,熊本県,上益城郡御船町,七滝（松ノ生）,クマモトケン,カミマシキグンミフネマチ,ナナタキ(マツノハエ),熊本県上益城郡御船町七滝（松ノ生）
8613451,熊本県,上益城郡山都町,金内,クマモトケン,カミマシキグンヤマトチョウ,カネウチ,熊本県上益城郡山都町金内
8613452,熊本県,上益城郡山都町,田小野,クマモトケン,カミマシキグンヤマトチョウ,タオノ,熊本県上益城郡山都町田小野
8613453,熊本県,上益城郡山都町,原,クマモトケン,カミマシキグンヤマトチョウ,ハラ,熊本県上益城郡山都町原
8613454,熊本県,上益城郡山都町,島木,クマモトケン,カミマシキグンヤマトチョウ,シマキ,熊本県上益城郡山都町島木
8613455,熊本県,上益城郡山都町,北中島,クマモトケン,カミマシキグンヤマトチョウ,キタナカシマ,熊本県上益城郡山都町北中島
8613500,熊本県,上益城郡山都町,,クマモトケン,カミマシキグンヤマトチョウ,,熊本県上益城郡山都町
8613501,熊本県,上益城郡山都町,黒川,クマモトケン,カミマシキグンヤマトチョウ,クロカワ,熊本県上益城郡山都町黒川
8613502,熊本県,上益城郡山都町,御所,クマモトケン,カミマシキグンヤマトチョウ,ゴショ,熊本県上益城郡山都町御所
8613503,熊本県,上益城郡山都町,下名連石,クマモトケン,カミマシキグンヤマトチョウ,シモナレイシ,熊本県上益城郡山都町下名連石
8613511,熊本県,上益城郡山都町,入佐,クマモトケン,カミマシキグンヤマトチョウ,イリサ,熊本県上益城郡山都町入佐
8613512,熊本県,上益城郡山都町,下馬尾,クマモトケン,カミマシキグンヤマトチョウ,ゲバオ,熊本県上益城郡山都町下馬尾
8613513,熊本県,上益城郡山都町,下市,クマモトケン,カミマシキグンヤマトチョウ,シモイチ,熊本県上益城郡山都町下市
8613514,熊本県,上益城郡山都町,城原,クマモトケン,カミマシキグンヤマトチョウ,ジョウハラ,熊本県上益城郡山都町城原
8613515,熊本県,上益城郡山都町,城平,クマモトケン,カミマシキグンヤマトチョウ,ジョウヒラ,熊本県上益城郡山都町城平
8613516,熊本県,上益城郡山都町,千滝,クマモトケン,カミマシキグンヤマトチョウ,センダキ,熊本県上益城郡山都町千滝
8613517,熊本県,上益城郡山都町,畑,クマモトケン,カミマシキグンヤマトチョウ,ハタ,熊本県上益城郡山都町畑
8613518,熊本県,上益城郡山都町,浜町,クマモトケン,カミマシキグンヤマトチョウ,ハママチ,熊本県上益城郡山都町浜町
8613521,熊本県,上益城郡山都町,荒谷,クマモトケン,カミマシキグンヤマトチョウ,アラダニ,熊本県上益城郡山都町荒谷
8613522,熊本県,上益城郡山都町,白小野,クマモトケン,カミマシキグンヤマトチョウ,シラオノ,熊本県上益城郡山都町白小野
8613523,熊本県,上益城郡山都町,勢井,クマモトケン,カミマシキグンヤマトチョウ,ゼイ,熊本県上益城郡山都町勢井
8613524,熊本県,上益城郡山都町,藤木,クマモトケン,カミマシキグンヤマトチョウ,フジキ,熊本県上益城郡山都町藤木
8613525,熊本県,上益城郡山都町,牧野,クマモトケン,カミマシキグンヤマトチョウ,マキノ,熊本県上益城郡山都町牧野
8613526,熊本県,上益城郡山都町,万坂,クマモトケン,カミマシキグンヤマトチョウ,マンザカ,熊本県上益城郡山都町万坂
8613531,熊本県,上益城郡山都町,葛原,クマモトケン,カミマシキグンヤマトチョウ,クズハラ,熊本県上益城郡山都町葛原
8613532,熊本県,上益城郡山都町,猿渡,クマモトケン,カミマシキグンヤマトチョウ,サルワタリ,熊本県上益城郡山都町猿渡
8613533,熊本県,上益城郡山都町,三ケ,クマモトケン,カミマシキグンヤマトチョウ,サンガ,熊本県上益城郡山都町三ケ
8613534,熊本県,上益城郡山都町,柚木,クマモトケン,カミマシキグンヤマトチョウ,ユノキ,熊本県上益城郡山都町柚木
8613541,熊本県,上益城郡山都町,芦屋田,クマモトケン,カミマシキグンヤマトチョウ,アシヤダ,熊本県上益城郡山都町芦屋田
8613542,熊本県,上益城郡山都町,市原,クマモトケン,カミマシキグンヤマトチョウ,イチバル,熊本県上益城郡山都町市原
8613543,熊本県,上益城郡山都町,上寺,クマモトケン,カミマシキグンヤマトチョウ,ジョウテラ,熊本県上益城郡山都町上寺
8613544,熊本県,上益城郡山都町,杉木,クマモトケン,カミマシキグンヤマトチョウ,スギキ,熊本県上益城郡山都町杉木
8613545,熊本県,上益城郡山都町,長田,クマモトケン,カミマシキグンヤマトチョウ,ナガタ,熊本県上益城郡山都町長田
8613546,熊本県,上益城郡山都町,南田,クマモトケン,カミマシキグンヤマトチョウ,ミナミダ,熊本県上益城郡山都町南田
8613547,熊本県,上益城郡山都町,山田,クマモトケン,カミマシキグンヤマトチョウ,ヤマダ,熊本県上益城郡山都町山田
8613661,熊本県,上益城郡山都町,長原,クマモトケン,カミマシキグンヤマトチョウ,ナガハラ,熊本県上益城郡山都町長原
8613662,熊本県,上益城郡山都町,田吉,クマモトケン,カミマシキグンヤマトチョウ,タヨシ,熊本県上益城郡山都町田吉
8613663,熊本県,上益城郡山都町,新小,クマモトケン,カミマシキグンヤマトチョウ,シンコ,熊本県上益城郡山都町新小
8613664,熊本県,上益城郡山都町,白藤,クマモトケン,カミマシキグンヤマトチョウ,シラフジ,熊本県上益城郡山都町白藤
8613665,熊本県,上益城郡山都町,犬飼,クマモトケン,カミマシキグンヤマトチョウ,イヌカイ,熊本県上益城郡山都町犬飼
8613671,熊本県,上益城郡山都町,菅,クマモトケン,カミマシキグンヤマトチョウ,スゲ,熊本県上益城郡山都町菅
8613672,熊本県,上益城郡山都町,目丸,クマモトケン,カミマシキグンヤマトチョウ,メマル,熊本県上益城郡山都町目丸
8613673,熊本県,上益城郡山都町,津留,クマモトケン,カミマシキグンヤマトチョウ,ツル,熊本県上益城郡山都町津留
8613781,熊本県,上益城郡山都町,麻山,クマモトケン,カミマシキグンヤマトチョウ,アサヤマ,熊本県上益城郡山都町麻山
8613782,熊本県,上益城郡山都町,上川井野,クマモトケン,カミマシキグンヤマトチョウ,カミガワイノ,熊本県上益城郡山都町上川井野
8613783,熊本県,上益城郡山都町,成君,クマモトケン,カミマシキグンヤマトチョウ,ナリギミ,熊本県上益城郡山都町成君
8613784,熊本県,上益城郡山都町,川野,クマモトケン,カミマシキグンヤマトチョウ,カワノ,熊本県上益城郡山都町川野
8613785,熊本県,上益城郡山都町,田所,クマモトケン,カミマシキグンヤマトチョウ,タドコロ,熊本県上益城郡山都町田所
8613786,熊本県,上益城郡山都町,下川井野,クマモトケン,カミマシキグンヤマトチョウ,シモガワイノ,熊本県上益城郡山都町下川井野
8613787,熊本県,上益城郡山都町,野尻,クマモトケン,カミマシキグンヤマトチョウ,ノジリ,熊本県上益城郡山都町野尻
8613788,熊本県,上益城郡山都町,小笹,クマモトケン,カミマシキグンヤマトチョウ,オザサ,熊本県上益城郡山都町小笹
8613789,熊本県,上益城郡山都町,男成,クマモトケン,カミマシキグンヤマトチョウ,オトコナリ,熊本県上益城郡山都町男成
8613801,熊本県,上益城郡山都町,小峰,クマモトケン,カミマシキグンヤマトチョウ,オミネ,熊本県上益城郡山都町小峰
8613802,熊本県,上益城郡山都町,木原谷,クマモトケン,カミマシキグンヤマトチョウ,キハラダニ,熊本県上益城郡山都町木原谷
8613803,熊本県,上益城郡山都町,小中竹,クマモトケン,カミマシキグンヤマトチョウ,コナカダケ,熊本県上益城郡山都町小中竹
8613804,熊本県,上益城郡山都町,貫原,クマモトケン,カミマシキグンヤマトチョウ,ヌキハル,熊本県上益城郡山都町貫原
8613805,熊本県,上益城郡山都町,須原,クマモトケン,カミマシキグンヤマトチョウ,スバル,熊本県上益城郡山都町須原
8613806,熊本県,上益城郡山都町,米生,クマモトケン,カミマシキグンヤマトチョウ,ヨネオ,熊本県上益城郡山都町米生
8613811,熊本県,上益城郡山都町,大平,クマモトケン,カミマシキグンヤマトチョウ,オオヒラ,熊本県上益城郡山都町大平
8613812,熊本県,上益城郡山都町,鶴ケ田,クマモトケン,カミマシキグンヤマトチョウ,ツルケタ,熊本県上益城郡山都町鶴ケ田
8613813,熊本県,上益城郡山都町,川口,クマモトケン,カミマシキグンヤマトチョウ,カワグチ,熊本県上益城郡山都町川口
8613831,熊本県,上益城郡山都町,郷野原,クマモトケン,カミマシキグンヤマトチョウ,ゴウノハル,熊本県上益城郡山都町郷野原
8613832,熊本県,上益城郡山都町,井無田,クマモトケン,カミマシキグンヤマトチョウ,イムタ,熊本県上益城郡山都町井無田
8613833,熊本県,上益城郡山都町,安方,クマモトケン,カミマシキグンヤマトチョウ,ヤスカタ,熊本県上益城郡山都町安方
8613834,熊本県,上益城郡山都町,高月,クマモトケン,カミマシキグンヤマトチョウ,コウヅキ,熊本県上益城郡山都町高月
8613835,熊本県,上益城郡山都町,仏原,クマモトケン,カミマシキグンヤマトチョウ,ホトケバル,熊本県上益城郡山都町仏原
8613841,熊本県,上益城郡山都町,仮屋,クマモトケン,カミマシキグンヤマトチョウ,カリヤ,熊本県上益城郡山都町仮屋
8613842,熊本県,上益城郡山都町,市野原,クマモトケン,カミマシキグンヤマトチョウ,イチノハル,熊本県上益城郡山都町市野原
8613843,熊本県,上益城郡山都町,鎌野,クマモトケン,カミマシキグンヤマトチョウ,カマノ,熊本県上益城郡山都町鎌野
8613844,熊本県,上益城郡山都町,尾野尻,クマモトケン,カミマシキグンヤマトチョウ,オノジリ,熊本県上益城郡山都町尾野尻
8613845,熊本県,上益城郡山都町,緑川,クマモトケン,カミマシキグンヤマトチョウ,ミドリカワ,熊本県上益城郡山都町緑川
8613901,熊本県,上益城郡山都町,馬見原,クマモトケン,カミマシキグンヤマトチョウ,マミハラ,熊本県上益城郡山都町馬見原
8613902,熊本県,上益城郡山都町,滝上,クマモトケン,カミマシキグンヤマトチョウ,タキガミ,熊本県上益城郡山都町滝上
8613903,熊本県,上益城郡山都町,柳井原,クマモトケン,カミマシキグンヤマトチョウ,ヤナイバル,熊本県上益城郡山都町柳井原
8613904,熊本県,上益城郡山都町,方ケ野,クマモトケン,カミマシキグンヤマトチョウ,ホウガノ,熊本県上益城郡山都町方ケ野
8613905,熊本県,上益城郡山都町,大野,クマモトケン,カミマシキグンヤマトチョウ,オオノ,熊本県上益城郡山都町大野
8613906,熊本県,上益城郡山都町,神ノ前,クマモトケン,カミマシキグンヤマトチョウ,カミノマエ,熊本県上益城郡山都町神ノ前
8613907,熊本県,上益城郡山都町,白石,クマモトケン,カミマシキグンヤマトチョウ,シライシ,熊本県上益城郡山都町白石
8613908,熊本県,上益城郡山都町,長崎,クマモトケン,カミマシキグンヤマトチョウ,ナガサキ,熊本県上益城郡山都町長崎
8613911,熊本県,上益城郡山都町,菅尾,クマモトケン,カミマシキグンヤマトチョウ,スゲオ,熊本県上益城郡山都町菅尾
8613912,熊本県,上益城郡山都町,米迫,クマモトケン,カミマシキグンヤマトチョウ,ヨネサコ,熊本県上益城郡山都町米迫
8613913,熊本県,上益城郡山都町,今,クマモトケン,カミマシキグンヤマトチョウ,イマ,熊本県上益城郡山都町今
8613914,熊本県,上益城郡山都町,花上,クマモトケン,カミマシキグンヤマトチョウ,ハナガミ,熊本県上益城郡山都町花上
8613915,熊本県,上益城郡山都町,塩出迫,クマモトケン,カミマシキグンヤマトチョウ,シオイデサコ,熊本県上益城郡山都町塩出迫
8613916,熊本県,上益城郡山都町,塩原,クマモトケン,カミマシキグンヤマトチョウ,シオバル,熊本県上益城郡山都町塩原
8613921,熊本県,上益城郡山都町,八木,クマモトケン,カミマシキグンヤマトチョウ,ハチボク,熊本県上益城郡山都町八木
8613922,熊本県,上益城郡山都町,二瀬本,クマモトケン,カミマシキグンヤマトチョウ,ニセモト,熊本県上益城郡山都町二瀬本
8613923,熊本県,上益城郡山都町,柏,クマモトケン,カミマシキグンヤマトチョウ,カシワ,熊本県上益城郡山都町柏
8613924,熊本県,上益城郡山都町,二津留,クマモトケン,カミマシキグンヤマトチョウ,フタヅル,熊本県上益城郡山都町二津留
8613925,熊本県,上益城郡山都町,上差尾,クマモトケン,カミマシキグンヤマトチョウ,カミザシオ,熊本県上益城郡山都町上差尾
8613926,熊本県,上益城郡山都町,大見口,クマモトケン,カミマシキグンヤマトチョウ,オオミクチ,熊本県上益城郡山都町大見口
8613927,熊本県,上益城郡山都町,玉目,クマモトケン,カミマシキグンヤマトチョウ,タマメ,熊本県上益城郡山都町玉目
8613928,熊本県,上益城郡山都町,長谷,クマモトケン,カミマシキグンヤマトチョウ,ナガタニ,熊本県上益城郡山都町長谷
8613931,熊本県,上益城郡山都町,橘,クマモトケン,カミマシキグンヤマトチョウ,タチバナ,熊本県上益城郡山都町橘
8613932,熊本県,上益城郡山都町,下山,クマモトケン,カミマシキグンヤマトチョウ,シモヤマ,熊本県上益城郡山都町下山
8613933,熊本県,上益城郡山都町,高辻,クマモトケン,カミマシキグンヤマトチョウ,タカツジ,熊本県上益城郡山都町高辻
8613934,熊本県,上益城郡山都町,高畑,クマモトケン,カミマシキグンヤマトチョウ,タカバタ,熊本県上益城郡山都町高畑
8613935,熊本県,上益城郡山都町,東竹原,クマモトケン,カミマシキグンヤマトチョウ,ヒガシタケバル,熊本県上益城郡山都町東竹原
8613936,熊本県,上益城郡山都町,柳,クマモトケン,カミマシキグンヤマトチョウ,ヤナギ,熊本県上益城郡山都町柳
8613937,熊本県,上益城郡山都町,伊勢,クマモトケン,カミマシキグンヤマトチョウ,イセ,熊本県上益城郡山都町伊勢
8614101,熊本県,熊本市南区,近見,クマモトケン,クマモトシミナミク,チカミ,熊本県熊本市南区近見
8614102,熊本県,熊本市南区,御幸西無田町,クマモトケン,クマモトシミナミク,ミユキニシムタマチ,熊本県熊本市南区御幸西無田町
8614103,熊本県,熊本市南区,御幸笛田町,クマモトケン,クマモトシミナミク,ミユキフエダマチ,熊本県熊本市南区御幸笛田町
8614104,熊本県,熊本市南区,御幸木部町,クマモトケン,クマモトシミナミク,ミユキキベマチ,熊本県熊本市南区御幸木部町
8614105,熊本県,熊本市南区,元三町,クマモトケン,クマモトシミナミク,モトミマチ,熊本県熊本市南区元三町
8614106,熊本県,熊本市南区,南高江,クマモトケン,クマモトシミナミク,ミナミタカエ,熊本県熊本市南区南高江
8614108,熊本県,熊本市南区,幸田,クマモトケン,クマモトシミナミク,コウダ,熊本県熊本市南区幸田
8614109,熊本県,熊本市南区,日吉,クマモトケン,クマモトシミナミク,ヒヨシ,熊本県熊本市南区日吉
8614111,熊本県,熊本市南区,合志,クマモトケン,クマモトシミナミク,ゴウシ,熊本県熊本市南区合志
8614112,熊本県,熊本市南区,白藤,クマモトケン,クマモトシミナミク,シラフジ,熊本県熊本市南区白藤
8614113,熊本県,熊本市南区,八幡,クマモトケン,クマモトシミナミク,ヤハタ,熊本県熊本市南区八幡
8614114,熊本県,熊本市南区,野田,クマモトケン,クマモトシミナミク,ノダ,熊本県熊本市南区野田
8614115,熊本県,熊本市南区,川尻,クマモトケン,クマモトシミナミク,カワシリ,熊本県熊本市南区川尻
8614116,熊本県,熊本市南区,中無田町,クマモトケン,クマモトシミナミク,ナカムタマチ,熊本県熊本市南区中無田町
8614117,熊本県,熊本市南区,護藤町,クマモトケン,クマモトシミナミク,ゴンドウマチ,熊本県熊本市南区護藤町
8614121,熊本県,熊本市南区,会富町,クマモトケン,クマモトシミナミク,アイドミマチ,熊本県熊本市南区会富町
8614122,熊本県,熊本市南区,美登里町,クマモトケン,クマモトシミナミク,ミドリマチ,熊本県熊本市南区美登里町
8614123,熊本県,熊本市南区,川口町,クマモトケン,クマモトシミナミク,カワグチマチ,熊本県熊本市南区川口町
8614124,熊本県,熊本市南区,海路口町,クマモトケン,クマモトシミナミク,ウジグチマチ,熊本県熊本市南区海路口町
8614125,熊本県,熊本市南区,奥古閑町,クマモトケン,クマモトシミナミク,オクコガマチ,熊本県熊本市南区奥古閑町
8614126,熊本県,熊本市南区,銭塘町,クマモトケン,クマモトシミナミク,ゼンドモマチ,熊本県熊本市南区銭塘町
8614127,熊本県,熊本市南区,内田町,クマモトケン,クマモトシミナミク,ウチダマチ,熊本県熊本市南区内田町
8614131,熊本県,熊本市南区,薄場,クマモトケン,クマモトシミナミク,ウスバ,熊本県熊本市南区薄場
8614131,熊本県,熊本市南区,薄場町,クマモトケン,クマモトシミナミク,ウスバマチ,熊本県熊本市南区薄場町
8614132,熊本県,熊本市南区,上ノ郷,クマモトケン,クマモトシミナミク,カミノゴウ,熊本県熊本市南区上ノ郷
8614133,熊本県,熊本市南区,島町,クマモトケン,クマモトシミナミク,シママチ,熊本県熊本市南区島町
8614134,熊本県,熊本市南区,刈草,クマモトケン,クマモトシミナミク,カリクサ,熊本県熊本市南区刈草
8614135,熊本県,熊本市南区,鳶町,クマモトケン,クマモトシミナミク,トビマチ,熊本県熊本市南区鳶町
8614136,熊本県,熊本市南区,荒尾,クマモトケン,クマモトシミナミク,アラオ,熊本県熊本市南区荒尾
8614136,熊本県,熊本市南区,荒尾町,クマモトケン,クマモトシミナミク,アラオマチ,熊本県熊本市南区荒尾町
8614137,熊本県,熊本市南区,野口,クマモトケン,クマモトシミナミク,ノグチ,熊本県熊本市南区野口
8614137,熊本県,熊本市南区,野口町,クマモトケン,クマモトシミナミク,ノグチマチ,熊本県熊本市南区野口町
8614141,熊本県,熊本市南区,富合町御船手,クマモトケン,クマモトシミナミク,トミアイマチオフナテ,熊本県熊本市南区富合町御船手
8614142,熊本県,熊本市南区,富合町杉島,クマモトケン,クマモトシミナミク,トミアイマチスギジマ,熊本県熊本市南区富合町杉島
8614143,熊本県,熊本市南区,富合町上杉,クマモトケン,クマモトシミナミク,トミアイマチカミスギ,熊本県熊本市南区富合町上杉
8614144,熊本県,熊本市南区,富合町釈迦堂,クマモトケン,クマモトシミナミク,トミアイマチシャカドウ,熊本県熊本市南区富合町釈迦堂
8614145,熊本県,熊本市南区,富合町大町,クマモトケン,クマモトシミナミク,トミアイマチオオマチ,熊本県熊本市南区富合町大町
8614146,熊本県,熊本市南区,富合町榎津,クマモトケン,クマモトシミナミク,トミアイマチエノキヅ,熊本県熊本市南区富合町榎津
8614147,熊本県,熊本市南区,富合町廻江,クマモトケン,クマモトシミナミク,トミアイマチマイノエ,熊本県熊本市南区富合町廻江
8614151,熊本県,熊本市南区,富合町清藤,クマモトケン,クマモトシミナミク,トミアイマチキヨフジ,熊本県熊本市南区富合町清藤
8614152,熊本県,熊本市南区,富合町新,クマモトケン,クマモトシミナミク,トミアイマチシン,熊本県熊本市南区富合町新
8614153,熊本県,熊本市南区,富合町木原,クマモトケン,クマモトシミナミク,トミアイマチキワラ,熊本県熊本市南区富合町木原
8614154,熊本県,熊本市南区,富合町平原,クマモトケン,クマモトシミナミク,トミアイマチヒラバル,熊本県熊本市南区富合町平原
8614155,熊本県,熊本市南区,富合町南田尻,クマモトケン,クマモトシミナミク,トミアイマチミナミタノシリ,熊本県熊本市南区富合町南田尻
8614156,熊本県,熊本市南区,富合町田尻,クマモトケン,クマモトシミナミク,トミアイマチタノシリ,熊本県熊本市南区富合町田尻
8614157,熊本県,熊本市南区,富合町古閑,クマモトケン,クマモトシミナミク,トミアイマチコガ,熊本県熊本市南区富合町古閑
8614161,熊本県,熊本市南区,富合町小岩瀬,クマモトケン,クマモトシミナミク,トミアイマチコイワセ,熊本県熊本市南区富合町小岩瀬
8614162,熊本県,熊本市南区,富合町国町,クマモトケン,クマモトシミナミク,トミアイマチコクチョウ,熊本県熊本市南区富合町国町
8614163,熊本県,熊本市南区,富合町志々水,クマモトケン,クマモトシミナミク,トミアイマチシジミズ,熊本県熊本市南区富合町志々水
8614164,熊本県,熊本市南区,富合町西田尻,クマモトケン,クマモトシミナミク,トミアイマチニシタノシリ,熊本県熊本市南区富合町西田尻
8614165,熊本県,熊本市南区,富合町硴江,クマモトケン,クマモトシミナミク,トミアイマチカキノエ,熊本県熊本市南区富合町硴江
8614166,熊本県,熊本市南区,富合町莎崎,クマモトケン,クマモトシミナミク,トミアイマチコウザキ,熊本県熊本市南区富合町莎崎
8614167,熊本県,熊本市南区,富合町菰江,クマモトケン,クマモトシミナミク,トミアイマチコモノエ,熊本県熊本市南区富合町菰江
8614171,熊本県,熊本市南区,御幸西,クマモトケン,クマモトシミナミク,ミユキニシ,熊本県熊本市南区御幸西
8614172,熊本県,熊本市南区,御幸笛田,クマモトケン,クマモトシミナミク,ミユキフエダ,熊本県熊本市南区御幸笛田
8614173,熊本県,熊本市南区,御幸木部,クマモトケン,クマモトシミナミク,ミユキキベ,熊本県熊本市南区御幸木部
8614201,熊本県,熊本市南区,城南町坂野,クマモトケン,クマモトシミナミク,ジョウナンマチサカノ,熊本県熊本市南区城南町坂野
8614202,熊本県,熊本市南区,城南町宮地,クマモトケン,クマモトシミナミク,ジョウナンマチミヤジ,熊本県熊本市南区城南町宮地
8614203,熊本県,熊本市南区,城南町隈庄,クマモトケン,クマモトシミナミク,ジョウナンマチクマノショウ,熊本県熊本市南区城南町隈庄
8614204,熊本県,熊本市南区,城南町下宮地,クマモトケン,クマモトシミナミク,ジョウナンマチシモミヤジ,熊本県熊本市南区城南町下宮地
8614205,熊本県,熊本市南区,城南町碇,クマモトケン,クマモトシミナミク,ジョウナンマチイカリ,熊本県熊本市南区城南町碇
8614206,熊本県,熊本市南区,城南町さんさん,クマモトケン,クマモトシミナミク,ジョウナンマチサンサン,熊本県熊本市南区城南町さんさん
8614211,熊本県,熊本市南区,城南町今吉野,クマモトケン,クマモトシミナミク,ジョウナンマチイマヨシノ,熊本県熊本市南区城南町今吉野
8614212,熊本県,熊本市南区,城南町築地,クマモトケン,クマモトシミナミク,ジョウナンマチツイジ,熊本県熊本市南区城南町築地
8614213,熊本県,熊本市南区,城南町出水,クマモトケン,クマモトシミナミク,ジョウナンマチイズミ,熊本県熊本市南区城南町出水
8614214,熊本県,熊本市南区,城南町舞原,クマモトケン,クマモトシミナミク,ジョウナンマチマイノハラ,熊本県熊本市南区城南町舞原
8614215,熊本県,熊本市南区,城南町沈目,クマモトケン,クマモトシミナミク,ジョウナンマチシズメ,熊本県熊本市南区城南町沈目
8614221,熊本県,熊本市南区,城南町陳内,クマモトケン,クマモトシミナミク,ジョウナンマチジンナイ,熊本県熊本市南区城南町陳内
8614222,熊本県,熊本市南区,城南町鰐瀬,クマモトケン,クマモトシミナミク,ジョウナンマチワニゼ,熊本県熊本市南区城南町鰐瀬
8614223,熊本県,熊本市南区,城南町藤山,クマモトケン,クマモトシミナミク,ジョウナンマチフジヤマ,熊本県熊本市南区城南町藤山
8614224,熊本県,熊本市南区,城南町阿高,クマモトケン,クマモトシミナミク,ジョウナンマチアダカ,熊本県熊本市南区城南町阿高
8614225,熊本県,熊本市南区,城南町東阿高,クマモトケン,クマモトシミナミク,ジョウナンマチヒガシアダカ,熊本県熊本市南区城南町東阿高
8614226,熊本県,熊本市南区,城南町塚原,クマモトケン,クマモトシミナミク,ジョウナンマチツカワラ,熊本県熊本市南区城南町塚原
8614231,熊本県,熊本市南区,城南町赤見,クマモトケン,クマモトシミナミク,ジョウナンマチアカミ,熊本県熊本市南区城南町赤見
8614232,熊本県,熊本市南区,城南町高,クマモトケン,クマモトシミナミク,ジョウナンマチタカ,熊本県熊本市南区城南町高
8614233,熊本県,熊本市南区,城南町丹生宮,クマモトケン,クマモトシミナミク,ジョウナンマチニウノミヤ,熊本県熊本市南区城南町丹生宮
8614234,熊本県,熊本市南区,城南町永,クマモトケン,クマモトシミナミク,ジョウナンマチナガ,熊本県熊本市南区城南町永
8614235,熊本県,熊本市南区,城南町千町,クマモトケン,クマモトシミナミク,ジョウナンマチチマチ,熊本県熊本市南区城南町千町
8614236,熊本県,熊本市南区,城南町島田,クマモトケン,クマモトシミナミク,ジョウナンマチシマダ,熊本県熊本市南区城南町島田
8614237,熊本県,熊本市南区,城南町六田,クマモトケン,クマモトシミナミク,ジョウナンマチロクタ,熊本県熊本市南区城南町六田
8614301,熊本県,宇城市,豊野町糸石,クマモトケン,ウキシ,トヨノマチイトイシ,熊本県宇城市豊野町糸石
8614302,熊本県,宇城市,豊野町中間,クマモトケン,ウキシ,トヨノマチナカマ,熊本県宇城市豊野町中間
8614303,熊本県,宇城市,豊野町上郷,クマモトケン,ウキシ,トヨノマチカミゴウ,熊本県宇城市豊野町上郷
8614304,熊本県,宇城市,豊野町下郷,クマモトケン,ウキシ,トヨノマチシモゴウ,熊本県宇城市豊野町下郷
8614305,熊本県,宇城市,豊野町山崎,クマモトケン,ウキシ,トヨノマチヤマサキ,熊本県宇城市豊野町山崎
8614306,熊本県,宇城市,豊野町安見,クマモトケン,ウキシ,トヨノマチヤスミ,熊本県宇城市豊野町安見
8614307,熊本県,宇城市,豊野町巣林,クマモトケン,ウキシ,トヨノマチスバヤシ,熊本県宇城市豊野町巣林
8614401,熊本県,下益城郡美里町,大沢水,クマモトケン,シモマシキグンミサトマチ,オオソウズ,熊本県下益城郡美里町大沢水
8614402,熊本県,下益城郡美里町,堅志田,クマモトケン,シモマシキグンミサトマチ,カタシダ,熊本県下益城郡美里町堅志田
8614403,熊本県,下益城郡美里町,中郡,クマモトケン,シモマシキグンミサトマチ,ナカゴオリ,熊本県下益城郡美里町中郡
8614404,熊本県,下益城郡美里町,岩下,クマモトケン,シモマシキグンミサトマチ,イワシタ,熊本県下益城郡美里町岩下
8614405,熊本県,下益城郡美里町,萱野,クマモトケン,シモマシキグンミサトマチ,カヤノ,熊本県下益城郡美里町萱野
8614406,熊本県,下益城郡美里町,馬場,クマモトケン,シモマシキグンミサトマチ,ババ,熊本県下益城郡美里町馬場
8614407,熊本県,下益城郡美里町,中小路,クマモトケン,シモマシキグンミサトマチ,ナカショウジ,熊本県下益城郡美里町中小路
8614411,熊本県,下益城郡美里町,小筵,クマモトケン,シモマシキグンミサトマチ,コムシロ,熊本県下益城郡美里町小筵
8614412,熊本県,下益城郡美里町,佐俣,クマモトケン,シモマシキグンミサトマチ,サマタ,熊本県下益城郡美里町佐俣
8614413,熊本県,下益城郡美里町,岩野,クマモトケン,シモマシキグンミサトマチ,イワノ,熊本県下益城郡美里町岩野
8614414,熊本県,下益城郡美里町,椿,クマモトケン,シモマシキグンミサトマチ,ツバキ,熊本県下益城郡美里町椿
8614415,熊本県,下益城郡美里町,坂本,クマモトケン,シモマシキグンミサトマチ,サカモト,熊本県下益城郡美里町坂本
8614416,熊本県,下益城郡美里町,払川,クマモトケン,シモマシキグンミサトマチ,ハライガワ,熊本県下益城郡美里町払川
8614417,熊本県,下益城郡美里町,中,クマモトケン,シモマシキグンミサトマチ,ナカ,熊本県下益城郡美里町中
8614421,熊本県,下益城郡美里町,原田,クマモトケン,シモマシキグンミサトマチ,ハラダ,熊本県下益城郡美里町原田
8614422,熊本県,下益城郡美里町,長尾野,クマモトケン,シモマシキグンミサトマチ,ナガオノ,熊本県下益城郡美里町長尾野
8614423,熊本県,下益城郡美里町,松野原,クマモトケン,シモマシキグンミサトマチ,マツノハラ,熊本県下益城郡美里町松野原
8614424,熊本県,下益城郡美里町,小市野,クマモトケン,シモマシキグンミサトマチ,コイチノ,熊本県下益城郡美里町小市野
8614425,熊本県,下益城郡美里町,木早川内,クマモトケン,シモマシキグンミサトマチ,キソガワチ,熊本県下益城郡美里町木早川内
8614426,熊本県,下益城郡美里町,白石野,クマモトケン,シモマシキグンミサトマチ,シライシノ,熊本県下益城郡美里町白石野
8614427,熊本県,下益城郡美里町,津留,クマモトケン,シモマシキグンミサトマチ,ツル,熊本県下益城郡美里町津留
8614600,熊本県,上益城郡甲佐町,,クマモトケン,カミマシキグンコウサマチ,,熊本県上益城郡甲佐町
8614601,熊本県,上益城郡甲佐町,岩下,クマモトケン,カミマシキグンコウサマチ,イワシタ,熊本県上益城郡甲佐町岩下
8614602,熊本県,上益城郡甲佐町,緑町,クマモトケン,カミマシキグンコウサマチ,ミドリマチ,熊本県上益城郡甲佐町緑町
8614603,熊本県,上益城郡甲佐町,仁田子,クマモトケン,カミマシキグンコウサマチ,ニタゴ,熊本県上益城郡甲佐町仁田子
8614604,熊本県,上益城郡甲佐町,大町,クマモトケン,カミマシキグンコウサマチ,オオマチ,熊本県上益城郡甲佐町大町
8614605,熊本県,上益城郡甲佐町,有安,クマモトケン,カミマシキグンコウサマチ,アリヤス,熊本県上益城郡甲佐町有安
8614606,熊本県,上益城郡甲佐町,横田,クマモトケン,カミマシキグンコウサマチ,ヨコタ,熊本県上益城郡甲佐町横田
8614607,熊本県,上益城郡甲佐町,豊内,クマモトケン,カミマシキグンコウサマチ,トヨウチ,熊本県上益城郡甲佐町豊内
8614608,熊本県,上益城郡甲佐町,東寒野,クマモトケン,カミマシキグンコウサマチ,ヒガシサマノ,熊本県上益城郡甲佐町東寒野
8614609,熊本県,上益城郡甲佐町,西寒野,クマモトケン,カミマシキグンコウサマチ,ニシサマノ,熊本県上益城郡甲佐町西寒野
8614611,熊本県,上益城郡甲佐町,船津,クマモトケン,カミマシキグンコウサマチ,フナツ,熊本県上益城郡甲佐町船津
8614612,熊本県,上益城郡甲佐町,世持,クマモトケン,カミマシキグンコウサマチ,ヨモチ,熊本県上益城郡甲佐町世持
8614613,熊本県,上益城郡甲佐町,南三箇,クマモトケン,カミマシキグンコウサマチ,ミナミサンガ,熊本県上益城郡甲佐町南三箇
8614614,熊本県,上益城郡甲佐町,中山,クマモトケン,カミマシキグンコウサマチ,ナカヤマ,熊本県上益城郡甲佐町中山
8614615,熊本県,上益城郡甲佐町,府領,クマモトケン,カミマシキグンコウサマチ,フリョウ,熊本県上益城郡甲佐町府領
8614616,熊本県,上益城郡甲佐町,田口,クマモトケン,カミマシキグンコウサマチ,タグチ,熊本県上益城郡甲佐町田口
8614617,熊本県,上益城郡甲佐町,津志田,クマモトケン,カミマシキグンコウサマチ,ツシダ,熊本県上益城郡甲佐町津志田
8614618,熊本県,上益城郡甲佐町,麻生原,クマモトケン,カミマシキグンコウサマチ,アソバル,熊本県上益城郡甲佐町麻生原
8614621,熊本県,上益城郡甲佐町,下横田,クマモトケン,カミマシキグンコウサマチ,シモヨコタ,熊本県上益城郡甲佐町下横田
8614622,熊本県,上益城郡甲佐町,上早川,クマモトケン,カミマシキグンコウサマチ,カミソウガワ,熊本県上益城郡甲佐町上早川
8614623,熊本県,上益城郡甲佐町,中横田,クマモトケン,カミマシキグンコウサマチ,ナカヨコタ,熊本県上益城郡甲佐町中横田
8614631,熊本県,上益城郡甲佐町,上揚,クマモトケン,カミマシキグンコウサマチ,カミアゲ,熊本県上益城郡甲佐町上揚
8614632,熊本県,上益城郡甲佐町,坂谷,クマモトケン,カミマシキグンコウサマチ,サカダニ,熊本県上益城郡甲佐町坂谷
8614633,熊本県,上益城郡甲佐町,西原,クマモトケン,カミマシキグンコウサマチ,ニシハル,熊本県上益城郡甲佐町西原
8614634,熊本県,上益城郡甲佐町,小鹿,クマモトケン,カミマシキグンコウサマチ,オガ,熊本県上益城郡甲佐町小鹿
8614635,熊本県,上益城郡甲佐町,安平,クマモトケン,カミマシキグンコウサマチ,ヤスヒラ,熊本県上益城郡甲佐町安平
8614700,熊本県,下益城郡美里町,,クマモトケン,シモマシキグンミサトマチ,,熊本県下益城郡美里町
8614701,熊本県,下益城郡美里町,大井早,クマモトケン,シモマシキグンミサトマチ,オオイソウ,熊本県下益城郡美里町大井早
8614702,熊本県,下益城郡美里町,遠野,クマモトケン,シモマシキグンミサトマチ,トオノ,熊本県下益城郡美里町遠野
8614703,熊本県,下益城郡美里町,畝野,クマモトケン,シモマシキグンミサトマチ,ウネノ,熊本県下益城郡美里町畝野
8614704,熊本県,下益城郡美里町,涌井,クマモトケン,シモマシキグンミサトマチ,ユイ,熊本県下益城郡美里町涌井
8614705,熊本県,下益城郡美里町,豊富,クマモトケン,シモマシキグンミサトマチ,トヨトミ,熊本県下益城郡美里町豊富
8614706,熊本県,下益城郡美里町,甲佐平,クマモトケン,シモマシキグンミサトマチ,コウサビラ,熊本県下益城郡美里町甲佐平
8614707,熊本県,下益城郡美里町,川越,クマモトケン,シモマシキグンミサトマチ,カワゴシ,熊本県下益城郡美里町川越
8614711,熊本県,下益城郡美里町,洞岳,クマモトケン,シモマシキグンミサトマチ,ホラオカ,熊本県下益城郡美里町洞岳
8614712,熊本県,下益城郡美里町,柏川,クマモトケン,シモマシキグンミサトマチ,カシワガワ,熊本県下益城郡美里町柏川
8614713,熊本県,下益城郡美里町,早楠,クマモトケン,シモマシキグンミサトマチ,ハヤクス,熊本県下益城郡美里町早楠
8614714,熊本県,下益城郡美里町,安部,クマモトケン,シモマシキグンミサトマチ,アベ,熊本県下益城郡美里町安部
8614715,熊本県,下益城郡美里町,清水,クマモトケン,シモマシキグンミサトマチ,キヨミズ,熊本県下益城郡美里町清水
8614716,熊本県,下益城郡美里町,石野,クマモトケン,シモマシキグンミサトマチ,イシノ,熊本県下益城郡美里町石野
8614721,熊本県,下益城郡美里町,土喰,クマモトケン,シモマシキグンミサトマチ,ツチバミ,熊本県下益城郡美里町土喰
8614722,熊本県,下益城郡美里町,永富,クマモトケン,シモマシキグンミサトマチ,ナガトミ,熊本県下益城郡美里町永富
8614723,熊本県,下益城郡美里町,境,クマモトケン,シモマシキグンミサトマチ,サカイ,熊本県下益城郡美里町境
8614725,熊本県,下益城郡美里町,坂貫,クマモトケン,シモマシキグンミサトマチ,サカヌキ,熊本県下益城郡美里町坂貫
8614726,熊本県,下益城郡美里町,大窪,クマモトケン,シモマシキグンミサトマチ,オオクボ,熊本県下益城郡美里町大窪
8614727,熊本県,下益城郡美里町,原町,クマモトケン,シモマシキグンミサトマチ,ハラマチ,熊本県下益城郡美里町原町
8614731,熊本県,下益城郡美里町,栗崎,クマモトケン,シモマシキグンミサトマチ,クリザキ,熊本県下益城郡美里町栗崎
8614732,熊本県,下益城郡美里町,三和,クマモトケン,シモマシキグンミサトマチ,ミツワ,熊本県下益城郡美里町三和
8614733,熊本県,下益城郡美里町,二和田,クマモトケン,シモマシキグンミサトマチ,ニワダ,熊本県下益城郡美里町二和田
8614734,熊本県,下益城郡美里町,今,クマモトケン,シモマシキグンミサトマチ,イマ,熊本県下益城郡美里町今
8614735,熊本県,下益城郡美里町,三加,クマモトケン,シモマシキグンミサトマチ,サンガ,熊本県下益城郡美里町三加
8614736,熊本県,下益城郡美里町,名越谷,クマモトケン,シモマシキグンミサトマチ,ナゴシダニ,熊本県下益城郡美里町名越谷
8614737,熊本県,下益城郡美里町,古閑,クマモトケン,シモマシキグンミサトマチ,コガ,熊本県下益城郡美里町古閑
8615251,熊本県,熊本市南区,今町,クマモトケン,クマモトシミナミク,イママチ,熊本県熊本市南区今町
8615252,熊本県,熊本市南区,土河原町,クマモトケン,クマモトシミナミク,トガワラマチ,熊本県熊本市南区土河原町
8615253,熊本県,熊本市南区,八分字町,クマモトケン,クマモトシミナミク,ハフジマチ,熊本県熊本市南区八分字町
8615254,熊本県,熊本市南区,孫代町,クマモトケン,クマモトシミナミク,マゴダイマチ,熊本県熊本市南区孫代町
8615255,熊本県,熊本市南区,砂原町,クマモトケン,クマモトシミナミク,スナハラマチ,熊本県熊本市南区砂原町
8615261,熊本県,熊本市南区,無田口町,クマモトケン,クマモトシミナミク,ムタグチマチ,熊本県熊本市南区無田口町
8615262,熊本県,熊本市南区,浜口町,クマモトケン,クマモトシミナミク,ハマグチマチ,熊本県熊本市南区浜口町
8615263,熊本県,熊本市南区,並建町,クマモトケン,クマモトシミナミク,ナミタテマチ,熊本県熊本市南区並建町
8615264,熊本県,熊本市南区,白石町,クマモトケン,クマモトシミナミク,シロイシマチ,熊本県熊本市南区白石町
8615265,熊本県,熊本市南区,畠口町,クマモトケン,クマモトシミナミク,ハタグチマチ,熊本県熊本市南区畠口町
8615271,熊本県,熊本市西区,中原町,クマモトケン,クマモトシニシク,ナカハラマチ,熊本県熊本市西区中原町
8615272,熊本県,熊本市西区,中島町,クマモトケン,クマモトシニシク,ナカシママチ,熊本県熊本市西区中島町
8615273,熊本県,熊本市西区,沖新町,クマモトケン,クマモトシニシク,オキシンマチ,熊本県熊本市西区沖新町
8615274,熊本県,熊本市西区,新港,クマモトケン,クマモトシニシク,シンミナト,熊本県熊本市西区新港
8615280,熊本県,熊本市西区,松尾,クマモトケン,クマモトシニシク,マツオ,熊本県熊本市西区松尾
8615281,熊本県,熊本市西区,松尾町近津,クマモトケン,クマモトシニシク,マツオマチチコウヅ,熊本県熊本市西区松尾町近津
8615282,熊本県,熊本市西区,松尾町平山,クマモトケン,クマモトシニシク,マツオマチヒラヤマ,熊本県熊本市西区松尾町平山
8615284,熊本県,熊本市西区,小島下町,クマモトケン,クマモトシニシク,オシマシモマチ,熊本県熊本市西区小島下町
8615285,熊本県,熊本市西区,小島上町,クマモトケン,クマモトシニシク,オシマカミマチ,熊本県熊本市西区小島上町
8615286,熊本県,熊本市西区,中松尾町,クマモトケン,クマモトシニシク,ナカマツオマチ,熊本県熊本市西区中松尾町
8615287,熊本県,熊本市西区,小島,クマモトケン,クマモトシニシク,オシマ,熊本県熊本市西区小島
8615288,熊本県,熊本市西区,西松尾町,クマモトケン,クマモトシニシク,ニシマツオマチ,熊本県熊本市西区西松尾町
8615289,熊本県,熊本市西区,上松尾町,クマモトケン,クマモトシニシク,カミマツオマチ,熊本県熊本市西区上松尾町
8615341,熊本県,熊本市西区,河内町大多尾,クマモトケン,クマモトシニシク,カワチマチオオタオ,熊本県熊本市西区河内町大多尾
8615342,熊本県,熊本市西区,河内町東門寺,クマモトケン,クマモトシニシク,カワチマチトウモンジ,熊本県熊本市西区河内町東門寺
8615343,熊本県,熊本市西区,河内町野出,クマモトケン,クマモトシニシク,カワチマチノイデ,熊本県熊本市西区河内町野出
8615344,熊本県,熊本市西区,河内町岳,クマモトケン,クマモトシニシク,カワチマチタケ,熊本県熊本市西区河内町岳
8615345,熊本県,熊本市西区,河内町面木,クマモトケン,クマモトシニシク,カワチマチオモノギ,熊本県熊本市西区河内町面木
8615346,熊本県,熊本市西区,河内町河内,クマモトケン,クマモトシニシク,カワチマチカワチ,熊本県熊本市西区河内町河内
8615347,熊本県,熊本市西区,河内町船津,クマモトケン,クマモトシニシク,カワチマチフナツ,熊本県熊本市西区河内町船津
8615348,熊本県,熊本市西区,河内町白浜,クマモトケン,クマモトシニシク,カワチマチシラハマ,熊本県熊本市西区河内町白浜
8615401,熊本県,玉名市,天水町小天,クマモトケン,タマナシ,テンスイマチオアマ,熊本県玉名市天水町小天
8615402,熊本県,玉名市,天水町立花,クマモトケン,タマナシ,テンスイマチタチバナ,熊本県玉名市天水町立花
8615403,熊本県,玉名市,天水町部田見,クマモトケン,タマナシ,テンスイマチヘタミ,熊本県玉名市天水町部田見
8615404,熊本県,玉名市,天水町竹崎,クマモトケン,タマナシ,テンスイマチタケザキ,熊本県玉名市天水町竹崎
8615405,熊本県,玉名市,天水町野部田,クマモトケン,タマナシ,テンスイマチノベタ,熊本県玉名市天水町野部田
8615406,熊本県,玉名市,天水町尾田,クマモトケン,タマナシ,テンスイマチオタ,熊本県玉名市天水町尾田
8615501,熊本県,熊本市北区,改寄町,クマモトケン,クマモトシキタク,アラキマチ,熊本県熊本市北区改寄町
8615502,熊本県,熊本市北区,大鳥居町,クマモトケン,クマモトシキタク,オオトリイマチ,熊本県熊本市北区大鳥居町
8615503,熊本県,熊本市北区,明徳町,クマモトケン,クマモトシキタク,メイトクマチ,熊本県熊本市北区明徳町
8615504,熊本県,熊本市北区,小糸山町,クマモトケン,クマモトシキタク,コイトヤママチ,熊本県熊本市北区小糸山町
8615511,熊本県,熊本市北区,楠野町,クマモトケン,クマモトシキタク,クスノマチ,熊本県熊本市北区楠野町
8615512,熊本県,熊本市北区,梶尾町,クマモトケン,クマモトシキタク,カジオマチ,熊本県熊本市北区梶尾町
8615513,熊本県,熊本市北区,鶴羽田町,クマモトケン,クマモトシキタク,ツルハダマチ,熊本県熊本市北区鶴羽田町
8615514,熊本県,熊本市北区,飛田,クマモトケン,クマモトシキタク,ヒダ,熊本県熊本市北区飛田
8615515,熊本県,熊本市北区,四方寄町,クマモトケン,クマモトシキタク,ヨモギマチ,熊本県熊本市北区四方寄町
8615516,熊本県,熊本市北区,西梶尾町,クマモトケン,クマモトシキタク,ニシカジオマチ,熊本県熊本市北区西梶尾町
8615517,熊本県,熊本市北区,鶴羽田,クマモトケン,クマモトシキタク,ツルハダ,熊本県熊本市北区鶴羽田
8615521,熊本県,熊本市北区,鹿子木町,クマモトケン,クマモトシキタク,カノコギマチ,熊本県熊本市北区鹿子木町
8615522,熊本県,熊本市北区,下硯川町,クマモトケン,クマモトシキタク,シモスズリカワマチ,熊本県熊本市北区下硯川町
8615523,熊本県,熊本市北区,徳王町,クマモトケン,クマモトシキタク,トクオウマチ,熊本県熊本市北区徳王町
8615524,熊本県,熊本市北区,硯川町,クマモトケン,クマモトシキタク,スズリカワマチ,熊本県熊本市北区硯川町
8615525,熊本県,熊本市北区,徳王,クマモトケン,クマモトシキタク,トクオウ,熊本県熊本市北区徳王
8615526,熊本県,熊本市北区,下硯川,クマモトケン,クマモトシキタク,シモスズリカワ,熊本県熊本市北区下硯川
8615531,熊本県,熊本市北区,北迫町,クマモトケン,クマモトシキタク,キタザコマチ,熊本県熊本市北区北迫町
8615532,熊本県,熊本市北区,太郎迫町,クマモトケン,クマモトシキタク,タロウザコマチ,熊本県熊本市北区太郎迫町
8615533,熊本県,熊本市北区,和泉町,クマモトケン,クマモトシキタク,イズミマチ,熊本県熊本市北区和泉町
8615534,熊本県,熊本市北区,釜尾町,クマモトケン,クマモトシキタク,カマオマチ,熊本県熊本市北区釜尾町
8615535,熊本県,熊本市北区,貢町,クマモトケン,クマモトシキタク,ミツグマチ,熊本県熊本市北区貢町
8615536,熊本県,熊本市北区,立福寺町,クマモトケン,クマモトシキタク,リュウフクジマチ,熊本県熊本市北区立福寺町
8615537,熊本県,熊本市北区,万楽寺町,クマモトケン,クマモトシキタク,マンラクジマチ,熊本県熊本市北区万楽寺町
8616101,熊本県,上天草市,松島町阿村,クマモトケン,カミアマクサシ,マツシママチアムラ,熊本県上天草市松島町阿村
8616102,熊本県,上天草市,松島町合津,クマモトケン,カミアマクサシ,マツシママチアイツ,熊本県上天草市松島町合津
8616103,熊本県,上天草市,松島町今泉,クマモトケン,カミアマクサシ,マツシママチイマイズミ,熊本県上天草市松島町今泉
8616104,熊本県,上天草市,松島町内野河内,クマモトケン,カミアマクサシ,マツシママチウチノカワウチ,熊本県上天草市松島町内野河内
8616105,熊本県,上天草市,松島町教良木,クマモトケン,カミアマクサシ,マツシママチキョウラギ,熊本県上天草市松島町教良木
8616301,熊本県,天草市,栖本町打田,クマモトケン,アマクサシ,スモトマチウチダ,熊本県天草市栖本町打田
8616302,熊本県,天草市,栖本町河内,クマモトケン,アマクサシ,スモトマチカワチ,熊本県天草市栖本町河内
8616303,熊本県,天草市,栖本町馬場,クマモトケン,アマクサシ,スモトマチババ,熊本県天草市栖本町馬場
8616304,熊本県,天草市,栖本町古江,クマモトケン,アマクサシ,スモトマチフルエ,熊本県天草市栖本町古江
8616305,熊本県,天草市,栖本町湯船原,クマモトケン,アマクサシ,スモトマチユフネハラ,熊本県天草市栖本町湯船原
8616401,熊本県,天草市,倉岳町浦,クマモトケン,アマクサシ,クラタケマチウラ,熊本県天草市倉岳町浦
8616402,熊本県,天草市,倉岳町棚底,クマモトケン,アマクサシ,クラタケマチタナソコ,熊本県天草市倉岳町棚底
8616403,熊本県,天草市,倉岳町宮田,クマモトケン,アマクサシ,クラタケマチミヤダ,熊本県天草市倉岳町宮田
8616551,熊本県,天草市,下浦町,クマモトケン,アマクサシ,シモウラマチ,熊本県天草市下浦町
8617201,熊本県,天草市,有明町赤崎,クマモトケン,アマクサシ,アリアケマチアカサキ,熊本県天草市有明町赤崎
8617202,熊本県,天草市,有明町須子,クマモトケン,アマクサシ,アリアケマチスジ,熊本県天草市有明町須子
8617203,熊本県,天草市,有明町大浦,クマモトケン,アマクサシ,アリアケマチオオウラ,熊本県天草市有明町大浦
8617204,熊本県,天草市,有明町楠甫,クマモトケン,アマクサシ,アリアケマチクスボ,熊本県天草市有明町楠甫
8617311,熊本県,天草市,有明町上津浦,クマモトケン,アマクサシ,アリアケマチコウツウラ,熊本県天草市有明町上津浦
8617312,熊本県,天草市,有明町下津浦,クマモトケン,アマクサシ,アリアケマチシモツウラ,熊本県天草市有明町下津浦
8617313,熊本県,天草市,有明町小島子,クマモトケン,アマクサシ,アリアケマチコシマゴ,熊本県天草市有明町小島子
8617314,熊本県,天草市,有明町大島子,クマモトケン,アマクサシ,アリアケマチオオシマゴ,熊本県天草市有明町大島子
8618001,熊本県,熊本市北区,武蔵ケ丘,クマモトケン,クマモトシキタク,ムサシガオカ,熊本県熊本市北区武蔵ケ丘
8618002,熊本県,熊本市北区,弓削,クマモトケン,クマモトシキタク,ユゲ,熊本県熊本市北区弓削
8618003,熊本県,熊本市北区,楠,クマモトケン,クマモトシキタク,クスノキ,熊本県熊本市北区楠
8618005,熊本県,熊本市北区,龍田陳内,クマモトケン,クマモトシキタク,タツダジンナイ,熊本県熊本市北区龍田陳内
8618006,熊本県,熊本市北区,龍田,クマモトケン,クマモトシキタク,タツダ,熊本県熊本市北区龍田
8618007,熊本県,熊本市北区,龍田弓削,クマモトケン,クマモトシキタク,タツダユゲ,熊本県熊本市北区龍田弓削
8618010,熊本県,熊本市東区,上南部,クマモトケン,クマモトシヒガシク,カミナベ,熊本県熊本市東区上南部
8618011,熊本県,熊本市東区,鹿帰瀬町,クマモトケン,クマモトシヒガシク,カキゼマチ,熊本県熊本市東区鹿帰瀬町
8618012,熊本県,熊本市東区,平山町,クマモトケン,クマモトシヒガシク,ヒラヤママチ,熊本県熊本市東区平山町
8618013,熊本県,熊本市東区,弓削町,クマモトケン,クマモトシヒガシク,ユゲマチ,熊本県熊本市東区弓削町
8618014,熊本県,熊本市東区,石原町,クマモトケン,クマモトシヒガシク,イシワラマチ,熊本県熊本市東区石原町
8618015,熊本県,熊本市東区,中江町,クマモトケン,クマモトシヒガシク,ナカエマチ,熊本県熊本市東区中江町
8618016,熊本県,熊本市東区,吉原町,クマモトケン,クマモトシヒガシク,ヨシワラマチ,熊本県熊本市東区吉原町
8618017,熊本県,熊本市東区,上南部町,クマモトケン,クマモトシヒガシク,カミナベマチ,熊本県熊本市東区上南部町
8618019,熊本県,熊本市東区,下南部,クマモトケン,クマモトシヒガシク,シモナベ,熊本県熊本市東区下南部
8618028,熊本県,熊本市東区,新南部,クマモトケン,クマモトシヒガシク,シンナベ,熊本県熊本市東区新南部
8618029,熊本県,熊本市東区,西原,クマモトケン,クマモトシヒガシク,ニシバル,熊本県熊本市東区西原
8618030,熊本県,熊本市東区,小山町,クマモトケン,クマモトシヒガシク,オヤママチ,熊本県熊本市東区小山町
8618031,熊本県,熊本市東区,戸島町,クマモトケン,クマモトシヒガシク,トシママチ,熊本県熊本市東区戸島町
8618034,熊本県,熊本市東区,八反田,クマモトケン,クマモトシヒガシク,ハッタンダ,熊本県熊本市東区八反田
8618035,熊本県,熊本市東区,御領,クマモトケン,クマモトシヒガシク,ゴリョウ,熊本県熊本市東区御領
8618037,熊本県,熊本市東区,長嶺西,クマモトケン,クマモトシヒガシク,ナガミネニシ,熊本県熊本市東区長嶺西
8618038,熊本県,熊本市東区,長嶺東,クマモトケン,クマモトシヒガシク,ナガミネヒガシ,熊本県熊本市東区長嶺東
8618039,熊本県,熊本市東区,長嶺南,クマモトケン,クマモトシヒガシク,ナガミネミナミ,熊本県熊本市東区長嶺南
8618041,熊本県,熊本市東区,戸島,クマモトケン,クマモトシヒガシク,トシマ,熊本県熊本市東区戸島
8618042,熊本県,熊本市東区,戸島本町,クマモトケン,クマモトシヒガシク,トシマホンマチ,熊本県熊本市東区戸島本町
8618043,熊本県,熊本市東区,戸島西,クマモトケン,クマモトシヒガシク,トシマニシ,熊本県熊本市東区戸島西
8618044,熊本県,熊本市東区,神園,クマモトケン,クマモトシヒガシク,コウゾノ,熊本県熊本市東区神園
8618045,熊本県,熊本市東区,小山,クマモトケン,クマモトシヒガシク,オヤマ,熊本県熊本市東区小山
8618046,熊本県,熊本市東区,石原,クマモトケン,クマモトシヒガシク,イシワラ,熊本県熊本市東区石原
8618064,熊本県,熊本市北区,八景水谷,クマモトケン,クマモトシキタク,ハケノミヤ,熊本県熊本市北区八景水谷
8618065,熊本県,熊本市北区,清水東町,クマモトケン,クマモトシキタク,シミズヒガシマチ,熊本県熊本市北区清水東町
8618066,熊本県,熊本市北区,清水亀井町,クマモトケン,クマモトシキタク,シミズカメイマチ,熊本県熊本市北区清水亀井町
8618068,熊本県,熊本市北区,清水万石,クマモトケン,クマモトシキタク,シミズマンゴク,熊本県熊本市北区清水万石
8618071,熊本県,熊本市北区,清水町室園,クマモトケン,クマモトシキタク,シミズマチムロゾノ,熊本県熊本市北区清水町室園
8618072,熊本県,熊本市中央区,室園町,クマモトケン,クマモトシチュウオウク,ムロゾノマチ,熊本県熊本市中央区室園町
8618072,熊本県,熊本市北区,室園町,クマモトケン,クマモトシキタク,ムロゾノマチ,熊本県熊本市北区室園町
8618073,熊本県,熊本市北区,清水町松崎,クマモトケン,クマモトシキタク,シミズマチマツザキ,熊本県熊本市北区清水町松崎
8618074,熊本県,熊本市北区,清水本町,クマモトケン,クマモトシキタク,シミズホンマチ,熊本県熊本市北区清水本町
8618075,熊本県,熊本市北区,清水新地,クマモトケン,クマモトシキタク,シミズシンチ,熊本県熊本市北区清水新地
8618081,熊本県,熊本市北区,麻生田,クマモトケン,クマモトシキタク,アソウダ,熊本県熊本市北区麻生田
8618082,熊本県,熊本市北区,兎谷,クマモトケン,クマモトシキタク,ウサギダニ,熊本県熊本市北区兎谷
8618083,熊本県,熊本市北区,楡木,クマモトケン,クマモトシキタク,ニレノキ,熊本県熊本市北区楡木
8618084,熊本県,熊本市北区,清水岩倉,クマモトケン,クマモトシキタク,シミズイワクラ,熊本県熊本市北区清水岩倉
8620901,熊本県,熊本市東区,東町,クマモトケン,クマモトシヒガシク,ヒガシマチ,熊本県熊本市東区東町
8620902,熊本県,熊本市東区,東本町,クマモトケン,クマモトシヒガシク,ヒガシホンマチ,熊本県熊本市東区東本町
8620903,熊本県,熊本市東区,若葉（１〜３丁目）,クマモトケン,クマモトシヒガシク,ワカバ(1-3チョウメ),熊本県熊本市東区若葉（1〜3-）
8620904,熊本県,熊本市東区,栄町,クマモトケン,クマモトシヒガシク,サカエマチ,熊本県熊本市東区栄町
8620905,熊本県,熊本市東区,南町,クマモトケン,クマモトシヒガシク,ミナミマチ,熊本県熊本市東区南町
8620906,熊本県,熊本市東区,広木町,クマモトケン,クマモトシヒガシク,ヒロギマチ,熊本県熊本市東区広木町
8620907,熊本県,熊本市東区,水源,クマモトケン,クマモトシヒガシク,スイゲン,熊本県熊本市東区水源
8620908,熊本県,熊本市東区,新生,クマモトケン,クマモトシヒガシク,シンセイ,熊本県熊本市東区新生
8620909,熊本県,熊本市中央区,湖東,クマモトケン,クマモトシチュウオウク,コトウ,熊本県熊本市中央区湖東
8620909,熊本県,熊本市東区,湖東,クマモトケン,クマモトシヒガシク,コトウ,熊本県熊本市東区湖東
8620910,熊本県,熊本市東区,健軍本町,クマモトケン,クマモトシヒガシク,ケングンホンマチ,熊本県熊本市東区健軍本町
8620911,熊本県,熊本市東区,健軍,クマモトケン,クマモトシヒガシク,ケングン,熊本県熊本市東区健軍
8620912,熊本県,熊本市東区,錦ケ丘,クマモトケン,クマモトシヒガシク,ニシキガオカ,熊本県熊本市東区錦ケ丘
8620913,熊本県,熊本市東区,尾ノ上,クマモトケン,クマモトシヒガシク,オノウエ,熊本県熊本市東区尾ノ上
8620914,熊本県,熊本市東区,山ノ内,クマモトケン,クマモトシヒガシク,ヤマノウチ,熊本県熊本市東区山ノ内
8620915,熊本県,熊本市東区,山ノ神,クマモトケン,クマモトシヒガシク,ヤマノカミ,熊本県熊本市東区山ノ神
8620916,熊本県,熊本市東区,佐土原,クマモトケン,クマモトシヒガシク,サドワラ,熊本県熊本市東区佐土原
8620917,熊本県,熊本市東区,榎町,クマモトケン,クマモトシヒガシク,エノキマチ,熊本県熊本市東区榎町
8620918,熊本県,熊本市東区,花立（５、６丁目）,クマモトケン,クマモトシヒガシク,ハナタテ(5、6チョウメ),熊本県熊本市東区花立（5、6-）
8620920,熊本県,熊本市東区,月出,クマモトケン,クマモトシヒガシク,ツキデ,熊本県熊本市東区月出
8620921,熊本県,熊本市東区,新外,クマモトケン,クマモトシヒガシク,シンホカ,熊本県熊本市東区新外
8620922,熊本県,熊本市中央区,三郎,クマモトケン,クマモトシチュウオウク,サブロウ,熊本県熊本市中央区三郎
8620922,熊本県,熊本市東区,三郎,クマモトケン,クマモトシヒガシク,サブロウ,熊本県熊本市東区三郎
8620923,熊本県,熊本市中央区,東京塚町,クマモトケン,クマモトシチュウオウク,ヒガシキョウヅカマチ,熊本県熊本市中央区東京塚町
8620923,熊本県,熊本市東区,東京塚町,クマモトケン,クマモトシヒガシク,ヒガシキョウヅカマチ,熊本県熊本市東区東京塚町
8620924,熊本県,熊本市中央区,帯山,クマモトケン,クマモトシチュウオウク,オビヤマ,熊本県熊本市中央区帯山
8620924,熊本県,熊本市東区,帯山,クマモトケン,クマモトシヒガシク,オビヤマ,熊本県熊本市東区帯山
8620925,熊本県,熊本市東区,保田窪本町,クマモトケン,クマモトシヒガシク,ホタクボホンマチ,熊本県熊本市東区保田窪本町
8620926,熊本県,熊本市中央区,保田窪,クマモトケン,クマモトシチュウオウク,ホタクボ,熊本県熊本市中央区保田窪
8620926,熊本県,熊本市東区,保田窪,クマモトケン,クマモトシヒガシク,ホタクボ,熊本県熊本市東区保田窪
8620933,熊本県,熊本市東区,小峯,クマモトケン,クマモトシヒガシク,オミネ,熊本県熊本市東区小峯
8620941,熊本県,熊本市中央区,出水,クマモトケン,クマモトシチュウオウク,イズミ,熊本県熊本市中央区出水
8620941,熊本県,熊本市東区,出水,クマモトケン,クマモトシヒガシク,イズミ,熊本県熊本市東区出水
8620942,熊本県,熊本市中央区,江津,クマモトケン,クマモトシチュウオウク,エヅ,熊本県熊本市中央区江津
8620942,熊本県,熊本市東区,江津,クマモトケン,クマモトシヒガシク,エヅ,熊本県熊本市東区江津
8620943,熊本県,熊本市東区,画図町下江津,クマモトケン,クマモトシヒガシク,エズマチシモエヅ,熊本県熊本市東区画図町下江津
8620944,熊本県,熊本市東区,画図町上無田,クマモトケン,クマモトシヒガシク,エズマチカミムタ,熊本県熊本市東区画図町上無田
8620945,熊本県,熊本市東区,画図町下無田,クマモトケン,クマモトシヒガシク,エズマチシモムタ,熊本県熊本市東区画図町下無田
8620946,熊本県,熊本市東区,画図町所島,クマモトケン,クマモトシヒガシク,エズマチトコロジマ,熊本県熊本市東区画図町所島
8620947,熊本県,熊本市東区,画図町重富,クマモトケン,クマモトシヒガシク,エズマチシゲドミ,熊本県熊本市東区画図町重富
8620948,熊本県,熊本市中央区,国府本町,クマモトケン,クマモトシチュウオウク,コクブホンマチ,熊本県熊本市中央区国府本町
8620949,熊本県,熊本市中央区,国府,クマモトケン,クマモトシチュウオウク,コクブ,熊本県熊本市中央区国府
8620950,熊本県,熊本市中央区,水前寺,クマモトケン,クマモトシチュウオウク,スイゼンジ,熊本県熊本市中央区水前寺
8620951,熊本県,熊本市中央区,上水前寺,クマモトケン,クマモトシチュウオウク,カミスイゼンジ,熊本県熊本市中央区上水前寺
8620952,熊本県,熊本市東区,京塚本町,クマモトケン,クマモトシヒガシク,キョウヅカホンマチ,熊本県熊本市東区京塚本町
8620953,熊本県,熊本市中央区,上京塚町,クマモトケン,クマモトシチュウオウク,カミキョウヅカマチ,熊本県熊本市中央区上京塚町
8620954,熊本県,熊本市中央区,神水,クマモトケン,クマモトシチュウオウク,クワミズ,熊本県熊本市中央区神水
8620955,熊本県,熊本市中央区,神水本町,クマモトケン,クマモトシチュウオウク,クワミズホンマチ,熊本県熊本市中央区神水本町
8620955,熊本県,熊本市東区,神水本町,クマモトケン,クマモトシヒガシク,クワミズホンマチ,熊本県熊本市東区神水本町
8620956,熊本県,熊本市中央区,水前寺公園,クマモトケン,クマモトシチュウオウク,スイゼンジコウエン,熊本県熊本市中央区水前寺公園
8620957,熊本県,熊本市中央区,菅原町,クマモトケン,クマモトシチュウオウク,スガワラマチ,熊本県熊本市中央区菅原町
8620958,熊本県,熊本市中央区,岡田町,クマモトケン,クマモトシチュウオウク,オカダマチ,熊本県熊本市中央区岡田町
8620959,熊本県,熊本市中央区,白山,クマモトケン,クマモトシチュウオウク,ハクザン,熊本県熊本市中央区白山
8620960,熊本県,熊本市東区,下江津,クマモトケン,クマモトシヒガシク,シモエヅ,熊本県熊本市東区下江津
8620961,熊本県,熊本市東区,画図東,クマモトケン,クマモトシヒガシク,エズヒガシ,熊本県熊本市東区画図東
8620962,熊本県,熊本市南区,田迎,クマモトケン,クマモトシミナミク,タムカエ,熊本県熊本市南区田迎
8620963,熊本県,熊本市南区,出仲間,クマモトケン,クマモトシミナミク,イデナカマ,熊本県熊本市南区出仲間
8620965,熊本県,熊本市南区,田井島,クマモトケン,クマモトシミナミク,タイノシマ,熊本県熊本市南区田井島
8620965,熊本県,熊本市南区,田迎町田井島,クマモトケン,クマモトシミナミク,タムカエマチタイノシマ,熊本県熊本市南区田迎町田井島
8620966,熊本県,熊本市南区,田迎町良町,クマモトケン,クマモトシミナミク,タムカエマチヤヤマチ,熊本県熊本市南区田迎町良町
8620967,熊本県,熊本市南区,流通団地,クマモトケン,クマモトシミナミク,リュウツウダンチ,熊本県熊本市南区流通団地
8620968,熊本県,熊本市南区,馬渡,クマモトケン,クマモトシミナミク,マワタリ,熊本県熊本市南区馬渡
8620969,熊本県,熊本市南区,良町,クマモトケン,クマモトシミナミク,ヤヤマチ,熊本県熊本市南区良町
8620970,熊本県,熊本市中央区,渡鹿,クマモトケン,クマモトシチュウオウク,トロク,熊本県熊本市中央区渡鹿
8620970,熊本県,熊本市東区,渡鹿,クマモトケン,クマモトシヒガシク,トロク,熊本県熊本市東区渡鹿
8620971,熊本県,熊本市中央区,大江,クマモトケン,クマモトシチュウオウク,オオエ,熊本県熊本市中央区大江
8620972,熊本県,熊本市中央区,新大江,クマモトケン,クマモトシチュウオウク,シンオオエ,熊本県熊本市中央区新大江
8620973,熊本県,熊本市中央区,大江本町,クマモトケン,クマモトシチュウオウク,オオエホンマチ,熊本県熊本市中央区大江本町
8620975,熊本県,熊本市中央区,新屋敷,クマモトケン,クマモトシチュウオウク,シンヤシキ,熊本県熊本市中央区新屋敷
8620976,熊本県,熊本市中央区,九品寺,クマモトケン,クマモトシチュウオウク,クホンジ,熊本県熊本市中央区九品寺
8630000,熊本県,天草市,,クマモトケン,アマクサシ,,熊本県天草市
8630001,熊本県,天草市,本渡町広瀬,クマモトケン,アマクサシ,ホンドマチヒロセ,熊本県天草市本渡町広瀬
8630002,熊本県,天草市,本渡町本戸馬場,クマモトケン,アマクサシ,ホンドマチホントババ,熊本県天草市本渡町本戸馬場
8630003,熊本県,天草市,本渡町本渡,クマモトケン,アマクサシ,ホンドマチホンド,熊本県天草市本渡町本渡
8630004,熊本県,天草市,本渡町本泉,クマモトケン,アマクサシ,ホンドマチモトイズミ,熊本県天草市本渡町本泉
8630005,熊本県,天草市,本町新休,クマモトケン,アマクサシ,ホンマチシンキュウ,熊本県天草市本町新休
8630006,熊本県,天草市,本町下河内,クマモトケン,アマクサシ,ホンマチシモガワチ,熊本県天草市本町下河内
8630007,熊本県,天草市,本町本,クマモトケン,アマクサシ,ホンマチホン,熊本県天草市本町本
8630011,熊本県,天草市,北浜町,クマモトケン,アマクサシ,キタハママチ,熊本県天草市北浜町
8630012,熊本県,天草市,今釜町,クマモトケン,アマクサシ,イマガママチ,熊本県天草市今釜町
8630013,熊本県,天草市,今釜新町,クマモトケン,アマクサシ,イマガマシンマチ,熊本県天草市今釜新町
8630014,熊本県,天草市,東浜町,クマモトケン,アマクサシ,ヒガシハママチ,熊本県天草市東浜町
8630015,熊本県,天草市,大浜町,クマモトケン,アマクサシ,オオハママチ,熊本県天草市大浜町
8630016,熊本県,天草市,城下町,クマモトケン,アマクサシ,ジョウカマチ,熊本県天草市城下町
8630017,熊本県,天草市,船之尾町,クマモトケン,アマクサシ,フネノオマチ,熊本県天草市船之尾町
8630018,熊本県,天草市,浜崎町,クマモトケン,アマクサシ,ハマサキマチ,熊本県天草市浜崎町
8630019,熊本県,天草市,小松原町,クマモトケン,アマクサシ,コマツバラマチ,熊本県天草市小松原町
8630021,熊本県,天草市,港町,クマモトケン,アマクサシ,ミナトマチ,熊本県天草市港町
8630022,熊本県,天草市,栄町,クマモトケン,アマクサシ,サカエマチ,熊本県天草市栄町
8630023,熊本県,天草市,中央新町,クマモトケン,アマクサシ,チュウオウシンマチ,熊本県天草市中央新町
8630024,熊本県,天草市,川原町,クマモトケン,アマクサシ,カワラマチ,熊本県天草市川原町
8630025,熊本県,天草市,古川町,クマモトケン,アマクサシ,フルカワマチ,熊本県天草市古川町
8630031,熊本県,天草市,南新町,クマモトケン,アマクサシ,ミナミシンマチ,熊本県天草市南新町
8630032,熊本県,天草市,太田町,クマモトケン,アマクサシ,オオタマチ,熊本県天草市太田町
8630033,熊本県,天草市,東町,クマモトケン,アマクサシ,ヒガシマチ,熊本県天草市東町
8630034,熊本県,天草市,浄南町,クマモトケン,アマクサシ,ジョウナンマチ,熊本県天草市浄南町
8630035,熊本県,天草市,山の手町,クマモトケン,アマクサシ,ヤマノテマチ,熊本県天草市山の手町
8630036,熊本県,天草市,川原新町,クマモトケン,アマクサシ,カワラシンマチ,熊本県天草市川原新町
8630037,熊本県,天草市,諏訪町,クマモトケン,アマクサシ,スワマチ,熊本県天草市諏訪町
8630038,熊本県,天草市,南町,クマモトケン,アマクサシ,ミナミマチ,熊本県天草市南町
8630041,熊本県,天草市,志柿町,クマモトケン,アマクサシ,シカキマチ,熊本県天草市志柿町
8630042,熊本県,天草市,瀬戸町,クマモトケン,アマクサシ,セドマチ,熊本県天草市瀬戸町
8630043,熊本県,天草市,亀場町亀川,クマモトケン,アマクサシ,カメバマチカメガワ,熊本県天草市亀場町亀川
8630044,熊本県,天草市,楠浦町,クマモトケン,アマクサシ,クスウラマチ,熊本県天草市楠浦町
8630045,熊本県,天草市,枦宇土町,クマモトケン,アマクサシ,ハジウトマチ,熊本県天草市枦宇土町
8630046,熊本県,天草市,亀場町食場,クマモトケン,アマクサシ,カメバマチジキバ,熊本県天草市亀場町食場
8630047,熊本県,天草市,八幡町,クマモトケン,アマクサシ,ハチマンマチ,熊本県天草市八幡町
8630048,熊本県,天草市,中村町,クマモトケン,アマクサシ,ナカムラマチ,熊本県天草市中村町
8630049,熊本県,天草市,北原町,クマモトケン,アマクサシ,キタハラマチ,熊本県天草市北原町
8630050,熊本県,天草市,丸尾町,クマモトケン,アマクサシ,マルオマチ,熊本県天草市丸尾町
8630101,熊本県,天草市,新和町小宮地,クマモトケン,アマクサシ,シンワマチコミヤジ,熊本県天草市新和町小宮地
8630102,熊本県,天草市,新和町大多尾,クマモトケン,アマクサシ,シンワマチオオタオ,熊本県天草市新和町大多尾
8630103,熊本県,天草市,新和町大宮地,クマモトケン,アマクサシ,シンワマチオオミヤジ,熊本県天草市新和町大宮地
8631111,熊本県,天草市,新和町碇石,クマモトケン,アマクサシ,シンワマチイカリイシ,熊本県天草市新和町碇石
8631112,熊本県,天草市,新和町中田,クマモトケン,アマクサシ,シンワマチナカダ,熊本県天草市新和町中田
8631161,熊本県,天草市,宮地岳町,クマモトケン,アマクサシ,ミヤジダケマチ,熊本県天草市宮地岳町
8631201,熊本県,天草市,河浦町今田,クマモトケン,アマクサシ,カワウラマチイマダ,熊本県天草市河浦町今田
8631202,熊本県,天草市,河浦町河浦,クマモトケン,アマクサシ,カワウラマチカワウラ,熊本県天草市河浦町河浦
8631203,熊本県,天草市,河浦町今富（その他）,クマモトケン,アマクサシ,カワウラマチイマトミ(ソノタ),熊本県天草市河浦町今富（その他）
8631204,熊本県,天草市,河浦町崎津（その他）,クマモトケン,アマクサシ,カワウラマチサキツ(ソノタ),熊本県天草市河浦町崎津（その他）
8631205,熊本県,天草市,天草町高浜北（４００１−２３、４１３５番地）,クマモトケン,アマクサシ,アマクサマチタカハマキタ(4001-23、4135バンチ),熊本県天草市天草町高浜北（4001-23、4135-）
8631211,熊本県,天草市,河浦町立原,クマモトケン,アマクサシ,カワウラマチタチハラ,熊本県天草市河浦町立原
8631212,熊本県,天草市,河浦町宮野河内,クマモトケン,アマクサシ,カワウラマチミヤノカワチ,熊本県天草市河浦町宮野河内
8631213,熊本県,天草市,河浦町路木,クマモトケン,アマクサシ,カワウラマチロギ,熊本県天草市河浦町路木
8631214,熊本県,天草市,河浦町久留,クマモトケン,アマクサシ,カワウラマチヒサドメ,熊本県天草市河浦町久留
8631215,熊本県,天草市,河浦町白木河内,クマモトケン,アマクサシ,カワウラマチシラキカワチ,熊本県天草市河浦町白木河内
8631216,熊本県,天草市,河浦町新合,クマモトケン,アマクサシ,カワウラマチシンゴウ,熊本県天草市河浦町新合
8631401,熊本県,天草市,天草町大江向,クマモトケン,アマクサシ,アマクサマチオオエムコウ,熊本県天草市天草町大江向
8631403,熊本県,天草市,河浦町今富（１９３３、１９３９、１９４５、１９５５−４、１９６０、,クマモトケン,アマクサシ,カワウラマチイマトミ(1933、1939、1945、1955-4、1960、,熊本県天草市河浦町今富（1933、1939、1945、1955-4、1960、
8631404,熊本県,天草市,河浦町崎津（１６４４、１６４７−１、１６５９）,クマモトケン,アマクサシ,カワウラマチサキツ(1644、1647-1、1659),熊本県天草市河浦町崎津（1644、1647-1、1659）
8631431,熊本県,天草市,二浦町早浦,クマモトケン,アマクサシ,フタウラマチハヤウラ,熊本県天草市二浦町早浦
8631432,熊本県,天草市,二浦町亀浦,クマモトケン,アマクサシ,フタウラマチカメウラ,熊本県天草市二浦町亀浦
8631511,熊本県,天草市,深海町,クマモトケン,アマクサシ,フカミマチ,熊本県天草市深海町
8631721,熊本県,天草市,魚貫町,クマモトケン,アマクサシ,オニキマチ,熊本県天草市魚貫町
8631901,熊本県,天草市,牛深町,クマモトケン,アマクサシ,ウシブカマチ,熊本県天草市牛深町
8631902,熊本県,天草市,久玉町,クマモトケン,アマクサシ,クタママチ,熊本県天草市久玉町
8632114,熊本県,天草市,五和町城河原,クマモトケン,アマクサシ,イツワマチジョウガワラ,熊本県天草市五和町城河原
8632171,熊本県,天草市,佐伊津町,クマモトケン,アマクサシ,サイツマチ,熊本県天草市佐伊津町
8632172,熊本県,天草市,旭町,クマモトケン,アマクサシ,アサヒマチ,熊本県天草市旭町
8632201,熊本県,天草市,五和町御領,クマモトケン,アマクサシ,イツワマチゴリョウ,熊本県天草市五和町御領
8632331,熊本県,天草市,五和町鬼池,クマモトケン,アマクサシ,イツワマチオニイケ,熊本県天草市五和町鬼池
8632421,熊本県,天草市,五和町二江,クマモトケン,アマクサシ,イツワマチフタエ,熊本県天草市五和町二江
8632424,熊本県,天草市,五和町手野,クマモトケン,アマクサシ,イツワマチテノ,熊本県天草市五和町手野
8632500,熊本県,天草郡苓北町,,クマモトケン,アマクサグンレイホクマチ,,熊本県天草郡苓北町
8632501,熊本県,天草郡苓北町,坂瀬川,クマモトケン,アマクサグンレイホクマチ,サカセガワ,熊本県天草郡苓北町坂瀬川
8632502,熊本県,天草郡苓北町,上津深江,クマモトケン,アマクサグンレイホクマチ,コウツフカエ,熊本県天草郡苓北町上津深江
8632503,熊本県,天草郡苓北町,志岐,クマモトケン,アマクサグンレイホクマチ,シキ,熊本県天草郡苓北町志岐
8632504,熊本県,天草郡苓北町,年柄,クマモトケン,アマクサグンレイホクマチ,トシカラ,熊本県天草郡苓北町年柄
8632505,熊本県,天草郡苓北町,内田,クマモトケン,アマクサグンレイホクマチ,ウチダ,熊本県天草郡苓北町内田
8632506,熊本県,天草郡苓北町,白木尾,クマモトケン,アマクサグンレイホクマチ,シラキオ,熊本県天草郡苓北町白木尾
8632507,熊本県,天草郡苓北町,富岡,クマモトケン,アマクサグンレイホクマチ,トミオカ,熊本県天草郡苓北町富岡
8632611,熊本県,天草郡苓北町,都呂々,クマモトケン,アマクサグンレイホクマチ,トロロ,熊本県天草郡苓北町都呂々
8632801,熊本県,天草市,天草町大江,クマモトケン,アマクサシ,アマクサマチオオエ,熊本県天草市天草町大江
8632801,熊本県,天草市,天草町大江軍浦,クマモトケン,アマクサシ,アマクサマチオオエイクサガウラ,熊本県天草市天草町大江軍浦
8632802,熊本県,天草市,天草町下田南,クマモトケン,アマクサシ,アマクサマチシモダミナミ,熊本県天草市天草町下田南
8632803,熊本県,天草市,天草町下田北,クマモトケン,アマクサシ,アマクサマチシモダキタ,熊本県天草市天草町下田北
8632804,熊本県,天草市,天草町高浜南,クマモトケン,アマクサシ,アマクサマチタカハマミナミ,熊本県天草市天草町高浜南
8632805,熊本県,天草市,天草町高浜北（その他）,クマモトケン,アマクサシ,アマクサマチタカハマキタ(ソノタ),熊本県天草市天草町高浜北（その他）
8632806,熊本県,天草市,天草町福連木,クマモトケン,アマクサシ,アマクサマチフクレギ,熊本県天草市天草町福連木
8640000,熊本県,荒尾市,,クマモトケン,アラオシ,,熊本県荒尾市
8640001,熊本県,荒尾市,原万田,クマモトケン,アラオシ,ハラマンダ,熊本県荒尾市原万田
8640002,熊本県,荒尾市,万田,クマモトケン,アラオシ,マンダ,熊本県荒尾市万田
8640003,熊本県,荒尾市,宮内出目,クマモトケン,アラオシ,クナイデメ,熊本県荒尾市宮内出目
8640004,熊本県,荒尾市,宮内,クマモトケン,アラオシ,クナイ,熊本県荒尾市宮内
8640005,熊本県,荒尾市,大平町,クマモトケン,アラオシ,オオヒラマチ,熊本県荒尾市大平町
8640006,熊本県,荒尾市,住吉町,クマモトケン,アラオシ,スミヨシマチ,熊本県荒尾市住吉町
8640011,熊本県,荒尾市,下井手,クマモトケン,アラオシ,シモイデ,熊本県荒尾市下井手
8640012,熊本県,荒尾市,本井手,クマモトケン,アラオシ,ホンイデ,熊本県荒尾市本井手
8640013,熊本県,荒尾市,上井手,クマモトケン,アラオシ,カミイデ,熊本県荒尾市上井手
8640014,熊本県,荒尾市,上平山,クマモトケン,アラオシ,カミヒラヤマ,熊本県荒尾市上平山
8640015,熊本県,荒尾市,平山,クマモトケン,アラオシ,ヒラヤマ,熊本県荒尾市平山
8640021,熊本県,荒尾市,一部,クマモトケン,アラオシ,イチブ,熊本県荒尾市一部
8640022,熊本県,荒尾市,桜山町,クマモトケン,アラオシ,サクラヤママチ,熊本県荒尾市桜山町
8640023,熊本県,荒尾市,水野,クマモトケン,アラオシ,ミズノ,熊本県荒尾市水野
8640025,熊本県,荒尾市,高浜,クマモトケン,アラオシ,タカハマ,熊本県荒尾市高浜
8640026,熊本県,荒尾市,牛水,クマモトケン,アラオシ,ウシノミズ,熊本県荒尾市牛水
8640027,熊本県,荒尾市,蔵満,クマモトケン,アラオシ,クラミツ,熊本県荒尾市蔵満
8640031,熊本県,荒尾市,川登（１７７３〜１９７９、１９８１〜２０１０、２０５０〜２１００番地）,クマモトケン,アラオシ,カワノボリ(1773-1979、1981-2010、2050-2100バンチ),熊本県荒尾市川登（1773〜1979、1981〜2010、2050〜2100-）
8640032,熊本県,荒尾市,増永,クマモトケン,アラオシ,マスナガ,熊本県荒尾市増永
8640033,熊本県,荒尾市,緑ケ丘,クマモトケン,アラオシ,ミドリガオカ,熊本県荒尾市緑ケ丘
8640041,熊本県,荒尾市,荒尾,クマモトケン,アラオシ,アラオ,熊本県荒尾市荒尾
8640042,熊本県,荒尾市,東屋形,クマモトケン,アラオシ,ヒガシヤカタ,熊本県荒尾市東屋形
8640051,熊本県,荒尾市,大島町,クマモトケン,アラオシ,オオシママチ,熊本県荒尾市大島町
8640052,熊本県,荒尾市,四ツ山町,クマモトケン,アラオシ,ヨツヤママチ,熊本県荒尾市四ツ山町
8640053,熊本県,荒尾市,西原町,クマモトケン,アラオシ,ニシバルマチ,熊本県荒尾市西原町
8640054,熊本県,荒尾市,大正町,クマモトケン,アラオシ,タイショウマチ,熊本県荒尾市大正町
8640055,熊本県,荒尾市,日の出町,クマモトケン,アラオシ,ヒノデマチ,熊本県荒尾市日の出町
8640056,熊本県,荒尾市,昭和町,クマモトケン,アラオシ,ショウワマチ,熊本県荒尾市昭和町
8640057,熊本県,荒尾市,大島,クマモトケン,アラオシ,オオシマ,熊本県荒尾市大島
8640131,熊本県,荒尾市,川登（その他）,クマモトケン,アラオシ,カワノボリ(ソノタ),熊本県荒尾市川登（その他）
8640161,熊本県,荒尾市,菰屋,クマモトケン,アラオシ,コモヤ,熊本県荒尾市菰屋
8640162,熊本県,荒尾市,金山,クマモトケン,アラオシ,カナヤマ,熊本県荒尾市金山
8640163,熊本県,荒尾市,野原,クマモトケン,アラオシ,ノバラ,熊本県荒尾市野原
8640164,熊本県,荒尾市,八幡台,クマモトケン,アラオシ,ハチマンダイ,熊本県荒尾市八幡台
8640165,熊本県,荒尾市,樺,クマモトケン,アラオシ,カバ,熊本県荒尾市樺
8640166,熊本県,荒尾市,府本,クマモトケン,アラオシ,フモト,熊本県荒尾市府本
8650000,熊本県,玉名市,,クマモトケン,タマナシ,,熊本県玉名市
8650001,熊本県,玉名市,月田,クマモトケン,タマナシ,ツキダ,熊本県玉名市月田
8650002,熊本県,玉名市,箱谷,クマモトケン,タマナシ,ハコダニ,熊本県玉名市箱谷
8650003,熊本県,玉名市,溝上,クマモトケン,タマナシ,ミゾノウエ,熊本県玉名市溝上
8650004,熊本県,玉名市,青木,クマモトケン,タマナシ,アオキ,熊本県玉名市青木
8650005,熊本県,玉名市,玉名,クマモトケン,タマナシ,タマナ,熊本県玉名市玉名
8650006,熊本県,玉名市,両迫間,クマモトケン,タマナシ,リョウハザマ,熊本県玉名市両迫間
8650007,熊本県,玉名市,河崎,クマモトケン,タマナシ,カワサキ,熊本県玉名市河崎
8650008,熊本県,玉名市,石貫,クマモトケン,タマナシ,イシヌキ,熊本県玉名市石貫
8650009,熊本県,玉名市,三ツ川,クマモトケン,タマナシ,ミツカワ,熊本県玉名市三ツ川
8650011,熊本県,玉名市,上小田,クマモトケン,タマナシ,カミオダ,熊本県玉名市上小田
8650012,熊本県,玉名市,山部田,クマモトケン,タマナシ,ヤマベタ,熊本県玉名市山部田
8650013,熊本県,玉名市,下,クマモトケン,タマナシ,シモ,熊本県玉名市下
8650014,熊本県,玉名市,安楽寺,クマモトケン,タマナシ,アンラクジ,熊本県玉名市安楽寺
8650015,熊本県,玉名市,亀甲,クマモトケン,タマナシ,カメノコウ,熊本県玉名市亀甲
8650016,熊本県,玉名市,岩崎,クマモトケン,タマナシ,イワサキ,熊本県玉名市岩崎
8650017,熊本県,玉名市,川部田,クマモトケン,タマナシ,カワベタ,熊本県玉名市川部田
8650018,熊本県,玉名市,下小田,クマモトケン,タマナシ,シモオダ,熊本県玉名市下小田
8650021,熊本県,玉名市,津留,クマモトケン,タマナシ,ツル,熊本県玉名市津留
8650022,熊本県,玉名市,寺田,クマモトケン,タマナシ,テラダ,熊本県玉名市寺田
8650023,熊本県,玉名市,大倉,クマモトケン,タマナシ,オオクラ,熊本県玉名市大倉
8650024,熊本県,玉名市,永徳寺,クマモトケン,タマナシ,エイトクジ,熊本県玉名市永徳寺
8650025,熊本県,玉名市,高瀬,クマモトケン,タマナシ,タカセ,熊本県玉名市高瀬
8650026,熊本県,玉名市,秋丸,クマモトケン,タマナシ,アキマル,熊本県玉名市秋丸
8650027,熊本県,玉名市,向津留,クマモトケン,タマナシ,ムコウヅル,熊本県玉名市向津留
8650031,熊本県,玉名市,田崎,クマモトケン,タマナシ,タサキ,熊本県玉名市田崎
8650032,熊本県,玉名市,北坂門田,クマモトケン,タマナシ,キタサカモンタ,熊本県玉名市北坂門田
8650033,熊本県,玉名市,中坂門田,クマモトケン,タマナシ,ナカサカモンタ,熊本県玉名市中坂門田
8650034,熊本県,玉名市,南坂門田,クマモトケン,タマナシ,ミナミサカモンタ,熊本県玉名市南坂門田
8650035,熊本県,玉名市,青野,クマモトケン,タマナシ,アオノ,熊本県玉名市青野
8650041,熊本県,玉名市,伊倉北方,クマモトケン,タマナシ,イクラキタカタ,熊本県玉名市伊倉北方
8650042,熊本県,玉名市,宮原,クマモトケン,タマナシ,ミヤバラ,熊本県玉名市宮原
8650043,熊本県,玉名市,横田,クマモトケン,タマナシ,ヨコタ,熊本県玉名市横田
8650044,熊本県,玉名市,片諏訪,クマモトケン,タマナシ,カタスワ,熊本県玉名市片諏訪
8650045,熊本県,玉名市,伊倉南方,クマモトケン,タマナシ,イクラミナミカタ,熊本県玉名市伊倉南方
8650046,熊本県,玉名市,北牟田,クマモトケン,タマナシ,キタムタ,熊本県玉名市北牟田
8650047,熊本県,玉名市,川島,クマモトケン,タマナシ,カワシマ,熊本県玉名市川島
8650048,熊本県,玉名市,小野尻,クマモトケン,タマナシ,オノジリ,熊本県玉名市小野尻
8650051,熊本県,玉名市,繁根木,クマモトケン,タマナシ,ハネギ,熊本県玉名市繁根木
8650052,熊本県,玉名市,松木,クマモトケン,タマナシ,マツキ,熊本県玉名市松木
8650053,熊本県,玉名市,千田川原,クマモトケン,タマナシ,センダガワラ,熊本県玉名市千田川原
8650054,熊本県,玉名市,小島,クマモトケン,タマナシ,オシマ,熊本県玉名市小島
8650055,熊本県,玉名市,大浜町,クマモトケン,タマナシ,オオハママチ,熊本県玉名市大浜町
8650056,熊本県,玉名市,滑石,クマモトケン,タマナシ,ナメイシ,熊本県玉名市滑石
8650057,熊本県,玉名市,小浜,クマモトケン,タマナシ,コバマ,熊本県玉名市小浜
8650058,熊本県,玉名市,六田,クマモトケン,タマナシ,ロクタ,熊本県玉名市六田
8650061,熊本県,玉名市,立願寺,クマモトケン,タマナシ,リュウガンジ,熊本県玉名市立願寺
8650062,熊本県,玉名市,富尾,クマモトケン,タマナシ,トミノオ,熊本県玉名市富尾
8650063,熊本県,玉名市,中尾,クマモトケン,タマナシ,ナカオ,熊本県玉名市中尾
8650064,熊本県,玉名市,中,クマモトケン,タマナシ,ナカ,熊本県玉名市中
8650065,熊本県,玉名市,築地,クマモトケン,タマナシ,ツイジ,熊本県玉名市築地
8650066,熊本県,玉名市,山田,クマモトケン,タマナシ,ヤマダ,熊本県玉名市山田
8650071,熊本県,玉名市,横島町大園,クマモトケン,タマナシ,ヨコシママチオオゾノ,熊本県玉名市横島町大園
8650072,熊本県,玉名市,横島町横島,クマモトケン,タマナシ,ヨコシママチヨコシマ,熊本県玉名市横島町横島
8650073,熊本県,玉名市,横島町共栄,クマモトケン,タマナシ,ヨコシママチキョウエイ,熊本県玉名市横島町共栄
8650100,熊本県,玉名郡和水町,,クマモトケン,タマナグンナゴミマチ,,熊本県玉名郡和水町
8650101,熊本県,玉名郡和水町,江栗,クマモトケン,タマナグンナゴミマチ,エグリ,熊本県玉名郡和水町江栗
8650102,熊本県,玉名郡和水町,久井原,クマモトケン,タマナグンナゴミマチ,ヒサイバル,熊本県玉名郡和水町久井原
8650103,熊本県,玉名郡和水町,長小田,クマモトケン,タマナグンナゴミマチ,ナガオダ,熊本県玉名郡和水町長小田
8650104,熊本県,玉名郡和水町,内田,クマモトケン,タマナグンナゴミマチ,ウチダ,熊本県玉名郡和水町内田
8650111,熊本県,玉名郡和水町,下津原,クマモトケン,タマナグンナゴミマチ,シモツワラ,熊本県玉名郡和水町下津原
8650112,熊本県,玉名郡和水町,大屋,クマモトケン,タマナグンナゴミマチ,オオヤ,熊本県玉名郡和水町大屋
8650113,熊本県,玉名郡和水町,焼米,クマモトケン,タマナグンナゴミマチ,ヤイゴメ,熊本県玉名郡和水町焼米
8650114,熊本県,玉名郡和水町,岩尻,クマモトケン,タマナグンナゴミマチ,イワシリ,熊本県玉名郡和水町岩尻
8650115,熊本県,玉名郡和水町,久米野,クマモトケン,タマナグンナゴミマチ,クベノ,熊本県玉名郡和水町久米野
8650116,熊本県,玉名郡和水町,竈門,クマモトケン,タマナグンナゴミマチ,カマド,熊本県玉名郡和水町竈門
8650117,熊本県,玉名郡和水町,志口永,クマモトケン,タマナグンナゴミマチ,シグチナガ,熊本県玉名郡和水町志口永
8650121,熊本県,玉名郡和水町,榎原,クマモトケン,タマナグンナゴミマチ,エノキバル,熊本県玉名郡和水町榎原
8650122,熊本県,玉名郡和水町,高野,クマモトケン,タマナグンナゴミマチ,タカノ,熊本県玉名郡和水町高野
8650123,熊本県,玉名郡和水町,米渡尾,クマモトケン,タマナグンナゴミマチ,メドオ,熊本県玉名郡和水町米渡尾
8650124,熊本県,玉名郡和水町,原口,クマモトケン,タマナグンナゴミマチ,ハルグチ,熊本県玉名郡和水町原口
8650125,熊本県,玉名郡和水町,藤田,クマモトケン,タマナグンナゴミマチ,フジタ,熊本県玉名郡和水町藤田
8650126,熊本県,玉名郡和水町,前原,クマモトケン,タマナグンナゴミマチ,マエバル,熊本県玉名郡和水町前原
8650131,熊本県,玉名郡和水町,用木,クマモトケン,タマナグンナゴミマチ,モテギ,熊本県玉名郡和水町用木
8650132,熊本県,玉名郡和水町,萩原,クマモトケン,タマナグンナゴミマチ,ハギワラ,熊本県玉名郡和水町萩原
8650133,熊本県,玉名郡和水町,蜻浦,クマモトケン,タマナグンナゴミマチ,ヘボウラ,熊本県玉名郡和水町蜻浦
8650134,熊本県,玉名郡和水町,日平,クマモトケン,タマナグンナゴミマチ,ヒビラ,熊本県玉名郡和水町日平
8650135,熊本県,玉名郡和水町,瀬川,クマモトケン,タマナグンナゴミマチ,セガワ,熊本県玉名郡和水町瀬川
8650136,熊本県,玉名郡和水町,江田,クマモトケン,タマナグンナゴミマチ,エタ,熊本県玉名郡和水町江田
8660000,熊本県,八代市,,クマモトケン,ヤツシロシ,,熊本県八代市
8660001,熊本県,八代市,郡築十二番町,クマモトケン,ヤツシロシ,グンチク12バンチョウ,熊本県八代市郡築十二番町
8660002,熊本県,八代市,郡築十一番町,クマモトケン,ヤツシロシ,グンチク11バンチョウ,熊本県八代市郡築十一番町
8660003,熊本県,八代市,郡築十番町,クマモトケン,ヤツシロシ,グンチク10バンチョウ,熊本県八代市郡築十番町
8660004,熊本県,八代市,郡築九番町,クマモトケン,ヤツシロシ,グンチク9バンチョウ,熊本県八代市郡築九番町
8660005,熊本県,八代市,郡築八番町,クマモトケン,ヤツシロシ,グンチク8バンチョウ,熊本県八代市郡築八番町
8660006,熊本県,八代市,郡築七番町,クマモトケン,ヤツシロシ,グンチク7バンチョウ,熊本県八代市郡築七番町
8660007,熊本県,八代市,郡築六番町,クマモトケン,ヤツシロシ,グンチク6バンチョウ,熊本県八代市郡築六番町
8660008,熊本県,八代市,郡築五番町,クマモトケン,ヤツシロシ,グンチク5バンチョウ,熊本県八代市郡築五番町
8660011,熊本県,八代市,井揚町,クマモトケン,ヤツシロシ,イアゲマチ,熊本県八代市井揚町
8660012,熊本県,八代市,高小原町,クマモトケン,ヤツシロシ,コウゴバラマチ,熊本県八代市高小原町
8660013,熊本県,八代市,沖町,クマモトケン,ヤツシロシ,オキマチ,熊本県八代市沖町
8660014,熊本県,八代市,高島町,クマモトケン,ヤツシロシ,タカシママチ,熊本県八代市高島町
8660015,熊本県,八代市,築添町,クマモトケン,ヤツシロシ,ツキゾエマチ,熊本県八代市築添町
8660016,熊本県,八代市,新地町,クマモトケン,ヤツシロシ,シンチマチ,熊本県八代市新地町
8660017,熊本県,八代市,三楽町,クマモトケン,ヤツシロシ,サンラクチョウ,熊本県八代市三楽町
8660021,熊本県,八代市,郡築四番町,クマモトケン,ヤツシロシ,グンチク4バンチョウ,熊本県八代市郡築四番町
8660022,熊本県,八代市,郡築三番町,クマモトケン,ヤツシロシ,グンチク3バンチョウ,熊本県八代市郡築三番町
8660023,熊本県,八代市,郡築二番町,クマモトケン,ヤツシロシ,グンチク2バンチョウ,熊本県八代市郡築二番町
8660024,熊本県,八代市,郡築一番町,クマモトケン,ヤツシロシ,グンチク1バンチョウ,熊本県八代市郡築一番町
8660031,熊本県,八代市,新浜町,クマモトケン,ヤツシロシ,シンハママチ,熊本県八代市新浜町
8660032,熊本県,八代市,新開町,クマモトケン,ヤツシロシ,シンカイマチ,熊本県八代市新開町
8660033,熊本県,八代市,港町,クマモトケン,ヤツシロシ,ミナトマチ,熊本県八代市港町
8660034,熊本県,八代市,新港町,クマモトケン,ヤツシロシ,シンミナトマチ,熊本県八代市新港町
8660035,熊本県,八代市,大島町,クマモトケン,ヤツシロシ,オオシママチ,熊本県八代市大島町
8660041,熊本県,八代市,八幡町,クマモトケン,ヤツシロシ,ハチマンチョウ,熊本県八代市八幡町
8660042,熊本県,八代市,蛇籠町,クマモトケン,ヤツシロシ,ジャカゴマチ,熊本県八代市蛇籠町
8660043,熊本県,八代市,古城町,クマモトケン,ヤツシロシ,フルシロマチ,熊本県八代市古城町
8660044,熊本県,八代市,中北町,クマモトケン,ヤツシロシ,ナカキタマチ,熊本県八代市中北町
8660045,熊本県,八代市,建馬町,クマモトケン,ヤツシロシ,タテウママチ,熊本県八代市建馬町
8660051,熊本県,八代市,麦島東町,クマモトケン,ヤツシロシ,ムギシマヒガシマチ,熊本県八代市麦島東町
8660052,熊本県,八代市,麦島西町,クマモトケン,ヤツシロシ,ムギシマニシマチ,熊本県八代市麦島西町
8660053,熊本県,八代市,千反町,クマモトケン,ヤツシロシ,センダンマチ,熊本県八代市千反町
8660054,熊本県,八代市,栴檀町,クマモトケン,ヤツシロシ,センダンマチ,熊本県八代市栴檀町
8660055,熊本県,八代市,迎町,クマモトケン,ヤツシロシ,ムカエマチ,熊本県八代市迎町
8660061,熊本県,八代市,渡町,クマモトケン,ヤツシロシ,ワタシマチ,熊本県八代市渡町
8660062,熊本県,八代市,豊原中町,クマモトケン,ヤツシロシ,ブイワラナカマチ,熊本県八代市豊原中町
8660063,熊本県,八代市,豊原上町,クマモトケン,ヤツシロシ,ブイワラカミマチ,熊本県八代市豊原上町
8660064,熊本県,八代市,奈良木町,クマモトケン,ヤツシロシ,ナラギマチ,熊本県八代市奈良木町
8660065,熊本県,八代市,豊原下町,クマモトケン,ヤツシロシ,ブイワラシモマチ,熊本県八代市豊原下町
8660071,熊本県,八代市,高下東町,クマモトケン,ヤツシロシ,コウゲヒガシマチ,熊本県八代市高下東町
8660072,熊本県,八代市,高下西町,クマモトケン,ヤツシロシ,コウゲニシマチ,熊本県八代市高下西町
8660073,熊本県,八代市,本野町,クマモトケン,ヤツシロシ,ホンノマチ,熊本県八代市本野町
8660074,熊本県,八代市,平山新町,クマモトケン,ヤツシロシ,ヒラヤマシンマチ,熊本県八代市平山新町
8660081,熊本県,八代市,植柳上町,クマモトケン,ヤツシロシ,ウヤナギカミマチ,熊本県八代市植柳上町
8660082,熊本県,八代市,大福寺町,クマモトケン,ヤツシロシ,ダイフクジマチ,熊本県八代市大福寺町
8660083,熊本県,八代市,植柳下町,クマモトケン,ヤツシロシ,ウヤナギシモマチ,熊本県八代市植柳下町
8660084,熊本県,八代市,植柳新町,クマモトケン,ヤツシロシ,ウヤナギシンマチ,熊本県八代市植柳新町
8660085,熊本県,八代市,植柳元町,クマモトケン,ヤツシロシ,ウヤナギモトマチ,熊本県八代市植柳元町
8660101,熊本県,上天草市,姫戸町姫浦,クマモトケン,カミアマクサシ,ヒメドマチヒメウラ,熊本県上天草市姫戸町姫浦
8660102,熊本県,上天草市,姫戸町二間戸,クマモトケン,カミアマクサシ,ヒメドマチフタマド,熊本県上天草市姫戸町二間戸
8660201,熊本県,上天草市,龍ケ岳町大道,クマモトケン,カミアマクサシ,リュウガタケマチオオドウ,熊本県上天草市龍ケ岳町大道
8660202,熊本県,上天草市,龍ケ岳町高戸,クマモトケン,カミアマクサシ,リュウガタケマチタカド,熊本県上天草市龍ケ岳町高戸
8660203,熊本県,上天草市,龍ケ岳町樋島,クマモトケン,カミアマクサシ,リュウガタケマチヒノシマ,熊本県上天草市龍ケ岳町樋島
8660303,熊本県,天草市,御所浦町横浦,クマモトケン,アマクサシ,ゴショウラマチヨコウラ,熊本県天草市御所浦町横浦
8660313,熊本県,天草市,御所浦町御所浦,クマモトケン,アマクサシ,ゴショウラマチゴショウラ,熊本県天草市御所浦町御所浦
8660334,熊本県,天草市,御所浦町牧島,クマモトケン,アマクサシ,ゴショウラマチマキシマ,熊本県天草市御所浦町牧島
8660801,熊本県,八代市,東町,クマモトケン,ヤツシロシ,ヒガシマチ,熊本県八代市東町
8660802,熊本県,八代市,妙見町,クマモトケン,ヤツシロシ,ミョウケンマチ,熊本県八代市妙見町
8660803,熊本県,八代市,古麓町,クマモトケン,ヤツシロシ,フルフモトマチ,熊本県八代市古麓町
8660804,熊本県,八代市,西宮町,クマモトケン,ヤツシロシ,ニシミヤマチ,熊本県八代市西宮町
8660805,熊本県,八代市,宮地町,クマモトケン,ヤツシロシ,ミヤジマチ,熊本県八代市宮地町
8660811,熊本県,八代市,西片町,クマモトケン,ヤツシロシ,ニシカタマチ,熊本県八代市西片町
8660812,熊本県,八代市,中片町,クマモトケン,ヤツシロシ,ナカカタマチ,熊本県八代市中片町
8660813,熊本県,八代市,上片町,クマモトケン,ヤツシロシ,カミカタマチ,熊本県八代市上片町
8660814,熊本県,八代市,東片町,クマモトケン,ヤツシロシ,ヒガシカタマチ,熊本県八代市東片町
8660815,熊本県,八代市,長田町,クマモトケン,ヤツシロシ,ナガタマチ,熊本県八代市長田町
8660821,熊本県,八代市,福正町,クマモトケン,ヤツシロシ,フクショウマチ,熊本県八代市福正町
8660822,熊本県,八代市,福正元町,クマモトケン,ヤツシロシ,フクショウモトマチ,熊本県八代市福正元町
8660823,熊本県,八代市,十条町,クマモトケン,ヤツシロシ,ジュウジョウマチ,熊本県八代市十条町
8660824,熊本県,八代市,上日置町,クマモトケン,ヤツシロシ,カミヒオキマチ,熊本県八代市上日置町
8660825,熊本県,八代市,井上町,クマモトケン,ヤツシロシ,イノウエマチ,熊本県八代市井上町
8660826,熊本県,八代市,竹原町,クマモトケン,ヤツシロシ,タケハラマチ,熊本県八代市竹原町
8660827,熊本県,八代市,島田町,クマモトケン,ヤツシロシ,シマダマチ,熊本県八代市島田町
8660831,熊本県,八代市,萩原町,クマモトケン,ヤツシロシ,ハギワラマチ,熊本県八代市萩原町
8660832,熊本県,八代市,末広町,クマモトケン,ヤツシロシ,スエヒロチョウ,熊本県八代市末広町
8660833,熊本県,八代市,夕葉町,クマモトケン,ヤツシロシ,ユウバチョウ,熊本県八代市夕葉町
8660834,熊本県,八代市,錦町,クマモトケン,ヤツシロシ,ニシキチョウ,熊本県八代市錦町
8660841,熊本県,八代市,緑町,クマモトケン,ヤツシロシ,ミドリチョウ,熊本県八代市緑町
8660842,熊本県,八代市,若草町,クマモトケン,ヤツシロシ,ワカクサチョウ,熊本県八代市若草町
8660843,熊本県,八代市,花園町,クマモトケン,ヤツシロシ,ハナゾノチョウ,熊本県八代市花園町
8660844,熊本県,八代市,旭中央通,クマモトケン,ヤツシロシ,アサヒチュウオウドオリ,熊本県八代市旭中央通
8660845,熊本県,八代市,黄金町,クマモトケン,ヤツシロシ,コガネチョウ,熊本県八代市黄金町
8660846,熊本県,八代市,弥生町,クマモトケン,ヤツシロシ,ヤヨイチョウ,熊本県八代市弥生町
8660851,熊本県,八代市,毘舎丸町,クマモトケン,ヤツシロシ,ビシャマルマチ,熊本県八代市毘舎丸町
8660852,熊本県,八代市,大手町,クマモトケン,ヤツシロシ,オオテマチ,熊本県八代市大手町
8660853,熊本県,八代市,清水町,クマモトケン,ヤツシロシ,シミズマチ,熊本県八代市清水町
8660854,熊本県,八代市,新町,クマモトケン,ヤツシロシ,シンマチ,熊本県八代市新町
8660855,熊本県,八代市,袋町,クマモトケン,ヤツシロシ,フクロマチ,熊本県八代市袋町
8660856,熊本県,八代市,通町,クマモトケン,ヤツシロシ,トオリチョウ,熊本県八代市通町
8660857,熊本県,八代市,出町,クマモトケン,ヤツシロシ,デマチ,熊本県八代市出町
8660861,熊本県,八代市,本町,クマモトケン,ヤツシロシ,ホンマチ,熊本県八代市本町
8660862,熊本県,八代市,松江城町,クマモトケン,ヤツシロシ,マツエジョウマチ,熊本県八代市松江城町
8660863,熊本県,八代市,西松江城町,クマモトケン,ヤツシロシ,ニシマツエジョウマチ,熊本県八代市西松江城町
8660864,熊本県,八代市,塩屋町,クマモトケン,ヤツシロシ,シオヤマチ,熊本県八代市塩屋町
8660865,熊本県,八代市,北の丸町,クマモトケン,ヤツシロシ,キタノマルマチ,熊本県八代市北の丸町
8660866,熊本県,八代市,鷹辻町,クマモトケン,ヤツシロシ,タカツジマチ,熊本県八代市鷹辻町
8660871,熊本県,八代市,田中東町,クマモトケン,ヤツシロシ,タナカヒガシマチ,熊本県八代市田中東町
8660872,熊本県,八代市,田中町,クマモトケン,ヤツシロシ,タナカマチ,熊本県八代市田中町
8660873,熊本県,八代市,横手町,クマモトケン,ヤツシロシ,ヨコテマチ,熊本県八代市横手町
8660874,熊本県,八代市,横手本町,クマモトケン,ヤツシロシ,ヨコテホンマチ,熊本県八代市横手本町
8660875,熊本県,八代市,横手新町,クマモトケン,ヤツシロシ,ヨコテシンマチ,熊本県八代市横手新町
8660876,熊本県,八代市,田中西町,クマモトケン,ヤツシロシ,タナカニシマチ,熊本県八代市田中西町
8660877,熊本県,八代市,田中北町,クマモトケン,ヤツシロシ,タナカキタマチ,熊本県八代市田中北町
8660881,熊本県,八代市,興国町,クマモトケン,ヤツシロシ,コウコクマチ,熊本県八代市興国町
8660882,熊本県,八代市,松江本町,クマモトケン,ヤツシロシ,マツエホンマチ,熊本県八代市松江本町
8660883,熊本県,八代市,松江町,クマモトケン,ヤツシロシ,マツエマチ,熊本県八代市松江町
8660884,熊本県,八代市,松崎町,クマモトケン,ヤツシロシ,マツザキマチ,熊本県八代市松崎町
8660885,熊本県,八代市,永碇町,クマモトケン,ヤツシロシ,ナガイカリマチ,熊本県八代市永碇町
8660891,熊本県,八代市,古閑浜町,クマモトケン,ヤツシロシ,コガハママチ,熊本県八代市古閑浜町
8660892,熊本県,八代市,古閑下町,クマモトケン,ヤツシロシ,コガシモマチ,熊本県八代市古閑下町
8660893,熊本県,八代市,海士江町,クマモトケン,ヤツシロシ,アマガエマチ,熊本県八代市海士江町
8660894,熊本県,八代市,上野町,クマモトケン,ヤツシロシ,コウズケマチ,熊本県八代市上野町
8660895,熊本県,八代市,大村町,クマモトケン,ヤツシロシ,オオムラマチ,熊本県八代市大村町
8660896,熊本県,八代市,日置町,クマモトケン,ヤツシロシ,ヒオキマチ,熊本県八代市日置町
8660897,熊本県,八代市,古閑上町,クマモトケン,ヤツシロシ,コガカミマチ,熊本県八代市古閑上町
8660898,熊本県,八代市,古閑中町,クマモトケン,ヤツシロシ,コガナカマチ,熊本県八代市古閑中町
8670000,熊本県,水俣市,,クマモトケン,ミナマタシ,,熊本県水俣市
8670001,熊本県,水俣市,小津奈木,クマモトケン,ミナマタシ,コツナギ,熊本県水俣市小津奈木
8670002,熊本県,水俣市,初野,クマモトケン,ミナマタシ,ハツノ,熊本県水俣市初野
8670003,熊本県,水俣市,ひばりケ丘,クマモトケン,ミナマタシ,ヒバリガオカ,熊本県水俣市ひばりケ丘
8670004,熊本県,水俣市,わらび野,クマモトケン,ミナマタシ,ワラビノ,熊本県水俣市わらび野
8670005,熊本県,水俣市,牧ノ内,クマモトケン,ミナマタシ,マキノウチ,熊本県水俣市牧ノ内
8670006,熊本県,水俣市,白浜町,クマモトケン,ミナマタシ,シラハマチョウ,熊本県水俣市白浜町
8670007,熊本県,水俣市,桜ケ丘,クマモトケン,ミナマタシ,サクラガオカ,熊本県水俣市桜ケ丘
8670008,熊本県,水俣市,浜,クマモトケン,ミナマタシ,ハマ,熊本県水俣市浜
8670009,熊本県,水俣市,大迫,クマモトケン,ミナマタシ,オオサコ,熊本県水俣市大迫
8670011,熊本県,水俣市,陣内,クマモトケン,ミナマタシ,ジンナイ,熊本県水俣市陣内
8670012,熊本県,水俣市,古城,クマモトケン,ミナマタシ,コジョウ,熊本県水俣市古城
8670013,熊本県,水俣市,長野町,クマモトケン,ミナマタシ,ナガノチョウ,熊本県水俣市長野町
8670014,熊本県,水俣市,中鶴,クマモトケン,ミナマタシ,ナカヅル,熊本県水俣市中鶴
8670015,熊本県,水俣市,深川,クマモトケン,ミナマタシ,フカガワ,熊本県水俣市深川
8670016,熊本県,水俣市,薄原（桜野、桜野上場、芦刈赤林）,クマモトケン,ミナマタシ,ススバル(サクラノ、サクラノウワバ、アシカリアカバヤシ),熊本県水俣市薄原（桜野、桜野上場、芦刈赤林）
8670021,熊本県,水俣市,平町,クマモトケン,ミナマタシ,ヒラマチ,熊本県水俣市平町
8670022,熊本県,水俣市,江南町,クマモトケン,ミナマタシ,エナンチョウ,熊本県水俣市江南町
8670023,熊本県,水俣市,南福寺,クマモトケン,ミナマタシ,ナンプクジ,熊本県水俣市南福寺
8670024,熊本県,水俣市,長野,クマモトケン,ミナマタシ,ナガノ,熊本県水俣市長野
8670025,熊本県,水俣市,湯出,クマモトケン,ミナマタシ,ユデ,熊本県水俣市湯出
8670031,熊本県,水俣市,八ノ窪町,クマモトケン,ミナマタシ,ハチノクボチョウ,熊本県水俣市八ノ窪町
8670032,熊本県,水俣市,江添,クマモトケン,ミナマタシ,エゾエ,熊本県水俣市江添
8670033,熊本県,水俣市,長崎,クマモトケン,ミナマタシ,ナガサキ,熊本県水俣市長崎
8670034,熊本県,水俣市,袋,クマモトケン,ミナマタシ,フクロ,熊本県水俣市袋
8670035,熊本県,水俣市,月浦,クマモトケン,ミナマタシ,ツキノウラ,熊本県水俣市月浦
8670036,熊本県,水俣市,浦上町,クマモトケン,ミナマタシ,ウラガミチョウ,熊本県水俣市浦上町
8670041,熊本県,水俣市,天神町,クマモトケン,ミナマタシ,テンジンチョウ,熊本県水俣市天神町
8670042,熊本県,水俣市,大園町,クマモトケン,ミナマタシ,オオゾノチョウ,熊本県水俣市大園町
8670043,熊本県,水俣市,大黒町,クマモトケン,ミナマタシ,ダイコクチョウ,熊本県水俣市大黒町
8670044,熊本県,水俣市,旭町,クマモトケン,ミナマタシ,アサヒマチ,熊本県水俣市旭町
8670045,熊本県,水俣市,桜井町,クマモトケン,ミナマタシ,サクライチョウ,熊本県水俣市桜井町
8670046,熊本県,水俣市,山手町,クマモトケン,ミナマタシ,ヤマテチョウ,熊本県水俣市山手町
8670047,熊本県,水俣市,緑ケ丘,クマモトケン,ミナマタシ,ミドリガオカ,熊本県水俣市緑ケ丘
8670048,熊本県,水俣市,多々良町,クマモトケン,ミナマタシ,タタラチョウ,熊本県水俣市多々良町
8670049,熊本県,水俣市,百間町,クマモトケン,ミナマタシ,ヒャクケンチョウ,熊本県水俣市百間町
8670051,熊本県,水俣市,昭和町,クマモトケン,ミナマタシ,ショウワマチ,熊本県水俣市昭和町
8670052,熊本県,水俣市,港町,クマモトケン,ミナマタシ,ミナトマチ,熊本県水俣市港町
8670053,熊本県,水俣市,野口町,クマモトケン,ミナマタシ,ノグチチョウ,熊本県水俣市野口町
8670054,熊本県,水俣市,汐見町,クマモトケン,ミナマタシ,シオミチョウ,熊本県水俣市汐見町
8670055,熊本県,水俣市,明神町,クマモトケン,ミナマタシ,ミョウジンチョウ,熊本県水俣市明神町
8670056,熊本県,水俣市,梅戸町,クマモトケン,ミナマタシ,ウメドチョウ,熊本県水俣市梅戸町
8670057,熊本県,水俣市,祇園町,クマモトケン,ミナマタシ,ギオンチョウ,熊本県水俣市祇園町
8670058,熊本県,水俣市,丸島町,クマモトケン,ミナマタシ,マルシマチョウ,熊本県水俣市丸島町
8670059,熊本県,水俣市,栄町,クマモトケン,ミナマタシ,サカエマチ,熊本県水俣市栄町
8670061,熊本県,水俣市,八幡町,クマモトケン,ミナマタシ,ハチマンチョウ,熊本県水俣市八幡町
8670062,熊本県,水俣市,築地,クマモトケン,ミナマタシ,ツキジ,熊本県水俣市築地
8670063,熊本県,水俣市,洗切町,クマモトケン,ミナマタシ,アライキリマチ,熊本県水俣市洗切町
8670064,熊本県,水俣市,幸町,クマモトケン,ミナマタシ,サイワイマチ,熊本県水俣市幸町
8670065,熊本県,水俣市,浜町,クマモトケン,ミナマタシ,ハママチ,熊本県水俣市浜町
8670066,熊本県,水俣市,古賀町,クマモトケン,ミナマタシ,コガマチ,熊本県水俣市古賀町
8670067,熊本県,水俣市,塩浜町,クマモトケン,ミナマタシ,シオハマチョウ,熊本県水俣市塩浜町
8670068,熊本県,水俣市,浜松町,クマモトケン,ミナマタシ,ハママツチョウ,熊本県水俣市浜松町
8670116,熊本県,水俣市,薄原（その他）,クマモトケン,ミナマタシ,ススバル(ソノタ),熊本県水俣市薄原（その他）
8670171,熊本県,水俣市,宝川内,クマモトケン,ミナマタシ,ホウガワチ,熊本県水俣市宝川内
8670172,熊本県,水俣市,市渡瀬,クマモトケン,ミナマタシ,イチワタセ,熊本県水俣市市渡瀬
8670173,熊本県,水俣市,葛渡,クマモトケン,ミナマタシ,クズワタリ,熊本県水俣市葛渡
8670174,熊本県,水俣市,石坂川,クマモトケン,ミナマタシ,イシザカガワ,熊本県水俣市石坂川
8670281,熊本県,水俣市,久木野,クマモトケン,ミナマタシ,クギノ,熊本県水俣市久木野
8670282,熊本県,水俣市,古里,クマモトケン,ミナマタシ,フルサト,熊本県水俣市古里
8670283,熊本県,水俣市,大川,クマモトケン,ミナマタシ,オオカワ,熊本県水俣市大川
8670284,熊本県,水俣市,越小場,クマモトケン,ミナマタシ,コシコバ,熊本県水俣市越小場
8680000,熊本県,人吉市,,クマモトケン,ヒトヨシシ,,熊本県人吉市
8680000,熊本県,球磨郡山江村,,クマモトケン,クマグンヤマエムラ,,熊本県球磨郡山江村
8680000,熊本県,球磨郡相良村,,クマモトケン,クマグンサガラムラ,,熊本県球磨郡相良村
8680001,熊本県,人吉市,鍛冶屋町,クマモトケン,ヒトヨシシ,カジヤマチ,熊本県人吉市鍛冶屋町
8680002,熊本県,人吉市,大工町,クマモトケン,ヒトヨシシ,ダイクマチ,熊本県人吉市大工町
8680003,熊本県,人吉市,紺屋町,クマモトケン,ヒトヨシシ,コウヤマチ,熊本県人吉市紺屋町
8680004,熊本県,人吉市,九日町,クマモトケン,ヒトヨシシ,ココノカマチ,熊本県人吉市九日町
8680005,熊本県,人吉市,上青井町,クマモトケン,ヒトヨシシ,カミアオイマチ,熊本県人吉市上青井町
8680006,熊本県,人吉市,駒井田町,クマモトケン,ヒトヨシシ,コマイダマチ,熊本県人吉市駒井田町
8680007,熊本県,人吉市,下青井町,クマモトケン,ヒトヨシシ,シモアオイマチ,熊本県人吉市下青井町
8680008,熊本県,人吉市,中青井町,クマモトケン,ヒトヨシシ,ナカアオイマチ,熊本県人吉市中青井町
8680011,熊本県,人吉市,宝来町,クマモトケン,ヒトヨシシ,ホウライマチ,熊本県人吉市宝来町
8680012,熊本県,人吉市,相良町,クマモトケン,ヒトヨシシ,サガラマチ,熊本県人吉市相良町
8680013,熊本県,人吉市,上薩摩瀬町,クマモトケン,ヒトヨシシ,カミサツマゼマチ,熊本県人吉市上薩摩瀬町
8680014,熊本県,人吉市,下薩摩瀬町,クマモトケン,ヒトヨシシ,シモサツマゼマチ,熊本県人吉市下薩摩瀬町
8680015,熊本県,人吉市,下城本町,クマモトケン,ヒトヨシシ,シモシロモトマチ,熊本県人吉市下城本町
8680016,熊本県,人吉市,城本町,クマモトケン,ヒトヨシシ,シロモトマチ,熊本県人吉市城本町
8680021,熊本県,人吉市,鬼木町,クマモトケン,ヒトヨシシ,オニキマチ,熊本県人吉市鬼木町
8680022,熊本県,人吉市,北願成寺町,クマモトケン,ヒトヨシシ,キタガンジョウジマチ,熊本県人吉市北願成寺町
8680022,熊本県,人吉市,願成寺町,クマモトケン,ヒトヨシシ,ガンジョウジマチ,熊本県人吉市願成寺町
8680023,熊本県,人吉市,北泉田町,クマモトケン,ヒトヨシシ,キタイズミダマチ,熊本県人吉市北泉田町
8680024,熊本県,人吉市,鶴田町,クマモトケン,ヒトヨシシ,ツルダマチ,熊本県人吉市鶴田町
8680025,熊本県,人吉市,瓦屋町,クマモトケン,ヒトヨシシ,カワラヤマチ,熊本県人吉市瓦屋町
8680026,熊本県,人吉市,合ノ原町,クマモトケン,ヒトヨシシ,ゴウノハルマチ,熊本県人吉市合ノ原町
8680027,熊本県,人吉市,井ノ口町,クマモトケン,ヒトヨシシ,イノクチマチ,熊本県人吉市井ノ口町
8680031,熊本県,人吉市,南願成寺町,クマモトケン,ヒトヨシシ,ミナミガンジョウジチョウ,熊本県人吉市南願成寺町
8680032,熊本県,人吉市,上新町,クマモトケン,ヒトヨシシ,カミシンマチ,熊本県人吉市上新町
8680033,熊本県,人吉市,下新町,クマモトケン,ヒトヨシシ,シモシンマチ,熊本県人吉市下新町
8680034,熊本県,人吉市,七日町,クマモトケン,ヒトヨシシ,ナヌカマチ,熊本県人吉市七日町
8680035,熊本県,人吉市,五日町,クマモトケン,ヒトヨシシ,イツカマチ,熊本県人吉市五日町
8680036,熊本県,人吉市,二日町,クマモトケン,ヒトヨシシ,ニノマチ,熊本県人吉市二日町
8680037,熊本県,人吉市,南泉田町,クマモトケン,ヒトヨシシ,ミナミイズミダマチ,熊本県人吉市南泉田町
8680041,熊本県,人吉市,七地町,クマモトケン,ヒトヨシシ,シチチマチ,熊本県人吉市七地町
8680042,熊本県,人吉市,蟹作町,クマモトケン,ヒトヨシシ,ガンツクリマチ,熊本県人吉市蟹作町
8680043,熊本県,人吉市,東間上町,クマモトケン,ヒトヨシシ,ヒガシアイダカミマチ,熊本県人吉市東間上町
8680044,熊本県,人吉市,東間下町,クマモトケン,ヒトヨシシ,ヒガシアイダシモマチ,熊本県人吉市東間下町
8680045,熊本県,人吉市,浪床町,クマモトケン,ヒトヨシシ,ナミトコマチ,熊本県人吉市浪床町
8680046,熊本県,人吉市,原城町,クマモトケン,ヒトヨシシ,ハラノジョウマチ,熊本県人吉市原城町
8680047,熊本県,人吉市,上原町,クマモトケン,ヒトヨシシ,ウエハラマチ,熊本県人吉市上原町
8680048,熊本県,人吉市,富ケ尾町,クマモトケン,ヒトヨシシ,トミガオマチ,熊本県人吉市富ケ尾町
8680051,熊本県,人吉市,麓町,クマモトケン,ヒトヨシシ,フモトマチ,熊本県人吉市麓町
8680052,熊本県,人吉市,新町,クマモトケン,ヒトヨシシ,シンマチ,熊本県人吉市新町
8680053,熊本県,人吉市,老神町,クマモトケン,ヒトヨシシ,オイカミマチ,熊本県人吉市老神町
8680054,熊本県,人吉市,田町,クマモトケン,ヒトヨシシ,タマチ,熊本県人吉市田町
8680055,熊本県,人吉市,南町,クマモトケン,ヒトヨシシ,ミナミマチ,熊本県人吉市南町
8680056,熊本県,人吉市,寺町,クマモトケン,ヒトヨシシ,テラマチ,熊本県人吉市寺町
8680057,熊本県,人吉市,土手町,クマモトケン,ヒトヨシシ,ドテマチ,熊本県人吉市土手町
8680058,熊本県,人吉市,灰久保町,クマモトケン,ヒトヨシシ,ハイクボマチ,熊本県人吉市灰久保町
8680061,熊本県,人吉市,蓑野町,クマモトケン,ヒトヨシシ,ミノノマチ,熊本県人吉市蓑野町
8680062,熊本県,人吉市,古仏頂町,クマモトケン,ヒトヨシシ,コブツチョウマチ,熊本県人吉市古仏頂町
8680063,熊本県,人吉市,木地屋町,クマモトケン,ヒトヨシシ,キジヤマチ,熊本県人吉市木地屋町
8680064,熊本県,人吉市,東大塚町,クマモトケン,ヒトヨシシ,ヒガシオオツカマチ,熊本県人吉市東大塚町
8680065,熊本県,人吉市,西大塚町,クマモトケン,ヒトヨシシ,ニシオオツカマチ,熊本県人吉市西大塚町
8680066,熊本県,人吉市,田野町,クマモトケン,ヒトヨシシ,タノマチ,熊本県人吉市田野町
8680071,熊本県,人吉市,西間上町,クマモトケン,ヒトヨシシ,ニシアイダカミマチ,熊本県人吉市西間上町
8680072,熊本県,人吉市,西間下町,クマモトケン,ヒトヨシシ,ニシアイダシモマチ,熊本県人吉市西間下町
8680073,熊本県,人吉市,上永野町,クマモトケン,ヒトヨシシ,カミナガノマチ,熊本県人吉市上永野町
8680074,熊本県,人吉市,下永野町,クマモトケン,ヒトヨシシ,シモナガノマチ,熊本県人吉市下永野町
8680075,熊本県,人吉市,矢黒町,クマモトケン,ヒトヨシシ,ヤグロマチ,熊本県人吉市矢黒町
8680076,熊本県,人吉市,上戸越町,クマモトケン,ヒトヨシシ,カミトゴエマチ,熊本県人吉市上戸越町
8680077,熊本県,人吉市,下戸越町,クマモトケン,ヒトヨシシ,シモトゴエマチ,熊本県人吉市下戸越町
8680078,熊本県,人吉市,鹿目町,クマモトケン,ヒトヨシシ,カナメマチ,熊本県人吉市鹿目町
8680081,熊本県,人吉市,上林町,クマモトケン,ヒトヨシシ,カミバヤシマチ,熊本県人吉市上林町
8680082,熊本県,人吉市,中林町,クマモトケン,ヒトヨシシ,ナカバヤシマチ,熊本県人吉市中林町
8680083,熊本県,人吉市,下林町,クマモトケン,ヒトヨシシ,シモバヤシマチ,熊本県人吉市下林町
8680084,熊本県,人吉市,温泉町,クマモトケン,ヒトヨシシ,オンセンマチ,熊本県人吉市温泉町
8680085,熊本県,人吉市,中神町,クマモトケン,ヒトヨシシ,ナカガミチョウ,熊本県人吉市中神町
8680086,熊本県,人吉市,下原田町,クマモトケン,ヒトヨシシ,シモハラダマチ,熊本県人吉市下原田町
8680087,熊本県,人吉市,上原田町,クマモトケン,ヒトヨシシ,カミハラダマチ,熊本県人吉市上原田町
8680091,熊本県,球磨郡山江村,万江,クマモトケン,クマグンヤマエムラ,マエ,熊本県球磨郡山江村万江
8680092,熊本県,球磨郡山江村,山田,クマモトケン,クマグンヤマエムラ,ヤマダ,熊本県球磨郡山江村山田
8680093,熊本県,球磨郡相良村,川辺,クマモトケン,クマグンサガラムラ,カワベ,熊本県球磨郡相良村川辺
8680094,熊本県,球磨郡相良村,深水,クマモトケン,クマグンサガラムラ,フカミ,熊本県球磨郡相良村深水
8680095,熊本県,球磨郡相良村,柳瀬,クマモトケン,クマグンサガラムラ,ヤナセ,熊本県球磨郡相良村柳瀬
8680101,熊本県,球磨郡相良村,四浦,クマモトケン,クマグンサガラムラ,ヨウラ,熊本県球磨郡相良村四浦
8680200,熊本県,球磨郡五木村,,クマモトケン,クマグンイツキムラ,,熊本県球磨郡五木村
8680201,熊本県,球磨郡五木村,甲,クマモトケン,クマグンイツキムラ,コウ,熊本県球磨郡五木村甲
8680202,熊本県,球磨郡五木村,乙,クマモトケン,クマグンイツキムラ,オツ,熊本県球磨郡五木村乙
8680203,熊本県,球磨郡五木村,丙,クマモトケン,クマグンイツキムラ,ヘイ,熊本県球磨郡五木村丙
8680300,熊本県,球磨郡錦町,,クマモトケン,クマグンニシキマチ,,熊本県球磨郡錦町
8680301,熊本県,球磨郡錦町,木上,クマモトケン,クマグンニシキマチ,キノウエ,熊本県球磨郡錦町木上
8680302,熊本県,球磨郡錦町,一武,クマモトケン,クマグンニシキマチ,イチブ,熊本県球磨郡錦町一武
8680303,熊本県,球磨郡錦町,西,クマモトケン,クマグンニシキマチ,ニシ,熊本県球磨郡錦町西
8680400,熊本県,球磨郡あさぎり町,,クマモトケン,クマグンアサギリチョウ,,熊本県球磨郡あさぎり町
8680408,熊本県,球磨郡あさぎり町,免田東,クマモトケン,クマグンアサギリチョウ,メンダヒガシ,熊本県球磨郡あさぎり町免田東
8680415,熊本県,球磨郡あさぎり町,免田西,クマモトケン,クマグンアサギリチョウ,メンダニシ,熊本県球磨郡あさぎり町免田西
8680421,熊本県,球磨郡あさぎり町,上東,クマモトケン,クマグンアサギリチョウ,ウエヒガシ,熊本県球磨郡あさぎり町上東
8680422,熊本県,球磨郡あさぎり町,上北,クマモトケン,クマグンアサギリチョウ,ウエキタ,熊本県球磨郡あさぎり町上北
8680423,熊本県,球磨郡あさぎり町,上南,クマモトケン,クマグンアサギリチョウ,ウエミナミ,熊本県球磨郡あさぎり町上南
8680424,熊本県,球磨郡あさぎり町,上西,クマモトケン,クマグンアサギリチョウ,ウエニシ,熊本県球磨郡あさぎり町上西
8680425,熊本県,球磨郡あさぎり町,皆越,クマモトケン,クマグンアサギリチョウ,ミナゴエ,熊本県球磨郡あさぎり町皆越
8680431,熊本県,球磨郡あさぎり町,岡原北,クマモトケン,クマグンアサギリチョウ,オカハルキタ,熊本県球磨郡あさぎり町岡原北
8680432,熊本県,球磨郡あさぎり町,岡原南,クマモトケン,クマグンアサギリチョウ,オカハルミナミ,熊本県球磨郡あさぎり町岡原南
8680441,熊本県,球磨郡あさぎり町,深田北,クマモトケン,クマグンアサギリチョウ,フカダキタ,熊本県球磨郡あさぎり町深田北
8680442,熊本県,球磨郡あさぎり町,深田東,クマモトケン,クマグンアサギリチョウ,フカダヒガシ,熊本県球磨郡あさぎり町深田東
8680443,熊本県,球磨郡あさぎり町,深田南,クマモトケン,クマグンアサギリチョウ,フカダミナミ,熊本県球磨郡あさぎり町深田南
8680444,熊本県,球磨郡あさぎり町,深田西,クマモトケン,クマグンアサギリチョウ,フカダニシ,熊本県球磨郡あさぎり町深田西
8680451,熊本県,球磨郡あさぎり町,須恵,クマモトケン,クマグンアサギリチョウ,スエ,熊本県球磨郡あさぎり町須恵
8680500,熊本県,球磨郡多良木町,,クマモトケン,クマグンタラギマチ,,熊本県球磨郡多良木町
8680501,熊本県,球磨郡多良木町,多良木,クマモトケン,クマグンタラギマチ,タラギ,熊本県球磨郡多良木町多良木
8680502,熊本県,球磨郡多良木町,黒肥地,クマモトケン,クマグンタラギマチ,クロヒジ,熊本県球磨郡多良木町黒肥地
8680503,熊本県,球磨郡多良木町,久米,クマモトケン,クマグンタラギマチ,クメ,熊本県球磨郡多良木町久米
8680504,熊本県,球磨郡多良木町,奥野,クマモトケン,クマグンタラギマチ,オクノ,熊本県球磨郡多良木町奥野
8680505,熊本県,球磨郡多良木町,槻木,クマモトケン,クマグンタラギマチ,ツキギ,熊本県球磨郡多良木町槻木
8680600,熊本県,球磨郡湯前町,,クマモトケン,クマグンユノマエマチ,,熊本県球磨郡湯前町
8680601,熊本県,球磨郡湯前町,下城,クマモトケン,クマグンユノマエマチ,シタジョウ,熊本県球磨郡湯前町下城
8680602,熊本県,球磨郡湯前町,浜川,クマモトケン,クマグンユノマエマチ,ハマゴウ,熊本県球磨郡湯前町浜川
8680603,熊本県,球磨郡湯前町,古城,クマモトケン,クマグンユノマエマチ,フルジョウ,熊本県球磨郡湯前町古城
8680604,熊本県,球磨郡湯前町,浅ケ野,クマモトケン,クマグンユノマエマチ,アサカノ,熊本県球磨郡湯前町浅ケ野
8680605,熊本県,球磨郡湯前町,下染田,クマモトケン,クマグンユノマエマチ,シモソメダ,熊本県球磨郡湯前町下染田
8680606,熊本県,球磨郡湯前町,中里,クマモトケン,クマグンユノマエマチ,ナカザト,熊本県球磨郡湯前町中里
8680607,熊本県,球磨郡湯前町,下里,クマモトケン,クマグンユノマエマチ,シモザト,熊本県球磨郡湯前町下里
8680611,熊本県,球磨郡湯前町,植木,クマモトケン,クマグンユノマエマチ,ウエキ,熊本県球磨郡湯前町植木
8680612,熊本県,球磨郡湯前町,上村,クマモトケン,クマグンユノマエマチ,カミムラ,熊本県球磨郡湯前町上村
8680613,熊本県,球磨郡湯前町,田上,クマモトケン,クマグンユノマエマチ,タノエ,熊本県球磨郡湯前町田上
8680614,熊本県,球磨郡湯前町,馬場,クマモトケン,クマグンユノマエマチ,ババ,熊本県球磨郡湯前町馬場
8680615,熊本県,球磨郡湯前町,瀬戸口,クマモトケン,クマグンユノマエマチ,セドクチ,熊本県球磨郡湯前町瀬戸口
8680616,熊本県,球磨郡湯前町,下村,クマモトケン,クマグンユノマエマチ,シモムラ,熊本県球磨郡湯前町下村
8680621,熊本県,球磨郡湯前町,上里,クマモトケン,クマグンユノマエマチ,カミザト,熊本県球磨郡湯前町上里
8680622,熊本県,球磨郡湯前町,上染田,クマモトケン,クマグンユノマエマチ,カミソメダ,熊本県球磨郡湯前町上染田
8680623,熊本県,球磨郡湯前町,野中田,クマモトケン,クマグンユノマエマチ,ノナカダ,熊本県球磨郡湯前町野中田
8680624,熊本県,球磨郡湯前町,中猪,クマモトケン,クマグンユノマエマチ,ナカイ,熊本県球磨郡湯前町中猪
8680625,熊本県,球磨郡湯前町,上猪,クマモトケン,クマグンユノマエマチ,カミイ,熊本県球磨郡湯前町上猪
8680700,熊本県,球磨郡水上村,,クマモトケン,クマグンミズカミムラ,,熊本県球磨郡水上村
8680701,熊本県,球磨郡水上村,岩野,クマモトケン,クマグンミズカミムラ,イワノ,熊本県球磨郡水上村岩野
8680702,熊本県,球磨郡水上村,江代,クマモトケン,クマグンミズカミムラ,エシロ,熊本県球磨郡水上村江代
8680703,熊本県,球磨郡水上村,湯山,クマモトケン,クマグンミズカミムラ,ユヤマ,熊本県球磨郡水上村湯山
8680801,熊本県,人吉市,上田代町,クマモトケン,ヒトヨシシ,カミタシロマチ,熊本県人吉市上田代町
8680802,熊本県,人吉市,下田代町,クマモトケン,ヒトヨシシ,シモタシロマチ,熊本県人吉市下田代町
8680803,熊本県,人吉市,大畑町,クマモトケン,ヒトヨシシ,オコバマチ,熊本県人吉市大畑町
8680811,熊本県,人吉市,大畑麓町,クマモトケン,ヒトヨシシ,オコバフモトマチ,熊本県人吉市大畑麓町
8680812,熊本県,人吉市,大野町,クマモトケン,ヒトヨシシ,オオノマチ,熊本県人吉市大野町
8680813,熊本県,人吉市,矢岳町,クマモトケン,ヒトヨシシ,ヤタケマチ,熊本県人吉市矢岳町
8680821,熊本県,人吉市,上漆田町,クマモトケン,ヒトヨシシ,カミウルシダマチ,熊本県人吉市上漆田町
8680822,熊本県,人吉市,下漆田町,クマモトケン,ヒトヨシシ,シモウルシダマチ,熊本県人吉市下漆田町
8680823,熊本県,人吉市,東漆田町,クマモトケン,ヒトヨシシ,ヒガシウルシダマチ,熊本県人吉市東漆田町
8680824,熊本県,人吉市,赤池水無町,クマモトケン,ヒトヨシシ,アカイケミズナシマチ,熊本県人吉市赤池水無町
8680825,熊本県,人吉市,赤池原町,クマモトケン,ヒトヨシシ,アカイケハラマチ,熊本県人吉市赤池原町
8690100,熊本県,玉名郡長洲町,,クマモトケン,タマナグンナガスマチ,,熊本県玉名郡長洲町
8690101,熊本県,玉名郡長洲町,宮野,クマモトケン,タマナグンナガスマチ,ミヤノ,熊本県玉名郡長洲町宮野
8690102,熊本県,玉名郡長洲町,折崎,クマモトケン,タマナグンナガスマチ,オリサキ,熊本県玉名郡長洲町折崎
8690103,熊本県,玉名郡長洲町,腹赤,クマモトケン,タマナグンナガスマチ,ハラカ,熊本県玉名郡長洲町腹赤
8690104,熊本県,玉名郡長洲町,上沖洲,クマモトケン,タマナグンナガスマチ,カミオキノス,熊本県玉名郡長洲町上沖洲
8690105,熊本県,玉名郡長洲町,清源寺,クマモトケン,タマナグンナガスマチ,セイゲンジ,熊本県玉名郡長洲町清源寺
8690106,熊本県,玉名郡長洲町,永塩,クマモトケン,タマナグンナガスマチ,ナガシオ,熊本県玉名郡長洲町永塩
8690111,熊本県,玉名郡長洲町,名石浜,クマモトケン,タマナグンナガスマチ,メイシハマ,熊本県玉名郡長洲町名石浜
8690112,熊本県,玉名郡長洲町,姫ケ浦,クマモトケン,タマナグンナガスマチ,ヒメガウラ,熊本県玉名郡長洲町姫ケ浦
8690113,熊本県,玉名郡長洲町,有明,クマモトケン,タマナグンナガスマチ,アリアケ,熊本県玉名郡長洲町有明
8690121,熊本県,玉名郡長洲町,高浜,クマモトケン,タマナグンナガスマチ,タカハマ,熊本県玉名郡長洲町高浜
8690122,熊本県,玉名郡長洲町,梅田,クマモトケン,タマナグンナガスマチ,ウメダ,熊本県玉名郡長洲町梅田
8690123,熊本県,玉名郡長洲町,長洲,クマモトケン,タマナグンナガスマチ,ナガス,熊本県玉名郡長洲町長洲
8690201,熊本県,玉名市,岱明町山下,クマモトケン,タマナシ,タイメイマチヤマシタ,熊本県玉名市岱明町山下
8690202,熊本県,玉名市,岱明町高道,クマモトケン,タマナシ,タイメイマチタカミチ,熊本県玉名市岱明町高道
8690203,熊本県,玉名市,岱明町浜田,クマモトケン,タマナシ,タイメイマチハマダ,熊本県玉名市岱明町浜田
8690211,熊本県,玉名市,岱明町鍋,クマモトケン,タマナシ,タイメイマチナベ,熊本県玉名市岱明町鍋
8690212,熊本県,玉名市,岱明町下沖洲,クマモトケン,タマナシ,タイメイマチシモオキノス,熊本県玉名市岱明町下沖洲
8690213,熊本県,玉名市,岱明町扇崎,クマモトケン,タマナシ,タイメイマチオウギザキ,熊本県玉名市岱明町扇崎
8690221,熊本県,玉名市,岱明町下前原,クマモトケン,タマナシ,タイメイマチシモマエハラ,熊本県玉名市岱明町下前原
8690222,熊本県,玉名市,岱明町野口,クマモトケン,タマナシ,タイメイマチノグチ,熊本県玉名市岱明町野口
8690223,熊本県,玉名市,岱明町中土,クマモトケン,タマナシ,タイメイマチナカド,熊本県玉名市岱明町中土
8690224,熊本県,玉名市,岱明町大野下,クマモトケン,タマナシ,タイメイマチオオノシモ,熊本県玉名市岱明町大野下
8690231,熊本県,玉名市,岱明町庄山,クマモトケン,タマナシ,タイメイマチショウヤマ,熊本県玉名市岱明町庄山
8690232,熊本県,玉名市,岱明町上（その他）,クマモトケン,タマナシ,タイメイマチジョウ(ソノタ),熊本県玉名市岱明町上（その他）
8690233,熊本県,玉名市,岱明町古閑（その他）,クマモトケン,タマナシ,タイメイマチコガ(ソノタ),熊本県玉名市岱明町古閑（その他）
8690234,熊本県,玉名市,岱明町三崎,クマモトケン,タマナシ,タイメイマチミサキ,熊本県玉名市岱明町三崎
8690235,熊本県,玉名市,岱明町上（雲雀丘）,クマモトケン,タマナシ,タイメイマチジョウ(ヒバリガオカ),熊本県玉名市岱明町上（雲雀丘）
8690235,熊本県,玉名市,岱明町古閑（雲雀丘）,クマモトケン,タマナシ,タイメイマチコガ(ヒバリガオカ),熊本県玉名市岱明町古閑（雲雀丘）
8690235,熊本県,玉名市,岱明町西照寺（雲雀丘）,クマモトケン,タマナシ,タイメイマチサイショウジ(ヒバリガオカ),熊本県玉名市岱明町西照寺（雲雀丘）
8690236,熊本県,玉名市,岱明町西照寺（その他）,クマモトケン,タマナシ,タイメイマチサイショウジ(ソノタ),熊本県玉名市岱明町西照寺（その他）
8690238,熊本県,玉名市,岱明町開田,クマモトケン,タマナシ,タイメイマチヒラキダ,熊本県玉名市岱明町開田
8690300,熊本県,玉名郡玉東町,,クマモトケン,タマナグンギョクトウマチ,,熊本県玉名郡玉東町
8690301,熊本県,玉名郡玉東町,稲佐,クマモトケン,タマナグンギョクトウマチ,イナサ,熊本県玉名郡玉東町稲佐
8690302,熊本県,玉名郡玉東町,山口,クマモトケン,タマナグンギョクトウマチ,ヤマグチ,熊本県玉名郡玉東町山口
8690303,熊本県,玉名郡玉東町,木葉,クマモトケン,タマナグンギョクトウマチ,コノハ,熊本県玉名郡玉東町木葉
8690304,熊本県,玉名郡玉東町,浦田,クマモトケン,タマナグンギョクトウマチ,ウラタ,熊本県玉名郡玉東町浦田
8690305,熊本県,玉名郡玉東町,上木葉,クマモトケン,タマナグンギョクトウマチ,カミコノハ,熊本県玉名郡玉東町上木葉
8690311,熊本県,玉名郡玉東町,二俣,クマモトケン,タマナグンギョクトウマチ,フタマタ,熊本県玉名郡玉東町二俣
8690312,熊本県,玉名郡玉東町,白木,クマモトケン,タマナグンギョクトウマチ,シラキ,熊本県玉名郡玉東町白木
8690313,熊本県,玉名郡玉東町,上白木,クマモトケン,タマナグンギョクトウマチ,カミシラキ,熊本県玉名郡玉東町上白木
8690321,熊本県,玉名郡玉東町,西安寺,クマモトケン,タマナグンギョクトウマチ,サイアンジ,熊本県玉名郡玉東町西安寺
8690322,熊本県,玉名郡玉東町,原倉,クマモトケン,タマナグンギョクトウマチ,ハラクラ,熊本県玉名郡玉東町原倉
8690400,熊本県,宇土市,,クマモトケン,ウトシ,,熊本県宇土市
8690401,熊本県,宇土市,住吉町,クマモトケン,ウトシ,スミヨシマチ,熊本県宇土市住吉町
8690402,熊本県,宇土市,笹原町,クマモトケン,ウトシ,ササワラマチ,熊本県宇土市笹原町
8690403,熊本県,宇土市,新開町,クマモトケン,ウトシ,シンガイマチ,熊本県宇土市新開町
8690404,熊本県,宇土市,走潟町,クマモトケン,ウトシ,ハシリガタマチ,熊本県宇土市走潟町
8690405,熊本県,宇土市,馬之瀬町,クマモトケン,ウトシ,ウマノセマチ,熊本県宇土市馬之瀬町
8690406,熊本県,宇土市,三拾町,クマモトケン,ウトシ,サジッチョウ,熊本県宇土市三拾町
8690407,熊本県,宇土市,松原町,クマモトケン,ウトシ,マツワラマチ,熊本県宇土市松原町
8690408,熊本県,宇土市,築籠町,クマモトケン,ウトシ,ツイゴメマチ,熊本県宇土市築籠町
8690410,熊本県,宇土市,花園台町,クマモトケン,ウトシ,ハナゾノダイマチ,熊本県宇土市花園台町
8690411,熊本県,宇土市,水町,クマモトケン,ウトシ,ミズマチ,熊本県宇土市水町
8690412,熊本県,宇土市,岩古曽町,クマモトケン,ウトシ,イワコソマチ,熊本県宇土市岩古曽町
8690413,熊本県,宇土市,花園町,クマモトケン,ウトシ,ハナゾノマチ,熊本県宇土市花園町
8690414,熊本県,宇土市,立岡町,クマモトケン,ウトシ,タチオカマチ,熊本県宇土市立岡町
8690415,熊本県,宇土市,古保里町,クマモトケン,ウトシ,コオザトマチ,熊本県宇土市古保里町
8690416,熊本県,宇土市,松山町,クマモトケン,ウトシ,マツヤママチ,熊本県宇土市松山町
8690417,熊本県,宇土市,境目町,クマモトケン,ウトシ,サカイメマチ,熊本県宇土市境目町
8690418,熊本県,宇土市,善道寺町,クマモトケン,ウトシ,ゼンドウジマチ,熊本県宇土市善道寺町
8690419,熊本県,宇土市,新松原町,クマモトケン,ウトシ,シンマツワラマチ,熊本県宇土市新松原町
8690421,熊本県,宇土市,南段原町,クマモトケン,ウトシ,ミナミダンバラマチ,熊本県宇土市南段原町
8690422,熊本県,宇土市,入地町,クマモトケン,ウトシ,イリチマチ,熊本県宇土市入地町
8690423,熊本県,宇土市,伊無田町,クマモトケン,ウトシ,イムタマチ,熊本県宇土市伊無田町
8690424,熊本県,宇土市,神馬町,クマモトケン,ウトシ,シンメマチ,熊本県宇土市神馬町
8690425,熊本県,宇土市,栗崎町,クマモトケン,ウトシ,クリザキマチ,熊本県宇土市栗崎町
8690426,熊本県,宇土市,神合町,クマモトケン,ウトシ,コウアイマチ,熊本県宇土市神合町
8690431,熊本県,宇土市,本町,クマモトケン,ウトシ,ホンマチ,熊本県宇土市本町
8690432,熊本県,宇土市,旭町,クマモトケン,ウトシ,アサヒマチ,熊本県宇土市旭町
8690433,熊本県,宇土市,新小路町,クマモトケン,ウトシ,シンコウジマチ,熊本県宇土市新小路町
8690434,熊本県,宇土市,門内町,クマモトケン,ウトシ,モンナイマチ,熊本県宇土市門内町
8690435,熊本県,宇土市,一里木町,クマモトケン,ウトシ,イチリギマチ,熊本県宇土市一里木町
8690436,熊本県,宇土市,定府町,クマモトケン,ウトシ,ジョウフマチ,熊本県宇土市定府町
8690441,熊本県,宇土市,石小路町,クマモトケン,ウトシ,イシコウジマチ,熊本県宇土市石小路町
8690442,熊本県,宇土市,城之浦町,クマモトケン,ウトシ,ジョウノウラマチ,熊本県宇土市城之浦町
8690443,熊本県,宇土市,船場町,クマモトケン,ウトシ,センバマチ,熊本県宇土市船場町
8690444,熊本県,宇土市,新町,クマモトケン,ウトシ,シンマチ,熊本県宇土市新町
8690445,熊本県,宇土市,浦田町,クマモトケン,ウトシ,ウラタマチ,熊本県宇土市浦田町
8690451,熊本県,宇土市,北段原町,クマモトケン,ウトシ,キタダンバラマチ,熊本県宇土市北段原町
8690452,熊本県,宇土市,高柳町,クマモトケン,ウトシ,タカヤナギマチ,熊本県宇土市高柳町
8690453,熊本県,宇土市,栄町,クマモトケン,ウトシ,サカエマチ,熊本県宇土市栄町
8690454,熊本県,宇土市,古城町,クマモトケン,ウトシ,コジョウマチ,熊本県宇土市古城町
8690455,熊本県,宇土市,椿原町,クマモトケン,ウトシ,ツバワラマチ,熊本県宇土市椿原町
8690456,熊本県,宇土市,石橋町,クマモトケン,ウトシ,イシバシマチ,熊本県宇土市石橋町
8690457,熊本県,宇土市,宮庄町,クマモトケン,ウトシ,ミヤノショウマチ,熊本県宇土市宮庄町
8690461,熊本県,宇土市,網津町,クマモトケン,ウトシ,アミヅマチ,熊本県宇土市網津町
8690462,熊本県,宇土市,城塚町,クマモトケン,ウトシ,ジョウツカマチ,熊本県宇土市城塚町
8690463,熊本県,宇土市,野鶴町,クマモトケン,ウトシ,ノヅルマチ,熊本県宇土市野鶴町
8690464,熊本県,宇土市,恵塚町,クマモトケン,ウトシ,エヅカマチ,熊本県宇土市恵塚町
8690465,熊本県,宇土市,網引町,クマモトケン,ウトシ,アビキマチ,熊本県宇土市網引町
8690500,熊本県,宇城市,,クマモトケン,ウキシ,,熊本県宇城市
8690501,熊本県,宇城市,松橋町松山,クマモトケン,ウキシ,マツバセマチマツヤマ,熊本県宇城市松橋町松山
8690502,熊本県,宇城市,松橋町松橋,クマモトケン,ウキシ,マツバセマチマツバセ,熊本県宇城市松橋町松橋
8690503,熊本県,宇城市,松橋町きらら,クマモトケン,ウキシ,マツバセマチキララ,熊本県宇城市松橋町きらら
8690511,熊本県,宇城市,松橋町曲野,クマモトケン,ウキシ,マツバセマチマガノ,熊本県宇城市松橋町曲野
8690512,熊本県,宇城市,松橋町古保山,クマモトケン,ウキシ,マツバセマチコオヤマ,熊本県宇城市松橋町古保山
8690513,熊本県,宇城市,松橋町萩尾,クマモトケン,ウキシ,マツバセマチハギオ,熊本県宇城市松橋町萩尾
8690521,熊本県,宇城市,松橋町浦川内,クマモトケン,ウキシ,マツバセマチウラカワチ,熊本県宇城市松橋町浦川内
8690522,熊本県,宇城市,松橋町内田,クマモトケン,ウキシ,マツバセマチウチダ,熊本県宇城市松橋町内田
8690523,熊本県,宇城市,松橋町竹崎,クマモトケン,ウキシ,マツバセマチタケザキ,熊本県宇城市松橋町竹崎
8690524,熊本県,宇城市,松橋町豊福,クマモトケン,ウキシ,マツバセマチトヨフク,熊本県宇城市松橋町豊福
8690531,熊本県,宇城市,松橋町大野,クマモトケン,ウキシ,マツバセマチオオノ,熊本県宇城市松橋町大野
8690532,熊本県,宇城市,松橋町久具,クマモトケン,ウキシ,マツバセマチクグ,熊本県宇城市松橋町久具
8690533,熊本県,宇城市,松橋町両仲間,クマモトケン,ウキシ,マツバセマチリョウナカマ,熊本県宇城市松橋町両仲間
8690534,熊本県,宇城市,松橋町西下郷,クマモトケン,ウキシ,マツバセマチニシシモゴウ,熊本県宇城市松橋町西下郷
8690541,熊本県,宇城市,松橋町東松崎,クマモトケン,ウキシ,マツバセマチヒガシマツザキ,熊本県宇城市松橋町東松崎
8690542,熊本県,宇城市,松橋町豊崎,クマモトケン,ウキシ,マツバセマチトヨザキ,熊本県宇城市松橋町豊崎
8690543,熊本県,宇城市,松橋町南豊崎,クマモトケン,ウキシ,マツバセマチミナミトヨザキ,熊本県宇城市松橋町南豊崎
8690544,熊本県,宇城市,松橋町浅川,クマモトケン,ウキシ,マツバセマチアサカワ,熊本県宇城市松橋町浅川
8690545,熊本県,宇城市,松橋町砂川,クマモトケン,ウキシ,マツバセマチスナガワ,熊本県宇城市松橋町砂川
8690546,熊本県,宇城市,松橋町御船,クマモトケン,ウキシ,マツバセマチミフネ,熊本県宇城市松橋町御船
8690551,熊本県,宇城市,不知火町御領,クマモトケン,ウキシ,シラヌヒマチゴリョウ,熊本県宇城市不知火町御領
8690552,熊本県,宇城市,不知火町高良,クマモトケン,ウキシ,シラヌヒマチコウラ,熊本県宇城市不知火町高良
8690553,熊本県,宇城市,不知火町小曽部,クマモトケン,ウキシ,シラヌヒマチコソブ,熊本県宇城市不知火町小曽部
8690554,熊本県,宇城市,不知火町柏原,クマモトケン,ウキシ,シラヌヒマチカシワハラ,熊本県宇城市不知火町柏原
8690561,熊本県,宇城市,不知火町亀松,クマモトケン,ウキシ,シラヌヒマチカメマツ,熊本県宇城市不知火町亀松
8690562,熊本県,宇城市,不知火町長崎,クマモトケン,ウキシ,シラヌヒマチナガサキ,熊本県宇城市不知火町長崎
8690563,熊本県,宇城市,不知火町浦上,クマモトケン,ウキシ,シラヌヒマチウラガミ,熊本県宇城市不知火町浦上
8690601,熊本県,宇城市,小川町北小野,クマモトケン,ウキシ,オガワマチキタオノ,熊本県宇城市小川町北小野
8690602,熊本県,宇城市,小川町中小野,クマモトケン,ウキシ,オガワマチナカオノ,熊本県宇城市小川町中小野
8690603,熊本県,宇城市,小川町南小野,クマモトケン,ウキシ,オガワマチミナミオノ,熊本県宇城市小川町南小野
8690604,熊本県,宇城市,小川町北部田,クマモトケン,ウキシ,オガワマチキタベタ,熊本県宇城市小川町北部田
8690605,熊本県,宇城市,小川町南部田,クマモトケン,ウキシ,オガワマチミナミベタ,熊本県宇城市小川町南部田
8690606,熊本県,宇城市,小川町河江,クマモトケン,ウキシ,オガワマチゴウノエ,熊本県宇城市小川町河江
8690611,熊本県,宇城市,小川町東海東,クマモトケン,ウキシ,オガワマチヒガシカイトウ,熊本県宇城市小川町東海東
8690612,熊本県,宇城市,小川町南海東,クマモトケン,ウキシ,オガワマチミナミカイトウ,熊本県宇城市小川町南海東
8690613,熊本県,宇城市,小川町東小川,クマモトケン,ウキシ,オガワマチヒガシオガワ,熊本県宇城市小川町東小川
8690614,熊本県,宇城市,小川町南小川,クマモトケン,ウキシ,オガワマチミナミオガワ,熊本県宇城市小川町南小川
8690615,熊本県,宇城市,小川町西海東,クマモトケン,ウキシ,オガワマチニシカイトウ,熊本県宇城市小川町西海東
8690616,熊本県,宇城市,小川町北海東,クマモトケン,ウキシ,オガワマチキタカイトウ,熊本県宇城市小川町北海東
8690621,熊本県,宇城市,小川町小川,クマモトケン,ウキシ,オガワマチオガワ,熊本県宇城市小川町小川
8690622,熊本県,宇城市,小川町西北小川,クマモトケン,ウキシ,オガワマチニシキタオガワ,熊本県宇城市小川町西北小川
8690623,熊本県,宇城市,小川町川尻,クマモトケン,ウキシ,オガワマチカワジリ,熊本県宇城市小川町川尻
8690624,熊本県,宇城市,小川町江頭,クマモトケン,ウキシ,オガワマチエガシラ,熊本県宇城市小川町江頭
8690631,熊本県,宇城市,小川町北新田,クマモトケン,ウキシ,オガワマチキタシンデン,熊本県宇城市小川町北新田
8690632,熊本県,宇城市,小川町南新田,クマモトケン,ウキシ,オガワマチミナミシンデン,熊本県宇城市小川町南新田
8690633,熊本県,宇城市,小川町新田,クマモトケン,ウキシ,オガワマチシンデン,熊本県宇城市小川町新田
8690634,熊本県,宇城市,小川町住吉,クマモトケン,ウキシ,オガワマチスミヨシ,熊本県宇城市小川町住吉
8690635,熊本県,宇城市,小川町不知火,クマモトケン,ウキシ,オガワマチシラヌイ,熊本県宇城市小川町不知火
8690636,熊本県,宇城市,小川町新田出,クマモトケン,ウキシ,オガワマチシンデンデ,熊本県宇城市小川町新田出
8691100,熊本県,菊池郡菊陽町,,クマモトケン,キクチグンキクヨウマチ,,熊本県菊池郡菊陽町
8691101,熊本県,菊池郡菊陽町,津久礼,クマモトケン,キクチグンキクヨウマチ,ツクレ,熊本県菊池郡菊陽町津久礼
8691102,熊本県,菊池郡菊陽町,原水,クマモトケン,キクチグンキクヨウマチ,ハラミズ,熊本県菊池郡菊陽町原水
8691103,熊本県,菊池郡菊陽町,久保田,クマモトケン,キクチグンキクヨウマチ,クボタ,熊本県菊池郡菊陽町久保田
8691104,熊本県,菊池郡菊陽町,戸次,クマモトケン,キクチグンキクヨウマチ,トツギ,熊本県菊池郡菊陽町戸次
8691105,熊本県,菊池郡菊陽町,馬場楠,クマモトケン,キクチグンキクヨウマチ,ババグス,熊本県菊池郡菊陽町馬場楠
8691106,熊本県,菊池郡菊陽町,曲手,クマモトケン,キクチグンキクヨウマチ,マガテ,熊本県菊池郡菊陽町曲手
8691107,熊本県,菊池郡菊陽町,辛川,クマモトケン,キクチグンキクヨウマチ,カラカワ,熊本県菊池郡菊陽町辛川
8691108,熊本県,菊池郡菊陽町,光の森,クマモトケン,キクチグンキクヨウマチ,ヒカリノモリ,熊本県菊池郡菊陽町光の森
8691109,熊本県,菊池郡菊陽町,新山,クマモトケン,キクチグンキクヨウマチ,シンヤマ,熊本県菊池郡菊陽町新山
8691110,熊本県,菊池郡菊陽町,杉並台,クマモトケン,キクチグンキクヨウマチ,スギナミダイ,熊本県菊池郡菊陽町杉並台
8691111,熊本県,菊池郡菊陽町,武蔵ヶ丘,クマモトケン,キクチグンキクヨウマチ,ムサシガオカ,熊本県菊池郡菊陽町武蔵ヶ丘
8691112,熊本県,菊池郡菊陽町,武蔵ヶ丘北,クマモトケン,キクチグンキクヨウマチ,ムサシガオカキタ,熊本県菊池郡菊陽町武蔵ヶ丘北
8691113,熊本県,菊池郡菊陽町,花立,クマモトケン,キクチグンキクヨウマチ,ハナタテ,熊本県菊池郡菊陽町花立
8691114,熊本県,菊池郡菊陽町,向陽台,クマモトケン,キクチグンキクヨウマチ,コウヨウダイ,熊本県菊池郡菊陽町向陽台
8691115,熊本県,菊池郡菊陽町,沖野,クマモトケン,キクチグンキクヨウマチ,オキノ,熊本県菊池郡菊陽町沖野
8691200,熊本県,菊池郡大津町,,クマモトケン,キクチグンオオヅマチ,,熊本県菊池郡大津町
8691201,熊本県,菊池市,旭志弁利,クマモトケン,キクチシ,キョクシベンリ,熊本県菊池市旭志弁利
8691202,熊本県,菊池市,旭志麓,クマモトケン,キクチシ,キョクシフモト,熊本県菊池市旭志麓
8691203,熊本県,菊池市,旭志尾足,クマモトケン,キクチシ,キョクシオタル,熊本県菊池市旭志尾足
8691204,熊本県,菊池市,旭志小原,クマモトケン,キクチシ,キョクシオバル,熊本県菊池市旭志小原
8691205,熊本県,菊池市,旭志川辺,クマモトケン,キクチシ,キョクシカワベ,熊本県菊池市旭志川辺
8691206,熊本県,菊池市,旭志伊坂,クマモトケン,キクチシ,キョクシイサカ,熊本県菊池市旭志伊坂
8691207,熊本県,菊池市,旭志新明,クマモトケン,キクチシ,キョクシシンメイ,熊本県菊池市旭志新明
8691208,熊本県,菊池市,旭志伊萩,クマモトケン,キクチシ,キョクシイハギ,熊本県菊池市旭志伊萩
8691211,熊本県,菊池郡大津町,矢護川,クマモトケン,キクチグンオオヅマチ,ヤゴガワ,熊本県菊池郡大津町矢護川
8691212,熊本県,菊池郡大津町,真木,クマモトケン,キクチグンオオヅマチ,マキ,熊本県菊池郡大津町真木
8691213,熊本県,菊池郡大津町,古城,クマモトケン,キクチグンオオヅマチ,フルジョウ,熊本県菊池郡大津町古城
8691214,熊本県,菊池郡大津町,瀬田,クマモトケン,キクチグンオオヅマチ,セタ,熊本県菊池郡大津町瀬田
8691215,熊本県,菊池郡大津町,外牧,クマモトケン,キクチグンオオヅマチ,ホカマキ,熊本県菊池郡大津町外牧
8691216,熊本県,菊池郡大津町,錦野,クマモトケン,キクチグンオオヅマチ,ニシキノ,熊本県菊池郡大津町錦野
8691217,熊本県,菊池郡大津町,森,クマモトケン,キクチグンオオヅマチ,モリ,熊本県菊池郡大津町森
8691218,熊本県,菊池郡大津町,吹田,クマモトケン,キクチグンオオヅマチ,フケダ,熊本県菊池郡大津町吹田
8691219,熊本県,菊池郡大津町,大林,クマモトケン,キクチグンオオヅマチ,オオバヤシ,熊本県菊池郡大津町大林
8691221,熊本県,菊池郡大津町,陣内,クマモトケン,キクチグンオオヅマチ,ジンナイ,熊本県菊池郡大津町陣内
8691222,熊本県,菊池郡大津町,岩坂,クマモトケン,キクチグンオオヅマチ,イワサカ,熊本県菊池郡大津町岩坂
8691223,熊本県,菊池郡大津町,中島,クマモトケン,キクチグンオオヅマチ,ナカシマ,熊本県菊池郡大津町中島
8691224,熊本県,菊池郡大津町,町,クマモトケン,キクチグンオオヅマチ,マチ,熊本県菊池郡大津町町
8691225,熊本県,菊池郡大津町,下町,クマモトケン,キクチグンオオヅマチ,シモマチ,熊本県菊池郡大津町下町
8691226,熊本県,菊池郡大津町,灰塚,クマモトケン,キクチグンオオヅマチ,ハイヅカ,熊本県菊池郡大津町灰塚
8691227,熊本県,菊池郡大津町,新,クマモトケン,キクチグンオオヅマチ,シン,熊本県菊池郡大津町新
8691231,熊本県,菊池郡大津町,平川,クマモトケン,キクチグンオオヅマチ,ヒラカワ,熊本県菊池郡大津町平川
8691232,熊本県,菊池郡大津町,高尾野,クマモトケン,キクチグンオオヅマチ,タカオノ,熊本県菊池郡大津町高尾野
8691233,熊本県,菊池郡大津町,大津,クマモトケン,キクチグンオオヅマチ,オオヅ,熊本県菊池郡大津町大津
8691234,熊本県,菊池郡大津町,引水,クマモトケン,キクチグンオオヅマチ,ヒキノミズ,熊本県菊池郡大津町引水
8691235,熊本県,菊池郡大津町,室,クマモトケン,キクチグンオオヅマチ,ムロ,熊本県菊池郡大津町室
8691236,熊本県,菊池郡大津町,杉水,クマモトケン,キクチグンオオヅマチ,スギミズ,熊本県菊池郡大津町杉水
8691237,熊本県,菊池郡大津町,美咲野,クマモトケン,キクチグンオオヅマチ,ミサキノ,熊本県菊池郡大津町美咲野
8691400,熊本県,阿蘇郡南阿蘇村,,クマモトケン,アソグンミナミアソムラ,,熊本県阿蘇郡南阿蘇村
8691401,熊本県,阿蘇郡南阿蘇村,立野,クマモトケン,アソグンミナミアソムラ,タテノ,熊本県阿蘇郡南阿蘇村立野
8691402,熊本県,阿蘇郡南阿蘇村,下野,クマモトケン,アソグンミナミアソムラ,シモノ,熊本県阿蘇郡南阿蘇村下野
8691403,熊本県,阿蘇郡南阿蘇村,長野,クマモトケン,アソグンミナミアソムラ,ナガノ,熊本県阿蘇郡南阿蘇村長野
8691404,熊本県,阿蘇郡南阿蘇村,河陽,クマモトケン,アソグンミナミアソムラ,カワヨウ,熊本県阿蘇郡南阿蘇村河陽
8691411,熊本県,阿蘇郡南阿蘇村,河陰,クマモトケン,アソグンミナミアソムラ,カイン,熊本県阿蘇郡南阿蘇村河陰
8691412,熊本県,阿蘇郡南阿蘇村,久石,クマモトケン,アソグンミナミアソムラ,ヒサイシ,熊本県阿蘇郡南阿蘇村久石
8691501,熊本県,阿蘇郡南阿蘇村,両併,クマモトケン,アソグンミナミアソムラ,リョウヘイ,熊本県阿蘇郡南阿蘇村両併
8691502,熊本県,阿蘇郡南阿蘇村,白川,クマモトケン,アソグンミナミアソムラ,シラカワ,熊本県阿蘇郡南阿蘇村白川
8691503,熊本県,阿蘇郡南阿蘇村,吉田,クマモトケン,アソグンミナミアソムラ,ヨシダ,熊本県阿蘇郡南阿蘇村吉田
8691504,熊本県,阿蘇郡南阿蘇村,一関,クマモトケン,アソグンミナミアソムラ,イチゼキ,熊本県阿蘇郡南阿蘇村一関
8691505,熊本県,阿蘇郡南阿蘇村,中松（その他）,クマモトケン,アソグンミナミアソムラ,ナカマツ(ソノタ),熊本県阿蘇郡南阿蘇村中松（その他）
8691600,熊本県,阿蘇郡高森町,,クマモトケン,アソグンタカモリマチ,,熊本県阿蘇郡高森町
8691601,熊本県,阿蘇郡高森町,上色見,クマモトケン,アソグンタカモリマチ,カミシキミ,熊本県阿蘇郡高森町上色見
8691602,熊本県,阿蘇郡高森町,高森,クマモトケン,アソグンタカモリマチ,タカモリ,熊本県阿蘇郡高森町高森
8691603,熊本県,阿蘇郡高森町,色見,クマモトケン,アソグンタカモリマチ,シキミ,熊本県阿蘇郡高森町色見
8691811,熊本県,阿蘇郡高森町,草部,クマモトケン,アソグンタカモリマチ,クサカベ,熊本県阿蘇郡高森町草部
8691812,熊本県,阿蘇郡高森町,芹口,クマモトケン,アソグンタカモリマチ,セリグチ,熊本県阿蘇郡高森町芹口
8691813,熊本県,阿蘇郡高森町,菅山,クマモトケン,アソグンタカモリマチ,スガヤマ,熊本県阿蘇郡高森町菅山
8691814,熊本県,阿蘇郡高森町,永野原,クマモトケン,アソグンタカモリマチ,ナガノハル,熊本県阿蘇郡高森町永野原
8691815,熊本県,阿蘇郡高森町,下切,クマモトケン,アソグンタカモリマチ,シタギリ,熊本県阿蘇郡高森町下切
8691821,熊本県,阿蘇郡高森町,中,クマモトケン,アソグンタカモリマチ,ナカ,熊本県阿蘇郡高森町中
8691822,熊本県,阿蘇郡高森町,矢津田,クマモトケン,アソグンタカモリマチ,ヤツダ,熊本県阿蘇郡高森町矢津田
8691823,熊本県,阿蘇郡高森町,津留,クマモトケン,アソグンタカモリマチ,ツル,熊本県阿蘇郡高森町津留
8691824,熊本県,阿蘇郡高森町,野尻,クマモトケン,アソグンタカモリマチ,ノジリ,熊本県阿蘇郡高森町野尻
8691825,熊本県,阿蘇郡高森町,尾下,クマモトケン,アソグンタカモリマチ,オクダリ,熊本県阿蘇郡高森町尾下
8691826,熊本県,阿蘇郡高森町,河原,クマモトケン,アソグンタカモリマチ,カワラ,熊本県阿蘇郡高森町河原
8692205,熊本県,阿蘇郡南阿蘇村,中松（古坊中）,クマモトケン,アソグンミナミアソムラ,ナカマツ(フルボウチュウ),熊本県阿蘇郡南阿蘇村中松（古坊中）
8692221,熊本県,阿蘇市,役犬原,クマモトケン,アソシ,ヤクインバル,熊本県阿蘇市役犬原
8692222,熊本県,阿蘇市,西町,クマモトケン,アソシ,ニシマチ,熊本県阿蘇市西町
8692223,熊本県,阿蘇市,竹原,クマモトケン,アソシ,タカワラ,熊本県阿蘇市竹原
8692224,熊本県,阿蘇市,蔵原,クマモトケン,アソシ,クラバル,熊本県阿蘇市蔵原
8692225,熊本県,阿蘇市,黒川,クマモトケン,アソシ,クロカワ,熊本県阿蘇市黒川
8692226,熊本県,阿蘇市,乙姫,クマモトケン,アソシ,オトヒメ,熊本県阿蘇市乙姫
8692231,熊本県,阿蘇市,永草,クマモトケン,アソシ,ナガクサ,熊本県阿蘇市永草
8692232,熊本県,阿蘇市,赤水,クマモトケン,アソシ,アカミズ,熊本県阿蘇市赤水
8692233,熊本県,阿蘇市,無田,クマモトケン,アソシ,ムタ,熊本県阿蘇市無田
8692234,熊本県,阿蘇市,車帰,クマモトケン,アソシ,クルマガエリ,熊本県阿蘇市車帰
8692235,熊本県,阿蘇市,狩尾,クマモトケン,アソシ,カリオ,熊本県阿蘇市狩尾
8692236,熊本県,阿蘇市,跡ケ瀬,クマモトケン,アソシ,アトガセ,熊本県阿蘇市跡ケ瀬
8692237,熊本県,阿蘇市,的石,クマモトケン,アソシ,マトイシ,熊本県阿蘇市的石
8692301,熊本県,阿蘇市,内牧,クマモトケン,アソシ,ウチノマキ,熊本県阿蘇市内牧
8692302,熊本県,阿蘇市,三久保,クマモトケン,アソシ,ミクボ,熊本県阿蘇市三久保
8692303,熊本県,阿蘇市,西小園,クマモトケン,アソシ,ニシコゾノ,熊本県阿蘇市西小園
8692304,熊本県,阿蘇市,西湯浦,クマモトケン,アソシ,ニシユノウラ,熊本県阿蘇市西湯浦
8692305,熊本県,阿蘇市,湯浦,クマモトケン,アソシ,ユノウラ,熊本県阿蘇市湯浦
8692306,熊本県,阿蘇市,南宮原,クマモトケン,アソシ,ミナミミヤバル,熊本県阿蘇市南宮原
8692307,熊本県,阿蘇市,小里,クマモトケン,アソシ,オザト,熊本県阿蘇市小里
8692311,熊本県,阿蘇市,小池,クマモトケン,アソシ,コウジ,熊本県阿蘇市小池
8692312,熊本県,阿蘇市,小倉,クマモトケン,アソシ,オクラ,熊本県阿蘇市小倉
8692313,熊本県,阿蘇市,山田（その他）,クマモトケン,アソシ,ヤマダ(ソノタ),熊本県阿蘇市山田（その他）
8692314,熊本県,阿蘇市,小野田,クマモトケン,アソシ,オノダ,熊本県阿蘇市小野田
8692315,熊本県,阿蘇市,今町,クマモトケン,アソシ,イママチ,熊本県阿蘇市今町
8692316,熊本県,阿蘇市,黒流町,クマモトケン,アソシ,クロナガレマチ,熊本県阿蘇市黒流町
8692400,熊本県,阿蘇郡南小国町,,クマモトケン,アソグンミナミオグニマチ,,熊本県阿蘇郡南小国町
8692401,熊本県,阿蘇郡南小国町,赤馬場,クマモトケン,アソグンミナミオグニマチ,アカババ,熊本県阿蘇郡南小国町赤馬場
8692402,熊本県,阿蘇郡南小国町,満願寺,クマモトケン,アソグンミナミオグニマチ,マンガンジ,熊本県阿蘇郡南小国町満願寺
8692403,熊本県,阿蘇郡南小国町,中原,クマモトケン,アソグンミナミオグニマチ,ナカバル,熊本県阿蘇郡南小国町中原
8692413,熊本県,阿蘇市,山田（蔵床、橋台、茗ケ原）,クマモトケン,アソシ,ヤマダ(クラトコ、ハシダイ、ミョウガハラ),熊本県阿蘇市山田（蔵床、橋台、茗ケ原）
8692500,熊本県,阿蘇郡小国町,,クマモトケン,アソグンオグニマチ,,熊本県阿蘇郡小国町
8692501,熊本県,阿蘇郡小国町,宮原,クマモトケン,アソグンオグニマチ,ミヤハラ,熊本県阿蘇郡小国町宮原
8692502,熊本県,阿蘇郡小国町,黒渕,クマモトケン,アソグンオグニマチ,クロブチ,熊本県阿蘇郡小国町黒渕
8692503,熊本県,阿蘇郡小国町,下城,クマモトケン,アソグンオグニマチ,シモジョウ,熊本県阿蘇郡小国町下城
8692504,熊本県,阿蘇郡小国町,西里,クマモトケン,アソグンオグニマチ,ニシザト,熊本県阿蘇郡小国町西里
8692505,熊本県,阿蘇郡小国町,北里,クマモトケン,アソグンオグニマチ,キタザト,熊本県阿蘇郡小国町北里
8692506,熊本県,阿蘇郡小国町,上田,クマモトケン,アソグンオグニマチ,カミダ,熊本県阿蘇郡小国町上田
8692600,熊本県,阿蘇市,,クマモトケン,アソシ,,熊本県阿蘇市
8692601,熊本県,阿蘇市,一の宮町手野,クマモトケン,アソシ,イチノミヤマチテノ,熊本県阿蘇市一の宮町手野
8692602,熊本県,阿蘇市,一の宮町三野,クマモトケン,アソシ,イチノミヤマチサンノ,熊本県阿蘇市一の宮町三野
8692603,熊本県,阿蘇市,一の宮町北坂梨,クマモトケン,アソシ,イチノミヤマチキタサカナシ,熊本県阿蘇市一の宮町北坂梨
8692604,熊本県,阿蘇市,一の宮町中坂梨,クマモトケン,アソシ,イチノミヤマチナカサカナシ,熊本県阿蘇市一の宮町中坂梨
8692611,熊本県,阿蘇市,一の宮町坂梨,クマモトケン,アソシ,イチノミヤマチサカナシ,熊本県阿蘇市一の宮町坂梨
8692612,熊本県,阿蘇市,一の宮町宮地,クマモトケン,アソシ,イチノミヤマチミヤジ,熊本県阿蘇市一の宮町宮地
8692613,熊本県,阿蘇市,一の宮町中通,クマモトケン,アソシ,イチノミヤマチナカドオリ,熊本県阿蘇市一の宮町中通
8692621,熊本県,阿蘇市,一の宮町荻の草,クマモトケン,アソシ,イチノミヤマチオギノクサ,熊本県阿蘇市一の宮町荻の草
8692700,熊本県,阿蘇郡産山村,,クマモトケン,アソグンウブヤマムラ,,熊本県阿蘇郡産山村
8692701,熊本県,阿蘇郡産山村,片俣,クマモトケン,アソグンウブヤマムラ,カタマタ,熊本県阿蘇郡産山村片俣
8692702,熊本県,阿蘇郡産山村,大利,クマモトケン,アソグンウブヤマムラ,オオリ,熊本県阿蘇郡産山村大利
8692703,熊本県,阿蘇郡産山村,山鹿,クマモトケン,アソグンウブヤマムラ,ヤマガ,熊本県阿蘇郡産山村山鹿
8692704,熊本県,阿蘇郡産山村,田尻,クマモトケン,アソグンウブヤマムラ,タジリ,熊本県阿蘇郡産山村田尻
8692705,熊本県,阿蘇郡産山村,産山,クマモトケン,アソグンウブヤマムラ,ウブヤマ,熊本県阿蘇郡産山村産山
8692801,熊本県,阿蘇市,波野小地野,クマモトケン,アソシ,ナミノショウチノ,熊本県阿蘇市波野小地野
8692802,熊本県,阿蘇市,波野小園,クマモトケン,アソシ,ナミノオゾノ,熊本県阿蘇市波野小園
8692803,熊本県,阿蘇市,波野赤仁田,クマモトケン,アソシ,ナミノアカニタ,熊本県阿蘇市波野赤仁田
8692804,熊本県,阿蘇市,波野滝水,クマモトケン,アソシ,ナミノタキミズ,熊本県阿蘇市波野滝水
8692805,熊本県,阿蘇市,波野中江,クマモトケン,アソシ,ナミノナカエ,熊本県阿蘇市波野中江
8692806,熊本県,阿蘇市,波野波野,クマモトケン,アソシ,ナミノナミノ,熊本県阿蘇市波野波野
8692807,熊本県,阿蘇市,波野新波野,クマモトケン,アソシ,ナミノシンナミノ,熊本県阿蘇市波野新波野
8693171,熊本県,宇土市,長浜町,クマモトケン,ウトシ,ナガハママチ,熊本県宇土市長浜町
8693172,熊本県,宇土市,上網田町,クマモトケン,ウトシ,カミオウダマチ,熊本県宇土市上網田町
8693173,熊本県,宇土市,下網田町,クマモトケン,ウトシ,シモオウダマチ,熊本県宇土市下網田町
8693174,熊本県,宇土市,戸口町,クマモトケン,ウトシ,トグチマチ,熊本県宇土市戸口町
8693175,熊本県,宇土市,赤瀬町,クマモトケン,ウトシ,アカセマチ,熊本県宇土市赤瀬町
8693201,熊本県,宇城市,三角町大田尾,クマモトケン,ウキシ,ミスミマチオオタオ,熊本県宇城市三角町大田尾
8693202,熊本県,宇城市,三角町郡浦,クマモトケン,ウキシ,ミスミマチコオノウラ,熊本県宇城市三角町郡浦
8693203,熊本県,宇城市,三角町戸馳,クマモトケン,ウキシ,ミスミマチトバセ,熊本県宇城市三角町戸馳
8693204,熊本県,宇城市,三角町中村,クマモトケン,ウキシ,ミスミマチナカムラ,熊本県宇城市三角町中村
8693205,熊本県,宇城市,三角町波多,クマモトケン,ウキシ,ミスミマチハタ,熊本県宇城市三角町波多
8693206,熊本県,宇城市,三角町前越,クマモトケン,ウキシ,ミスミマチマエゴシ,熊本県宇城市三角町前越
8693207,熊本県,宇城市,三角町三角浦,クマモトケン,ウキシ,ミスミマチミスミウラ,熊本県宇城市三角町三角浦
8693411,熊本県,宇城市,三角町大口,クマモトケン,ウキシ,ミスミマチオオクチ,熊本県宇城市三角町大口
8693412,熊本県,宇城市,三角町手場,クマモトケン,ウキシ,ミスミマチテバ,熊本県宇城市三角町手場
8693413,熊本県,宇城市,三角町里浦,クマモトケン,ウキシ,ミスミマチサトノウラ,熊本県宇城市三角町里浦
8693471,熊本県,宇城市,不知火町永尾,クマモトケン,ウキシ,シラヌヒマチエイノオ,熊本県宇城市不知火町永尾
8693472,熊本県,宇城市,不知火町松合,クマモトケン,ウキシ,シラヌヒマチマツアイ,熊本県宇城市不知火町松合
8693473,熊本県,宇城市,不知火町大見,クマモトケン,ウキシ,シラヌヒマチオオミ,熊本県宇城市不知火町大見
8693600,熊本県,上天草市,,クマモトケン,カミアマクサシ,,熊本県上天草市
8693601,熊本県,上天草市,大矢野町登立,クマモトケン,カミアマクサシ,オオヤノマチノボリタテ,熊本県上天草市大矢野町登立
8693602,熊本県,上天草市,大矢野町上,クマモトケン,カミアマクサシ,オオヤノマチカミ,熊本県上天草市大矢野町上
8693603,熊本県,上天草市,大矢野町中,クマモトケン,カミアマクサシ,オオヤノマチナカ,熊本県上天草市大矢野町中
8693604,熊本県,上天草市,大矢野町維和,クマモトケン,カミアマクサシ,オオヤノマチイワ,熊本県上天草市大矢野町維和
8693711,熊本県,上天草市,大矢野町湯島,クマモトケン,カミアマクサシ,オオヤノマチユシマ,熊本県上天草市大矢野町湯島
8694201,熊本県,八代市,鏡町鏡村,クマモトケン,ヤツシロシ,カガミマチカガミムラ,熊本県八代市鏡町鏡村
8694202,熊本県,八代市,鏡町内田,クマモトケン,ヤツシロシ,カガミマチウチダ,熊本県八代市鏡町内田
8694203,熊本県,八代市,鏡町鏡,クマモトケン,ヤツシロシ,カガミマチカガミ,熊本県八代市鏡町鏡
8694204,熊本県,八代市,鏡町芝口,クマモトケン,ヤツシロシ,カガミマチシバクチ,熊本県八代市鏡町芝口
8694205,熊本県,八代市,鏡町野崎,クマモトケン,ヤツシロシ,カガミマチノザキ,熊本県八代市鏡町野崎
8694211,熊本県,八代市,鏡町上鏡,クマモトケン,ヤツシロシ,カガミマチカミカガミ,熊本県八代市鏡町上鏡
8694212,熊本県,八代市,鏡町下有佐,クマモトケン,ヤツシロシ,カガミマチシモアリサ,熊本県八代市鏡町下有佐
8694213,熊本県,八代市,鏡町有佐,クマモトケン,ヤツシロシ,カガミマチアリサ,熊本県八代市鏡町有佐
8694214,熊本県,八代市,鏡町中島,クマモトケン,ヤツシロシ,カガミマチナカシマ,熊本県八代市鏡町中島
8694215,熊本県,八代市,鏡町下村,クマモトケン,ヤツシロシ,カガミマチシモムラ,熊本県八代市鏡町下村
8694221,熊本県,八代市,鏡町宝出,クマモトケン,ヤツシロシ,カガミマチホウデ,熊本県八代市鏡町宝出
8694222,熊本県,八代市,鏡町両出,クマモトケン,ヤツシロシ,カガミマチリョウデ,熊本県八代市鏡町両出
8694223,熊本県,八代市,鏡町貝洲,クマモトケン,ヤツシロシ,カガミマチカイズ,熊本県八代市鏡町貝洲
8694224,熊本県,八代市,鏡町塩浜,クマモトケン,ヤツシロシ,カガミマチシオハマ,熊本県八代市鏡町塩浜
8694225,熊本県,八代市,鏡町北新地,クマモトケン,ヤツシロシ,カガミマチキタシンチ,熊本県八代市鏡町北新地
8694301,熊本県,八代市,東陽町南,クマモトケン,ヤツシロシ,トウヨウマチミナミ,熊本県八代市東陽町南
8694302,熊本県,八代市,東陽町北,クマモトケン,ヤツシロシ,トウヨウマチキタ,熊本県八代市東陽町北
8694303,熊本県,八代市,東陽町河俣,クマモトケン,ヤツシロシ,トウヨウマチカワマタ,熊本県八代市東陽町河俣
8694304,熊本県,八代市,東陽町小浦,クマモトケン,ヤツシロシ,トウヨウマチコウラ,熊本県八代市東陽町小浦
8694401,熊本県,八代市,泉町柿迫（その他）,クマモトケン,ヤツシロシ,イズミマチカキザコ(ソノタ),熊本県八代市泉町柿迫（その他）
8694402,熊本県,八代市,泉町栗木,クマモトケン,ヤツシロシ,イズミマチクリギ,熊本県八代市泉町栗木
8694403,熊本県,八代市,泉町下岳,クマモトケン,ヤツシロシ,イズミマチシモダケ,熊本県八代市泉町下岳
8694501,熊本県,八代市,泉町柿迫（８６２８番地）,クマモトケン,ヤツシロシ,イズミマチカキザコ(8628バンチ),熊本県八代市泉町柿迫（8628-）
8694511,熊本県,八代市,泉町葉木,クマモトケン,ヤツシロシ,イズミマチハギ,熊本県八代市泉町葉木
8694512,熊本県,八代市,泉町樅木,クマモトケン,ヤツシロシ,イズミマチモミギ,熊本県八代市泉町樅木
8694513,熊本県,八代市,泉町久連子,クマモトケン,ヤツシロシ,イズミマチクレコ,熊本県八代市泉町久連子
8694514,熊本県,八代市,泉町椎原,クマモトケン,ヤツシロシ,イズミマチシイバル,熊本県八代市泉町椎原
8694515,熊本県,八代市,泉町仁田尾,クマモトケン,ヤツシロシ,イズミマチニタオ,熊本県八代市泉町仁田尾
8694600,熊本県,八代郡氷川町,,クマモトケン,ヤツシログンヒカワチョウ,,熊本県八代郡氷川町
8694601,熊本県,八代郡氷川町,今,クマモトケン,ヤツシログンヒカワチョウ,イマ,熊本県八代郡氷川町今
8694602,熊本県,八代郡氷川町,宮原,クマモトケン,ヤツシログンヒカワチョウ,ミヤハラ,熊本県八代郡氷川町宮原
8694603,熊本県,八代郡氷川町,立神,クマモトケン,ヤツシログンヒカワチョウ,タテガミ,熊本県八代郡氷川町立神
8694604,熊本県,八代郡氷川町,有佐,クマモトケン,ヤツシログンヒカワチョウ,アリサ,熊本県八代郡氷川町有佐
8694605,熊本県,八代郡氷川町,中島,クマモトケン,ヤツシログンヒカワチョウ,ナカシマ,熊本県八代郡氷川町中島
8694606,熊本県,八代郡氷川町,早尾,クマモトケン,ヤツシログンヒカワチョウ,ハヤオ,熊本県八代郡氷川町早尾
8694607,熊本県,八代郡氷川町,栫,クマモトケン,ヤツシログンヒカワチョウ,カコイ,熊本県八代郡氷川町栫
8694608,熊本県,八代郡氷川町,宮原栄久,クマモトケン,ヤツシログンヒカワチョウ,ミヤハラエイキュウ,熊本県八代郡氷川町宮原栄久
8694611,熊本県,八代市,岡町小路,クマモトケン,ヤツシロシ,オカマチショウジ,熊本県八代市岡町小路
8694612,熊本県,八代市,岡町中,クマモトケン,ヤツシロシ,オカマチナカ,熊本県八代市岡町中
8694613,熊本県,八代市,岡町谷川,クマモトケン,ヤツシロシ,オカマチタニガワ,熊本県八代市岡町谷川
8694614,熊本県,八代市,興善寺町,クマモトケン,ヤツシロシ,コウゼンジマチ,熊本県八代市興善寺町
8694615,熊本県,八代市,川田町東,クマモトケン,ヤツシロシ,カワタマチヒガシ,熊本県八代市川田町東
8694616,熊本県,八代市,川田町西,クマモトケン,ヤツシロシ,カワタマチニシ,熊本県八代市川田町西
8694701,熊本県,八代市,千丁町太牟田,クマモトケン,ヤツシロシ,センチョウマチオオムタ,熊本県八代市千丁町太牟田
8694702,熊本県,八代市,千丁町吉王丸,クマモトケン,ヤツシロシ,センチョウマチヨシオウマル,熊本県八代市千丁町吉王丸
8694703,熊本県,八代市,千丁町新牟田,クマモトケン,ヤツシロシ,センチョウマチシンムタ,熊本県八代市千丁町新牟田
8694704,熊本県,八代市,千丁町古閑出,クマモトケン,ヤツシロシ,センチョウマチコガデ,熊本県八代市千丁町古閑出
8694721,熊本県,八代市,昭和日進町,クマモトケン,ヤツシロシ,ショウワニッシンマチ,熊本県八代市昭和日進町
8694722,熊本県,八代市,昭和明徴町,クマモトケン,ヤツシロシ,ショウワメイチョウマチ,熊本県八代市昭和明徴町
8694723,熊本県,八代市,昭和同仁町,クマモトケン,ヤツシロシ,ショウワドウジンマチ,熊本県八代市昭和同仁町
8694801,熊本県,八代郡氷川町,新田,クマモトケン,ヤツシログンヒカワチョウ,シンデン,熊本県八代郡氷川町新田
8694802,熊本県,八代郡氷川町,高塚,クマモトケン,ヤツシログンヒカワチョウ,タカツカ,熊本県八代郡氷川町高塚
8694803,熊本県,八代郡氷川町,吉本,クマモトケン,ヤツシログンヒカワチョウ,ヨシモト,熊本県八代郡氷川町吉本
8694804,熊本県,八代郡氷川町,大野,クマモトケン,ヤツシログンヒカワチョウ,オオノ,熊本県八代郡氷川町大野
8694805,熊本県,八代郡氷川町,野津,クマモトケン,ヤツシログンヒカワチョウ,ノヅ,熊本県八代郡氷川町野津
8694806,熊本県,八代郡氷川町,河原,クマモトケン,ヤツシログンヒカワチョウ,カワハラ,熊本県八代郡氷川町河原
8694811,熊本県,八代郡氷川町,鹿野,クマモトケン,ヤツシログンヒカワチョウ,カノ,熊本県八代郡氷川町鹿野
8694812,熊本県,八代郡氷川町,網道,クマモトケン,ヤツシログンヒカワチョウ,アミドウ,熊本県八代郡氷川町網道
8694813,熊本県,八代郡氷川町,若洲,クマモトケン,ヤツシログンヒカワチョウ,ワカス,熊本県八代郡氷川町若洲
8694814,熊本県,八代郡氷川町,島地,クマモトケン,ヤツシログンヒカワチョウ,シマチ,熊本県八代郡氷川町島地
8694815,熊本県,八代郡氷川町,鹿島,クマモトケン,ヤツシログンヒカワチョウ,カシマ,熊本県八代郡氷川町鹿島
8695131,熊本県,八代市,日奈久馬越町,クマモトケン,ヤツシロシ,ヒナグマゴシマチ,熊本県八代市日奈久馬越町
8695132,熊本県,八代市,日奈久下西町,クマモトケン,ヤツシロシ,ヒナグシモニシマチ,熊本県八代市日奈久下西町
8695133,熊本県,八代市,日奈久中西町,クマモトケン,ヤツシロシ,ヒナグナカニシマチ,熊本県八代市日奈久中西町
8695134,熊本県,八代市,日奈久上西町,クマモトケン,ヤツシロシ,ヒナグカミニシマチ,熊本県八代市日奈久上西町
8695135,熊本県,八代市,日奈久中町,クマモトケン,ヤツシロシ,ヒナグナカマチ,熊本県八代市日奈久中町
8695136,熊本県,八代市,日奈久東町,クマモトケン,ヤツシロシ,ヒナグヒガシマチ,熊本県八代市日奈久東町
8695137,熊本県,八代市,日奈久浜町,クマモトケン,ヤツシロシ,ヒナグハママチ,熊本県八代市日奈久浜町
8695138,熊本県,八代市,日奈久平成町,クマモトケン,ヤツシロシ,ヒナグヘイセイマチ,熊本県八代市日奈久平成町
8695141,熊本県,八代市,日奈久塩南町,クマモトケン,ヤツシロシ,ヒナグシオミナミマチ,熊本県八代市日奈久塩南町
8695142,熊本県,八代市,日奈久塩北町,クマモトケン,ヤツシロシ,ヒナグシオキタマチ,熊本県八代市日奈久塩北町
8695143,熊本県,八代市,日奈久竹之内町,クマモトケン,ヤツシロシ,ヒナグタケノウチマチ,熊本県八代市日奈久竹之内町
8695144,熊本県,八代市,日奈久山下町,クマモトケン,ヤツシロシ,ヒナグヤマシタマチ,熊本県八代市日奈久山下町
8695145,熊本県,八代市,日奈久新田町,クマモトケン,ヤツシロシ,ヒナグシンデンマチ,熊本県八代市日奈久新田町
8695146,熊本県,八代市,日奈久大坪町,クマモトケン,ヤツシロシ,ヒナグオオツボマチ,熊本県八代市日奈久大坪町
8695147,熊本県,八代市,日奈久新開町,クマモトケン,ヤツシロシ,ヒナグシンカイマチ,熊本県八代市日奈久新開町
8695148,熊本県,八代市,日奈久栄町,クマモトケン,ヤツシロシ,ヒナグサカエマチ,熊本県八代市日奈久栄町
8695151,熊本県,八代市,敷川内町,クマモトケン,ヤツシロシ,シキガワチマチ,熊本県八代市敷川内町
8695152,熊本県,八代市,揚町,クマモトケン,ヤツシロシ,アゲマチ,熊本県八代市揚町
8695153,熊本県,八代市,催合町,クマモトケン,ヤツシロシ,モヤイマチ,熊本県八代市催合町
8695154,熊本県,八代市,高植本町,クマモトケン,ヤツシロシ,タカウエホンマチ,熊本県八代市高植本町
8695155,熊本県,八代市,水島町,クマモトケン,ヤツシロシ,ミズシママチ,熊本県八代市水島町
8695161,熊本県,八代市,葭牟田町,クマモトケン,ヤツシロシ,ヨシムタマチ,熊本県八代市葭牟田町
8695162,熊本県,八代市,北原町,クマモトケン,ヤツシロシ,キタバラマチ,熊本県八代市北原町
8695163,熊本県,八代市,三江湖町,クマモトケン,ヤツシロシ,ミツエゴマチ,熊本県八代市三江湖町
8695164,熊本県,八代市,鼠蔵町,クマモトケン,ヤツシロシ,ソゾウマチ,熊本県八代市鼠蔵町
8695165,熊本県,八代市,南平和町,クマモトケン,ヤツシロシ,ミナミヘイワマチ,熊本県八代市南平和町
8695166,熊本県,八代市,北平和町,クマモトケン,ヤツシロシ,キタヘイワマチ,熊本県八代市北平和町
8695171,熊本県,八代市,二見洲口町,クマモトケン,ヤツシロシ,フタミスグチマチ,熊本県八代市二見洲口町
8695172,熊本県,八代市,二見本町,クマモトケン,ヤツシロシ,フタミホンマチ,熊本県八代市二見本町
8695173,熊本県,八代市,二見赤松町,クマモトケン,ヤツシロシ,フタミアカマツマチ,熊本県八代市二見赤松町
8695174,熊本県,八代市,二見下大野町,クマモトケン,ヤツシロシ,フタミシモオオノマチ,熊本県八代市二見下大野町
8695175,熊本県,八代市,二見野田崎町,クマモトケン,ヤツシロシ,フタミノタザキマチ,熊本県八代市二見野田崎町
8695221,熊本県,八代市,坂本町川嶽,クマモトケン,ヤツシロシ,サカモトマチカワタケ,熊本県八代市坂本町川嶽
8695222,熊本県,八代市,坂本町鶴喰,クマモトケン,ヤツシロシ,サカモトマチツルバミ,熊本県八代市坂本町鶴喰
8695223,熊本県,八代市,坂本町田上,クマモトケン,ヤツシロシ,サカモトマチタガミ,熊本県八代市坂本町田上
8695224,熊本県,八代市,坂本町百済来下,クマモトケン,ヤツシロシ,サカモトマチクダラギシモ,熊本県八代市坂本町百済来下
8695225,熊本県,八代市,坂本町百済来上,クマモトケン,ヤツシロシ,サカモトマチクダラギカミ,熊本県八代市坂本町百済来上
8695301,熊本県,葦北郡芦北町,横居木,クマモトケン,アシキタグンアシキタマチ,ヨコイギ,熊本県葦北郡芦北町横居木
8695302,熊本県,葦北郡芦北町,田浦,クマモトケン,アシキタグンアシキタマチ,タノウラ,熊本県葦北郡芦北町田浦
8695303,熊本県,葦北郡芦北町,小田浦,クマモトケン,アシキタグンアシキタマチ,コダノウラ,熊本県葦北郡芦北町小田浦
8695304,熊本県,葦北郡芦北町,海浦,クマモトケン,アシキタグンアシキタマチ,ウミノウラ,熊本県葦北郡芦北町海浦
8695305,熊本県,葦北郡芦北町,田浦町,クマモトケン,アシキタグンアシキタマチ,タノウラマチ,熊本県葦北郡芦北町田浦町
8695306,熊本県,葦北郡芦北町,波多島,クマモトケン,アシキタグンアシキタマチ,ハタトウ,熊本県葦北郡芦北町波多島
8695307,熊本県,葦北郡芦北町,井牟田,クマモトケン,アシキタグンアシキタマチ,イムタ,熊本県葦北郡芦北町井牟田
8695400,熊本県,葦北郡芦北町,,クマモトケン,アシキタグンアシキタマチ,,熊本県葦北郡芦北町
8695421,熊本県,葦北郡芦北町,立川,クマモトケン,アシキタグンアシキタマチ,タチカワ,熊本県葦北郡芦北町立川
8695422,熊本県,葦北郡芦北町,大尼田,クマモトケン,アシキタグンアシキタマチ,オオニタ,熊本県葦北郡芦北町大尼田
8695423,熊本県,葦北郡芦北町,松生,クマモトケン,アシキタグンアシキタマチ,マツバエ,熊本県葦北郡芦北町松生
8695424,熊本県,葦北郡芦北町,伏木氏,クマモトケン,アシキタグンアシキタマチ,フシキ,熊本県葦北郡芦北町伏木氏
8695431,熊本県,葦北郡芦北町,乙千屋,クマモトケン,アシキタグンアシキタマチ,オトジヤ,熊本県葦北郡芦北町乙千屋
8695432,熊本県,葦北郡芦北町,宮浦,クマモトケン,アシキタグンアシキタマチ,ミヤノウラ,熊本県葦北郡芦北町宮浦
8695433,熊本県,葦北郡芦北町,八幡,クマモトケン,アシキタグンアシキタマチ,ヤハタ,熊本県葦北郡芦北町八幡
8695434,熊本県,葦北郡芦北町,桑原,クマモトケン,アシキタグンアシキタマチ,クワバラ,熊本県葦北郡芦北町桑原
8695441,熊本県,葦北郡芦北町,佐敷,クマモトケン,アシキタグンアシキタマチ,サシキ,熊本県葦北郡芦北町佐敷
8695442,熊本県,葦北郡芦北町,花岡,クマモトケン,アシキタグンアシキタマチ,ハナオカ,熊本県葦北郡芦北町花岡
8695443,熊本県,葦北郡芦北町,田川,クマモトケン,アシキタグンアシキタマチ,タガワ,熊本県葦北郡芦北町田川
8695451,熊本県,葦北郡芦北町,道川内,クマモトケン,アシキタグンアシキタマチ,ミチガワチ,熊本県葦北郡芦北町道川内
8695452,熊本県,葦北郡芦北町,白岩,クマモトケン,アシキタグンアシキタマチ,シライワ,熊本県葦北郡芦北町白岩
8695453,熊本県,葦北郡芦北町,計石,クマモトケン,アシキタグンアシキタマチ,ハカリイシ,熊本県葦北郡芦北町計石
8695454,熊本県,葦北郡芦北町,鶴木山,クマモトケン,アシキタグンアシキタマチ,ツルギヤマ,熊本県葦北郡芦北町鶴木山
8695461,熊本県,葦北郡芦北町,芦北（その他）,クマモトケン,アシキタグンアシキタマチ,アシキタ(ソノタ),熊本県葦北郡芦北町芦北（その他）
8695561,熊本県,葦北郡芦北町,芦北（北田、中割、西割、松崎）,クマモトケン,アシキタグンアシキタマチ,アシキタ(キタダ、ナカワリ、ニシワリ、マツザキ),熊本県葦北郡芦北町芦北（北田、中割、西割、松崎）
8695562,熊本県,葦北郡芦北町,宮崎,クマモトケン,アシキタグンアシキタマチ,ミヤザキ,熊本県葦北郡芦北町宮崎
8695563,熊本県,葦北郡芦北町,湯浦,クマモトケン,アシキタグンアシキタマチ,ユノウラ,熊本県葦北郡芦北町湯浦
8695564,熊本県,葦北郡芦北町,女島,クマモトケン,アシキタグンアシキタマチ,メシマ,熊本県葦北郡芦北町女島
8695571,熊本県,葦北郡芦北町,豊岡,クマモトケン,アシキタグンアシキタマチ,トヨオカ,熊本県葦北郡芦北町豊岡
8695572,熊本県,葦北郡芦北町,丸山,クマモトケン,アシキタグンアシキタマチ,マルヤマ,熊本県葦北郡芦北町丸山
8695573,熊本県,葦北郡芦北町,米田,クマモトケン,アシキタグンアシキタマチ,ヨネダ,熊本県葦北郡芦北町米田
8695574,熊本県,葦北郡芦北町,大川内,クマモトケン,アシキタグンアシキタマチ,オオカワチ,熊本県葦北郡芦北町大川内
8695575,熊本県,葦北郡芦北町,古石,クマモトケン,アシキタグンアシキタマチ,フルイシ,熊本県葦北郡芦北町古石
8695576,熊本県,葦北郡芦北町,高岡,クマモトケン,アシキタグンアシキタマチ,タカオカ,熊本県葦北郡芦北町高岡
8695600,熊本県,葦北郡津奈木町,,クマモトケン,アシキタグンツナギマチ,,熊本県葦北郡津奈木町
8695601,熊本県,葦北郡津奈木町,千代,クマモトケン,アシキタグンツナギマチ,チヨ,熊本県葦北郡津奈木町千代
8695602,熊本県,葦北郡津奈木町,津奈木,クマモトケン,アシキタグンツナギマチ,ツナギ,熊本県葦北郡津奈木町津奈木
8695603,熊本県,葦北郡津奈木町,岩城,クマモトケン,アシキタグンツナギマチ,イワキ,熊本県葦北郡津奈木町岩城
8695604,熊本県,葦北郡津奈木町,小津奈木,クマモトケン,アシキタグンツナギマチ,コツナギ,熊本県葦北郡津奈木町小津奈木
8695605,熊本県,葦北郡津奈木町,福浜,クマモトケン,アシキタグンツナギマチ,フクハマ,熊本県葦北郡津奈木町福浜
8696101,熊本県,八代市,坂本町西部,クマモトケン,ヤツシロシ,サカモトマチサイブ,熊本県八代市坂本町西部
8696102,熊本県,八代市,坂本町深水,クマモトケン,ヤツシロシ,サカモトマチフカミ,熊本県八代市坂本町深水
8696103,熊本県,八代市,坂本町中谷,クマモトケン,ヤツシロシ,サカモトマチナカタニ,熊本県八代市坂本町中谷
8696104,熊本県,八代市,坂本町鮎帰,クマモトケン,ヤツシロシ,サカモトマチアユガエリ,熊本県八代市坂本町鮎帰
8696105,熊本県,八代市,坂本町坂本,クマモトケン,ヤツシロシ,サカモトマチサカモト,熊本県八代市坂本町坂本
8696111,熊本県,八代市,坂本町葉木,クマモトケン,ヤツシロシ,サカモトマチハギ,熊本県八代市坂本町葉木
8696112,熊本県,八代市,坂本町鎌瀬,クマモトケン,ヤツシロシ,サカモトマチカマセ,熊本県八代市坂本町鎌瀬
8696113,熊本県,八代市,坂本町中津道,クマモトケン,ヤツシロシ,サカモトマチナカツミチ,熊本県八代市坂本町中津道
8696114,熊本県,八代市,坂本町市ノ俣,クマモトケン,ヤツシロシ,サカモトマチイチノマタ,熊本県八代市坂本町市ノ俣
8696115,熊本県,八代市,坂本町荒瀬,クマモトケン,ヤツシロシ,サカモトマチアラセ,熊本県八代市坂本町荒瀬
8696204,熊本県,球磨郡球磨村,神瀬（その他）,クマモトケン,クマグンクマムラ,コウノセ(ソノタ),熊本県球磨郡球磨村神瀬（その他）
8696205,熊本県,球磨郡球磨村,大瀬（その他）,クマモトケン,クマグンクマムラ,オオセ(ソノタ),熊本県球磨郡球磨村大瀬（その他）
8696211,熊本県,葦北郡芦北町,箙瀬,クマモトケン,アシキタグンアシキタマチ,エビラセ,熊本県葦北郡芦北町箙瀬
8696212,熊本県,葦北郡芦北町,吉尾,クマモトケン,アシキタグンアシキタマチ,ヨシオ,熊本県葦北郡芦北町吉尾
8696213,熊本県,葦北郡芦北町,大岩,クマモトケン,アシキタグンアシキタマチ,オオイワ,熊本県葦北郡芦北町大岩
8696214,熊本県,葦北郡芦北町,黒岩,クマモトケン,アシキタグンアシキタマチ,クロイワ,熊本県葦北郡芦北町黒岩
8696215,熊本県,葦北郡芦北町,上原,クマモトケン,アシキタグンアシキタマチ,ウワバル,熊本県葦北郡芦北町上原
8696216,熊本県,葦北郡芦北町,海路,クマモトケン,アシキタグンアシキタマチ,カイジ,熊本県葦北郡芦北町海路
8696301,熊本県,葦北郡芦北町,天月,クマモトケン,アシキタグンアシキタマチ,アマツキ,熊本県葦北郡芦北町天月
8696302,熊本県,葦北郡芦北町,白石,クマモトケン,アシキタグンアシキタマチ,シライシ,熊本県葦北郡芦北町白石
8696303,熊本県,葦北郡芦北町,告,クマモトケン,アシキタグンアシキタマチ,ツゲ,熊本県葦北郡芦北町告
8696304,熊本県,葦北郡芦北町,国見,クマモトケン,アシキタグンアシキタマチ,クニミ,熊本県葦北郡芦北町国見
8696305,熊本県,葦北郡芦北町,大野,クマモトケン,アシキタグンアシキタマチ,オオノ,熊本県葦北郡芦北町大野
8696306,熊本県,葦北郡芦北町,市野瀬,クマモトケン,アシキタグンアシキタマチ,イチノセ,熊本県葦北郡芦北町市野瀬
8696307,熊本県,葦北郡芦北町,塩浸,クマモトケン,アシキタグンアシキタマチ,シオヒタシ,熊本県葦北郡芦北町塩浸
8696308,熊本県,葦北郡芦北町,白木,クマモトケン,アシキタグンアシキタマチ,シラキ,熊本県葦北郡芦北町白木
8696400,熊本県,球磨郡球磨村,,クマモトケン,クマグンクマムラ,,熊本県球磨郡球磨村
8696401,熊本県,球磨郡球磨村,渡,クマモトケン,クマグンクマムラ,ワタリ,熊本県球磨郡球磨村渡
8696402,熊本県,球磨郡球磨村,三ケ浦,クマモトケン,クマグンクマムラ,サンガウラ,熊本県球磨郡球磨村三ケ浦
8696403,熊本県,球磨郡球磨村,一勝地,クマモトケン,クマグンクマムラ,イッショウチ,熊本県球磨郡球磨村一勝地
8696404,熊本県,球磨郡球磨村,神瀬（大槻、蔵谷、坂口、高沢、横井）,クマモトケン,クマグンクマムラ,コウノセ(オオツキ、クラタニ、サカグチ、タカザワ、ヨコイ),熊本県球磨郡球磨村神瀬（大槻、蔵谷、坂口、高沢、横井）
8696405,熊本県,球磨郡球磨村,大瀬（沢見）,クマモトケン,クマグンクマムラ,オオセ(サワミ),熊本県球磨郡球磨村大瀬（沢見）
