zipcode,prefecture_name,city,town,prefecture_kana,city_kana,town_kana,normalized_address
8391421,大分県,日田市,前津江町柚木（１〜８００番地、千蔵木、塔ノ本、仁田原、本村）,オオイタケン,ヒタシ,マエツエマチユウギ(1-800バンチ、センゾウギ、トウノモト、ニタバル、ホンムラ),大分県日田市前津江町柚木（1〜800-、千蔵木、塔ノ本、仁田原、本村）
8700001,大分県,大分市,生石港町,オオイタケン,オオイタシ,イクシミナトマチ,大分県大分市生石港町
8700002,大分県,大分市,浜の市,オオイタケン,オオイタシ,ハマノイチ,大分県大分市浜の市
8700003,大分県,大分市,生石,オオイタケン,オオイタシ,イクシ,大分県大分市生石
8700004,大分県,大分市,王子港町,オオイタケン,オオイタシ,オウジミナトマチ,大分県大分市王子港町
8700005,大分県,大分市,王子北町,オオイタケン,オオイタシ,オウジキタマチ,大分県大分市王子北町
8700006,大分県,大分市,王子中町,オオイタケン,オオイタシ,オウジナカマチ,大分県大分市王子中町
8700007,大分県,大分市,王子南町,オオイタケン,オオイタシ,オウジミナミマチ,大分県大分市王子南町
8700008,大分県,大分市,王子西町,オオイタケン,オオイタシ,オウジニシマチ,大分県大分市王子西町
8700009,大分県,大分市,王子町,オオイタケン,オオイタシ,オウジマチ,大分県大分市王子町
8700011,大分県,大分市,春日浦,オオイタケン,オオイタシ,カスガウラ,大分県大分市春日浦
8700012,大分県,大分市,浜町北,オオイタケン,オオイタシ,ハママチキタ,大分県大分市浜町北
8700013,大分県,大分市,浜町東,オオイタケン,オオイタシ,ハママチヒガシ,大分県大分市浜町東
8700014,大分県,大分市,芦崎,オオイタケン,オオイタシ,アシザキ,大分県大分市芦崎
8700015,大分県,大分市,新川西,オオイタケン,オオイタシ,シンカワニシ,大分県大分市新川西
8700016,大分県,大分市,新川町,オオイタケン,オオイタシ,シンカワマチ,大分県大分市新川町
8700017,大分県,大分市,弁天,オオイタケン,オオイタシ,ベンテン,大分県大分市弁天
8700018,大分県,大分市,豊海,オオイタケン,オオイタシ,トヨミ,大分県大分市豊海
8700021,大分県,大分市,府内町,オオイタケン,オオイタシ,フナイマチ,大分県大分市府内町
8700022,大分県,大分市,大手町,オオイタケン,オオイタシ,オオテマチ,大分県大分市大手町
8700023,大分県,大分市,長浜町,オオイタケン,オオイタシ,ナガハママチ,大分県大分市長浜町
8700024,大分県,大分市,錦町,オオイタケン,オオイタシ,ニシキマチ,大分県大分市錦町
8700025,大分県,大分市,顕徳町,オオイタケン,オオイタシ,ケントクマチ,大分県大分市顕徳町
8700026,大分県,大分市,金池町,オオイタケン,オオイタシ,カナイケマチ,大分県大分市金池町
8700027,大分県,大分市,末広町,オオイタケン,オオイタシ,スエヒロマチ,大分県大分市末広町
8700028,大分県,大分市,新町,オオイタケン,オオイタシ,シンマチ,大分県大分市新町
8700029,大分県,大分市,高砂町,オオイタケン,オオイタシ,タカサゴマチ,大分県大分市高砂町
8700030,大分県,大分市,三芳,オオイタケン,オオイタシ,ミヨシ,大分県大分市三芳
8700031,大分県,大分市,勢家町,オオイタケン,オオイタシ,セイケマチ,大分県大分市勢家町
8700032,大分県,大分市,住吉町,オオイタケン,オオイタシ,スミヨシマチ,大分県大分市住吉町
8700033,大分県,大分市,千代町,オオイタケン,オオイタシ,チヨマチ,大分県大分市千代町
8700034,大分県,大分市,都町,オオイタケン,オオイタシ,ミヤコマチ,大分県大分市都町
8700035,大分県,大分市,中央町,オオイタケン,オオイタシ,チュウオウマチ,大分県大分市中央町
8700036,大分県,大分市,寿町,オオイタケン,オオイタシ,コトブキマチ,大分県大分市寿町
8700037,大分県,大分市,東春日町,オオイタケン,オオイタシ,ヒガシカスガマチ,大分県大分市東春日町
8700038,大分県,大分市,西春日町,オオイタケン,オオイタシ,ニシカスガマチ,大分県大分市西春日町
8700039,大分県,大分市,中春日町,オオイタケン,オオイタシ,ナカカスガマチ,大分県大分市中春日町
8700041,大分県,大分市,泉町,オオイタケン,オオイタシ,イズミマチ,大分県大分市泉町
8700042,大分県,大分市,豊町,オオイタケン,オオイタシ,ユタカマチ,大分県大分市豊町
8700043,大分県,大分市,中島東,オオイタケン,オオイタシ,ナカシマヒガシ,大分県大分市中島東
8700044,大分県,大分市,舞鶴町,オオイタケン,オオイタシ,マイヅルマチ,大分県大分市舞鶴町
8700045,大分県,大分市,城崎町,オオイタケン,オオイタシ,シロサキマチ,大分県大分市城崎町
8700046,大分県,大分市,荷揚町,オオイタケン,オオイタシ,ニアゲマチ,大分県大分市荷揚町
8700047,大分県,大分市,中島西,オオイタケン,オオイタシ,ナカシマニシ,大分県大分市中島西
8700048,大分県,大分市,碩田町,オオイタケン,オオイタシ,セキデンマチ,大分県大分市碩田町
8700049,大分県,大分市,中島中央,オオイタケン,オオイタシ,ナカシマチュウオウ,大分県大分市中島中央
8700100,大分県,大分市,,オオイタケン,オオイタシ,,大分県大分市
8700101,大分県,大分市,中鶴崎,オオイタケン,オオイタシ,ナカツルサキ,大分県大分市中鶴崎
8700102,大分県,大分市,北鶴崎,オオイタケン,オオイタシ,キタツルサキ,大分県大分市北鶴崎
8700103,大分県,大分市,東鶴崎,オオイタケン,オオイタシ,ヒガシツルサキ,大分県大分市東鶴崎
8700104,大分県,大分市,南鶴崎,オオイタケン,オオイタシ,ミナミツルサキ,大分県大分市南鶴崎
8700105,大分県,大分市,西鶴崎,オオイタケン,オオイタシ,ニシツルサキ,大分県大分市西鶴崎
8700106,大分県,大分市,鶴崎,オオイタケン,オオイタシ,ツルサキ,大分県大分市鶴崎
8700107,大分県,大分市,海原,オオイタケン,オオイタシ,カイワラ,大分県大分市海原
8700108,大分県,大分市,三佐,オオイタケン,オオイタシ,ミサ,大分県大分市三佐
8700109,大分県,大分市,徳島,オオイタケン,オオイタシ,トクシマ,大分県大分市徳島
8700111,大分県,大分市,中ノ洲,オオイタケン,オオイタシ,ナカノス,大分県大分市中ノ洲
8700112,大分県,大分市,一の洲,オオイタケン,オオイタシ,イチノス,大分県大分市一の洲
8700113,大分県,大分市,家島,オオイタケン,オオイタシ,イエジマ,大分県大分市家島
8700114,大分県,大分市,小中島,オオイタケン,オオイタシ,オナカシマ,大分県大分市小中島
8700115,大分県,大分市,関園,オオイタケン,オオイタシ,セキゾノ,大分県大分市関園
8700116,大分県,大分市,常行,オオイタケン,オオイタシ,ツネユキ,大分県大分市常行
8700117,大分県,大分市,南,オオイタケン,オオイタシ,ミナミ,大分県大分市南
8700118,大分県,大分市,下徳丸,オオイタケン,オオイタシ,シモトクマル,大分県大分市下徳丸
8700120,大分県,大分市,鶴崎コスモス団地,オオイタケン,オオイタシ,ツルサキコスモスダンチ,大分県大分市鶴崎コスモス団地
8700121,大分県,大分市,鶴瀬,オオイタケン,オオイタシ,ツルセ,大分県大分市鶴瀬
8700122,大分県,大分市,丸亀,オオイタケン,オオイタシ,マルガメ,大分県大分市丸亀
8700123,大分県,大分市,大津留,オオイタケン,オオイタシ,オオツル,大分県大分市大津留
8700124,大分県,大分市,毛井,オオイタケン,オオイタシ,ケイ,大分県大分市毛井
8700125,大分県,大分市,松岡,オオイタケン,オオイタシ,マツオカ,大分県大分市松岡
8700126,大分県,大分市,横尾,オオイタケン,オオイタシ,ヨコオ,大分県大分市横尾
8700127,大分県,大分市,森町,オオイタケン,オオイタシ,モリマチ,大分県大分市森町
8700128,大分県,大分市,森,オオイタケン,オオイタシ,モリ,大分県大分市森
8700129,大分県,大分市,京が丘南,オオイタケン,オオイタシ,キョウガオカミナミ,大分県大分市京が丘南
8700130,大分県,大分市,横尾東町,オオイタケン,オオイタシ,ヨコオヒガシマチ,大分県大分市横尾東町
8700131,大分県,大分市,皆春,オオイタケン,オオイタシ,ミナハル,大分県大分市皆春
8700132,大分県,大分市,千歳,オオイタケン,オオイタシ,センザイ,大分県大分市千歳
8700133,大分県,大分市,葛木,オオイタケン,オオイタシ,カツラギ,大分県大分市葛木
8700134,大分県,大分市,猪野,オオイタケン,オオイタシ,イノ,大分県大分市猪野
8700135,大分県,大分市,仲西町,オオイタケン,オオイタシ,ナカニシマチ,大分県大分市仲西町
8700136,大分県,大分市,山津町,オオイタケン,オオイタシ,ヤマヅマチ,大分県大分市山津町
8700137,大分県,大分市,寺崎町,オオイタケン,オオイタシ,テラサキマチ,大分県大分市寺崎町
8700138,大分県,大分市,原川,オオイタケン,オオイタシ,ハルカワ,大分県大分市原川
8700139,大分県,大分市,桃園団地,オオイタケン,オオイタシ,モモゾノダンチ,大分県大分市桃園団地
8700140,大分県,大分市,森町西,オオイタケン,オオイタシ,モリマチニシ,大分県大分市森町西
8700141,大分県,大分市,三川新町,オオイタケン,オオイタシ,ミツガワシンマチ,大分県大分市三川新町
8700142,大分県,大分市,三川下,オオイタケン,オオイタシ,ミツガワシモ,大分県大分市三川下
8700143,大分県,大分市,三川上,オオイタケン,オオイタシ,ミツガワカミ,大分県大分市三川上
8700144,大分県,大分市,乙津,オオイタケン,オオイタシ,オトヅ,大分県大分市乙津
8700145,大分県,大分市,乙津町,オオイタケン,オオイタシ,オトヅマチ,大分県大分市乙津町
8700146,大分県,大分市,乙津港町,オオイタケン,オオイタシ,オトヅミナトマチ,大分県大分市乙津港町
8700147,大分県,大分市,小池原,オオイタケン,オオイタシ,コイケバル,大分県大分市小池原
8700148,大分県,大分市,高城台,オオイタケン,オオイタシ,タカジョウダイ,大分県大分市高城台
8700149,大分県,大分市,高城団地,オオイタケン,オオイタシ,タカジョウダンチ,大分県大分市高城団地
8700150,大分県,大分市,東原,オオイタケン,オオイタシ,ヒガシバル,大分県大分市東原
8700151,大分県,大分市,東明野,オオイタケン,オオイタシ,ヒガシアケノ,大分県大分市東明野
8700152,大分県,大分市,牧（その他）,オオイタケン,オオイタシ,マキ(ソノタ),大分県大分市牧（その他）
8700153,大分県,大分市,城東町（その他）,オオイタケン,オオイタシ,ジョウトウマチ(ソノタ),大分県大分市城東町（その他）
8700154,大分県,大分市,高城西町（その他）,オオイタケン,オオイタシ,タカジョウニシマチ(ソノタ),大分県大分市高城西町（その他）
8700155,大分県,大分市,高城南町,オオイタケン,オオイタシ,タカジョウミナミマチ,大分県大分市高城南町
8700156,大分県,大分市,高城新町,オオイタケン,オオイタシ,タカジョウシンマチ,大分県大分市高城新町
8700157,大分県,大分市,高城本町,オオイタケン,オオイタシ,タカジョウホンマチ,大分県大分市高城本町
8700158,大分県,大分市,岡,オオイタケン,オオイタシ,オカ,大分県大分市岡
8700159,大分県,大分市,岡新町,オオイタケン,オオイタシ,オカシンマチ,大分県大分市岡新町
8700161,大分県,大分市,明野東,オオイタケン,オオイタシ,アケノヒガシ,大分県大分市明野東
8700162,大分県,大分市,明野高尾,オオイタケン,オオイタシ,アケノタカオ,大分県大分市明野高尾
8700163,大分県,大分市,明野南,オオイタケン,オオイタシ,アケノミナミ,大分県大分市明野南
8700164,大分県,大分市,明野西,オオイタケン,オオイタシ,アケノニシ,大分県大分市明野西
8700165,大分県,大分市,明野北,オオイタケン,オオイタシ,アケノキタ,大分県大分市明野北
8700166,大分県,大分市,明野北町,オオイタケン,オオイタシ,アケノキタマチ,大分県大分市明野北町
8700167,大分県,大分市,明野紅陽台,オオイタケン,オオイタシ,アケノコウヨウダイ,大分県大分市明野紅陽台
8700168,大分県,大分市,明野ハイツ,オオイタケン,オオイタシ,アケノハイツ,大分県大分市明野ハイツ
8700171,大分県,大分市,法勝台,オオイタケン,オオイタシ,ホウショウダイ,大分県大分市法勝台
8700172,大分県,大分市,新明治,オオイタケン,オオイタシ,シンメイジ,大分県大分市新明治
8700173,大分県,大分市,公園通り,オオイタケン,オオイタシ,コウエンドオリ,大分県大分市公園通り
8700174,大分県,大分市,公園通り西,オオイタケン,オオイタシ,コウエンドオリニシ,大分県大分市公園通り西
8700241,大分県,大分市,庄境,オオイタケン,オオイタシ,ショウザカイ,大分県大分市庄境
8700242,大分県,大分市,角子南,オオイタケン,オオイタシ,ツノゴミナミ,大分県大分市角子南
8700243,大分県,大分市,花江川,オオイタケン,オオイタシ,ハナエガワ,大分県大分市花江川
8700244,大分県,大分市,須賀,オオイタケン,オオイタシ,スガ,大分県大分市須賀
8700245,大分県,大分市,大在北,オオイタケン,オオイタシ,オオザイキタ,大分県大分市大在北
8700251,大分県,大分市,大在中央,オオイタケン,オオイタシ,オオザイチュウオウ,大分県大分市大在中央
8700252,大分県,大分市,大在浜,オオイタケン,オオイタシ,オオザイハマ,大分県大分市大在浜
8700253,大分県,大分市,汐見,オオイタケン,オオイタシ,シオミ,大分県大分市汐見
8700254,大分県,大分市,横塚,オオイタケン,オオイタシ,ヨコヅカ,大分県大分市横塚
8700261,大分県,大分市,志村,オオイタケン,オオイタシ,シムラ,大分県大分市志村
8700263,大分県,大分市,横田,オオイタケン,オオイタシ,ヨコタ,大分県大分市横田
8700265,大分県,大分市,竹下,オオイタケン,オオイタシ,タケシタ,大分県大分市竹下
8700266,大分県,大分市,大在,オオイタケン,オオイタシ,オオザイ,大分県大分市大在
8700267,大分県,大分市,城原,オオイタケン,オオイタシ,ジョウハル,大分県大分市城原
8700268,大分県,大分市,政所,オオイタケン,オオイタシ,マドコロ,大分県大分市政所
8700270,大分県,大分市,望みが丘,オオイタケン,オオイタシ,ノゾミガオカ,大分県大分市望みが丘
8700271,大分県,大分市,角子原,オオイタケン,オオイタシ,ツノコバル,大分県大分市角子原
8700272,大分県,大分市,迫,オオイタケン,オオイタシ,サコ,大分県大分市迫
8700273,大分県,大分市,曙台,オオイタケン,オオイタシ,アケボノダイ,大分県大分市曙台
8700274,大分県,大分市,種具,オオイタケン,オオイタシ,タネグ,大分県大分市種具
8700275,大分県,大分市,宮河内ハイランド,オオイタケン,オオイタシ,ミヤカワウチハイランド,大分県大分市宮河内ハイランド
8700276,大分県,大分市,宮河内,オオイタケン,オオイタシ,ミヤカワウチ,大分県大分市宮河内
8700277,大分県,大分市,広内,オオイタケン,オオイタシ,ヒロウチ,大分県大分市広内
8700278,大分県,大分市,青崎,オオイタケン,オオイタシ,アオサキ,大分県大分市青崎
8700279,大分県,大分市,つるさき陽光台,オオイタケン,オオイタシ,ツルサキヨウコウダイ,大分県大分市つるさき陽光台
8700301,大分県,大分市,日吉原,オオイタケン,オオイタシ,ヒヨシバル,大分県大分市日吉原
8700302,大分県,大分市,坂ノ市,オオイタケン,オオイタシ,サカノイチ,大分県大分市坂ノ市
8700303,大分県,大分市,里,オオイタケン,オオイタシ,サト,大分県大分市里
8700304,大分県,大分市,久原,オオイタケン,オオイタシ,クバル,大分県大分市久原
8700305,大分県,大分市,細,オオイタケン,オオイタシ,ホソ,大分県大分市細
8700306,大分県,大分市,東上野,オオイタケン,オオイタシ,ヒガシウエノ,大分県大分市東上野
8700307,大分県,大分市,坂ノ市中央,オオイタケン,オオイタシ,サカノイチチュウオウ,大分県大分市坂ノ市中央
8700308,大分県,大分市,坂ノ市南,オオイタケン,オオイタシ,サカノイチミナミ,大分県大分市坂ノ市南
8700309,大分県,大分市,坂ノ市西,オオイタケン,オオイタシ,サカノイチニシ,大分県大分市坂ノ市西
8700311,大分県,大分市,木田,オオイタケン,オオイタシ,キダ,大分県大分市木田
8700312,大分県,大分市,市尾,オオイタケン,オオイタシ,イチノオ,大分県大分市市尾
8700313,大分県,大分市,屋山,オオイタケン,オオイタシ,ヤヤマ,大分県大分市屋山
8700314,大分県,大分市,久土,オオイタケン,オオイタシ,クド,大分県大分市久土
8700315,大分県,大分市,佐野,オオイタケン,オオイタシ,サノ,大分県大分市佐野
8700316,大分県,大分市,一木,オオイタケン,オオイタシ,イチギ,大分県大分市一木
8700317,大分県,大分市,丹川,オオイタケン,オオイタシ,アカガワ,大分県大分市丹川
8700318,大分県,大分市,丹生,オオイタケン,オオイタシ,ニュウ,大分県大分市丹生
8700319,大分県,大分市,大分流通業務団地,オオイタケン,オオイタシ,オオイタリュウツウギョウムダンチ,大分県大分市大分流通業務団地
8700321,大分県,大分市,王ノ瀬,オオイタケン,オオイタシ,オウノセ,大分県大分市王ノ瀬
8700322,大分県,大分市,恵比寿町,オオイタケン,オオイタシ,エビスマチ,大分県大分市恵比寿町
8700323,大分県,大分市,浜中,オオイタケン,オオイタシ,ハマナカ,大分県大分市浜中
8700324,大分県,大分市,久原北,オオイタケン,オオイタシ,クバルキタ,大分県大分市久原北
8700325,大分県,大分市,久原中央,オオイタケン,オオイタシ,クバルチュウオウ,大分県大分市久原中央
8700326,大分県,大分市,久原南,オオイタケン,オオイタシ,クバルミナミ,大分県大分市久原南
8700327,大分県,大分市,小佐井,オオイタケン,オオイタシ,コザイ,大分県大分市小佐井
8700801,大分県,大分市,鳴川,オオイタケン,オオイタシ,ナルカワ,大分県大分市鳴川
8700802,大分県,大分市,田ノ浦,オオイタケン,オオイタシ,タノウラ,大分県大分市田ノ浦
8700803,大分県,大分市,下白木,オオイタケン,オオイタシ,シモシラキ,大分県大分市下白木
8700804,大分県,大分市,御幸町,オオイタケン,オオイタシ,ミユキ,大分県大分市御幸町
8700805,大分県,大分市,上白木,オオイタケン,オオイタシ,カミシラキ,大分県大分市上白木
8700806,大分県,大分市,大久保,オオイタケン,オオイタシ,オオクボ,大分県大分市大久保
8700807,大分県,大分市,下八幡,オオイタケン,オオイタシ,シモヤハタ,大分県大分市下八幡
8700808,大分県,大分市,上八幡,オオイタケン,オオイタシ,カミヤハタ,大分県大分市上八幡
8700809,大分県,大分市,机張原,オオイタケン,オオイタシ,キチョウバル,大分県大分市机張原
8700811,大分県,大分市,南生石西,オオイタケン,オオイタシ,ミナミイクシニシ,大分県大分市南生石西
8700812,大分県,大分市,南生石東,オオイタケン,オオイタシ,ミナミイクシヒガシ,大分県大分市南生石東
8700813,大分県,大分市,王子山の手町,オオイタケン,オオイタシ,オウジヤマノテマチ,大分県大分市王子山の手町
8700815,大分県,大分市,南春日町,オオイタケン,オオイタシ,ミナミカスガマチ,大分県大分市南春日町
8700816,大分県,大分市,田室町,オオイタケン,オオイタシ,タムロマチ,大分県大分市田室町
8700817,大分県,大分市,上春日町,オオイタケン,オオイタシ,カミカスガマチ,大分県大分市上春日町
8700818,大分県,大分市,新春日町,オオイタケン,オオイタシ,シンカスガマチ,大分県大分市新春日町
8700819,大分県,大分市,王子新町,オオイタケン,オオイタシ,オウジシンマチ,大分県大分市王子新町
8700820,大分県,大分市,西大道,オオイタケン,オオイタシ,ニシオオミチ,大分県大分市西大道
8700821,大分県,大分市,志手,オオイタケン,オオイタシ,シテ,大分県大分市志手
8700822,大分県,大分市,大道町,オオイタケン,オオイタシ,オオミチマチ,大分県大分市大道町
8700823,大分県,大分市,東大道,オオイタケン,オオイタシ,ヒガシオオミチ,大分県大分市東大道
8700824,大分県,大分市,城南東,オオイタケン,オオイタシ,ジョウナンヒガシ,大分県大分市城南東
8700825,大分県,大分市,城南南,オオイタケン,オオイタシ,ジョウナンミナミ,大分県大分市城南南
8700826,大分県,大分市,城南西,オオイタケン,オオイタシ,ジョウナンニシ,大分県大分市城南西
8700827,大分県,大分市,城南北,オオイタケン,オオイタシ,ジョウナンキタ,大分県大分市城南北
8700828,大分県,大分市,城南山手台,オオイタケン,オオイタシ,ジョウナンヤマテダイ,大分県大分市城南山手台
8700829,大分県,大分市,椎迫,オオイタケン,オオイタシ,シイザコ,大分県大分市椎迫
8700831,大分県,大分市,要町,オオイタケン,オオイタシ,カナメマチ,大分県大分市要町
8700832,大分県,大分市,上野町,オオイタケン,オオイタシ,ウエノマチ,大分県大分市上野町
8700833,大分県,大分市,上野丘東,オオイタケン,オオイタシ,ウエノガオカヒガシ,大分県大分市上野丘東
8700834,大分県,大分市,上野丘西,オオイタケン,オオイタシ,ウエノガオカニシ,大分県大分市上野丘西
8700835,大分県,大分市,上野丘,オオイタケン,オオイタシ,ウエノガオカ,大分県大分市上野丘
8700836,大分県,大分市,上野南,オオイタケン,オオイタシ,ウエノミナミ,大分県大分市上野南
8700837,大分県,大分市,太平町,オオイタケン,オオイタシ,タイヘイマチ,大分県大分市太平町
8700838,大分県,大分市,桜ケ丘,オオイタケン,オオイタシ,サクラガオカ,大分県大分市桜ケ丘
8700839,大分県,大分市,金池南,オオイタケン,オオイタシ,カナイケミナミ,大分県大分市金池南
8700841,大分県,大分市,六坊北町,オオイタケン,オオイタシ,ロクボウキタマチ,大分県大分市六坊北町
8700842,大分県,大分市,六坊南町,オオイタケン,オオイタシ,ロクボウミナミマチ,大分県大分市六坊南町
8700843,大分県,大分市,元町,オオイタケン,オオイタシ,モトマチ,大分県大分市元町
8700844,大分県,大分市,古国府,オオイタケン,オオイタシ,フルゴウ,大分県大分市古国府
8700846,大分県,大分市,花園,オオイタケン,オオイタシ,ハナゾノ,大分県大分市花園
8700847,大分県,大分市,広瀬町,オオイタケン,オオイタシ,ヒロセマチ,大分県大分市広瀬町
8700848,大分県,大分市,賀来北,オオイタケン,オオイタシ,カクキタ,大分県大分市賀来北
8700849,大分県,大分市,賀来南,オオイタケン,オオイタシ,カクミナミ,大分県大分市賀来南
8700850,大分県,大分市,賀来西,オオイタケン,オオイタシ,カクニシ,大分県大分市賀来西
8700851,大分県,大分市,大石町,オオイタケン,オオイタシ,オオイシマチ,大分県大分市大石町
8700852,大分県,大分市,田中町,オオイタケン,オオイタシ,タナカマチ,大分県大分市田中町
8700853,大分県,大分市,羽屋新町,オオイタケン,オオイタシ,ハヤシンマチ,大分県大分市羽屋新町
8700854,大分県,大分市,羽屋,オオイタケン,オオイタシ,ハヤ,大分県大分市羽屋
8700855,大分県,大分市,豊饒,オオイタケン,オオイタシ,ブニョウ,大分県大分市豊饒
8700856,大分県,大分市,畑中,オオイタケン,オオイタシ,ハタケナカ,大分県大分市畑中
8700857,大分県,大分市,明磧,オオイタケン,オオイタシ,アケガワラ,大分県大分市明磧
8700858,大分県,大分市,尼が瀬,オオイタケン,オオイタシ,アマガセ,大分県大分市尼が瀬
8700859,大分県,大分市,中の瀬町,オオイタケン,オオイタシ,ナカノセマチ,大分県大分市中の瀬町
8700860,大分県,大分市,明磧町,オオイタケン,オオイタシ,アケガワラマチ,大分県大分市明磧町
8700861,大分県,大分市,東院,オオイタケン,オオイタシ,トイ,大分県大分市東院
8700862,大分県,大分市,中尾,オオイタケン,オオイタシ,ナカオ,大分県大分市中尾
8700863,大分県,大分市,国分台,オオイタケン,オオイタシ,コクブダイ,大分県大分市国分台
8700864,大分県,大分市,国分,オオイタケン,オオイタシ,コクブ,大分県大分市国分
8700865,大分県,大分市,国分団地,オオイタケン,オオイタシ,コクブダンチ,大分県大分市国分団地
8700866,大分県,大分市,平横瀬,オオイタケン,オオイタシ,ヒラヨコセ,大分県大分市平横瀬
8700867,大分県,大分市,東野台,オオイタケン,オオイタシ,トウノダイ,大分県大分市東野台
8700868,大分県,大分市,野田,オオイタケン,オオイタシ,ノダ,大分県大分市野田
8700869,大分県,大分市,国分新町,オオイタケン,オオイタシ,コクブシンマチ,大分県大分市国分新町
8700870,大分県,大分市,季の坂,オオイタケン,オオイタシ,キノサカ,大分県大分市季の坂
8700871,大分県,大分市,東八幡,オオイタケン,オオイタシ,ヒガシヤハタ,大分県大分市東八幡
8700872,大分県,大分市,高崎,オオイタケン,オオイタシ,タカサキ,大分県大分市高崎
8700873,大分県,大分市,高尾台,オオイタケン,オオイタシ,タカオダイ,大分県大分市高尾台
8700874,大分県,大分市,にじが丘,オオイタケン,オオイタシ,ニジガオカ,大分県大分市にじが丘
8700875,大分県,大分市,青葉台,オオイタケン,オオイタシ,アオバダイ,大分県大分市青葉台
8700876,大分県,大分市,庄の原,オオイタケン,オオイタシ,ショウノハル,大分県大分市庄の原
8700877,大分県,大分市,賀来,オオイタケン,オオイタシ,カク,大分県大分市賀来
8700878,大分県,大分市,宮苑,オオイタケン,オオイタシ,ミヤゾノ,大分県大分市宮苑
8700879,大分県,大分市,金谷迫,オオイタケン,オオイタシ,カナヤザコ,大分県大分市金谷迫
8700880,大分県,大分市,はなの森,オオイタケン,オオイタシ,ハナノモリ,大分県大分市はなの森
8700881,大分県,大分市,深河内,オオイタケン,オオイタシ,フカガワウチ,大分県大分市深河内
8700882,大分県,大分市,竹の上,オオイタケン,オオイタシ,タケノウエ,大分県大分市竹の上
8700883,大分県,大分市,永興,オオイタケン,オオイタシ,リョウゴ,大分県大分市永興
8700884,大分県,大分市,旭町,オオイタケン,オオイタシ,アサヒマチ,大分県大分市旭町
8700885,大分県,大分市,南太平寺,オオイタケン,オオイタシ,ミナミタイヘイジ,大分県大分市南太平寺
8700886,大分県,大分市,上田町,オオイタケン,オオイタシ,ウエダマチ,大分県大分市上田町
8700887,大分県,大分市,二又町,オオイタケン,オオイタシ,フタマタマチ,大分県大分市二又町
8700888,大分県,大分市,三ケ田町,オオイタケン,オオイタシ,ミケタマチ,大分県大分市三ケ田町
8700889,大分県,大分市,荏隈,オオイタケン,オオイタシ,エノクマ,大分県大分市荏隈
8700891,大分県,大分市,荏隈町,オオイタケン,オオイタシ,エノクママチ,大分県大分市荏隈町
8700892,大分県,大分市,賀来新川,オオイタケン,オオイタシ,カクシンカワ,大分県大分市賀来新川
8700901,大分県,大分市,西新地,オオイタケン,オオイタシ,ニシシンチ,大分県大分市西新地
8700902,大分県,大分市,西ノ洲,オオイタケン,オオイタシ,ニシノス,大分県大分市西ノ洲
8700903,大分県,大分市,向原沖,オオイタケン,オオイタシ,ムカイバルオキ,大分県大分市向原沖
8700904,大分県,大分市,向原東,オオイタケン,オオイタシ,ムカイバルヒガシ,大分県大分市向原東
8700905,大分県,大分市,向原西,オオイタケン,オオイタシ,ムカイバルニシ,大分県大分市向原西
8700906,大分県,大分市,大州浜,オオイタケン,オオイタシ,オオスハマ,大分県大分市大州浜
8700907,大分県,大分市,大津町,オオイタケン,オオイタシ,オオツマチ,大分県大分市大津町
8700908,大分県,大分市,青葉町,オオイタケン,オオイタシ,アオバマチ,大分県大分市青葉町
8700911,大分県,大分市,新貝,オオイタケン,オオイタシ,シンガイ,大分県大分市新貝
8700912,大分県,大分市,原新町,オオイタケン,オオイタシ,ハルシンマチ,大分県大分市原新町
8700913,大分県,大分市,松原町,オオイタケン,オオイタシ,マツバラマチ,大分県大分市松原町
8700914,大分県,大分市,日岡,オオイタケン,オオイタシ,ヒオカ,大分県大分市日岡
8700915,大分県,大分市,花高松,オオイタケン,オオイタシ,ハナタカマツ,大分県大分市花高松
8700916,大分県,大分市,高松東,オオイタケン,オオイタシ,タカマツヒガシ,大分県大分市高松東
8700917,大分県,大分市,高松,オオイタケン,オオイタシ,タカマツ,大分県大分市高松
8700918,大分県,大分市,日吉町,オオイタケン,オオイタシ,ヒヨシマチ,大分県大分市日吉町
8700919,大分県,大分市,新栄町,オオイタケン,オオイタシ,シンサカエマチ,大分県大分市新栄町
8700921,大分県,大分市,萩原,オオイタケン,オオイタシ,ハギワラ,大分県大分市萩原
8700922,大分県,大分市,城東町（３の２２、４の２、４の３０）,オオイタケン,オオイタシ,ジョウトウマチ(3ノ22、4ノ2、4ノ30),大分県大分市城東町（3-22、4-2、4-30）
8700923,大分県,大分市,高城西町（１〜７番）,オオイタケン,オオイタシ,タカジョウニシマチ(1-7バン),大分県大分市高城西町（1〜7-）
8700924,大分県,大分市,牧（１〜３丁目、白滝Ｂ・Ｃ、高見）,オオイタケン,オオイタシ,マキ(1-3チョウメ、シラタキB・C、タカミ),大分県大分市牧（1〜3-、白滝Ｂ・Ｃ、高見）
8700925,大分県,大分市,牧上町,オオイタケン,オオイタシ,マキカミマチ,大分県大分市牧上町
8700926,大分県,大分市,加納,オオイタケン,オオイタシ,カノウ,大分県大分市加納
8700927,大分県,大分市,北下郡,オオイタケン,オオイタシ,キタシモゴオリ,大分県大分市北下郡
8700928,大分県,大分市,南下郡,オオイタケン,オオイタシ,ミナミシモゴオリ,大分県大分市南下郡
8700929,大分県,大分市,長谷町,オオイタケン,オオイタシ,ナガタニマチ,大分県大分市長谷町
8700930,大分県,大分市,津留,オオイタケン,オオイタシ,ツル,大分県大分市津留
8700931,大分県,大分市,西浜,オオイタケン,オオイタシ,ニシハマ,大分県大分市西浜
8700932,大分県,大分市,東浜,オオイタケン,オオイタシ,ヒガシハマ,大分県大分市東浜
8700933,大分県,大分市,花津留,オオイタケン,オオイタシ,ハナヅル,大分県大分市花津留
8700934,大分県,大分市,東津留,オオイタケン,オオイタシ,ヒガシヅル,大分県大分市東津留
8700935,大分県,大分市,古ケ鶴,オオイタケン,オオイタシ,コガヅル,大分県大分市古ケ鶴
8700936,大分県,大分市,岩田町,オオイタケン,オオイタシ,イワタマチ,大分県大分市岩田町
8700937,大分県,大分市,南津留,オオイタケン,オオイタシ,ミナミヅル,大分県大分市南津留
8700938,大分県,大分市,今津留,オオイタケン,オオイタシ,イマヅル,大分県大分市今津留
8700939,大分県,大分市,中津留,オオイタケン,オオイタシ,ナカヅル,大分県大分市中津留
8700941,大分県,大分市,下郡工業団地,オオイタケン,オオイタシ,シモゴオリコウギョウダンチ,大分県大分市下郡工業団地
8700942,大分県,大分市,羽田,オオイタケン,オオイタシ,ハダ,大分県大分市羽田
8700943,大分県,大分市,片島,オオイタケン,オオイタシ,カタシマ,大分県大分市片島
8700944,大分県,大分市,米良,オオイタケン,オオイタシ,メラ,大分県大分市米良
8700945,大分県,大分市,津守,オオイタケン,オオイタシ,ツモリ,大分県大分市津守
8700946,大分県,大分市,曲（その他）,オオイタケン,オオイタシ,マガリ(ソノタ),大分県大分市曲（その他）
8700947,大分県,大分市,富岡,オオイタケン,オオイタシ,トミオカ,大分県大分市富岡
8700948,大分県,大分市,芳河原台,オオイタケン,オオイタシ,ホウガワラダイ,大分県大分市芳河原台
8700949,大分県,大分市,かたしま台,オオイタケン,オオイタシ,カタシマダイ,大分県大分市かたしま台
8700951,大分県,大分市,下郡,オオイタケン,オオイタシ,シモゴオリ,大分県大分市下郡
8700952,大分県,大分市,下郡北,オオイタケン,オオイタシ,シモゴウリキタ,大分県大分市下郡北
8700953,大分県,大分市,下郡東,オオイタケン,オオイタシ,シモゴウリヒガシ,大分県大分市下郡東
8700954,大分県,大分市,下郡中央,オオイタケン,オオイタシ,シモゴウリチュウオウ,大分県大分市下郡中央
8700955,大分県,大分市,下郡南,オオイタケン,オオイタシ,シモゴウリミナミ,大分県大分市下郡南
8700956,大分県,大分市,裏川団地,オオイタケン,オオイタシ,ウラカワダンチ,大分県大分市裏川団地
8700957,大分県,大分市,藤の台,オオイタケン,オオイタシ,フジノダイ,大分県大分市藤の台
8700958,大分県,大分市,ゆめが丘,オオイタケン,オオイタシ,ユメガオカ,大分県大分市ゆめが丘
8700959,大分県,大分市,希望が丘,オオイタケン,オオイタシ,キボウガオカ,大分県大分市希望が丘
8700961,大分県,大分市,下郡山の手,オオイタケン,オオイタシ,シモゴウリヤマノテ,大分県大分市下郡山の手
8701101,大分県,大分市,敷戸北町,オオイタケン,オオイタシ,シキドキタマチ,大分県大分市敷戸北町
8701102,大分県,大分市,敷戸新町,オオイタケン,オオイタシ,シキドシンマチ,大分県大分市敷戸新町
8701103,大分県,大分市,敷戸西町,オオイタケン,オオイタシ,シキドニシマチ,大分県大分市敷戸西町
8701104,大分県,大分市,敷戸東町,オオイタケン,オオイタシ,シキドヒガシマチ,大分県大分市敷戸東町
8701105,大分県,大分市,敷戸南町,オオイタケン,オオイタシ,シキドミナミマチ,大分県大分市敷戸南町
8701106,大分県,大分市,敷戸台,オオイタケン,オオイタシ,シキドダイ,大分県大分市敷戸台
8701107,大分県,大分市,敷戸駅北町,オオイタケン,オオイタシ,シキドエキキタマチ,大分県大分市敷戸駅北町
8701108,大分県,大分市,判田台東,オオイタケン,オオイタシ,ハンダダイヒガシ,大分県大分市判田台東
8701109,大分県,大分市,判田台南,オオイタケン,オオイタシ,ハンダダイミナミ,大分県大分市判田台南
8701110,大分県,大分市,判田台,オオイタケン,オオイタシ,ハンダダイ,大分県大分市判田台
8701111,大分県,大分市,上判田,オオイタケン,オオイタシ,カミハンダ,大分県大分市上判田
8701112,大分県,大分市,下判田,オオイタケン,オオイタシ,シモハンダ,大分県大分市下判田
8701113,大分県,大分市,中判田,オオイタケン,オオイタシ,ナカハンダ,大分県大分市中判田
8701114,大分県,大分市,星和台,オオイタケン,オオイタシ,セイワダイ,大分県大分市星和台
8701115,大分県,大分市,ひばりケ丘,オオイタケン,オオイタシ,ヒバリガオカ,大分県大分市ひばりケ丘
8701116,大分県,大分市,高江中央,オオイタケン,オオイタシ,タカエチュウオウ,大分県大分市高江中央
8701117,大分県,大分市,高江西,オオイタケン,オオイタシ,タカエニシ,大分県大分市高江西
8701118,大分県,大分市,高江南,オオイタケン,オオイタシ,タカエミナミ,大分県大分市高江南
8701119,大分県,大分市,高江北,オオイタケン,オオイタシ,タカエキタ,大分県大分市高江北
8701120,大分県,大分市,サンシャインしきど,オオイタケン,オオイタシ,サンシャインシキド,大分県大分市サンシャインしきど
8701121,大分県,大分市,鴛野,オオイタケン,オオイタシ,オシノ,大分県大分市鴛野
8701122,大分県,大分市,敷戸,オオイタケン,オオイタシ,シキド,大分県大分市敷戸
8701123,大分県,大分市,寒田,オオイタケン,オオイタシ,ソウダ,大分県大分市寒田
8701124,大分県,大分市,旦野原,オオイタケン,オオイタシ,ダンノハル,大分県大分市旦野原
8701125,大分県,大分市,大園団地,オオイタケン,オオイタシ,オオゾノダンチ,大分県大分市大園団地
8701126,大分県,大分市,判田台北,オオイタケン,オオイタシ,ハンダダイキタ,大分県大分市判田台北
8701127,大分県,大分市,寒田わかば台,オオイタケン,オオイタシ,ソウダワカバダイ,大分県大分市寒田わかば台
8701128,大分県,大分市,花の木坂,オオイタケン,オオイタシ,ハナノキザカ,大分県大分市花の木坂
8701130,大分県,大分市,田尻中央,オオイタケン,オオイタシ,タジリチュウオウ,大分県大分市田尻中央
8701131,大分県,大分市,岡川,オオイタケン,オオイタシ,オカガワ,大分県大分市岡川
8701132,大分県,大分市,光吉,オオイタケン,オオイタシ,ミツヨシ,大分県大分市光吉
8701133,大分県,大分市,宮崎,オオイタケン,オオイタシ,ミヤザキ,大分県大分市宮崎
8701134,大分県,大分市,小原団地,オオイタケン,オオイタシ,コバルダンチ,大分県大分市小原団地
8701135,大分県,大分市,光吉新町,オオイタケン,オオイタシ,ミツヨシシンマチ,大分県大分市光吉新町
8701136,大分県,大分市,光吉台,オオイタケン,オオイタシ,ミツヨシダイ,大分県大分市光吉台
8701137,大分県,大分市,宮崎台,オオイタケン,オオイタシ,ミヤザキダイ,大分県大分市宮崎台
8701138,大分県,大分市,寒田北町,オオイタケン,オオイタシ,ソウダキタマチ,大分県大分市寒田北町
8701139,大分県,大分市,寒田南町,オオイタケン,オオイタシ,ソウダミナミマチ,大分県大分市寒田南町
8701140,大分県,大分市,田尻北,オオイタケン,オオイタシ,タジリキタ,大分県大分市田尻北
8701141,大分県,大分市,下宗方,オオイタケン,オオイタシ,シモムナカタ,大分県大分市下宗方
8701142,大分県,大分市,高瀬,オオイタケン,オオイタシ,タカセ,大分県大分市高瀬
8701143,大分県,大分市,田尻,オオイタケン,オオイタシ,タジリ,大分県大分市田尻
8701144,大分県,大分市,田尻西,オオイタケン,オオイタシ,タジリニシ,大分県大分市田尻西
8701145,大分県,大分市,田尻南,オオイタケン,オオイタシ,タジリミナミ,大分県大分市田尻南
8701146,大分県,大分市,曲（６３５、６３９、６５０、６６９、６７６、６７８、６８９、,オオイタケン,オオイタシ,マガリ(635、639、650、669、676、678、689、,大分県大分市曲（635、639、650、669、676、678、689、
8701147,大分県,大分市,ふじが丘,オオイタケン,オオイタシ,フジガオカ,大分県大分市ふじが丘
8701148,大分県,大分市,天領ハイツ,オオイタケン,オオイタシ,テンリョウハイツ,大分県大分市天領ハイツ
8701149,大分県,大分市,田尻東,オオイタケン,オオイタシ,タジリヒガシ,大分県大分市田尻東
8701150,大分県,大分市,小野鶴南,オオイタケン,オオイタシ,オノツルミナミ,大分県大分市小野鶴南
8701151,大分県,大分市,市,オオイタケン,オオイタシ,イチ,大分県大分市市
8701152,大分県,大分市,上宗方,オオイタケン,オオイタシ,カミムナカタ,大分県大分市上宗方
8701153,大分県,大分市,小野鶴,オオイタケン,オオイタシ,オノヅル,大分県大分市小野鶴
8701154,大分県,大分市,田原,オオイタケン,オオイタシ,タバル,大分県大分市田原
8701155,大分県,大分市,玉沢,オオイタケン,オオイタシ,タマザワ,大分県大分市玉沢
8701156,大分県,大分市,小野鶴新町,オオイタケン,オオイタシ,オノツルシンマチ,大分県大分市小野鶴新町
8701157,大分県,大分市,宗方台東,オオイタケン,オオイタシ,ムナカタダイヒガシ,大分県大分市宗方台東
8701158,大分県,大分市,宗方台西,オオイタケン,オオイタシ,ムナカタダイニシ,大分県大分市宗方台西
8701159,大分県,大分市,宗方台北,オオイタケン,オオイタシ,ムナカタダイキタ,大分県大分市宗方台北
8701161,大分県,大分市,木上,オオイタケン,オオイタシ,キノウエ,大分県大分市木上
8701162,大分県,大分市,口戸,オオイタケン,オオイタシ,クチド,大分県大分市口戸
8701163,大分県,大分市,廻栖野（１〜６５７、７７６〜８２９、８４２〜１３０５、２６９１、,オオイタケン,オオイタシ,メグスノ(1-657、776-829、842-1305、2691、,大分県大分市廻栖野（1〜657、776〜829、842〜1305、2691、
8701164,大分県,大分市,雄城台中央,オオイタケン,オオイタシ,オギノダイチュウオウ,大分県大分市雄城台中央
8701165,大分県,大分市,雄城台,オオイタケン,オオイタシ,オギノダイ,大分県大分市雄城台
8701166,大分県,大分市,椿が丘,オオイタケン,オオイタシ,ツバキガオカ,大分県大分市椿が丘
8701167,大分県,大分市,上宗方南,オオイタケン,オオイタシ,カミムナカタミナミ,大分県大分市上宗方南
8701168,大分県,大分市,松が丘,オオイタケン,オオイタシ,マツガオカ,大分県大分市松が丘
8701169,大分県,大分市,木上台,オオイタケン,オオイタシ,キノウエダイ,大分県大分市木上台
8701171,大分県,大分市,鬼崎,オオイタケン,オオイタシ,オニザキ,大分県大分市鬼崎
8701172,大分県,大分市,緑が丘,オオイタケン,オオイタシ,ミドリガオカ,大分県大分市緑が丘
8701173,大分県,大分市,横瀬,オオイタケン,オオイタシ,ヨコセ,大分県大分市横瀬
8701174,大分県,大分市,萌葱台,オオイタケン,オオイタシ,モエギダイ,大分県大分市萌葱台
8701176,大分県,大分市,富士見が丘東,オオイタケン,オオイタシ,フジミガオカヒガシ,大分県大分市富士見が丘東
8701177,大分県,大分市,富士見が丘西,オオイタケン,オオイタシ,フジミガオカニシ,大分県大分市富士見が丘西
8701181,大分県,大分市,ふじが丘北,オオイタケン,オオイタシ,フジガオカキタ,大分県大分市ふじが丘北
8701182,大分県,大分市,ふじが丘東,オオイタケン,オオイタシ,フジガオカヒガシ,大分県大分市ふじが丘東
8701183,大分県,大分市,ふじが丘南,オオイタケン,オオイタシ,フジガオカミナミ,大分県大分市ふじが丘南
8701184,大分県,大分市,ふじが丘山手,オオイタケン,オオイタシ,フジガオカヤマテ,大分県大分市ふじが丘山手
8701185,大分県,大分市,ふじが丘西,オオイタケン,オオイタシ,フジガオカニシ,大分県大分市ふじが丘西
8701201,大分県,大分市,廻栖野（その他）,オオイタケン,オオイタシ,メグスノ(ソノタ),大分県大分市廻栖野（その他）
8701202,大分県,大分市,入蔵,オオイタケン,オオイタシ,イリクラ,大分県大分市入蔵
8701203,大分県,大分市,野津原,オオイタケン,オオイタシ,ノツハル,大分県大分市野津原
8701204,大分県,大分市,辻原,オオイタケン,オオイタシ,ツジハル,大分県大分市辻原
8701205,大分県,大分市,福宗,オオイタケン,オオイタシ,フクムネ,大分県大分市福宗
8701211,大分県,大分市,竹矢,オオイタケン,オオイタシ,タケヤ,大分県大分市竹矢
8701212,大分県,大分市,沢田,オオイタケン,オオイタシ,サワタ,大分県大分市沢田
8701213,大分県,大分市,下原,オオイタケン,オオイタシ,シモハラ,大分県大分市下原
8701214,大分県,大分市,太田,オオイタケン,オオイタシ,オオタ,大分県大分市太田
8701215,大分県,大分市,上詰,オオイタケン,オオイタシ,カミツメ,大分県大分市上詰
8701221,大分県,大分市,荷尾杵,オオイタケン,オオイタシ,ニオキ,大分県大分市荷尾杵
8701222,大分県,大分市,高原,オオイタケン,オオイタシ,タカハラ,大分県大分市高原
8701223,大分県,大分市,今市,オオイタケン,オオイタシ,イマイチ,大分県大分市今市
8710000,大分県,中津市,,オオイタケン,ナカツシ,,大分県中津市
8710001,大分県,中津市,大新田,オオイタケン,ナカツシ,オオシンデン,大分県中津市大新田
8710002,大分県,中津市,全徳,オオイタケン,ナカツシ,ゼントク,大分県中津市全徳
8710003,大分県,中津市,是則,オオイタケン,ナカツシ,コレノリ,大分県中津市是則
8710004,大分県,中津市,上如水,オオイタケン,ナカツシ,カミジョスイ,大分県中津市上如水
8710005,大分県,中津市,合馬,オオイタケン,ナカツシ,オウマ,大分県中津市合馬
8710006,大分県,中津市,東浜,オオイタケン,ナカツシ,ヒガシハマ,大分県中津市東浜
8710007,大分県,中津市,蛎瀬,オオイタケン,ナカツシ,カキゼ,大分県中津市蛎瀬
8710008,大分県,中津市,大塚,オオイタケン,ナカツシ,オオツカ,大分県中津市大塚
8710009,大分県,中津市,新大塚町,オオイタケン,ナカツシ,シンオオツカマチ,大分県中津市新大塚町
8710011,大分県,中津市,下池永,オオイタケン,ナカツシ,シモイケナガ,大分県中津市下池永
8710012,大分県,中津市,宮夫,オオイタケン,ナカツシ,ミヤブ,大分県中津市宮夫
8710013,大分県,中津市,金手,オオイタケン,ナカツシ,カナテ,大分県中津市金手
8710014,大分県,中津市,一ツ松,オオイタケン,ナカツシ,ヒトツマツ,大分県中津市一ツ松
8710015,大分県,中津市,牛神,オオイタケン,ナカツシ,ウシガミ,大分県中津市牛神
8710016,大分県,中津市,牛神町,オオイタケン,ナカツシ,ウシガミマチ,大分県中津市牛神町
8710021,大分県,中津市,沖代町,オオイタケン,ナカツシ,オキダイマチ,大分県中津市沖代町
8710022,大分県,中津市,相原（その他）,オオイタケン,ナカツシ,アイハラ(ソノタ),大分県中津市相原（その他）
8710023,大分県,中津市,湯屋,オオイタケン,ナカツシ,ユヤ,大分県中津市湯屋
8710024,大分県,中津市,中央町,オオイタケン,ナカツシ,チュウオウマチ,大分県中津市中央町
8710025,大分県,中津市,万田,オオイタケン,ナカツシ,マンダ,大分県中津市万田
8710026,大分県,中津市,高瀬,オオイタケン,ナカツシ,タカセ,大分県中津市高瀬
8710027,大分県,中津市,上宮永,オオイタケン,ナカツシ,カミミヤナガ,大分県中津市上宮永
8710028,大分県,中津市,角木町,オオイタケン,ナカツシ,ツノギマチ,大分県中津市角木町
8710029,大分県,中津市,下宮永,オオイタケン,ナカツシ,シモミヤナガ,大分県中津市下宮永
8710030,大分県,中津市,中殿町,オオイタケン,ナカツシ,ナカドノマチ,大分県中津市中殿町
8710031,大分県,中津市,中殿,オオイタケン,ナカツシ,ナカドノ,大分県中津市中殿
8710032,大分県,中津市,東本町,オオイタケン,ナカツシ,ヒガシホンマチ,大分県中津市東本町
8710033,大分県,中津市,島田,オオイタケン,ナカツシ,シマタ,大分県中津市島田
8710034,大分県,中津市,日ノ出町,オオイタケン,ナカツシ,ヒノデマチ,大分県中津市日ノ出町
8710035,大分県,中津市,島田仲町,オオイタケン,ナカツシ,シマタナカマチ,大分県中津市島田仲町
8710036,大分県,中津市,島田本町,オオイタケン,ナカツシ,シマタホンマチ,大分県中津市島田本町
8710037,大分県,中津市,宮島町,オオイタケン,ナカツシ,ミヤジママチ,大分県中津市宮島町
8710038,大分県,中津市,枝町,オオイタケン,ナカツシ,エダマチ,大分県中津市枝町
8710039,大分県,中津市,天神町,オオイタケン,ナカツシ,テンジンマチ,大分県中津市天神町
8710039,大分県,中津市,新天神町,オオイタケン,ナカツシ,シンテンジンマチ,大分県中津市新天神町
8710041,大分県,中津市,新博多町,オオイタケン,ナカツシ,シンハカタマチ,大分県中津市新博多町
8710042,大分県,中津市,上博多町,オオイタケン,ナカツシ,カミハカタマチ,大分県中津市上博多町
8710043,大分県,中津市,栄町,オオイタケン,ナカツシ,サカエマチ,大分県中津市栄町
8710044,大分県,中津市,江三竹町,オオイタケン,ナカツシ,エミタケマチ,大分県中津市江三竹町
8710045,大分県,中津市,萱津町,オオイタケン,ナカツシ,カイヅマチ,大分県中津市萱津町
8710046,大分県,中津市,古金谷,オオイタケン,ナカツシ,フルカナヤ,大分県中津市古金谷
8710046,大分県,中津市,東堀端,オオイタケン,ナカツシ,ヒガシホリバタ,大分県中津市東堀端
8710046,大分県,中津市,西堀端,オオイタケン,ナカツシ,ニシホリバタ,大分県中津市西堀端
8710046,大分県,中津市,金谷（上ノ丁、中ノ丁、西ノ丁、本町、南ノ丁、森ノ丁、山ノ神）,オオイタケン,ナカツシ,カナヤ(ウエノチョウ、ナカノチョウ、ニシノチョウ、ホンマチ、ミナミノチョウ、モリノチョウ、ヤマノカミ),大分県中津市金谷（上ノ丁、中ノ丁、西ノ丁、本町、南ノ丁、森ノ丁、山ノ神）
8710047,大分県,中津市,丸山町,オオイタケン,ナカツシ,マルヤマチョウ,大分県中津市丸山町
8710048,大分県,中津市,新魚町,オオイタケン,ナカツシ,シンウオマチ,大分県中津市新魚町
8710049,大分県,中津市,諸町,オオイタケン,ナカツシ,モロマチ,大分県中津市諸町
8710050,大分県,中津市,二ノ丁,オオイタケン,ナカツシ,ニノチョウ,大分県中津市二ノ丁
8710051,大分県,中津市,古博多町,オオイタケン,ナカツシ,フルハカタマチ,大分県中津市古博多町
8710053,大分県,中津市,古魚町,オオイタケン,ナカツシ,フルウオマチ,大分県中津市古魚町
8710054,大分県,中津市,京町,オオイタケン,ナカツシ,キョウマチ,大分県中津市京町
8710055,大分県,中津市,殿町,オオイタケン,ナカツシ,トノマチ,大分県中津市殿町
8710056,大分県,中津市,片端町,オオイタケン,ナカツシ,カタハマチ,大分県中津市片端町
8710057,大分県,中津市,三ノ丁,オオイタケン,ナカツシ,サンノチョウ,大分県中津市三ノ丁
8710058,大分県,中津市,豊田町,オオイタケン,ナカツシ,トヨダマチ,大分県中津市豊田町
8710059,大分県,中津市,外馬場,オオイタケン,ナカツシ,ソトババ,大分県中津市外馬場
8710060,大分県,中津市,北稲堀,オオイタケン,ナカツシ,キタイナボリ,大分県中津市北稲堀
8710061,大分県,中津市,南稲堀,オオイタケン,ナカツシ,ミナミイナボリ,大分県中津市南稲堀
8710062,大分県,中津市,山下,オオイタケン,ナカツシ,ヤマシタ,大分県中津市山下
8710063,大分県,中津市,袋町,オオイタケン,ナカツシ,フクロマチ,大分県中津市袋町
8710064,大分県,中津市,餌指町,オオイタケン,ナカツシ,エサシマチ,大分県中津市餌指町
8710065,大分県,中津市,蛭子町,オオイタケン,ナカツシ,エビスマチ,大分県中津市蛭子町
8710066,大分県,中津市,鷹匠町,オオイタケン,ナカツシ,タカジョウマチ,大分県中津市鷹匠町
8710067,大分県,中津市,仲間町,オオイタケン,ナカツシ,チュウゲンマチ,大分県中津市仲間町
8710068,大分県,中津市,豊後町,オオイタケン,ナカツシ,ブンゴマチ,大分県中津市豊後町
8710069,大分県,中津市,新堀,オオイタケン,ナカツシ,シンボリ,大分県中津市新堀
8710071,大分県,中津市,鷹部屋,オオイタケン,ナカツシ,タカベヤ,大分県中津市鷹部屋
8710072,大分県,中津市,船町,オオイタケン,ナカツシ,フナマチ,大分県中津市船町
8710073,大分県,中津市,塩町,オオイタケン,ナカツシ,シオマチ,大分県中津市塩町
8710074,大分県,中津市,桜町,オオイタケン,ナカツシ,サクラマチ,大分県中津市桜町
8710075,大分県,中津市,寺町,オオイタケン,ナカツシ,テラマチ,大分県中津市寺町
8710076,大分県,中津市,米町,オオイタケン,ナカツシ,コメマチ,大分県中津市米町
8710077,大分県,中津市,姫路町,オオイタケン,ナカツシ,ヒメジマチ,大分県中津市姫路町
8710078,大分県,中津市,小祝（上方町、中島町、本町、港町）,オオイタケン,ナカツシ,コイワイ(カミカタマチ、ナカシママチ、ホンマチ、ミナトマチ),大分県中津市小祝（上方町、中島町、本町、港町）
8710079,大分県,中津市,北門通,オオイタケン,ナカツシ,キタモンドオリ,大分県中津市北門通
8710080,大分県,中津市,小祝新町,オオイタケン,ナカツシ,コイワイシンマチ,大分県中津市小祝新町
8710081,大分県,中津市,北堀川町,オオイタケン,ナカツシ,キタホリカワマチ,大分県中津市北堀川町
8710082,大分県,中津市,水主町,オオイタケン,ナカツシ,カコマチ,大分県中津市水主町
8710083,大分県,中津市,矢場,オオイタケン,ナカツシ,ヤバ,大分県中津市矢場
8710084,大分県,中津市,小堀,オオイタケン,ナカツシ,コボリ,大分県中津市小堀
8710085,大分県,中津市,弓町,オオイタケン,ナカツシ,ユミチョウ,大分県中津市弓町
8710086,大分県,中津市,船頭町,オオイタケン,ナカツシ,センドマチ,大分県中津市船頭町
8710087,大分県,中津市,南堀川町,オオイタケン,ナカツシ,ミナミホリカワマチ,大分県中津市南堀川町
8710088,大分県,中津市,留守居町,オオイタケン,ナカツシ,ルスイマチ,大分県中津市留守居町
8710089,大分県,中津市,船場町,オオイタケン,ナカツシ,センバマチ,大分県中津市船場町
8710090,大分県,中津市,北新地,オオイタケン,ナカツシ,キタシンチ,大分県中津市北新地
8710091,大分県,中津市,角木,オオイタケン,ナカツシ,ツノギ,大分県中津市角木
8710091,大分県,中津市,闇無町,オオイタケン,ナカツシ,クラナシマチ,大分県中津市闇無町
8710092,大分県,中津市,南新地,オオイタケン,ナカツシ,ミナミシンチ,大分県中津市南新地
8710093,大分県,中津市,浦町,オオイタケン,ナカツシ,ウラマチ,大分県中津市浦町
8710094,大分県,中津市,北浦町,オオイタケン,ナカツシ,キタウラマチ,大分県中津市北浦町
8710095,大分県,中津市,角木新町,オオイタケン,ナカツシ,ツノギシンマチ,大分県中津市角木新町
8710096,大分県,中津市,竜王町,オオイタケン,ナカツシ,リュウオウマチ,大分県中津市竜王町
8710097,大分県,中津市,下正路,オオイタケン,ナカツシ,シモショウジ,大分県中津市下正路
8710098,大分県,中津市,市場,オオイタケン,ナカツシ,イチバ,大分県中津市市場
8710099,大分県,中津市,,オオイタケン,ナカツシ,,大分県中津市
8710101,大分県,中津市,三光森山,オオイタケン,ナカツシ,サンコウモリヤマ,大分県中津市三光森山
8710102,大分県,中津市,三光成恒,オオイタケン,ナカツシ,サンコウナリツネ,大分県中津市三光成恒
8710103,大分県,中津市,三光田口,オオイタケン,ナカツシ,サンコウタグチ,大分県中津市三光田口
8710104,大分県,中津市,三光諫山,オオイタケン,ナカツシ,サンコウイサヤマ,大分県中津市三光諫山
8710105,大分県,中津市,三光原口,オオイタケン,ナカツシ,サンコウハラグチ,大分県中津市三光原口
8710111,大分県,中津市,三光佐知,オオイタケン,ナカツシ,サンコウサチ,大分県中津市三光佐知
8710112,大分県,中津市,三光臼木,オオイタケン,ナカツシ,サンコウウスギ,大分県中津市三光臼木
8710113,大分県,中津市,三光土田,オオイタケン,ナカツシ,サンコウツチダ,大分県中津市三光土田
8710114,大分県,中津市,三光小袋,オオイタケン,ナカツシ,サンコウオブクロ,大分県中津市三光小袋
8710122,大分県,中津市,相原（２８０３−１、２８０３−２４、２８０３−２５、２８０３−２７、,オオイタケン,ナカツシ,アイハラ(2803-1、2803-24、2803-25、2803-27、,大分県中津市相原（2803-1、2803-24、2803-25、2803-27、
8710151,大分県,中津市,大悟法,オオイタケン,ナカツシ,ダイゴボウ,大分県中津市大悟法
8710152,大分県,中津市,加来,オオイタケン,ナカツシ,カク,大分県中津市加来
8710153,大分県,中津市,大貞,オオイタケン,ナカツシ,オオサダ,大分県中津市大貞
8710154,大分県,中津市,古城,オオイタケン,ナカツシ,コジョウ,大分県中津市古城
8710155,大分県,中津市,八幡町,オオイタケン,ナカツシ,ハチマンチョウ,大分県中津市八幡町
8710156,大分県,中津市,榊原町,オオイタケン,ナカツシ,サカキバラチョウ,大分県中津市榊原町
8710157,大分県,中津市,中原,オオイタケン,ナカツシ,ナカバル,大分県中津市中原
8710161,大分県,中津市,上池永,オオイタケン,ナカツシ,カミイケナガ,大分県中津市上池永
8710162,大分県,中津市,永添,オオイタケン,ナカツシ,ナガソエ,大分県中津市永添
8710163,大分県,中津市,西永添,オオイタケン,ナカツシ,ニシナガソイ,大分県中津市西永添
8710164,大分県,中津市,下永添,オオイタケン,ナカツシ,シモナガソイ,大分県中津市下永添
8710201,大分県,中津市,本耶馬渓町樋田,オオイタケン,ナカツシ,ホンヤバケイマチヒダ,大分県中津市本耶馬渓町樋田
8710202,大分県,中津市,本耶馬渓町曽木,オオイタケン,ナカツシ,ホンヤバケイマチソギ,大分県中津市本耶馬渓町曽木
8710203,大分県,中津市,本耶馬渓町多志田,オオイタケン,ナカツシ,ホンヤバケイマチタシダ,大分県中津市本耶馬渓町多志田
8710204,大分県,中津市,本耶馬渓町冠石野,オオイタケン,ナカツシ,ホンヤバケイマチカブシノ,大分県中津市本耶馬渓町冠石野
8710205,大分県,中津市,本耶馬渓町下屋形,オオイタケン,ナカツシ,ホンヤバケイマチシモヤカタ,大分県中津市本耶馬渓町下屋形
8710206,大分県,中津市,本耶馬渓町今行,オオイタケン,ナカツシ,ホンヤバケイマチイマユク,大分県中津市本耶馬渓町今行
8710207,大分県,中津市,本耶馬渓町東屋形,オオイタケン,ナカツシ,ホンヤバケイマチヒガシヤカタ,大分県中津市本耶馬渓町東屋形
8710208,大分県,中津市,本耶馬渓町西屋形,オオイタケン,ナカツシ,ホンヤバケイマチニシヤカタ,大分県中津市本耶馬渓町西屋形
8710311,大分県,中津市,本耶馬渓町跡田,オオイタケン,ナカツシ,ホンヤバケイマチアトダ,大分県中津市本耶馬渓町跡田
8710312,大分県,中津市,本耶馬渓町折元,オオイタケン,ナカツシ,ホンヤバケイマチオリモト,大分県中津市本耶馬渓町折元
8710313,大分県,中津市,本耶馬渓町落合,オオイタケン,ナカツシ,ホンヤバケイマチオチアイ,大分県中津市本耶馬渓町落合
8710314,大分県,中津市,本耶馬渓町西谷,オオイタケン,ナカツシ,ホンヤバケイマチニシタニ,大分県中津市本耶馬渓町西谷
8710315,大分県,中津市,本耶馬渓町東谷,オオイタケン,ナカツシ,ホンヤバケイマチヒガシタニ,大分県中津市本耶馬渓町東谷
8710401,大分県,中津市,耶馬溪町平田,オオイタケン,ナカツシ,ヤバケイマチヒラタ,大分県中津市耶馬溪町平田
8710402,大分県,中津市,耶馬溪町冠石野,オオイタケン,ナカツシ,ヤバケイマチカブシノ,大分県中津市耶馬溪町冠石野
8710403,大分県,中津市,耶馬溪町多志田,オオイタケン,ナカツシ,ヤバケイマチタシダ,大分県中津市耶馬溪町多志田
8710404,大分県,中津市,耶馬溪町戸原,オオイタケン,ナカツシ,ヤバケイマチトバル,大分県中津市耶馬溪町戸原
8710405,大分県,中津市,耶馬溪町柿坂,オオイタケン,ナカツシ,ヤバケイマチカキサカ,大分県中津市耶馬溪町柿坂
8710406,大分県,中津市,耶馬溪町小友田,オオイタケン,ナカツシ,ヤバケイマチオトモダ,大分県中津市耶馬溪町小友田
8710407,大分県,中津市,耶馬溪町三尾母,オオイタケン,ナカツシ,ヤバケイマチミオモ,大分県中津市耶馬溪町三尾母
8710408,大分県,中津市,耶馬溪町福土,オオイタケン,ナカツシ,ヤバケイマチフクツチ,大分県中津市耶馬溪町福土
8710411,大分県,中津市,耶馬溪町中畑,オオイタケン,ナカツシ,ヤバケイマチナカハタ,大分県中津市耶馬溪町中畑
8710412,大分県,中津市,耶馬溪町栃木,オオイタケン,ナカツシ,ヤバケイマチトチギ,大分県中津市耶馬溪町栃木
8710413,大分県,中津市,耶馬溪町大野,オオイタケン,ナカツシ,ヤバケイマチオオノ,大分県中津市耶馬溪町大野
8710414,大分県,中津市,耶馬溪町川原口,オオイタケン,ナカツシ,ヤバケイマチカワラグチ,大分県中津市耶馬溪町川原口
8710421,大分県,中津市,耶馬溪町山移,オオイタケン,ナカツシ,ヤバケイマチヤマウツリ,大分県中津市耶馬溪町山移
8710422,大分県,中津市,耶馬溪町深耶馬,オオイタケン,ナカツシ,ヤバケイマチシンヤバ,大分県中津市耶馬溪町深耶馬
8710431,大分県,中津市,耶馬溪町大島,オオイタケン,ナカツシ,ヤバケイマチオオシマ,大分県中津市耶馬溪町大島
8710432,大分県,中津市,耶馬溪町金吉,オオイタケン,ナカツシ,ヤバケイマチカナヨシ,大分県中津市耶馬溪町金吉
8710433,大分県,中津市,耶馬溪町宮園,オオイタケン,ナカツシ,ヤバケイマチミヤソノ,大分県中津市耶馬溪町宮園
8710434,大分県,中津市,耶馬溪町樋山路,オオイタケン,ナカツシ,ヤバケイマチヒヤマジ,大分県中津市耶馬溪町樋山路
8710701,大分県,中津市,山国町槻木,オオイタケン,ナカツシ,ヤマクニマチツキノキ,大分県中津市山国町槻木
8710702,大分県,中津市,山国町草本,オオイタケン,ナカツシ,ヤマクニマチクサモト,大分県中津市山国町草本
8710703,大分県,中津市,山国町小屋川,オオイタケン,ナカツシ,ヤマクニマチコヤガワ,大分県中津市山国町小屋川
8710704,大分県,中津市,山国町吉野,オオイタケン,ナカツシ,ヤマクニマチヨシノ,大分県中津市山国町吉野
8710711,大分県,中津市,山国町平小野,オオイタケン,ナカツシ,ヤマクニマチヒラオノ,大分県中津市山国町平小野
8710712,大分県,中津市,山国町守実,オオイタケン,ナカツシ,ヤマクニマチモリザネ,大分県中津市山国町守実
8710713,大分県,中津市,山国町藤野木,オオイタケン,ナカツシ,ヤマクニマチフジノキ,大分県中津市山国町藤野木
8710714,大分県,中津市,山国町長尾野,オオイタケン,ナカツシ,ヤマクニマチナガオノ,大分県中津市山国町長尾野
8710715,大分県,中津市,山国町宇曽,オオイタケン,ナカツシ,ヤマクニマチウソ,大分県中津市山国町宇曽
8710716,大分県,中津市,山国町中摩,オオイタケン,ナカツシ,ヤマクニマチナカマ,大分県中津市山国町中摩
8720000,大分県,宇佐市,,オオイタケン,ウサシ,,大分県宇佐市
8720001,大分県,宇佐市,長洲,オオイタケン,ウサシ,ナガス,大分県宇佐市長洲
8720011,大分県,宇佐市,岩保新田,オオイタケン,ウサシ,イワホシンデン,大分県宇佐市岩保新田
8720012,大分県,宇佐市,久兵衛新田,オオイタケン,ウサシ,キュウベエシンデン,大分県宇佐市久兵衛新田
8720013,大分県,宇佐市,北鶴田新田,オオイタケン,ウサシ,キタツルダシンデン,大分県宇佐市北鶴田新田
8720014,大分県,宇佐市,南鶴田新田,オオイタケン,ウサシ,ミナミツルダシンデン,大分県宇佐市南鶴田新田
8720015,大分県,宇佐市,松崎,オオイタケン,ウサシ,マツサキ,大分県宇佐市松崎
8720016,大分県,宇佐市,佐々礼,オオイタケン,ウサシ,サザレ,大分県宇佐市佐々礼
8720021,大分県,宇佐市,金屋,オオイタケン,ウサシ,カナヤ,大分県宇佐市金屋
8720022,大分県,宇佐市,西大堀,オオイタケン,ウサシ,ニシオオボリ,大分県宇佐市西大堀
8720023,大分県,宇佐市,蜷木,オオイタケン,ウサシ,ニナギ,大分県宇佐市蜷木
8720031,大分県,宇佐市,沖須町,オオイタケン,ウサシ,オキスマチ,大分県宇佐市沖須町
8720032,大分県,宇佐市,江須賀,オオイタケン,ウサシ,エスカ,大分県宇佐市江須賀
8720033,大分県,宇佐市,住吉町,オオイタケン,ウサシ,スミヨシマチ,大分県宇佐市住吉町
8720041,大分県,宇佐市,神子山新田,オオイタケン,ウサシ,ミコヤマシンデン,大分県宇佐市神子山新田
8720042,大分県,宇佐市,貴船町,オオイタケン,ウサシ,キフネマチ,大分県宇佐市貴船町
8720043,大分県,宇佐市,子安町,オオイタケン,ウサシ,コヤスマチ,大分県宇佐市子安町
8720044,大分県,宇佐市,住江,オオイタケン,ウサシ,スミエ,大分県宇佐市住江
8720045,大分県,宇佐市,郡中新田,オオイタケン,ウサシ,グンチュウシンデン,大分県宇佐市郡中新田
8720046,大分県,宇佐市,高砂新田,オオイタケン,ウサシ,タカサゴシンデン,大分県宇佐市高砂新田
8720047,大分県,宇佐市,順風新田,オオイタケン,ウサシ,ジュンプウシンデン,大分県宇佐市順風新田
8720101,大分県,宇佐市,高森,オオイタケン,ウサシ,タカモリ,大分県宇佐市高森
8720102,大分県,宇佐市,南宇佐,オオイタケン,ウサシ,ミナミウサ,大分県宇佐市南宇佐
8720103,大分県,宇佐市,北宇佐,オオイタケン,ウサシ,キタウサ,大分県宇佐市北宇佐
8720104,大分県,宇佐市,小向野,オオイタケン,ウサシ,コムクノ,大分県宇佐市小向野
8720111,大分県,宇佐市,下矢部,オオイタケン,ウサシ,シモヤベ,大分県宇佐市下矢部
8720112,大分県,宇佐市,上矢部,オオイタケン,ウサシ,カミヤベ,大分県宇佐市上矢部
8720113,大分県,宇佐市,正覚寺,オオイタケン,ウサシ,ショウガクジ,大分県宇佐市正覚寺
8720114,大分県,宇佐市,熊,オオイタケン,ウサシ,クマ,大分県宇佐市熊
8720301,大分県,宇佐市,院内町御沓,オオイタケン,ウサシ,インナイマチミクツ,大分県宇佐市院内町御沓
8720302,大分県,宇佐市,院内町二日市,オオイタケン,ウサシ,インナイマチフツカイチ,大分県宇佐市院内町二日市
8720311,大分県,宇佐市,院内町香下,オオイタケン,ウサシ,インナイマチコウシタ,大分県宇佐市院内町香下
8720312,大分県,宇佐市,院内町櫛野,オオイタケン,ウサシ,インナイマチクシノ,大分県宇佐市院内町櫛野
8720313,大分県,宇佐市,院内町新洞,オオイタケン,ウサシ,インナイマチシンドウ,大分県宇佐市院内町新洞
8720314,大分県,宇佐市,院内町沖,オオイタケン,ウサシ,インナイマチオキ,大分県宇佐市院内町沖
8720315,大分県,宇佐市,院内町北山,オオイタケン,ウサシ,インナイマチキタヤマ,大分県宇佐市院内町北山
8720316,大分県,宇佐市,院内町小坂,オオイタケン,ウサシ,インナイマチオサカ,大分県宇佐市院内町小坂
8720317,大分県,宇佐市,院内町広瀬,オオイタケン,ウサシ,インナイマチヒロセ,大分県宇佐市院内町広瀬
8720318,大分県,宇佐市,院内町副,オオイタケン,ウサシ,インナイマチソイ,大分県宇佐市院内町副
8720321,大分県,宇佐市,院内町五名,オオイタケン,ウサシ,インナイマチゴミョウ,大分県宇佐市院内町五名
8720322,大分県,宇佐市,院内町日岳,オオイタケン,ウサシ,インナイマチヒノタケ,大分県宇佐市院内町日岳
8720323,大分県,宇佐市,院内町大重見,オオイタケン,ウサシ,インナイマチオオシゲミ,大分県宇佐市院内町大重見
8720324,大分県,宇佐市,院内町小野川内,オオイタケン,ウサシ,インナイマチオノゴウチ,大分県宇佐市院内町小野川内
8720325,大分県,宇佐市,院内町小稲,オオイタケン,ウサシ,インナイマチコイネ,大分県宇佐市院内町小稲
8720326,大分県,宇佐市,院内町上船木,オオイタケン,ウサシ,インナイマチカミフナギ,大分県宇佐市院内町上船木
8720327,大分県,宇佐市,院内町下船木,オオイタケン,ウサシ,インナイマチシモフナギ,大分県宇佐市院内町下船木
8720328,大分県,宇佐市,院内町高並,オオイタケン,ウサシ,インナイマチタカナミ,大分県宇佐市院内町高並
8720331,大分県,宇佐市,院内町大副,オオイタケン,ウサシ,インナイマチオオソイ,大分県宇佐市院内町大副
8720332,大分県,宇佐市,院内町山城,オオイタケン,ウサシ,インナイマチヤマシロ,大分県宇佐市院内町山城
8720333,大分県,宇佐市,院内町原口,オオイタケン,ウサシ,インナイマチハルグチ,大分県宇佐市院内町原口
8720334,大分県,宇佐市,院内町落狩倉,オオイタケン,ウサシ,インナイマチオチカクラ,大分県宇佐市院内町落狩倉
8720341,大分県,宇佐市,院内町斎藤,オオイタケン,ウサシ,インナイマチサイトウ,大分県宇佐市院内町斎藤
8720342,大分県,宇佐市,院内町景平,オオイタケン,ウサシ,インナイマチカゲヘラ,大分県宇佐市院内町景平
8720343,大分県,宇佐市,院内町宮原,オオイタケン,ウサシ,インナイマチミヤバル,大分県宇佐市院内町宮原
8720344,大分県,宇佐市,院内町大門,オオイタケン,ウサシ,インナイマチダイモン,大分県宇佐市院内町大門
8720345,大分県,宇佐市,院内町月俣,オオイタケン,ウサシ,インナイマチツキノマタ,大分県宇佐市院内町月俣
8720346,大分県,宇佐市,院内町定別当,オオイタケン,ウサシ,インナイマチジョウベットウ,大分県宇佐市院内町定別当
8720366,大分県,宇佐市,上拝田（新洞）,オオイタケン,ウサシ,カミハイタ(シンドウ),大分県宇佐市上拝田（新洞）
8720451,大分県,宇佐市,院内町下余,オオイタケン,ウサシ,インナイマチシモアマリ,大分県宇佐市院内町下余
8720452,大分県,宇佐市,院内町上納持,オオイタケン,ウサシ,インナイマチカミノウジ,大分県宇佐市院内町上納持
8720453,大分県,宇佐市,院内町平原,オオイタケン,ウサシ,インナイマチヒラバル,大分県宇佐市院内町平原
8720454,大分県,宇佐市,院内町滝貞,オオイタケン,ウサシ,インナイマチタキサダ,大分県宇佐市院内町滝貞
8720455,大分県,宇佐市,院内町小平,オオイタケン,ウサシ,インナイマチコビラ,大分県宇佐市院内町小平
8720456,大分県,宇佐市,院内町栗山,オオイタケン,ウサシ,インナイマチクリヤマ,大分県宇佐市院内町栗山
8720457,大分県,宇佐市,院内町岡,オオイタケン,ウサシ,インナイマチオカ,大分県宇佐市院内町岡
8720458,大分県,宇佐市,院内町大坪,オオイタケン,ウサシ,インナイマチオオツボ,大分県宇佐市院内町大坪
8720459,大分県,宇佐市,院内町上余,オオイタケン,ウサシ,インナイマチカミアマリ,大分県宇佐市院内町上余
8720461,大分県,宇佐市,院内町台,オオイタケン,ウサシ,インナイマチダイ,大分県宇佐市院内町台
8720462,大分県,宇佐市,院内町羽馬礼,オオイタケン,ウサシ,インナイマチハバレ,大分県宇佐市院内町羽馬礼
8720463,大分県,宇佐市,院内町和田,オオイタケン,ウサシ,インナイマチワダ,大分県宇佐市院内町和田
8720464,大分県,宇佐市,院内町西椎屋,オオイタケン,ウサシ,インナイマチニシシイヤ,大分県宇佐市院内町西椎屋
8720465,大分県,宇佐市,院内町田平,オオイタケン,ウサシ,インナイマチタビラ,大分県宇佐市院内町田平
8720466,大分県,宇佐市,院内町来鉢,オオイタケン,ウサシ,インナイマチクバチ,大分県宇佐市院内町来鉢
8720471,大分県,宇佐市,院内町温見,オオイタケン,ウサシ,インナイマチヌクミ,大分県宇佐市院内町温見
8720472,大分県,宇佐市,院内町野地,オオイタケン,ウサシ,インナイマチノジ,大分県宇佐市院内町野地
8720473,大分県,宇佐市,院内町田所,オオイタケン,ウサシ,インナイマチタドコロ,大分県宇佐市院内町田所
8720481,大分県,宇佐市,院内町下恵良,オオイタケン,ウサシ,インナイマチシモエラ,大分県宇佐市院内町下恵良
8720482,大分県,宇佐市,院内町荻迫,オオイタケン,ウサシ,インナイマチオギサコ,大分県宇佐市院内町荻迫
8720483,大分県,宇佐市,院内町土岩屋,オオイタケン,ウサシ,インナイマチツチイワヤ,大分県宇佐市院内町土岩屋
8720484,大分県,宇佐市,院内町上恵良,オオイタケン,ウサシ,インナイマチカミエラ,大分県宇佐市院内町上恵良
8720501,大分県,宇佐市,安心院町原,オオイタケン,ウサシ,アジムマチハル,大分県宇佐市安心院町原
8720502,大分県,宇佐市,安心院町飯田,オオイタケン,ウサシ,アジムマチハンダ,大分県宇佐市安心院町飯田
8720503,大分県,宇佐市,安心院町新原,オオイタケン,ウサシ,アジムマチニイバル,大分県宇佐市安心院町新原
8720504,大分県,宇佐市,安心院町荘,オオイタケン,ウサシ,アジムマチショウ,大分県宇佐市安心院町荘
8720505,大分県,宇佐市,安心院町戸方,オオイタケン,ウサシ,アジムマチトカタ,大分県宇佐市安心院町戸方
8720506,大分県,宇佐市,安心院町妻垣,オオイタケン,ウサシ,アジムマチツマガケ,大分県宇佐市安心院町妻垣
8720507,大分県,宇佐市,安心院町木裳,オオイタケン,ウサシ,アジムマチキノモ,大分県宇佐市安心院町木裳
8720510,大分県,宇佐市,安心院町有徳原,オオイタケン,ウサシ,アジムマチウットクバル,大分県宇佐市安心院町有徳原
8720511,大分県,宇佐市,安心院町上市,オオイタケン,ウサシ,アジムマチカミイチ,大分県宇佐市安心院町上市
8720512,大分県,宇佐市,安心院町古市,オオイタケン,ウサシ,アジムマチフルイチ,大分県宇佐市安心院町古市
8720513,大分県,宇佐市,安心院町龍王,オオイタケン,ウサシ,アジムマチリュウオウ,大分県宇佐市安心院町龍王
8720514,大分県,宇佐市,安心院町鳥越,オオイタケン,ウサシ,アジムマチトリゴエ,大分県宇佐市安心院町鳥越
8720515,大分県,宇佐市,安心院町野山,オオイタケン,ウサシ,アジムマチノヤマ,大分県宇佐市安心院町野山
8720516,大分県,宇佐市,安心院町森,オオイタケン,ウサシ,アジムマチモリ,大分県宇佐市安心院町森
8720517,大分県,宇佐市,安心院町大,オオイタケン,ウサシ,アジムマチダイ,大分県宇佐市安心院町大
8720518,大分県,宇佐市,安心院町今井,オオイタケン,ウサシ,アジムマチイマイ,大分県宇佐市安心院町今井
8720519,大分県,宇佐市,安心院町西衲,オオイタケン,ウサシ,アジムマチニシノト,大分県宇佐市安心院町西衲
8720521,大分県,宇佐市,安心院町下毛,オオイタケン,ウサシ,アジムマチシモゲ,大分県宇佐市安心院町下毛
8720522,大分県,宇佐市,安心院町折敷田,オオイタケン,ウサシ,アジムマチオシキダ,大分県宇佐市安心院町折敷田
8720523,大分県,宇佐市,安心院町大佛,オオイタケン,ウサシ,アジムマチダイブツ,大分県宇佐市安心院町大佛
8720524,大分県,宇佐市,安心院町恒松,オオイタケン,ウサシ,アジムマチツネマツ,大分県宇佐市安心院町恒松
8720525,大分県,宇佐市,安心院町中山,オオイタケン,ウサシ,アジムマチナカヤマ,大分県宇佐市安心院町中山
8720526,大分県,宇佐市,安心院町田ノ口,オオイタケン,ウサシ,アジムマチタノクチ,大分県宇佐市安心院町田ノ口
8720527,大分県,宇佐市,安心院町辻,オオイタケン,ウサシ,アジムマチツジ,大分県宇佐市安心院町辻
8720541,大分県,宇佐市,安心院町熊,オオイタケン,ウサシ,アジムマチクマ,大分県宇佐市安心院町熊
8720542,大分県,宇佐市,安心院町正覚寺,オオイタケン,ウサシ,アジムマチショウガクジ,大分県宇佐市安心院町正覚寺
8720543,大分県,宇佐市,安心院町平ケ倉,オオイタケン,ウサシ,アジムマチヒラガクラ,大分県宇佐市安心院町平ケ倉
8720651,大分県,宇佐市,安心院町佐田,オオイタケン,ウサシ,アジムマチサダ,大分県宇佐市安心院町佐田
8720652,大分県,宇佐市,安心院町山蔵,オオイタケン,ウサシ,アジムマチヤマゾウ,大分県宇佐市安心院町山蔵
8720653,大分県,宇佐市,安心院町房ケ畑,オオイタケン,ウサシ,アジムマチボウガハタ,大分県宇佐市安心院町房ケ畑
8720654,大分県,宇佐市,安心院町内川野,オオイタケン,ウサシ,アジムマチウチガワノ,大分県宇佐市安心院町内川野
8720655,大分県,宇佐市,安心院町古川,オオイタケン,ウサシ,アジムマチフルカワ,大分県宇佐市安心院町古川
8720661,大分県,宇佐市,安心院町笹ケ平,オオイタケン,ウサシ,アジムマチササガヒラ,大分県宇佐市安心院町笹ケ平
8720662,大分県,宇佐市,安心院町矢津,オオイタケン,ウサシ,アジムマチヤヅ,大分県宇佐市安心院町矢津
8720663,大分県,宇佐市,安心院町大見尾,オオイタケン,ウサシ,アジムマチオオミオ,大分県宇佐市安心院町大見尾
8720664,大分県,宇佐市,安心院町塔尾,オオイタケン,ウサシ,アジムマチトウノオ,大分県宇佐市安心院町塔尾
8720671,大分県,宇佐市,安心院町且尾,オオイタケン,ウサシ,アジムマチカツオ,大分県宇佐市安心院町且尾
8720672,大分県,宇佐市,安心院町広谷,オオイタケン,ウサシ,アジムマチヒロタニ,大分県宇佐市安心院町広谷
8720673,大分県,宇佐市,安心院町口ノ坪,オオイタケン,ウサシ,アジムマチクチノツボ,大分県宇佐市安心院町口ノ坪
8720674,大分県,宇佐市,安心院町久井田,オオイタケン,ウサシ,アジムマチクイダ,大分県宇佐市安心院町久井田
8720675,大分県,宇佐市,安心院町矢崎,オオイタケン,ウサシ,アジムマチヤザキ,大分県宇佐市安心院町矢崎
8720701,大分県,宇佐市,安心院町楢本,オオイタケン,ウサシ,アジムマチナラモト,大分県宇佐市安心院町楢本
8720702,大分県,宇佐市,安心院町東恵良,オオイタケン,ウサシ,アジムマチヒガシエラ,大分県宇佐市安心院町東恵良
8720703,大分県,宇佐市,安心院町尾立,オオイタケン,ウサシ,アジムマチオダテ,大分県宇佐市安心院町尾立
8720711,大分県,宇佐市,安心院町六郎丸,オオイタケン,ウサシ,アジムマチロクロウマル,大分県宇佐市安心院町六郎丸
8720712,大分県,宇佐市,安心院町五郎丸,オオイタケン,ウサシ,アジムマチゴロウマル,大分県宇佐市安心院町五郎丸
8720721,大分県,宇佐市,安心院町若林,オオイタケン,ウサシ,アジムマチワカバヤシ,大分県宇佐市安心院町若林
8720722,大分県,宇佐市,安心院町南畑,オオイタケン,ウサシ,アジムマチミナミハタ,大分県宇佐市安心院町南畑
8720723,大分県,宇佐市,安心院町萱籠,オオイタケン,ウサシ,アジムマチカヤゴモリ,大分県宇佐市安心院町萱籠
8720724,大分県,宇佐市,安心院町東椎屋,オオイタケン,ウサシ,アジムマチヒガシシイヤ,大分県宇佐市安心院町東椎屋
8720731,大分県,宇佐市,安心院町川崎,オオイタケン,ウサシ,アジムマチカワサキ,大分県宇佐市安心院町川崎
8720732,大分県,宇佐市,安心院町板場,オオイタケン,ウサシ,アジムマチイタバ,大分県宇佐市安心院町板場
8720733,大分県,宇佐市,安心院町松本,オオイタケン,ウサシ,アジムマチマツモト,大分県宇佐市安心院町松本
8720841,大分県,宇佐市,安心院町矢畑,オオイタケン,ウサシ,アジムマチヤハタ,大分県宇佐市安心院町矢畑
8720842,大分県,宇佐市,安心院町下内河野,オオイタケン,ウサシ,アジムマチシモウチガワノ,大分県宇佐市安心院町下内河野
8720843,大分県,宇佐市,安心院町筌ノ口,オオイタケン,ウサシ,アジムマチウケノクチ,大分県宇佐市安心院町筌ノ口
8720851,大分県,宇佐市,安心院町広連,オオイタケン,ウサシ,アジムマチヒロツレ,大分県宇佐市安心院町広連
8720852,大分県,宇佐市,安心院町上内河野,オオイタケン,ウサシ,アジムマチカミウチガワノ,大分県宇佐市安心院町上内河野
8720853,大分県,宇佐市,安心院町元,オオイタケン,ウサシ,アジムマチモト,大分県宇佐市安心院町元
8720854,大分県,宇佐市,安心院町寒水,オオイタケン,ウサシ,アジムマチソウズ,大分県宇佐市安心院町寒水
8720855,大分県,宇佐市,安心院町福貴野,オオイタケン,ウサシ,アジムマチフキノ,大分県宇佐市安心院町福貴野
8720856,大分県,宇佐市,安心院町山ノ口,オオイタケン,ウサシ,アジムマチヤマノクチ,大分県宇佐市安心院町山ノ口
8720857,大分県,宇佐市,安心院町畳石,オオイタケン,ウサシ,アジムマチタタミイシ,大分県宇佐市安心院町畳石
8720858,大分県,宇佐市,安心院町水車,オオイタケン,ウサシ,アジムマチミズクルマ,大分県宇佐市安心院町水車
8720861,大分県,宇佐市,安心院町境ノ坪,オオイタケン,ウサシ,アジムマチサカイノツボ,大分県宇佐市安心院町境ノ坪
8720862,大分県,宇佐市,安心院町川底,オオイタケン,ウサシ,アジムマチカワソコ,大分県宇佐市安心院町川底
8720863,大分県,宇佐市,安心院町村部,オオイタケン,ウサシ,アジムマチソベ,大分県宇佐市安心院町村部
8720864,大分県,宇佐市,安心院町番木,オオイタケン,ウサシ,アジムマチバンギ,大分県宇佐市安心院町番木
8720865,大分県,宇佐市,安心院町佛木,オオイタケン,ウサシ,アジムマチホトギ,大分県宇佐市安心院町佛木
8720871,大分県,宇佐市,安心院町平山,オオイタケン,ウサシ,アジムマチヒラヤマ,大分県宇佐市安心院町平山
8720872,大分県,宇佐市,安心院町舟板,オオイタケン,ウサシ,アジムマチフナイタ,大分県宇佐市安心院町舟板
8720873,大分県,宇佐市,安心院町新貝,オオイタケン,ウサシ,アジムマチシンガイ,大分県宇佐市安心院町新貝
8721101,大分県,豊後高田市,中真玉,オオイタケン,ブンゴタカダシ,ナカマタマ,大分県豊後高田市中真玉
8721102,大分県,豊後高田市,大岩屋,オオイタケン,ブンゴタカダシ,オオイワヤ,大分県豊後高田市大岩屋
8721103,大分県,豊後高田市,黒土,オオイタケン,ブンゴタカダシ,クロツチ,大分県豊後高田市黒土
8721104,大分県,豊後高田市,城前,オオイタケン,ブンゴタカダシ,ジョウゼン,大分県豊後高田市城前
8721105,大分県,豊後高田市,西真玉,オオイタケン,ブンゴタカダシ,ニシマタマ,大分県豊後高田市西真玉
8721106,大分県,豊後高田市,大平,オオイタケン,ブンゴタカダシ,オオヒラ,大分県豊後高田市大平
8721107,大分県,豊後高田市,臼野,オオイタケン,ブンゴタカダシ,ウスノ,大分県豊後高田市臼野
8721201,大分県,豊後高田市,夷,オオイタケン,ブンゴタカダシ,エビス,大分県豊後高田市夷
8721202,大分県,豊後高田市,香々地,オオイタケン,ブンゴタカダシ,カカヂ,大分県豊後高田市香々地
8721203,大分県,豊後高田市,堅来,オオイタケン,ブンゴタカダシ,カタク,大分県豊後高田市堅来
8721204,大分県,豊後高田市,上香々地,オオイタケン,ブンゴタカダシ,カミカカヂ,大分県豊後高田市上香々地
8721205,大分県,豊後高田市,小畑,オオイタケン,ブンゴタカダシ,コバタ,大分県豊後高田市小畑
8721206,大分県,豊後高田市,羽根,オオイタケン,ブンゴタカダシ,ハネ,大分県豊後高田市羽根
8721207,大分県,豊後高田市,見目,オオイタケン,ブンゴタカダシ,ミメ,大分県豊後高田市見目
8721321,大分県,国東市,国見町竹田津,オオイタケン,クニサキシ,クニミマチタケタヅ,大分県国東市国見町竹田津
8721322,大分県,国東市,国見町西方寺,オオイタケン,クニサキシ,クニミマチサイホウジ,大分県国東市国見町西方寺
8721323,大分県,国東市,国見町鬼籠,オオイタケン,クニサキシ,クニミマチキコ,大分県国東市国見町鬼籠
8721324,大分県,国東市,国見町櫛海,オオイタケン,クニサキシ,クニミマチクシノミ,大分県国東市国見町櫛海
8721401,大分県,国東市,国見町伊美,オオイタケン,クニサキシ,クニミマチイミ,大分県国東市国見町伊美
8721402,大分県,国東市,国見町中,オオイタケン,クニサキシ,クニミマチナカ,大分県国東市国見町中
8721403,大分県,国東市,国見町野田,オオイタケン,クニサキシ,クニミマチノダ,大分県国東市国見町野田
8721404,大分県,国東市,国見町千燈,オオイタケン,クニサキシ,クニミマチセンド,大分県国東市国見町千燈
8721405,大分県,国東市,国見町赤根,オオイタケン,クニサキシ,クニミマチアカネ,大分県国東市国見町赤根
8721406,大分県,国東市,国見町櫛来,オオイタケン,クニサキシ,クニミマチクシク,大分県国東市国見町櫛来
8721501,大分県,東国東郡姫島村,,オオイタケン,ヒガシクニサキグンヒメシマムラ,,大分県東国東郡姫島村
8721611,大分県,国東市,国見町向田,オオイタケン,クニサキシ,クニミマチムカタ,大分県国東市国見町向田
8721612,大分県,国東市,国見町大熊毛,オオイタケン,クニサキシ,クニミマチオオクマゲ,大分県国東市国見町大熊毛
8721613,大分県,国東市,国見町小熊毛,オオイタケン,クニサキシ,クニミマチコクマゲ,大分県国東市国見町小熊毛
8721614,大分県,国東市,国見町岐部,オオイタケン,クニサキシ,クニミマチキベ,大分県国東市国見町岐部
8721651,大分県,国東市,国東町浜,オオイタケン,クニサキシ,クニサキマチハマ,大分県国東市国東町浜
8721652,大分県,国東市,国東町来浦,オオイタケン,クニサキシ,クニサキマチクノウラ,大分県国東市国東町来浦
8721653,大分県,国東市,国東町岩戸寺,オオイタケン,クニサキシ,クニサキマチイワトウジ,大分県国東市国東町岩戸寺
8730000,大分県,杵築市,,オオイタケン,キツキシ,,大分県杵築市
8730001,大分県,杵築市,杵築,オオイタケン,キツキシ,キツキ,大分県杵築市杵築
8730002,大分県,杵築市,南杵築,オオイタケン,キツキシ,ミナミキツキ,大分県杵築市南杵築
8730003,大分県,杵築市,馬場尾,オオイタケン,キツキシ,ババオ,大分県杵築市馬場尾
8730004,大分県,杵築市,宮司,オオイタケン,キツキシ,ミヤジ,大分県杵築市宮司
8730005,大分県,杵築市,猪尾,オオイタケン,キツキシ,イノオ,大分県杵築市猪尾
8730006,大分県,杵築市,大内,オオイタケン,キツキシ,オオウチ,大分県杵築市大内
8730007,大分県,杵築市,片野,オオイタケン,キツキシ,カタノ,大分県杵築市片野
8730008,大分県,杵築市,熊野,オオイタケン,キツキシ,クマノ,大分県杵築市熊野
8730011,大分県,杵築市,相原,オオイタケン,キツキシ,アイワラ,大分県杵築市相原
8730012,大分県,杵築市,中,オオイタケン,キツキシ,ナカ,大分県杵築市中
8730013,大分県,杵築市,日野,オオイタケン,キツキシ,ヒノ,大分県杵築市日野
8730014,大分県,杵築市,本庄,オオイタケン,キツキシ,ホンジョウ,大分県杵築市本庄
8730015,大分県,杵築市,八坂,オオイタケン,キツキシ,ヤサカ,大分県杵築市八坂
8730021,大分県,杵築市,岩谷,オオイタケン,キツキシ,イワヤ,大分県杵築市岩谷
8730022,大分県,杵築市,大片平,オオイタケン,キツキシ,オオカタヒラ,大分県杵築市大片平
8730023,大分県,杵築市,鴨川,オオイタケン,キツキシ,カモガワ,大分県杵築市鴨川
8730024,大分県,杵築市,船部,オオイタケン,キツキシ,フナベ,大分県杵築市船部
8730025,大分県,杵築市,溝井,オオイタケン,キツキシ,ミゾイ,大分県杵築市溝井
8730031,大分県,杵築市,狩宿,オオイタケン,キツキシ,カリシュク,大分県杵築市狩宿
8730032,大分県,杵築市,奈多,オオイタケン,キツキシ,ナダ,大分県杵築市奈多
8730033,大分県,杵築市,守江,オオイタケン,キツキシ,モリエ,大分県杵築市守江
8730034,大分県,杵築市,横城,オオイタケン,キツキシ,ヨコギ,大分県杵築市横城
8730041,大分県,杵築市,大田俣水（天堤）,オオイタケン,キツキシ,オオタマタミズ(アマツツミ),大分県杵築市大田俣水（天堤）
8730053,大分県,国東市,安岐町矢川（天堤）,オオイタケン,クニサキシ,アキマチヤガワ(アマツツミ),大分県国東市安岐町矢川（天堤）
8730201,大分県,国東市,安岐町吉松,オオイタケン,クニサキシ,アキマチヨシマツ,大分県国東市安岐町吉松
8730202,大分県,国東市,安岐町瀬戸田,オオイタケン,クニサキシ,アキマチセドタ,大分県国東市安岐町瀬戸田
8730203,大分県,国東市,安岐町中園,オオイタケン,クニサキシ,アキマチナカソノ,大分県国東市安岐町中園
8730204,大分県,国東市,安岐町成久,オオイタケン,クニサキシ,アキマチナリヒサ,大分県国東市安岐町成久
8730205,大分県,国東市,安岐町掛樋,オオイタケン,クニサキシ,アキマチカケヒ,大分県国東市安岐町掛樋
8730206,大分県,国東市,安岐町山浦,オオイタケン,クニサキシ,アキマチヤマウラ,大分県国東市安岐町山浦
8730207,大分県,国東市,安岐町油留木,オオイタケン,クニサキシ,アキマチユルギ,大分県国東市安岐町油留木
8730211,大分県,国東市,安岐町馬場,オオイタケン,クニサキシ,アキマチババ,大分県国東市安岐町馬場
8730212,大分県,国東市,安岐町塩屋,オオイタケン,クニサキシ,アキマチシオヤ,大分県国東市安岐町塩屋
8730221,大分県,国東市,安岐町西本,オオイタケン,クニサキシ,アキマチニシモト,大分県国東市安岐町西本
8730222,大分県,国東市,安岐町下山口,オオイタケン,クニサキシ,アキマチシモヤマグチ,大分県国東市安岐町下山口
8730223,大分県,国東市,安岐町大添,オオイタケン,クニサキシ,アキマチオオソエ,大分県国東市安岐町大添
8730224,大分県,国東市,安岐町山口,オオイタケン,クニサキシ,アキマチヤマグチ,大分県国東市安岐町山口
8730231,大分県,国東市,安岐町下原,オオイタケン,クニサキシ,アキマチシモバル,大分県国東市安岐町下原
8730232,大分県,国東市,安岐町向陽台,オオイタケン,クニサキシ,アキマチコウヨウダイ,大分県国東市安岐町向陽台
8730351,大分県,国東市,安岐町朝来,オオイタケン,クニサキシ,アキマチアサク,大分県国東市安岐町朝来
8730352,大分県,国東市,安岐町明治,オオイタケン,クニサキシ,アキマチメイジ,大分県国東市安岐町明治
8730353,大分県,国東市,安岐町矢川（その他）,オオイタケン,クニサキシ,アキマチヤガワ(ソノタ),大分県国東市安岐町矢川（その他）
8730354,大分県,国東市,安岐町糸永,オオイタケン,クニサキシ,アキマチイトナガ,大分県国東市安岐町糸永
8730355,大分県,国東市,安岐町富清,オオイタケン,クニサキシ,アキマチトミキヨ,大分県国東市安岐町富清
8730356,大分県,国東市,安岐町両子,オオイタケン,クニサキシ,アキマチフタゴ,大分県国東市安岐町両子
8730401,大分県,国東市,武蔵町池ノ内,オオイタケン,クニサキシ,ムサシマチイケノウチ,大分県国東市武蔵町池ノ内
8730402,大分県,国東市,武蔵町内田,オオイタケン,クニサキシ,ムサシマチウチダ,大分県国東市武蔵町内田
8730404,大分県,国東市,武蔵町成吉,オオイタケン,クニサキシ,ムサシマチナリヨシ,大分県国東市武蔵町成吉
8730405,大分県,国東市,武蔵町麻田,オオイタケン,クニサキシ,ムサシマチアサダ,大分県国東市武蔵町麻田
8730406,大分県,国東市,武蔵町丸小野,オオイタケン,クニサキシ,ムサシマチマルオノ,大分県国東市武蔵町丸小野
8730407,大分県,国東市,武蔵町狭間,オオイタケン,クニサキシ,ムサシマチハサマ,大分県国東市武蔵町狭間
8730412,大分県,国東市,武蔵町古市,オオイタケン,クニサキシ,ムサシマチフルイチ,大分県国東市武蔵町古市
8730414,大分県,国東市,武蔵町手野,オオイタケン,クニサキシ,ムサシマチテノ,大分県国東市武蔵町手野
8730415,大分県,国東市,武蔵町吉広,オオイタケン,クニサキシ,ムサシマチヨシヒロ,大分県国東市武蔵町吉広
8730421,大分県,国東市,武蔵町糸原,オオイタケン,クニサキシ,ムサシマチイトハル,大分県国東市武蔵町糸原
8730422,大分県,国東市,武蔵町小城,オオイタケン,クニサキシ,ムサシマチオギ,大分県国東市武蔵町小城
8730423,大分県,国東市,武蔵町三井寺,オオイタケン,クニサキシ,ムサシマチミイデラ,大分県国東市武蔵町三井寺
8730424,大分県,国東市,武蔵町志和利,オオイタケン,クニサキシ,ムサシマチシワリ,大分県国東市武蔵町志和利
8730432,大分県,国東市,武蔵町向陽台,オオイタケン,クニサキシ,ムサシマチコウヨウダイ,大分県国東市武蔵町向陽台
8730500,大分県,国東市,,オオイタケン,クニサキシ,,大分県国東市
8730501,大分県,国東市,国東町北江,オオイタケン,クニサキシ,クニサキマチキタエ,大分県国東市国東町北江
8730502,大分県,国東市,国東町田深,オオイタケン,クニサキシ,クニサキマチタブカ,大分県国東市国東町田深
8730503,大分県,国東市,国東町鶴川,オオイタケン,クニサキシ,クニサキマチツルガワ,大分県国東市国東町鶴川
8730504,大分県,国東市,国東町安国寺,オオイタケン,クニサキシ,クニサキマチアンコクジ,大分県国東市国東町安国寺
8730511,大分県,国東市,国東町小原,オオイタケン,クニサキシ,クニサキマチオハラ,大分県国東市国東町小原
8730512,大分県,国東市,国東町治郎丸,オオイタケン,クニサキシ,クニサキマチジロウマル,大分県国東市国東町治郎丸
8730513,大分県,国東市,国東町綱井,オオイタケン,クニサキシ,クニサキマチツナイ,大分県国東市国東町綱井
8730514,大分県,国東市,国東町重藤,オオイタケン,クニサキシ,クニサキマチシゲフジ,大分県国東市国東町重藤
8730521,大分県,国東市,国東町原,オオイタケン,クニサキシ,クニサキマチハル,大分県国東市国東町原
8730522,大分県,国東市,国東町岩屋,オオイタケン,クニサキシ,クニサキマチイワヤ,大分県国東市国東町岩屋
8730523,大分県,国東市,国東町赤松,オオイタケン,クニサキシ,クニサキマチアカマツ,大分県国東市国東町赤松
8730524,大分県,国東市,国東町横手,オオイタケン,クニサキシ,クニサキマチヨコテ,大分県国東市国東町横手
8730531,大分県,国東市,国東町川原,オオイタケン,クニサキシ,クニサキマチカワラ,大分県国東市国東町川原
8730532,大分県,国東市,国東町中田,オオイタケン,クニサキシ,クニサキマチナカダ,大分県国東市国東町中田
8730533,大分県,国東市,国東町見地,オオイタケン,クニサキシ,クニサキマチケンジ,大分県国東市国東町見地
8730534,大分県,国東市,国東町下成仏,オオイタケン,クニサキシ,クニサキマチシモジョウブツ,大分県国東市国東町下成仏
8730535,大分県,国東市,国東町成仏,オオイタケン,クニサキシ,クニサキマチジョウブツ,大分県国東市国東町成仏
8730641,大分県,国東市,国東町深江,オオイタケン,クニサキシ,クニサキマチフカエ,大分県国東市国東町深江
8730642,大分県,国東市,国東町東堅来,オオイタケン,クニサキシ,クニサキマチヒガシカタク,大分県国東市国東町東堅来
8730643,大分県,国東市,国東町富来浦,オオイタケン,クニサキシ,クニサキマチトミクウラ,大分県国東市国東町富来浦
8730644,大分県,国東市,国東町浜崎,オオイタケン,クニサキシ,クニサキマチハマサキ,大分県国東市国東町浜崎
8730645,大分県,国東市,国東町富来,オオイタケン,クニサキシ,クニサキマチトミク,大分県国東市国東町富来
8730646,大分県,国東市,国東町大恩寺,オオイタケン,クニサキシ,クニサキマチダイオンジ,大分県国東市国東町大恩寺
8740000,大分県,別府市,,オオイタケン,ベップシ,,大分県別府市
8740001,大分県,別府市,小坂,オオイタケン,ベップシ,オサカ,大分県別府市小坂
8740002,大分県,別府市,関の江新町,オオイタケン,ベップシ,セキノエシンマチ,大分県別府市関の江新町
8740003,大分県,別府市,大所,オオイタケン,ベップシ,オトコロ,大分県別府市大所
8740004,大分県,別府市,湯山,オオイタケン,ベップシ,ユヤマ,大分県別府市湯山
8740005,大分県,別府市,天間,オオイタケン,ベップシ,アママ,大分県別府市天間
8740011,大分県,別府市,内竈,オオイタケン,ベップシ,ウチカマド,大分県別府市内竈
8740012,大分県,別府市,スパランド豊海,オオイタケン,ベップシ,スパランドトヨミ,大分県別府市スパランド豊海
8740013,大分県,別府市,古市町,オオイタケン,ベップシ,フルイチマチ,大分県別府市古市町
8740014,大分県,別府市,亀川浜田町,オオイタケン,ベップシ,カメガワハマダマチ,大分県別府市亀川浜田町
8740015,大分県,別府市,国立,オオイタケン,ベップシ,クニタテ,大分県別府市国立
8740016,大分県,別府市,野田,オオイタケン,ベップシ,ノダ,大分県別府市野田
8740021,大分県,別府市,亀川中央町,オオイタケン,ベップシ,カメガワチュウオウマチ,大分県別府市亀川中央町
8740022,大分県,別府市,亀川東町,オオイタケン,ベップシ,カメガワヒガシマチ,大分県別府市亀川東町
8740023,大分県,別府市,上人ケ浜町,オオイタケン,ベップシ,ショウニンガハマチョウ,大分県別府市上人ケ浜町
8740024,大分県,別府市,平田町,オオイタケン,ベップシ,ヒラタマチ,大分県別府市平田町
8740025,大分県,別府市,亀川四の湯町,オオイタケン,ベップシ,カメガワシノユマチ,大分県別府市亀川四の湯町
8740031,大分県,別府市,照波園町,オオイタケン,ベップシ,ショウハエンマチ,大分県別府市照波園町
8740032,大分県,別府市,上人本町,オオイタケン,ベップシ,ショウニンホンマチ,大分県別府市上人本町
8740033,大分県,別府市,上人南,オオイタケン,ベップシ,ショウニンミナミ,大分県別府市上人南
8740034,大分県,別府市,上人仲町,オオイタケン,ベップシ,ショウニンナカマチ,大分県別府市上人仲町
8740035,大分県,別府市,上人西,オオイタケン,ベップシ,ショウニンニシ,大分県別府市上人西
8740036,大分県,別府市,上平田町,オオイタケン,ベップシ,カミヒラタチョウ,大分県別府市上平田町
8740037,大分県,別府市,大観山町,オオイタケン,ベップシ,ダイカンヤマチョウ,大分県別府市大観山町
8740041,大分県,別府市,北鉄輪,オオイタケン,ベップシ,キタカンナワ,大分県別府市北鉄輪
8740042,大分県,別府市,鉄輪東,オオイタケン,ベップシ,カンナワヒガシ,大分県別府市鉄輪東
8740043,大分県,別府市,井田,オオイタケン,ベップシ,イダ,大分県別府市井田
8740044,大分県,別府市,風呂本,オオイタケン,ベップシ,フロモト,大分県別府市風呂本
8740045,大分県,別府市,御幸,オオイタケン,ベップシ,ミユキ,大分県別府市御幸
8740046,大分県,別府市,鉄輪上,オオイタケン,ベップシ,カンナワカミ,大分県別府市鉄輪上
8740801,大分県,別府市,山の口,オオイタケン,ベップシ,ヤマノクチ,大分県別府市山の口
8740802,大分県,別府市,城島,オオイタケン,ベップシ,キジマ,大分県別府市城島
8740803,大分県,別府市,東山一区,オオイタケン,ベップシ,ヒガシヤマイック,大分県別府市東山一区
8740804,大分県,別府市,東山二区,オオイタケン,ベップシ,ヒガシヤマニク,大分県別府市東山二区
8740805,大分県,別府市,枝郷,オオイタケン,ベップシ,エダゴウ,大分県別府市枝郷
8740811,大分県,別府市,柳,オオイタケン,ベップシ,ヤナギ,大分県別府市柳
8740812,大分県,別府市,朝見,オオイタケン,ベップシ,アサミ,大分県別府市朝見
8740813,大分県,別府市,両郡橋,オオイタケン,ベップシ,リョウグンバシ,大分県別府市両郡橋
8740814,大分県,別府市,浦田,オオイタケン,ベップシ,ウラタ,大分県別府市浦田
8740815,大分県,別府市,田の口,オオイタケン,ベップシ,タノクチ,大分県別府市田の口
8740816,大分県,別府市,河内,オオイタケン,ベップシ,コウチ,大分県別府市河内
8740817,大分県,別府市,鳥越,オオイタケン,ベップシ,トリゴエ,大分県別府市鳥越
8740818,大分県,別府市,山家,オオイタケン,ベップシ,ヤマガ,大分県別府市山家
8740819,大分県,別府市,赤松,オオイタケン,ベップシ,アカマツ,大分県別府市赤松
8740820,大分県,別府市,原町,オオイタケン,ベップシ,ハラマチ,大分県別府市原町
8740821,大分県,別府市,乙原,オオイタケン,ベップシ,オトバル,大分県別府市乙原
8740822,大分県,別府市,観海寺,オオイタケン,ベップシ,カンカイジ,大分県別府市観海寺
8740823,大分県,別府市,南立石本町,オオイタケン,ベップシ,ミナミタテイシホンマチ,大分県別府市南立石本町
8740824,大分県,別府市,南立石板地町,オオイタケン,ベップシ,ミナミタテイシイタジチョウ,大分県別府市南立石板地町
8740825,大分県,別府市,南立石八幡町,オオイタケン,ベップシ,ミナミタテイシハチマンチョウ,大分県別府市南立石八幡町
8740826,大分県,別府市,鶴見園町,オオイタケン,ベップシ,ツルミエンチョウ,大分県別府市鶴見園町
8740827,大分県,別府市,南立石二区,オオイタケン,ベップシ,ミナミタテイシニク,大分県別府市南立石二区
8740828,大分県,別府市,山の手町,オオイタケン,ベップシ,ヤマノテチョウ,大分県別府市山の手町
8740829,大分県,別府市,上原町,オオイタケン,ベップシ,カミハルチョウ,大分県別府市上原町
8740831,大分県,別府市,堀田,オオイタケン,ベップシ,ホリタ,大分県別府市堀田
8740832,大分県,別府市,南立石生目町,オオイタケン,ベップシ,ミナミタテイシイキメチョウ,大分県別府市南立石生目町
8740833,大分県,別府市,鶴見（１〜１８組）,オオイタケン,ベップシ,ツルミ(1-18クミ),大分県別府市鶴見（1〜18組）
8740834,大分県,別府市,新別府,オオイタケン,ベップシ,シンベップ,大分県別府市新別府
8740835,大分県,別府市,実相寺,オオイタケン,ベップシ,ジッソウジ,大分県別府市実相寺
8740836,大分県,別府市,東荘園,オオイタケン,ベップシ,ヒガシソウエン,大分県別府市東荘園
8740837,大分県,別府市,荘園北町,オオイタケン,ベップシ,ソウエンキタマチ,大分県別府市荘園北町
8740838,大分県,別府市,荘園,オオイタケン,ベップシ,ソウエン,大分県別府市荘園
8740839,大分県,別府市,南立石一区,オオイタケン,ベップシ,ミナミタテイシイック,大分県別府市南立石一区
8740840,大分県,別府市,鶴見（大字、番地）,オオイタケン,ベップシ,ツルミ(オオアザ、バンチ),大分県別府市鶴見（大字、番地）
8740841,大分県,別府市,竹の内,オオイタケン,ベップシ,タケノウチ,大分県別府市竹の内
8740842,大分県,別府市,小倉,オオイタケン,ベップシ,オグラ,大分県別府市小倉
8740843,大分県,別府市,明礬,オオイタケン,ベップシ,ミョウバン,大分県別府市明礬
8740844,大分県,別府市,火売,オオイタケン,ベップシ,ホノメ,大分県別府市火売
8740845,大分県,別府市,北中,オオイタケン,ベップシ,キタジュウ,大分県別府市北中
8740846,大分県,別府市,朝日ケ丘町,オオイタケン,ベップシ,アサヒガオカチョウ,大分県別府市朝日ケ丘町
8740847,大分県,別府市,馬場,オオイタケン,ベップシ,ババ,大分県別府市馬場
8740848,大分県,別府市,大畑,オオイタケン,ベップシ,オバタケ,大分県別府市大畑
8740849,大分県,別府市,扇山,オオイタケン,ベップシ,オウギヤマ,大分県別府市扇山
8740901,大分県,別府市,中島町,オオイタケン,ベップシ,ナカシマチョウ,大分県別府市中島町
8740902,大分県,別府市,青山町,オオイタケン,ベップシ,アオヤマチョウ,大分県別府市青山町
8740903,大分県,別府市,野口原,オオイタケン,ベップシ,ノグチハラ,大分県別府市野口原
8740904,大分県,別府市,南荘園町,オオイタケン,ベップシ,ミナミソウエンチョウ,大分県別府市南荘園町
8740905,大分県,別府市,上野口町,オオイタケン,ベップシ,カミノグチチョウ,大分県別府市上野口町
8740906,大分県,別府市,天満町,オオイタケン,ベップシ,テンマンチョウ,大分県別府市天満町
8740907,大分県,別府市,幸町,オオイタケン,ベップシ,サイワイチョウ,大分県別府市幸町
8740908,大分県,別府市,上田の湯町,オオイタケン,ベップシ,カミタノユマチ,大分県別府市上田の湯町
8740909,大分県,別府市,田の湯町,オオイタケン,ベップシ,タノユマチ,大分県別府市田の湯町
8740910,大分県,別府市,石垣西,オオイタケン,ベップシ,イシガキニシ,大分県別府市石垣西
8740911,大分県,別府市,緑丘町,オオイタケン,ベップシ,ミドリガオカチョウ,大分県別府市緑丘町
8740912,大分県,別府市,南須賀,オオイタケン,ベップシ,ミナミスカ,大分県別府市南須賀
8740913,大分県,別府市,春木,オオイタケン,ベップシ,ハルキ,大分県別府市春木
8740914,大分県,別府市,中須賀元町,オオイタケン,ベップシ,ナカスカモトマチ,大分県別府市中須賀元町
8740915,大分県,別府市,桜ケ丘,オオイタケン,ベップシ,サクラガオカ,大分県別府市桜ケ丘
8740916,大分県,別府市,中須賀本町,オオイタケン,ベップシ,ナカスカホンマチ,大分県別府市中須賀本町
8740917,大分県,別府市,中須賀東町,オオイタケン,ベップシ,ナカスカヒガシマチ,大分県別府市中須賀東町
8740918,大分県,別府市,汐見町,オオイタケン,ベップシ,シオミチョウ,大分県別府市汐見町
8740919,大分県,別府市,石垣東,オオイタケン,ベップシ,イシガキヒガシ,大分県別府市石垣東
8740920,大分県,別府市,北浜,オオイタケン,ベップシ,キタハマ,大分県別府市北浜
8740921,大分県,別府市,富士見町,オオイタケン,ベップシ,フジミチョウ,大分県別府市富士見町
8740922,大分県,別府市,船小路町,オオイタケン,ベップシ,フナコウジマチ,大分県別府市船小路町
8740923,大分県,別府市,新港町,オオイタケン,ベップシ,シンミナトマチ,大分県別府市新港町
8740924,大分県,別府市,餅ケ浜町,オオイタケン,ベップシ,モチガハマチョウ,大分県別府市餅ケ浜町
8740925,大分県,別府市,若草町,オオイタケン,ベップシ,ワカクサチョウ,大分県別府市若草町
8740926,大分県,別府市,京町,オオイタケン,ベップシ,キョウマチ,大分県別府市京町
8740927,大分県,別府市,弓ケ浜町,オオイタケン,ベップシ,ユミガハマチョウ,大分県別府市弓ケ浜町
8740928,大分県,別府市,北的ケ浜町,オオイタケン,ベップシ,キタマトガハマチョウ,大分県別府市北的ケ浜町
8740929,大分県,別府市,南的ケ浜町,オオイタケン,ベップシ,ミナミマトガハマチョウ,大分県別府市南的ケ浜町
8740930,大分県,別府市,光町,オオイタケン,ベップシ,ヒカリマチ,大分県別府市光町
8740931,大分県,別府市,西野口町,オオイタケン,ベップシ,ニシノグチマチ,大分県別府市西野口町
8740932,大分県,別府市,野口中町,オオイタケン,ベップシ,ノグチナカマチ,大分県別府市野口中町
8740933,大分県,別府市,野口元町,オオイタケン,ベップシ,ノグチモトマチ,大分県別府市野口元町
8740934,大分県,別府市,駅前本町,オオイタケン,ベップシ,エキマエホンマチ,大分県別府市駅前本町
8740935,大分県,別府市,駅前町,オオイタケン,ベップシ,エキマエチョウ,大分県別府市駅前町
8740936,大分県,別府市,中央町,オオイタケン,ベップシ,チュウオウマチ,大分県別府市中央町
8740937,大分県,別府市,秋葉町,オオイタケン,ベップシ,アキバチョウ,大分県別府市秋葉町
8740938,大分県,別府市,末広町,オオイタケン,ベップシ,スエヒロチョウ,大分県別府市末広町
8740939,大分県,別府市,立田町,オオイタケン,ベップシ,タッタチョウ,大分県別府市立田町
8740941,大分県,別府市,南町,オオイタケン,ベップシ,ミナミマチ,大分県別府市南町
8740942,大分県,別府市,千代町,オオイタケン,ベップシ,チヨマチ,大分県別府市千代町
8740943,大分県,別府市,楠町,オオイタケン,ベップシ,クスノキマチ,大分県別府市楠町
8740944,大分県,別府市,元町,オオイタケン,ベップシ,モトマチ,大分県別府市元町
8740945,大分県,別府市,浜町,オオイタケン,ベップシ,ハママチ,大分県別府市浜町
8740946,大分県,別府市,松原町,オオイタケン,ベップシ,マツバラチョウ,大分県別府市松原町
8740947,大分県,別府市,浜脇,オオイタケン,ベップシ,ハマワキ,大分県別府市浜脇
8750000,大分県,臼杵市,,オオイタケン,ウスキシ,,大分県臼杵市
8750001,大分県,臼杵市,佐志生,オオイタケン,ウスキシ,サシウ,大分県臼杵市佐志生
8750002,大分県,臼杵市,下ノ江,オオイタケン,ウスキシ,シタノエ,大分県臼杵市下ノ江
8750003,大分県,臼杵市,田井,オオイタケン,ウスキシ,タイ,大分県臼杵市田井
8750004,大分県,臼杵市,大野,オオイタケン,ウスキシ,オオノ,大分県臼杵市大野
8750011,大分県,臼杵市,諏訪,オオイタケン,ウスキシ,スワ,大分県臼杵市諏訪
8750012,大分県,臼杵市,大浜,オオイタケン,ウスキシ,オオハマ,大分県臼杵市大浜
8750013,大分県,臼杵市,中津浦,オオイタケン,ウスキシ,ナカツウラ,大分県臼杵市中津浦
8750021,大分県,臼杵市,田尻,オオイタケン,ウスキシ,タジリ,大分県臼杵市田尻
8750022,大分県,臼杵市,末広,オオイタケン,ウスキシ,スエヒロ,大分県臼杵市末広
8750023,大分県,臼杵市,江無田,オオイタケン,ウスキシ,エムタ,大分県臼杵市江無田
8750031,大分県,臼杵市,深江,オオイタケン,ウスキシ,フカエ,大分県臼杵市深江
8750032,大分県,臼杵市,風成,オオイタケン,ウスキシ,カザナシ,大分県臼杵市風成
8750033,大分県,臼杵市,大泊,オオイタケン,ウスキシ,オオトマリ,大分県臼杵市大泊
8750034,大分県,臼杵市,板知屋,オオイタケン,ウスキシ,イタチヤ,大分県臼杵市板知屋
8750041,大分県,臼杵市,臼杵,オオイタケン,ウスキシ,ウスキ,大分県臼杵市臼杵
8750042,大分県,臼杵市,海添,オオイタケン,ウスキシ,カイゾエ,大分県臼杵市海添
8750043,大分県,臼杵市,二王座,オオイタケン,ウスキシ,ニオウザ,大分県臼杵市二王座
8750051,大分県,臼杵市,戸室,オオイタケン,ウスキシ,トムロ,大分県臼杵市戸室
8750052,大分県,臼杵市,市浜,オオイタケン,ウスキシ,イチハマ,大分県臼杵市市浜
8750053,大分県,臼杵市,福良,オオイタケン,ウスキシ,フクラ,大分県臼杵市福良
8750061,大分県,臼杵市,前田,オオイタケン,ウスキシ,マエダ,大分県臼杵市前田
8750062,大分県,臼杵市,野田,オオイタケン,ウスキシ,ノダ,大分県臼杵市野田
8750063,大分県,臼杵市,望月,オオイタケン,ウスキシ,モチヅキ,大分県臼杵市望月
8750064,大分県,臼杵市,深田,オオイタケン,ウスキシ,フカタ,大分県臼杵市深田
8750065,大分県,臼杵市,家野,オオイタケン,ウスキシ,イエノ,大分県臼杵市家野
8750070,大分県,臼杵市,久木小野,オオイタケン,ウスキシ,クギオノ,大分県臼杵市久木小野
8750071,大分県,臼杵市,吉小野,オオイタケン,ウスキシ,ヨシオノ,大分県臼杵市吉小野
8750072,大分県,臼杵市,中臼杵,オオイタケン,ウスキシ,ナカウスキ,大分県臼杵市中臼杵
8750073,大分県,臼杵市,掻懐,オオイタケン,ウスキシ,カキダキ,大分県臼杵市掻懐
8750074,大分県,臼杵市,左津留,オオイタケン,ウスキシ,サヅル,大分県臼杵市左津留
8750075,大分県,臼杵市,中尾,オオイタケン,ウスキシ,ナカオ,大分県臼杵市中尾
8750076,大分県,臼杵市,東神野,オオイタケン,ウスキシ,ヒガシコウノ,大分県臼杵市東神野
8750077,大分県,臼杵市,乙見,オオイタケン,ウスキシ,オトミ,大分県臼杵市乙見
8750078,大分県,臼杵市,高山,オオイタケン,ウスキシ,タカヤマ,大分県臼杵市高山
8750079,大分県,臼杵市,武山,オオイタケン,ウスキシ,タケヤマ,大分県臼杵市武山
8750081,大分県,臼杵市,藤河内,オオイタケン,ウスキシ,フジカワチ,大分県臼杵市藤河内
8750082,大分県,臼杵市,稲田,オオイタケン,ウスキシ,イナダ,大分県臼杵市稲田
8750083,大分県,臼杵市,井村,オオイタケン,ウスキシ,イムラ,大分県臼杵市井村
8750084,大分県,臼杵市,岳谷,オオイタケン,ウスキシ,タケヤ,大分県臼杵市岳谷
8750201,大分県,臼杵市,野津町野津市,オオイタケン,ウスキシ,ノツマチノツイチ,大分県臼杵市野津町野津市
8750202,大分県,臼杵市,野津町山頭,オオイタケン,ウスキシ,ノツマチヤマズ,大分県臼杵市野津町山頭
8750203,大分県,臼杵市,野津町前河内,オオイタケン,ウスキシ,ノツマチマエガワチ,大分県臼杵市野津町前河内
8750211,大分県,臼杵市,野津町都原,オオイタケン,ウスキシ,ノツマチミヤコバル,大分県臼杵市野津町都原
8750212,大分県,臼杵市,野津町老松,オオイタケン,ウスキシ,ノツマチオイマツ,大分県臼杵市野津町老松
8750213,大分県,臼杵市,野津町八里合,オオイタケン,ウスキシ,ノツマチハチリゴウ,大分県臼杵市野津町八里合
8750214,大分県,臼杵市,野津町福良木,オオイタケン,ウスキシ,ノツマチフクラギ,大分県臼杵市野津町福良木
8750215,大分県,臼杵市,野津町王子,オオイタケン,ウスキシ,ノツマチオウジ,大分県臼杵市野津町王子
8750216,大分県,臼杵市,野津町亀甲,オオイタケン,ウスキシ,ノツマチカメコウ,大分県臼杵市野津町亀甲
8750221,大分県,臼杵市,野津町秋山,オオイタケン,ウスキシ,ノツマチアキヤマ,大分県臼杵市野津町秋山
8750222,大分県,臼杵市,野津町吉田,オオイタケン,ウスキシ,ノツマチヨシダ,大分県臼杵市野津町吉田
8750223,大分県,臼杵市,野津町東谷（その他）,オオイタケン,ウスキシ,ノツマチヒガシタニ(ソノタ),大分県臼杵市野津町東谷（その他）
8750224,大分県,臼杵市,野津町西畑,オオイタケン,ウスキシ,ノツマチニシハタ,大分県臼杵市野津町西畑
8750231,大分県,臼杵市,野津町千塚,オオイタケン,ウスキシ,ノツマチチヅカ,大分県臼杵市野津町千塚
8750232,大分県,臼杵市,野津町烏嶽,オオイタケン,ウスキシ,ノツマチウガク,大分県臼杵市野津町烏嶽
8750233,大分県,臼杵市,野津町宮原,オオイタケン,ウスキシ,ノツマチミヤバル,大分県臼杵市野津町宮原
8750234,大分県,臼杵市,野津町原,オオイタケン,ウスキシ,ノツマチハル,大分県臼杵市野津町原
8750235,大分県,臼杵市,野津町藤小野,オオイタケン,ウスキシ,ノツマチフジオノ,大分県臼杵市野津町藤小野
8750236,大分県,臼杵市,野津町柚野木,オオイタケン,ウスキシ,ノツマチユノキ,大分県臼杵市野津町柚野木
8750237,大分県,臼杵市,野津町西寒田,オオイタケン,ウスキシ,ノツマチササムタ,大分県臼杵市野津町西寒田
8750323,大分県,臼杵市,野津町東谷（三重谷）,オオイタケン,ウスキシ,ノツマチヒガシタニ(ミエダニ),大分県臼杵市野津町東谷（三重谷）
8750341,大分県,臼杵市,野津町清水原,オオイタケン,ウスキシ,ノツマチソウズバル,大分県臼杵市野津町清水原
8750342,大分県,臼杵市,野津町落谷,オオイタケン,ウスキシ,ノツマチオチダニ,大分県臼杵市野津町落谷
8750343,大分県,臼杵市,野津町岩屋,オオイタケン,ウスキシ,ノツマチイワヤ,大分県臼杵市野津町岩屋
8750344,大分県,臼杵市,野津町白岩,オオイタケン,ウスキシ,ノツマチシライワ,大分県臼杵市野津町白岩
8750351,大分県,臼杵市,野津町泊,オオイタケン,ウスキシ,ノツマチトマリ,大分県臼杵市野津町泊
8750352,大分県,臼杵市,野津町垣河内,オオイタケン,ウスキシ,ノツマチカキガワチ,大分県臼杵市野津町垣河内
8750353,大分県,臼杵市,野津町西神野,オオイタケン,ウスキシ,ノツマチニシコウノ,大分県臼杵市野津町西神野
8760000,大分県,佐伯市,,オオイタケン,サイキシ,,大分県佐伯市
8760001,大分県,佐伯市,高松浦,オオイタケン,サイキシ,タカマツウラ,大分県佐伯市高松浦
8760002,大分県,佐伯市,日向泊浦,オオイタケン,サイキシ,ヒュウガドマリウラ,大分県佐伯市日向泊浦
8760003,大分県,佐伯市,塩内浦,オオイタケン,サイキシ,シウチウラ,大分県佐伯市塩内浦
8760004,大分県,佐伯市,荒網代浦,オオイタケン,サイキシ,アラジロウラ,大分県佐伯市荒網代浦
8760005,大分県,佐伯市,石間浦,オオイタケン,サイキシ,イシマウラ,大分県佐伯市石間浦
8760006,大分県,佐伯市,守後浦,オオイタケン,サイキシ,モリゴウラ,大分県佐伯市守後浦
8760007,大分県,佐伯市,久保浦,オオイタケン,サイキシ,クボウラ,大分県佐伯市久保浦
8760008,大分県,佐伯市,片神浦,オオイタケン,サイキシ,カタガミウラ,大分県佐伯市片神浦
8760011,大分県,佐伯市,坂の浦,オオイタケン,サイキシ,サカノウラ,大分県佐伯市坂の浦
8760012,大分県,佐伯市,鶴望,オオイタケン,サイキシ,ツルミ,大分県佐伯市鶴望
8760013,大分県,佐伯市,若宮町,オオイタケン,サイキシ,ワカミヤマチ,大分県佐伯市若宮町
8760014,大分県,佐伯市,白方,オオイタケン,サイキシ,シラカタ,大分県佐伯市白方
8760015,大分県,佐伯市,百谷,オオイタケン,サイキシ,モモタニ,大分県佐伯市百谷
8760016,大分県,佐伯市,王子丸,オオイタケン,サイキシ,オウジマル,大分県佐伯市王子丸
8760017,大分県,佐伯市,野口,オオイタケン,サイキシ,ノグチ,大分県佐伯市野口
8760018,大分県,佐伯市,平,オオイタケン,サイキシ,ヒラ,大分県佐伯市平
8760021,大分県,佐伯市,東灘,オオイタケン,サイキシ,ヒガシナダ,大分県佐伯市東灘
8760022,大分県,佐伯市,上灘,オオイタケン,サイキシ,カミナダ,大分県佐伯市上灘
8760023,大分県,佐伯市,蛇崎,オオイタケン,サイキシ,ヘビザキ,大分県佐伯市蛇崎
8760024,大分県,佐伯市,下久部,オオイタケン,サイキシ,シモクベ,大分県佐伯市下久部
8760025,大分県,佐伯市,池田,オオイタケン,サイキシ,イケダ,大分県佐伯市池田
8760026,大分県,佐伯市,匠南,オオイタケン,サイキシ,ショウナン,大分県佐伯市匠南
8760027,大分県,佐伯市,上久部,オオイタケン,サイキシ,カミクベ,大分県佐伯市上久部
8760031,大分県,佐伯市,川原,オオイタケン,サイキシ,カワバル,大分県佐伯市川原
8760032,大分県,佐伯市,中山,オオイタケン,サイキシ,ナカヤマ,大分県佐伯市中山
8760033,大分県,佐伯市,下城,オオイタケン,サイキシ,シモジョウ,大分県佐伯市下城
8760034,大分県,佐伯市,上城,オオイタケン,サイキシ,カミジョウ,大分県佐伯市上城
8760035,大分県,佐伯市,岸河内,オオイタケン,サイキシ,キシガワチ,大分県佐伯市岸河内
8760036,大分県,佐伯市,大越,オオイタケン,サイキシ,オオコエ,大分県佐伯市大越
8760037,大分県,佐伯市,長谷,オオイタケン,サイキシ,ハセ,大分県佐伯市長谷
8760041,大分県,佐伯市,長瀬,オオイタケン,サイキシ,ナガセ,大分県佐伯市長瀬
8760042,大分県,佐伯市,稲垣,オオイタケン,サイキシ,イナガキ,大分県佐伯市稲垣
8760043,大分県,佐伯市,樫野,オオイタケン,サイキシ,カシノ,大分県佐伯市樫野
8760044,大分県,佐伯市,高畠,オオイタケン,サイキシ,タカバタ,大分県佐伯市高畠
8760045,大分県,佐伯市,上岡,オオイタケン,サイキシ,カミオカ,大分県佐伯市上岡
8760046,大分県,佐伯市,脇,オオイタケン,サイキシ,ワキ,大分県佐伯市脇
8760047,大分県,佐伯市,鶴岡西町,オオイタケン,サイキシ,ツルオカニシマチ,大分県佐伯市鶴岡西町
8760051,大分県,佐伯市,寺田,オオイタケン,サイキシ,テラダ,大分県佐伯市寺田
8760052,大分県,佐伯市,坂山,オオイタケン,サイキシ,サカヤマ,大分県佐伯市坂山
8760053,大分県,佐伯市,高畑,オオイタケン,サイキシ,タカバタケ,大分県佐伯市高畑
8760061,大分県,佐伯市,門前,オオイタケン,サイキシ,モンゼ,大分県佐伯市門前
8760062,大分県,佐伯市,古市,オオイタケン,サイキシ,フルイチ,大分県佐伯市古市
8760063,大分県,佐伯市,城西区,オオイタケン,サイキシ,ジョウセイク,大分県佐伯市城西区
8760064,大分県,佐伯市,八迫区,オオイタケン,サイキシ,ヤサコク,大分県佐伯市八迫区
8760101,大分県,佐伯市,弥生大坂本,オオイタケン,サイキシ,ヤヨイオオサカモト,大分県佐伯市弥生大坂本
8760102,大分県,佐伯市,弥生尺間,オオイタケン,サイキシ,ヤヨイシャクマ,大分県佐伯市弥生尺間
8760103,大分県,佐伯市,弥生床木,オオイタケン,サイキシ,ヤヨイユカギ,大分県佐伯市弥生床木
8760111,大分県,佐伯市,弥生井崎,オオイタケン,サイキシ,ヤヨイイサキ,大分県佐伯市弥生井崎
8760112,大分県,佐伯市,弥生上小倉,オオイタケン,サイキシ,ヤヨイカミオグラ,大分県佐伯市弥生上小倉
8760113,大分県,佐伯市,弥生山梨子,オオイタケン,サイキシ,ヤヨイヤマナシ,大分県佐伯市弥生山梨子
8760121,大分県,佐伯市,弥生小田,オオイタケン,サイキシ,ヤヨイコダ,大分県佐伯市弥生小田
8760122,大分県,佐伯市,弥生門田,オオイタケン,サイキシ,ヤヨイカンタ,大分県佐伯市弥生門田
8760123,大分県,佐伯市,弥生平井,オオイタケン,サイキシ,ヤヨイヒライ,大分県佐伯市弥生平井
8760124,大分県,佐伯市,弥生細田,オオイタケン,サイキシ,ヤヨイサイタ,大分県佐伯市弥生細田
8760125,大分県,佐伯市,弥生江良,オオイタケン,サイキシ,ヤヨイエラ,大分県佐伯市弥生江良
8760126,大分県,佐伯市,弥生提内,オオイタケン,サイキシ,ヤヨイヒサギウチ,大分県佐伯市弥生提内
8760201,大分県,佐伯市,本匠風戸,オオイタケン,サイキシ,ホンジョウカザト,大分県佐伯市本匠風戸
8760202,大分県,佐伯市,本匠笠掛,オオイタケン,サイキシ,ホンジョウカサカケ,大分県佐伯市本匠笠掛
8760203,大分県,佐伯市,本匠三股,オオイタケン,サイキシ,ホンジョウミマタ,大分県佐伯市本匠三股
8760204,大分県,佐伯市,本匠宇津々,オオイタケン,サイキシ,ホンジョウウツツ,大分県佐伯市本匠宇津々
8760205,大分県,佐伯市,本匠波寄,オオイタケン,サイキシ,ホンジョウハキ,大分県佐伯市本匠波寄
8760206,大分県,佐伯市,本匠小川,オオイタケン,サイキシ,ホンジョウオガワ,大分県佐伯市本匠小川
8760211,大分県,佐伯市,本匠井ノ上,オオイタケン,サイキシ,ホンジョウイノウエ,大分県佐伯市本匠井ノ上
8760212,大分県,佐伯市,本匠因尾,オオイタケン,サイキシ,ホンジョウインビ,大分県佐伯市本匠因尾
8760213,大分県,佐伯市,本匠堂ノ間,オオイタケン,サイキシ,ホンジョウドウノマ,大分県佐伯市本匠堂ノ間
8760214,大分県,佐伯市,本匠上津川,オオイタケン,サイキシ,ホンジョウコウヅガワ,大分県佐伯市本匠上津川
8760215,大分県,佐伯市,本匠小半,オオイタケン,サイキシ,ホンジョウオナガラ,大分県佐伯市本匠小半
8760216,大分県,佐伯市,本匠山部,オオイタケン,サイキシ,ホンジョウヤマブ,大分県佐伯市本匠山部
8760801,大分県,佐伯市,葛港,オオイタケン,サイキシ,カヅラミナト,大分県佐伯市葛港
8760802,大分県,佐伯市,日の出町,オオイタケン,サイキシ,ヒノデマチ,大分県佐伯市日の出町
8760803,大分県,佐伯市,駅前,オオイタケン,サイキシ,エキマエ,大分県佐伯市駅前
8760804,大分県,佐伯市,蟹田,オオイタケン,サイキシ,ガンダ,大分県佐伯市蟹田
8760805,大分県,佐伯市,平野町,オオイタケン,サイキシ,ヒラノマチ,大分県佐伯市平野町
8760806,大分県,佐伯市,春日町,オオイタケン,サイキシ,カスガマチ,大分県佐伯市春日町
8760807,大分県,佐伯市,田の浦町,オオイタケン,サイキシ,タノウラマチ,大分県佐伯市田の浦町
8760811,大分県,佐伯市,鶴谷町,オオイタケン,サイキシ,ツルヤマチ,大分県佐伯市鶴谷町
8760812,大分県,佐伯市,中江町,オオイタケン,サイキシ,ナカエマチ,大分県佐伯市中江町
8760813,大分県,佐伯市,長島町,オオイタケン,サイキシ,ナガシママチ,大分県佐伯市長島町
8760814,大分県,佐伯市,東町,オオイタケン,サイキシ,ヒガシマチ,大分県佐伯市東町
8760815,大分県,佐伯市,野岡町,オオイタケン,サイキシ,ノオカマチ,大分県佐伯市野岡町
8760821,大分県,佐伯市,東浜,オオイタケン,サイキシ,ヒガシハマ,大分県佐伯市東浜
8760822,大分県,佐伯市,西浜,オオイタケン,サイキシ,ニシハマ,大分県佐伯市西浜
8760823,大分県,佐伯市,女島,オオイタケン,サイキシ,メジマ,大分県佐伯市女島
8760824,大分県,佐伯市,新女島,オオイタケン,サイキシ,シンメジマ,大分県佐伯市新女島
8760825,大分県,佐伯市,女島団地,オオイタケン,サイキシ,メジマダンチ,大分県佐伯市女島団地
8760831,大分県,佐伯市,大手町,オオイタケン,サイキシ,オオテマチ,大分県佐伯市大手町
8760832,大分県,佐伯市,船頭町,オオイタケン,サイキシ,センドウマチ,大分県佐伯市船頭町
8760833,大分県,佐伯市,池船町,オオイタケン,サイキシ,イケフネマチ,大分県佐伯市池船町
8760834,大分県,佐伯市,城南町,オオイタケン,サイキシ,ジョウナンマチ,大分県佐伯市城南町
8760835,大分県,佐伯市,鶴岡町,オオイタケン,サイキシ,ツルオカマチ,大分県佐伯市鶴岡町
8760836,大分県,佐伯市,西谷町,オオイタケン,サイキシ,ニシダニマチ,大分県佐伯市西谷町
8760841,大分県,佐伯市,来島町,オオイタケン,サイキシ,クルシママチ,大分県佐伯市来島町
8760842,大分県,佐伯市,中ノ島東町,オオイタケン,サイキシ,ナカノシマヒガシマチ,大分県佐伯市中ノ島東町
8760843,大分県,佐伯市,中の島,オオイタケン,サイキシ,ナカノシマ,大分県佐伯市中の島
8760844,大分県,佐伯市,向島,オオイタケン,サイキシ,ホウジマ,大分県佐伯市向島
8760845,大分県,佐伯市,内町,オオイタケン,サイキシ,ウチマチ,大分県佐伯市内町
8760846,大分県,佐伯市,城東町,オオイタケン,サイキシ,ジョウトウマチ,大分県佐伯市城東町
8760847,大分県,佐伯市,城下西町,オオイタケン,サイキシ,ジョウカニシマチ,大分県佐伯市城下西町
8760848,大分県,佐伯市,城下東町,オオイタケン,サイキシ,ジョウカヒガシマチ,大分県佐伯市城下東町
8760849,大分県,佐伯市,臼坪,オオイタケン,サイキシ,ウスツボ,大分県佐伯市臼坪
8760851,大分県,佐伯市,常盤東町,オオイタケン,サイキシ,トキワヒガシマチ,大分県佐伯市常盤東町
8760852,大分県,佐伯市,常盤南町,オオイタケン,サイキシ,トキワミナミマチ,大分県佐伯市常盤南町
8760853,大分県,佐伯市,中村東町,オオイタケン,サイキシ,ナカムラヒガシマチ,大分県佐伯市中村東町
8760854,大分県,佐伯市,中村南町,オオイタケン,サイキシ,ナカムラミナミマチ,大分県佐伯市中村南町
8760855,大分県,佐伯市,中村西町,オオイタケン,サイキシ,ナカムラニシマチ,大分県佐伯市中村西町
8760856,大分県,佐伯市,中村北町,オオイタケン,サイキシ,ナカムラキタマチ,大分県佐伯市中村北町
8760857,大分県,佐伯市,常盤西町,オオイタケン,サイキシ,トキワニシマチ,大分県佐伯市常盤西町
8761101,大分県,佐伯市,狩生,オオイタケン,サイキシ,カリウ,大分県佐伯市狩生
8761102,大分県,佐伯市,二栄,オオイタケン,サイキシ,フタバエ,大分県佐伯市二栄
8761103,大分県,佐伯市,護江,オオイタケン,サイキシ,モリエ,大分県佐伯市護江
8761104,大分県,佐伯市,霞ケ浦,オオイタケン,サイキシ,カスミガウラ,大分県佐伯市霞ケ浦
8761105,大分県,佐伯市,海崎,オオイタケン,サイキシ,カイザキ,大分県佐伯市海崎
8761106,大分県,佐伯市,戸穴,オオイタケン,サイキシ,ヒアナ,大分県佐伯市戸穴
8761201,大分県,佐伯市,鶴見吹浦,オオイタケン,サイキシ,ツルミフキウラ,大分県佐伯市鶴見吹浦
8761202,大分県,佐伯市,鶴見地松浦,オオイタケン,サイキシ,ツルミジマツウラ,大分県佐伯市鶴見地松浦
8761203,大分県,佐伯市,鶴見沖松浦,オオイタケン,サイキシ,ツルミオキマツウラ,大分県佐伯市鶴見沖松浦
8761204,大分県,佐伯市,鶴見有明浦,オオイタケン,サイキシ,ツルミアリアケウラ,大分県佐伯市鶴見有明浦
8761205,大分県,佐伯市,鶴見羽出浦,オオイタケン,サイキシ,ツルミハイデウラ,大分県佐伯市鶴見羽出浦
8761206,大分県,佐伯市,鶴見中越浦（その他）,オオイタケン,サイキシ,ツルミナカゴシウラ(ソノタ),大分県佐伯市鶴見中越浦（その他）
8761301,大分県,佐伯市,米水津浦代浦（間越、芳ケ浦）,オオイタケン,サイキシ,ヨノウヅウラシロウラ(ハザコ、ヨシガウラ),大分県佐伯市米水津浦代浦（間越、芳ケ浦）
8761306,大分県,佐伯市,鶴見中越浦（猿戸、広浦）,オオイタケン,サイキシ,ツルミナカゴシウラ(サルト、ヒロウラ),大分県佐伯市鶴見中越浦（猿戸、広浦）
8761311,大分県,佐伯市,鶴見丹賀浦,オオイタケン,サイキシ,ツルミタンガウラ,大分県佐伯市鶴見丹賀浦
8761312,大分県,佐伯市,鶴見梶寄浦,オオイタケン,サイキシ,ツルミカジヨセウラ,大分県佐伯市鶴見梶寄浦
8761313,大分県,佐伯市,鶴見大島,オオイタケン,サイキシ,ツルミオオシマ,大分県佐伯市鶴見大島
8761401,大分県,佐伯市,米水津浦代浦（その他）,オオイタケン,サイキシ,ヨノウヅウラシロウラ(ソノタ),大分県佐伯市米水津浦代浦（その他）
8761402,大分県,佐伯市,米水津色利浦,オオイタケン,サイキシ,ヨノウヅイロリウラ,大分県佐伯市米水津色利浦
8761403,大分県,佐伯市,米水津宮野浦,オオイタケン,サイキシ,ヨノウヅミヤノウラ,大分県佐伯市米水津宮野浦
8761404,大分県,佐伯市,米水津小浦,オオイタケン,サイキシ,ヨノウヅコウラ,大分県佐伯市米水津小浦
8761405,大分県,佐伯市,米水津竹野浦,オオイタケン,サイキシ,ヨノウヅタケノウラ,大分県佐伯市米水津竹野浦
8761511,大分県,佐伯市,長良,オオイタケン,サイキシ,ナガラ,大分県佐伯市長良
8761512,大分県,佐伯市,堅田,オオイタケン,サイキシ,カタタ,大分県佐伯市堅田
8761513,大分県,佐伯市,青山,オオイタケン,サイキシ,アオヤマ,大分県佐伯市青山
8762121,大分県,佐伯市,木立,オオイタケン,サイキシ,キタチ,大分県佐伯市木立
8762201,大分県,佐伯市,蒲江畑野浦,オオイタケン,サイキシ,カマエハタノウラ,大分県佐伯市蒲江畑野浦
8762202,大分県,佐伯市,蒲江尾浦,オオイタケン,サイキシ,カマエオウラ,大分県佐伯市蒲江尾浦
8762203,大分県,佐伯市,蒲江楠本浦,オオイタケン,サイキシ,カマエクスモトウラ,大分県佐伯市蒲江楠本浦
8762301,大分県,佐伯市,蒲江竹野浦河内,オオイタケン,サイキシ,カマエタケノウラゴウチ,大分県佐伯市蒲江竹野浦河内
8762302,大分県,佐伯市,蒲江西野浦,オオイタケン,サイキシ,カマエニシノウラ,大分県佐伯市蒲江西野浦
8762401,大分県,佐伯市,蒲江蒲江浦,オオイタケン,サイキシ,カマエカマエウラ,大分県佐伯市蒲江蒲江浦
8762402,大分県,佐伯市,蒲江猪串浦,オオイタケン,サイキシ,カマエイノクシウラ,大分県佐伯市蒲江猪串浦
8762403,大分県,佐伯市,蒲江野々河内浦,オオイタケン,サイキシ,カマエノノカワチウラ,大分県佐伯市蒲江野々河内浦
8762404,大分県,佐伯市,蒲江森崎浦,オオイタケン,サイキシ,カマエモリザキウラ,大分県佐伯市蒲江森崎浦
8762405,大分県,佐伯市,蒲江丸市尾浦,オオイタケン,サイキシ,カマエマルイチビウラ,大分県佐伯市蒲江丸市尾浦
8762406,大分県,佐伯市,蒲江葛原浦,オオイタケン,サイキシ,カマエカズラハラウラ,大分県佐伯市蒲江葛原浦
8762407,大分県,佐伯市,蒲江波当津浦,オオイタケン,サイキシ,カマエハトウヅウラ,大分県佐伯市蒲江波当津浦
8770000,大分県,日田市,,オオイタケン,ヒタシ,,大分県日田市
8770001,大分県,日田市,秋山町,オオイタケン,ヒタシ,アキヤママチ,大分県日田市秋山町
8770002,大分県,日田市,城内新町,オオイタケン,ヒタシ,ジョウナイシンマチ,大分県日田市城内新町
8770003,大分県,日田市,上城内町,オオイタケン,ヒタシ,カミジョウナイマチ,大分県日田市上城内町
8770004,大分県,日田市,城町,オオイタケン,ヒタシ,シロマチ,大分県日田市城町
8770005,大分県,日田市,豆田町,オオイタケン,ヒタシ,マメダマチ,大分県日田市豆田町
8770006,大分県,日田市,港町,オオイタケン,ヒタシ,ミナトマチ,大分県日田市港町
8770007,大分県,日田市,丸の内町,オオイタケン,ヒタシ,マルノウチマチ,大分県日田市丸の内町
8770008,大分県,日田市,丸山,オオイタケン,ヒタシ,マルヤマ,大分県日田市丸山
8770011,大分県,日田市,中城町,オオイタケン,ヒタシ,ナカジョウマチ,大分県日田市中城町
8770012,大分県,日田市,淡窓,オオイタケン,ヒタシ,タンソウ,大分県日田市淡窓
8770013,大分県,日田市,元町,オオイタケン,ヒタシ,モトマチ,大分県日田市元町
8770014,大分県,日田市,本町,オオイタケン,ヒタシ,ホンマチ,大分県日田市本町
8770015,大分県,日田市,中央,オオイタケン,ヒタシ,チュウオウ,大分県日田市中央
8770016,大分県,日田市,三本松,オオイタケン,ヒタシ,サンボンマツ,大分県日田市三本松
8770017,大分県,日田市,三本松新町,オオイタケン,ヒタシ,サンボンマツシンマチ,大分県日田市三本松新町
8770021,大分県,日田市,求町,オオイタケン,ヒタシ,モトメマチ,大分県日田市求町
8770022,大分県,日田市,神来町,オオイタケン,ヒタシ,カミクマチ,大分県日田市神来町
8770023,大分県,日田市,田島（大字）,オオイタケン,ヒタシ,タシマ(オオアザ),大分県日田市田島（大字）
8770024,大分県,日田市,南元町,オオイタケン,ヒタシ,ミナミモトマチ,大分県日田市南元町
8770025,大分県,日田市,田島（丁目）,オオイタケン,ヒタシ,タシマ(チョウメ),大分県日田市田島（丁目）
8770026,大分県,日田市,田島本町,オオイタケン,ヒタシ,タシマホンマチ,大分県日田市田島本町
8770031,大分県,日田市,古金町,オオイタケン,ヒタシ,コガネマチ,大分県日田市古金町
8770032,大分県,日田市,小ケ瀬町,オオイタケン,ヒタシ,オガセマチ,大分県日田市小ケ瀬町
8770033,大分県,日田市,大部町,オオイタケン,ヒタシ,オオベマチ,大分県日田市大部町
8770034,大分県,日田市,桃山町,オオイタケン,ヒタシ,モモヤママチ,大分県日田市桃山町
8770035,大分県,日田市,日高町,オオイタケン,ヒタシ,ヒダカマチ,大分県日田市日高町
8770036,大分県,日田市,三芳小渕町,オオイタケン,ヒタシ,ミヨシコブチマチ,大分県日田市三芳小渕町
8770037,大分県,日田市,若宮町,オオイタケン,ヒタシ,ワカミヤマチ,大分県日田市若宮町
8770038,大分県,日田市,下井手町,オオイタケン,ヒタシ,シモイデマチ,大分県日田市下井手町
8770039,大分県,日田市,刃連町,オオイタケン,ヒタシ,ユキイマチ,大分県日田市刃連町
8770041,大分県,日田市,竹田新町,オオイタケン,ヒタシ,タケダシンマチ,大分県日田市竹田新町
8770042,大分県,日田市,東町,オオイタケン,ヒタシ,ヒガシマチ,大分県日田市東町
8770043,大分県,日田市,川原町,オオイタケン,ヒタシ,カワハラマチ,大分県日田市川原町
8770044,大分県,日田市,隈,オオイタケン,ヒタシ,クマ,大分県日田市隈
8770045,大分県,日田市,亀山町,オオイタケン,ヒタシ,キザンマチ,大分県日田市亀山町
8770046,大分県,日田市,本庄町,オオイタケン,ヒタシ,ホンジョウマチ,大分県日田市本庄町
8770047,大分県,日田市,中本町,オオイタケン,ヒタシ,ナカホンマチ,大分県日田市中本町
8770051,大分県,日田市,京町,オオイタケン,ヒタシ,キョウマチ,大分県日田市京町
8770052,大分県,日田市,銭渕町,オオイタケン,ヒタシ,ゼニブチマチ,大分県日田市銭渕町
8770053,大分県,日田市,高瀬本町,オオイタケン,ヒタシ,タカセホンマチ,大分県日田市高瀬本町
8770054,大分県,日田市,琴平町,オオイタケン,ヒタシ,コトヒラマチ,大分県日田市琴平町
8770055,大分県,日田市,大宮町,オオイタケン,ヒタシ,オオミヤマチ,大分県日田市大宮町
8770056,大分県,日田市,誠和町,オオイタケン,ヒタシ,セイワマチ,大分県日田市誠和町
8770057,大分県,日田市,八幡町,オオイタケン,ヒタシ,ヤハタマチ,大分県日田市八幡町
8770058,大分県,日田市,南部町,オオイタケン,ヒタシ,ナンブマチ,大分県日田市南部町
8770059,大分県,日田市,大日町,オオイタケン,ヒタシ,ダイニチマチ,大分県日田市大日町
8770061,大分県,日田市,石井,オオイタケン,ヒタシ,イシイ,大分県日田市石井
8770062,大分県,日田市,上野町,オオイタケン,ヒタシ,ウエノマチ,大分県日田市上野町
8770063,大分県,日田市,串川町,オオイタケン,ヒタシ,クシカワマチ,大分県日田市串川町
8770064,大分県,日田市,小山町,オオイタケン,ヒタシ,オヤママチ,大分県日田市小山町
8770065,大分県,日田市,緑町,オオイタケン,ヒタシ,ミドリマチ,大分県日田市緑町
8770066,大分県,日田市,川下,オオイタケン,ヒタシ,カワシタ,大分県日田市川下
8770067,大分県,日田市,高井町,オオイタケン,ヒタシ,タカイマチ,大分県日田市高井町
8770068,大分県,日田市,内河町,オオイタケン,ヒタシ,ウチカワマチ,大分県日田市内河町
8770071,大分県,日田市,玉川町,オオイタケン,ヒタシ,タマガワマチ,大分県日田市玉川町
8770072,大分県,日田市,新治町,オオイタケン,ヒタシ,ニイバルマチ,大分県日田市新治町
8770073,大分県,日田市,日ノ隈町,オオイタケン,ヒタシ,ヒノクママチ,大分県日田市日ノ隈町
8770074,大分県,日田市,中ノ島町,オオイタケン,ヒタシ,ナカノシママチ,大分県日田市中ノ島町
8770075,大分県,日田市,中釣町,オオイタケン,ヒタシ,ナカヅルマチ,大分県日田市中釣町
8770076,大分県,日田市,亀川町,オオイタケン,ヒタシ,カメガワマチ,大分県日田市亀川町
8770077,大分県,日田市,南友田町,オオイタケン,ヒタシ,ミナミトモダマチ,大分県日田市南友田町
8770078,大分県,日田市,北友田,オオイタケン,ヒタシ,キタトモダ,大分県日田市北友田
8770081,大分県,日田市,清岸寺町,オオイタケン,ヒタシ,セイガンジマチ,大分県日田市清岸寺町
8770082,大分県,日田市,日ノ出町,オオイタケン,ヒタシ,ヒノデマチ,大分県日田市日ノ出町
8770083,大分県,日田市,吹上町,オオイタケン,ヒタシ,フキアゲマチ,大分県日田市吹上町
8770084,大分県,日田市,朝日ケ丘,オオイタケン,ヒタシ,アサヒガオカ,大分県日田市朝日ケ丘
8770085,大分県,日田市,朝日町,オオイタケン,ヒタシ,アサヒマチ,大分県日田市朝日町
8770086,大分県,日田市,二串町,オオイタケン,ヒタシ,ニクシチョウ,大分県日田市二串町
8770087,大分県,日田市,君迫町,オオイタケン,ヒタシ,キミザコマチ,大分県日田市君迫町
8770088,大分県,日田市,小迫町,オオイタケン,ヒタシ,オザコマチ,大分県日田市小迫町
8770089,大分県,日田市,山田町,オオイタケン,ヒタシ,ヤマダマチ,大分県日田市山田町
8770111,大分県,日田市,天瀬町五馬市,オオイタケン,ヒタシ,アマガセマチイツマイチ,大分県日田市天瀬町五馬市
8770112,大分県,日田市,天瀬町本城,オオイタケン,ヒタシ,アマガセマチホンジョウ,大分県日田市天瀬町本城
8770113,大分県,日田市,天瀬町塚田,オオイタケン,ヒタシ,アマガセマチツカダ,大分県日田市天瀬町塚田
8770114,大分県,日田市,天瀬町出口,オオイタケン,ヒタシ,アマガセマチイデグチ,大分県日田市天瀬町出口
8770201,大分県,日田市,大山町西大山,オオイタケン,ヒタシ,オオヤママチニシオオヤマ,大分県日田市大山町西大山
8770202,大分県,日田市,大山町東大山,オオイタケン,ヒタシ,オオヤママチヒガシオオヤマ,大分県日田市大山町東大山
8770211,大分県,日田市,前津江町赤石,オオイタケン,ヒタシ,マエツエマチアカイシ,大分県日田市前津江町赤石
8770212,大分県,日田市,前津江町大野,オオイタケン,ヒタシ,マエツエマチオオノ,大分県日田市前津江町大野
8770221,大分県,日田市,前津江町柚木（その他）,オオイタケン,ヒタシ,マエツエマチユウギ(ソノタ),大分県日田市前津江町柚木（その他）
8770301,大分県,日田市,中津江村栃野,オオイタケン,ヒタシ,ナカツエムラトチノ,大分県日田市中津江村栃野
8770302,大分県,日田市,中津江村合瀬,オオイタケン,ヒタシ,ナカツエムラゴウセ,大分県日田市中津江村合瀬
8770311,大分県,日田市,上津江町川原,オオイタケン,ヒタシ,カミツエマチカワバル,大分県日田市上津江町川原
8770312,大分県,日田市,上津江町上野田,オオイタケン,ヒタシ,カミツエマチカミノダ,大分県日田市上津江町上野田
8771101,大分県,日田市,鶴城町,オオイタケン,ヒタシ,ツルギマチ,大分県日田市鶴城町
8771102,大分県,日田市,上宮町,オオイタケン,ヒタシ,ジョウグウマチ,大分県日田市上宮町
8771103,大分県,日田市,鶴河内町,オオイタケン,ヒタシ,ツルガワチマチ,大分県日田市鶴河内町
8771104,大分県,日田市,大鶴本町,オオイタケン,ヒタシ,オオツルホンマチ,大分県日田市大鶴本町
8771105,大分県,日田市,大肥町,オオイタケン,ヒタシ,オオヒマチ,大分県日田市大肥町
8771106,大分県,日田市,大肥本町,オオイタケン,ヒタシ,オオヒホンマチ,大分県日田市大肥本町
8771107,大分県,日田市,大鶴町,オオイタケン,ヒタシ,オオツルマチ,大分県日田市大鶴町
8771111,大分県,日田市,夜明上町,オオイタケン,ヒタシ,ヨアケカミマチ,大分県日田市夜明上町
8771112,大分県,日田市,夜明中町,オオイタケン,ヒタシ,ヨアケナカマチ,大分県日田市夜明中町
8771113,大分県,日田市,夜明関町,オオイタケン,ヒタシ,ヨアケセキマチ,大分県日田市夜明関町
8771121,大分県,日田市,源栄町（池ノ鶴、皿山）,オオイタケン,ヒタシ,モトエマチ(イケノツル、サラヤマ),大分県日田市源栄町（池ノ鶴、皿山）
8771221,大分県,日田市,伏木町,オオイタケン,ヒタシ,フシキマチ,大分県日田市伏木町
8771222,大分県,日田市,小河内町,オオイタケン,ヒタシ,オガワチマチ,大分県日田市小河内町
8771223,大分県,日田市,市ノ瀬町,オオイタケン,ヒタシ,イチノセマチ,大分県日田市市ノ瀬町
8771224,大分県,日田市,秋原町,オオイタケン,ヒタシ,アキバルマチ,大分県日田市秋原町
8771225,大分県,日田市,藤山町,オオイタケン,ヒタシ,フジヤママチ,大分県日田市藤山町
8771231,大分県,日田市,財津町,オオイタケン,ヒタシ,ザイツマチ,大分県日田市財津町
8771232,大分県,日田市,清水町,オオイタケン,ヒタシ,シミズマチ,大分県日田市清水町
8771233,大分県,日田市,三和団地,オオイタケン,ヒタシ,ミワダンチ,大分県日田市三和団地
8771234,大分県,日田市,天神町,オオイタケン,ヒタシ,テンジンマチ,大分県日田市天神町
8771241,大分県,日田市,源栄町（その他）,オオイタケン,ヒタシ,モトエマチ(ソノタ),大分県日田市源栄町（その他）
8771242,大分県,日田市,殿町,オオイタケン,ヒタシ,トノマチ,大分県日田市殿町
8771243,大分県,日田市,鈴連町,オオイタケン,ヒタシ,スズレマチ,大分県日田市鈴連町
8771244,大分県,日田市,三河町,オオイタケン,ヒタシ,ミカワマチ,大分県日田市三河町
8771351,大分県,日田市,三ノ宮町,オオイタケン,ヒタシ,サンノミヤマチ,大分県日田市三ノ宮町
8771352,大分県,日田市,石松町,オオイタケン,ヒタシ,イシマツマチ,大分県日田市石松町
8771353,大分県,日田市,上手町,オオイタケン,ヒタシ,ノボテマチ,大分県日田市上手町
8771354,大分県,日田市,坂井町,オオイタケン,ヒタシ,サカイマチ,大分県日田市坂井町
8771361,大分県,日田市,有田町,オオイタケン,ヒタシ,アリタマチ,大分県日田市有田町
8771362,大分県,日田市,尾当町,オオイタケン,ヒタシ,オトウマチ,大分県日田市尾当町
8771363,大分県,日田市,中尾町,オオイタケン,ヒタシ,ナカオマチ,大分県日田市中尾町
8771364,大分県,日田市,三池町,オオイタケン,ヒタシ,ミイケマチ,大分県日田市三池町
8771365,大分県,日田市,水目町,オオイタケン,ヒタシ,ミズメマチ,大分県日田市水目町
8771366,大分県,日田市,あやめ台,オオイタケン,ヒタシ,アヤメダイ,大分県日田市あやめ台
8771371,大分県,日田市,諸留町,オオイタケン,ヒタシ,モロドメマチ,大分県日田市諸留町
8771372,大分県,日田市,上諸留町,オオイタケン,ヒタシ,カミモロドメマチ,大分県日田市上諸留町
8771373,大分県,日田市,月出町,オオイタケン,ヒタシ,ツキデマチ,大分県日田市月出町
8771374,大分県,日田市,松野町,オオイタケン,ヒタシ,マツノマチ,大分県日田市松野町
8771375,大分県,日田市,池辺町,オオイタケン,ヒタシ,イケベマチ,大分県日田市池辺町
8771381,大分県,日田市,東羽田町,オオイタケン,ヒタシ,ヒガシハタマチ,大分県日田市東羽田町
8771382,大分県,日田市,日の本町,オオイタケン,ヒタシ,ヒノモトマチ,大分県日田市日の本町
8771383,大分県,日田市,岩美町,オオイタケン,ヒタシ,イワミマチ,大分県日田市岩美町
8771384,大分県,日田市,羽田町,オオイタケン,ヒタシ,ハタマチ,大分県日田市羽田町
8780000,大分県,竹田市,,オオイタケン,タケタシ,,大分県竹田市
8780001,大分県,竹田市,植木,オオイタケン,タケタシ,ウエキ,大分県竹田市植木
8780002,大分県,竹田市,枝,オオイタケン,タケタシ,エダ,大分県竹田市枝
8780003,大分県,竹田市,片ケ瀬,オオイタケン,タケタシ,カタカセ,大分県竹田市片ケ瀬
8780004,大分県,竹田市,中,オオイタケン,タケタシ,ナカ,大分県竹田市中
8780005,大分県,竹田市,挾田,オオイタケン,タケタシ,ハサダ,大分県竹田市挾田
8780006,大分県,竹田市,平田,オオイタケン,タケタシ,ヒラタ,大分県竹田市平田
8780007,大分県,竹田市,三宅,オオイタケン,タケタシ,ミヤケ,大分県竹田市三宅
8780011,大分県,竹田市,会々,オオイタケン,タケタシ,アイアイ,大分県竹田市会々
8780012,大分県,竹田市,竹田町,オオイタケン,タケタシ,タケタマチ,大分県竹田市竹田町
8780013,大分県,竹田市,竹田,オオイタケン,タケタシ,タケタ,大分県竹田市竹田
8780021,大分県,竹田市,穴井迫,オオイタケン,タケタシ,アナイザコ,大分県竹田市穴井迫
8780022,大分県,竹田市,岩瀬,オオイタケン,タケタシ,イワセ,大分県竹田市岩瀬
8780023,大分県,竹田市,君ケ園,オオイタケン,タケタシ,キミガソノ,大分県竹田市君ケ園
8780024,大分県,竹田市,玉来,オオイタケン,タケタシ,タマライ,大分県竹田市玉来
8780025,大分県,竹田市,拝田原,オオイタケン,タケタシ,ハイタバル,大分県竹田市拝田原
8780026,大分県,竹田市,飛田川,オオイタケン,タケタシ,ヒダガワ,大分県竹田市飛田川
8780027,大分県,竹田市,向山田,オオイタケン,タケタシ,ムコウヤマダ,大分県竹田市向山田
8780028,大分県,竹田市,渡瀬,オオイタケン,タケタシ,ワタセ,大分県竹田市渡瀬
8780031,大分県,竹田市,岩本,オオイタケン,タケタシ,イワモト,大分県竹田市岩本
8780032,大分県,竹田市,太田,オオイタケン,タケタシ,オオタ,大分県竹田市太田
8780033,大分県,竹田市,入田,オオイタケン,タケタシ,ニュウタ,大分県竹田市入田
8780034,大分県,竹田市,門田,オオイタケン,タケタシ,モンデン,大分県竹田市門田
8780035,大分県,竹田市,吉田,オオイタケン,タケタシ,ヨシダ,大分県竹田市吉田
8780141,大分県,竹田市,小川,オオイタケン,タケタシ,オガワ,大分県竹田市小川
8780142,大分県,竹田市,福原,オオイタケン,タケタシ,フクハラ,大分県竹田市福原
8780143,大分県,竹田市,城原,オオイタケン,タケタシ,キバル,大分県竹田市城原
8780144,大分県,竹田市,高伏,オオイタケン,タケタシ,タカブシ,大分県竹田市高伏
8780145,大分県,竹田市,米納,オオイタケン,タケタシ,ヨナイ,大分県竹田市米納
8780146,大分県,竹田市,古園,オオイタケン,タケタシ,フルゾノ,大分県竹田市古園
8780151,大分県,竹田市,下坂田,オオイタケン,タケタシ,シモサカダ,大分県竹田市下坂田
8780152,大分県,竹田市,下志土知,オオイタケン,タケタシ,シモシトチ,大分県竹田市下志土知
8780153,大分県,竹田市,市用,オオイタケン,タケタシ,イチモチ,大分県竹田市市用
8780154,大分県,竹田市,川床,オオイタケン,タケタシ,カワドコ,大分県竹田市川床
8780155,大分県,竹田市,志土知,オオイタケン,タケタシ,シトチ,大分県竹田市志土知
8780156,大分県,竹田市,久保（その他）,オオイタケン,タケタシ,クボ(ソノタ),大分県竹田市久保（その他）
8780161,大分県,竹田市,上坂田,オオイタケン,タケタシ,カミサカダ,大分県竹田市上坂田
8780162,大分県,竹田市,炭竈,オオイタケン,タケタシ,スミカマド,大分県竹田市炭竈
8780163,大分県,竹田市,上畑,オオイタケン,タケタシ,カミハタ,大分県竹田市上畑
8780164,大分県,竹田市,刈小野,オオイタケン,タケタシ,カリオノ,大分県竹田市刈小野
8780201,大分県,竹田市,久住町久住,オオイタケン,タケタシ,クジュウマチクジュウ,大分県竹田市久住町久住
8780202,大分県,竹田市,久住町有氏,オオイタケン,タケタシ,クジュウマチアリウジ,大分県竹田市久住町有氏
8780203,大分県,竹田市,久住町仏原,オオイタケン,タケタシ,クジュウマチブツバル,大分県竹田市久住町仏原
8780204,大分県,竹田市,久住町栢木,オオイタケン,タケタシ,クジュウマチカヤギ,大分県竹田市久住町栢木
8780205,大分県,竹田市,久住町白丹,オオイタケン,タケタシ,クジュウマチシラニ,大分県竹田市久住町白丹
8780206,大分県,竹田市,久住町添ケ津留,オオイタケン,タケタシ,クジュウマチソエガツル,大分県竹田市久住町添ケ津留
8780256,大分県,竹田市,久保（１４４９番地）,オオイタケン,タケタシ,クボ(1449バンチ),大分県竹田市久保（1449-）
8780401,大分県,竹田市,直入町神堤,オオイタケン,タケタシ,ナオイリマチカミツツミ,大分県竹田市直入町神堤
8780402,大分県,竹田市,直入町長湯,オオイタケン,タケタシ,ナオイリマチナガユ,大分県竹田市直入町長湯
8780403,大分県,竹田市,直入町上田北,オオイタケン,タケタシ,ナオイリマチカミタギタ,大分県竹田市直入町上田北
8780404,大分県,竹田市,直入町下田北,オオイタケン,タケタシ,ナオイリマチシモタギタ,大分県竹田市直入町下田北
8780571,大分県,竹田市,次倉,オオイタケン,タケタシ,ツギクラ,大分県竹田市次倉
8780572,大分県,竹田市,九重野,オオイタケン,タケタシ,クジュウノ,大分県竹田市九重野
8780573,大分県,竹田市,中角,オオイタケン,タケタシ,ナカツノ,大分県竹田市中角
8780574,大分県,竹田市,神原,オオイタケン,タケタシ,コウバル,大分県竹田市神原
8780575,大分県,竹田市,田井,オオイタケン,タケタシ,タイ,大分県竹田市田井
8780576,大分県,竹田市,倉木,オオイタケン,タケタシ,クラキ,大分県竹田市倉木
8790101,大分県,中津市,今津,オオイタケン,ナカツシ,イマヅ,大分県中津市今津
8790102,大分県,中津市,鍋島,オオイタケン,ナカツシ,ナベシマ,大分県中津市鍋島
8790103,大分県,中津市,植野,オオイタケン,ナカツシ,ウエノ,大分県中津市植野
8790104,大分県,中津市,野依,オオイタケン,ナカツシ,ノヨリ,大分県中津市野依
8790105,大分県,中津市,犬丸,オオイタケン,ナカツシ,イヌマル,大分県中津市犬丸
8790106,大分県,中津市,赤迫,オオイタケン,ナカツシ,アカサコ,大分県中津市赤迫
8790107,大分県,中津市,昭和新田,オオイタケン,ナカツシ,ショウワシンデン,大分県中津市昭和新田
8790111,大分県,中津市,伊藤田,オオイタケン,ナカツシ,イドウダ,大分県中津市伊藤田
8790112,大分県,中津市,福島,オオイタケン,ナカツシ,フクシマ,大分県中津市福島
8790113,大分県,中津市,北原,オオイタケン,ナカツシ,キタバル,大分県中津市北原
8790121,大分県,中津市,諸田,オオイタケン,ナカツシ,モロタ,大分県中津市諸田
8790122,大分県,中津市,定留,オオイタケン,ナカツシ,サダノミ,大分県中津市定留
8790123,大分県,中津市,田尻,オオイタケン,ナカツシ,タジリ,大分県中津市田尻
8790124,大分県,中津市,田尻崎,オオイタケン,ナカツシ,タジリザキ,大分県中津市田尻崎
8790151,大分県,宇佐市,宮熊,オオイタケン,ウサシ,ミヤグマ,大分県宇佐市宮熊
8790152,大分県,宇佐市,下庄,オオイタケン,ウサシ,シモショウ,大分県宇佐市下庄
8790153,大分県,宇佐市,上庄,オオイタケン,ウサシ,カミショウ,大分県宇佐市上庄
8790161,大分県,宇佐市,下敷田,オオイタケン,ウサシ,シモシキダ,大分県宇佐市下敷田
8790162,大分県,宇佐市,中敷田,オオイタケン,ウサシ,ナカシキダ,大分県宇佐市中敷田
8790163,大分県,宇佐市,上敷田,オオイタケン,ウサシ,カミシキダ,大分県宇佐市上敷田
8790164,大分県,宇佐市,富山,オオイタケン,ウサシ,トミヤマ,大分県宇佐市富山
8790221,大分県,中津市,三光上秣,オオイタケン,ナカツシ,サンコウカミマクサ,大分県中津市三光上秣
8790222,大分県,中津市,三光西秣,オオイタケン,ナカツシ,サンコウニシマクサ,大分県中津市三光西秣
8790223,大分県,中津市,三光下秣,オオイタケン,ナカツシ,サンコウシモマクサ,大分県中津市三光下秣
8790224,大分県,中津市,三光下深水,オオイタケン,ナカツシ,サンコウシモフコウズ,大分県中津市三光下深水
8790225,大分県,中津市,三光上深水,オオイタケン,ナカツシ,サンコウカミフコウズ,大分県中津市三光上深水
8790231,大分県,宇佐市,南敷田,オオイタケン,ウサシ,ミナミシキダ,大分県宇佐市南敷田
8790232,大分県,宇佐市,大根川,オオイタケン,ウサシ,オオネガワ,大分県宇佐市大根川
8790233,大分県,宇佐市,赤尾,オオイタケン,ウサシ,アカオ,大分県宇佐市赤尾
8790234,大分県,宇佐市,今仁,オオイタケン,ウサシ,イマニ,大分県宇佐市今仁
8790235,大分県,宇佐市,木部,オオイタケン,ウサシ,キベ,大分県宇佐市木部
8790236,大分県,宇佐市,清水,オオイタケン,ウサシ,シミズ,大分県宇佐市清水
8790237,大分県,宇佐市,佐野,オオイタケン,ウサシ,サノ,大分県宇佐市佐野
8790301,大分県,宇佐市,乙女新田,オオイタケン,ウサシ,オトメシンデン,大分県宇佐市乙女新田
8790302,大分県,宇佐市,下乙女,オオイタケン,ウサシ,シモオトメ,大分県宇佐市下乙女
8790303,大分県,宇佐市,上乙女,オオイタケン,ウサシ,カミオトメ,大分県宇佐市上乙女
8790304,大分県,宇佐市,尾永井,オオイタケン,ウサシ,オナガイ,大分県宇佐市尾永井
8790305,大分県,宇佐市,上高家,オオイタケン,ウサシ,カミタケイ,大分県宇佐市上高家
8790306,大分県,宇佐市,西高家,オオイタケン,ウサシ,ニシタケイ,大分県宇佐市西高家
8790307,大分県,宇佐市,浜高家,オオイタケン,ウサシ,ハマタケイ,大分県宇佐市浜高家
8790308,大分県,宇佐市,下高家,オオイタケン,ウサシ,シモタケイ,大分県宇佐市下高家
8790309,大分県,宇佐市,東高家,オオイタケン,ウサシ,ヒガシタケイ,大分県宇佐市東高家
8790311,大分県,宇佐市,森山,オオイタケン,ウサシ,モリヤマ,大分県宇佐市森山
8790312,大分県,宇佐市,荒木,オオイタケン,ウサシ,アラキ,大分県宇佐市荒木
8790313,大分県,宇佐市,上高,オオイタケン,ウサシ,カミタカ,大分県宇佐市上高
8790314,大分県,宇佐市,猿渡,オオイタケン,ウサシ,サルワタリ,大分県宇佐市猿渡
8790315,大分県,宇佐市,上時枝,オオイタケン,ウサシ,カミトキエダ,大分県宇佐市上時枝
8790316,大分県,宇佐市,下時枝,オオイタケン,ウサシ,シモトキエダ,大分県宇佐市下時枝
8790317,大分県,宇佐市,下高,オオイタケン,ウサシ,シモタカ,大分県宇佐市下高
8790441,大分県,宇佐市,吉松,オオイタケン,ウサシ,ヨシマツ,大分県宇佐市吉松
8790442,大分県,宇佐市,城井,オオイタケン,ウサシ,ジョウイ,大分県宇佐市城井
8790443,大分県,宇佐市,葛原,オオイタケン,ウサシ,クズハラ,大分県宇佐市葛原
8790444,大分県,宇佐市,石田,オオイタケン,ウサシ,イシダ,大分県宇佐市石田
8790451,大分県,宇佐市,畑田,オオイタケン,ウサシ,ハタケダ,大分県宇佐市畑田
8790452,大分県,宇佐市,川部,オオイタケン,ウサシ,カワベ,大分県宇佐市川部
8790453,大分県,宇佐市,上田,オオイタケン,ウサシ,ウエダ,大分県宇佐市上田
8790454,大分県,宇佐市,法鏡寺,オオイタケン,ウサシ,ホウキョウジ,大分県宇佐市法鏡寺
8790455,大分県,宇佐市,閤,オオイタケン,ウサシ,ゴウ,大分県宇佐市閤
8790456,大分県,宇佐市,辛島,オオイタケン,ウサシ,カラシマ,大分県宇佐市辛島
8790457,大分県,宇佐市,芝原,オオイタケン,ウサシ,シバハラ,大分県宇佐市芝原
8790461,大分県,宇佐市,樋田,オオイタケン,ウサシ,ヒダ,大分県宇佐市樋田
8790462,大分県,宇佐市,別府,オオイタケン,ウサシ,ビュウ,大分県宇佐市別府
8790463,大分県,宇佐市,中原,オオイタケン,ウサシ,ナカハル,大分県宇佐市中原
8790464,大分県,宇佐市,大塚,オオイタケン,ウサシ,オオツカ,大分県宇佐市大塚
8790465,大分県,宇佐市,下拝田,オオイタケン,ウサシ,シモハイタ,大分県宇佐市下拝田
8790466,大分県,宇佐市,上拝田（その他）,オオイタケン,ウサシ,カミハイタ(ソノタ),大分県宇佐市上拝田（その他）
8790467,大分県,宇佐市,山本,オオイタケン,ウサシ,ヤマモト,大分県宇佐市山本
8790471,大分県,宇佐市,四日市,オオイタケン,ウサシ,ヨッカイチ,大分県宇佐市四日市
8790472,大分県,宇佐市,上元重,オオイタケン,ウサシ,カミモトシゲ,大分県宇佐市上元重
8790473,大分県,宇佐市,下元重,オオイタケン,ウサシ,シモモトシゲ,大分県宇佐市下元重
8790474,大分県,宇佐市,山下,オオイタケン,ウサシ,ヤマシタ,大分県宇佐市山下
8790501,大分県,宇佐市,麻生,オオイタケン,ウサシ,アソウ,大分県宇佐市麻生
8790502,大分県,宇佐市,岳ノ首,オオイタケン,ウサシ,タケノクビ,大分県宇佐市岳ノ首
8790503,大分県,宇佐市,灘,オオイタケン,ウサシ,ナダ,大分県宇佐市灘
8790504,大分県,宇佐市,山口,オオイタケン,ウサシ,ヤマグチ,大分県宇佐市山口
8790511,大分県,宇佐市,山袋,オオイタケン,ウサシ,ヤマブクロ,大分県宇佐市山袋
8790512,大分県,宇佐市,黒,オオイタケン,ウサシ,クロ,大分県宇佐市黒
8790513,大分県,宇佐市,中,オオイタケン,ウサシ,ナカ,大分県宇佐市中
8790514,大分県,宇佐市,今成,オオイタケン,ウサシ,イマナリ,大分県宇佐市今成
8790515,大分県,宇佐市,末,オオイタケン,ウサシ,スエ,大分県宇佐市末
8790516,大分県,宇佐市,木内,オオイタケン,ウサシ,キノウチ,大分県宇佐市木内
8790600,大分県,豊後高田市,,オオイタケン,ブンゴタカダシ,,大分県豊後高田市
8790601,大分県,豊後高田市,草地,オオイタケン,ブンゴタカダシ,クサジ,大分県豊後高田市草地
8790602,大分県,豊後高田市,払田,オオイタケン,ブンゴタカダシ,ハライダ,大分県豊後高田市払田
8790603,大分県,豊後高田市,鼎,オオイタケン,ブンゴタカダシ,カナエ,大分県豊後高田市鼎
8790604,大分県,豊後高田市,美和,オオイタケン,ブンゴタカダシ,ミワ,大分県豊後高田市美和
8790605,大分県,豊後高田市,御玉,オオイタケン,ブンゴタカダシ,オダマ,大分県豊後高田市御玉
8790606,大分県,豊後高田市,玉津,オオイタケン,ブンゴタカダシ,タマツ,大分県豊後高田市玉津
8790607,大分県,豊後高田市,新栄,オオイタケン,ブンゴタカダシ,シンエイ,大分県豊後高田市新栄
8790608,大分県,豊後高田市,呉崎,オオイタケン,ブンゴタカダシ,クレサキ,大分県豊後高田市呉崎
8790609,大分県,豊後高田市,城台,オオイタケン,ブンゴタカダシ,ジョウダイ,大分県豊後高田市城台
8790611,大分県,豊後高田市,森,オオイタケン,ブンゴタカダシ,モリ,大分県豊後高田市森
8790612,大分県,豊後高田市,佐野,オオイタケン,ブンゴタカダシ,サノ,大分県豊後高田市佐野
8790613,大分県,豊後高田市,小田原,オオイタケン,ブンゴタカダシ,コダワラ,大分県豊後高田市小田原
8790614,大分県,豊後高田市,来縄,オオイタケン,ブンゴタカダシ,クナワ,大分県豊後高田市来縄
8790615,大分県,豊後高田市,界,オオイタケン,ブンゴタカダシ,サカイ,大分県豊後高田市界
8790616,大分県,豊後高田市,水崎,オオイタケン,ブンゴタカダシ,ミズサキ,大分県豊後高田市水崎
8790617,大分県,豊後高田市,高田,オオイタケン,ブンゴタカダシ,タカダ,大分県豊後高田市高田
8790618,大分県,豊後高田市,中央通,オオイタケン,ブンゴタカダシ,チュウオウドオリ,大分県豊後高田市中央通
8790619,大分県,豊後高田市,浜町,オオイタケン,ブンゴタカダシ,ハママチ,大分県豊後高田市浜町
8790621,大分県,豊後高田市,是永町,オオイタケン,ブンゴタカダシ,コレナガマチ,大分県豊後高田市是永町
8790622,大分県,豊後高田市,鍛治屋町,オオイタケン,ブンゴタカダシ,カジヤマチ,大分県豊後高田市鍛治屋町
8790623,大分県,豊後高田市,金谷町,オオイタケン,ブンゴタカダシ,カナヤマチ,大分県豊後高田市金谷町
8790624,大分県,豊後高田市,本町,オオイタケン,ブンゴタカダシ,ホンマチ,大分県豊後高田市本町
8790625,大分県,豊後高田市,水取,オオイタケン,ブンゴタカダシ,ミズトリ,大分県豊後高田市水取
8790626,大分県,豊後高田市,今町,オオイタケン,ブンゴタカダシ,イママチ,大分県豊後高田市今町
8790627,大分県,豊後高田市,新地,オオイタケン,ブンゴタカダシ,シンチ,大分県豊後高田市新地
8790628,大分県,豊後高田市,新町,オオイタケン,ブンゴタカダシ,シンマチ,大分県豊後高田市新町
8790721,大分県,豊後高田市,加礼川,オオイタケン,ブンゴタカダシ,カレガワ,大分県豊後高田市加礼川
8790722,大分県,豊後高田市,一畑,オオイタケン,ブンゴタカダシ,イチハタ,大分県豊後高田市一畑
8790723,大分県,豊後高田市,梅ノ木,オオイタケン,ブンゴタカダシ,ウメノキ,大分県豊後高田市梅ノ木
8790724,大分県,豊後高田市,新城,オオイタケン,ブンゴタカダシ,シンジョウ,大分県豊後高田市新城
8790731,大分県,豊後高田市,長岩屋,オオイタケン,ブンゴタカダシ,ナガイワヤ,大分県豊後高田市長岩屋
8790732,大分県,豊後高田市,大力,オオイタケン,ブンゴタカダシ,ダイリキ,大分県豊後高田市大力
8790733,大分県,豊後高田市,荒尾,オオイタケン,ブンゴタカダシ,アラオ,大分県豊後高田市荒尾
8790734,大分県,豊後高田市,築地,オオイタケン,ブンゴタカダシ,ツイジ,大分県豊後高田市築地
8790735,大分県,豊後高田市,松行,オオイタケン,ブンゴタカダシ,マツユキ,大分県豊後高田市松行
8790841,大分県,豊後高田市,田染蕗,オオイタケン,ブンゴタカダシ,タシブフキ,大分県豊後高田市田染蕗
8790842,大分県,豊後高田市,田染池部,オオイタケン,ブンゴタカダシ,タシブイケベ,大分県豊後高田市田染池部
8790843,大分県,豊後高田市,田染相原,オオイタケン,ブンゴタカダシ,タシブアイワラ,大分県豊後高田市田染相原
8790844,大分県,豊後高田市,田染上野,オオイタケン,ブンゴタカダシ,タシブウエノ,大分県豊後高田市田染上野
8790851,大分県,豊後高田市,田染横嶺,オオイタケン,ブンゴタカダシ,タシブヨコミネ,大分県豊後高田市田染横嶺
8790852,大分県,豊後高田市,田染真中,オオイタケン,ブンゴタカダシ,タシブマナカ,大分県豊後高田市田染真中
8790853,大分県,豊後高田市,田染平野,オオイタケン,ブンゴタカダシ,タシブヒラノ,大分県豊後高田市田染平野
8790854,大分県,豊後高田市,田染小崎,オオイタケン,ブンゴタカダシ,タシブオサキ,大分県豊後高田市田染小崎
8790855,大分県,豊後高田市,田染真木,オオイタケン,ブンゴタカダシ,タシブマキ,大分県豊後高田市田染真木
8790901,大分県,杵築市,大田石丸,オオイタケン,キツキシ,オオタイシマル,大分県杵築市大田石丸
8790902,大分県,杵築市,大田沓掛,オオイタケン,キツキシ,オオタクツカケ,大分県杵築市大田沓掛
8790903,大分県,杵築市,大田永松,オオイタケン,キツキシ,オオタナガマツ,大分県杵築市大田永松
8790904,大分県,杵築市,大田小野,オオイタケン,キツキシ,オオタオノ,大分県杵築市大田小野
8790911,大分県,杵築市,大田波多方,オオイタケン,キツキシ,オオタハダカタ,大分県杵築市大田波多方
8790912,大分県,杵築市,大田白木原,オオイタケン,キツキシ,オオタシラキハラ,大分県杵築市大田白木原
8790941,大分県,杵築市,大田俣水（その他）,オオイタケン,キツキシ,オオタマタミズ(ソノタ),大分県杵築市大田俣水（その他）
8791121,大分県,宇佐市,東大堀,オオイタケン,ウサシ,ヒガシオオボリ,大分県宇佐市東大堀
8791122,大分県,宇佐市,横田,オオイタケン,ウサシ,ヨコタ,大分県宇佐市横田
8791123,大分県,宇佐市,立石,オオイタケン,ウサシ,タテイシ,大分県宇佐市立石
8791124,大分県,宇佐市,山,オオイタケン,ウサシ,ヤマ,大分県宇佐市山
8791125,大分県,宇佐市,両戒,オオイタケン,ウサシ,リョウカイ,大分県宇佐市両戒
8791126,大分県,宇佐市,江熊,オオイタケン,ウサシ,エグマ,大分県宇佐市江熊
8791127,大分県,宇佐市,西屋敷,オオイタケン,ウサシ,ニシヤシキ,大分県宇佐市西屋敷
8791128,大分県,宇佐市,金丸,オオイタケン,ウサシ,カナマル,大分県宇佐市金丸
8791131,大分県,宇佐市,出光,オオイタケン,ウサシ,イデミツ,大分県宇佐市出光
8791132,大分県,宇佐市,岩崎,オオイタケン,ウサシ,イワサキ,大分県宇佐市岩崎
8791133,大分県,宇佐市,日足,オオイタケン,ウサシ,ヒアシ,大分県宇佐市日足
8791134,大分県,宇佐市,橋津,オオイタケン,ウサシ,ハシヅ,大分県宇佐市橋津
8791135,大分県,宇佐市,和気,オオイタケン,ウサシ,ワキ,大分県宇佐市和気
8791136,大分県,宇佐市,西木,オオイタケン,ウサシ,サイギ,大分県宇佐市西木
8791137,大分県,宇佐市,苅宇田,オオイタケン,ウサシ,カリウダ,大分県宇佐市苅宇田
8791138,大分県,宇佐市,青森,オオイタケン,ウサシ,アオモリ,大分県宇佐市青森
8791301,大分県,杵築市,山香町向野,オオイタケン,キツキシ,ヤマガマチムクノ,大分県杵築市山香町向野
8791302,大分県,杵築市,山香町立石,オオイタケン,キツキシ,ヤマガマチタテイシ,大分県杵築市山香町立石
8791303,大分県,杵築市,山香町下,オオイタケン,キツキシ,ヤマガマチシモ,大分県杵築市山香町下
8791304,大分県,杵築市,山香町小武,オオイタケン,キツキシ,ヤマガマチオダケ,大分県杵築市山香町小武
8791305,大分県,杵築市,山香町倉成,オオイタケン,キツキシ,ヤマガマチクラナリ,大分県杵築市山香町倉成
8791306,大分県,杵築市,山香町広瀬,オオイタケン,キツキシ,ヤマガマチヒロセ,大分県杵築市山香町広瀬
8791307,大分県,杵築市,山香町野原,オオイタケン,キツキシ,ヤマガマチノハル,大分県杵築市山香町野原
8791311,大分県,杵築市,山香町内河野,オオイタケン,キツキシ,ヤマガマチウチガワノ,大分県杵築市山香町内河野
8791312,大分県,杵築市,山香町日指,オオイタケン,キツキシ,ヤマガマチヒサシ,大分県杵築市山香町日指
8791313,大分県,杵築市,山香町久木野尾,オオイタケン,キツキシ,ヤマガマチクギノオ,大分県杵築市山香町久木野尾
8791314,大分県,杵築市,山香町南畑,オオイタケン,キツキシ,ヤマガマチミナミハタ,大分県杵築市山香町南畑
8791315,大分県,杵築市,山香町山浦,オオイタケン,キツキシ,ヤマガマチヤマウラ,大分県杵築市山香町山浦
8791316,大分県,杵築市,山香町吉野渡,オオイタケン,キツキシ,ヤマガマチヨシノワタリ,大分県杵築市山香町吉野渡
8791500,大分県,速見郡日出町,,オオイタケン,ハヤミグンヒジマチ,,大分県速見郡日出町
8791501,大分県,速見郡日出町,広瀬,オオイタケン,ハヤミグンヒジマチ,ヒロセ,大分県速見郡日出町広瀬
8791502,大分県,速見郡日出町,藤原,オオイタケン,ハヤミグンヒジマチ,フジワラ,大分県速見郡日出町藤原
8791503,大分県,速見郡日出町,真那井,オオイタケン,ハヤミグンヒジマチ,マナイ,大分県速見郡日出町真那井
8791504,大分県,速見郡日出町,大神,オオイタケン,ハヤミグンヒジマチ,オオガ,大分県速見郡日出町大神
8791505,大分県,速見郡日出町,川崎,オオイタケン,ハヤミグンヒジマチ,カワサキ,大分県速見郡日出町川崎
8791506,大分県,速見郡日出町,,オオイタケン,ハヤミグンヒジマチ,,大分県速見郡日出町
8791507,大分県,速見郡日出町,豊岡,オオイタケン,ハヤミグンヒジマチ,トヨオカ,大分県速見郡日出町豊岡
8791508,大分県,速見郡日出町,平道,オオイタケン,ハヤミグンヒジマチ,ヒラミチ,大分県速見郡日出町平道
8791509,大分県,速見郡日出町,南畑,オオイタケン,ハヤミグンヒジマチ,ミナミハタ,大分県速見郡日出町南畑
8792111,大分県,大分市,本神崎,オオイタケン,オオイタシ,ホンコウザキ,大分県大分市本神崎
8792112,大分県,大分市,馬場,オオイタケン,オオイタシ,ババ,大分県大分市馬場
8792113,大分県,大分市,木佐上,オオイタケン,オオイタシ,キサガミ,大分県大分市木佐上
8792114,大分県,大分市,大平,オオイタケン,オオイタシ,オオヒラ,大分県大分市大平
8792115,大分県,大分市,志生木,オオイタケン,オオイタシ,シュウキ,大分県大分市志生木
8792201,大分県,大分市,佐賀関,オオイタケン,オオイタシ,サガノセキ,大分県大分市佐賀関
8792202,大分県,大分市,白木,オオイタケン,オオイタシ,シラキ,大分県大分市白木
8792203,大分県,大分市,一尺屋,オオイタケン,オオイタシ,イッシャクヤ,大分県大分市一尺屋
8792400,大分県,津久見市,,オオイタケン,ツクミシ,,大分県津久見市
8792401,大分県,津久見市,千怒,オオイタケン,ツクミシ,チヌ,大分県津久見市千怒
8792411,大分県,津久見市,岩屋町,オオイタケン,ツクミシ,イワヤマチ,大分県津久見市岩屋町
8792412,大分県,津久見市,高洲町,オオイタケン,ツクミシ,タカスマチ,大分県津久見市高洲町
8792413,大分県,津久見市,津久見浦,オオイタケン,ツクミシ,ツクミウラ,大分県津久見市津久見浦
8792421,大分県,津久見市,津久見,オオイタケン,ツクミシ,ツクミ,大分県津久見市津久見
8792422,大分県,津久見市,八戸,オオイタケン,ツクミシ,ヤト,大分県津久見市八戸
8792431,大分県,津久見市,大友町,オオイタケン,ツクミシ,オオトモマチ,大分県津久見市大友町
8792432,大分県,津久見市,文京町,オオイタケン,ツクミシ,ブンキョウマチ,大分県津久見市文京町
8792433,大分県,津久見市,中田町,オオイタケン,ツクミシ,ナカダマチ,大分県津久見市中田町
8792434,大分県,津久見市,立花町,オオイタケン,ツクミシ,タチバナマチ,大分県津久見市立花町
8792435,大分県,津久見市,宮本町,オオイタケン,ツクミシ,ミヤモトマチ,大分県津久見市宮本町
8792436,大分県,津久見市,上宮本町,オオイタケン,ツクミシ,カミミヤモトマチ,大分県津久見市上宮本町
8792441,大分県,津久見市,中央町,オオイタケン,ツクミシ,チュウオウマチ,大分県津久見市中央町
8792442,大分県,津久見市,港町,オオイタケン,ツクミシ,ミナトマチ,大分県津久見市港町
8792443,大分県,津久見市,セメント町,オオイタケン,ツクミシ,セメントマチ,大分県津久見市セメント町
8792444,大分県,津久見市,元町,オオイタケン,ツクミシ,モトマチ,大分県津久見市元町
8792445,大分県,津久見市,井無田町,オオイタケン,ツクミシ,イムタマチ,大分県津久見市井無田町
8792446,大分県,津久見市,下青江,オオイタケン,ツクミシ,シモアオエ,大分県津久見市下青江
8792451,大分県,津久見市,新町,オオイタケン,ツクミシ,シンマチ,大分県津久見市新町
8792452,大分県,津久見市,中町,オオイタケン,ツクミシ,ナカマチ,大分県津久見市中町
8792453,大分県,津久見市,小園町,オオイタケン,ツクミシ,コゾノマチ,大分県津久見市小園町
8792454,大分県,津久見市,地蔵町,オオイタケン,ツクミシ,ジゾウマチ,大分県津久見市地蔵町
8792455,大分県,津久見市,岡町,オオイタケン,ツクミシ,オカマチ,大分県津久見市岡町
8792456,大分県,津久見市,門前町,オオイタケン,ツクミシ,モンゼンマチ,大分県津久見市門前町
8792457,大分県,津久見市,志手町,オオイタケン,ツクミシ,シテマチ,大分県津久見市志手町
8792458,大分県,津久見市,入船西町,オオイタケン,ツクミシ,イリフネニシマチ,大分県津久見市入船西町
8792459,大分県,津久見市,入船東町,オオイタケン,ツクミシ,イリフネヒガシマチ,大分県津久見市入船東町
8792461,大分県,津久見市,上青江,オオイタケン,ツクミシ,カミアオエ,大分県津久見市上青江
8792471,大分県,津久見市,合ノ元町,オオイタケン,ツクミシ,ゴウノモトマチ,大分県津久見市合ノ元町
8792472,大分県,津久見市,徳浦本町,オオイタケン,ツクミシ,トクウラホンマチ,大分県津久見市徳浦本町
8792473,大分県,津久見市,徳浦宮町,オオイタケン,ツクミシ,トクウラミヤマチ,大分県津久見市徳浦宮町
8792474,大分県,津久見市,徳浦,オオイタケン,ツクミシ,トクウラ,大分県津久見市徳浦
8792475,大分県,津久見市,堅浦,オオイタケン,ツクミシ,カタウラ,大分県津久見市堅浦
8792476,大分県,津久見市,長目,オオイタケン,ツクミシ,ナガメ,大分県津久見市長目
8792501,大分県,津久見市,保戸島,オオイタケン,ツクミシ,ホトジマ,大分県津久見市保戸島
8792601,大分県,佐伯市,上浦浅海井浦,オオイタケン,サイキシ,カミウラアザムイウラ,大分県佐伯市上浦浅海井浦
8792602,大分県,佐伯市,上浦津井浦,オオイタケン,サイキシ,カミウラツイウラ,大分県佐伯市上浦津井浦
8792603,大分県,佐伯市,上浦最勝海浦,オオイタケン,サイキシ,カミウラニイナメウラ,大分県佐伯市上浦最勝海浦
8792681,大分県,津久見市,日見,オオイタケン,ツクミシ,ヒミ,大分県津久見市日見
8792682,大分県,津久見市,網代,オオイタケン,ツクミシ,アジロ,大分県津久見市網代
8792683,大分県,津久見市,四浦,オオイタケン,ツクミシ,ヨウラ,大分県津久見市四浦
8793101,大分県,佐伯市,直川赤木,オオイタケン,サイキシ,ナオカワアカギ,大分県佐伯市直川赤木
8793102,大分県,佐伯市,直川上直見,オオイタケン,サイキシ,ナオカワカミナオミ,大分県佐伯市直川上直見
8793103,大分県,佐伯市,直川下直見,オオイタケン,サイキシ,ナオカワシモナオミ,大分県佐伯市直川下直見
8793104,大分県,佐伯市,直川仁田原,オオイタケン,サイキシ,ナオカワニタハラ,大分県佐伯市直川仁田原
8793105,大分県,佐伯市,直川横川,オオイタケン,サイキシ,ナオカワヨコガワ,大分県佐伯市直川横川
8793201,大分県,佐伯市,宇目大平,オオイタケン,サイキシ,ウメオオヒラ,大分県佐伯市宇目大平
8793202,大分県,佐伯市,宇目河内,オオイタケン,サイキシ,ウメカワチ,大分県佐伯市宇目河内
8793203,大分県,佐伯市,宇目塩見園,オオイタケン,サイキシ,ウメシオミゾノ,大分県佐伯市宇目塩見園
8793204,大分県,佐伯市,宇目重岡,オオイタケン,サイキシ,ウメシゲオカ,大分県佐伯市宇目重岡
8793205,大分県,佐伯市,宇目千束,オオイタケン,サイキシ,ウメセンゾク,大分県佐伯市宇目千束
8793301,大分県,佐伯市,宇目小野市,オオイタケン,サイキシ,ウメオノイチ,大分県佐伯市宇目小野市
8793302,大分県,佐伯市,宇目南田原,オオイタケン,サイキシ,ウメミナミタバル,大分県佐伯市宇目南田原
8793401,大分県,佐伯市,宇目木浦鉱山,オオイタケン,サイキシ,ウメキウラコウザン,大分県佐伯市宇目木浦鉱山
8793402,大分県,佐伯市,宇目木浦内,オオイタケン,サイキシ,ウメキウラウチ,大分県佐伯市宇目木浦内
8794121,大分県,日田市,天瀬町馬原,オオイタケン,ヒタシ,アマガセマチマバル,大分県日田市天瀬町馬原
8794122,大分県,日田市,天瀬町合田,オオイタケン,ヒタシ,アマガセマチゴウタ,大分県日田市天瀬町合田
8794123,大分県,日田市,天瀬町女子畑,オオイタケン,ヒタシ,アマガセマチオナゴハタ,大分県日田市天瀬町女子畑
8794201,大分県,日田市,天瀬町桜竹,オオイタケン,ヒタシ,アマガセマチサクラダケ,大分県日田市天瀬町桜竹
8794202,大分県,日田市,天瀬町赤岩,オオイタケン,ヒタシ,アマガセマチアカイワ,大分県日田市天瀬町赤岩
8794203,大分県,日田市,天瀬町湯山,オオイタケン,ヒタシ,アマガセマチユヤマ,大分県日田市天瀬町湯山
8794301,大分県,玖珠郡玖珠町,四日市（その他）,オオイタケン,クスグンクスマチ,ヨッカイチ(ソノタ),大分県玖珠郡玖珠町四日市（その他）
8794331,大分県,玖珠郡玖珠町,戸畑,オオイタケン,クスグンクスマチ,トバタ,大分県玖珠郡玖珠町戸畑
8794332,大分県,玖珠郡玖珠町,山浦（秋畑、荻原、下園、下ノ寺、杉河内、千重、早水、中野、中,オオイタケン,クスグンクスマチ,ヤマウラ(アキハタ、オギワラ、シモソノ、シモノテラ、スギカワチ、センシュウ、ソウズ、ナカノ、ナカ,大分県玖珠郡玖珠町山浦（秋畑、荻原、下園、下ノ寺、杉河内、千重、早水、中野、中
8794400,大分県,玖珠郡玖珠町,,オオイタケン,クスグンクスマチ,,大分県玖珠郡玖珠町
8794401,大分県,玖珠郡玖珠町,四日市（１〜８９９番地）,オオイタケン,クスグンクスマチ,ヨッカイチ(1-899バンチ),大分県玖珠郡玖珠町四日市（1〜899-）
8794402,大分県,玖珠郡玖珠町,綾垣,オオイタケン,クスグンクスマチ,アヤガキ,大分県玖珠郡玖珠町綾垣
8794403,大分県,玖珠郡玖珠町,帆足,オオイタケン,クスグンクスマチ,ホアシ,大分県玖珠郡玖珠町帆足
8794404,大分県,玖珠郡玖珠町,森,オオイタケン,クスグンクスマチ,モリ,大分県玖珠郡玖珠町森
8794405,大分県,玖珠郡玖珠町,岩室,オオイタケン,クスグンクスマチ,イワムロ,大分県玖珠郡玖珠町岩室
8794406,大分県,玖珠郡玖珠町,日出生,オオイタケン,クスグンクスマチ,ヒジウ,大分県玖珠郡玖珠町日出生
8794411,大分県,玖珠郡玖珠町,小田,オオイタケン,クスグンクスマチ,オタ,大分県玖珠郡玖珠町小田
8794412,大分県,玖珠郡玖珠町,山田,オオイタケン,クスグンクスマチ,ヤマダ,大分県玖珠郡玖珠町山田
8794413,大分県,玖珠郡玖珠町,塚脇,オオイタケン,クスグンクスマチ,ツカワキ,大分県玖珠郡玖珠町塚脇
8794414,大分県,玖珠郡玖珠町,大隈,オオイタケン,クスグンクスマチ,オオクマ,大分県玖珠郡玖珠町大隈
8794521,大分県,玖珠郡玖珠町,太田,オオイタケン,クスグンクスマチ,オオタ,大分県玖珠郡玖珠町太田
8794522,大分県,玖珠郡玖珠町,山下,オオイタケン,クスグンクスマチ,ヤマシタ,大分県玖珠郡玖珠町山下
8794523,大分県,玖珠郡玖珠町,古後,オオイタケン,クスグンクスマチ,コゴ,大分県玖珠郡玖珠町古後
8794601,大分県,玖珠郡九重町,右田（その他）,オオイタケン,クスグンココノエマチ,ミギタ(ソノタ),大分県玖珠郡九重町右田（その他）
8794631,大分県,玖珠郡九重町,恵良,オオイタケン,クスグンココノエマチ,エラ,大分県玖珠郡九重町恵良
8794632,大分県,玖珠郡九重町,松木,オオイタケン,クスグンココノエマチ,マツギ,大分県玖珠郡九重町松木
8794721,大分県,玖珠郡九重町,粟野,オオイタケン,クスグンココノエマチ,アワノ,大分県玖珠郡九重町粟野
8794722,大分県,玖珠郡九重町,引治,オオイタケン,クスグンココノエマチ,ヒキジ,大分県玖珠郡九重町引治
8794723,大分県,玖珠郡九重町,町田,オオイタケン,クスグンココノエマチ,マチダ,大分県玖珠郡九重町町田
8794724,大分県,玖珠郡九重町,菅原,オオイタケン,クスグンココノエマチ,スガワラ,大分県玖珠郡九重町菅原
8794732,大分県,玖珠郡玖珠町,山浦（第一大原野、第二大原野、阿蘇釣）,オオイタケン,クスグンクスマチ,ヤマウラ(ダイ1ダイゲンヤ、ダイ2ダイゲンヤ、アソヅル),大分県玖珠郡玖珠町山浦（第一大原野、第二大原野、阿蘇釣）
8794800,大分県,玖珠郡九重町,,オオイタケン,クスグンココノエマチ,,大分県玖珠郡九重町
8794801,大分県,玖珠郡九重町,右田（１〜１４６４番地）,オオイタケン,クスグンココノエマチ,ミギタ(1-1464バンチ),大分県玖珠郡九重町右田（1〜1464-）
8794802,大分県,玖珠郡九重町,野上,オオイタケン,クスグンココノエマチ,ノガミ,大分県玖珠郡九重町野上
8794803,大分県,玖珠郡九重町,後野上,オオイタケン,クスグンココノエマチ,ウシロノガミ,大分県玖珠郡九重町後野上
8794911,大分県,玖珠郡九重町,田野,オオイタケン,クスグンココノエマチ,タノ,大分県玖珠郡九重町田野
8794912,大分県,玖珠郡九重町,湯坪,オオイタケン,クスグンココノエマチ,ユツボ,大分県玖珠郡九重町湯坪
8795101,大分県,由布市,湯布院町塚原,オオイタケン,ユフシ,ユフインチョウツカワラ,大分県由布市湯布院町塚原
8795102,大分県,由布市,湯布院町川上,オオイタケン,ユフシ,ユフインチョウカワカミ,大分県由布市湯布院町川上
8795103,大分県,由布市,湯布院町川南,オオイタケン,ユフシ,ユフインチョウカワミナミ,大分県由布市湯布院町川南
8795104,大分県,由布市,湯布院町中川,オオイタケン,ユフシ,ユフインチョウナカガワ,大分県由布市湯布院町中川
8795111,大分県,由布市,湯布院町下湯平,オオイタケン,ユフシ,ユフインチョウシモユノヒラ,大分県由布市湯布院町下湯平
8795112,大分県,由布市,湯布院町湯平,オオイタケン,ユフシ,ユフインチョウユノヒラ,大分県由布市湯布院町湯平
8795113,大分県,由布市,湯布院町川西,オオイタケン,ユフシ,ユフインチョウカワニシ,大分県由布市湯布院町川西
8795114,大分県,由布市,湯布院町川北,オオイタケン,ユフシ,ユフインチョウカワキタ,大分県由布市湯布院町川北
8795400,大分県,由布市,,オオイタケン,ユフシ,,大分県由布市
8795401,大分県,由布市,庄内町北大津留,オオイタケン,ユフシ,ショウナイチョウキタオオツル,大分県由布市庄内町北大津留
8795402,大分県,由布市,庄内町小挾間,オオイタケン,ユフシ,ショウナイチョウオバサマ,大分県由布市庄内町小挾間
8795403,大分県,由布市,庄内町東大津留,オオイタケン,ユフシ,ショウナイチョウヒガシオオツル,大分県由布市庄内町東大津留
8795404,大分県,由布市,庄内町櫟木,オオイタケン,ユフシ,ショウナイチョウイチギ,大分県由布市庄内町櫟木
8795405,大分県,由布市,庄内町東長宝,オオイタケン,ユフシ,ショウナイチョウヒガシチョウホウ,大分県由布市庄内町東長宝
8795406,大分県,由布市,庄内町西長宝,オオイタケン,ユフシ,ショウナイチョウニシチョウホウ,大分県由布市庄内町西長宝
8795407,大分県,由布市,庄内町南大津留,オオイタケン,ユフシ,ショウナイチョウミナミオオツル,大分県由布市庄内町南大津留
8795408,大分県,由布市,庄内町西大津留,オオイタケン,ユフシ,ショウナイチョウニシオオツル,大分県由布市庄内町西大津留
8795411,大分県,由布市,庄内町龍原,オオイタケン,ユフシ,ショウナイチョウタツハル,大分県由布市庄内町龍原
8795412,大分県,由布市,庄内町五ケ瀬,オオイタケン,ユフシ,ショウナイチョウゴカセ,大分県由布市庄内町五ケ瀬
8795413,大分県,由布市,庄内町大龍,オオイタケン,ユフシ,ショウナイチョウオオタツ,大分県由布市庄内町大龍
8795421,大分県,由布市,庄内町柿原,オオイタケン,ユフシ,ショウナイチョウカキハル,大分県由布市庄内町柿原
8795422,大分県,由布市,庄内町野畑,オオイタケン,ユフシ,ショウナイチョウノバタケ,大分県由布市庄内町野畑
8795423,大分県,由布市,庄内町阿蘇野,オオイタケン,ユフシ,ショウナイチョウアソノ,大分県由布市庄内町阿蘇野
8795424,大分県,由布市,庄内町直野内山,オオイタケン,ユフシ,ショウナイチョウナオノウチヤマ,大分県由布市庄内町直野内山
8795425,大分県,由布市,庄内町渕,オオイタケン,ユフシ,ショウナイチョウフチ,大分県由布市庄内町渕
8795431,大分県,由布市,庄内町長野,オオイタケン,ユフシ,ショウナイチョウナガノ,大分県由布市庄内町長野
8795432,大分県,由布市,庄内町畑田,オオイタケン,ユフシ,ショウナイチョウハタケダ,大分県由布市庄内町畑田
8795433,大分県,由布市,庄内町高岡,オオイタケン,ユフシ,ショウナイチョウタカオカ,大分県由布市庄内町高岡
8795434,大分県,由布市,庄内町庄内原,オオイタケン,ユフシ,ショウナイチョウショウナイバル,大分県由布市庄内町庄内原
8795435,大分県,由布市,庄内町中,オオイタケン,ユフシ,ショウナイチョウナカ,大分県由布市庄内町中
8795436,大分県,由布市,庄内町西,オオイタケン,ユフシ,ショウナイチョウニシ,大分県由布市庄内町西
8795437,大分県,由布市,庄内町平石,オオイタケン,ユフシ,ショウナイチョウヒライシ,大分県由布市庄内町平石
8795501,大分県,由布市,挾間町鬼崎,オオイタケン,ユフシ,ハサママチオニザキ,大分県由布市挾間町鬼崎
8795502,大分県,由布市,挾間町向原,オオイタケン,ユフシ,ハサママチムカイノハル,大分県由布市挾間町向原
8795503,大分県,由布市,挾間町医大ケ丘,オオイタケン,ユフシ,ハサママチイダイガオカ,大分県由布市挾間町医大ケ丘
8795504,大分県,由布市,挾間町下市,オオイタケン,ユフシ,ハサママチシモイチ,大分県由布市挾間町下市
8795506,大分県,由布市,挾間町挾間,オオイタケン,ユフシ,ハサママチハサマ,大分県由布市挾間町挾間
8795510,大分県,由布市,挾間町東院,オオイタケン,ユフシ,ハサママチトイ,大分県由布市挾間町東院
8795511,大分県,由布市,挾間町古野,オオイタケン,ユフシ,ハサママチフルノ,大分県由布市挾間町古野
8795512,大分県,由布市,挾間町来鉢,オオイタケン,ユフシ,ハサママチクバチ,大分県由布市挾間町来鉢
8795513,大分県,由布市,挾間町高崎,オオイタケン,ユフシ,ハサママチタカザキ,大分県由布市挾間町高崎
8795514,大分県,由布市,挾間町七蔵司,オオイタケン,ユフシ,ハサママチナナゾウシ,大分県由布市挾間町七蔵司
8795515,大分県,由布市,挾間町三船,オオイタケン,ユフシ,ハサママチミフネ,大分県由布市挾間町三船
8795516,大分県,由布市,挾間町赤野,オオイタケン,ユフシ,ハサママチアカノ,大分県由布市挾間町赤野
8795517,大分県,由布市,挾間町内成,オオイタケン,ユフシ,ハサママチウチナリ,大分県由布市挾間町内成
8795518,大分県,由布市,挾間町北方,オオイタケン,ユフシ,ハサママチキタガタ,大分県由布市挾間町北方
8795519,大分県,由布市,挾間町田代,オオイタケン,ユフシ,ハサママチタシロ,大分県由布市挾間町田代
8795521,大分県,由布市,挾間町鬼瀬,オオイタケン,ユフシ,ハサママチオニガセ,大分県由布市挾間町鬼瀬
8795522,大分県,由布市,挾間町小野,オオイタケン,ユフシ,ハサママチオノ,大分県由布市挾間町小野
8795523,大分県,由布市,挾間町篠原,オオイタケン,ユフシ,ハサママチシノハラ,大分県由布市挾間町篠原
8795524,大分県,由布市,挾間町時松,オオイタケン,ユフシ,ハサママチトキマツ,大分県由布市挾間町時松
8795525,大分県,由布市,挾間町朴木,オオイタケン,ユフシ,ハサママチホオノキ,大分県由布市挾間町朴木
8795531,大分県,由布市,挾間町谷,オオイタケン,ユフシ,ハサママチタニ,大分県由布市挾間町谷
8795532,大分県,由布市,挾間町筒口,オオイタケン,ユフシ,ハサママチツツグチ,大分県由布市挾間町筒口
8795551,大分県,別府市,内成,オオイタケン,ベップシ,ウチナリ,大分県別府市内成
8795552,大分県,別府市,古賀原,オオイタケン,ベップシ,コガノハル,大分県別府市古賀原
8796101,大分県,竹田市,荻町木下,オオイタケン,タケタシ,オギマチキノシタ,大分県竹田市荻町木下
8796102,大分県,竹田市,荻町政所,オオイタケン,タケタシ,オギマチマドコロ,大分県竹田市荻町政所
8796103,大分県,竹田市,荻町新藤,オオイタケン,タケタシ,オギマチシンドウ,大分県竹田市荻町新藤
8796104,大分県,竹田市,荻町藤渡,オオイタケン,タケタシ,オギマチフジワタリ,大分県竹田市荻町藤渡
8796111,大分県,竹田市,荻町南河内,オオイタケン,タケタシ,オギマチミナミガワチ,大分県竹田市荻町南河内
8796112,大分県,竹田市,荻町馬背野,オオイタケン,タケタシ,オギマチマセノ,大分県竹田市荻町馬背野
8796113,大分県,竹田市,荻町恵良原,オオイタケン,タケタシ,オギマチエラハル,大分県竹田市荻町恵良原
8796115,大分県,竹田市,荻町馬場,オオイタケン,タケタシ,オギマチババ,大分県竹田市荻町馬場
8796116,大分県,竹田市,荻町高城,オオイタケン,タケタシ,オギマチタカジョウ,大分県竹田市荻町高城
8796121,大分県,竹田市,荻町桑木,オオイタケン,タケタシ,オギマチクワギ,大分県竹田市荻町桑木
8796122,大分県,竹田市,荻町柏原,オオイタケン,タケタシ,オギマチカシワバル,大分県竹田市荻町柏原
8796123,大分県,竹田市,荻町宮平,オオイタケン,タケタシ,オギマチミヤビラ,大分県竹田市荻町宮平
8796124,大分県,竹田市,荻町陽目,オオイタケン,タケタシ,オギマチヒナタメ,大分県竹田市荻町陽目
8796125,大分県,竹田市,荻町仏面,オオイタケン,タケタシ,オギマチブツメン,大分県竹田市荻町仏面
8796126,大分県,竹田市,荻町大平,オオイタケン,タケタシ,オギマチオオダイラ,大分県竹田市荻町大平
8796127,大分県,竹田市,荻町叶野,オオイタケン,タケタシ,オギマチカナイノ,大分県竹田市荻町叶野
8796128,大分県,竹田市,荻町高練木,オオイタケン,タケタシ,オギマチタカネリキ,大分県竹田市荻町高練木
8796131,大分県,竹田市,荻町鴫田,オオイタケン,タケタシ,オギマチシギタ,大分県竹田市荻町鴫田
8796132,大分県,竹田市,荻町西福寺,オオイタケン,タケタシ,オギマチサイフクジ,大分県竹田市荻町西福寺
8796133,大分県,竹田市,荻町田代,オオイタケン,タケタシ,オギマチタシロ,大分県竹田市荻町田代
8796134,大分県,竹田市,荻町瓜作,オオイタケン,タケタシ,オギマチウリツクリ,大分県竹田市荻町瓜作
8796135,大分県,竹田市,荻町北原,オオイタケン,タケタシ,オギマチキタバル,大分県竹田市荻町北原
8796181,大分県,竹田市,小塚,オオイタケン,タケタシ,オヅカ,大分県竹田市小塚
8796182,大分県,竹田市,今,オオイタケン,タケタシ,イマ,大分県竹田市今
8796183,大分県,竹田市,戸上,オオイタケン,タケタシ,トウエ,大分県竹田市戸上
8796184,大分県,竹田市,菅生,オオイタケン,タケタシ,スゴウ,大分県竹田市菅生
8796201,大分県,豊後大野市,朝地町市万田,オオイタケン,ブンゴオオノシ,アサジマチイチマンダ,大分県豊後大野市朝地町市万田
8796202,大分県,豊後大野市,朝地町下野,オオイタケン,ブンゴオオノシ,アサジマチシモノ,大分県豊後大野市朝地町下野
8796211,大分県,豊後大野市,朝地町宮生,オオイタケン,ブンゴオオノシ,アサジマチミヤオ,大分県豊後大野市朝地町宮生
8796212,大分県,豊後大野市,朝地町志賀,オオイタケン,ブンゴオオノシ,アサジマチシガ,大分県豊後大野市朝地町志賀
8796213,大分県,豊後大野市,朝地町上尾塚,オオイタケン,ブンゴオオノシ,アサジマチカミオツカ,大分県豊後大野市朝地町上尾塚
8796221,大分県,豊後大野市,朝地町坪泉,オオイタケン,ブンゴオオノシ,アサジマチツボイズミ,大分県豊後大野市朝地町坪泉
8796222,大分県,豊後大野市,朝地町朝地,オオイタケン,ブンゴオオノシ,アサジマチアサジ,大分県豊後大野市朝地町朝地
8796223,大分県,豊後大野市,朝地町板井迫,オオイタケン,ブンゴオオノシ,アサジマチイタイザコ,大分県豊後大野市朝地町板井迫
8796224,大分県,豊後大野市,朝地町池田,オオイタケン,ブンゴオオノシ,アサジマチイケダ,大分県豊後大野市朝地町池田
8796331,大分県,豊後大野市,朝地町鳥田,オオイタケン,ブンゴオオノシ,アサジマチトリタ,大分県豊後大野市朝地町鳥田
8796332,大分県,豊後大野市,朝地町綿田,オオイタケン,ブンゴオオノシ,アサジマチワタダ,大分県豊後大野市朝地町綿田
8796333,大分県,豊後大野市,朝地町栗林,オオイタケン,ブンゴオオノシ,アサジマチクリバヤシ,大分県豊後大野市朝地町栗林
8796334,大分県,豊後大野市,朝地町梨小,オオイタケン,ブンゴオオノシ,アサジマチナシコ,大分県豊後大野市朝地町梨小
8796401,大分県,豊後大野市,大野町安藤,オオイタケン,ブンゴオオノシ,オオノマチアンドウ,大分県豊後大野市大野町安藤
8796402,大分県,豊後大野市,大野町中土師,オオイタケン,ブンゴオオノシ,オオノマチナカハジ,大分県豊後大野市大野町中土師
8796403,大分県,豊後大野市,大野町長畑,オオイタケン,ブンゴオオノシ,オオノマチナガハタ,大分県豊後大野市大野町長畑
8796404,大分県,豊後大野市,大野町後田,オオイタケン,ブンゴオオノシ,オオノマチウシロダ,大分県豊後大野市大野町後田
8796405,大分県,豊後大野市,大野町代三五,オオイタケン,ブンゴオオノシ,オオノマチダイサンゴ,大分県豊後大野市大野町代三五
8796406,大分県,豊後大野市,大野町杉園,オオイタケン,ブンゴオオノシ,オオノマチスギゾノ,大分県豊後大野市大野町杉園
8796407,大分県,豊後大野市,大野町十時,オオイタケン,ブンゴオオノシ,オオノマチトトキ,大分県豊後大野市大野町十時
8796408,大分県,豊後大野市,大野町沢田,オオイタケン,ブンゴオオノシ,オオノマチサワタ,大分県豊後大野市大野町沢田
8796421,大分県,豊後大野市,大野町中原,オオイタケン,ブンゴオオノシ,オオノマチナカバル,大分県豊後大野市大野町中原
8796422,大分県,豊後大野市,大野町小倉木,オオイタケン,ブンゴオオノシ,オオノマチコグラキ,大分県豊後大野市大野町小倉木
8796423,大分県,豊後大野市,大野町矢田,オオイタケン,ブンゴオオノシ,オオノマチヤダ,大分県豊後大野市大野町矢田
8796424,大分県,豊後大野市,大野町夏足,オオイタケン,ブンゴオオノシ,オオノマチナタセ,大分県豊後大野市大野町夏足
8796425,大分県,豊後大野市,大野町両家,オオイタケン,ブンゴオオノシ,オオノマチリョウケ,大分県豊後大野市大野町両家
8796426,大分県,豊後大野市,大野町郡山,オオイタケン,ブンゴオオノシ,オオノマチコオリヤマ,大分県豊後大野市大野町郡山
8796431,大分県,豊後大野市,大野町酒井寺,オオイタケン,ブンゴオオノシ,オオノマチサカイジ,大分県豊後大野市大野町酒井寺
8796432,大分県,豊後大野市,大野町屋原,オオイタケン,ブンゴオオノシ,オオノマチヤバル,大分県豊後大野市大野町屋原
8796433,大分県,豊後大野市,大野町大原,オオイタケン,ブンゴオオノシ,オオノマチオオハル,大分県豊後大野市大野町大原
8796434,大分県,豊後大野市,大野町桑原,オオイタケン,ブンゴオオノシ,オオノマチクワバル,大分県豊後大野市大野町桑原
8796435,大分県,豊後大野市,大野町北園,オオイタケン,ブンゴオオノシ,オオノマチキタゾノ,大分県豊後大野市大野町北園
8796441,大分県,豊後大野市,大野町田中,オオイタケン,ブンゴオオノシ,オオノマチタナカ,大分県豊後大野市大野町田中
8796442,大分県,豊後大野市,大野町藤北,オオイタケン,ブンゴオオノシ,オオノマチフジキタ,大分県豊後大野市大野町藤北
8796443,大分県,豊後大野市,大野町宮迫,オオイタケン,ブンゴオオノシ,オオノマチミヤザコ,大分県豊後大野市大野町宮迫
8796444,大分県,豊後大野市,大野町田代,オオイタケン,ブンゴオオノシ,オオノマチタシロ,大分県豊後大野市大野町田代
8796445,大分県,豊後大野市,大野町片島,オオイタケン,ブンゴオオノシ,オオノマチカタシマ,大分県豊後大野市大野町片島
8796601,大分県,豊後大野市,緒方町馬場,オオイタケン,ブンゴオオノシ,オガタマチババ,大分県豊後大野市緒方町馬場
8796602,大分県,豊後大野市,緒方町志賀,オオイタケン,ブンゴオオノシ,オガタマチシガ,大分県豊後大野市緒方町志賀
8796611,大分県,豊後大野市,緒方町夏足,オオイタケン,ブンゴオオノシ,オガタマチナタセ,大分県豊後大野市緒方町夏足
8796612,大分県,豊後大野市,緒方町越生,オオイタケン,ブンゴオオノシ,オガタマチコシオ,大分県豊後大野市緒方町越生
8796613,大分県,豊後大野市,緒方町井上,オオイタケン,ブンゴオオノシ,オガタマチイノウエ,大分県豊後大野市緒方町井上
8796614,大分県,豊後大野市,緒方町知田,オオイタケン,ブンゴオオノシ,オガタマチチタ,大分県豊後大野市緒方町知田
8796615,大分県,豊後大野市,緒方町鮒川,オオイタケン,ブンゴオオノシ,オガタマチフナガワ,大分県豊後大野市緒方町鮒川
8796616,大分県,豊後大野市,緒方町久土知,オオイタケン,ブンゴオオノシ,オガタマチクドチ,大分県豊後大野市緒方町久土知
8796621,大分県,豊後大野市,緒方町野尻,オオイタケン,ブンゴオオノシ,オガタマチノジリ,大分県豊後大野市緒方町野尻
8796622,大分県,豊後大野市,緒方町天神,オオイタケン,ブンゴオオノシ,オガタマチテンジン,大分県豊後大野市緒方町天神
8796623,大分県,豊後大野市,緒方町馬背畑,オオイタケン,ブンゴオオノシ,オガタマチマセバタ,大分県豊後大野市緒方町馬背畑
8796624,大分県,豊後大野市,緒方町平石,オオイタケン,ブンゴオオノシ,オガタマチヒライシ,大分県豊後大野市緒方町平石
8796625,大分県,豊後大野市,緒方町上犬塚,オオイタケン,ブンゴオオノシ,オガタマチカミイヌヅカ,大分県豊後大野市緒方町上犬塚
8796626,大分県,豊後大野市,緒方町大化,オオイタケン,ブンゴオオノシ,オガタマチタイカ,大分県豊後大野市緒方町大化
8796631,大分県,豊後大野市,緒方町原尻,オオイタケン,ブンゴオオノシ,オガタマチハラジリ,大分県豊後大野市緒方町原尻
8796632,大分県,豊後大野市,緒方町辻,オオイタケン,ブンゴオオノシ,オガタマチツジ,大分県豊後大野市緒方町辻
8796633,大分県,豊後大野市,緒方町小宛,オオイタケン,ブンゴオオノシ,オガタマチオアテ,大分県豊後大野市緒方町小宛
8796634,大分県,豊後大野市,緒方町寺原,オオイタケン,ブンゴオオノシ,オガタマチテラバル,大分県豊後大野市緒方町寺原
8796635,大分県,豊後大野市,緒方町軸丸,オオイタケン,ブンゴオオノシ,オガタマチジクマル,大分県豊後大野市緒方町軸丸
8796641,大分県,豊後大野市,緒方町草深野,オオイタケン,ブンゴオオノシ,オガタマチクサブカノ,大分県豊後大野市緒方町草深野
8796642,大分県,豊後大野市,緒方町上自在,オオイタケン,ブンゴオオノシ,オガタマチカミジザイ,大分県豊後大野市緒方町上自在
8796643,大分県,豊後大野市,緒方町下自在,オオイタケン,ブンゴオオノシ,オガタマチシモジザイ,大分県豊後大野市緒方町下自在
8796751,大分県,豊後大野市,緒方町上年野,オオイタケン,ブンゴオオノシ,オガタマチカミトシノ,大分県豊後大野市緒方町上年野
8796752,大分県,豊後大野市,緒方町柚木,オオイタケン,ブンゴオオノシ,オガタマチユギ,大分県豊後大野市緒方町柚木
8796753,大分県,豊後大野市,緒方町下徳田,オオイタケン,ブンゴオオノシ,オガタマチシモトクダ,大分県豊後大野市緒方町下徳田
8796754,大分県,豊後大野市,緒方町冬原,オオイタケン,ブンゴオオノシ,オガタマチフユバル,大分県豊後大野市緒方町冬原
8796755,大分県,豊後大野市,緒方町上冬原,オオイタケン,ブンゴオオノシ,オガタマチカミフユバル,大分県豊後大野市緒方町上冬原
8796756,大分県,豊後大野市,緒方町徳田,オオイタケン,ブンゴオオノシ,オガタマチトクダ,大分県豊後大野市緒方町徳田
8796757,大分県,豊後大野市,緒方町木野,オオイタケン,ブンゴオオノシ,オガタマチキノ,大分県豊後大野市緒方町木野
8796758,大分県,豊後大野市,緒方町中野,オオイタケン,ブンゴオオノシ,オガタマチナカノ,大分県豊後大野市緒方町中野
8796759,大分県,豊後大野市,緒方町大石,オオイタケン,ブンゴオオノシ,オガタマチオオイシ,大分県豊後大野市緒方町大石
8796861,大分県,豊後大野市,緒方町小原,オオイタケン,ブンゴオオノシ,オガタマチオハル,大分県豊後大野市緒方町小原
8796862,大分県,豊後大野市,緒方町栗生,オオイタケン,ブンゴオオノシ,オガタマチクリウ,大分県豊後大野市緒方町栗生
8796863,大分県,豊後大野市,緒方町滞迫,オオイタケン,ブンゴオオノシ,オガタマチタイザコ,大分県豊後大野市緒方町滞迫
8796864,大分県,豊後大野市,緒方町上畑,オオイタケン,ブンゴオオノシ,オガタマチウワハタ,大分県豊後大野市緒方町上畑
8796865,大分県,豊後大野市,緒方町尾平鉱山,オオイタケン,ブンゴオオノシ,オガタマチオビラコウザン,大分県豊後大野市緒方町尾平鉱山
8796901,大分県,豊後大野市,清川町臼尾,オオイタケン,ブンゴオオノシ,キヨカワマチウスオ,大分県豊後大野市清川町臼尾
8796902,大分県,豊後大野市,清川町雨堤,オオイタケン,ブンゴオオノシ,キヨカワマチアマヅツミ,大分県豊後大野市清川町雨堤
8796903,大分県,豊後大野市,清川町砂田,オオイタケン,ブンゴオオノシ,キヨカワマチスナダ,大分県豊後大野市清川町砂田
8796904,大分県,豊後大野市,清川町天神,オオイタケン,ブンゴオオノシ,キヨカワマチテンジン,大分県豊後大野市清川町天神
8796905,大分県,豊後大野市,清川町三玉,オオイタケン,ブンゴオオノシ,キヨカワマチミタマ,大分県豊後大野市清川町三玉
8796911,大分県,豊後大野市,清川町宇田枝,オオイタケン,ブンゴオオノシ,キヨカワマチウタエダ,大分県豊後大野市清川町宇田枝
8796912,大分県,豊後大野市,清川町六種,オオイタケン,ブンゴオオノシ,キヨカワマチムクサ,大分県豊後大野市清川町六種
8796913,大分県,豊後大野市,清川町平石,オオイタケン,ブンゴオオノシ,キヨカワマチヒライシ,大分県豊後大野市清川町平石
8796914,大分県,豊後大野市,清川町左右知,オオイタケン,ブンゴオオノシ,キヨカワマチソウチ,大分県豊後大野市清川町左右知
8796921,大分県,豊後大野市,清川町伏野,オオイタケン,ブンゴオオノシ,キヨカワマチフセノ,大分県豊後大野市清川町伏野
8796922,大分県,豊後大野市,清川町大白谷,オオイタケン,ブンゴオオノシ,キヨカワマチオオシロタニ,大分県豊後大野市清川町大白谷
8797100,大分県,豊後大野市,,オオイタケン,ブンゴオオノシ,,大分県豊後大野市
8797101,大分県,豊後大野市,三重町宮野,オオイタケン,ブンゴオオノシ,ミエマチミヤノ,大分県豊後大野市三重町宮野
8797102,大分県,豊後大野市,三重町菅生,オオイタケン,ブンゴオオノシ,ミエマチスゴウ,大分県豊後大野市三重町菅生
8797103,大分県,豊後大野市,三重町西畑,オオイタケン,ブンゴオオノシ,ミエマチニシハタ,大分県豊後大野市三重町西畑
8797104,大分県,豊後大野市,三重町小坂,オオイタケン,ブンゴオオノシ,ミエマチオサカ,大分県豊後大野市三重町小坂
8797105,大分県,豊後大野市,三重町芦刈,オオイタケン,ブンゴオオノシ,ミエマチアシカリ,大分県豊後大野市三重町芦刈
8797106,大分県,豊後大野市,三重町井迫,オオイタケン,ブンゴオオノシ,ミエマチイサコ,大分県豊後大野市三重町井迫
8797107,大分県,豊後大野市,三重町上田原,オオイタケン,ブンゴオオノシ,ミエマチカミタワラ,大分県豊後大野市三重町上田原
8797108,大分県,豊後大野市,三重町浅瀬,オオイタケン,ブンゴオオノシ,ミエマチアサセ,大分県豊後大野市三重町浅瀬
8797111,大分県,豊後大野市,三重町赤嶺,オオイタケン,ブンゴオオノシ,ミエマチアカミネ,大分県豊後大野市三重町赤嶺
8797121,大分県,豊後大野市,三重町山部,オオイタケン,ブンゴオオノシ,ミエマチヤマブ,大分県豊後大野市三重町山部
8797122,大分県,豊後大野市,三重町鷲谷,オオイタケン,ブンゴオオノシ,ミエマチワシダニ,大分県豊後大野市三重町鷲谷
8797123,大分県,豊後大野市,三重町松尾,オオイタケン,ブンゴオオノシ,ミエマチマツオ,大分県豊後大野市三重町松尾
8797124,大分県,豊後大野市,三重町内山,オオイタケン,ブンゴオオノシ,ミエマチウチヤマ,大分県豊後大野市三重町内山
8797125,大分県,豊後大野市,三重町内田,オオイタケン,ブンゴオオノシ,ミエマチウチダ,大分県豊後大野市三重町内田
8797131,大分県,豊後大野市,三重町市場,オオイタケン,ブンゴオオノシ,ミエマチイチバ,大分県豊後大野市三重町市場
8797141,大分県,豊後大野市,三重町秋葉,オオイタケン,ブンゴオオノシ,ミエマチアキバ,大分県豊後大野市三重町秋葉
8797142,大分県,豊後大野市,三重町小田,オオイタケン,ブンゴオオノシ,ミエマチオダ,大分県豊後大野市三重町小田
8797143,大分県,豊後大野市,三重町久田,オオイタケン,ブンゴオオノシ,ミエマチヒサダ,大分県豊後大野市三重町久田
8797144,大分県,豊後大野市,三重町本城,オオイタケン,ブンゴオオノシ,ミエマチホンジョウ,大分県豊後大野市三重町本城
8797151,大分県,豊後大野市,三重町西泉,オオイタケン,ブンゴオオノシ,ミエマチニシイズミ,大分県豊後大野市三重町西泉
8797152,大分県,豊後大野市,三重町百枝,オオイタケン,ブンゴオオノシ,ミエマチモモエダ,大分県豊後大野市三重町百枝
8797153,大分県,豊後大野市,三重町玉田,オオイタケン,ブンゴオオノシ,ミエマチタマダ,大分県豊後大野市三重町玉田
8797154,大分県,豊後大野市,三重町川辺,オオイタケン,ブンゴオオノシ,ミエマチカワベ,大分県豊後大野市三重町川辺
8797155,大分県,豊後大野市,三重町向野,オオイタケン,ブンゴオオノシ,ミエマチムコウノ,大分県豊後大野市三重町向野
8797261,大分県,豊後大野市,三重町伏野,オオイタケン,ブンゴオオノシ,ミエマチフセノ,大分県豊後大野市三重町伏野
8797262,大分県,豊後大野市,三重町奥畑,オオイタケン,ブンゴオオノシ,ミエマチオクバタ,大分県豊後大野市三重町奥畑
8797263,大分県,豊後大野市,三重町中津留,オオイタケン,ブンゴオオノシ,ミエマチナカヅル,大分県豊後大野市三重町中津留
8797264,大分県,豊後大野市,三重町大白谷,オオイタケン,ブンゴオオノシ,ミエマチオオシロタニ,大分県豊後大野市三重町大白谷
8797301,大分県,豊後大野市,犬飼町犬飼,オオイタケン,ブンゴオオノシ,イヌカイマチイヌカイ,大分県豊後大野市犬飼町犬飼
8797302,大分県,豊後大野市,犬飼町久原,オオイタケン,ブンゴオオノシ,イヌカイマチクバル,大分県豊後大野市犬飼町久原
8797303,大分県,豊後大野市,犬飼町柚野木,オオイタケン,ブンゴオオノシ,イヌカイマチユノキ,大分県豊後大野市犬飼町柚野木
8797304,大分県,豊後大野市,犬飼町大寒,オオイタケン,ブンゴオオノシ,イヌカイマチオオソウ,大分県豊後大野市犬飼町大寒
8797305,大分県,豊後大野市,犬飼町田原,オオイタケン,ブンゴオオノシ,イヌカイマチタハラ,大分県豊後大野市犬飼町田原
8797306,大分県,豊後大野市,犬飼町下津尾,オオイタケン,ブンゴオオノシ,イヌカイマチシモツオ,大分県豊後大野市犬飼町下津尾
8797307,大分県,豊後大野市,犬飼町西寒田,オオイタケン,ブンゴオオノシ,イヌカイマチササムタ,大分県豊後大野市犬飼町西寒田
8797311,大分県,豊後大野市,犬飼町柴北,オオイタケン,ブンゴオオノシ,イヌカイマチシバキタ,大分県豊後大野市犬飼町柴北
8797312,大分県,豊後大野市,犬飼町高津原,オオイタケン,ブンゴオオノシ,イヌカイマチコウヅハル,大分県豊後大野市犬飼町高津原
8797313,大分県,豊後大野市,犬飼町黒松,オオイタケン,ブンゴオオノシ,イヌカイマチクロマツ,大分県豊後大野市犬飼町黒松
8797314,大分県,豊後大野市,犬飼町栗ケ畑,オオイタケン,ブンゴオオノシ,イヌカイマチクリガハタ,大分県豊後大野市犬飼町栗ケ畑
8797315,大分県,豊後大野市,犬飼町山内,オオイタケン,ブンゴオオノシ,イヌカイマチヤマウチ,大分県豊後大野市犬飼町山内
8797316,大分県,豊後大野市,犬飼町長畑,オオイタケン,ブンゴオオノシ,イヌカイマチナガハタ,大分県豊後大野市犬飼町長畑
8797401,大分県,豊後大野市,千歳町新殿,オオイタケン,ブンゴオオノシ,チトセマチニイドノ,大分県豊後大野市千歳町新殿
8797402,大分県,豊後大野市,千歳町船田,オオイタケン,ブンゴオオノシ,チトセマチフナダ,大分県豊後大野市千歳町船田
8797403,大分県,豊後大野市,千歳町石田,オオイタケン,ブンゴオオノシ,チトセマチイシダ,大分県豊後大野市千歳町石田
8797404,大分県,豊後大野市,千歳町長峰,オオイタケン,ブンゴオオノシ,チトセマチナガミネ,大分県豊後大野市千歳町長峰
8797411,大分県,豊後大野市,千歳町柴山,オオイタケン,ブンゴオオノシ,チトセマチシバヤマ,大分県豊後大野市千歳町柴山
8797412,大分県,豊後大野市,千歳町高畑,オオイタケン,ブンゴオオノシ,チトセマチタカハタ,大分県豊後大野市千歳町高畑
8797413,大分県,豊後大野市,千歳町下山,オオイタケン,ブンゴオオノシ,チトセマチシモヤマ,大分県豊後大野市千歳町下山
8797414,大分県,豊後大野市,千歳町前田,オオイタケン,ブンゴオオノシ,チトセマチマエダ,大分県豊後大野市千歳町前田
8797501,大分県,大分市,竹中,オオイタケン,オオイタシ,タケナカ,大分県大分市竹中
8797502,大分県,大分市,端登,オオイタケン,オオイタシ,ハタノボリ,大分県大分市端登
8797503,大分県,大分市,河原内,オオイタケン,オオイタシ,カワラウチ,大分県大分市河原内
8797504,大分県,大分市,安藤,オオイタケン,オオイタシ,アンドウ,大分県大分市安藤
8797761,大分県,大分市,中戸次,オオイタケン,オオイタシ,ナカヘツギ,大分県大分市中戸次
8797762,大分県,大分市,けやき台,オオイタケン,オオイタシ,ケヤキダイ,大分県大分市けやき台
8797763,大分県,大分市,下戸次,オオイタケン,オオイタシ,シモヘツギ,大分県大分市下戸次
8797764,大分県,大分市,上戸次,オオイタケン,オオイタシ,カミヘツギ,大分県大分市上戸次
8797765,大分県,大分市,美園団地,オオイタケン,オオイタシ,ミソノダンチ,大分県大分市美園団地
8797871,大分県,大分市,辻,オオイタケン,オオイタシ,ツジ,大分県大分市辻
8797872,大分県,大分市,月形,オオイタケン,オオイタシ,ツキガタ,大分県大分市月形
8797873,大分県,大分市,宮尾,オオイタケン,オオイタシ,ミヤオ,大分県大分市宮尾
8797874,大分県,大分市,福良,オオイタケン,オオイタシ,フクラ,大分県大分市福良
8797875,大分県,大分市,吉野原,オオイタケン,オオイタシ,ヨシノハル,大分県大分市吉野原
8797881,大分県,大分市,奥,オオイタケン,オオイタシ,オク,大分県大分市奥
8797882,大分県,大分市,杉原,オオイタケン,オオイタシ,スギバル,大分県大分市杉原
8797883,大分県,大分市,萩尾,オオイタケン,オオイタシ,ハギオ,大分県大分市萩尾
8797884,大分県,大分市,志津留,オオイタケン,オオイタシ,シツル,大分県大分市志津留
8797885,大分県,大分市,梅が丘,オオイタケン,オオイタシ,ウメガオカ,大分県大分市梅が丘
