zipcode,prefecture_name,city,town,prefecture_kana,city_kana,town_kana,normalized_address
8800000,宮崎県,宮崎市,,ミヤザキケン,ミヤザキシ,,宮崎県宮崎市
8800001,宮崎県,宮崎市,橘通西,ミヤザキケン,ミヤザキシ,タチバナドオリニシ,宮崎県宮崎市橘通西
8800002,宮崎県,宮崎市,中央通,ミヤザキケン,ミヤザキシ,チュウオウドオリ,宮崎県宮崎市中央通
8800003,宮崎県,宮崎市,高松町,ミヤザキケン,ミヤザキシ,タカマツチョウ,宮崎県宮崎市高松町
8800004,宮崎県,宮崎市,元宮町,ミヤザキケン,ミヤザキシ,モトミヤチョウ,宮崎県宮崎市元宮町
8800005,宮崎県,宮崎市,南高松町,ミヤザキケン,ミヤザキシ,ミナミタカマツチョウ,宮崎県宮崎市南高松町
8800006,宮崎県,宮崎市,千草町,ミヤザキケン,ミヤザキシ,チグサチョウ,宮崎県宮崎市千草町
8800007,宮崎県,宮崎市,原町,ミヤザキケン,ミヤザキシ,ハラマチ,宮崎県宮崎市原町
8800011,宮崎県,宮崎市,上野町,ミヤザキケン,ミヤザキシ,カミノマチ,宮崎県宮崎市上野町
8800012,宮崎県,宮崎市,末広,ミヤザキケン,ミヤザキシ,スエヒロ,宮崎県宮崎市末広
8800013,宮崎県,宮崎市,松橋,ミヤザキケン,ミヤザキシ,マツバシ,宮崎県宮崎市松橋
8800014,宮崎県,宮崎市,鶴島,ミヤザキケン,ミヤザキシ,ツルノシマ,宮崎県宮崎市鶴島
8800015,宮崎県,宮崎市,大工,ミヤザキケン,ミヤザキシ,ダイク,宮崎県宮崎市大工
8800016,宮崎県,宮崎市,西高松町,ミヤザキケン,ミヤザキシ,ニシタカマツチョウ,宮崎県宮崎市西高松町
8800017,宮崎県,宮崎市,北高松町,ミヤザキケン,ミヤザキシ,キタタカマツチョウ,宮崎県宮崎市北高松町
8800021,宮崎県,宮崎市,清水,ミヤザキケン,ミヤザキシ,シミズ,宮崎県宮崎市清水
8800022,宮崎県,宮崎市,大橋,ミヤザキケン,ミヤザキシ,オオハシ,宮崎県宮崎市大橋
8800023,宮崎県,宮崎市,和知川原,ミヤザキケン,ミヤザキシ,ワチガワラ,宮崎県宮崎市和知川原
8800024,宮崎県,宮崎市,祇園,ミヤザキケン,ミヤザキシ,ギオン,宮崎県宮崎市祇園
8800025,宮崎県,宮崎市,中津瀬町,ミヤザキケン,ミヤザキシ,ナカツセチョウ,宮崎県宮崎市中津瀬町
8800026,宮崎県,宮崎市,花殿町,ミヤザキケン,ミヤザキシ,ハナドノチョウ,宮崎県宮崎市花殿町
8800027,宮崎県,宮崎市,西池町,ミヤザキケン,ミヤザキシ,ニシイケチョウ,宮崎県宮崎市西池町
8800031,宮崎県,宮崎市,船塚,ミヤザキケン,ミヤザキシ,フナツカ,宮崎県宮崎市船塚
8800032,宮崎県,宮崎市,霧島,ミヤザキケン,ミヤザキシ,キリシマ,宮崎県宮崎市霧島
8800033,宮崎県,宮崎市,神宮西,ミヤザキケン,ミヤザキシ,ジングウニシ,宮崎県宮崎市神宮西
8800034,宮崎県,宮崎市,矢の先町,ミヤザキケン,ミヤザキシ,ヤノサキチョウ,宮崎県宮崎市矢の先町
8800035,宮崎県,宮崎市,下北方町,ミヤザキケン,ミヤザキシ,シモキタカタマチ,宮崎県宮崎市下北方町
8800036,宮崎県,宮崎市,花ケ島町,ミヤザキケン,ミヤザキシ,ハナガシマチョウ,宮崎県宮崎市花ケ島町
8800037,宮崎県,宮崎市,南方町,ミヤザキケン,ミヤザキシ,ミナミカタチョウ,宮崎県宮崎市南方町
8800041,宮崎県,宮崎市,池内町,ミヤザキケン,ミヤザキシ,イケウチチョウ,宮崎県宮崎市池内町
8800042,宮崎県,宮崎市,平和が丘東町,ミヤザキケン,ミヤザキシ,ヘイワガオカヒガシマチ,宮崎県宮崎市平和が丘東町
8800043,宮崎県,宮崎市,上北方,ミヤザキケン,ミヤザキシ,カミキタカタ,宮崎県宮崎市上北方
8800044,宮崎県,宮崎市,瓜生野（その他）,ミヤザキケン,ミヤザキシ,ウリュウノ(ソノタ),宮崎県宮崎市瓜生野（その他）
8800045,宮崎県,宮崎市,大瀬町（その他）,ミヤザキケン,ミヤザキシ,オオセマチ(ソノタ),宮崎県宮崎市大瀬町（その他）
8800046,宮崎県,宮崎市,平和が丘北町,ミヤザキケン,ミヤザキシ,ヘイワガオカキタマチ,宮崎県宮崎市平和が丘北町
8800047,宮崎県,宮崎市,平和が丘西町,ミヤザキケン,ミヤザキシ,ヘイワガオカニシマチ,宮崎県宮崎市平和が丘西町
8800051,宮崎県,宮崎市,江平西,ミヤザキケン,ミヤザキシ,エヒラニシ,宮崎県宮崎市江平西
8800052,宮崎県,宮崎市,丸山,ミヤザキケン,ミヤザキシ,マルヤマ,宮崎県宮崎市丸山
8800053,宮崎県,宮崎市,神宮,ミヤザキケン,ミヤザキシ,ジングウ,宮崎県宮崎市神宮
8800054,宮崎県,宮崎市,神宮町,ミヤザキケン,ミヤザキシ,ジングウチョウ,宮崎県宮崎市神宮町
8800055,宮崎県,宮崎市,南花ケ島町,ミヤザキケン,ミヤザキシ,ミナミハナガシマチョウ,宮崎県宮崎市南花ケ島町
8800056,宮崎県,宮崎市,神宮東,ミヤザキケン,ミヤザキシ,ジングウヒガシ,宮崎県宮崎市神宮東
8800057,宮崎県,宮崎市,桜町,ミヤザキケン,ミヤザキシ,サクラマチ,宮崎県宮崎市桜町
8800121,宮崎県,宮崎市,島之内,ミヤザキケン,ミヤザキシ,シマノウチ,宮崎県宮崎市島之内
8800122,宮崎県,宮崎市,塩路,ミヤザキケン,ミヤザキシ,シオジ,宮崎県宮崎市塩路
8800123,宮崎県,宮崎市,芳士,ミヤザキケン,ミヤザキシ,ホウジ,宮崎県宮崎市芳士
8800124,宮崎県,宮崎市,新名爪,ミヤザキケン,ミヤザキシ,ニイナヅメ,宮崎県宮崎市新名爪
8800125,宮崎県,宮崎市,広原,ミヤザキケン,ミヤザキシ,ヒロハラ,宮崎県宮崎市広原
8800204,宮崎県,宮崎市,佐土原町下富田,ミヤザキケン,ミヤザキシ,サドワラチョウシモトンダ,宮崎県宮崎市佐土原町下富田
8800211,宮崎県,宮崎市,佐土原町下田島,ミヤザキケン,ミヤザキシ,サドワラチョウシモタジマ,宮崎県宮崎市佐土原町下田島
8800212,宮崎県,宮崎市,佐土原町下那珂,ミヤザキケン,ミヤザキシ,サドワラチョウシモナカ,宮崎県宮崎市佐土原町下那珂
8800213,宮崎県,宮崎市,佐土原町石崎,ミヤザキケン,ミヤザキシ,サドワラチョウイシザキ,宮崎県宮崎市佐土原町石崎
8800214,宮崎県,宮崎市,佐土原町松小路,ミヤザキケン,ミヤザキシ,サドワラチョウマツコウジ,宮崎県宮崎市佐土原町松小路
8800301,宮崎県,宮崎市,佐土原町上田島,ミヤザキケン,ミヤザキシ,サドワラチョウカミタジマ,宮崎県宮崎市佐土原町上田島
8800302,宮崎県,宮崎市,佐土原町西上那珂,ミヤザキケン,ミヤザキシ,サドワラチョウニシカミナカ,宮崎県宮崎市佐土原町西上那珂
8800303,宮崎県,宮崎市,佐土原町東上那珂,ミヤザキケン,ミヤザキシ,サドワラチョウヒガシカミナカ,宮崎県宮崎市佐土原町東上那珂
8800341,宮崎県,西都市,現王島,ミヤザキケン,サイトシ,ゲンノウジマ,宮崎県西都市現王島
8800344,宮崎県,宮崎市,瓜生野（下畑）,ミヤザキケン,ミヤザキシ,ウリュウノ(シモハタ),宮崎県宮崎市瓜生野（下畑）
8800345,宮崎県,宮崎市,大瀬町（上畑）,ミヤザキケン,ミヤザキシ,オオセマチ(カミハタ),宮崎県宮崎市大瀬町（上畑）
8800801,宮崎県,宮崎市,老松,ミヤザキケン,ミヤザキシ,オイマツ,宮崎県宮崎市老松
8800802,宮崎県,宮崎市,別府町,ミヤザキケン,ミヤザキシ,ベップチョウ,宮崎県宮崎市別府町
8800803,宮崎県,宮崎市,旭,ミヤザキケン,ミヤザキシ,アサヒ,宮崎県宮崎市旭
8800804,宮崎県,宮崎市,宮田町,ミヤザキケン,ミヤザキシ,ミヤタチョウ,宮崎県宮崎市宮田町
8800805,宮崎県,宮崎市,橘通東,ミヤザキケン,ミヤザキシ,タチバナドオリヒガシ,宮崎県宮崎市橘通東
8800806,宮崎県,宮崎市,広島,ミヤザキケン,ミヤザキシ,ヒロシマ,宮崎県宮崎市広島
8800811,宮崎県,宮崎市,錦町,ミヤザキケン,ミヤザキシ,ニシキマチ,宮崎県宮崎市錦町
8800812,宮崎県,宮崎市,高千穂通,ミヤザキケン,ミヤザキシ,タカチホドオリ,宮崎県宮崎市高千穂通
8800813,宮崎県,宮崎市,丸島町,ミヤザキケン,ミヤザキシ,マルシマチョウ,宮崎県宮崎市丸島町
8800814,宮崎県,宮崎市,江平中町,ミヤザキケン,ミヤザキシ,エヒラナカマチ,宮崎県宮崎市江平中町
8800815,宮崎県,宮崎市,江平町,ミヤザキケン,ミヤザキシ,エヒラチョウ,宮崎県宮崎市江平町
8800816,宮崎県,宮崎市,江平東,ミヤザキケン,ミヤザキシ,エヒラヒガシ,宮崎県宮崎市江平東
8800817,宮崎県,宮崎市,江平東町,ミヤザキケン,ミヤザキシ,エヒラヒガシマチ,宮崎県宮崎市江平東町
8800818,宮崎県,宮崎市,錦本町,ミヤザキケン,ミヤザキシ,ニシキホンマチ,宮崎県宮崎市錦本町
8800821,宮崎県,宮崎市,浮城町,ミヤザキケン,ミヤザキシ,ウキノジョウチョウ,宮崎県宮崎市浮城町
8800822,宮崎県,宮崎市,権現町,ミヤザキケン,ミヤザキシ,ゴンゲンチョウ,宮崎県宮崎市権現町
8800823,宮崎県,宮崎市,北権現町,ミヤザキケン,ミヤザキシ,キタゴンゲンチョウ,宮崎県宮崎市北権現町
8800824,宮崎県,宮崎市,大島町,ミヤザキケン,ミヤザキシ,オオシマチョウ,宮崎県宮崎市大島町
8800825,宮崎県,宮崎市,東大宮,ミヤザキケン,ミヤザキシ,ヒガシオオミヤ,宮崎県宮崎市東大宮
8800826,宮崎県,宮崎市,波島,ミヤザキケン,ミヤザキシ,ナミシマ,宮崎県宮崎市波島
8800831,宮崎県,宮崎市,新栄町,ミヤザキケン,ミヤザキシ,シンエイチョウ,宮崎県宮崎市新栄町
8800832,宮崎県,宮崎市,稗原町,ミヤザキケン,ミヤザキシ,ヒエバルチョウ,宮崎県宮崎市稗原町
8800833,宮崎県,宮崎市,昭栄町,ミヤザキケン,ミヤザキシ,ショウエイチョウ,宮崎県宮崎市昭栄町
8800834,宮崎県,宮崎市,新別府町,ミヤザキケン,ミヤザキシ,シンベップチョウ,宮崎県宮崎市新別府町
8800835,宮崎県,宮崎市,阿波岐原町,ミヤザキケン,ミヤザキシ,アワキガハラチョウ,宮崎県宮崎市阿波岐原町
8800836,宮崎県,宮崎市,山崎町,ミヤザキケン,ミヤザキシ,ヤマサキチョウ,宮崎県宮崎市山崎町
8800837,宮崎県,宮崎市,村角町,ミヤザキケン,ミヤザキシ,ムラスミチョウ,宮崎県宮崎市村角町
8800841,宮崎県,宮崎市,吉村町,ミヤザキケン,ミヤザキシ,ヨシムラチョウ,宮崎県宮崎市吉村町
8800842,宮崎県,宮崎市,青葉町,ミヤザキケン,ミヤザキシ,アオバチョウ,宮崎県宮崎市青葉町
8800843,宮崎県,宮崎市,下原町,ミヤザキケン,ミヤザキシ,シモハラチョウ,宮崎県宮崎市下原町
8800844,宮崎県,宮崎市,柳丸町,ミヤザキケン,ミヤザキシ,ヤナギマルチョウ,宮崎県宮崎市柳丸町
8800845,宮崎県,宮崎市,新城町,ミヤザキケン,ミヤザキシ,シンジョウチョウ,宮崎県宮崎市新城町
8800851,宮崎県,宮崎市,港東,ミヤザキケン,ミヤザキシ,ミナトヒガシ,宮崎県宮崎市港東
8800852,宮崎県,宮崎市,高洲町,ミヤザキケン,ミヤザキシ,タカスチョウ,宮崎県宮崎市高洲町
8800853,宮崎県,宮崎市,中西町,ミヤザキケン,ミヤザキシ,ナカニシチョウ,宮崎県宮崎市中西町
8800854,宮崎県,宮崎市,一の宮町,ミヤザキケン,ミヤザキシ,イチノミヤチョウ,宮崎県宮崎市一の宮町
8800855,宮崎県,宮崎市,田代町,ミヤザキケン,ミヤザキシ,タシロチョウ,宮崎県宮崎市田代町
8800856,宮崎県,宮崎市,日ノ出町,ミヤザキケン,ミヤザキシ,ヒノデチョウ,宮崎県宮崎市日ノ出町
8800857,宮崎県,宮崎市,小戸町,ミヤザキケン,ミヤザキシ,オドチョウ,宮崎県宮崎市小戸町
8800858,宮崎県,宮崎市,港,ミヤザキケン,ミヤザキシ,ミナト,宮崎県宮崎市港
8800861,宮崎県,宮崎市,出来島町,ミヤザキケン,ミヤザキシ,デキジマチョウ,宮崎県宮崎市出来島町
8800862,宮崎県,宮崎市,潮見町,ミヤザキケン,ミヤザキシ,シオミチョウ,宮崎県宮崎市潮見町
8800863,宮崎県,宮崎市,前原町,ミヤザキケン,ミヤザキシ,マエバルチョウ,宮崎県宮崎市前原町
8800864,宮崎県,宮崎市,吾妻町,ミヤザキケン,ミヤザキシ,アヅマチョウ,宮崎県宮崎市吾妻町
8800865,宮崎県,宮崎市,松山,ミヤザキケン,ミヤザキシ,マツヤマ,宮崎県宮崎市松山
8800866,宮崎県,宮崎市,川原町,ミヤザキケン,ミヤザキシ,カワラマチ,宮崎県宮崎市川原町
8800867,宮崎県,宮崎市,瀬頭,ミヤザキケン,ミヤザキシ,セガシラ,宮崎県宮崎市瀬頭
8800868,宮崎県,宮崎市,瀬頭町,ミヤザキケン,ミヤザキシ,セガシラチョウ,宮崎県宮崎市瀬頭町
8800871,宮崎県,宮崎市,大王町,ミヤザキケン,ミヤザキシ,ダイオウチョウ,宮崎県宮崎市大王町
8800872,宮崎県,宮崎市,永楽町,ミヤザキケン,ミヤザキシ,エイラクチョウ,宮崎県宮崎市永楽町
8800873,宮崎県,宮崎市,堀川町,ミヤザキケン,ミヤザキシ,ホリカワチョウ,宮崎県宮崎市堀川町
8800874,宮崎県,宮崎市,昭和町,ミヤザキケン,ミヤザキシ,ショウワチョウ,宮崎県宮崎市昭和町
8800875,宮崎県,宮崎市,曽師町,ミヤザキケン,ミヤザキシ,ソシチョウ,宮崎県宮崎市曽師町
8800876,宮崎県,宮崎市,浄土江町,ミヤザキケン,ミヤザキシ,ジョウドエチョウ,宮崎県宮崎市浄土江町
8800877,宮崎県,宮崎市,宮脇町,ミヤザキケン,ミヤザキシ,ミヤワキチョウ,宮崎県宮崎市宮脇町
8800878,宮崎県,宮崎市,大和町,ミヤザキケン,ミヤザキシ,ヤマトチョウ,宮崎県宮崎市大和町
8800879,宮崎県,宮崎市,宮崎駅東,ミヤザキケン,ミヤザキシ,ミヤザキエキヒガシ,宮崎県宮崎市宮崎駅東
8800901,宮崎県,宮崎市,東大淀,ミヤザキケン,ミヤザキシ,ヒガシオオヨド,宮崎県宮崎市東大淀
8800902,宮崎県,宮崎市,大淀,ミヤザキケン,ミヤザキシ,オオヨド,宮崎県宮崎市大淀
8800903,宮崎県,宮崎市,太田,ミヤザキケン,ミヤザキシ,オオタ,宮崎県宮崎市太田
8800904,宮崎県,宮崎市,中村東,ミヤザキケン,ミヤザキシ,ナカムラヒガシ,宮崎県宮崎市中村東
8800905,宮崎県,宮崎市,中村西,ミヤザキケン,ミヤザキシ,ナカムラニシ,宮崎県宮崎市中村西
8800906,宮崎県,宮崎市,南町,ミヤザキケン,ミヤザキシ,ミナミマチ,宮崎県宮崎市南町
8800907,宮崎県,宮崎市,淀川,ミヤザキケン,ミヤザキシ,ヨドガワ,宮崎県宮崎市淀川
8800908,宮崎県,宮崎市,谷川,ミヤザキケン,ミヤザキシ,タニガワ,宮崎県宮崎市谷川
8800909,宮崎県,宮崎市,谷川町,ミヤザキケン,ミヤザキシ,タニガワチョウ,宮崎県宮崎市谷川町
8800911,宮崎県,宮崎市,田吉,ミヤザキケン,ミヤザキシ,タヨシ,宮崎県宮崎市田吉
8800912,宮崎県,宮崎市,赤江,ミヤザキケン,ミヤザキシ,アカエ,宮崎県宮崎市赤江
8800913,宮崎県,宮崎市,恒久（丁目）,ミヤザキケン,ミヤザキシ,ツネヒサ(チョウメ),宮崎県宮崎市恒久（丁目）
8800914,宮崎県,宮崎市,宮の元町,ミヤザキケン,ミヤザキシ,ミヤノモトマチ,宮崎県宮崎市宮の元町
8800915,宮崎県,宮崎市,恒久南,ミヤザキケン,ミヤザキシ,ツネヒサミナミ,宮崎県宮崎市恒久南
8800916,宮崎県,宮崎市,恒久（番地）,ミヤザキケン,ミヤザキシ,ツネヒサ(バンチ),宮崎県宮崎市恒久（番地）
8800917,宮崎県,宮崎市,城ケ崎,ミヤザキケン,ミヤザキシ,ジョウガサキ,宮崎県宮崎市城ケ崎
8800921,宮崎県,宮崎市,本郷南方,ミヤザキケン,ミヤザキシ,ホンゴウミナミカタ,宮崎県宮崎市本郷南方
8800922,宮崎県,宮崎市,本郷,ミヤザキケン,ミヤザキシ,ホンゴウ,宮崎県宮崎市本郷
8800923,宮崎県,宮崎市,希望ケ丘,ミヤザキケン,ミヤザキシ,キボウガオカ,宮崎県宮崎市希望ケ丘
8800924,宮崎県,宮崎市,郡司分,ミヤザキケン,ミヤザキシ,グジブン,宮崎県宮崎市郡司分
8800925,宮崎県,宮崎市,本郷北方,ミヤザキケン,ミヤザキシ,ホンゴウキタカタ,宮崎県宮崎市本郷北方
8800926,宮崎県,宮崎市,月見ケ丘,ミヤザキケン,ミヤザキシ,ツキミガオカ,宮崎県宮崎市月見ケ丘
8800927,宮崎県,宮崎市,源藤町,ミヤザキケン,ミヤザキシ,ゲンドウチョウ,宮崎県宮崎市源藤町
8800928,宮崎県,宮崎市,東宮,ミヤザキケン,ミヤザキシ,トウグウ,宮崎県宮崎市東宮
8800929,宮崎県,宮崎市,まなび野,ミヤザキケン,ミヤザキシ,マナビノ,宮崎県宮崎市まなび野
8800930,宮崎県,宮崎市,花山手東,ミヤザキケン,ミヤザキシ,ハナヤマテヒガシ,宮崎県宮崎市花山手東
8800931,宮崎県,宮崎市,古城町,ミヤザキケン,ミヤザキシ,フルジョウチョウ,宮崎県宮崎市古城町
8800932,宮崎県,宮崎市,大坪西,ミヤザキケン,ミヤザキシ,オオツボニシ,宮崎県宮崎市大坪西
8800933,宮崎県,宮崎市,大坪町,ミヤザキケン,ミヤザキシ,オオツボチョウ,宮崎県宮崎市大坪町
8800934,宮崎県,宮崎市,大坪東,ミヤザキケン,ミヤザキシ,オオツボヒガシ,宮崎県宮崎市大坪東
8800935,宮崎県,宮崎市,天満町,ミヤザキケン,ミヤザキシ,テンマンチョウ,宮崎県宮崎市天満町
8800936,宮崎県,宮崎市,天満,ミヤザキケン,ミヤザキシ,テンマン,宮崎県宮崎市天満
8800937,宮崎県,宮崎市,京塚,ミヤザキケン,ミヤザキシ,キョウツカ,宮崎県宮崎市京塚
8800938,宮崎県,宮崎市,京塚町,ミヤザキケン,ミヤザキシ,キョウヅカチョウ,宮崎県宮崎市京塚町
8800939,宮崎県,宮崎市,花山手西,ミヤザキケン,ミヤザキシ,ハナヤマテニシ,宮崎県宮崎市花山手西
8800941,宮崎県,宮崎市,北川内町,ミヤザキケン,ミヤザキシ,キタカワウチチョウ,宮崎県宮崎市北川内町
8800942,宮崎県,宮崎市,生目台東,ミヤザキケン,ミヤザキシ,イキメダイヒガシ,宮崎県宮崎市生目台東
8800943,宮崎県,宮崎市,生目台西,ミヤザキケン,ミヤザキシ,イキメダイニシ,宮崎県宮崎市生目台西
8800944,宮崎県,宮崎市,江南,ミヤザキケン,ミヤザキシ,コウナン,宮崎県宮崎市江南
8800945,宮崎県,宮崎市,福島町（番地）,ミヤザキケン,ミヤザキシ,フクシマチョウ(バンチ),宮崎県宮崎市福島町（番地）
8800946,宮崎県,宮崎市,福島町（丁目）,ミヤザキケン,ミヤザキシ,フクシマチョウ(チョウメ),宮崎県宮崎市福島町（丁目）
8800947,宮崎県,宮崎市,薫る坂,ミヤザキケン,ミヤザキシ,カオルザカ,宮崎県宮崎市薫る坂
8800951,宮崎県,宮崎市,大塚町,ミヤザキケン,ミヤザキシ,オオツカチョウ,宮崎県宮崎市大塚町
8800952,宮崎県,宮崎市,大塚台東,ミヤザキケン,ミヤザキシ,オオツカダイヒガシ,宮崎県宮崎市大塚台東
8800953,宮崎県,宮崎市,小松台東,ミヤザキケン,ミヤザキシ,コマツダイヒガシ,宮崎県宮崎市小松台東
8800954,宮崎県,宮崎市,小松台西,ミヤザキケン,ミヤザキシ,コマツダイニシ,宮崎県宮崎市小松台西
8800955,宮崎県,宮崎市,桜ケ丘町,ミヤザキケン,ミヤザキシ,サクラガオカチョウ,宮崎県宮崎市桜ケ丘町
8800956,宮崎県,宮崎市,小松台南町,ミヤザキケン,ミヤザキシ,コマツダイミナミマチ,宮崎県宮崎市小松台南町
8801100,宮崎県,東諸県郡国富町,,ミヤザキケン,ヒガシモロカタグンクニトミチョウ,,宮崎県東諸県郡国富町
8801101,宮崎県,東諸県郡国富町,本庄,ミヤザキケン,ヒガシモロカタグンクニトミチョウ,ホンジョウ,宮崎県東諸県郡国富町本庄
8801102,宮崎県,東諸県郡国富町,宮王丸,ミヤザキケン,ヒガシモロカタグンクニトミチョウ,ミヤオウマル,宮崎県東諸県郡国富町宮王丸
8801103,宮崎県,東諸県郡国富町,嵐田,ミヤザキケン,ヒガシモロカタグンクニトミチョウ,アラシダ,宮崎県東諸県郡国富町嵐田
8801104,宮崎県,東諸県郡国富町,田尻,ミヤザキケン,ヒガシモロカタグンクニトミチョウ,タジリ,宮崎県東諸県郡国富町田尻
8801105,宮崎県,東諸県郡国富町,向高,ミヤザキケン,ヒガシモロカタグンクニトミチョウ,ムコウタカ,宮崎県東諸県郡国富町向高
8801106,宮崎県,東諸県郡国富町,森永,ミヤザキケン,ヒガシモロカタグンクニトミチョウ,モリナガ,宮崎県東諸県郡国富町森永
8801107,宮崎県,東諸県郡国富町,竹田,ミヤザキケン,ヒガシモロカタグンクニトミチョウ,タケダ,宮崎県東諸県郡国富町竹田
8801108,宮崎県,東諸県郡国富町,須志田,ミヤザキケン,ヒガシモロカタグンクニトミチョウ,スシダ,宮崎県東諸県郡国富町須志田
8801111,宮崎県,東諸県郡国富町,岩知野,ミヤザキケン,ヒガシモロカタグンクニトミチョウ,イワチノ,宮崎県東諸県郡国富町岩知野
8801112,宮崎県,東諸県郡国富町,塚原,ミヤザキケン,ヒガシモロカタグンクニトミチョウ,ツカバル,宮崎県東諸県郡国富町塚原
8801113,宮崎県,東諸県郡国富町,木脇,ミヤザキケン,ヒガシモロカタグンクニトミチョウ,キワキ,宮崎県東諸県郡国富町木脇
8801114,宮崎県,東諸県郡国富町,三名,ミヤザキケン,ヒガシモロカタグンクニトミチョウ,サンミョウ,宮崎県東諸県郡国富町三名
8801121,宮崎県,東諸県郡国富町,伊左生（吹上）,ミヤザキケン,ヒガシモロカタグンクニトミチョウ,イザオ(フキアゲ),宮崎県東諸県郡国富町伊左生（吹上）
8801221,宮崎県,東諸県郡国富町,伊左生（その他）,ミヤザキケン,ヒガシモロカタグンクニトミチョウ,イザオ(ソノタ),宮崎県東諸県郡国富町伊左生（その他）
8801222,宮崎県,東諸県郡国富町,八代北俣,ミヤザキケン,ヒガシモロカタグンクニトミチョウ,ヤツシロキタマタ,宮崎県東諸県郡国富町八代北俣
8801223,宮崎県,東諸県郡国富町,八代南俣,ミヤザキケン,ヒガシモロカタグンクニトミチョウ,ヤツシロミナミマタ,宮崎県東諸県郡国富町八代南俣
8801224,宮崎県,東諸県郡国富町,深年,ミヤザキケン,ヒガシモロカタグンクニトミチョウ,フカドシ,宮崎県東諸県郡国富町深年
8801300,宮崎県,東諸県郡綾町,,ミヤザキケン,ヒガシモロカタグンアヤチョウ,,宮崎県東諸県郡綾町
8801301,宮崎県,東諸県郡綾町,入野,ミヤザキケン,ヒガシモロカタグンアヤチョウ,イリノ,宮崎県東諸県郡綾町入野
8801302,宮崎県,東諸県郡綾町,北俣,ミヤザキケン,ヒガシモロカタグンアヤチョウ,キタマタ,宮崎県東諸県郡綾町北俣
8801303,宮崎県,東諸県郡綾町,南俣,ミヤザキケン,ヒガシモロカタグンアヤチョウ,ミナミマタ,宮崎県東諸県郡綾町南俣
8802101,宮崎県,宮崎市,跡江,ミヤザキケン,ミヤザキシ,アトエ,宮崎県宮崎市跡江
8802102,宮崎県,宮崎市,有田,ミヤザキケン,ミヤザキシ,アリタ,宮崎県宮崎市有田
8802103,宮崎県,宮崎市,生目,ミヤザキケン,ミヤザキシ,イキメ,宮崎県宮崎市生目
8802104,宮崎県,宮崎市,浮田,ミヤザキケン,ミヤザキシ,ウキタ,宮崎県宮崎市浮田
8802105,宮崎県,宮崎市,大塚台西,ミヤザキケン,ミヤザキシ,オオツカダイニシ,宮崎県宮崎市大塚台西
8802111,宮崎県,宮崎市,柏原,ミヤザキケン,ミヤザキシ,カシワバル,宮崎県宮崎市柏原
8802112,宮崎県,宮崎市,小松,ミヤザキケン,ミヤザキシ,コマツ,宮崎県宮崎市小松
8802113,宮崎県,宮崎市,小松台北町,ミヤザキケン,ミヤザキシ,コマツダイキタマチ,宮崎県宮崎市小松台北町
8802114,宮崎県,宮崎市,富吉,ミヤザキケン,ミヤザキシ,トミヨシ,宮崎県宮崎市富吉
8802115,宮崎県,宮崎市,長嶺,ミヤザキケン,ミヤザキシ,ナガミネ,宮崎県宮崎市長嶺
8802116,宮崎県,宮崎市,細江（その他）,ミヤザキケン,ミヤザキシ,ホソエ(ソノタ),宮崎県宮崎市細江（その他）
8802211,宮崎県,宮崎市,高岡町花見,ミヤザキケン,ミヤザキシ,タカオカチョウハナミ,宮崎県宮崎市高岡町花見
8802212,宮崎県,宮崎市,高岡町下倉永,ミヤザキケン,ミヤザキシ,タカオカチョウシモクラナガ,宮崎県宮崎市高岡町下倉永
8802213,宮崎県,宮崎市,高岡町上倉永（その他）,ミヤザキケン,ミヤザキシ,タカオカチョウカミクラナガ(ソノタ),宮崎県宮崎市高岡町上倉永（その他）
8802214,宮崎県,宮崎市,高岡町小山田,ミヤザキケン,ミヤザキシ,タカオカチョウオヤマダ,宮崎県宮崎市高岡町小山田
8802215,宮崎県,宮崎市,高岡町高浜,ミヤザキケン,ミヤザキシ,タカオカチョウタカハマ,宮崎県宮崎市高岡町高浜
8802221,宮崎県,宮崎市,高岡町内山（１〜３２１４番地）,ミヤザキケン,ミヤザキシ,タカオカチョウウチヤマ(1-3214バンチ),宮崎県宮崎市高岡町内山（1〜3214-）
8802222,宮崎県,宮崎市,高岡町五町（１〜３１３７番地）,ミヤザキケン,ミヤザキシ,タカオカチョウゴチョウ(1-3137バンチ),宮崎県宮崎市高岡町五町（1〜3137-）
8802223,宮崎県,宮崎市,高岡町浦之名（２７９３〜４３８９番地）,ミヤザキケン,ミヤザキシ,タカオカチョウウラノミョウ(2793-4389バンチ),宮崎県宮崎市高岡町浦之名（2793〜4389-）
8802224,宮崎県,宮崎市,高岡町飯田,ミヤザキケン,ミヤザキシ,タカオカチョウイイダ,宮崎県宮崎市高岡町飯田
8802231,宮崎県,宮崎市,糸原,ミヤザキケン,ミヤザキシ,イトバル,宮崎県宮崎市糸原
8802232,宮崎県,宮崎市,堤内,ミヤザキケン,ミヤザキシ,ツツミウチ,宮崎県宮崎市堤内
8802233,宮崎県,宮崎市,吉野,ミヤザキケン,ミヤザキシ,ヨシノ,宮崎県宮崎市吉野
8802234,宮崎県,宮崎市,金崎,ミヤザキケン,ミヤザキシ,カネザキ,宮崎県宮崎市金崎
8802303,宮崎県,都城市,山之口町山之口（上平野、仲田）,ミヤザキケン,ミヤコノジョウシ,ヤマノクチチョウヤマノクチ(カミヒラノ、ナカタ),宮崎県都城市山之口町山之口（上平野、仲田）
8802321,宮崎県,宮崎市,高岡町内山（その他）,ミヤザキケン,ミヤザキシ,タカオカチョウウチヤマ(ソノタ),宮崎県宮崎市高岡町内山（その他）
8802322,宮崎県,宮崎市,高岡町五町（その他）,ミヤザキケン,ミヤザキシ,タカオカチョウゴチョウ(ソノタ),宮崎県宮崎市高岡町五町（その他）
8802323,宮崎県,宮崎市,高岡町浦之名（その他）,ミヤザキケン,ミヤザキシ,タカオカチョウウラノミョウ(ソノタ),宮崎県宮崎市高岡町浦之名（その他）
8802325,宮崎県,宮崎市,高岡町紙屋,ミヤザキケン,ミヤザキシ,タカオカチョウカミヤ,宮崎県宮崎市高岡町紙屋
8810000,宮崎県,西都市,,ミヤザキケン,サイトシ,,宮崎県西都市
8810001,宮崎県,西都市,岡富,ミヤザキケン,サイトシ,オカドミ,宮崎県西都市岡富
8810002,宮崎県,西都市,黒生野,ミヤザキケン,サイトシ,クロウノ,宮崎県西都市黒生野
8810003,宮崎県,西都市,右松,ミヤザキケン,サイトシ,ミギマツ,宮崎県西都市右松
8810004,宮崎県,西都市,清水,ミヤザキケン,サイトシ,キヨミズ,宮崎県西都市清水
8810005,宮崎県,西都市,三宅,ミヤザキケン,サイトシ,ミヤケ,宮崎県西都市三宅
8810006,宮崎県,西都市,新町,ミヤザキケン,サイトシ,シンマチ,宮崎県西都市新町
8810011,宮崎県,西都市,有吉町,ミヤザキケン,サイトシ,アリヨシチョウ,宮崎県西都市有吉町
8810012,宮崎県,西都市,小野崎,ミヤザキケン,サイトシ,オノザキ,宮崎県西都市小野崎
8810013,宮崎県,西都市,小野崎町,ミヤザキケン,サイトシ,オノザキチョウ,宮崎県西都市小野崎町
8810014,宮崎県,西都市,下妻,ミヤザキケン,サイトシ,シモヅマ,宮崎県西都市下妻
8810015,宮崎県,西都市,聖陵町,ミヤザキケン,サイトシ,セイリョウチョウ,宮崎県西都市聖陵町
8810016,宮崎県,西都市,御舟町,ミヤザキケン,サイトシ,ミフネチョウ,宮崎県西都市御舟町
8810021,宮崎県,西都市,上町,ミヤザキケン,サイトシ,カミマチ,宮崎県西都市上町
8810022,宮崎県,西都市,桜川町,ミヤザキケン,サイトシ,サクラガワチョウ,宮崎県西都市桜川町
8810023,宮崎県,西都市,調殿,ミヤザキケン,サイトシ,ツキドノ,宮崎県西都市調殿
8810024,宮崎県,西都市,中妻,ミヤザキケン,サイトシ,ナカヅマ,宮崎県西都市中妻
8810025,宮崎県,西都市,童子丸,ミヤザキケン,サイトシ,ドウジマル,宮崎県西都市童子丸
8810026,宮崎県,西都市,穂北,ミヤザキケン,サイトシ,ホキタ,宮崎県西都市穂北
8810027,宮崎県,西都市,南方,ミヤザキケン,サイトシ,ミナミカタ,宮崎県西都市南方
8810031,宮崎県,西都市,旭,ミヤザキケン,サイトシ,アサヒ,宮崎県西都市旭
8810032,宮崎県,西都市,白馬町,ミヤザキケン,サイトシ,シラウマチョウ,宮崎県西都市白馬町
8810033,宮崎県,西都市,妻,ミヤザキケン,サイトシ,ツマ,宮崎県西都市妻
8810034,宮崎県,西都市,妻町,ミヤザキケン,サイトシ,ツマチョウ,宮崎県西都市妻町
8810035,宮崎県,西都市,中央町,ミヤザキケン,サイトシ,チュウオウチョウ,宮崎県西都市中央町
8810036,宮崎県,西都市,水流崎町,ミヤザキケン,サイトシ,ツルサキチョウ,宮崎県西都市水流崎町
8810037,宮崎県,西都市,茶臼原,ミヤザキケン,サイトシ,チャウスバル,宮崎県西都市茶臼原
8810101,宮崎県,西都市,三納,ミヤザキケン,サイトシ,ミノウ,宮崎県西都市三納
8810102,宮崎県,西都市,平郡,ミヤザキケン,サイトシ,ヘゴオリ,宮崎県西都市平郡
8810103,宮崎県,西都市,加勢,ミヤザキケン,サイトシ,カゼ,宮崎県西都市加勢
8810104,宮崎県,西都市,鹿野田,ミヤザキケン,サイトシ,カノダ,宮崎県西都市鹿野田
8810105,宮崎県,西都市,都於郡町,ミヤザキケン,サイトシ,トノコオリマチ,宮崎県西都市都於郡町
8810106,宮崎県,西都市,岩爪,ミヤザキケン,サイトシ,イワヅメ,宮崎県西都市岩爪
8810111,宮崎県,西都市,荒武,ミヤザキケン,サイトシ,アラタケ,宮崎県西都市荒武
8810112,宮崎県,西都市,山田,ミヤザキケン,サイトシ,ヤマダ,宮崎県西都市山田
8810113,宮崎県,西都市,下三財,ミヤザキケン,サイトシ,シモサンザイ,宮崎県西都市下三財
8810114,宮崎県,西都市,藤田,ミヤザキケン,サイトシ,トウダ,宮崎県西都市藤田
8810115,宮崎県,西都市,上三財,ミヤザキケン,サイトシ,カミサンザイ,宮崎県西都市上三財
8810116,宮崎県,西都市,寒川,ミヤザキケン,サイトシ,サブカワ,宮崎県西都市寒川
8811121,宮崎県,西都市,尾八重,ミヤザキケン,サイトシ,オハエ,宮崎県西都市尾八重
8811122,宮崎県,西都市,片内,ミヤザキケン,サイトシ,カタウチ,宮崎県西都市片内
8811123,宮崎県,西都市,中尾,ミヤザキケン,サイトシ,ナカオ,宮崎県西都市中尾
8811231,宮崎県,西都市,上揚,ミヤザキケン,サイトシ,カミアゲ,宮崎県西都市上揚
8811232,宮崎県,西都市,銀鏡,ミヤザキケン,サイトシ,シロミ,宮崎県西都市銀鏡
8811233,宮崎県,西都市,八重,ミヤザキケン,サイトシ,ハエ,宮崎県西都市八重
8811301,宮崎県,児湯郡西米良村,越野尾,ミヤザキケン,コユグンニシメラソン,コシノオ,宮崎県児湯郡西米良村越野尾
8811302,宮崎県,児湯郡西米良村,小川,ミヤザキケン,コユグンニシメラソン,オガワ,宮崎県児湯郡西米良村小川
8811303,宮崎県,児湯郡西米良村,横野,ミヤザキケン,コユグンニシメラソン,ヨコノ,宮崎県児湯郡西米良村横野
8811400,宮崎県,児湯郡西米良村,,ミヤザキケン,コユグンニシメラソン,,宮崎県児湯郡西米良村
8811411,宮崎県,児湯郡西米良村,村所,ミヤザキケン,コユグンニシメラソン,ムラショ,宮崎県児湯郡西米良村村所
8811412,宮崎県,児湯郡西米良村,板谷,ミヤザキケン,コユグンニシメラソン,イタヤ,宮崎県児湯郡西米良村板谷
8811413,宮崎県,児湯郡西米良村,上米良,ミヤザキケン,コユグンニシメラソン,カンメラ,宮崎県児湯郡西米良村上米良
8811414,宮崎県,児湯郡西米良村,竹原,ミヤザキケン,コユグンニシメラソン,タケワラ,宮崎県児湯郡西米良村竹原
8820000,宮崎県,延岡市,,ミヤザキケン,ノベオカシ,,宮崎県延岡市
8820001,宮崎県,延岡市,大峡町,ミヤザキケン,ノベオカシ,オオカイマチ,宮崎県延岡市大峡町
8820002,宮崎県,延岡市,差木野町,ミヤザキケン,ノベオカシ,サシキノマチ,宮崎県延岡市差木野町
8820003,宮崎県,延岡市,稲葉崎町,ミヤザキケン,ノベオカシ,イナバザキマチ,宮崎県延岡市稲葉崎町
8820004,宮崎県,延岡市,樫山町,ミヤザキケン,ノベオカシ,カシヤママチ,宮崎県延岡市樫山町
8820005,宮崎県,延岡市,夏田町,ミヤザキケン,ノベオカシ,ナツタマチ,宮崎県延岡市夏田町
8820006,宮崎県,延岡市,尾崎町,ミヤザキケン,ノベオカシ,オザキマチ,宮崎県延岡市尾崎町
8820007,宮崎県,延岡市,桜ケ丘,ミヤザキケン,ノベオカシ,サクラガオカ,宮崎県延岡市桜ケ丘
8820011,宮崎県,延岡市,須佐町,ミヤザキケン,ノベオカシ,スサマチ,宮崎県延岡市須佐町
8820012,宮崎県,延岡市,鹿小路,ミヤザキケン,ノベオカシ,カショウジ,宮崎県延岡市鹿小路
8820013,宮崎県,延岡市,追内町,ミヤザキケン,ノベオカシ,オイウチマチ,宮崎県延岡市追内町
8820014,宮崎県,延岡市,白石町,ミヤザキケン,ノベオカシ,シロイシマチ,宮崎県延岡市白石町
8820015,宮崎県,延岡市,水尻町,ミヤザキケン,ノベオカシ,ミズシリマチ,宮崎県延岡市水尻町
8820016,宮崎県,延岡市,東海町,ミヤザキケン,ノベオカシ,トウミマチ,宮崎県延岡市東海町
8820017,宮崎県,延岡市,川島町,ミヤザキケン,ノベオカシ,カワシママチ,宮崎県延岡市川島町
8820021,宮崎県,延岡市,無鹿町,ミヤザキケン,ノベオカシ,ムシカマチ,宮崎県延岡市無鹿町
8820022,宮崎県,延岡市,二ツ島町,ミヤザキケン,ノベオカシ,フタツシママチ,宮崎県延岡市二ツ島町
8820023,宮崎県,延岡市,牧町,ミヤザキケン,ノベオカシ,マキマチ,宮崎県延岡市牧町
8820024,宮崎県,延岡市,大武町,ミヤザキケン,ノベオカシ,オオダケマチ,宮崎県延岡市大武町
8820025,宮崎県,延岡市,粟野名町,ミヤザキケン,ノベオカシ,アワノミョウマチ,宮崎県延岡市粟野名町
8820026,宮崎県,延岡市,柚の木田町,ミヤザキケン,ノベオカシ,ユノキダマチ,宮崎県延岡市柚の木田町
8820027,宮崎県,延岡市,大門町,ミヤザキケン,ノベオカシ,オオカドマチ,宮崎県延岡市大門町
8820031,宮崎県,延岡市,中川原町,ミヤザキケン,ノベオカシ,ナカガワラマチ,宮崎県延岡市中川原町
8820032,宮崎県,延岡市,中の瀬町,ミヤザキケン,ノベオカシ,ナカノセマチ,宮崎県延岡市中の瀬町
8820033,宮崎県,延岡市,川原崎町,ミヤザキケン,ノベオカシ,カワラサキマチ,宮崎県延岡市川原崎町
8820034,宮崎県,延岡市,昭和町,ミヤザキケン,ノベオカシ,ショウワマチ,宮崎県延岡市昭和町
8820035,宮崎県,延岡市,日の出町,ミヤザキケン,ノベオカシ,ヒノデマチ,宮崎県延岡市日の出町
8820036,宮崎県,延岡市,桜園町,ミヤザキケン,ノベオカシ,サクラゾノマチ,宮崎県延岡市桜園町
8820037,宮崎県,延岡市,山月町,ミヤザキケン,ノベオカシ,ヤマツキマチ,宮崎県延岡市山月町
8820041,宮崎県,延岡市,北小路,ミヤザキケン,ノベオカシ,キタコウジ,宮崎県延岡市北小路
8820042,宮崎県,延岡市,高千穂通,ミヤザキケン,ノベオカシ,タカチホドオリ,宮崎県延岡市高千穂通
8820043,宮崎県,延岡市,祗園町,ミヤザキケン,ノベオカシ,ギオンマチ,宮崎県延岡市祗園町
8820044,宮崎県,延岡市,博労町,ミヤザキケン,ノベオカシ,バクロウマチ,宮崎県延岡市博労町
8820045,宮崎県,延岡市,瀬之口町,ミヤザキケン,ノベオカシ,セノクチマチ,宮崎県延岡市瀬之口町
8820046,宮崎県,延岡市,恵比須町,ミヤザキケン,ノベオカシ,エビスマチ,宮崎県延岡市恵比須町
8820047,宮崎県,延岡市,紺屋町,ミヤザキケン,ノベオカシ,コンヤマチ,宮崎県延岡市紺屋町
8820051,宮崎県,延岡市,富美山町,ミヤザキケン,ノベオカシ,トミヤママチ,宮崎県延岡市富美山町
8820052,宮崎県,延岡市,萩町,ミヤザキケン,ノベオカシ,ハギマチ,宮崎県延岡市萩町
8820053,宮崎県,延岡市,幸町,ミヤザキケン,ノベオカシ,サイワイマチ,宮崎県延岡市幸町
8820054,宮崎県,延岡市,栄町,ミヤザキケン,ノベオカシ,サカエマチ,宮崎県延岡市栄町
8820055,宮崎県,延岡市,山下町,ミヤザキケン,ノベオカシ,ヤマシタマチ,宮崎県延岡市山下町
8820056,宮崎県,延岡市,岡富町,ミヤザキケン,ノベオカシ,オカトミマチ,宮崎県延岡市岡富町
8820057,宮崎県,延岡市,岡富山,ミヤザキケン,ノベオカシ,オカトミヤマ,宮崎県延岡市岡富山
8820061,宮崎県,延岡市,小峰町,ミヤザキケン,ノベオカシ,コミネマチ,宮崎県延岡市小峰町
8820062,宮崎県,延岡市,松山町,ミヤザキケン,ノベオカシ,マツヤママチ,宮崎県延岡市松山町
8820063,宮崎県,延岡市,古川町,ミヤザキケン,ノベオカシ,フルカワマチ,宮崎県延岡市古川町
8820064,宮崎県,延岡市,高野町,ミヤザキケン,ノベオカシ,タカノマチ,宮崎県延岡市高野町
8820065,宮崎県,延岡市,平田町,ミヤザキケン,ノベオカシ,ヒラタマチ,宮崎県延岡市平田町
8820066,宮崎県,延岡市,舞野町,ミヤザキケン,ノベオカシ,マイノマチ,宮崎県延岡市舞野町
8820071,宮崎県,延岡市,天下町,ミヤザキケン,ノベオカシ,アモリマチ,宮崎県延岡市天下町
8820072,宮崎県,延岡市,吉野町,ミヤザキケン,ノベオカシ,ヨシノマチ,宮崎県延岡市吉野町
8820073,宮崎県,延岡市,貝の畑町,ミヤザキケン,ノベオカシ,カイノハタマチ,宮崎県延岡市貝の畑町
8820074,宮崎県,延岡市,細見町,ミヤザキケン,ノベオカシ,ホソミマチ,宮崎県延岡市細見町
8820075,宮崎県,延岡市,岡元町,ミヤザキケン,ノベオカシ,オカモトマチ,宮崎県延岡市岡元町
8820076,宮崎県,延岡市,小川町,ミヤザキケン,ノベオカシ,コガワマチ,宮崎県延岡市小川町
8820077,宮崎県,延岡市,行縢町,ミヤザキケン,ノベオカシ,ムカバキマチ,宮崎県延岡市行縢町
8820081,宮崎県,延岡市,佐野町,ミヤザキケン,ノベオカシ,サノマチ,宮崎県延岡市佐野町
8820082,宮崎県,延岡市,祝子町,ミヤザキケン,ノベオカシ,ホウリマチ,宮崎県延岡市祝子町
8820083,宮崎県,延岡市,柚木町,ミヤザキケン,ノベオカシ,ユウギマチ,宮崎県延岡市柚木町
8820084,宮崎県,延岡市,宇和田町,ミヤザキケン,ノベオカシ,ウワダマチ,宮崎県延岡市宇和田町
8820085,宮崎県,延岡市,鹿狩瀬町,ミヤザキケン,ノベオカシ,カガセマチ,宮崎県延岡市鹿狩瀬町
8820086,宮崎県,延岡市,大野町,ミヤザキケン,ノベオカシ,オオノマチ,宮崎県延岡市大野町
8820087,宮崎県,延岡市,妙町,ミヤザキケン,ノベオカシ,ミョウマチ,宮崎県延岡市妙町
8820091,宮崎県,延岡市,桑平町,ミヤザキケン,ノベオカシ,クワヒラマチ,宮崎県延岡市桑平町
8820092,宮崎県,延岡市,宮長町,ミヤザキケン,ノベオカシ,ミヤナガマチ,宮崎県延岡市宮長町
8820093,宮崎県,延岡市,神戸町,ミヤザキケン,ノベオカシ,コウベマチ,宮崎県延岡市神戸町
8820094,宮崎県,延岡市,安井町,ミヤザキケン,ノベオカシ,ヤスイマチ,宮崎県延岡市安井町
8820095,宮崎県,延岡市,浦城町,ミヤザキケン,ノベオカシ,ウラシロマチ,宮崎県延岡市浦城町
8820096,宮崎県,延岡市,島浦町,ミヤザキケン,ノベオカシ,シマウラマチ,宮崎県延岡市島浦町
8820097,宮崎県,延岡市,北川町川内名（祝子川）,ミヤザキケン,ノベオカシ,キタガワマチカワチミョウ(ホウリガワ),宮崎県延岡市北川町川内名（祝子川）
8820101,宮崎県,延岡市,北方町二股,ミヤザキケン,ノベオカシ,キタカタマチフタマタ,宮崎県延岡市北方町二股
8820104,宮崎県,延岡市,北方町角田,ミヤザキケン,ノベオカシ,キタカタマチツノダ,宮崎県延岡市北方町角田
8820106,宮崎県,延岡市,北方町笠下,ミヤザキケン,ノベオカシ,キタカタマチカサシタ,宮崎県延岡市北方町笠下
8820107,宮崎県,延岡市,北方町藤の木,ミヤザキケン,ノベオカシ,キタカタマチフジノキ,宮崎県延岡市北方町藤の木
8820121,宮崎県,延岡市,北方町板上,ミヤザキケン,ノベオカシ,キタカタマチイタカミ,宮崎県延岡市北方町板上
8820122,宮崎県,延岡市,北方町板下,ミヤザキケン,ノベオカシ,キタカタマチイタシモ,宮崎県延岡市北方町板下
8820123,宮崎県,延岡市,北方町うそ越,ミヤザキケン,ノベオカシ,キタカタマチウソゴエ,宮崎県延岡市北方町うそ越
8820124,宮崎県,延岡市,北方町曽木,ミヤザキケン,ノベオカシ,キタカタマチソキ,宮崎県延岡市北方町曽木
8820125,宮崎県,延岡市,北方町川水流,ミヤザキケン,ノベオカシ,キタカタマチカワズル,宮崎県延岡市北方町川水流
8820126,宮崎県,延岡市,北方町上崎,ミヤザキケン,ノベオカシ,キタカタマチカミザキ,宮崎県延岡市北方町上崎
8820127,宮崎県,延岡市,北方町蔵田,ミヤザキケン,ノベオカシ,キタカタマチクラタ,宮崎県延岡市北方町蔵田
8820128,宮崎県,延岡市,北方町南久保山,ミヤザキケン,ノベオカシ,キタカタマチミナミクボヤマ,宮崎県延岡市北方町南久保山
8820129,宮崎県,延岡市,北方町北久保山,ミヤザキケン,ノベオカシ,キタカタマチキタクボヤマ,宮崎県延岡市北方町北久保山
8820231,宮崎県,延岡市,北方町上鹿川,ミヤザキケン,ノベオカシ,キタカタマチカミシシガワ,宮崎県延岡市北方町上鹿川
8820232,宮崎県,延岡市,北方町下鹿川,ミヤザキケン,ノベオカシ,キタカタマチシモシシガワ,宮崎県延岡市北方町下鹿川
8820233,宮崎県,延岡市,北方町菅原,ミヤザキケン,ノベオカシ,キタカタマチスゲバル,宮崎県延岡市北方町菅原
8820234,宮崎県,延岡市,北方町美々地,ミヤザキケン,ノベオカシ,キタカタマチミミチ,宮崎県延岡市北方町美々地
8820235,宮崎県,延岡市,北方町槇峰,ミヤザキケン,ノベオカシ,キタカタマチマキミネ,宮崎県延岡市北方町槇峰
8820236,宮崎県,延岡市,北方町日平,ミヤザキケン,ノベオカシ,キタカタマチヒビラ,宮崎県延岡市北方町日平
8820237,宮崎県,延岡市,北方町椎畑,ミヤザキケン,ノベオカシ,キタカタマチシイバタ,宮崎県延岡市北方町椎畑
8820238,宮崎県,延岡市,北方町滝下,ミヤザキケン,ノベオカシ,キタカタマチタキシタ,宮崎県延岡市北方町滝下
8820241,宮崎県,延岡市,北方町三ケ村,ミヤザキケン,ノベオカシ,キタカタマチサンガムラ,宮崎県延岡市北方町三ケ村
8820242,宮崎県,延岡市,北方町八峡,ミヤザキケン,ノベオカシ,キタカタマチヤカイ,宮崎県延岡市北方町八峡
8820243,宮崎県,延岡市,北方町早日渡,ミヤザキケン,ノベオカシ,キタカタマチハヤヒト,宮崎県延岡市北方町早日渡
8820244,宮崎県,延岡市,北方町早中,ミヤザキケン,ノベオカシ,キタカタマチハヤナカ,宮崎県延岡市北方町早中
8820245,宮崎県,延岡市,北方町早上,ミヤザキケン,ノベオカシ,キタカタマチハヤカミ,宮崎県延岡市北方町早上
8820301,宮崎県,西臼杵郡日之影町,七折（阿下、笠戸、椛木、鹿川、新町、滝ノ内、中川、,ミヤザキケン,ニシウスキグンヒノカゲチョウ,ナナオリ(アゲ、カサド、カバギ、シシガワ、シンマチ、タキノウチ、ナカガワ、,宮崎県西臼杵郡日之影町七折（阿下、笠戸、椛木、鹿川、新町、滝ノ内、中川、
8820302,宮崎県,西臼杵郡日之影町,岩井川（境野）,ミヤザキケン,ニシウスキグンヒノカゲチョウ,イワイカワ(サカイノ),宮崎県西臼杵郡日之影町岩井川（境野）
8820304,宮崎県,西臼杵郡日之影町,分城,ミヤザキケン,ニシウスキグンヒノカゲチョウ,ワケジョウ,宮崎県西臼杵郡日之影町分城
8820400,宮崎県,西臼杵郡日之影町,,ミヤザキケン,ニシウスキグンヒノカゲチョウ,,宮崎県西臼杵郡日之影町
8820401,宮崎県,西臼杵郡日之影町,七折（その他）,ミヤザキケン,ニシウスキグンヒノカゲチョウ,ナナオリ(ソノタ),宮崎県西臼杵郡日之影町七折（その他）
8820402,宮崎県,西臼杵郡日之影町,岩井川（その他）,ミヤザキケン,ニシウスキグンヒノカゲチョウ,イワイカワ(ソノタ),宮崎県西臼杵郡日之影町岩井川（その他）
8820403,宮崎県,西臼杵郡日之影町,見立,ミヤザキケン,ニシウスキグンヒノカゲチョウ,ミタテ,宮崎県西臼杵郡日之影町見立
8820801,宮崎県,延岡市,野田町,ミヤザキケン,ノベオカシ,ノタマチ,宮崎県延岡市野田町
8820802,宮崎県,延岡市,野地町,ミヤザキケン,ノベオカシ,ノジマチ,宮崎県延岡市野地町
8820803,宮崎県,延岡市,大貫町,ミヤザキケン,ノベオカシ,オオヌキマチ,宮崎県延岡市大貫町
8820804,宮崎県,延岡市,西階町,ミヤザキケン,ノベオカシ,ニシシナマチ,宮崎県延岡市西階町
8820805,宮崎県,延岡市,野田,ミヤザキケン,ノベオカシ,ノタ,宮崎県延岡市野田
8820811,宮崎県,延岡市,天神小路,ミヤザキケン,ノベオカシ,テンジンコウジ,宮崎県延岡市天神小路
8820812,宮崎県,延岡市,本小路,ミヤザキケン,ノベオカシ,ホンコウジ,宮崎県延岡市本小路
8820813,宮崎県,延岡市,東本小路,ミヤザキケン,ノベオカシ,ヒガシホンコウジ,宮崎県延岡市東本小路
8820814,宮崎県,延岡市,北町,ミヤザキケン,ノベオカシ,キタマチ,宮崎県延岡市北町
8820815,宮崎県,延岡市,柳沢町,ミヤザキケン,ノベオカシ,ヤナザワマチ,宮崎県延岡市柳沢町
8820816,宮崎県,延岡市,桜小路,ミヤザキケン,ノベオカシ,サクラコウジ,宮崎県延岡市桜小路
8820821,宮崎県,延岡市,本町,ミヤザキケン,ノベオカシ,ホンマチ,宮崎県延岡市本町
8820822,宮崎県,延岡市,南町,ミヤザキケン,ノベオカシ,ミナミマチ,宮崎県延岡市南町
8820823,宮崎県,延岡市,中町,ミヤザキケン,ノベオカシ,ナカマチ,宮崎県延岡市中町
8820824,宮崎県,延岡市,中央通,ミヤザキケン,ノベオカシ,チュウオウドオリ,宮崎県延岡市中央通
8820825,宮崎県,延岡市,須崎町,ミヤザキケン,ノベオカシ,スザキマチ,宮崎県延岡市須崎町
8820826,宮崎県,延岡市,船倉町,ミヤザキケン,ノベオカシ,フナグラマチ,宮崎県延岡市船倉町
8820827,宮崎県,延岡市,新町,ミヤザキケン,ノベオカシ,シンマチ,宮崎県延岡市新町
8820831,宮崎県,延岡市,出口町,ミヤザキケン,ノベオカシ,イデグチマチ,宮崎県延岡市出口町
8820832,宮崎県,延岡市,西小路,ミヤザキケン,ノベオカシ,サイコウジ,宮崎県延岡市西小路
8820833,宮崎県,延岡市,上大瀬町,ミヤザキケン,ノベオカシ,カミオオセマチ,宮崎県延岡市上大瀬町
8820834,宮崎県,延岡市,北新小路,ミヤザキケン,ノベオカシ,キタシンコウジ,宮崎県延岡市北新小路
8820835,宮崎県,延岡市,新小路,ミヤザキケン,ノベオカシ,シンコウジ,宮崎県延岡市新小路
8820836,宮崎県,延岡市,恒富町,ミヤザキケン,ノベオカシ,ツネトミマチ,宮崎県延岡市恒富町
8820837,宮崎県,延岡市,古城町,ミヤザキケン,ノベオカシ,フルシロマチ,宮崎県延岡市古城町
8820841,宮崎県,延岡市,大瀬町,ミヤザキケン,ノベオカシ,オオセマチ,宮崎県延岡市大瀬町
8820842,宮崎県,延岡市,三ツ瀬町,ミヤザキケン,ノベオカシ,ミツゼマチ,宮崎県延岡市三ツ瀬町
8820843,宮崎県,延岡市,永池町,ミヤザキケン,ノベオカシ,ナガイケマチ,宮崎県延岡市永池町
8820844,宮崎県,延岡市,春日町,ミヤザキケン,ノベオカシ,カスガマチ,宮崎県延岡市春日町
8820845,宮崎県,延岡市,安賀多町,ミヤザキケン,ノベオカシ,アガタマチ,宮崎県延岡市安賀多町
8820846,宮崎県,延岡市,中島町,ミヤザキケン,ノベオカシ,ナカシママチ,宮崎県延岡市中島町
8820847,宮崎県,延岡市,旭町,ミヤザキケン,ノベオカシ,アサヒマチ,宮崎県延岡市旭町
8820851,宮崎県,延岡市,浜砂,ミヤザキケン,ノベオカシ,ハマゴ,宮崎県延岡市浜砂
8820852,宮崎県,延岡市,東浜砂町,ミヤザキケン,ノベオカシ,ヒガシハマゴマチ,宮崎県延岡市東浜砂町
8820853,宮崎県,延岡市,方財町,ミヤザキケン,ノベオカシ,ホウザイマチ,宮崎県延岡市方財町
8820854,宮崎県,延岡市,長浜町,ミヤザキケン,ノベオカシ,ナガハママチ,宮崎県延岡市長浜町
8820855,宮崎県,延岡市,卸本町,ミヤザキケン,ノベオカシ,オロシホンマチ,宮崎県延岡市卸本町
8820856,宮崎県,延岡市,出北,ミヤザキケン,ノベオカシ,イデキタ,宮崎県延岡市出北
8820857,宮崎県,延岡市,惣領町,ミヤザキケン,ノベオカシ,ソウリョウマチ,宮崎県延岡市惣領町
8820861,宮崎県,延岡市,別府町,ミヤザキケン,ノベオカシ,ビュウマチ,宮崎県延岡市別府町
8820862,宮崎県,延岡市,浜町,ミヤザキケン,ノベオカシ,ハママチ,宮崎県延岡市浜町
8820863,宮崎県,延岡市,緑ケ丘,ミヤザキケン,ノベオカシ,ミドリガオカ,宮崎県延岡市緑ケ丘
8820864,宮崎県,延岡市,塩浜町,ミヤザキケン,ノベオカシ,シオハママチ,宮崎県延岡市塩浜町
8820865,宮崎県,延岡市,鶴ケ丘,ミヤザキケン,ノベオカシ,ツルガオカ,宮崎県延岡市鶴ケ丘
8820866,宮崎県,延岡市,平原町,ミヤザキケン,ノベオカシ,ヒラバルマチ,宮崎県延岡市平原町
8820867,宮崎県,延岡市,構口町,ミヤザキケン,ノベオカシ,カマエグチマチ,宮崎県延岡市構口町
8820871,宮崎県,延岡市,愛宕山,ミヤザキケン,ノベオカシ,アタゴヤマ,宮崎県延岡市愛宕山
8820872,宮崎県,延岡市,愛宕町,ミヤザキケン,ノベオカシ,アタゴマチ,宮崎県延岡市愛宕町
8820873,宮崎県,延岡市,共栄町,ミヤザキケン,ノベオカシ,キョウエイマチ,宮崎県延岡市共栄町
8820874,宮崎県,延岡市,伊達町,ミヤザキケン,ノベオカシ,ダテマチ,宮崎県延岡市伊達町
8820875,宮崎県,延岡市,若葉町,ミヤザキケン,ノベオカシ,ワカバマチ,宮崎県延岡市若葉町
8820876,宮崎県,延岡市,沖田町,ミヤザキケン,ノベオカシ,オキタマチ,宮崎県延岡市沖田町
8820877,宮崎県,延岡市,片田町,ミヤザキケン,ノベオカシ,カタタマチ,宮崎県延岡市片田町
8820881,宮崎県,延岡市,三須町,ミヤザキケン,ノベオカシ,ミスマチ,宮崎県延岡市三須町
8820882,宮崎県,延岡市,小野町,ミヤザキケン,ノベオカシ,コノマチ,宮崎県延岡市小野町
8820883,宮崎県,延岡市,下三輪町,ミヤザキケン,ノベオカシ,シモミワマチ,宮崎県延岡市下三輪町
8820884,宮崎県,延岡市,中三輪町,ミヤザキケン,ノベオカシ,ナカミワマチ,宮崎県延岡市中三輪町
8820885,宮崎県,延岡市,上三輪町,ミヤザキケン,ノベオカシ,カミミワマチ,宮崎県延岡市上三輪町
8821100,宮崎県,西臼杵郡高千穂町,,ミヤザキケン,ニシウスキグンタカチホチョウ,,宮崎県西臼杵郡高千穂町
8821101,宮崎県,西臼杵郡高千穂町,三田井,ミヤザキケン,ニシウスキグンタカチホチョウ,ミタイ,宮崎県西臼杵郡高千穂町三田井
8821102,宮崎県,西臼杵郡高千穂町,押方,ミヤザキケン,ニシウスキグンタカチホチョウ,オシカタ,宮崎県西臼杵郡高千穂町押方
8821103,宮崎県,西臼杵郡高千穂町,向山,ミヤザキケン,ニシウスキグンタカチホチョウ,ムコウヤマ,宮崎県西臼杵郡高千穂町向山
8821200,宮崎県,西臼杵郡五ヶ瀬町,,ミヤザキケン,ニシウスキグンゴカセチョウ,,宮崎県西臼杵郡五ヶ瀬町
8821201,宮崎県,西臼杵郡五ヶ瀬町,鞍岡,ミヤザキケン,ニシウスキグンゴカセチョウ,クラオカ,宮崎県西臼杵郡五ヶ瀬町鞍岡
8821202,宮崎県,西臼杵郡五ヶ瀬町,桑野内,ミヤザキケン,ニシウスキグンゴカセチョウ,クワノウチ,宮崎県西臼杵郡五ヶ瀬町桑野内
8821203,宮崎県,西臼杵郡五ヶ瀬町,三ヶ所,ミヤザキケン,ニシウスキグンゴカセチョウ,サンカショ,宮崎県西臼杵郡五ヶ瀬町三ヶ所
8821411,宮崎県,西臼杵郡高千穂町,上野,ミヤザキケン,ニシウスキグンタカチホチョウ,カミノ,宮崎県西臼杵郡高千穂町上野
8821412,宮崎県,西臼杵郡高千穂町,下野,ミヤザキケン,ニシウスキグンタカチホチョウ,シモノ,宮崎県西臼杵郡高千穂町下野
8821413,宮崎県,西臼杵郡高千穂町,田原,ミヤザキケン,ニシウスキグンタカチホチョウ,タバル,宮崎県西臼杵郡高千穂町田原
8821414,宮崎県,西臼杵郡高千穂町,河内,ミヤザキケン,ニシウスキグンタカチホチョウ,カワチ,宮崎県西臼杵郡高千穂町河内
8821415,宮崎県,西臼杵郡高千穂町,五ケ所,ミヤザキケン,ニシウスキグンタカチホチョウ,ゴカショ,宮崎県西臼杵郡高千穂町五ケ所
8821621,宮崎県,西臼杵郡高千穂町,岩戸,ミヤザキケン,ニシウスキグンタカチホチョウ,イワト,宮崎県西臼杵郡高千穂町岩戸
8821622,宮崎県,西臼杵郡高千穂町,上岩戸,ミヤザキケン,ニシウスキグンタカチホチョウ,カミイワト,宮崎県西臼杵郡高千穂町上岩戸
8830000,宮崎県,日向市,,ミヤザキケン,ヒュウガシ,,宮崎県日向市
8830001,宮崎県,日向市,細島,ミヤザキケン,ヒュウガシ,ホソシマ,宮崎県日向市細島
8830002,宮崎県,日向市,平野町,ミヤザキケン,ヒュウガシ,ヒラノチョウ,宮崎県日向市平野町
8830003,宮崎県,日向市,伊勢ケ浜,ミヤザキケン,ヒュウガシ,イセガハマ,宮崎県日向市伊勢ケ浜
8830004,宮崎県,日向市,浜町,ミヤザキケン,ヒュウガシ,ハママチ,宮崎県日向市浜町
8830005,宮崎県,日向市,中堀町,ミヤザキケン,ヒュウガシ,ナカホリチョウ,宮崎県日向市中堀町
8830006,宮崎県,日向市,山手町,ミヤザキケン,ヒュウガシ,ヤマテチョウ,宮崎県日向市山手町
8830011,宮崎県,日向市,曽根町,ミヤザキケン,ヒュウガシ,ソネチョウ,宮崎県日向市曽根町
8830012,宮崎県,日向市,江良町,ミヤザキケン,ヒュウガシ,エラチョウ,宮崎県日向市江良町
8830013,宮崎県,日向市,新生町,ミヤザキケン,ヒュウガシ,シンセイチョウ,宮崎県日向市新生町
8830014,宮崎県,日向市,原町,ミヤザキケン,ヒュウガシ,ハラマチ,宮崎県日向市原町
8830015,宮崎県,日向市,永江町,ミヤザキケン,ヒュウガシ,ナガエチョウ,宮崎県日向市永江町
8830021,宮崎県,日向市,財光寺,ミヤザキケン,ヒュウガシ,ザイコウジ,宮崎県日向市財光寺
8830022,宮崎県,日向市,平岩,ミヤザキケン,ヒュウガシ,ヒライワ,宮崎県日向市平岩
8830023,宮崎県,日向市,財光寺沖町,ミヤザキケン,ヒュウガシ,ザイコウジオキマチ,宮崎県日向市財光寺沖町
8830024,宮崎県,日向市,財光寺往還町,ミヤザキケン,ヒュウガシ,ザイコウジオウカンチョウ,宮崎県日向市財光寺往還町
8830031,宮崎県,日向市,比良町,ミヤザキケン,ヒュウガシ,ヒラチョウ,宮崎県日向市比良町
8830032,宮崎県,日向市,山下町,ミヤザキケン,ヒュウガシ,ヤマシタチョウ,宮崎県日向市山下町
8830033,宮崎県,日向市,塩見,ミヤザキケン,ヒュウガシ,シオミ,宮崎県日向市塩見
8830034,宮崎県,日向市,富高,ミヤザキケン,ヒュウガシ,トミタカ,宮崎県日向市富高
8830035,宮崎県,日向市,春原町,ミヤザキケン,ヒュウガシ,ハルハラチョウ,宮崎県日向市春原町
8830036,宮崎県,日向市,南町,ミヤザキケン,ヒュウガシ,ミナミマチ,宮崎県日向市南町
8830037,宮崎県,日向市,不動寺,ミヤザキケン,ヒュウガシ,フドウジ,宮崎県日向市不動寺
8830038,宮崎県,日向市,迎洋園,ミヤザキケン,ヒュウガシ,ゲイヨウエン,宮崎県日向市迎洋園
8830041,宮崎県,日向市,北町,ミヤザキケン,ヒュウガシ,キタマチ,宮崎県日向市北町
8830042,宮崎県,日向市,高砂町,ミヤザキケン,ヒュウガシ,タカサゴチョウ,宮崎県日向市高砂町
8830043,宮崎県,日向市,都町,ミヤザキケン,ヒュウガシ,ミヤコマチ,宮崎県日向市都町
8830044,宮崎県,日向市,上町,ミヤザキケン,ヒュウガシ,ウエマチ,宮崎県日向市上町
8830045,宮崎県,日向市,本町,ミヤザキケン,ヒュウガシ,ホンマチ,宮崎県日向市本町
8830046,宮崎県,日向市,中町,ミヤザキケン,ヒュウガシ,ナカマチ,宮崎県日向市中町
8830051,宮崎県,日向市,向江町,ミヤザキケン,ヒュウガシ,ムカエチョウ,宮崎県日向市向江町
8830052,宮崎県,日向市,鶴町,ミヤザキケン,ヒュウガシ,ツルマチ,宮崎県日向市鶴町
8830053,宮崎県,日向市,梶木町,ミヤザキケン,ヒュウガシ,カジキチョウ,宮崎県日向市梶木町
8830061,宮崎県,日向市,大王町,ミヤザキケン,ヒュウガシ,ダイオウチョウ,宮崎県日向市大王町
8830062,宮崎県,日向市,日知屋,ミヤザキケン,ヒュウガシ,ヒチヤ,宮崎県日向市日知屋
8830063,宮崎県,日向市,竹島町,ミヤザキケン,ヒュウガシ,タケシマチョウ,宮崎県日向市竹島町
8830064,宮崎県,日向市,日知屋古田町,ミヤザキケン,ヒュウガシ,ヒチヤフルタチョウ,宮崎県日向市日知屋古田町
8830065,宮崎県,日向市,船場町,ミヤザキケン,ヒュウガシ,フナバチョウ,宮崎県日向市船場町
8830066,宮崎県,日向市,亀崎,ミヤザキケン,ヒュウガシ,カメザキ,宮崎県日向市亀崎
8830067,宮崎県,日向市,亀崎東,ミヤザキケン,ヒュウガシ,カメザキヒガシ,宮崎県日向市亀崎東
8830068,宮崎県,日向市,亀崎西,ミヤザキケン,ヒュウガシ,カメザキニシ,宮崎県日向市亀崎西
8830101,宮崎県,日向市,東郷町山陰乙（その他）,ミヤザキケン,ヒュウガシ,トウゴウチョウヤマゲオツ(ソノタ),宮崎県日向市東郷町山陰乙（その他）
8830102,宮崎県,日向市,東郷町山陰丙,ミヤザキケン,ヒュウガシ,トウゴウチョウヤマゲヘイ,宮崎県日向市東郷町山陰丙
8830103,宮崎県,日向市,東郷町山陰丁,ミヤザキケン,ヒュウガシ,トウゴウチョウヤマゲテイ,宮崎県日向市東郷町山陰丁
8830104,宮崎県,日向市,東郷町山陰戊（５１３の１以内）,ミヤザキケン,ヒュウガシ,トウゴウチョウヤマゲボ(513ノ1イナイ),宮崎県日向市東郷町山陰戊（513-1以内）
8830105,宮崎県,日向市,東郷町山陰己,ミヤザキケン,ヒュウガシ,トウゴウチョウヤマゲキ,宮崎県日向市東郷町山陰己
8830106,宮崎県,日向市,東郷町山陰辛,ミヤザキケン,ヒュウガシ,トウゴウチョウヤマゲシン,宮崎県日向市東郷町山陰辛
8830107,宮崎県,日向市,東郷町山陰庚,ミヤザキケン,ヒュウガシ,トウゴウチョウヤマゲコウ,宮崎県日向市東郷町山陰庚
8830108,宮崎県,日向市,東郷町八重原,ミヤザキケン,ヒュウガシ,トウゴウチョウハエバル,宮崎県日向市東郷町八重原
8830109,宮崎県,日向市,東郷町山陰,ミヤザキケン,ヒュウガシ,トウゴウチョウヤマゲ,宮崎県日向市東郷町山陰
8830111,宮崎県,日向市,東郷町迫野内,ミヤザキケン,ヒュウガシ,トウゴウチョウサコノウチ,宮崎県日向市東郷町迫野内
8830211,宮崎県,日向市,東郷町坪谷,ミヤザキケン,ヒュウガシ,トウゴウチョウツボヤ,宮崎県日向市東郷町坪谷
8830212,宮崎県,日向市,東郷町山陰戊（その他）,ミヤザキケン,ヒュウガシ,トウゴウチョウヤマゲボ(ソノタ),宮崎県日向市東郷町山陰戊（その他）
8830213,宮崎県,日向市,東郷町下三ケ,ミヤザキケン,ヒュウガシ,トウゴウチョウシモサンゲ,宮崎県日向市東郷町下三ケ
8830301,宮崎県,東臼杵郡美郷町,南郷水清谷,ミヤザキケン,ヒガシウスキグンミサトチョウ,ナンゴウミズシダニ,宮崎県東臼杵郡美郷町南郷水清谷
8830302,宮崎県,東臼杵郡美郷町,南郷中渡川,ミヤザキケン,ヒガシウスキグンミサトチョウ,ナンゴウナカドガワ,宮崎県東臼杵郡美郷町南郷中渡川
8830303,宮崎県,東臼杵郡美郷町,南郷上渡川,ミヤザキケン,ヒガシウスキグンミサトチョウ,ナンゴウカミドガワ,宮崎県東臼杵郡美郷町南郷上渡川
8830304,宮崎県,東臼杵郡美郷町,南郷鬼神野,ミヤザキケン,ヒガシウスキグンミサトチョウ,ナンゴウキジノ,宮崎県東臼杵郡美郷町南郷鬼神野
8830305,宮崎県,東臼杵郡美郷町,南郷山三ヶ,ミヤザキケン,ヒガシウスキグンミサトチョウ,ナンゴウヤマサンガ,宮崎県東臼杵郡美郷町南郷山三ヶ
8830306,宮崎県,東臼杵郡美郷町,南郷神門,ミヤザキケン,ヒガシウスキグンミサトチョウ,ナンゴウミカド,宮崎県東臼杵郡美郷町南郷神門
8830402,宮崎県,東臼杵郡椎葉村,大河内（１〜１３０２番地）,ミヤザキケン,ヒガシウスキグンシイバソン,オオカワウチ(1-1302バンチ),宮崎県東臼杵郡椎葉村大河内（1〜1302-）
8831100,宮崎県,東臼杵郡美郷町,,ミヤザキケン,ヒガシウスキグンミサトチョウ,,宮崎県東臼杵郡美郷町
8831101,宮崎県,東臼杵郡美郷町,西郷田代,ミヤザキケン,ヒガシウスキグンミサトチョウ,サイゴウタシロ,宮崎県東臼杵郡美郷町西郷田代
8831102,宮崎県,東臼杵郡美郷町,西郷立石,ミヤザキケン,ヒガシウスキグンミサトチョウ,サイゴウタテイシ,宮崎県東臼杵郡美郷町西郷立石
8831211,宮崎県,東臼杵郡美郷町,西郷山三ヶ,ミヤザキケン,ヒガシウスキグンミサトチョウ,サイゴウヤマサンガ,宮崎県東臼杵郡美郷町西郷山三ヶ
8831212,宮崎県,東臼杵郡美郷町,西郷小原,ミヤザキケン,ヒガシウスキグンミサトチョウ,サイゴウオバル,宮崎県東臼杵郡美郷町西郷小原
8831300,宮崎県,東臼杵郡諸塚村,,ミヤザキケン,ヒガシウスキグンモロツカソン,,宮崎県東臼杵郡諸塚村
8831301,宮崎県,東臼杵郡諸塚村,家代,ミヤザキケン,ヒガシウスキグンモロツカソン,エシロ,宮崎県東臼杵郡諸塚村家代
8831302,宮崎県,東臼杵郡諸塚村,七ツ山（その他）,ミヤザキケン,ヒガシウスキグンモロツカソン,ナナツヤマ(ソノタ),宮崎県東臼杵郡諸塚村七ツ山（その他）
8831402,宮崎県,東臼杵郡諸塚村,七ツ山（飯干、小原井、川内、立岩、八重の平、本村）,ミヤザキケン,ヒガシウスキグンモロツカソン,ナナツヤマ(イイボシ、オバライ、カワウチ、タテイワ、ハエノヒラ、ホンムラ),宮崎県東臼杵郡諸塚村七ツ山（飯干、小原井、川内、立岩、八重の平、本村）
8831600,宮崎県,東臼杵郡椎葉村,,ミヤザキケン,ヒガシウスキグンシイバソン,,宮崎県東臼杵郡椎葉村
8831601,宮崎県,東臼杵郡椎葉村,下福良,ミヤザキケン,ヒガシウスキグンシイバソン,シモフクラ,宮崎県東臼杵郡椎葉村下福良
8831602,宮崎県,東臼杵郡椎葉村,大河内（その他）,ミヤザキケン,ヒガシウスキグンシイバソン,オオカワウチ(ソノタ),宮崎県東臼杵郡椎葉村大河内（その他）
8831603,宮崎県,東臼杵郡椎葉村,不土野,ミヤザキケン,ヒガシウスキグンシイバソン,フドノ,宮崎県東臼杵郡椎葉村不土野
8831604,宮崎県,東臼杵郡椎葉村,松尾,ミヤザキケン,ヒガシウスキグンシイバソン,マツオ,宮崎県東臼杵郡椎葉村松尾
8840000,宮崎県,児湯郡高鍋町,,ミヤザキケン,コユグンタカナベチョウ,,宮崎県児湯郡高鍋町
8840001,宮崎県,児湯郡高鍋町,高鍋町,ミヤザキケン,コユグンタカナベチョウ,タカナベマチ,宮崎県児湯郡高鍋町高鍋町
8840002,宮崎県,児湯郡高鍋町,北高鍋,ミヤザキケン,コユグンタカナベチョウ,キタタカナベ,宮崎県児湯郡高鍋町北高鍋
8840003,宮崎県,児湯郡高鍋町,南高鍋,ミヤザキケン,コユグンタカナベチョウ,ミナミタカナベ,宮崎県児湯郡高鍋町南高鍋
8840004,宮崎県,児湯郡高鍋町,蚊口浦,ミヤザキケン,コユグンタカナベチョウ,カグチウラ,宮崎県児湯郡高鍋町蚊口浦
8840005,宮崎県,児湯郡高鍋町,持田,ミヤザキケン,コユグンタカナベチョウ,モチダ,宮崎県児湯郡高鍋町持田
8840006,宮崎県,児湯郡高鍋町,上江,ミヤザキケン,コユグンタカナベチョウ,ウワエ,宮崎県児湯郡高鍋町上江
8840100,宮崎県,児湯郡木城町,,ミヤザキケン,コユグンキジョウチョウ,,宮崎県児湯郡木城町
8840101,宮崎県,児湯郡木城町,高城,ミヤザキケン,コユグンキジョウチョウ,タカジョウ,宮崎県児湯郡木城町高城
8840102,宮崎県,児湯郡木城町,椎木,ミヤザキケン,コユグンキジョウチョウ,シイノキ,宮崎県児湯郡木城町椎木
8840103,宮崎県,児湯郡木城町,川原,ミヤザキケン,コユグンキジョウチョウ,カワバル,宮崎県児湯郡木城町川原
8840104,宮崎県,児湯郡木城町,石河内,ミヤザキケン,コユグンキジョウチョウ,イシカワウチ,宮崎県児湯郡木城町石河内
8840105,宮崎県,児湯郡木城町,中之又,ミヤザキケン,コユグンキジョウチョウ,ナカノマタ,宮崎県児湯郡木城町中之又
8850000,宮崎県,都城市,,ミヤザキケン,ミヤコノジョウシ,,宮崎県都城市
8850001,宮崎県,都城市,金田町,ミヤザキケン,ミヤコノジョウシ,カナダチョウ,宮崎県都城市金田町
8850002,宮崎県,都城市,太郎坊町,ミヤザキケン,ミヤコノジョウシ,タロボウチョウ,宮崎県都城市太郎坊町
8850003,宮崎県,都城市,高木町,ミヤザキケン,ミヤコノジョウシ,タカギチョウ,宮崎県都城市高木町
8850004,宮崎県,都城市,都北町,ミヤザキケン,ミヤコノジョウシ,トホクチョウ,宮崎県都城市都北町
8850005,宮崎県,都城市,神之山町,ミヤザキケン,ミヤコノジョウシ,ジンノヤマチョウ,宮崎県都城市神之山町
8850006,宮崎県,都城市,吉尾町,ミヤザキケン,ミヤコノジョウシ,ヨシオチョウ,宮崎県都城市吉尾町
8850011,宮崎県,都城市,下川東,ミヤザキケン,ミヤコノジョウシ,シモカワヒガシ,宮崎県都城市下川東
8850012,宮崎県,都城市,上川東,ミヤザキケン,ミヤコノジョウシ,カミカワヒガシ,宮崎県都城市上川東
8850013,宮崎県,都城市,郡元町,ミヤザキケン,ミヤコノジョウシ,コオリモトチョウ,宮崎県都城市郡元町
8850014,宮崎県,都城市,祝吉町,ミヤザキケン,ミヤコノジョウシ,イワヨシチョウ,宮崎県都城市祝吉町
8850015,宮崎県,都城市,千町,ミヤザキケン,ミヤコノジョウシ,センチョウ,宮崎県都城市千町
8850016,宮崎県,都城市,早水町,ミヤザキケン,ミヤコノジョウシ,ハヤミズチョウ,宮崎県都城市早水町
8850017,宮崎県,都城市,年見町,ミヤザキケン,ミヤコノジョウシ,トシミチョウ,宮崎県都城市年見町
8850018,宮崎県,都城市,郡元,ミヤザキケン,ミヤコノジョウシ,コオリモト,宮崎県都城市郡元
8850019,宮崎県,都城市,祝吉,ミヤザキケン,ミヤコノジョウシ,イワヨシ,宮崎県都城市祝吉
8850021,宮崎県,都城市,平江町,ミヤザキケン,ミヤコノジョウシ,ヒラエチョウ,宮崎県都城市平江町
8850022,宮崎県,都城市,小松原町,ミヤザキケン,ミヤコノジョウシ,コマツバラチョウ,宮崎県都城市小松原町
8850023,宮崎県,都城市,栄町,ミヤザキケン,ミヤコノジョウシ,サカエマチ,宮崎県都城市栄町
8850024,宮崎県,都城市,北原町,ミヤザキケン,ミヤコノジョウシ,キタハラチョウ,宮崎県都城市北原町
8850025,宮崎県,都城市,前田町,ミヤザキケン,ミヤコノジョウシ,マエダチョウ,宮崎県都城市前田町
8850026,宮崎県,都城市,大王町,ミヤザキケン,ミヤコノジョウシ,ダイオウチョウ,宮崎県都城市大王町
8850031,宮崎県,都城市,天神町,ミヤザキケン,ミヤコノジョウシ,テンジンチョウ,宮崎県都城市天神町
8850032,宮崎県,都城市,中原町,ミヤザキケン,ミヤコノジョウシ,ナカハラチョウ,宮崎県都城市中原町
8850033,宮崎県,都城市,妻ケ丘町,ミヤザキケン,ミヤコノジョウシ,ツマガオカチョウ,宮崎県都城市妻ケ丘町
8850034,宮崎県,都城市,菖蒲原町,ミヤザキケン,ミヤコノジョウシ,アヤメバルチョウ,宮崎県都城市菖蒲原町
8850035,宮崎県,都城市,立野町,ミヤザキケン,ミヤコノジョウシ,タテノチョウ,宮崎県都城市立野町
8850036,宮崎県,都城市,広原町,ミヤザキケン,ミヤコノジョウシ,ヒロハラチョウ,宮崎県都城市広原町
8850037,宮崎県,都城市,花繰町,ミヤザキケン,ミヤコノジョウシ,ハナグリチョウ,宮崎県都城市花繰町
8850041,宮崎県,都城市,一万城町,ミヤザキケン,ミヤコノジョウシ,イチマンジョウチョウ,宮崎県都城市一万城町
8850042,宮崎県,都城市,上長飯町,ミヤザキケン,ミヤコノジョウシ,カミナガエチョウ,宮崎県都城市上長飯町
8850043,宮崎県,都城市,豊満町,ミヤザキケン,ミヤコノジョウシ,トヨミツチョウ,宮崎県都城市豊満町
8850044,宮崎県,都城市,安久町,ミヤザキケン,ミヤコノジョウシ,ヤスヒサチョウ,宮崎県都城市安久町
8850051,宮崎県,都城市,蔵原町,ミヤザキケン,ミヤコノジョウシ,クラハラチョウ,宮崎県都城市蔵原町
8850052,宮崎県,都城市,東町,ミヤザキケン,ミヤコノジョウシ,ヒガシマチ,宮崎県都城市東町
8850053,宮崎県,都城市,上東町,ミヤザキケン,ミヤコノジョウシ,カミヒガシチョウ,宮崎県都城市上東町
8850054,宮崎県,都城市,若葉町,ミヤザキケン,ミヤコノジョウシ,ワカバチョウ,宮崎県都城市若葉町
8850055,宮崎県,都城市,早鈴町,ミヤザキケン,ミヤコノジョウシ,ハヤスズチョウ,宮崎県都城市早鈴町
8850061,宮崎県,都城市,下長飯町,ミヤザキケン,ミヤコノジョウシ,シモナガエチョウ,宮崎県都城市下長飯町
8850062,宮崎県,都城市,大岩田町,ミヤザキケン,ミヤコノジョウシ,オオイワダチョウ,宮崎県都城市大岩田町
8850063,宮崎県,都城市,梅北町,ミヤザキケン,ミヤコノジョウシ,ウメキタチョウ,宮崎県都城市梅北町
8850064,宮崎県,都城市,今町,ミヤザキケン,ミヤコノジョウシ,イママチ,宮崎県都城市今町
8850071,宮崎県,都城市,中町,ミヤザキケン,ミヤコノジョウシ,ナカマチ,宮崎県都城市中町
8850072,宮崎県,都城市,上町,ミヤザキケン,ミヤコノジョウシ,カンマチ,宮崎県都城市上町
8850073,宮崎県,都城市,姫城町,ミヤザキケン,ミヤコノジョウシ,ヒメギチョウ,宮崎県都城市姫城町
8850074,宮崎県,都城市,甲斐元町,ミヤザキケン,ミヤコノジョウシ,カイモトチョウ,宮崎県都城市甲斐元町
8850075,宮崎県,都城市,八幡町,ミヤザキケン,ミヤコノジョウシ,ハチマンチョウ,宮崎県都城市八幡町
8850076,宮崎県,都城市,西町,ミヤザキケン,ミヤコノジョウシ,ニシマチ,宮崎県都城市西町
8850077,宮崎県,都城市,松元町,ミヤザキケン,ミヤコノジョウシ,マツモトチョウ,宮崎県都城市松元町
8850078,宮崎県,都城市,宮丸町,ミヤザキケン,ミヤコノジョウシ,ミヤマルチョウ,宮崎県都城市宮丸町
8850079,宮崎県,都城市,牟田町,ミヤザキケン,ミヤコノジョウシ,ムタチョウ,宮崎県都城市牟田町
8850081,宮崎県,都城市,鷹尾,ミヤザキケン,ミヤコノジョウシ,タカオ,宮崎県都城市鷹尾
8850082,宮崎県,都城市,南鷹尾町,ミヤザキケン,ミヤコノジョウシ,ミナミタカオチョウ,宮崎県都城市南鷹尾町
8850083,宮崎県,都城市,都島町,ミヤザキケン,ミヤコノジョウシ,ミヤコジマチョウ,宮崎県都城市都島町
8850084,宮崎県,都城市,五十町,ミヤザキケン,ミヤコノジョウシ,ゴジッチョウ,宮崎県都城市五十町
8850085,宮崎県,都城市,平塚町,ミヤザキケン,ミヤコノジョウシ,ヒラツカチョウ,宮崎県都城市平塚町
8850086,宮崎県,都城市,久保原町,ミヤザキケン,ミヤコノジョウシ,クボバルチョウ,宮崎県都城市久保原町
8850091,宮崎県,都城市,横市町,ミヤザキケン,ミヤコノジョウシ,ヨコイチチョウ,宮崎県都城市横市町
8850092,宮崎県,都城市,南横市町,ミヤザキケン,ミヤコノジョウシ,ミナミヨコイチチョウ,宮崎県都城市南横市町
8850093,宮崎県,都城市,志比田町,ミヤザキケン,ミヤコノジョウシ,シビタチョウ,宮崎県都城市志比田町
8850094,宮崎県,都城市,都原町,ミヤザキケン,ミヤコノジョウシ,ミヤコバルチョウ,宮崎県都城市都原町
8850095,宮崎県,都城市,蓑原町,ミヤザキケン,ミヤコノジョウシ,ミノバルチョウ,宮崎県都城市蓑原町
8850111,宮崎県,都城市,菓子野町,ミヤザキケン,ミヤコノジョウシ,カシノチョウ,宮崎県都城市菓子野町
8850112,宮崎県,都城市,乙房町,ミヤザキケン,ミヤコノジョウシ,オトボウチョウ,宮崎県都城市乙房町
8850113,宮崎県,都城市,関之尾町,ミヤザキケン,ミヤコノジョウシ,セキノオチョウ,宮崎県都城市関之尾町
8850114,宮崎県,都城市,庄内町,ミヤザキケン,ミヤコノジョウシ,ショウナイチョウ,宮崎県都城市庄内町
8850221,宮崎県,都城市,高野町,ミヤザキケン,ミヤコノジョウシ,タカノチョウ,宮崎県都城市高野町
8850222,宮崎県,都城市,美川町,ミヤザキケン,ミヤコノジョウシ,ミカワチョウ,宮崎県都城市美川町
8850223,宮崎県,都城市,吉之元町,ミヤザキケン,ミヤコノジョウシ,ヨシノモトチョウ,宮崎県都城市吉之元町
8850224,宮崎県,都城市,御池町,ミヤザキケン,ミヤコノジョウシ,ミイケチョウ,宮崎県都城市御池町
8850225,宮崎県,都城市,夏尾町,ミヤザキケン,ミヤコノジョウシ,ナツオチョウ,宮崎県都城市夏尾町
8851101,宮崎県,都城市,岩満町,ミヤザキケン,ミヤコノジョウシ,イワミツチョウ,宮崎県都城市岩満町
8851102,宮崎県,都城市,下水流町,ミヤザキケン,ミヤコノジョウシ,シモズルチョウ,宮崎県都城市下水流町
8851103,宮崎県,都城市,上水流町,ミヤザキケン,ミヤコノジョウシ,カミズルチョウ,宮崎県都城市上水流町
8851104,宮崎県,都城市,野々美谷町,ミヤザキケン,ミヤコノジョウシ,ノノミタニチョウ,宮崎県都城市野々美谷町
8851105,宮崎県,都城市,丸谷町,ミヤザキケン,ミヤコノジョウシ,マルタニチョウ,宮崎県都城市丸谷町
8851201,宮崎県,都城市,高城町高城,ミヤザキケン,ミヤコノジョウシ,タカジョウチョウタカジョウ,宮崎県都城市高城町高城
8851202,宮崎県,都城市,高城町穂満坊,ミヤザキケン,ミヤコノジョウシ,タカジョウチョウホマンボウ,宮崎県都城市高城町穂満坊
8851203,宮崎県,都城市,高城町大井手,ミヤザキケン,ミヤコノジョウシ,タカジョウチョウオオイデ,宮崎県都城市高城町大井手
8851204,宮崎県,都城市,高城町桜木,ミヤザキケン,ミヤコノジョウシ,タカジョウチョウサクラギ,宮崎県都城市高城町桜木
8851205,宮崎県,都城市,高城町石山,ミヤザキケン,ミヤコノジョウシ,タカジョウチョウイシヤマ,宮崎県都城市高城町石山
8851311,宮崎県,都城市,高城町有水,ミヤザキケン,ミヤコノジョウシ,タカジョウチョウアリミズ,宮崎県都城市高城町有水
8851312,宮崎県,都城市,高城町四家,ミヤザキケン,ミヤコノジョウシ,タカジョウチョウシカ,宮崎県都城市高城町四家
8860000,宮崎県,小林市,,ミヤザキケン,コバヤシシ,,宮崎県小林市
8860001,宮崎県,小林市,東方（その他）,ミヤザキケン,コバヤシシ,ヒガシカタ(ソノタ),宮崎県小林市東方（その他）
8860002,宮崎県,小林市,水流迫,ミヤザキケン,コバヤシシ,ツルザコ,宮崎県小林市水流迫
8860003,宮崎県,小林市,堤,ミヤザキケン,コバヤシシ,ツツミ,宮崎県小林市堤
8860004,宮崎県,小林市,細野,ミヤザキケン,コバヤシシ,ホソノ,宮崎県小林市細野
8860005,宮崎県,小林市,南西方,ミヤザキケン,コバヤシシ,ミナミニシカタ,宮崎県小林市南西方
8860006,宮崎県,小林市,北西方,ミヤザキケン,コバヤシシ,キタニシカタ,宮崎県小林市北西方
8860007,宮崎県,小林市,真方,ミヤザキケン,コバヤシシ,マガタ,宮崎県小林市真方
8860008,宮崎県,小林市,本町,ミヤザキケン,コバヤシシ,ホンマチ,宮崎県小林市本町
8860009,宮崎県,小林市,駅南,ミヤザキケン,コバヤシシ,エキミナミ,宮崎県小林市駅南
8860101,宮崎県,小林市,東方（５７４１、５８７１番地）,ミヤザキケン,コバヤシシ,ヒガシカタ(5741、5871バンチ),宮崎県小林市東方（5741、5871-）
8860111,宮崎県,小林市,須木中原,ミヤザキケン,コバヤシシ,スキナカハラ,宮崎県小林市須木中原
8860112,宮崎県,小林市,須木下田,ミヤザキケン,コバヤシシ,スキシモダ,宮崎県小林市須木下田
8860113,宮崎県,小林市,須木鳥田町,ミヤザキケン,コバヤシシ,スキトリダマチ,宮崎県小林市須木鳥田町
8860114,宮崎県,小林市,須木奈佐木,ミヤザキケン,コバヤシシ,スキナサキ,宮崎県小林市須木奈佐木
8860115,宮崎県,小林市,須木内山,ミヤザキケン,コバヤシシ,スキウチヤマ,宮崎県小林市須木内山
8860211,宮崎県,小林市,野尻町紙屋,ミヤザキケン,コバヤシシ,ノジリチョウカミヤ,宮崎県小林市野尻町紙屋
8860212,宮崎県,小林市,野尻町東麓,ミヤザキケン,コバヤシシ,ノジリチョウヒガシフモト,宮崎県小林市野尻町東麓
8860213,宮崎県,小林市,野尻町三ケ野山,ミヤザキケン,コバヤシシ,ノジリチョウミカノヤマ,宮崎県小林市野尻町三ケ野山
8870000,宮崎県,日南市,,ミヤザキケン,ニチナンシ,,宮崎県日南市
8870001,宮崎県,日南市,油津,ミヤザキケン,ニチナンシ,アブラツ,宮崎県日南市油津
8870002,宮崎県,日南市,西町,ミヤザキケン,ニチナンシ,ニシマチ,宮崎県日南市西町
8870003,宮崎県,日南市,瀬西,ミヤザキケン,ニチナンシ,セニシ,宮崎県日南市瀬西
8870004,宮崎県,日南市,天福,ミヤザキケン,ニチナンシ,テンプク,宮崎県日南市天福
8870005,宮崎県,日南市,材木町,ミヤザキケン,ニチナンシ,ザイモクチョウ,宮崎県日南市材木町
8870006,宮崎県,日南市,春日町,ミヤザキケン,ニチナンシ,カスガチョウ,宮崎県日南市春日町
8870007,宮崎県,日南市,乙姫町,ミヤザキケン,ニチナンシ,オトヒメチョウ,宮崎県日南市乙姫町
8870011,宮崎県,日南市,瀬貝,ミヤザキケン,ニチナンシ,セガイ,宮崎県日南市瀬貝
8870012,宮崎県,日南市,園田,ミヤザキケン,ニチナンシ,ソノダ,宮崎県日南市園田
8870013,宮崎県,日南市,木山,ミヤザキケン,ニチナンシ,キヤマ,宮崎県日南市木山
8870014,宮崎県,日南市,岩崎,ミヤザキケン,ニチナンシ,イワサキ,宮崎県日南市岩崎
8870015,宮崎県,日南市,平野,ミヤザキケン,ニチナンシ,ヒラノ,宮崎県日南市平野
8870016,宮崎県,日南市,中平野,ミヤザキケン,ニチナンシ,ナカヒラノ,宮崎県日南市中平野
8870017,宮崎県,日南市,梅ケ浜,ミヤザキケン,ニチナンシ,ウメガハマ,宮崎県日南市梅ケ浜
8870021,宮崎県,日南市,中央通,ミヤザキケン,ニチナンシ,チュウオウドオリ,宮崎県日南市中央通
8870022,宮崎県,日南市,上平野町,ミヤザキケン,ニチナンシ,カミヒラノチョウ,宮崎県日南市上平野町
8870023,宮崎県,日南市,隈谷,ミヤザキケン,ニチナンシ,クマヤ,宮崎県日南市隈谷
8870024,宮崎県,日南市,西弁分,ミヤザキケン,ニチナンシ,ニシベンブン,宮崎県日南市西弁分
8870031,宮崎県,日南市,戸高,ミヤザキケン,ニチナンシ,トダカ,宮崎県日南市戸高
8870032,宮崎県,日南市,益安,ミヤザキケン,ニチナンシ,マスヤス,宮崎県日南市益安
8870033,宮崎県,日南市,平山,ミヤザキケン,ニチナンシ,ヒラヤマ,宮崎県日南市平山
8870034,宮崎県,日南市,風田,ミヤザキケン,ニチナンシ,カゼダ,宮崎県日南市風田
8870041,宮崎県,日南市,吾田東（１〜４丁目）,ミヤザキケン,ニチナンシ,アガタヒガシ(1-4チョウメ),宮崎県日南市吾田東（1〜4-）
8870101,宮崎県,日南市,宮浦,ミヤザキケン,ニチナンシ,ミヤウラ,宮崎県日南市宮浦
8870102,宮崎県,日南市,富土,ミヤザキケン,ニチナンシ,フト,宮崎県日南市富土
8870111,宮崎県,日南市,伊比井,ミヤザキケン,ニチナンシ,イビイ,宮崎県日南市伊比井
8880000,宮崎県,串間市,,ミヤザキケン,クシマシ,,宮崎県串間市
8880001,宮崎県,串間市,西方,ミヤザキケン,クシマシ,ニシカタ,宮崎県串間市西方
8880002,宮崎県,串間市,高松,ミヤザキケン,クシマシ,タカマツ,宮崎県串間市高松
8880003,宮崎県,串間市,奴久見,ミヤザキケン,クシマシ,ヌクミ,宮崎県串間市奴久見
8880004,宮崎県,串間市,串間,ミヤザキケン,クシマシ,クシマ,宮崎県串間市串間
8880005,宮崎県,串間市,北方,ミヤザキケン,クシマシ,キタカタ,宮崎県串間市北方
8880006,宮崎県,串間市,秋山,ミヤザキケン,クシマシ,アキヤマ,宮崎県串間市秋山
8880007,宮崎県,串間市,南方,ミヤザキケン,クシマシ,ミナミカタ,宮崎県串間市南方
8880008,宮崎県,串間市,本城,ミヤザキケン,クシマシ,ホンジョウ,宮崎県串間市本城
8880009,宮崎県,串間市,崎田,ミヤザキケン,クシマシ,サキダ,宮崎県串間市崎田
8880011,宮崎県,串間市,寺里,ミヤザキケン,クシマシ,テラザト,宮崎県串間市寺里
8880012,宮崎県,串間市,西浜,ミヤザキケン,クシマシ,ニシハマ,宮崎県串間市西浜
8880013,宮崎県,串間市,東町,ミヤザキケン,クシマシ,ヒガシマチ,宮崎県串間市東町
8880221,宮崎県,串間市,大納,ミヤザキケン,クシマシ,オオノ,宮崎県串間市大納
8880222,宮崎県,串間市,都井,ミヤザキケン,クシマシ,トイ,宮崎県串間市都井
8890101,宮崎県,延岡市,北川町川内名（その他）,ミヤザキケン,ノベオカシ,キタガワマチカワチミョウ(ソノタ),宮崎県延岡市北川町川内名（その他）
8890102,宮崎県,延岡市,北川町長井,ミヤザキケン,ノベオカシ,キタガワマチナガイ,宮崎県延岡市北川町長井
8890301,宮崎県,延岡市,北浦町古江,ミヤザキケン,ノベオカシ,キタウラマチフルエ,宮崎県延岡市北浦町古江
8890302,宮崎県,延岡市,北浦町市振,ミヤザキケン,ノベオカシ,キタウラマチイチブリ,宮崎県延岡市北浦町市振
8890303,宮崎県,延岡市,北浦町宮野浦,ミヤザキケン,ノベオカシ,キタウラマチミヤノウラ,宮崎県延岡市北浦町宮野浦
8890304,宮崎県,延岡市,北浦町三川内,ミヤザキケン,ノベオカシ,キタウラマチミカワウチ,宮崎県延岡市北浦町三川内
8890321,宮崎県,延岡市,須美江町,ミヤザキケン,ノベオカシ,スミエマチ,宮崎県延岡市須美江町
8890322,宮崎県,延岡市,熊野江町,ミヤザキケン,ノベオカシ,クマノエマチ,宮崎県延岡市熊野江町
8890501,宮崎県,延岡市,石田町,ミヤザキケン,ノベオカシ,イシダマチ,宮崎県延岡市石田町
8890502,宮崎県,延岡市,上伊形町,ミヤザキケン,ノベオカシ,カミイガダマチ,宮崎県延岡市上伊形町
8890503,宮崎県,延岡市,伊形町,ミヤザキケン,ノベオカシ,イガダマチ,宮崎県延岡市伊形町
8890504,宮崎県,延岡市,下伊形町,ミヤザキケン,ノベオカシ,シモイガダマチ,宮崎県延岡市下伊形町
8890505,宮崎県,延岡市,北一ケ岡,ミヤザキケン,ノベオカシ,キタヒトツガオカ,宮崎県延岡市北一ケ岡
8890506,宮崎県,延岡市,南一ケ岡,ミヤザキケン,ノベオカシ,ミナミヒトツガオカ,宮崎県延岡市南一ケ岡
8890507,宮崎県,延岡市,旭ケ丘,ミヤザキケン,ノベオカシ,アサヒガオカ,宮崎県延岡市旭ケ丘
8890511,宮崎県,延岡市,松原町,ミヤザキケン,ノベオカシ,マツバラマチ,宮崎県延岡市松原町
8890512,宮崎県,延岡市,新浜町,ミヤザキケン,ノベオカシ,シンハママチ,宮崎県延岡市新浜町
8890513,宮崎県,延岡市,土々呂町,ミヤザキケン,ノベオカシ,トトロマチ,宮崎県延岡市土々呂町
8890514,宮崎県,延岡市,櫛津町,ミヤザキケン,ノベオカシ,クシツマチ,宮崎県延岡市櫛津町
8890515,宮崎県,延岡市,妙見町,ミヤザキケン,ノベオカシ,ミョウケンマチ,宮崎県延岡市妙見町
8890516,宮崎県,延岡市,鯛名町,ミヤザキケン,ノベオカシ,タイナマチ,宮崎県延岡市鯛名町
8890517,宮崎県,延岡市,赤水町,ミヤザキケン,ノベオカシ,アカミズマチ,宮崎県延岡市赤水町
8890600,宮崎県,東臼杵郡門川町,,ミヤザキケン,ヒガシウスキグンカドガワチョウ,,宮崎県東臼杵郡門川町
8890601,宮崎県,東臼杵郡門川町,須賀崎,ミヤザキケン,ヒガシウスキグンカドガワチョウ,スガサキ,宮崎県東臼杵郡門川町須賀崎
8890602,宮崎県,東臼杵郡門川町,庵川,ミヤザキケン,ヒガシウスキグンカドガワチョウ,イオリガワ,宮崎県東臼杵郡門川町庵川
8890603,宮崎県,東臼杵郡門川町,加草,ミヤザキケン,ヒガシウスキグンカドガワチョウ,カクサ,宮崎県東臼杵郡門川町加草
8890604,宮崎県,東臼杵郡門川町,川内,ミヤザキケン,ヒガシウスキグンカドガワチョウ,カワチ,宮崎県東臼杵郡門川町川内
8890605,宮崎県,東臼杵郡門川町,庵川西,ミヤザキケン,ヒガシウスキグンカドガワチョウ,イオリガワニシ,宮崎県東臼杵郡門川町庵川西
8890611,宮崎県,東臼杵郡門川町,門川尾末,ミヤザキケン,ヒガシウスキグンカドガワチョウ,カドカワオズエ,宮崎県東臼杵郡門川町門川尾末
8890612,宮崎県,東臼杵郡門川町,中須,ミヤザキケン,ヒガシウスキグンカドガワチョウ,ナカス,宮崎県東臼杵郡門川町中須
8890613,宮崎県,東臼杵郡門川町,本町,ミヤザキケン,ヒガシウスキグンカドガワチョウ,ホンマチ,宮崎県東臼杵郡門川町本町
8890614,宮崎県,東臼杵郡門川町,上町,ミヤザキケン,ヒガシウスキグンカドガワチョウ,カミノマチ,宮崎県東臼杵郡門川町上町
8890615,宮崎県,東臼杵郡門川町,栄ケ丘,ミヤザキケン,ヒガシウスキグンカドガワチョウ,サカエガオカ,宮崎県東臼杵郡門川町栄ケ丘
8890616,宮崎県,東臼杵郡門川町,南町,ミヤザキケン,ヒガシウスキグンカドガワチョウ,ミナミマチ,宮崎県東臼杵郡門川町南町
8890617,宮崎県,東臼杵郡門川町,南ケ丘,ミヤザキケン,ヒガシウスキグンカドガワチョウ,ミナミガオカ,宮崎県東臼杵郡門川町南ケ丘
8890621,宮崎県,東臼杵郡門川町,東栄町,ミヤザキケン,ヒガシウスキグンカドガワチョウ,ヒガシサカエマチ,宮崎県東臼杵郡門川町東栄町
8890622,宮崎県,東臼杵郡門川町,西栄町,ミヤザキケン,ヒガシウスキグンカドガワチョウ,ニシサカエマチ,宮崎県東臼杵郡門川町西栄町
8890623,宮崎県,東臼杵郡門川町,宮ケ原,ミヤザキケン,ヒガシウスキグンカドガワチョウ,ミヤガハラ,宮崎県東臼杵郡門川町宮ケ原
8890624,宮崎県,東臼杵郡門川町,城ケ丘,ミヤザキケン,ヒガシウスキグンカドガワチョウ,ジョウガオカ,宮崎県東臼杵郡門川町城ケ丘
8890625,宮崎県,東臼杵郡門川町,平城東,ミヤザキケン,ヒガシウスキグンカドガワチョウ,ヒラジョウヒガシ,宮崎県東臼杵郡門川町平城東
8890626,宮崎県,東臼杵郡門川町,平城西,ミヤザキケン,ヒガシウスキグンカドガワチョウ,ヒラジョウニシ,宮崎県東臼杵郡門川町平城西
8890901,宮崎県,東臼杵郡美郷町,北郷宇納間,ミヤザキケン,ヒガシウスキグンミサトチョウ,キタゴウウナマ,宮崎県東臼杵郡美郷町北郷宇納間
8890902,宮崎県,東臼杵郡美郷町,北郷入下,ミヤザキケン,ヒガシウスキグンミサトチョウ,キタゴウニュウシタ,宮崎県東臼杵郡美郷町北郷入下
8890903,宮崎県,東臼杵郡美郷町,北郷黒木,ミヤザキケン,ヒガシウスキグンミサトチョウ,キタゴウクロギ,宮崎県東臼杵郡美郷町北郷黒木
8891101,宮崎県,日向市,東郷町山陰乙（鳥川）,ミヤザキケン,ヒュウガシ,トウゴウチョウヤマゲオツ(トリカワ),宮崎県日向市東郷町山陰乙（鳥川）
8891111,宮崎県,日向市,美々津町,ミヤザキケン,ヒュウガシ,ミミツチョウ,宮崎県日向市美々津町
8891112,宮崎県,日向市,幸脇,ミヤザキケン,ヒュウガシ,サイワキ,宮崎県日向市幸脇
8891121,宮崎県,日向市,東郷町山陰甲,ミヤザキケン,ヒュウガシ,トウゴウチョウヤマゲコウ,宮崎県日向市東郷町山陰甲
8891200,宮崎県,児湯郡都農町,,ミヤザキケン,コユグンツノチョウ,,宮崎県児湯郡都農町
8891201,宮崎県,児湯郡都農町,川北,ミヤザキケン,コユグンツノチョウ,カワキタ,宮崎県児湯郡都農町川北
8891300,宮崎県,児湯郡川南町,,ミヤザキケン,コユグンカワミナミチョウ,,宮崎県児湯郡川南町
8891301,宮崎県,児湯郡川南町,川南,ミヤザキケン,コユグンカワミナミチョウ,カワミナミ,宮崎県児湯郡川南町川南
8891302,宮崎県,児湯郡川南町,平田,ミヤザキケン,コユグンカワミナミチョウ,ヘイダ,宮崎県児湯郡川南町平田
8891400,宮崎県,児湯郡新富町,,ミヤザキケン,コユグンシントミチョウ,,宮崎県児湯郡新富町
8891401,宮崎県,児湯郡新富町,日置,ミヤザキケン,コユグンシントミチョウ,ヒオキ,宮崎県児湯郡新富町日置
8891402,宮崎県,児湯郡新富町,三納代,ミヤザキケン,コユグンシントミチョウ,ミナシロ,宮崎県児湯郡新富町三納代
8891403,宮崎県,児湯郡新富町,上富田,ミヤザキケン,コユグンシントミチョウ,カミトンダ,宮崎県児湯郡新富町上富田
8891404,宮崎県,児湯郡新富町,下富田,ミヤザキケン,コユグンシントミチョウ,シモトンダ,宮崎県児湯郡新富町下富田
8891405,宮崎県,児湯郡新富町,伊倉,ミヤザキケン,コユグンシントミチョウ,イクラ,宮崎県児湯郡新富町伊倉
8891406,宮崎県,児湯郡新富町,新田,ミヤザキケン,コユグンシントミチョウ,ニュウタ,宮崎県児湯郡新富町新田
8891411,宮崎県,児湯郡新富町,富田,ミヤザキケン,コユグンシントミチョウ,トンダ,宮崎県児湯郡新富町富田
8891412,宮崎県,児湯郡新富町,富田東,ミヤザキケン,コユグンシントミチョウ,トンダヒガシ,宮崎県児湯郡新富町富田東
8891413,宮崎県,児湯郡新富町,富田西,ミヤザキケン,コユグンシントミチョウ,トンダニシ,宮崎県児湯郡新富町富田西
8891414,宮崎県,児湯郡新富町,富田南,ミヤザキケン,コユグンシントミチョウ,トンダミナミ,宮崎県児湯郡新富町富田南
8891415,宮崎県,児湯郡新富町,富田北,ミヤザキケン,コユグンシントミチョウ,トンダキタ,宮崎県児湯郡新富町富田北
8891601,宮崎県,宮崎市,清武町木原,ミヤザキケン,ミヤザキシ,キヨタケチョウキハラ,宮崎県宮崎市清武町木原
8891602,宮崎県,宮崎市,清武町今泉,ミヤザキケン,ミヤザキシ,キヨタケチョウイマイズミ,宮崎県宮崎市清武町今泉
8891603,宮崎県,宮崎市,清武町正手,ミヤザキケン,ミヤザキシ,キヨタケチョウショウデ,宮崎県宮崎市清武町正手
8891604,宮崎県,宮崎市,清武町船引,ミヤザキケン,ミヤザキシ,キヨタケチョウフナヒキ,宮崎県宮崎市清武町船引
8891605,宮崎県,宮崎市,清武町加納（番地）,ミヤザキケン,ミヤザキシ,キヨタケチョウカノウ(バンチ),宮崎県宮崎市清武町加納（番地）
8891606,宮崎県,宮崎市,清武町池田台,ミヤザキケン,ミヤザキシ,キヨタケチョウイケダダイ,宮崎県宮崎市清武町池田台
8891607,宮崎県,宮崎市,清武町加納（丁目）,ミヤザキケン,ミヤザキシ,キヨタケチョウカノウ(チョウメ),宮崎県宮崎市清武町加納（丁目）
8891608,宮崎県,宮崎市,清武町池田台北,ミヤザキケン,ミヤザキシ,キヨタケチョウイケダダイキタ,宮崎県宮崎市清武町池田台北
8891609,宮崎県,宮崎市,清武町あさひ,ミヤザキケン,ミヤザキシ,キヨタケチョウアサヒ,宮崎県宮崎市清武町あさひ
8891611,宮崎県,宮崎市,清武町新町,ミヤザキケン,ミヤザキシ,キヨタケチョウシンマチ,宮崎県宮崎市清武町新町
8891612,宮崎県,宮崎市,清武町岡,ミヤザキケン,ミヤザキシ,キヨタケチョウオカ,宮崎県宮崎市清武町岡
8891613,宮崎県,宮崎市,清武町西新町,ミヤザキケン,ミヤザキシ,キヨタケチョウニシシンマチ,宮崎県宮崎市清武町西新町
8891701,宮崎県,宮崎市,田野町甲,ミヤザキケン,ミヤザキシ,タノチョウコウ,宮崎県宮崎市田野町甲
8891702,宮崎県,宮崎市,田野町乙,ミヤザキケン,ミヤザキシ,タノチョウオツ,宮崎県宮崎市田野町乙
8891703,宮崎県,宮崎市,田野町あけぼの,ミヤザキケン,ミヤザキシ,タノチョウアケボノ,宮崎県宮崎市田野町あけぼの
8891704,宮崎県,宮崎市,田野町南原,ミヤザキケン,ミヤザキシ,タノチョウミナミバル,宮崎県宮崎市田野町南原
8891713,宮崎県,宮崎市,高岡町上倉永（１２０６〜１２６８番地、内の八重）,ミヤザキケン,ミヤザキシ,タカオカチョウカミクラナガ(1206-1268バンチ、ウチノヤエ),宮崎県宮崎市高岡町上倉永（1206〜1268-、内の八重）
8891716,宮崎県,宮崎市,細江（平和）,ミヤザキケン,ミヤザキシ,ホソエ(ヘイワ),宮崎県宮崎市細江（平和）
8891801,宮崎県,都城市,山之口町富吉,ミヤザキケン,ミヤコノジョウシ,ヤマノクチチョウトミヨシ,宮崎県都城市山之口町富吉
8891802,宮崎県,都城市,山之口町花木,ミヤザキケン,ミヤコノジョウシ,ヤマノクチチョウハナノキ,宮崎県都城市山之口町花木
8891803,宮崎県,都城市,山之口町山之口（その他）,ミヤザキケン,ミヤコノジョウシ,ヤマノクチチョウヤマノクチ(ソノタ),宮崎県都城市山之口町山之口（その他）
8891900,宮崎県,北諸県郡三股町,,ミヤザキケン,キタモロカタグンミマタチョウ,,宮崎県北諸県郡三股町
8891901,宮崎県,北諸県郡三股町,樺山,ミヤザキケン,キタモロカタグンミマタチョウ,カバヤマ,宮崎県北諸県郡三股町樺山
8891902,宮崎県,北諸県郡三股町,五本松,ミヤザキケン,キタモロカタグンミマタチョウ,ゴホンマツ,宮崎県北諸県郡三股町五本松
8891903,宮崎県,北諸県郡三股町,稗田,ミヤザキケン,キタモロカタグンミマタチョウ,ヒエダ,宮崎県北諸県郡三股町稗田
8891904,宮崎県,北諸県郡三股町,新馬場,ミヤザキケン,キタモロカタグンミマタチョウ,シンババ,宮崎県北諸県郡三股町新馬場
8891905,宮崎県,北諸県郡三股町,今市,ミヤザキケン,キタモロカタグンミマタチョウ,イマイチ,宮崎県北諸県郡三股町今市
8891906,宮崎県,北諸県郡三股町,中原,ミヤザキケン,キタモロカタグンミマタチョウ,ナカバル,宮崎県北諸県郡三股町中原
8891907,宮崎県,北諸県郡三股町,花見原,ミヤザキケン,キタモロカタグンミマタチョウ,ハナミバル,宮崎県北諸県郡三股町花見原
8891911,宮崎県,北諸県郡三股町,長田,ミヤザキケン,キタモロカタグンミマタチョウ,ナガタ,宮崎県北諸県郡三股町長田
8891912,宮崎県,北諸県郡三股町,宮村,ミヤザキケン,キタモロカタグンミマタチョウ,ミヤムラ,宮崎県北諸県郡三股町宮村
8891913,宮崎県,北諸県郡三股町,餅原,ミヤザキケン,キタモロカタグンミマタチョウ,モチバル,宮崎県北諸県郡三股町餅原
8891914,宮崎県,北諸県郡三股町,蓼池,ミヤザキケン,キタモロカタグンミマタチョウ,タデイケ,宮崎県北諸県郡三股町蓼池
8892151,宮崎県,宮崎市,熊野,ミヤザキケン,ミヤザキシ,クマノ,宮崎県宮崎市熊野
8892152,宮崎県,宮崎市,学園木花台北,ミヤザキケン,ミヤザキシ,ガクエンキバナダイキタ,宮崎県宮崎市学園木花台北
8892153,宮崎県,宮崎市,学園木花台南,ミヤザキケン,ミヤザキシ,ガクエンキバナダイミナミ,宮崎県宮崎市学園木花台南
8892154,宮崎県,宮崎市,学園木花台桜,ミヤザキケン,ミヤザキシ,ガクエンキハナダイサクラ,宮崎県宮崎市学園木花台桜
8892155,宮崎県,宮崎市,学園木花台西,ミヤザキケン,ミヤザキシ,ガクエンキバナダイニシ,宮崎県宮崎市学園木花台西
8892156,宮崎県,宮崎市,鏡洲,ミヤザキケン,ミヤザキシ,カガミズ,宮崎県宮崎市鏡洲
8892161,宮崎県,宮崎市,加江田,ミヤザキケン,ミヤザキシ,カエダ,宮崎県宮崎市加江田
8892162,宮崎県,宮崎市,青島,ミヤザキケン,ミヤザキシ,アオシマ,宮崎県宮崎市青島
8892163,宮崎県,宮崎市,青島西,ミヤザキケン,ミヤザキシ,アオシマニシ,宮崎県宮崎市青島西
8892164,宮崎県,宮崎市,折生迫,ミヤザキケン,ミヤザキシ,オリウザコ,宮崎県宮崎市折生迫
8892301,宮崎県,宮崎市,内海,ミヤザキケン,ミヤザキシ,ウチウミ,宮崎県宮崎市内海
8892401,宮崎県,日南市,北郷町大藤,ミヤザキケン,ニチナンシ,キタゴウチョウオオフジ,宮崎県日南市北郷町大藤
8892402,宮崎県,日南市,北郷町郷之原,ミヤザキケン,ニチナンシ,キタゴウチョウゴウノハラ,宮崎県日南市北郷町郷之原
8892403,宮崎県,日南市,北郷町北河内,ミヤザキケン,ニチナンシ,キタゴウチョウキタガワチ,宮崎県日南市北郷町北河内
8892511,宮崎県,日南市,酒谷乙,ミヤザキケン,ニチナンシ,サカタニオツ,宮崎県日南市酒谷乙
8892512,宮崎県,日南市,酒谷甲,ミヤザキケン,ニチナンシ,サカタニコウ,宮崎県日南市酒谷甲
8892513,宮崎県,日南市,吉野方,ミヤザキケン,ニチナンシ,ヨシノカタ,宮崎県日南市吉野方
8892514,宮崎県,日南市,楠原,ミヤザキケン,ニチナンシ,クスバル,宮崎県日南市楠原
8892521,宮崎県,日南市,東弁分乙,ミヤザキケン,ニチナンシ,ヒガシベンブンオツ,宮崎県日南市東弁分乙
8892522,宮崎県,日南市,東弁分甲,ミヤザキケン,ニチナンシ,ヒガシベンブンコウ,宮崎県日南市東弁分甲
8892523,宮崎県,日南市,松永,ミヤザキケン,ニチナンシ,マツナガ,宮崎県日南市松永
8892524,宮崎県,日南市,殿所,ミヤザキケン,ニチナンシ,トノトコロ,宮崎県日南市殿所
8892525,宮崎県,日南市,今町,ミヤザキケン,ニチナンシ,イママチ,宮崎県日南市今町
8892531,宮崎県,日南市,本町,ミヤザキケン,ニチナンシ,ホンマチ,宮崎県日南市本町
8892532,宮崎県,日南市,板敷,ミヤザキケン,ニチナンシ,イタジキ,宮崎県日南市板敷
8892533,宮崎県,日南市,星倉,ミヤザキケン,ニチナンシ,ホシクラ,宮崎県日南市星倉
8892534,宮崎県,日南市,時任町,ミヤザキケン,ニチナンシ,トキトウチョウ,宮崎県日南市時任町
8892535,宮崎県,日南市,飫肥,ミヤザキケン,ニチナンシ,オビ,宮崎県日南市飫肥
8892536,宮崎県,日南市,吾田西,ミヤザキケン,ニチナンシ,アガタニシ,宮崎県日南市吾田西
8892541,宮崎県,日南市,吾田東（５〜１１丁目）,ミヤザキケン,ニチナンシ,アガタヒガシ(5-11チョウメ),宮崎県日南市吾田東（5〜11-）
8893141,宮崎県,日南市,大堂津,ミヤザキケン,ニチナンシ,オオドウツ,宮崎県日南市大堂津
8893142,宮崎県,日南市,塩鶴,ミヤザキケン,ニチナンシ,シオヅル,宮崎県日南市塩鶴
8893143,宮崎県,日南市,下方,ミヤザキケン,ニチナンシ,シモカタ,宮崎県日南市下方
8893151,宮崎県,日南市,上方,ミヤザキケン,ニチナンシ,カミカタ,宮崎県日南市上方
8893152,宮崎県,日南市,毛吉田,ミヤザキケン,ニチナンシ,ケヨシダ,宮崎県日南市毛吉田
8893153,宮崎県,日南市,萩之嶺,ミヤザキケン,ニチナンシ,ハギノミネ,宮崎県日南市萩之嶺
8893154,宮崎県,日南市,塚田甲,ミヤザキケン,ニチナンシ,ツカダコウ,宮崎県日南市塚田甲
8893155,宮崎県,日南市,塚田乙,ミヤザキケン,ニチナンシ,ツカダオツ,宮崎県日南市塚田乙
8893156,宮崎県,日南市,大窪,ミヤザキケン,ニチナンシ,オオクボ,宮崎県日南市大窪
8893201,宮崎県,日南市,南郷町津屋野,ミヤザキケン,ニチナンシ,ナンゴウチョウツヤノ,宮崎県日南市南郷町津屋野
8893202,宮崎県,日南市,南郷町中村甲,ミヤザキケン,ニチナンシ,ナンゴウチョウナカムラコウ,宮崎県日南市南郷町中村甲
8893203,宮崎県,日南市,南郷町谷之口,ミヤザキケン,ニチナンシ,ナンゴウチョウタニノクチ,宮崎県日南市南郷町谷之口
8893204,宮崎県,日南市,南郷町中村乙,ミヤザキケン,ニチナンシ,ナンゴウチョウナカムラオツ,宮崎県日南市南郷町中村乙
8893205,宮崎県,日南市,南郷町西町,ミヤザキケン,ニチナンシ,ナンゴウチョウニシマチ,宮崎県日南市南郷町西町
8893206,宮崎県,日南市,南郷町南町,ミヤザキケン,ニチナンシ,ナンゴウチョウミナミマチ,宮崎県日南市南郷町南町
8893207,宮崎県,日南市,南郷町東町,ミヤザキケン,ニチナンシ,ナンゴウチョウヒガシマチ,宮崎県日南市南郷町東町
8893211,宮崎県,日南市,南郷町贄波,ミヤザキケン,ニチナンシ,ナンゴウチョウニエナミ,宮崎県日南市南郷町贄波
8893212,宮崎県,日南市,南郷町脇本,ミヤザキケン,ニチナンシ,ナンゴウチョウワキモト,宮崎県日南市南郷町脇本
8893213,宮崎県,日南市,南郷町潟上,ミヤザキケン,ニチナンシ,ナンゴウチョウカタガミ,宮崎県日南市南郷町潟上
8893214,宮崎県,日南市,南郷町榎原,ミヤザキケン,ニチナンシ,ナンゴウチョウヨワラ,宮崎県日南市南郷町榎原
8893215,宮崎県,日南市,南郷町榎原甲,ミヤザキケン,ニチナンシ,ナンゴウチョウヨワラコウ,宮崎県日南市南郷町榎原甲
8893216,宮崎県,日南市,南郷町榎原乙,ミヤザキケン,ニチナンシ,ナンゴウチョウヨワラオツ,宮崎県日南市南郷町榎原乙
8893217,宮崎県,日南市,南郷町榎原丙,ミヤザキケン,ニチナンシ,ナンゴウチョウヨワラヘイ,宮崎県日南市南郷町榎原丙
8893311,宮崎県,串間市,市木,ミヤザキケン,クシマシ,イチキ,宮崎県串間市市木
8893531,宮崎県,串間市,奈留,ミヤザキケン,クシマシ,ナル,宮崎県串間市奈留
8893532,宮崎県,串間市,大平,ミヤザキケン,クシマシ,オオヒラ,宮崎県串間市大平
8893533,宮崎県,串間市,一氏,ミヤザキケン,クシマシ,イチウジ,宮崎県串間市一氏
8893534,宮崎県,串間市,大矢取,ミヤザキケン,クシマシ,オオヤドリ,宮崎県串間市大矢取
8894151,宮崎県,えびの市,向江,ミヤザキケン,エビノシ,ムカエ,宮崎県えびの市向江
8894152,宮崎県,えびの市,島内,ミヤザキケン,エビノシ,シマウチ,宮崎県えびの市島内
8894153,宮崎県,えびの市,浦,ミヤザキケン,エビノシ,ウラ,宮崎県えびの市浦
8894154,宮崎県,えびの市,柳水流,ミヤザキケン,エビノシ,ヤナギズル,宮崎県えびの市柳水流
8894155,宮崎県,えびの市,亀沢,ミヤザキケン,エビノシ,カメサワ,宮崎県えびの市亀沢
8894161,宮崎県,えびの市,岡松,ミヤザキケン,エビノシ,オカマツ,宮崎県えびの市岡松
8894162,宮崎県,えびの市,内竪,ミヤザキケン,エビノシ,ウチタテ,宮崎県えびの市内竪
8894163,宮崎県,えびの市,水流,ミヤザキケン,エビノシ,ツル,宮崎県えびの市水流
8894164,宮崎県,えびの市,昌明寺,ミヤザキケン,エビノシ,ショウミョウジ,宮崎県えびの市昌明寺
8894165,宮崎県,えびの市,西川北,ミヤザキケン,エビノシ,ニシカワキタ,宮崎県えびの市西川北
8894221,宮崎県,えびの市,栗下,ミヤザキケン,エビノシ,クリシタ,宮崎県えびの市栗下
8894222,宮崎県,えびの市,小田,ミヤザキケン,エビノシ,オダ,宮崎県えびの市小田
8894231,宮崎県,えびの市,東長江浦,ミヤザキケン,エビノシ,ヒガシナガエウラ,宮崎県えびの市東長江浦
8894232,宮崎県,えびの市,西長江浦,ミヤザキケン,エビノシ,ニシナガエウラ,宮崎県えびの市西長江浦
8894233,宮崎県,えびの市,灰塚,ミヤザキケン,エビノシ,ハイツカ,宮崎県えびの市灰塚
8894234,宮崎県,えびの市,永山,ミヤザキケン,エビノシ,ナガヤマ,宮崎県えびの市永山
8894241,宮崎県,えびの市,西郷,ミヤザキケン,エビノシ,サイゴウ,宮崎県えびの市西郷
8894242,宮崎県,えびの市,湯田,ミヤザキケン,エビノシ,ユダ,宮崎県えびの市湯田
8894243,宮崎県,えびの市,榎田,ミヤザキケン,エビノシ,エノキダ,宮崎県えびの市榎田
8894244,宮崎県,えびの市,東川北,ミヤザキケン,エビノシ,ヒガシカワキタ,宮崎県えびの市東川北
8894300,宮崎県,えびの市,,ミヤザキケン,エビノシ,,宮崎県えびの市
8894301,宮崎県,えびの市,原田,ミヤザキケン,エビノシ,ハラダ,宮崎県えびの市原田
8894302,宮崎県,えびの市,末永,ミヤザキケン,エビノシ,スエナガ,宮崎県えびの市末永
8894303,宮崎県,えびの市,池島,ミヤザキケン,エビノシ,イケジマ,宮崎県えびの市池島
8894304,宮崎県,えびの市,上江,ミヤザキケン,エビノシ,ウワエ,宮崎県えびの市上江
8894305,宮崎県,えびの市,前田,ミヤザキケン,エビノシ,マエダ,宮崎県えびの市前田
8894306,宮崎県,えびの市,今西,ミヤザキケン,エビノシ,イマニシ,宮崎県えびの市今西
8894311,宮崎県,えびの市,大明司,ミヤザキケン,エビノシ,ダイミョウジ,宮崎県えびの市大明司
8894312,宮崎県,えびの市,坂元,ミヤザキケン,エビノシ,サカモト,宮崎県えびの市坂元
8894313,宮崎県,えびの市,杉水流,ミヤザキケン,エビノシ,スギズル,宮崎県えびの市杉水流
8894314,宮崎県,えびの市,大河平,ミヤザキケン,エビノシ,オオコウビラ,宮崎県えびの市大河平
8894400,宮崎県,西諸県郡高原町,,ミヤザキケン,ニシモロカタグンタカハルチョウ,,宮崎県西諸県郡高原町
8894411,宮崎県,西諸県郡高原町,広原,ミヤザキケン,ニシモロカタグンタカハルチョウ,ヒロワラ,宮崎県西諸県郡高原町広原
8894412,宮崎県,西諸県郡高原町,西麓,ミヤザキケン,ニシモロカタグンタカハルチョウ,ニシフモト,宮崎県西諸県郡高原町西麓
8894413,宮崎県,西諸県郡高原町,後川内,ミヤザキケン,ニシモロカタグンタカハルチョウ,ウシロカワチ,宮崎県西諸県郡高原町後川内
8894414,宮崎県,西諸県郡高原町,蒲牟田,ミヤザキケン,ニシモロカタグンタカハルチョウ,カマムタ,宮崎県西諸県郡高原町蒲牟田
8894501,宮崎県,都城市,高崎町笛水,ミヤザキケン,ミヤコノジョウシ,タカザキチョウフエミズ,宮崎県都城市高崎町笛水
8894502,宮崎県,都城市,高崎町江平,ミヤザキケン,ミヤコノジョウシ,タカザキチョウエヒラ,宮崎県都城市高崎町江平
8894503,宮崎県,都城市,高崎町縄瀬,ミヤザキケン,ミヤコノジョウシ,タカザキチョウナワゼ,宮崎県都城市高崎町縄瀬
8894504,宮崎県,都城市,高崎町東霧島,ミヤザキケン,ミヤコノジョウシ,タカザキチョウツマギリシマ,宮崎県都城市高崎町東霧島
8894505,宮崎県,都城市,高崎町大牟田,ミヤザキケン,ミヤコノジョウシ,タカザキチョウオオムタ,宮崎県都城市高崎町大牟田
8894506,宮崎県,都城市,高崎町前田,ミヤザキケン,ミヤコノジョウシ,タカザキチョウマエダ,宮崎県都城市高崎町前田
8894601,宮崎県,都城市,山田町山田,ミヤザキケン,ミヤコノジョウシ,ヤマダチョウヤマダ,宮崎県都城市山田町山田
8894602,宮崎県,都城市,山田町中霧島,ミヤザキケン,ミヤコノジョウシ,ヤマダチョウナカギリシマ,宮崎県都城市山田町中霧島
