zipcode,prefecture_name,city,town,prefecture_kana,city_kana,town_kana,normalized_address
8900000,鹿児島県,鹿児島市,,カゴシマケン,カゴシマシ,,鹿児島県鹿児島市
8900000,鹿児島県,鹿児島郡三島村,,カゴシマケン,カゴシマグンミシマムラ,,鹿児島県鹿児島郡三島村
8900001,鹿児島県,鹿児島市,千年,カゴシマケン,カゴシマシ,センネン,鹿児島県鹿児島市千年
8900002,鹿児島県,鹿児島市,西伊敷（１〜４丁目）,カゴシマケン,カゴシマシ,ニシイシキ(1-4チョウメ),鹿児島県鹿児島市西伊敷（1〜4-）
8900003,鹿児島県,鹿児島市,伊敷町（その他）,カゴシマケン,カゴシマシ,イシキチョウ(ソノタ),鹿児島県鹿児島市伊敷町（その他）
8900004,鹿児島県,鹿児島市,下伊敷町,カゴシマケン,カゴシマシ,シモイシキチョウ,鹿児島県鹿児島市下伊敷町
8900005,鹿児島県,鹿児島市,下伊敷,カゴシマケン,カゴシマシ,シモイシキ,鹿児島県鹿児島市下伊敷
8900006,鹿児島県,鹿児島市,若葉町,カゴシマケン,カゴシマシ,ワカバチョウ,鹿児島県鹿児島市若葉町
8900007,鹿児島県,鹿児島市,伊敷台,カゴシマケン,カゴシマシ,イシキダイ,鹿児島県鹿児島市伊敷台
8900008,鹿児島県,鹿児島市,伊敷,カゴシマケン,カゴシマシ,イシキ,鹿児島県鹿児島市伊敷
8900011,鹿児島県,鹿児島市,玉里団地（１丁目）,カゴシマケン,カゴシマシ,タマザトダンチ(1チョウメ),鹿児島県鹿児島市玉里団地（1-）
8900012,鹿児島県,鹿児島市,玉里町,カゴシマケン,カゴシマシ,タマザトチョウ,鹿児島県鹿児島市玉里町
8900013,鹿児島県,鹿児島市,城山（１丁目）,カゴシマケン,カゴシマシ,シロヤマ(1チョウメ),鹿児島県鹿児島市城山（1-）
8900014,鹿児島県,鹿児島市,草牟田,カゴシマケン,カゴシマシ,ソウムタ,鹿児島県鹿児島市草牟田
8900015,鹿児島県,鹿児島市,草牟田町,カゴシマケン,カゴシマシ,ソウムタチョウ,鹿児島県鹿児島市草牟田町
8900016,鹿児島県,鹿児島市,新照院町,カゴシマケン,カゴシマシ,シンショウインチョウ,鹿児島県鹿児島市新照院町
8900021,鹿児島県,鹿児島市,小野,カゴシマケン,カゴシマシ,オノ,鹿児島県鹿児島市小野
8900022,鹿児島県,鹿児島市,小野町（その他）,カゴシマケン,カゴシマシ,オノチョウ(ソノタ),鹿児島県鹿児島市小野町（その他）
8900023,鹿児島県,鹿児島市,永吉,カゴシマケン,カゴシマシ,ナガヨシ,鹿児島県鹿児島市永吉
8900024,鹿児島県,鹿児島市,明和,カゴシマケン,カゴシマシ,メイワ,鹿児島県鹿児島市明和
8900025,鹿児島県,鹿児島市,原良町,カゴシマケン,カゴシマシ,ハララチョウ,鹿児島県鹿児島市原良町
8900026,鹿児島県,鹿児島市,原良,カゴシマケン,カゴシマシ,ハララ,鹿児島県鹿児島市原良
8900031,鹿児島県,鹿児島市,武岡,カゴシマケン,カゴシマシ,タケオカ,鹿児島県鹿児島市武岡
8900032,鹿児島県,鹿児島市,西陵,カゴシマケン,カゴシマシ,セイリョウ,鹿児島県鹿児島市西陵
8900033,鹿児島県,鹿児島市,西別府町,カゴシマケン,カゴシマシ,ニシベップチョウ,鹿児島県鹿児島市西別府町
8900034,鹿児島県,鹿児島市,田上,カゴシマケン,カゴシマシ,タガミ,鹿児島県鹿児島市田上
8900035,鹿児島県,鹿児島市,田上町,カゴシマケン,カゴシマシ,タガミチョウ,鹿児島県鹿児島市田上町
8900036,鹿児島県,鹿児島市,田上台,カゴシマケン,カゴシマシ,タガミダイ,鹿児島県鹿児島市田上台
8900037,鹿児島県,鹿児島市,広木,カゴシマケン,カゴシマシ,ヒロキ,鹿児島県鹿児島市広木
8900038,鹿児島県,鹿児島市,向陽,カゴシマケン,カゴシマシ,コウヨウ,鹿児島県鹿児島市向陽
8900041,鹿児島県,鹿児島市,城西,カゴシマケン,カゴシマシ,ジョウセイ,鹿児島県鹿児島市城西
8900042,鹿児島県,鹿児島市,薬師,カゴシマケン,カゴシマシ,ヤクシ,鹿児島県鹿児島市薬師
8900043,鹿児島県,鹿児島市,鷹師,カゴシマケン,カゴシマシ,タカシ,鹿児島県鹿児島市鷹師
8900044,鹿児島県,鹿児島市,常盤町,カゴシマケン,カゴシマシ,トキワチョウ,鹿児島県鹿児島市常盤町
8900045,鹿児島県,鹿児島市,武,カゴシマケン,カゴシマシ,タケ,鹿児島県鹿児島市武
8900046,鹿児島県,鹿児島市,西田,カゴシマケン,カゴシマシ,ニシダ,鹿児島県鹿児島市西田
8900047,鹿児島県,鹿児島市,常盤,カゴシマケン,カゴシマシ,トキワ,鹿児島県鹿児島市常盤
8900051,鹿児島県,鹿児島市,高麗町,カゴシマケン,カゴシマシ,コウライチョウ,鹿児島県鹿児島市高麗町
8900052,鹿児島県,鹿児島市,上之園町,カゴシマケン,カゴシマシ,ウエノソノチョウ,鹿児島県鹿児島市上之園町
8900053,鹿児島県,鹿児島市,中央町,カゴシマケン,カゴシマシ,チュウオウチョウ,鹿児島県鹿児島市中央町
8900054,鹿児島県,鹿児島市,荒田,カゴシマケン,カゴシマシ,アラタ,鹿児島県鹿児島市荒田
8900055,鹿児島県,鹿児島市,上荒田町,カゴシマケン,カゴシマシ,ウエアラタチョウ,鹿児島県鹿児島市上荒田町
8900056,鹿児島県,鹿児島市,下荒田,カゴシマケン,カゴシマシ,シモアラタ,鹿児島県鹿児島市下荒田
8900061,鹿児島県,鹿児島市,天保山町,カゴシマケン,カゴシマシ,テンポザンチョウ,鹿児島県鹿児島市天保山町
8900062,鹿児島県,鹿児島市,与次郎,カゴシマケン,カゴシマシ,ヨジロウ,鹿児島県鹿児島市与次郎
8900063,鹿児島県,鹿児島市,鴨池,カゴシマケン,カゴシマシ,カモイケ,鹿児島県鹿児島市鴨池
8900064,鹿児島県,鹿児島市,鴨池新町,カゴシマケン,カゴシマシ,カモイケシンマチ,鹿児島県鹿児島市鴨池新町
8900065,鹿児島県,鹿児島市,郡元,カゴシマケン,カゴシマシ,コオリモト,鹿児島県鹿児島市郡元
8900066,鹿児島県,鹿児島市,真砂町,カゴシマケン,カゴシマシ,マサゴチョウ,鹿児島県鹿児島市真砂町
8900067,鹿児島県,鹿児島市,真砂本町,カゴシマケン,カゴシマシ,マサゴホンマチ,鹿児島県鹿児島市真砂本町
8900068,鹿児島県,鹿児島市,東郡元町,カゴシマケン,カゴシマシ,ヒガシコオリモトチョウ,鹿児島県鹿児島市東郡元町
8900069,鹿児島県,鹿児島市,南郡元町,カゴシマケン,カゴシマシ,ミナミコオリモトチョウ,鹿児島県鹿児島市南郡元町
8900071,鹿児島県,鹿児島市,三和町,カゴシマケン,カゴシマシ,サンワチョウ,鹿児島県鹿児島市三和町
8900072,鹿児島県,鹿児島市,新栄町,カゴシマケン,カゴシマシ,シンエイチョウ,鹿児島県鹿児島市新栄町
8900073,鹿児島県,鹿児島市,宇宿,カゴシマケン,カゴシマシ,ウスキ,鹿児島県鹿児島市宇宿
8900074,鹿児島県,鹿児島市,宇宿町,カゴシマケン,カゴシマシ,ウスキチョウ,鹿児島県鹿児島市宇宿町
8900075,鹿児島県,鹿児島市,桜ケ丘（７、８丁目）,カゴシマケン,カゴシマシ,サクラガオカ(7、8チョウメ),鹿児島県鹿児島市桜ケ丘（7、8-）
8900076,鹿児島県,鹿児島市,中央港新町,カゴシマケン,カゴシマシ,チュウオウコウシンマチ,鹿児島県鹿児島市中央港新町
8900081,鹿児島県,鹿児島市,唐湊,カゴシマケン,カゴシマシ,トソ,鹿児島県鹿児島市唐湊
8900082,鹿児島県,鹿児島市,紫原,カゴシマケン,カゴシマシ,ムラサキバル,鹿児島県鹿児島市紫原
8900083,鹿児島県,鹿児島市,西紫原町,カゴシマケン,カゴシマシ,ニシムラサキバルチョウ,鹿児島県鹿児島市西紫原町
8900084,鹿児島県,鹿児島市,郡元町,カゴシマケン,カゴシマシ,コオリモトチョウ,鹿児島県鹿児島市郡元町
8900085,鹿児島県,鹿児島市,南新町,カゴシマケン,カゴシマシ,ミナミシンマチ,鹿児島県鹿児島市南新町
8900086,鹿児島県,鹿児島市,日之出町,カゴシマケン,カゴシマシ,ヒノデチョウ,鹿児島県鹿児島市日之出町
8900901,鹿児島県,鹿児島郡三島村,硫黄島,カゴシマケン,カゴシマグンミシマムラ,イオウジマ,鹿児島県鹿児島郡三島村硫黄島
8900902,鹿児島県,鹿児島郡三島村,黒島,カゴシマケン,カゴシマグンミシマムラ,クロシマ,鹿児島県鹿児島郡三島村黒島
8900903,鹿児島県,鹿児島郡三島村,竹島,カゴシマケン,カゴシマグンミシマムラ,タケシマ,鹿児島県鹿児島郡三島村竹島
8910101,鹿児島県,鹿児島市,五ケ別府町,カゴシマケン,カゴシマシ,ゴカベップチョウ,鹿児島県鹿児島市五ケ別府町
8910102,鹿児島県,鹿児島市,星ケ峯,カゴシマケン,カゴシマシ,ホシガミネ,鹿児島県鹿児島市星ケ峯
8910103,鹿児島県,鹿児島市,皇徳寺台,カゴシマケン,カゴシマシ,コウトクジダイ,鹿児島県鹿児島市皇徳寺台
8910104,鹿児島県,鹿児島市,山田町,カゴシマケン,カゴシマシ,ヤマダチョウ,鹿児島県鹿児島市山田町
8910105,鹿児島県,鹿児島市,中山町,カゴシマケン,カゴシマシ,チュウザンチョウ,鹿児島県鹿児島市中山町
8910106,鹿児島県,鹿児島市,自由ケ丘,カゴシマケン,カゴシマシ,ジユウガオカ,鹿児島県鹿児島市自由ケ丘
8910107,鹿児島県,鹿児島市,希望ケ丘町,カゴシマケン,カゴシマシ,キボウガオカチョウ,鹿児島県鹿児島市希望ケ丘町
8910108,鹿児島県,鹿児島市,中山,カゴシマケン,カゴシマシ,チュウザン,鹿児島県鹿児島市中山
8910109,鹿児島県,鹿児島市,清和,カゴシマケン,カゴシマシ,セイワ,鹿児島県鹿児島市清和
8910111,鹿児島県,鹿児島市,小原町,カゴシマケン,カゴシマシ,オバラチョウ,鹿児島県鹿児島市小原町
8910112,鹿児島県,鹿児島市,魚見町,カゴシマケン,カゴシマシ,ウオミチョウ,鹿児島県鹿児島市魚見町
8910113,鹿児島県,鹿児島市,東谷山,カゴシマケン,カゴシマシ,ヒガシタニヤマ,鹿児島県鹿児島市東谷山
8910114,鹿児島県,鹿児島市,小松原,カゴシマケン,カゴシマシ,コマツバラ,鹿児島県鹿児島市小松原
8910115,鹿児島県,鹿児島市,東開町,カゴシマケン,カゴシマシ,トウカイチョウ,鹿児島県鹿児島市東開町
8910116,鹿児島県,鹿児島市,上福元町,カゴシマケン,カゴシマシ,カミフクモトチョウ,鹿児島県鹿児島市上福元町
8910117,鹿児島県,鹿児島市,西谷山,カゴシマケン,カゴシマシ,ニシタニヤマ,鹿児島県鹿児島市西谷山
8910122,鹿児島県,鹿児島市,南栄,カゴシマケン,カゴシマシ,ナンエイ,鹿児島県鹿児島市南栄
8910123,鹿児島県,鹿児島市,卸本町,カゴシマケン,カゴシマシ,オロシホンマチ,鹿児島県鹿児島市卸本町
8910131,鹿児島県,鹿児島市,谷山港,カゴシマケン,カゴシマシ,タニヤマコウ,鹿児島県鹿児島市谷山港
8910132,鹿児島県,鹿児島市,七ツ島,カゴシマケン,カゴシマシ,ナナツジマ,鹿児島県鹿児島市七ツ島
8910133,鹿児島県,鹿児島市,平川町,カゴシマケン,カゴシマシ,ヒラカワチョウ,鹿児島県鹿児島市平川町
8910141,鹿児島県,鹿児島市,谷山中央,カゴシマケン,カゴシマシ,タニヤマチュウオウ,鹿児島県鹿児島市谷山中央
8910143,鹿児島県,鹿児島市,和田,カゴシマケン,カゴシマシ,ワダ,鹿児島県鹿児島市和田
8910144,鹿児島県,鹿児島市,下福元町,カゴシマケン,カゴシマシ,シモフクモトチョウ,鹿児島県鹿児島市下福元町
8910145,鹿児島県,鹿児島市,錦江台,カゴシマケン,カゴシマシ,キンコウダイ,鹿児島県鹿児島市錦江台
8910146,鹿児島県,鹿児島市,慈眼寺町,カゴシマケン,カゴシマシ,ジゲンジチョウ,鹿児島県鹿児島市慈眼寺町
8910150,鹿児島県,鹿児島市,坂之上,カゴシマケン,カゴシマシ,サカノウエ,鹿児島県鹿児島市坂之上
8910151,鹿児島県,鹿児島市,光山,カゴシマケン,カゴシマシ,ヒカリヤマ,鹿児島県鹿児島市光山
8910175,鹿児島県,鹿児島市,桜ケ丘（１〜６丁目）,カゴシマケン,カゴシマシ,サクラガオカ(1-6チョウメ),鹿児島県鹿児島市桜ケ丘（1〜6-）
8910201,鹿児島県,鹿児島市,喜入瀬々串町,カゴシマケン,カゴシマシ,キイレセセクシチョウ,鹿児島県鹿児島市喜入瀬々串町
8910202,鹿児島県,鹿児島市,喜入中名町,カゴシマケン,カゴシマシ,キイレナカミョウチョウ,鹿児島県鹿児島市喜入中名町
8910203,鹿児島県,鹿児島市,喜入町,カゴシマケン,カゴシマシ,キイレチョウ,鹿児島県鹿児島市喜入町
8910204,鹿児島県,鹿児島市,喜入一倉町,カゴシマケン,カゴシマシ,キイレヒトクラチョウ,鹿児島県鹿児島市喜入一倉町
8910205,鹿児島県,鹿児島市,喜入前之浜町,カゴシマケン,カゴシマシ,キイレマエノハマチョウ,鹿児島県鹿児島市喜入前之浜町
8910206,鹿児島県,鹿児島市,喜入生見町,カゴシマケン,カゴシマシ,キイレヌクミチョウ,鹿児島県鹿児島市喜入生見町
8910304,鹿児島県,指宿市,東方（６００〜５９７４、５９７６〜７８１６、７８３３、７８３４、,カゴシマケン,イブスキシ,ヒガシカタ(600-5974、5976-7816、7833、7834、,鹿児島県指宿市東方（600〜5974、5976〜7816、7833、7834、
8910311,鹿児島県,指宿市,西方,カゴシマケン,イブスキシ,ニシカタ,鹿児島県指宿市西方
8910312,鹿児島県,指宿市,池田,カゴシマケン,イブスキシ,イケダ,鹿児島県指宿市池田
8910313,鹿児島県,指宿市,新西方,カゴシマケン,イブスキシ,シンニシカタ,鹿児島県指宿市新西方
8910314,鹿児島県,指宿市,小牧,カゴシマケン,イブスキシ,コマキ,鹿児島県指宿市小牧
8910315,鹿児島県,指宿市,岩本,カゴシマケン,イブスキシ,イワモト,鹿児島県指宿市岩本
8910400,鹿児島県,指宿市,,カゴシマケン,イブスキシ,,鹿児島県指宿市
8910401,鹿児島県,指宿市,大牟礼,カゴシマケン,イブスキシ,オオムレ,鹿児島県指宿市大牟礼
8910402,鹿児島県,指宿市,十町,カゴシマケン,イブスキシ,ジュッチョウ,鹿児島県指宿市十町
8910403,鹿児島県,指宿市,十二町,カゴシマケン,イブスキシ,ジュウニチョウ,鹿児島県指宿市十二町
8910404,鹿児島県,指宿市,東方（その他）,カゴシマケン,イブスキシ,ヒガシカタ(ソノタ),鹿児島県指宿市東方（その他）
8910405,鹿児島県,指宿市,湊,カゴシマケン,イブスキシ,ミナト,鹿児島県指宿市湊
8910406,鹿児島県,指宿市,湯の浜,カゴシマケン,イブスキシ,ユノハマ,鹿児島県指宿市湯の浜
8910501,鹿児島県,指宿市,山川新栄町,カゴシマケン,イブスキシ,ヤマガワシンエイチョウ,鹿児島県指宿市山川新栄町
8910502,鹿児島県,指宿市,山川朝日町,カゴシマケン,イブスキシ,ヤマガワアサヒチョウ,鹿児島県指宿市山川朝日町
8910503,鹿児島県,指宿市,山川潮見町,カゴシマケン,イブスキシ,ヤマガワシオミチョウ,鹿児島県指宿市山川潮見町
8910504,鹿児島県,指宿市,山川新生町,カゴシマケン,イブスキシ,ヤマガワシンセイチョウ,鹿児島県指宿市山川新生町
8910505,鹿児島県,指宿市,山川山下町,カゴシマケン,イブスキシ,ヤマガワヤマシタチョウ,鹿児島県指宿市山川山下町
8910506,鹿児島県,指宿市,山川金生町,カゴシマケン,イブスキシ,ヤマガワキンセイチョウ,鹿児島県指宿市山川金生町
8910507,鹿児島県,指宿市,山川入船町,カゴシマケン,イブスキシ,ヤマガワイリフネチョウ,鹿児島県指宿市山川入船町
8910511,鹿児島県,指宿市,山川福元,カゴシマケン,イブスキシ,ヤマガワフクモト,鹿児島県指宿市山川福元
8910512,鹿児島県,指宿市,山川浜児ケ水,カゴシマケン,イブスキシ,ヤマガワハマチヨガミズ,鹿児島県指宿市山川浜児ケ水
8910513,鹿児島県,指宿市,山川岡児ケ水,カゴシマケン,イブスキシ,ヤマガワオカチヨガミズ,鹿児島県指宿市山川岡児ケ水
8910514,鹿児島県,指宿市,山川大山（その他）,カゴシマケン,イブスキシ,ヤマガワオオヤマ(ソノタ),鹿児島県指宿市山川大山（その他）
8910515,鹿児島県,指宿市,山川小川,カゴシマケン,イブスキシ,ヤマガワオガワ,鹿児島県指宿市山川小川
8910516,鹿児島県,指宿市,山川成川,カゴシマケン,イブスキシ,ヤマガワナリカワ,鹿児島県指宿市山川成川
8910601,鹿児島県,指宿市,開聞上野,カゴシマケン,イブスキシ,カイモンウエノ,鹿児島県指宿市開聞上野
8910602,鹿児島県,指宿市,開聞川尻,カゴシマケン,イブスキシ,カイモンカワシリ,鹿児島県指宿市開聞川尻
8910603,鹿児島県,指宿市,開聞十町,カゴシマケン,イブスキシ,カイモンジュッチョウ,鹿児島県指宿市開聞十町
8910604,鹿児島県,指宿市,開聞仙田,カゴシマケン,イブスキシ,カイモンセンタ,鹿児島県指宿市開聞仙田
8910614,鹿児島県,指宿市,山川大山（１４００〜１７１７番）,カゴシマケン,イブスキシ,ヤマガワオオヤマ(1400-1717バン),鹿児島県指宿市山川大山（1400〜1717-）
8910621,鹿児島県,指宿市,山川利永,カゴシマケン,イブスキシ,ヤマガワトシナガ,鹿児島県指宿市山川利永
8910701,鹿児島県,南九州市,頴娃町郡,カゴシマケン,ミナミキュウシュウシ,エイチョウコオリ,鹿児島県南九州市頴娃町郡
8910702,鹿児島県,南九州市,頴娃町牧之内,カゴシマケン,ミナミキュウシュウシ,エイチョウマキノウチ,鹿児島県南九州市頴娃町牧之内
8910703,鹿児島県,南九州市,頴娃町御領,カゴシマケン,ミナミキュウシュウシ,エイチョウゴリョウ,鹿児島県南九州市頴娃町御領
8910704,鹿児島県,南九州市,頴娃町別府,カゴシマケン,ミナミキュウシュウシ,エイチョウベップ,鹿児島県南九州市頴娃町別府
8910705,鹿児島県,南九州市,頴娃町上別府,カゴシマケン,ミナミキュウシュウシ,エイチョウカミベップ,鹿児島県南九州市頴娃町上別府
8910911,鹿児島県,南九州市,知覧町塩屋,カゴシマケン,ミナミキュウシュウシ,チランチョウシオヤ,鹿児島県南九州市知覧町塩屋
8910912,鹿児島県,南九州市,知覧町南別府,カゴシマケン,ミナミキュウシュウシ,チランチョウミナミベップ,鹿児島県南九州市知覧町南別府
8911101,鹿児島県,鹿児島市,花尾町,カゴシマケン,カゴシマシ,ハナオマチ,鹿児島県鹿児島市花尾町
8911102,鹿児島県,鹿児島市,東俣町,カゴシマケン,カゴシマシ,ヒガシマタチョウ,鹿児島県鹿児島市東俣町
8911103,鹿児島県,鹿児島市,川田町,カゴシマケン,カゴシマシ,カワダチョウ,鹿児島県鹿児島市川田町
8911104,鹿児島県,鹿児島市,油須木町,カゴシマケン,カゴシマシ,ユスキチョウ,鹿児島県鹿児島市油須木町
8911105,鹿児島県,鹿児島市,郡山町,カゴシマケン,カゴシマシ,コオリヤマチョウ,鹿児島県鹿児島市郡山町
8911106,鹿児島県,鹿児島市,西俣町,カゴシマケン,カゴシマシ,ニシマタチョウ,鹿児島県鹿児島市西俣町
8911107,鹿児島県,鹿児島市,有屋田町,カゴシマケン,カゴシマシ,アリヤダチョウ,鹿児島県鹿児島市有屋田町
8911108,鹿児島県,鹿児島市,郡山岳町,カゴシマケン,カゴシマシ,コオリヤマタケマチ,鹿児島県鹿児島市郡山岳町
8911201,鹿児島県,鹿児島市,岡之原町（その他）,カゴシマケン,カゴシマシ,オカノハラチョウ(ソノタ),鹿児島県鹿児島市岡之原町（その他）
8911202,鹿児島県,鹿児島市,西伊敷（５〜７丁目）,カゴシマケン,カゴシマシ,ニシイシキ(5-7チョウメ),鹿児島県鹿児島市西伊敷（5〜7-）
8911203,鹿児島県,鹿児島市,伊敷町（４７１０〜４７４１、４７４７〜４７６１−３番地）,カゴシマケン,カゴシマシ,イシキチョウ(4710-4741、4747-4761-3バンチ),鹿児島県鹿児島市伊敷町（4710〜4741、4747〜4761-3-）
8911204,鹿児島県,鹿児島市,花野光ケ丘,カゴシマケン,カゴシマシ,ケノヒカリガオカ,鹿児島県鹿児島市花野光ケ丘
8911205,鹿児島県,鹿児島市,犬迫町,カゴシマケン,カゴシマシ,イヌザコチョウ,鹿児島県鹿児島市犬迫町
8911206,鹿児島県,鹿児島市,皆与志町,カゴシマケン,カゴシマシ,ミナヨシチョウ,鹿児島県鹿児島市皆与志町
8911222,鹿児島県,鹿児島市,小野町（４７８４〜５１１８番地）,カゴシマケン,カゴシマシ,オノチョウ(4784-5118バンチ),鹿児島県鹿児島市小野町（4784〜5118-）
8911231,鹿児島県,鹿児島市,小山田町（その他）,カゴシマケン,カゴシマシ,コヤマダチョウ(ソノタ),鹿児島県鹿児島市小山田町（その他）
8911274,鹿児島県,鹿児島市,緑ヶ丘町（３５番以降）,カゴシマケン,カゴシマシ,ミドリガオカチョウ(35バンイコウ),鹿児島県鹿児島市緑ヶ丘町（35-以降）
8911275,鹿児島県,鹿児島市,川上町（３６４９、３６６１、３６６７、３６６９−４、３６７１、３６７２、３,カゴシマケン,カゴシマシ,カワカミチョウ(3649、3661、3667、3669-4、3671、3672、3,鹿児島県鹿児島市川上町（3649、3661、3667、3669-4、3671、3672、3
8911301,鹿児島県,鹿児島市,西佐多町,カゴシマケン,カゴシマシ,ニシサタチョウ,鹿児島県鹿児島市西佐多町
8911302,鹿児島県,鹿児島市,東佐多町,カゴシマケン,カゴシマシ,ヒガシサタチョウ,鹿児島県鹿児島市東佐多町
8911303,鹿児島県,鹿児島市,本城町,カゴシマケン,カゴシマシ,ホンジョウチョウ,鹿児島県鹿児島市本城町
8911304,鹿児島県,鹿児島市,本名町,カゴシマケン,カゴシマシ,ホンミョウチョウ,鹿児島県鹿児島市本名町
8911305,鹿児島県,鹿児島市,宮之浦町,カゴシマケン,カゴシマシ,ミヤノウラチョウ,鹿児島県鹿児島市宮之浦町
8911306,鹿児島県,鹿児島市,牟礼岡,カゴシマケン,カゴシマシ,ムレガオカ,鹿児島県鹿児島市牟礼岡
8911401,鹿児島県,鹿児島市,黒神町（その他）,カゴシマケン,カゴシマシ,クロカミチョウ(ソノタ),鹿児島県鹿児島市黒神町（その他）
8911402,鹿児島県,鹿児島市,高免町,カゴシマケン,カゴシマシ,コウメンチョウ,鹿児島県鹿児島市高免町
8911403,鹿児島県,鹿児島市,新島町,カゴシマケン,カゴシマシ,シンジマチョウ,鹿児島県鹿児島市新島町
8911411,鹿児島県,鹿児島市,桜島白浜町,カゴシマケン,カゴシマシ,サクラジマシラハマチョウ,鹿児島県鹿児島市桜島白浜町
8911412,鹿児島県,鹿児島市,桜島二俣町,カゴシマケン,カゴシマシ,サクラジマフタマタチョウ,鹿児島県鹿児島市桜島二俣町
8911413,鹿児島県,鹿児島市,桜島松浦町,カゴシマケン,カゴシマシ,サクラジママツウラチョウ,鹿児島県鹿児島市桜島松浦町
8911414,鹿児島県,鹿児島市,桜島西道町,カゴシマケン,カゴシマシ,サクラジマサイドウチョウ,鹿児島県鹿児島市桜島西道町
8911415,鹿児島県,鹿児島市,桜島藤野町,カゴシマケン,カゴシマシ,サクラジマフジノチョウ,鹿児島県鹿児島市桜島藤野町
8911416,鹿児島県,鹿児島市,桜島武町,カゴシマケン,カゴシマシ,サクラジマタケチョウ,鹿児島県鹿児島市桜島武町
8911417,鹿児島県,鹿児島市,桜島赤生原町,カゴシマケン,カゴシマシ,サクラジマアコウバルチョウ,鹿児島県鹿児島市桜島赤生原町
8911418,鹿児島県,鹿児島市,桜島小池町,カゴシマケン,カゴシマシ,サクラジマコイケチョウ,鹿児島県鹿児島市桜島小池町
8911419,鹿児島県,鹿児島市,桜島横山町,カゴシマケン,カゴシマシ,サクラジマヨコヤマチョウ,鹿児島県鹿児島市桜島横山町
8911420,鹿児島県,鹿児島市,桜島赤水町,カゴシマケン,カゴシマシ,サクラジマアカミズチョウ,鹿児島県鹿児島市桜島赤水町
8911501,鹿児島県,鹿児島市,黒神町（枦ノ木ケ谷）,カゴシマケン,カゴシマシ,クロカミチョウ(ハゼノキガダニ),鹿児島県鹿児島市黒神町（枦ノ木ケ谷）
8911541,鹿児島県,鹿児島市,野尻町,カゴシマケン,カゴシマシ,ノジリチョウ,鹿児島県鹿児島市野尻町
8911542,鹿児島県,鹿児島市,持木町,カゴシマケン,カゴシマシ,モチキチョウ,鹿児島県鹿児島市持木町
8911543,鹿児島県,鹿児島市,東桜島町,カゴシマケン,カゴシマシ,ヒガシサクラジマチョウ,鹿児島県鹿児島市東桜島町
8911544,鹿児島県,鹿児島市,古里町,カゴシマケン,カゴシマシ,フルサトチョウ,鹿児島県鹿児島市古里町
8911545,鹿児島県,鹿児島市,有村町,カゴシマケン,カゴシマシ,アリムラチョウ,鹿児島県鹿児島市有村町
8912100,鹿児島県,垂水市,,カゴシマケン,タルミズシ,,鹿児島県垂水市
8912101,鹿児島県,垂水市,海潟,カゴシマケン,タルミズシ,カイガタ,鹿児島県垂水市海潟
8912102,鹿児島県,垂水市,中俣,カゴシマケン,タルミズシ,ナカマタ,鹿児島県垂水市中俣
8912103,鹿児島県,垂水市,市木,カゴシマケン,タルミズシ,イチキ,鹿児島県垂水市市木
8912104,鹿児島県,垂水市,田神,カゴシマケン,タルミズシ,タガミ,鹿児島県垂水市田神
8912105,鹿児島県,垂水市,松原町,カゴシマケン,タルミズシ,マツバラチョウ,鹿児島県垂水市松原町
8912106,鹿児島県,垂水市,中央町,カゴシマケン,タルミズシ,チュウオウチョウ,鹿児島県垂水市中央町
8912111,鹿児島県,垂水市,新御堂,カゴシマケン,タルミズシ,シンミドウ,鹿児島県垂水市新御堂
8912112,鹿児島県,垂水市,本城,カゴシマケン,タルミズシ,ホンジョウ,鹿児島県垂水市本城
8912113,鹿児島県,垂水市,高城,カゴシマケン,タルミズシ,タカジョウ,鹿児島県垂水市高城
8912114,鹿児島県,垂水市,新城,カゴシマケン,タルミズシ,シンジョウ,鹿児島県垂水市新城
8912115,鹿児島県,垂水市,浜平,カゴシマケン,タルミズシ,ハマビラ,鹿児島県垂水市浜平
8912116,鹿児島県,垂水市,柊原,カゴシマケン,タルミズシ,クヌギバル,鹿児島県垂水市柊原
8912117,鹿児島県,垂水市,潮彩町,カゴシマケン,タルミズシ,シオサイチョウ,鹿児島県垂水市潮彩町
8912121,鹿児島県,垂水市,栄町,カゴシマケン,タルミズシ,サカエマチ,鹿児島県垂水市栄町
8912122,鹿児島県,垂水市,上町,カゴシマケン,タルミズシ,カンマチ,鹿児島県垂水市上町
8912123,鹿児島県,垂水市,本町,カゴシマケン,タルミズシ,ホンマチ,鹿児島県垂水市本町
8912124,鹿児島県,垂水市,錦江町,カゴシマケン,タルミズシ,キンコウチョウ,鹿児島県垂水市錦江町
8912125,鹿児島県,垂水市,旭町,カゴシマケン,タルミズシ,アサヒマチ,鹿児島県垂水市旭町
8912126,鹿児島県,垂水市,南松原町,カゴシマケン,タルミズシ,ミナミマツバラチョウ,鹿児島県垂水市南松原町
8912127,鹿児島県,垂水市,下宮町,カゴシマケン,タルミズシ,シモミヤチョウ,鹿児島県垂水市下宮町
8912301,鹿児島県,鹿屋市,有武町,カゴシマケン,カノヤシ,アリタケチョウ,鹿児島県鹿屋市有武町
8912302,鹿児島県,鹿屋市,小薄町,カゴシマケン,カノヤシ,オスキチョウ,鹿児島県鹿屋市小薄町
8912303,鹿児島県,鹿屋市,海道町,カゴシマケン,カノヤシ,カイドウチョウ,鹿児島県鹿屋市海道町
8912304,鹿児島県,鹿屋市,花岡町,カゴシマケン,カノヤシ,ハナオカチョウ,鹿児島県鹿屋市花岡町
8912305,鹿児島県,鹿屋市,根木原町,カゴシマケン,カノヤシ,ネギバルチョウ,鹿児島県鹿屋市根木原町
8912306,鹿児島県,鹿屋市,花里町,カゴシマケン,カノヤシ,ハナザトチョウ,鹿児島県鹿屋市花里町
8912311,鹿児島県,鹿屋市,白水町,カゴシマケン,カノヤシ,シロミズチョウ,鹿児島県鹿屋市白水町
8912312,鹿児島県,鹿屋市,小野原町,カゴシマケン,カノヤシ,オノバルチョウ,鹿児島県鹿屋市小野原町
8912313,鹿児島県,鹿屋市,天神町,カゴシマケン,カノヤシ,テンジンチョウ,鹿児島県鹿屋市天神町
8912314,鹿児島県,鹿屋市,船間町,カゴシマケン,カノヤシ,フナマチョウ,鹿児島県鹿屋市船間町
8912321,鹿児島県,鹿屋市,古江町,カゴシマケン,カノヤシ,フルエチョウ,鹿児島県鹿屋市古江町
8912322,鹿児島県,鹿屋市,古里町,カゴシマケン,カノヤシ,フルサトチョウ,鹿児島県鹿屋市古里町
8913100,鹿児島県,西之表市,,カゴシマケン,ニシノオモテシ,,鹿児島県西之表市
8913101,鹿児島県,西之表市,西之表,カゴシマケン,ニシノオモテシ,ニシノオモテ,鹿児島県西之表市西之表
8913102,鹿児島県,西之表市,安納（１〜３０４８、４９０１〜４９３０番地）,カゴシマケン,ニシノオモテシ,アンノウ(1-3048、4901-4930バンチ),鹿児島県西之表市安納（1〜3048、4901〜4930-）
8913103,鹿児島県,西之表市,現和,カゴシマケン,ニシノオモテシ,ゲンナ,鹿児島県西之表市現和
8913104,鹿児島県,西之表市,住吉,カゴシマケン,ニシノオモテシ,スミヨシ,鹿児島県西之表市住吉
8913111,鹿児島県,西之表市,西町,カゴシマケン,ニシノオモテシ,ニシマチ,鹿児島県西之表市西町
8913112,鹿児島県,西之表市,栄町,カゴシマケン,ニシノオモテシ,サカエマチ,鹿児島県西之表市栄町
8913113,鹿児島県,西之表市,東町,カゴシマケン,ニシノオモテシ,ヒガシマチ,鹿児島県西之表市東町
8913114,鹿児島県,西之表市,池田,カゴシマケン,ニシノオモテシ,イケダ,鹿児島県西之表市池田
8913115,鹿児島県,西之表市,天神町,カゴシマケン,ニシノオモテシ,テンジンチョウ,鹿児島県西之表市天神町
8913116,鹿児島県,西之表市,鴨女町,カゴシマケン,ニシノオモテシ,カモメチョウ,鹿児島県西之表市鴨女町
8913117,鹿児島県,西之表市,桜が丘,カゴシマケン,ニシノオモテシ,サクラガオカ,鹿児島県西之表市桜が丘
8913118,鹿児島県,西之表市,馬毛島,カゴシマケン,ニシノオモテシ,マゲシマ,鹿児島県西之表市馬毛島
8913202,鹿児島県,西之表市,安納（その他）,カゴシマケン,ニシノオモテシ,アンノウ(ソノタ),鹿児島県西之表市安納（その他）
8913221,鹿児島県,西之表市,伊関,カゴシマケン,ニシノオモテシ,イセキ,鹿児島県西之表市伊関
8913222,鹿児島県,西之表市,国上,カゴシマケン,ニシノオモテシ,クニガミ,鹿児島県西之表市国上
8913431,鹿児島県,西之表市,古田,カゴシマケン,ニシノオモテシ,フルタ,鹿児島県西之表市古田
8913432,鹿児島県,西之表市,安城,カゴシマケン,ニシノオモテシ,アンジョウ,鹿児島県西之表市安城
8913600,鹿児島県,熊毛郡中種子町,,カゴシマケン,クマゲグンナカタネチョウ,,鹿児島県熊毛郡中種子町
8913601,鹿児島県,熊毛郡中種子町,納官,カゴシマケン,クマゲグンナカタネチョウ,ノウカン,鹿児島県熊毛郡中種子町納官
8913602,鹿児島県,熊毛郡中種子町,牧川,カゴシマケン,クマゲグンナカタネチョウ,マキガワ,鹿児島県熊毛郡中種子町牧川
8913603,鹿児島県,熊毛郡中種子町,増田,カゴシマケン,クマゲグンナカタネチョウ,マスダ,鹿児島県熊毛郡中種子町増田
8913604,鹿児島県,熊毛郡中種子町,野間,カゴシマケン,クマゲグンナカタネチョウ,ノマ,鹿児島県熊毛郡中種子町野間
8913605,鹿児島県,熊毛郡中種子町,油久,カゴシマケン,クマゲグンナカタネチョウ,ユク,鹿児島県熊毛郡中種子町油久
8913606,鹿児島県,熊毛郡中種子町,坂井,カゴシマケン,クマゲグンナカタネチョウ,サカイ,鹿児島県熊毛郡中種子町坂井
8913607,鹿児島県,熊毛郡中種子町,田島,カゴシマケン,クマゲグンナカタネチョウ,タシマ,鹿児島県熊毛郡中種子町田島
8913700,鹿児島県,熊毛郡南種子町,,カゴシマケン,クマゲグンミナミタネチョウ,,鹿児島県熊毛郡南種子町
8913701,鹿児島県,熊毛郡南種子町,中之上,カゴシマケン,クマゲグンミナミタネチョウ,ナカノカミ,鹿児島県熊毛郡南種子町中之上
8913702,鹿児島県,熊毛郡南種子町,平山,カゴシマケン,クマゲグンミナミタネチョウ,ヒラヤマ,鹿児島県熊毛郡南種子町平山
8913703,鹿児島県,熊毛郡南種子町,茎永,カゴシマケン,クマゲグンミナミタネチョウ,クキナガ,鹿児島県熊毛郡南種子町茎永
8913704,鹿児島県,熊毛郡南種子町,中之下,カゴシマケン,クマゲグンミナミタネチョウ,ナカノシモ,鹿児島県熊毛郡南種子町中之下
8913705,鹿児島県,熊毛郡南種子町,西之,カゴシマケン,クマゲグンミナミタネチョウ,ニシノ,鹿児島県熊毛郡南種子町西之
8913706,鹿児島県,熊毛郡南種子町,島間,カゴシマケン,クマゲグンミナミタネチョウ,シママ,鹿児島県熊毛郡南種子町島間
8914200,鹿児島県,熊毛郡屋久島町,,カゴシマケン,クマゲグンヤクシマチョウ,,鹿児島県熊毛郡屋久島町
8914201,鹿児島県,熊毛郡屋久島町,永田,カゴシマケン,クマゲグンヤクシマチョウ,ナガタ,鹿児島県熊毛郡屋久島町永田
8914202,鹿児島県,熊毛郡屋久島町,吉田,カゴシマケン,クマゲグンヤクシマチョウ,ヨシダ,鹿児島県熊毛郡屋久島町吉田
8914203,鹿児島県,熊毛郡屋久島町,一湊,カゴシマケン,クマゲグンヤクシマチョウ,イッソウ,鹿児島県熊毛郡屋久島町一湊
8914204,鹿児島県,熊毛郡屋久島町,志戸子,カゴシマケン,クマゲグンヤクシマチョウ,シトゴ,鹿児島県熊毛郡屋久島町志戸子
8914205,鹿児島県,熊毛郡屋久島町,宮之浦,カゴシマケン,クマゲグンヤクシマチョウ,ミヤノウラ,鹿児島県熊毛郡屋久島町宮之浦
8914206,鹿児島県,熊毛郡屋久島町,楠川,カゴシマケン,クマゲグンヤクシマチョウ,クスガワ,鹿児島県熊毛郡屋久島町楠川
8914207,鹿児島県,熊毛郡屋久島町,小瀬田,カゴシマケン,クマゲグンヤクシマチョウ,コセダ,鹿児島県熊毛郡屋久島町小瀬田
8914208,鹿児島県,熊毛郡屋久島町,口永良部島,カゴシマケン,クマゲグンヤクシマチョウ,クチエラブジマ,鹿児島県熊毛郡屋久島町口永良部島
8914311,鹿児島県,熊毛郡屋久島町,安房,カゴシマケン,クマゲグンヤクシマチョウ,アンボウ,鹿児島県熊毛郡屋久島町安房
8914312,鹿児島県,熊毛郡屋久島町,船行,カゴシマケン,クマゲグンヤクシマチョウ,フナユキ,鹿児島県熊毛郡屋久島町船行
8914401,鹿児島県,熊毛郡屋久島町,麦生（高平）,カゴシマケン,クマゲグンヤクシマチョウ,ムギオ(タカビラ),鹿児島県熊毛郡屋久島町麦生（高平）
8914402,鹿児島県,熊毛郡屋久島町,麦生（その他）,カゴシマケン,クマゲグンヤクシマチョウ,ムギオ(ソノタ),鹿児島県熊毛郡屋久島町麦生（その他）
8914403,鹿児島県,熊毛郡屋久島町,原,カゴシマケン,クマゲグンヤクシマチョウ,ハラ,鹿児島県熊毛郡屋久島町原
8914404,鹿児島県,熊毛郡屋久島町,尾之間,カゴシマケン,クマゲグンヤクシマチョウ,オノアイダ,鹿児島県熊毛郡屋久島町尾之間
8914405,鹿児島県,熊毛郡屋久島町,小島,カゴシマケン,クマゲグンヤクシマチョウ,コシマ,鹿児島県熊毛郡屋久島町小島
8914406,鹿児島県,熊毛郡屋久島町,平内,カゴシマケン,クマゲグンヤクシマチョウ,ヒラウチ,鹿児島県熊毛郡屋久島町平内
8914407,鹿児島県,熊毛郡屋久島町,湯泊,カゴシマケン,クマゲグンヤクシマチョウ,ユドマリ,鹿児島県熊毛郡屋久島町湯泊
8914408,鹿児島県,熊毛郡屋久島町,中間,カゴシマケン,クマゲグンヤクシマチョウ,ナカマ,鹿児島県熊毛郡屋久島町中間
8914409,鹿児島県,熊毛郡屋久島町,栗生,カゴシマケン,クマゲグンヤクシマチョウ,クリオ,鹿児島県熊毛郡屋久島町栗生
8915101,鹿児島県,鹿児島郡十島村,口之島,カゴシマケン,カゴシマグントシマムラ,クチノシマ,鹿児島県鹿児島郡十島村口之島
8915200,鹿児島県,鹿児島郡十島村,,カゴシマケン,カゴシマグントシマムラ,,鹿児島県鹿児島郡十島村
8915201,鹿児島県,鹿児島郡十島村,中之島,カゴシマケン,カゴシマグントシマムラ,ナカノシマ,鹿児島県鹿児島郡十島村中之島
8915202,鹿児島県,鹿児島郡十島村,平島,カゴシマケン,カゴシマグントシマムラ,タイラジマ,鹿児島県鹿児島郡十島村平島
8915203,鹿児島県,鹿児島郡十島村,諏訪之瀬島,カゴシマケン,カゴシマグントシマムラ,スワノセジマ,鹿児島県鹿児島郡十島村諏訪之瀬島
8915204,鹿児島県,鹿児島郡十島村,悪石島,カゴシマケン,カゴシマグントシマムラ,アクセキジマ,鹿児島県鹿児島郡十島村悪石島
8915205,鹿児島県,鹿児島郡十島村,小宝島,カゴシマケン,カゴシマグントシマムラ,コダカラジマ,鹿児島県鹿児島郡十島村小宝島
8915301,鹿児島県,鹿児島郡十島村,宝島,カゴシマケン,カゴシマグントシマムラ,タカラジマ,鹿児島県鹿児島郡十島村宝島
8916141,鹿児島県,大島郡喜界町,伊実久,カゴシマケン,オオシマグンキカイチョウ,イサネク,鹿児島県大島郡喜界町伊実久
8916142,鹿児島県,大島郡喜界町,小野津,カゴシマケン,オオシマグンキカイチョウ,オノツ,鹿児島県大島郡喜界町小野津
8916143,鹿児島県,大島郡喜界町,志戸桶,カゴシマケン,オオシマグンキカイチョウ,シトオケ,鹿児島県大島郡喜界町志戸桶
8916144,鹿児島県,大島郡喜界町,佐手久,カゴシマケン,オオシマグンキカイチョウ,サデク,鹿児島県大島郡喜界町佐手久
8916151,鹿児島県,大島郡喜界町,塩道,カゴシマケン,オオシマグンキカイチョウ,シオミチ,鹿児島県大島郡喜界町塩道
8916152,鹿児島県,大島郡喜界町,早町,カゴシマケン,オオシマグンキカイチョウ,ソウマチ,鹿児島県大島郡喜界町早町
8916153,鹿児島県,大島郡喜界町,長嶺,カゴシマケン,オオシマグンキカイチョウ,ナガミネ,鹿児島県大島郡喜界町長嶺
8916154,鹿児島県,大島郡喜界町,白水,カゴシマケン,オオシマグンキカイチョウ,シラミズ,鹿児島県大島郡喜界町白水
8916161,鹿児島県,大島郡喜界町,嘉鈍,カゴシマケン,オオシマグンキカイチョウ,カドン,鹿児島県大島郡喜界町嘉鈍
8916162,鹿児島県,大島郡喜界町,阿伝,カゴシマケン,オオシマグンキカイチョウ,アデン,鹿児島県大島郡喜界町阿伝
8916163,鹿児島県,大島郡喜界町,花良治（蒲生）,カゴシマケン,オオシマグンキカイチョウ,ケラジ(ガモウ),鹿児島県大島郡喜界町花良治（蒲生）
8916164,鹿児島県,大島郡喜界町,花良治,カゴシマケン,オオシマグンキカイチョウ,ケラジ,鹿児島県大島郡喜界町花良治
8916200,鹿児島県,大島郡喜界町,,カゴシマケン,オオシマグンキカイチョウ,,鹿児島県大島郡喜界町
8916201,鹿児島県,大島郡喜界町,赤連,カゴシマケン,オオシマグンキカイチョウ,アカレン,鹿児島県大島郡喜界町赤連
8916202,鹿児島県,大島郡喜界町,湾,カゴシマケン,オオシマグンキカイチョウ,ワン,鹿児島県大島郡喜界町湾
8916203,鹿児島県,大島郡喜界町,中里,カゴシマケン,オオシマグンキカイチョウ,ナカサト,鹿児島県大島郡喜界町中里
8916211,鹿児島県,大島郡喜界町,中間,カゴシマケン,オオシマグンキカイチョウ,ナカマ,鹿児島県大島郡喜界町中間
8916212,鹿児島県,大島郡喜界町,中熊（先内）,カゴシマケン,オオシマグンキカイチョウ,ナカグマ(サキナイ),鹿児島県大島郡喜界町中熊（先内）
8916213,鹿児島県,大島郡喜界町,大朝戸,カゴシマケン,オオシマグンキカイチョウ,オオアサト,鹿児島県大島郡喜界町大朝戸
8916214,鹿児島県,大島郡喜界町,西目,カゴシマケン,オオシマグンキカイチョウ,ニシメ,鹿児島県大島郡喜界町西目
8916215,鹿児島県,大島郡喜界町,中熊,カゴシマケン,オオシマグンキカイチョウ,ナカグマ,鹿児島県大島郡喜界町中熊
8916216,鹿児島県,大島郡喜界町,坂嶺,カゴシマケン,オオシマグンキカイチョウ,サカミネ,鹿児島県大島郡喜界町坂嶺
8916217,鹿児島県,大島郡喜界町,伊砂,カゴシマケン,オオシマグンキカイチョウ,イサゴ,鹿児島県大島郡喜界町伊砂
8916221,鹿児島県,大島郡喜界町,池治,カゴシマケン,オオシマグンキカイチョウ,イケジ,鹿児島県大島郡喜界町池治
8916222,鹿児島県,大島郡喜界町,島中,カゴシマケン,オオシマグンキカイチョウ,シマナカ,鹿児島県大島郡喜界町島中
8916223,鹿児島県,大島郡喜界町,滝川,カゴシマケン,オオシマグンキカイチョウ,タキガワ,鹿児島県大島郡喜界町滝川
8916224,鹿児島県,大島郡喜界町,城久,カゴシマケン,オオシマグンキカイチョウ,グスク,鹿児島県大島郡喜界町城久
8916225,鹿児島県,大島郡喜界町,山田,カゴシマケン,オオシマグンキカイチョウ,ヤマダ,鹿児島県大島郡喜界町山田
8916226,鹿児島県,大島郡喜界町,羽里,カゴシマケン,オオシマグンキカイチョウ,ハサト,鹿児島県大島郡喜界町羽里
8916227,鹿児島県,大島郡喜界町,川嶺,カゴシマケン,オオシマグンキカイチョウ,カワミネ,鹿児島県大島郡喜界町川嶺
8916228,鹿児島県,大島郡喜界町,浦原,カゴシマケン,オオシマグンキカイチョウ,ウラハラ,鹿児島県大島郡喜界町浦原
8916229,鹿児島県,大島郡喜界町,先山,カゴシマケン,オオシマグンキカイチョウ,サキヤマ,鹿児島県大島郡喜界町先山
8916231,鹿児島県,大島郡喜界町,荒木,カゴシマケン,オオシマグンキカイチョウ,アラキ,鹿児島県大島郡喜界町荒木
8916232,鹿児島県,大島郡喜界町,手久津久,カゴシマケン,オオシマグンキカイチョウ,テクヅク,鹿児島県大島郡喜界町手久津久
8916233,鹿児島県,大島郡喜界町,上嘉鉄,カゴシマケン,オオシマグンキカイチョウ,カミカテツ,鹿児島県大島郡喜界町上嘉鉄
8917100,鹿児島県,大島郡徳之島町,,カゴシマケン,オオシマグントクノシマチョウ,,鹿児島県大島郡徳之島町
8917101,鹿児島県,大島郡徳之島町,亀津,カゴシマケン,オオシマグントクノシマチョウ,カメツ,鹿児島県大島郡徳之島町亀津
8917102,鹿児島県,大島郡徳之島町,亀徳,カゴシマケン,オオシマグントクノシマチョウ,カメトク,鹿児島県大島郡徳之島町亀徳
8917103,鹿児島県,大島郡徳之島町,南原,カゴシマケン,オオシマグントクノシマチョウ,ミナミハラ,鹿児島県大島郡徳之島町南原
8917104,鹿児島県,大島郡徳之島町,尾母,カゴシマケン,オオシマグントクノシマチョウ,オモ,鹿児島県大島郡徳之島町尾母
8917105,鹿児島県,大島郡徳之島町,白井,カゴシマケン,オオシマグントクノシマチョウ,シライ,鹿児島県大島郡徳之島町白井
8917111,鹿児島県,大島郡徳之島町,徳和瀬,カゴシマケン,オオシマグントクノシマチョウ,トクワセ,鹿児島県大島郡徳之島町徳和瀬
8917112,鹿児島県,大島郡徳之島町,諸田,カゴシマケン,オオシマグントクノシマチョウ,ショダ,鹿児島県大島郡徳之島町諸田
8917113,鹿児島県,大島郡徳之島町,神之嶺,カゴシマケン,オオシマグントクノシマチョウ,カミノミネ,鹿児島県大島郡徳之島町神之嶺
8917114,鹿児島県,大島郡徳之島町,井之川,カゴシマケン,オオシマグントクノシマチョウ,イノカワ,鹿児島県大島郡徳之島町井之川
8917115,鹿児島県,大島郡徳之島町,下久志,カゴシマケン,オオシマグントクノシマチョウ,シモクシ,鹿児島県大島郡徳之島町下久志
8917116,鹿児島県,大島郡徳之島町,旭ケ丘,カゴシマケン,オオシマグントクノシマチョウ,アサヒガオカ,鹿児島県大島郡徳之島町旭ケ丘
8917421,鹿児島県,大島郡徳之島町,手々,カゴシマケン,オオシマグントクノシマチョウ,テテ,鹿児島県大島郡徳之島町手々
8917422,鹿児島県,大島郡徳之島町,金見,カゴシマケン,オオシマグントクノシマチョウ,カナミ,鹿児島県大島郡徳之島町金見
8917423,鹿児島県,大島郡徳之島町,山,カゴシマケン,オオシマグントクノシマチョウ,サン,鹿児島県大島郡徳之島町山
8917424,鹿児島県,大島郡徳之島町,轟木,カゴシマケン,オオシマグントクノシマチョウ,トドロキ,鹿児島県大島郡徳之島町轟木
8917425,鹿児島県,大島郡徳之島町,花徳,カゴシマケン,オオシマグントクノシマチョウ,ケドク,鹿児島県大島郡徳之島町花徳
8917426,鹿児島県,大島郡徳之島町,母間,カゴシマケン,オオシマグントクノシマチョウ,ボマ,鹿児島県大島郡徳之島町母間
8917600,鹿児島県,大島郡天城町,,カゴシマケン,オオシマグンアマギチョウ,,鹿児島県大島郡天城町
8917601,鹿児島県,大島郡天城町,与名間,カゴシマケン,オオシマグンアマギチョウ,ヨナマ,鹿児島県大島郡天城町与名間
8917602,鹿児島県,大島郡天城町,松原,カゴシマケン,オオシマグンアマギチョウ,マツバラ,鹿児島県大島郡天城町松原
8917603,鹿児島県,大島郡天城町,岡前,カゴシマケン,オオシマグンアマギチョウ,オカゼン,鹿児島県大島郡天城町岡前
8917604,鹿児島県,大島郡天城町,前野,カゴシマケン,オオシマグンアマギチョウ,マエノ,鹿児島県大島郡天城町前野
8917605,鹿児島県,大島郡天城町,浅間,カゴシマケン,オオシマグンアマギチョウ,アサマ,鹿児島県大島郡天城町浅間
8917611,鹿児島県,大島郡天城町,天城,カゴシマケン,オオシマグンアマギチョウ,アマギ,鹿児島県大島郡天城町天城
8917612,鹿児島県,大島郡天城町,平土野,カゴシマケン,オオシマグンアマギチョウ,ヘトノ,鹿児島県大島郡天城町平土野
8917621,鹿児島県,大島郡天城町,兼久,カゴシマケン,オオシマグンアマギチョウ,カネク,鹿児島県大島郡天城町兼久
8917622,鹿児島県,大島郡天城町,大津川,カゴシマケン,オオシマグンアマギチョウ,オオツカワ,鹿児島県大島郡天城町大津川
8917623,鹿児島県,大島郡天城町,瀬滝,カゴシマケン,オオシマグンアマギチョウ,セタキ,鹿児島県大島郡天城町瀬滝
8917624,鹿児島県,大島郡天城町,当部,カゴシマケン,オオシマグンアマギチョウ,トウベ,鹿児島県大島郡天城町当部
8917731,鹿児島県,大島郡天城町,西阿木名,カゴシマケン,オオシマグンアマギチョウ,ニシアギナ,鹿児島県大島郡天城町西阿木名
8918111,鹿児島県,大島郡伊仙町,喜念,カゴシマケン,オオシマグンイセンチョウ,キネン,鹿児島県大島郡伊仙町喜念
8918112,鹿児島県,大島郡伊仙町,佐弁,カゴシマケン,オオシマグンイセンチョウ,サベン,鹿児島県大島郡伊仙町佐弁
8918113,鹿児島県,大島郡伊仙町,目手久,カゴシマケン,オオシマグンイセンチョウ,メテグ,鹿児島県大島郡伊仙町目手久
8918114,鹿児島県,大島郡伊仙町,面縄,カゴシマケン,オオシマグンイセンチョウ,オモナワ,鹿児島県大島郡伊仙町面縄
8918115,鹿児島県,大島郡伊仙町,古里,カゴシマケン,オオシマグンイセンチョウ,フルサト,鹿児島県大島郡伊仙町古里
8918116,鹿児島県,大島郡伊仙町,検福（その他）,カゴシマケン,オオシマグンイセンチョウ,ケンブク(ソノタ),鹿児島県大島郡伊仙町検福（その他）
8918117,鹿児島県,大島郡伊仙町,中山,カゴシマケン,オオシマグンイセンチョウ,ナカヤマ,鹿児島県大島郡伊仙町中山
8918201,鹿児島県,大島郡伊仙町,伊仙,カゴシマケン,オオシマグンイセンチョウ,イセン,鹿児島県大島郡伊仙町伊仙
8918216,鹿児島県,大島郡伊仙町,検福（４１６〜５１６番地）,カゴシマケン,オオシマグンイセンチョウ,ケンブク(416-516バンチ),鹿児島県大島郡伊仙町検福（416〜516-）
8918221,鹿児島県,大島郡伊仙町,阿三（７９９の１〜８６７番地）,カゴシマケン,オオシマグンイセンチョウ,アサン(799ノ1-867バンチ),鹿児島県大島郡伊仙町阿三（799-1〜867-）
8918300,鹿児島県,大島郡伊仙町,,カゴシマケン,オオシマグンイセンチョウ,,鹿児島県大島郡伊仙町
8918321,鹿児島県,大島郡伊仙町,阿三（その他）,カゴシマケン,オオシマグンイセンチョウ,アサン(ソノタ),鹿児島県大島郡伊仙町阿三（その他）
8918322,鹿児島県,大島郡伊仙町,阿権,カゴシマケン,オオシマグンイセンチョウ,アゴン,鹿児島県大島郡伊仙町阿権
8918323,鹿児島県,大島郡伊仙町,木之香,カゴシマケン,オオシマグンイセンチョウ,キノコ,鹿児島県大島郡伊仙町木之香
8918324,鹿児島県,大島郡伊仙町,糸木名,カゴシマケン,オオシマグンイセンチョウ,イトキナ,鹿児島県大島郡伊仙町糸木名
8918325,鹿児島県,大島郡伊仙町,八重竿,カゴシマケン,オオシマグンイセンチョウ,ヤエザオ,鹿児島県大島郡伊仙町八重竿
8918326,鹿児島県,大島郡伊仙町,馬根,カゴシマケン,オオシマグンイセンチョウ,バネ,鹿児島県大島郡伊仙町馬根
8918327,鹿児島県,大島郡伊仙町,犬田布,カゴシマケン,オオシマグンイセンチョウ,イヌタブ,鹿児島県大島郡伊仙町犬田布
8918328,鹿児島県,大島郡伊仙町,崎原,カゴシマケン,オオシマグンイセンチョウ,サキバル,鹿児島県大島郡伊仙町崎原
8918329,鹿児島県,大島郡伊仙町,小島,カゴシマケン,オオシマグンイセンチョウ,コジマ,鹿児島県大島郡伊仙町小島
8919100,鹿児島県,大島郡和泊町,,カゴシマケン,オオシマグンワドマリチョウ,,鹿児島県大島郡和泊町
8919101,鹿児島県,大島郡和泊町,国頭,カゴシマケン,オオシマグンワドマリチョウ,クニガミ,鹿児島県大島郡和泊町国頭
8919102,鹿児島県,大島郡和泊町,喜美留,カゴシマケン,オオシマグンワドマリチョウ,キビル,鹿児島県大島郡和泊町喜美留
8919103,鹿児島県,大島郡和泊町,出花,カゴシマケン,オオシマグンワドマリチョウ,デギ,鹿児島県大島郡和泊町出花
8919104,鹿児島県,大島郡和泊町,西原,カゴシマケン,オオシマグンワドマリチョウ,ニシバル,鹿児島県大島郡和泊町西原
8919111,鹿児島県,大島郡和泊町,手々知名,カゴシマケン,オオシマグンワドマリチョウ,テデチナ,鹿児島県大島郡和泊町手々知名
8919112,鹿児島県,大島郡和泊町,和泊,カゴシマケン,オオシマグンワドマリチョウ,ワドマリ,鹿児島県大島郡和泊町和泊
8919113,鹿児島県,大島郡和泊町,和,カゴシマケン,オオシマグンワドマリチョウ,ワ,鹿児島県大島郡和泊町和
8919114,鹿児島県,大島郡和泊町,畦布,カゴシマケン,オオシマグンワドマリチョウ,アゼフ,鹿児島県大島郡和泊町畦布
8919115,鹿児島県,大島郡和泊町,伊延,カゴシマケン,オオシマグンワドマリチョウ,イノベ,鹿児島県大島郡和泊町伊延
8919116,鹿児島県,大島郡和泊町,上手々知名,カゴシマケン,オオシマグンワドマリチョウ,ウエテテチナ,鹿児島県大島郡和泊町上手々知名
8919121,鹿児島県,大島郡和泊町,根折,カゴシマケン,オオシマグンワドマリチョウ,ネオリ,鹿児島県大島郡和泊町根折
8919122,鹿児島県,大島郡和泊町,玉城,カゴシマケン,オオシマグンワドマリチョウ,タマジロ,鹿児島県大島郡和泊町玉城
8919123,鹿児島県,大島郡和泊町,皆川,カゴシマケン,オオシマグンワドマリチョウ,ミナカワ,鹿児島県大島郡和泊町皆川
8919124,鹿児島県,大島郡和泊町,古里,カゴシマケン,オオシマグンワドマリチョウ,フルサト,鹿児島県大島郡和泊町古里
8919125,鹿児島県,大島郡和泊町,大城,カゴシマケン,オオシマグンワドマリチョウ,オオジロ,鹿児島県大島郡和泊町大城
8919131,鹿児島県,大島郡和泊町,内城,カゴシマケン,オオシマグンワドマリチョウ,ウチジロ,鹿児島県大島郡和泊町内城
8919132,鹿児島県,大島郡和泊町,後蘭,カゴシマケン,オオシマグンワドマリチョウ,ゴラン,鹿児島県大島郡和泊町後蘭
8919133,鹿児島県,大島郡和泊町,谷山,カゴシマケン,オオシマグンワドマリチョウ,タニヤマ,鹿児島県大島郡和泊町谷山
8919134,鹿児島県,大島郡和泊町,仁志,カゴシマケン,オオシマグンワドマリチョウ,ニシ,鹿児島県大島郡和泊町仁志
8919135,鹿児島県,大島郡和泊町,永嶺,カゴシマケン,オオシマグンワドマリチョウ,ナガミネ,鹿児島県大島郡和泊町永嶺
8919136,鹿児島県,大島郡和泊町,瀬名,カゴシマケン,オオシマグンワドマリチョウ,セナ,鹿児島県大島郡和泊町瀬名
8919200,鹿児島県,大島郡知名町,,カゴシマケン,オオシマグンチナチョウ,,鹿児島県大島郡知名町
8919201,鹿児島県,大島郡知名町,余多,カゴシマケン,オオシマグンチナチョウ,アマタ,鹿児島県大島郡知名町余多
8919202,鹿児島県,大島郡知名町,屋者,カゴシマケン,オオシマグンチナチョウ,ヤジャ,鹿児島県大島郡知名町屋者
8919203,鹿児島県,大島郡知名町,下平川,カゴシマケン,オオシマグンチナチョウ,シモヒラカワ,鹿児島県大島郡知名町下平川
8919204,鹿児島県,大島郡知名町,上平川,カゴシマケン,オオシマグンチナチョウ,カミヒラカワ,鹿児島県大島郡知名町上平川
8919205,鹿児島県,大島郡知名町,久志検,カゴシマケン,オオシマグンチナチョウ,グシケン,鹿児島県大島郡知名町久志検
8919206,鹿児島県,大島郡知名町,赤嶺,カゴシマケン,オオシマグンチナチョウ,アカミネ,鹿児島県大島郡知名町赤嶺
8919207,鹿児島県,大島郡知名町,竿津,カゴシマケン,オオシマグンチナチョウ,サオヅ,鹿児島県大島郡知名町竿津
8919211,鹿児島県,大島郡知名町,芦清良,カゴシマケン,オオシマグンチナチョウ,アシキヨウラ,鹿児島県大島郡知名町芦清良
8919212,鹿児島県,大島郡知名町,黒貫,カゴシマケン,オオシマグンチナチョウ,クロヌキ,鹿児島県大島郡知名町黒貫
8919213,鹿児島県,大島郡知名町,瀬利覚,カゴシマケン,オオシマグンチナチョウ,セリカク,鹿児島県大島郡知名町瀬利覚
8919214,鹿児島県,大島郡知名町,知名,カゴシマケン,オオシマグンチナチョウ,チナ,鹿児島県大島郡知名町知名
8919215,鹿児島県,大島郡知名町,屋子母,カゴシマケン,オオシマグンチナチョウ,ヤコモ,鹿児島県大島郡知名町屋子母
8919221,鹿児島県,大島郡知名町,大津勘,カゴシマケン,オオシマグンチナチョウ,オオツカン,鹿児島県大島郡知名町大津勘
8919222,鹿児島県,大島郡知名町,徳時,カゴシマケン,オオシマグンチナチョウ,トクドキ,鹿児島県大島郡知名町徳時
8919223,鹿児島県,大島郡知名町,住吉,カゴシマケン,オオシマグンチナチョウ,スミヨシ,鹿児島県大島郡知名町住吉
8919224,鹿児島県,大島郡知名町,正名,カゴシマケン,オオシマグンチナチョウ,マサナ,鹿児島県大島郡知名町正名
8919231,鹿児島県,大島郡知名町,田皆,カゴシマケン,オオシマグンチナチョウ,タミナ,鹿児島県大島郡知名町田皆
8919232,鹿児島県,大島郡知名町,新城,カゴシマケン,オオシマグンチナチョウ,シンジョウ,鹿児島県大島郡知名町新城
8919233,鹿児島県,大島郡知名町,下城,カゴシマケン,オオシマグンチナチョウ,シモジロ,鹿児島県大島郡知名町下城
8919234,鹿児島県,大島郡知名町,上城,カゴシマケン,オオシマグンチナチョウ,カミシロ,鹿児島県大島郡知名町上城
8919300,鹿児島県,大島郡与論町,,カゴシマケン,オオシマグンヨロンチョウ,,鹿児島県大島郡与論町
8919301,鹿児島県,大島郡与論町,茶花,カゴシマケン,オオシマグンヨロンチョウ,チャバナ,鹿児島県大島郡与論町茶花
8919302,鹿児島県,大島郡与論町,立長,カゴシマケン,オオシマグンヨロンチョウ,リッチョウ,鹿児島県大島郡与論町立長
8919303,鹿児島県,大島郡与論町,城,カゴシマケン,オオシマグンヨロンチョウ,グスク,鹿児島県大島郡与論町城
8919304,鹿児島県,大島郡与論町,朝戸,カゴシマケン,オオシマグンヨロンチョウ,アサト,鹿児島県大島郡与論町朝戸
8919305,鹿児島県,大島郡与論町,西区,カゴシマケン,オオシマグンヨロンチョウ,ニシク,鹿児島県大島郡与論町西区
8919306,鹿児島県,大島郡与論町,東区,カゴシマケン,オオシマグンヨロンチョウ,ヒガシク,鹿児島県大島郡与論町東区
8919307,鹿児島県,大島郡与論町,古里,カゴシマケン,オオシマグンヨロンチョウ,フルサト,鹿児島県大島郡与論町古里
8919308,鹿児島県,大島郡与論町,那間,カゴシマケン,オオシマグンヨロンチョウ,ナマ,鹿児島県大島郡与論町那間
8919309,鹿児島県,大島郡与論町,叶,カゴシマケン,オオシマグンヨロンチョウ,カノウ,鹿児島県大島郡与論町叶
8920801,鹿児島県,鹿児島市,稲荷町,カゴシマケン,カゴシマシ,イナリチョウ,鹿児島県鹿児島市稲荷町
8920802,鹿児島県,鹿児島市,清水町,カゴシマケン,カゴシマシ,シミズチョウ,鹿児島県鹿児島市清水町
8920803,鹿児島県,鹿児島市,祇園之洲町,カゴシマケン,カゴシマシ,ギオンノスチョウ,鹿児島県鹿児島市祇園之洲町
8920804,鹿児島県,鹿児島市,春日町,カゴシマケン,カゴシマシ,カスガチョウ,鹿児島県鹿児島市春日町
8920805,鹿児島県,鹿児島市,大竜町,カゴシマケン,カゴシマシ,ダイリュウチョウ,鹿児島県鹿児島市大竜町
8920806,鹿児島県,鹿児島市,池之上町,カゴシマケン,カゴシマシ,イケノウエチョウ,鹿児島県鹿児島市池之上町
8920807,鹿児島県,鹿児島市,皷川町,カゴシマケン,カゴシマシ,ツヅミガワチョウ,鹿児島県鹿児島市皷川町
8920811,鹿児島県,鹿児島市,玉里団地（２、３丁目）,カゴシマケン,カゴシマシ,タマザトダンチ(2、3チョウメ),鹿児島県鹿児島市玉里団地（2、3-）
8920812,鹿児島県,鹿児島市,浜町,カゴシマケン,カゴシマシ,ハママチ,鹿児島県鹿児島市浜町
8920813,鹿児島県,鹿児島市,城山（２丁目）,カゴシマケン,カゴシマシ,シロヤマ(2チョウメ),鹿児島県鹿児島市城山（2-）
8920814,鹿児島県,鹿児島市,本港新町,カゴシマケン,カゴシマシ,ホンコウシンマチ,鹿児島県鹿児島市本港新町
8920815,鹿児島県,鹿児島市,易居町,カゴシマケン,カゴシマシ,ヤスイチョウ,鹿児島県鹿児島市易居町
8920816,鹿児島県,鹿児島市,山下町,カゴシマケン,カゴシマシ,ヤマシタチョウ,鹿児島県鹿児島市山下町
8920817,鹿児島県,鹿児島市,小川町,カゴシマケン,カゴシマシ,オガワチョウ,鹿児島県鹿児島市小川町
8920818,鹿児島県,鹿児島市,上本町,カゴシマケン,カゴシマシ,カミホンマチ,鹿児島県鹿児島市上本町
8920819,鹿児島県,鹿児島市,柳町,カゴシマケン,カゴシマシ,ヤナギマチ,鹿児島県鹿児島市柳町
8920821,鹿児島県,鹿児島市,名山町,カゴシマケン,カゴシマシ,メイザンチョウ,鹿児島県鹿児島市名山町
8920822,鹿児島県,鹿児島市,泉町,カゴシマケン,カゴシマシ,イズミチョウ,鹿児島県鹿児島市泉町
8920823,鹿児島県,鹿児島市,住吉町,カゴシマケン,カゴシマシ,スミヨシチョウ,鹿児島県鹿児島市住吉町
8920824,鹿児島県,鹿児島市,堀江町,カゴシマケン,カゴシマシ,ホリエチョウ,鹿児島県鹿児島市堀江町
8920825,鹿児島県,鹿児島市,大黒町,カゴシマケン,カゴシマシ,ダイコクチョウ,鹿児島県鹿児島市大黒町
8920826,鹿児島県,鹿児島市,呉服町,カゴシマケン,カゴシマシ,ゴフクマチ,鹿児島県鹿児島市呉服町
8920827,鹿児島県,鹿児島市,中町,カゴシマケン,カゴシマシ,ナカマチ,鹿児島県鹿児島市中町
8920828,鹿児島県,鹿児島市,金生町,カゴシマケン,カゴシマシ,キンセイチョウ,鹿児島県鹿児島市金生町
8920831,鹿児島県,鹿児島市,船津町,カゴシマケン,カゴシマシ,フナツチョウ,鹿児島県鹿児島市船津町
8920832,鹿児島県,鹿児島市,新町,カゴシマケン,カゴシマシ,シンマチ,鹿児島県鹿児島市新町
8920833,鹿児島県,鹿児島市,松原町,カゴシマケン,カゴシマシ,マツバラチョウ,鹿児島県鹿児島市松原町
8920834,鹿児島県,鹿児島市,南林寺町,カゴシマケン,カゴシマシ,ナンリンジチョウ,鹿児島県鹿児島市南林寺町
8920835,鹿児島県,鹿児島市,城南町,カゴシマケン,カゴシマシ,ジョウナンチョウ,鹿児島県鹿児島市城南町
8920836,鹿児島県,鹿児島市,錦江町,カゴシマケン,カゴシマシ,キンコウチョウ,鹿児島県鹿児島市錦江町
8920837,鹿児島県,鹿児島市,甲突町,カゴシマケン,カゴシマシ,コウツキチョウ,鹿児島県鹿児島市甲突町
8920838,鹿児島県,鹿児島市,新屋敷町,カゴシマケン,カゴシマシ,シンヤシキチョウ,鹿児島県鹿児島市新屋敷町
8920841,鹿児島県,鹿児島市,照国町,カゴシマケン,カゴシマシ,テルクニチョウ,鹿児島県鹿児島市照国町
8920842,鹿児島県,鹿児島市,東千石町,カゴシマケン,カゴシマシ,ヒガシセンゴクチョウ,鹿児島県鹿児島市東千石町
8920843,鹿児島県,鹿児島市,千日町,カゴシマケン,カゴシマシ,センニチチョウ,鹿児島県鹿児島市千日町
8920844,鹿児島県,鹿児島市,山之口町,カゴシマケン,カゴシマシ,ヤマノクチチョウ,鹿児島県鹿児島市山之口町
8920845,鹿児島県,鹿児島市,樋之口町,カゴシマケン,カゴシマシ,テノクチチョウ,鹿児島県鹿児島市樋之口町
8920846,鹿児島県,鹿児島市,加治屋町,カゴシマケン,カゴシマシ,カジヤチョウ,鹿児島県鹿児島市加治屋町
8920847,鹿児島県,鹿児島市,西千石町,カゴシマケン,カゴシマシ,ニシセンゴクチョウ,鹿児島県鹿児島市西千石町
8920848,鹿児島県,鹿児島市,平之町,カゴシマケン,カゴシマシ,ヒラノチョウ,鹿児島県鹿児島市平之町
8920851,鹿児島県,鹿児島市,上竜尾町,カゴシマケン,カゴシマシ,カミタツオチョウ,鹿児島県鹿児島市上竜尾町
8920852,鹿児島県,鹿児島市,下竜尾町,カゴシマケン,カゴシマシ,シモタツオチョウ,鹿児島県鹿児島市下竜尾町
8920853,鹿児島県,鹿児島市,城山町,カゴシマケン,カゴシマシ,シロヤマチョウ,鹿児島県鹿児島市城山町
8920854,鹿児島県,鹿児島市,長田町,カゴシマケン,カゴシマシ,ナガタチョウ,鹿児島県鹿児島市長田町
8920855,鹿児島県,鹿児島市,冷水町,カゴシマケン,カゴシマシ,ヒヤミズチョウ,鹿児島県鹿児島市冷水町
8920861,鹿児島県,鹿児島市,東坂元,カゴシマケン,カゴシマシ,ヒガシサカモト,鹿児島県鹿児島市東坂元
8920862,鹿児島県,鹿児島市,坂元町,カゴシマケン,カゴシマシ,サカモトチョウ,鹿児島県鹿児島市坂元町
8920863,鹿児島県,鹿児島市,西坂元町,カゴシマケン,カゴシマシ,ニシサカモトチョウ,鹿児島県鹿児島市西坂元町
8920871,鹿児島県,鹿児島市,吉野町,カゴシマケン,カゴシマシ,ヨシノチョウ,鹿児島県鹿児島市吉野町
8920872,鹿児島県,鹿児島市,大明丘,カゴシマケン,カゴシマシ,ダイミョウガオカ,鹿児島県鹿児島市大明丘
8920873,鹿児島県,鹿児島市,下田町,カゴシマケン,カゴシマシ,シモタチョウ,鹿児島県鹿児島市下田町
8920874,鹿児島県,鹿児島市,緑ヶ丘町（１〜３４番）,カゴシマケン,カゴシマシ,ミドリガオカチョウ(1-34バン),鹿児島県鹿児島市緑ヶ丘町（1〜34-）
8920875,鹿児島県,鹿児島市,川上町（その他）,カゴシマケン,カゴシマシ,カワカミチョウ(ソノタ),鹿児島県鹿児島市川上町（その他）
8920876,鹿児島県,鹿児島市,岡之原町（８３２の２・４、８５２の３）,カゴシマケン,カゴシマシ,オカノハラチョウ(832ノ2・4、852ノ3),鹿児島県鹿児島市岡之原町（832-2・4、852-3）
8920877,鹿児島県,鹿児島市,吉野,カゴシマケン,カゴシマシ,ヨシノ,鹿児島県鹿児島市吉野
8930000,鹿児島県,鹿屋市,,カゴシマケン,カノヤシ,,鹿児島県鹿屋市
8930001,鹿児島県,鹿屋市,古前城町,カゴシマケン,カノヤシ,コセンジョウチョウ,鹿児島県鹿屋市古前城町
8930002,鹿児島県,鹿屋市,本町,カゴシマケン,カノヤシ,ホンマチ,鹿児島県鹿屋市本町
8930003,鹿児島県,鹿屋市,曽田町,カゴシマケン,カノヤシ,ソダチョウ,鹿児島県鹿屋市曽田町
8930004,鹿児島県,鹿屋市,朝日町,カゴシマケン,カノヤシ,アサヒマチ,鹿児島県鹿屋市朝日町
8930005,鹿児島県,鹿屋市,共栄町,カゴシマケン,カノヤシ,キョウエイチョウ,鹿児島県鹿屋市共栄町
8930006,鹿児島県,鹿屋市,向江町,カゴシマケン,カノヤシ,ムカエチョウ,鹿児島県鹿屋市向江町
8930007,鹿児島県,鹿屋市,北田町,カゴシマケン,カノヤシ,キタダチョウ,鹿児島県鹿屋市北田町
8930008,鹿児島県,鹿屋市,西大手町,カゴシマケン,カノヤシ,ニシオオテマチ,鹿児島県鹿屋市西大手町
8930009,鹿児島県,鹿屋市,大手町,カゴシマケン,カノヤシ,オオテマチ,鹿児島県鹿屋市大手町
8930011,鹿児島県,鹿屋市,打馬,カゴシマケン,カノヤシ,ウツマ,鹿児島県鹿屋市打馬
8930012,鹿児島県,鹿屋市,王子町,カゴシマケン,カノヤシ,オウジチョウ,鹿児島県鹿屋市王子町
8930013,鹿児島県,鹿屋市,札元,カゴシマケン,カノヤシ,フダモト,鹿児島県鹿屋市札元
8930014,鹿児島県,鹿屋市,寿,カゴシマケン,カノヤシ,コトブキ,鹿児島県鹿屋市寿
8930015,鹿児島県,鹿屋市,新川町,カゴシマケン,カノヤシ,シンカワチョウ,鹿児島県鹿屋市新川町
8930016,鹿児島県,鹿屋市,白崎町,カゴシマケン,カノヤシ,シラサキチョウ,鹿児島県鹿屋市白崎町
8930021,鹿児島県,鹿屋市,東原町,カゴシマケン,カノヤシ,ヒガシバルチョウ,鹿児島県鹿屋市東原町
8930022,鹿児島県,鹿屋市,旭原町,カゴシマケン,カノヤシ,アサヒバルチョウ,鹿児島県鹿屋市旭原町
8930023,鹿児島県,鹿屋市,笠之原町,カゴシマケン,カノヤシ,カサノハラチョウ,鹿児島県鹿屋市笠之原町
8930024,鹿児島県,鹿屋市,下祓川町,カゴシマケン,カノヤシ,シモハライガワチョウ,鹿児島県鹿屋市下祓川町
8930025,鹿児島県,鹿屋市,西祓川町,カゴシマケン,カノヤシ,ニシハライガワチョウ,鹿児島県鹿屋市西祓川町
8930026,鹿児島県,鹿屋市,祓川町,カゴシマケン,カノヤシ,ハライガワチョウ,鹿児島県鹿屋市祓川町
8930027,鹿児島県,鹿屋市,上祓川町,カゴシマケン,カノヤシ,カミハライガワチョウ,鹿児島県鹿屋市上祓川町
8930031,鹿児島県,鹿屋市,川東町,カゴシマケン,カノヤシ,カワヒガシチョウ,鹿児島県鹿屋市川東町
8930032,鹿児島県,鹿屋市,川西町,カゴシマケン,カノヤシ,カワニシチョウ,鹿児島県鹿屋市川西町
8930033,鹿児島県,鹿屋市,永野田町,カゴシマケン,カノヤシ,ナガノダチョウ,鹿児島県鹿屋市永野田町
8930034,鹿児島県,鹿屋市,名貫町,カゴシマケン,カノヤシ,ナヌキチョウ,鹿児島県鹿屋市名貫町
8930035,鹿児島県,鹿屋市,飯隈町,カゴシマケン,カノヤシ,イイクマチョウ,鹿児島県鹿屋市飯隈町
8930036,鹿児島県,鹿屋市,萩塚町,カゴシマケン,カノヤシ,ハギツカチョウ,鹿児島県鹿屋市萩塚町
8930037,鹿児島県,鹿屋市,田崎町,カゴシマケン,カノヤシ,タサキチョウ,鹿児島県鹿屋市田崎町
8930041,鹿児島県,鹿屋市,星塚町,カゴシマケン,カノヤシ,ホシヅカチョウ,鹿児島県鹿屋市星塚町
8930042,鹿児島県,鹿屋市,池園町,カゴシマケン,カノヤシ,イケゾノチョウ,鹿児島県鹿屋市池園町
8930043,鹿児島県,鹿屋市,南町,カゴシマケン,カノヤシ,ミナミチョウ,鹿児島県鹿屋市南町
8930044,鹿児島県,鹿屋市,獅子目町,カゴシマケン,カノヤシ,シシメチョウ,鹿児島県鹿屋市獅子目町
8930045,鹿児島県,鹿屋市,田淵町,カゴシマケン,カノヤシ,タブチチョウ,鹿児島県鹿屋市田淵町
8930046,鹿児島県,鹿屋市,横山町,カゴシマケン,カノヤシ,ヨコヤマチョウ,鹿児島県鹿屋市横山町
8930047,鹿児島県,鹿屋市,下堀町,カゴシマケン,カノヤシ,シモホリチョウ,鹿児島県鹿屋市下堀町
8930051,鹿児島県,鹿屋市,大姶良町,カゴシマケン,カノヤシ,オオアイラチョウ,鹿児島県鹿屋市大姶良町
8930052,鹿児島県,鹿屋市,永小原町,カゴシマケン,カノヤシ,ナガオバルチョウ,鹿児島県鹿屋市永小原町
8930053,鹿児島県,鹿屋市,浜田町,カゴシマケン,カノヤシ,ハマダチョウ,鹿児島県鹿屋市浜田町
8930054,鹿児島県,鹿屋市,高須町,カゴシマケン,カノヤシ,タカスチョウ,鹿児島県鹿屋市高須町
8930055,鹿児島県,鹿屋市,野里町,カゴシマケン,カノヤシ,ノザトチョウ,鹿児島県鹿屋市野里町
8930056,鹿児島県,鹿屋市,上野町,カゴシマケン,カノヤシ,ウエノチョウ,鹿児島県鹿屋市上野町
8930057,鹿児島県,鹿屋市,今坂町,カゴシマケン,カノヤシ,イマサカチョウ,鹿児島県鹿屋市今坂町
8930061,鹿児島県,鹿屋市,上谷町,カゴシマケン,カノヤシ,カミダニチョウ,鹿児島県鹿屋市上谷町
8930062,鹿児島県,鹿屋市,新生町,カゴシマケン,カノヤシ,シンセイチョウ,鹿児島県鹿屋市新生町
8930063,鹿児島県,鹿屋市,新栄町,カゴシマケン,カノヤシ,シンエイチョウ,鹿児島県鹿屋市新栄町
8930064,鹿児島県,鹿屋市,西原,カゴシマケン,カノヤシ,ニシハラ,鹿児島県鹿屋市西原
8930065,鹿児島県,鹿屋市,郷之原町,カゴシマケン,カノヤシ,ゴウノハラチョウ,鹿児島県鹿屋市郷之原町
8930066,鹿児島県,鹿屋市,高牧町,カゴシマケン,カノヤシ,タカマキチョウ,鹿児島県鹿屋市高牧町
8930067,鹿児島県,鹿屋市,大浦町,カゴシマケン,カノヤシ,オオウラチョウ,鹿児島県鹿屋市大浦町
8930131,鹿児島県,鹿屋市,上高隈町,カゴシマケン,カノヤシ,カミタカクマチョウ,鹿児島県鹿屋市上高隈町
8930132,鹿児島県,鹿屋市,下高隈町,カゴシマケン,カノヤシ,シモタカクマチョウ,鹿児島県鹿屋市下高隈町
8930201,鹿児島県,鹿屋市,輝北町上百引,カゴシマケン,カノヤシ,キホクチョウカミモビキ,鹿児島県鹿屋市輝北町上百引
8930202,鹿児島県,鹿屋市,輝北町下百引,カゴシマケン,カノヤシ,キホクチョウシモモビキ,鹿児島県鹿屋市輝北町下百引
8930203,鹿児島県,鹿屋市,輝北町平房,カゴシマケン,カノヤシ,キホクチョウヒラボウ,鹿児島県鹿屋市輝北町平房
8931101,鹿児島県,鹿屋市,吾平町上名,カゴシマケン,カノヤシ,アイラチョウカミミョウ,鹿児島県鹿屋市吾平町上名
8931102,鹿児島県,鹿屋市,吾平町下名,カゴシマケン,カノヤシ,アイラチョウシモミョウ,鹿児島県鹿屋市吾平町下名
8931103,鹿児島県,鹿屋市,吾平町麓,カゴシマケン,カノヤシ,アイラチョウフモト,鹿児島県鹿屋市吾平町麓
8931200,鹿児島県,肝属郡肝付町,,カゴシマケン,キモツキグンキモツキチョウ,,鹿児島県肝属郡肝付町
8931201,鹿児島県,肝属郡肝付町,野崎,カゴシマケン,キモツキグンキモツキチョウ,ノサキ,鹿児島県肝属郡肝付町野崎
8931202,鹿児島県,肝属郡肝付町,波見,カゴシマケン,キモツキグンキモツキチョウ,ハミ,鹿児島県肝属郡肝付町波見
8931203,鹿児島県,肝属郡肝付町,後田,カゴシマケン,キモツキグンキモツキチョウ,ウシロダ,鹿児島県肝属郡肝付町後田
8931204,鹿児島県,肝属郡肝付町,富山,カゴシマケン,キモツキグンキモツキチョウ,トミヤマ,鹿児島県肝属郡肝付町富山
8931205,鹿児島県,肝属郡肝付町,宮下,カゴシマケン,キモツキグンキモツキチョウ,ミヤゲ,鹿児島県肝属郡肝付町宮下
8931206,鹿児島県,肝属郡肝付町,前田,カゴシマケン,キモツキグンキモツキチョウ,マエダ,鹿児島県肝属郡肝付町前田
8931207,鹿児島県,肝属郡肝付町,新富,カゴシマケン,キモツキグンキモツキチョウ,ニイトミ,鹿児島県肝属郡肝付町新富
8931401,鹿児島県,肝属郡肝付町,北方,カゴシマケン,キモツキグンキモツキチョウ,キタカタ,鹿児島県肝属郡肝付町北方
8931402,鹿児島県,肝属郡肝付町,南方,カゴシマケン,キモツキグンキモツキチョウ,ミナミカタ,鹿児島県肝属郡肝付町南方
8931511,鹿児島県,肝属郡肝付町,岸良,カゴシマケン,キモツキグンキモツキチョウ,キシラ,鹿児島県肝属郡肝付町岸良
8931600,鹿児島県,肝属郡東串良町,,カゴシマケン,キモツキグンヒガシクシラチョウ,,鹿児島県肝属郡東串良町
8931601,鹿児島県,鹿屋市,串良町細山田,カゴシマケン,カノヤシ,クシラチョウホソヤマダ,鹿児島県鹿屋市串良町細山田
8931602,鹿児島県,鹿屋市,串良町有里,カゴシマケン,カノヤシ,クシラチョウアリサト,鹿児島県鹿屋市串良町有里
8931603,鹿児島県,鹿屋市,串良町岡崎,カゴシマケン,カノヤシ,クシラチョウオカサキ,鹿児島県鹿屋市串良町岡崎
8931604,鹿児島県,鹿屋市,串良町下小原,カゴシマケン,カノヤシ,クシラチョウシモオバル,鹿児島県鹿屋市串良町下小原
8931605,鹿児島県,鹿屋市,串良町上小原,カゴシマケン,カノヤシ,クシラチョウカミオバル,鹿児島県鹿屋市串良町上小原
8931611,鹿児島県,肝属郡東串良町,岩弘,カゴシマケン,キモツキグンヒガシクシラチョウ,イワヒロ,鹿児島県肝属郡東串良町岩弘
8931612,鹿児島県,肝属郡東串良町,池之原,カゴシマケン,キモツキグンヒガシクシラチョウ,イケノハラ,鹿児島県肝属郡東串良町池之原
8931613,鹿児島県,肝属郡東串良町,川西,カゴシマケン,キモツキグンヒガシクシラチョウ,カワニシ,鹿児島県肝属郡東串良町川西
8931614,鹿児島県,肝属郡東串良町,新川西,カゴシマケン,キモツキグンヒガシクシラチョウ,シンカワニシ,鹿児島県肝属郡東串良町新川西
8931615,鹿児島県,肝属郡東串良町,川東,カゴシマケン,キモツキグンヒガシクシラチョウ,カワヒガシ,鹿児島県肝属郡東串良町川東
8932300,鹿児島県,肝属郡錦江町,,カゴシマケン,キモツキグンキンコウチョウ,,鹿児島県肝属郡錦江町
8932301,鹿児島県,肝属郡錦江町,神川,カゴシマケン,キモツキグンキンコウチョウ,カミカワ,鹿児島県肝属郡錦江町神川
8932302,鹿児島県,肝属郡錦江町,城元,カゴシマケン,キモツキグンキンコウチョウ,シロモト,鹿児島県肝属郡錦江町城元
8932303,鹿児島県,肝属郡錦江町,馬場,カゴシマケン,キモツキグンキンコウチョウ,ババ,鹿児島県肝属郡錦江町馬場
8932401,鹿児島県,肝属郡錦江町,田代麓,カゴシマケン,キモツキグンキンコウチョウ,タシロフモト,鹿児島県肝属郡錦江町田代麓
8932402,鹿児島県,肝属郡錦江町,田代川原,カゴシマケン,キモツキグンキンコウチョウ,タシロカワハラ,鹿児島県肝属郡錦江町田代川原
8932500,鹿児島県,肝属郡南大隅町,,カゴシマケン,キモツキグンミナミオオスミチョウ,,鹿児島県肝属郡南大隅町
8932501,鹿児島県,肝属郡南大隅町,根占川北,カゴシマケン,キモツキグンミナミオオスミチョウ,ネジメカワキタ,鹿児島県肝属郡南大隅町根占川北
8932502,鹿児島県,肝属郡南大隅町,根占川南,カゴシマケン,キモツキグンミナミオオスミチョウ,ネジメカワミナミ,鹿児島県肝属郡南大隅町根占川南
8932503,鹿児島県,肝属郡南大隅町,根占横別府,カゴシマケン,キモツキグンミナミオオスミチョウ,ネジメヨコベップ,鹿児島県肝属郡南大隅町根占横別府
8932504,鹿児島県,肝属郡南大隅町,根占山本,カゴシマケン,キモツキグンミナミオオスミチョウ,ネジメヤマモト,鹿児島県肝属郡南大隅町根占山本
8932505,鹿児島県,肝属郡南大隅町,根占辺田,カゴシマケン,キモツキグンミナミオオスミチョウ,ネジメヘタ,鹿児島県肝属郡南大隅町根占辺田
8932601,鹿児島県,肝属郡南大隅町,佐多伊座敷,カゴシマケン,キモツキグンミナミオオスミチョウ,サタイザシキ,鹿児島県肝属郡南大隅町佐多伊座敷
8932602,鹿児島県,肝属郡南大隅町,佐多辺塚,カゴシマケン,キモツキグンミナミオオスミチョウ,サタヘツカ,鹿児島県肝属郡南大隅町佐多辺塚
8932603,鹿児島県,肝属郡南大隅町,佐多郡,カゴシマケン,キモツキグンミナミオオスミチョウ,サタコオリ,鹿児島県肝属郡南大隅町佐多郡
8932604,鹿児島県,肝属郡南大隅町,佐多馬籠,カゴシマケン,キモツキグンミナミオオスミチョウ,サタマゴメ,鹿児島県肝属郡南大隅町佐多馬籠
8940000,鹿児島県,奄美市,,カゴシマケン,アマミシ,,鹿児島県奄美市
8940001,鹿児島県,奄美市,名瀬大熊,カゴシマケン,アマミシ,ナゼダイクマ,鹿児島県奄美市名瀬大熊
8940002,鹿児島県,奄美市,名瀬有屋,カゴシマケン,アマミシ,ナゼアリヤ,鹿児島県奄美市名瀬有屋
8940003,鹿児島県,奄美市,名瀬仲勝,カゴシマケン,アマミシ,ナゼナカガチ,鹿児島県奄美市名瀬仲勝
8940004,鹿児島県,奄美市,名瀬鳩浜町,カゴシマケン,アマミシ,ナゼハトハマチョウ,鹿児島県奄美市名瀬鳩浜町
8940005,鹿児島県,奄美市,名瀬佐大熊町,カゴシマケン,アマミシ,ナゼサダイクマチョウ,鹿児島県奄美市名瀬佐大熊町
8940006,鹿児島県,奄美市,名瀬小浜町,カゴシマケン,アマミシ,ナゼコハマチョウ,鹿児島県奄美市名瀬小浜町
8940007,鹿児島県,奄美市,名瀬和光町,カゴシマケン,アマミシ,ナゼワコウチョウ,鹿児島県奄美市名瀬和光町
8940008,鹿児島県,奄美市,名瀬浦上（その他）,カゴシマケン,アマミシ,ナゼウラガミ(ソノタ),鹿児島県奄美市名瀬浦上（その他）
8940009,鹿児島県,奄美市,名瀬大熊町,カゴシマケン,アマミシ,ナゼダイクマチョウ,鹿児島県奄美市名瀬大熊町
8940011,鹿児島県,奄美市,名瀬安勝町,カゴシマケン,アマミシ,ナゼアンガチチョウ,鹿児島県奄美市名瀬安勝町
8940012,鹿児島県,奄美市,名瀬小俣町,カゴシマケン,アマミシ,ナゼコマタチョウ,鹿児島県奄美市名瀬小俣町
8940013,鹿児島県,奄美市,名瀬春日町,カゴシマケン,アマミシ,ナゼカスガチョウ,鹿児島県奄美市名瀬春日町
8940014,鹿児島県,奄美市,名瀬平田町,カゴシマケン,アマミシ,ナゼヒラタチョウ,鹿児島県奄美市名瀬平田町
8940015,鹿児島県,奄美市,名瀬真名津町,カゴシマケン,アマミシ,ナゼマナヅチョウ,鹿児島県奄美市名瀬真名津町
8940016,鹿児島県,奄美市,名瀬古田町,カゴシマケン,アマミシ,ナゼフルタチョウ,鹿児島県奄美市名瀬古田町
8940017,鹿児島県,奄美市,名瀬石橋町,カゴシマケン,アマミシ,ナゼイシバシチョウ,鹿児島県奄美市名瀬石橋町
8940021,鹿児島県,奄美市,名瀬伊津部町,カゴシマケン,アマミシ,ナゼイツブチョウ,鹿児島県奄美市名瀬伊津部町
8940022,鹿児島県,奄美市,名瀬久里町,カゴシマケン,アマミシ,ナゼクサトチョウ,鹿児島県奄美市名瀬久里町
8940023,鹿児島県,奄美市,名瀬永田町,カゴシマケン,アマミシ,ナゼナガタチョウ,鹿児島県奄美市名瀬永田町
8940024,鹿児島県,奄美市,名瀬井根町,カゴシマケン,アマミシ,ナゼイネチョウ,鹿児島県奄美市名瀬井根町
8940025,鹿児島県,奄美市,名瀬幸町,カゴシマケン,アマミシ,ナゼサイワイチョウ,鹿児島県奄美市名瀬幸町
8940026,鹿児島県,奄美市,名瀬港町,カゴシマケン,アマミシ,ナゼミナトマチ,鹿児島県奄美市名瀬港町
8940027,鹿児島県,奄美市,名瀬末広町,カゴシマケン,アマミシ,ナゼスエヒロチョウ,鹿児島県奄美市名瀬末広町
8940031,鹿児島県,奄美市,名瀬金久町,カゴシマケン,アマミシ,ナゼカネクチョウ,鹿児島県奄美市名瀬金久町
8940032,鹿児島県,奄美市,名瀬柳町,カゴシマケン,アマミシ,ナゼヤナギマチ,鹿児島県奄美市名瀬柳町
8940033,鹿児島県,奄美市,名瀬矢之脇町,カゴシマケン,アマミシ,ナゼヤノワキチョウ,鹿児島県奄美市名瀬矢之脇町
8940034,鹿児島県,奄美市,名瀬入舟町,カゴシマケン,アマミシ,ナゼイリフネチョウ,鹿児島県奄美市名瀬入舟町
8940035,鹿児島県,奄美市,名瀬塩浜町,カゴシマケン,アマミシ,ナゼシオハマチョウ,鹿児島県奄美市名瀬塩浜町
8940036,鹿児島県,奄美市,名瀬長浜町,カゴシマケン,アマミシ,ナゼナガハマチョウ,鹿児島県奄美市名瀬長浜町
8940041,鹿児島県,奄美市,名瀬朝仁新町,カゴシマケン,アマミシ,ナゼアサニシンマチ,鹿児島県奄美市名瀬朝仁新町
8940042,鹿児島県,奄美市,名瀬朝仁町,カゴシマケン,アマミシ,ナゼアサニチョウ,鹿児島県奄美市名瀬朝仁町
8940043,鹿児島県,奄美市,名瀬朝仁,カゴシマケン,アマミシ,ナゼアサニ,鹿児島県奄美市名瀬朝仁
8940044,鹿児島県,奄美市,名瀬浜里町,カゴシマケン,アマミシ,ナゼハマサトチョウ,鹿児島県奄美市名瀬浜里町
8940045,鹿児島県,奄美市,名瀬平松町,カゴシマケン,アマミシ,ナゼヒラマツチョウ,鹿児島県奄美市名瀬平松町
8940046,鹿児島県,奄美市,名瀬小宿,カゴシマケン,アマミシ,ナゼコシュク,鹿児島県奄美市名瀬小宿
8940047,鹿児島県,奄美市,名瀬知名瀬,カゴシマケン,アマミシ,ナゼチナセ,鹿児島県奄美市名瀬知名瀬
8940048,鹿児島県,奄美市,名瀬根瀬部,カゴシマケン,アマミシ,ナゼネセブ,鹿児島県奄美市名瀬根瀬部
8940061,鹿児島県,奄美市,名瀬朝日町,カゴシマケン,アマミシ,ナゼアサヒチョウ,鹿児島県奄美市名瀬朝日町
8940062,鹿児島県,奄美市,名瀬有屋町,カゴシマケン,アマミシ,ナゼアリヤチョウ,鹿児島県奄美市名瀬有屋町
8940063,鹿児島県,奄美市,名瀬仲勝町,カゴシマケン,アマミシ,ナゼナカガチチョウ,鹿児島県奄美市名瀬仲勝町
8940068,鹿児島県,奄美市,名瀬浦上町,カゴシマケン,アマミシ,ナゼウラガミチョウ,鹿児島県奄美市名瀬浦上町
8940100,鹿児島県,大島郡龍郷町,,カゴシマケン,オオシマグンタツゴウチョウ,,鹿児島県大島郡龍郷町
8940101,鹿児島県,大島郡龍郷町,屋入,カゴシマケン,オオシマグンタツゴウチョウ,ヤニュウ,鹿児島県大島郡龍郷町屋入
8940102,鹿児島県,大島郡龍郷町,瀬留,カゴシマケン,オオシマグンタツゴウチョウ,セドメ,鹿児島県大島郡龍郷町瀬留
8940103,鹿児島県,大島郡龍郷町,玉里,カゴシマケン,オオシマグンタツゴウチョウ,タマザト,鹿児島県大島郡龍郷町玉里
8940104,鹿児島県,大島郡龍郷町,浦,カゴシマケン,オオシマグンタツゴウチョウ,ウラ,鹿児島県大島郡龍郷町浦
8940105,鹿児島県,大島郡龍郷町,大勝,カゴシマケン,オオシマグンタツゴウチョウ,オオガチ,鹿児島県大島郡龍郷町大勝
8940106,鹿児島県,大島郡龍郷町,中勝,カゴシマケン,オオシマグンタツゴウチョウ,ナカガチ,鹿児島県大島郡龍郷町中勝
8940107,鹿児島県,大島郡龍郷町,戸口,カゴシマケン,オオシマグンタツゴウチョウ,トグチ,鹿児島県大島郡龍郷町戸口
8940108,鹿児島県,奄美市,名瀬浦上（小又）,カゴシマケン,アマミシ,ナゼウラガミ(コマタ),鹿児島県奄美市名瀬浦上（小又）
8940321,鹿児島県,大島郡龍郷町,龍郷,カゴシマケン,オオシマグンタツゴウチョウ,タツゴウ,鹿児島県大島郡龍郷町龍郷
8940322,鹿児島県,大島郡龍郷町,久場,カゴシマケン,オオシマグンタツゴウチョウ,クバ,鹿児島県大島郡龍郷町久場
8940323,鹿児島県,大島郡龍郷町,安木屋場,カゴシマケン,オオシマグンタツゴウチョウ,アンキヤバ,鹿児島県大島郡龍郷町安木屋場
8940324,鹿児島県,大島郡龍郷町,円,カゴシマケン,オオシマグンタツゴウチョウ,エン,鹿児島県大島郡龍郷町円
8940331,鹿児島県,大島郡龍郷町,嘉渡,カゴシマケン,オオシマグンタツゴウチョウ,カド,鹿児島県大島郡龍郷町嘉渡
8940332,鹿児島県,大島郡龍郷町,幾里,カゴシマケン,オオシマグンタツゴウチョウ,イクサト,鹿児島県大島郡龍郷町幾里
8940333,鹿児島県,大島郡龍郷町,秋名,カゴシマケン,オオシマグンタツゴウチョウ,アキナ,鹿児島県大島郡龍郷町秋名
8940351,鹿児島県,奄美市,名瀬芦花部,カゴシマケン,アマミシ,ナゼアシケブ,鹿児島県奄美市名瀬芦花部
8940352,鹿児島県,奄美市,名瀬有良,カゴシマケン,アマミシ,ナゼアリラ,鹿児島県奄美市名瀬有良
8940411,鹿児島県,大島郡龍郷町,赤尾木,カゴシマケン,オオシマグンタツゴウチョウ,アカオギ,鹿児島県大島郡龍郷町赤尾木
8940412,鹿児島県,大島郡龍郷町,芦徳,カゴシマケン,オオシマグンタツゴウチョウ,アシトク,鹿児島県大島郡龍郷町芦徳
8940501,鹿児島県,奄美市,笠利町宇宿,カゴシマケン,アマミシ,カサリチョウウシュク,鹿児島県奄美市笠利町宇宿
8940502,鹿児島県,奄美市,笠利町万屋,カゴシマケン,アマミシ,カサリチョウマンヤ,鹿児島県奄美市笠利町万屋
8940503,鹿児島県,奄美市,笠利町和野,カゴシマケン,アマミシ,カサリチョウワノ,鹿児島県奄美市笠利町和野
8940504,鹿児島県,奄美市,笠利町節田,カゴシマケン,アマミシ,カサリチョウセッタ,鹿児島県奄美市笠利町節田
8940505,鹿児島県,奄美市,笠利町平,カゴシマケン,アマミシ,カサリチョウタイラ,鹿児島県奄美市笠利町平
8940506,鹿児島県,奄美市,笠利町手花部,カゴシマケン,アマミシ,カサリチョウテケブ,鹿児島県奄美市笠利町手花部
8940507,鹿児島県,奄美市,笠利町喜瀬,カゴシマケン,アマミシ,カサリチョウキセ,鹿児島県奄美市笠利町喜瀬
8940508,鹿児島県,奄美市,笠利町用安,カゴシマケン,アマミシ,カサリチョウヨウアン,鹿児島県奄美市笠利町用安
8940511,鹿児島県,奄美市,笠利町里,カゴシマケン,アマミシ,カサリチョウサト,鹿児島県奄美市笠利町里
8940512,鹿児島県,奄美市,笠利町中金久,カゴシマケン,アマミシ,カサリチョウナカガネク,鹿児島県奄美市笠利町中金久
8940513,鹿児島県,奄美市,笠利町外金久,カゴシマケン,アマミシ,カサリチョウソトガネク,鹿児島県奄美市笠利町外金久
8940621,鹿児島県,奄美市,笠利町用,カゴシマケン,アマミシ,カサリチョウヨウ,鹿児島県奄美市笠利町用
8940622,鹿児島県,奄美市,笠利町笠利,カゴシマケン,アマミシ,カサリチョウカサリ,鹿児島県奄美市笠利町笠利
8940623,鹿児島県,奄美市,笠利町辺留,カゴシマケン,アマミシ,カサリチョウベル,鹿児島県奄美市笠利町辺留
8940624,鹿児島県,奄美市,笠利町須野,カゴシマケン,アマミシ,カサリチョウスノ,鹿児島県奄美市笠利町須野
8940625,鹿児島県,奄美市,笠利町川上,カゴシマケン,アマミシ,カサリチョウカワカミ,鹿児島県奄美市笠利町川上
8940626,鹿児島県,奄美市,笠利町屋仁,カゴシマケン,アマミシ,カサリチョウヤニ,鹿児島県奄美市笠利町屋仁
8940627,鹿児島県,奄美市,笠利町佐仁,カゴシマケン,アマミシ,カサリチョウサニ,鹿児島県奄美市笠利町佐仁
8940771,鹿児島県,奄美市,名瀬小湊,カゴシマケン,アマミシ,ナゼコミナト,鹿児島県奄美市名瀬小湊
8940772,鹿児島県,奄美市,名瀬西仲勝,カゴシマケン,アマミシ,ナゼニシナカガチ,鹿児島県奄美市名瀬西仲勝
8940773,鹿児島県,奄美市,名瀬朝戸,カゴシマケン,アマミシ,ナゼアサト,鹿児島県奄美市名瀬朝戸
8940774,鹿児島県,奄美市,名瀬伊津部勝,カゴシマケン,アマミシ,ナゼイツブガチ,鹿児島県奄美市名瀬伊津部勝
8940775,鹿児島県,奄美市,名瀬名瀬勝,カゴシマケン,アマミシ,ナゼナゼガチ,鹿児島県奄美市名瀬名瀬勝
8940776,鹿児島県,奄美市,名瀬崎原,カゴシマケン,アマミシ,ナゼサキバル,鹿児島県奄美市名瀬崎原
8941111,鹿児島県,奄美市,住用町城,カゴシマケン,アマミシ,スミヨウチョウグスク,鹿児島県奄美市住用町城
8941112,鹿児島県,奄美市,住用町和瀬,カゴシマケン,アマミシ,スミヨウチョウワセ,鹿児島県奄美市住用町和瀬
8941113,鹿児島県,奄美市,住用町見里,カゴシマケン,アマミシ,スミヨウチョウミザト,鹿児島県奄美市住用町見里
8941114,鹿児島県,奄美市,住用町東仲間,カゴシマケン,アマミシ,スミヨウチョウヒガシナカマ,鹿児島県奄美市住用町東仲間
8941115,鹿児島県,奄美市,住用町川内,カゴシマケン,アマミシ,スミヨウチョウカワウチ,鹿児島県奄美市住用町川内
8941116,鹿児島県,奄美市,住用町摺勝,カゴシマケン,アマミシ,スミヨウチョウスリガチ,鹿児島県奄美市住用町摺勝
8941201,鹿児島県,奄美市,住用町石原,カゴシマケン,アマミシ,スミヨウチョウイシハラ,鹿児島県奄美市住用町石原
8941202,鹿児島県,奄美市,住用町西仲間,カゴシマケン,アマミシ,スミヨウチョウニシナカマ,鹿児島県奄美市住用町西仲間
8941203,鹿児島県,奄美市,住用町神屋,カゴシマケン,アマミシ,スミヨウチョウカミヤ,鹿児島県奄美市住用町神屋
8941204,鹿児島県,奄美市,住用町山間（その他）,カゴシマケン,アマミシ,スミヨウチョウヤンマ(ソノタ),鹿児島県奄美市住用町山間（その他）
8941205,鹿児島県,奄美市,住用町役勝,カゴシマケン,アマミシ,スミヨウチョウヤクガチ,鹿児島県奄美市住用町役勝
8941304,鹿児島県,奄美市,住用町山間（４９３〜５９２番地、戸玉）,カゴシマケン,アマミシ,スミヨウチョウヤンマ(493-592バンチ、トダマ),鹿児島県奄美市住用町山間（493〜592-、戸玉）
8941321,鹿児島県,奄美市,住用町市,カゴシマケン,アマミシ,スミヨウチョウイチ,鹿児島県奄美市住用町市
8941500,鹿児島県,大島郡瀬戸内町,,カゴシマケン,オオシマグンセトウチチョウ,,鹿児島県大島郡瀬戸内町
8941501,鹿児島県,大島郡瀬戸内町,古仁屋（高丘）,カゴシマケン,オオシマグンセトウチチョウ,コニヤ(タカオカ),鹿児島県大島郡瀬戸内町古仁屋（高丘）
8941502,鹿児島県,大島郡瀬戸内町,古仁屋（宮前）,カゴシマケン,オオシマグンセトウチチョウ,コニヤ(ミヤマエ),鹿児島県大島郡瀬戸内町古仁屋（宮前）
8941503,鹿児島県,大島郡瀬戸内町,古仁屋（大湊）,カゴシマケン,オオシマグンセトウチチョウ,コニヤ(オオミナト),鹿児島県大島郡瀬戸内町古仁屋（大湊）
8941504,鹿児島県,大島郡瀬戸内町,古仁屋（春日）,カゴシマケン,オオシマグンセトウチチョウ,コニヤ(カスガ),鹿児島県大島郡瀬戸内町古仁屋（春日）
8941505,鹿児島県,大島郡瀬戸内町,古仁屋（松江）,カゴシマケン,オオシマグンセトウチチョウ,コニヤ(マツエ),鹿児島県大島郡瀬戸内町古仁屋（松江）
8941506,鹿児島県,大島郡瀬戸内町,古仁屋（船津）,カゴシマケン,オオシマグンセトウチチョウ,コニヤ(フナツ),鹿児島県大島郡瀬戸内町古仁屋（船津）
8941507,鹿児島県,大島郡瀬戸内町,古仁屋（瀬久井）,カゴシマケン,オオシマグンセトウチチョウ,コニヤ(セクイ),鹿児島県大島郡瀬戸内町古仁屋（瀬久井）
8941508,鹿児島県,大島郡瀬戸内町,古仁屋,カゴシマケン,オオシマグンセトウチチョウ,コニヤ,鹿児島県大島郡瀬戸内町古仁屋
8941509,鹿児島県,大島郡瀬戸内町,古仁屋瀬久井東,カゴシマケン,オオシマグンセトウチチョウ,コニヤセクイヒガシ,鹿児島県大島郡瀬戸内町古仁屋瀬久井東
8941510,鹿児島県,大島郡瀬戸内町,古仁屋瀬久井西,カゴシマケン,オオシマグンセトウチチョウ,コニヤセクイニシ,鹿児島県大島郡瀬戸内町古仁屋瀬久井西
8941511,鹿児島県,大島郡瀬戸内町,阿木名,カゴシマケン,オオシマグンセトウチチョウ,アギナ,鹿児島県大島郡瀬戸内町阿木名
8941512,鹿児島県,大島郡瀬戸内町,勝浦,カゴシマケン,オオシマグンセトウチチョウ,カチウラ,鹿児島県大島郡瀬戸内町勝浦
8941513,鹿児島県,大島郡瀬戸内町,網野子,カゴシマケン,オオシマグンセトウチチョウ,アミノコ,鹿児島県大島郡瀬戸内町網野子
8941514,鹿児島県,大島郡瀬戸内町,節子,カゴシマケン,オオシマグンセトウチチョウ,セッコ,鹿児島県大島郡瀬戸内町節子
8941515,鹿児島県,大島郡瀬戸内町,嘉徳,カゴシマケン,オオシマグンセトウチチョウ,カトク,鹿児島県大島郡瀬戸内町嘉徳
8941521,鹿児島県,大島郡瀬戸内町,清水,カゴシマケン,オオシマグンセトウチチョウ,セイスイ,鹿児島県大島郡瀬戸内町清水
8941522,鹿児島県,大島郡瀬戸内町,嘉鉄,カゴシマケン,オオシマグンセトウチチョウ,カテツ,鹿児島県大島郡瀬戸内町嘉鉄
8941523,鹿児島県,大島郡瀬戸内町,蘇刈,カゴシマケン,オオシマグンセトウチチョウ,ソカル,鹿児島県大島郡瀬戸内町蘇刈
8941524,鹿児島県,大島郡瀬戸内町,伊須,カゴシマケン,オオシマグンセトウチチョウ,イス,鹿児島県大島郡瀬戸内町伊須
8941531,鹿児島県,大島郡瀬戸内町,手安,カゴシマケン,オオシマグンセトウチチョウ,テアン,鹿児島県大島郡瀬戸内町手安
8941741,鹿児島県,大島郡瀬戸内町,篠川,カゴシマケン,オオシマグンセトウチチョウ,シノカワ,鹿児島県大島郡瀬戸内町篠川
8941742,鹿児島県,大島郡瀬戸内町,阿室釜,カゴシマケン,オオシマグンセトウチチョウ,アムロガマ,鹿児島県大島郡瀬戸内町阿室釜
8941743,鹿児島県,大島郡瀬戸内町,小名瀬,カゴシマケン,オオシマグンセトウチチョウ,コナセ,鹿児島県大島郡瀬戸内町小名瀬
8941744,鹿児島県,大島郡瀬戸内町,阿鉄,カゴシマケン,オオシマグンセトウチチョウ,アテツ,鹿児島県大島郡瀬戸内町阿鉄
8941745,鹿児島県,大島郡瀬戸内町,油井,カゴシマケン,オオシマグンセトウチチョウ,ユイ,鹿児島県大島郡瀬戸内町油井
8941746,鹿児島県,大島郡瀬戸内町,久根津,カゴシマケン,オオシマグンセトウチチョウ,クネツ,鹿児島県大島郡瀬戸内町久根津
8941851,鹿児島県,大島郡瀬戸内町,久慈,カゴシマケン,オオシマグンセトウチチョウ,クジ,鹿児島県大島郡瀬戸内町久慈
8941852,鹿児島県,大島郡瀬戸内町,古志,カゴシマケン,オオシマグンセトウチチョウ,コシ,鹿児島県大島郡瀬戸内町古志
8941853,鹿児島県,大島郡瀬戸内町,花天,カゴシマケン,オオシマグンセトウチチョウ,ケテン,鹿児島県大島郡瀬戸内町花天
8941854,鹿児島県,大島郡瀬戸内町,管鈍,カゴシマケン,オオシマグンセトウチチョウ,クダドン,鹿児島県大島郡瀬戸内町管鈍
8941855,鹿児島県,大島郡瀬戸内町,西古見,カゴシマケン,オオシマグンセトウチチョウ,ニシコミ,鹿児島県大島郡瀬戸内町西古見
8942141,鹿児島県,大島郡瀬戸内町,諸鈍,カゴシマケン,オオシマグンセトウチチョウ,ショドン,鹿児島県大島郡瀬戸内町諸鈍
8942142,鹿児島県,大島郡瀬戸内町,生間,カゴシマケン,オオシマグンセトウチチョウ,イケンマ,鹿児島県大島郡瀬戸内町生間
8942143,鹿児島県,大島郡瀬戸内町,渡連,カゴシマケン,オオシマグンセトウチチョウ,ドレン,鹿児島県大島郡瀬戸内町渡連
8942144,鹿児島県,大島郡瀬戸内町,諸数,カゴシマケン,オオシマグンセトウチチョウ,ショカズ,鹿児島県大島郡瀬戸内町諸数
8942231,鹿児島県,大島郡瀬戸内町,押角,カゴシマケン,オオシマグンセトウチチョウ,オシカク,鹿児島県大島郡瀬戸内町押角
8942232,鹿児島県,大島郡瀬戸内町,勝能,カゴシマケン,オオシマグンセトウチチョウ,カチユキ,鹿児島県大島郡瀬戸内町勝能
8942233,鹿児島県,大島郡瀬戸内町,野見山,カゴシマケン,オオシマグンセトウチチョウ,ノミヤマ,鹿児島県大島郡瀬戸内町野見山
8942234,鹿児島県,大島郡瀬戸内町,秋徳,カゴシマケン,オオシマグンセトウチチョウ,アキトク,鹿児島県大島郡瀬戸内町秋徳
8942235,鹿児島県,大島郡瀬戸内町,於斉,カゴシマケン,オオシマグンセトウチチョウ,オサイ,鹿児島県大島郡瀬戸内町於斉
8942236,鹿児島県,大島郡瀬戸内町,伊子茂,カゴシマケン,オオシマグンセトウチチョウ,イコモ,鹿児島県大島郡瀬戸内町伊子茂
8942237,鹿児島県,大島郡瀬戸内町,花富,カゴシマケン,オオシマグンセトウチチョウ,ケドミ,鹿児島県大島郡瀬戸内町花富
8942321,鹿児島県,大島郡瀬戸内町,西阿室,カゴシマケン,オオシマグンセトウチチョウ,ニシアムロ,鹿児島県大島郡瀬戸内町西阿室
8942322,鹿児島県,大島郡瀬戸内町,瀬相,カゴシマケン,オオシマグンセトウチチョウ,セソウ,鹿児島県大島郡瀬戸内町瀬相
8942323,鹿児島県,大島郡瀬戸内町,俵,カゴシマケン,オオシマグンセトウチチョウ,ヒョウ,鹿児島県大島郡瀬戸内町俵
8942401,鹿児島県,大島郡瀬戸内町,瀬武,カゴシマケン,オオシマグンセトウチチョウ,セタケ,鹿児島県大島郡瀬戸内町瀬武
8942402,鹿児島県,大島郡瀬戸内町,薩川,カゴシマケン,オオシマグンセトウチチョウ,サツカワ,鹿児島県大島郡瀬戸内町薩川
8942403,鹿児島県,大島郡瀬戸内町,実久,カゴシマケン,オオシマグンセトウチチョウ,サネク,鹿児島県大島郡瀬戸内町実久
8942404,鹿児島県,大島郡瀬戸内町,芝,カゴシマケン,オオシマグンセトウチチョウ,シバ,鹿児島県大島郡瀬戸内町芝
8942411,鹿児島県,大島郡瀬戸内町,阿多地,カゴシマケン,オオシマグンセトウチチョウ,アダチ,鹿児島県大島郡瀬戸内町阿多地
8942412,鹿児島県,大島郡瀬戸内町,須子茂,カゴシマケン,オオシマグンセトウチチョウ,スコモ,鹿児島県大島郡瀬戸内町須子茂
8942413,鹿児島県,大島郡瀬戸内町,嘉入,カゴシマケン,オオシマグンセトウチチョウ,カニュウ,鹿児島県大島郡瀬戸内町嘉入
8942414,鹿児島県,大島郡瀬戸内町,三浦,カゴシマケン,オオシマグンセトウチチョウ,ミウラ,鹿児島県大島郡瀬戸内町三浦
8942415,鹿児島県,大島郡瀬戸内町,知之浦,カゴシマケン,オオシマグンセトウチチョウ,チノウラ,鹿児島県大島郡瀬戸内町知之浦
8942416,鹿児島県,大島郡瀬戸内町,武名,カゴシマケン,オオシマグンセトウチチョウ,タケナ,鹿児島県大島郡瀬戸内町武名
8942417,鹿児島県,大島郡瀬戸内町,木慈,カゴシマケン,オオシマグンセトウチチョウ,キジ,鹿児島県大島郡瀬戸内町木慈
8942501,鹿児島県,大島郡瀬戸内町,池地,カゴシマケン,オオシマグンセトウチチョウ,イケジ,鹿児島県大島郡瀬戸内町池地
8942502,鹿児島県,大島郡瀬戸内町,請阿室,カゴシマケン,オオシマグンセトウチチョウ,ウケアムロ,鹿児島県大島郡瀬戸内町請阿室
8942601,鹿児島県,大島郡瀬戸内町,与路,カゴシマケン,オオシマグンセトウチチョウ,ヨロ,鹿児島県大島郡瀬戸内町与路
8943100,鹿児島県,大島郡大和村,,カゴシマケン,オオシマグンヤマトソン,,鹿児島県大島郡大和村
8943101,鹿児島県,大島郡大和村,国直,カゴシマケン,オオシマグンヤマトソン,クニナオ,鹿児島県大島郡大和村国直
8943102,鹿児島県,大島郡大和村,湯湾釜,カゴシマケン,オオシマグンヤマトソン,ユワンガマ,鹿児島県大島郡大和村湯湾釜
8943103,鹿児島県,大島郡大和村,津名久,カゴシマケン,オオシマグンヤマトソン,ツナグ,鹿児島県大島郡大和村津名久
8943104,鹿児島県,大島郡大和村,思勝,カゴシマケン,オオシマグンヤマトソン,オンガチ,鹿児島県大島郡大和村思勝
8943105,鹿児島県,大島郡大和村,大和浜,カゴシマケン,オオシマグンヤマトソン,ヤマトハマ,鹿児島県大島郡大和村大和浜
8943106,鹿児島県,大島郡大和村,大棚,カゴシマケン,オオシマグンヤマトソン,オオダナ,鹿児島県大島郡大和村大棚
8943107,鹿児島県,大島郡大和村,大金久,カゴシマケン,オオシマグンヤマトソン,オオガネク,鹿児島県大島郡大和村大金久
8943211,鹿児島県,大島郡大和村,戸円,カゴシマケン,オオシマグンヤマトソン,トエン,鹿児島県大島郡大和村戸円
8943212,鹿児島県,大島郡大和村,名音,カゴシマケン,オオシマグンヤマトソン,ナオン,鹿児島県大島郡大和村名音
8943213,鹿児島県,大島郡大和村,志戸勘,カゴシマケン,オオシマグンヤマトソン,シドカン,鹿児島県大島郡大和村志戸勘
8943214,鹿児島県,大島郡大和村,今里,カゴシマケン,オオシマグンヤマトソン,イマザト,鹿児島県大島郡大和村今里
8943300,鹿児島県,大島郡宇検村,,カゴシマケン,オオシマグンウケンソン,,鹿児島県大島郡宇検村
8943301,鹿児島県,大島郡宇検村,湯湾,カゴシマケン,オオシマグンウケンソン,ユワン,鹿児島県大島郡宇検村湯湾
8943302,鹿児島県,大島郡宇検村,芦検,カゴシマケン,オオシマグンウケンソン,アシケン,鹿児島県大島郡宇検村芦検
8943303,鹿児島県,大島郡宇検村,田検,カゴシマケン,オオシマグンウケンソン,タケン,鹿児島県大島郡宇検村田検
8943304,鹿児島県,大島郡宇検村,須古,カゴシマケン,オオシマグンウケンソン,スコ,鹿児島県大島郡宇検村須古
8943305,鹿児島県,大島郡宇検村,石良,カゴシマケン,オオシマグンウケンソン,イシラ,鹿児島県大島郡宇検村石良
8943411,鹿児島県,大島郡宇検村,宇検,カゴシマケン,オオシマグンウケンソン,ウケン,鹿児島県大島郡宇検村宇検
8943412,鹿児島県,大島郡宇検村,久志,カゴシマケン,オオシマグンウケンソン,クシ,鹿児島県大島郡宇検村久志
8943413,鹿児島県,大島郡宇検村,生勝,カゴシマケン,オオシマグンウケンソン,イケガチ,鹿児島県大島郡宇検村生勝
8943521,鹿児島県,大島郡宇検村,名柄,カゴシマケン,オオシマグンウケンソン,ナガラ,鹿児島県大島郡宇検村名柄
8943522,鹿児島県,大島郡宇検村,佐念,カゴシマケン,オオシマグンウケンソン,サネン,鹿児島県大島郡宇検村佐念
8943523,鹿児島県,大島郡宇検村,部連,カゴシマケン,オオシマグンウケンソン,ブレン,鹿児島県大島郡宇検村部連
8943631,鹿児島県,大島郡宇検村,平田,カゴシマケン,オオシマグンウケンソン,ヘダ,鹿児島県大島郡宇検村平田
8943632,鹿児島県,大島郡宇検村,阿室,カゴシマケン,オオシマグンウケンソン,アムロ,鹿児島県大島郡宇検村阿室
8943633,鹿児島県,大島郡宇検村,屋鈍,カゴシマケン,オオシマグンウケンソン,ヤドン,鹿児島県大島郡宇検村屋鈍
8950000,鹿児島県,薩摩川内市,,カゴシマケン,サツマセンダイシ,,鹿児島県薩摩川内市
8950001,鹿児島県,薩摩川内市,白浜町,カゴシマケン,サツマセンダイシ,シラハマチョウ,鹿児島県薩摩川内市白浜町
8950002,鹿児島県,薩摩川内市,楠元町,カゴシマケン,サツマセンダイシ,クスモトチョウ,鹿児島県薩摩川内市楠元町
8950003,鹿児島県,薩摩川内市,中村町,カゴシマケン,サツマセンダイシ,ナカムラチョウ,鹿児島県薩摩川内市中村町
8950004,鹿児島県,薩摩川内市,久住町,カゴシマケン,サツマセンダイシ,クジュウチョウ,鹿児島県薩摩川内市久住町
8950005,鹿児島県,薩摩川内市,永利町,カゴシマケン,サツマセンダイシ,ナガトシチョウ,鹿児島県薩摩川内市永利町
8950006,鹿児島県,薩摩川内市,田崎町,カゴシマケン,サツマセンダイシ,タサキチョウ,鹿児島県薩摩川内市田崎町
8950007,鹿児島県,薩摩川内市,百次町,カゴシマケン,サツマセンダイシ,モモツギチョウ,鹿児島県薩摩川内市百次町
8950011,鹿児島県,薩摩川内市,天辰町,カゴシマケン,サツマセンダイシ,アマタツチョウ,鹿児島県薩摩川内市天辰町
8950012,鹿児島県,薩摩川内市,平佐,カゴシマケン,サツマセンダイシ,ヒラサ,鹿児島県薩摩川内市平佐
8950012,鹿児島県,薩摩川内市,平佐町,カゴシマケン,サツマセンダイシ,ヒラサチョウ,鹿児島県薩摩川内市平佐町
8950013,鹿児島県,薩摩川内市,宮崎町,カゴシマケン,サツマセンダイシ,ミヤザキチョウ,鹿児島県薩摩川内市宮崎町
8950021,鹿児島県,薩摩川内市,向田本町,カゴシマケン,サツマセンダイシ,ムコウダホンマチ,鹿児島県薩摩川内市向田本町
8950022,鹿児島県,薩摩川内市,白和町,カゴシマケン,サツマセンダイシ,シラワチョウ,鹿児島県薩摩川内市白和町
8950023,鹿児島県,薩摩川内市,横馬場町,カゴシマケン,サツマセンダイシ,ヨコババチョウ,鹿児島県薩摩川内市横馬場町
8950024,鹿児島県,薩摩川内市,鳥追町,カゴシマケン,サツマセンダイシ,トリオイチョウ,鹿児島県薩摩川内市鳥追町
8950025,鹿児島県,薩摩川内市,向田町,カゴシマケン,サツマセンダイシ,ムコウダチョウ,鹿児島県薩摩川内市向田町
8950026,鹿児島県,薩摩川内市,東向田町,カゴシマケン,サツマセンダイシ,ヒガシムコウダチョウ,鹿児島県薩摩川内市東向田町
8950027,鹿児島県,薩摩川内市,西向田町,カゴシマケン,サツマセンダイシ,ニシムコウダチョウ,鹿児島県薩摩川内市西向田町
8950031,鹿児島県,薩摩川内市,勝目町,カゴシマケン,サツマセンダイシ,カチメチョウ,鹿児島県薩摩川内市勝目町
8950032,鹿児島県,薩摩川内市,山之口町,カゴシマケン,サツマセンダイシ,ヤマノクチチョウ,鹿児島県薩摩川内市山之口町
8950033,鹿児島県,薩摩川内市,川永野町,カゴシマケン,サツマセンダイシ,カワナガノチョウ,鹿児島県薩摩川内市川永野町
8950034,鹿児島県,薩摩川内市,木場茶屋町,カゴシマケン,サツマセンダイシ,コバンチャヤチョウ,鹿児島県薩摩川内市木場茶屋町
8950035,鹿児島県,薩摩川内市,尾白江町,カゴシマケン,サツマセンダイシ,オジロエチョウ,鹿児島県薩摩川内市尾白江町
8950036,鹿児島県,薩摩川内市,矢倉町,カゴシマケン,サツマセンダイシ,ヤグラチョウ,鹿児島県薩摩川内市矢倉町
8950041,鹿児島県,薩摩川内市,隈之城町,カゴシマケン,サツマセンダイシ,クマノジョウチョウ,鹿児島県薩摩川内市隈之城町
8950042,鹿児島県,薩摩川内市,中福良町,カゴシマケン,サツマセンダイシ,ナカフクラチョウ,鹿児島県薩摩川内市中福良町
8950043,鹿児島県,薩摩川内市,都町,カゴシマケン,サツマセンダイシ,ミヤコチョウ,鹿児島県薩摩川内市都町
8950044,鹿児島県,薩摩川内市,青山町,カゴシマケン,サツマセンダイシ,アオヤマチョウ,鹿児島県薩摩川内市青山町
8950051,鹿児島県,薩摩川内市,東開聞町,カゴシマケン,サツマセンダイシ,ヒガシカイモンチョウ,鹿児島県薩摩川内市東開聞町
8950052,鹿児島県,薩摩川内市,神田町,カゴシマケン,サツマセンダイシ,カンダチョウ,鹿児島県薩摩川内市神田町
8950053,鹿児島県,薩摩川内市,冷水町,カゴシマケン,サツマセンダイシ,ヒヤミズチョウ,鹿児島県薩摩川内市冷水町
8950054,鹿児島県,薩摩川内市,若松町,カゴシマケン,サツマセンダイシ,ワカマツチョウ,鹿児島県薩摩川内市若松町
8950055,鹿児島県,薩摩川内市,西開聞町,カゴシマケン,サツマセンダイシ,ニシカイモンチョウ,鹿児島県薩摩川内市西開聞町
8950056,鹿児島県,薩摩川内市,宮里町,カゴシマケン,サツマセンダイシ,ミヤザトチョウ,鹿児島県薩摩川内市宮里町
8950061,鹿児島県,薩摩川内市,御陵下町,カゴシマケン,サツマセンダイシ,ゴリョウシタチョウ,鹿児島県薩摩川内市御陵下町
8950062,鹿児島県,薩摩川内市,大王町,カゴシマケン,サツマセンダイシ,ダイオウチョウ,鹿児島県薩摩川内市大王町
8950063,鹿児島県,薩摩川内市,若葉町,カゴシマケン,サツマセンダイシ,ワカバチョウ,鹿児島県薩摩川内市若葉町
8950064,鹿児島県,薩摩川内市,花木町,カゴシマケン,サツマセンダイシ,ハナキチョウ,鹿児島県薩摩川内市花木町
8950065,鹿児島県,薩摩川内市,宮内町,カゴシマケン,サツマセンダイシ,ミヤウチチョウ,鹿児島県薩摩川内市宮内町
8950066,鹿児島県,薩摩川内市,五代町,カゴシマケン,サツマセンダイシ,ゴダイチョウ,鹿児島県薩摩川内市五代町
8950067,鹿児島県,薩摩川内市,上川内町,カゴシマケン,サツマセンダイシ,カミセンダイチョウ,鹿児島県薩摩川内市上川内町
8950071,鹿児島県,薩摩川内市,田海町,カゴシマケン,サツマセンダイシ,タウミチョウ,鹿児島県薩摩川内市田海町
8950072,鹿児島県,薩摩川内市,中郷,カゴシマケン,サツマセンダイシ,チュウゴウ,鹿児島県薩摩川内市中郷
8950072,鹿児島県,薩摩川内市,中郷町,カゴシマケン,サツマセンダイシ,チュウゴウチョウ,鹿児島県薩摩川内市中郷町
8950073,鹿児島県,薩摩川内市,国分寺町,カゴシマケン,サツマセンダイシ,コクブンジチョウ,鹿児島県薩摩川内市国分寺町
8950074,鹿児島県,薩摩川内市,原田町,カゴシマケン,サツマセンダイシ,ハラダチョウ,鹿児島県薩摩川内市原田町
8950075,鹿児島県,薩摩川内市,東大小路町,カゴシマケン,サツマセンダイシ,ヒガシオオショウジチョウ,鹿児島県薩摩川内市東大小路町
8950076,鹿児島県,薩摩川内市,大小路町,カゴシマケン,サツマセンダイシ,オオショウジチョウ,鹿児島県薩摩川内市大小路町
8950077,鹿児島県,薩摩川内市,運動公園町（その他）,カゴシマケン,サツマセンダイシ,ウンドウコウエンチョウ(ソノタ),鹿児島県薩摩川内市運動公園町（その他）
8950131,鹿児島県,薩摩川内市,高江町,カゴシマケン,サツマセンダイシ,タカエチョウ,鹿児島県薩摩川内市高江町
8950132,鹿児島県,薩摩川内市,久見崎町,カゴシマケン,サツマセンダイシ,グミサキチョウ,鹿児島県薩摩川内市久見崎町
8950133,鹿児島県,薩摩川内市,寄田町,カゴシマケン,サツマセンダイシ,ヨリタチョウ,鹿児島県薩摩川内市寄田町
8950211,鹿児島県,薩摩川内市,高城町,カゴシマケン,サツマセンダイシ,タキチョウ,鹿児島県薩摩川内市高城町
8950212,鹿児島県,薩摩川内市,陽成町,カゴシマケン,サツマセンダイシ,ヨウゼイチョウ,鹿児島県薩摩川内市陽成町
8950213,鹿児島県,薩摩川内市,城上町,カゴシマケン,サツマセンダイシ,ジョウカミチョウ,鹿児島県薩摩川内市城上町
8950214,鹿児島県,薩摩川内市,運動公園町（３０３０番地）,カゴシマケン,サツマセンダイシ,ウンドウコウエンチョウ(3030バンチ),鹿児島県薩摩川内市運動公園町（3030-）
8951101,鹿児島県,薩摩川内市,東郷町宍野,カゴシマケン,サツマセンダイシ,トウゴウチョウシシノ,鹿児島県薩摩川内市東郷町宍野
8951102,鹿児島県,薩摩川内市,東郷町藤川,カゴシマケン,サツマセンダイシ,トウゴウチョウフジカワ,鹿児島県薩摩川内市東郷町藤川
8951103,鹿児島県,薩摩川内市,東郷町鳥丸,カゴシマケン,サツマセンダイシ,トウゴウチョウトリマル,鹿児島県薩摩川内市東郷町鳥丸
8951104,鹿児島県,薩摩川内市,東郷町山田,カゴシマケン,サツマセンダイシ,トウゴウチョウヤマダ,鹿児島県薩摩川内市東郷町山田
8951105,鹿児島県,薩摩川内市,東郷町南瀬,カゴシマケン,サツマセンダイシ,トウゴウチョウノウゼ,鹿児島県薩摩川内市東郷町南瀬
8951106,鹿児島県,薩摩川内市,東郷町斧渕,カゴシマケン,サツマセンダイシ,トウゴウチョウオノブチ,鹿児島県薩摩川内市東郷町斧渕
8951201,鹿児島県,薩摩川内市,樋脇町倉野,カゴシマケン,サツマセンダイシ,ヒワキチョウクラノ,鹿児島県薩摩川内市樋脇町倉野
8951202,鹿児島県,薩摩川内市,樋脇町塔之原,カゴシマケン,サツマセンダイシ,ヒワキチョウトウノハラ,鹿児島県薩摩川内市樋脇町塔之原
8951203,鹿児島県,薩摩川内市,樋脇町市比野,カゴシマケン,サツマセンダイシ,ヒワキチョウイチヒノ,鹿児島県薩摩川内市樋脇町市比野
8951401,鹿児島県,薩摩川内市,入来町副田,カゴシマケン,サツマセンダイシ,イリキチョウソエダ,鹿児島県薩摩川内市入来町副田
8951402,鹿児島県,薩摩川内市,入来町浦之名,カゴシマケン,サツマセンダイシ,イリキチョウウラノミョウ,鹿児島県薩摩川内市入来町浦之名
8951501,鹿児島県,薩摩川内市,祁答院町下手,カゴシマケン,サツマセンダイシ,ケドウインチョウシモデ,鹿児島県薩摩川内市祁答院町下手
8951502,鹿児島県,薩摩川内市,祁答院町藺牟田,カゴシマケン,サツマセンダイシ,ケドウインチョウイムタ,鹿児島県薩摩川内市祁答院町藺牟田
8951503,鹿児島県,薩摩川内市,祁答院町上手,カゴシマケン,サツマセンダイシ,ケドウインチョウカミデ,鹿児島県薩摩川内市祁答院町上手
8951504,鹿児島県,薩摩川内市,祁答院町黒木,カゴシマケン,サツマセンダイシ,ケドウインチョウクロキ,鹿児島県薩摩川内市祁答院町黒木
8951721,鹿児島県,薩摩郡さつま町,山崎,カゴシマケン,サツマグンサツマチョウ,ヤマサキ,鹿児島県薩摩郡さつま町山崎
8951722,鹿児島県,薩摩郡さつま町,久富木,カゴシマケン,サツマグンサツマチョウ,クブキ,鹿児島県薩摩郡さつま町久富木
8951723,鹿児島県,薩摩郡さつま町,二渡,カゴシマケン,サツマグンサツマチョウ,フタワタリ,鹿児島県薩摩郡さつま町二渡
8951800,鹿児島県,薩摩郡さつま町,,カゴシマケン,サツマグンサツマチョウ,,鹿児島県薩摩郡さつま町
8951801,鹿児島県,薩摩郡さつま町,広瀬,カゴシマケン,サツマグンサツマチョウ,ヒロセ,鹿児島県薩摩郡さつま町広瀬
8951802,鹿児島県,薩摩郡さつま町,田原,カゴシマケン,サツマグンサツマチョウ,タバル,鹿児島県薩摩郡さつま町田原
8951803,鹿児島県,薩摩郡さつま町,宮之城屋地,カゴシマケン,サツマグンサツマチョウ,ミヤノジョウヤチ,鹿児島県薩摩郡さつま町宮之城屋地
8951804,鹿児島県,薩摩郡さつま町,船木,カゴシマケン,サツマグンサツマチョウ,フナキ,鹿児島県薩摩郡さつま町船木
8951805,鹿児島県,薩摩郡さつま町,白男川,カゴシマケン,サツマグンサツマチョウ,シラオガワ,鹿児島県薩摩郡さつま町白男川
8951806,鹿児島県,薩摩郡さつま町,泊野,カゴシマケン,サツマグンサツマチョウ,トマリノ,鹿児島県薩摩郡さつま町泊野
8951807,鹿児島県,薩摩郡さつま町,平川,カゴシマケン,サツマグンサツマチョウ,ヒラカワ,鹿児島県薩摩郡さつま町平川
8951811,鹿児島県,薩摩郡さつま町,虎居,カゴシマケン,サツマグンサツマチョウ,トライ,鹿児島県薩摩郡さつま町虎居
8951812,鹿児島県,薩摩郡さつま町,虎居町,カゴシマケン,サツマグンサツマチョウ,トライマチ,鹿児島県薩摩郡さつま町虎居町
8951813,鹿児島県,薩摩郡さつま町,轟町,カゴシマケン,サツマグンサツマチョウ,トドロマチ,鹿児島県薩摩郡さつま町轟町
8951814,鹿児島県,薩摩郡さつま町,旭町,カゴシマケン,サツマグンサツマチョウ,アサヒマチ,鹿児島県薩摩郡さつま町旭町
8951815,鹿児島県,薩摩郡さつま町,西新町,カゴシマケン,サツマグンサツマチョウ,ニシシンマチ,鹿児島県薩摩郡さつま町西新町
8951816,鹿児島県,薩摩郡さつま町,時吉,カゴシマケン,サツマグンサツマチョウ,トキヨシ,鹿児島県薩摩郡さつま町時吉
8951817,鹿児島県,薩摩郡さつま町,湯田,カゴシマケン,サツマグンサツマチョウ,ユダ,鹿児島県薩摩郡さつま町湯田
8952101,鹿児島県,薩摩郡さつま町,鶴田,カゴシマケン,サツマグンサツマチョウ,ツルダ,鹿児島県薩摩郡さつま町鶴田
8952102,鹿児島県,薩摩郡さつま町,神子,カゴシマケン,サツマグンサツマチョウ,コウシ,鹿児島県薩摩郡さつま町神子
8952103,鹿児島県,薩摩郡さつま町,紫尾,カゴシマケン,サツマグンサツマチョウ,シビ,鹿児島県薩摩郡さつま町紫尾
8952104,鹿児島県,薩摩郡さつま町,柏原,カゴシマケン,サツマグンサツマチョウ,カシワバル,鹿児島県薩摩郡さつま町柏原
8952131,鹿児島県,薩摩郡さつま町,柊野,カゴシマケン,サツマグンサツマチョウ,クキノ,鹿児島県薩摩郡さつま町柊野
8952201,鹿児島県,薩摩郡さつま町,求名,カゴシマケン,サツマグンサツマチョウ,グミョウ,鹿児島県薩摩郡さつま町求名
8952202,鹿児島県,薩摩郡さつま町,中津川,カゴシマケン,サツマグンサツマチョウ,ナカツガワ,鹿児島県薩摩郡さつま町中津川
8952203,鹿児島県,薩摩郡さつま町,永野,カゴシマケン,サツマグンサツマチョウ,ナガノ,鹿児島県薩摩郡さつま町永野
8952441,鹿児島県,伊佐市,大口曽木,カゴシマケン,イサシ,オオクチソギ,鹿児島県伊佐市大口曽木
8952442,鹿児島県,伊佐市,大口針持,カゴシマケン,イサシ,オオクチハリモチ,鹿児島県伊佐市大口針持
8952500,鹿児島県,伊佐市,,カゴシマケン,イサシ,,鹿児島県伊佐市
8952501,鹿児島県,伊佐市,大口牛尾,カゴシマケン,イサシ,オオクチウシオ,鹿児島県伊佐市大口牛尾
8952502,鹿児島県,伊佐市,大口木ノ氏,カゴシマケン,イサシ,オオクチキノウジ,鹿児島県伊佐市大口木ノ氏
8952503,鹿児島県,伊佐市,大口篠原,カゴシマケン,イサシ,オオクチシノハラ,鹿児島県伊佐市大口篠原
8952504,鹿児島県,伊佐市,大口青木,カゴシマケン,イサシ,オオクチアオキ,鹿児島県伊佐市大口青木
8952505,鹿児島県,伊佐市,大口目丸,カゴシマケン,イサシ,オオクチメマル,鹿児島県伊佐市大口目丸
8952506,鹿児島県,伊佐市,大口原田,カゴシマケン,イサシ,オオクチハラダ,鹿児島県伊佐市大口原田
8952507,鹿児島県,伊佐市,大口大田,カゴシマケン,イサシ,オオクチオオタ,鹿児島県伊佐市大口大田
8952511,鹿児島県,伊佐市,大口里,カゴシマケン,イサシ,オオクチサト,鹿児島県伊佐市大口里
8952512,鹿児島県,伊佐市,大口元町,カゴシマケン,イサシ,オオクチモトマチ,鹿児島県伊佐市大口元町
8952513,鹿児島県,伊佐市,大口上町,カゴシマケン,イサシ,オオクチカミマチ,鹿児島県伊佐市大口上町
8952521,鹿児島県,伊佐市,大口鳥巣,カゴシマケン,イサシ,オオクチトリス,鹿児島県伊佐市大口鳥巣
8952522,鹿児島県,伊佐市,大口大島,カゴシマケン,イサシ,オオクチオオシマ,鹿児島県伊佐市大口大島
8952523,鹿児島県,伊佐市,大口金波田,カゴシマケン,イサシ,オオクチカナハダ,鹿児島県伊佐市大口金波田
8952524,鹿児島県,伊佐市,大口堂崎,カゴシマケン,イサシ,オオクチドウザキ,鹿児島県伊佐市大口堂崎
8952525,鹿児島県,伊佐市,大口下殿,カゴシマケン,イサシ,オオクチシモトノ,鹿児島県伊佐市大口下殿
8952526,鹿児島県,伊佐市,大口宮人,カゴシマケン,イサシ,オオクチミヤヒト,鹿児島県伊佐市大口宮人
8952527,鹿児島県,伊佐市,大口田代,カゴシマケン,イサシ,オオクチタシロ,鹿児島県伊佐市大口田代
8952528,鹿児島県,伊佐市,大口川岩瀬,カゴシマケン,イサシ,オオクチカワイワゼ,鹿児島県伊佐市大口川岩瀬
8952529,鹿児島県,伊佐市,大口白木,カゴシマケン,イサシ,オオクチシラキ,鹿児島県伊佐市大口白木
8952631,鹿児島県,伊佐市,大口小木原,カゴシマケン,イサシ,オオクチコギハラ,鹿児島県伊佐市大口小木原
8952632,鹿児島県,伊佐市,大口渕辺,カゴシマケン,イサシ,オオクチフチベ,鹿児島県伊佐市大口渕辺
8952633,鹿児島県,伊佐市,大口平出水,カゴシマケン,イサシ,オオクチヒライズミ,鹿児島県伊佐市大口平出水
8952634,鹿児島県,伊佐市,大口小川内,カゴシマケン,イサシ,オオクチコガワウチ,鹿児島県伊佐市大口小川内
8952635,鹿児島県,伊佐市,大口山野,カゴシマケン,イサシ,オオクチヤマノ,鹿児島県伊佐市大口山野
8952701,鹿児島県,伊佐市,菱刈前目,カゴシマケン,イサシ,ヒシカリマエメ,鹿児島県伊佐市菱刈前目
8952702,鹿児島県,伊佐市,菱刈下手,カゴシマケン,イサシ,ヒシカリシモデ,鹿児島県伊佐市菱刈下手
8952703,鹿児島県,伊佐市,菱刈花北,カゴシマケン,イサシ,ヒシカリハナキタ,鹿児島県伊佐市菱刈花北
8952704,鹿児島県,伊佐市,菱刈市山,カゴシマケン,イサシ,ヒシカリイチヤマ,鹿児島県伊佐市菱刈市山
8952705,鹿児島県,伊佐市,菱刈重留,カゴシマケン,イサシ,ヒシカリシゲトメ,鹿児島県伊佐市菱刈重留
8952706,鹿児島県,伊佐市,菱刈田中,カゴシマケン,イサシ,ヒシカリタナカ,鹿児島県伊佐市菱刈田中
8952707,鹿児島県,伊佐市,菱刈徳辺,カゴシマケン,イサシ,ヒシカリトクベ,鹿児島県伊佐市菱刈徳辺
8952708,鹿児島県,伊佐市,菱刈川北,カゴシマケン,イサシ,ヒシカリカワキタ,鹿児島県伊佐市菱刈川北
8952811,鹿児島県,伊佐市,菱刈荒田,カゴシマケン,イサシ,ヒシカリアラタ,鹿児島県伊佐市菱刈荒田
8952812,鹿児島県,伊佐市,菱刈川南,カゴシマケン,イサシ,ヒシカリカワミナミ,鹿児島県伊佐市菱刈川南
8952813,鹿児島県,伊佐市,菱刈南浦,カゴシマケン,イサシ,ヒシカリミナミウラ,鹿児島県伊佐市菱刈南浦
8960000,鹿児島県,いちき串木野市,,カゴシマケン,イチキクシキノシ,,鹿児島県いちき串木野市
8960001,鹿児島県,いちき串木野市,曙町,カゴシマケン,イチキクシキノシ,アケボノチョウ,鹿児島県いちき串木野市曙町
8960002,鹿児島県,いちき串木野市,春日町,カゴシマケン,イチキクシキノシ,カスガチョウ,鹿児島県いちき串木野市春日町
8960003,鹿児島県,いちき串木野市,京町,カゴシマケン,イチキクシキノシ,キョウマチ,鹿児島県いちき串木野市京町
8960004,鹿児島県,いちき串木野市,汐見町,カゴシマケン,イチキクシキノシ,シオミチョウ,鹿児島県いちき串木野市汐見町
8960005,鹿児島県,いちき串木野市,西塩田町,カゴシマケン,イチキクシキノシ,ニシエンデンチョウ,鹿児島県いちき串木野市西塩田町
8960006,鹿児島県,いちき串木野市,東塩田町,カゴシマケン,イチキクシキノシ,ヒガシエンデンチョウ,鹿児島県いちき串木野市東塩田町
8960011,鹿児島県,いちき串木野市,大原町,カゴシマケン,イチキクシキノシ,オオハルマチ,鹿児島県いちき串木野市大原町
8960012,鹿児島県,いちき串木野市,中尾町,カゴシマケン,イチキクシキノシ,ナカオチョウ,鹿児島県いちき串木野市中尾町
8960013,鹿児島県,いちき串木野市,栄町,カゴシマケン,イチキクシキノシ,サカエマチ,鹿児島県いちき串木野市栄町
8960014,鹿児島県,いちき串木野市,元町,カゴシマケン,イチキクシキノシ,モトマチ,鹿児島県いちき串木野市元町
8960015,鹿児島県,いちき串木野市,旭町,カゴシマケン,イチキクシキノシ,アサヒマチ,鹿児島県いちき串木野市旭町
8960016,鹿児島県,いちき串木野市,桜町,カゴシマケン,イチキクシキノシ,サクラマチ,鹿児島県いちき串木野市桜町
8960017,鹿児島県,いちき串木野市,高見町,カゴシマケン,イチキクシキノシ,タカミチョウ,鹿児島県いちき串木野市高見町
8960021,鹿児島県,いちき串木野市,住吉町,カゴシマケン,イチキクシキノシ,スミヨシチョウ,鹿児島県いちき串木野市住吉町
8960022,鹿児島県,いちき串木野市,緑町,カゴシマケン,イチキクシキノシ,ミドリマチ,鹿児島県いちき串木野市緑町
8960023,鹿児島県,いちき串木野市,塩屋町,カゴシマケン,イチキクシキノシ,シオヤチョウ,鹿児島県いちき串木野市塩屋町
8960024,鹿児島県,いちき串木野市,美住町,カゴシマケン,イチキクシキノシ,ミスミチョウ,鹿児島県いちき串木野市美住町
8960025,鹿児島県,いちき串木野市,御倉町,カゴシマケン,イチキクシキノシ,オクラチョウ,鹿児島県いちき串木野市御倉町
8960026,鹿児島県,いちき串木野市,昭和通,カゴシマケン,イチキクシキノシ,ショウワドオリ,鹿児島県いちき串木野市昭和通
8960027,鹿児島県,いちき串木野市,恵比須町,カゴシマケン,イチキクシキノシ,エビスチョウ,鹿児島県いちき串木野市恵比須町
8960028,鹿児島県,いちき串木野市,ひばりが丘,カゴシマケン,イチキクシキノシ,ヒバリガオカ,鹿児島県いちき串木野市ひばりが丘
8960031,鹿児島県,いちき串木野市,東島平町,カゴシマケン,イチキクシキノシ,ヒガシシマビラチョウ,鹿児島県いちき串木野市東島平町
8960032,鹿児島県,いちき串木野市,西島平町,カゴシマケン,イチキクシキノシ,ニシシマビラチョウ,鹿児島県いちき串木野市西島平町
8960033,鹿児島県,いちき串木野市,長崎町,カゴシマケン,イチキクシキノシ,ナガサキチョウ,鹿児島県いちき串木野市長崎町
8960034,鹿児島県,いちき串木野市,小瀬町,カゴシマケン,イチキクシキノシ,コゼチョウ,鹿児島県いちき串木野市小瀬町
8960035,鹿児島県,いちき串木野市,新生町,カゴシマケン,イチキクシキノシ,シンセイチョウ,鹿児島県いちき串木野市新生町
8960036,鹿児島県,いちき串木野市,浦和町,カゴシマケン,イチキクシキノシ,ウラワチョウ,鹿児島県いちき串木野市浦和町
8960037,鹿児島県,いちき串木野市,別府,カゴシマケン,イチキクシキノシ,ベップ,鹿児島県いちき串木野市別府
8960041,鹿児島県,いちき串木野市,北浜町,カゴシマケン,イチキクシキノシ,キタハマチョウ,鹿児島県いちき串木野市北浜町
8960042,鹿児島県,いちき串木野市,本浜町,カゴシマケン,イチキクシキノシ,モトハマチョウ,鹿児島県いちき串木野市本浜町
8960043,鹿児島県,いちき串木野市,港町,カゴシマケン,イチキクシキノシ,ミナトマチ,鹿児島県いちき串木野市港町
8960044,鹿児島県,いちき串木野市,西浜町,カゴシマケン,イチキクシキノシ,ニシハマチョウ,鹿児島県いちき串木野市西浜町
8960045,鹿児島県,いちき串木野市,まぐろ本町,カゴシマケン,イチキクシキノシ,マグロホンマチ,鹿児島県いちき串木野市まぐろ本町
8960046,鹿児島県,いちき串木野市,西薩町,カゴシマケン,イチキクシキノシ,セイサツチョウ,鹿児島県いちき串木野市西薩町
8960051,鹿児島県,いちき串木野市,冠嶽,カゴシマケン,イチキクシキノシ,カンムリダケ,鹿児島県いちき串木野市冠嶽
8960052,鹿児島県,いちき串木野市,上名,カゴシマケン,イチキクシキノシ,カンミョウ,鹿児島県いちき串木野市上名
8960054,鹿児島県,いちき串木野市,日出町,カゴシマケン,イチキクシキノシ,ヒノデチョウ,鹿児島県いちき串木野市日出町
8960055,鹿児島県,いちき串木野市,照島,カゴシマケン,イチキクシキノシ,テルシマ,鹿児島県いちき串木野市照島
8960056,鹿児島県,いちき串木野市,八房,カゴシマケン,イチキクシキノシ,ヤフサ,鹿児島県いちき串木野市八房
8960057,鹿児島県,いちき串木野市,海瀬,カゴシマケン,イチキクシキノシ,カイゼ,鹿児島県いちき串木野市海瀬
8960058,鹿児島県,いちき串木野市,袴田,カゴシマケン,イチキクシキノシ,ハカマダ,鹿児島県いちき串木野市袴田
8960061,鹿児島県,いちき串木野市,愛木町,カゴシマケン,イチキクシキノシ,アイギチョウ,鹿児島県いちき串木野市愛木町
8960062,鹿児島県,いちき串木野市,浜田町,カゴシマケン,イチキクシキノシ,ハマダチョウ,鹿児島県いちき串木野市浜田町
8960063,鹿児島県,いちき串木野市,口之町,カゴシマケン,イチキクシキノシ,クチノマチ,鹿児島県いちき串木野市口之町
8960064,鹿児島県,いちき串木野市,羽島,カゴシマケン,イチキクシキノシ,ハシマ,鹿児島県いちき串木野市羽島
8960065,鹿児島県,いちき串木野市,荒川,カゴシマケン,イチキクシキノシ,アラカワ,鹿児島県いちき串木野市荒川
8960066,鹿児島県,いちき串木野市,野元,カゴシマケン,イチキクシキノシ,ノモト,鹿児島県いちき串木野市野元
8960067,鹿児島県,いちき串木野市,平江,カゴシマケン,イチキクシキノシ,ヒラエ,鹿児島県いちき串木野市平江
8960068,鹿児島県,いちき串木野市,三井,カゴシマケン,イチキクシキノシ,ミツイ,鹿児島県いちき串木野市三井
8960069,鹿児島県,いちき串木野市,浜ケ城,カゴシマケン,イチキクシキノシ,ハマガジョウ,鹿児島県いちき串木野市浜ケ城
8960071,鹿児島県,いちき串木野市,深田上,カゴシマケン,イチキクシキノシ,フカタカミ,鹿児島県いちき串木野市深田上
8960072,鹿児島県,いちき串木野市,薩摩山,カゴシマケン,イチキクシキノシ,サツマヤマ,鹿児島県いちき串木野市薩摩山
8960073,鹿児島県,いちき串木野市,野下,カゴシマケン,イチキクシキノシ,ノシタ,鹿児島県いちき串木野市野下
8960074,鹿児島県,いちき串木野市,金山下,カゴシマケン,イチキクシキノシ,キンザンシモ,鹿児島県いちき串木野市金山下
8960075,鹿児島県,いちき串木野市,金山,カゴシマケン,イチキクシキノシ,キンザン,鹿児島県いちき串木野市金山
8960076,鹿児島県,いちき串木野市,芹ケ野,カゴシマケン,イチキクシキノシ,セリガノ,鹿児島県いちき串木野市芹ケ野
8960077,鹿児島県,いちき串木野市,深田下,カゴシマケン,イチキクシキノシ,フカタシモ,鹿児島県いちき串木野市深田下
8960078,鹿児島県,いちき串木野市,生福,カゴシマケン,イチキクシキノシ,セイフク,鹿児島県いちき串木野市生福
8960079,鹿児島県,いちき串木野市,河内,カゴシマケン,イチキクシキノシ,カワウチ,鹿児島県いちき串木野市河内
8961101,鹿児島県,薩摩川内市,里町里,カゴシマケン,サツマセンダイシ,サトチョウサト,鹿児島県薩摩川内市里町里
8961201,鹿児島県,薩摩川内市,上甑町中甑,カゴシマケン,サツマセンダイシ,カミコシキチョウナカコシキ,鹿児島県薩摩川内市上甑町中甑
8961202,鹿児島県,薩摩川内市,上甑町中野,カゴシマケン,サツマセンダイシ,カミコシキチョウナカノ,鹿児島県薩摩川内市上甑町中野
8961203,鹿児島県,薩摩川内市,上甑町江石,カゴシマケン,サツマセンダイシ,カミコシキチョウエイシ,鹿児島県薩摩川内市上甑町江石
8961204,鹿児島県,薩摩川内市,上甑町小島,カゴシマケン,サツマセンダイシ,カミコシキチョウオシマ,鹿児島県薩摩川内市上甑町小島
8961205,鹿児島県,薩摩川内市,上甑町瀬上,カゴシマケン,サツマセンダイシ,カミコシキチョウセガミ,鹿児島県薩摩川内市上甑町瀬上
8961206,鹿児島県,薩摩川内市,上甑町桑之浦,カゴシマケン,サツマセンダイシ,カミコシキチョウクワノウラ,鹿児島県薩摩川内市上甑町桑之浦
8961281,鹿児島県,薩摩川内市,上甑町平良,カゴシマケン,サツマセンダイシ,カミコシキチョウタイラ,鹿児島県薩摩川内市上甑町平良
8961301,鹿児島県,薩摩川内市,鹿島町藺牟田,カゴシマケン,サツマセンダイシ,カシマチョウイムタ,鹿児島県薩摩川内市鹿島町藺牟田
8961411,鹿児島県,薩摩川内市,下甑町長浜,カゴシマケン,サツマセンダイシ,シモコシキチョウナガハマ,鹿児島県薩摩川内市下甑町長浜
8961412,鹿児島県,薩摩川内市,下甑町瀬々野浦（１７００番地〜、内川内）,カゴシマケン,サツマセンダイシ,シモコシキチョウセセノウラ(1700バンチ-、ウチカワウチ),鹿児島県薩摩川内市下甑町瀬々野浦（1700-〜、内川内）
8961512,鹿児島県,薩摩川内市,下甑町瀬々野浦（その他）,カゴシマケン,サツマセンダイシ,シモコシキチョウセセノウラ(ソノタ),鹿児島県薩摩川内市下甑町瀬々野浦（その他）
8961521,鹿児島県,薩摩川内市,下甑町青瀬,カゴシマケン,サツマセンダイシ,シモコシキチョウアオセ,鹿児島県薩摩川内市下甑町青瀬
8961601,鹿児島県,薩摩川内市,下甑町手打,カゴシマケン,サツマセンダイシ,シモコシキチョウテウチ,鹿児島県薩摩川内市下甑町手打
8961602,鹿児島県,薩摩川内市,下甑町片野浦,カゴシマケン,サツマセンダイシ,シモコシキチョウカタノウラ,鹿児島県薩摩川内市下甑町片野浦
8970000,鹿児島県,南さつま市,,カゴシマケン,ミナミサツマシ,,鹿児島県南さつま市
8970001,鹿児島県,南さつま市,加世田村原,カゴシマケン,ミナミサツマシ,カセダムラハラ,鹿児島県南さつま市加世田村原
8970002,鹿児島県,南さつま市,加世田武田,カゴシマケン,ミナミサツマシ,カセダタケダ,鹿児島県南さつま市加世田武田
8970003,鹿児島県,南さつま市,加世田川畑,カゴシマケン,ミナミサツマシ,カセダカワバタ,鹿児島県南さつま市加世田川畑
8970004,鹿児島県,南さつま市,加世田内山田,カゴシマケン,ミナミサツマシ,カセダウチヤマダ,鹿児島県南さつま市加世田内山田
8970005,鹿児島県,南さつま市,加世田麓町,カゴシマケン,ミナミサツマシ,カセダフモトチョウ,鹿児島県南さつま市加世田麓町
8970006,鹿児島県,南さつま市,加世田本町,カゴシマケン,ミナミサツマシ,カセダホンチョウ,鹿児島県南さつま市加世田本町
8970007,鹿児島県,南さつま市,加世田白亀,カゴシマケン,ミナミサツマシ,カセダシラカメ,鹿児島県南さつま市加世田白亀
8970008,鹿児島県,南さつま市,加世田地頭所,カゴシマケン,ミナミサツマシ,カセダジトウショ,鹿児島県南さつま市加世田地頭所
8970009,鹿児島県,南さつま市,加世田ハーモニー,カゴシマケン,ミナミサツマシ,カセダハーモニー,鹿児島県南さつま市加世田ハーモニー
8970031,鹿児島県,南さつま市,加世田東本町,カゴシマケン,ミナミサツマシ,カセダヒガシホンチョウ,鹿児島県南さつま市加世田東本町
8970131,鹿児島県,南九州市,川辺町上山田,カゴシマケン,ミナミキュウシュウシ,カワナベチョウカミヤマダ,鹿児島県南九州市川辺町上山田
8970132,鹿児島県,南九州市,川辺町中山田,カゴシマケン,ミナミキュウシュウシ,カワナベチョウナカヤマダ,鹿児島県南九州市川辺町中山田
8970133,鹿児島県,南九州市,川辺町下山田,カゴシマケン,ミナミキュウシュウシ,カワナベチョウシモヤマダ,鹿児島県南九州市川辺町下山田
8970200,鹿児島県,南九州市,,カゴシマケン,ミナミキュウシュウシ,,鹿児島県南九州市
8970201,鹿児島県,南九州市,川辺町神殿,カゴシマケン,ミナミキュウシュウシ,カワナベチョウコウドノ,鹿児島県南九州市川辺町神殿
8970202,鹿児島県,南九州市,川辺町清水,カゴシマケン,ミナミキュウシュウシ,カワナベチョウキヨミズ,鹿児島県南九州市川辺町清水
8970203,鹿児島県,南九州市,川辺町野崎,カゴシマケン,ミナミキュウシュウシ,カワナベチョウノサキ,鹿児島県南九州市川辺町野崎
8970204,鹿児島県,南九州市,川辺町古殿,カゴシマケン,ミナミキュウシュウシ,カワナベチョウフルトノ,鹿児島県南九州市川辺町古殿
8970205,鹿児島県,南九州市,川辺町野間,カゴシマケン,ミナミキュウシュウシ,カワナベチョウノマ,鹿児島県南九州市川辺町野間
8970211,鹿児島県,南九州市,川辺町両添,カゴシマケン,ミナミキュウシュウシ,カワナベチョウリョウゾエ,鹿児島県南九州市川辺町両添
8970212,鹿児島県,南九州市,川辺町今田,カゴシマケン,ミナミキュウシュウシ,カワナベチョウイマダ,鹿児島県南九州市川辺町今田
8970213,鹿児島県,南九州市,川辺町小野,カゴシマケン,ミナミキュウシュウシ,カワナベチョウオノ,鹿児島県南九州市川辺町小野
8970214,鹿児島県,南九州市,川辺町宮,カゴシマケン,ミナミキュウシュウシ,カワナベチョウミヤ,鹿児島県南九州市川辺町宮
8970215,鹿児島県,南九州市,川辺町平山,カゴシマケン,ミナミキュウシュウシ,カワナベチョウヒラヤマ,鹿児島県南九州市川辺町平山
8970221,鹿児島県,南九州市,川辺町田部田,カゴシマケン,ミナミキュウシュウシ,カワナベチョウタベタ,鹿児島県南九州市川辺町田部田
8970222,鹿児島県,南九州市,川辺町永田,カゴシマケン,ミナミキュウシュウシ,カワナベチョウナガタ,鹿児島県南九州市川辺町永田
8970223,鹿児島県,南九州市,川辺町高田,カゴシマケン,ミナミキュウシュウシ,カワナベチョウタカタ,鹿児島県南九州市川辺町高田
8970224,鹿児島県,南九州市,川辺町本別府,カゴシマケン,ミナミキュウシュウシ,カワナベチョウモトベップ,鹿児島県南九州市川辺町本別府
8970301,鹿児島県,南九州市,知覧町厚地,カゴシマケン,ミナミキュウシュウシ,チランチョウアツチ,鹿児島県南九州市知覧町厚地
8970302,鹿児島県,南九州市,知覧町郡,カゴシマケン,ミナミキュウシュウシ,チランチョウコオリ,鹿児島県南九州市知覧町郡
8970303,鹿児島県,南九州市,知覧町永里,カゴシマケン,ミナミキュウシュウシ,チランチョウナガサト,鹿児島県南九州市知覧町永里
8970304,鹿児島県,南九州市,知覧町東別府,カゴシマケン,ミナミキュウシュウシ,チランチョウヒガシベップ,鹿児島県南九州市知覧町東別府
8970305,鹿児島県,南九州市,知覧町瀬世,カゴシマケン,ミナミキュウシュウシ,チランチョウセセ,鹿児島県南九州市知覧町瀬世
8970306,鹿児島県,南九州市,知覧町西元,カゴシマケン,ミナミキュウシュウシ,チランチョウニシモト,鹿児島県南九州市知覧町西元
8971121,鹿児島県,南さつま市,加世田唐仁原,カゴシマケン,ミナミサツマシ,カセダトウジンバラ,鹿児島県南さつま市加世田唐仁原
8971122,鹿児島県,南さつま市,加世田小湊,カゴシマケン,ミナミサツマシ,カセダコミナト,鹿児島県南さつま市加世田小湊
8971123,鹿児島県,南さつま市,加世田高橋,カゴシマケン,ミナミサツマシ,カセダタカハシ,鹿児島県南さつま市加世田高橋
8971124,鹿児島県,南さつま市,加世田宮原,カゴシマケン,ミナミサツマシ,カセダミヤバラ,鹿児島県南さつま市加世田宮原
8971125,鹿児島県,南さつま市,加世田益山,カゴシマケン,ミナミサツマシ,カセダマスヤマ,鹿児島県南さつま市加世田益山
8971201,鹿児島県,南さつま市,大浦町（その他）,カゴシマケン,ミナミサツマシ,オオウラチョウ(ソノタ),鹿児島県南さつま市大浦町（その他）
8971301,鹿児島県,南さつま市,笠沙町片浦,カゴシマケン,ミナミサツマシ,カササチョウカタウラ,鹿児島県南さつま市笠沙町片浦
8971302,鹿児島県,南さつま市,笠沙町赤生木,カゴシマケン,ミナミサツマシ,カササチョウアコウギ,鹿児島県南さつま市笠沙町赤生木
8980000,鹿児島県,枕崎市,,カゴシマケン,マクラザキシ,,鹿児島県枕崎市
8980001,鹿児島県,枕崎市,松之尾町,カゴシマケン,マクラザキシ,マツノオチョウ,鹿児島県枕崎市松之尾町
8980002,鹿児島県,枕崎市,汐見町,カゴシマケン,マクラザキシ,シオミチョウ,鹿児島県枕崎市汐見町
8980003,鹿児島県,枕崎市,折口町,カゴシマケン,マクラザキシ,オリグチチョウ,鹿児島県枕崎市折口町
8980004,鹿児島県,枕崎市,港町,カゴシマケン,マクラザキシ,ミナトマチ,鹿児島県枕崎市港町
8980005,鹿児島県,枕崎市,中町,カゴシマケン,マクラザキシ,ナカマチ,鹿児島県枕崎市中町
8980006,鹿児島県,枕崎市,泉町,カゴシマケン,マクラザキシ,イズミマチ,鹿児島県枕崎市泉町
8980007,鹿児島県,枕崎市,新町,カゴシマケン,マクラザキシ,シンマチ,鹿児島県枕崎市新町
8980008,鹿児島県,枕崎市,旭町,カゴシマケン,マクラザキシ,アサヒマチ,鹿児島県枕崎市旭町
8980009,鹿児島県,枕崎市,恵比須町,カゴシマケン,マクラザキシ,エビスチョウ,鹿児島県枕崎市恵比須町
8980011,鹿児島県,枕崎市,緑町,カゴシマケン,マクラザキシ,ミドリマチ,鹿児島県枕崎市緑町
8980012,鹿児島県,枕崎市,千代田町,カゴシマケン,マクラザキシ,チヨダチョウ,鹿児島県枕崎市千代田町
8980013,鹿児島県,枕崎市,山手町,カゴシマケン,マクラザキシ,ヤマテチョウ,鹿児島県枕崎市山手町
8980014,鹿児島県,枕崎市,東本町,カゴシマケン,マクラザキシ,ヒガシホンマチ,鹿児島県枕崎市東本町
8980015,鹿児島県,枕崎市,西本町,カゴシマケン,マクラザキシ,ニシホンマチ,鹿児島県枕崎市西本町
8980016,鹿児島県,枕崎市,高見町,カゴシマケン,マクラザキシ,タカミチョウ,鹿児島県枕崎市高見町
8980017,鹿児島県,枕崎市,住吉町,カゴシマケン,マクラザキシ,スミヨシチョウ,鹿児島県枕崎市住吉町
8980018,鹿児島県,枕崎市,桜木町,カゴシマケン,マクラザキシ,サクラギチョウ,鹿児島県枕崎市桜木町
8980021,鹿児島県,枕崎市,東鹿篭,カゴシマケン,マクラザキシ,ヒガシカゴ,鹿児島県枕崎市東鹿篭
8980022,鹿児島県,枕崎市,宮田町,カゴシマケン,マクラザキシ,ミヤタチョウ,鹿児島県枕崎市宮田町
8980023,鹿児島県,枕崎市,若葉町,カゴシマケン,マクラザキシ,ワカバチョウ,鹿児島県枕崎市若葉町
8980024,鹿児島県,枕崎市,西鹿篭,カゴシマケン,マクラザキシ,ニシカゴ,鹿児島県枕崎市西鹿篭
8980025,鹿児島県,枕崎市,立神本町,カゴシマケン,マクラザキシ,タテガミホンマチ,鹿児島県枕崎市立神本町
8980026,鹿児島県,枕崎市,大塚北町,カゴシマケン,マクラザキシ,オオツカキタマチ,鹿児島県枕崎市大塚北町
8980027,鹿児島県,枕崎市,大塚西町,カゴシマケン,マクラザキシ,オオツカニシマチ,鹿児島県枕崎市大塚西町
8980028,鹿児島県,枕崎市,大塚中町,カゴシマケン,マクラザキシ,オオツカナカマチ,鹿児島県枕崎市大塚中町
8980029,鹿児島県,枕崎市,大塚南町,カゴシマケン,マクラザキシ,オオツカミナミマチ,鹿児島県枕崎市大塚南町
8980031,鹿児島県,枕崎市,枕崎,カゴシマケン,マクラザキシ,マクラザキ,鹿児島県枕崎市枕崎
8980032,鹿児島県,枕崎市,別府,カゴシマケン,マクラザキシ,ベップ,鹿児島県枕崎市別府
8980033,鹿児島県,枕崎市,宮前町,カゴシマケン,マクラザキシ,ミヤマエチョウ,鹿児島県枕崎市宮前町
8980034,鹿児島県,枕崎市,日之出町,カゴシマケン,マクラザキシ,ヒノデチョウ,鹿児島県枕崎市日之出町
8980035,鹿児島県,枕崎市,平田町,カゴシマケン,マクラザキシ,ヒラタマチ,鹿児島県枕崎市平田町
8980036,鹿児島県,枕崎市,明和町,カゴシマケン,マクラザキシ,メイワチョウ,鹿児島県枕崎市明和町
8980037,鹿児島県,枕崎市,栄本町,カゴシマケン,マクラザキシ,サカエホンマチ,鹿児島県枕崎市栄本町
8980038,鹿児島県,枕崎市,栄中町,カゴシマケン,マクラザキシ,サカエナカマチ,鹿児島県枕崎市栄中町
8980041,鹿児島県,枕崎市,塩屋北町,カゴシマケン,マクラザキシ,シオヤキタマチ,鹿児島県枕崎市塩屋北町
8980042,鹿児島県,枕崎市,塩屋南町,カゴシマケン,マクラザキシ,シオヤミナミマチ,鹿児島県枕崎市塩屋南町
8980043,鹿児島県,枕崎市,火之神北町,カゴシマケン,マクラザキシ,ヒノカミキタマチ,鹿児島県枕崎市火之神北町
8980044,鹿児島県,枕崎市,春日町,カゴシマケン,マクラザキシ,カスガチョウ,鹿児島県枕崎市春日町
8980045,鹿児島県,枕崎市,立神北町,カゴシマケン,マクラザキシ,タテガミキタマチ,鹿児島県枕崎市立神北町
8980046,鹿児島県,枕崎市,園見本町,カゴシマケン,マクラザキシ,ソノミホンマチ,鹿児島県枕崎市園見本町
8980047,鹿児島県,枕崎市,園見西町,カゴシマケン,マクラザキシ,ソノミニシマチ,鹿児島県枕崎市園見西町
8980048,鹿児島県,枕崎市,火之神町,カゴシマケン,マクラザキシ,ヒノカミチョウ,鹿児島県枕崎市火之神町
8980049,鹿児島県,枕崎市,火之神岬町,カゴシマケン,マクラザキシ,ヒノカミミサキチョウ,鹿児島県枕崎市火之神岬町
8980051,鹿児島県,枕崎市,中央町,カゴシマケン,マクラザキシ,チュウオウチョウ,鹿児島県枕崎市中央町
8980052,鹿児島県,枕崎市,岩崎町,カゴシマケン,マクラザキシ,イワサキチョウ,鹿児島県枕崎市岩崎町
8980053,鹿児島県,枕崎市,木場町,カゴシマケン,マクラザキシ,コバチョウ,鹿児島県枕崎市木場町
8980054,鹿児島県,枕崎市,鹿篭麓町,カゴシマケン,マクラザキシ,カゴフモトマチ,鹿児島県枕崎市鹿篭麓町
8980055,鹿児島県,枕崎市,桜山西町,カゴシマケン,マクラザキシ,サクラヤマニシマチ,鹿児島県枕崎市桜山西町
8980056,鹿児島県,枕崎市,美原町,カゴシマケン,マクラザキシ,ミハラマチ,鹿児島県枕崎市美原町
8980057,鹿児島県,枕崎市,木原町,カゴシマケン,マクラザキシ,キハラチョウ,鹿児島県枕崎市木原町
8980058,鹿児島県,枕崎市,岩戸町,カゴシマケン,マクラザキシ,イワドチョウ,鹿児島県枕崎市岩戸町
8980061,鹿児島県,枕崎市,桜山町,カゴシマケン,マクラザキシ,サクラヤマチョウ,鹿児島県枕崎市桜山町
8980062,鹿児島県,枕崎市,寿町,カゴシマケン,マクラザキシ,コトブキチョウ,鹿児島県枕崎市寿町
8980063,鹿児島県,枕崎市,妙見町,カゴシマケン,マクラザキシ,ミョウケンマチ,鹿児島県枕崎市妙見町
8980064,鹿児島県,枕崎市,桜山本町,カゴシマケン,マクラザキシ,サクラヤマホンマチ,鹿児島県枕崎市桜山本町
8980065,鹿児島県,枕崎市,桜山東町,カゴシマケン,マクラザキシ,サクラヤマヒガシマチ,鹿児島県枕崎市桜山東町
8980066,鹿児島県,枕崎市,清水町,カゴシマケン,マクラザキシ,キヨミズマチ,鹿児島県枕崎市清水町
8980071,鹿児島県,枕崎市,美山町,カゴシマケン,マクラザキシ,ミヤマチョウ,鹿児島県枕崎市美山町
8980072,鹿児島県,枕崎市,道野町,カゴシマケン,マクラザキシ,ミチノチョウ,鹿児島県枕崎市道野町
8980073,鹿児島県,枕崎市,桜山上町,カゴシマケン,マクラザキシ,サクラヤマカミマチ,鹿児島県枕崎市桜山上町
8980074,鹿児島県,枕崎市,金山西町,カゴシマケン,マクラザキシ,キンザンニシマチ,鹿児島県枕崎市金山西町
8980075,鹿児島県,枕崎市,田布川町,カゴシマケン,マクラザキシ,タブガワチョウ,鹿児島県枕崎市田布川町
8980076,鹿児島県,枕崎市,金山町,カゴシマケン,マクラザキシ,キンザンチョウ,鹿児島県枕崎市金山町
8980080,鹿児島県,枕崎市,あけぼの町,カゴシマケン,マクラザキシ,アケボノチョウ,鹿児島県枕崎市あけぼの町
8980081,鹿児島県,枕崎市,豊留町,カゴシマケン,マクラザキシ,トヨトメマチ,鹿児島県枕崎市豊留町
8980082,鹿児島県,枕崎市,板敷本町,カゴシマケン,マクラザキシ,イタシキホンマチ,鹿児島県枕崎市板敷本町
8980083,鹿児島県,枕崎市,板敷南町,カゴシマケン,マクラザキシ,イタシキミナミマチ,鹿児島県枕崎市板敷南町
8980084,鹿児島県,枕崎市,板敷西町,カゴシマケン,マクラザキシ,イタシキニシマチ,鹿児島県枕崎市板敷西町
8980085,鹿児島県,枕崎市,別府東町,カゴシマケン,マクラザキシ,ベップヒガシマチ,鹿児島県枕崎市別府東町
8980086,鹿児島県,枕崎市,別府西町,カゴシマケン,マクラザキシ,ベップニシマチ,鹿児島県枕崎市別府西町
8980087,鹿児島県,枕崎市,瀬戸町,カゴシマケン,マクラザキシ,セトチョウ,鹿児島県枕崎市瀬戸町
8980088,鹿児島県,枕崎市,国見町,カゴシマケン,マクラザキシ,クニミチョウ,鹿児島県枕崎市国見町
8980089,鹿児島県,枕崎市,白沢北町,カゴシマケン,マクラザキシ,シラサワキタマチ,鹿児島県枕崎市白沢北町
8980091,鹿児島県,枕崎市,白沢東町,カゴシマケン,マクラザキシ,シラサワヒガシマチ,鹿児島県枕崎市白沢東町
8980092,鹿児島県,枕崎市,白沢西町,カゴシマケン,マクラザキシ,シラサワニシマチ,鹿児島県枕崎市白沢西町
8980093,鹿児島県,枕崎市,仁田浦町,カゴシマケン,マクラザキシ,ニタウラチョウ,鹿児島県枕崎市仁田浦町
8980094,鹿児島県,枕崎市,駒水町,カゴシマケン,マクラザキシ,コマミズチョウ,鹿児島県枕崎市駒水町
8980095,鹿児島県,枕崎市,下松町,カゴシマケン,マクラザキシ,シモマツチョウ,鹿児島県枕崎市下松町
8980096,鹿児島県,枕崎市,まかや町,カゴシマケン,マクラザキシ,マカヤマチ,鹿児島県枕崎市まかや町
8980097,鹿児島県,枕崎市,里町,カゴシマケン,マクラザキシ,サトマチ,鹿児島県枕崎市里町
8980098,鹿児島県,枕崎市,茅野町,カゴシマケン,マクラザキシ,カヤノチョウ,鹿児島県枕崎市茅野町
8980099,鹿児島県,枕崎市,小塚町,カゴシマケン,マクラザキシ,コツカチョウ,鹿児島県枕崎市小塚町
8980101,鹿児島県,南さつま市,坊津町坊,カゴシマケン,ミナミサツマシ,ボウノツチョウボウ,鹿児島県南さつま市坊津町坊
8980102,鹿児島県,南さつま市,坊津町泊,カゴシマケン,ミナミサツマシ,ボウノツチョウトマリ,鹿児島県南さつま市坊津町泊
8980211,鹿児島県,南さつま市,坊津町久志,カゴシマケン,ミナミサツマシ,ボウノツチョウクシ,鹿児島県南さつま市坊津町久志
8980212,鹿児島県,南さつま市,坊津町秋目,カゴシマケン,ミナミサツマシ,ボウノツチョウアキメ,鹿児島県南さつま市坊津町秋目
8980221,鹿児島県,南さつま市,大浦町（４７１３〜５２７７番地）,カゴシマケン,ミナミサツマシ,オオウラチョウ(4713-5277バンチ),鹿児島県南さつま市大浦町（4713〜5277-）
8990121,鹿児島県,出水市,米ノ津町,カゴシマケン,イズミシ,コメノツマチ,鹿児島県出水市米ノ津町
8990122,鹿児島県,出水市,境町,カゴシマケン,イズミシ,サカイチョウ,鹿児島県出水市境町
8990123,鹿児島県,出水市,下鯖町,カゴシマケン,イズミシ,シモサバチョウ,鹿児島県出水市下鯖町
8990124,鹿児島県,出水市,美原町,カゴシマケン,イズミシ,ミハラチョウ,鹿児島県出水市美原町
8990125,鹿児島県,出水市,黄金町,カゴシマケン,イズミシ,コガネマチ,鹿児島県出水市黄金町
8990126,鹿児島県,出水市,六月田町,カゴシマケン,イズミシ,ロクガツダマチ,鹿児島県出水市六月田町
8990131,鹿児島県,出水市,明神町,カゴシマケン,イズミシ,ミョウジンチョウ,鹿児島県出水市明神町
8990132,鹿児島県,出水市,下知識町,カゴシマケン,イズミシ,シモチシキチョウ,鹿児島県出水市下知識町
8990133,鹿児島県,出水市,福ノ江町,カゴシマケン,イズミシ,フクノエチョウ,鹿児島県出水市福ノ江町
8990134,鹿児島県,出水市,浦田町,カゴシマケン,イズミシ,ウラタチョウ,鹿児島県出水市浦田町
8990136,鹿児島県,出水市,汐見町,カゴシマケン,イズミシ,シオミチョウ,鹿児島県出水市汐見町
8990137,鹿児島県,出水市,今釜町,カゴシマケン,イズミシ,イマガマチョウ,鹿児島県出水市今釜町
8990138,鹿児島県,出水市,住吉町,カゴシマケン,イズミシ,スミヨシチョウ,鹿児島県出水市住吉町
8990200,鹿児島県,出水市,,カゴシマケン,イズミシ,,鹿児島県出水市
8990201,鹿児島県,出水市,緑町,カゴシマケン,イズミシ,ミドリマチ,鹿児島県出水市緑町
8990202,鹿児島県,出水市,昭和町,カゴシマケン,イズミシ,ショウワマチ,鹿児島県出水市昭和町
8990203,鹿児島県,出水市,上鯖渕,カゴシマケン,イズミシ,カミサバブチ,鹿児島県出水市上鯖渕
8990204,鹿児島県,出水市,麓町,カゴシマケン,イズミシ,フモトチョウ,鹿児島県出水市麓町
8990205,鹿児島県,出水市,本町,カゴシマケン,イズミシ,ホンマチ,鹿児島県出水市本町
8990206,鹿児島県,出水市,向江町,カゴシマケン,イズミシ,ムカエマチ,鹿児島県出水市向江町
8990207,鹿児島県,出水市,中央町,カゴシマケン,イズミシ,チュウオウチョウ,鹿児島県出水市中央町
8990208,鹿児島県,出水市,文化町,カゴシマケン,イズミシ,ブンカチョウ,鹿児島県出水市文化町
8990211,鹿児島県,出水市,知識町,カゴシマケン,イズミシ,チシキチョウ,鹿児島県出水市知識町
8990212,鹿児島県,出水市,上知識町,カゴシマケン,イズミシ,カミチシキチョウ,鹿児島県出水市上知識町
8990213,鹿児島県,出水市,西出水町,カゴシマケン,イズミシ,ニシイズミチョウ,鹿児島県出水市西出水町
8990214,鹿児島県,出水市,五万石町,カゴシマケン,イズミシ,ゴマンゴクチョウ,鹿児島県出水市五万石町
8990215,鹿児島県,出水市,武本,カゴシマケン,イズミシ,タケモト,鹿児島県出水市武本
8990216,鹿児島県,出水市,大野原町,カゴシマケン,イズミシ,オオノハラチョウ,鹿児島県出水市大野原町
8990217,鹿児島県,出水市,平和町,カゴシマケン,イズミシ,ヘイワチョウ,鹿児島県出水市平和町
8990341,鹿児島県,出水市,上大川内,カゴシマケン,イズミシ,カミオオカワウチ,鹿児島県出水市上大川内
8990342,鹿児島県,出水市,下大川内,カゴシマケン,イズミシ,シモオオカワウチ,鹿児島県出水市下大川内
8990401,鹿児島県,出水市,高尾野町大久保,カゴシマケン,イズミシ,タカオノマチオオクボ,鹿児島県出水市高尾野町大久保
8990402,鹿児島県,出水市,高尾野町柴引,カゴシマケン,イズミシ,タカオノマチシバヒキ,鹿児島県出水市高尾野町柴引
8990403,鹿児島県,出水市,高尾野町唐笠木,カゴシマケン,イズミシ,タカオノマチカラガサキ,鹿児島県出水市高尾野町唐笠木
8990404,鹿児島県,出水市,高尾野町下高尾野,カゴシマケン,イズミシ,タカオノマチシモタカオノ,鹿児島県出水市高尾野町下高尾野
8990405,鹿児島県,出水市,高尾野町下水流,カゴシマケン,イズミシ,タカオノマチシモズル,鹿児島県出水市高尾野町下水流
8990406,鹿児島県,出水市,高尾野町上水流,カゴシマケン,イズミシ,タカオノマチカミズル,鹿児島県出水市高尾野町上水流
8990407,鹿児島県,出水市,高尾野町江内,カゴシマケン,イズミシ,タカオノマチエウチ,鹿児島県出水市高尾野町江内
8990435,鹿児島県,出水市,荘,カゴシマケン,イズミシ,ショウ,鹿児島県出水市荘
8990501,鹿児島県,出水市,野田町上名,カゴシマケン,イズミシ,ノダチョウカミミョウ,鹿児島県出水市野田町上名
8990502,鹿児島県,出水市,野田町下名,カゴシマケン,イズミシ,ノダチョウシモミョウ,鹿児島県出水市野田町下名
8991131,鹿児島県,阿久根市,脇本,カゴシマケン,アクネシ,ワキモト,鹿児島県阿久根市脇本
8991211,鹿児島県,出水郡長島町,山門野,カゴシマケン,イズミグンナガシマチョウ,ヤマドノ,鹿児島県出水郡長島町山門野
8991212,鹿児島県,出水郡長島町,川床,カゴシマケン,イズミグンナガシマチョウ,カワトコ,鹿児島県出水郡長島町川床
8991301,鹿児島県,出水郡長島町,蔵之元,カゴシマケン,イズミグンナガシマチョウ,クラノモト,鹿児島県出水郡長島町蔵之元
8991302,鹿児島県,出水郡長島町,平尾,カゴシマケン,イズミグンナガシマチョウ,ヒラオ,鹿児島県出水郡長島町平尾
8991303,鹿児島県,出水郡長島町,指江,カゴシマケン,イズミグンナガシマチョウ,サスエ,鹿児島県出水郡長島町指江
8991304,鹿児島県,出水郡長島町,城川内,カゴシマケン,イズミグンナガシマチョウ,ジョウカワウチ,鹿児島県出水郡長島町城川内
8991321,鹿児島県,出水郡長島町,下山門野,カゴシマケン,イズミグンナガシマチョウ,シモヤマドノ,鹿児島県出水郡長島町下山門野
8991400,鹿児島県,出水郡長島町,,カゴシマケン,イズミグンナガシマチョウ,,鹿児島県出水郡長島町
8991401,鹿児島県,出水郡長島町,鷹巣,カゴシマケン,イズミグンナガシマチョウ,タカノス,鹿児島県出水郡長島町鷹巣
8991402,鹿児島県,出水郡長島町,浦底,カゴシマケン,イズミグンナガシマチョウ,ウラソコ,鹿児島県出水郡長島町浦底
8991403,鹿児島県,出水郡長島町,諸浦,カゴシマケン,イズミグンナガシマチョウ,ショウラ,鹿児島県出水郡長島町諸浦
8991501,鹿児島県,出水郡長島町,獅子島,カゴシマケン,イズミグンナガシマチョウ,シシジマ,鹿児島県出水郡長島町獅子島
8991600,鹿児島県,阿久根市,,カゴシマケン,アクネシ,,鹿児島県阿久根市
8991601,鹿児島県,阿久根市,折口,カゴシマケン,アクネシ,オリグチ,鹿児島県阿久根市折口
8991602,鹿児島県,阿久根市,多田,カゴシマケン,アクネシ,タダ,鹿児島県阿久根市多田
8991603,鹿児島県,阿久根市,鶴川内,カゴシマケン,アクネシ,ツルガワウチ,鹿児島県阿久根市鶴川内
8991604,鹿児島県,阿久根市,山下,カゴシマケン,アクネシ,ヤマシタ,鹿児島県阿久根市山下
8991611,鹿児島県,阿久根市,赤瀬川,カゴシマケン,アクネシ,アカセガワ,鹿児島県阿久根市赤瀬川
8991612,鹿児島県,阿久根市,丸尾町,カゴシマケン,アクネシ,マルオチョウ,鹿児島県阿久根市丸尾町
8991613,鹿児島県,阿久根市,新町,カゴシマケン,アクネシ,シンマチ,鹿児島県阿久根市新町
8991614,鹿児島県,阿久根市,晴海町,カゴシマケン,アクネシ,ハルミチョウ,鹿児島県阿久根市晴海町
8991615,鹿児島県,阿久根市,琴平町,カゴシマケン,アクネシ,コトヒラチョウ,鹿児島県阿久根市琴平町
8991616,鹿児島県,阿久根市,栄町,カゴシマケン,アクネシ,サカエマチ,鹿児島県阿久根市栄町
8991617,鹿児島県,阿久根市,浜町,カゴシマケン,アクネシ,ハママチ,鹿児島県阿久根市浜町
8991621,鹿児島県,阿久根市,本町,カゴシマケン,アクネシ,ホンマチ,鹿児島県阿久根市本町
8991622,鹿児島県,阿久根市,高松町,カゴシマケン,アクネシ,タカマツチョウ,鹿児島県阿久根市高松町
8991623,鹿児島県,阿久根市,港町,カゴシマケン,アクネシ,ミナトマチ,鹿児島県阿久根市港町
8991624,鹿児島県,阿久根市,大丸町,カゴシマケン,アクネシ,オオマルチョウ,鹿児島県阿久根市大丸町
8991625,鹿児島県,阿久根市,波留,カゴシマケン,アクネシ,ハル,鹿児島県阿久根市波留
8991626,鹿児島県,阿久根市,鶴見町,カゴシマケン,アクネシ,ツルミチョウ,鹿児島県阿久根市鶴見町
8991627,鹿児島県,阿久根市,西目,カゴシマケン,アクネシ,ニシメ,鹿児島県阿久根市西目
8991628,鹿児島県,阿久根市,塩鶴町,カゴシマケン,アクネシ,シオツルチョウ,鹿児島県阿久根市塩鶴町
8991629,鹿児島県,阿久根市,塩浜町,カゴシマケン,アクネシ,シオハマチョウ,鹿児島県阿久根市塩浜町
8991741,鹿児島県,阿久根市,大川,カゴシマケン,アクネシ,オオカワ,鹿児島県阿久根市大川
8991801,鹿児島県,薩摩川内市,西方町,カゴシマケン,サツマセンダイシ,ニシカタチョウ,鹿児島県薩摩川内市西方町
8991802,鹿児島県,薩摩川内市,湯田町,カゴシマケン,サツマセンダイシ,ユダチョウ,鹿児島県薩摩川内市湯田町
8991921,鹿児島県,薩摩川内市,水引町,カゴシマケン,サツマセンダイシ,ミズヒキチョウ,鹿児島県薩摩川内市水引町
8991922,鹿児島県,薩摩川内市,小倉町,カゴシマケン,サツマセンダイシ,コクラチョウ,鹿児島県薩摩川内市小倉町
8991923,鹿児島県,薩摩川内市,湯島町,カゴシマケン,サツマセンダイシ,ユシマチョウ,鹿児島県薩摩川内市湯島町
8991924,鹿児島県,薩摩川内市,港町,カゴシマケン,サツマセンダイシ,ミナトチョウ,鹿児島県薩摩川内市港町
8991925,鹿児島県,薩摩川内市,網津町,カゴシマケン,サツマセンダイシ,オウヅチョウ,鹿児島県薩摩川内市網津町
8992101,鹿児島県,いちき串木野市,湊町,カゴシマケン,イチキクシキノシ,ミナトマチ,鹿児島県いちき串木野市湊町
8992102,鹿児島県,いちき串木野市,川上,カゴシマケン,イチキクシキノシ,カワカミ,鹿児島県いちき串木野市川上
8992103,鹿児島県,いちき串木野市,大里,カゴシマケン,イチキクシキノシ,オオザト,鹿児島県いちき串木野市大里
8992201,鹿児島県,日置市,東市来町湯田,カゴシマケン,ヒオキシ,ヒガシイチキチョウユダ,鹿児島県日置市東市来町湯田
8992202,鹿児島県,日置市,東市来町長里,カゴシマケン,ヒオキシ,ヒガシイチキチョウナガサト,鹿児島県日置市東市来町長里
8992203,鹿児島県,日置市,東市来町伊作田,カゴシマケン,ヒオキシ,ヒガシイチキチョウイザクダ,鹿児島県日置市東市来町伊作田
8992204,鹿児島県,日置市,東市来町神之川,カゴシマケン,ヒオキシ,ヒガシイチキチョウカミノカワ,鹿児島県日置市東市来町神之川
8992311,鹿児島県,日置市,東市来町養母,カゴシマケン,ヒオキシ,ヒガシイチキチョウヨウボ,鹿児島県日置市東市来町養母
8992421,鹿児島県,日置市,日吉町神之川,カゴシマケン,ヒオキシ,ヒヨシチョウカミノカワ,鹿児島県日置市日吉町神之川
8992431,鹿児島県,日置市,東市来町美山,カゴシマケン,ヒオキシ,ヒガシイチキチョウミヤマ,鹿児島県日置市東市来町美山
8992432,鹿児島県,日置市,東市来町寺脇,カゴシマケン,ヒオキシ,ヒガシイチキチョウテラワキ,鹿児島県日置市東市来町寺脇
8992433,鹿児島県,日置市,東市来町宮田,カゴシマケン,ヒオキシ,ヒガシイチキチョウミヤタ,鹿児島県日置市東市来町宮田
8992434,鹿児島県,日置市,東市来町南神之川,カゴシマケン,ヒオキシ,ヒガシイチキチョウミナミカミノカワ,鹿児島県日置市東市来町南神之川
8992441,鹿児島県,日置市,伊集院町桑畑,カゴシマケン,ヒオキシ,イジュウインチョウクワバタ,鹿児島県日置市伊集院町桑畑
8992442,鹿児島県,日置市,伊集院町野田,カゴシマケン,ヒオキシ,イジュウインチョウノダ,鹿児島県日置市伊集院町野田
8992443,鹿児島県,日置市,伊集院町寺脇,カゴシマケン,ヒオキシ,イジュウインチョウテラワキ,鹿児島県日置市伊集院町寺脇
8992500,鹿児島県,日置市,,カゴシマケン,ヒオキシ,,鹿児島県日置市
8992501,鹿児島県,日置市,伊集院町下谷口,カゴシマケン,ヒオキシ,イジュウインチョウシモタニグチ,鹿児島県日置市伊集院町下谷口
8992502,鹿児島県,日置市,伊集院町徳重,カゴシマケン,ヒオキシ,イジュウインチョウトクシゲ,鹿児島県日置市伊集院町徳重
8992503,鹿児島県,日置市,伊集院町妙円寺,カゴシマケン,ヒオキシ,イジュウインチョウミョウエンジ,鹿児島県日置市伊集院町妙円寺
8992504,鹿児島県,日置市,伊集院町郡,カゴシマケン,ヒオキシ,イジュウインチョウコオリ,鹿児島県日置市伊集院町郡
8992505,鹿児島県,日置市,伊集院町猪鹿倉,カゴシマケン,ヒオキシ,イジュウインチョウイガクラ,鹿児島県日置市伊集院町猪鹿倉
8992506,鹿児島県,日置市,伊集院町清藤,カゴシマケン,ヒオキシ,イジュウインチョウキヨフジ,鹿児島県日置市伊集院町清藤
8992511,鹿児島県,日置市,伊集院町下神殿,カゴシマケン,ヒオキシ,イジュウインチョウシモコウドノ,鹿児島県日置市伊集院町下神殿
8992512,鹿児島県,日置市,伊集院町上神殿,カゴシマケン,ヒオキシ,イジュウインチョウカミコウドノ,鹿児島県日置市伊集院町上神殿
8992513,鹿児島県,日置市,伊集院町麦生田,カゴシマケン,ヒオキシ,イジュウインチョウムギウダ,鹿児島県日置市伊集院町麦生田
8992514,鹿児島県,日置市,伊集院町中川,カゴシマケン,ヒオキシ,イジュウインチョウナカガワ,鹿児島県日置市伊集院町中川
8992515,鹿児島県,日置市,伊集院町竹之山,カゴシマケン,ヒオキシ,イジュウインチョウタケノヤマ,鹿児島県日置市伊集院町竹之山
8992516,鹿児島県,日置市,伊集院町土橋,カゴシマケン,ヒオキシ,イジュウインチョウツチバシ,鹿児島県日置市伊集院町土橋
8992521,鹿児島県,日置市,伊集院町大田（その他）,カゴシマケン,ヒオキシ,イジュウインチョウオオタ(ソノタ),鹿児島県日置市伊集院町大田（その他）
8992522,鹿児島県,日置市,伊集院町飯牟礼,カゴシマケン,ヒオキシ,イジュウインチョウイイムレ,鹿児島県日置市伊集院町飯牟礼
8992523,鹿児島県,日置市,伊集院町古城,カゴシマケン,ヒオキシ,イジュウインチョウフルジョウ,鹿児島県日置市伊集院町古城
8992524,鹿児島県,日置市,伊集院町恋之原,カゴシマケン,ヒオキシ,イジュウインチョウコイノハラ,鹿児島県日置市伊集院町恋之原
8992531,鹿児島県,鹿児島市,小山田町（５１９９、５２００、５２０５番地）,カゴシマケン,カゴシマシ,コヤマダチョウ(5199、5200、5205バンチ),鹿児島県鹿児島市小山田町（5199、5200、5205-）
8992701,鹿児島県,鹿児島市,石谷町,カゴシマケン,カゴシマシ,イシダニチョウ,鹿児島県鹿児島市石谷町
8992702,鹿児島県,鹿児島市,福山町,カゴシマケン,カゴシマシ,フクヤマチョウ,鹿児島県鹿児島市福山町
8992703,鹿児島県,鹿児島市,上谷口町,カゴシマケン,カゴシマシ,カミタニグチチョウ,鹿児島県鹿児島市上谷口町
8992704,鹿児島県,鹿児島市,春山町,カゴシマケン,カゴシマシ,ハルヤマチョウ,鹿児島県鹿児島市春山町
8992705,鹿児島県,鹿児島市,直木町,カゴシマケン,カゴシマシ,ナオキチョウ,鹿児島県鹿児島市直木町
8992706,鹿児島県,鹿児島市,入佐町（その他）,カゴシマケン,カゴシマシ,イリサチョウ(ソノタ),鹿児島県鹿児島市入佐町（その他）
8992707,鹿児島県,鹿児島市,松陽台町,カゴシマケン,カゴシマシ,ショウヨウダイチョウ,鹿児島県鹿児島市松陽台町
8992708,鹿児島県,鹿児島市,四元町,カゴシマケン,カゴシマシ,ヨツモトチョウ,鹿児島県鹿児島市四元町
8992709,鹿児島県,鹿児島市,平田町,カゴシマケン,カゴシマシ,ヒラタチョウ,鹿児島県鹿児島市平田町
8993101,鹿児島県,日置市,日吉町日置,カゴシマケン,ヒオキシ,ヒヨシチョウヒオキ,鹿児島県日置市日吉町日置
8993102,鹿児島県,日置市,日吉町山田,カゴシマケン,ヒオキシ,ヒヨシチョウヤマダ,鹿児島県日置市日吉町山田
8993103,鹿児島県,日置市,日吉町吉利（５６１４、５６１９、５６４７、５６５３番地）,カゴシマケン,ヒオキシ,ヒヨシチョウヨシトシ(5614、5619、5647、5653バンチ),鹿児島県日置市日吉町吉利（5614、5619、5647、5653-）
8993121,鹿児島県,日置市,伊集院町大田（久木野々石塚）,カゴシマケン,ヒオキシ,イジュウインチョウオオタ(クキノノイシヅカ),鹿児島県日置市伊集院町大田（久木野々石塚）
8993203,鹿児島県,日置市,日吉町吉利（その他）,カゴシマケン,ヒオキシ,ヒヨシチョウヨシトシ(ソノタ),鹿児島県日置市日吉町吉利（その他）
8993206,鹿児島県,鹿児島市,入佐町（１７３８、１７３９番地）,カゴシマケン,カゴシマシ,イリサチョウ(1738、1739バンチ),鹿児島県鹿児島市入佐町（1738、1739-）
8993221,鹿児島県,日置市,吹上町永吉,カゴシマケン,ヒオキシ,フキアゲチョウナガヨシ,鹿児島県日置市吹上町永吉
8993301,鹿児島県,日置市,吹上町中原,カゴシマケン,ヒオキシ,フキアゲチョウナカハラ,鹿児島県日置市吹上町中原
8993302,鹿児島県,日置市,吹上町中之里,カゴシマケン,ヒオキシ,フキアゲチョウナカノサト,鹿児島県日置市吹上町中之里
8993303,鹿児島県,日置市,吹上町湯之浦,カゴシマケン,ヒオキシ,フキアゲチョウユノウラ,鹿児島県日置市吹上町湯之浦
8993304,鹿児島県,日置市,吹上町入来,カゴシマケン,ヒオキシ,フキアゲチョウイリキ,鹿児島県日置市吹上町入来
8993305,鹿児島県,日置市,吹上町今田,カゴシマケン,ヒオキシ,フキアゲチョウイマダ,鹿児島県日置市吹上町今田
8993306,鹿児島県,日置市,吹上町小野,カゴシマケン,ヒオキシ,フキアゲチョウオノ,鹿児島県日置市吹上町小野
8993307,鹿児島県,日置市,吹上町花熟里,カゴシマケン,ヒオキシ,フキアゲチョウケジュクリ,鹿児島県日置市吹上町花熟里
8993308,鹿児島県,日置市,吹上町田尻,カゴシマケン,ヒオキシ,フキアゲチョウタジリ,鹿児島県日置市吹上町田尻
8993309,鹿児島県,日置市,吹上町与倉,カゴシマケン,ヒオキシ,フキアゲチョウヨクラ,鹿児島県日置市吹上町与倉
8993311,鹿児島県,日置市,吹上町和田,カゴシマケン,ヒオキシ,フキアゲチョウワダ,鹿児島県日置市吹上町和田
8993401,鹿児島県,南さつま市,金峰町大野,カゴシマケン,ミナミサツマシ,キンポウチョウオオノ,鹿児島県南さつま市金峰町大野
8993402,鹿児島県,南さつま市,金峰町大坂,カゴシマケン,ミナミサツマシ,キンポウチョウダイザカ,鹿児島県南さつま市金峰町大坂
8993403,鹿児島県,南さつま市,金峰町尾下,カゴシマケン,ミナミサツマシ,キンポウチョウオクダリ,鹿児島県南さつま市金峰町尾下
8993404,鹿児島県,南さつま市,金峰町高橋,カゴシマケン,ミナミサツマシ,キンポウチョウタカハシ,鹿児島県南さつま市金峰町高橋
8993405,鹿児島県,南さつま市,金峰町池辺,カゴシマケン,ミナミサツマシ,キンポウチョウイケベ,鹿児島県南さつま市金峰町池辺
8993511,鹿児島県,南さつま市,金峰町宮崎,カゴシマケン,ミナミサツマシ,キンポウチョウミヤザキ,鹿児島県南さつま市金峰町宮崎
8993512,鹿児島県,南さつま市,金峰町花瀬,カゴシマケン,ミナミサツマシ,キンポウチョウハナゼ,鹿児島県南さつま市金峰町花瀬
8993513,鹿児島県,南さつま市,金峰町白川,カゴシマケン,ミナミサツマシ,キンポウチョウシラカワ,鹿児島県南さつま市金峰町白川
8993514,鹿児島県,南さつま市,金峰町新山,カゴシマケン,ミナミサツマシ,キンポウチョウニイヤマ,鹿児島県南さつま市金峰町新山
8993515,鹿児島県,南さつま市,金峰町中津野,カゴシマケン,ミナミサツマシ,キンポウチョウナカツノ,鹿児島県南さつま市金峰町中津野
8993516,鹿児島県,南さつま市,金峰町浦之名,カゴシマケン,ミナミサツマシ,キンポウチョウウラノミョウ,鹿児島県南さつま市金峰町浦之名
8993611,鹿児島県,南さつま市,加世田津貫,カゴシマケン,ミナミサツマシ,カセダツヌキ,鹿児島県南さつま市加世田津貫
8994101,鹿児島県,曽於市,財部町南俣,カゴシマケン,ソオシ,タカラベチョウミナミマタ,鹿児島県曽於市財部町南俣
8994102,鹿児島県,曽於市,財部町北俣,カゴシマケン,ソオシ,タカラベチョウキタマタ,鹿児島県曽於市財部町北俣
8994103,鹿児島県,曽於市,財部町下財部,カゴシマケン,ソオシ,タカラベチョウシモタカラベ,鹿児島県曽於市財部町下財部
8994201,鹿児島県,霧島市,霧島田口,カゴシマケン,キリシマシ,キリシマタグチ,鹿児島県霧島市霧島田口
8994202,鹿児島県,霧島市,霧島永水,カゴシマケン,キリシマシ,キリシマナガミズ,鹿児島県霧島市霧島永水
8994203,鹿児島県,霧島市,霧島大窪,カゴシマケン,キリシマシ,キリシマオオクボ,鹿児島県霧島市霧島大窪
8994204,鹿児島県,霧島市,霧島川北,カゴシマケン,キリシマシ,キリシマカワキタ,鹿児島県霧島市霧島川北
8994300,鹿児島県,霧島市,,カゴシマケン,キリシマシ,,鹿児島県霧島市
8994301,鹿児島県,霧島市,国分重久,カゴシマケン,キリシマシ,コクブシゲヒサ,鹿児島県霧島市国分重久
8994302,鹿児島県,霧島市,国分台明寺,カゴシマケン,キリシマシ,コクブダイミョウジ,鹿児島県霧島市国分台明寺
8994303,鹿児島県,霧島市,国分川原,カゴシマケン,キリシマシ,コクブカワハラ,鹿児島県霧島市国分川原
8994304,鹿児島県,霧島市,国分清水,カゴシマケン,キリシマシ,コクブキヨミズ,鹿児島県霧島市国分清水
8994305,鹿児島県,霧島市,国分郡田,カゴシマケン,キリシマシ,コクブコオリダ,鹿児島県霧島市国分郡田
8994311,鹿児島県,霧島市,国分名波町,カゴシマケン,キリシマシ,コクブナバチョウ,鹿児島県霧島市国分名波町
8994312,鹿児島県,霧島市,国分山下町,カゴシマケン,キリシマシ,コクブヤマシタチョウ,鹿児島県霧島市国分山下町
8994313,鹿児島県,霧島市,国分上井,カゴシマケン,キリシマシ,コクブウワイ,鹿児島県霧島市国分上井
8994314,鹿児島県,霧島市,国分川内,カゴシマケン,キリシマシ,コクブカワウチ,鹿児島県霧島市国分川内
8994315,鹿児島県,霧島市,国分湊,カゴシマケン,キリシマシ,コクブミナト,鹿児島県霧島市国分湊
8994316,鹿児島県,霧島市,国分上小川,カゴシマケン,キリシマシ,コクブカミコガワ,鹿児島県霧島市国分上小川
8994317,鹿児島県,霧島市,国分上野原テクノパーク,カゴシマケン,キリシマシ,コクブウエノハラテクノパーク,鹿児島県霧島市国分上野原テクノパーク
8994318,鹿児島県,霧島市,国分上野原縄文の森,カゴシマケン,キリシマシ,コクブウエノハラジョウモンノモリ,鹿児島県霧島市国分上野原縄文の森
8994321,鹿児島県,霧島市,国分広瀬,カゴシマケン,キリシマシ,コクブヒロセ,鹿児島県霧島市国分広瀬
8994322,鹿児島県,霧島市,国分福島,カゴシマケン,キリシマシ,コクブフクシマ,鹿児島県霧島市国分福島
8994323,鹿児島県,霧島市,国分松木,カゴシマケン,キリシマシ,コクブマツキ,鹿児島県霧島市国分松木
8994324,鹿児島県,霧島市,国分松木東,カゴシマケン,キリシマシ,コクブマツキヒガシ,鹿児島県霧島市国分松木東
8994325,鹿児島県,霧島市,国分松木町,カゴシマケン,キリシマシ,コクブマツキチョウ,鹿児島県霧島市国分松木町
8994331,鹿児島県,霧島市,国分城山町,カゴシマケン,キリシマシ,コクブシロヤマチョウ,鹿児島県霧島市国分城山町
8994332,鹿児島県,霧島市,国分中央,カゴシマケン,キリシマシ,コクブチュウオウ,鹿児島県霧島市国分中央
8994341,鹿児島県,霧島市,国分野口東,カゴシマケン,キリシマシ,コクブノグチヒガシ,鹿児島県霧島市国分野口東
8994342,鹿児島県,霧島市,国分野口町,カゴシマケン,キリシマシ,コクブノグチチョウ,鹿児島県霧島市国分野口町
8994343,鹿児島県,霧島市,国分野口西,カゴシマケン,キリシマシ,コクブノグチニシ,鹿児島県霧島市国分野口西
8994344,鹿児島県,霧島市,国分野口北,カゴシマケン,キリシマシ,コクブノグチキタ,鹿児島県霧島市国分野口北
8994345,鹿児島県,霧島市,国分府中,カゴシマケン,キリシマシ,コクブフチュウ,鹿児島県霧島市国分府中
8994346,鹿児島県,霧島市,国分府中町,カゴシマケン,キリシマシ,コクブフチュウチョウ,鹿児島県霧島市国分府中町
8994351,鹿児島県,霧島市,国分新町,カゴシマケン,キリシマシ,コクブシンマチ,鹿児島県霧島市国分新町
8994352,鹿児島県,霧島市,国分向花,カゴシマケン,キリシマシ,コクブムケ,鹿児島県霧島市国分向花
8994353,鹿児島県,霧島市,国分向花町,カゴシマケン,キリシマシ,コクブムケチョウ,鹿児島県霧島市国分向花町
8994354,鹿児島県,霧島市,国分姫城,カゴシマケン,キリシマシ,コクブヒメギ,鹿児島県霧島市国分姫城
8994355,鹿児島県,霧島市,国分剣之宇都町,カゴシマケン,キリシマシ,コクブケンノウトチョウ,鹿児島県霧島市国分剣之宇都町
8994356,鹿児島県,霧島市,国分姫城南,カゴシマケン,キリシマシ,コクブヒメギミナミ,鹿児島県霧島市国分姫城南
8994461,鹿児島県,霧島市,国分上之段,カゴシマケン,キリシマシ,コクブウエノダン,鹿児島県霧島市国分上之段
8994462,鹿児島県,霧島市,国分敷根,カゴシマケン,キリシマシ,コクブシキネ,鹿児島県霧島市国分敷根
8994463,鹿児島県,霧島市,国分下井,カゴシマケン,キリシマシ,コクブシタイ,鹿児島県霧島市国分下井
8994501,鹿児島県,霧島市,福山町福山,カゴシマケン,キリシマシ,フクヤマチョウフクヤマ,鹿児島県霧島市福山町福山
8994502,鹿児島県,霧島市,福山町福地,カゴシマケン,キリシマシ,フクヤマチョウフクチ,鹿児島県霧島市福山町福地
8994503,鹿児島県,霧島市,福山町福沢,カゴシマケン,キリシマシ,フクヤマチョウフクザワ,鹿児島県霧島市福山町福沢
8994504,鹿児島県,霧島市,福山町佳例川,カゴシマケン,キリシマシ,フクヤマチョウカレイガワ,鹿児島県霧島市福山町佳例川
8994631,鹿児島県,垂水市,牛根境,カゴシマケン,タルミズシ,ウシネサカイ,鹿児島県垂水市牛根境
8994632,鹿児島県,垂水市,牛根麓,カゴシマケン,タルミズシ,ウシネフモト,鹿児島県垂水市牛根麓
8994633,鹿児島県,垂水市,二川,カゴシマケン,タルミズシ,フタガワ,鹿児島県垂水市二川
8995101,鹿児島県,霧島市,隼人町住吉,カゴシマケン,キリシマシ,ハヤトチョウスミヨシ,鹿児島県霧島市隼人町住吉
8995102,鹿児島県,霧島市,隼人町真孝,カゴシマケン,キリシマシ,ハヤトチョウシンコウ,鹿児島県霧島市隼人町真孝
8995103,鹿児島県,霧島市,隼人町小浜,カゴシマケン,キリシマシ,ハヤトチョウオハマ,鹿児島県霧島市隼人町小浜
8995104,鹿児島県,霧島市,隼人町野久美田,カゴシマケン,キリシマシ,ハヤトチョウノクミダ,鹿児島県霧島市隼人町野久美田
8995105,鹿児島県,霧島市,隼人町小田,カゴシマケン,キリシマシ,ハヤトチョウオダ,鹿児島県霧島市隼人町小田
8995106,鹿児島県,霧島市,隼人町内山田,カゴシマケン,キリシマシ,ハヤトチョウウチヤマダ,鹿児島県霧島市隼人町内山田
8995111,鹿児島県,霧島市,隼人町姫城,カゴシマケン,キリシマシ,ハヤトチョウヒメギ,鹿児島県霧島市隼人町姫城
8995112,鹿児島県,霧島市,隼人町松永,カゴシマケン,キリシマシ,ハヤトチョウマツナガ,鹿児島県霧島市隼人町松永
8995113,鹿児島県,霧島市,隼人町嘉例川,カゴシマケン,キリシマシ,ハヤトチョウカレイガワ,鹿児島県霧島市隼人町嘉例川
8995114,鹿児島県,霧島市,隼人町西光寺,カゴシマケン,キリシマシ,ハヤトチョウサイコウジ,鹿児島県霧島市隼人町西光寺
8995115,鹿児島県,霧島市,隼人町東郷,カゴシマケン,キリシマシ,ハヤトチョウトウゴウ,鹿児島県霧島市隼人町東郷
8995116,鹿児島県,霧島市,隼人町内,カゴシマケン,キリシマシ,ハヤトチョウウチ,鹿児島県霧島市隼人町内
8995117,鹿児島県,霧島市,隼人町見次,カゴシマケン,キリシマシ,ハヤトチョウミツギ,鹿児島県霧島市隼人町見次
8995118,鹿児島県,霧島市,隼人町朝日,カゴシマケン,キリシマシ,ハヤトチョウアサヒ,鹿児島県霧島市隼人町朝日
8995121,鹿児島県,霧島市,隼人町神宮,カゴシマケン,キリシマシ,ハヤトチョウジングウ,鹿児島県霧島市隼人町神宮
8995201,鹿児島県,姶良市,加治木町西別府,カゴシマケン,アイラシ,カジキチョウニシベップ,鹿児島県姶良市加治木町西別府
8995202,鹿児島県,姶良市,加治木町辺川,カゴシマケン,アイラシ,カジキチョウヘガワ,鹿児島県姶良市加治木町辺川
8995203,鹿児島県,姶良市,加治木町小山田,カゴシマケン,アイラシ,カジキチョウコヤマダ,鹿児島県姶良市加治木町小山田
8995204,鹿児島県,姶良市,加治木町日木山,カゴシマケン,アイラシ,カジキチョウヒキヤマ,鹿児島県姶良市加治木町日木山
8995211,鹿児島県,姶良市,加治木町新富町,カゴシマケン,アイラシ,カジキチョウシントミマチ,鹿児島県姶良市加治木町新富町
8995212,鹿児島県,姶良市,加治木町諏訪町,カゴシマケン,アイラシ,カジキチョウスワマチ,鹿児島県姶良市加治木町諏訪町
8995213,鹿児島県,姶良市,加治木町朝日町,カゴシマケン,アイラシ,カジキチョウアサヒマチ,鹿児島県姶良市加治木町朝日町
8995214,鹿児島県,姶良市,加治木町仮屋町,カゴシマケン,アイラシ,カジキチョウカリヤマチ,鹿児島県姶良市加治木町仮屋町
8995215,鹿児島県,姶良市,加治木町本町,カゴシマケン,アイラシ,カジキチョウモトマチ,鹿児島県姶良市加治木町本町
8995221,鹿児島県,姶良市,加治木町港町,カゴシマケン,アイラシ,カジキチョウミナトマチ,鹿児島県姶良市加治木町港町
8995222,鹿児島県,姶良市,加治木町錦江町,カゴシマケン,アイラシ,カジキチョウキンコウマチ,鹿児島県姶良市加治木町錦江町
8995223,鹿児島県,姶良市,加治木町新生町,カゴシマケン,アイラシ,カジキチョウシンセイマチ,鹿児島県姶良市加治木町新生町
8995231,鹿児島県,姶良市,加治木町反土,カゴシマケン,アイラシ,カジキチョウタンド,鹿児島県姶良市加治木町反土
8995241,鹿児島県,姶良市,加治木町木田,カゴシマケン,アイラシ,カジキチョウキダ,鹿児島県姶良市加治木町木田
8995301,鹿児島県,姶良市,蒲生町漆,カゴシマケン,アイラシ,カモウチョウウルシ,鹿児島県姶良市蒲生町漆
8995302,鹿児島県,姶良市,蒲生町上久徳,カゴシマケン,アイラシ,カモウチョウカミギュウトク,鹿児島県姶良市蒲生町上久徳
8995303,鹿児島県,姶良市,蒲生町北,カゴシマケン,アイラシ,カモウチョウキタ,鹿児島県姶良市蒲生町北
8995304,鹿児島県,姶良市,蒲生町下久徳,カゴシマケン,アイラシ,カモウチョウシモギュウトク,鹿児島県姶良市蒲生町下久徳
8995305,鹿児島県,姶良市,蒲生町白男,カゴシマケン,アイラシ,カモウチョウシラオ,鹿児島県姶良市蒲生町白男
8995306,鹿児島県,姶良市,蒲生町西浦,カゴシマケン,アイラシ,カモウチョウニシウラ,鹿児島県姶良市蒲生町西浦
8995307,鹿児島県,姶良市,蒲生町久末,カゴシマケン,アイラシ,カモウチョウヒサスエ,鹿児島県姶良市蒲生町久末
8995308,鹿児島県,姶良市,蒲生町米丸,カゴシマケン,アイラシ,カモウチョウヨネマル,鹿児島県姶良市蒲生町米丸
8995400,鹿児島県,姶良市,,カゴシマケン,アイラシ,,鹿児島県姶良市
8995401,鹿児島県,姶良市,寺師,カゴシマケン,アイラシ,テラシ,鹿児島県姶良市寺師
8995402,鹿児島県,姶良市,中津野,カゴシマケン,アイラシ,ナカツノ,鹿児島県姶良市中津野
8995403,鹿児島県,姶良市,増田,カゴシマケン,アイラシ,マスダ,鹿児島県姶良市増田
8995404,鹿児島県,姶良市,永瀬,カゴシマケン,アイラシ,ナガセ,鹿児島県姶良市永瀬
8995405,鹿児島県,姶良市,住吉,カゴシマケン,アイラシ,スミヨシ,鹿児島県姶良市住吉
8995411,鹿児島県,姶良市,鍋倉,カゴシマケン,アイラシ,ナベクラ,鹿児島県姶良市鍋倉
8995412,鹿児島県,姶良市,三拾町,カゴシマケン,アイラシ,サンジュッチョウ,鹿児島県姶良市三拾町
8995413,鹿児島県,姶良市,豊留,カゴシマケン,アイラシ,トヨドメ,鹿児島県姶良市豊留
8995414,鹿児島県,姶良市,深水,カゴシマケン,アイラシ,フカミズ,鹿児島県姶良市深水
8995421,鹿児島県,姶良市,東餠田,カゴシマケン,アイラシ,ヒガシモチダ,鹿児島県姶良市東餠田
8995422,鹿児島県,姶良市,松原町,カゴシマケン,アイラシ,マツバラマチ,鹿児島県姶良市松原町
8995431,鹿児島県,姶良市,西餠田,カゴシマケン,アイラシ,ニシモチダ,鹿児島県姶良市西餠田
8995432,鹿児島県,姶良市,宮島町,カゴシマケン,アイラシ,ミヤジママチ,鹿児島県姶良市宮島町
8995433,鹿児島県,姶良市,西宮島町,カゴシマケン,アイラシ,ニシミヤジママチ,鹿児島県姶良市西宮島町
8995541,鹿児島県,姶良市,北山,カゴシマケン,アイラシ,キタヤマ,鹿児島県姶良市北山
8995542,鹿児島県,姶良市,上名,カゴシマケン,アイラシ,カミミョウ,鹿児島県姶良市上名
8995543,鹿児島県,姶良市,下名,カゴシマケン,アイラシ,シモミョウ,鹿児島県姶良市下名
8995544,鹿児島県,姶良市,大山,カゴシマケン,アイラシ,オオヤマ,鹿児島県姶良市大山
8995545,鹿児島県,姶良市,木津志,カゴシマケン,アイラシ,キヅシ,鹿児島県姶良市木津志
8995651,鹿児島県,姶良市,脇元,カゴシマケン,アイラシ,ワキモト,鹿児島県姶良市脇元
8995652,鹿児島県,姶良市,平松,カゴシマケン,アイラシ,ヒラマツ,鹿児島県姶良市平松
8995653,鹿児島県,姶良市,池島町,カゴシマケン,アイラシ,イケジママチ,鹿児島県姶良市池島町
8995654,鹿児島県,姶良市,永池町,カゴシマケン,アイラシ,ナガイケマチ,鹿児島県姶良市永池町
8995655,鹿児島県,姶良市,船津,カゴシマケン,アイラシ,フナツ,鹿児島県姶良市船津
8995656,鹿児島県,姶良市,西姶良,カゴシマケン,アイラシ,ニシアイラ,鹿児島県姶良市西姶良
8996101,鹿児島県,姶良郡湧水町,鶴丸,カゴシマケン,アイラグンユウスイチョウ,ツルマル,鹿児島県姶良郡湧水町鶴丸
8996102,鹿児島県,姶良郡湧水町,中津川,カゴシマケン,アイラグンユウスイチョウ,ナカツガワ,鹿児島県姶良郡湧水町中津川
8996103,鹿児島県,姶良郡湧水町,川添,カゴシマケン,アイラグンユウスイチョウ,カワソエ,鹿児島県姶良郡湧水町川添
8996104,鹿児島県,姶良郡湧水町,川西,カゴシマケン,アイラグンユウスイチョウ,カワニシ,鹿児島県姶良郡湧水町川西
8996105,鹿児島県,姶良郡湧水町,般若寺,カゴシマケン,アイラグンユウスイチョウ,ハンニャジ,鹿児島県姶良郡湧水町般若寺
8996200,鹿児島県,姶良郡湧水町,,カゴシマケン,アイラグンユウスイチョウ,,鹿児島県姶良郡湧水町
8996201,鹿児島県,姶良郡湧水町,木場,カゴシマケン,アイラグンユウスイチョウ,コバ,鹿児島県姶良郡湧水町木場
8996202,鹿児島県,姶良郡湧水町,北方,カゴシマケン,アイラグンユウスイチョウ,キタカタ,鹿児島県姶良郡湧水町北方
8996203,鹿児島県,姶良郡湧水町,田尾原,カゴシマケン,アイラグンユウスイチョウ,タオバル,鹿児島県姶良郡湧水町田尾原
8996204,鹿児島県,姶良郡湧水町,稲葉崎,カゴシマケン,アイラグンユウスイチョウ,イナバサキ,鹿児島県姶良郡湧水町稲葉崎
8996205,鹿児島県,姶良郡湧水町,幸田,カゴシマケン,アイラグンユウスイチョウ,コウダ,鹿児島県姶良郡湧水町幸田
8996206,鹿児島県,姶良郡湧水町,恒次,カゴシマケン,アイラグンユウスイチョウ,ツネツグ,鹿児島県姶良郡湧水町恒次
8996207,鹿児島県,姶良郡湧水町,米永,カゴシマケン,アイラグンユウスイチョウ,ヨネナガ,鹿児島県姶良郡湧水町米永
8996301,鹿児島県,霧島市,横川町上ノ,カゴシマケン,キリシマシ,ヨコガワチョウカミノ,鹿児島県霧島市横川町上ノ
8996302,鹿児島県,霧島市,横川町下ノ,カゴシマケン,キリシマシ,ヨコガワチョウシモノ,鹿児島県霧島市横川町下ノ
8996303,鹿児島県,霧島市,横川町中ノ,カゴシマケン,キリシマシ,ヨコガワチョウナカノ,鹿児島県霧島市横川町中ノ
8996401,鹿児島県,霧島市,溝辺町有川,カゴシマケン,キリシマシ,ミゾベチョウアリカワ,鹿児島県霧島市溝辺町有川
8996402,鹿児島県,霧島市,溝辺町竹子,カゴシマケン,キリシマシ,ミゾベチョウタカゼ,鹿児島県霧島市溝辺町竹子
8996403,鹿児島県,霧島市,溝辺町三縄,カゴシマケン,キリシマシ,ミゾベチョウミナワ,鹿児島県霧島市溝辺町三縄
8996404,鹿児島県,霧島市,溝辺町麓,カゴシマケン,キリシマシ,ミゾベチョウフモト,鹿児島県霧島市溝辺町麓
8996405,鹿児島県,霧島市,溝辺町崎森,カゴシマケン,キリシマシ,ミゾベチョウサキモリ,鹿児島県霧島市溝辺町崎森
8996501,鹿児島県,霧島市,牧園町万膳（その他）,カゴシマケン,キリシマシ,マキゾノチョウマンゼン(ソノタ),鹿児島県霧島市牧園町万膳（その他）
8996502,鹿児島県,霧島市,牧園町三体堂（その他）,カゴシマケン,キリシマシ,マキゾノチョウサンタイドウ(ソノタ),鹿児島県霧島市牧園町三体堂（その他）
8996503,鹿児島県,霧島市,牧園町高千穂（３０１２〜３２４０番）,カゴシマケン,キリシマシ,マキゾノチョウタカチホ(3012-3240バン),鹿児島県霧島市牧園町高千穂（3012〜3240-）
8996504,鹿児島県,霧島市,牧園町上中津川（その他）,カゴシマケン,キリシマシ,マキゾノチョウカミナカツガワ(ソノタ),鹿児島県霧島市牧園町上中津川（その他）
8996505,鹿児島県,霧島市,牧園町持松,カゴシマケン,キリシマシ,マキゾノチョウモチマツ,鹿児島県霧島市牧園町持松
8996506,鹿児島県,霧島市,牧園町下中津川,カゴシマケン,キリシマシ,マキゾノチョウシモナカツガワ,鹿児島県霧島市牧園町下中津川
8996507,鹿児島県,霧島市,牧園町宿窪田,カゴシマケン,キリシマシ,マキゾノチョウシュククボタ,鹿児島県霧島市牧園町宿窪田
8996601,鹿児島県,霧島市,牧園町万膳（１４００〜１４７７番）,カゴシマケン,キリシマシ,マキゾノチョウマンゼン(1400-1477バン),鹿児島県霧島市牧園町万膳（1400〜1477-）
8996602,鹿児島県,霧島市,牧園町三体堂（１８２４−２、１８２４−９、１８２４−４１、,カゴシマケン,キリシマシ,マキゾノチョウサンタイドウ(1824-2、1824-9、1824-41、,鹿児島県霧島市牧園町三体堂（1824-2、1824-9、1824-41、
8996603,鹿児島県,霧島市,牧園町高千穂（その他）,カゴシマケン,キリシマシ,マキゾノチョウタカチホ(ソノタ),鹿児島県霧島市牧園町高千穂（その他）
8996604,鹿児島県,霧島市,牧園町上中津川（１８９６〜２０７２番）,カゴシマケン,キリシマシ,マキゾノチョウカミナカツガワ(1896-2072バン),鹿児島県霧島市牧園町上中津川（1896〜2072-）
8997100,鹿児島県,志布志市,,カゴシマケン,シブシシ,,鹿児島県志布志市
8997101,鹿児島県,志布志市,志布志町夏井,カゴシマケン,シブシシ,シブシチョウナツイ,鹿児島県志布志市志布志町夏井
8997102,鹿児島県,志布志市,志布志町帖,カゴシマケン,シブシシ,シブシチョウチョウ,鹿児島県志布志市志布志町帖
8997103,鹿児島県,志布志市,志布志町志布志,カゴシマケン,シブシシ,シブシチョウシブシ,鹿児島県志布志市志布志町志布志
8997104,鹿児島県,志布志市,志布志町安楽,カゴシマケン,シブシシ,シブシチョウアンラク,鹿児島県志布志市志布志町安楽
8997211,鹿児島県,志布志市,志布志町内之倉,カゴシマケン,シブシシ,シブシチョウウチノクラ,鹿児島県志布志市志布志町内之倉
8997212,鹿児島県,志布志市,志布志町田之浦,カゴシマケン,シブシシ,シブシチョウタノウラ,鹿児島県志布志市志布志町田之浦
8997300,鹿児島県,曽於郡大崎町,,カゴシマケン,ソオグンオオサキチョウ,,鹿児島県曽於郡大崎町
8997301,鹿児島県,曽於郡大崎町,菱田,カゴシマケン,ソオグンオオサキチョウ,ヒシダ,鹿児島県曽於郡大崎町菱田
8997302,鹿児島県,曽於郡大崎町,神領,カゴシマケン,ソオグンオオサキチョウ,ジンリョウ,鹿児島県曽於郡大崎町神領
8997303,鹿児島県,曽於郡大崎町,益丸,カゴシマケン,ソオグンオオサキチョウ,マスマル,鹿児島県曽於郡大崎町益丸
8997304,鹿児島県,曽於郡大崎町,横瀬,カゴシマケン,ソオグンオオサキチョウ,ヨコセ,鹿児島県曽於郡大崎町横瀬
8997305,鹿児島県,曽於郡大崎町,假宿,カゴシマケン,ソオグンオオサキチョウ,カリジュク,鹿児島県曽於郡大崎町假宿
8997306,鹿児島県,曽於郡大崎町,永吉,カゴシマケン,ソオグンオオサキチョウ,ナガヨシ,鹿児島県曽於郡大崎町永吉
8997307,鹿児島県,曽於郡大崎町,持留,カゴシマケン,ソオグンオオサキチョウ,モチドメ,鹿児島県曽於郡大崎町持留
8997308,鹿児島県,曽於郡大崎町,岡別府,カゴシマケン,ソオグンオオサキチョウ,オカベップ,鹿児島県曽於郡大崎町岡別府
8997309,鹿児島県,曽於郡大崎町,井俣,カゴシマケン,ソオグンオオサキチョウ,イマタ,鹿児島県曽於郡大崎町井俣
8997401,鹿児島県,志布志市,有明町伊崎田,カゴシマケン,シブシシ,アリアケチョウイサキダ,鹿児島県志布志市有明町伊崎田
8997402,鹿児島県,志布志市,有明町野井倉,カゴシマケン,シブシシ,アリアケチョウノイクラ,鹿児島県志布志市有明町野井倉
8997403,鹿児島県,志布志市,有明町蓬原（春日）,カゴシマケン,シブシシ,アリアケチョウフツハラ(カスガ),鹿児島県志布志市有明町蓬原（春日）
8997503,鹿児島県,志布志市,有明町蓬原（その他）,カゴシマケン,シブシシ,アリアケチョウフツハラ(ソノタ),鹿児島県志布志市有明町蓬原（その他）
8997511,鹿児島県,志布志市,有明町原田,カゴシマケン,シブシシ,アリアケチョウハラダ,鹿児島県志布志市有明町原田
8997512,鹿児島県,志布志市,有明町野神（その他）,カゴシマケン,シブシシ,アリアケチョウノガミ(ソノタ),鹿児島県志布志市有明町野神（その他）
8997513,鹿児島県,志布志市,有明町山重,カゴシマケン,シブシシ,アリアケチョウヤマシゲ,鹿児島県志布志市有明町山重
8997601,鹿児島県,志布志市,松山町新橋,カゴシマケン,シブシシ,マツヤマチョウシンバシ,鹿児島県志布志市松山町新橋
8997602,鹿児島県,志布志市,松山町泰野,カゴシマケン,シブシシ,マツヤマチョウタイノ,鹿児島県志布志市松山町泰野
8997603,鹿児島県,志布志市,松山町尾野見,カゴシマケン,シブシシ,マツヤマチョウオノミ,鹿児島県志布志市松山町尾野見
8998101,鹿児島県,曽於市,末吉町岩崎（池原、岩之上、岩南、前田、牧原、道添、宮原）,カゴシマケン,ソオシ,スエヨシチョウイワサキ(イケハラ、イワノウエ、イワミナミ、マエダ、マキハラ、ミチゾイ、ミヤバル),鹿児島県曽於市末吉町岩崎（池原、岩之上、岩南、前田、牧原、道添、宮原）
8998102,鹿児島県,曽於市,大隅町岩川,カゴシマケン,ソオシ,オオスミチョウイワガワ,鹿児島県曽於市大隅町岩川
8998103,鹿児島県,曽於市,大隅町中之内,カゴシマケン,ソオシ,オオスミチョウナカノウチ,鹿児島県曽於市大隅町中之内
8998104,鹿児島県,曽於市,大隅町鳴神町,カゴシマケン,ソオシ,オオスミチョウナルガミマチ,鹿児島県曽於市大隅町鳴神町
8998105,鹿児島県,曽於市,大隅町段中町,カゴシマケン,ソオシ,オオスミチョウダンナカマチ,鹿児島県曽於市大隅町段中町
8998106,鹿児島県,曽於市,大隅町下窪町,カゴシマケン,ソオシ,オオスミチョウシモクボマチ,鹿児島県曽於市大隅町下窪町
8998211,鹿児島県,曽於市,大隅町荒谷（荒谷、大迫、中大迫）,カゴシマケン,ソオシ,オオスミチョウアラタニ(アラタニ、オオサコ、ナカオオサコ),鹿児島県曽於市大隅町荒谷（荒谷、大迫、中大迫）
8998212,鹿児島県,曽於市,大隅町月野,カゴシマケン,ソオシ,オオスミチョウツキノ,鹿児島県曽於市大隅町月野
8998213,鹿児島県,曽於市,大隅町境木町,カゴシマケン,ソオシ,オオスミチョウサカイギマチ,鹿児島県曽於市大隅町境木町
8998311,鹿児島県,曽於市,大隅町荒谷（その他）,カゴシマケン,ソオシ,オオスミチョウアラタニ(ソノタ),鹿児島県曽於市大隅町荒谷（その他）
8998312,鹿児島県,志布志市,有明町野神（抜谷、塗木、本地、曲、水ノ谷）,カゴシマケン,シブシシ,アリアケチョウノガミ(ヌキダニ、ヌルキ、ホンジ、マガリ、ミズノタニ),鹿児島県志布志市有明町野神（抜谷、塗木、本地、曲、水ノ谷）
8998313,鹿児島県,曽於郡大崎町,野方,カゴシマケン,ソオグンオオサキチョウ,ノガタ,鹿児島県曽於郡大崎町野方
8998421,鹿児島県,曽於市,大隅町大谷,カゴシマケン,ソオシ,オオスミチョウオオタニ,鹿児島県曽於市大隅町大谷
8998422,鹿児島県,曽於市,大隅町坂元,カゴシマケン,ソオシ,オオスミチョウサカモト,鹿児島県曽於市大隅町坂元
8998423,鹿児島県,曽於市,大隅町須田木,カゴシマケン,ソオシ,オオスミチョウスダキ,鹿児島県曽於市大隅町須田木
8998424,鹿児島県,曽於市,大隅町恒吉,カゴシマケン,ソオシ,オオスミチョウツネヨシ,鹿児島県曽於市大隅町恒吉
8998511,鹿児島県,鹿屋市,輝北町市成,カゴシマケン,カノヤシ,キホクチョウイチナリ,鹿児島県鹿屋市輝北町市成
8998512,鹿児島県,鹿屋市,輝北町諏訪原,カゴシマケン,カノヤシ,キホクチョウスワバラ,鹿児島県鹿屋市輝北町諏訪原
8998600,鹿児島県,曽於市,,カゴシマケン,ソオシ,,鹿児島県曽於市
8998601,鹿児島県,曽於市,末吉町岩崎（その他）,カゴシマケン,ソオシ,スエヨシチョウイワサキ(ソノタ),鹿児島県曽於市末吉町岩崎（その他）
8998602,鹿児島県,曽於市,末吉町栄町,カゴシマケン,ソオシ,スエヨシチョウサカエマチ,鹿児島県曽於市末吉町栄町
8998603,鹿児島県,曽於市,末吉町新町,カゴシマケン,ソオシ,スエヨシチョウシンマチ,鹿児島県曽於市末吉町新町
8998604,鹿児島県,曽於市,末吉町諏訪方,カゴシマケン,ソオシ,スエヨシチョウスワカタ,鹿児島県曽於市末吉町諏訪方
8998605,鹿児島県,曽於市,末吉町二之方,カゴシマケン,ソオシ,スエヨシチョウニノカタ,鹿児島県曽於市末吉町二之方
8998606,鹿児島県,曽於市,末吉町深川,カゴシマケン,ソオシ,スエヨシチョウフカガワ,鹿児島県曽於市末吉町深川
8998607,鹿児島県,曽於市,末吉町本町,カゴシマケン,ソオシ,スエヨシチョウホンマチ,鹿児島県曽於市末吉町本町
8998608,鹿児島県,曽於市,末吉町南之郷,カゴシマケン,ソオシ,スエヨシチョウミナミノゴウ,鹿児島県曽於市末吉町南之郷
8998609,鹿児島県,曽於市,末吉町上町,カゴシマケン,ソオシ,スエヨシチョウカミマチ,鹿児島県曽於市末吉町上町
