zipcode,prefecture_name,city,town,prefecture_kana,city_kana,town_kana,normalized_address
9000000,沖縄県,那覇市,,オキナワケン,ナハシ,,沖縄県那覇市
9000001,沖縄県,那覇市,港町,オキナワケン,ナハシ,ミナトマチ,沖縄県那覇市港町
9000002,沖縄県,那覇市,曙,オキナワケン,ナハシ,アケボノ,沖縄県那覇市曙
9000003,沖縄県,那覇市,安謝,オキナワケン,ナハシ,アジャ,沖縄県那覇市安謝
9000004,沖縄県,那覇市,銘苅,オキナワケン,ナハシ,メカル,沖縄県那覇市銘苅
9000005,沖縄県,那覇市,天久,オキナワケン,ナハシ,アメク,沖縄県那覇市天久
9000006,沖縄県,那覇市,おもろまち,オキナワケン,ナハシ,オモロマチ,沖縄県那覇市おもろまち
9000011,沖縄県,那覇市,上之屋,オキナワケン,ナハシ,ウエノヤ,沖縄県那覇市上之屋
9000012,沖縄県,那覇市,泊,オキナワケン,ナハシ,トマリ,沖縄県那覇市泊
9000013,沖縄県,那覇市,牧志,オキナワケン,ナハシ,マキシ,沖縄県那覇市牧志
9000014,沖縄県,那覇市,松尾,オキナワケン,ナハシ,マツオ,沖縄県那覇市松尾
9000015,沖縄県,那覇市,久茂地,オキナワケン,ナハシ,クモジ,沖縄県那覇市久茂地
9000016,沖縄県,那覇市,前島,オキナワケン,ナハシ,マエジマ,沖縄県那覇市前島
9000021,沖縄県,那覇市,泉崎,オキナワケン,ナハシ,イズミザキ,沖縄県那覇市泉崎
9000022,沖縄県,那覇市,樋川,オキナワケン,ナハシ,ヒガワ,沖縄県那覇市樋川
9000023,沖縄県,那覇市,楚辺,オキナワケン,ナハシ,ソベ,沖縄県那覇市楚辺
9000024,沖縄県,那覇市,古波蔵,オキナワケン,ナハシ,コハグラ,沖縄県那覇市古波蔵
9000025,沖縄県,那覇市,壺川,オキナワケン,ナハシ,ツボガワ,沖縄県那覇市壺川
9000026,沖縄県,那覇市,奥武山町,オキナワケン,ナハシ,オオノヤマチョウ,沖縄県那覇市奥武山町
9000027,沖縄県,那覇市,山下町,オキナワケン,ナハシ,ヤマシタチョウ,沖縄県那覇市山下町
9000028,沖縄県,那覇市,垣花町,オキナワケン,ナハシ,カキノハナチョウ,沖縄県那覇市垣花町
9000029,沖縄県,那覇市,旭町,オキナワケン,ナハシ,アサヒマチ,沖縄県那覇市旭町
9000031,沖縄県,那覇市,若狭,オキナワケン,ナハシ,ワカサ,沖縄県那覇市若狭
9000032,沖縄県,那覇市,松山,オキナワケン,ナハシ,マツヤマ,沖縄県那覇市松山
9000033,沖縄県,那覇市,久米,オキナワケン,ナハシ,クメ,沖縄県那覇市久米
9000034,沖縄県,那覇市,東町,オキナワケン,ナハシ,ヒガシマチ,沖縄県那覇市東町
9000035,沖縄県,那覇市,通堂町,オキナワケン,ナハシ,トンドウチョウ,沖縄県那覇市通堂町
9000036,沖縄県,那覇市,西,オキナワケン,ナハシ,ニシ,沖縄県那覇市西
9000037,沖縄県,那覇市,辻,オキナワケン,ナハシ,ツジ,沖縄県那覇市辻
9010141,沖縄県,那覇市,住吉町,オキナワケン,ナハシ,スミヨシチョウ,沖縄県那覇市住吉町
9010142,沖縄県,那覇市,鏡水,オキナワケン,ナハシ,カガミズ,沖縄県那覇市鏡水
9010143,沖縄県,那覇市,安次嶺,オキナワケン,ナハシ,アシミネ,沖縄県那覇市安次嶺
9010144,沖縄県,那覇市,当間,オキナワケン,ナハシ,トウマ,沖縄県那覇市当間
9010145,沖縄県,那覇市,高良,オキナワケン,ナハシ,タカラ,沖縄県那覇市高良
9010146,沖縄県,那覇市,具志,オキナワケン,ナハシ,グシ,沖縄県那覇市具志
9010147,沖縄県,那覇市,宮城,オキナワケン,ナハシ,ミヤグスク,沖縄県那覇市宮城
9010148,沖縄県,那覇市,大嶺,オキナワケン,ナハシ,オオミネ,沖縄県那覇市大嶺
9010151,沖縄県,那覇市,鏡原町,オキナワケン,ナハシ,キョウハラチョウ,沖縄県那覇市鏡原町
9010152,沖縄県,那覇市,小禄,オキナワケン,ナハシ,オロク,沖縄県那覇市小禄
9010153,沖縄県,那覇市,宇栄原,オキナワケン,ナハシ,ウエバル,沖縄県那覇市宇栄原
9010154,沖縄県,那覇市,赤嶺,オキナワケン,ナハシ,アカミネ,沖縄県那覇市赤嶺
9010155,沖縄県,那覇市,金城,オキナワケン,ナハシ,カナグスク,沖縄県那覇市金城
9010156,沖縄県,那覇市,田原,オキナワケン,ナハシ,タバル,沖縄県那覇市田原
9010200,沖縄県,豊見城市,,オキナワケン,トミグスクシ,,沖縄県豊見城市
9010201,沖縄県,豊見城市,真玉橋,オキナワケン,トミグスクシ,マダンバシ,沖縄県豊見城市真玉橋
9010202,沖縄県,豊見城市,嘉数,オキナワケン,トミグスクシ,カカズ,沖縄県豊見城市嘉数
9010203,沖縄県,豊見城市,長堂,オキナワケン,トミグスクシ,ナガドウ,沖縄県豊見城市長堂
9010204,沖縄県,豊見城市,金良,オキナワケン,トミグスクシ,カネラ,沖縄県豊見城市金良
9010205,沖縄県,豊見城市,根差部,オキナワケン,トミグスクシ,ネサブ,沖縄県豊見城市根差部
9010211,沖縄県,豊見城市,饒波,オキナワケン,トミグスクシ,ノハ,沖縄県豊見城市饒波
9010212,沖縄県,豊見城市,平良,オキナワケン,トミグスクシ,タイラ,沖縄県豊見城市平良
9010213,沖縄県,豊見城市,高嶺,オキナワケン,トミグスクシ,タカミネ,沖縄県豊見城市高嶺
9010214,沖縄県,豊見城市,保栄茂,オキナワケン,トミグスクシ,ビン,沖縄県豊見城市保栄茂
9010215,沖縄県,豊見城市,渡嘉敷,オキナワケン,トミグスクシ,トカシキ,沖縄県豊見城市渡嘉敷
9010221,沖縄県,豊見城市,座安,オキナワケン,トミグスクシ,ザヤス,沖縄県豊見城市座安
9010222,沖縄県,豊見城市,渡橋名,オキナワケン,トミグスクシ,トハシナ,沖縄県豊見城市渡橋名
9010223,沖縄県,豊見城市,翁長,オキナワケン,トミグスクシ,オナガ,沖縄県豊見城市翁長
9010224,沖縄県,豊見城市,与根,オキナワケン,トミグスクシ,ヨネ,沖縄県豊見城市与根
9010225,沖縄県,豊見城市,豊崎,オキナワケン,トミグスクシ,トヨサキ,沖縄県豊見城市豊崎
9010231,沖縄県,豊見城市,我那覇,オキナワケン,トミグスクシ,ガナハ,沖縄県豊見城市我那覇
9010232,沖縄県,豊見城市,伊良波,オキナワケン,トミグスクシ,イラハ,沖縄県豊見城市伊良波
9010233,沖縄県,豊見城市,瀬長,オキナワケン,トミグスクシ,セナガ,沖縄県豊見城市瀬長
9010234,沖縄県,豊見城市,田頭,オキナワケン,トミグスクシ,タガミ,沖縄県豊見城市田頭
9010235,沖縄県,豊見城市,名嘉地,オキナワケン,トミグスクシ,ナカチ,沖縄県豊見城市名嘉地
9010241,沖縄県,豊見城市,豊見城,オキナワケン,トミグスクシ,トミグスク,沖縄県豊見城市豊見城
9010242,沖縄県,豊見城市,高安,オキナワケン,トミグスクシ,タカヤス,沖縄県豊見城市高安
9010243,沖縄県,豊見城市,上田,オキナワケン,トミグスクシ,ウエタ,沖縄県豊見城市上田
9010244,沖縄県,豊見城市,宜保,オキナワケン,トミグスクシ,ギボ,沖縄県豊見城市宜保
9010300,沖縄県,糸満市,,オキナワケン,イトマンシ,,沖縄県糸満市
9010301,沖縄県,糸満市,阿波根,オキナワケン,イトマンシ,アハゴン,沖縄県糸満市阿波根
9010302,沖縄県,糸満市,潮平,オキナワケン,イトマンシ,シオヒラ,沖縄県糸満市潮平
9010303,沖縄県,糸満市,兼城,オキナワケン,イトマンシ,カネグスク,沖縄県糸満市兼城
9010304,沖縄県,糸満市,西川町,オキナワケン,イトマンシ,ニシカワチョウ,沖縄県糸満市西川町
9010305,沖縄県,糸満市,西崎,オキナワケン,イトマンシ,ニシザキ,沖縄県糸満市西崎
9010306,沖縄県,糸満市,西崎町,オキナワケン,イトマンシ,ニシザキチョウ,沖縄県糸満市西崎町
9010311,沖縄県,糸満市,武富,オキナワケン,イトマンシ,タケトミ,沖縄県糸満市武富
9010312,沖縄県,糸満市,北波平,オキナワケン,イトマンシ,キタナミヒラ,沖縄県糸満市北波平
9010313,沖縄県,糸満市,賀数,オキナワケン,イトマンシ,カカズ,沖縄県糸満市賀数
9010314,沖縄県,糸満市,座波,オキナワケン,イトマンシ,ザハ,沖縄県糸満市座波
9010315,沖縄県,糸満市,照屋,オキナワケン,イトマンシ,テルヤ,沖縄県糸満市照屋
9010321,沖縄県,糸満市,豊原,オキナワケン,イトマンシ,トヨハラ,沖縄県糸満市豊原
9010322,沖縄県,糸満市,与座,オキナワケン,イトマンシ,ヨザ,沖縄県糸満市与座
9010323,沖縄県,糸満市,新垣,オキナワケン,イトマンシ,アラカキ,沖縄県糸満市新垣
9010324,沖縄県,糸満市,国吉,オキナワケン,イトマンシ,クニヨシ,沖縄県糸満市国吉
9010325,沖縄県,糸満市,大里,オキナワケン,イトマンシ,オオザト,沖縄県糸満市大里
9010331,沖縄県,糸満市,真栄平,オキナワケン,イトマンシ,マエヒラ,沖縄県糸満市真栄平
9010332,沖縄県,糸満市,宇江城,オキナワケン,イトマンシ,ウエグスク,沖縄県糸満市宇江城
9010333,沖縄県,糸満市,摩文仁,オキナワケン,イトマンシ,マブニ,沖縄県糸満市摩文仁
9010334,沖縄県,糸満市,大度,オキナワケン,イトマンシ,オオド,沖縄県糸満市大度
9010335,沖縄県,糸満市,米須,オキナワケン,イトマンシ,コメス,沖縄県糸満市米須
9010336,沖縄県,糸満市,真壁,オキナワケン,イトマンシ,マカベ,沖縄県糸満市真壁
9010341,沖縄県,糸満市,小波蔵,オキナワケン,イトマンシ,コハグラ,沖縄県糸満市小波蔵
9010342,沖縄県,糸満市,糸洲,オキナワケン,イトマンシ,イトス,沖縄県糸満市糸洲
9010343,沖縄県,糸満市,南波平,オキナワケン,イトマンシ,ミナミナミヒラ,沖縄県糸満市南波平
9010344,沖縄県,糸満市,伊原,オキナワケン,イトマンシ,イハラ,沖縄県糸満市伊原
9010345,沖縄県,糸満市,福地,オキナワケン,イトマンシ,フクジ,沖縄県糸満市福地
9010351,沖縄県,糸満市,名城,オキナワケン,イトマンシ,ナシロ,沖縄県糸満市名城
9010352,沖縄県,糸満市,山城,オキナワケン,イトマンシ,ヤマグスク,沖縄県糸満市山城
9010353,沖縄県,糸満市,束里,オキナワケン,イトマンシ,ツカザト,沖縄県糸満市束里
9010354,沖縄県,糸満市,喜屋武,オキナワケン,イトマンシ,キャン,沖縄県糸満市喜屋武
9010361,沖縄県,糸満市,糸満,オキナワケン,イトマンシ,イトマン,沖縄県糸満市糸満
9010362,沖縄県,糸満市,真栄里,オキナワケン,イトマンシ,マエザト,沖縄県糸満市真栄里
9010363,沖縄県,糸満市,伊敷,オキナワケン,イトマンシ,イシキ,沖縄県糸満市伊敷
9010364,沖縄県,糸満市,潮崎町,オキナワケン,イトマンシ,シオザキチョウ,沖縄県糸満市潮崎町
9010400,沖縄県,島尻郡八重瀬町,,オキナワケン,シマジリグンヤエセチョウ,,沖縄県島尻郡八重瀬町
9010401,沖縄県,島尻郡八重瀬町,東風平,オキナワケン,シマジリグンヤエセチョウ,コチンダ,沖縄県島尻郡八重瀬町東風平
9010402,沖縄県,島尻郡八重瀬町,富盛,オキナワケン,シマジリグンヤエセチョウ,トモリ,沖縄県島尻郡八重瀬町富盛
9010403,沖縄県,島尻郡八重瀬町,世名城,オキナワケン,シマジリグンヤエセチョウ,ヨナグスク,沖縄県島尻郡八重瀬町世名城
9010404,沖縄県,島尻郡八重瀬町,高良,オキナワケン,シマジリグンヤエセチョウ,タカラ,沖縄県島尻郡八重瀬町高良
9010405,沖縄県,島尻郡八重瀬町,伊覇,オキナワケン,シマジリグンヤエセチョウ,イハ,沖縄県島尻郡八重瀬町伊覇
9010406,沖縄県,島尻郡八重瀬町,屋宜原,オキナワケン,シマジリグンヤエセチョウ,ヤギバル,沖縄県島尻郡八重瀬町屋宜原
9010411,沖縄県,島尻郡八重瀬町,友寄,オキナワケン,シマジリグンヤエセチョウ,トモヨセ,沖縄県島尻郡八重瀬町友寄
9010412,沖縄県,島尻郡八重瀬町,上田原,オキナワケン,シマジリグンヤエセチョウ,ウエタバル,沖縄県島尻郡八重瀬町上田原
9010413,沖縄県,島尻郡八重瀬町,志多伯,オキナワケン,シマジリグンヤエセチョウ,シタハク,沖縄県島尻郡八重瀬町志多伯
9010414,沖縄県,島尻郡八重瀬町,当銘,オキナワケン,シマジリグンヤエセチョウ,トウメ,沖縄県島尻郡八重瀬町当銘
9010415,沖縄県,島尻郡八重瀬町,小城,オキナワケン,シマジリグンヤエセチョウ,コグスク,沖縄県島尻郡八重瀬町小城
9010416,沖縄県,島尻郡八重瀬町,宜次,オキナワケン,シマジリグンヤエセチョウ,ギシ,沖縄県島尻郡八重瀬町宜次
9010417,沖縄県,島尻郡八重瀬町,外間,オキナワケン,シマジリグンヤエセチョウ,ホカマ,沖縄県島尻郡八重瀬町外間
9010501,沖縄県,島尻郡八重瀬町,長毛,オキナワケン,シマジリグンヤエセチョウ,ナガモウ,沖縄県島尻郡八重瀬町長毛
9010502,沖縄県,島尻郡八重瀬町,大頓,オキナワケン,シマジリグンヤエセチョウ,オオトン,沖縄県島尻郡八重瀬町大頓
9010503,沖縄県,島尻郡八重瀬町,新城,オキナワケン,シマジリグンヤエセチョウ,アラグスク,沖縄県島尻郡八重瀬町新城
9010504,沖縄県,島尻郡八重瀬町,後原,オキナワケン,シマジリグンヤエセチョウ,コシハラ,沖縄県島尻郡八重瀬町後原
9010511,沖縄県,島尻郡八重瀬町,港川,オキナワケン,シマジリグンヤエセチョウ,ミナトガワ,沖縄県島尻郡八重瀬町港川
9010512,沖縄県,島尻郡八重瀬町,具志頭,オキナワケン,シマジリグンヤエセチョウ,グシチャン,沖縄県島尻郡八重瀬町具志頭
9010513,沖縄県,島尻郡八重瀬町,玻名城,オキナワケン,シマジリグンヤエセチョウ,ハナシロ,沖縄県島尻郡八重瀬町玻名城
9010514,沖縄県,島尻郡八重瀬町,安里,オキナワケン,シマジリグンヤエセチョウ,アサト,沖縄県島尻郡八重瀬町安里
9010515,沖縄県,島尻郡八重瀬町,与座,オキナワケン,シマジリグンヤエセチョウ,ヨザ,沖縄県島尻郡八重瀬町与座
9010516,沖縄県,島尻郡八重瀬町,仲座,オキナワケン,シマジリグンヤエセチョウ,ナカザ,沖縄県島尻郡八重瀬町仲座
9010601,沖縄県,南城市,玉城垣花,オキナワケン,ナンジョウシ,タマグスクカキノハナ,沖縄県南城市玉城垣花
9010602,沖縄県,南城市,玉城仲村渠,オキナワケン,ナンジョウシ,タマグスクナカンダカリ,沖縄県南城市玉城仲村渠
9010603,沖縄県,南城市,玉城百名,オキナワケン,ナンジョウシ,タマグスクヒャクナ,沖縄県南城市玉城百名
9010604,沖縄県,南城市,玉城玉城,オキナワケン,ナンジョウシ,タマグスクタマグスク,沖縄県南城市玉城玉城
9010605,沖縄県,南城市,玉城中山,オキナワケン,ナンジョウシ,タマグスクナカヤマ,沖縄県南城市玉城中山
9010606,沖縄県,南城市,玉城糸数,オキナワケン,ナンジョウシ,タマグスクイトカズ,沖縄県南城市玉城糸数
9010607,沖縄県,南城市,玉城喜良原,オキナワケン,ナンジョウシ,タマグスクキラバル,沖縄県南城市玉城喜良原
9010608,沖縄県,南城市,玉城親慶原,オキナワケン,ナンジョウシ,タマグスクオヤケバル,沖縄県南城市玉城親慶原
9010611,沖縄県,南城市,玉城富里,オキナワケン,ナンジョウシ,タマグスクフサト,沖縄県南城市玉城富里
9010612,沖縄県,南城市,玉城當山,オキナワケン,ナンジョウシ,タマグスクトウヤマ,沖縄県南城市玉城當山
9010613,沖縄県,南城市,玉城志堅原,オキナワケン,ナンジョウシ,タマグスクシケンバル,沖縄県南城市玉城志堅原
9010614,沖縄県,南城市,玉城奥武,オキナワケン,ナンジョウシ,タマグスクオウ,沖縄県南城市玉城奥武
9010615,沖縄県,南城市,玉城堀川,オキナワケン,ナンジョウシ,タマグスクホリカワ,沖縄県南城市玉城堀川
9010616,沖縄県,南城市,玉城前川,オキナワケン,ナンジョウシ,タマグスクマエカワ,沖縄県南城市玉城前川
9010617,沖縄県,南城市,玉城愛地,オキナワケン,ナンジョウシ,タマグスクアイチ,沖縄県南城市玉城愛地
9010618,沖縄県,南城市,玉城船越,オキナワケン,ナンジョウシ,タマグスクフナコシ,沖縄県南城市玉城船越
9010619,沖縄県,南城市,玉城屋嘉部,オキナワケン,ナンジョウシ,タマグスクヤカブ,沖縄県南城市玉城屋嘉部
9011100,沖縄県,島尻郡南風原町,,オキナワケン,シマジリグンハエバルチョウ,,沖縄県島尻郡南風原町
9011101,沖縄県,島尻郡南風原町,大名,オキナワケン,シマジリグンハエバルチョウ,オオナ,沖縄県島尻郡南風原町大名
9011102,沖縄県,島尻郡南風原町,宮城,オキナワケン,シマジリグンハエバルチョウ,ミヤグスク,沖縄県島尻郡南風原町宮城
9011103,沖縄県,島尻郡南風原町,与那覇,オキナワケン,シマジリグンハエバルチョウ,ヨナハ,沖縄県島尻郡南風原町与那覇
9011104,沖縄県,島尻郡南風原町,宮平,オキナワケン,シマジリグンハエバルチョウ,ミヤヒラ,沖縄県島尻郡南風原町宮平
9011105,沖縄県,島尻郡南風原町,新川,オキナワケン,シマジリグンハエバルチョウ,アラカワ,沖縄県島尻郡南風原町新川
9011111,沖縄県,島尻郡南風原町,兼城,オキナワケン,シマジリグンハエバルチョウ,カネグスク,沖縄県島尻郡南風原町兼城
9011112,沖縄県,島尻郡南風原町,本部,オキナワケン,シマジリグンハエバルチョウ,モトブ,沖縄県島尻郡南風原町本部
9011113,沖縄県,島尻郡南風原町,喜屋武,オキナワケン,シマジリグンハエバルチョウ,キャン,沖縄県島尻郡南風原町喜屋武
9011114,沖縄県,島尻郡南風原町,神里,オキナワケン,シマジリグンハエバルチョウ,カミザト,沖縄県島尻郡南風原町神里
9011115,沖縄県,島尻郡南風原町,山川,オキナワケン,シマジリグンハエバルチョウ,ヤマカワ,沖縄県島尻郡南風原町山川
9011116,沖縄県,島尻郡南風原町,照屋,オキナワケン,シマジリグンハエバルチョウ,テルヤ,沖縄県島尻郡南風原町照屋
9011117,沖縄県,島尻郡南風原町,津嘉山,オキナワケン,シマジリグンハエバルチョウ,ツカザン,沖縄県島尻郡南風原町津嘉山
9011201,沖縄県,南城市,大里嶺井,オキナワケン,ナンジョウシ,オオザトミネイ,沖縄県南城市大里嶺井
9011202,沖縄県,南城市,大里大里,オキナワケン,ナンジョウシ,オオザトオオザト,沖縄県南城市大里大里
9011203,沖縄県,南城市,大里大城,オキナワケン,ナンジョウシ,オオザトオオシロ,沖縄県南城市大里大城
9011204,沖縄県,南城市,大里稲嶺,オキナワケン,ナンジョウシ,オオザトイナミネ,沖縄県南城市大里稲嶺
9011205,沖縄県,南城市,大里高平,オキナワケン,ナンジョウシ,オオザトタカヒラ,沖縄県南城市大里高平
9011206,沖縄県,南城市,大里仲間,オキナワケン,ナンジョウシ,オオザトナカマ,沖縄県南城市大里仲間
9011207,沖縄県,南城市,大里古堅,オキナワケン,ナンジョウシ,オオザトフルゲン,沖縄県南城市大里古堅
9011208,沖縄県,南城市,大里平良,オキナワケン,ナンジョウシ,オオザトタイラ,沖縄県南城市大里平良
9011300,沖縄県,島尻郡与那原町,,オキナワケン,シマジリグンヨナバルチョウ,,沖縄県島尻郡与那原町
9011301,沖縄県,島尻郡与那原町,板良敷,オキナワケン,シマジリグンヨナバルチョウ,イタラシキ,沖縄県島尻郡与那原町板良敷
9011302,沖縄県,島尻郡与那原町,上与那原,オキナワケン,シマジリグンヨナバルチョウ,ウエヨナバル,沖縄県島尻郡与那原町上与那原
9011303,沖縄県,島尻郡与那原町,与那原,オキナワケン,シマジリグンヨナバルチョウ,ヨナバル,沖縄県島尻郡与那原町与那原
9011304,沖縄県,島尻郡与那原町,東浜,オキナワケン,シマジリグンヨナバルチョウ,アガリハマ,沖縄県島尻郡与那原町東浜
9011400,沖縄県,南城市,,オキナワケン,ナンジョウシ,,沖縄県南城市
9011401,沖縄県,南城市,佐敷伊原,オキナワケン,ナンジョウシ,サシキイバラ,沖縄県南城市佐敷伊原
9011402,沖縄県,南城市,佐敷手登根,オキナワケン,ナンジョウシ,サシキテドコン,沖縄県南城市佐敷手登根
9011403,沖縄県,南城市,佐敷佐敷,オキナワケン,ナンジョウシ,サシキサシキ,沖縄県南城市佐敷佐敷
9011404,沖縄県,南城市,佐敷冨祖崎,オキナワケン,ナンジョウシ,サシキフソザキ,沖縄県南城市佐敷冨祖崎
9011405,沖縄県,南城市,佐敷仲伊保,オキナワケン,ナンジョウシ,サシキナカイホ,沖縄県南城市佐敷仲伊保
9011406,沖縄県,南城市,佐敷屋比久,オキナワケン,ナンジョウシ,サシキヤビク,沖縄県南城市佐敷屋比久
9011407,沖縄県,南城市,つきしろ,オキナワケン,ナンジョウシ,ツキシロ,沖縄県南城市つきしろ
9011411,沖縄県,南城市,佐敷兼久,オキナワケン,ナンジョウシ,サシキカネク,沖縄県南城市佐敷兼久
9011412,沖縄県,南城市,佐敷新里,オキナワケン,ナンジョウシ,サシキシンザト,沖縄県南城市佐敷新里
9011413,沖縄県,南城市,佐敷小谷,オキナワケン,ナンジョウシ,サシキオコク,沖縄県南城市佐敷小谷
9011414,沖縄県,南城市,佐敷津波古,オキナワケン,ナンジョウシ,サシキツハコ,沖縄県南城市佐敷津波古
9011415,沖縄県,南城市,佐敷新開,オキナワケン,ナンジョウシ,サシキシンカイ,沖縄県南城市佐敷新開
9011501,沖縄県,南城市,知念久高,オキナワケン,ナンジョウシ,チネンクダカ,沖縄県南城市知念久高
9011502,沖縄県,南城市,知念安座真,オキナワケン,ナンジョウシ,チネンアザマ,沖縄県南城市知念安座真
9011503,沖縄県,南城市,知念知名,オキナワケン,ナンジョウシ,チネンチナ,沖縄県南城市知念知名
9011504,沖縄県,南城市,知念海野,オキナワケン,ナンジョウシ,チネンウミノ,沖縄県南城市知念海野
9011505,沖縄県,南城市,知念久原,オキナワケン,ナンジョウシ,チネンクハラ,沖縄県南城市知念久原
9011511,沖縄県,南城市,知念久手堅,オキナワケン,ナンジョウシ,チネンクデケン,沖縄県南城市知念久手堅
9011512,沖縄県,南城市,知念吉富,オキナワケン,ナンジョウシ,チネンヨシトミ,沖縄県南城市知念吉富
9011513,沖縄県,南城市,知念知念,オキナワケン,ナンジョウシ,チネンチネン,沖縄県南城市知念知念
9011514,沖縄県,南城市,知念具志堅,オキナワケン,ナンジョウシ,チネングシケン,沖縄県南城市知念具志堅
9011515,沖縄県,南城市,知念山里,オキナワケン,ナンジョウシ,チネンヤマザト,沖縄県南城市知念山里
9011516,沖縄県,南城市,知念志喜屋,オキナワケン,ナンジョウシ,チネンシキヤ,沖縄県南城市知念志喜屋
9012100,沖縄県,浦添市,,オキナワケン,ウラソエシ,,沖縄県浦添市
9012101,沖縄県,浦添市,西原,オキナワケン,ウラソエシ,ニシハラ,沖縄県浦添市西原
9012102,沖縄県,浦添市,前田,オキナワケン,ウラソエシ,マエダ,沖縄県浦添市前田
9012103,沖縄県,浦添市,仲間,オキナワケン,ウラソエシ,ナカマ,沖縄県浦添市仲間
9012104,沖縄県,浦添市,当山,オキナワケン,ウラソエシ,トウヤマ,沖縄県浦添市当山
9012111,沖縄県,浦添市,経塚,オキナワケン,ウラソエシ,キョウヅカ,沖縄県浦添市経塚
9012112,沖縄県,浦添市,沢岻,オキナワケン,ウラソエシ,タクシ,沖縄県浦添市沢岻
9012113,沖縄県,浦添市,大平,オキナワケン,ウラソエシ,オオヒラ,沖縄県浦添市大平
9012114,沖縄県,浦添市,安波茶,オキナワケン,ウラソエシ,アハチャ,沖縄県浦添市安波茶
9012121,沖縄県,浦添市,内間,オキナワケン,ウラソエシ,ウチマ,沖縄県浦添市内間
9012122,沖縄県,浦添市,勢理客,オキナワケン,ウラソエシ,ジッチャク,沖縄県浦添市勢理客
9012123,沖縄県,浦添市,西洲,オキナワケン,ウラソエシ,イリジマ,沖縄県浦添市西洲
9012124,沖縄県,浦添市,小湾,オキナワケン,ウラソエシ,コワン,沖縄県浦添市小湾
9012125,沖縄県,浦添市,仲西,オキナワケン,ウラソエシ,ナカニシ,沖縄県浦添市仲西
9012126,沖縄県,浦添市,宮城,オキナワケン,ウラソエシ,ミヤギ,沖縄県浦添市宮城
9012127,沖縄県,浦添市,屋富祖,オキナワケン,ウラソエシ,ヤフソ,沖縄県浦添市屋富祖
9012128,沖縄県,浦添市,伊奈武瀬,オキナワケン,ウラソエシ,イナンセ,沖縄県浦添市伊奈武瀬
9012131,沖縄県,浦添市,牧港,オキナワケン,ウラソエシ,マキミナト,沖縄県浦添市牧港
9012132,沖縄県,浦添市,伊祖,オキナワケン,ウラソエシ,イソ,沖縄県浦添市伊祖
9012133,沖縄県,浦添市,城間,オキナワケン,ウラソエシ,グスクマ,沖縄県浦添市城間
9012134,沖縄県,浦添市,港川,オキナワケン,ウラソエシ,ミナトガワ,沖縄県浦添市港川
9012200,沖縄県,宜野湾市,,オキナワケン,ギノワンシ,,沖縄県宜野湾市
9012201,沖縄県,宜野湾市,新城,オキナワケン,ギノワンシ,アラグスク,沖縄県宜野湾市新城
9012202,沖縄県,宜野湾市,普天間,オキナワケン,ギノワンシ,フテンマ,沖縄県宜野湾市普天間
9012203,沖縄県,宜野湾市,野嵩,オキナワケン,ギノワンシ,ノダケ,沖縄県宜野湾市野嵩
9012204,沖縄県,宜野湾市,上原,オキナワケン,ギノワンシ,ウエハラ,沖縄県宜野湾市上原
9012205,沖縄県,宜野湾市,赤道,オキナワケン,ギノワンシ,アカミチ,沖縄県宜野湾市赤道
9012206,沖縄県,宜野湾市,愛知,オキナワケン,ギノワンシ,アイチ,沖縄県宜野湾市愛知
9012207,沖縄県,宜野湾市,神山,オキナワケン,ギノワンシ,カミヤマ,沖縄県宜野湾市神山
9012211,沖縄県,宜野湾市,宜野湾,オキナワケン,ギノワンシ,ギノワン,沖縄県宜野湾市宜野湾
9012212,沖縄県,宜野湾市,長田,オキナワケン,ギノワンシ,ナガタ,沖縄県宜野湾市長田
9012213,沖縄県,宜野湾市,志真志,オキナワケン,ギノワンシ,シマシ,沖縄県宜野湾市志真志
9012214,沖縄県,宜野湾市,我如古,オキナワケン,ギノワンシ,ガネコ,沖縄県宜野湾市我如古
9012215,沖縄県,宜野湾市,真栄原,オキナワケン,ギノワンシ,マエハラ,沖縄県宜野湾市真栄原
9012216,沖縄県,宜野湾市,佐真下,オキナワケン,ギノワンシ,サマシタ,沖縄県宜野湾市佐真下
9012221,沖縄県,宜野湾市,伊佐,オキナワケン,ギノワンシ,イサ,沖縄県宜野湾市伊佐
9012222,沖縄県,宜野湾市,喜友名,オキナワケン,ギノワンシ,キユウナ,沖縄県宜野湾市喜友名
9012223,沖縄県,宜野湾市,大山,オキナワケン,ギノワンシ,オオヤマ,沖縄県宜野湾市大山
9012224,沖縄県,宜野湾市,真志喜,オキナワケン,ギノワンシ,マシキ,沖縄県宜野湾市真志喜
9012225,沖縄県,宜野湾市,大謝名,オキナワケン,ギノワンシ,オオジャナ,沖縄県宜野湾市大謝名
9012226,沖縄県,宜野湾市,嘉数,オキナワケン,ギノワンシ,カカズ,沖縄県宜野湾市嘉数
9012227,沖縄県,宜野湾市,宇地泊,オキナワケン,ギノワンシ,ウチドマリ,沖縄県宜野湾市宇地泊
9012300,沖縄県,中頭郡北中城村,,オキナワケン,ナカガミグンキタナカグスクソン,,沖縄県中頭郡北中城村
9012301,沖縄県,中頭郡北中城村,島袋,オキナワケン,ナカガミグンキタナカグスクソン,シマブク,沖縄県中頭郡北中城村島袋
9012302,沖縄県,中頭郡北中城村,渡口,オキナワケン,ナカガミグンキタナカグスクソン,トグチ,沖縄県中頭郡北中城村渡口
9012303,沖縄県,中頭郡北中城村,仲順,オキナワケン,ナカガミグンキタナカグスクソン,チュンジュン,沖縄県中頭郡北中城村仲順
9012304,沖縄県,中頭郡北中城村,屋宜原,オキナワケン,ナカガミグンキタナカグスクソン,ヤギバル,沖縄県中頭郡北中城村屋宜原
9012305,沖縄県,中頭郡北中城村,比嘉,オキナワケン,ナカガミグンキタナカグスクソン,ヒガ,沖縄県中頭郡北中城村比嘉
9012306,沖縄県,中頭郡北中城村,ライカム,オキナワケン,ナカガミグンキタナカグスクソン,ライカム,沖縄県中頭郡北中城村ライカム
9012311,沖縄県,中頭郡北中城村,喜舎場,オキナワケン,ナカガミグンキタナカグスクソン,キシャバ,沖縄県中頭郡北中城村喜舎場
9012312,沖縄県,中頭郡北中城村,和仁屋,オキナワケン,ナカガミグンキタナカグスクソン,ワニヤ,沖縄県中頭郡北中城村和仁屋
9012313,沖縄県,中頭郡北中城村,熱田,オキナワケン,ナカガミグンキタナカグスクソン,アッタ,沖縄県中頭郡北中城村熱田
9012314,沖縄県,中頭郡北中城村,大城,オキナワケン,ナカガミグンキタナカグスクソン,オオグスク,沖縄県中頭郡北中城村大城
9012315,沖縄県,中頭郡北中城村,荻道,オキナワケン,ナカガミグンキタナカグスクソン,オギドウ,沖縄県中頭郡北中城村荻道
9012316,沖縄県,中頭郡北中城村,安谷屋,オキナワケン,ナカガミグンキタナカグスクソン,アダニヤ,沖縄県中頭郡北中城村安谷屋
9012317,沖縄県,中頭郡北中城村,瑞慶覧,オキナワケン,ナカガミグンキタナカグスクソン,ズケラン,沖縄県中頭郡北中城村瑞慶覧
9012321,沖縄県,中頭郡北中城村,美崎,オキナワケン,ナカガミグンキタナカグスクソン,ミサキ,沖縄県中頭郡北中城村美崎
9012400,沖縄県,中頭郡中城村,,オキナワケン,ナカガミグンナカグスクソン,,沖縄県中頭郡中城村
9012401,沖縄県,中頭郡中城村,久場,オキナワケン,ナカガミグンナカグスクソン,クバ,沖縄県中頭郡中城村久場
9012402,沖縄県,中頭郡中城村,泊,オキナワケン,ナカガミグンナカグスクソン,トマリ,沖縄県中頭郡中城村泊
9012403,沖縄県,中頭郡中城村,伊舎堂,オキナワケン,ナカガミグンナカグスクソン,イシャドウ,沖縄県中頭郡中城村伊舎堂
9012404,沖縄県,中頭郡中城村,添石,オキナワケン,ナカガミグンナカグスクソン,ソエシ,沖縄県中頭郡中城村添石
9012405,沖縄県,中頭郡中城村,屋宜,オキナワケン,ナカガミグンナカグスクソン,ヤギ,沖縄県中頭郡中城村屋宜
9012406,沖縄県,中頭郡中城村,当間,オキナワケン,ナカガミグンナカグスクソン,トウマ,沖縄県中頭郡中城村当間
9012407,沖縄県,中頭郡中城村,安里,オキナワケン,ナカガミグンナカグスクソン,アサト,沖縄県中頭郡中城村安里
9012411,沖縄県,中頭郡中城村,浜,オキナワケン,ナカガミグンナカグスクソン,ハマ,沖縄県中頭郡中城村浜
9012412,沖縄県,中頭郡中城村,奥間,オキナワケン,ナカガミグンナカグスクソン,オクマ,沖縄県中頭郡中城村奥間
9012413,沖縄県,中頭郡中城村,津覇,オキナワケン,ナカガミグンナカグスクソン,ツハ,沖縄県中頭郡中城村津覇
9012414,沖縄県,中頭郡中城村,北浜,オキナワケン,ナカガミグンナカグスクソン,キタハマ,沖縄県中頭郡中城村北浜
9012415,沖縄県,中頭郡中城村,南浜,オキナワケン,ナカガミグンナカグスクソン,ミナミハマ,沖縄県中頭郡中城村南浜
9012416,沖縄県,中頭郡中城村,和宇慶,オキナワケン,ナカガミグンナカグスクソン,ワウケ,沖縄県中頭郡中城村和宇慶
9012417,沖縄県,中頭郡中城村,伊集,オキナワケン,ナカガミグンナカグスクソン,イジュ,沖縄県中頭郡中城村伊集
9012421,沖縄県,中頭郡中城村,登又,オキナワケン,ナカガミグンナカグスクソン,ノボリマタ,沖縄県中頭郡中城村登又
9012422,沖縄県,中頭郡中城村,新垣,オキナワケン,ナカガミグンナカグスクソン,アラカキ,沖縄県中頭郡中城村新垣
9012423,沖縄県,中頭郡中城村,北上原,オキナワケン,ナカガミグンナカグスクソン,キタウエバル,沖縄県中頭郡中城村北上原
9012424,沖縄県,中頭郡中城村,南上原,オキナワケン,ナカガミグンナカグスクソン,ミナミウエバル,沖縄県中頭郡中城村南上原
9013100,沖縄県,島尻郡久米島町,,オキナワケン,シマジリグンクメジマチョウ,,沖縄県島尻郡久米島町
9013101,沖縄県,島尻郡久米島町,宇江城,オキナワケン,シマジリグンクメジマチョウ,ウエグスク,沖縄県島尻郡久米島町宇江城
9013102,沖縄県,島尻郡久米島町,比屋定,オキナワケン,シマジリグンクメジマチョウ,ヒヤジョウ,沖縄県島尻郡久米島町比屋定
9013103,沖縄県,島尻郡久米島町,阿嘉,オキナワケン,シマジリグンクメジマチョウ,アカ,沖縄県島尻郡久米島町阿嘉
9013104,沖縄県,島尻郡久米島町,真謝,オキナワケン,シマジリグンクメジマチョウ,マジャ,沖縄県島尻郡久米島町真謝
9013105,沖縄県,島尻郡久米島町,宇根,オキナワケン,シマジリグンクメジマチョウ,ウネ,沖縄県島尻郡久米島町宇根
9013106,沖縄県,島尻郡久米島町,奥武,オキナワケン,シマジリグンクメジマチョウ,オウ,沖縄県島尻郡久米島町奥武
9013107,沖縄県,島尻郡久米島町,謝名堂,オキナワケン,シマジリグンクメジマチョウ,ジャナドウ,沖縄県島尻郡久米島町謝名堂
9013108,沖縄県,島尻郡久米島町,比嘉,オキナワケン,シマジリグンクメジマチョウ,ヒガ,沖縄県島尻郡久米島町比嘉
9013111,沖縄県,島尻郡久米島町,山城,オキナワケン,シマジリグンクメジマチョウ,ヤマグスク,沖縄県島尻郡久米島町山城
9013112,沖縄県,島尻郡久米島町,真我里,オキナワケン,シマジリグンクメジマチョウ,マガリ,沖縄県島尻郡久米島町真我里
9013113,沖縄県,島尻郡久米島町,銭田,オキナワケン,シマジリグンクメジマチョウ,ゼンダ,沖縄県島尻郡久米島町銭田
9013114,沖縄県,島尻郡久米島町,島尻,オキナワケン,シマジリグンクメジマチョウ,シマジリ,沖縄県島尻郡久米島町島尻
9013115,沖縄県,島尻郡久米島町,儀間,オキナワケン,シマジリグンクメジマチョウ,ギマ,沖縄県島尻郡久米島町儀間
9013121,沖縄県,島尻郡久米島町,嘉手苅,オキナワケン,シマジリグンクメジマチョウ,カデカル,沖縄県島尻郡久米島町嘉手苅
9013122,沖縄県,島尻郡久米島町,兼城,オキナワケン,シマジリグンクメジマチョウ,カネグスク,沖縄県島尻郡久米島町兼城
9013123,沖縄県,島尻郡久米島町,大田,オキナワケン,シマジリグンクメジマチョウ,オオタ,沖縄県島尻郡久米島町大田
9013124,沖縄県,島尻郡久米島町,仲泊,オキナワケン,シマジリグンクメジマチョウ,ナカドマリ,沖縄県島尻郡久米島町仲泊
9013125,沖縄県,島尻郡久米島町,鳥島,オキナワケン,シマジリグンクメジマチョウ,トリシマ,沖縄県島尻郡久米島町鳥島
9013131,沖縄県,島尻郡久米島町,西銘,オキナワケン,シマジリグンクメジマチョウ,ニシメ,沖縄県島尻郡久米島町西銘
9013132,沖縄県,島尻郡久米島町,大原,オキナワケン,シマジリグンクメジマチョウ,オオハラ,沖縄県島尻郡久米島町大原
9013133,沖縄県,島尻郡久米島町,北原,オキナワケン,シマジリグンクメジマチョウ,キタハラ,沖縄県島尻郡久米島町北原
9013134,沖縄県,島尻郡久米島町,具志川,オキナワケン,シマジリグンクメジマチョウ,グシカワ,沖縄県島尻郡久米島町具志川
9013135,沖縄県,島尻郡久米島町,仲村渠,オキナワケン,シマジリグンクメジマチョウ,ナカンダカリ,沖縄県島尻郡久米島町仲村渠
9013136,沖縄県,島尻郡久米島町,仲地,オキナワケン,シマジリグンクメジマチョウ,ナカチ,沖縄県島尻郡久米島町仲地
9013137,沖縄県,島尻郡久米島町,山里,オキナワケン,シマジリグンクメジマチョウ,ヤマザト,沖縄県島尻郡久米島町山里
9013138,沖縄県,島尻郡久米島町,上江洲,オキナワケン,シマジリグンクメジマチョウ,ウエズ,沖縄県島尻郡久米島町上江洲
9013311,沖縄県,島尻郡座間味村,阿嘉,オキナワケン,シマジリグンザマミソン,アカ,沖縄県島尻郡座間味村阿嘉
9013312,沖縄県,島尻郡座間味村,慶留間,オキナワケン,シマジリグンザマミソン,ゲルマ,沖縄県島尻郡座間味村慶留間
9013400,沖縄県,島尻郡座間味村,,オキナワケン,シマジリグンザマミソン,,沖縄県島尻郡座間味村
9013401,沖縄県,島尻郡座間味村,阿佐,オキナワケン,シマジリグンザマミソン,アサ,沖縄県島尻郡座間味村阿佐
9013402,沖縄県,島尻郡座間味村,座間味,オキナワケン,シマジリグンザマミソン,ザマミ,沖縄県島尻郡座間味村座間味
9013403,沖縄県,島尻郡座間味村,阿真,オキナワケン,シマジリグンザマミソン,アマ,沖縄県島尻郡座間味村阿真
9013500,沖縄県,島尻郡渡嘉敷村,,オキナワケン,シマジリグントカシキソン,,沖縄県島尻郡渡嘉敷村
9013501,沖縄県,島尻郡渡嘉敷村,渡嘉敷,オキナワケン,シマジリグントカシキソン,トカシキ,沖縄県島尻郡渡嘉敷村渡嘉敷
9013502,沖縄県,島尻郡渡嘉敷村,阿波連,オキナワケン,シマジリグントカシキソン,アハレン,沖縄県島尻郡渡嘉敷村阿波連
9013601,沖縄県,島尻郡渡名喜村,,オキナワケン,シマジリグントナキソン,,沖縄県島尻郡渡名喜村
9013700,沖縄県,島尻郡粟国村,,オキナワケン,シマジリグンアグニソン,,沖縄県島尻郡粟国村
9013701,沖縄県,島尻郡粟国村,浜,オキナワケン,シマジリグンアグニソン,ハマ,沖縄県島尻郡粟国村浜
9013702,沖縄県,島尻郡粟国村,東,オキナワケン,シマジリグンアグニソン,ヒガシ,沖縄県島尻郡粟国村東
9013703,沖縄県,島尻郡粟国村,西,オキナワケン,シマジリグンアグニソン,ニシ,沖縄県島尻郡粟国村西
9013800,沖縄県,島尻郡南大東村,,オキナワケン,シマジリグンミナミダイトウソン,,沖縄県島尻郡南大東村
9013801,沖縄県,島尻郡南大東村,北,オキナワケン,シマジリグンミナミダイトウソン,キタ,沖縄県島尻郡南大東村北
9013802,沖縄県,島尻郡南大東村,新東,オキナワケン,シマジリグンミナミダイトウソン,シントウ,沖縄県島尻郡南大東村新東
9013803,沖縄県,島尻郡南大東村,旧東,オキナワケン,シマジリグンミナミダイトウソン,キュウトウ,沖縄県島尻郡南大東村旧東
9013804,沖縄県,島尻郡南大東村,南,オキナワケン,シマジリグンミナミダイトウソン,ミナミ,沖縄県島尻郡南大東村南
9013805,沖縄県,島尻郡南大東村,在所,オキナワケン,シマジリグンミナミダイトウソン,ザイショ,沖縄県島尻郡南大東村在所
9013806,沖縄県,島尻郡南大東村,池之沢,オキナワケン,シマジリグンミナミダイトウソン,イケノサワ,沖縄県島尻郡南大東村池之沢
9013900,沖縄県,島尻郡北大東村,,オキナワケン,シマジリグンキタダイトウソン,,沖縄県島尻郡北大東村
9013901,沖縄県,島尻郡北大東村,南,オキナワケン,シマジリグンキタダイトウソン,ミナミ,沖縄県島尻郡北大東村南
9013902,沖縄県,島尻郡北大東村,中野,オキナワケン,シマジリグンキタダイトウソン,ナカノ,沖縄県島尻郡北大東村中野
9013903,沖縄県,島尻郡北大東村,港,オキナワケン,シマジリグンキタダイトウソン,ミナト,沖縄県島尻郡北大東村港
9020061,沖縄県,那覇市,古島,オキナワケン,ナハシ,フルジマ,沖縄県那覇市古島
9020062,沖縄県,那覇市,松川,オキナワケン,ナハシ,マツガワ,沖縄県那覇市松川
9020063,沖縄県,那覇市,三原,オキナワケン,ナハシ,ミハラ,沖縄県那覇市三原
9020064,沖縄県,那覇市,寄宮,オキナワケン,ナハシ,ヨリミヤ,沖縄県那覇市寄宮
9020065,沖縄県,那覇市,壺屋,オキナワケン,ナハシ,ツボヤ,沖縄県那覇市壺屋
9020066,沖縄県,那覇市,大道,オキナワケン,ナハシ,ダイドウ,沖縄県那覇市大道
9020067,沖縄県,那覇市,安里,オキナワケン,ナハシ,アサト,沖縄県那覇市安里
9020068,沖縄県,那覇市,真嘉比,オキナワケン,ナハシ,マカビ,沖縄県那覇市真嘉比
9020069,沖縄県,那覇市,松島,オキナワケン,ナハシ,マツシマ,沖縄県那覇市松島
9020071,沖縄県,那覇市,繁多川,オキナワケン,ナハシ,ハンタガワ,沖縄県那覇市繁多川
9020072,沖縄県,那覇市,真地,オキナワケン,ナハシ,マアジ,沖縄県那覇市真地
9020073,沖縄県,那覇市,上間,オキナワケン,ナハシ,ウエマ,沖縄県那覇市上間
9020074,沖縄県,那覇市,仲井真,オキナワケン,ナハシ,ナカイマ,沖縄県那覇市仲井真
9020075,沖縄県,那覇市,国場,オキナワケン,ナハシ,コクバ,沖縄県那覇市国場
9020076,沖縄県,那覇市,与儀,オキナワケン,ナハシ,ヨギ,沖縄県那覇市与儀
9020077,沖縄県,那覇市,長田,オキナワケン,ナハシ,ナガタ,沖縄県那覇市長田
9020078,沖縄県,那覇市,識名,オキナワケン,ナハシ,シキナ,沖縄県那覇市識名
9030100,沖縄県,中頭郡西原町,,オキナワケン,ナカガミグンニシハラチョウ,,沖縄県中頭郡西原町
9030101,沖縄県,中頭郡西原町,掛保久,オキナワケン,ナカガミグンニシハラチョウ,カケボク,沖縄県中頭郡西原町掛保久
9030102,沖縄県,中頭郡西原町,嘉手苅,オキナワケン,ナカガミグンニシハラチョウ,カデカル,沖縄県中頭郡西原町嘉手苅
9030103,沖縄県,中頭郡西原町,小那覇,オキナワケン,ナカガミグンニシハラチョウ,オナハ,沖縄県中頭郡西原町小那覇
9030104,沖縄県,中頭郡西原町,兼久,オキナワケン,ナカガミグンニシハラチョウ,カネク,沖縄県中頭郡西原町兼久
9030105,沖縄県,中頭郡西原町,東崎,オキナワケン,ナカガミグンニシハラチョウ,アガリザキ,沖縄県中頭郡西原町東崎
9030111,沖縄県,中頭郡西原町,与那城,オキナワケン,ナカガミグンニシハラチョウ,ヨナグスク,沖縄県中頭郡西原町与那城
9030112,沖縄県,中頭郡西原町,我謝,オキナワケン,ナカガミグンニシハラチョウ,ガジャ,沖縄県中頭郡西原町我謝
9030113,沖縄県,中頭郡西原町,安室,オキナワケン,ナカガミグンニシハラチョウ,アムロ,沖縄県中頭郡西原町安室
9030114,沖縄県,中頭郡西原町,桃原,オキナワケン,ナカガミグンニシハラチョウ,トウバル,沖縄県中頭郡西原町桃原
9030115,沖縄県,中頭郡西原町,池田,オキナワケン,ナカガミグンニシハラチョウ,イケダ,沖縄県中頭郡西原町池田
9030116,沖縄県,中頭郡西原町,幸地,オキナワケン,ナカガミグンニシハラチョウ,コウチ,沖縄県中頭郡西原町幸地
9030117,沖縄県,中頭郡西原町,翁長,オキナワケン,ナカガミグンニシハラチョウ,オナガ,沖縄県中頭郡西原町翁長
9030118,沖縄県,中頭郡西原町,小波津,オキナワケン,ナカガミグンニシハラチョウ,コハツ,沖縄県中頭郡西原町小波津
9030121,沖縄県,中頭郡西原町,内間,オキナワケン,ナカガミグンニシハラチョウ,ウチマ,沖縄県中頭郡西原町内間
9030122,沖縄県,中頭郡西原町,小橋川,オキナワケン,ナカガミグンニシハラチョウ,コバシガワ,沖縄県中頭郡西原町小橋川
9030123,沖縄県,中頭郡西原町,津花波,オキナワケン,ナカガミグンニシハラチョウ,ツハナハ,沖縄県中頭郡西原町津花波
9030124,沖縄県,中頭郡西原町,呉屋,オキナワケン,ナカガミグンニシハラチョウ,ゴヤ,沖縄県中頭郡西原町呉屋
9030125,沖縄県,中頭郡西原町,上原,オキナワケン,ナカガミグンニシハラチョウ,ウエハラ,沖縄県中頭郡西原町上原
9030126,沖縄県,中頭郡西原町,棚原,オキナワケン,ナカガミグンニシハラチョウ,タナバル,沖縄県中頭郡西原町棚原
9030127,沖縄県,中頭郡西原町,徳佐田,オキナワケン,ナカガミグンニシハラチョウ,トクサダ,沖縄県中頭郡西原町徳佐田
9030128,沖縄県,中頭郡西原町,森川,オキナワケン,ナカガミグンニシハラチョウ,モリカワ,沖縄県中頭郡西原町森川
9030129,沖縄県,中頭郡西原町,千原,オキナワケン,ナカガミグンニシハラチョウ,センバル,沖縄県中頭郡西原町千原
9030801,沖縄県,那覇市,首里末吉町,オキナワケン,ナハシ,シュリスエヨシチョウ,沖縄県那覇市首里末吉町
9030802,沖縄県,那覇市,首里大名町,オキナワケン,ナハシ,シュリオオナチョウ,沖縄県那覇市首里大名町
9030803,沖縄県,那覇市,首里平良町,オキナワケン,ナハシ,シュリタイラチョウ,沖縄県那覇市首里平良町
9030804,沖縄県,那覇市,首里石嶺町,オキナワケン,ナハシ,シュリイシミネチョウ,沖縄県那覇市首里石嶺町
9030805,沖縄県,那覇市,首里鳥堀町,オキナワケン,ナハシ,シュリトリホリチョウ,沖縄県那覇市首里鳥堀町
9030806,沖縄県,那覇市,首里汀良町,オキナワケン,ナハシ,シュリテラチョウ,沖縄県那覇市首里汀良町
9030807,沖縄県,那覇市,首里久場川町,オキナワケン,ナハシ,シュリクバガワチョウ,沖縄県那覇市首里久場川町
9030811,沖縄県,那覇市,首里赤平町,オキナワケン,ナハシ,シュリアカヒラチョウ,沖縄県那覇市首里赤平町
9030812,沖縄県,那覇市,首里当蔵町,オキナワケン,ナハシ,シュリトウノクラチョウ,沖縄県那覇市首里当蔵町
9030813,沖縄県,那覇市,首里赤田町,オキナワケン,ナハシ,シュリアカタチョウ,沖縄県那覇市首里赤田町
9030814,沖縄県,那覇市,首里崎山町,オキナワケン,ナハシ,シュリサキヤマチョウ,沖縄県那覇市首里崎山町
9030815,沖縄県,那覇市,首里金城町,オキナワケン,ナハシ,シュリキンジョウチョウ,沖縄県那覇市首里金城町
9030816,沖縄県,那覇市,首里真和志町,オキナワケン,ナハシ,シュリマワシチョウ,沖縄県那覇市首里真和志町
9030821,沖縄県,那覇市,首里儀保町,オキナワケン,ナハシ,シュリギボチョウ,沖縄県那覇市首里儀保町
9030822,沖縄県,那覇市,首里桃原町,オキナワケン,ナハシ,シュリトウバルチョウ,沖縄県那覇市首里桃原町
9030823,沖縄県,那覇市,首里大中町,オキナワケン,ナハシ,シュリオオナカチョウ,沖縄県那覇市首里大中町
9030824,沖縄県,那覇市,首里池端町,オキナワケン,ナハシ,シュリイケハタチョウ,沖縄県那覇市首里池端町
9030825,沖縄県,那覇市,首里山川町,オキナワケン,ナハシ,シュリヤマガワチョウ,沖縄県那覇市首里山川町
9030826,沖縄県,那覇市,首里寒川町,オキナワケン,ナハシ,シュリサムカワチョウ,沖縄県那覇市首里寒川町
9040000,沖縄県,沖縄市,,オキナワケン,オキナワシ,,沖縄県沖縄市
9040001,沖縄県,沖縄市,越来,オキナワケン,オキナワシ,ゴエク,沖縄県沖縄市越来
9040002,沖縄県,沖縄市,城前町,オキナワケン,オキナワシ,シロマエチョウ,沖縄県沖縄市城前町
9040003,沖縄県,沖縄市,住吉,オキナワケン,オキナワシ,スミヨシ,沖縄県沖縄市住吉
9040004,沖縄県,沖縄市,中央,オキナワケン,オキナワシ,チュウオウ,沖縄県沖縄市中央
9040005,沖縄県,沖縄市,嘉間良,オキナワケン,オキナワシ,カマラ,沖縄県沖縄市嘉間良
9040006,沖縄県,沖縄市,八重島,オキナワケン,オキナワシ,ヤエシマ,沖縄県沖縄市八重島
9040011,沖縄県,沖縄市,照屋,オキナワケン,オキナワシ,テルヤ,沖縄県沖縄市照屋
9040012,沖縄県,沖縄市,安慶田,オキナワケン,オキナワシ,アゲダ,沖縄県沖縄市安慶田
9040013,沖縄県,沖縄市,室川,オキナワケン,オキナワシ,ムロカワ,沖縄県沖縄市室川
9040014,沖縄県,沖縄市,仲宗根町,オキナワケン,オキナワシ,ナカソネチョウ,沖縄県沖縄市仲宗根町
9040021,沖縄県,沖縄市,胡屋,オキナワケン,オキナワシ,ゴヤ,沖縄県沖縄市胡屋
9040022,沖縄県,沖縄市,園田,オキナワケン,オキナワシ,ソノダ,沖縄県沖縄市園田
9040023,沖縄県,沖縄市,久保田,オキナワケン,オキナワシ,クボタ,沖縄県沖縄市久保田
9040031,沖縄県,沖縄市,上地,オキナワケン,オキナワシ,ウエチ,沖縄県沖縄市上地
9040032,沖縄県,沖縄市,諸見里,オキナワケン,オキナワシ,モロミザト,沖縄県沖縄市諸見里
9040033,沖縄県,沖縄市,山里,オキナワケン,オキナワシ,ヤマザト,沖縄県沖縄市山里
9040034,沖縄県,沖縄市,山内,オキナワケン,オキナワシ,ヤマウチ,沖縄県沖縄市山内
9040035,沖縄県,沖縄市,南桃原,オキナワケン,オキナワシ,ミナミトウバル,沖縄県沖縄市南桃原
9040100,沖縄県,中頭郡北谷町,,オキナワケン,ナカガミグンチャタンチョウ,,沖縄県中頭郡北谷町
9040101,沖縄県,中頭郡北谷町,上勢頭,オキナワケン,ナカガミグンチャタンチョウ,カミセド,沖縄県中頭郡北谷町上勢頭
9040102,沖縄県,中頭郡北谷町,伊平,オキナワケン,ナカガミグンチャタンチョウ,イヘイ,沖縄県中頭郡北谷町伊平
9040103,沖縄県,中頭郡北谷町,桑江,オキナワケン,ナカガミグンチャタンチョウ,クワエ,沖縄県中頭郡北谷町桑江
9040104,沖縄県,中頭郡北谷町,桃原,オキナワケン,ナカガミグンチャタンチョウ,トウバル,沖縄県中頭郡北谷町桃原
9040105,沖縄県,中頭郡北谷町,吉原,オキナワケン,ナカガミグンチャタンチョウ,ヨシハラ,沖縄県中頭郡北谷町吉原
9040106,沖縄県,中頭郡北谷町,玉上,オキナワケン,ナカガミグンチャタンチョウ,タマガミ,沖縄県中頭郡北谷町玉上
9040107,沖縄県,中頭郡北谷町,大村,オキナワケン,ナカガミグンチャタンチョウ,オオムラ,沖縄県中頭郡北谷町大村
9040111,沖縄県,中頭郡北谷町,砂辺,オキナワケン,ナカガミグンチャタンチョウ,スナベ,沖縄県中頭郡北谷町砂辺
9040112,沖縄県,中頭郡北谷町,浜川,オキナワケン,ナカガミグンチャタンチョウ,ハマガワ,沖縄県中頭郡北谷町浜川
9040113,沖縄県,中頭郡北谷町,宮城,オキナワケン,ナカガミグンチャタンチョウ,ミヤギ,沖縄県中頭郡北谷町宮城
9040114,沖縄県,中頭郡北谷町,港,オキナワケン,ナカガミグンチャタンチョウ,ミナト,沖縄県中頭郡北谷町港
9040115,沖縄県,中頭郡北谷町,美浜,オキナワケン,ナカガミグンチャタンチョウ,ミハマ,沖縄県中頭郡北谷町美浜
9040116,沖縄県,中頭郡北谷町,北谷,オキナワケン,ナカガミグンチャタンチョウ,チャタン,沖縄県中頭郡北谷町北谷
9040117,沖縄県,中頭郡北谷町,北前,オキナワケン,ナカガミグンチャタンチョウ,キタマエ,沖縄県中頭郡北谷町北前
9040200,沖縄県,中頭郡嘉手納町,,オキナワケン,ナカガミグンカデナチョウ,,沖縄県中頭郡嘉手納町
9040201,沖縄県,中頭郡嘉手納町,久得,オキナワケン,ナカガミグンカデナチョウ,クドク,沖縄県中頭郡嘉手納町久得
9040202,沖縄県,中頭郡嘉手納町,屋良,オキナワケン,ナカガミグンカデナチョウ,ヤラ,沖縄県中頭郡嘉手納町屋良
9040203,沖縄県,中頭郡嘉手納町,嘉手納,オキナワケン,ナカガミグンカデナチョウ,カデナ,沖縄県中頭郡嘉手納町嘉手納
9040204,沖縄県,中頭郡嘉手納町,水釜,オキナワケン,ナカガミグンカデナチョウ,ミズガマ,沖縄県中頭郡嘉手納町水釜
9040205,沖縄県,中頭郡嘉手納町,兼久,オキナワケン,ナカガミグンカデナチョウ,カネク,沖縄県中頭郡嘉手納町兼久
9040300,沖縄県,中頭郡読谷村,,オキナワケン,ナカガミグンヨミタンソン,,沖縄県中頭郡読谷村
9040301,沖縄県,中頭郡読谷村,座喜味,オキナワケン,ナカガミグンヨミタンソン,ザキミ,沖縄県中頭郡読谷村座喜味
9040302,沖縄県,中頭郡読谷村,喜名,オキナワケン,ナカガミグンヨミタンソン,キナ,沖縄県中頭郡読谷村喜名
9040303,沖縄県,中頭郡読谷村,伊良皆,オキナワケン,ナカガミグンヨミタンソン,イラミナ,沖縄県中頭郡読谷村伊良皆
9040304,沖縄県,中頭郡読谷村,楚辺,オキナワケン,ナカガミグンヨミタンソン,ソベ,沖縄県中頭郡読谷村楚辺
9040305,沖縄県,中頭郡読谷村,都屋,オキナワケン,ナカガミグンヨミタンソン,トヤ,沖縄県中頭郡読谷村都屋
9040311,沖縄県,中頭郡読谷村,比謝,オキナワケン,ナカガミグンヨミタンソン,ヒジャ,沖縄県中頭郡読谷村比謝
9040312,沖縄県,中頭郡読谷村,比謝矼,オキナワケン,ナカガミグンヨミタンソン,ヒジャバシ,沖縄県中頭郡読谷村比謝矼
9040313,沖縄県,中頭郡読谷村,大湾,オキナワケン,ナカガミグンヨミタンソン,オオワン,沖縄県中頭郡読谷村大湾
9040314,沖縄県,中頭郡読谷村,古堅,オキナワケン,ナカガミグンヨミタンソン,フルゲン,沖縄県中頭郡読谷村古堅
9040315,沖縄県,中頭郡読谷村,渡具知,オキナワケン,ナカガミグンヨミタンソン,トグチ,沖縄県中頭郡読谷村渡具知
9040316,沖縄県,中頭郡読谷村,大木,オキナワケン,ナカガミグンヨミタンソン,オオキ,沖縄県中頭郡読谷村大木
9040321,沖縄県,中頭郡読谷村,上地,オキナワケン,ナカガミグンヨミタンソン,ウエチ,沖縄県中頭郡読谷村上地
9040322,沖縄県,中頭郡読谷村,波平,オキナワケン,ナカガミグンヨミタンソン,ナミヒラ,沖縄県中頭郡読谷村波平
9040323,沖縄県,中頭郡読谷村,高志保,オキナワケン,ナカガミグンヨミタンソン,タカシホ,沖縄県中頭郡読谷村高志保
9040324,沖縄県,中頭郡読谷村,長浜,オキナワケン,ナカガミグンヨミタンソン,ナガハマ,沖縄県中頭郡読谷村長浜
9040325,沖縄県,中頭郡読谷村,瀬名波,オキナワケン,ナカガミグンヨミタンソン,セナハ,沖縄県中頭郡読谷村瀬名波
9040326,沖縄県,中頭郡読谷村,渡慶次,オキナワケン,ナカガミグンヨミタンソン,トケシ,沖縄県中頭郡読谷村渡慶次
9040327,沖縄県,中頭郡読谷村,儀間,オキナワケン,ナカガミグンヨミタンソン,ギマ,沖縄県中頭郡読谷村儀間
9040328,沖縄県,中頭郡読谷村,宇座,オキナワケン,ナカガミグンヨミタンソン,ウザ,沖縄県中頭郡読谷村宇座
9040400,沖縄県,国頭郡恩納村,,オキナワケン,クニガミグンオンナソン,,沖縄県国頭郡恩納村
9040401,沖縄県,国頭郡恩納村,名嘉真,オキナワケン,クニガミグンオンナソン,ナカマ,沖縄県国頭郡恩納村名嘉真
9040402,沖縄県,国頭郡恩納村,安富祖,オキナワケン,クニガミグンオンナソン,アフソ,沖縄県国頭郡恩納村安富祖
9040403,沖縄県,国頭郡恩納村,喜瀬武原,オキナワケン,クニガミグンオンナソン,キセンバル,沖縄県国頭郡恩納村喜瀬武原
9040404,沖縄県,国頭郡恩納村,瀬良垣,オキナワケン,クニガミグンオンナソン,セラカキ,沖縄県国頭郡恩納村瀬良垣
9040411,沖縄県,国頭郡恩納村,恩納,オキナワケン,クニガミグンオンナソン,オンナ,沖縄県国頭郡恩納村恩納
9040412,沖縄県,国頭郡恩納村,谷茶,オキナワケン,クニガミグンオンナソン,タンチャ,沖縄県国頭郡恩納村谷茶
9040413,沖縄県,国頭郡恩納村,冨着,オキナワケン,クニガミグンオンナソン,フチャク,沖縄県国頭郡恩納村冨着
9040414,沖縄県,国頭郡恩納村,前兼久,オキナワケン,クニガミグンオンナソン,マエガネク,沖縄県国頭郡恩納村前兼久
9040415,沖縄県,国頭郡恩納村,仲泊,オキナワケン,クニガミグンオンナソン,ナカドマリ,沖縄県国頭郡恩納村仲泊
9040416,沖縄県,国頭郡恩納村,山田,オキナワケン,クニガミグンオンナソン,ヤマダ,沖縄県国頭郡恩納村山田
9040417,沖縄県,国頭郡恩納村,真栄田,オキナワケン,クニガミグンオンナソン,マエダ,沖縄県国頭郡恩納村真栄田
9041101,沖縄県,うるま市,石川東山本町,オキナワケン,ウルマシ,イシカワアガリヤマモトマチ,沖縄県うるま市石川東山本町
9041102,沖縄県,うるま市,石川東山,オキナワケン,ウルマシ,イシカワアガリヤマ,沖縄県うるま市石川東山
9041103,沖縄県,うるま市,石川赤崎,オキナワケン,ウルマシ,イシカワアカサキ,沖縄県うるま市石川赤崎
9041104,沖縄県,うるま市,石川石崎,オキナワケン,ウルマシ,イシカワイシザキ,沖縄県うるま市石川石崎
9041105,沖縄県,うるま市,石川白浜,オキナワケン,ウルマシ,イシカワシラハマ,沖縄県うるま市石川白浜
9041106,沖縄県,うるま市,石川,オキナワケン,ウルマシ,イシカワ,沖縄県うるま市石川
9041107,沖縄県,うるま市,石川曙,オキナワケン,ウルマシ,イシカワアケボノ,沖縄県うるま市石川曙
9041108,沖縄県,うるま市,石川東恩納崎,オキナワケン,ウルマシ,イシカワヒガシオンナザキ,沖縄県うるま市石川東恩納崎
9041111,沖縄県,うるま市,石川東恩納,オキナワケン,ウルマシ,イシカワヒガシオンナ,沖縄県うるま市石川東恩納
9041112,沖縄県,うるま市,石川楚南,オキナワケン,ウルマシ,イシカワソナン,沖縄県うるま市石川楚南
9041113,沖縄県,うるま市,石川山城,オキナワケン,ウルマシ,イシカワヤマシロ,沖縄県うるま市石川山城
9041114,沖縄県,うるま市,石川嘉手苅,オキナワケン,ウルマシ,イシカワカデカル,沖縄県うるま市石川嘉手苅
9041115,沖縄県,うるま市,石川伊波,オキナワケン,ウルマシ,イシカワイハ,沖縄県うるま市石川伊波
9041200,沖縄県,国頭郡金武町,,オキナワケン,クニガミグンキンチョウ,,沖縄県国頭郡金武町
9041201,沖縄県,国頭郡金武町,金武,オキナワケン,クニガミグンキンチョウ,キン,沖縄県国頭郡金武町金武
9041202,沖縄県,国頭郡金武町,伊芸,オキナワケン,クニガミグンキンチョウ,イゲイ,沖縄県国頭郡金武町伊芸
9041203,沖縄県,国頭郡金武町,屋嘉,オキナワケン,クニガミグンキンチョウ,ヤカ,沖縄県国頭郡金武町屋嘉
9041300,沖縄県,国頭郡宜野座村,,オキナワケン,クニガミグンギノザソン,,沖縄県国頭郡宜野座村
9041301,沖縄県,国頭郡宜野座村,松田,オキナワケン,クニガミグンギノザソン,マツダ,沖縄県国頭郡宜野座村松田
9041302,沖縄県,国頭郡宜野座村,宜野座,オキナワケン,クニガミグンギノザソン,ギノザ,沖縄県国頭郡宜野座村宜野座
9041303,沖縄県,国頭郡宜野座村,惣慶,オキナワケン,クニガミグンギノザソン,ソケイ,沖縄県国頭郡宜野座村惣慶
9041304,沖縄県,国頭郡宜野座村,漢那,オキナワケン,クニガミグンギノザソン,カンナ,沖縄県国頭郡宜野座村漢那
9042141,沖縄県,沖縄市,池原,オキナワケン,オキナワシ,イケハラ,沖縄県沖縄市池原
9042142,沖縄県,沖縄市,登川,オキナワケン,オキナワシ,ノボリカワ,沖縄県沖縄市登川
9042143,沖縄県,沖縄市,知花,オキナワケン,オキナワシ,チバナ,沖縄県沖縄市知花
9042144,沖縄県,沖縄市,白川,オキナワケン,オキナワシ,シラカワ,沖縄県沖縄市白川
9042145,沖縄県,沖縄市,倉敷,オキナワケン,オキナワシ,クラシキ,沖縄県沖縄市倉敷
9042151,沖縄県,沖縄市,松本,オキナワケン,オキナワシ,マツモト,沖縄県沖縄市松本
9042152,沖縄県,沖縄市,明道,オキナワケン,オキナワシ,アケミチ,沖縄県沖縄市明道
9042153,沖縄県,沖縄市,美里,オキナワケン,オキナワシ,ミサト,沖縄県沖縄市美里
9042154,沖縄県,沖縄市,東,オキナワケン,オキナワシ,ヒガシ,沖縄県沖縄市東
9042155,沖縄県,沖縄市,美原,オキナワケン,オキナワシ,ミハラ,沖縄県沖縄市美原
9042156,沖縄県,沖縄市,美里仲原町,オキナワケン,オキナワシ,ミサトナカハラチョウ,沖縄県沖縄市美里仲原町
9042161,沖縄県,沖縄市,古謝,オキナワケン,オキナワシ,コジャ,沖縄県沖縄市古謝
9042162,沖縄県,沖縄市,海邦,オキナワケン,オキナワシ,カイホウ,沖縄県沖縄市海邦
9042162,沖縄県,沖縄市,海邦町,オキナワケン,オキナワシ,カイホウチョウ,沖縄県沖縄市海邦町
9042163,沖縄県,沖縄市,大里,オキナワケン,オキナワシ,オオザト,沖縄県沖縄市大里
9042164,沖縄県,沖縄市,桃原,オキナワケン,オキナワシ,トウバル,沖縄県沖縄市桃原
9042165,沖縄県,沖縄市,宮里,オキナワケン,オキナワシ,ミヤザト,沖縄県沖縄市宮里
9042166,沖縄県,沖縄市,古謝津嘉山町,オキナワケン,オキナワシ,コジャツカザンチョウ,沖縄県沖縄市古謝津嘉山町
9042171,沖縄県,沖縄市,高原,オキナワケン,オキナワシ,タカハラ,沖縄県沖縄市高原
9042172,沖縄県,沖縄市,泡瀬,オキナワケン,オキナワシ,アワセ,沖縄県沖縄市泡瀬
9042173,沖縄県,沖縄市,比屋根,オキナワケン,オキナワシ,ヒヤゴン,沖縄県沖縄市比屋根
9042174,沖縄県,沖縄市,与儀,オキナワケン,オキナワシ,ヨギ,沖縄県沖縄市与儀
9042175,沖縄県,沖縄市,潮乃森,オキナワケン,オキナワシ,シオノモリ,沖縄県沖縄市潮乃森
9042200,沖縄県,うるま市,,オキナワケン,ウルマシ,,沖縄県うるま市
9042201,沖縄県,うるま市,昆布,オキナワケン,ウルマシ,コンブ,沖縄県うるま市昆布
9042202,沖縄県,うるま市,天願,オキナワケン,ウルマシ,テンガン,沖縄県うるま市天願
9042203,沖縄県,うるま市,川崎,オキナワケン,ウルマシ,カワサキ,沖縄県うるま市川崎
9042204,沖縄県,うるま市,西原,オキナワケン,ウルマシ,イリバル,沖縄県うるま市西原
9042205,沖縄県,うるま市,栄野比,オキナワケン,ウルマシ,エノビ,沖縄県うるま市栄野比
9042211,沖縄県,うるま市,宇堅,オキナワケン,ウルマシ,ウケン,沖縄県うるま市宇堅
9042212,沖縄県,うるま市,赤野,オキナワケン,ウルマシ,アカノ,沖縄県うるま市赤野
9042213,沖縄県,うるま市,田場,オキナワケン,ウルマシ,タバ,沖縄県うるま市田場
9042214,沖縄県,うるま市,安慶名,オキナワケン,ウルマシ,アゲナ,沖縄県うるま市安慶名
9042215,沖縄県,うるま市,みどり町,オキナワケン,ウルマシ,ミドリマチ,沖縄県うるま市みどり町
9042221,沖縄県,うるま市,平良川,オキナワケン,ウルマシ,タイラガワ,沖縄県うるま市平良川
9042222,沖縄県,うるま市,上江洲,オキナワケン,ウルマシ,ウエズ,沖縄県うるま市上江洲
9042223,沖縄県,うるま市,具志川,オキナワケン,ウルマシ,グシカワ,沖縄県うるま市具志川
9042224,沖縄県,うるま市,大田,オキナワケン,ウルマシ,オオタ,沖縄県うるま市大田
9042225,沖縄県,うるま市,喜屋武,オキナワケン,ウルマシ,キャン,沖縄県うるま市喜屋武
9042226,沖縄県,うるま市,仲嶺,オキナワケン,ウルマシ,ナカミネ,沖縄県うるま市仲嶺
9042231,沖縄県,うるま市,塩屋,オキナワケン,ウルマシ,シオヤ,沖縄県うるま市塩屋
9042232,沖縄県,うるま市,川田,オキナワケン,ウルマシ,カワタ,沖縄県うるま市川田
9042233,沖縄県,うるま市,豊原,オキナワケン,ウルマシ,トヨハラ,沖縄県うるま市豊原
9042234,沖縄県,うるま市,州崎,オキナワケン,ウルマシ,スザキ,沖縄県うるま市州崎
9042235,沖縄県,うるま市,前原,オキナワケン,ウルマシ,マエハラ,沖縄県うるま市前原
9042236,沖縄県,うるま市,喜仲,オキナワケン,ウルマシ,キナカ,沖縄県うるま市喜仲
9042241,沖縄県,うるま市,兼箇段,オキナワケン,ウルマシ,カネカダン,沖縄県うるま市兼箇段
9042242,沖縄県,うるま市,高江洲,オキナワケン,ウルマシ,タカエス,沖縄県うるま市高江洲
9042243,沖縄県,うるま市,宮里,オキナワケン,ウルマシ,ミヤザト,沖縄県うるま市宮里
9042244,沖縄県,うるま市,江洲,オキナワケン,ウルマシ,エス,沖縄県うるま市江洲
9042245,沖縄県,うるま市,赤道,オキナワケン,ウルマシ,アカミチ,沖縄県うるま市赤道
9042301,沖縄県,うるま市,与那城照間,オキナワケン,ウルマシ,ヨナシロテルマ,沖縄県うるま市与那城照間
9042302,沖縄県,うるま市,与那城西原,オキナワケン,ウルマシ,ヨナシロニシハラ,沖縄県うるま市与那城西原
9042303,沖縄県,うるま市,与那城,オキナワケン,ウルマシ,ヨナシロ,沖縄県うるま市与那城
9042304,沖縄県,うるま市,与那城屋慶名,オキナワケン,ウルマシ,ヨナシロヤケナ,沖縄県うるま市与那城屋慶名
9042305,沖縄県,うるま市,与那城中央,オキナワケン,ウルマシ,ヨナシロチュウオウ,沖縄県うるま市与那城中央
9042306,沖縄県,うるま市,与那城安勢理,オキナワケン,ウルマシ,ヨナシロアセリ,沖縄県うるま市与那城安勢理
9042307,沖縄県,うるま市,与那城饒辺,オキナワケン,ウルマシ,ヨナシロノヘン,沖縄県うるま市与那城饒辺
9042311,沖縄県,うるま市,勝連南風原,オキナワケン,ウルマシ,カツレンハエバル,沖縄県うるま市勝連南風原
9042312,沖縄県,うるま市,勝連平安名,オキナワケン,ウルマシ,カツレンヘンナ,沖縄県うるま市勝連平安名
9042313,沖縄県,うるま市,勝連内間,オキナワケン,ウルマシ,カツレンウチマ,沖縄県うるま市勝連内間
9042314,沖縄県,うるま市,勝連平敷屋,オキナワケン,ウルマシ,カツレンヘシキヤ,沖縄県うるま市勝連平敷屋
9042315,沖縄県,うるま市,勝連浜,オキナワケン,ウルマシ,カツレンハマ,沖縄県うるま市勝連浜
9042316,沖縄県,うるま市,勝連比嘉,オキナワケン,ウルマシ,カツレンヒガ,沖縄県うるま市勝連比嘉
9042317,沖縄県,うるま市,勝連津堅,オキナワケン,ウルマシ,カツレンツケン,沖縄県うるま市勝連津堅
9042421,沖縄県,うるま市,与那城伊計,オキナワケン,ウルマシ,ヨナシロイケイ,沖縄県うるま市与那城伊計
9042422,沖縄県,うるま市,与那城池味,オキナワケン,ウルマシ,ヨナシロイケミ,沖縄県うるま市与那城池味
9042423,沖縄県,うるま市,与那城宮城,オキナワケン,ウルマシ,ヨナシロミヤギ,沖縄県うるま市与那城宮城
9042424,沖縄県,うるま市,与那城上原,オキナワケン,ウルマシ,ヨナシロウエハラ,沖縄県うるま市与那城上原
9042425,沖縄県,うるま市,与那城桃原,オキナワケン,ウルマシ,ヨナシロトウバル,沖縄県うるま市与那城桃原
9042426,沖縄県,うるま市,与那城平安座,オキナワケン,ウルマシ,ヨナシロヘンザ,沖縄県うるま市与那城平安座
9042427,沖縄県,うるま市,与那城屋平,オキナワケン,ウルマシ,ヨナシロヤヒラ,沖縄県うるま市与那城屋平
9042428,沖縄県,うるま市,与那城平宮,オキナワケン,ウルマシ,ヨナシロヒラミヤ,沖縄県うるま市与那城平宮
9050000,沖縄県,名護市,,オキナワケン,ナゴシ,,沖縄県名護市
9050001,沖縄県,名護市,安和,オキナワケン,ナゴシ,アワ,沖縄県名護市安和
9050002,沖縄県,名護市,勝山,オキナワケン,ナゴシ,カツヤマ,沖縄県名護市勝山
9050003,沖縄県,名護市,旭川,オキナワケン,ナゴシ,アサヒカワ,沖縄県名護市旭川
9050004,沖縄県,名護市,中山,オキナワケン,ナゴシ,ナカヤマ,沖縄県名護市中山
9050005,沖縄県,名護市,為又,オキナワケン,ナゴシ,ビイマタ,沖縄県名護市為又
9050006,沖縄県,名護市,宇茂佐,オキナワケン,ナゴシ,ウムサ,沖縄県名護市宇茂佐
9050007,沖縄県,名護市,屋部,オキナワケン,ナゴシ,ヤブ,沖縄県名護市屋部
9050008,沖縄県,名護市,山入端,オキナワケン,ナゴシ,ヤマノハ,沖縄県名護市山入端
9050009,沖縄県,名護市,宇茂佐の森,オキナワケン,ナゴシ,ウムサノモリ,沖縄県名護市宇茂佐の森
9050011,沖縄県,名護市,宮里,オキナワケン,ナゴシ,ミヤザト,沖縄県名護市宮里
9050012,沖縄県,名護市,名護,オキナワケン,ナゴシ,ナゴ,沖縄県名護市名護
9050013,沖縄県,名護市,城,オキナワケン,ナゴシ,グスク,沖縄県名護市城
9050014,沖縄県,名護市,港,オキナワケン,ナゴシ,ミナト,沖縄県名護市港
9050015,沖縄県,名護市,大南,オキナワケン,ナゴシ,オオミナミ,沖縄県名護市大南
9050016,沖縄県,名護市,大東,オキナワケン,ナゴシ,オオヒガシ,沖縄県名護市大東
9050017,沖縄県,名護市,大中,オキナワケン,ナゴシ,オオナカ,沖縄県名護市大中
9050018,沖縄県,名護市,大西,オキナワケン,ナゴシ,オオニシ,沖縄県名護市大西
9050019,沖縄県,名護市,大北,オキナワケン,ナゴシ,オオキタ,沖縄県名護市大北
9050021,沖縄県,名護市,東江,オキナワケン,ナゴシ,アガリエ,沖縄県名護市東江
9050022,沖縄県,名護市,世冨慶,オキナワケン,ナゴシ,ヨフケ,沖縄県名護市世冨慶
9050023,沖縄県,名護市,数久田,オキナワケン,ナゴシ,スクタ,沖縄県名護市数久田
9050024,沖縄県,名護市,許田,オキナワケン,ナゴシ,キョダ,沖縄県名護市許田
9050025,沖縄県,名護市,幸喜,オキナワケン,ナゴシ,コウキ,沖縄県名護市幸喜
9050026,沖縄県,名護市,喜瀬,オキナワケン,ナゴシ,キセ,沖縄県名護市喜瀬
9050200,沖縄県,国頭郡本部町,,オキナワケン,クニガミグンモトブチョウ,,沖縄県国頭郡本部町
9050201,沖縄県,国頭郡本部町,具志堅,オキナワケン,クニガミグンモトブチョウ,グシケン,沖縄県国頭郡本部町具志堅
9050202,沖縄県,国頭郡本部町,嘉津宇,オキナワケン,クニガミグンモトブチョウ,カツウ,沖縄県国頭郡本部町嘉津宇
9050203,沖縄県,国頭郡本部町,謝花,オキナワケン,クニガミグンモトブチョウ,ジャハナ,沖縄県国頭郡本部町謝花
9050204,沖縄県,国頭郡本部町,豊原,オキナワケン,クニガミグンモトブチョウ,トヨハラ,沖縄県国頭郡本部町豊原
9050205,沖縄県,国頭郡本部町,山川,オキナワケン,クニガミグンモトブチョウ,ヤマカワ,沖縄県国頭郡本部町山川
9050206,沖縄県,国頭郡本部町,石川,オキナワケン,クニガミグンモトブチョウ,イシカワ,沖縄県国頭郡本部町石川
9050207,沖縄県,国頭郡本部町,備瀬,オキナワケン,クニガミグンモトブチョウ,ビセ,沖縄県国頭郡本部町備瀬
9050208,沖縄県,国頭郡本部町,新里,オキナワケン,クニガミグンモトブチョウ,シンザト,沖縄県国頭郡本部町新里
9050209,沖縄県,国頭郡本部町,北里,オキナワケン,クニガミグンモトブチョウ,キタザト,沖縄県国頭郡本部町北里
9050211,沖縄県,国頭郡本部町,東,オキナワケン,クニガミグンモトブチョウ,ヒガシ,沖縄県国頭郡本部町東
9050212,沖縄県,国頭郡本部町,大浜,オキナワケン,クニガミグンモトブチョウ,オオハマ,沖縄県国頭郡本部町大浜
9050213,沖縄県,国頭郡本部町,谷茶,オキナワケン,クニガミグンモトブチョウ,タンチャ,沖縄県国頭郡本部町谷茶
9050214,沖縄県,国頭郡本部町,渡久地,オキナワケン,クニガミグンモトブチョウ,トグチ,沖縄県国頭郡本部町渡久地
9050215,沖縄県,国頭郡本部町,野原,オキナワケン,クニガミグンモトブチョウ,ノバル,沖縄県国頭郡本部町野原
9050216,沖縄県,国頭郡本部町,浜元,オキナワケン,クニガミグンモトブチョウ,ハマモト,沖縄県国頭郡本部町浜元
9050217,沖縄県,国頭郡本部町,浦崎,オキナワケン,クニガミグンモトブチョウ,ウラサキ,沖縄県国頭郡本部町浦崎
9050218,沖縄県,国頭郡本部町,古島,オキナワケン,クニガミグンモトブチョウ,フルジマ,沖縄県国頭郡本部町古島
9050219,沖縄県,国頭郡本部町,山里,オキナワケン,クニガミグンモトブチョウ,ヤマザト,沖縄県国頭郡本部町山里
9050221,沖縄県,国頭郡本部町,伊豆味,オキナワケン,クニガミグンモトブチョウ,イズミ,沖縄県国頭郡本部町伊豆味
9050222,沖縄県,国頭郡本部町,並里,オキナワケン,クニガミグンモトブチョウ,ナミザト,沖縄県国頭郡本部町並里
9050223,沖縄県,国頭郡本部町,大嘉陽,オキナワケン,クニガミグンモトブチョウ,オオカヨウ,沖縄県国頭郡本部町大嘉陽
9050224,沖縄県,国頭郡本部町,辺名地,オキナワケン,クニガミグンモトブチョウ,ヘナジ,沖縄県国頭郡本部町辺名地
9050225,沖縄県,国頭郡本部町,崎本部,オキナワケン,クニガミグンモトブチョウ,サキモトブ,沖縄県国頭郡本部町崎本部
9050226,沖縄県,国頭郡本部町,健堅,オキナワケン,クニガミグンモトブチョウ,ケンケン,沖縄県国頭郡本部町健堅
9050227,沖縄県,国頭郡本部町,瀬底,オキナワケン,クニガミグンモトブチョウ,セソコ,沖縄県国頭郡本部町瀬底
9050228,沖縄県,国頭郡本部町,伊野波,オキナワケン,クニガミグンモトブチョウ,イノハ,沖縄県国頭郡本部町伊野波
9050229,沖縄県,国頭郡本部町,大堂,オキナワケン,クニガミグンモトブチョウ,ウフドウ,沖縄県国頭郡本部町大堂
9050400,沖縄県,国頭郡今帰仁村,,オキナワケン,クニガミグンナキジンソン,,沖縄県国頭郡今帰仁村
9050401,沖縄県,国頭郡今帰仁村,仲宗根,オキナワケン,クニガミグンナキジンソン,ナカソネ,沖縄県国頭郡今帰仁村仲宗根
9050402,沖縄県,国頭郡今帰仁村,渡喜仁,オキナワケン,クニガミグンナキジンソン,トキジン,沖縄県国頭郡今帰仁村渡喜仁
9050403,沖縄県,国頭郡今帰仁村,運天,オキナワケン,クニガミグンナキジンソン,ウンテン,沖縄県国頭郡今帰仁村運天
9050404,沖縄県,国頭郡今帰仁村,上運天,オキナワケン,クニガミグンナキジンソン,カミウンテン,沖縄県国頭郡今帰仁村上運天
9050405,沖縄県,国頭郡今帰仁村,勢理客,オキナワケン,クニガミグンナキジンソン,セリキャク,沖縄県国頭郡今帰仁村勢理客
9050406,沖縄県,国頭郡今帰仁村,古宇利,オキナワケン,クニガミグンナキジンソン,コウリ,沖縄県国頭郡今帰仁村古宇利
9050411,沖縄県,国頭郡今帰仁村,天底,オキナワケン,クニガミグンナキジンソン,アメソコ,沖縄県国頭郡今帰仁村天底
9050412,沖縄県,国頭郡今帰仁村,湧川,オキナワケン,クニガミグンナキジンソン,ワクガワ,沖縄県国頭郡今帰仁村湧川
9050413,沖縄県,国頭郡今帰仁村,呉我山,オキナワケン,クニガミグンナキジンソン,ゴガヤマ,沖縄県国頭郡今帰仁村呉我山
9050414,沖縄県,国頭郡今帰仁村,謝名,オキナワケン,クニガミグンナキジンソン,ジャナ,沖縄県国頭郡今帰仁村謝名
9050415,沖縄県,国頭郡今帰仁村,玉城,オキナワケン,クニガミグンナキジンソン,タマシロ,沖縄県国頭郡今帰仁村玉城
9050421,沖縄県,国頭郡今帰仁村,越地,オキナワケン,クニガミグンナキジンソン,コエチ,沖縄県国頭郡今帰仁村越地
9050422,沖縄県,国頭郡今帰仁村,崎山,オキナワケン,クニガミグンナキジンソン,サキヤマ,沖縄県国頭郡今帰仁村崎山
9050423,沖縄県,国頭郡今帰仁村,平敷,オキナワケン,クニガミグンナキジンソン,ヘシキ,沖縄県国頭郡今帰仁村平敷
9050424,沖縄県,国頭郡今帰仁村,仲尾次,オキナワケン,クニガミグンナキジンソン,ナカオシ,沖縄県国頭郡今帰仁村仲尾次
9050425,沖縄県,国頭郡今帰仁村,与那嶺,オキナワケン,クニガミグンナキジンソン,ヨナミネ,沖縄県国頭郡今帰仁村与那嶺
9050426,沖縄県,国頭郡今帰仁村,諸志,オキナワケン,クニガミグンナキジンソン,ショシ,沖縄県国頭郡今帰仁村諸志
9050427,沖縄県,国頭郡今帰仁村,兼次,オキナワケン,クニガミグンナキジンソン,カネシ,沖縄県国頭郡今帰仁村兼次
9050428,沖縄県,国頭郡今帰仁村,今泊,オキナワケン,クニガミグンナキジンソン,イマドマリ,沖縄県国頭郡今帰仁村今泊
9050500,沖縄県,国頭郡伊江村,,オキナワケン,クニガミグンイエソン,,沖縄県国頭郡伊江村
9050501,沖縄県,国頭郡伊江村,東江上,オキナワケン,クニガミグンイエソン,ヒガシエウエ,沖縄県国頭郡伊江村東江上
9050502,沖縄県,国頭郡伊江村,東江前,オキナワケン,クニガミグンイエソン,ヒガシエマエ,沖縄県国頭郡伊江村東江前
9050503,沖縄県,国頭郡伊江村,川平,オキナワケン,クニガミグンイエソン,カワヒラ,沖縄県国頭郡伊江村川平
9050504,沖縄県,国頭郡伊江村,西江前,オキナワケン,クニガミグンイエソン,ニシエマエ,沖縄県国頭郡伊江村西江前
9050505,沖縄県,国頭郡伊江村,西江上,オキナワケン,クニガミグンイエソン,ニシエウエ,沖縄県国頭郡伊江村西江上
9050600,沖縄県,島尻郡伊是名村,,オキナワケン,シマジリグンイゼナソン,,沖縄県島尻郡伊是名村
9050601,沖縄県,島尻郡伊是名村,内花,オキナワケン,シマジリグンイゼナソン,ウチハナ,沖縄県島尻郡伊是名村内花
9050602,沖縄県,島尻郡伊是名村,諸見,オキナワケン,シマジリグンイゼナソン,ショミ,沖縄県島尻郡伊是名村諸見
9050603,沖縄県,島尻郡伊是名村,仲田,オキナワケン,シマジリグンイゼナソン,ナカダ,沖縄県島尻郡伊是名村仲田
9050604,沖縄県,島尻郡伊是名村,伊是名,オキナワケン,シマジリグンイゼナソン,イゼナ,沖縄県島尻郡伊是名村伊是名
9050605,沖縄県,島尻郡伊是名村,勢理客,オキナワケン,シマジリグンイゼナソン,セリキャク,沖縄県島尻郡伊是名村勢理客
9050700,沖縄県,島尻郡伊平屋村,,オキナワケン,シマジリグンイヘヤソン,,沖縄県島尻郡伊平屋村
9050701,沖縄県,島尻郡伊平屋村,田名,オキナワケン,シマジリグンイヘヤソン,ダナ,沖縄県島尻郡伊平屋村田名
9050702,沖縄県,島尻郡伊平屋村,前泊,オキナワケン,シマジリグンイヘヤソン,マエドマリ,沖縄県島尻郡伊平屋村前泊
9050703,沖縄県,島尻郡伊平屋村,我喜屋,オキナワケン,シマジリグンイヘヤソン,ガキヤ,沖縄県島尻郡伊平屋村我喜屋
9050704,沖縄県,島尻郡伊平屋村,島尻,オキナワケン,シマジリグンイヘヤソン,シマジリ,沖縄県島尻郡伊平屋村島尻
9050705,沖縄県,島尻郡伊平屋村,野甫,オキナワケン,シマジリグンイヘヤソン,ノホ,沖縄県島尻郡伊平屋村野甫
9051141,沖縄県,名護市,源河,オキナワケン,ナゴシ,ゲンカ,沖縄県名護市源河
9051142,沖縄県,名護市,稲嶺,オキナワケン,ナゴシ,イナミネ,沖縄県名護市稲嶺
9051143,沖縄県,名護市,真喜屋,オキナワケン,ナゴシ,マキヤ,沖縄県名護市真喜屋
9051144,沖縄県,名護市,仲尾次,オキナワケン,ナゴシ,ナカオシ,沖縄県名護市仲尾次
9051145,沖縄県,名護市,川上,オキナワケン,ナゴシ,カワカミ,沖縄県名護市川上
9051146,沖縄県,名護市,親川,オキナワケン,ナゴシ,オヤカワ,沖縄県名護市親川
9051147,沖縄県,名護市,田井等,オキナワケン,ナゴシ,タイラ,沖縄県名護市田井等
9051151,沖縄県,名護市,振慶名,オキナワケン,ナゴシ,ブリケナ,沖縄県名護市振慶名
9051152,沖縄県,名護市,伊差川,オキナワケン,ナゴシ,イサガワ,沖縄県名護市伊差川
9051153,沖縄県,名護市,仲尾,オキナワケン,ナゴシ,ナカオ,沖縄県名護市仲尾
9051154,沖縄県,名護市,呉我,オキナワケン,ナゴシ,ゴガ,沖縄県名護市呉我
9051155,沖縄県,名護市,我部祖河,オキナワケン,ナゴシ,ガブソカ,沖縄県名護市我部祖河
9051156,沖縄県,名護市,古我知,オキナワケン,ナゴシ,コガチ,沖縄県名護市古我知
9051200,沖縄県,国頭郡東村,,オキナワケン,クニガミグンヒガシソン,,沖縄県国頭郡東村
9051201,沖縄県,国頭郡東村,高江,オキナワケン,クニガミグンヒガシソン,タカエ,沖縄県国頭郡東村高江
9051202,沖縄県,国頭郡東村,宮城,オキナワケン,クニガミグンヒガシソン,ミヤギ,沖縄県国頭郡東村宮城
9051203,沖縄県,国頭郡東村,川田,オキナワケン,クニガミグンヒガシソン,カワタ,沖縄県国頭郡東村川田
9051204,沖縄県,国頭郡東村,平良,オキナワケン,クニガミグンヒガシソン,タイラ,沖縄県国頭郡東村平良
9051205,沖縄県,国頭郡東村,慶佐次,オキナワケン,クニガミグンヒガシソン,ゲサシ,沖縄県国頭郡東村慶佐次
9051206,沖縄県,国頭郡東村,有銘,オキナワケン,クニガミグンヒガシソン,アルメ,沖縄県国頭郡東村有銘
9051300,沖縄県,国頭郡大宜味村,,オキナワケン,クニガミグンオオギミソン,,沖縄県国頭郡大宜味村
9051301,沖縄県,国頭郡大宜味村,田嘉里,オキナワケン,クニガミグンオオギミソン,タカザト,沖縄県国頭郡大宜味村田嘉里
9051302,沖縄県,国頭郡大宜味村,謝名城,オキナワケン,クニガミグンオオギミソン,ジャナグスク,沖縄県国頭郡大宜味村謝名城
9051303,沖縄県,国頭郡大宜味村,喜如嘉,オキナワケン,クニガミグンオオギミソン,キジョカ,沖縄県国頭郡大宜味村喜如嘉
9051304,沖縄県,国頭郡大宜味村,饒波,オキナワケン,クニガミグンオオギミソン,ヌウハ,沖縄県国頭郡大宜味村饒波
9051305,沖縄県,国頭郡大宜味村,大兼久,オキナワケン,クニガミグンオオギミソン,オオガネク,沖縄県国頭郡大宜味村大兼久
9051306,沖縄県,国頭郡大宜味村,大宜味,オキナワケン,クニガミグンオオギミソン,オオギミ,沖縄県国頭郡大宜味村大宜味
9051307,沖縄県,国頭郡大宜味村,根路銘,オキナワケン,クニガミグンオオギミソン,ネロメ,沖縄県国頭郡大宜味村根路銘
9051308,沖縄県,国頭郡大宜味村,上原,オキナワケン,クニガミグンオオギミソン,ウエハラ,沖縄県国頭郡大宜味村上原
9051311,沖縄県,国頭郡大宜味村,塩屋,オキナワケン,クニガミグンオオギミソン,シオヤ,沖縄県国頭郡大宜味村塩屋
9051312,沖縄県,国頭郡大宜味村,屋古,オキナワケン,クニガミグンオオギミソン,ヤコ,沖縄県国頭郡大宜味村屋古
9051313,沖縄県,国頭郡大宜味村,押川,オキナワケン,クニガミグンオオギミソン,オシカワ,沖縄県国頭郡大宜味村押川
9051314,沖縄県,国頭郡大宜味村,田港,オキナワケン,クニガミグンオオギミソン,タミナト,沖縄県国頭郡大宜味村田港
9051315,沖縄県,国頭郡大宜味村,大保,オキナワケン,クニガミグンオオギミソン,タイホ,沖縄県国頭郡大宜味村大保
9051316,沖縄県,国頭郡大宜味村,白浜,オキナワケン,クニガミグンオオギミソン,シラハマ,沖縄県国頭郡大宜味村白浜
9051317,沖縄県,国頭郡大宜味村,江洲,オキナワケン,クニガミグンオオギミソン,エス,沖縄県国頭郡大宜味村江洲
9051318,沖縄県,国頭郡大宜味村,津波,オキナワケン,クニガミグンオオギミソン,ツハ,沖縄県国頭郡大宜味村津波
9051319,沖縄県,国頭郡大宜味村,宮城,オキナワケン,クニガミグンオオギミソン,ミヤギ,沖縄県国頭郡大宜味村宮城
9051400,沖縄県,国頭郡国頭村,,オキナワケン,クニガミグンクニガミソン,,沖縄県国頭郡国頭村
9051411,沖縄県,国頭郡国頭村,辺土名,オキナワケン,クニガミグンクニガミソン,ヘントナ,沖縄県国頭郡国頭村辺土名
9051412,沖縄県,国頭郡国頭村,奥間,オキナワケン,クニガミグンクニガミソン,オクマ,沖縄県国頭郡国頭村奥間
9051413,沖縄県,国頭郡国頭村,比地,オキナワケン,クニガミグンクニガミソン,ヒジ,沖縄県国頭郡国頭村比地
9051414,沖縄県,国頭郡国頭村,半地,オキナワケン,クニガミグンクニガミソン,ハンジ,沖縄県国頭郡国頭村半地
9051415,沖縄県,国頭郡国頭村,浜,オキナワケン,クニガミグンクニガミソン,ハマ,沖縄県国頭郡国頭村浜
9051416,沖縄県,国頭郡国頭村,鏡地,オキナワケン,クニガミグンクニガミソン,カガンジ,沖縄県国頭郡国頭村鏡地
9051417,沖縄県,国頭郡国頭村,桃原,オキナワケン,クニガミグンクニガミソン,トウバル,沖縄県国頭郡国頭村桃原
9051421,沖縄県,国頭郡国頭村,辺戸,オキナワケン,クニガミグンクニガミソン,ヘド,沖縄県国頭郡国頭村辺戸
9051422,沖縄県,国頭郡国頭村,宜名真,オキナワケン,クニガミグンクニガミソン,ギナマ,沖縄県国頭郡国頭村宜名真
9051423,沖縄県,国頭郡国頭村,宇嘉,オキナワケン,クニガミグンクニガミソン,ウカ,沖縄県国頭郡国頭村宇嘉
9051424,沖縄県,国頭郡国頭村,辺野喜,オキナワケン,クニガミグンクニガミソン,ベノキ,沖縄県国頭郡国頭村辺野喜
9051425,沖縄県,国頭郡国頭村,佐手,オキナワケン,クニガミグンクニガミソン,サテ,沖縄県国頭郡国頭村佐手
9051426,沖縄県,国頭郡国頭村,謝敷,オキナワケン,クニガミグンクニガミソン,ジャシキ,沖縄県国頭郡国頭村謝敷
9051427,沖縄県,国頭郡国頭村,与那,オキナワケン,クニガミグンクニガミソン,ヨナ,沖縄県国頭郡国頭村与那
9051428,沖縄県,国頭郡国頭村,伊地,オキナワケン,クニガミグンクニガミソン,イジ,沖縄県国頭郡国頭村伊地
9051429,沖縄県,国頭郡国頭村,宇良,オキナワケン,クニガミグンクニガミソン,ウラ,沖縄県国頭郡国頭村宇良
9051501,沖縄県,国頭郡国頭村,奥,オキナワケン,クニガミグンクニガミソン,オク,沖縄県国頭郡国頭村奥
9051502,沖縄県,国頭郡国頭村,楚洲,オキナワケン,クニガミグンクニガミソン,ソス,沖縄県国頭郡国頭村楚洲
9051503,沖縄県,国頭郡国頭村,安田,オキナワケン,クニガミグンクニガミソン,アダ,沖縄県国頭郡国頭村安田
9051504,沖縄県,国頭郡国頭村,安波,オキナワケン,クニガミグンクニガミソン,アハ,沖縄県国頭郡国頭村安波
9051631,沖縄県,名護市,屋我,オキナワケン,ナゴシ,ヤガ,沖縄県名護市屋我
9051632,沖縄県,名護市,饒平名,オキナワケン,ナゴシ,ヨヘナ,沖縄県名護市饒平名
9051633,沖縄県,名護市,我部,オキナワケン,ナゴシ,ガブ,沖縄県名護市我部
9051634,沖縄県,名護市,運天原,オキナワケン,ナゴシ,ウンテンバル,沖縄県名護市運天原
9051635,沖縄県,名護市,済井出,オキナワケン,ナゴシ,スムイデ,沖縄県名護市済井出
9052171,沖縄県,名護市,辺野古,オキナワケン,ナゴシ,ヘノコ,沖縄県名護市辺野古
9052172,沖縄県,名護市,豊原,オキナワケン,ナゴシ,トヨハラ,沖縄県名護市豊原
9052173,沖縄県,名護市,久志,オキナワケン,ナゴシ,クシ,沖縄県名護市久志
9052261,沖縄県,名護市,天仁屋,オキナワケン,ナゴシ,テニヤ,沖縄県名護市天仁屋
9052262,沖縄県,名護市,嘉陽,オキナワケン,ナゴシ,カヨウ,沖縄県名護市嘉陽
9052263,沖縄県,名護市,安部,オキナワケン,ナゴシ,アブ,沖縄県名護市安部
9052264,沖縄県,名護市,三原,オキナワケン,ナゴシ,ミハラ,沖縄県名護市三原
9052265,沖縄県,名護市,汀間,オキナワケン,ナゴシ,テイマ,沖縄県名護市汀間
9052266,沖縄県,名護市,瀬嵩,オキナワケン,ナゴシ,セダケ,沖縄県名護市瀬嵩
9052267,沖縄県,名護市,大浦,オキナワケン,ナゴシ,オオウラ,沖縄県名護市大浦
9052268,沖縄県,名護市,大川,オキナワケン,ナゴシ,オオカワ,沖縄県名護市大川
9052269,沖縄県,名護市,二見,オキナワケン,ナゴシ,フタミ,沖縄県名護市二見
9060000,沖縄県,宮古島市,,オキナワケン,ミヤコジマシ,,沖縄県宮古島市
9060001,沖縄県,宮古島市,平良大神,オキナワケン,ミヤコジマシ,ヒララオオガミ,沖縄県宮古島市平良大神
9060002,沖縄県,宮古島市,平良狩俣,オキナワケン,ミヤコジマシ,ヒララカリマタ,沖縄県宮古島市平良狩俣
9060003,沖縄県,宮古島市,平良島尻,オキナワケン,ミヤコジマシ,ヒララシマジリ,沖縄県宮古島市平良島尻
9060004,沖縄県,宮古島市,平良大浦,オキナワケン,ミヤコジマシ,ヒララオオウラ,沖縄県宮古島市平良大浦
9060005,沖縄県,宮古島市,平良西原,オキナワケン,ミヤコジマシ,ヒララニシハラ,沖縄県宮古島市平良西原
9060006,沖縄県,宮古島市,平良西仲宗根,オキナワケン,ミヤコジマシ,ヒララニシナカソネ,沖縄県宮古島市平良西仲宗根
9060007,沖縄県,宮古島市,平良東仲宗根,オキナワケン,ミヤコジマシ,ヒララヒガシナカソネ,沖縄県宮古島市平良東仲宗根
9060008,沖縄県,宮古島市,平良荷川取,オキナワケン,ミヤコジマシ,ヒララニカドリ,沖縄県宮古島市平良荷川取
9060011,沖縄県,宮古島市,平良東仲宗根添,オキナワケン,ミヤコジマシ,ヒララヒガシナカソネゾエ,沖縄県宮古島市平良東仲宗根添
9060012,沖縄県,宮古島市,平良西里,オキナワケン,ミヤコジマシ,ヒララニシザト,沖縄県宮古島市平良西里
9060013,沖縄県,宮古島市,平良下里,オキナワケン,ミヤコジマシ,ヒララシモザト,沖縄県宮古島市平良下里
9060014,沖縄県,宮古島市,平良松原,オキナワケン,ミヤコジマシ,ヒララマツバラ,沖縄県宮古島市平良松原
9060015,沖縄県,宮古島市,平良久貝,オキナワケン,ミヤコジマシ,ヒララクガイ,沖縄県宮古島市平良久貝
9060101,沖縄県,宮古島市,城辺保良,オキナワケン,ミヤコジマシ,グスクベボラ,沖縄県宮古島市城辺保良
9060102,沖縄県,宮古島市,城辺新城,オキナワケン,ミヤコジマシ,グスクベアラグスク,沖縄県宮古島市城辺新城
9060103,沖縄県,宮古島市,城辺福里,オキナワケン,ミヤコジマシ,グスクベフクザト,沖縄県宮古島市城辺福里
9060104,沖縄県,宮古島市,城辺比嘉,オキナワケン,ミヤコジマシ,グスクベヒガ,沖縄県宮古島市城辺比嘉
9060105,沖縄県,宮古島市,城辺長間,オキナワケン,ミヤコジマシ,グスクベナガマ,沖縄県宮古島市城辺長間
9060106,沖縄県,宮古島市,城辺西里添,オキナワケン,ミヤコジマシ,グスクベニシザトソエ,沖縄県宮古島市城辺西里添
9060107,沖縄県,宮古島市,城辺友利,オキナワケン,ミヤコジマシ,グスクベトモリ,沖縄県宮古島市城辺友利
9060108,沖縄県,宮古島市,城辺砂川,オキナワケン,ミヤコジマシ,グスクベウルカ,沖縄県宮古島市城辺砂川
9060109,沖縄県,宮古島市,城辺下里添,オキナワケン,ミヤコジマシ,グスクベシモザトソエ,沖縄県宮古島市城辺下里添
9060201,沖縄県,宮古島市,上野野原,オキナワケン,ミヤコジマシ,ウエノノバル,沖縄県宮古島市上野野原
9060202,沖縄県,宮古島市,上野新里,オキナワケン,ミヤコジマシ,ウエノシンザト,沖縄県宮古島市上野新里
9060203,沖縄県,宮古島市,上野宮国,オキナワケン,ミヤコジマシ,ウエノミヤグニ,沖縄県宮古島市上野宮国
9060204,沖縄県,宮古島市,上野上野,オキナワケン,ミヤコジマシ,ウエノウエノ,沖縄県宮古島市上野上野
9060301,沖縄県,宮古島市,下地川満,オキナワケン,ミヤコジマシ,シモジカワミツ,沖縄県宮古島市下地川満
9060302,沖縄県,宮古島市,下地嘉手苅,オキナワケン,ミヤコジマシ,シモジカデカリ,沖縄県宮古島市下地嘉手苅
9060303,沖縄県,宮古島市,下地洲鎌,オキナワケン,ミヤコジマシ,シモジスガマ,沖縄県宮古島市下地洲鎌
9060304,沖縄県,宮古島市,下地上地,オキナワケン,ミヤコジマシ,シモジウエチ,沖縄県宮古島市下地上地
9060305,沖縄県,宮古島市,下地与那覇,オキナワケン,ミヤコジマシ,シモジヨナハ,沖縄県宮古島市下地与那覇
9060306,沖縄県,宮古島市,下地来間,オキナワケン,ミヤコジマシ,シモジクリマ,沖縄県宮古島市下地来間
9060421,沖縄県,宮古島市,平良池間,オキナワケン,ミヤコジマシ,ヒラライケマ,沖縄県宮古島市平良池間
9060422,沖縄県,宮古島市,平良前里,オキナワケン,ミヤコジマシ,ヒララマエザト,沖縄県宮古島市平良前里
9060501,沖縄県,宮古島市,伊良部前里添,オキナワケン,ミヤコジマシ,イラブマエサトソエ,沖縄県宮古島市伊良部前里添
9060502,沖縄県,宮古島市,伊良部池間添,オキナワケン,ミヤコジマシ,イラブイケマソエ,沖縄県宮古島市伊良部池間添
9060503,沖縄県,宮古島市,伊良部伊良部,オキナワケン,ミヤコジマシ,イラブイラブ,沖縄県宮古島市伊良部伊良部
9060504,沖縄県,宮古島市,伊良部仲地,オキナワケン,ミヤコジマシ,イラブナカチ,沖縄県宮古島市伊良部仲地
9060505,沖縄県,宮古島市,伊良部国仲,オキナワケン,ミヤコジマシ,イラブクニナカ,沖縄県宮古島市伊良部国仲
9060506,沖縄県,宮古島市,伊良部長浜,オキナワケン,ミヤコジマシ,イラブナガハマ,沖縄県宮古島市伊良部長浜
9060507,沖縄県,宮古島市,伊良部佐和田,オキナワケン,ミヤコジマシ,イラブサワダ,沖縄県宮古島市伊良部佐和田
9060600,沖縄県,宮古郡多良間村,,オキナワケン,ミヤコグンタラマソン,,沖縄県宮古郡多良間村
9060601,沖縄県,宮古郡多良間村,塩川,オキナワケン,ミヤコグンタラマソン,シオカワ,沖縄県宮古郡多良間村塩川
9060602,沖縄県,宮古郡多良間村,仲筋,オキナワケン,ミヤコグンタラマソン,ナカスジ,沖縄県宮古郡多良間村仲筋
9060603,沖縄県,宮古郡多良間村,水納,オキナワケン,ミヤコグンタラマソン,ミンナ,沖縄県宮古郡多良間村水納
9070000,沖縄県,八重山郡竹富町,,オキナワケン,ヤエヤマグンタケトミチョウ,,沖縄県八重山郡竹富町
9070000,沖縄県,石垣市,,オキナワケン,イシガキシ,,沖縄県石垣市
9070001,沖縄県,石垣市,大浜,オキナワケン,イシガキシ,オオハマ,沖縄県石垣市大浜
9070002,沖縄県,石垣市,真栄里,オキナワケン,イシガキシ,マエザト,沖縄県石垣市真栄里
9070003,沖縄県,石垣市,平得,オキナワケン,イシガキシ,ヒラエ,沖縄県石垣市平得
9070004,沖縄県,石垣市,登野城,オキナワケン,イシガキシ,トノシロ,沖縄県石垣市登野城
9070011,沖縄県,石垣市,八島町,オキナワケン,イシガキシ,ヤシマチョウ,沖縄県石垣市八島町
9070012,沖縄県,石垣市,美崎町,オキナワケン,イシガキシ,ミサキチョウ,沖縄県石垣市美崎町
9070013,沖縄県,石垣市,浜崎町,オキナワケン,イシガキシ,ハマサキチョウ,沖縄県石垣市浜崎町
9070014,沖縄県,石垣市,新栄町,オキナワケン,イシガキシ,シンエイチョウ,沖縄県石垣市新栄町
9070015,沖縄県,石垣市,南ぬ浜町,オキナワケン,イシガキシ,パイヌハマチョウ,沖縄県石垣市南ぬ浜町
9070021,沖縄県,石垣市,名蔵,オキナワケン,イシガキシ,ナグラ,沖縄県石垣市名蔵
9070022,沖縄県,石垣市,大川,オキナワケン,イシガキシ,オオカワ,沖縄県石垣市大川
9070023,沖縄県,石垣市,石垣,オキナワケン,イシガキシ,イシガキ,沖縄県石垣市石垣
9070024,沖縄県,石垣市,新川,オキナワケン,イシガキシ,アラカワ,沖縄県石垣市新川
9070031,沖縄県,石垣市,登野城尖閣,オキナワケン,イシガキシ,トノシロセンカク,沖縄県石垣市登野城尖閣
9070241,沖縄県,石垣市,桃里,オキナワケン,イシガキシ,トウザト,沖縄県石垣市桃里
9070242,沖縄県,石垣市,白保,オキナワケン,イシガキシ,シラホ,沖縄県石垣市白保
9070243,沖縄県,石垣市,宮良,オキナワケン,イシガキシ,ミヤラ,沖縄県石垣市宮良
9070244,沖縄県,石垣市,盛山,オキナワケン,イシガキシ,モリヤマ,沖縄県石垣市盛山
9070331,沖縄県,石垣市,平久保,オキナワケン,イシガキシ,ヒラクボ,沖縄県石垣市平久保
9070332,沖縄県,石垣市,伊原間,オキナワケン,イシガキシ,イバルマ,沖縄県石垣市伊原間
9070333,沖縄県,石垣市,野底,オキナワケン,イシガキシ,ノソコ,沖縄県石垣市野底
9070451,沖縄県,石垣市,桴海,オキナワケン,イシガキシ,フカイ,沖縄県石垣市桴海
9070452,沖縄県,石垣市,崎枝,オキナワケン,イシガキシ,サキエダ,沖縄県石垣市崎枝
9070453,沖縄県,石垣市,川平,オキナワケン,イシガキシ,カビラ,沖縄県石垣市川平
9071101,沖縄県,八重山郡竹富町,竹富,オキナワケン,ヤエヤマグンタケトミチョウ,タケトミ,沖縄県八重山郡竹富町竹富
9071221,沖縄県,八重山郡竹富町,小浜,オキナワケン,ヤエヤマグンタケトミチョウ,コハマ,沖縄県八重山郡竹富町小浜
9071311,沖縄県,八重山郡竹富町,黒島,オキナワケン,ヤエヤマグンタケトミチョウ,クロシマ,沖縄県八重山郡竹富町黒島
9071431,沖縄県,八重山郡竹富町,高那,オキナワケン,ヤエヤマグンタケトミチョウ,タカナ,沖縄県八重山郡竹富町高那
9071432,沖縄県,八重山郡竹富町,古見,オキナワケン,ヤエヤマグンタケトミチョウ,コミ,沖縄県八重山郡竹富町古見
9071433,沖縄県,八重山郡竹富町,南風見仲,オキナワケン,ヤエヤマグンタケトミチョウ,ハイミナカ,沖縄県八重山郡竹富町南風見仲
9071434,沖縄県,八重山郡竹富町,南風見,オキナワケン,ヤエヤマグンタケトミチョウ,ハイミ,沖縄県八重山郡竹富町南風見
9071435,沖縄県,八重山郡竹富町,新城,オキナワケン,ヤエヤマグンタケトミチョウ,アラグスク,沖縄県八重山郡竹富町新城
9071541,沖縄県,八重山郡竹富町,上原,オキナワケン,ヤエヤマグンタケトミチョウ,ウエハラ,沖縄県八重山郡竹富町上原
9071542,沖縄県,八重山郡竹富町,西表,オキナワケン,ヤエヤマグンタケトミチョウ,イリオモテ,沖縄県八重山郡竹富町西表
9071543,沖縄県,八重山郡竹富町,崎山,オキナワケン,ヤエヤマグンタケトミチョウ,サキヤマ,沖縄県八重山郡竹富町崎山
9071544,沖縄県,八重山郡竹富町,鳩間,オキナワケン,ヤエヤマグンタケトミチョウ,ハトマ,沖縄県八重山郡竹富町鳩間
9071751,沖縄県,八重山郡竹富町,波照間,オキナワケン,ヤエヤマグンタケトミチョウ,ハテルマ,沖縄県八重山郡竹富町波照間
9071800,沖縄県,八重山郡与那国町,,オキナワケン,ヤエヤマグンヨナグニチョウ,,沖縄県八重山郡与那国町
9071801,沖縄県,八重山郡与那国町,与那国,オキナワケン,ヤエヤマグンヨナグニチョウ,ヨナグニ,沖縄県八重山郡与那国町与那国
