zipcode,prefecture_name,city,town,prefecture_kana,city_kana,town_kana,normalized_address
0100000,秋田県,秋田市,,アキタケン,アキタシ,,秋田県秋田市
0100001,秋田県,秋田市,中通,アキタケン,アキタシ,ナカドオリ,秋田県秋田市中通
0100002,秋田県,秋田市,東通仲町,アキタケン,アキタシ,ヒガシドオリナカマチ,秋田県秋田市東通仲町
0100003,秋田県,秋田市,東通,アキタケン,アキタシ,ヒガシドオリ,秋田県秋田市東通
0100004,秋田県,秋田市,東通観音前,アキタケン,アキタシ,ヒガシドオリカンノンマエ,秋田県秋田市東通観音前
0100005,秋田県,秋田市,東通明田,アキタケン,アキタシ,ヒガシドオリミョウデン,秋田県秋田市東通明田
0100006,秋田県,秋田市,東通館ノ越,アキタケン,アキタシ,ヒガシドオリタテノコシ,秋田県秋田市東通館ノ越
0100011,秋田県,秋田市,南通亀の町,アキタケン,アキタシ,ミナミドオリカメノチョウ,秋田県秋田市南通亀の町
0100012,秋田県,秋田市,南通みその町,アキタケン,アキタシ,ミナミドオリミソノマチ,秋田県秋田市南通みその町
0100013,秋田県,秋田市,南通築地,アキタケン,アキタシ,ミナミドオリツキジ,秋田県秋田市南通築地
0100014,秋田県,秋田市,南通宮田,アキタケン,アキタシ,ミナミドオリミヤタ,秋田県秋田市南通宮田
0100021,秋田県,秋田市,楢山登町,アキタケン,アキタシ,ナラヤマノボリマチ,秋田県秋田市楢山登町
0100022,秋田県,秋田市,楢山南中町,アキタケン,アキタシ,ナラヤマミナミナカチョウ,秋田県秋田市楢山南中町
0100023,秋田県,秋田市,楢山本町,アキタケン,アキタシ,ナラヤマホンチョウ,秋田県秋田市楢山本町
0100024,秋田県,秋田市,楢山南新町上丁,アキタケン,アキタシ,ナラヤマミナミシンマチカミチョウ,秋田県秋田市楢山南新町上丁
0100025,秋田県,秋田市,楢山佐竹町,アキタケン,アキタシ,ナラヤマサタケマチ,秋田県秋田市楢山佐竹町
0100026,秋田県,秋田市,楢山古川新町,アキタケン,アキタシ,ナラヤマフルカワシンマチ,秋田県秋田市楢山古川新町
0100027,秋田県,秋田市,楢山南新町下丁,アキタケン,アキタシ,ナラヤマミナミシンマチシモチョウ,秋田県秋田市楢山南新町下丁
0100028,秋田県,秋田市,楢山共和町,アキタケン,アキタシ,ナラヤマキョウワマチ,秋田県秋田市楢山共和町
0100029,秋田県,秋田市,楢山川口境,アキタケン,アキタシ,ナラヤマカワグチサカイ,秋田県秋田市楢山川口境
0100031,秋田県,秋田市,楢山大元町,アキタケン,アキタシ,ナラヤマオオモトマチ,秋田県秋田市楢山大元町
0100032,秋田県,秋田市,楢山太田町,アキタケン,アキタシ,ナラヤマオオタマチ,秋田県秋田市楢山太田町
0100033,秋田県,秋田市,楢山石塚町,アキタケン,アキタシ,ナラヤマイシヅカチョウ,秋田県秋田市楢山石塚町
0100034,秋田県,秋田市,楢山,アキタケン,アキタシ,ナラヤマ,秋田県秋田市楢山
0100035,秋田県,秋田市,楢山城南町,アキタケン,アキタシ,ナラヤマジョウナンマチ,秋田県秋田市楢山城南町
0100036,秋田県,秋田市,楢山金照町,アキタケン,アキタシ,ナラヤマキンショウマチ,秋田県秋田市楢山金照町
0100037,秋田県,秋田市,楢山愛宕下,アキタケン,アキタシ,ナラヤマアタゴシタ,秋田県秋田市楢山愛宕下
0100038,秋田県,秋田市,楢山城南新町,アキタケン,アキタシ,ナラヤマジョウナンシンマチ,秋田県秋田市楢山城南新町
0100041,秋田県,秋田市,広面,アキタケン,アキタシ,ヒロオモテ,秋田県秋田市広面
0100042,秋田県,秋田市,桜,アキタケン,アキタシ,サクラ,秋田県秋田市桜
0100043,秋田県,秋田市,桜ガ丘,アキタケン,アキタシ,サクラガオカ,秋田県秋田市桜ガ丘
0100044,秋田県,秋田市,横森,アキタケン,アキタシ,ヨコモリ,秋田県秋田市横森
0100051,秋田県,秋田市,下北手松崎,アキタケン,アキタシ,シモキタテマツサキ,秋田県秋田市下北手松崎
0100052,秋田県,秋田市,下北手柳館,アキタケン,アキタシ,シモキタテヤナギタテ,秋田県秋田市下北手柳館
0100053,秋田県,秋田市,下北手寒川,アキタケン,アキタシ,シモキタテサムカワ,秋田県秋田市下北手寒川
0100054,秋田県,秋田市,下北手宝川,アキタケン,アキタシ,シモキタテタカラカワ,秋田県秋田市下北手宝川
0100055,秋田県,秋田市,下北手通沢,アキタケン,アキタシ,シモキタテトオリサワ,秋田県秋田市下北手通沢
0100056,秋田県,秋田市,下北手黒川,アキタケン,アキタシ,シモキタテクロカワ,秋田県秋田市下北手黒川
0100057,秋田県,秋田市,下北手梨平,アキタケン,アキタシ,シモキタテナシヒラ,秋田県秋田市下北手梨平
0100058,秋田県,秋田市,下北手桜,アキタケン,アキタシ,シモキタテサクラ,秋田県秋田市下北手桜
0100059,秋田県,秋田市,桜台,アキタケン,アキタシ,サクラダイ,秋田県秋田市桜台
0100061,秋田県,秋田市,卸町,アキタケン,アキタシ,オロシマチ,秋田県秋田市卸町
0100062,秋田県,秋田市,牛島東,アキタケン,アキタシ,ウシジマヒガシ,秋田県秋田市牛島東
0100063,秋田県,秋田市,牛島西,アキタケン,アキタシ,ウシジマニシ,秋田県秋田市牛島西
0100064,秋田県,秋田市,牛島,アキタケン,アキタシ,ウシジマ,秋田県秋田市牛島
0100065,秋田県,秋田市,茨島,アキタケン,アキタシ,バラジマ,秋田県秋田市茨島
0100066,秋田県,秋田市,牛島南,アキタケン,アキタシ,ウシジマミナミ,秋田県秋田市牛島南
0100101,秋田県,潟上市,天王（追分、追分西、上北野、長沼）,アキタケン,カタガミシ,テンノウ(オイワケ、オイワケニシ、カミキタノ、ナガヌマ),秋田県潟上市天王（追分、追分西、上北野、長沼）
0100111,秋田県,秋田市,金足岩瀬,アキタケン,アキタシ,カナアシイワセ,秋田県秋田市金足岩瀬
0100112,秋田県,秋田市,金足堀内,アキタケン,アキタシ,カナアシホリウチ,秋田県秋田市金足堀内
0100113,秋田県,秋田市,金足浦山,アキタケン,アキタシ,カナアシウラヤマ,秋田県秋田市金足浦山
0100114,秋田県,秋田市,金足下刈,アキタケン,アキタシ,カナアシシタカリ,秋田県秋田市金足下刈
0100115,秋田県,秋田市,金足大清水,アキタケン,アキタシ,カナアシオオシミズ,秋田県秋田市金足大清水
0100116,秋田県,秋田市,金足小泉,アキタケン,アキタシ,カナアシコイズミ,秋田県秋田市金足小泉
0100121,秋田県,秋田市,金足黒川,アキタケン,アキタシ,カナアシクロカワ,秋田県秋田市金足黒川
0100122,秋田県,秋田市,金足吉田,アキタケン,アキタシ,カナアシヨシダ,秋田県秋田市金足吉田
0100123,秋田県,秋田市,金足片田,アキタケン,アキタシ,カナアシカタダ,秋田県秋田市金足片田
0100124,秋田県,秋田市,金足鳰崎,アキタケン,アキタシ,カナアシニオザキ,秋田県秋田市金足鳰崎
0100125,秋田県,秋田市,金足高岡,アキタケン,アキタシ,カナアシタカオカ,秋田県秋田市金足高岡
0100126,秋田県,秋田市,金足追分,アキタケン,アキタシ,カナアシオイワケ,秋田県秋田市金足追分
0100131,秋田県,秋田市,上新城白山,アキタケン,アキタシ,カミシンジョウシラヤマ,秋田県秋田市上新城白山
0100132,秋田県,秋田市,上新城小又,アキタケン,アキタシ,カミシンジョウオマタ,秋田県秋田市上新城小又
0100133,秋田県,秋田市,上新城湯ノ里,アキタケン,アキタシ,カミシンジョウユノサト,秋田県秋田市上新城湯ノ里
0100134,秋田県,秋田市,上新城道川,アキタケン,アキタシ,カミシンジョウミチカワ,秋田県秋田市上新城道川
0100135,秋田県,秋田市,上新城五十丁,アキタケン,アキタシ,カミシンジョウゴジッチョウ,秋田県秋田市上新城五十丁
0100136,秋田県,秋田市,上新城中,アキタケン,アキタシ,カミシンジョウナカ,秋田県秋田市上新城中
0100137,秋田県,秋田市,上新城石名坂,アキタケン,アキタシ,カミシンジョウイシナザカ,秋田県秋田市上新城石名坂
0100138,秋田県,秋田市,上新城保多野,アキタケン,アキタシ,カミシンジョウホタノ,秋田県秋田市上新城保多野
0100141,秋田県,秋田市,下新城長岡,アキタケン,アキタシ,シモシンジョウナガオカ,秋田県秋田市下新城長岡
0100142,秋田県,秋田市,下新城青崎,アキタケン,アキタシ,シモシンジョウアオザキ,秋田県秋田市下新城青崎
0100143,秋田県,秋田市,下新城小友,アキタケン,アキタシ,シモシンジョウオトモ,秋田県秋田市下新城小友
0100144,秋田県,秋田市,下新城岩城,アキタケン,アキタシ,シモシンジョウイワキ,秋田県秋田市下新城岩城
0100145,秋田県,秋田市,下新城笠岡,アキタケン,アキタシ,シモシンジョウカサオカ,秋田県秋田市下新城笠岡
0100146,秋田県,秋田市,下新城中野,アキタケン,アキタシ,シモシンジョウナカノ,秋田県秋田市下新城中野
0100201,秋田県,潟上市,天王（その他）,アキタケン,カタガミシ,テンノウ(ソノタ),秋田県潟上市天王（その他）
0100202,秋田県,潟上市,天王大崎,アキタケン,カタガミシ,テンノウオオサキ,秋田県潟上市天王大崎
0100341,秋田県,男鹿市,船越,アキタケン,オガシ,フナコシ,秋田県男鹿市船越
0100342,秋田県,男鹿市,脇本脇本,アキタケン,オガシ,ワキモトワキモト,秋田県男鹿市脇本脇本
0100343,秋田県,男鹿市,脇本田谷沢,アキタケン,オガシ,ワキモトタヤザワ,秋田県男鹿市脇本田谷沢
0100344,秋田県,男鹿市,脇本富永,アキタケン,オガシ,ワキモトトミナガ,秋田県男鹿市脇本富永
0100345,秋田県,男鹿市,脇本浦田,アキタケン,オガシ,ワキモトウラダ,秋田県男鹿市脇本浦田
0100346,秋田県,男鹿市,脇本樽沢,アキタケン,オガシ,ワキモトタルザワ,秋田県男鹿市脇本樽沢
0100347,秋田県,男鹿市,脇本百川,アキタケン,オガシ,ワキモトモモカワ,秋田県男鹿市脇本百川
0100351,秋田県,男鹿市,五里合箱井,アキタケン,オガシ,イリアイハコイ,秋田県男鹿市五里合箱井
0100352,秋田県,男鹿市,五里合琴川,アキタケン,オガシ,イリアイコトガワ,秋田県男鹿市五里合琴川
0100353,秋田県,男鹿市,五里合神谷,アキタケン,オガシ,イリアイカミヤ,秋田県男鹿市五里合神谷
0100354,秋田県,男鹿市,五里合中石,アキタケン,オガシ,イリアイチュウイシ,秋田県男鹿市五里合中石
0100355,秋田県,男鹿市,五里合鮪川,アキタケン,オガシ,イリアイシビカワ,秋田県男鹿市五里合鮪川
0100400,秋田県,南秋田郡大潟村,,アキタケン,ミナミアキタグンオオガタムラ,,秋田県南秋田郡大潟村
0100401,秋田県,男鹿市,野石,アキタケン,オガシ,ノイシ,秋田県男鹿市野石
0100411,秋田県,男鹿市,福米沢,アキタケン,オガシ,フクメザワ,秋田県男鹿市福米沢
0100412,秋田県,男鹿市,本内,アキタケン,オガシ,ホンナイ,秋田県男鹿市本内
0100413,秋田県,男鹿市,松木沢,アキタケン,オガシ,マツキサワ,秋田県男鹿市松木沢
0100421,秋田県,男鹿市,鵜木,アキタケン,オガシ,ウノキ,秋田県男鹿市鵜木
0100422,秋田県,男鹿市,角間崎,アキタケン,オガシ,カクマザキ,秋田県男鹿市角間崎
0100423,秋田県,男鹿市,福川,アキタケン,オガシ,フクガワ,秋田県男鹿市福川
0100431,秋田県,男鹿市,払戸,アキタケン,オガシ,フット,秋田県男鹿市払戸
0100441,秋田県,南秋田郡大潟村,北,アキタケン,ミナミアキタグンオオガタムラ,キタ,秋田県南秋田郡大潟村北
0100442,秋田県,南秋田郡大潟村,東,アキタケン,ミナミアキタグンオオガタムラ,ヒガシ,秋田県南秋田郡大潟村東
0100443,秋田県,南秋田郡大潟村,中央,アキタケン,ミナミアキタグンオオガタムラ,チュウオウ,秋田県南秋田郡大潟村中央
0100444,秋田県,南秋田郡大潟村,南,アキタケン,ミナミアキタグンオオガタムラ,ミナミ,秋田県南秋田郡大潟村南
0100445,秋田県,南秋田郡大潟村,西,アキタケン,ミナミアキタグンオオガタムラ,ニシ,秋田県南秋田郡大潟村西
0100451,秋田県,南秋田郡大潟村,大潟,アキタケン,ミナミアキタグンオオガタムラ,オオガタ,秋田県南秋田郡大潟村大潟
0100452,秋田県,南秋田郡大潟村,方上,アキタケン,ミナミアキタグンオオガタムラ,カタガミ,秋田県南秋田郡大潟村方上
0100453,秋田県,南秋田郡大潟村,方口,アキタケン,ミナミアキタグンオオガタムラ,カタグチ,秋田県南秋田郡大潟村方口
0100454,秋田県,南秋田郡大潟村,中野,アキタケン,ミナミアキタグンオオガタムラ,ナカノ,秋田県南秋田郡大潟村中野
0100455,秋田県,南秋田郡大潟村,西野,アキタケン,ミナミアキタグンオオガタムラ,ニシノ,秋田県南秋田郡大潟村西野
0100456,秋田県,南秋田郡大潟村,東野,アキタケン,ミナミアキタグンオオガタムラ,ヒガシノ,秋田県南秋田郡大潟村東野
0100500,秋田県,男鹿市,,アキタケン,オガシ,,秋田県男鹿市
0100501,秋田県,男鹿市,船川港仁井山,アキタケン,オガシ,フナガワミナトニイヤマ,秋田県男鹿市船川港仁井山
0100502,秋田県,男鹿市,船川港比詰,アキタケン,オガシ,フナガワミナトヒヅメ,秋田県男鹿市船川港比詰
0100503,秋田県,男鹿市,船川港金川,アキタケン,オガシ,フナガワミナトカネガワ,秋田県男鹿市船川港金川
0100511,秋田県,男鹿市,船川港船川,アキタケン,オガシ,フナガワミナトフナガワ,秋田県男鹿市船川港船川
0100521,秋田県,男鹿市,船川港南平沢,アキタケン,オガシ,フナガワミナトミナミヒラサワ,秋田県男鹿市船川港南平沢
0100522,秋田県,男鹿市,船川港増川,アキタケン,オガシ,フナガワミナトマスガワ,秋田県男鹿市船川港増川
0100523,秋田県,男鹿市,船川港女川,アキタケン,オガシ,フナガワミナトオンナガワ,秋田県男鹿市船川港女川
0100531,秋田県,男鹿市,船川港台島,アキタケン,オガシ,フナガワミナトダイシマ,秋田県男鹿市船川港台島
0100532,秋田県,男鹿市,船川港椿,アキタケン,オガシ,フナガワミナトツバキ,秋田県男鹿市船川港椿
0100533,秋田県,男鹿市,船川港双六,アキタケン,オガシ,フナガワミナトスゴロク,秋田県男鹿市船川港双六
0100534,秋田県,男鹿市,船川港小浜,アキタケン,オガシ,フナガワミナトコハマ,秋田県男鹿市船川港小浜
0100535,秋田県,男鹿市,船川港本山門前,アキタケン,オガシ,フナガワミナトホンザンモンゼン,秋田県男鹿市船川港本山門前
0100661,秋田県,男鹿市,男鹿中浜間口,アキタケン,オガシ,オガナカハママグチ,秋田県男鹿市男鹿中浜間口
0100662,秋田県,男鹿市,男鹿中中間口,アキタケン,オガシ,オガナカナカマグチ,秋田県男鹿市男鹿中中間口
0100663,秋田県,男鹿市,男鹿中滝川,アキタケン,オガシ,オガナカタキガワ,秋田県男鹿市男鹿中滝川
0100664,秋田県,男鹿市,男鹿中国有地内,アキタケン,オガシ,オガナカコクユウチナイ,秋田県男鹿市男鹿中国有地内
0100665,秋田県,男鹿市,男鹿中山町,アキタケン,オガシ,オガナカヤママチ,秋田県男鹿市男鹿中山町
0100671,秋田県,男鹿市,戸賀加茂青砂,アキタケン,オガシ,トガカモアオサ,秋田県男鹿市戸賀加茂青砂
0100672,秋田県,男鹿市,戸賀浜塩谷,アキタケン,オガシ,トガハマシオヤ,秋田県男鹿市戸賀浜塩谷
0100673,秋田県,男鹿市,戸賀塩浜,アキタケン,オガシ,トガシオハマ,秋田県男鹿市戸賀塩浜
0100674,秋田県,男鹿市,戸賀戸賀,アキタケン,オガシ,トガトガ,秋田県男鹿市戸賀戸賀
0100675,秋田県,男鹿市,北浦入道崎,アキタケン,オガシ,キタウラニュウドウザキ,秋田県男鹿市北浦入道崎
0100676,秋田県,男鹿市,北浦西黒沢,アキタケン,オガシ,キタウラニシクロサワ,秋田県男鹿市北浦西黒沢
0100681,秋田県,男鹿市,北浦相川,アキタケン,オガシ,キタウラアイカワ,秋田県男鹿市北浦相川
0100682,秋田県,男鹿市,北浦表町,アキタケン,オガシ,キタウラオモテマチ,秋田県男鹿市北浦表町
0100683,秋田県,男鹿市,北浦北浦,アキタケン,オガシ,キタウラキタウラ,秋田県男鹿市北浦北浦
0100684,秋田県,男鹿市,北浦安全寺,アキタケン,オガシ,キタウラアンゼンジ,秋田県男鹿市北浦安全寺
0100685,秋田県,男鹿市,北浦真山,アキタケン,オガシ,キタウラシンザン,秋田県男鹿市北浦真山
0100686,秋田県,男鹿市,北浦西水口,アキタケン,オガシ,キタウラニシミズグチ,秋田県男鹿市北浦西水口
0100687,秋田県,男鹿市,北浦湯本,アキタケン,オガシ,キタウラユモト,秋田県男鹿市北浦湯本
0100688,秋田県,男鹿市,北浦野村,アキタケン,オガシ,キタウラノムラ,秋田県男鹿市北浦野村
0100802,秋田県,秋田市,外旭川,アキタケン,アキタシ,ソトアサヒカワ,秋田県秋田市外旭川
0100803,秋田県,秋田市,外旭川八柳,アキタケン,アキタシ,ソトアサヒカワヤツヤナギ,秋田県秋田市外旭川八柳
0100804,秋田県,秋田市,外旭川八幡田（丁目）,アキタケン,アキタシ,ソトアサヒカワハチマンデン(チョウメ),秋田県秋田市外旭川八幡田（丁目）
0100811,秋田県,秋田市,泉釜ノ町,アキタケン,アキタシ,イズミカマノマチ,秋田県秋田市泉釜ノ町
0100812,秋田県,秋田市,泉三嶽根,アキタケン,アキタシ,イズミミタケネ,秋田県秋田市泉三嶽根
0100813,秋田県,秋田市,泉一ノ坪,アキタケン,アキタシ,イズミイチノツボ,秋田県秋田市泉一ノ坪
0100814,秋田県,秋田市,泉東町,アキタケン,アキタシ,イズミヒガシマチ,秋田県秋田市泉東町
0100815,秋田県,秋田市,泉馬場,アキタケン,アキタシ,イズミババ,秋田県秋田市泉馬場
0100816,秋田県,秋田市,泉,アキタケン,アキタシ,イズミ,秋田県秋田市泉
0100817,秋田県,秋田市,泉菅野（丁目）,アキタケン,アキタシ,イズミスガノ(チョウメ),秋田県秋田市泉菅野（丁目）
0100821,秋田県,秋田市,濁川,アキタケン,アキタシ,ニゴリカワ,秋田県秋田市濁川
0100822,秋田県,秋田市,添川,アキタケン,アキタシ,ソエガワ,秋田県秋田市添川
0100823,秋田県,秋田市,山内,アキタケン,アキタシ,サンナイ,秋田県秋田市山内
0100824,秋田県,秋田市,仁別,アキタケン,アキタシ,ニベツ,秋田県秋田市仁別
0100825,秋田県,秋田市,柳田,アキタケン,アキタシ,ヤナギダ,秋田県秋田市柳田
0100826,秋田県,秋田市,新藤田,アキタケン,アキタシ,シントウダ,秋田県秋田市新藤田
0100831,秋田県,秋田市,旭川清澄町,アキタケン,アキタシ,アサヒカワキヨスミマチ,秋田県秋田市旭川清澄町
0100832,秋田県,秋田市,旭川新藤田西町,アキタケン,アキタシ,アサヒカワシントウダニシマチ,秋田県秋田市旭川新藤田西町
0100833,秋田県,秋田市,旭川新藤田東町,アキタケン,アキタシ,アサヒカワシントウダヒガシマチ,秋田県秋田市旭川新藤田東町
0100834,秋田県,秋田市,旭川南町,アキタケン,アキタシ,アサヒカワミナミマチ,秋田県秋田市旭川南町
0100841,秋田県,秋田市,手形山西町,アキタケン,アキタシ,テガタヤマニシマチ,秋田県秋田市手形山西町
0100842,秋田県,秋田市,手形山北町,アキタケン,アキタシ,テガタヤマキタマチ,秋田県秋田市手形山北町
0100843,秋田県,秋田市,手形山東町,アキタケン,アキタシ,テガタヤマヒガシマチ,秋田県秋田市手形山東町
0100844,秋田県,秋田市,手形山中町,アキタケン,アキタシ,テガタヤマナカマチ,秋田県秋田市手形山中町
0100845,秋田県,秋田市,手形山南町,アキタケン,アキタシ,テガタヤマミナミマチ,秋田県秋田市手形山南町
0100851,秋田県,秋田市,手形,アキタケン,アキタシ,テガタ,秋田県秋田市手形
0100852,秋田県,秋田市,手形学園町,アキタケン,アキタシ,テガタガクエンマチ,秋田県秋田市手形学園町
0100853,秋田県,秋田市,蛇野,アキタケン,アキタシ,ヘビノ,秋田県秋田市蛇野
0100854,秋田県,秋田市,手形山崎町,アキタケン,アキタシ,テガタヤマザキチョウ,秋田県秋田市手形山崎町
0100861,秋田県,秋田市,手形からみでん,アキタケン,アキタシ,テガタカラミデン,秋田県秋田市手形からみでん
0100862,秋田県,秋田市,手形田中,アキタケン,アキタシ,テガタタナカ,秋田県秋田市手形田中
0100863,秋田県,秋田市,手形休下町,アキタケン,アキタシ,テガタキュウカマチ,秋田県秋田市手形休下町
0100864,秋田県,秋田市,手形住吉町,アキタケン,アキタシ,テガタスミヨシチョウ,秋田県秋田市手形住吉町
0100865,秋田県,秋田市,手形新栄町,アキタケン,アキタシ,テガタシンサカエマチ,秋田県秋田市手形新栄町
0100871,秋田県,秋田市,千秋中島町,アキタケン,アキタシ,センシュウナカジママチ,秋田県秋田市千秋中島町
0100872,秋田県,秋田市,千秋北の丸,アキタケン,アキタシ,センシュウキタノマル,秋田県秋田市千秋北の丸
0100873,秋田県,秋田市,千秋城下町,アキタケン,アキタシ,センシュウジョウカマチ,秋田県秋田市千秋城下町
0100874,秋田県,秋田市,千秋久保田町,アキタケン,アキタシ,センシュウクボタマチ,秋田県秋田市千秋久保田町
0100875,秋田県,秋田市,千秋明徳町,アキタケン,アキタシ,センシュウメイトクマチ,秋田県秋田市千秋明徳町
0100876,秋田県,秋田市,千秋公園,アキタケン,アキタシ,センシュウコウエン,秋田県秋田市千秋公園
0100877,秋田県,秋田市,千秋矢留町,アキタケン,アキタシ,センシュウヤドメマチ,秋田県秋田市千秋矢留町
0100901,秋田県,秋田市,保戸野桜町,アキタケン,アキタシ,ホドノサクラマチ,秋田県秋田市保戸野桜町
0100902,秋田県,秋田市,保戸野金砂町,アキタケン,アキタシ,ホドノカナサマチ,秋田県秋田市保戸野金砂町
0100903,秋田県,秋田市,保戸野八丁,アキタケン,アキタシ,ホドノハッチョウ,秋田県秋田市保戸野八丁
0100904,秋田県,秋田市,保戸野原の町,アキタケン,アキタシ,ホドノハラノマチ,秋田県秋田市保戸野原の町
0100905,秋田県,秋田市,保戸野中町,アキタケン,アキタシ,ホドノナカチョウ,秋田県秋田市保戸野中町
0100911,秋田県,秋田市,保戸野すわ町,アキタケン,アキタシ,ホドノスワチョウ,秋田県秋田市保戸野すわ町
0100912,秋田県,秋田市,保戸野通町,アキタケン,アキタシ,ホドノトオリマチ,秋田県秋田市保戸野通町
0100913,秋田県,秋田市,保戸野鉄砲町,アキタケン,アキタシ,ホドノテッポウマチ,秋田県秋田市保戸野鉄砲町
0100914,秋田県,秋田市,保戸野千代田町,アキタケン,アキタシ,ホドノチヨダマチ,秋田県秋田市保戸野千代田町
0100915,秋田県,秋田市,保戸野,アキタケン,アキタシ,ホドノ,秋田県秋田市保戸野
0100916,秋田県,秋田市,泉北,アキタケン,アキタシ,イズミキタ,秋田県秋田市泉北
0100917,秋田県,秋田市,泉中央,アキタケン,アキタシ,イズミチュウオウ,秋田県秋田市泉中央
0100918,秋田県,秋田市,泉南,アキタケン,アキタシ,イズミミナミ,秋田県秋田市泉南
0100921,秋田県,秋田市,大町,アキタケン,アキタシ,オオマチ,秋田県秋田市大町
0100922,秋田県,秋田市,旭北栄町,アキタケン,アキタシ,キョクホクサカエマチ,秋田県秋田市旭北栄町
0100923,秋田県,秋田市,旭北錦町,アキタケン,アキタシ,キョクホクニシキマチ,秋田県秋田市旭北錦町
0100924,秋田県,秋田市,旭北寺町,アキタケン,アキタシ,キョクホクテラマチ,秋田県秋田市旭北寺町
0100925,秋田県,秋田市,旭南,アキタケン,アキタシ,キョクナン,秋田県秋田市旭南
0100931,秋田県,秋田市,川元山下町,アキタケン,アキタシ,カワモトヤマシタマチ,秋田県秋田市川元山下町
0100932,秋田県,秋田市,川元開和町,アキタケン,アキタシ,カワモトカイワマチ,秋田県秋田市川元開和町
0100933,秋田県,秋田市,川元松丘町,アキタケン,アキタシ,カワモトマツオカマチ,秋田県秋田市川元松丘町
0100934,秋田県,秋田市,川元むつみ町,アキタケン,アキタシ,カワモトムツミマチ,秋田県秋田市川元むつみ町
0100935,秋田県,秋田市,川元小川町,アキタケン,アキタシ,カワモトオガワマチ,秋田県秋田市川元小川町
0100941,秋田県,秋田市,川尻町,アキタケン,アキタシ,カワシリマチ,秋田県秋田市川尻町
0100942,秋田県,秋田市,川尻大川町,アキタケン,アキタシ,カワシリオオカワマチ,秋田県秋田市川尻大川町
0100943,秋田県,秋田市,川尻御休町,アキタケン,アキタシ,カワシリオヤスミマチ,秋田県秋田市川尻御休町
0100944,秋田県,秋田市,川尻若葉町,アキタケン,アキタシ,カワシリワカバマチ,秋田県秋田市川尻若葉町
0100945,秋田県,秋田市,川尻みよし町,アキタケン,アキタシ,カワシリミヨシマチ,秋田県秋田市川尻みよし町
0100946,秋田県,秋田市,川尻総社町,アキタケン,アキタシ,カワシリソウシャマチ,秋田県秋田市川尻総社町
0100947,秋田県,秋田市,川尻上野町,アキタケン,アキタシ,カワシリウエノマチ,秋田県秋田市川尻上野町
0100948,秋田県,秋田市,川尻新川町,アキタケン,アキタシ,カワシリシンカワマチ,秋田県秋田市川尻新川町
0100951,秋田県,秋田市,山王,アキタケン,アキタシ,サンノウ,秋田県秋田市山王
0100952,秋田県,秋田市,山王新町,アキタケン,アキタシ,サンノウシンマチ,秋田県秋田市山王新町
0100953,秋田県,秋田市,山王中園町,アキタケン,アキタシ,サンノウナカゾノマチ,秋田県秋田市山王中園町
0100954,秋田県,秋田市,山王沼田町,アキタケン,アキタシ,サンノウヌマタマチ,秋田県秋田市山王沼田町
0100955,秋田県,秋田市,山王中島町,アキタケン,アキタシ,サンノウナカジママチ,秋田県秋田市山王中島町
0100956,秋田県,秋田市,山王臨海町,アキタケン,アキタシ,サンノウリンカイマチ,秋田県秋田市山王臨海町
0100961,秋田県,秋田市,八橋イサノ,アキタケン,アキタシ,ヤバセイサノ,秋田県秋田市八橋イサノ
0100962,秋田県,秋田市,八橋大畑,アキタケン,アキタシ,ヤバセオオハタ,秋田県秋田市八橋大畑
0100963,秋田県,秋田市,八橋大沼町,アキタケン,アキタシ,ヤバセオオヌマチョウ,秋田県秋田市八橋大沼町
0100964,秋田県,秋田市,八橋鯲沼町,アキタケン,アキタシ,ヤバセドジョウヌママチ,秋田県秋田市八橋鯲沼町
0100965,秋田県,秋田市,八橋新川向,アキタケン,アキタシ,ヤバセシンカワムカイ,秋田県秋田市八橋新川向
0100966,秋田県,秋田市,高陽青柳町,アキタケン,アキタシ,コウヨウアオヤギチョウ,秋田県秋田市高陽青柳町
0100967,秋田県,秋田市,高陽幸町,アキタケン,アキタシ,コウヨウサイワイチョウ,秋田県秋田市高陽幸町
0100971,秋田県,秋田市,八橋三和町,アキタケン,アキタシ,ヤバセミワチョウ,秋田県秋田市八橋三和町
0100972,秋田県,秋田市,八橋田五郎,アキタケン,アキタシ,ヤバセタゴロウ,秋田県秋田市八橋田五郎
0100973,秋田県,秋田市,八橋本町,アキタケン,アキタシ,ヤバセホンチョウ,秋田県秋田市八橋本町
0100974,秋田県,秋田市,八橋運動公園,アキタケン,アキタシ,ヤバセウンドウコウエン,秋田県秋田市八橋運動公園
0100975,秋田県,秋田市,八橋,アキタケン,アキタシ,ヤバセ,秋田県秋田市八橋
0100976,秋田県,秋田市,八橋南,アキタケン,アキタシ,ヤバセミナミ,秋田県秋田市八橋南
0100977,秋田県,秋田市,八橋大道東,アキタケン,アキタシ,ヤバセダイドウヒガシ,秋田県秋田市八橋大道東
0101101,秋田県,秋田市,太平八田,アキタケン,アキタシ,タイヘイハッタ,秋田県秋田市太平八田
0101102,秋田県,秋田市,太平目長崎,アキタケン,アキタシ,タイヘイメナガサキ,秋田県秋田市太平目長崎
0101103,秋田県,秋田市,太平中関,アキタケン,アキタシ,タイヘイナカゼキ,秋田県秋田市太平中関
0101104,秋田県,秋田市,太平寺庭,アキタケン,アキタシ,タイヘイテラニワ,秋田県秋田市太平寺庭
0101105,秋田県,秋田市,太平黒沢,アキタケン,アキタシ,タイヘイクロサワ,秋田県秋田市太平黒沢
0101106,秋田県,秋田市,太平山谷,アキタケン,アキタシ,タイヘイヤマヤ,秋田県秋田市太平山谷
0101201,秋田県,秋田市,雄和田草川,アキタケン,アキタシ,ユウワタクサガワ,秋田県秋田市雄和田草川
0101202,秋田県,秋田市,雄和芝野新田,アキタケン,アキタシ,ユウワシバノシンデン,秋田県秋田市雄和芝野新田
0101203,秋田県,秋田市,雄和下黒瀬,アキタケン,アキタシ,ユウワシモクロセ,秋田県秋田市雄和下黒瀬
0101211,秋田県,秋田市,雄和椿川,アキタケン,アキタシ,ユウワツバキカワ,秋田県秋田市雄和椿川
0101212,秋田県,秋田市,雄和平尾鳥,アキタケン,アキタシ,ユウワヒラオトリ,秋田県秋田市雄和平尾鳥
0101221,秋田県,秋田市,雄和平沢,アキタケン,アキタシ,ユウワヒラサワ,秋田県秋田市雄和平沢
0101222,秋田県,秋田市,雄和石田,アキタケン,アキタシ,ユウワイシダ,秋田県秋田市雄和石田
0101223,秋田県,秋田市,雄和妙法,アキタケン,アキタシ,ユウワミョウホウ,秋田県秋田市雄和妙法
0101224,秋田県,秋田市,雄和種沢,アキタケン,アキタシ,ユウワタネザワ,秋田県秋田市雄和種沢
0101225,秋田県,秋田市,雄和左手子,アキタケン,アキタシ,ユウワサデコ,秋田県秋田市雄和左手子
0101231,秋田県,秋田市,雄和相川,アキタケン,アキタシ,ユウワアイカワ,秋田県秋田市雄和相川
0101232,秋田県,秋田市,雄和戸賀沢,アキタケン,アキタシ,ユウワトガザワ,秋田県秋田市雄和戸賀沢
0101233,秋田県,秋田市,雄和女米木,アキタケン,アキタシ,ユウワメメキ,秋田県秋田市雄和女米木
0101341,秋田県,秋田市,雄和新波,アキタケン,アキタシ,ユウワアラワ,秋田県秋田市雄和新波
0101342,秋田県,秋田市,雄和神ケ村,アキタケン,アキタシ,ユウワジンガムラ,秋田県秋田市雄和神ケ村
0101343,秋田県,秋田市,雄和繋,アキタケン,アキタシ,ユウワツナギ,秋田県秋田市雄和繋
0101344,秋田県,秋田市,雄和向野,アキタケン,アキタシ,ユウワムカイノ,秋田県秋田市雄和向野
0101351,秋田県,秋田市,雄和碇田,アキタケン,アキタシ,ユウワイカリダ,秋田県秋田市雄和碇田
0101352,秋田県,秋田市,雄和萱ケ沢,アキタケン,アキタシ,ユウワカヤガサワ,秋田県秋田市雄和萱ケ沢
0101401,秋田県,秋田市,上北手大杉沢,アキタケン,アキタシ,カミキタテオオスギサワ,秋田県秋田市上北手大杉沢
0101402,秋田県,秋田市,上北手小山田,アキタケン,アキタシ,カミキタテオヤマダ,秋田県秋田市上北手小山田
0101403,秋田県,秋田市,上北手荒巻,アキタケン,アキタシ,カミキタテアラマキ,秋田県秋田市上北手荒巻
0101404,秋田県,秋田市,上北手古野,アキタケン,アキタシ,カミキタテコノ,秋田県秋田市上北手古野
0101405,秋田県,秋田市,上北手大山田,アキタケン,アキタシ,カミキタテオオヤマダ,秋田県秋田市上北手大山田
0101406,秋田県,秋田市,上北手猿田,アキタケン,アキタシ,カミキタテサルタ,秋田県秋田市上北手猿田
0101407,秋田県,秋田市,上北手百崎,アキタケン,アキタシ,カミキタテモモザキ,秋田県秋田市上北手百崎
0101408,秋田県,秋田市,上北手大戸,アキタケン,アキタシ,カミキタテオオド,秋田県秋田市上北手大戸
0101409,秋田県,秋田市,南ケ丘,アキタケン,アキタシ,ミナミガオカ,秋田県秋田市南ケ丘
0101411,秋田県,秋田市,上北手御所野,アキタケン,アキタシ,カミキタテゴショノ,秋田県秋田市上北手御所野
0101412,秋田県,秋田市,御所野下堤,アキタケン,アキタシ,ゴショノシモツツミ,秋田県秋田市御所野下堤
0101413,秋田県,秋田市,御所野地蔵田,アキタケン,アキタシ,ゴショノジゾウデン,秋田県秋田市御所野地蔵田
0101414,秋田県,秋田市,御所野元町,アキタケン,アキタシ,ゴショノモトマチ,秋田県秋田市御所野元町
0101415,秋田県,秋田市,御所野湯本,アキタケン,アキタシ,ゴショノユモト,秋田県秋田市御所野湯本
0101416,秋田県,秋田市,四ツ小屋末戸松本,アキタケン,アキタシ,ヨツゴヤスエドマツモト,秋田県秋田市四ツ小屋末戸松本
0101417,秋田県,秋田市,四ツ小屋,アキタケン,アキタシ,ヨツゴヤ,秋田県秋田市四ツ小屋
0101418,秋田県,秋田市,四ツ小屋小阿地,アキタケン,アキタシ,ヨツゴヤコアジ,秋田県秋田市四ツ小屋小阿地
0101419,秋田県,秋田市,御所野堤台,アキタケン,アキタシ,ゴショノツツミダイ,秋田県秋田市御所野堤台
0101420,秋田県,秋田市,大住南,アキタケン,アキタシ,オオスミミナミ,秋田県秋田市大住南
0101421,秋田県,秋田市,仁井田本町,アキタケン,アキタシ,ニイダホンチョウ,秋田県秋田市仁井田本町
0101422,秋田県,秋田市,仁井田目長田,アキタケン,アキタシ,ニイダメナガタ,秋田県秋田市仁井田目長田
0101423,秋田県,秋田市,仁井田,アキタケン,アキタシ,ニイダ,秋田県秋田市仁井田
0101424,秋田県,秋田市,御野場,アキタケン,アキタシ,オノバ,秋田県秋田市御野場
0101425,秋田県,秋田市,御野場新町,アキタケン,アキタシ,オノバシンマチ,秋田県秋田市御野場新町
0101426,秋田県,秋田市,仁井田小中島,アキタケン,アキタシ,ニイダコナカジマ,秋田県秋田市仁井田小中島
0101427,秋田県,秋田市,仁井田新田,アキタケン,アキタシ,ニイダシンデン,秋田県秋田市仁井田新田
0101428,秋田県,秋田市,大平台,アキタケン,アキタシ,オオヒラダイ,秋田県秋田市大平台
0101429,秋田県,秋田市,山手台,アキタケン,アキタシ,ヤマテダイ,秋田県秋田市山手台
0101431,秋田県,秋田市,仁井田二ツ屋,アキタケン,アキタシ,ニイダフタツヤ,秋田県秋田市仁井田二ツ屋
0101432,秋田県,秋田市,仁井田福島,アキタケン,アキタシ,ニイダフクシマ,秋田県秋田市仁井田福島
0101433,秋田県,秋田市,仁井田栄町,アキタケン,アキタシ,ニイダサカエチョウ,秋田県秋田市仁井田栄町
0101434,秋田県,秋田市,仁井田蕗見町,アキタケン,アキタシ,ニイダフキミチョウ,秋田県秋田市仁井田蕗見町
0101435,秋田県,秋田市,仁井田潟中町,アキタケン,アキタシ,ニイダカタナカチョウ,秋田県秋田市仁井田潟中町
0101436,秋田県,秋田市,大住,アキタケン,アキタシ,オオスミ,秋田県秋田市大住
0101437,秋田県,秋田市,仁井田緑町,アキタケン,アキタシ,ニイダミドリチョウ,秋田県秋田市仁井田緑町
0101501,秋田県,秋田市,下浜桂根,アキタケン,アキタシ,シモハマカツラネ,秋田県秋田市下浜桂根
0101502,秋田県,秋田市,下浜長浜,アキタケン,アキタシ,シモハマナガハマ,秋田県秋田市下浜長浜
0101503,秋田県,秋田市,下浜羽川,アキタケン,アキタシ,シモハマハネカワ,秋田県秋田市下浜羽川
0101504,秋田県,秋田市,下浜名ケ沢,アキタケン,アキタシ,シモハマミョウガサワ,秋田県秋田市下浜名ケ沢
0101505,秋田県,秋田市,下浜八田,アキタケン,アキタシ,シモハマハッタ,秋田県秋田市下浜八田
0101506,秋田県,秋田市,下浜楢田,アキタケン,アキタシ,シモハマナラダ,秋田県秋田市下浜楢田
0101601,秋田県,秋田市,向浜,アキタケン,アキタシ,ムカイハマ,秋田県秋田市向浜
0101602,秋田県,秋田市,新屋下川原町,アキタケン,アキタシ,アラヤシタカワラマチ,秋田県秋田市新屋下川原町
0101603,秋田県,秋田市,新屋勝平台,アキタケン,アキタシ,アラヤカツヒラダイ,秋田県秋田市新屋勝平台
0101604,秋田県,秋田市,新屋松美町,アキタケン,アキタシ,アラヤマツミマチ,秋田県秋田市新屋松美町
0101605,秋田県,秋田市,新屋勝平町,アキタケン,アキタシ,アラヤカツヒラマチ,秋田県秋田市新屋勝平町
0101606,秋田県,秋田市,新屋寿町,アキタケン,アキタシ,アラヤコトブキマチ,秋田県秋田市新屋寿町
0101607,秋田県,秋田市,新屋南浜町,アキタケン,アキタシ,アラヤミナミハママチ,秋田県秋田市新屋南浜町
0101608,秋田県,秋田市,新屋北浜町,アキタケン,アキタシ,アラヤキタハマチョウ,秋田県秋田市新屋北浜町
0101611,秋田県,秋田市,新屋天秤野,アキタケン,アキタシ,アラヤテンビンノ,秋田県秋田市新屋天秤野
0101612,秋田県,秋田市,新屋豊町,アキタケン,アキタシ,アラヤユタカマチ,秋田県秋田市新屋豊町
0101613,秋田県,秋田市,新屋朝日町,アキタケン,アキタシ,アラヤアサヒマチ,秋田県秋田市新屋朝日町
0101614,秋田県,秋田市,新屋割山町,アキタケン,アキタシ,アラヤワリヤママチ,秋田県秋田市新屋割山町
0101615,秋田県,秋田市,新屋船場町,アキタケン,アキタシ,アラヤフナバマチ,秋田県秋田市新屋船場町
0101616,秋田県,秋田市,新屋松美ガ丘南町,アキタケン,アキタシ,アラヤマツミガオカミナミチョウ,秋田県秋田市新屋松美ガ丘南町
0101617,秋田県,秋田市,新屋松美ガ丘東町,アキタケン,アキタシ,アラヤマツミガオカヒガシチョウ,秋田県秋田市新屋松美ガ丘東町
0101618,秋田県,秋田市,新屋松美ガ丘北町,アキタケン,アキタシ,アラヤマツミガオカキタチョウ,秋田県秋田市新屋松美ガ丘北町
0101621,秋田県,秋田市,新屋栗田町,アキタケン,アキタシ,アラヤクリタマチ,秋田県秋田市新屋栗田町
0101622,秋田県,秋田市,新屋日吉町,アキタケン,アキタシ,アラヤヒヨシマチ,秋田県秋田市新屋日吉町
0101623,秋田県,秋田市,新屋町,アキタケン,アキタシ,アラヤマチ,秋田県秋田市新屋町
0101631,秋田県,秋田市,新屋元町,アキタケン,アキタシ,アラヤモトマチ,秋田県秋田市新屋元町
0101632,秋田県,秋田市,新屋大川町,アキタケン,アキタシ,アラヤオオカワマチ,秋田県秋田市新屋大川町
0101633,秋田県,秋田市,新屋鳥木町,アキタケン,アキタシ,アラヤトリキマチ,秋田県秋田市新屋鳥木町
0101634,秋田県,秋田市,新屋沖田町,アキタケン,アキタシ,アラヤオキタマチ,秋田県秋田市新屋沖田町
0101635,秋田県,秋田市,新屋前野町,アキタケン,アキタシ,アラヤマエノマチ,秋田県秋田市新屋前野町
0101636,秋田県,秋田市,新屋比内町,アキタケン,アキタシ,アラヤヒナイマチ,秋田県秋田市新屋比内町
0101637,秋田県,秋田市,新屋扇町,アキタケン,アキタシ,アラヤオオギマチ,秋田県秋田市新屋扇町
0101638,秋田県,秋田市,新屋表町,アキタケン,アキタシ,アラヤオモテマチ,秋田県秋田市新屋表町
0101641,秋田県,秋田市,新屋高美町,アキタケン,アキタシ,アラヤタカミマチ,秋田県秋田市新屋高美町
0101642,秋田県,秋田市,新屋渋谷町,アキタケン,アキタシ,アラヤシブヤマチ,秋田県秋田市新屋渋谷町
0101643,秋田県,秋田市,新屋田尻沢東町,アキタケン,アキタシ,アラヤタジリザワヒガシマチ,秋田県秋田市新屋田尻沢東町
0101644,秋田県,秋田市,新屋田尻沢中町,アキタケン,アキタシ,アラヤタジリザワナカマチ,秋田県秋田市新屋田尻沢中町
0101645,秋田県,秋田市,新屋田尻沢西町,アキタケン,アキタシ,アラヤタジリザワニシマチ,秋田県秋田市新屋田尻沢西町
0101651,秋田県,秋田市,豊岩石田坂,アキタケン,アキタシ,トヨイワイシダザカ,秋田県秋田市豊岩石田坂
0101652,秋田県,秋田市,豊岩豊巻,アキタケン,アキタシ,トヨイワトヨマキ,秋田県秋田市豊岩豊巻
0101653,秋田県,秋田市,豊岩小山,アキタケン,アキタシ,トヨイワオヤマ,秋田県秋田市豊岩小山
0101654,秋田県,秋田市,浜田,アキタケン,アキタシ,ハマダ,秋田県秋田市浜田
0110901,秋田県,秋田市,寺内,アキタケン,アキタシ,テラウチ,秋田県秋田市寺内
0110902,秋田県,秋田市,寺内堂ノ沢,アキタケン,アキタシ,テラウチドウノサワ,秋田県秋田市寺内堂ノ沢
0110903,秋田県,秋田市,寺内油田,アキタケン,アキタシ,テラウチアブラデン,秋田県秋田市寺内油田
0110904,秋田県,秋田市,寺内蛭根,アキタケン,アキタシ,テラウチヒルネ,秋田県秋田市寺内蛭根
0110905,秋田県,秋田市,寺内神屋敷,アキタケン,アキタシ,テラウチカミヤシキ,秋田県秋田市寺内神屋敷
0110906,秋田県,秋田市,寺内後城,アキタケン,アキタシ,テラウチウシロジョウ,秋田県秋田市寺内後城
0110907,秋田県,秋田市,寺内焼山,アキタケン,アキタシ,テラウチヤケヤマ,秋田県秋田市寺内焼山
0110908,秋田県,秋田市,寺内大小路,アキタケン,アキタシ,テラウチオオコウジ,秋田県秋田市寺内大小路
0110909,秋田県,秋田市,寺内児桜,アキタケン,アキタシ,テラウチコザクラ,秋田県秋田市寺内児桜
0110911,秋田県,秋田市,飯島,アキタケン,アキタシ,イイジマ,秋田県秋田市飯島
0110912,秋田県,秋田市,飯島川端,アキタケン,アキタシ,イイジマカワバタ,秋田県秋田市飯島川端
0110913,秋田県,秋田市,飯島鼠田,アキタケン,アキタシ,イイジマネズミタ,秋田県秋田市飯島鼠田
0110914,秋田県,秋田市,飯島美砂町,アキタケン,アキタシ,イイジマミサゴチョウ,秋田県秋田市飯島美砂町
0110915,秋田県,秋田市,飯島緑丘町,アキタケン,アキタシ,イイジマミドリガオカチョウ,秋田県秋田市飯島緑丘町
0110916,秋田県,秋田市,飯島穀丁,アキタケン,アキタシ,イイジマコクチョウ,秋田県秋田市飯島穀丁
0110917,秋田県,秋田市,飯島道東,アキタケン,アキタシ,イイジマミチヒガシ,秋田県秋田市飯島道東
0110921,秋田県,秋田市,飯島松根西町,アキタケン,アキタシ,イイジママツネニシチョウ,秋田県秋田市飯島松根西町
0110922,秋田県,秋田市,飯島松根東町,アキタケン,アキタシ,イイジママツネヒガシチョウ,秋田県秋田市飯島松根東町
0110923,秋田県,秋田市,飯島文京町,アキタケン,アキタシ,イイジマブンキョウチョウ,秋田県秋田市飯島文京町
0110924,秋田県,秋田市,飯島長野本町,アキタケン,アキタシ,イイジマナガノホンチョウ,秋田県秋田市飯島長野本町
0110925,秋田県,秋田市,飯島長野中町,アキタケン,アキタシ,イイジマナガノナカチョウ,秋田県秋田市飯島長野中町
0110926,秋田県,秋田市,港北松野町,アキタケン,アキタシ,コウホクマツノチョウ,秋田県秋田市港北松野町
0110927,秋田県,秋田市,港北新町,アキタケン,アキタシ,コウホクシンチョウ,秋田県秋田市港北新町
0110928,秋田県,秋田市,飯島長野上町,アキタケン,アキタシ,イイジマナガノカミチョウ,秋田県秋田市飯島長野上町
0110931,秋田県,秋田市,将軍野東,アキタケン,アキタシ,ショウグンノヒガシ,秋田県秋田市将軍野東
0110932,秋田県,秋田市,将軍野青山町,アキタケン,アキタシ,ショウグンノアオヤマチョウ,秋田県秋田市将軍野青山町
0110933,秋田県,秋田市,将軍野堰越,アキタケン,アキタシ,ショウグンノセキコシ,秋田県秋田市将軍野堰越
0110934,秋田県,秋田市,将軍野桂町,アキタケン,アキタシ,ショウグンノカツラチョウ,秋田県秋田市将軍野桂町
0110935,秋田県,秋田市,将軍野向山,アキタケン,アキタシ,ショウグンノムカイヤマ,秋田県秋田市将軍野向山
0110936,秋田県,秋田市,将軍野南,アキタケン,アキタシ,ショウグンノミナミ,秋田県秋田市将軍野南
0110937,秋田県,秋田市,寺内高野,アキタケン,アキタシ,テラウチコウヤ,秋田県秋田市寺内高野
0110938,秋田県,秋田市,寺内鵜ノ木,アキタケン,アキタシ,テラウチウノキ,秋田県秋田市寺内鵜ノ木
0110939,秋田県,秋田市,寺内大畑,アキタケン,アキタシ,テラウチオオハタ,秋田県秋田市寺内大畑
0110941,秋田県,秋田市,土崎港北,アキタケン,アキタシ,ツチザキミナトキタ,秋田県秋田市土崎港北
0110942,秋田県,秋田市,土崎港東,アキタケン,アキタシ,ツチザキミナトヒガシ,秋田県秋田市土崎港東
0110943,秋田県,秋田市,土崎港南,アキタケン,アキタシ,ツチザキミナトミナミ,秋田県秋田市土崎港南
0110944,秋田県,秋田市,土崎港穀保町,アキタケン,アキタシ,ツチザキミナトコクボチョウ,秋田県秋田市土崎港穀保町
0110945,秋田県,秋田市,土崎港西,アキタケン,アキタシ,ツチザキミナトニシ,秋田県秋田市土崎港西
0110946,秋田県,秋田市,土崎港中央,アキタケン,アキタシ,ツチザキミナトチュウオウ,秋田県秋田市土崎港中央
0110947,秋田県,秋田市,飯島新町,アキタケン,アキタシ,イイジマシンチョウ,秋田県秋田市飯島新町
0110948,秋田県,秋田市,飯島西袋,アキタケン,アキタシ,イイジマニシブクロ,秋田県秋田市飯島西袋
0110949,秋田県,秋田市,飯島飯田,アキタケン,アキタシ,イイジマイイダ,秋田県秋田市飯島飯田
0110951,秋田県,秋田市,土崎港古川町,アキタケン,アキタシ,ツチザキミナトフルカワマチ,秋田県秋田市土崎港古川町
0110951,秋田県,秋田市,土崎港相染町,アキタケン,アキタシ,ツチザキミナトソウゼンマチ,秋田県秋田市土崎港相染町
0120000,秋田県,湯沢市,,アキタケン,ユザワシ,,秋田県湯沢市
0120001,秋田県,湯沢市,角間,アキタケン,ユザワシ,カクマ,秋田県湯沢市角間
0120002,秋田県,湯沢市,下二井田,アキタケン,ユザワシ,シモニイダ,秋田県湯沢市下二井田
0120003,秋田県,湯沢市,上二井田,アキタケン,ユザワシ,カミニイダ,秋田県湯沢市上二井田
0120004,秋田県,湯沢市,二井田,アキタケン,ユザワシ,ニイダ,秋田県湯沢市二井田
0120005,秋田県,湯沢市,金谷,アキタケン,ユザワシ,カナヤ,秋田県湯沢市金谷
0120006,秋田県,湯沢市,柳田,アキタケン,ユザワシ,ヤナギダ,秋田県湯沢市柳田
0120007,秋田県,湯沢市,八幡,アキタケン,ユザワシ,ヤワタ,秋田県湯沢市八幡
0120008,秋田県,湯沢市,高前,アキタケン,ユザワシ,タカマエ,秋田県湯沢市高前
0120011,秋田県,湯沢市,森,アキタケン,ユザワシ,モリ,秋田県湯沢市森
0120012,秋田県,湯沢市,大森,アキタケン,ユザワシ,オオモリ,秋田県湯沢市大森
0120013,秋田県,湯沢市,栄田,アキタケン,ユザワシ,サカエダ,秋田県湯沢市栄田
0120014,秋田県,湯沢市,大倉谷地,アキタケン,ユザワシ,オオクラヤチ,秋田県湯沢市大倉谷地
0120015,秋田県,湯沢市,倉内,アキタケン,ユザワシ,クラウチ,秋田県湯沢市倉内
0120016,秋田県,湯沢市,千刈,アキタケン,ユザワシ,センガリ,秋田県湯沢市千刈
0120017,秋田県,湯沢市,富士見,アキタケン,ユザワシ,フジミ,秋田県湯沢市富士見
0120021,秋田県,湯沢市,黄金原,アキタケン,ユザワシ,コガネハラ,秋田県湯沢市黄金原
0120022,秋田県,湯沢市,祝田,アキタケン,ユザワシ,イワイダ,秋田県湯沢市祝田
0120023,秋田県,湯沢市,沖田,アキタケン,ユザワシ,オキタ,秋田県湯沢市沖田
0120024,秋田県,湯沢市,赤土,アキタケン,ユザワシ,アカツチ,秋田県湯沢市赤土
0120025,秋田県,湯沢市,前島,アキタケン,ユザワシ,マエジマ,秋田県湯沢市前島
0120026,秋田県,湯沢市,大島,アキタケン,ユザワシ,オオシマ,秋田県湯沢市大島
0120031,秋田県,湯沢市,鶴館,アキタケン,ユザワシ,ツルダテ,秋田県湯沢市鶴館
0120032,秋田県,湯沢市,元清水,アキタケン,ユザワシ,モトシミズ,秋田県湯沢市元清水
0120033,秋田県,湯沢市,清水町,アキタケン,ユザワシ,シミズチョウ,秋田県湯沢市清水町
0120034,秋田県,湯沢市,西新町,アキタケン,ユザワシ,ニシシンマチ,秋田県湯沢市西新町
0120035,秋田県,湯沢市,幸町,アキタケン,ユザワシ,サイワイチョウ,秋田県湯沢市幸町
0120036,秋田県,湯沢市,両神,アキタケン,ユザワシ,リョウジン,秋田県湯沢市両神
0120037,秋田県,湯沢市,沖鶴,アキタケン,ユザワシ,オキツル,秋田県湯沢市沖鶴
0120041,秋田県,湯沢市,中野,アキタケン,ユザワシ,ナカノ,秋田県湯沢市中野
0120042,秋田県,湯沢市,小豆田,アキタケン,ユザワシ,アヅキタ,秋田県湯沢市小豆田
0120043,秋田県,湯沢市,万石,アキタケン,ユザワシ,マンゴク,秋田県湯沢市万石
0120044,秋田県,湯沢市,中野々目,アキタケン,ユザワシ,ナカノノメ,秋田県湯沢市中野々目
0120045,秋田県,湯沢市,岡田町,アキタケン,ユザワシ,オカダマチ,秋田県湯沢市岡田町
0120051,秋田県,湯沢市,深堀,アキタケン,ユザワシ,フカボリ,秋田県湯沢市深堀
0120052,秋田県,湯沢市,下中川原,アキタケン,ユザワシ,シモナカガワラ,秋田県湯沢市下中川原
0120053,秋田県,湯沢市,中川原,アキタケン,ユザワシ,ナカガワラ,秋田県湯沢市中川原
0120054,秋田県,湯沢市,西中川原,アキタケン,ユザワシ,ニシナカガワラ,秋田県湯沢市西中川原
0120055,秋田県,湯沢市,山田,アキタケン,ユザワシ,ヤマダ,秋田県湯沢市山田
0120056,秋田県,湯沢市,藤花,アキタケン,ユザワシ,フジハナ,秋田県湯沢市藤花
0120057,秋田県,湯沢市,雄勝田,アキタケン,ユザワシ,オガチタ,秋田県湯沢市雄勝田
0120061,秋田県,湯沢市,松岡,アキタケン,ユザワシ,マツオカ,秋田県湯沢市松岡
0120062,秋田県,湯沢市,石塚,アキタケン,ユザワシ,イシヅカ,秋田県湯沢市石塚
0120104,秋田県,湯沢市,駒形町,アキタケン,ユザワシ,コマガタチョウ,秋田県湯沢市駒形町
0120105,秋田県,湯沢市,川連町,アキタケン,ユザワシ,カワツラチョウ,秋田県湯沢市川連町
0120106,秋田県,湯沢市,三梨町,アキタケン,ユザワシ,ミツナシチョウ,秋田県湯沢市三梨町
0120107,秋田県,湯沢市,稲庭町,アキタケン,ユザワシ,イナニワチョウ,秋田県湯沢市稲庭町
0120183,秋田県,湯沢市,皆瀬（その他）,アキタケン,ユザワシ,ミナセ(ソノタ),秋田県湯沢市皆瀬（その他）
0120801,秋田県,湯沢市,岩崎,アキタケン,ユザワシ,イワサキ,秋田県湯沢市岩崎
0120802,秋田県,湯沢市,成沢,アキタケン,ユザワシ,ナリサワ,秋田県湯沢市成沢
0120803,秋田県,湯沢市,杉沢新所,アキタケン,ユザワシ,スギサワアラトコロ,秋田県湯沢市杉沢新所
0120804,秋田県,湯沢市,杉沢,アキタケン,ユザワシ,スギサワ,秋田県湯沢市杉沢
0120811,秋田県,湯沢市,桜通り,アキタケン,ユザワシ,サクラドオリ,秋田県湯沢市桜通り
0120812,秋田県,湯沢市,東赤土山,アキタケン,ユザワシ,ヒガシアカツチヤマ,秋田県湯沢市東赤土山
0120813,秋田県,湯沢市,前森,アキタケン,ユザワシ,マエモリ,秋田県湯沢市前森
0120814,秋田県,湯沢市,大工町,アキタケン,ユザワシ,ダイクマチ,秋田県湯沢市大工町
0120815,秋田県,湯沢市,古館町,アキタケン,ユザワシ,フルダテマチ,秋田県湯沢市古館町
0120821,秋田県,湯沢市,山谷,アキタケン,ユザワシ,ヤマヤ,秋田県湯沢市山谷
0120822,秋田県,湯沢市,下山谷,アキタケン,ユザワシ,シモヤマヤ,秋田県湯沢市下山谷
0120823,秋田県,湯沢市,湯ノ上山,アキタケン,ユザワシ,ユノカミヤマ,秋田県湯沢市湯ノ上山
0120823,秋田県,湯沢市,湯ノ原,アキタケン,ユザワシ,ユノハラ,秋田県湯沢市湯ノ原
0120824,秋田県,湯沢市,佐竹町,アキタケン,ユザワシ,サタケチョウ,秋田県湯沢市佐竹町
0120824,秋田県,湯沢市,裏門,アキタケン,ユザワシ,ウラモン,秋田県湯沢市裏門
0120825,秋田県,湯沢市,北荒町,アキタケン,ユザワシ,キタアラマチ,秋田県湯沢市北荒町
0120826,秋田県,湯沢市,柳町,アキタケン,ユザワシ,ヤナギマチ,秋田県湯沢市柳町
0120827,秋田県,湯沢市,表町,アキタケン,ユザワシ,オモテマチ,秋田県湯沢市表町
0120831,秋田県,湯沢市,角間沢,アキタケン,ユザワシ,カクマザワ,秋田県湯沢市角間沢
0120832,秋田県,湯沢市,広沢山,アキタケン,ユザワシ,ヒロサワヤマ,秋田県湯沢市広沢山
0120833,秋田県,湯沢市,カツクイ沢山,アキタケン,ユザワシ,カックイサワヤマ,秋田県湯沢市カツクイ沢山
0120834,秋田県,湯沢市,岩ノ沢山,アキタケン,ユザワシ,イワノサワヤマ,秋田県湯沢市岩ノ沢山
0120835,秋田県,湯沢市,鉦打沢,アキタケン,ユザワシ,カネウチザワ,秋田県湯沢市鉦打沢
0120836,秋田県,湯沢市,金堀沢山,アキタケン,ユザワシ,カネホリザワヤマ,秋田県湯沢市金堀沢山
0120837,秋田県,湯沢市,西金堀沢山,アキタケン,ユザワシ,ニシカネホリザワヤマ,秋田県湯沢市西金堀沢山
0120838,秋田県,湯沢市,蛇野,アキタケン,ユザワシ,ヘビノ,秋田県湯沢市蛇野
0120841,秋田県,湯沢市,大町,アキタケン,ユザワシ,オオマチ,秋田県湯沢市大町
0120842,秋田県,湯沢市,内舘町,アキタケン,ユザワシ,ウチダテマチ,秋田県湯沢市内舘町
0120843,秋田県,湯沢市,内町,アキタケン,ユザワシ,ウチマチ,秋田県湯沢市内町
0120844,秋田県,湯沢市,田町,アキタケン,ユザワシ,タマチ,秋田県湯沢市田町
0120845,秋田県,湯沢市,材木町,アキタケン,ユザワシ,ザイモクチョウ,秋田県湯沢市材木町
0120851,秋田県,湯沢市,吹張,アキタケン,ユザワシ,フッパリ,秋田県湯沢市吹張
0120852,秋田県,湯沢市,荒町,アキタケン,ユザワシ,アラマチ,秋田県湯沢市荒町
0120853,秋田県,湯沢市,新町,アキタケン,ユザワシ,シンチョウ,秋田県湯沢市新町
0120854,秋田県,湯沢市,鳶ケ沢山,アキタケン,ユザワシ,トビガサワヤマ,秋田県湯沢市鳶ケ沢山
0120855,秋田県,湯沢市,愛宕町,アキタケン,ユザワシ,アタゴチョウ,秋田県湯沢市愛宕町
0120856,秋田県,湯沢市,御囲地町,アキタケン,ユザワシ,オカチマチ,秋田県湯沢市御囲地町
0120857,秋田県,湯沢市,千石町,アキタケン,ユザワシ,センゴクチョウ,秋田県湯沢市千石町
0120861,秋田県,湯沢市,東松沢,アキタケン,ユザワシ,ヒガシマツザワ,秋田県湯沢市東松沢
0120862,秋田県,湯沢市,関口,アキタケン,ユザワシ,セキグチ,秋田県湯沢市関口
0120863,秋田県,湯沢市,下関,アキタケン,ユザワシ,シモセキ,秋田県湯沢市下関
0120864,秋田県,湯沢市,上関,アキタケン,ユザワシ,カミセキ,秋田県湯沢市上関
0120865,秋田県,湯沢市,沼樋,アキタケン,ユザワシ,ヌマドイ,秋田県湯沢市沼樋
0120866,秋田県,湯沢市,西松沢,アキタケン,ユザワシ,ニシマツザワ,秋田県湯沢市西松沢
0120867,秋田県,湯沢市,南台,アキタケン,ユザワシ,ミナミダイ,秋田県湯沢市南台
0120868,秋田県,湯沢市,西愛宕町,アキタケン,ユザワシ,ニシアタゴチョウ,秋田県湯沢市西愛宕町
0120869,秋田県,湯沢市,若葉町,アキタケン,ユザワシ,ワカバマチ,秋田県湯沢市若葉町
0121100,秋田県,雄勝郡羽後町,,アキタケン,オガチグンウゴマチ,,秋田県雄勝郡羽後町
0121101,秋田県,雄勝郡羽後町,大沢,アキタケン,オガチグンウゴマチ,オオサワ,秋田県雄勝郡羽後町大沢
0121102,秋田県,雄勝郡羽後町,新町,アキタケン,オガチグンウゴマチ,シンマチ,秋田県雄勝郡羽後町新町
0121103,秋田県,雄勝郡羽後町,林崎,アキタケン,オガチグンウゴマチ,ハヤシザキ,秋田県雄勝郡羽後町林崎
0121104,秋田県,雄勝郡羽後町,堀内,アキタケン,オガチグンウゴマチ,ホリウチ,秋田県雄勝郡羽後町堀内
0121105,秋田県,雄勝郡羽後町,水沢,アキタケン,オガチグンウゴマチ,ミズサワ,秋田県雄勝郡羽後町水沢
0121106,秋田県,雄勝郡羽後町,払体,アキタケン,オガチグンウゴマチ,ホッタイ,秋田県雄勝郡羽後町払体
0121111,秋田県,雄勝郡羽後町,嶋田新田,アキタケン,オガチグンウゴマチ,シマダシンデン,秋田県雄勝郡羽後町嶋田新田
0121112,秋田県,雄勝郡羽後町,睦合,アキタケン,オガチグンウゴマチ,ムツアイ,秋田県雄勝郡羽後町睦合
0121113,秋田県,雄勝郡羽後町,郡山,アキタケン,オガチグンウゴマチ,コオリヤマ,秋田県雄勝郡羽後町郡山
0121114,秋田県,雄勝郡羽後町,糠塚,アキタケン,オガチグンウゴマチ,ヌカヅカ,秋田県雄勝郡羽後町糠塚
0121115,秋田県,雄勝郡羽後町,足田,アキタケン,オガチグンウゴマチ,タラダ,秋田県雄勝郡羽後町足田
0121116,秋田県,雄勝郡羽後町,高尾田,アキタケン,オガチグンウゴマチ,タコウダ,秋田県雄勝郡羽後町高尾田
0121121,秋田県,雄勝郡羽後町,大久保,アキタケン,オガチグンウゴマチ,オオクボ,秋田県雄勝郡羽後町大久保
0121122,秋田県,雄勝郡羽後町,柏原,アキタケン,オガチグンウゴマチ,カシワバラ,秋田県雄勝郡羽後町柏原
0121123,秋田県,雄勝郡羽後町,貝沢,アキタケン,オガチグンウゴマチ,カイザワ,秋田県雄勝郡羽後町貝沢
0121124,秋田県,雄勝郡羽後町,赤袴,アキタケン,オガチグンウゴマチ,アカバカマ,秋田県雄勝郡羽後町赤袴
0121125,秋田県,雄勝郡羽後町,野中,アキタケン,オガチグンウゴマチ,ノナカ,秋田県雄勝郡羽後町野中
0121126,秋田県,雄勝郡羽後町,杉宮,アキタケン,オガチグンウゴマチ,スギノミヤ,秋田県雄勝郡羽後町杉宮
0121131,秋田県,雄勝郡羽後町,西馬音内,アキタケン,オガチグンウゴマチ,ニシモナイ,秋田県雄勝郡羽後町西馬音内
0121132,秋田県,雄勝郡羽後町,大戸,アキタケン,オガチグンウゴマチ,オオド,秋田県雄勝郡羽後町大戸
0121133,秋田県,雄勝郡羽後町,床舞,アキタケン,オガチグンウゴマチ,トコマイ,秋田県雄勝郡羽後町床舞
0121134,秋田県,雄勝郡羽後町,田沢,アキタケン,オガチグンウゴマチ,タザワ,秋田県雄勝郡羽後町田沢
0121135,秋田県,雄勝郡羽後町,鹿内,アキタケン,オガチグンウゴマチ,シカナイ,秋田県雄勝郡羽後町鹿内
0121136,秋田県,雄勝郡羽後町,飯沢,アキタケン,オガチグンウゴマチ,イイザワ,秋田県雄勝郡羽後町飯沢
0121137,秋田県,雄勝郡羽後町,西馬音内堀回,アキタケン,オガチグンウゴマチ,ニシモナイホリマワリ,秋田県雄勝郡羽後町西馬音内堀回
0121241,秋田県,雄勝郡羽後町,田代,アキタケン,オガチグンウゴマチ,タシロ,秋田県雄勝郡羽後町田代
0121242,秋田県,雄勝郡羽後町,上到米,アキタケン,オガチグンウゴマチ,カミトウマイ,秋田県雄勝郡羽後町上到米
0121243,秋田県,雄勝郡羽後町,軽井沢,アキタケン,オガチグンウゴマチ,カルイザワ,秋田県雄勝郡羽後町軽井沢
0121351,秋田県,雄勝郡羽後町,下仙道,アキタケン,オガチグンウゴマチ,シモセンドウ,秋田県雄勝郡羽後町下仙道
0121352,秋田県,雄勝郡羽後町,中仙道,アキタケン,オガチグンウゴマチ,ナカセンドウ,秋田県雄勝郡羽後町中仙道
0121353,秋田県,雄勝郡羽後町,上仙道,アキタケン,オガチグンウゴマチ,カミセンドウ,秋田県雄勝郡羽後町上仙道
0130000,秋田県,横手市,,アキタケン,ヨコテシ,,秋田県横手市
0130001,秋田県,横手市,杉沢,アキタケン,ヨコテシ,スギサワ,秋田県横手市杉沢
0130002,秋田県,横手市,追廻,アキタケン,ヨコテシ,オイマワシ,秋田県横手市追廻
0130003,秋田県,横手市,台所町,アキタケン,ヨコテシ,ダイドコロマチ,秋田県横手市台所町
0130004,秋田県,横手市,明永町,アキタケン,ヨコテシ,ミョウエイチョウ,秋田県横手市明永町
0130005,秋田県,横手市,幸町,アキタケン,ヨコテシ,サイワイチョウ,秋田県横手市幸町
0130006,秋田県,横手市,新坂町,アキタケン,ヨコテシ,シンザカチョウ,秋田県横手市新坂町
0130007,秋田県,横手市,大鳥町,アキタケン,ヨコテシ,オオトリマチ,秋田県横手市大鳥町
0130008,秋田県,横手市,睦成,アキタケン,ヨコテシ,ムツナリ,秋田県横手市睦成
0130011,秋田県,横手市,城西町,アキタケン,ヨコテシ,シロニシマチ,秋田県横手市城西町
0130012,秋田県,横手市,城山町,アキタケン,ヨコテシ,シロヤママチ,秋田県横手市城山町
0130013,秋田県,横手市,城南町,アキタケン,ヨコテシ,シロミナミマチ,秋田県横手市城南町
0130014,秋田県,横手市,上内町,アキタケン,ヨコテシ,カミウチマチ,秋田県横手市上内町
0130015,秋田県,横手市,羽黒町,アキタケン,ヨコテシ,ハグロチョウ,秋田県横手市羽黒町
0130016,秋田県,横手市,根岸町,アキタケン,ヨコテシ,ネギシチョウ,秋田県横手市根岸町
0130017,秋田県,横手市,蛇の崎町,アキタケン,ヨコテシ,ジャノサキマチ,秋田県横手市蛇の崎町
0130018,秋田県,横手市,本町,アキタケン,ヨコテシ,モトマチ,秋田県横手市本町
0130019,秋田県,横手市,二葉町,アキタケン,ヨコテシ,フタバチョウ,秋田県横手市二葉町
0130021,秋田県,横手市,大町,アキタケン,ヨコテシ,オオマチ,秋田県横手市大町
0130022,秋田県,横手市,四日町,アキタケン,ヨコテシ,ヨッカマチ,秋田県横手市四日町
0130023,秋田県,横手市,中央町,アキタケン,ヨコテシ,チュウオウマチ,秋田県横手市中央町
0130024,秋田県,横手市,田中町,アキタケン,ヨコテシ,タナカマチ,秋田県横手市田中町
0130025,秋田県,横手市,寿町,アキタケン,ヨコテシ,コトブキチョウ,秋田県横手市寿町
0130026,秋田県,横手市,大水戸町,アキタケン,ヨコテシ,オオミドマチ,秋田県横手市大水戸町
0130027,秋田県,横手市,平城町,アキタケン,ヨコテシ,ヒラジョウマチ,秋田県横手市平城町
0130028,秋田県,横手市,朝倉町,アキタケン,ヨコテシ,アサクラチョウ,秋田県横手市朝倉町
0130031,秋田県,横手市,鍛冶町,アキタケン,ヨコテシ,カジマチ,秋田県横手市鍛冶町
0130032,秋田県,横手市,清川町,アキタケン,ヨコテシ,キヨカワチョウ,秋田県横手市清川町
0130033,秋田県,横手市,旭川,アキタケン,ヨコテシ,アサヒカワ,秋田県横手市旭川
0130034,秋田県,横手市,本郷町,アキタケン,ヨコテシ,ホンゴウチョウ,秋田県横手市本郷町
0130035,秋田県,横手市,平和町,アキタケン,ヨコテシ,ヘイワチョウ,秋田県横手市平和町
0130036,秋田県,横手市,駅前町,アキタケン,ヨコテシ,エキマエチョウ,秋田県横手市駅前町
0130037,秋田県,横手市,前郷二番町,アキタケン,ヨコテシ,マエゴウニバンチョウ,秋田県横手市前郷二番町
0130038,秋田県,横手市,前郷一番町,アキタケン,ヨコテシ,マエゴウイチバンチョウ,秋田県横手市前郷一番町
0130041,秋田県,横手市,大沢,アキタケン,ヨコテシ,オオサワ,秋田県横手市大沢
0130042,秋田県,横手市,前郷,アキタケン,ヨコテシ,マエゴウ,秋田県横手市前郷
0130043,秋田県,横手市,安田,アキタケン,ヨコテシ,ヤスダ,秋田県横手市安田
0130044,秋田県,横手市,横山町,アキタケン,ヨコテシ,ヨコヤマチョウ,秋田県横手市横山町
0130045,秋田県,横手市,南町,アキタケン,ヨコテシ,ミナミマチ,秋田県横手市南町
0130046,秋田県,横手市,神明町,アキタケン,ヨコテシ,シンメイチョウ,秋田県横手市神明町
0130047,秋田県,横手市,松原町,アキタケン,ヨコテシ,マツバラマチ,秋田県横手市松原町
0130048,秋田県,横手市,安田原町,アキタケン,ヨコテシ,ヤスダハラマチ,秋田県横手市安田原町
0130049,秋田県,横手市,駅西,アキタケン,ヨコテシ,エキニシ,秋田県横手市駅西
0130051,秋田県,横手市,大屋新町,アキタケン,ヨコテシ,オオヤシンマチ,秋田県横手市大屋新町
0130052,秋田県,横手市,大屋寺内,アキタケン,ヨコテシ,オオヤテラウチ,秋田県横手市大屋寺内
0130053,秋田県,横手市,外目,アキタケン,ヨコテシ,ソトノメ,秋田県横手市外目
0130054,秋田県,横手市,柳田,アキタケン,ヨコテシ,ヤナギダ,秋田県横手市柳田
0130055,秋田県,横手市,朝日が丘,アキタケン,ヨコテシ,アサヒガオカ,秋田県横手市朝日が丘
0130056,秋田県,横手市,清水町新田,アキタケン,ヨコテシ,シミズマチシンデン,秋田県横手市清水町新田
0130060,秋田県,横手市,条里,アキタケン,ヨコテシ,ジョウリ,秋田県横手市条里
0130061,秋田県,横手市,横手町,アキタケン,ヨコテシ,ヨコテマチ,秋田県横手市横手町
0130062,秋田県,横手市,駅南,アキタケン,ヨコテシ,エキミナミ,秋田県横手市駅南
0130063,秋田県,横手市,婦気大堤,アキタケン,ヨコテシ,フケオオヅツミ,秋田県横手市婦気大堤
0130064,秋田県,横手市,赤坂,アキタケン,ヨコテシ,アカサカ,秋田県横手市赤坂
0130065,秋田県,横手市,猪岡,アキタケン,ヨコテシ,イノオカ,秋田県横手市猪岡
0130066,秋田県,横手市,塚堀,アキタケン,ヨコテシ,ツカボリ,秋田県横手市塚堀
0130068,秋田県,横手市,梅の木町,アキタケン,ヨコテシ,ウメノキマチ,秋田県横手市梅の木町
0130069,秋田県,横手市,三枚橋,アキタケン,ヨコテシ,サンマイバシ,秋田県横手市三枚橋
0130071,秋田県,横手市,八幡,アキタケン,ヨコテシ,ヤワタ,秋田県横手市八幡
0130072,秋田県,横手市,卸町,アキタケン,ヨコテシ,オロシマチ,秋田県横手市卸町
0130073,秋田県,横手市,赤川,アキタケン,ヨコテシ,アカガワ,秋田県横手市赤川
0130074,秋田県,横手市,三本柳,アキタケン,ヨコテシ,サンボンヤナギ,秋田県横手市三本柳
0130075,秋田県,横手市,静町,アキタケン,ヨコテシ,シズカマチ,秋田県横手市静町
0130076,秋田県,横手市,杉目,アキタケン,ヨコテシ,スギメ,秋田県横手市杉目
0130101,秋田県,横手市,平鹿町上吉田,アキタケン,ヨコテシ,ヒラカマチカミヨシダ,秋田県横手市平鹿町上吉田
0130102,秋田県,横手市,平鹿町醍醐,アキタケン,ヨコテシ,ヒラカマチダイゴ,秋田県横手市平鹿町醍醐
0130103,秋田県,横手市,平鹿町下鍋倉,アキタケン,ヨコテシ,ヒラカマチシモナベクラ,秋田県横手市平鹿町下鍋倉
0130104,秋田県,横手市,平鹿町樽見内,アキタケン,ヨコテシ,ヒラカマチタルミナイ,秋田県横手市平鹿町樽見内
0130105,秋田県,横手市,平鹿町浅舞,アキタケン,ヨコテシ,ヒラカマチアサマイ,秋田県横手市平鹿町浅舞
0130106,秋田県,横手市,平鹿町中吉田,アキタケン,ヨコテシ,ヒラカマチナカヨシダ,秋田県横手市平鹿町中吉田
0130107,秋田県,横手市,平鹿町下吉田,アキタケン,ヨコテシ,ヒラカマチシモヨシダ,秋田県横手市平鹿町下吉田
0130201,秋田県,横手市,雄物川町会塚,アキタケン,ヨコテシ,オモノガワマチアイヅカ,秋田県横手市雄物川町会塚
0130202,秋田県,横手市,雄物川町砂子田,アキタケン,ヨコテシ,オモノガワマチスナゴタ,秋田県横手市雄物川町砂子田
0130203,秋田県,横手市,雄物川町東里,アキタケン,ヨコテシ,オモノガワマチトウサト,秋田県横手市雄物川町東里
0130204,秋田県,横手市,雄物川町谷地新田,アキタケン,ヨコテシ,オモノガワマチヤチシンデン,秋田県横手市雄物川町谷地新田
0130205,秋田県,横手市,雄物川町今宿,アキタケン,ヨコテシ,オモノガワマチイマシュク,秋田県横手市雄物川町今宿
0130206,秋田県,横手市,雄物川町二井山,アキタケン,ヨコテシ,オモノガワマチニイヤマ,秋田県横手市雄物川町二井山
0130207,秋田県,横手市,雄物川町矢神,アキタケン,ヨコテシ,オモノガワマチヤガミ,秋田県横手市雄物川町矢神
0130208,秋田県,横手市,雄物川町沼館,アキタケン,ヨコテシ,オモノガワマチヌマダテ,秋田県横手市雄物川町沼館
0130211,秋田県,横手市,雄物川町深井,アキタケン,ヨコテシ,オモノガワマチフカイ,秋田県横手市雄物川町深井
0130212,秋田県,横手市,雄物川町造山,アキタケン,ヨコテシ,オモノガワマチツクリヤマ,秋田県横手市雄物川町造山
0130213,秋田県,横手市,雄物川町南形,アキタケン,ヨコテシ,オモノガワマチナンカタ,秋田県横手市雄物川町南形
0130214,秋田県,横手市,雄物川町柏木,アキタケン,ヨコテシ,オモノガワマチカシワギ,秋田県横手市雄物川町柏木
0130215,秋田県,横手市,雄物川町常野,アキタケン,ヨコテシ,オモノガワマチジョウノ,秋田県横手市雄物川町常野
0130216,秋田県,横手市,雄物川町西野,アキタケン,ヨコテシ,オモノガワマチニシノ,秋田県横手市雄物川町西野
0130217,秋田県,横手市,雄物川町道地,アキタケン,ヨコテシ,オモノガワマチドウジ,秋田県横手市雄物川町道地
0130218,秋田県,横手市,雄物川町大沢,アキタケン,ヨコテシ,オモノガワマチオオサワ,秋田県横手市雄物川町大沢
0130301,秋田県,横手市,大雄福島,アキタケン,ヨコテシ,タイユウフクジマ,秋田県横手市大雄福島
0130302,秋田県,横手市,大雄新町北,アキタケン,ヨコテシ,タイユウシンマチキタ,秋田県横手市大雄新町北
0130303,秋田県,横手市,大雄福島南,アキタケン,ヨコテシ,タイユウフクジマミナミ,秋田県横手市大雄福島南
0130304,秋田県,横手市,大雄新町南,アキタケン,ヨコテシ,タイユウシンマチミナミ,秋田県横手市大雄新町南
0130305,秋田県,横手市,大雄柏木南,アキタケン,ヨコテシ,タイユウカシワギミナミ,秋田県横手市大雄柏木南
0130306,秋田県,横手市,大雄田村,アキタケン,ヨコテシ,タイユウタムラ,秋田県横手市大雄田村
0130307,秋田県,横手市,大雄新町東,アキタケン,ヨコテシ,タイユウシンマチヒガシ,秋田県横手市大雄新町東
0130308,秋田県,横手市,大雄佐加里,アキタケン,ヨコテシ,タイユウサガリ,秋田県横手市大雄佐加里
0130309,秋田県,横手市,大雄佐加里南,アキタケン,ヨコテシ,タイユウサガリミナミ,秋田県横手市大雄佐加里南
0130311,秋田県,横手市,大雄中野東,アキタケン,ヨコテシ,タイユウナカノヒガシ,秋田県横手市大雄中野東
0130312,秋田県,横手市,大雄中野,アキタケン,ヨコテシ,タイユウナカノ,秋田県横手市大雄中野
0130313,秋田県,横手市,大雄大森道北,アキタケン,ヨコテシ,タイユウオオモリミチキタ,秋田県横手市大雄大森道北
0130314,秋田県,横手市,大雄傾城塚,アキタケン,ヨコテシ,タイユウケイセイヅカ,秋田県横手市大雄傾城塚
0130315,秋田県,横手市,大雄下根田谷地,アキタケン,ヨコテシ,タイユウシタコンダヤチ,秋田県横手市大雄下根田谷地
0130316,秋田県,横手市,大雄潤井谷地,アキタケン,ヨコテシ,タイユウウルイヤチ,秋田県横手市大雄潤井谷地
0130317,秋田県,横手市,大雄大戸川端,アキタケン,ヨコテシ,タイユウオオドカワバタ,秋田県横手市大雄大戸川端
0130318,秋田県,横手市,大雄根田谷地南,アキタケン,ヨコテシ,タイユウコンダヤチミナミ,秋田県横手市大雄根田谷地南
0130319,秋田県,横手市,大雄四ツ屋東,アキタケン,ヨコテシ,タイユウヨツヤヒガシ,秋田県横手市大雄四ツ屋東
0130321,秋田県,横手市,大雄根田谷地西,アキタケン,ヨコテシ,タイユウコンダヤチニシ,秋田県横手市大雄根田谷地西
0130322,秋田県,横手市,大雄伝蔵村,アキタケン,ヨコテシ,タイユウデンゾウムラ,秋田県横手市大雄伝蔵村
0130323,秋田県,横手市,大雄根田谷地東,アキタケン,ヨコテシ,タイユウコンダヤチヒガシ,秋田県横手市大雄根田谷地東
0130324,秋田県,横手市,大雄根田谷地,アキタケン,ヨコテシ,タイユウコンダヤチ,秋田県横手市大雄根田谷地
0130325,秋田県,横手市,大雄田根森東,アキタケン,ヨコテシ,タイユウタネモリヒガシ,秋田県横手市大雄田根森東
0130326,秋田県,横手市,大雄上田村東,アキタケン,ヨコテシ,タイユウカミタムラヒガシ,秋田県横手市大雄上田村東
0130327,秋田県,横手市,大雄焼野,アキタケン,ヨコテシ,タイユウヤケノ,秋田県横手市大雄焼野
0130331,秋田県,横手市,大雄東高津野,アキタケン,ヨコテシ,タイユウヒガシタカヅノ,秋田県横手市大雄東高津野
0130332,秋田県,横手市,大雄新町西野添,アキタケン,ヨコテシ,タイユウシンマチニシノゾイ,秋田県横手市大雄新町西野添
0130333,秋田県,横手市,大雄新町西,アキタケン,ヨコテシ,タイユウシンマチニシ,秋田県横手市大雄新町西
0130334,秋田県,横手市,大雄新町,アキタケン,ヨコテシ,タイユウシンマチ,秋田県横手市大雄新町
0130335,秋田県,横手市,大雄折橋,アキタケン,ヨコテシ,タイユウオリハシ,秋田県横手市大雄折橋
0130336,秋田県,横手市,大雄傾城塚南,アキタケン,ヨコテシ,タイユウケイセイヅカミナミ,秋田県横手市大雄傾城塚南
0130337,秋田県,横手市,大雄折橋南,アキタケン,ヨコテシ,タイユウオリハシミナミ,秋田県横手市大雄折橋南
0130338,秋田県,横手市,大雄耳取西,アキタケン,ヨコテシ,タイユウミミドリニシ,秋田県横手市大雄耳取西
0130339,秋田県,横手市,大雄耳取,アキタケン,ヨコテシ,タイユウミミドリ,秋田県横手市大雄耳取
0130341,秋田県,横手市,大雄四ッ屋,アキタケン,ヨコテシ,タイユウヨツヤ,秋田県横手市大雄四ッ屋
0130342,秋田県,横手市,大雄精兵村,アキタケン,ヨコテシ,タイユウセイベイムラ,秋田県横手市大雄精兵村
0130343,秋田県,横手市,大雄田根森西,アキタケン,ヨコテシ,タイユウタネモリニシ,秋田県横手市大雄田根森西
0130344,秋田県,横手市,大雄精兵西,アキタケン,ヨコテシ,タイユウセイベイニシ,秋田県横手市大雄精兵西
0130345,秋田県,横手市,大雄本庄道北堰間,アキタケン,ヨコテシ,タイユウホンジョウミチキタセキマ,秋田県横手市大雄本庄道北堰間
0130346,秋田県,横手市,大雄四ツ屋西,アキタケン,ヨコテシ,タイユウヨツヤニシ,秋田県横手市大雄四ツ屋西
0130347,秋田県,横手市,大雄本庄道南,アキタケン,ヨコテシ,タイユウホンジョウミチミナミ,秋田県横手市大雄本庄道南
0130348,秋田県,横手市,大雄田根森,アキタケン,ヨコテシ,タイユウタネモリ,秋田県横手市大雄田根森
0130349,秋田県,横手市,大雄上田村西,アキタケン,ヨコテシ,タイユウカミタムラニシ,秋田県横手市大雄上田村西
0130351,秋田県,横手市,大雄上田村,アキタケン,ヨコテシ,タイユウカミタムラ,秋田県横手市大雄上田村
0130352,秋田県,横手市,大雄一ノ関東,アキタケン,ヨコテシ,タイユウイチノセキヒガシ,秋田県横手市大雄一ノ関東
0130353,秋田県,横手市,大雄一ノ関,アキタケン,ヨコテシ,タイユウイチノセキ,秋田県横手市大雄一ノ関
0130354,秋田県,横手市,大雄狐塚,アキタケン,ヨコテシ,タイユウキツネヅカ,秋田県横手市大雄狐塚
0130355,秋田県,横手市,大雄上桜森,アキタケン,ヨコテシ,タイユウカミサクラモリ,秋田県横手市大雄上桜森
0130356,秋田県,横手市,大雄一ノ関南,アキタケン,ヨコテシ,タイユウイチノセキミナミ,秋田県横手市大雄一ノ関南
0130357,秋田県,横手市,大雄向東,アキタケン,ヨコテシ,タイユウムカイヒガシ,秋田県横手市大雄向東
0130358,秋田県,横手市,大雄向,アキタケン,ヨコテシ,タイユウムカイ,秋田県横手市大雄向
0130359,秋田県,横手市,大雄柏木,アキタケン,ヨコテシ,タイユウカシワギ,秋田県横手市大雄柏木
0130361,秋田県,横手市,大雄柏木西,アキタケン,ヨコテシ,タイユウカシワギニシ,秋田県横手市大雄柏木西
0130362,秋田県,横手市,大雄柏木下,アキタケン,ヨコテシ,タイユウカシワギシタ,秋田県横手市大雄柏木下
0130363,秋田県,横手市,大雄桜森西,アキタケン,ヨコテシ,タイユウサクラモリニシ,秋田県横手市大雄桜森西
0130364,秋田県,横手市,大雄袋谷地,アキタケン,ヨコテシ,タイユウフクロヤチ,秋田県横手市大雄袋谷地
0130365,秋田県,横手市,大雄鍛治村,アキタケン,ヨコテシ,タイユウカジムラ,秋田県横手市大雄鍛治村
0130371,秋田県,横手市,大雄文蔵開,アキタケン,ヨコテシ,タイユウブンゾウビラキ,秋田県横手市大雄文蔵開
0130372,秋田県,横手市,大雄上田村南,アキタケン,ヨコテシ,タイユウカミタムラミナミ,秋田県横手市大雄上田村南
0130373,秋田県,横手市,大雄八柏谷地,アキタケン,ヨコテシ,タイユウヤガシワヤチ,秋田県横手市大雄八柏谷地
0130374,秋田県,横手市,大雄八柏中村東,アキタケン,ヨコテシ,タイユウヤガシワナカムラヒガシ,秋田県横手市大雄八柏中村東
0130375,秋田県,横手市,大雄八柏釜蓋,アキタケン,ヨコテシ,タイユウヤガシワカマブタ,秋田県横手市大雄八柏釜蓋
0130376,秋田県,横手市,大雄八柏馬道添,アキタケン,ヨコテシ,タイユウヤガシワウマミチゾイ,秋田県横手市大雄八柏馬道添
0130377,秋田県,横手市,大雄八柏中村,アキタケン,ヨコテシ,タイユウヤガシワナカムラ,秋田県横手市大雄八柏中村
0130378,秋田県,横手市,大雄八柏街道添,アキタケン,ヨコテシ,タイユウヤガシワカイドウゾイ,秋田県横手市大雄八柏街道添
0130379,秋田県,横手市,大雄八柏家間,アキタケン,ヨコテシ,タイユウヤガシワイエマ,秋田県横手市大雄八柏家間
0130381,秋田県,横手市,大雄八柏下村,アキタケン,ヨコテシ,タイユウヤガシワシモムラ,秋田県横手市大雄八柏下村
0130382,秋田県,横手市,大雄上堰東,アキタケン,ヨコテシ,タイユウウワセキヒガシ,秋田県横手市大雄上堰東
0130383,秋田県,横手市,大雄八柏村西,アキタケン,ヨコテシ,タイユウヤガシワムラニシ,秋田県横手市大雄八柏村西
0130384,秋田県,横手市,大雄八柏村表,アキタケン,ヨコテシ,タイユウヤガシワムラオモテ,秋田県横手市大雄八柏村表
0130385,秋田県,横手市,大雄万貝,アキタケン,ヨコテシ,タイユウマンカイ,秋田県横手市大雄万貝
0130402,秋田県,横手市,大雄八柏,アキタケン,ヨコテシ,タイユウヤガシワ,秋田県横手市大雄八柏
0130404,秋田県,横手市,大雄上柏木,アキタケン,ヨコテシ,タイユウカミカシワギ,秋田県横手市大雄上柏木
0130405,秋田県,横手市,大雄南四津屋,アキタケン,ヨコテシ,タイユウミナミヨツヤ,秋田県横手市大雄南四津屋
0130406,秋田県,横手市,大雄西四津屋,アキタケン,ヨコテシ,タイユウニシヨツヤ,秋田県横手市大雄西四津屋
0130407,秋田県,横手市,大雄四津屋下,アキタケン,ヨコテシ,タイユウヨツヤシタ,秋田県横手市大雄四津屋下
0130408,秋田県,横手市,大雄北四津屋,アキタケン,ヨコテシ,タイユウキタヨツヤ,秋田県横手市大雄北四津屋
0130409,秋田県,横手市,大雄東四津屋,アキタケン,ヨコテシ,タイユウヒガシヨツヤ,秋田県横手市大雄東四津屋
0130411,秋田県,横手市,大雄剰水東,アキタケン,ヨコテシ,タイユウセセナギヒガシ,秋田県横手市大雄剰水東
0130412,秋田県,横手市,大雄剰水,アキタケン,ヨコテシ,タイユウセセナギ,秋田県横手市大雄剰水
0130413,秋田県,横手市,大雄宮田,アキタケン,ヨコテシ,タイユウミヤタ,秋田県横手市大雄宮田
0130414,秋田県,横手市,大雄藤巻,アキタケン,ヨコテシ,タイユウフジマキ,秋田県横手市大雄藤巻
0130415,秋田県,横手市,大雄藤巻西,アキタケン,ヨコテシ,タイユウフジマキニシ,秋田県横手市大雄藤巻西
0130416,秋田県,横手市,大雄藤巻中島,アキタケン,ヨコテシ,タイユウフジマキナカジマ,秋田県横手市大雄藤巻中島
0130417,秋田県,横手市,大雄六町下,アキタケン,ヨコテシ,タイユウロクチョウシタ,秋田県横手市大雄六町下
0130418,秋田県,横手市,大雄六町東,アキタケン,ヨコテシ,タイユウロクチョウヒガシ,秋田県横手市大雄六町東
0130419,秋田県,横手市,大雄六町,アキタケン,ヨコテシ,タイユウロクチョウ,秋田県横手市大雄六町
0130421,秋田県,横手市,大雄江原,アキタケン,ヨコテシ,タイユウエバラ,秋田県横手市大雄江原
0130422,秋田県,横手市,大雄南阿気,アキタケン,ヨコテシ,タイユウミナミアゲ,秋田県横手市大雄南阿気
0130423,秋田県,横手市,大雄土井尻,アキタケン,ヨコテシ,タイユウドイジリ,秋田県横手市大雄土井尻
0130424,秋田県,横手市,大雄中館合,アキタケン,ヨコテシ,タイユウナカタテアイ,秋田県横手市大雄中館合
0130425,秋田県,横手市,大雄西館合,アキタケン,ヨコテシ,タイユウニシタテアイ,秋田県横手市大雄西館合
0130426,秋田県,横手市,大雄木戸口,アキタケン,ヨコテシ,タイユウキドグチ,秋田県横手市大雄木戸口
0130427,秋田県,横手市,大雄阿気,アキタケン,ヨコテシ,タイユウアゲ,秋田県横手市大雄阿気
0130428,秋田県,横手市,大雄鶴巻田,アキタケン,ヨコテシ,タイユウツルマキダ,秋田県横手市大雄鶴巻田
0130429,秋田県,横手市,大雄宮小路,アキタケン,ヨコテシ,タイユウミヤコウジ,秋田県横手市大雄宮小路
0130431,秋田県,横手市,大雄牛中島,アキタケン,ヨコテシ,タイユウウシナカジマ,秋田県横手市大雄牛中島
0130432,秋田県,横手市,大雄東中島,アキタケン,ヨコテシ,タイユウヒガシナカジマ,秋田県横手市大雄東中島
0130433,秋田県,横手市,大雄西中島,アキタケン,ヨコテシ,タイユウニシナカジマ,秋田県横手市大雄西中島
0130434,秋田県,横手市,大雄山王,アキタケン,ヨコテシ,タイユウサンノウ,秋田県横手市大雄山王
0130435,秋田県,横手市,大雄木戸口西,アキタケン,ヨコテシ,タイユウキドグチニシ,秋田県横手市大雄木戸口西
0130436,秋田県,横手市,大雄小林西,アキタケン,ヨコテシ,タイユウコバヤシニシ,秋田県横手市大雄小林西
0130437,秋田県,横手市,大雄小林,アキタケン,ヨコテシ,タイユウコバヤシ,秋田県横手市大雄小林
0130438,秋田県,横手市,大雄木戸口下,アキタケン,ヨコテシ,タイユウキドグチシタ,秋田県横手市大雄木戸口下
0130439,秋田県,横手市,大雄山王西,アキタケン,ヨコテシ,タイユウサンノウニシ,秋田県横手市大雄山王西
0130441,秋田県,横手市,大雄野中,アキタケン,ヨコテシ,タイユウノナカ,秋田県横手市大雄野中
0130442,秋田県,横手市,大雄高津野下,アキタケン,ヨコテシ,タイユウタカヅノシタ,秋田県横手市大雄高津野下
0130443,秋田県,横手市,大雄高津野,アキタケン,ヨコテシ,タイユウタカヅノ,秋田県横手市大雄高津野
0130444,秋田県,横手市,大雄向田東,アキタケン,ヨコテシ,タイユウムカイダヒガシ,秋田県横手市大雄向田東
0130445,秋田県,横手市,大雄向田,アキタケン,ヨコテシ,タイユウムカイダ,秋田県横手市大雄向田
0130446,秋田県,横手市,大雄乗阿気,アキタケン,ヨコテシ,タイユウノリアゲ,秋田県横手市大雄乗阿気
0130447,秋田県,横手市,大雄阿久戸,アキタケン,ヨコテシ,タイユウアクド,秋田県横手市大雄阿久戸
0130448,秋田県,横手市,大雄乗阿気下,アキタケン,ヨコテシ,タイユウノリアゲシタ,秋田県横手市大雄乗阿気下
0130451,秋田県,横手市,大雄折橋西,アキタケン,ヨコテシ,タイユウオリハシニシ,秋田県横手市大雄折橋西
0130452,秋田県,横手市,大雄大関,アキタケン,ヨコテシ,タイユウオオゼキ,秋田県横手市大雄大関
0130453,秋田県,横手市,大雄三村北,アキタケン,ヨコテシ,タイユウミムラキタ,秋田県横手市大雄三村北
0130454,秋田県,横手市,大雄大谷地,アキタケン,ヨコテシ,タイユウオオヤチ,秋田県横手市大雄大谷地
0130455,秋田県,横手市,大雄大谷地西,アキタケン,ヨコテシ,タイユウオオヤチニシ,秋田県横手市大雄大谷地西
0130456,秋田県,横手市,大雄大慈寺前,アキタケン,ヨコテシ,タイユウダイジジマエ,秋田県横手市大雄大慈寺前
0130457,秋田県,横手市,大雄大慈寺東,アキタケン,ヨコテシ,タイユウダイジジヒガシ,秋田県横手市大雄大慈寺東
0130458,秋田県,横手市,大雄大慈寺谷地,アキタケン,ヨコテシ,タイユウダイジジヤチ,秋田県横手市大雄大慈寺谷地
0130459,秋田県,横手市,大雄赤沼,アキタケン,ヨコテシ,タイユウアカヌマ,秋田県横手市大雄赤沼
0130461,秋田県,横手市,大雄三村東,アキタケン,ヨコテシ,タイユウミムラヒガシ,秋田県横手市大雄三村東
0130462,秋田県,横手市,大雄樋脇,アキタケン,ヨコテシ,タイユウトヨワキ,秋田県横手市大雄樋脇
0130463,秋田県,横手市,大雄石持前,アキタケン,ヨコテシ,タイユウイシモチマエ,秋田県横手市大雄石持前
0130464,秋田県,横手市,大雄石持,アキタケン,ヨコテシ,タイユウイシモチ,秋田県横手市大雄石持
0130465,秋田県,横手市,大雄石持下,アキタケン,ヨコテシ,タイユウイシモチシタ,秋田県横手市大雄石持下
0130466,秋田県,横手市,大雄三村,アキタケン,ヨコテシ,タイユウミムラ,秋田県横手市大雄三村
0130467,秋田県,横手市,大雄三村西,アキタケン,ヨコテシ,タイユウミムラニシ,秋田県横手市大雄三村西
0130468,秋田県,横手市,大雄中谷地,アキタケン,ヨコテシ,タイユウナカヤチ,秋田県横手市大雄中谷地
0130471,秋田県,横手市,大雄板橋堰添,アキタケン,ヨコテシ,タイユウイタバシセキゾイ,秋田県横手市大雄板橋堰添
0130472,秋田県,横手市,大雄東阿気,アキタケン,ヨコテシ,タイユウヒガシアゲ,秋田県横手市大雄東阿気
0130473,秋田県,横手市,大雄東桜森,アキタケン,ヨコテシ,タイユウヒガシサクラモリ,秋田県横手市大雄東桜森
0130474,秋田県,横手市,大雄桜森,アキタケン,ヨコテシ,タイユウサクラモリ,秋田県横手市大雄桜森
0130475,秋田県,横手市,大雄桜森前,アキタケン,ヨコテシ,タイユウサクラモリマエ,秋田県横手市大雄桜森前
0130476,秋田県,横手市,大雄西桜森,アキタケン,ヨコテシ,タイユウニシサクラモリ,秋田県横手市大雄西桜森
0130477,秋田県,横手市,大雄桜森東,アキタケン,ヨコテシ,タイユウサクラモリヒガシ,秋田県横手市大雄桜森東
0130481,秋田県,横手市,雄物川町薄井,アキタケン,ヨコテシ,オモノガワマチウスイ,秋田県横手市雄物川町薄井
0130482,秋田県,横手市,大雄平柳,アキタケン,ヨコテシ,タイユウヒラヤナギ,秋田県横手市大雄平柳
0130483,秋田県,横手市,大雄島田,アキタケン,ヨコテシ,タイユウシマダ,秋田県横手市大雄島田
0130484,秋田県,横手市,大雄新処,アキタケン,ヨコテシ,タイユウアラトコロ,秋田県横手市大雄新処
0130485,秋田県,横手市,大雄下新処,アキタケン,ヨコテシ,タイユウシモアラトコロ,秋田県横手市大雄下新処
0130486,秋田県,横手市,大雄田町,アキタケン,ヨコテシ,タイユウタマチ,秋田県横手市大雄田町
0130487,秋田県,横手市,大雄下田町,アキタケン,ヨコテシ,タイユウシモタマチ,秋田県横手市大雄下田町
0130488,秋田県,横手市,大雄東館合,アキタケン,ヨコテシ,タイユウヒガシタテアイ,秋田県横手市大雄東館合
0130501,秋田県,横手市,大森町板井田,アキタケン,ヨコテシ,オオモリマチイタイダ,秋田県横手市大森町板井田
0130502,秋田県,横手市,大森町袴形,アキタケン,ヨコテシ,オオモリマチハカマガタ,秋田県横手市大森町袴形
0130503,秋田県,横手市,大森町十日町,アキタケン,ヨコテシ,オオモリマチトオカマチ,秋田県横手市大森町十日町
0130511,秋田県,横手市,大森町牛中島,アキタケン,ヨコテシ,オオモリマチウシナカジマ,秋田県横手市大森町牛中島
0130512,秋田県,横手市,大森町湯ノ沢,アキタケン,ヨコテシ,オオモリマチユノサワ,秋田県横手市大森町湯ノ沢
0130513,秋田県,横手市,大森町湯ノ島,アキタケン,ヨコテシ,オオモリマチユノシマ,秋田県横手市大森町湯ノ島
0130514,秋田県,横手市,大森町大中島,アキタケン,ヨコテシ,オオモリマチオオナカジマ,秋田県横手市大森町大中島
0130515,秋田県,横手市,大森町西中島,アキタケン,ヨコテシ,オオモリマチニシナカジマ,秋田県横手市大森町西中島
0130516,秋田県,横手市,大森町東中島,アキタケン,ヨコテシ,オオモリマチヒガシナカジマ,秋田県横手市大森町東中島
0130517,秋田県,横手市,大森町高口下水戸堤,アキタケン,ヨコテシ,オオモリマチタカクチシタミトツツミ,秋田県横手市大森町高口下水戸堤
0130518,秋田県,横手市,大森町文天鏡田,アキタケン,ヨコテシ,オオモリマチモンテンカガミダ,秋田県横手市大森町文天鏡田
0130519,秋田県,横手市,大森町持向,アキタケン,ヨコテシ,オオモリマチモチムカイ,秋田県横手市大森町持向
0130521,秋田県,横手市,大森町大森,アキタケン,ヨコテシ,オオモリマチオオモリ,秋田県横手市大森町大森
0130522,秋田県,横手市,大森町町回,アキタケン,ヨコテシ,オオモリマチマチマワリ,秋田県横手市大森町町回
0130523,秋田県,横手市,大森町堂林,アキタケン,ヨコテシ,オオモリマチドウバヤシ,秋田県横手市大森町堂林
0130524,秋田県,横手市,大森町清水上,アキタケン,ヨコテシ,オオモリマチシミズノウエ,秋田県横手市大森町清水上
0130525,秋田県,横手市,大森町菅生田,アキタケン,ヨコテシ,オオモリマチスゴウタ,秋田県横手市大森町菅生田
0130526,秋田県,横手市,大森町西野,アキタケン,ヨコテシ,オオモリマチニシノ,秋田県横手市大森町西野
0130531,秋田県,横手市,大森町佐渡,アキタケン,ヨコテシ,オオモリマチサド,秋田県横手市大森町佐渡
0130532,秋田県,横手市,大森町久保,アキタケン,ヨコテシ,オオモリマチクボ,秋田県横手市大森町久保
0130533,秋田県,横手市,大森町中田,アキタケン,ヨコテシ,オオモリマチナカタ,秋田県横手市大森町中田
0130534,秋田県,横手市,大森町峠町頭,アキタケン,ヨコテシ,オオモリマチトウゲマチガシラ,秋田県横手市大森町峠町頭
0130535,秋田県,横手市,大森町町田,アキタケン,ヨコテシ,オオモリマチマチダ,秋田県横手市大森町町田
0130536,秋田県,横手市,大森町真山,アキタケン,ヨコテシ,オオモリマチシンザン,秋田県横手市大森町真山
0130541,秋田県,横手市,大森町中嶋,アキタケン,ヨコテシ,オオモリマチナカジマ,秋田県横手市大森町中嶋
0130542,秋田県,横手市,大森町高野中島,アキタケン,ヨコテシ,オオモリマチタカノナカジマ,秋田県横手市大森町高野中島
0130543,秋田県,横手市,大森町本郷,アキタケン,ヨコテシ,オオモリマチホンゴウ,秋田県横手市大森町本郷
0130544,秋田県,横手市,大森町長助巻,アキタケン,ヨコテシ,オオモリマチチョウスケマキ,秋田県横手市大森町長助巻
0130545,秋田県,横手市,大森町鯲沼,アキタケン,ヨコテシ,オオモリマチドジョウヌマ,秋田県横手市大森町鯲沼
0130546,秋田県,横手市,大森町牛ケ沢,アキタケン,ヨコテシ,オオモリマチウシガサワ,秋田県横手市大森町牛ケ沢
0130551,秋田県,横手市,大森町猿田,アキタケン,ヨコテシ,オオモリマチサルタ,秋田県横手市大森町猿田
0130552,秋田県,横手市,大森町上溝,アキタケン,ヨコテシ,オオモリマチウワミゾ,秋田県横手市大森町上溝
0130561,秋田県,横手市,大森町八沢木,アキタケン,ヨコテシ,オオモリマチヤサワギ,秋田県横手市大森町八沢木
0130562,秋田県,横手市,大森町坂部,アキタケン,ヨコテシ,オオモリマチサカベ,秋田県横手市大森町坂部
0130811,秋田県,横手市,安本,アキタケン,ヨコテシ,ヤスモト,秋田県横手市安本
0130812,秋田県,横手市,金沢本町,アキタケン,ヨコテシ,カネザワモトマチ,秋田県横手市金沢本町
0130813,秋田県,横手市,金沢,アキタケン,ヨコテシ,カネザワ,秋田県横手市金沢
0130814,秋田県,横手市,金沢中野,アキタケン,ヨコテシ,カネザワナカノ,秋田県横手市金沢中野
0130821,秋田県,横手市,上境,アキタケン,ヨコテシ,カミザカイ,秋田県横手市上境
0130822,秋田県,横手市,上八丁,アキタケン,ヨコテシ,カミハッチョウ,秋田県横手市上八丁
0130823,秋田県,横手市,下八丁,アキタケン,ヨコテシ,シモハッチョウ,秋田県横手市下八丁
0130824,秋田県,横手市,下境,アキタケン,ヨコテシ,シモザカイ,秋田県横手市下境
0130825,秋田県,横手市,百万刈,アキタケン,ヨコテシ,ヒャクマンガリ,秋田県横手市百万刈
0130826,秋田県,横手市,黒川,アキタケン,ヨコテシ,クロカワ,秋田県横手市黒川
0140000,秋田県,大仙市,,アキタケン,ダイセンシ,,秋田県大仙市
0140001,秋田県,大仙市,花館,アキタケン,ダイセンシ,ハナダテ,秋田県大仙市花館
0140002,秋田県,大仙市,花館上町,アキタケン,ダイセンシ,ハナダテカミチョウ,秋田県大仙市花館上町
0140003,秋田県,大仙市,美原町,アキタケン,ダイセンシ,ミハラチョウ,秋田県大仙市美原町
0140004,秋田県,大仙市,泉町,アキタケン,ダイセンシ,イズミチョウ,秋田県大仙市泉町
0140005,秋田県,大仙市,花館柳町,アキタケン,ダイセンシ,ハナダテヤナギマチ,秋田県大仙市花館柳町
0140006,秋田県,大仙市,花館中町,アキタケン,ダイセンシ,ハナダテナカマチ,秋田県大仙市花館中町
0140011,秋田県,大仙市,富士見町,アキタケン,ダイセンシ,フジミチョウ,秋田県大仙市富士見町
0140012,秋田県,大仙市,幸町,アキタケン,ダイセンシ,サイワイチョウ,秋田県大仙市幸町
0140013,秋田県,大仙市,朝日町,アキタケン,ダイセンシ,アサヒマチ,秋田県大仙市朝日町
0140014,秋田県,大仙市,大曲福住町,アキタケン,ダイセンシ,オオマガリフクズミチョウ,秋田県大仙市大曲福住町
0140015,秋田県,大仙市,大曲白金町,アキタケン,ダイセンシ,オオマガリシロガネチョウ,秋田県大仙市大曲白金町
0140016,秋田県,大仙市,若竹町,アキタケン,ダイセンシ,ワカタケチョウ,秋田県大仙市若竹町
0140017,秋田県,大仙市,佐野町,アキタケン,ダイセンシ,サノチョウ,秋田県大仙市佐野町
0140021,秋田県,大仙市,福田町,アキタケン,ダイセンシ,フクダチョウ,秋田県大仙市福田町
0140022,秋田県,大仙市,大花町,アキタケン,ダイセンシ,オオハナチョウ,秋田県大仙市大花町
0140023,秋田県,大仙市,大曲黒瀬町,アキタケン,ダイセンシ,オオマガリクロセチョウ,秋田県大仙市大曲黒瀬町
0140024,秋田県,大仙市,大曲中通町,アキタケン,ダイセンシ,オオマガリナカドオリマチ,秋田県大仙市大曲中通町
0140025,秋田県,大仙市,大曲大町,アキタケン,ダイセンシ,オオマガリオオマチ,秋田県大仙市大曲大町
0140026,秋田県,大仙市,大曲丸の内町,アキタケン,ダイセンシ,オオマガリマルノウチマチ,秋田県大仙市大曲丸の内町
0140027,秋田県,大仙市,大曲通町,アキタケン,ダイセンシ,オオマガリトオリマチ,秋田県大仙市大曲通町
0140031,秋田県,大仙市,大曲,アキタケン,ダイセンシ,オオマガリ,秋田県大仙市大曲
0140032,秋田県,大仙市,東川,アキタケン,ダイセンシ,ヒガシカワ,秋田県大仙市東川
0140033,秋田県,大仙市,和合,アキタケン,ダイセンシ,ワゴウ,秋田県大仙市和合
0140034,秋田県,大仙市,大曲住吉町,アキタケン,ダイセンシ,オオマガリスミヨシチョウ,秋田県大仙市大曲住吉町
0140041,秋田県,大仙市,大曲丸子町,アキタケン,ダイセンシ,オオマガリマルコチョウ,秋田県大仙市大曲丸子町
0140042,秋田県,大仙市,大曲福見町,アキタケン,ダイセンシ,オオマガリフクミチョウ,秋田県大仙市大曲福見町
0140043,秋田県,大仙市,大曲戸巻町,アキタケン,ダイセンシ,オオマガリトマキチョウ,秋田県大仙市大曲戸巻町
0140044,秋田県,大仙市,戸蒔,アキタケン,ダイセンシ,トマキ,秋田県大仙市戸蒔
0140045,秋田県,大仙市,大曲若葉町,アキタケン,ダイセンシ,オオマガリワカバチョウ,秋田県大仙市大曲若葉町
0140046,秋田県,大仙市,大曲田町,アキタケン,ダイセンシ,オオマガリタマチ,秋田県大仙市大曲田町
0140047,秋田県,大仙市,大曲須和町,アキタケン,ダイセンシ,オオマガリスワチョウ,秋田県大仙市大曲須和町
0140048,秋田県,大仙市,大曲上大町,アキタケン,ダイセンシ,オオマガリカミオオマチ,秋田県大仙市大曲上大町
0140051,秋田県,大仙市,大曲浜町,アキタケン,ダイセンシ,オオマガリハマチョウ,秋田県大仙市大曲浜町
0140052,秋田県,大仙市,大曲川原町,アキタケン,ダイセンシ,オオマガリカワラチョウ,秋田県大仙市大曲川原町
0140053,秋田県,大仙市,大曲花園町,アキタケン,ダイセンシ,オオマガリハナゾノチョウ,秋田県大仙市大曲花園町
0140054,秋田県,大仙市,大曲金谷町,アキタケン,ダイセンシ,オオマガリカナヤチョウ,秋田県大仙市大曲金谷町
0140055,秋田県,大仙市,大曲あけぼの町,アキタケン,ダイセンシ,オオマガリアケボノチョウ,秋田県大仙市大曲あけぼの町
0140056,秋田県,大仙市,大曲緑町,アキタケン,ダイセンシ,オオマガリミドリチョウ,秋田県大仙市大曲緑町
0140057,秋田県,大仙市,大曲船場町,アキタケン,ダイセンシ,オオマガリフナバチョウ,秋田県大仙市大曲船場町
0140061,秋田県,大仙市,大曲栄町,アキタケン,ダイセンシ,オオマガリサカエチョウ,秋田県大仙市大曲栄町
0140062,秋田県,大仙市,大曲上栄町,アキタケン,ダイセンシ,オオマガリカミサカエチョウ,秋田県大仙市大曲上栄町
0140063,秋田県,大仙市,大曲日の出町,アキタケン,ダイセンシ,オオマガリヒノデチョウ,秋田県大仙市大曲日の出町
0140064,秋田県,大仙市,小貫高畑,アキタケン,ダイセンシ,オヌキタカバタケ,秋田県大仙市小貫高畑
0140065,秋田県,大仙市,下深井,アキタケン,ダイセンシ,シモフカイ,秋田県大仙市下深井
0140066,秋田県,大仙市,川目,アキタケン,ダイセンシ,カワノメ,秋田県大仙市川目
0140067,秋田県,大仙市,飯田,アキタケン,ダイセンシ,イイダ,秋田県大仙市飯田
0140068,秋田県,大仙市,大曲飯田町,アキタケン,ダイセンシ,オオマガリイイダチョウ,秋田県大仙市大曲飯田町
0140071,秋田県,大仙市,蛭川,アキタケン,ダイセンシ,ヒルガワ,秋田県大仙市蛭川
0140072,秋田県,大仙市,大曲西根,アキタケン,ダイセンシ,オオマガリニシネ,秋田県大仙市大曲西根
0140073,秋田県,大仙市,内小友,アキタケン,ダイセンシ,ウチオトモ,秋田県大仙市内小友
0140101,秋田県,大仙市,松倉,アキタケン,ダイセンシ,マツクラ,秋田県大仙市松倉
0140102,秋田県,大仙市,四ツ屋,アキタケン,ダイセンシ,ヨツヤ,秋田県大仙市四ツ屋
0140103,秋田県,大仙市,高関上郷,アキタケン,ダイセンシ,タカゼキカミゴウ,秋田県大仙市高関上郷
0140104,秋田県,大仙市,新谷地,アキタケン,ダイセンシ,ニイヤジ,秋田県大仙市新谷地
0140111,秋田県,大仙市,横堀,アキタケン,ダイセンシ,ヨコボリ,秋田県大仙市横堀
0140112,秋田県,大仙市,板見内,アキタケン,ダイセンシ,イタミナイ,秋田県大仙市板見内
0140113,秋田県,大仙市,堀見内,アキタケン,ダイセンシ,ホリミナイ,秋田県大仙市堀見内
0140114,秋田県,大仙市,福田,アキタケン,ダイセンシ,フクダ,秋田県大仙市福田
0140201,秋田県,大仙市,下鶯野,アキタケン,ダイセンシ,シモウグイスノ,秋田県大仙市下鶯野
0140202,秋田県,大仙市,上鶯野,アキタケン,ダイセンシ,カミウグイスノ,秋田県大仙市上鶯野
0140203,秋田県,大仙市,北長野,アキタケン,ダイセンシ,キタナガノ,秋田県大仙市北長野
0140204,秋田県,大仙市,清水,アキタケン,ダイセンシ,シミズ,秋田県大仙市清水
0140205,秋田県,大仙市,鑓見内,アキタケン,ダイセンシ,ヤリミナイ,秋田県大仙市鑓見内
0140206,秋田県,大仙市,長戸呂,アキタケン,ダイセンシ,ナガトロ,秋田県大仙市長戸呂
0140207,秋田県,大仙市,長野,アキタケン,ダイセンシ,ナガノ,秋田県大仙市長野
0140300,秋田県,仙北市,,アキタケン,センボクシ,,秋田県仙北市
0140301,秋田県,仙北市,角館町広久内,アキタケン,センボクシ,カクノダテマチヒロクナイ,秋田県仙北市角館町広久内
0140302,秋田県,仙北市,角館町白岩,アキタケン,センボクシ,カクノダテマチシライワ,秋田県仙北市角館町白岩
0140303,秋田県,仙北市,角館町薗田,アキタケン,センボクシ,カクノダテマチソノダ,秋田県仙北市角館町薗田
0140311,秋田県,仙北市,角館町田町上丁,アキタケン,センボクシ,カクノダテマチタマチカミチョウ,秋田県仙北市角館町田町上丁
0140312,秋田県,仙北市,角館町田町下丁,アキタケン,センボクシ,カクノダテマチタマチシモチョウ,秋田県仙北市角館町田町下丁
0140313,秋田県,仙北市,角館町下岩瀬町,アキタケン,センボクシ,カクノダテマチシモイワセマチ,秋田県仙北市角館町下岩瀬町
0140315,秋田県,仙北市,角館町下新町,アキタケン,センボクシ,カクノダテマチシモシンマチ,秋田県仙北市角館町下新町
0140316,秋田県,仙北市,角館町岩瀬町,アキタケン,センボクシ,カクノダテマチイワセマチ,秋田県仙北市角館町岩瀬町
0140317,秋田県,仙北市,角館町下中町,アキタケン,センボクシ,カクノダテマチシモナカマチ,秋田県仙北市角館町下中町
0140318,秋田県,仙北市,角館町中町,アキタケン,センボクシ,カクノダテマチナカマチ,秋田県仙北市角館町中町
0140321,秋田県,仙北市,角館町西勝楽町,アキタケン,センボクシ,カクノダテマチニシカツラクマチ,秋田県仙北市角館町西勝楽町
0140322,秋田県,仙北市,角館町七日町,アキタケン,センボクシ,カクノダテマチナノカマチ,秋田県仙北市角館町七日町
0140323,秋田県,仙北市,角館町横町,アキタケン,センボクシ,カクノダテマチヨコマチ,秋田県仙北市角館町横町
0140324,秋田県,仙北市,角館町小人町,アキタケン,センボクシ,カクノダテマチコビトマチ,秋田県仙北市角館町小人町
0140325,秋田県,仙北市,角館町東勝楽丁,アキタケン,センボクシ,カクノダテマチヒガシカツラクチョウ,秋田県仙北市角館町東勝楽丁
0140326,秋田県,仙北市,角館町山根町,アキタケン,センボクシ,カクノダテマチヤマネマチ,秋田県仙北市角館町山根町
0140327,秋田県,仙北市,角館町上新町,アキタケン,センボクシ,カクノダテマチカミシンマチ,秋田県仙北市角館町上新町
0140328,秋田県,仙北市,角館町竹原町,アキタケン,センボクシ,カクノダテマチタケワラマチ,秋田県仙北市角館町竹原町
0140331,秋田県,仙北市,角館町表町下丁,アキタケン,センボクシ,カクノダテマチオモテマチシモチョウ,秋田県仙北市角館町表町下丁
0140332,秋田県,仙北市,角館町歩行町,アキタケン,センボクシ,カクノダテマチオカチマチ,秋田県仙北市角館町歩行町
0140333,秋田県,仙北市,角館町川原町,アキタケン,センボクシ,カクノダテマチカワラマチ,秋田県仙北市角館町川原町
0140334,秋田県,仙北市,角館町表町上丁,アキタケン,センボクシ,カクノダテマチオモテマチカミチョウ,秋田県仙北市角館町表町上丁
0140335,秋田県,仙北市,角館町細越町,アキタケン,センボクシ,カクノダテマチホソゴエマチ,秋田県仙北市角館町細越町
0140336,秋田県,仙北市,角館町裏町,アキタケン,センボクシ,カクノダテマチウラマチ,秋田県仙北市角館町裏町
0140337,秋田県,仙北市,角館町古城,アキタケン,センボクシ,カクノダテマチフルシロ,秋田県仙北市角館町古城
0140341,秋田県,仙北市,角館町雲然,アキタケン,センボクシ,カクノダテマチクモシカリ,秋田県仙北市角館町雲然
0140342,秋田県,仙北市,角館町八割,アキタケン,センボクシ,カクノダテマチハチワリ,秋田県仙北市角館町八割
0140343,秋田県,仙北市,角館町下延,アキタケン,センボクシ,カクノダテマチシモノブ,秋田県仙北市角館町下延
0140344,秋田県,仙北市,角館町西長野,アキタケン,センボクシ,カクノダテマチニシナガノ,秋田県仙北市角館町西長野
0140345,秋田県,仙北市,角館町山谷川崎,アキタケン,センボクシ,カクノダテマチヤマヤカワサキ,秋田県仙北市角館町山谷川崎
0140346,秋田県,仙北市,角館町川原,アキタケン,センボクシ,カクノダテマチカワラ,秋田県仙北市角館町川原
0140347,秋田県,仙北市,角館町小勝田,アキタケン,センボクシ,カクノダテマチオガタ,秋田県仙北市角館町小勝田
0140351,秋田県,仙北市,角館町古城山,アキタケン,センボクシ,カクノダテマチフルシロヤマ,秋田県仙北市角館町古城山
0140352,秋田県,仙北市,角館町外ノ山,アキタケン,センボクシ,カクノダテマチトノヤマ,秋田県仙北市角館町外ノ山
0140353,秋田県,仙北市,角館町西菅沢,アキタケン,センボクシ,カクノダテマチニシスガザワ,秋田県仙北市角館町西菅沢
0140354,秋田県,仙北市,角館町水ノ目沢,アキタケン,センボクシ,カクノダテマチミズノメサワ,秋田県仙北市角館町水ノ目沢
0140355,秋田県,仙北市,角館町外ノ山官有地,アキタケン,センボクシ,カクノダテマチトノヤマカンユウチ,秋田県仙北市角館町外ノ山官有地
0140356,秋田県,仙北市,角館町花場,アキタケン,センボクシ,カクノダテマチハナバ,秋田県仙北市角館町花場
0140357,秋田県,仙北市,角館町花場下,アキタケン,センボクシ,カクノダテマチハナバシタ,秋田県仙北市角館町花場下
0140358,秋田県,仙北市,角館町川原町後,アキタケン,センボクシ,カクノダテマチカワラマチウシロ,秋田県仙北市角館町川原町後
0140359,秋田県,仙北市,角館町北野,アキタケン,センボクシ,カクノダテマチキタノ,秋田県仙北市角館町北野
0140361,秋田県,仙北市,角館町鳥木沢,アキタケン,センボクシ,カクノダテマチトリキザワ,秋田県仙北市角館町鳥木沢
0140362,秋田県,仙北市,角館町金山下,アキタケン,センボクシ,カクノダテマチカナヤマシタ,秋田県仙北市角館町金山下
0140363,秋田県,仙北市,角館町下川原,アキタケン,センボクシ,カクノダテマチシタガワラ,秋田県仙北市角館町下川原
0140364,秋田県,仙北市,角館町大中嶋,アキタケン,センボクシ,カクノダテマチオオナカジマ,秋田県仙北市角館町大中嶋
0140365,秋田県,仙北市,角館町菅沢,アキタケン,センボクシ,カクノダテマチスガザワ,秋田県仙北市角館町菅沢
0140366,秋田県,仙北市,角館町下菅沢,アキタケン,センボクシ,カクノダテマチシモスガザワ,秋田県仙北市角館町下菅沢
0140367,秋田県,仙北市,角館町勝楽,アキタケン,センボクシ,カクノダテマチカツラク,秋田県仙北市角館町勝楽
0140368,秋田県,仙北市,角館町中菅沢,アキタケン,センボクシ,カクノダテマチナカスガザワ,秋田県仙北市角館町中菅沢
0140369,秋田県,仙北市,角館町上菅沢,アキタケン,センボクシ,カクノダテマチカミスガザワ,秋田県仙北市角館町上菅沢
0140371,秋田県,仙北市,角館町大風呂,アキタケン,センボクシ,カクノダテマチオオフロ,秋田県仙北市角館町大風呂
0140372,秋田県,仙北市,角館町小館,アキタケン,センボクシ,カクノダテマチコダテ,秋田県仙北市角館町小館
0140373,秋田県,仙北市,角館町岩瀬,アキタケン,センボクシ,カクノダテマチイワセ,秋田県仙北市角館町岩瀬
0140374,秋田県,仙北市,角館町上野,アキタケン,センボクシ,カクノダテマチウワノ,秋田県仙北市角館町上野
0140375,秋田県,仙北市,角館町岩瀬下タ野,アキタケン,センボクシ,カクノダテマチイワセシタノ,秋田県仙北市角館町岩瀬下タ野
0140376,秋田県,仙北市,角館町西下タ野,アキタケン,センボクシ,カクノダテマチニシシタノ,秋田県仙北市角館町西下タ野
0140377,秋田県,仙北市,角館町西田,アキタケン,センボクシ,カクノダテマチニシタ,秋田県仙北市角館町西田
0140378,秋田県,仙北市,角館町西野川原,アキタケン,センボクシ,カクノダテマチニシノカワラ,秋田県仙北市角館町西野川原
0140379,秋田県,仙北市,角館町西北野,アキタケン,センボクシ,カクノダテマチニシキタノ,秋田県仙北市角館町西北野
0140511,秋田県,仙北市,西木町西明寺,アキタケン,センボクシ,ニシキチョウサイミョウジ,秋田県仙北市西木町西明寺
0140512,秋田県,仙北市,西木町上荒井,アキタケン,センボクシ,ニシキチョウカミアライ,秋田県仙北市西木町上荒井
0140513,秋田県,仙北市,西木町小渕野,アキタケン,センボクシ,ニシキチョウコブチノ,秋田県仙北市西木町小渕野
0140514,秋田県,仙北市,西木町西荒井,アキタケン,センボクシ,ニシキチョウニシアライ,秋田県仙北市西木町西荒井
0140515,秋田県,仙北市,西木町門屋,アキタケン,センボクシ,ニシキチョウカドヤ,秋田県仙北市西木町門屋
0140516,秋田県,仙北市,西木町小山田,アキタケン,センボクシ,ニシキチョウコヤマダ,秋田県仙北市西木町小山田
0140601,秋田県,仙北市,西木町上桧木内,アキタケン,センボクシ,ニシキチョウカミヒノキナイ,秋田県仙北市西木町上桧木内
0140602,秋田県,仙北市,西木町桧木内,アキタケン,センボクシ,ニシキチョウヒノキナイ,秋田県仙北市西木町桧木内
0140711,秋田県,大仙市,豊川,アキタケン,ダイセンシ,トヨカワ,秋田県大仙市豊川
0140712,秋田県,大仙市,豊岡,アキタケン,ダイセンシ,トヨオカ,秋田県大仙市豊岡
0140713,秋田県,大仙市,栗沢,アキタケン,ダイセンシ,クリサワ,秋田県大仙市栗沢
0140714,秋田県,大仙市,大神成,アキタケン,ダイセンシ,オオカンナリ,秋田県大仙市大神成
0140801,秋田県,大仙市,戸地谷,アキタケン,ダイセンシ,トチヤ,秋田県大仙市戸地谷
0140802,秋田県,大仙市,払田,アキタケン,ダイセンシ,ホッタ,秋田県大仙市払田
0140803,秋田県,大仙市,上野田,アキタケン,ダイセンシ,コウズケタ,秋田県大仙市上野田
0140804,秋田県,大仙市,橋本,アキタケン,ダイセンシ,ハシモト,秋田県大仙市橋本
0140805,秋田県,大仙市,高梨,アキタケン,ダイセンシ,タカナシ,秋田県大仙市高梨
0141111,秋田県,仙北市,田沢湖岡崎,アキタケン,センボクシ,タザワコオカザキ,秋田県仙北市田沢湖岡崎
0141112,秋田県,仙北市,田沢湖梅沢,アキタケン,センボクシ,タザワコウメザワ,秋田県仙北市田沢湖梅沢
0141113,秋田県,仙北市,田沢湖卒田,アキタケン,センボクシ,タザワコソツダ,秋田県仙北市田沢湖卒田
0141114,秋田県,仙北市,田沢湖神代,アキタケン,センボクシ,タザワコジンダイ,秋田県仙北市田沢湖神代
0141115,秋田県,仙北市,田沢湖小松,アキタケン,センボクシ,タザワココマツ,秋田県仙北市田沢湖小松
0141116,秋田県,仙北市,田沢湖角館東前郷,アキタケン,センボクシ,タザワコカクノダテヒガシマエゴウ,秋田県仙北市田沢湖角館東前郷
0141201,秋田県,仙北市,田沢湖生保内,アキタケン,センボクシ,タザワコオボナイ,秋田県仙北市田沢湖生保内
0141202,秋田県,仙北市,田沢湖刺巻,アキタケン,センボクシ,タザワコサシマキ,秋田県仙北市田沢湖刺巻
0141203,秋田県,仙北市,田沢湖潟,アキタケン,センボクシ,タザワコカタ,秋田県仙北市田沢湖潟
0141204,秋田県,仙北市,田沢湖田沢,アキタケン,センボクシ,タザワコタザワ,秋田県仙北市田沢湖田沢
0141205,秋田県,仙北市,田沢湖玉川,アキタケン,センボクシ,タザワコタマガワ,秋田県仙北市田沢湖玉川
0141411,秋田県,大仙市,六郷西根,アキタケン,ダイセンシ,ロクゴウニシネ,秋田県大仙市六郷西根
0141412,秋田県,大仙市,藤木,アキタケン,ダイセンシ,フジキ,秋田県大仙市藤木
0141413,秋田県,大仙市,角間川町,アキタケン,ダイセンシ,カクマガワマチ,秋田県大仙市角間川町
0150000,秋田県,由利本荘市,,アキタケン,ユリホンジョウシ,,秋田県由利本荘市
0150011,秋田県,由利本荘市,石脇（その他）,アキタケン,ユリホンジョウシ,イシワキ(ソノタ),秋田県由利本荘市石脇（その他）
0150012,秋田県,由利本荘市,石脇（田尻）,アキタケン,ユリホンジョウシ,イシワキ(タジリ),秋田県由利本荘市石脇（田尻）
0150013,秋田県,由利本荘市,石脇（田尻野）,アキタケン,ユリホンジョウシ,イシワキ(タジリノ),秋田県由利本荘市石脇（田尻野）
0150014,秋田県,由利本荘市,石脇（山ノ神）,アキタケン,ユリホンジョウシ,イシワキ(ヤマノカミ),秋田県由利本荘市石脇（山ノ神）
0150021,秋田県,由利本荘市,大浦,アキタケン,ユリホンジョウシ,オオラ,秋田県由利本荘市大浦
0150022,秋田県,由利本荘市,内黒瀬,アキタケン,ユリホンジョウシ,ウチクロセ,秋田県由利本荘市内黒瀬
0150023,秋田県,由利本荘市,赤田,アキタケン,ユリホンジョウシ,アカタ,秋田県由利本荘市赤田
0150024,秋田県,由利本荘市,内越,アキタケン,ユリホンジョウシ,ウテツ,秋田県由利本荘市内越
0150025,秋田県,由利本荘市,山田,アキタケン,ユリホンジョウシ,ヤマダ,秋田県由利本荘市山田
0150031,秋田県,由利本荘市,浜三川,アキタケン,ユリホンジョウシ,ハマサンカワ,秋田県由利本荘市浜三川
0150032,秋田県,由利本荘市,松ケ崎,アキタケン,ユリホンジョウシ,マツガサキ,秋田県由利本荘市松ケ崎
0150033,秋田県,由利本荘市,神沢,アキタケン,ユリホンジョウシ,シンノサワ,秋田県由利本荘市神沢
0150034,秋田県,由利本荘市,芦川,アキタケン,ユリホンジョウシ,アシカワ,秋田県由利本荘市芦川
0150035,秋田県,由利本荘市,親川,アキタケン,ユリホンジョウシ,オヤカワ,秋田県由利本荘市親川
0150041,秋田県,由利本荘市,薬師堂,アキタケン,ユリホンジョウシ,ヤクシドウ,秋田県由利本荘市薬師堂
0150042,秋田県,由利本荘市,埋田,アキタケン,ユリホンジョウシ,ウメダ,秋田県由利本荘市埋田
0150043,秋田県,由利本荘市,宮内,アキタケン,ユリホンジョウシ,ミヤウチ,秋田県由利本荘市宮内
0150044,秋田県,由利本荘市,玉ノ池,アキタケン,ユリホンジョウシ,タマノイケ,秋田県由利本荘市玉ノ池
0150045,秋田県,由利本荘市,葛法,アキタケン,ユリホンジョウシ,クズノリ,秋田県由利本荘市葛法
0150046,秋田県,由利本荘市,船岡,アキタケン,ユリホンジョウシ,フナオカ,秋田県由利本荘市船岡
0150047,秋田県,由利本荘市,藤崎,アキタケン,ユリホンジョウシ,フジサキ,秋田県由利本荘市藤崎
0150051,秋田県,由利本荘市,川口,アキタケン,ユリホンジョウシ,カワグチ,秋田県由利本荘市川口
0150052,秋田県,由利本荘市,畑谷,アキタケン,ユリホンジョウシ,ハタヤ,秋田県由利本荘市畑谷
0150053,秋田県,由利本荘市,福山,アキタケン,ユリホンジョウシ,フクヤマ,秋田県由利本荘市福山
0150054,秋田県,由利本荘市,土谷（谷地）,アキタケン,ユリホンジョウシ,ツチヤ(ヤチ),秋田県由利本荘市土谷（谷地）
0150055,秋田県,由利本荘市,土谷（その他）,アキタケン,ユリホンジョウシ,ツチヤ(ソノタ),秋田県由利本荘市土谷（その他）
0150061,秋田県,由利本荘市,二十六木,アキタケン,ユリホンジョウシ,トドロキ,秋田県由利本荘市二十六木
0150062,秋田県,由利本荘市,大中ノ沢,アキタケン,ユリホンジョウシ,オオナカノサワ,秋田県由利本荘市大中ノ沢
0150063,秋田県,由利本荘市,舘前,アキタケン,ユリホンジョウシ,タテマエ,秋田県由利本荘市舘前
0150064,秋田県,由利本荘市,万願寺,アキタケン,ユリホンジョウシ,マンガンジ,秋田県由利本荘市万願寺
0150065,秋田県,由利本荘市,荒町,アキタケン,ユリホンジョウシ,アラマチ,秋田県由利本荘市荒町
0150066,秋田県,由利本荘市,金山,アキタケン,ユリホンジョウシ,カネヤマ,秋田県由利本荘市金山
0150067,秋田県,由利本荘市,三条,アキタケン,ユリホンジョウシ,サンジョウ,秋田県由利本荘市三条
0150068,秋田県,由利本荘市,南ノ股,アキタケン,ユリホンジョウシ,ミナミノマタ,秋田県由利本荘市南ノ股
0150069,秋田県,由利本荘市,北ノ股,アキタケン,ユリホンジョウシ,キタノマタ,秋田県由利本荘市北ノ股
0150071,秋田県,由利本荘市,赤沼町,アキタケン,ユリホンジョウシ,アカヌママチ,秋田県由利本荘市赤沼町
0150072,秋田県,由利本荘市,裏尾崎町,アキタケン,ユリホンジョウシ,ウラオザキマチ,秋田県由利本荘市裏尾崎町
0150073,秋田県,由利本荘市,笹道,アキタケン,ユリホンジョウシ,ササミチ,秋田県由利本荘市笹道
0150074,秋田県,由利本荘市,桜小路,アキタケン,ユリホンジョウシ,サクラコウジ,秋田県由利本荘市桜小路
0150075,秋田県,由利本荘市,花畑町,アキタケン,ユリホンジョウシ,ハナバタマチ,秋田県由利本荘市花畑町
0150076,秋田県,由利本荘市,東町,アキタケン,ユリホンジョウシ,ヒガシマチ,秋田県由利本荘市東町
0150077,秋田県,由利本荘市,本田仲町,アキタケン,ユリホンジョウシ,ホンタナカマチ,秋田県由利本荘市本田仲町
0150078,秋田県,由利本荘市,谷地町,アキタケン,ユリホンジョウシ,ヤチマチ,秋田県由利本荘市谷地町
0150079,秋田県,由利本荘市,赤沼下道,アキタケン,ユリホンジョウシ,アカヌマシタミチ,秋田県由利本荘市赤沼下道
0150081,秋田県,由利本荘市,雪車町,アキタケン,ユリホンジョウシ,ソリマチ,秋田県由利本荘市雪車町
0150082,秋田県,由利本荘市,宮沢,アキタケン,ユリホンジョウシ,ミヤザワ,秋田県由利本荘市宮沢
0150083,秋田県,由利本荘市,滝ノ沢,アキタケン,ユリホンジョウシ,タキノサワ,秋田県由利本荘市滝ノ沢
0150084,秋田県,由利本荘市,鮎瀬,アキタケン,ユリホンジョウシ,アユセ,秋田県由利本荘市鮎瀬
0150085,秋田県,由利本荘市,烏川,アキタケン,ユリホンジョウシ,カラスカワ,秋田県由利本荘市烏川
0150086,秋田県,由利本荘市,舘,アキタケン,ユリホンジョウシ,タテ,秋田県由利本荘市舘
0150087,秋田県,由利本荘市,湯沢,アキタケン,ユリホンジョウシ,ユザワ,秋田県由利本荘市湯沢
0150088,秋田県,由利本荘市,柳生,アキタケン,ユリホンジョウシ,ヤギュウ,秋田県由利本荘市柳生
0150089,秋田県,由利本荘市,鳥田目,アキタケン,ユリホンジョウシ,トリタメ,秋田県由利本荘市鳥田目
0150091,秋田県,由利本荘市,大簗,アキタケン,ユリホンジョウシ,オオヤナ,秋田県由利本荘市大簗
0150092,秋田県,由利本荘市,山内（その他）,アキタケン,ユリホンジョウシ,ヤマウチ(ソノタ),秋田県由利本荘市山内（その他）
0150093,秋田県,由利本荘市,大沢,アキタケン,ユリホンジョウシ,オオサワ,秋田県由利本荘市大沢
0150094,秋田県,由利本荘市,上野,アキタケン,ユリホンジョウシ,ウワノ,秋田県由利本荘市上野
0150201,秋田県,由利本荘市,東由利法内,アキタケン,ユリホンジョウシ,ヒガシユリホウナイ,秋田県由利本荘市東由利法内
0150202,秋田県,由利本荘市,東由利蔵,アキタケン,ユリホンジョウシ,ヒガシユリクラ,秋田県由利本荘市東由利蔵
0150211,秋田県,由利本荘市,東由利老方,アキタケン,ユリホンジョウシ,ヒガシユリオイカタ,秋田県由利本荘市東由利老方
0150221,秋田県,由利本荘市,東由利舘合,アキタケン,ユリホンジョウシ,ヒガシユリタテアイ,秋田県由利本荘市東由利舘合
0150231,秋田県,由利本荘市,東由利黒渕,アキタケン,ユリホンジョウシ,ヒガシユリクロブチ,秋田県由利本荘市東由利黒渕
0150232,秋田県,由利本荘市,東由利田代,アキタケン,ユリホンジョウシ,ヒガシユリタシロ,秋田県由利本荘市東由利田代
0150241,秋田県,由利本荘市,東由利宿,アキタケン,ユリホンジョウシ,ヒガシユリシュク,秋田県由利本荘市東由利宿
0150242,秋田県,由利本荘市,東由利杉森,アキタケン,ユリホンジョウシ,ヒガシユリスギモリ,秋田県由利本荘市東由利杉森
0150243,秋田県,由利本荘市,山内（三ツ方森）,アキタケン,ユリホンジョウシ,ヤマウチ(ミツカタモリ),秋田県由利本荘市山内（三ツ方森）
0150301,秋田県,由利本荘市,飯沢,アキタケン,ユリホンジョウシ,イイザワ,秋田県由利本荘市飯沢
0150302,秋田県,由利本荘市,久保田,アキタケン,ユリホンジョウシ,クボタ,秋田県由利本荘市久保田
0150303,秋田県,由利本荘市,陳ケ森,アキタケン,ユリホンジョウシ,ジンガモリ,秋田県由利本荘市陳ケ森
0150304,秋田県,由利本荘市,曲沢,アキタケン,ユリホンジョウシ,マガリサワ,秋田県由利本荘市曲沢
0150311,秋田県,由利本荘市,五十土,アキタケン,ユリホンジョウシ,イカヅチ,秋田県由利本荘市五十土
0150312,秋田県,由利本荘市,大水口,アキタケン,ユリホンジョウシ,オオミナクチ,秋田県由利本荘市大水口
0150313,秋田県,由利本荘市,小菅野,アキタケン,ユリホンジョウシ,コスガノ,秋田県由利本荘市小菅野
0150314,秋田県,由利本荘市,東中沢,アキタケン,ユリホンジョウシ,ヒガシナカザワ,秋田県由利本荘市東中沢
0150321,秋田県,由利本荘市,蟹沢,アキタケン,ユリホンジョウシ,カニザワ,秋田県由利本荘市蟹沢
0150322,秋田県,由利本荘市,新上条,アキタケン,ユリホンジョウシ,シンカミジョウ,秋田県由利本荘市新上条
0150323,秋田県,由利本荘市,土倉,アキタケン,ユリホンジョウシ,ツチクラ,秋田県由利本荘市土倉
0150324,秋田県,由利本荘市,吉沢,アキタケン,ユリホンジョウシ,ヨシザワ,秋田県由利本荘市吉沢
0150331,秋田県,由利本荘市,川西,アキタケン,ユリホンジョウシ,カワニシ,秋田県由利本荘市川西
0150332,秋田県,由利本荘市,森子,アキタケン,ユリホンジョウシ,モリコ,秋田県由利本荘市森子
0150333,秋田県,由利本荘市,山本,アキタケン,ユリホンジョウシ,ヤマモト,秋田県由利本荘市山本
0150341,秋田県,由利本荘市,前郷,アキタケン,ユリホンジョウシ,マエゴウ,秋田県由利本荘市前郷
0150351,秋田県,由利本荘市,堰口,アキタケン,ユリホンジョウシ,セキグチ,秋田県由利本荘市堰口
0150352,秋田県,由利本荘市,西沢,アキタケン,ユリホンジョウシ,ニシサワ,秋田県由利本荘市西沢
0150353,秋田県,由利本荘市,平石,アキタケン,ユリホンジョウシ,ヒライシ,秋田県由利本荘市平石
0150361,秋田県,由利本荘市,黒沢,アキタケン,ユリホンジョウシ,クロサワ,秋田県由利本荘市黒沢
0150362,秋田県,由利本荘市,東鮎川,アキタケン,ユリホンジョウシ,ヒガシアユカワ,秋田県由利本荘市東鮎川
0150363,秋田県,由利本荘市,町村,アキタケン,ユリホンジョウシ,マチムラ,秋田県由利本荘市町村
0150364,秋田県,由利本荘市,南福田,アキタケン,ユリホンジョウシ,ミナミフクダ,秋田県由利本荘市南福田
0150401,秋田県,由利本荘市,矢島町田中町,アキタケン,ユリホンジョウシ,ヤシママチタナカマチ,秋田県由利本荘市矢島町田中町
0150402,秋田県,由利本荘市,矢島町矢島町,アキタケン,ユリホンジョウシ,ヤシママチヤシママチ,秋田県由利本荘市矢島町矢島町
0150403,秋田県,由利本荘市,矢島町舘町,アキタケン,ユリホンジョウシ,ヤシママチタテマチ,秋田県由利本荘市矢島町舘町
0150404,秋田県,由利本荘市,矢島町七日町,アキタケン,ユリホンジョウシ,ヤシママチナノカマチ,秋田県由利本荘市矢島町七日町
0150411,秋田県,由利本荘市,矢島町城内,アキタケン,ユリホンジョウシ,ヤシママチジョウナイ,秋田県由利本荘市矢島町城内
0150412,秋田県,由利本荘市,矢島町川辺,アキタケン,ユリホンジョウシ,ヤシママチカワベ,秋田県由利本荘市矢島町川辺
0150413,秋田県,由利本荘市,矢島町木在,アキタケン,ユリホンジョウシ,ヤシママチキサラ,秋田県由利本荘市矢島町木在
0150414,秋田県,由利本荘市,矢島町立石,アキタケン,ユリホンジョウシ,ヤシママチタテイシ,秋田県由利本荘市矢島町立石
0150415,秋田県,由利本荘市,矢島町新荘,アキタケン,ユリホンジョウシ,ヤシママチシンジョウ,秋田県由利本荘市矢島町新荘
0150416,秋田県,由利本荘市,矢島町坂之下,アキタケン,ユリホンジョウシ,ヤシママチサカノシタ,秋田県由利本荘市矢島町坂之下
0150417,秋田県,由利本荘市,矢島町元町,アキタケン,ユリホンジョウシ,ヤシママチモトマチ,秋田県由利本荘市矢島町元町
0150418,秋田県,由利本荘市,矢島町荒沢,アキタケン,ユリホンジョウシ,ヤシママチアラサワ,秋田県由利本荘市矢島町荒沢
0150501,秋田県,由利本荘市,鳥海町伏見,アキタケン,ユリホンジョウシ,チョウカイマチフシミ,秋田県由利本荘市鳥海町伏見
0150502,秋田県,由利本荘市,鳥海町下川内,アキタケン,ユリホンジョウシ,チョウカイマチシモカワウチ,秋田県由利本荘市鳥海町下川内
0150503,秋田県,由利本荘市,鳥海町栗沢,アキタケン,ユリホンジョウシ,チョウカイマチクリサワ,秋田県由利本荘市鳥海町栗沢
0150504,秋田県,由利本荘市,鳥海町上川内,アキタケン,ユリホンジョウシ,チョウカイマチカミカワウチ,秋田県由利本荘市鳥海町上川内
0150505,秋田県,由利本荘市,鳥海町小川,アキタケン,ユリホンジョウシ,チョウカイマチコガワ,秋田県由利本荘市鳥海町小川
0150511,秋田県,由利本荘市,鳥海町戈之神,アキタケン,ユリホンジョウシ,チョウカイマチサイノカミ,秋田県由利本荘市鳥海町戈之神
0150512,秋田県,由利本荘市,鳥海町猿倉,アキタケン,ユリホンジョウシ,チョウカイマチサルクラ,秋田県由利本荘市鳥海町猿倉
0150513,秋田県,由利本荘市,鳥海町下直根,アキタケン,ユリホンジョウシ,チョウカイマチシモヒタネ,秋田県由利本荘市鳥海町下直根
0150514,秋田県,由利本荘市,鳥海町中直根,アキタケン,ユリホンジョウシ,チョウカイマチナカヒタネ,秋田県由利本荘市鳥海町中直根
0150515,秋田県,由利本荘市,鳥海町上直根,アキタケン,ユリホンジョウシ,チョウカイマチカミヒタネ,秋田県由利本荘市鳥海町上直根
0150516,秋田県,由利本荘市,鳥海町百宅,アキタケン,ユリホンジョウシ,チョウカイマチモモヤケ,秋田県由利本荘市鳥海町百宅
0150721,秋田県,由利本荘市,鳥海町上笹子,アキタケン,ユリホンジョウシ,チョウカイマチカミジネゴ,秋田県由利本荘市鳥海町上笹子
0150722,秋田県,由利本荘市,鳥海町下笹子,アキタケン,ユリホンジョウシ,チョウカイマチシモジネゴ,秋田県由利本荘市鳥海町下笹子
0150801,秋田県,由利本荘市,美倉町,アキタケン,ユリホンジョウシ,ミクラマチ,秋田県由利本荘市美倉町
0150802,秋田県,由利本荘市,表尾崎町,アキタケン,ユリホンジョウシ,オモテオザキマチ,秋田県由利本荘市表尾崎町
0150803,秋田県,由利本荘市,中竪町,アキタケン,ユリホンジョウシ,ナカダテマチ,秋田県由利本荘市中竪町
0150804,秋田県,由利本荘市,谷山小路,アキタケン,ユリホンジョウシ,タニヤマコウジ,秋田県由利本荘市谷山小路
0150807,秋田県,由利本荘市,中横町,アキタケン,ユリホンジョウシ,ナカヨコマチ,秋田県由利本荘市中横町
0150808,秋田県,由利本荘市,大門,アキタケン,ユリホンジョウシ,ダイモン,秋田県由利本荘市大門
0150809,秋田県,由利本荘市,本荘,アキタケン,ユリホンジョウシ,ホンジョウ,秋田県由利本荘市本荘
0150811,秋田県,由利本荘市,桶屋町,アキタケン,ユリホンジョウシ,オケヤマチ,秋田県由利本荘市桶屋町
0150812,秋田県,由利本荘市,鍛治町,アキタケン,ユリホンジョウシ,カジマチ,秋田県由利本荘市鍛治町
0150813,秋田県,由利本荘市,日役町,アキタケン,ユリホンジョウシ,ヒキジマチ,秋田県由利本荘市日役町
0150814,秋田県,由利本荘市,後町,アキタケン,ユリホンジョウシ,ウシロマチ,秋田県由利本荘市後町
0150815,秋田県,由利本荘市,猟師町,アキタケン,ユリホンジョウシ,リョウシマチ,秋田県由利本荘市猟師町
0150816,秋田県,由利本荘市,大町,アキタケン,ユリホンジョウシ,オオマチ,秋田県由利本荘市大町
0150817,秋田県,由利本荘市,中町,アキタケン,ユリホンジョウシ,ナカマチ,秋田県由利本荘市中町
0150821,秋田県,由利本荘市,肴町,アキタケン,ユリホンジョウシ,サカナマチ,秋田県由利本荘市肴町
0150822,秋田県,由利本荘市,田町,アキタケン,ユリホンジョウシ,タマチ,秋田県由利本荘市田町
0150823,秋田県,由利本荘市,和泉町,アキタケン,ユリホンジョウシ,イズミマチ,秋田県由利本荘市和泉町
0150824,秋田県,由利本荘市,古雪町,アキタケン,ユリホンジョウシ,フルユキマチ,秋田県由利本荘市古雪町
0150825,秋田県,由利本荘市,観音町,アキタケン,ユリホンジョウシ,カンノンマチ,秋田県由利本荘市観音町
0150826,秋田県,由利本荘市,片町,アキタケン,ユリホンジョウシ,カタマチ,秋田県由利本荘市片町
0150827,秋田県,由利本荘市,浜ノ町,アキタケン,ユリホンジョウシ,ハマノマチ,秋田県由利本荘市浜ノ町
0150831,秋田県,由利本荘市,北裏地,アキタケン,ユリホンジョウシ,キタウラジ,秋田県由利本荘市北裏地
0150832,秋田県,由利本荘市,下川原中島,アキタケン,ユリホンジョウシ,シモカワハラナカジマ,秋田県由利本荘市下川原中島
0150833,秋田県,由利本荘市,巣組,アキタケン,ユリホンジョウシ,スグミ,秋田県由利本荘市巣組
0150834,秋田県,由利本荘市,岩渕下,アキタケン,ユリホンジョウシ,イワブチシタ,秋田県由利本荘市岩渕下
0150835,秋田県,由利本荘市,八幡下,アキタケン,ユリホンジョウシ,ハチマンシタ,秋田県由利本荘市八幡下
0150836,秋田県,由利本荘市,赤沼下,アキタケン,ユリホンジョウシ,アカヌマシタ,秋田県由利本荘市赤沼下
0150837,秋田県,由利本荘市,出戸町（赤沼下道）,アキタケン,ユリホンジョウシ,デトマチ(アカヌマシタミチ),秋田県由利本荘市出戸町（赤沼下道）
0150838,秋田県,由利本荘市,梵天谷地,アキタケン,ユリホンジョウシ,ボンテンヤチ,秋田県由利本荘市梵天谷地
0150839,秋田県,由利本荘市,古川端,アキタケン,ユリホンジョウシ,フルカワバタ,秋田県由利本荘市古川端
0150840,秋田県,由利本荘市,瀬越場,アキタケン,ユリホンジョウシ,セゴシバ,秋田県由利本荘市瀬越場
0150841,秋田県,由利本荘市,下大野,アキタケン,ユリホンジョウシ,シモオオノ,秋田県由利本荘市下大野
0150842,秋田県,由利本荘市,出戸上野,アキタケン,ユリホンジョウシ,デトウエノ,秋田県由利本荘市出戸上野
0150843,秋田県,由利本荘市,東梵天,アキタケン,ユリホンジョウシ,ヒガシボンテン,秋田県由利本荘市東梵天
0150851,秋田県,由利本荘市,中梵天,アキタケン,ユリホンジョウシ,ナカボンテン,秋田県由利本荘市中梵天
0150852,秋田県,由利本荘市,一番堰,アキタケン,ユリホンジョウシ,イチバンゼキ,秋田県由利本荘市一番堰
0150853,秋田県,由利本荘市,松街道,アキタケン,ユリホンジョウシ,マツカイドウ,秋田県由利本荘市松街道
0150854,秋田県,由利本荘市,上大野,アキタケン,ユリホンジョウシ,カミオオノ,秋田県由利本荘市上大野
0150855,秋田県,由利本荘市,二番堰,アキタケン,ユリホンジョウシ,ニバンゼキ,秋田県由利本荘市二番堰
0150856,秋田県,由利本荘市,円正脇,アキタケン,ユリホンジョウシ,エンショウワキ,秋田県由利本荘市円正脇
0150857,秋田県,由利本荘市,寺後,アキタケン,ユリホンジョウシ,テラウシロ,秋田県由利本荘市寺後
0150858,秋田県,由利本荘市,西梵天,アキタケン,ユリホンジョウシ,ニシボンテン,秋田県由利本荘市西梵天
0150861,秋田県,由利本荘市,御門,アキタケン,ユリホンジョウシ,ゴモン,秋田県由利本荘市御門
0150862,秋田県,由利本荘市,小人町,アキタケン,ユリホンジョウシ,コビトマチ,秋田県由利本荘市小人町
0150863,秋田県,由利本荘市,不戻沢,アキタケン,ユリホンジョウシ,フモドリサワ,秋田県由利本荘市不戻沢
0150864,秋田県,由利本荘市,大鍬町,アキタケン,ユリホンジョウシ,オオクワマチ,秋田県由利本荘市大鍬町
0150865,秋田県,由利本荘市,西大鍬町,アキタケン,ユリホンジョウシ,ニシオオクワマチ,秋田県由利本荘市西大鍬町
0150866,秋田県,由利本荘市,堤脇,アキタケン,ユリホンジョウシ,ツツミワキ,秋田県由利本荘市堤脇
0150867,秋田県,由利本荘市,千刈,アキタケン,ユリホンジョウシ,センガリ,秋田県由利本荘市千刈
0150868,秋田県,由利本荘市,大堤下,アキタケン,ユリホンジョウシ,オオヅツミシタ,秋田県由利本荘市大堤下
0150869,秋田県,由利本荘市,陳場岱,アキタケン,ユリホンジョウシ,ジンバダイ,秋田県由利本荘市陳場岱
0150871,秋田県,由利本荘市,尾崎,アキタケン,ユリホンジョウシ,オザキ,秋田県由利本荘市尾崎
0150872,秋田県,由利本荘市,瓦谷地,アキタケン,ユリホンジョウシ,カワラヤチ,秋田県由利本荘市瓦谷地
0150873,秋田県,由利本荘市,鶴沼,アキタケン,ユリホンジョウシ,ツルヌマ,秋田県由利本荘市鶴沼
0150874,秋田県,由利本荘市,給人町,アキタケン,ユリホンジョウシ,キュウジンチョウ,秋田県由利本荘市給人町
0150875,秋田県,由利本荘市,砂子下,アキタケン,ユリホンジョウシ,スナゴシタ,秋田県由利本荘市砂子下
0150876,秋田県,由利本荘市,井戸尻,アキタケン,ユリホンジョウシ,イドジリ,秋田県由利本荘市井戸尻
0150877,秋田県,由利本荘市,濡浜北,アキタケン,ユリホンジョウシ,ヌレハマキタ,秋田県由利本荘市濡浜北
0150878,秋田県,由利本荘市,観音森,アキタケン,ユリホンジョウシ,カンノンモリ,秋田県由利本荘市観音森
0150881,秋田県,由利本荘市,切通,アキタケン,ユリホンジョウシ,キリドオシ,秋田県由利本荘市切通
0150882,秋田県,由利本荘市,西小人町,アキタケン,ユリホンジョウシ,ニシコビトマチ,秋田県由利本荘市西小人町
0150883,秋田県,由利本荘市,下地ケ沢,アキタケン,ユリホンジョウシ,ゲチガサワ,秋田県由利本荘市下地ケ沢
0150884,秋田県,由利本荘市,狐森,アキタケン,ユリホンジョウシ,キツネモリ,秋田県由利本荘市狐森
0150885,秋田県,由利本荘市,水林,アキタケン,ユリホンジョウシ,ミズバヤシ,秋田県由利本荘市水林
0150886,秋田県,由利本荘市,調練場,アキタケン,ユリホンジョウシ,チョウレンバ,秋田県由利本荘市調練場
0150887,秋田県,由利本荘市,今野谷地,アキタケン,ユリホンジョウシ,コンノヤチ,秋田県由利本荘市今野谷地
0150888,秋田県,由利本荘市,新組町,アキタケン,ユリホンジョウシ,シンクミチョウ,秋田県由利本荘市新組町
0150889,秋田県,由利本荘市,砂糖畑,アキタケン,ユリホンジョウシ,サトウバタケ,秋田県由利本荘市砂糖畑
0150890,秋田県,由利本荘市,船ケ台,アキタケン,ユリホンジョウシ,フナガダイ,秋田県由利本荘市船ケ台
0150891,秋田県,由利本荘市,小防ケ沢,アキタケン,ユリホンジョウシ,コボウガサワ,秋田県由利本荘市小防ケ沢
0150892,秋田県,由利本荘市,蟻山,アキタケン,ユリホンジョウシ,アリヤマ,秋田県由利本荘市蟻山
0160000,秋田県,能代市,,アキタケン,ノシロシ,,秋田県能代市
0160001,秋田県,能代市,外荒巻,アキタケン,ノシロシ,ソトアラマキ,秋田県能代市外荒巻
0160002,秋田県,能代市,朴瀬,アキタケン,ノシロシ,ホノキセ,秋田県能代市朴瀬
0160003,秋田県,能代市,荷八田,アキタケン,ノシロシ,ニハタ,秋田県能代市荷八田
0160004,秋田県,能代市,吹越,アキタケン,ノシロシ,フッコシ,秋田県能代市吹越
0160005,秋田県,能代市,真壁地,アキタケン,ノシロシ,マカベチ,秋田県能代市真壁地
0160011,秋田県,能代市,坂形,アキタケン,ノシロシ,サカガタ,秋田県能代市坂形
0160012,秋田県,能代市,比八田,アキタケン,ノシロシ,ヒハタ,秋田県能代市比八田
0160013,秋田県,能代市,向能代,アキタケン,ノシロシ,ムカイノシロ,秋田県能代市向能代
0160014,秋田県,能代市,落合,アキタケン,ノシロシ,オチアイ,秋田県能代市落合
0160015,秋田県,能代市,須田,アキタケン,ノシロシ,スダ,秋田県能代市須田
0160016,秋田県,能代市,竹生,アキタケン,ノシロシ,タコウ,秋田県能代市竹生
0160017,秋田県,能代市,磐,アキタケン,ノシロシ,イワオ,秋田県能代市磐
0160101,秋田県,能代市,中関,アキタケン,ノシロシ,ナカセキ,秋田県能代市中関
0160102,秋田県,能代市,一本木,アキタケン,ノシロシ,イッポンギ,秋田県能代市一本木
0160103,秋田県,能代市,宮ノ前,アキタケン,ノシロシ,ミヤノマエ,秋田県能代市宮ノ前
0160104,秋田県,能代市,下関,アキタケン,ノシロシ,シモセキ,秋田県能代市下関
0160111,秋田県,能代市,仁井田白山,アキタケン,ノシロシ,ニイダシロヤマ,秋田県能代市仁井田白山
0160112,秋田県,能代市,中嶋（その他）,アキタケン,ノシロシ,ナカジマ(ソノタ),秋田県能代市中嶋（その他）
0160113,秋田県,能代市,下悪戸,アキタケン,ノシロシ,シモアクド,秋田県能代市下悪戸
0160114,秋田県,能代市,中悪戸,アキタケン,ノシロシ,ナカアクド,秋田県能代市中悪戸
0160115,秋田県,能代市,悪戸,アキタケン,ノシロシ,アクド,秋田県能代市悪戸
0160116,秋田県,能代市,機織轌ノ目,アキタケン,ノシロシ,ハタオリソリノメ,秋田県能代市機織轌ノ目
0160121,秋田県,能代市,鰄渕,アキタケン,ノシロシ,カイラゲフチ,秋田県能代市鰄渕
0160122,秋田県,能代市,扇田,アキタケン,ノシロシ,オウギダ,秋田県能代市扇田
0160123,秋田県,能代市,田床内,アキタケン,ノシロシ,タドコナイ,秋田県能代市田床内
0160131,秋田県,能代市,鶴形,アキタケン,ノシロシ,ツルガタ,秋田県能代市鶴形
0160132,秋田県,能代市,町後,アキタケン,ノシロシ,マチウシロ,秋田県能代市町後
0160133,秋田県,能代市,向田表,アキタケン,ノシロシ,ムカイタオモテ,秋田県能代市向田表
0160134,秋田県,能代市,戸草沢,アキタケン,ノシロシ,トクサザワ,秋田県能代市戸草沢
0160135,秋田県,能代市,姥懐,アキタケン,ノシロシ,ウバフトコロ,秋田県能代市姥懐
0160136,秋田県,能代市,鵜鳥,アキタケン,ノシロシ,ウトリ,秋田県能代市鵜鳥
0160137,秋田県,能代市,鵜鳥悪戸,アキタケン,ノシロシ,ウドリアクド,秋田県能代市鵜鳥悪戸
0160138,秋田県,能代市,鵜鳥川原,アキタケン,ノシロシ,ウドリガワラ,秋田県能代市鵜鳥川原
0160139,秋田県,能代市,谷地上,アキタケン,ノシロシ,ヤチウエ,秋田県能代市谷地上
0160141,秋田県,能代市,鵜ノ沢,アキタケン,ノシロシ,ウノサワ,秋田県能代市鵜ノ沢
0160142,秋田県,能代市,半戸沢,アキタケン,ノシロシ,ハントザワ,秋田県能代市半戸沢
0160143,秋田県,能代市,上ノ山,アキタケン,ノシロシ,ウエノヤマ,秋田県能代市上ノ山
0160144,秋田県,能代市,上ノ山台,アキタケン,ノシロシ,ウエノヤマダイ,秋田県能代市上ノ山台
0160145,秋田県,能代市,若田,アキタケン,ノシロシ,ワカタ,秋田県能代市若田
0160146,秋田県,能代市,外堤,アキタケン,ノシロシ,ソトツツミ,秋田県能代市外堤
0160147,秋田県,能代市,鳥矢場,アキタケン,ノシロシ,トヤバ,秋田県能代市鳥矢場
0160148,秋田県,能代市,冷清水,アキタケン,ノシロシ,ヒヤシミズ,秋田県能代市冷清水
0160149,秋田県,能代市,田中谷地,アキタケン,ノシロシ,タナカヤチ,秋田県能代市田中谷地
0160151,秋田県,能代市,檜山,アキタケン,ノシロシ,ヒヤマ,秋田県能代市檜山
0160152,秋田県,能代市,母体,アキタケン,ノシロシ,モタイ,秋田県能代市母体
0160153,秋田県,能代市,上関,アキタケン,ノシロシ,カミセキ,秋田県能代市上関
0160154,秋田県,能代市,上谷地,アキタケン,ノシロシ,カミヤチ,秋田県能代市上谷地
0160155,秋田県,能代市,大森,アキタケン,ノシロシ,オオモリ,秋田県能代市大森
0160156,秋田県,能代市,中沢,アキタケン,ノシロシ,ナカザワ,秋田県能代市中沢
0160157,秋田県,能代市,腹鞁ノ沢,アキタケン,ノシロシ,ハラガイノサワ,秋田県能代市腹鞁ノ沢
0160161,秋田県,能代市,松長布,アキタケン,ノシロシ,マツナガシキ,秋田県能代市松長布
0160162,秋田県,能代市,大内田,アキタケン,ノシロシ,オオウチダ,秋田県能代市大内田
0160163,秋田県,能代市,袖又,アキタケン,ノシロシ,ソデマタ,秋田県能代市袖又
0160164,秋田県,能代市,大塚,アキタケン,ノシロシ,オオツカ,秋田県能代市大塚
0160165,秋田県,能代市,田屋,アキタケン,ノシロシ,タヤ,秋田県能代市田屋
0160166,秋田県,能代市,柏子所,アキタケン,ノシロシ,カシコドコロ,秋田県能代市柏子所
0160167,秋田県,能代市,塩干田,アキタケン,ノシロシ,シオカラダ,秋田県能代市塩干田
0160167,秋田県,能代市,塩干田前,アキタケン,ノシロシ,シオカラダマエ,秋田県能代市塩干田前
0160168,秋田県,能代市,十洲崎,アキタケン,ノシロシ,ジッシュウザキ,秋田県能代市十洲崎
0160169,秋田県,能代市,坊ケ崎,アキタケン,ノシロシ,ボウガサキ,秋田県能代市坊ケ崎
0160171,秋田県,能代市,河戸川,アキタケン,ノシロシ,カワトガワ,秋田県能代市河戸川
0160172,秋田県,能代市,上古川布,アキタケン,ノシロシ,カミフルカワシキ,秋田県能代市上古川布
0160173,秋田県,能代市,下古川布,アキタケン,ノシロシ,シモフルカワシキ,秋田県能代市下古川布
0160174,秋田県,能代市,新山前,アキタケン,ノシロシ,シンザンマエ,秋田県能代市新山前
0160175,秋田県,能代市,古屋布,アキタケン,ノシロシ,フルヤシキ,秋田県能代市古屋布
0160176,秋田県,能代市,戸川向,アキタケン,ノシロシ,トガワムカイ,秋田県能代市戸川向
0160177,秋田県,能代市,権現台,アキタケン,ノシロシ,ゴンゲンダイ,秋田県能代市権現台
0160178,秋田県,能代市,九郎左衛門笹台,アキタケン,ノシロシ,クロウザエモンササダイ,秋田県能代市九郎左衛門笹台
0160179,秋田県,能代市,浅内,アキタケン,ノシロシ,アサナイ,秋田県能代市浅内
0160181,秋田県,能代市,大瀬儘下,アキタケン,ノシロシ,オオセママシタ,秋田県能代市大瀬儘下
0160182,秋田県,能代市,上柳,アキタケン,ノシロシ,カミヤナギ,秋田県能代市上柳
0160183,秋田県,能代市,中柳,アキタケン,ノシロシ,ナカヤナギ,秋田県能代市中柳
0160184,秋田県,能代市,高塙,アキタケン,ノシロシ,タカハナ,秋田県能代市高塙
0160185,秋田県,能代市,下瀬,アキタケン,ノシロシ,シモセ,秋田県能代市下瀬
0160186,秋田県,能代市,下野,アキタケン,ノシロシ,シモノ,秋田県能代市下野
0160187,秋田県,能代市,下柳,アキタケン,ノシロシ,シモヤナギ,秋田県能代市下柳
0160188,秋田県,能代市,寺向,アキタケン,ノシロシ,テラムカイ,秋田県能代市寺向
0160801,秋田県,能代市,浜通町,アキタケン,ノシロシ,ハマドオリマチ,秋田県能代市浜通町
0160802,秋田県,能代市,川反町,アキタケン,ノシロシ,カワバタマチ,秋田県能代市川反町
0160803,秋田県,能代市,大町,アキタケン,ノシロシ,オオマチ,秋田県能代市大町
0160804,秋田県,能代市,万町,アキタケン,ノシロシ,アラマチ,秋田県能代市万町
0160805,秋田県,能代市,大手町,アキタケン,ノシロシ,オオテマチ,秋田県能代市大手町
0160806,秋田県,能代市,清助町,アキタケン,ノシロシ,セイスケマチ,秋田県能代市清助町
0160807,秋田県,能代市,大森山,アキタケン,ノシロシ,オオモリヤマ,秋田県能代市大森山
0160808,秋田県,能代市,日和山下,アキタケン,ノシロシ,ヒヨリヤマシタ,秋田県能代市日和山下
0160811,秋田県,能代市,日吉町,アキタケン,ノシロシ,ヒヨシマチ,秋田県能代市日吉町
0160812,秋田県,能代市,中嶋（１−９７〜１１６）,アキタケン,ノシロシ,ナカジマ(1-97-116),秋田県能代市中嶋（1-97〜116）
0160813,秋田県,能代市,能代町,アキタケン,ノシロシ,ノシロマチ,秋田県能代市能代町
0160814,秋田県,能代市,中川原,アキタケン,ノシロシ,ナカガワラ,秋田県能代市中川原
0160815,秋田県,能代市,御指南町,アキタケン,ノシロシ,ゴシナンマチ,秋田県能代市御指南町
0160816,秋田県,能代市,富町,アキタケン,ノシロシ,トミマチ,秋田県能代市富町
0160817,秋田県,能代市,上町,アキタケン,ノシロシ,カンマチ,秋田県能代市上町
0160821,秋田県,能代市,畠町,アキタケン,ノシロシ,ハタマチ,秋田県能代市畠町
0160822,秋田県,能代市,東町,アキタケン,ノシロシ,ヒガシマチ,秋田県能代市東町
0160823,秋田県,能代市,若松町,アキタケン,ノシロシ,ワカマツチョウ,秋田県能代市若松町
0160824,秋田県,能代市,住吉町,アキタケン,ノシロシ,スミヨシマチ,秋田県能代市住吉町
0160825,秋田県,能代市,柳町,アキタケン,ノシロシ,ヤナギマチ,秋田県能代市柳町
0160831,秋田県,能代市,元町,アキタケン,ノシロシ,モトマチ,秋田県能代市元町
0160832,秋田県,能代市,南元町,アキタケン,ノシロシ,ミナミモトマチ,秋田県能代市南元町
0160833,秋田県,能代市,明治町,アキタケン,ノシロシ,メイジマチ,秋田県能代市明治町
0160834,秋田県,能代市,下内崎,アキタケン,ノシロシ,ゲナイザキ,秋田県能代市下内崎
0160835,秋田県,能代市,赤沼,アキタケン,ノシロシ,アカヌマ,秋田県能代市赤沼
0160836,秋田県,能代市,東赤沼,アキタケン,ノシロシ,ヒガシアカヌマ,秋田県能代市東赤沼
0160837,秋田県,能代市,西赤沼,アキタケン,ノシロシ,ニシアカヌマ,秋田県能代市西赤沼
0160838,秋田県,能代市,養蚕脇,アキタケン,ノシロシ,ヨウサンワキ,秋田県能代市養蚕脇
0160839,秋田県,能代市,東大瀬,アキタケン,ノシロシ,ヒガシオオセ,秋田県能代市東大瀬
0160841,秋田県,能代市,養蚕,アキタケン,ノシロシ,ヨウサン,秋田県能代市養蚕
0160842,秋田県,能代市,追分町,アキタケン,ノシロシ,オイワケマチ,秋田県能代市追分町
0160843,秋田県,能代市,中和,アキタケン,ノシロシ,チュウワ,秋田県能代市中和
0160844,秋田県,能代市,花園町,アキタケン,ノシロシ,ハナゾノマチ,秋田県能代市花園町
0160845,秋田県,能代市,通町,アキタケン,ノシロシ,トオリマチ,秋田県能代市通町
0160846,秋田県,能代市,栄町,アキタケン,ノシロシ,サカエマチ,秋田県能代市栄町
0160851,秋田県,能代市,緑町,アキタケン,ノシロシ,ミドリマチ,秋田県能代市緑町
0160852,秋田県,能代市,出戸本町,アキタケン,ノシロシ,デトホンマチ,秋田県能代市出戸本町
0160853,秋田県,能代市,出戸後,アキタケン,ノシロシ,デトウシロ,秋田県能代市出戸後
0160854,秋田県,能代市,豊祥岱,アキタケン,ノシロシ,ホウショウダイ,秋田県能代市豊祥岱
0160855,秋田県,能代市,西大瀬,アキタケン,ノシロシ,ニシオオセ,秋田県能代市西大瀬
0160856,秋田県,能代市,藤山,アキタケン,ノシロシ,フジヤマ,秋田県能代市藤山
0160857,秋田県,能代市,田子向,アキタケン,ノシロシ,タコムカイ,秋田県能代市田子向
0160861,秋田県,能代市,彩霞長根,アキタケン,ノシロシ,サイカナガネ,秋田県能代市彩霞長根
0160862,秋田県,能代市,寿域長根,アキタケン,ノシロシ,ジュイキナガネ,秋田県能代市寿域長根
0160863,秋田県,能代市,後谷地,アキタケン,ノシロシ,ウシロヤチ,秋田県能代市後谷地
0160864,秋田県,能代市,鳥小屋,アキタケン,ノシロシ,トリゴヤ,秋田県能代市鳥小屋
0160865,秋田県,能代市,青葉町,アキタケン,ノシロシ,アオバマチ,秋田県能代市青葉町
0160871,秋田県,能代市,昇平岱,アキタケン,ノシロシ,ショウヘイダイ,秋田県能代市昇平岱
0160872,秋田県,能代市,芝童森,アキタケン,ノシロシ,シドウモリ,秋田県能代市芝童森
0160873,秋田県,能代市,長崎,アキタケン,ノシロシ,ナガサキ,秋田県能代市長崎
0160874,秋田県,能代市,沼ノ上,アキタケン,ノシロシ,ヌマノウエ,秋田県能代市沼ノ上
0160875,秋田県,能代市,南陽崎,アキタケン,ノシロシ,ナンヨウザキ,秋田県能代市南陽崎
0160876,秋田県,能代市,海詠坂,アキタケン,ノシロシ,カイエイザカ,秋田県能代市海詠坂
0160877,秋田県,能代市,仙遊長根,アキタケン,ノシロシ,センユウナガネ,秋田県能代市仙遊長根
0160878,秋田県,能代市,臥竜山,アキタケン,ノシロシ,ガリュウザン,秋田県能代市臥竜山
0160879,秋田県,能代市,不老岱,アキタケン,ノシロシ,フロウダイ,秋田県能代市不老岱
0160881,秋田県,能代市,砂留山,アキタケン,ノシロシ,スナドメヤマ,秋田県能代市砂留山
0160882,秋田県,能代市,鳳凰岱,アキタケン,ノシロシ,ホウオウダイ,秋田県能代市鳳凰岱
0160883,秋田県,能代市,五雲岱,アキタケン,ノシロシ,ゴウンダイ,秋田県能代市五雲岱
0160884,秋田県,能代市,卸町,アキタケン,ノシロシ,オロシマチ,秋田県能代市卸町
0160891,秋田県,能代市,西通町,アキタケン,ノシロシ,ニシドオリマチ,秋田県能代市西通町
0160892,秋田県,能代市,景林町,アキタケン,ノシロシ,ケイリンマチ,秋田県能代市景林町
0160893,秋田県,能代市,松美町,アキタケン,ノシロシ,マツミマチ,秋田県能代市松美町
0160894,秋田県,能代市,萩の台,アキタケン,ノシロシ,ハギノダイ,秋田県能代市萩の台
0160895,秋田県,能代市,末広町,アキタケン,ノシロシ,スエヒロマチ,秋田県能代市末広町
0160896,秋田県,能代市,盤若町,アキタケン,ノシロシ,ハンニャマチ,秋田県能代市盤若町
0160897,秋田県,能代市,昭南町,アキタケン,ノシロシ,ショウナンマチ,秋田県能代市昭南町
0170000,秋田県,大館市,,アキタケン,オオダテシ,,秋田県大館市
0170001,秋田県,大館市,長走,アキタケン,オオダテシ,ナガバシリ,秋田県大館市長走
0170002,秋田県,大館市,白沢,アキタケン,オオダテシ,シラサワ,秋田県大館市白沢
0170003,秋田県,大館市,橋桁,アキタケン,オオダテシ,ハシゲタ,秋田県大館市橋桁
0170004,秋田県,大館市,粕田,アキタケン,オオダテシ,カスダ,秋田県大館市粕田
0170005,秋田県,大館市,花岡町,アキタケン,オオダテシ,ハナオカマチ,秋田県大館市花岡町
0170011,秋田県,大館市,商人留,アキタケン,オオダテシ,アキヒトドメ,秋田県大館市商人留
0170012,秋田県,大館市,釈迦内,アキタケン,オオダテシ,シャカナイ,秋田県大館市釈迦内
0170014,秋田県,大館市,小釈迦内道上,アキタケン,オオダテシ,コシャカナイミチウエ,秋田県大館市小釈迦内道上
0170015,秋田県,大館市,小釈迦内道下,アキタケン,オオダテシ,コシャカナイミチシタ,秋田県大館市小釈迦内道下
0170021,秋田県,大館市,雪沢,アキタケン,オオダテシ,ユキサワ,秋田県大館市雪沢
0170022,秋田県,大館市,茂内,アキタケン,オオダテシ,シゲナイ,秋田県大館市茂内
0170023,秋田県,大館市,東,アキタケン,オオダテシ,アズマ,秋田県大館市東
0170024,秋田県,大館市,大茂内,アキタケン,オオダテシ,オオシゲナイ,秋田県大館市大茂内
0170025,秋田県,大館市,芦田子,アキタケン,オオダテシ,アシダコ,秋田県大館市芦田子
0170026,秋田県,大館市,二ツ屋境,アキタケン,オオダテシ,フタツヤサカイ,秋田県大館市二ツ屋境
0170031,秋田県,大館市,上代野,アキタケン,オオダテシ,カミダイノ,秋田県大館市上代野
0170032,秋田県,大館市,新綱,アキタケン,オオダテシ,ニイヅナ,秋田県大館市新綱
0170033,秋田県,大館市,下綱,アキタケン,オオダテシ,シモツナ,秋田県大館市下綱
0170034,秋田県,大館市,下代野,アキタケン,オオダテシ,シモダイノ,秋田県大館市下代野
0170035,秋田県,大館市,代野,アキタケン,オオダテシ,ダイノ,秋田県大館市代野
0170036,秋田県,大館市,二本杉後,アキタケン,オオダテシ,ニホンスギウシロ,秋田県大館市二本杉後
0170037,秋田県,大館市,清水堰合,アキタケン,オオダテシ,シミズセキアイ,秋田県大館市清水堰合
0170041,秋田県,大館市,大田面,アキタケン,オオダテシ,オオタオモテ,秋田県大館市大田面
0170042,秋田県,大館市,観音堂,アキタケン,オオダテシ,カンノンドウ,秋田県大館市観音堂
0170043,秋田県,大館市,有浦,アキタケン,オオダテシ,アリウラ,秋田県大館市有浦
0170044,秋田県,大館市,御成町,アキタケン,オオダテシ,オナリチョウ,秋田県大館市御成町
0170045,秋田県,大館市,中道,アキタケン,オオダテシ,ナカミチ,秋田県大館市中道
0170046,秋田県,大館市,清水,アキタケン,オオダテシ,シミズ,秋田県大館市清水
0170051,秋田県,大館市,松峰,アキタケン,オオダテシ,マツミネ,秋田県大館市松峰
0170052,秋田県,大館市,松木,アキタケン,オオダテシ,マツキ,秋田県大館市松木
0170053,秋田県,大館市,板子石境,アキタケン,オオダテシ,イタコイシザカイ,秋田県大館市板子石境
0170054,秋田県,大館市,松館,アキタケン,オオダテシ,マツダテ,秋田県大館市松館
0170055,秋田県,大館市,沼館道上,アキタケン,オオダテシ,ヌマタテミチウエ,秋田県大館市沼館道上
0170056,秋田県,大館市,沼館道南,アキタケン,オオダテシ,ヌマタテミチミナミ,秋田県大館市沼館道南
0170057,秋田県,大館市,沼館,アキタケン,オオダテシ,ヌマダテ,秋田県大館市沼館
0170200,秋田県,鹿角郡小坂町,,アキタケン,カヅノグンコサカマチ,,秋田県鹿角郡小坂町
0170201,秋田県,鹿角郡小坂町,小坂,アキタケン,カヅノグンコサカマチ,コサカ,秋田県鹿角郡小坂町小坂
0170202,秋田県,鹿角郡小坂町,小坂鉱山,アキタケン,カヅノグンコサカマチ,コサカコウザン,秋田県鹿角郡小坂町小坂鉱山
0170203,秋田県,鹿角郡小坂町,上向,アキタケン,カヅノグンコサカマチ,ウワムキ,秋田県鹿角郡小坂町上向
0170204,秋田県,鹿角郡小坂町,荒谷,アキタケン,カヅノグンコサカマチ,アラヤ,秋田県鹿角郡小坂町荒谷
0170205,秋田県,鹿角郡小坂町,大地,アキタケン,カヅノグンコサカマチ,ダイチ,秋田県鹿角郡小坂町大地
0170801,秋田県,大館市,一本杉,アキタケン,オオダテシ,イッポンスギ,秋田県大館市一本杉
0170802,秋田県,大館市,長根山下,アキタケン,オオダテシ,ナガネヤマシタ,秋田県大館市長根山下
0170803,秋田県,大館市,東台,アキタケン,オオダテシ,ヒガシダイ,秋田県大館市東台
0170804,秋田県,大館市,柄沢,アキタケン,オオダテシ,カラサワ,秋田県大館市柄沢
0170805,秋田県,大館市,扇田道下,アキタケン,オオダテシ,オウギダミチシタ,秋田県大館市扇田道下
0170806,秋田県,大館市,相染沢中岱,アキタケン,オオダテシ,アイゾメサワナカタイ,秋田県大館市相染沢中岱
0170811,秋田県,大館市,八幡,アキタケン,オオダテシ,ハチマン,秋田県大館市八幡
0170812,秋田県,大館市,金坂,アキタケン,オオダテシ,カネザカ,秋田県大館市金坂
0170813,秋田県,大館市,金坂後,アキタケン,オオダテシ,カネザカウシロ,秋田県大館市金坂後
0170814,秋田県,大館市,赤館町,アキタケン,オオダテシ,アカダテチョウ,秋田県大館市赤館町
0170815,秋田県,大館市,部垂町,アキタケン,オオダテシ,ヘダレマチ,秋田県大館市部垂町
0170816,秋田県,大館市,赤館,アキタケン,オオダテシ,アカダテ,秋田県大館市赤館
0170817,秋田県,大館市,上町,アキタケン,オオダテシ,ウワマチ,秋田県大館市上町
0170821,秋田県,大館市,桜町,アキタケン,オオダテシ,サクラチョウ,秋田県大館市桜町
0170822,秋田県,大館市,桜町南,アキタケン,オオダテシ,サクラチョウミナミ,秋田県大館市桜町南
0170823,秋田県,大館市,八幡沢岱,アキタケン,オオダテシ,ハチマンサワタイ,秋田県大館市八幡沢岱
0170824,秋田県,大館市,七曲岱,アキタケン,オオダテシ,ナナマガリタイ,秋田県大館市七曲岱
0170825,秋田県,大館市,一心院南,アキタケン,オオダテシ,イッシンインミナミ,秋田県大館市一心院南
0170826,秋田県,大館市,谷地町後,アキタケン,オオダテシ,ヤチマチウシロ,秋田県大館市谷地町後
0170827,秋田県,大館市,谷地町,アキタケン,オオダテシ,ヤチマチ,秋田県大館市谷地町
0170828,秋田県,大館市,向町,アキタケン,オオダテシ,ムカイマチ,秋田県大館市向町
0170831,秋田県,大館市,青葉町,アキタケン,オオダテシ,アオバチョウ,秋田県大館市青葉町
0170832,秋田県,大館市,池内道下,アキタケン,オオダテシ,イケナイミチシタ,秋田県大館市池内道下
0170833,秋田県,大館市,象ケ鼻,アキタケン,オオダテシ,ゾウガハナ,秋田県大館市象ケ鼻
0170834,秋田県,大館市,池内道上,アキタケン,オオダテシ,イケナイミチウエ,秋田県大館市池内道上
0170835,秋田県,大館市,小館花,アキタケン,オオダテシ,コダテハナ,秋田県大館市小館花
0170836,秋田県,大館市,池内,アキタケン,オオダテシ,イケナイ,秋田県大館市池内
0170837,秋田県,大館市,餌釣,アキタケン,オオダテシ,エツリ,秋田県大館市餌釣
0170838,秋田県,大館市,山館,アキタケン,オオダテシ,ヤマダテ,秋田県大館市山館
0170839,秋田県,大館市,中山,アキタケン,オオダテシ,ナカヤマ,秋田県大館市中山
0170841,秋田県,大館市,大町,アキタケン,オオダテシ,オオマチ,秋田県大館市大町
0170842,秋田県,大館市,馬喰町,アキタケン,オオダテシ,バクロウマチ,秋田県大館市馬喰町
0170843,秋田県,大館市,中町,アキタケン,オオダテシ,ナカマチ,秋田県大館市中町
0170844,秋田県,大館市,新町,アキタケン,オオダテシ,シンマチ,秋田県大館市新町
0170845,秋田県,大館市,泉町,アキタケン,オオダテシ,イズミチョウ,秋田県大館市泉町
0170846,秋田県,大館市,常盤木町,アキタケン,オオダテシ,トキワギチョウ,秋田県大館市常盤木町
0170847,秋田県,大館市,幸町,アキタケン,オオダテシ,サイワイチョウ,秋田県大館市幸町
0170851,秋田県,大館市,大披,アキタケン,オオダテシ,オオビラキ,秋田県大館市大披
0170852,秋田県,大館市,小袴,アキタケン,オオダテシ,コハカマ,秋田県大館市小袴
0170853,秋田県,大館市,板沢,アキタケン,オオダテシ,イタザワ,秋田県大館市板沢
0170854,秋田県,大館市,赤石,アキタケン,オオダテシ,アカイシ,秋田県大館市赤石
0170855,秋田県,大館市,櫃崎,アキタケン,オオダテシ,ヒツザキ,秋田県大館市櫃崎
0170857,秋田県,大館市,出川,アキタケン,オオダテシ,イデガワ,秋田県大館市出川
0170861,秋田県,大館市,小館町,アキタケン,オオダテシ,コタテチョウ,秋田県大館市小館町
0170862,秋田県,大館市,根下戸,アキタケン,オオダテシ,ネゲト,秋田県大館市根下戸
0170863,秋田県,大館市,根下戸町,アキタケン,オオダテシ,ネゲトチョウ,秋田県大館市根下戸町
0170864,秋田県,大館市,根下戸新町,アキタケン,オオダテシ,ネゲトシンマチ,秋田県大館市根下戸新町
0170865,秋田県,大館市,城西町,アキタケン,オオダテシ,ジョウセイチョウ,秋田県大館市城西町
0170866,秋田県,大館市,北神明町,アキタケン,オオダテシ,キタシンメイチョウ,秋田県大館市北神明町
0170867,秋田県,大館市,中神明町,アキタケン,オオダテシ,ナカシンメイチョウ,秋田県大館市中神明町
0170868,秋田県,大館市,南神明町,アキタケン,オオダテシ,ミナミシンメイチョウ,秋田県大館市南神明町
0170871,秋田県,大館市,片山,アキタケン,オオダテシ,カタヤマ,秋田県大館市片山
0170872,秋田県,大館市,片山町,アキタケン,オオダテシ,カタヤマチョウ,秋田県大館市片山町
0170873,秋田県,大館市,御坂,アキタケン,オオダテシ,ミサカ,秋田県大館市御坂
0170874,秋田県,大館市,美園町,アキタケン,オオダテシ,ミソノチョウ,秋田県大館市美園町
0170875,秋田県,大館市,住吉町,アキタケン,オオダテシ,スミヨシチョウ,秋田県大館市住吉町
0170876,秋田県,大館市,餅田,アキタケン,オオダテシ,モチタ,秋田県大館市餅田
0170877,秋田県,大館市,立花,アキタケン,オオダテシ,タテバナ,秋田県大館市立花
0170878,秋田県,大館市,川口,アキタケン,オオダテシ,カワグチ,秋田県大館市川口
0170881,秋田県,大館市,長木川南,アキタケン,オオダテシ,ナガキカワミナミ,秋田県大館市長木川南
0170882,秋田県,大館市,鉄砲場,アキタケン,オオダテシ,テッポウバ,秋田県大館市鉄砲場
0170883,秋田県,大館市,古川町,アキタケン,オオダテシ,フルカワマチ,秋田県大館市古川町
0170884,秋田県,大館市,土飛山下,アキタケン,オオダテシ,ドビヤマシタ,秋田県大館市土飛山下
0170885,秋田県,大館市,豊町,アキタケン,オオダテシ,ユタカチョウ,秋田県大館市豊町
0170886,秋田県,大館市,館下,アキタケン,オオダテシ,タテシタ,秋田県大館市館下
0170887,秋田県,大館市,水門町,アキタケン,オオダテシ,スイモンチョウ,秋田県大館市水門町
0170888,秋田県,大館市,水門前,アキタケン,オオダテシ,スイモンマエ,秋田県大館市水門前
0170891,秋田県,大館市,中城,アキタケン,オオダテシ,ナカジョウ,秋田県大館市中城
0170892,秋田県,大館市,片町,アキタケン,オオダテシ,カタマチ,秋田県大館市片町
0170893,秋田県,大館市,桂城,アキタケン,オオダテシ,ケイジョウ,秋田県大館市桂城
0170894,秋田県,大館市,裏町,アキタケン,オオダテシ,ウラマチ,秋田県大館市裏町
0170895,秋田県,大館市,長倉,アキタケン,オオダテシ,ナガクラ,秋田県大館市長倉
0170896,秋田県,大館市,大館,アキタケン,オオダテシ,オオダテ,秋田県大館市大館
0170897,秋田県,大館市,三ノ丸,アキタケン,オオダテシ,サンノマル,秋田県大館市三ノ丸
0180101,秋田県,にかほ市,象潟町浜山,アキタケン,ニカホシ,キサカタマチハマヤマ,秋田県にかほ市象潟町浜山
0180102,秋田県,にかほ市,象潟町木戸口,アキタケン,ニカホシ,キサカタマチキドグチ,秋田県にかほ市象潟町木戸口
0180103,秋田県,にかほ市,象潟町上狐森,アキタケン,ニカホシ,キサカタマチカミキツネモリ,秋田県にかほ市象潟町上狐森
0180104,秋田県,にかほ市,象潟町狐森,アキタケン,ニカホシ,キサカタマチキツネモリ,秋田県にかほ市象潟町狐森
0180105,秋田県,にかほ市,象潟町荒屋妻,アキタケン,ニカホシ,キサカタマチアラヤヅマ,秋田県にかほ市象潟町荒屋妻
0180106,秋田県,にかほ市,象潟町５丁目塩越,アキタケン,ニカホシ,キサカタマチ5チョウメシオコシ,秋田県にかほ市象潟町5-塩越
0180107,秋田県,にかほ市,象潟町荒屋下,アキタケン,ニカホシ,キサカタマチアラヤシタ,秋田県にかほ市象潟町荒屋下
0180108,秋田県,にかほ市,象潟町入湖の澗,アキタケン,ニカホシ,キサカタマチイリコノマ,秋田県にかほ市象潟町入湖の澗
0180109,秋田県,にかほ市,象潟町冠石下,アキタケン,ニカホシ,キサカタマチカンムリイシシタ,秋田県にかほ市象潟町冠石下
0180111,秋田県,にかほ市,象潟町武道島,アキタケン,ニカホシ,キサカタマチブドウジマ,秋田県にかほ市象潟町武道島
0180112,秋田県,にかほ市,象潟町家の後,アキタケン,ニカホシ,キサカタマチイエノウシロ,秋田県にかほ市象潟町家の後
0180113,秋田県,にかほ市,象潟町浜の田,アキタケン,ニカホシ,キサカタマチハマノタ,秋田県にかほ市象潟町浜の田
0180114,秋田県,にかほ市,象潟町沖の田,アキタケン,ニカホシ,キサカタマチオキノタ,秋田県にかほ市象潟町沖の田
0180115,秋田県,にかほ市,象潟町後田,アキタケン,ニカホシ,キサカタマチウシロダ,秋田県にかほ市象潟町後田
0180116,秋田県,にかほ市,象潟町４丁目塩越,アキタケン,ニカホシ,キサカタマチ4チョウメシオコシ,秋田県にかほ市象潟町4-塩越
0180117,秋田県,にかほ市,象潟町浜畑,アキタケン,ニカホシ,キサカタマチハマハタ,秋田県にかほ市象潟町浜畑
0180118,秋田県,にかほ市,象潟町２丁目塩越,アキタケン,ニカホシ,キサカタマチ2チョウメシオコシ,秋田県にかほ市象潟町2-塩越
0180119,秋田県,にかほ市,象潟町３丁目塩越,アキタケン,ニカホシ,キサカタマチ3チョウメシオコシ,秋田県にかほ市象潟町3-塩越
0180121,秋田県,にかほ市,象潟町大塩越,アキタケン,ニカホシ,キサカタマチオオシオコシ,秋田県にかほ市象潟町大塩越
0180122,秋田県,にかほ市,象潟町象潟島,アキタケン,ニカホシ,キサカタマチキサカタジマ,秋田県にかほ市象潟町象潟島
0180123,秋田県,にかほ市,象潟町妙見下,アキタケン,ニカホシ,キサカタマチミョウケンシタ,秋田県にかほ市象潟町妙見下
0180124,秋田県,にかほ市,象潟町入道島,アキタケン,ニカホシ,キサカタマチニュウドウジマ,秋田県にかほ市象潟町入道島
0180125,秋田県,にかほ市,象潟町二の丸,アキタケン,ニカホシ,キサカタマチニノマル,秋田県にかほ市象潟町二の丸
0180126,秋田県,にかほ市,象潟町１丁目塩越,アキタケン,ニカホシ,キサカタマチ1チョウメシオコシ,秋田県にかほ市象潟町1-塩越
0180127,秋田県,にかほ市,象潟町中橋町,アキタケン,ニカホシ,キサカタマチナカバシマチ,秋田県にかほ市象潟町中橋町
0180128,秋田県,にかほ市,象潟町太郎島,アキタケン,ニカホシ,キサカタマチタロウジマ,秋田県にかほ市象潟町太郎島
0180129,秋田県,にかほ市,象潟町才の神,アキタケン,ニカホシ,キサカタマチサイノカミ,秋田県にかほ市象潟町才の神
0180131,秋田県,にかほ市,象潟町大谷地,アキタケン,ニカホシ,キサカタマチオオヤチ,秋田県にかほ市象潟町大谷地
0180132,秋田県,にかほ市,象潟町鳥の海,アキタケン,ニカホシ,キサカタマチトリノウミ,秋田県にかほ市象潟町鳥の海
0180133,秋田県,にかほ市,象潟町関,アキタケン,ニカホシ,キサカタマチセキ,秋田県にかほ市象潟町関
0180134,秋田県,にかほ市,象潟町西中野沢,アキタケン,ニカホシ,キサカタマチニシナカノサワ,秋田県にかほ市象潟町西中野沢
0180135,秋田県,にかほ市,象潟町洗釜,アキタケン,ニカホシ,キサカタマチアライガマ,秋田県にかほ市象潟町洗釜
0180136,秋田県,にかほ市,象潟町大砂川,アキタケン,ニカホシ,キサカタマチオオサガワ,秋田県にかほ市象潟町大砂川
0180141,秋田県,にかほ市,象潟町川袋,アキタケン,ニカホシ,キサカタマチカワフクロ,秋田県にかほ市象潟町川袋
0180142,秋田県,にかほ市,象潟町大須郷,アキタケン,ニカホシ,キサカタマチオオスゴウ,秋田県にかほ市象潟町大須郷
0180143,秋田県,にかほ市,象潟町小砂川,アキタケン,ニカホシ,キサカタマチコサガワ,秋田県にかほ市象潟町小砂川
0180144,秋田県,にかほ市,象潟町中谷地,アキタケン,ニカホシ,キサカタマチナカヤチ,秋田県にかほ市象潟町中谷地
0180145,秋田県,にかほ市,象潟町源蔵潟,アキタケン,ニカホシ,キサカタマチゲンゾウガタ,秋田県にかほ市象潟町源蔵潟
0180146,秋田県,にかほ市,象潟町蒲谷地,アキタケン,ニカホシ,キサカタマチカバヤチ,秋田県にかほ市象潟町蒲谷地
0180147,秋田県,にかほ市,象潟町立石,アキタケン,ニカホシ,キサカタマチタテイシ,秋田県にかほ市象潟町立石
0180148,秋田県,にかほ市,象潟町下浜山,アキタケン,ニカホシ,キサカタマチシモハマヤマ,秋田県にかほ市象潟町下浜山
0180151,秋田県,にかほ市,象潟町横岡,アキタケン,ニカホシ,キサカタマチヨコオカ,秋田県にかほ市象潟町横岡
0180152,秋田県,にかほ市,象潟町本郷,アキタケン,ニカホシ,キサカタマチホンゴウ,秋田県にかほ市象潟町本郷
0180153,秋田県,にかほ市,象潟町小滝,アキタケン,ニカホシ,キサカタマチコダキ,秋田県にかほ市象潟町小滝
0180154,秋田県,にかほ市,象潟町二階谷地,アキタケン,ニカホシ,キサカタマチニカイヤチ,秋田県にかほ市象潟町二階谷地
0180155,秋田県,にかほ市,象潟町弁天島,アキタケン,ニカホシ,キサカタマチベンテンジマ,秋田県にかほ市象潟町弁天島
0180156,秋田県,にかほ市,象潟町大門先,アキタケン,ニカホシ,キサカタマチダイモンザキ,秋田県にかほ市象潟町大門先
0180157,秋田県,にかほ市,象潟町鷹放,アキタケン,ニカホシ,キサカタマチタカハナシ,秋田県にかほ市象潟町鷹放
0180158,秋田県,にかほ市,象潟町琴和喜,アキタケン,ニカホシ,キサカタマチコトワキ,秋田県にかほ市象潟町琴和喜
0180161,秋田県,にかほ市,象潟町大飯郷,アキタケン,ニカホシ,キサカタマチダイハンゴウ,秋田県にかほ市象潟町大飯郷
0180162,秋田県,にかほ市,象潟町大森,アキタケン,ニカホシ,キサカタマチオオモリ,秋田県にかほ市象潟町大森
0180163,秋田県,にかほ市,象潟町長岡,アキタケン,ニカホシ,キサカタマチナガオカ,秋田県にかほ市象潟町長岡
0180164,秋田県,にかほ市,象潟町丸山,アキタケン,ニカホシ,キサカタマチマルヤマ,秋田県にかほ市象潟町丸山
0180165,秋田県,にかほ市,象潟町狸森,アキタケン,ニカホシ,キサカタマチタヌキモリ,秋田県にかほ市象潟町狸森
0180166,秋田県,にかほ市,象潟町高田,アキタケン,ニカホシ,キサカタマチタカダ,秋田県にかほ市象潟町高田
0180167,秋田県,にかほ市,象潟町田の神,アキタケン,ニカホシ,キサカタマチタノカミ,秋田県にかほ市象潟町田の神
0180171,秋田県,にかほ市,象潟町続島,アキタケン,ニカホシ,キサカタマチツヅキジマ,秋田県にかほ市象潟町続島
0180172,秋田県,にかほ市,象潟町小才の神,アキタケン,ニカホシ,キサカタマチコサイノカミ,秋田県にかほ市象潟町小才の神
0180173,秋田県,にかほ市,象潟町四隅池,アキタケン,ニカホシ,キサカタマチヨスミイケ,秋田県にかほ市象潟町四隅池
0180174,秋田県,にかほ市,象潟町林の下,アキタケン,ニカホシ,キサカタマチハヤシノシタ,秋田県にかほ市象潟町林の下
0180175,秋田県,にかほ市,象潟町坂の下,アキタケン,ニカホシ,キサカタマチサカノシタ,秋田県にかほ市象潟町坂の下
0180176,秋田県,にかほ市,象潟町横山,アキタケン,ニカホシ,キサカタマチヨコヤマ,秋田県にかほ市象潟町横山
0180181,秋田県,にかほ市,象潟町白山堂,アキタケン,ニカホシ,キサカタマチシラヤマドウ,秋田県にかほ市象潟町白山堂
0180182,秋田県,にかほ市,象潟町不動沢,アキタケン,ニカホシ,キサカタマチフドウサワ,秋田県にかほ市象潟町不動沢
0180183,秋田県,にかほ市,象潟町小坂,アキタケン,ニカホシ,キサカタマチコサカ,秋田県にかほ市象潟町小坂
0180184,秋田県,にかほ市,象潟町上小坂,アキタケン,ニカホシ,キサカタマチカミコサカ,秋田県にかほ市象潟町上小坂
0180185,秋田県,にかほ市,象潟町屋敷田,アキタケン,ニカホシ,キサカタマチヤシキダ,秋田県にかほ市象潟町屋敷田
0180186,秋田県,にかほ市,象潟町能因島,アキタケン,ニカホシ,キサカタマチノウインジマ,秋田県にかほ市象潟町能因島
0180187,秋田県,にかほ市,象潟町小烏島,アキタケン,ニカホシ,キサカタマチコガラスジマ,秋田県にかほ市象潟町小烏島
0180188,秋田県,にかほ市,象潟町烏島,アキタケン,ニカホシ,キサカタマチカラスジマ,秋田県にかほ市象潟町烏島
0180301,秋田県,にかほ市,飛,アキタケン,ニカホシ,トビ,秋田県にかほ市飛
0180302,秋田県,にかほ市,黒川,アキタケン,ニカホシ,クロカワ,秋田県にかほ市黒川
0180311,秋田県,にかほ市,金浦,アキタケン,ニカホシ,コノウラ,秋田県にかほ市金浦
0180321,秋田県,にかほ市,前川,アキタケン,ニカホシ,マエカワ,秋田県にかほ市前川
0180322,秋田県,にかほ市,大竹,アキタケン,ニカホシ,オオタケ,秋田県にかほ市大竹
0180400,秋田県,にかほ市,,アキタケン,ニカホシ,,秋田県にかほ市
0180401,秋田県,にかほ市,両前寺,アキタケン,ニカホシ,リョウゼンジ,秋田県にかほ市両前寺
0180402,秋田県,にかほ市,平沢,アキタケン,ニカホシ,ヒラサワ,秋田県にかほ市平沢
0180403,秋田県,にかほ市,三森,アキタケン,ニカホシ,ミツモリ,秋田県にかほ市三森
0180404,秋田県,にかほ市,芹田,アキタケン,ニカホシ,セリダ,秋田県にかほ市芹田
0180411,秋田県,にかほ市,院内,アキタケン,ニカホシ,インナイ,秋田県にかほ市院内
0180412,秋田県,にかほ市,小国,アキタケン,ニカホシ,オグニ,秋田県にかほ市小国
0180413,秋田県,にかほ市,馬場,アキタケン,ニカホシ,ババ,秋田県にかほ市馬場
0180414,秋田県,にかほ市,田抓,アキタケン,ニカホシ,タヅカミ,秋田県にかほ市田抓
0180421,秋田県,にかほ市,釜ケ台,アキタケン,ニカホシ,カマガタイ,秋田県にかほ市釜ケ台
0180422,秋田県,にかほ市,冬師,アキタケン,ニカホシ,トウシ,秋田県にかほ市冬師
0180431,秋田県,にかほ市,伊勢居地,アキタケン,ニカホシ,イセイジ,秋田県にかほ市伊勢居地
0180432,秋田県,にかほ市,水沢,アキタケン,ニカホシ,ミズサワ,秋田県にかほ市水沢
0180433,秋田県,にかほ市,畑,アキタケン,ニカホシ,ハタ,秋田県にかほ市畑
0180434,秋田県,にかほ市,寺田,アキタケン,ニカホシ,テラダ,秋田県にかほ市寺田
0180435,秋田県,にかほ市,中三地,アキタケン,ニカホシ,ナカサンチ,秋田県にかほ市中三地
0180436,秋田県,にかほ市,樋目野,アキタケン,ニカホシ,ヒメノ,秋田県にかほ市樋目野
0180601,秋田県,由利本荘市,西目町海士剥,アキタケン,ユリホンジョウシ,ニシメマチアマハギ,秋田県由利本荘市西目町海士剥
0180602,秋田県,由利本荘市,西目町出戸,アキタケン,ユリホンジョウシ,ニシメマチデト,秋田県由利本荘市西目町出戸
0180603,秋田県,由利本荘市,西目町西目,アキタケン,ユリホンジョウシ,ニシメマチニシメ,秋田県由利本荘市西目町西目
0180604,秋田県,由利本荘市,西目町沼田,アキタケン,ユリホンジョウシ,ニシメマチヌマタ,秋田県由利本荘市西目町沼田
0180711,秋田県,由利本荘市,岩谷町,アキタケン,ユリホンジョウシ,イワヤマチ,秋田県由利本荘市岩谷町
0180721,秋田県,由利本荘市,大谷,アキタケン,ユリホンジョウシ,オオタニ,秋田県由利本荘市大谷
0180722,秋田県,由利本荘市,中館,アキタケン,ユリホンジョウシ,ナカダテ,秋田県由利本荘市中館
0180723,秋田県,由利本荘市,牛寺,アキタケン,ユリホンジョウシ,ウシデラ,秋田県由利本荘市牛寺
0180724,秋田県,由利本荘市,深沢,アキタケン,ユリホンジョウシ,フカサワ,秋田県由利本荘市深沢
0180725,秋田県,由利本荘市,米坂,アキタケン,ユリホンジョウシ,ヨネザカ,秋田県由利本荘市米坂
0180726,秋田県,由利本荘市,岩谷麓,アキタケン,ユリホンジョウシ,イワヤフモト,秋田県由利本荘市岩谷麓
0180731,秋田県,由利本荘市,大内三川,アキタケン,ユリホンジョウシ,オオウチサンカワ,秋田県由利本荘市大内三川
0180732,秋田県,由利本荘市,徳沢,アキタケン,ユリホンジョウシ,トクサワ,秋田県由利本荘市徳沢
0180733,秋田県,由利本荘市,大倉沢,アキタケン,ユリホンジョウシ,オオクラザワ,秋田県由利本荘市大倉沢
0180734,秋田県,由利本荘市,北福田,アキタケン,ユリホンジョウシ,キタフクダ,秋田県由利本荘市北福田
0180841,秋田県,由利本荘市,加賀沢,アキタケン,ユリホンジョウシ,カガサワ,秋田県由利本荘市加賀沢
0180842,秋田県,由利本荘市,新沢,アキタケン,ユリホンジョウシ,シンサワ,秋田県由利本荘市新沢
0180843,秋田県,由利本荘市,中帳,アキタケン,ユリホンジョウシ,ナカチョウ,秋田県由利本荘市中帳
0180844,秋田県,由利本荘市,高尾,アキタケン,ユリホンジョウシ,タカオ,秋田県由利本荘市高尾
0180845,秋田県,由利本荘市,中俣,アキタケン,ユリホンジョウシ,ナカノマタ,秋田県由利本荘市中俣
0180851,秋田県,由利本荘市,平岫,アキタケン,ユリホンジョウシ,ヒラグキ,秋田県由利本荘市平岫
0180852,秋田県,由利本荘市,葛岡,アキタケン,ユリホンジョウシ,クズオカ,秋田県由利本荘市葛岡
0180853,秋田県,由利本荘市,長坂,アキタケン,ユリホンジョウシ,ナガサカ,秋田県由利本荘市長坂
0180854,秋田県,由利本荘市,及位,アキタケン,ユリホンジョウシ,ノゾキ,秋田県由利本荘市及位
0180855,秋田県,由利本荘市,松本,アキタケン,ユリホンジョウシ,マツモト,秋田県由利本荘市松本
0180901,秋田県,由利本荘市,中田代,アキタケン,ユリホンジョウシ,ナカタシロ,秋田県由利本荘市中田代
0180902,秋田県,由利本荘市,新田,アキタケン,ユリホンジョウシ,シンデン,秋田県由利本荘市新田
0180903,秋田県,由利本荘市,小栗山,アキタケン,ユリホンジョウシ,コグリヤマ,秋田県由利本荘市小栗山
0180904,秋田県,由利本荘市,岩野目沢,アキタケン,ユリホンジョウシ,イワノメザワ,秋田県由利本荘市岩野目沢
0180905,秋田県,由利本荘市,滝,アキタケン,ユリホンジョウシ,タキ,秋田県由利本荘市滝
0180906,秋田県,由利本荘市,羽広,アキタケン,ユリホンジョウシ,ハビロ,秋田県由利本荘市羽広
0180907,秋田県,由利本荘市,坂部,アキタケン,ユリホンジョウシ,サカベ,秋田県由利本荘市坂部
0181211,秋田県,由利本荘市,岩城滝俣,アキタケン,ユリホンジョウシ,イワキタキノマタ,秋田県由利本荘市岩城滝俣
0181212,秋田県,由利本荘市,岩城福俣,アキタケン,ユリホンジョウシ,イワキフクノマタ,秋田県由利本荘市岩城福俣
0181213,秋田県,由利本荘市,岩城泉田,アキタケン,ユリホンジョウシ,イワキイズミタ,秋田県由利本荘市岩城泉田
0181214,秋田県,由利本荘市,岩城富田,アキタケン,ユリホンジョウシ,イワキトミタ,秋田県由利本荘市岩城富田
0181215,秋田県,由利本荘市,岩城赤平,アキタケン,ユリホンジョウシ,イワキアカヒラ,秋田県由利本荘市岩城赤平
0181216,秋田県,由利本荘市,岩城亀田愛宕町,アキタケン,ユリホンジョウシ,イワキカメダアタゴマチ,秋田県由利本荘市岩城亀田愛宕町
0181217,秋田県,由利本荘市,岩城亀田亀田町,アキタケン,ユリホンジョウシ,イワキカメダカメダマチ,秋田県由利本荘市岩城亀田亀田町
0181218,秋田県,由利本荘市,岩城亀田大町,アキタケン,ユリホンジョウシ,イワキカメダオオマチ,秋田県由利本荘市岩城亀田大町
0181221,秋田県,由利本荘市,岩城亀田最上町,アキタケン,ユリホンジョウシ,イワキカメダモガミマチ,秋田県由利本荘市岩城亀田最上町
0181222,秋田県,由利本荘市,岩城上蛇田,アキタケン,ユリホンジョウシ,イワキカミヘビタ,秋田県由利本荘市岩城上蛇田
0181223,秋田県,由利本荘市,岩城下蛇田,アキタケン,ユリホンジョウシ,イワキシモヘビタ,秋田県由利本荘市岩城下蛇田
0181224,秋田県,由利本荘市,岩城六呂田,アキタケン,ユリホンジョウシ,イワキロクロダ,秋田県由利本荘市岩城六呂田
0181225,秋田県,由利本荘市,岩城上黒川,アキタケン,ユリホンジョウシ,イワキカミクロカワ,秋田県由利本荘市岩城上黒川
0181226,秋田県,由利本荘市,岩城下黒川,アキタケン,ユリホンジョウシ,イワキシモクロカワ,秋田県由利本荘市岩城下黒川
0181301,秋田県,由利本荘市,岩城内道川,アキタケン,ユリホンジョウシ,イワキウチミチカワ,秋田県由利本荘市岩城内道川
0181302,秋田県,由利本荘市,岩城勝手,アキタケン,ユリホンジョウシ,イワキカッテ,秋田県由利本荘市岩城勝手
0181303,秋田県,由利本荘市,岩城君ケ野,アキタケン,ユリホンジョウシ,イワキキミガノ,秋田県由利本荘市岩城君ケ野
0181304,秋田県,由利本荘市,岩城道川,アキタケン,ユリホンジョウシ,イワキミチカワ,秋田県由利本荘市岩城道川
0181305,秋田県,由利本荘市,岩城二古,アキタケン,ユリホンジョウシ,イワキフタゴ,秋田県由利本荘市岩城二古
0181400,秋田県,潟上市,,アキタケン,カタガミシ,,秋田県潟上市
0181401,秋田県,潟上市,昭和大久保,アキタケン,カタガミシ,ショウワオオクボ,秋田県潟上市昭和大久保
0181402,秋田県,潟上市,昭和乱橋,アキタケン,カタガミシ,ショウワミダレバシ,秋田県潟上市昭和乱橋
0181403,秋田県,潟上市,昭和八丁目,アキタケン,カタガミシ,ショウワハッチョウメ,秋田県潟上市昭和8
0181411,秋田県,潟上市,昭和豊川上虻川,アキタケン,カタガミシ,ショウワトヨカワカミアブカワ,秋田県潟上市昭和豊川上虻川
0181412,秋田県,潟上市,昭和豊川岡井戸,アキタケン,カタガミシ,ショウワトヨカワオカイド,秋田県潟上市昭和豊川岡井戸
0181413,秋田県,潟上市,昭和豊川船橋,アキタケン,カタガミシ,ショウワトヨカワフナバシ,秋田県潟上市昭和豊川船橋
0181414,秋田県,潟上市,昭和豊川槻木,アキタケン,カタガミシ,ショウワトヨカワツキノキ,秋田県潟上市昭和豊川槻木
0181415,秋田県,潟上市,昭和豊川竜毛,アキタケン,カタガミシ,ショウワトヨカワリュウゲ,秋田県潟上市昭和豊川竜毛
0181416,秋田県,潟上市,昭和豊川山田,アキタケン,カタガミシ,ショウワトヨカワヤマダ,秋田県潟上市昭和豊川山田
0181500,秋田県,南秋田郡井川町,,アキタケン,ミナミアキタグンイカワマチ,,秋田県南秋田郡井川町
0181501,秋田県,潟上市,飯田川金山,アキタケン,カタガミシ,イイタガワカネヤマ,秋田県潟上市飯田川金山
0181502,秋田県,潟上市,飯田川下虻川,アキタケン,カタガミシ,イイタガワシモアブカワ,秋田県潟上市飯田川下虻川
0181503,秋田県,潟上市,飯田川和田妹川,アキタケン,カタガミシ,イイタガワワダイモカワ,秋田県潟上市飯田川和田妹川
0181504,秋田県,潟上市,飯田川飯塚,アキタケン,カタガミシ,イイタガワイイヅカ,秋田県潟上市飯田川飯塚
0181511,秋田県,南秋田郡井川町,今戸,アキタケン,ミナミアキタグンイカワマチ,イマド,秋田県南秋田郡井川町今戸
0181512,秋田県,南秋田郡井川町,北川尻,アキタケン,ミナミアキタグンイカワマチ,キタカワシリ,秋田県南秋田郡井川町北川尻
0181513,秋田県,南秋田郡井川町,黒坪,アキタケン,ミナミアキタグンイカワマチ,クロツボ,秋田県南秋田郡井川町黒坪
0181514,秋田県,南秋田郡井川町,宇治木,アキタケン,ミナミアキタグンイカワマチ,ウジキ,秋田県南秋田郡井川町宇治木
0181515,秋田県,南秋田郡井川町,小竹花,アキタケン,ミナミアキタグンイカワマチ,コダケハナ,秋田県南秋田郡井川町小竹花
0181516,秋田県,南秋田郡井川町,浜井川,アキタケン,ミナミアキタグンイカワマチ,ハマイカワ,秋田県南秋田郡井川町浜井川
0181521,秋田県,南秋田郡井川町,八田大倉,アキタケン,ミナミアキタグンイカワマチ,ハッタオオクラ,秋田県南秋田郡井川町八田大倉
0181522,秋田県,南秋田郡井川町,保野子,アキタケン,ミナミアキタグンイカワマチ,ホノコ,秋田県南秋田郡井川町保野子
0181523,秋田県,南秋田郡井川町,坂本,アキタケン,ミナミアキタグンイカワマチ,サカモト,秋田県南秋田郡井川町坂本
0181524,秋田県,南秋田郡井川町,大麦,アキタケン,ミナミアキタグンイカワマチ,オオムギ,秋田県南秋田郡井川町大麦
0181525,秋田県,南秋田郡井川町,赤沢,アキタケン,ミナミアキタグンイカワマチ,アカサワ,秋田県南秋田郡井川町赤沢
0181526,秋田県,南秋田郡井川町,寺沢,アキタケン,ミナミアキタグンイカワマチ,テラサワ,秋田県南秋田郡井川町寺沢
0181527,秋田県,南秋田郡井川町,井内,アキタケン,ミナミアキタグンイカワマチ,イナイ,秋田県南秋田郡井川町井内
0181528,秋田県,南秋田郡井川町,葹田,アキタケン,ミナミアキタグンイカワマチ,ナモミダ,秋田県南秋田郡井川町葹田
0181600,秋田県,南秋田郡八郎潟町,,アキタケン,ミナミアキタグンハチロウガタマチ,,秋田県南秋田郡八郎潟町
0181601,秋田県,南秋田郡八郎潟町,真坂,アキタケン,ミナミアキタグンハチロウガタマチ,マサカ,秋田県南秋田郡八郎潟町真坂
0181602,秋田県,南秋田郡八郎潟町,浦大町,アキタケン,ミナミアキタグンハチロウガタマチ,ウラオオマチ,秋田県南秋田郡八郎潟町浦大町
0181603,秋田県,南秋田郡八郎潟町,小池,アキタケン,ミナミアキタグンハチロウガタマチ,コイケ,秋田県南秋田郡八郎潟町小池
0181604,秋田県,南秋田郡八郎潟町,野田,アキタケン,ミナミアキタグンハチロウガタマチ,ノダ,秋田県南秋田郡八郎潟町野田
0181605,秋田県,南秋田郡八郎潟町,川崎,アキタケン,ミナミアキタグンハチロウガタマチ,カワサキ,秋田県南秋田郡八郎潟町川崎
0181606,秋田県,南秋田郡八郎潟町,夜叉袋,アキタケン,ミナミアキタグンハチロウガタマチ,ヤシャフクロ,秋田県南秋田郡八郎潟町夜叉袋
0181611,秋田県,南秋田郡八郎潟町,上沖谷地,アキタケン,ミナミアキタグンハチロウガタマチ,カミオキヤチ,秋田県南秋田郡八郎潟町上沖谷地
0181612,秋田県,南秋田郡八郎潟町,昼根下,アキタケン,ミナミアキタグンハチロウガタマチ,ヒルネシタ,秋田県南秋田郡八郎潟町昼根下
0181613,秋田県,南秋田郡八郎潟町,上昼根,アキタケン,ミナミアキタグンハチロウガタマチ,カミヒルネ,秋田県南秋田郡八郎潟町上昼根
0181614,秋田県,南秋田郡八郎潟町,中田,アキタケン,ミナミアキタグンハチロウガタマチ,ナカダ,秋田県南秋田郡八郎潟町中田
0181615,秋田県,南秋田郡八郎潟町,蒲沼,アキタケン,ミナミアキタグンハチロウガタマチ,ガマヌマ,秋田県南秋田郡八郎潟町蒲沼
0181616,秋田県,南秋田郡八郎潟町,大道,アキタケン,ミナミアキタグンハチロウガタマチ,オオミチ,秋田県南秋田郡八郎潟町大道
0181617,秋田県,南秋田郡八郎潟町,イカリ,アキタケン,ミナミアキタグンハチロウガタマチ,イカリ,秋田県南秋田郡八郎潟町イカリ
0181618,秋田県,南秋田郡八郎潟町,川口,アキタケン,ミナミアキタグンハチロウガタマチ,カワグチ,秋田県南秋田郡八郎潟町川口
0181621,秋田県,南秋田郡八郎潟町,家の後,アキタケン,ミナミアキタグンハチロウガタマチ,イエノウシロ,秋田県南秋田郡八郎潟町家の後
0181622,秋田県,南秋田郡八郎潟町,一日市,アキタケン,ミナミアキタグンハチロウガタマチ,ヒトイチ,秋田県南秋田郡八郎潟町一日市
0181623,秋田県,南秋田郡八郎潟町,下川原,アキタケン,ミナミアキタグンハチロウガタマチ,シモカワラ,秋田県南秋田郡八郎潟町下川原
0181624,秋田県,南秋田郡八郎潟町,中久保,アキタケン,ミナミアキタグンハチロウガタマチ,ナカクボ,秋田県南秋田郡八郎潟町中久保
0181625,秋田県,南秋田郡八郎潟町,久保見,アキタケン,ミナミアキタグンハチロウガタマチ,クボミ,秋田県南秋田郡八郎潟町久保見
0181626,秋田県,南秋田郡八郎潟町,細川,アキタケン,ミナミアキタグンハチロウガタマチ,ホソカワ,秋田県南秋田郡八郎潟町細川
0181627,秋田県,南秋田郡八郎潟町,押切,アキタケン,ミナミアキタグンハチロウガタマチ,オシキリ,秋田県南秋田郡八郎潟町押切
0181628,秋田県,南秋田郡八郎潟町,島ノ内,アキタケン,ミナミアキタグンハチロウガタマチ,シマノウチ,秋田県南秋田郡八郎潟町島ノ内
0181629,秋田県,南秋田郡八郎潟町,中嶋,アキタケン,ミナミアキタグンハチロウガタマチ,ナカジマ,秋田県南秋田郡八郎潟町中嶋
0181631,秋田県,南秋田郡八郎潟町,八幡沼,アキタケン,ミナミアキタグンハチロウガタマチ,ハチマヌマ,秋田県南秋田郡八郎潟町八幡沼
0181632,秋田県,南秋田郡八郎潟町,長沼,アキタケン,ミナミアキタグンハチロウガタマチ,ナガヌマ,秋田県南秋田郡八郎潟町長沼
0181633,秋田県,南秋田郡八郎潟町,中谷地,アキタケン,ミナミアキタグンハチロウガタマチ,ナカヤチ,秋田県南秋田郡八郎潟町中谷地
0181634,秋田県,南秋田郡八郎潟町,軒嶋,アキタケン,ミナミアキタグンハチロウガタマチ,ノキシマ,秋田県南秋田郡八郎潟町軒嶋
0181635,秋田県,南秋田郡八郎潟町,洲先,アキタケン,ミナミアキタグンハチロウガタマチ,スサキ,秋田県南秋田郡八郎潟町洲先
0181700,秋田県,南秋田郡五城目町,,アキタケン,ミナミアキタグンゴジョウメマチ,,秋田県南秋田郡五城目町
0181701,秋田県,南秋田郡五城目町,兎品沢,アキタケン,ミナミアキタグンゴジョウメマチ,トヒンザワ,秋田県南秋田郡五城目町兎品沢
0181702,秋田県,南秋田郡五城目町,杉ケ崎,アキタケン,ミナミアキタグンゴジョウメマチ,スギガサキ,秋田県南秋田郡五城目町杉ケ崎
0181703,秋田県,南秋田郡五城目町,羽黒前,アキタケン,ミナミアキタグンゴジョウメマチ,ハグロマエ,秋田県南秋田郡五城目町羽黒前
0181704,秋田県,南秋田郡五城目町,石田六ケ村堰添,アキタケン,ミナミアキタグンゴジョウメマチ,イシダロッカソンセキゾイ,秋田県南秋田郡五城目町石田六ケ村堰添
0181705,秋田県,南秋田郡五城目町,上町,アキタケン,ミナミアキタグンゴジョウメマチ,ウワマチ,秋田県南秋田郡五城目町上町
0181706,秋田県,南秋田郡五城目町,下タ町,アキタケン,ミナミアキタグンゴジョウメマチ,シタマチ,秋田県南秋田郡五城目町下タ町
0181711,秋田県,南秋田郡五城目町,高崎,アキタケン,ミナミアキタグンゴジョウメマチ,タカサキ,秋田県南秋田郡五城目町高崎
0181712,秋田県,南秋田郡五城目町,久保,アキタケン,ミナミアキタグンゴジョウメマチ,クボ,秋田県南秋田郡五城目町久保
0181713,秋田県,南秋田郡五城目町,馬場目,アキタケン,ミナミアキタグンゴジョウメマチ,ババメ,秋田県南秋田郡五城目町馬場目
0181714,秋田県,南秋田郡五城目町,舘越,アキタケン,ミナミアキタグンゴジョウメマチ,タテゴシ,秋田県南秋田郡五城目町舘越
0181721,秋田県,南秋田郡五城目町,七倉,アキタケン,ミナミアキタグンゴジョウメマチ,ナナクラ,秋田県南秋田郡五城目町七倉
0181722,秋田県,南秋田郡五城目町,鵜ノ木,アキタケン,ミナミアキタグンゴジョウメマチ,ウノキ,秋田県南秋田郡五城目町鵜ノ木
0181723,秋田県,南秋田郡五城目町,上樋口,アキタケン,ミナミアキタグンゴジョウメマチ,カミヒグチ,秋田県南秋田郡五城目町上樋口
0181724,秋田県,南秋田郡五城目町,東磯ノ目,アキタケン,ミナミアキタグンゴジョウメマチ,ヒガシイソノメ,秋田県南秋田郡五城目町東磯ノ目
0181725,秋田県,南秋田郡五城目町,西磯ノ目,アキタケン,ミナミアキタグンゴジョウメマチ,ニシイソノメ,秋田県南秋田郡五城目町西磯ノ目
0181731,秋田県,南秋田郡五城目町,大川石崎,アキタケン,ミナミアキタグンゴジョウメマチ,オオカワイシザキ,秋田県南秋田郡五城目町大川石崎
0181732,秋田県,南秋田郡五城目町,大川西野,アキタケン,ミナミアキタグンゴジョウメマチ,オオカワニシノ,秋田県南秋田郡五城目町大川西野
0181733,秋田県,南秋田郡五城目町,大川谷地中,アキタケン,ミナミアキタグンゴジョウメマチ,オオカワヤチナカ,秋田県南秋田郡五城目町大川谷地中
0181734,秋田県,南秋田郡五城目町,大川大川,アキタケン,ミナミアキタグンゴジョウメマチ,オオカワオオカワ,秋田県南秋田郡五城目町大川大川
0181735,秋田県,南秋田郡五城目町,大川下樋口,アキタケン,ミナミアキタグンゴジョウメマチ,オオカワシモトヨグチ,秋田県南秋田郡五城目町大川下樋口
0181741,秋田県,南秋田郡五城目町,浦大町,アキタケン,ミナミアキタグンゴジョウメマチ,ウラオオマチ,秋田県南秋田郡五城目町浦大町
0181742,秋田県,南秋田郡五城目町,浦横町,アキタケン,ミナミアキタグンゴジョウメマチ,ウラヨコマチ,秋田県南秋田郡五城目町浦横町
0181743,秋田県,南秋田郡五城目町,稲荷前,アキタケン,ミナミアキタグンゴジョウメマチ,イナリマエ,秋田県南秋田郡五城目町稲荷前
0181744,秋田県,南秋田郡五城目町,神明前,アキタケン,ミナミアキタグンゴジョウメマチ,シンメイマエ,秋田県南秋田郡五城目町神明前
0181745,秋田県,南秋田郡五城目町,川崎,アキタケン,ミナミアキタグンゴジョウメマチ,カワサキ,秋田県南秋田郡五城目町川崎
0181746,秋田県,南秋田郡五城目町,小池,アキタケン,ミナミアキタグンゴジョウメマチ,コイケ,秋田県南秋田郡五城目町小池
0181747,秋田県,南秋田郡五城目町,野田,アキタケン,ミナミアキタグンゴジョウメマチ,ノダ,秋田県南秋田郡五城目町野田
0181851,秋田県,南秋田郡五城目町,内川浅見内,アキタケン,ミナミアキタグンゴジョウメマチ,ウチカワアサミナイ,秋田県南秋田郡五城目町内川浅見内
0181852,秋田県,南秋田郡五城目町,内川湯ノ又,アキタケン,ミナミアキタグンゴジョウメマチ,ウチカワユノマタ,秋田県南秋田郡五城目町内川湯ノ又
0181853,秋田県,南秋田郡五城目町,富津内中津又,アキタケン,ミナミアキタグンゴジョウメマチ,フツナイナカツマタ,秋田県南秋田郡五城目町富津内中津又
0181854,秋田県,南秋田郡五城目町,内川黒土,アキタケン,ミナミアキタグンゴジョウメマチ,ウチカワクロツチ,秋田県南秋田郡五城目町内川黒土
0181855,秋田県,南秋田郡五城目町,富津内富田,アキタケン,ミナミアキタグンゴジョウメマチ,フツナイトミタ,秋田県南秋田郡五城目町富津内富田
0181856,秋田県,南秋田郡五城目町,富津内下山内,アキタケン,ミナミアキタグンゴジョウメマチ,フツナイシモサンナイ,秋田県南秋田郡五城目町富津内下山内
0181857,秋田県,南秋田郡五城目町,内川小倉,アキタケン,ミナミアキタグンゴジョウメマチ,ウチカワオグラ,秋田県南秋田郡五城目町内川小倉
0182101,秋田県,山本郡三種町,上岩川,アキタケン,ヤマモトグンミタネチョウ,カミイワカワ,秋田県山本郡三種町上岩川
0182102,秋田県,山本郡三種町,天瀬川,アキタケン,ヤマモトグンミタネチョウ,アマセガワ,秋田県山本郡三種町天瀬川
0182103,秋田県,山本郡三種町,鯉川,アキタケン,ヤマモトグンミタネチョウ,コイカワ,秋田県山本郡三種町鯉川
0182104,秋田県,山本郡三種町,鹿渡,アキタケン,ヤマモトグンミタネチョウ,カド,秋田県山本郡三種町鹿渡
0182301,秋田県,山本郡三種町,志戸橋,アキタケン,ヤマモトグンミタネチョウ,シトバシ,秋田県山本郡三種町志戸橋
0182302,秋田県,山本郡三種町,下岩川,アキタケン,ヤマモトグンミタネチョウ,シモイワカワ,秋田県山本郡三種町下岩川
0182303,秋田県,山本郡三種町,森岳,アキタケン,ヤマモトグンミタネチョウ,モリタケ,秋田県山本郡三種町森岳
0182304,秋田県,山本郡三種町,豊岡金田,アキタケン,ヤマモトグンミタネチョウ,トヨオカキンデン,秋田県山本郡三種町豊岡金田
0182305,秋田県,山本郡三種町,外岡,アキタケン,ヤマモトグンミタネチョウ,ソトオカ,秋田県山本郡三種町外岡
0182400,秋田県,山本郡三種町,,アキタケン,ヤマモトグンミタネチョウ,,秋田県山本郡三種町
0182401,秋田県,山本郡三種町,鵜川,アキタケン,ヤマモトグンミタネチョウ,ウカワ,秋田県山本郡三種町鵜川
0182402,秋田県,山本郡三種町,川尻,アキタケン,ヤマモトグンミタネチョウ,カワシリ,秋田県山本郡三種町川尻
0182403,秋田県,山本郡三種町,久米岡新田,アキタケン,ヤマモトグンミタネチョウ,クメオカシンデン,秋田県山本郡三種町久米岡新田
0182404,秋田県,山本郡三種町,富岡新田,アキタケン,ヤマモトグンミタネチョウ,トミオカシンデン,秋田県山本郡三種町富岡新田
0182405,秋田県,山本郡三種町,芦崎,アキタケン,ヤマモトグンミタネチョウ,アシザキ,秋田県山本郡三種町芦崎
0182406,秋田県,山本郡三種町,大口,アキタケン,ヤマモトグンミタネチョウ,オオクチ,秋田県山本郡三種町大口
0182407,秋田県,山本郡三種町,浜田,アキタケン,ヤマモトグンミタネチョウ,ハマダ,秋田県山本郡三種町浜田
0182500,秋田県,山本郡八峰町,,アキタケン,ヤマモトグンハッポウチョウ,,秋田県山本郡八峰町
0182501,秋田県,山本郡八峰町,峰浜水沢,アキタケン,ヤマモトグンハッポウチョウ,ミネハマミズサワ,秋田県山本郡八峰町峰浜水沢
0182502,秋田県,山本郡八峰町,峰浜目名潟,アキタケン,ヤマモトグンハッポウチョウ,ミネハマメナガタ,秋田県山本郡八峰町峰浜目名潟
0182503,秋田県,山本郡八峰町,峰浜塙,アキタケン,ヤマモトグンハッポウチョウ,ミネハマハナワ,秋田県山本郡八峰町峰浜塙
0182504,秋田県,山本郡八峰町,峰浜石川,アキタケン,ヤマモトグンハッポウチョウ,ミネハマイシカワ,秋田県山本郡八峰町峰浜石川
0182505,秋田県,山本郡八峰町,峰浜内荒巻,アキタケン,ヤマモトグンハッポウチョウ,ミネハマウチアラマキ,秋田県山本郡八峰町峰浜内荒巻
0182506,秋田県,山本郡八峰町,峰浜小手萩,アキタケン,ヤマモトグンハッポウチョウ,ミネハマコテハギ,秋田県山本郡八峰町峰浜小手萩
0182507,秋田県,山本郡八峰町,峰浜田中,アキタケン,ヤマモトグンハッポウチョウ,ミネハマタナカ,秋田県山本郡八峰町峰浜田中
0182508,秋田県,山本郡八峰町,峰浜坂形,アキタケン,ヤマモトグンハッポウチョウ,ミネハマサカガタ,秋田県山本郡八峰町峰浜坂形
0182509,秋田県,山本郡八峰町,峰浜沼田,アキタケン,ヤマモトグンハッポウチョウ,ミネハマヌマタ,秋田県山本郡八峰町峰浜沼田
0182511,秋田県,山本郡八峰町,峰浜高野々,アキタケン,ヤマモトグンハッポウチョウ,ミネハマコウヤノ,秋田県山本郡八峰町峰浜高野々
0182512,秋田県,山本郡八峰町,峰浜畑谷,アキタケン,ヤマモトグンハッポウチョウ,ミネハマハタヤ,秋田県山本郡八峰町峰浜畑谷
0182601,秋田県,山本郡八峰町,八森乙の水,アキタケン,ヤマモトグンハッポウチョウ,ハチモリオトノミズ,秋田県山本郡八峰町八森乙の水
0182602,秋田県,山本郡八峰町,八森チゴキ,アキタケン,ヤマモトグンハッポウチョウ,ハチモリチゴキ,秋田県山本郡八峰町八森チゴキ
0182603,秋田県,山本郡八峰町,八森物見,アキタケン,ヤマモトグンハッポウチョウ,ハチモリモノミ,秋田県山本郡八峰町八森物見
0182604,秋田県,山本郡八峰町,八森和田表,アキタケン,ヤマモトグンハッポウチョウ,ハチモリワダオモテ,秋田県山本郡八峰町八森和田表
0182605,秋田県,山本郡八峰町,八森岩館塚の台,アキタケン,ヤマモトグンハッポウチョウ,ハチモリイワダテツカノダイ,秋田県山本郡八峰町八森岩館塚の台
0182606,秋田県,山本郡八峰町,八森釜の上,アキタケン,ヤマモトグンハッポウチョウ,ハチモリカマノウエ,秋田県山本郡八峰町八森釜の上
0182607,秋田県,山本郡八峰町,八森林の沢,アキタケン,ヤマモトグンハッポウチョウ,ハチモリハヤシノサワ,秋田県山本郡八峰町八森林の沢
0182608,秋田県,山本郡八峰町,八森岩館向台,アキタケン,ヤマモトグンハッポウチョウ,ハチモリイワダテムカイダイ,秋田県山本郡八峰町八森岩館向台
0182609,秋田県,山本郡八峰町,八森門の沢,アキタケン,ヤマモトグンハッポウチョウ,ハチモリカドノサワ,秋田県山本郡八峰町八森門の沢
0182611,秋田県,山本郡八峰町,八森岩館,アキタケン,ヤマモトグンハッポウチョウ,ハチモリイワダテ,秋田県山本郡八峰町八森岩館
0182612,秋田県,山本郡八峰町,八森ノケソリ,アキタケン,ヤマモトグンハッポウチョウ,ハチモリノケソリ,秋田県山本郡八峰町八森ノケソリ
0182613,秋田県,山本郡八峰町,八森鉱山,アキタケン,ヤマモトグンハッポウチョウ,ハチモリコウザン,秋田県山本郡八峰町八森鉱山
0182614,秋田県,山本郡八峰町,八森小入川家の上,アキタケン,ヤマモトグンハッポウチョウ,ハチモリコイリカワイエノカミ,秋田県山本郡八峰町八森小入川家の上
0182615,秋田県,山本郡八峰町,八森伊勢鉢台,アキタケン,ヤマモトグンハッポウチョウ,ハチモリイセバチダイ,秋田県山本郡八峰町八森伊勢鉢台
0182616,秋田県,山本郡八峰町,八森三沢,アキタケン,ヤマモトグンハッポウチョウ,ハチモリミサワ,秋田県山本郡八峰町八森三沢
0182617,秋田県,山本郡八峰町,八森御所の台,アキタケン,ヤマモトグンハッポウチョウ,ハチモリゴショノダイ,秋田県山本郡八峰町八森御所の台
0182618,秋田県,山本郡八峰町,八森木戸の沢,アキタケン,ヤマモトグンハッポウチョウ,ハチモリキドノサワ,秋田県山本郡八峰町八森木戸の沢
0182619,秋田県,山本郡八峰町,八森長坂,アキタケン,ヤマモトグンハッポウチョウ,ハチモリナガサカ,秋田県山本郡八峰町八森長坂
0182621,秋田県,山本郡八峰町,八森茶の沢,アキタケン,ヤマモトグンハッポウチョウ,ハチモリチャノサワ,秋田県山本郡八峰町八森茶の沢
0182622,秋田県,山本郡八峰町,八森家の向,アキタケン,ヤマモトグンハッポウチョウ,ハチモリイエノムカイ,秋田県山本郡八峰町八森家の向
0182623,秋田県,山本郡八峰町,八森滝ノ間,アキタケン,ヤマモトグンハッポウチョウ,ハチモリタキノマ,秋田県山本郡八峰町八森滝ノ間
0182624,秋田県,山本郡八峰町,八森横間台,アキタケン,ヤマモトグンハッポウチョウ,ハチモリヨコマダイ,秋田県山本郡八峰町八森横間台
0182625,秋田県,山本郡八峰町,八森山内台,アキタケン,ヤマモトグンハッポウチョウ,ハチモリサンナイダイ,秋田県山本郡八峰町八森山内台
0182626,秋田県,山本郡八峰町,八森横間,アキタケン,ヤマモトグンハッポウチョウ,ハチモリヨコマ,秋田県山本郡八峰町八森横間
0182627,秋田県,山本郡八峰町,八森山内,アキタケン,ヤマモトグンハッポウチョウ,ハチモリサンナイ,秋田県山本郡八峰町八森山内
0182628,秋田県,山本郡八峰町,八森立石,アキタケン,ヤマモトグンハッポウチョウ,ハチモリタテイシ,秋田県山本郡八峰町八森立石
0182631,秋田県,山本郡八峰町,八森五輪台下段,アキタケン,ヤマモトグンハッポウチョウ,ハチモリゴリンダイゲダン,秋田県山本郡八峰町八森五輪台下段
0182632,秋田県,山本郡八峰町,八森三十釜,アキタケン,ヤマモトグンハッポウチョウ,ハチモリサンジュウガマ,秋田県山本郡八峰町八森三十釜
0182633,秋田県,山本郡八峰町,八森五輪台上段,アキタケン,ヤマモトグンハッポウチョウ,ハチモリゴリンダイジョウダン,秋田県山本郡八峰町八森五輪台上段
0182634,秋田県,山本郡八峰町,八森滝の上,アキタケン,ヤマモトグンハッポウチョウ,ハチモリタキノウエ,秋田県山本郡八峰町八森滝の上
0182635,秋田県,山本郡八峰町,八森下嘉治助台,アキタケン,ヤマモトグンハッポウチョウ,ハチモリシモカジスケダイ,秋田県山本郡八峰町八森下嘉治助台
0182636,秋田県,山本郡八峰町,八森上嘉治助台,アキタケン,ヤマモトグンハッポウチョウ,ハチモリカミカジスケダイ,秋田県山本郡八峰町八森上嘉治助台
0182637,秋田県,山本郡八峰町,八森家の後,アキタケン,ヤマモトグンハッポウチョウ,ハチモリイエノウシロ,秋田県山本郡八峰町八森家の後
0182638,秋田県,山本郡八峰町,八森茂浦,アキタケン,ヤマモトグンハッポウチョウ,ハチモリモウラ,秋田県山本郡八峰町八森茂浦
0182641,秋田県,山本郡八峰町,八森中浜,アキタケン,ヤマモトグンハッポウチョウ,ハチモリナカハマ,秋田県山本郡八峰町八森中浜
0182642,秋田県,山本郡八峰町,八森椿,アキタケン,ヤマモトグンハッポウチョウ,ハチモリツバキ,秋田県山本郡八峰町八森椿
0182643,秋田県,山本郡八峰町,八森家の上,アキタケン,ヤマモトグンハッポウチョウ,ハチモリイエノカミ,秋田県山本郡八峰町八森家の上
0182644,秋田県,山本郡八峰町,八森椿台,アキタケン,ヤマモトグンハッポウチョウ,ハチモリツバキダイ,秋田県山本郡八峰町八森椿台
0182645,秋田県,山本郡八峰町,八森中嶋,アキタケン,ヤマモトグンハッポウチョウ,ハチモリナカジマ,秋田県山本郡八峰町八森中嶋
0182646,秋田県,山本郡八峰町,八森塚の台,アキタケン,ヤマモトグンハッポウチョウ,ハチモリツカノダイ,秋田県山本郡八峰町八森塚の台
0182647,秋田県,山本郡八峰町,八森鹿の浦,アキタケン,ヤマモトグンハッポウチョウ,ハチモリカノウラ,秋田県山本郡八峰町八森鹿の浦
0182648,秋田県,山本郡八峰町,八森泊台,アキタケン,ヤマモトグンハッポウチョウ,ハチモリトマリダイ,秋田県山本郡八峰町八森泊台
0182651,秋田県,山本郡八峰町,八森下館下,アキタケン,ヤマモトグンハッポウチョウ,ハチモリシモタテシタ,秋田県山本郡八峰町八森下館下
0182652,秋田県,山本郡八峰町,八森本館中台,アキタケン,ヤマモトグンハッポウチョウ,ハチモリモトダテナカダイ,秋田県山本郡八峰町八森本館中台
0182653,秋田県,山本郡八峰町,八森倉の沢,アキタケン,ヤマモトグンハッポウチョウ,ハチモリクラノサワ,秋田県山本郡八峰町八森倉の沢
0182654,秋田県,山本郡八峰町,八森諸沢口,アキタケン,ヤマモトグンハッポウチョウ,ハチモリモロサワグチ,秋田県山本郡八峰町八森諸沢口
0182655,秋田県,山本郡八峰町,八森本館,アキタケン,ヤマモトグンハッポウチョウ,ハチモリモトダテ,秋田県山本郡八峰町八森本館
0182656,秋田県,山本郡八峰町,八森諸沢下脇,アキタケン,ヤマモトグンハッポウチョウ,ハチモリモロサワシモワキ,秋田県山本郡八峰町八森諸沢下脇
0182661,秋田県,山本郡八峰町,八森浜田,アキタケン,ヤマモトグンハッポウチョウ,ハチモリハマダ,秋田県山本郡八峰町八森浜田
0182662,秋田県,山本郡八峰町,八森新浜田,アキタケン,ヤマモトグンハッポウチョウ,ハチモリシンハマダ,秋田県山本郡八峰町八森新浜田
0182663,秋田県,山本郡八峰町,八森樋長,アキタケン,ヤマモトグンハッポウチョウ,ハチモリトヨナガ,秋田県山本郡八峰町八森樋長
0182664,秋田県,山本郡八峰町,八森古屋敷,アキタケン,ヤマモトグンハッポウチョウ,ハチモリフルヤシキ,秋田県山本郡八峰町八森古屋敷
0182665,秋田県,山本郡八峰町,八森寺の後川向,アキタケン,ヤマモトグンハッポウチョウ,ハチモリテラノウシロカワムカイ,秋田県山本郡八峰町八森寺の後川向
0182666,秋田県,山本郡八峰町,八森寺の後,アキタケン,ヤマモトグンハッポウチョウ,ハチモリテラノウシロ,秋田県山本郡八峰町八森寺の後
0182667,秋田県,山本郡八峰町,八森八森家後,アキタケン,ヤマモトグンハッポウチョウ,ハチモリハチモリイエウシロ,秋田県山本郡八峰町八森八森家後
0182671,秋田県,山本郡八峰町,八森湯の尻,アキタケン,ヤマモトグンハッポウチョウ,ハチモリユノシリ,秋田県山本郡八峰町八森湯の尻
0182672,秋田県,山本郡八峰町,八森下家後,アキタケン,ヤマモトグンハッポウチョウ,ハチモリシモイエウシロ,秋田県山本郡八峰町八森下家後
0182673,秋田県,山本郡八峰町,八森中家後,アキタケン,ヤマモトグンハッポウチョウ,ハチモリナカイエウシロ,秋田県山本郡八峰町八森中家後
0182674,秋田県,山本郡八峰町,八森上家後,アキタケン,ヤマモトグンハッポウチョウ,ハチモリカミイエウシロ,秋田県山本郡八峰町八森上家後
0182675,秋田県,山本郡八峰町,八森篭田,アキタケン,ヤマモトグンハッポウチョウ,ハチモリカゴタ,秋田県山本郡八峰町八森篭田
0182676,秋田県,山本郡八峰町,八森磯村,アキタケン,ヤマモトグンハッポウチョウ,ハチモリイソムラ,秋田県山本郡八峰町八森磯村
0182677,秋田県,山本郡八峰町,八森八森後,アキタケン,ヤマモトグンハッポウチョウ,ハチモリハチモリウシロ,秋田県山本郡八峰町八森八森後
0182678,秋田県,山本郡八峰町,八森八森,アキタケン,ヤマモトグンハッポウチョウ,ハチモリハチモリ,秋田県山本郡八峰町八森八森
0182801,秋田県,能代市,常盤,アキタケン,ノシロシ,トキワ,秋田県能代市常盤
0182802,秋田県,能代市,天内,アキタケン,ノシロシ,アマナイ,秋田県能代市天内
0182803,秋田県,能代市,外割田,アキタケン,ノシロシ,トワリダ,秋田県能代市外割田
0182804,秋田県,能代市,槐,アキタケン,ノシロシ,サイカチ,秋田県能代市槐
0182805,秋田県,能代市,轟,アキタケン,ノシロシ,トドロキ,秋田県能代市轟
0182806,秋田県,能代市,久喜沢,アキタケン,ノシロシ,クキサワ,秋田県能代市久喜沢
0182811,秋田県,能代市,産物,アキタケン,ノシロシ,サンブツ,秋田県能代市産物
0182812,秋田県,能代市,大曲,アキタケン,ノシロシ,オオマガリ,秋田県能代市大曲
0182813,秋田県,能代市,上悪土,アキタケン,ノシロシ,カミアクド,秋田県能代市上悪土
0182814,秋田県,能代市,狐森,アキタケン,ノシロシ,キツネモリ,秋田県能代市狐森
0182815,秋田県,能代市,東面,アキタケン,ノシロシ,トウメン,秋田県能代市東面
0183101,秋田県,能代市,二ツ井町麻生,アキタケン,ノシロシ,フタツイマチアソウ,秋田県能代市二ツ井町麻生
0183102,秋田県,能代市,二ツ井町小繋,アキタケン,ノシロシ,フタツイマチコツナギ,秋田県能代市二ツ井町小繋
0183103,秋田県,能代市,二ツ井町荷上場,アキタケン,ノシロシ,フタツイマチニアゲバ,秋田県能代市二ツ井町荷上場
0183104,秋田県,能代市,二ツ井町沢口,アキタケン,ノシロシ,フタツイマチサワグチ,秋田県能代市二ツ井町沢口
0183105,秋田県,能代市,二ツ井町上山崎,アキタケン,ノシロシ,フタツイマチカミヤマザキ,秋田県能代市二ツ井町上山崎
0183106,秋田県,能代市,二ツ井町濁川,アキタケン,ノシロシ,フタツイマチニゴリカワ,秋田県能代市二ツ井町濁川
0183107,秋田県,能代市,二ツ井町苅又石,アキタケン,ノシロシ,フタツイマチカリマタイシ,秋田県能代市二ツ井町苅又石
0183111,秋田県,能代市,二ツ井町田代,アキタケン,ノシロシ,フタツイマチタシロ,秋田県能代市二ツ井町田代
0183112,秋田県,能代市,二ツ井町小掛,アキタケン,ノシロシ,フタツイマチコガケ,秋田県能代市二ツ井町小掛
0183113,秋田県,能代市,二ツ井町仁鮒,アキタケン,ノシロシ,フタツイマチニブナ,秋田県能代市二ツ井町仁鮒
0183114,秋田県,能代市,二ツ井町桜台,アキタケン,ノシロシ,フタツイマチサクラダイ,秋田県能代市二ツ井町桜台
0183115,秋田県,能代市,二ツ井町海道上,アキタケン,ノシロシ,フタツイマチカイドウウエ,秋田県能代市二ツ井町海道上
0183116,秋田県,能代市,二ツ井町家後,アキタケン,ノシロシ,フタツイマチイエウシロ,秋田県能代市二ツ井町家後
0183117,秋田県,能代市,二ツ井町塚台,アキタケン,ノシロシ,フタツイマチツカノダイ,秋田県能代市二ツ井町塚台
0183118,秋田県,能代市,二ツ井町上台,アキタケン,ノシロシ,フタツイマチウワダイ,秋田県能代市二ツ井町上台
0183119,秋田県,能代市,二ツ井町薄井,アキタケン,ノシロシ,フタツイマチウスイ,秋田県能代市二ツ井町薄井
0183121,秋田県,能代市,二ツ井町飛根（富根）,アキタケン,ノシロシ,フタツイマチトブネ(トミネ),秋田県能代市二ツ井町飛根（富根）
0183122,秋田県,能代市,二ツ井町飛根（その他）,アキタケン,ノシロシ,フタツイマチトブネ(ソノタ),秋田県能代市二ツ井町飛根（その他）
0183123,秋田県,能代市,二ツ井町駒形,アキタケン,ノシロシ,フタツイマチコマガタ,秋田県能代市二ツ井町駒形
0183124,秋田県,能代市,二ツ井町切石,アキタケン,ノシロシ,フタツイマチキリイシ,秋田県能代市二ツ井町切石
0183125,秋田県,能代市,二ツ井町茶屋下,アキタケン,ノシロシ,フタツイマチチャヤシタ,秋田県能代市二ツ井町茶屋下
0183126,秋田県,能代市,二ツ井町狐台,アキタケン,ノシロシ,フタツイマチキツネダイ,秋田県能代市二ツ井町狐台
0183127,秋田県,能代市,二ツ井町稗川原,アキタケン,ノシロシ,フタツイマチヒエカワハラ,秋田県能代市二ツ井町稗川原
0183128,秋田県,能代市,二ツ井町下稗柄,アキタケン,ノシロシ,フタツイマチシモヒエガラ,秋田県能代市二ツ井町下稗柄
0183129,秋田県,能代市,二ツ井町稗柄,アキタケン,ノシロシ,フタツイマチヒエガラ,秋田県能代市二ツ井町稗柄
0183131,秋田県,能代市,二ツ井町梅内,アキタケン,ノシロシ,フタツイマチウメナイ,秋田県能代市二ツ井町梅内
0183132,秋田県,能代市,二ツ井町種（その他）,アキタケン,ノシロシ,フタツイマチタネ(ソノタ),秋田県能代市二ツ井町種（その他）
0183133,秋田県,能代市,二ツ井町種（竹原）,アキタケン,ノシロシ,フタツイマチタネ(タケハラ),秋田県能代市二ツ井町種（竹原）
0183134,秋田県,能代市,二ツ井町高関,アキタケン,ノシロシ,フタツイマチタカセキ,秋田県能代市二ツ井町高関
0183135,秋田県,能代市,二ツ井町山根,アキタケン,ノシロシ,フタツイマチヤマネ,秋田県能代市二ツ井町山根
0183141,秋田県,能代市,二ツ井町五千苅,アキタケン,ノシロシ,フタツイマチゴセンガリ,秋田県能代市二ツ井町五千苅
0183142,秋田県,能代市,二ツ井町上野,アキタケン,ノシロシ,フタツイマチウワノ,秋田県能代市二ツ井町上野
0183143,秋田県,能代市,二ツ井町太田面,アキタケン,ノシロシ,フタツイマチオオタモテ,秋田県能代市二ツ井町太田面
0183144,秋田県,能代市,二ツ井町中坪,アキタケン,ノシロシ,フタツイマチナカツボ,秋田県能代市二ツ井町中坪
0183145,秋田県,能代市,二ツ井町道上中坪,アキタケン,ノシロシ,フタツイマチミチカミナカツボ,秋田県能代市二ツ井町道上中坪
0183146,秋田県,能代市,二ツ井町中坪道下,アキタケン,ノシロシ,フタツイマチナカツボミチシタ,秋田県能代市二ツ井町中坪道下
0183147,秋田県,能代市,二ツ井町小槻木,アキタケン,ノシロシ,フタツイマチコツキノキ,秋田県能代市二ツ井町小槻木
0183148,秋田県,能代市,二ツ井町槻ノ木,アキタケン,ノシロシ,フタツイマチツキノキ,秋田県能代市二ツ井町槻ノ木
0183151,秋田県,能代市,二ツ井町三千苅,アキタケン,ノシロシ,フタツイマチサンゼンガリ,秋田県能代市二ツ井町三千苅
0183152,秋田県,能代市,二ツ井町下野家後,アキタケン,ノシロシ,フタツイマチシモノイエウシロ,秋田県能代市二ツ井町下野家後
0183153,秋田県,能代市,二ツ井町滑良子川端,アキタケン,ノシロシ,フタツイマチナメラコカワバタ,秋田県能代市二ツ井町滑良子川端
0183154,秋田県,能代市,二ツ井町町尻,アキタケン,ノシロシ,フタツイマチマチジリ,秋田県能代市二ツ井町町尻
0183155,秋田県,能代市,二ツ井町比井野,アキタケン,ノシロシ,フタツイマチヒイノ,秋田県能代市二ツ井町比井野
0183156,秋田県,能代市,二ツ井町下野川端,アキタケン,ノシロシ,フタツイマチシモノカワバタ,秋田県能代市二ツ井町下野川端
0183157,秋田県,能代市,二ツ井町下野,アキタケン,ノシロシ,フタツイマチシモノ,秋田県能代市二ツ井町下野
0183200,秋田県,山本郡藤里町,,アキタケン,ヤマモトグンフジサトマチ,,秋田県山本郡藤里町
0183201,秋田県,山本郡藤里町,藤琴,アキタケン,ヤマモトグンフジサトマチ,フジコト,秋田県山本郡藤里町藤琴
0183202,秋田県,山本郡藤里町,太良,アキタケン,ヤマモトグンフジサトマチ,ダイラ,秋田県山本郡藤里町太良
0183203,秋田県,山本郡藤里町,大沢,アキタケン,ヤマモトグンフジサトマチ,オオサワ,秋田県山本郡藤里町大沢
0183204,秋田県,山本郡藤里町,矢坂,アキタケン,ヤマモトグンフジサトマチ,ヤサカ,秋田県山本郡藤里町矢坂
0183205,秋田県,山本郡藤里町,粕毛,アキタケン,ヤマモトグンフジサトマチ,カスゲ,秋田県山本郡藤里町粕毛
0183300,秋田県,北秋田市,,アキタケン,キタアキタシ,,秋田県北秋田市
0183301,秋田県,北秋田市,綴子,アキタケン,キタアキタシ,ツヅレコ,秋田県北秋田市綴子
0183302,秋田県,北秋田市,栄,アキタケン,キタアキタシ,サカエ,秋田県北秋田市栄
0183311,秋田県,北秋田市,材木町,アキタケン,キタアキタシ,ザイモクチョウ,秋田県北秋田市材木町
0183312,秋田県,北秋田市,花園町,アキタケン,キタアキタシ,ハナゾノチョウ,秋田県北秋田市花園町
0183313,秋田県,北秋田市,旭町,アキタケン,キタアキタシ,アサヒチョウ,秋田県北秋田市旭町
0183314,秋田県,北秋田市,伊勢町,アキタケン,キタアキタシ,イセチョウ,秋田県北秋田市伊勢町
0183315,秋田県,北秋田市,宮前町,アキタケン,キタアキタシ,ミヤマエチョウ,秋田県北秋田市宮前町
0183316,秋田県,北秋田市,東横町,アキタケン,キタアキタシ,ヒガシヨコマチ,秋田県北秋田市東横町
0183321,秋田県,北秋田市,松葉町,アキタケン,キタアキタシ,マツバチョウ,秋田県北秋田市松葉町
0183322,秋田県,北秋田市,住吉町,アキタケン,キタアキタシ,スミヨシチョウ,秋田県北秋田市住吉町
0183323,秋田県,北秋田市,米代町,アキタケン,キタアキタシ,ヨネシロチョウ,秋田県北秋田市米代町
0183324,秋田県,北秋田市,大町,アキタケン,キタアキタシ,オオマチ,秋田県北秋田市大町
0183325,秋田県,北秋田市,元町,アキタケン,キタアキタシ,モトマチ,秋田県北秋田市元町
0183331,秋田県,北秋田市,鷹巣（その他）,アキタケン,キタアキタシ,タカノス(ソノタ),秋田県北秋田市鷹巣（その他）
0183332,秋田県,北秋田市,鷹巣（平崎上岱）,アキタケン,キタアキタシ,タカノス(ヒラサキカミタイ),秋田県北秋田市鷹巣（平崎上岱）
0183333,秋田県,北秋田市,坊沢,アキタケン,キタアキタシ,ボウザワ,秋田県北秋田市坊沢
0183341,秋田県,北秋田市,黒沢,アキタケン,キタアキタシ,クロサワ,秋田県北秋田市黒沢
0183342,秋田県,北秋田市,前山,アキタケン,キタアキタシ,マエヤマ,秋田県北秋田市前山
0183343,秋田県,北秋田市,今泉,アキタケン,キタアキタシ,イマイズミ,秋田県北秋田市今泉
0183451,秋田県,北秋田市,小森,アキタケン,キタアキタシ,コモリ,秋田県北秋田市小森
0183452,秋田県,北秋田市,七日市,アキタケン,キタアキタシ,ナヌカイチ,秋田県北秋田市七日市
0183453,秋田県,北秋田市,中屋敷,アキタケン,キタアキタシ,ナカヤシキ,秋田県北秋田市中屋敷
0183454,秋田県,北秋田市,脇神,アキタケン,キタアキタシ,ワキガミ,秋田県北秋田市脇神
0183501,秋田県,大館市,岩瀬,アキタケン,オオダテシ,イワセ,秋田県大館市岩瀬
0183502,秋田県,大館市,山田,アキタケン,オオダテシ,ヤマダ,秋田県大館市山田
0183503,秋田県,大館市,外川原,アキタケン,オオダテシ,ソトカワラ,秋田県大館市外川原
0183504,秋田県,大館市,長坂,アキタケン,オオダテシ,ナガサカ,秋田県大館市長坂
0183505,秋田県,大館市,早口,アキタケン,オオダテシ,ハヤグチ,秋田県大館市早口
0183506,秋田県,大館市,山瀬,アキタケン,オオダテシ,ヤマセ,秋田県大館市山瀬
0184201,秋田県,北秋田市,増沢,アキタケン,キタアキタシ,マスザワ,秋田県北秋田市増沢
0184202,秋田県,北秋田市,八幡岱新田,アキタケン,キタアキタシ,ハチマンタイシンデン,秋田県北秋田市八幡岱新田
0184203,秋田県,北秋田市,木戸石,アキタケン,キタアキタシ,キドイシ,秋田県北秋田市木戸石
0184211,秋田県,北秋田市,川井,アキタケン,キタアキタシ,カワイ,秋田県北秋田市川井
0184221,秋田県,北秋田市,下杉,アキタケン,キタアキタシ,シモスギ,秋田県北秋田市下杉
0184231,秋田県,北秋田市,上杉,アキタケン,キタアキタシ,カミスギ,秋田県北秋田市上杉
0184241,秋田県,北秋田市,道城,アキタケン,キタアキタシ,ドウジョウ,秋田県北秋田市道城
0184251,秋田県,北秋田市,鎌沢,アキタケン,キタアキタシ,カマノサワ,秋田県北秋田市鎌沢
0184261,秋田県,北秋田市,芹沢,アキタケン,キタアキタシ,セリサワ,秋田県北秋田市芹沢
0184262,秋田県,北秋田市,三里,アキタケン,キタアキタシ,ミッサト,秋田県北秋田市三里
0184263,秋田県,北秋田市,三木田,アキタケン,キタアキタシ,ミツキタ,秋田県北秋田市三木田
0184271,秋田県,北秋田市,福田,アキタケン,キタアキタシ,フクダ,秋田県北秋田市福田
0184272,秋田県,北秋田市,新田目,アキタケン,キタアキタシ,ニイダメ,秋田県北秋田市新田目
0184273,秋田県,北秋田市,根田,アキタケン,キタアキタシ,コンダ,秋田県北秋田市根田
0184281,秋田県,北秋田市,羽根山,アキタケン,キタアキタシ,ハネヤマ,秋田県北秋田市羽根山
0184282,秋田県,北秋田市,李岱,アキタケン,キタアキタシ,スモモダイ,秋田県北秋田市李岱
0184301,秋田県,北秋田市,米内沢,アキタケン,キタアキタシ,ヨナイザワ,秋田県北秋田市米内沢
0184302,秋田県,北秋田市,浦田,アキタケン,キタアキタシ,ウラタ,秋田県北秋田市浦田
0184303,秋田県,北秋田市,本城,アキタケン,キタアキタシ,ホンジョウ,秋田県北秋田市本城
0184400,秋田県,北秋田郡上小阿仁村,,アキタケン,キタアキタグンカミコアニムラ,,秋田県北秋田郡上小阿仁村
0184401,秋田県,北秋田郡上小阿仁村,沖田面,アキタケン,キタアキタグンカミコアニムラ,オキタオモテ,秋田県北秋田郡上小阿仁村沖田面
0184411,秋田県,北秋田郡上小阿仁村,福舘,アキタケン,キタアキタグンカミコアニムラ,フクダテ,秋田県北秋田郡上小阿仁村福舘
0184412,秋田県,北秋田郡上小阿仁村,五反沢,アキタケン,キタアキタグンカミコアニムラ,ゴタンザワ,秋田県北秋田郡上小阿仁村五反沢
0184413,秋田県,北秋田郡上小阿仁村,杉花,アキタケン,キタアキタグンカミコアニムラ,スギハナ,秋田県北秋田郡上小阿仁村杉花
0184421,秋田県,北秋田郡上小阿仁村,小沢田,アキタケン,キタアキタグンカミコアニムラ,コサワダ,秋田県北秋田郡上小阿仁村小沢田
0184422,秋田県,北秋田郡上小阿仁村,堂川,アキタケン,キタアキタグンカミコアニムラ,ドウガワ,秋田県北秋田郡上小阿仁村堂川
0184423,秋田県,北秋田郡上小阿仁村,仏社,アキタケン,キタアキタグンカミコアニムラ,ブッシャ,秋田県北秋田郡上小阿仁村仏社
0184431,秋田県,北秋田郡上小阿仁村,大林,アキタケン,キタアキタグンカミコアニムラ,オオバヤシ,秋田県北秋田郡上小阿仁村大林
0184432,秋田県,北秋田郡上小阿仁村,南沢,アキタケン,キタアキタグンカミコアニムラ,ミナミザワ,秋田県北秋田郡上小阿仁村南沢
0184511,秋田県,北秋田市,森吉,アキタケン,キタアキタシ,モリヨシ,秋田県北秋田市森吉
0184512,秋田県,北秋田市,根森田,アキタケン,キタアキタシ,ネモリタ,秋田県北秋田市根森田
0184513,秋田県,北秋田市,小又,アキタケン,キタアキタシ,コマタ,秋田県北秋田市小又
0184514,秋田県,北秋田市,五味堀,アキタケン,キタアキタシ,ゴミホリ,秋田県北秋田市五味堀
0184515,秋田県,北秋田市,阿仁前田,アキタケン,キタアキタシ,アニマエダ,秋田県北秋田市阿仁前田
0184516,秋田県,北秋田市,桂瀬,アキタケン,キタアキタシ,カツラセ,秋田県北秋田市桂瀬
0184601,秋田県,北秋田市,阿仁吉田,アキタケン,キタアキタシ,アニヨシダ,秋田県北秋田市阿仁吉田
0184602,秋田県,北秋田市,阿仁小渕,アキタケン,キタアキタシ,アニコブチ,秋田県北秋田市阿仁小渕
0184603,秋田県,北秋田市,阿仁小様,アキタケン,キタアキタシ,アニコザマ,秋田県北秋田市阿仁小様
0184604,秋田県,北秋田市,阿仁三枚鉱山,アキタケン,キタアキタシ,アニサンマイコウザン,秋田県北秋田市阿仁三枚鉱山
0184611,秋田県,北秋田市,阿仁水無,アキタケン,キタアキタシ,アニミズナシ,秋田県北秋田市阿仁水無
0184612,秋田県,北秋田市,阿仁真木沢鉱山,アキタケン,キタアキタシ,アニマギサワコウザン,秋田県北秋田市阿仁真木沢鉱山
0184613,秋田県,北秋田市,阿仁銀山,アキタケン,キタアキタシ,アニギンザン,秋田県北秋田市阿仁銀山
0184621,秋田県,北秋田市,阿仁荒瀬,アキタケン,キタアキタシ,アニアラセ,秋田県北秋田市阿仁荒瀬
0184622,秋田県,北秋田市,阿仁小沢鉱山,アキタケン,キタアキタシ,アニコサワコウザン,秋田県北秋田市阿仁小沢鉱山
0184623,秋田県,北秋田市,阿仁荒瀬川櫃畑,アキタケン,キタアキタシ,アニアラセガワヒツハタ,秋田県北秋田市阿仁荒瀬川櫃畑
0184624,秋田県,北秋田市,阿仁鍵ノ滝,アキタケン,キタアキタシ,アニカギノタキ,秋田県北秋田市阿仁鍵ノ滝
0184731,秋田県,北秋田市,阿仁打当,アキタケン,キタアキタシ,アニウットウ,秋田県北秋田市阿仁打当
0184732,秋田県,北秋田市,阿仁中村,アキタケン,キタアキタシ,アニナカムラ,秋田県北秋田市阿仁中村
0184733,秋田県,北秋田市,阿仁戸鳥内,アキタケン,キタアキタシ,アニトトリナイ,秋田県北秋田市阿仁戸鳥内
0184734,秋田県,北秋田市,阿仁長畑,アキタケン,キタアキタシ,アニナガハタケ,秋田県北秋田市阿仁長畑
0184735,秋田県,北秋田市,阿仁比立内,アキタケン,キタアキタシ,アニヒタチナイ,秋田県北秋田市阿仁比立内
0184741,秋田県,北秋田市,阿仁幸屋,アキタケン,キタアキタシ,アニコウヤ,秋田県北秋田市阿仁幸屋
0184742,秋田県,北秋田市,阿仁幸屋渡,アキタケン,キタアキタシ,アニコウヤワタリ,秋田県北秋田市阿仁幸屋渡
0184743,秋田県,北秋田市,阿仁笑内,アキタケン,キタアキタシ,アニオカシナイ,秋田県北秋田市阿仁笑内
0184744,秋田県,北秋田市,阿仁根子,アキタケン,キタアキタシ,アニネッコ,秋田県北秋田市阿仁根子
0184745,秋田県,北秋田市,阿仁萱草,アキタケン,キタアキタシ,アニカヤクサ,秋田県北秋田市阿仁萱草
0184746,秋田県,北秋田市,阿仁伏影,アキタケン,キタアキタシ,アニフシカゲ,秋田県北秋田市阿仁伏影
0185141,秋田県,鹿角市,八幡平,アキタケン,カヅノシ,ハチマンタイ,秋田県鹿角市八幡平
0185200,秋田県,鹿角市,,アキタケン,カヅノシ,,秋田県鹿角市
0185201,秋田県,鹿角市,花輪,アキタケン,カヅノシ,ハナワ,秋田県鹿角市花輪
0185202,秋田県,鹿角市,尾去沢,アキタケン,カヅノシ,オサリザワ,秋田県鹿角市尾去沢
0185331,秋田県,鹿角市,十和田山根,アキタケン,カヅノシ,トワダヤマネ,秋田県鹿角市十和田山根
0185332,秋田県,鹿角市,十和田上向,アキタケン,カヅノシ,トワダウワムカイ,秋田県鹿角市十和田上向
0185333,秋田県,鹿角市,十和田岡田,アキタケン,カヅノシ,トワダオカダ,秋田県鹿角市十和田岡田
0185334,秋田県,鹿角市,十和田毛馬内,アキタケン,カヅノシ,トワダケマナイ,秋田県鹿角市十和田毛馬内
0185335,秋田県,鹿角市,十和田瀬田石,アキタケン,カヅノシ,トワダセタイシ,秋田県鹿角市十和田瀬田石
0185336,秋田県,鹿角市,十和田錦木,アキタケン,カヅノシ,トワダニシキギ,秋田県鹿角市十和田錦木
0185337,秋田県,鹿角市,十和田末広,アキタケン,カヅノシ,トワダスエヒロ,秋田県鹿角市十和田末広
0185421,秋田県,鹿角市,十和田大湯,アキタケン,カヅノシ,トワダオオユ,秋田県鹿角市十和田大湯
0185422,秋田県,鹿角市,十和田草木,アキタケン,カヅノシ,トワダクサギ,秋田県鹿角市十和田草木
0185511,秋田県,鹿角郡小坂町,十和田湖,アキタケン,カヅノグンコサカマチ,トワダコ,秋田県鹿角郡小坂町十和田湖
0185601,秋田県,大館市,十二所,アキタケン,オオダテシ,ジュウニショ,秋田県大館市十二所
0185602,秋田県,大館市,道目木,アキタケン,オオダテシ,ドウメキ,秋田県大館市道目木
0185603,秋田県,大館市,曲田,アキタケン,オオダテシ,マガタ,秋田県大館市曲田
0185604,秋田県,大館市,軽井沢,アキタケン,オオダテシ,カルイザワ,秋田県大館市軽井沢
0185605,秋田県,大館市,猿間,アキタケン,オオダテシ,サルマ,秋田県大館市猿間
0185606,秋田県,大館市,葛原,アキタケン,オオダテシ,クズワラ,秋田県大館市葛原
0185701,秋田県,大館市,比内町扇田,アキタケン,オオダテシ,ヒナイマチオウギタ,秋田県大館市比内町扇田
0185711,秋田県,大館市,比内町味噌内,アキタケン,オオダテシ,ヒナイマチミソナイ,秋田県大館市比内町味噌内
0185712,秋田県,大館市,比内町新館,アキタケン,オオダテシ,ヒナイマチニイダテ,秋田県大館市比内町新館
0185721,秋田県,大館市,比内町独鈷,アキタケン,オオダテシ,ヒナイマチトッコ,秋田県大館市比内町独鈷
0185722,秋田県,大館市,比内町中野,アキタケン,オオダテシ,ヒナイマチナカノ,秋田県大館市比内町中野
0185731,秋田県,大館市,比内町笹館,アキタケン,オオダテシ,ヒナイマチササダテ,秋田県大館市比内町笹館
0185732,秋田県,大館市,比内町谷地中,アキタケン,オオダテシ,ヒナイマチヤチナカ,秋田県大館市比内町谷地中
0185741,秋田県,大館市,比内町達子,アキタケン,オオダテシ,ヒナイマチタッコ,秋田県大館市比内町達子
0185742,秋田県,大館市,比内町白沢水沢,アキタケン,オオダテシ,ヒナイマチシラサワミズサワ,秋田県大館市比内町白沢水沢
0185743,秋田県,大館市,比内町小坪沢,アキタケン,オオダテシ,ヒナイマチオツボザワ,秋田県大館市比内町小坪沢
0185744,秋田県,大館市,比内町八木橋,アキタケン,オオダテシ,ヒナイマチヤギハシ,秋田県大館市比内町八木橋
0185745,秋田県,大館市,比内町片貝,アキタケン,オオダテシ,ヒナイマチカタガイ,秋田県大館市比内町片貝
0185751,秋田県,大館市,二井田,アキタケン,オオダテシ,ニイダ,秋田県大館市二井田
0185752,秋田県,大館市,本宮,アキタケン,オオダテシ,モトミヤ,秋田県大館市本宮
0185753,秋田県,大館市,比内前田,アキタケン,オオダテシ,ヒナイマエダ,秋田県大館市比内前田
0185754,秋田県,大館市,大子内,アキタケン,オオダテシ,オオシナイ,秋田県大館市大子内
0185755,秋田県,大館市,杉沢,アキタケン,オオダテシ,スギサワ,秋田県大館市杉沢
0185756,秋田県,大館市,下川原,アキタケン,オオダテシ,シタカワラ,秋田県大館市下川原
0185851,秋田県,大館市,比内町大葛,アキタケン,オオダテシ,ヒナイマチオオクゾ,秋田県大館市比内町大葛
0190111,秋田県,湯沢市,上院内,アキタケン,ユザワシ,カミインナイ,秋田県湯沢市上院内
0190112,秋田県,湯沢市,下院内,アキタケン,ユザワシ,シモインナイ,秋田県湯沢市下院内
0190113,秋田県,湯沢市,院内銀山町,アキタケン,ユザワシ,インナイギンザンマチ,秋田県湯沢市院内銀山町
0190201,秋田県,湯沢市,泉沢,アキタケン,ユザワシ,イズミサワ,秋田県湯沢市泉沢
0190202,秋田県,湯沢市,桑崎,アキタケン,ユザワシ,クワガサキ,秋田県湯沢市桑崎
0190203,秋田県,湯沢市,寺沢,アキタケン,ユザワシ,テラサワ,秋田県湯沢市寺沢
0190204,秋田県,湯沢市,横堀,アキタケン,ユザワシ,ヨコボリ,秋田県湯沢市横堀
0190205,秋田県,湯沢市,小野,アキタケン,ユザワシ,オノ,秋田県湯沢市小野
0190321,秋田県,湯沢市,秋ノ宮,アキタケン,ユザワシ,アキノミヤ,秋田県湯沢市秋ノ宮
0190401,秋田県,湯沢市,酒蒔,アキタケン,ユザワシ,サカマキ,秋田県湯沢市酒蒔
0190402,秋田県,湯沢市,相川,アキタケン,ユザワシ,アイカワ,秋田県湯沢市相川
0190403,秋田県,湯沢市,宇留院内,アキタケン,ユザワシ,ウルインナイ,秋田県湯沢市宇留院内
0190404,秋田県,湯沢市,高松,アキタケン,ユザワシ,タカマツ,秋田県湯沢市高松
0190481,秋田県,湯沢市,皆瀬（水上沢）,アキタケン,ユザワシ,ミナセ(ミズカミサワ),秋田県湯沢市皆瀬（水上沢）
0190501,秋田県,横手市,十文字町腕越,アキタケン,ヨコテシ,ジュウモンジマチウデコシ,秋田県横手市十文字町腕越
0190502,秋田県,横手市,十文字町西原２番町,アキタケン,ヨコテシ,ジュウモンジマチニシハラ2バンチョウ,秋田県横手市十文字町西原2-町
0190503,秋田県,横手市,十文字町西原１番町,アキタケン,ヨコテシ,ジュウモンジマチニシハラ1バンチョウ,秋田県横手市十文字町西原1-町
0190505,秋田県,横手市,十文字町仁井田,アキタケン,ヨコテシ,ジュウモンジマチニイダ,秋田県横手市十文字町仁井田
0190506,秋田県,横手市,十文字町佐賀会,アキタケン,ヨコテシ,ジュウモンジマチサガエ,秋田県横手市十文字町佐賀会
0190507,秋田県,横手市,十文字町上鍋倉,アキタケン,ヨコテシ,ジュウモンジマチカミナベクラ,秋田県横手市十文字町上鍋倉
0190508,秋田県,横手市,十文字町十五野新田,アキタケン,ヨコテシ,ジュウモンジマチジュウゴノシンデン,秋田県横手市十文字町十五野新田
0190509,秋田県,横手市,十文字町梨木,アキタケン,ヨコテシ,ジュウモンジマチナシノキ,秋田県横手市十文字町梨木
0190511,秋田県,横手市,十文字町鼎,アキタケン,ヨコテシ,ジュウモンジマチカナエ,秋田県横手市十文字町鼎
0190512,秋田県,横手市,十文字町越前,アキタケン,ヨコテシ,ジュウモンジマチエツゼン,秋田県横手市十文字町越前
0190513,秋田県,横手市,十文字町植田,アキタケン,ヨコテシ,ジュウモンジマチウエダ,秋田県横手市十文字町植田
0190514,秋田県,横手市,十文字町睦合,アキタケン,ヨコテシ,ジュウモンジマチムツアイ,秋田県横手市十文字町睦合
0190515,秋田県,横手市,十文字町谷地新田,アキタケン,ヨコテシ,ジュウモンジマチヤチシンデン,秋田県横手市十文字町谷地新田
0190516,秋田県,横手市,十文字町源太左馬,アキタケン,ヨコテシ,ジュウモンジマチゲンダサマ,秋田県横手市十文字町源太左馬
0190517,秋田県,横手市,十文字町木下,アキタケン,ヨコテシ,ジュウモンジマチキジタ,秋田県横手市十文字町木下
0190518,秋田県,横手市,十文字町宝竜,アキタケン,ヨコテシ,ジュウモンジマチホウリュウ,秋田県横手市十文字町宝竜
0190521,秋田県,横手市,十文字町西下,アキタケン,ヨコテシ,ジュウモンジマチニシシタ,秋田県横手市十文字町西下
0190522,秋田県,横手市,十文字町西上,アキタケン,ヨコテシ,ジュウモンジマチニシカミ,秋田県横手市十文字町西上
0190523,秋田県,横手市,十文字町十文字,アキタケン,ヨコテシ,ジュウモンジマチジュウモンジ,秋田県横手市十文字町十文字
0190524,秋田県,横手市,十文字町本町,アキタケン,ヨコテシ,ジュウモンジマチモトマチ,秋田県横手市十文字町本町
0190525,秋田県,横手市,十文字町曙町,アキタケン,ヨコテシ,ジュウモンジマチアケボノチョウ,秋田県横手市十文字町曙町
0190526,秋田県,横手市,十文字町通町,アキタケン,ヨコテシ,ジュウモンジマチトオリマチ,秋田県横手市十文字町通町
0190527,秋田県,横手市,十文字町大道東,アキタケン,ヨコテシ,ジュウモンジマチダイドウヒガシ,秋田県横手市十文字町大道東
0190528,秋田県,横手市,十文字町栄町,アキタケン,ヨコテシ,ジュウモンジマチサカエチョウ,秋田県横手市十文字町栄町
0190529,秋田県,横手市,十文字町海道下,アキタケン,ヨコテシ,ジュウモンジマチカイドウシタ,秋田県横手市十文字町海道下
0190531,秋田県,横手市,十文字町上佐吉開,アキタケン,ヨコテシ,ジュウモンジマチカミサキチビラキ,秋田県横手市十文字町上佐吉開
0190532,秋田県,横手市,十文字町麻当,アキタケン,ヨコテシ,ジュウモンジマチマトウ,秋田県横手市十文字町麻当
0190533,秋田県,横手市,十文字町下佐吉開,アキタケン,ヨコテシ,ジュウモンジマチシモサキチビラキ,秋田県横手市十文字町下佐吉開
0190701,秋田県,横手市,増田町増田,アキタケン,ヨコテシ,マスダマチマスダ,秋田県横手市増田町増田
0190702,秋田県,横手市,増田町亀田,アキタケン,ヨコテシ,マスダマチカメダ,秋田県横手市増田町亀田
0190703,秋田県,横手市,増田町吉野,アキタケン,ヨコテシ,マスダマチヨシノ,秋田県横手市増田町吉野
0190704,秋田県,横手市,増田町湯野沢,アキタケン,ヨコテシ,マスダマチユノサワ,秋田県横手市増田町湯野沢
0190705,秋田県,横手市,増田町狙半内,アキタケン,ヨコテシ,マスダマチサルハンナイ,秋田県横手市増田町狙半内
0190711,秋田県,横手市,増田町荻袋,アキタケン,ヨコテシ,マスダマチオギノフクロ,秋田県横手市増田町荻袋
0190712,秋田県,横手市,増田町熊渕,アキタケン,ヨコテシ,マスダマチクマノフチ,秋田県横手市増田町熊渕
0190713,秋田県,横手市,増田町三又,アキタケン,ヨコテシ,マスダマチミツマタ,秋田県横手市増田町三又
0190714,秋田県,横手市,増田町戸波,アキタケン,ヨコテシ,マスダマチトナミ,秋田県横手市増田町戸波
0190715,秋田県,横手市,増田町八木,アキタケン,ヨコテシ,マスダマチヤギ,秋田県横手市増田町八木
0190800,秋田県,雄勝郡東成瀬村,,アキタケン,オガチグンヒガシナルセムラ,,秋田県雄勝郡東成瀬村
0190801,秋田県,雄勝郡東成瀬村,田子内,アキタケン,オガチグンヒガシナルセムラ,タゴナイ,秋田県雄勝郡東成瀬村田子内
0190802,秋田県,雄勝郡東成瀬村,岩井川,アキタケン,オガチグンヒガシナルセムラ,イワイカワ,秋田県雄勝郡東成瀬村岩井川
0190803,秋田県,雄勝郡東成瀬村,椿川,アキタケン,オガチグンヒガシナルセムラ,ツバキカワ,秋田県雄勝郡東成瀬村椿川
0191101,秋田県,横手市,山内大松川,アキタケン,ヨコテシ,サンナイオオマツカワ,秋田県横手市山内大松川
0191102,秋田県,横手市,山内小松川,アキタケン,ヨコテシ,サンナイコマツカワ,秋田県横手市山内小松川
0191103,秋田県,横手市,山内黒沢,アキタケン,ヨコテシ,サンナイクロサワ,秋田県横手市山内黒沢
0191104,秋田県,横手市,山内三又,アキタケン,ヨコテシ,サンナイミツマタ,秋田県横手市山内三又
0191105,秋田県,横手市,山内南郷,アキタケン,ヨコテシ,サンナイナンゴウ,秋田県横手市山内南郷
0191106,秋田県,横手市,山内平野沢,アキタケン,ヨコテシ,サンナイヒラノサワ,秋田県横手市山内平野沢
0191107,秋田県,横手市,山内筏,アキタケン,ヨコテシ,サンナイイカダ,秋田県横手市山内筏
0191108,秋田県,横手市,山内土渕,アキタケン,ヨコテシ,サンナイツチブチ,秋田県横手市山内土渕
0191109,秋田県,横手市,山内大沢,アキタケン,ヨコテシ,サンナイオオサワ,秋田県横手市山内大沢
0191231,秋田県,仙北郡美郷町,南町,アキタケン,センボクグンミサトチョウ,ミナミマチ,秋田県仙北郡美郷町南町
0191232,秋田県,仙北郡美郷町,天神堂,アキタケン,センボクグンミサトチョウ,テンジンドウ,秋田県仙北郡美郷町天神堂
0191233,秋田県,仙北郡美郷町,境田,アキタケン,センボクグンミサトチョウ,サカイダ,秋田県仙北郡美郷町境田
0191234,秋田県,仙北郡美郷町,飯詰,アキタケン,センボクグンミサトチョウ,イイヅメ,秋田県仙北郡美郷町飯詰
0191235,秋田県,仙北郡美郷町,金沢西根,アキタケン,センボクグンミサトチョウ,カネザワニシネ,秋田県仙北郡美郷町金沢西根
0191236,秋田県,仙北郡美郷町,上深井,アキタケン,センボクグンミサトチョウ,カミフカイ,秋田県仙北郡美郷町上深井
0191237,秋田県,仙北郡美郷町,佐野,アキタケン,センボクグンミサトチョウ,サノ,秋田県仙北郡美郷町佐野
0191301,秋田県,仙北郡美郷町,野荒町,アキタケン,センボクグンミサトチョウ,ノアラマチ,秋田県仙北郡美郷町野荒町
0191302,秋田県,仙北郡美郷町,金沢,アキタケン,センボクグンミサトチョウ,カネザワ,秋田県仙北郡美郷町金沢
0191400,秋田県,仙北郡美郷町,,アキタケン,センボクグンミサトチョウ,,秋田県仙北郡美郷町
0191401,秋田県,仙北郡美郷町,鑓田,アキタケン,センボクグンミサトチョウ,ヤリダ,秋田県仙北郡美郷町鑓田
0191402,秋田県,仙北郡美郷町,野中,アキタケン,センボクグンミサトチョウ,ノナカ,秋田県仙北郡美郷町野中
0191403,秋田県,仙北郡美郷町,六郷東根,アキタケン,センボクグンミサトチョウ,ロクゴウヒガシネ,秋田県仙北郡美郷町六郷東根
0191404,秋田県,仙北郡美郷町,六郷,アキタケン,センボクグンミサトチョウ,ロクゴウ,秋田県仙北郡美郷町六郷
0191501,秋田県,仙北郡美郷町,浪花,アキタケン,センボクグンミサトチョウ,ナニワ,秋田県仙北郡美郷町浪花
0191502,秋田県,仙北郡美郷町,千屋,アキタケン,センボクグンミサトチョウ,センヤ,秋田県仙北郡美郷町千屋
0191511,秋田県,仙北郡美郷町,黒沢,アキタケン,センボクグンミサトチョウ,クロサワ,秋田県仙北郡美郷町黒沢
0191512,秋田県,仙北郡美郷町,本堂城回,アキタケン,センボクグンミサトチョウ,ホンドウシロマワリ,秋田県仙北郡美郷町本堂城回
0191521,秋田県,仙北郡美郷町,中野,アキタケン,センボクグンミサトチョウ,ナカノ,秋田県仙北郡美郷町中野
0191522,秋田県,仙北郡美郷町,金沢東根,アキタケン,センボクグンミサトチョウ,カネザワヒガシネ,秋田県仙北郡美郷町金沢東根
0191531,秋田県,仙北郡美郷町,畑屋,アキタケン,センボクグンミサトチョウ,ハタヤ,秋田県仙北郡美郷町畑屋
0191532,秋田県,仙北郡美郷町,羽貫谷地,アキタケン,センボクグンミサトチョウ,ハヌキヤチ,秋田県仙北郡美郷町羽貫谷地
0191533,秋田県,仙北郡美郷町,安城寺,アキタケン,センボクグンミサトチョウ,アンジョウジ,秋田県仙北郡美郷町安城寺
0191541,秋田県,仙北郡美郷町,土崎,アキタケン,センボクグンミサトチョウ,ツチザキ,秋田県仙北郡美郷町土崎
0191542,秋田県,仙北郡美郷町,小荒川,アキタケン,センボクグンミサトチョウ,コアラカワ,秋田県仙北郡美郷町小荒川
0191601,秋田県,大仙市,太田町横沢,アキタケン,ダイセンシ,オオタチョウヨコサワ,秋田県大仙市太田町横沢
0191602,秋田県,大仙市,太田町三本扇,アキタケン,ダイセンシ,オオタチョウサンボンオウギ,秋田県大仙市太田町三本扇
0191603,秋田県,大仙市,太田町中里,アキタケン,ダイセンシ,オオタチョウナカサト,秋田県大仙市太田町中里
0191604,秋田県,大仙市,太田町駒場,アキタケン,ダイセンシ,オオタチョウコマバ,秋田県大仙市太田町駒場
0191605,秋田県,大仙市,太田町国見,アキタケン,ダイセンシ,オオタチョウクニミ,秋田県大仙市太田町国見
0191611,秋田県,大仙市,太田町斉内,アキタケン,ダイセンシ,オオタチョウサイナイ,秋田県大仙市太田町斉内
0191612,秋田県,大仙市,太田町小神成,アキタケン,ダイセンシ,オオタチョウコガナリ,秋田県大仙市太田町小神成
0191613,秋田県,大仙市,太田町太田,アキタケン,ダイセンシ,オオタチョウオオタ,秋田県大仙市太田町太田
0191614,秋田県,大仙市,太田町東今泉,アキタケン,ダイセンシ,オオタチョウヒガシイマイズミ,秋田県大仙市太田町東今泉
0191615,秋田県,大仙市,太田町川口,アキタケン,ダイセンシ,オオタチョウカワグチ,秋田県大仙市太田町川口
0191616,秋田県,大仙市,太田町永代,アキタケン,ダイセンシ,オオタチョウエイダイ,秋田県大仙市太田町永代
0191701,秋田県,大仙市,神宮寺,アキタケン,ダイセンシ,ジングウジ,秋田県大仙市神宮寺
0191702,秋田県,大仙市,北楢岡,アキタケン,ダイセンシ,キタナラオカ,秋田県大仙市北楢岡
0191801,秋田県,大仙市,南外物渡台,アキタケン,ダイセンシ,ナンガイブツドダイ,秋田県大仙市南外物渡台
0191802,秋田県,大仙市,南外小春木沢,アキタケン,ダイセンシ,ナンガイコハルキザワ,秋田県大仙市南外小春木沢
0191803,秋田県,大仙市,南外坊田石兀ノ下,アキタケン,ダイセンシ,ナンガイボウダイシハゲノシタ,秋田県大仙市南外坊田石兀ノ下
0191804,秋田県,大仙市,南外西野,アキタケン,ダイセンシ,ナンガイニシノ,秋田県大仙市南外西野
0191805,秋田県,大仙市,南外西板戸,アキタケン,ダイセンシ,ナンガイニシイタド,秋田県大仙市南外西板戸
0191806,秋田県,大仙市,南外十二袋,アキタケン,ダイセンシ,ナンガイジュウニフクロ,秋田県大仙市南外十二袋
0191807,秋田県,大仙市,南外川口本町,アキタケン,ダイセンシ,ナンガイカワグチホンチョウ,秋田県大仙市南外川口本町
0191808,秋田県,大仙市,南外川口,アキタケン,ダイセンシ,ナンガイカワグチ,秋田県大仙市南外川口
0191811,秋田県,大仙市,南外本宿,アキタケン,ダイセンシ,ナンガイモトシュク,秋田県大仙市南外本宿
0191812,秋田県,大仙市,南外沖田,アキタケン,ダイセンシ,ナンガイオキダ,秋田県大仙市南外沖田
0191813,秋田県,大仙市,南外猿ケ瀬出野,アキタケン,ダイセンシ,ナンガイサルガセデノ,秋田県大仙市南外猿ケ瀬出野
0191814,秋田県,大仙市,南外下木直,アキタケン,ダイセンシ,ナンガイシモキジキ,秋田県大仙市南外下木直
0191815,秋田県,大仙市,南外平形,アキタケン,ダイセンシ,ナンガイヒラカタ,秋田県大仙市南外平形
0191816,秋田県,大仙市,南外上木直,アキタケン,ダイセンシ,ナンガイカミキジキ,秋田県大仙市南外上木直
0191817,秋田県,大仙市,南外木直沢,アキタケン,ダイセンシ,ナンガイキジキザワ,秋田県大仙市南外木直沢
0191822,秋田県,大仙市,南外田屋村,アキタケン,ダイセンシ,ナンガイタヤムラ,秋田県大仙市南外田屋村
0191824,秋田県,大仙市,南外宮田,アキタケン,ダイセンシ,ナンガイミヤタ,秋田県大仙市南外宮田
0191825,秋田県,大仙市,南外坊田,アキタケン,ダイセンシ,ナンガイボウダ,秋田県大仙市南外坊田
0191826,秋田県,大仙市,南外田中田,アキタケン,ダイセンシ,ナンガイタナカタ,秋田県大仙市南外田中田
0191827,秋田県,大仙市,南外田中田山根,アキタケン,ダイセンシ,ナンガイタナカタヤマネ,秋田県大仙市南外田中田山根
0191831,秋田県,大仙市,南外壇ノ平山,アキタケン,ダイセンシ,ナンガイダンノヒラヤマ,秋田県大仙市南外壇ノ平山
0191832,秋田県,大仙市,南外北田山田ケ沢,アキタケン,ダイセンシ,ナンガイキタダヤマダガサワ,秋田県大仙市南外北田山田ケ沢
0191834,秋田県,大仙市,南外北田黒瀬,アキタケン,ダイセンシ,ナンガイキタダクロセ,秋田県大仙市南外北田黒瀬
0191834,秋田県,大仙市,南外揚土山,アキタケン,ダイセンシ,ナンガイアゲツチヤマ,秋田県大仙市南外揚土山
0191835,秋田県,大仙市,南外揚土,アキタケン,ダイセンシ,ナンガイアゲツチ,秋田県大仙市南外揚土
0191841,秋田県,大仙市,南外大杉山岸,アキタケン,ダイセンシ,ナンガイオオスギヤマギシ,秋田県大仙市南外大杉山岸
0191842,秋田県,大仙市,南外大杉,アキタケン,ダイセンシ,ナンガイオオスギ,秋田県大仙市南外大杉
0191843,秋田県,大仙市,南外大杉二タ又杉,アキタケン,ダイセンシ,ナンガイオオスギフタマタスギ,秋田県大仙市南外大杉二タ又杉
0191846,秋田県,大仙市,南外梨木田,アキタケン,ダイセンシ,ナンガイナシキダ,秋田県大仙市南外梨木田
0191847,秋田県,大仙市,南外小出,アキタケン,ダイセンシ,ナンガイコイデ,秋田県大仙市南外小出
0191848,秋田県,大仙市,南外鞦田,アキタケン,ダイセンシ,ナンガイシリガイダ,秋田県大仙市南外鞦田
0191851,秋田県,大仙市,南外山王台,アキタケン,ダイセンシ,ナンガイサンオウダイ,秋田県大仙市南外山王台
0191852,秋田県,大仙市,南外太田,アキタケン,ダイセンシ,ナンガイオオタ,秋田県大仙市南外太田
0191853,秋田県,大仙市,南外坊田黒沢,アキタケン,ダイセンシ,ナンガイボウダクロサワ,秋田県大仙市南外坊田黒沢
0191855,秋田県,大仙市,南外大畑,アキタケン,ダイセンシ,ナンガイオオバタ,秋田県大仙市南外大畑
0191856,秋田県,大仙市,南外大畑深山,アキタケン,ダイセンシ,ナンガイオオバタミヤマ,秋田県大仙市南外大畑深山
0191857,秋田県,大仙市,南外大畑潜沢,アキタケン,ダイセンシ,ナンガイオオバタクグリサワ,秋田県大仙市南外大畑潜沢
0191858,秋田県,大仙市,南外赤平六郎沢,アキタケン,ダイセンシ,ナンガイアカヒラロクロウサワ,秋田県大仙市南外赤平六郎沢
0191861,秋田県,大仙市,南外寺沢,アキタケン,ダイセンシ,ナンガイテラサワ,秋田県大仙市南外寺沢
0191862,秋田県,大仙市,南外和合,アキタケン,ダイセンシ,ナンガイワゴウ,秋田県大仙市南外和合
0191863,秋田県,大仙市,南外赤平貝沼,アキタケン,ダイセンシ,ナンガイアカヒラカイヌマ,秋田県大仙市南外赤平貝沼
0191864,秋田県,大仙市,南外赤平大道東,アキタケン,ダイセンシ,ナンガイアカヒラダイドウヒガシ,秋田県大仙市南外赤平大道東
0191865,秋田県,大仙市,南外赤平後野,アキタケン,ダイセンシ,ナンガイアカヒラウシロノ,秋田県大仙市南外赤平後野
0191866,秋田県,大仙市,南外赤平台野,アキタケン,ダイセンシ,ナンガイアカヒラダイノ,秋田県大仙市南外赤平台野
0191868,秋田県,大仙市,南外赤平平家,アキタケン,ダイセンシ,ナンガイアカヒラヘイケ,秋田県大仙市南外赤平平家
0191871,秋田県,大仙市,南外谷地田,アキタケン,ダイセンシ,ナンガイヤチダ,秋田県大仙市南外谷地田
0191872,秋田県,大仙市,南外上中宿,アキタケン,ダイセンシ,ナンガイカミナカシュク,秋田県大仙市南外上中宿
0191873,秋田県,大仙市,南外田中,アキタケン,ダイセンシ,ナンガイタナカ,秋田県大仙市南外田中
0191874,秋田県,大仙市,南外中宿,アキタケン,ダイセンシ,ナンガイナカシュク,秋田県大仙市南外中宿
0191875,秋田県,大仙市,南外落合,アキタケン,ダイセンシ,ナンガイオチアイ,秋田県大仙市南外落合
0191876,秋田県,大仙市,南外新屋布,アキタケン,ダイセンシ,ナンガイアラヤシキ,秋田県大仙市南外新屋布
0191877,秋田県,大仙市,南外水沢,アキタケン,ダイセンシ,ナンガイミズサワ,秋田県大仙市南外水沢
0191878,秋田県,大仙市,南外及位,アキタケン,ダイセンシ,ナンガイノゾキ,秋田県大仙市南外及位
0191881,秋田県,大仙市,南外葎沢,アキタケン,ダイセンシ,ナンガイムグラサワ,秋田県大仙市南外葎沢
0191882,秋田県,大仙市,南外大和野,アキタケン,ダイセンシ,ナンガイオオワノ,秋田県大仙市南外大和野
0191883,秋田県,大仙市,南外平沢,アキタケン,ダイセンシ,ナンガイヒラサワ,秋田県大仙市南外平沢
0191884,秋田県,大仙市,南外林ノ沢,アキタケン,ダイセンシ,ナンガイハヤシノサワ,秋田県大仙市南外林ノ沢
0191885,秋田県,大仙市,南外無尻橋,アキタケン,ダイセンシ,ナンガイムジリバシ,秋田県大仙市南外無尻橋
0191886,秋田県,大仙市,南外西ノ又,アキタケン,ダイセンシ,ナンガイニシノマタ,秋田県大仙市南外西ノ又
0191887,秋田県,大仙市,南外中渡,アキタケン,ダイセンシ,ナンガイナカワタリ,秋田県大仙市南外中渡
0191888,秋田県,大仙市,南外土場,アキタケン,ダイセンシ,ナンガイドバ,秋田県大仙市南外土場
0191901,秋田県,大仙市,南外悪戸野,アキタケン,ダイセンシ,ナンガイアクトノ,秋田県大仙市南外悪戸野
0191902,秋田県,大仙市,南外下袋,アキタケン,ダイセンシ,ナンガイシモブクロ,秋田県大仙市南外下袋
0191903,秋田県,大仙市,南外下鎌田,アキタケン,ダイセンシ,ナンガイシモカマタ,秋田県大仙市南外下鎌田
0191904,秋田県,大仙市,南外中袋,アキタケン,ダイセンシ,ナンガイナカブクロ,秋田県大仙市南外中袋
0191905,秋田県,大仙市,南外大向,アキタケン,ダイセンシ,ナンガイオオムカイ,秋田県大仙市南外大向
0191906,秋田県,大仙市,南外金屋,アキタケン,ダイセンシ,ナンガイカナヤ,秋田県大仙市南外金屋
0191907,秋田県,大仙市,南外上鎌田,アキタケン,ダイセンシ,ナンガイカミカマタ,秋田県大仙市南外上鎌田
0191908,秋田県,大仙市,南外上野,アキタケン,ダイセンシ,ナンガイウエノ,秋田県大仙市南外上野
0191909,秋田県,大仙市,南外杉橋,アキタケン,ダイセンシ,ナンガイスギハシ,秋田県大仙市南外杉橋
0191911,秋田県,大仙市,南外坊村,アキタケン,ダイセンシ,ナンガイボウムラ,秋田県大仙市南外坊村
0191912,秋田県,大仙市,南外丸木橋,アキタケン,ダイセンシ,ナンガイマルキバシ,秋田県大仙市南外丸木橋
0191913,秋田県,大仙市,南外湯神台,アキタケン,ダイセンシ,ナンガイユガミダイ,秋田県大仙市南外湯神台
0191914,秋田県,大仙市,南外湯ノ又,アキタケン,ダイセンシ,ナンガイユノマタ,秋田県大仙市南外湯ノ又
0191915,秋田県,大仙市,南外下湯ノ又,アキタケン,ダイセンシ,ナンガイシモユノマタ,秋田県大仙市南外下湯ノ又
0191916,秋田県,大仙市,南外石仏,アキタケン,ダイセンシ,ナンガイイシボトケ,秋田県大仙市南外石仏
0191917,秋田県,大仙市,南外薬師堂,アキタケン,ダイセンシ,ナンガイヤクシドウ,秋田県大仙市南外薬師堂
0191918,秋田県,大仙市,南外広表,アキタケン,ダイセンシ,ナンガイヒロオモテ,秋田県大仙市南外広表
0191921,秋田県,大仙市,南外中野,アキタケン,ダイセンシ,ナンガイナカノ,秋田県大仙市南外中野
0191922,秋田県,大仙市,南外上中野,アキタケン,ダイセンシ,ナンガイカミナカノ,秋田県大仙市南外上中野
0191923,秋田県,大仙市,南外巣ノ沢,アキタケン,ダイセンシ,ナンガイスノサワ,秋田県大仙市南外巣ノ沢
0191924,秋田県,大仙市,南外巣ノ沢石切場,アキタケン,ダイセンシ,ナンガイスノサワイシキリバ,秋田県大仙市南外巣ノ沢石切場
0191925,秋田県,大仙市,南外上巣ノ沢,アキタケン,ダイセンシ,ナンガイカミスノサワ,秋田県大仙市南外上巣ノ沢
0191926,秋田県,大仙市,南外上桑台,アキタケン,ダイセンシ,ナンガイカミクワダイ,秋田県大仙市南外上桑台
0191927,秋田県,大仙市,南外中桑台,アキタケン,ダイセンシ,ナンガイナカクワダイ,秋田県大仙市南外中桑台
0191928,秋田県,大仙市,南外滝中田表,アキタケン,ダイセンシ,ナンガイタキナカタオモテ,秋田県大仙市南外滝中田表
0191929,秋田県,大仙市,南外中野山,アキタケン,ダイセンシ,ナンガイナカノヤマ,秋田県大仙市南外中野山
0191931,秋田県,大仙市,南外下滝,アキタケン,ダイセンシ,ナンガイシモタキ,秋田県大仙市南外下滝
0191932,秋田県,大仙市,南外大黒森,アキタケン,ダイセンシ,ナンガイオオクロモリ,秋田県大仙市南外大黒森
0191933,秋田県,大仙市,南外滝ノ沢,アキタケン,ダイセンシ,ナンガイタキノサワ,秋田県大仙市南外滝ノ沢
0191934,秋田県,大仙市,南外田尻,アキタケン,ダイセンシ,ナンガイタジリ,秋田県大仙市南外田尻
0191935,秋田県,大仙市,南外大平,アキタケン,ダイセンシ,ナンガイオオヒラ,秋田県大仙市南外大平
0191936,秋田県,大仙市,南外中荒沢,アキタケン,ダイセンシ,ナンガイナカアラサワ,秋田県大仙市南外中荒沢
0191937,秋田県,大仙市,南外小荒沢,アキタケン,ダイセンシ,ナンガイコアラサワ,秋田県大仙市南外小荒沢
0191938,秋田県,大仙市,南外下荒沢,アキタケン,ダイセンシ,ナンガイシモアラサワ,秋田県大仙市南外下荒沢
0191939,秋田県,大仙市,南外水上沢,アキタケン,ダイセンシ,ナンガイミズカミザワ,秋田県大仙市南外水上沢
0191941,秋田県,大仙市,南外松木田,アキタケン,ダイセンシ,ナンガイマツキダ,秋田県大仙市南外松木田
0191942,秋田県,大仙市,南外岩倉,アキタケン,ダイセンシ,ナンガイイワクラ,秋田県大仙市南外岩倉
0191943,秋田県,大仙市,南外一ト刎,アキタケン,ダイセンシ,ナンガイヒトハネ,秋田県大仙市南外一ト刎
0191944,秋田県,大仙市,南外湯元,アキタケン,ダイセンシ,ナンガイユモト,秋田県大仙市南外湯元
0191945,秋田県,大仙市,南外岩瀬,アキタケン,ダイセンシ,ナンガイイワセ,秋田県大仙市南外岩瀬
0191946,秋田県,大仙市,南外十二ノ前,アキタケン,ダイセンシ,ナンガイジュウニノマエ,秋田県大仙市南外十二ノ前
0191947,秋田県,大仙市,南外下釜坂,アキタケン,ダイセンシ,ナンガイシモカマサカ,秋田県大仙市南外下釜坂
0191948,秋田県,大仙市,南外上釜坂,アキタケン,ダイセンシ,ナンガイカミカマサカ,秋田県大仙市南外上釜坂
0191949,秋田県,大仙市,南外赤畑,アキタケン,ダイセンシ,ナンガイアカハタ,秋田県大仙市南外赤畑
0191951,秋田県,大仙市,南外黒滝,アキタケン,ダイセンシ,ナンガイクロタキ,秋田県大仙市南外黒滝
0191952,秋田県,大仙市,南外下荒又,アキタケン,ダイセンシ,ナンガイシモアラマタ,秋田県大仙市南外下荒又
0191953,秋田県,大仙市,南外外小友,アキタケン,ダイセンシ,ナンガイソトオトモ,秋田県大仙市南外外小友
0191954,秋田県,大仙市,南外中荒又,アキタケン,ダイセンシ,ナンガイナカアラマタ,秋田県大仙市南外中荒又
0191955,秋田県,大仙市,南外外山,アキタケン,ダイセンシ,ナンガイソトヤマ,秋田県大仙市南外外山
0191956,秋田県,大仙市,南外上荒又,アキタケン,ダイセンシ,ナンガイカミアラマタ,秋田県大仙市南外上荒又
0191957,秋田県,大仙市,南外小浪滝,アキタケン,ダイセンシ,ナンガイザンザラ,秋田県大仙市南外小浪滝
0191958,秋田県,大仙市,南外向ノ沢,アキタケン,ダイセンシ,ナンガイムカイノサワ,秋田県大仙市南外向ノ沢
0191961,秋田県,大仙市,南外大柳,アキタケン,ダイセンシ,ナンガイオオヤナギ,秋田県大仙市南外大柳
0191962,秋田県,大仙市,南外若林,アキタケン,ダイセンシ,ナンガイワカバヤシ,秋田県大仙市南外若林
0191963,秋田県,大仙市,南外西ノ又滝ノ沢,アキタケン,ダイセンシ,ナンガイニシノマタタキノサワ,秋田県大仙市南外西ノ又滝ノ沢
0192103,秋田県,大仙市,大沢郷寺,アキタケン,ダイセンシ,オオサワゴウテラ,秋田県大仙市大沢郷寺
0192111,秋田県,大仙市,土川,アキタケン,ダイセンシ,ツチカワ,秋田県大仙市土川
0192112,秋田県,大仙市,刈和野,アキタケン,ダイセンシ,カリワノ,秋田県大仙市刈和野
0192121,秋田県,大仙市,北野目,アキタケン,ダイセンシ,キタノメ,秋田県大仙市北野目
0192122,秋田県,大仙市,高城,アキタケン,ダイセンシ,タカジョウ,秋田県大仙市高城
0192123,秋田県,大仙市,寺館,アキタケン,ダイセンシ,テラダテ,秋田県大仙市寺館
0192201,秋田県,大仙市,円行寺,アキタケン,ダイセンシ,エンギョウジ,秋田県大仙市円行寺
0192202,秋田県,大仙市,大沢郷宿,アキタケン,ダイセンシ,オオサワゴウシュク,秋田県大仙市大沢郷宿
0192204,秋田県,大仙市,正手沢,アキタケン,ダイセンシ,ショウテザワ,秋田県大仙市正手沢
0192205,秋田県,大仙市,杉山田,アキタケン,ダイセンシ,スギヤマダ,秋田県大仙市杉山田
0192331,秋田県,大仙市,大巻,アキタケン,ダイセンシ,オオマキ,秋田県大仙市大巻
0192332,秋田県,大仙市,九升田,アキタケン,ダイセンシ,クショウダ,秋田県大仙市九升田
0192333,秋田県,大仙市,金山沢,アキタケン,ダイセンシ,カネヤマサワ,秋田県大仙市金山沢
0192334,秋田県,大仙市,木原田,アキタケン,ダイセンシ,キハラダ,秋田県大仙市木原田
0192335,秋田県,大仙市,強首,アキタケン,ダイセンシ,コワクビ,秋田県大仙市強首
0192401,秋田県,大仙市,協和船岡,アキタケン,ダイセンシ,キョウワフナオカ,秋田県大仙市協和船岡
0192402,秋田県,大仙市,協和船沢,アキタケン,ダイセンシ,キョウワフネサワ,秋田県大仙市協和船沢
0192411,秋田県,大仙市,協和境,アキタケン,ダイセンシ,キョウワサカイ,秋田県大仙市協和境
0192412,秋田県,大仙市,協和荒川,アキタケン,ダイセンシ,キョウワアラカワ,秋田県大仙市協和荒川
0192413,秋田県,大仙市,協和上淀川,アキタケン,ダイセンシ,キョウワカミヨドカワ,秋田県大仙市協和上淀川
0192431,秋田県,大仙市,協和峰吉川,アキタケン,ダイセンシ,キョウワミネヨシカワ,秋田県大仙市協和峰吉川
0192441,秋田県,大仙市,協和小種,アキタケン,ダイセンシ,キョウワコタネ,秋田県大仙市協和小種
0192442,秋田県,大仙市,協和下淀川,アキタケン,ダイセンシ,キョウワシモヨドカワ,秋田県大仙市協和下淀川
0192443,秋田県,大仙市,協和中淀川,アキタケン,ダイセンシ,キョウワナカヨドカワ,秋田県大仙市協和中淀川
0192521,秋田県,大仙市,協和稲沢,アキタケン,ダイセンシ,キョウワイナザワ,秋田県大仙市協和稲沢
0192601,秋田県,秋田市,河辺和田,アキタケン,アキタシ,カワベワダ,秋田県秋田市河辺和田
0192611,秋田県,秋田市,河辺戸島,アキタケン,アキタシ,カワベトシマ,秋田県秋田市河辺戸島
0192612,秋田県,秋田市,河辺畑谷,アキタケン,アキタシ,カワベハタヤ,秋田県秋田市河辺畑谷
0192613,秋田県,秋田市,河辺松渕,アキタケン,アキタシ,カワベマツブチ,秋田県秋田市河辺松渕
0192614,秋田県,秋田市,河辺豊成,アキタケン,アキタシ,カワベトヨナリ,秋田県秋田市河辺豊成
0192621,秋田県,秋田市,河辺諸井,アキタケン,アキタシ,カワベモロイ,秋田県秋田市河辺諸井
0192622,秋田県,秋田市,河辺高岡,アキタケン,アキタシ,カワベタカオカ,秋田県秋田市河辺高岡
0192623,秋田県,秋田市,河辺赤平,アキタケン,アキタシ,カワベアカヒラ,秋田県秋田市河辺赤平
0192624,秋田県,秋田市,河辺大沢,アキタケン,アキタシ,カワベオオサワ,秋田県秋田市河辺大沢
0192625,秋田県,秋田市,河辺北野田高屋,アキタケン,アキタシ,カワベキタノダコウヤ,秋田県秋田市河辺北野田高屋
0192631,秋田県,秋田市,河辺神内,アキタケン,アキタシ,カワベジンナイ,秋田県秋田市河辺神内
0192632,秋田県,秋田市,河辺大張野,アキタケン,アキタシ,カワベオオバリノ,秋田県秋田市河辺大張野
0192741,秋田県,秋田市,河辺岩見,アキタケン,アキタシ,カワベイワミ,秋田県秋田市河辺岩見
0192742,秋田県,秋田市,河辺三内,アキタケン,アキタシ,カワベサンナイ,秋田県秋田市河辺三内
