zipcode,prefecture_name,city,town,prefecture_kana,city_kana,town_kana,normalized_address
9900000,山形県,山形市,,ヤマガタケン,ヤマガタシ,,山形県山形市
9900001,山形県,山形市,穂積,ヤマガタケン,ヤマガタシ,ホヅミ,山形県山形市穂積
9900002,山形県,山形市,高原町,ヤマガタケン,ヤマガタシ,タカハラマチ,山形県山形市高原町
9900003,山形県,山形市,早乙女,ヤマガタケン,ヤマガタシ,サオトメ,山形県山形市早乙女
9900004,山形県,山形市,上山家町,ヤマガタケン,ヤマガタシ,カミヤンベマチ,山形県山形市上山家町
9900005,山形県,山形市,下山家町,ヤマガタケン,ヤマガタシ,シモヤンベマチ,山形県山形市下山家町
9900006,山形県,山形市,山家本町,ヤマガタケン,ヤマガタシ,ヤンベホンチョウ,山形県山形市山家本町
9900007,山形県,山形市,沼の辺町,ヤマガタケン,ヤマガタシ,ヌマノベマチ,山形県山形市沼の辺町
9900008,山形県,山形市,双月新町,ヤマガタケン,ヤマガタシ,ソウツキシンチョウ,山形県山形市双月新町
9900011,山形県,山形市,妙見寺,ヤマガタケン,ヤマガタシ,ミョウケンジ,山形県山形市妙見寺
9900012,山形県,山形市,釈迦堂,ヤマガタケン,ヤマガタシ,シャカドウ,山形県山形市釈迦堂
9900013,山形県,山形市,防原町,ヤマガタケン,ヤマガタシ,ボウバラマチ,山形県山形市防原町
9900014,山形県,山形市,滑川,ヤマガタケン,ヤマガタシ,ナメカワ,山形県山形市滑川
9900015,山形県,山形市,新山,ヤマガタケン,ヤマガタシ,ニイヤマ,山形県山形市新山
9900016,山形県,山形市,関沢,ヤマガタケン,ヤマガタシ,セキザワ,山形県山形市関沢
9900017,山形県,山形市,上宝沢,ヤマガタケン,ヤマガタシ,カミホウザワ,山形県山形市上宝沢
9900018,山形県,山形市,下宝沢,ヤマガタケン,ヤマガタシ,シモホウザワ,山形県山形市下宝沢
9900021,山形県,山形市,小白川町,ヤマガタケン,ヤマガタシ,コジラカワマチ,山形県山形市小白川町
9900022,山形県,山形市,東山形,ヤマガタケン,ヤマガタシ,ヒガシヤマガタ,山形県山形市東山形
9900023,山形県,山形市,松波,ヤマガタケン,ヤマガタシ,マツナミ,山形県山形市松波
9900024,山形県,山形市,あさひ町,ヤマガタケン,ヤマガタシ,アサヒマチ,山形県山形市あさひ町
9900025,山形県,山形市,あこや町,ヤマガタケン,ヤマガタシ,アコヤチョウ,山形県山形市あこや町
9900031,山形県,山形市,十日町,ヤマガタケン,ヤマガタシ,トウカマチ,山形県山形市十日町
9900032,山形県,山形市,小姓町,ヤマガタケン,ヤマガタシ,コショウマチ,山形県山形市小姓町
9900033,山形県,山形市,諏訪町,ヤマガタケン,ヤマガタシ,スワマチ,山形県山形市諏訪町
9900034,山形県,山形市,東原町,ヤマガタケン,ヤマガタシ,ヒガシハラマチ,山形県山形市東原町
9900035,山形県,山形市,小荷駄町,ヤマガタケン,ヤマガタシ,コニダマチ,山形県山形市小荷駄町
9900036,山形県,山形市,三日町,ヤマガタケン,ヤマガタシ,ミッカマチ,山形県山形市三日町
9900037,山形県,山形市,八日町,ヤマガタケン,ヤマガタシ,ヨウカマチ,山形県山形市八日町
9900038,山形県,山形市,幸町,ヤマガタケン,ヤマガタシ,サイワイチョウ,山形県山形市幸町
9900039,山形県,山形市,香澄町,ヤマガタケン,ヤマガタシ,カスミチョウ,山形県山形市香澄町
9900041,山形県,山形市,緑町,ヤマガタケン,ヤマガタシ,ミドリチョウ,山形県山形市緑町
9900042,山形県,山形市,七日町,ヤマガタケン,ヤマガタシ,ナヌカマチ,山形県山形市七日町
9900043,山形県,山形市,本町,ヤマガタケン,ヤマガタシ,ホンチョウ,山形県山形市本町
9900044,山形県,山形市,木の実町,ヤマガタケン,ヤマガタシ,キノミチョウ,山形県山形市木の実町
9900045,山形県,山形市,桜町,ヤマガタケン,ヤマガタシ,サクラチョウ,山形県山形市桜町
9900046,山形県,山形市,大手町,ヤマガタケン,ヤマガタシ,オオテマチ,山形県山形市大手町
9900047,山形県,山形市,旅篭町,ヤマガタケン,ヤマガタシ,ハタゴマチ,山形県山形市旅篭町
9900051,山形県,山形市,銅町,ヤマガタケン,ヤマガタシ,ドウマチ,山形県山形市銅町
9900052,山形県,山形市,円応寺町,ヤマガタケン,ヤマガタシ,エンノウジマチ,山形県山形市円応寺町
9900053,山形県,山形市,薬師町,ヤマガタケン,ヤマガタシ,ヤクシマチ,山形県山形市薬師町
9900054,山形県,山形市,六日町,ヤマガタケン,ヤマガタシ,ムイカマチ,山形県山形市六日町
9900055,山形県,山形市,相生町,ヤマガタケン,ヤマガタシ,アイオイチョウ,山形県山形市相生町
9900056,山形県,山形市,錦町,ヤマガタケン,ヤマガタシ,ニシキチョウ,山形県山形市錦町
9900057,山形県,山形市,宮町,ヤマガタケン,ヤマガタシ,ミヤマチ,山形県山形市宮町
9900061,山形県,山形市,五十鈴,ヤマガタケン,ヤマガタシ,イスズ,山形県山形市五十鈴
9900062,山形県,山形市,鈴川町,ヤマガタケン,ヤマガタシ,スズカワマチ,山形県山形市鈴川町
9900063,山形県,山形市,山家町,ヤマガタケン,ヤマガタシ,ヤンベマチ,山形県山形市山家町
9900064,山形県,山形市,和合町,ヤマガタケン,ヤマガタシ,ワゴウマチ,山形県山形市和合町
9900065,山形県,山形市,双月町,ヤマガタケン,ヤマガタシ,ソウツキマチ,山形県山形市双月町
9900066,山形県,山形市,印役町,ヤマガタケン,ヤマガタシ,インヤクマチ,山形県山形市印役町
9900067,山形県,山形市,花楯,ヤマガタケン,ヤマガタシ,ハナタテ,山形県山形市花楯
9900068,山形県,山形市,泉町,ヤマガタケン,ヤマガタシ,イズミチョウ,山形県山形市泉町
9900071,山形県,山形市,流通センター,ヤマガタケン,ヤマガタシ,リュウツウセンター,山形県山形市流通センター
9900072,山形県,山形市,浜崎,ヤマガタケン,ヤマガタシ,ハマザキ,山形県山形市浜崎
9900073,山形県,山形市,大野目,ヤマガタケン,ヤマガタシ,ダイノメ,山形県山形市大野目
9900074,山形県,山形市,芳野,ヤマガタケン,ヤマガタシ,ヨシノ,山形県山形市芳野
9900075,山形県,山形市,落合町,ヤマガタケン,ヤマガタシ,オチアイマチ,山形県山形市落合町
9900076,山形県,山形市,平久保,ヤマガタケン,ヤマガタシ,ヒラクボ,山形県山形市平久保
9900077,山形県,山形市,栄原,ヤマガタケン,ヤマガタシ,サカエバラ,山形県山形市栄原
9900300,山形県,東村山郡山辺町,,ヤマガタケン,ヒガシムラヤマグンヤマノベマチ,,山形県東村山郡山辺町
9900301,山形県,東村山郡山辺町,山辺,ヤマガタケン,ヒガシムラヤマグンヤマノベマチ,ヤマノベ,山形県東村山郡山辺町山辺
9900302,山形県,東村山郡山辺町,緑ケ丘,ヤマガタケン,ヒガシムラヤマグンヤマノベマチ,ミドリガオカ,山形県東村山郡山辺町緑ケ丘
9900303,山形県,東村山郡山辺町,清水,ヤマガタケン,ヒガシムラヤマグンヤマノベマチ,シミズ,山形県東村山郡山辺町清水
9900311,山形県,東村山郡山辺町,近江,ヤマガタケン,ヒガシムラヤマグンヤマノベマチ,オウミ,山形県東村山郡山辺町近江
9900312,山形県,東村山郡山辺町,三河尻,ヤマガタケン,ヒガシムラヤマグンヤマノベマチ,ミカワジリ,山形県東村山郡山辺町三河尻
9900321,山形県,東村山郡山辺町,根際,ヤマガタケン,ヒガシムラヤマグンヤマノベマチ,ネギワ,山形県東村山郡山辺町根際
9900322,山形県,東村山郡山辺町,要害,ヤマガタケン,ヒガシムラヤマグンヤマノベマチ,ヨウガイ,山形県東村山郡山辺町要害
9900323,山形県,東村山郡山辺町,大塚,ヤマガタケン,ヒガシムラヤマグンヤマノベマチ,オオツカ,山形県東村山郡山辺町大塚
9900331,山形県,東村山郡山辺町,大寺,ヤマガタケン,ヒガシムラヤマグンヤマノベマチ,オオテラ,山形県東村山郡山辺町大寺
9900332,山形県,東村山郡山辺町,北垣,ヤマガタケン,ヒガシムラヤマグンヤマノベマチ,キタガキ,山形県東村山郡山辺町北垣
9900333,山形県,東村山郡山辺町,杉下,ヤマガタケン,ヒガシムラヤマグンヤマノベマチ,スギシタ,山形県東村山郡山辺町杉下
9900341,山形県,東村山郡山辺町,大蕨,ヤマガタケン,ヒガシムラヤマグンヤマノベマチ,オオワラビ,山形県東村山郡山辺町大蕨
9900342,山形県,東村山郡山辺町,北山,ヤマガタケン,ヒガシムラヤマグンヤマノベマチ,キタヤマ,山形県東村山郡山辺町北山
9900351,山形県,東村山郡山辺町,簗沢,ヤマガタケン,ヒガシムラヤマグンヤマノベマチ,ヤナザワ,山形県東村山郡山辺町簗沢
9900352,山形県,東村山郡山辺町,北作,ヤマガタケン,ヒガシムラヤマグンヤマノベマチ,キタサク,山形県東村山郡山辺町北作
9900361,山形県,東村山郡山辺町,畑谷,ヤマガタケン,ヒガシムラヤマグンヤマノベマチ,ハタヤ,山形県東村山郡山辺町畑谷
9900400,山形県,東村山郡中山町,,ヤマガタケン,ヒガシムラヤマグンナカヤママチ,,山形県東村山郡中山町
9900401,山形県,東村山郡中山町,長崎,ヤマガタケン,ヒガシムラヤマグンナカヤママチ,ナガサキ,山形県東村山郡中山町長崎
9900402,山形県,東村山郡中山町,いずみ,ヤマガタケン,ヒガシムラヤマグンナカヤママチ,イズミ,山形県東村山郡中山町いずみ
9900403,山形県,東村山郡中山町,達磨寺,ヤマガタケン,ヒガシムラヤマグンナカヤママチ,ダルマジ,山形県東村山郡中山町達磨寺
9900404,山形県,東村山郡中山町,向新田,ヤマガタケン,ヒガシムラヤマグンナカヤママチ,ムコウシンデン,山形県東村山郡中山町向新田
9900405,山形県,東村山郡中山町,金沢,ヤマガタケン,ヒガシムラヤマグンナカヤママチ,カネザワ,山形県東村山郡中山町金沢
9900406,山形県,東村山郡中山町,柳沢,ヤマガタケン,ヒガシムラヤマグンナカヤママチ,ヤナギサワ,山形県東村山郡中山町柳沢
9900407,山形県,東村山郡中山町,土橋,ヤマガタケン,ヒガシムラヤマグンナカヤママチ,ツチハシ,山形県東村山郡中山町土橋
9900408,山形県,東村山郡中山町,岡,ヤマガタケン,ヒガシムラヤマグンナカヤママチ,オカ,山形県東村山郡中山町岡
9900409,山形県,東村山郡中山町,小塩,ヤマガタケン,ヒガシムラヤマグンナカヤママチ,コシオ,山形県東村山郡中山町小塩
9900411,山形県,東村山郡中山町,あおば,ヤマガタケン,ヒガシムラヤマグンナカヤママチ,アオバ,山形県東村山郡中山町あおば
9900501,山形県,寒河江市,宮内,ヤマガタケン,サガエシ,ミヤウチ,山形県寒河江市宮内
9900502,山形県,寒河江市,幸生,ヤマガタケン,サガエシ,サチウ,山形県寒河江市幸生
9900503,山形県,寒河江市,田代,ヤマガタケン,サガエシ,タシロ,山形県寒河江市田代
9900504,山形県,寒河江市,留場,ヤマガタケン,サガエシ,トメバ,山形県寒河江市留場
9900505,山形県,寒河江市,白岩,ヤマガタケン,サガエシ,シライワ,山形県寒河江市白岩
9900511,山形県,寒河江市,慈恩寺,ヤマガタケン,サガエシ,ジオンジ,山形県寒河江市慈恩寺
9900512,山形県,寒河江市,箕輪,ヤマガタケン,サガエシ,ミノワ,山形県寒河江市箕輪
9900513,山形県,寒河江市,日和田,ヤマガタケン,サガエシ,ヒワダ,山形県寒河江市日和田
9900521,山形県,寒河江市,谷沢,ヤマガタケン,サガエシ,ヤサワ,山形県寒河江市谷沢
9900522,山形県,寒河江市,清助新田,ヤマガタケン,サガエシ,セイスケシンデン,山形県寒河江市清助新田
9900523,山形県,寒河江市,八鍬,ヤマガタケン,サガエシ,ヤクワ,山形県寒河江市八鍬
9900524,山形県,寒河江市,高松,ヤマガタケン,サガエシ,タカマツ,山形県寒河江市高松
9900525,山形県,寒河江市,米沢,ヤマガタケン,サガエシ,ヨナザ,山形県寒河江市米沢
9900561,山形県,寒河江市,中央工業団地（１番地）,ヤマガタケン,サガエシ,チュウオウコウギョウダンチ(1バンチ),山形県寒河江市中央工業団地（1-）
9900700,山形県,西村山郡西川町,,ヤマガタケン,ニシムラヤマグンニシカワマチ,,山形県西村山郡西川町
9900701,山形県,西村山郡西川町,睦合,ヤマガタケン,ニシムラヤマグンニシカワマチ,ムツアイ,山形県西村山郡西川町睦合
9900702,山形県,西村山郡西川町,海味,ヤマガタケン,ニシムラヤマグンニシカワマチ,カイシュウ,山形県西村山郡西川町海味
9900703,山形県,西村山郡西川町,間沢,ヤマガタケン,ニシムラヤマグンニシカワマチ,マザワ,山形県西村山郡西川町間沢
9900711,山形県,西村山郡西川町,吉川,ヤマガタケン,ニシムラヤマグンニシカワマチ,ヨシカワ,山形県西村山郡西川町吉川
9900712,山形県,西村山郡西川町,原,ヤマガタケン,ニシムラヤマグンニシカワマチ,ハラ,山形県西村山郡西川町原
9900713,山形県,西村山郡西川町,沼山,ヤマガタケン,ニシムラヤマグンニシカワマチ,ヌマヤマ,山形県西村山郡西川町沼山
9900714,山形県,西村山郡西川町,入間,ヤマガタケン,ニシムラヤマグンニシカワマチ,イリマ,山形県西村山郡西川町入間
9900721,山形県,西村山郡西川町,大井沢,ヤマガタケン,ニシムラヤマグンニシカワマチ,オオイサワ,山形県西村山郡西川町大井沢
9900731,山形県,西村山郡西川町,月岡,ヤマガタケン,ニシムラヤマグンニシカワマチ,ツキオカ,山形県西村山郡西川町月岡
9900732,山形県,西村山郡西川町,砂子関,ヤマガタケン,ニシムラヤマグンニシカワマチ,スナゴセキ,山形県西村山郡西川町砂子関
9900733,山形県,西村山郡西川町,月山沢,ヤマガタケン,ニシムラヤマグンニシカワマチ,ツキヤマザワ,山形県西村山郡西川町月山沢
9900734,山形県,西村山郡西川町,志津,ヤマガタケン,ニシムラヤマグンニシカワマチ,シヅ,山形県西村山郡西川町志津
9900735,山形県,西村山郡西川町,本道寺,ヤマガタケン,ニシムラヤマグンニシカワマチ,ホンドウジ,山形県西村山郡西川町本道寺
9900741,山形県,西村山郡西川町,綱取,ヤマガタケン,ニシムラヤマグンニシカワマチ,ツナトリ,山形県西村山郡西川町綱取
9900742,山形県,西村山郡西川町,水沢,ヤマガタケン,ニシムラヤマグンニシカワマチ,ミズサワ,山形県西村山郡西川町水沢
9900743,山形県,西村山郡西川町,岩根沢,ヤマガタケン,ニシムラヤマグンニシカワマチ,イワネザワ,山形県西村山郡西川町岩根沢
9900801,山形県,山形市,天神町,ヤマガタケン,ヤマガタシ,テンジンチョウ,山形県山形市天神町
9900802,山形県,山形市,見崎川原,ヤマガタケン,ヤマガタシ,ミサキカワラ,山形県山形市見崎川原
9900803,山形県,山形市,見崎,ヤマガタケン,ヤマガタシ,ミサキ,山形県山形市見崎
9900804,山形県,山形市,七十刈,ヤマガタケン,ヤマガタシ,ナナジュウガリ,山形県山形市七十刈
9900805,山形県,山形市,檀野前,ヤマガタケン,ヤマガタシ,ダンノマエ,山形県山形市檀野前
9900806,山形県,山形市,藤治屋敷,ヤマガタケン,ヤマガタシ,トウジヤシキ,山形県山形市藤治屋敷
9900807,山形県,山形市,白川,ヤマガタケン,ヤマガタシ,シラカワ,山形県山形市白川
9900808,山形県,山形市,高田,ヤマガタケン,ヤマガタシ,タカダ,山形県山形市高田
9900809,山形県,山形市,下田,ヤマガタケン,ヤマガタシ,シモダ,山形県山形市下田
9900810,山形県,山形市,馬見ケ崎,ヤマガタケン,ヤマガタシ,マミガサキ,山形県山形市馬見ケ崎
9900811,山形県,山形市,長町,ヤマガタケン,ヤマガタシ,ナガマチ,山形県山形市長町
9900812,山形県,山形市,千歳,ヤマガタケン,ヤマガタシ,チトセ,山形県山形市千歳
9900813,山形県,山形市,桧町,ヤマガタケン,ヤマガタシ,ヒノキチョウ,山形県山形市桧町
9900814,山形県,山形市,土樋,ヤマガタケン,ヤマガタシ,ツチドイ,山形県山形市土樋
9900815,山形県,山形市,樋越,ヤマガタケン,ヤマガタシ,トヨゴシ,山形県山形市樋越
9900817,山形県,山形市,今塚,ヤマガタケン,ヤマガタシ,イマヅカ,山形県山形市今塚
9900818,山形県,山形市,沖町,ヤマガタケン,ヤマガタシ,オキマチ,山形県山形市沖町
9900819,山形県,山形市,境田町,ヤマガタケン,ヤマガタシ,サカイダマチ,山形県山形市境田町
9900821,山形県,山形市,北町,ヤマガタケン,ヤマガタシ,キタマチ,山形県山形市北町
9900822,山形県,山形市,北山形,ヤマガタケン,ヤマガタシ,キタヤマガタ,山形県山形市北山形
9900823,山形県,山形市,下条町,ヤマガタケン,ヤマガタシ,シモジョウマチ,山形県山形市下条町
9900824,山形県,山形市,肴町,ヤマガタケン,ヤマガタシ,サカナマチ,山形県山形市肴町
9900825,山形県,山形市,城北町,ヤマガタケン,ヤマガタシ,ジョウホクマチ,山形県山形市城北町
9900826,山形県,山形市,霞城町,ヤマガタケン,ヤマガタシ,カジョウマチ,山形県山形市霞城町
9900827,山形県,山形市,城南町,ヤマガタケン,ヤマガタシ,ジョウナンマチ,山形県山形市城南町
9900828,山形県,山形市,双葉町,ヤマガタケン,ヤマガタシ,フタバチョウ,山形県山形市双葉町
9900829,山形県,山形市,五日町,ヤマガタケン,ヤマガタシ,イツカマチ,山形県山形市五日町
9900831,山形県,山形市,西田,ヤマガタケン,ヤマガタシ,ニシタ,山形県山形市西田
9900832,山形県,山形市,城西町,ヤマガタケン,ヤマガタシ,シロニシマチ,山形県山形市城西町
9900833,山形県,山形市,春日町,ヤマガタケン,ヤマガタシ,カスガチョウ,山形県山形市春日町
9900834,山形県,山形市,清住町,ヤマガタケン,ヤマガタシ,キヨズミマチ,山形県山形市清住町
9900835,山形県,山形市,やよい,ヤマガタケン,ヤマガタシ,ヤヨイ,山形県山形市やよい
9900836,山形県,山形市,南石関,ヤマガタケン,ヤマガタシ,ミナミイシゼキ,山形県山形市南石関
9900841,山形県,山形市,飯塚口,ヤマガタケン,ヤマガタシ,イイヅカグチ,山形県山形市飯塚口
9900842,山形県,山形市,石関,ヤマガタケン,ヤマガタシ,イシゼキ,山形県山形市石関
9900843,山形県,山形市,横道,ヤマガタケン,ヤマガタシ,ヨコミチ,山形県山形市横道
9900844,山形県,山形市,西見田,ヤマガタケン,ヤマガタシ,ニシミダ,山形県山形市西見田
9900845,山形県,山形市,飯塚町,ヤマガタケン,ヤマガタシ,イイヅカマチ,山形県山形市飯塚町
9900846,山形県,山形市,志鎌,ヤマガタケン,ヤマガタシ,シカマ,山形県山形市志鎌
9900847,山形県,山形市,砂田,ヤマガタケン,ヤマガタシ,スナダ,山形県山形市砂田
9900848,山形県,山形市,宮浦,ヤマガタケン,ヤマガタシ,ミヤウラ,山形県山形市宮浦
9900849,山形県,山形市,中沼,ヤマガタケン,ヤマガタシ,ナカヌマ,山形県山形市中沼
9900850,山形県,山形市,くぬぎざわ西,ヤマガタケン,ヤマガタシ,クヌギザワニシ,山形県山形市くぬぎざわ西
9900851,山形県,山形市,上椹沢,ヤマガタケン,ヤマガタシ,カミクヌギザワ,山形県山形市上椹沢
9900852,山形県,山形市,黄金,ヤマガタケン,ヤマガタシ,コガネ,山形県山形市黄金
9900853,山形県,山形市,西崎,ヤマガタケン,ヤマガタシ,ニシザキ,山形県山形市西崎
9900854,山形県,山形市,砂塚,ヤマガタケン,ヤマガタシ,スナヅカ,山形県山形市砂塚
9900855,山形県,山形市,千代田,ヤマガタケン,ヤマガタシ,チヨダ,山形県山形市千代田
9900856,山形県,山形市,金石田,ヤマガタケン,ヤマガタシ,カナイシダ,山形県山形市金石田
9900857,山形県,山形市,平田,ヤマガタケン,ヤマガタシ,ヘイダ,山形県山形市平田
9900858,山形県,山形市,下椹沢,ヤマガタケン,ヤマガタシ,シモクヌギザワ,山形県山形市下椹沢
9900859,山形県,山形市,西原,ヤマガタケン,ヤマガタシ,ニシハラ,山形県山形市西原
9900860,山形県,山形市,陣場南,ヤマガタケン,ヤマガタシ,ジンバミナミ,山形県山形市陣場南
9900861,山形県,山形市,江俣,ヤマガタケン,ヤマガタシ,エマタ,山形県山形市江俣
9900862,山形県,山形市,西江俣,ヤマガタケン,ヤマガタシ,ニシエマタ,山形県山形市西江俣
9900863,山形県,山形市,江南,ヤマガタケン,ヤマガタシ,コウナン,山形県山形市江南
9900864,山形県,山形市,陣場,ヤマガタケン,ヤマガタシ,ジンバ,山形県山形市陣場
9900865,山形県,山形市,馬上台,ヤマガタケン,ヤマガタシ,バジョウダイ,山形県山形市馬上台
9900866,山形県,山形市,横井,ヤマガタケン,ヤマガタシ,ヨコイ,山形県山形市横井
9900867,山形県,山形市,天神台,ヤマガタケン,ヤマガタシ,テンジンダイ,山形県山形市天神台
9900868,山形県,山形市,志戸田,ヤマガタケン,ヤマガタシ,シトダ,山形県山形市志戸田
9900869,山形県,山形市,東志戸田,ヤマガタケン,ヤマガタシ,ヒガシシトダ,山形県山形市東志戸田
9900870,山形県,山形市,島,ヤマガタケン,ヤマガタシ,シマ,山形県山形市島
9900871,山形県,山形市,銅谷口,ヤマガタケン,ヤマガタシ,ドウヤグチ,山形県山形市銅谷口
9900872,山形県,山形市,八幡前,ヤマガタケン,ヤマガタシ,ハチマンマエ,山形県山形市八幡前
9900874,山形県,山形市,梅野木前,ヤマガタケン,ヤマガタシ,ウメノキマエ,山形県山形市梅野木前
9900875,山形県,山形市,北江俣,ヤマガタケン,ヤマガタシ,キタエマタ,山形県山形市北江俣
9900876,山形県,山形市,行才,ヤマガタケン,ヤマガタシ,ギョウサイ,山形県山形市行才
9900877,山形県,山形市,内表,ヤマガタケン,ヤマガタシ,ウチオモテ,山形県山形市内表
9900878,山形県,山形市,内表東,ヤマガタケン,ヤマガタシ,ウチオモテヒガシ,山形県山形市内表東
9900879,山形県,山形市,南志戸田,ヤマガタケン,ヤマガタシ,ミナミシトダ,山形県山形市南志戸田
9900881,山形県,山形市,瀬波,ヤマガタケン,ヤマガタシ,セナミ,山形県山形市瀬波
9900882,山形県,山形市,陣場新田,ヤマガタケン,ヤマガタシ,ジンバシンデン,山形県山形市陣場新田
9900883,山形県,山形市,吉野宿,ヤマガタケン,ヤマガタシ,ヨシノジュク,山形県山形市吉野宿
9900884,山形県,山形市,鮨洗,ヤマガタケン,ヤマガタシ,スシアライ,山形県山形市鮨洗
9900885,山形県,山形市,嶋北,ヤマガタケン,ヤマガタシ,シマキタ,山形県山形市嶋北
9900886,山形県,山形市,嶋南,ヤマガタケン,ヤマガタシ,シマミナミ,山形県山形市嶋南
9900891,山形県,山形市,成安,ヤマガタケン,ヤマガタシ,ナリヤス,山形県山形市成安
9900892,山形県,山形市,中野,ヤマガタケン,ヤマガタシ,ナカノ,山形県山形市中野
9900893,山形県,山形市,西中野,ヤマガタケン,ヤマガタシ,ニシナカノ,山形県山形市西中野
9900894,山形県,山形市,船町,ヤマガタケン,ヤマガタシ,フナマチ,山形県山形市船町
9900895,山形県,山形市,向新田,ヤマガタケン,ヤマガタシ,ムカイシンデン,山形県山形市向新田
9900896,山形県,山形市,北田,ヤマガタケン,ヤマガタシ,キタダ,山形県山形市北田
9900897,山形県,山形市,東田,ヤマガタケン,ヤマガタシ,ヒガシダ,山形県山形市東田
9900898,山形県,山形市,三社,ヤマガタケン,ヤマガタシ,サンシャ,山形県山形市三社
9900899,山形県,山形市,東篭野町,ヤマガタケン,ヤマガタシ,ヒガシカゴノマチ,山形県山形市東篭野町
9901100,山形県,西村山郡大江町,,ヤマガタケン,ニシムラヤマグンオオエマチ,,山形県西村山郡大江町
9901101,山形県,西村山郡大江町,左沢（その他）,ヤマガタケン,ニシムラヤマグンオオエマチ,アテラザワ(ソノタ),山形県西村山郡大江町左沢（その他）
9901111,山形県,西村山郡大江町,三郷丙,ヤマガタケン,ニシムラヤマグンオオエマチ,サンゴウヘイ,山形県西村山郡大江町三郷丙
9901112,山形県,西村山郡大江町,三郷乙,ヤマガタケン,ニシムラヤマグンオオエマチ,サンゴウオツ,山形県西村山郡大江町三郷乙
9901113,山形県,西村山郡大江町,三郷甲,ヤマガタケン,ニシムラヤマグンオオエマチ,サンゴウコウ,山形県西村山郡大江町三郷甲
9901114,山形県,西村山郡大江町,富沢,ヤマガタケン,ニシムラヤマグンオオエマチ,トミザワ,山形県西村山郡大江町富沢
9901121,山形県,西村山郡大江町,藤田,ヤマガタケン,ニシムラヤマグンオオエマチ,フジタ,山形県西村山郡大江町藤田
9901122,山形県,西村山郡大江町,小見,ヤマガタケン,ニシムラヤマグンオオエマチ,オオミ,山形県西村山郡大江町小見
9901131,山形県,西村山郡大江町,荻野,ヤマガタケン,ニシムラヤマグンオオエマチ,オギノ,山形県西村山郡大江町荻野
9901132,山形県,西村山郡大江町,堂屋敷,ヤマガタケン,ニシムラヤマグンオオエマチ,ドウヤシキ,山形県西村山郡大江町堂屋敷
9901133,山形県,西村山郡大江町,塩ノ平,ヤマガタケン,ニシムラヤマグンオオエマチ,シオノタイラ,山形県西村山郡大江町塩ノ平
9901134,山形県,西村山郡大江町,所部,ヤマガタケン,ニシムラヤマグンオオエマチ,トコロブ,山形県西村山郡大江町所部
9901141,山形県,西村山郡大江町,小釿,ヤマガタケン,ニシムラヤマグンオオエマチ,コジュウナ,山形県西村山郡大江町小釿
9901142,山形県,西村山郡大江町,材木,ヤマガタケン,ニシムラヤマグンオオエマチ,ザイモク,山形県西村山郡大江町材木
9901143,山形県,西村山郡大江町,橋上,ヤマガタケン,ニシムラヤマグンオオエマチ,ハシカミ,山形県西村山郡大江町橋上
9901144,山形県,西村山郡大江町,十八才甲,ヤマガタケン,ニシムラヤマグンオオエマチ,ジュウハツサイコウ,山形県西村山郡大江町十八才甲
9901145,山形県,西村山郡大江町,十八才乙,ヤマガタケン,ニシムラヤマグンオオエマチ,ジュウハツサイオツ,山形県西村山郡大江町十八才乙
9901146,山形県,西村山郡大江町,楢山,ヤマガタケン,ニシムラヤマグンオオエマチ,ナラヤマ,山形県西村山郡大江町楢山
9901151,山形県,西村山郡大江町,本郷乙,ヤマガタケン,ニシムラヤマグンオオエマチ,ホンゴウオツ,山形県西村山郡大江町本郷乙
9901152,山形県,西村山郡大江町,顔好甲,ヤマガタケン,ニシムラヤマグンオオエマチ,カオヨシコウ,山形県西村山郡大江町顔好甲
9901153,山形県,西村山郡大江町,顔好乙,ヤマガタケン,ニシムラヤマグンオオエマチ,カオヨシオツ,山形県西村山郡大江町顔好乙
9901154,山形県,西村山郡大江町,本郷甲,ヤマガタケン,ニシムラヤマグンオオエマチ,ホンゴウコウ,山形県西村山郡大江町本郷甲
9901161,山形県,西村山郡大江町,原田,ヤマガタケン,ニシムラヤマグンオオエマチ,ハラダ,山形県西村山郡大江町原田
9901162,山形県,西村山郡大江町,本郷己,ヤマガタケン,ニシムラヤマグンオオエマチ,ホンゴウキ,山形県西村山郡大江町本郷己
9901163,山形県,西村山郡大江町,本郷丁,ヤマガタケン,ニシムラヤマグンオオエマチ,ホンゴウテイ,山形県西村山郡大江町本郷丁
9901164,山形県,西村山郡大江町,本郷丙,ヤマガタケン,ニシムラヤマグンオオエマチ,ホンゴウヘイ,山形県西村山郡大江町本郷丙
9901165,山形県,西村山郡大江町,本郷戊,ヤマガタケン,ニシムラヤマグンオオエマチ,ホンゴウボ,山形県西村山郡大江町本郷戊
9901271,山形県,西村山郡大江町,月布,ヤマガタケン,ニシムラヤマグンオオエマチ,ツキヌノ,山形県西村山郡大江町月布
9901272,山形県,西村山郡大江町,貫見,ヤマガタケン,ニシムラヤマグンオオエマチ,ヌクミ,山形県西村山郡大江町貫見
9901273,山形県,西村山郡大江町,小清,ヤマガタケン,ニシムラヤマグンオオエマチ,コセイ,山形県西村山郡大江町小清
9901274,山形県,西村山郡大江町,柳川,ヤマガタケン,ニシムラヤマグンオオエマチ,ヤナガワ,山形県西村山郡大江町柳川
9901275,山形県,西村山郡大江町,沢口,ヤマガタケン,ニシムラヤマグンオオエマチ,サワグチ,山形県西村山郡大江町沢口
9901276,山形県,西村山郡大江町,黒森,ヤマガタケン,ニシムラヤマグンオオエマチ,クロモリ,山形県西村山郡大江町黒森
9901301,山形県,西村山郡朝日町,中沢,ヤマガタケン,ニシムラヤマグンアサヒマチ,ナカザワ,山形県西村山郡朝日町中沢
9901302,山形県,西村山郡朝日町,玉ノ井,ヤマガタケン,ニシムラヤマグンアサヒマチ,タマノイ,山形県西村山郡朝日町玉ノ井
9901303,山形県,西村山郡朝日町,馬神,ヤマガタケン,ニシムラヤマグンアサヒマチ,ウマガミ,山形県西村山郡朝日町馬神
9901304,山形県,西村山郡朝日町,大谷,ヤマガタケン,ニシムラヤマグンアサヒマチ,オオヤ,山形県西村山郡朝日町大谷
9901305,山形県,西村山郡朝日町,大沼,ヤマガタケン,ニシムラヤマグンアサヒマチ,オオヌマ,山形県西村山郡朝日町大沼
9901306,山形県,西村山郡朝日町,大暮山,ヤマガタケン,ニシムラヤマグンアサヒマチ,オオグレヤマ,山形県西村山郡朝日町大暮山
9901400,山形県,西村山郡朝日町,,ヤマガタケン,ニシムラヤマグンアサヒマチ,,山形県西村山郡朝日町
9901411,山形県,西村山郡朝日町,和合,ヤマガタケン,ニシムラヤマグンアサヒマチ,ワゴウ,山形県西村山郡朝日町和合
9901412,山形県,西村山郡朝日町,和合平,ヤマガタケン,ニシムラヤマグンアサヒマチ,ワゴウタイラ,山形県西村山郡朝日町和合平
9901421,山形県,西村山郡朝日町,古槇,ヤマガタケン,ニシムラヤマグンアサヒマチ,フルマギ,山形県西村山郡朝日町古槇
9901422,山形県,西村山郡朝日町,送橋,ヤマガタケン,ニシムラヤマグンアサヒマチ,オクリハシ,山形県西村山郡朝日町送橋
9901423,山形県,西村山郡朝日町,下芦沢,ヤマガタケン,ニシムラヤマグンアサヒマチ,シモアシザワ,山形県西村山郡朝日町下芦沢
9901424,山形県,西村山郡朝日町,水本,ヤマガタケン,ニシムラヤマグンアサヒマチ,ミズモト,山形県西村山郡朝日町水本
9901431,山形県,西村山郡朝日町,大滝,ヤマガタケン,ニシムラヤマグンアサヒマチ,オオタキ,山形県西村山郡朝日町大滝
9901432,山形県,西村山郡朝日町,上郷,ヤマガタケン,ニシムラヤマグンアサヒマチ,カミゴウ,山形県西村山郡朝日町上郷
9901433,山形県,西村山郡朝日町,杉山,ヤマガタケン,ニシムラヤマグンアサヒマチ,スギヤマ,山形県西村山郡朝日町杉山
9901441,山形県,西村山郡朝日町,新宿,ヤマガタケン,ニシムラヤマグンアサヒマチ,アラジュク,山形県西村山郡朝日町新宿
9901442,山形県,西村山郡朝日町,宮宿,ヤマガタケン,ニシムラヤマグンアサヒマチ,ミヤジュク,山形県西村山郡朝日町宮宿
9901443,山形県,西村山郡朝日町,雪谷,ヤマガタケン,ニシムラヤマグンアサヒマチ,ユキタニ,山形県西村山郡朝日町雪谷
9901444,山形県,西村山郡朝日町,四ノ沢,ヤマガタケン,ニシムラヤマグンアサヒマチ,シノサワ,山形県西村山郡朝日町四ノ沢
9901551,山形県,西村山郡朝日町,三中,ヤマガタケン,ニシムラヤマグンアサヒマチ,ミナカ,山形県西村山郡朝日町三中
9901552,山形県,西村山郡朝日町,常盤,ヤマガタケン,ニシムラヤマグンアサヒマチ,トキワ,山形県西村山郡朝日町常盤
9901553,山形県,西村山郡朝日町,長沼,ヤマガタケン,ニシムラヤマグンアサヒマチ,ナガヌマ,山形県西村山郡朝日町長沼
9901561,山形県,西村山郡朝日町,松程,ヤマガタケン,ニシムラヤマグンアサヒマチ,マツホド,山形県西村山郡朝日町松程
9901562,山形県,西村山郡朝日町,大船木,ヤマガタケン,ニシムラヤマグンアサヒマチ,オオフナギ,山形県西村山郡朝日町大船木
9901563,山形県,西村山郡朝日町,今平,ヤマガタケン,ニシムラヤマグンアサヒマチ,コンペイ,山形県西村山郡朝日町今平
9901571,山形県,西村山郡朝日町,石須部,ヤマガタケン,ニシムラヤマグンアサヒマチ,コクスベ,山形県西村山郡朝日町石須部
9901572,山形県,西村山郡朝日町,太郎,ヤマガタケン,ニシムラヤマグンアサヒマチ,タロウ,山形県西村山郡朝日町太郎
9901573,山形県,西村山郡朝日町,立木,ヤマガタケン,ニシムラヤマグンアサヒマチ,タテキ,山形県西村山郡朝日町立木
9901574,山形県,西村山郡朝日町,白倉,ヤマガタケン,ニシムラヤマグンアサヒマチ,シラクラ,山形県西村山郡朝日町白倉
9902161,山形県,山形市,漆山,ヤマガタケン,ヤマガタシ,ウルシヤマ,山形県山形市漆山
9902162,山形県,山形市,あけぼの,ヤマガタケン,ヤマガタシ,アケボノ,山形県山形市あけぼの
9902163,山形県,山形市,伊達城,ヤマガタケン,ヤマガタシ,ダテジョウ,山形県山形市伊達城
9902164,山形県,山形市,新開,ヤマガタケン,ヤマガタシ,シンカイ,山形県山形市新開
9902171,山形県,山形市,七浦,ヤマガタケン,ヤマガタシ,ナナウラ,山形県山形市七浦
9902172,山形県,山形市,千手堂,ヤマガタケン,ヤマガタシ,センジュドウ,山形県山形市千手堂
9902173,山形県,山形市,渋江,ヤマガタケン,ヤマガタシ,シブエ,山形県山形市渋江
9902174,山形県,山形市,灰塚,ヤマガタケン,ヤマガタシ,ハイヅカ,山形県山形市灰塚
9902175,山形県,山形市,中野目,ヤマガタケン,ヤマガタシ,ナカノメ,山形県山形市中野目
9902211,山形県,山形市,十文字,ヤマガタケン,ヤマガタシ,ジュウモンジ,山形県山形市十文字
9902212,山形県,山形市,上柳,ヤマガタケン,ヤマガタシ,カミヤナギ,山形県山形市上柳
9902213,山形県,山形市,寺西,ヤマガタケン,ヤマガタシ,テラニシ,山形県山形市寺西
9902214,山形県,山形市,青柳,ヤマガタケン,ヤマガタシ,アオヤギ,山形県山形市青柳
9902215,山形県,山形市,下柳,ヤマガタケン,ヤマガタシ,シモヤナギ,山形県山形市下柳
9902216,山形県,山形市,千刈,ヤマガタケン,ヤマガタシ,センガリ,山形県山形市千刈
9902221,山形県,山形市,風間,ヤマガタケン,ヤマガタシ,カザマ,山形県山形市風間
9902222,山形県,山形市,青野,ヤマガタケン,ヤマガタシ,アオノ,山形県山形市青野
9902223,山形県,山形市,塔の前,ヤマガタケン,ヤマガタシ,トウノマエ,山形県山形市塔の前
9902224,山形県,山形市,近田,ヤマガタケン,ヤマガタシ,チカダ,山形県山形市近田
9902225,山形県,山形市,花岡,ヤマガタケン,ヤマガタシ,ハナオカ,山形県山形市花岡
9902226,山形県,山形市,西越,ヤマガタケン,ヤマガタシ,ニシゴシ,山形県山形市西越
9902227,山形県,山形市,千石,ヤマガタケン,ヤマガタシ,センゴク,山形県山形市千石
9902231,山形県,山形市,大森,ヤマガタケン,ヤマガタシ,オオモリ,山形県山形市大森
9902232,山形県,山形市,下東山,ヤマガタケン,ヤマガタシ,シモヒガシヤマ,山形県山形市下東山
9902233,山形県,山形市,切畑,ヤマガタケン,ヤマガタシ,キリハタ,山形県山形市切畑
9902234,山形県,山形市,こも石,ヤマガタケン,ヤマガタシ,コモイシ,山形県山形市こも石
9902235,山形県,山形市,中里,ヤマガタケン,ヤマガタシ,ナカザト,山形県山形市中里
9902241,山形県,山形市,上東山,ヤマガタケン,ヤマガタシ,カミヒガシヤマ,山形県山形市上東山
9902242,山形県,山形市,高沢,ヤマガタケン,ヤマガタシ,タカサワ,山形県山形市高沢
9902251,山形県,山形市,立谷川,ヤマガタケン,ヤマガタシ,タチヤガワ,山形県山形市立谷川
9902301,山形県,山形市,蔵王温泉,ヤマガタケン,ヤマガタシ,ザオウオンセン,山形県山形市蔵王温泉
9902302,山形県,山形市,蔵王堀田,ヤマガタケン,ヤマガタシ,ザオウホッタ,山形県山形市蔵王堀田
9902303,山形県,山形市,蔵王上野,ヤマガタケン,ヤマガタシ,ザオウウワノ,山形県山形市蔵王上野
9902304,山形県,山形市,蔵王山田,ヤマガタケン,ヤマガタシ,ザオウヤマダ,山形県山形市蔵王山田
9902305,山形県,山形市,蔵王半郷,ヤマガタケン,ヤマガタシ,ザオウハンゴウ,山形県山形市蔵王半郷
9902306,山形県,山形市,南半郷,ヤマガタケン,ヤマガタシ,ミナミハンゴウ,山形県山形市南半郷
9902307,山形県,山形市,表蔵王,ヤマガタケン,ヤマガタシ,オモテザオウ,山形県山形市表蔵王
9902308,山形県,山形市,東半郷,ヤマガタケン,ヤマガタシ,ヒガシハンゴウ,山形県山形市東半郷
9902311,山形県,山形市,黒沢,ヤマガタケン,ヤマガタシ,クロサワ,山形県山形市黒沢
9902312,山形県,山形市,南松原,ヤマガタケン,ヤマガタシ,ミナミマツバラ,山形県山形市南松原
9902313,山形県,山形市,松原,ヤマガタケン,ヤマガタシ,マツバラ,山形県山形市松原
9902314,山形県,山形市,谷柏,ヤマガタケン,ヤマガタシ,ヤガシワ,山形県山形市谷柏
9902315,山形県,山形市,津金沢,ヤマガタケン,ヤマガタシ,ツガネザワ,山形県山形市津金沢
9902316,山形県,山形市,片谷地,ヤマガタケン,ヤマガタシ,カタヤチ,山形県山形市片谷地
9902317,山形県,山形市,みはらしの丘,ヤマガタケン,ヤマガタシ,ミハラシノオカ,山形県山形市みはらしの丘
9902321,山形県,山形市,桜田西,ヤマガタケン,ヤマガタシ,サクラダニシ,山形県山形市桜田西
9902322,山形県,山形市,桜田南,ヤマガタケン,ヤマガタシ,サクラダミナミ,山形県山形市桜田南
9902323,山形県,山形市,桜田東,ヤマガタケン,ヤマガタシ,サクラダヒガシ,山形県山形市桜田東
9902324,山形県,山形市,青田南,ヤマガタケン,ヤマガタシ,アオタミナミ,山形県山形市青田南
9902331,山形県,山形市,飯田西,ヤマガタケン,ヤマガタシ,イイダニシ,山形県山形市飯田西
9902332,山形県,山形市,飯田,ヤマガタケン,ヤマガタシ,イイダ,山形県山形市飯田
9902333,山形県,山形市,蔵王飯田,ヤマガタケン,ヤマガタシ,ザオウイイダ,山形県山形市蔵王飯田
9902334,山形県,山形市,蔵王成沢,ヤマガタケン,ヤマガタシ,ザオウナリサワ,山形県山形市蔵王成沢
9902335,山形県,山形市,蔵王南成沢,ヤマガタケン,ヤマガタシ,ザオウミナミナリサワ,山形県山形市蔵王南成沢
9902337,山形県,山形市,蔵王西成沢,ヤマガタケン,ヤマガタシ,ザオウニシナリサワ,山形県山形市蔵王西成沢
9902338,山形県,山形市,蔵王松ケ丘,ヤマガタケン,ヤマガタシ,ザオウマツガオカ,山形県山形市蔵王松ケ丘
9902339,山形県,山形市,成沢西,ヤマガタケン,ヤマガタシ,ナリサワニシ,山形県山形市成沢西
9902341,山形県,山形市,柏倉,ヤマガタケン,ヤマガタシ,カシワグラ,山形県山形市柏倉
9902342,山形県,山形市,富神前,ヤマガタケン,ヤマガタシ,トガミマエ,山形県山形市富神前
9902342,山形県,山形市,門伝,ヤマガタケン,ヤマガタシ,モンデン,山形県山形市門伝
9902343,山形県,山形市,城森,ヤマガタケン,ヤマガタシ,シロモリ,山形県山形市城森
9902344,山形県,山形市,大道端,ヤマガタケン,ヤマガタシ,オオミチバタ,山形県山形市大道端
9902345,山形県,山形市,富神台,ヤマガタケン,ヤマガタシ,トガミダイ,山形県山形市富神台
9902346,山形県,山形市,高木,ヤマガタケン,ヤマガタシ,タカギ,山形県山形市高木
9902351,山形県,山形市,鋳物町,ヤマガタケン,ヤマガタシ,イモノマチ,山形県山形市鋳物町
9902352,山形県,山形市,前明石,ヤマガタケン,ヤマガタシ,マエアカシ,山形県山形市前明石
9902353,山形県,山形市,明石堂,ヤマガタケン,ヤマガタシ,アカシドウ,山形県山形市明石堂
9902354,山形県,山形市,東二位田,ヤマガタケン,ヤマガタシ,ヒガシニイダ,山形県山形市東二位田
9902355,山形県,山形市,二位田,ヤマガタケン,ヤマガタシ,ニイダ,山形県山形市二位田
9902361,山形県,山形市,百目鬼,ヤマガタケン,ヤマガタシ,ドメキ,山形県山形市百目鬼
9902362,山形県,山形市,菅沢,ヤマガタケン,ヤマガタシ,スゲサワ,山形県山形市菅沢
9902363,山形県,山形市,長谷堂,ヤマガタケン,ヤマガタシ,ハセドウ,山形県山形市長谷堂
9902364,山形県,山形市,大師堂,ヤマガタケン,ヤマガタシ,ダイシドウ,山形県山形市大師堂
9902365,山形県,山形市,御手作,ヤマガタケン,ヤマガタシ,オテサク,山形県山形市御手作
9902366,山形県,山形市,谷地前,ヤマガタケン,ヤマガタシ,ヤチマエ,山形県山形市谷地前
9902367,山形県,山形市,すげさわの丘,ヤマガタケン,ヤマガタシ,スゲサワノオカ,山形県山形市すげさわの丘
9902371,山形県,山形市,村木沢,ヤマガタケン,ヤマガタシ,ムラキザワ,山形県山形市村木沢
9902372,山形県,山形市,みのりが丘,ヤマガタケン,ヤマガタシ,ミノリガオカ,山形県山形市みのりが丘
9902373,山形県,山形市,若木,ヤマガタケン,ヤマガタシ,ワカギ,山形県山形市若木
9902374,山形県,山形市,古館,ヤマガタケン,ヤマガタシ,フルダテ,山形県山形市古館
9902375,山形県,山形市,東古館,ヤマガタケン,ヤマガタシ,ヒガシフルダテ,山形県山形市東古館
9902376,山形県,山形市,桜ケ丘,ヤマガタケン,ヤマガタシ,サクラガオカ,山形県山形市桜ケ丘
9902377,山形県,山形市,藤沢川,ヤマガタケン,ヤマガタシ,フジサワガワ,山形県山形市藤沢川
9902378,山形県,山形市,反町,ヤマガタケン,ヤマガタシ,ソリマチ,山形県山形市反町
9902381,山形県,山形市,常明寺,ヤマガタケン,ヤマガタシ,ジョウミョウジ,山形県山形市常明寺
9902382,山形県,山形市,滝平,ヤマガタケン,ヤマガタシ,タキノヒラ,山形県山形市滝平
9902383,山形県,山形市,芳沢,ヤマガタケン,ヤマガタシ,ヨシザワ,山形県山形市芳沢
9902384,山形県,山形市,上反田,ヤマガタケン,ヤマガタシ,カミソリダ,山形県山形市上反田
9902385,山形県,山形市,下反田,ヤマガタケン,ヤマガタシ,シモソリダ,山形県山形市下反田
9902386,山形県,山形市,並柳,ヤマガタケン,ヤマガタシ,ナミヤナギ,山形県山形市並柳
9902401,山形県,山形市,平清水,ヤマガタケン,ヤマガタシ,ヒラシミズ,山形県山形市平清水
9902402,山形県,山形市,小立,ヤマガタケン,ヤマガタシ,オダチ,山形県山形市小立
9902403,山形県,山形市,岩波,ヤマガタケン,ヤマガタシ,イワナミ,山形県山形市岩波
9902404,山形県,山形市,八森,ヤマガタケン,ヤマガタシ,ハチモリ,山形県山形市八森
9902405,山形県,山形市,土坂,ヤマガタケン,ヤマガタシ,ツチザカ,山形県山形市土坂
9902406,山形県,山形市,神尾,ヤマガタケン,ヤマガタシ,カンノウ,山形県山形市神尾
9902411,山形県,山形市,前田町,ヤマガタケン,ヤマガタシ,マエタマチ,山形県山形市前田町
9902412,山形県,山形市,松山,ヤマガタケン,ヤマガタシ,マツヤマ,山形県山形市松山
9902413,山形県,山形市,南原町,ヤマガタケン,ヤマガタシ,ミナミハラマチ,山形県山形市南原町
9902414,山形県,山形市,寿町,ヤマガタケン,ヤマガタシ,コトブキチョウ,山形県山形市寿町
9902421,山形県,山形市,上桜田,ヤマガタケン,ヤマガタシ,カミサクラダ,山形県山形市上桜田
9902422,山形県,山形市,中桜田,ヤマガタケン,ヤマガタシ,ナカサクラダ,山形県山形市中桜田
9902423,山形県,山形市,東青田,ヤマガタケン,ヤマガタシ,ヒガシアオタ,山形県山形市東青田
9902431,山形県,山形市,松見町,ヤマガタケン,ヤマガタシ,マツミチョウ,山形県山形市松見町
9902432,山形県,山形市,荒楯町,ヤマガタケン,ヤマガタシ,アラタテチョウ,山形県山形市荒楯町
9902433,山形県,山形市,鳥居ケ丘,ヤマガタケン,ヤマガタシ,トリイガオカ,山形県山形市鳥居ケ丘
9902434,山形県,山形市,旭が丘,ヤマガタケン,ヤマガタシ,アサヒガオカ,山形県山形市旭が丘
9902435,山形県,山形市,青田,ヤマガタケン,ヤマガタシ,アオタ,山形県山形市青田
9902441,山形県,山形市,南一番町,ヤマガタケン,ヤマガタシ,ミナミ1バンチョウ,山形県山形市南一番町
9902442,山形県,山形市,南二番町,ヤマガタケン,ヤマガタシ,ミナミ2バンチョウ,山形県山形市南二番町
9902443,山形県,山形市,南三番町,ヤマガタケン,ヤマガタシ,ミナミ3バンチョウ,山形県山形市南三番町
9902444,山形県,山形市,南四番町,ヤマガタケン,ヤマガタシ,ミナミ4バンチョウ,山形県山形市南四番町
9902445,山形県,山形市,南栄町,ヤマガタケン,ヤマガタシ,ナンエイチョウ,山形県山形市南栄町
9902446,山形県,山形市,白山,ヤマガタケン,ヤマガタシ,ハクサン,山形県山形市白山
9902447,山形県,山形市,元木,ヤマガタケン,ヤマガタシ,モトキ,山形県山形市元木
9902451,山形県,山形市,吉原,ヤマガタケン,ヤマガタシ,ヨシハラ,山形県山形市吉原
9902453,山形県,山形市,若宮,ヤマガタケン,ヤマガタシ,ワカミヤ,山形県山形市若宮
9902455,山形県,山形市,吉原南,ヤマガタケン,ヤマガタシ,ヨシハラミナミ,山形県山形市吉原南
9902461,山形県,山形市,南館,ヤマガタケン,ヤマガタシ,ミナミダテ,山形県山形市南館
9902462,山形県,山形市,深町,ヤマガタケン,ヤマガタシ,フカマチ,山形県山形市深町
9902463,山形県,山形市,富の中,ヤマガタケン,ヤマガタシ,トミノジュウ,山形県山形市富の中
9902464,山形県,山形市,高堂,ヤマガタケン,ヤマガタシ,タカドウ,山形県山形市高堂
9902465,山形県,山形市,南館西,ヤマガタケン,ヤマガタシ,ミナミダテニシ,山形県山形市南館西
9902471,山形県,山形市,羽黒堂,ヤマガタケン,ヤマガタシ,ハグロドウ,山形県山形市羽黒堂
9902472,山形県,山形市,明神前,ヤマガタケン,ヤマガタシ,ミョウジンマエ,山形県山形市明神前
9902473,山形県,山形市,松栄,ヤマガタケン,ヤマガタシ,マツエイ,山形県山形市松栄
9902474,山形県,山形市,沼木,ヤマガタケン,ヤマガタシ,ヌマギ,山形県山形市沼木
9902475,山形県,山形市,木ノ目田,ヤマガタケン,ヤマガタシ,キノメダ,山形県山形市木ノ目田
9902476,山形県,山形市,飯沢,ヤマガタケン,ヤマガタシ,イイザワ,山形県山形市飯沢
9902477,山形県,山形市,長苗代,ヤマガタケン,ヤマガタシ,ナガナワシロ,山形県山形市長苗代
9902481,山形県,山形市,あかねケ丘,ヤマガタケン,ヤマガタシ,アカネガオカ,山形県山形市あかねケ丘
9902482,山形県,山形市,久保田,ヤマガタケン,ヤマガタシ,クボタ,山形県山形市久保田
9902483,山形県,山形市,上町,ヤマガタケン,ヤマガタシ,ウワマチ,山形県山形市上町
9902484,山形県,山形市,篭田,ヤマガタケン,ヤマガタシ,カゴタ,山形県山形市篭田
9902491,山形県,山形市,あずま町,ヤマガタケン,ヤマガタシ,アズマチョウ,山形県山形市あずま町
9902492,山形県,山形市,鉄砲町,ヤマガタケン,ヤマガタシ,テッポウマチ,山形県山形市鉄砲町
9902493,山形県,山形市,美畑町,ヤマガタケン,ヤマガタシ,ミハタチョウ,山形県山形市美畑町
9902494,山形県,山形市,末広町,ヤマガタケン,ヤマガタシ,スエヒロチョウ,山形県山形市末広町
9902495,山形県,山形市,若葉町,ヤマガタケン,ヤマガタシ,ワカバチョウ,山形県山形市若葉町
9910000,山形県,寒河江市,,ヤマガタケン,サガエシ,,山形県寒河江市
9910001,山形県,寒河江市,入倉,ヤマガタケン,サガエシ,ニュウグラ,山形県寒河江市入倉
9910002,山形県,寒河江市,下河原,ヤマガタケン,サガエシ,シモガワラ,山形県寒河江市下河原
9910003,山形県,寒河江市,西根,ヤマガタケン,サガエシ,ニシネ,山形県寒河江市西根
9910004,山形県,寒河江市,西根北町,ヤマガタケン,サガエシ,ニシネキタマチ,山形県寒河江市西根北町
9910005,山形県,寒河江市,中河原,ヤマガタケン,サガエシ,ナカガワラ,山形県寒河江市中河原
9910006,山形県,寒河江市,上河原,ヤマガタケン,サガエシ,カミガワラ,山形県寒河江市上河原
9910006,山形県,寒河江市,夕カヘ,ヤマガタケン,サガエシ,ユウガエ,山形県寒河江市夕カヘ
9910007,山形県,寒河江市,道生,ヤマガタケン,サガエシ,ドウショウ,山形県寒河江市道生
9910008,山形県,寒河江市,菊地堂,ヤマガタケン,サガエシ,キクチドウ,山形県寒河江市菊地堂
9910008,山形県,寒河江市,雲河原,ヤマガタケン,サガエシ,クモガワラ,山形県寒河江市雲河原
9910011,山形県,寒河江市,日田,ヤマガタケン,サガエシ,ニッタ,山形県寒河江市日田
9910012,山形県,寒河江市,新山町,ヤマガタケン,サガエシ,シンザンマチ,山形県寒河江市新山町
9910013,山形県,寒河江市,高田,ヤマガタケン,サガエシ,タカダ,山形県寒河江市高田
9910021,山形県,寒河江市,中央,ヤマガタケン,サガエシ,チュウオウ,山形県寒河江市中央
9910022,山形県,寒河江市,七日町,ヤマガタケン,サガエシ,ナノカマチ,山形県寒河江市七日町
9910023,山形県,寒河江市,丸内,ヤマガタケン,サガエシ,マルノウチ,山形県寒河江市丸内
9910024,山形県,寒河江市,六供町,ヤマガタケン,サガエシ,ロックマチ,山形県寒河江市六供町
9910025,山形県,寒河江市,八幡町,ヤマガタケン,サガエシ,ヤワタマチ,山形県寒河江市八幡町
9910026,山形県,寒河江市,山岸町,ヤマガタケン,サガエシ,ヤマギシチョウ,山形県寒河江市山岸町
9910027,山形県,寒河江市,石持町,ヤマガタケン,サガエシ,イシモチマチ,山形県寒河江市石持町
9910028,山形県,寒河江市,ほなみ,ヤマガタケン,サガエシ,ホナミ,山形県寒河江市ほなみ
9910031,山形県,寒河江市,本町,ヤマガタケン,サガエシ,ホンチョウ,山形県寒河江市本町
9910032,山形県,寒河江市,南町,ヤマガタケン,サガエシ,ミナミマチ,山形県寒河江市南町
9910033,山形県,寒河江市,末広町,ヤマガタケン,サガエシ,スエヒロチョウ,山形県寒河江市末広町
9910034,山形県,寒河江市,栄町,ヤマガタケン,サガエシ,サカエチョウ,山形県寒河江市栄町
9910035,山形県,寒河江市,幸町,ヤマガタケン,サガエシ,サイワイチョウ,山形県寒河江市幸町
9910041,山形県,寒河江市,寒河江,ヤマガタケン,サガエシ,サガエ,山形県寒河江市寒河江
9910042,山形県,寒河江市,高屋,ヤマガタケン,サガエシ,タカヤ,山形県寒河江市高屋
9910043,山形県,寒河江市,島,ヤマガタケン,サガエシ,シマ,山形県寒河江市島
9910044,山形県,寒河江市,越井坂町,ヤマガタケン,サガエシ,コシイザカチョウ,山形県寒河江市越井坂町
9910045,山形県,寒河江市,小沼町,ヤマガタケン,サガエシ,コヌマチョウ,山形県寒河江市小沼町
9910046,山形県,寒河江市,東新山町,ヤマガタケン,サガエシ,ヒガシシンザンマチ,山形県寒河江市東新山町
9910047,山形県,寒河江市,新山,ヤマガタケン,サガエシ,シンザン,山形県寒河江市新山
9910048,山形県,寒河江市,みずき,ヤマガタケン,サガエシ,ミズキ,山形県寒河江市みずき
9910049,山形県,寒河江市,本楯,ヤマガタケン,サガエシ,モトダテ,山形県寒河江市本楯
9910051,山形県,寒河江市,若葉町,ヤマガタケン,サガエシ,ワカバチョウ,山形県寒河江市若葉町
9910052,山形県,寒河江市,幸田町,ヤマガタケン,サガエシ,サチタマチ,山形県寒河江市幸田町
9910053,山形県,寒河江市,元町,ヤマガタケン,サガエシ,モトマチ,山形県寒河江市元町
9910054,山形県,寒河江市,仲谷地,ヤマガタケン,サガエシ,ナカヤチ,山形県寒河江市仲谷地
9910055,山形県,寒河江市,船橋町,ヤマガタケン,サガエシ,フナバシマチ,山形県寒河江市船橋町
9910056,山形県,寒河江市,落衣前,ヤマガタケン,サガエシ,オトモマエ,山形県寒河江市落衣前
9910057,山形県,寒河江市,内ノ袋,ヤマガタケン,サガエシ,ウチノフクロ,山形県寒河江市内ノ袋
9910061,山形県,寒河江市,中央工業団地（その他）,ヤマガタケン,サガエシ,チュウオウコウギョウダンチ(ソノタ),山形県寒河江市中央工業団地（その他）
9910062,山形県,寒河江市,緑町,ヤマガタケン,サガエシ,ミドリチョウ,山形県寒河江市緑町
9910063,山形県,寒河江市,柴橋,ヤマガタケン,サガエシ,シバハシ,山形県寒河江市柴橋
9910064,山形県,寒河江市,平塩,ヤマガタケン,サガエシ,ヒラシオ,山形県寒河江市平塩
9910065,山形県,寒河江市,中郷,ヤマガタケン,サガエシ,ナカゴウ,山形県寒河江市中郷
9910066,山形県,寒河江市,松川,ヤマガタケン,サガエシ,マツカワ,山形県寒河江市松川
9910801,山形県,西村山郡大江町,左沢（１５１８−３、１７５０−１〜２２２８−１８、２２５５−１〜,ヤマガタケン,ニシムラヤマグンオオエマチ,アテラザワ(1518-3、1750-1-2228-18、2255-1-,山形県西村山郡大江町左沢（1518-3、1750-1〜2228-18、2255-1〜
9920000,山形県,米沢市,,ヤマガタケン,ヨネザワシ,,山形県米沢市
9920001,山形県,米沢市,窪田町東江股,ヤマガタケン,ヨネザワシ,クボタマチヒガシエマタ,山形県米沢市窪田町東江股
9920002,山形県,米沢市,窪田町矢野目,ヤマガタケン,ヨネザワシ,クボタマチヤノメ,山形県米沢市窪田町矢野目
9920003,山形県,米沢市,窪田町窪田,ヤマガタケン,ヨネザワシ,クボタマチクボタ,山形県米沢市窪田町窪田
9920004,山形県,米沢市,窪田町小瀬,ヤマガタケン,ヨネザワシ,クボタマチコゼ,山形県米沢市窪田町小瀬
9920005,山形県,米沢市,窪田町藤泉,ヤマガタケン,ヨネザワシ,クボタマチフジイズミ,山形県米沢市窪田町藤泉
9920011,山形県,米沢市,中田町,ヤマガタケン,ヨネザワシ,ナカダマチ,山形県米沢市中田町
9920012,山形県,米沢市,金池,ヤマガタケン,ヨネザワシ,カナイケ,山形県米沢市金池
9920013,山形県,米沢市,栄町,ヤマガタケン,ヨネザワシ,サカエマチ,山形県米沢市栄町
9920014,山形県,米沢市,鍛冶町,ヤマガタケン,ヨネザワシ,カジマチ,山形県米沢市鍛冶町
9920015,山形県,米沢市,立町,ヤマガタケン,ヨネザワシ,タツマチ,山形県米沢市立町
9920016,山形県,米沢市,川井小路,ヤマガタケン,ヨネザワシ,カワイコウジ,山形県米沢市川井小路
9920017,山形県,米沢市,桜木町,ヤマガタケン,ヨネザワシ,サクラギチョウ,山形県米沢市桜木町
9920021,山形県,米沢市,花沢,ヤマガタケン,ヨネザワシ,ハナザワ,山形県米沢市花沢
9920022,山形県,米沢市,花沢町,ヤマガタケン,ヨネザワシ,ハナザワチョウ,山形県米沢市花沢町
9920023,山形県,米沢市,下花沢,ヤマガタケン,ヨネザワシ,シモハナザワ,山形県米沢市下花沢
9920024,山形県,米沢市,東大通,ヤマガタケン,ヨネザワシ,ヒガシオオドオリ,山形県米沢市東大通
9920025,山形県,米沢市,通町,ヤマガタケン,ヨネザワシ,トオリマチ,山形県米沢市通町
9920026,山形県,米沢市,東,ヤマガタケン,ヨネザワシ,ヒガシ,山形県米沢市東
9920027,山形県,米沢市,駅前,ヤマガタケン,ヨネザワシ,エキマエ,山形県米沢市駅前
9920031,山形県,米沢市,大町,ヤマガタケン,ヨネザワシ,オオマチ,山形県米沢市大町
9920032,山形県,米沢市,相生町,ヤマガタケン,ヨネザワシ,アイオイチョウ,山形県米沢市相生町
9920033,山形県,米沢市,福田町,ヤマガタケン,ヨネザワシ,フクダマチ,山形県米沢市福田町
9920034,山形県,米沢市,吾妻町,ヤマガタケン,ヨネザワシ,アヅマチョウ,山形県米沢市吾妻町
9920035,山形県,米沢市,太田町,ヤマガタケン,ヨネザワシ,オオタマチ,山形県米沢市太田町
9920036,山形県,米沢市,福田,ヤマガタケン,ヨネザワシ,フクダ,山形県米沢市福田
9920037,山形県,米沢市,本町,ヤマガタケン,ヨネザワシ,ホンチョウ,山形県米沢市本町
9920038,山形県,米沢市,城南,ヤマガタケン,ヨネザワシ,ジョウナン,山形県米沢市城南
9920039,山形県,米沢市,門東町,ヤマガタケン,ヨネザワシ,モントウマチ,山形県米沢市門東町
9920041,山形県,米沢市,塩井町宮井,ヤマガタケン,ヨネザワシ,シオイマチミヤイ,山形県米沢市塩井町宮井
9920042,山形県,米沢市,塩井町塩野,ヤマガタケン,ヨネザワシ,シオイマチシオノ,山形県米沢市塩井町塩野
9920043,山形県,米沢市,塩野,ヤマガタケン,ヨネザワシ,シオノ,山形県米沢市塩野
9920044,山形県,米沢市,春日,ヤマガタケン,ヨネザワシ,カスガ,山形県米沢市春日
9920045,山形県,米沢市,中央,ヤマガタケン,ヨネザワシ,チュウオウ,山形県米沢市中央
9920046,山形県,米沢市,信夫町,ヤマガタケン,ヨネザワシ,シノブマチ,山形県米沢市信夫町
9920047,山形県,米沢市,徳町,ヤマガタケン,ヨネザワシ,トクマチ,山形県米沢市徳町
9920051,山形県,米沢市,城北,ヤマガタケン,ヨネザワシ,ジョウホク,山形県米沢市城北
9920052,山形県,米沢市,丸の内,ヤマガタケン,ヨネザワシ,マルノウチ,山形県米沢市丸の内
9920053,山形県,米沢市,松が岬,ヤマガタケン,ヨネザワシ,マツガサキ,山形県米沢市松が岬
9920054,山形県,米沢市,城西,ヤマガタケン,ヨネザワシ,ジョウセイ,山形県米沢市城西
9920055,山形県,米沢市,御廟,ヤマガタケン,ヨネザワシ,ゴビョウ,山形県米沢市御廟
9920056,山形県,米沢市,直江町,ヤマガタケン,ヨネザワシ,ナオエチョウ,山形県米沢市直江町
9920057,山形県,米沢市,成島町,ヤマガタケン,ヨネザワシ,ナルシママチ,山形県米沢市成島町
9920058,山形県,米沢市,木場町,ヤマガタケン,ヨネザワシ,キバマチ,山形県米沢市木場町
9920059,山形県,米沢市,西大通,ヤマガタケン,ヨネザワシ,ニシオオドオリ,山形県米沢市西大通
9920061,山形県,米沢市,堀川町,ヤマガタケン,ヨネザワシ,ホリカワチョウ,山形県米沢市堀川町
9920062,山形県,米沢市,林泉寺,ヤマガタケン,ヨネザワシ,リンセンジ,山形県米沢市林泉寺
9920063,山形県,米沢市,泉町,ヤマガタケン,ヨネザワシ,イズミマチ,山形県米沢市泉町
9920064,山形県,米沢市,杉の目町,ヤマガタケン,ヨネザワシ,スギノメマチ,山形県米沢市杉の目町
9920065,山形県,米沢市,古志田町,ヤマガタケン,ヨネザワシ,フルシダマチ,山形県米沢市古志田町
9920066,山形県,米沢市,遠山町,ヤマガタケン,ヨネザワシ,トオヤママチ,山形県米沢市遠山町
9920071,山形県,米沢市,舘山矢子町,ヤマガタケン,ヨネザワシ,タテヤマヤゴマチ,山形県米沢市舘山矢子町
9920072,山形県,米沢市,舘山,ヤマガタケン,ヨネザワシ,タテヤマ,山形県米沢市舘山
9920073,山形県,米沢市,吹屋敷町,ヤマガタケン,ヨネザワシ,ブキヤシキマチ,山形県米沢市吹屋敷町
9920074,山形県,米沢市,矢来,ヤマガタケン,ヨネザワシ,ヤライ,山形県米沢市矢来
9920075,山形県,米沢市,赤芝町,ヤマガタケン,ヨネザワシ,アカシバマチ,山形県米沢市赤芝町
9920076,山形県,米沢市,小野川町,ヤマガタケン,ヨネザワシ,オノガワマチ,山形県米沢市小野川町
9920077,山形県,米沢市,簗沢,ヤマガタケン,ヨネザワシ,ヤナザワ,山形県米沢市簗沢
9920081,山形県,米沢市,下小菅,ヤマガタケン,ヨネザワシ,シモコスゲ,山形県米沢市下小菅
9920082,山形県,米沢市,広幡町小山田,ヤマガタケン,ヨネザワシ,ヒロハタマチオヤマダ,山形県米沢市広幡町小山田
9920083,山形県,米沢市,広幡町成島,ヤマガタケン,ヨネザワシ,ヒロハタマチナルシマ,山形県米沢市広幡町成島
9920084,山形県,米沢市,広幡町上小菅,ヤマガタケン,ヨネザワシ,ヒロハタマチカミコスゲ,山形県米沢市広幡町上小菅
9920085,山形県,米沢市,広幡町沖仲,ヤマガタケン,ヨネザワシ,ヒロハタマチオキナカ,山形県米沢市広幡町沖仲
9920086,山形県,米沢市,広幡町京塚,ヤマガタケン,ヨネザワシ,ヒロハタマチキョウヅカ,山形県米沢市広幡町京塚
9920087,山形県,米沢市,広幡町大沢,ヤマガタケン,ヨネザワシ,ヒロハタマチオオサワ,山形県米沢市広幡町大沢
9920091,山形県,米沢市,六郷町桐原,ヤマガタケン,ヨネザワシ,ロクゴウマチキリバラ,山形県米沢市六郷町桐原
9920092,山形県,米沢市,六郷町西江股,ヤマガタケン,ヨネザワシ,ロクゴウマチニシエマタ,山形県米沢市六郷町西江股
9920093,山形県,米沢市,六郷町西藤泉,ヤマガタケン,ヨネザワシ,ロクゴウマチニシフジイズミ,山形県米沢市六郷町西藤泉
9920094,山形県,米沢市,六郷町轟,ヤマガタケン,ヨネザワシ,ロクゴウマチトドロキ,山形県米沢市六郷町轟
9920095,山形県,米沢市,六郷町一漆,ヤマガタケン,ヨネザワシ,ロクゴウマチヒトツウルシ,山形県米沢市六郷町一漆
9920096,山形県,米沢市,六郷町長橋,ヤマガタケン,ヨネザワシ,ロクゴウマチナガハシ,山形県米沢市六郷町長橋
9920111,山形県,米沢市,下新田,ヤマガタケン,ヨネザワシ,シモニイダ,山形県米沢市下新田
9920112,山形県,米沢市,浅川,ヤマガタケン,ヨネザワシ,アサガワ,山形県米沢市浅川
9920113,山形県,米沢市,長手,ヤマガタケン,ヨネザワシ,ナガテ,山形県米沢市長手
9920114,山形県,米沢市,木和田,ヤマガタケン,ヨネザワシ,キワダ,山形県米沢市木和田
9920115,山形県,米沢市,梓川,ヤマガタケン,ヨネザワシ,アズサガワ,山形県米沢市梓川
9920116,山形県,米沢市,竹井,ヤマガタケン,ヨネザワシ,タケイ,山形県米沢市竹井
9920117,山形県,米沢市,川井,ヤマガタケン,ヨネザワシ,カワイ,山形県米沢市川井
9920118,山形県,米沢市,上新田,ヤマガタケン,ヨネザワシ,カミニイダ,山形県米沢市上新田
9920119,山形県,米沢市,アルカディア,ヤマガタケン,ヨネザワシ,アルカディア,山形県米沢市アルカディア
9920261,山形県,東置賜郡高畠町,上和田,ヤマガタケン,ヒガシオキタマグンタカハタマチ,カミワダ,山形県東置賜郡高畠町上和田
9920262,山形県,東置賜郡高畠町,元和田,ヤマガタケン,ヒガシオキタマグンタカハタマチ,モトワダ,山形県東置賜郡高畠町元和田
9920263,山形県,東置賜郡高畠町,下和田,ヤマガタケン,ヒガシオキタマグンタカハタマチ,シモワダ,山形県東置賜郡高畠町下和田
9920264,山形県,東置賜郡高畠町,馬頭,ヤマガタケン,ヒガシオキタマグンタカハタマチ,バトウ,山形県東置賜郡高畠町馬頭
9920265,山形県,東置賜郡高畠町,佐沢,ヤマガタケン,ヒガシオキタマグンタカハタマチ,サザワ,山形県東置賜郡高畠町佐沢
9920300,山形県,東置賜郡高畠町,,ヤマガタケン,ヒガシオキタマグンタカハタマチ,,山形県東置賜郡高畠町
9920301,山形県,東置賜郡高畠町,二井宿,ヤマガタケン,ヒガシオキタマグンタカハタマチ,ニイジュク,山形県東置賜郡高畠町二井宿
9920302,山形県,東置賜郡高畠町,安久津,ヤマガタケン,ヒガシオキタマグンタカハタマチ,アクツ,山形県東置賜郡高畠町安久津
9920311,山形県,東置賜郡高畠町,金原,ヤマガタケン,ヒガシオキタマグンタカハタマチ,カナバラ,山形県東置賜郡高畠町金原
9920312,山形県,東置賜郡高畠町,小郡山,ヤマガタケン,ヒガシオキタマグンタカハタマチ,コゴオリヤマ,山形県東置賜郡高畠町小郡山
9920313,山形県,東置賜郡高畠町,高安,ヤマガタケン,ヒガシオキタマグンタカハタマチ,コウヤス,山形県東置賜郡高畠町高安
9920314,山形県,東置賜郡高畠町,塩森,ヤマガタケン,ヒガシオキタマグンタカハタマチ,シオノモリ,山形県東置賜郡高畠町塩森
9920315,山形県,東置賜郡高畠町,泉岡,ヤマガタケン,ヒガシオキタマグンタカハタマチ,イズミオカ,山形県東置賜郡高畠町泉岡
9920321,山形県,東置賜郡高畠町,亀岡,ヤマガタケン,ヒガシオキタマグンタカハタマチ,カメオカ,山形県東置賜郡高畠町亀岡
9920322,山形県,東置賜郡高畠町,中島,ヤマガタケン,ヒガシオキタマグンタカハタマチ,ナカジマ,山形県東置賜郡高畠町中島
9920323,山形県,東置賜郡高畠町,露藤,ヤマガタケン,ヒガシオキタマグンタカハタマチ,ツユフジ,山形県東置賜郡高畠町露藤
9920324,山形県,東置賜郡高畠町,入生田,ヤマガタケン,ヒガシオキタマグンタカハタマチ,イリュウダ,山形県東置賜郡高畠町入生田
9920325,山形県,東置賜郡高畠町,船橋,ヤマガタケン,ヒガシオキタマグンタカハタマチ,フナバシ,山形県東置賜郡高畠町船橋
9920331,山形県,東置賜郡高畠町,三条目,ヤマガタケン,ヒガシオキタマグンタカハタマチ,サンジョノメ,山形県東置賜郡高畠町三条目
9920332,山形県,東置賜郡高畠町,相森,ヤマガタケン,ヒガシオキタマグンタカハタマチ,アイノモリ,山形県東置賜郡高畠町相森
9920333,山形県,東置賜郡高畠町,柏木目,ヤマガタケン,ヒガシオキタマグンタカハタマチ,カシワギメ,山形県東置賜郡高畠町柏木目
9920334,山形県,東置賜郡高畠町,一本柳,ヤマガタケン,ヒガシオキタマグンタカハタマチ,イッポンヤナギ,山形県東置賜郡高畠町一本柳
9920335,山形県,東置賜郡高畠町,川沼,ヤマガタケン,ヒガシオキタマグンタカハタマチ,カワヌマ,山形県東置賜郡高畠町川沼
9920341,山形県,東置賜郡高畠町,時沢,ヤマガタケン,ヒガシオキタマグンタカハタマチ,トキザワ,山形県東置賜郡高畠町時沢
9920342,山形県,東置賜郡高畠町,竹森,ヤマガタケン,ヒガシオキタマグンタカハタマチ,タケノモリ,山形県東置賜郡高畠町竹森
9920343,山形県,東置賜郡高畠町,根岸,ヤマガタケン,ヒガシオキタマグンタカハタマチ,ネギシ,山形県東置賜郡高畠町根岸
9920344,山形県,東置賜郡高畠町,深沼,ヤマガタケン,ヒガシオキタマグンタカハタマチ,フカヌマ,山形県東置賜郡高畠町深沼
9920351,山形県,東置賜郡高畠町,高畠,ヤマガタケン,ヒガシオキタマグンタカハタマチ,タカハタ,山形県東置賜郡高畠町高畠
9920352,山形県,東置賜郡高畠町,中里,ヤマガタケン,ヒガシオキタマグンタカハタマチ,ナカザト,山形県東置賜郡高畠町中里
9920471,山形県,南陽市,金山,ヤマガタケン,ナンヨウシ,カネヤマ,山形県南陽市金山
9920472,山形県,南陽市,宮内,ヤマガタケン,ナンヨウシ,ミヤウチ,山形県南陽市宮内
9920473,山形県,南陽市,池黒,ヤマガタケン,ナンヨウシ,イケグロ,山形県南陽市池黒
9920474,山形県,南陽市,漆山,ヤマガタケン,ナンヨウシ,ウルシヤマ,山形県南陽市漆山
9920475,山形県,南陽市,羽付,ヤマガタケン,ナンヨウシ,ハネツキ,山形県南陽市羽付
9920476,山形県,南陽市,砂塚,ヤマガタケン,ナンヨウシ,スナヅカ,山形県南陽市砂塚
9920477,山形県,南陽市,梨郷,ヤマガタケン,ナンヨウシ,リンゴウ,山形県南陽市梨郷
9920478,山形県,南陽市,竹原,ヤマガタケン,ナンヨウシ,タケハラ,山形県南陽市竹原
9920479,山形県,南陽市,和田,ヤマガタケン,ナンヨウシ,ワダ,山形県南陽市和田
9920581,山形県,南陽市,小滝,ヤマガタケン,ナンヨウシ,コタキ,山形県南陽市小滝
9920582,山形県,南陽市,荻,ヤマガタケン,ナンヨウシ,オギ,山形県南陽市荻
9920583,山形県,南陽市,下荻,ヤマガタケン,ナンヨウシ,シモオギ,山形県南陽市下荻
9920584,山形県,南陽市,太郎,ヤマガタケン,ナンヨウシ,タロウ,山形県南陽市太郎
9920601,山形県,東置賜郡川西町,西大塚,ヤマガタケン,ヒガシオキタマグンカワニシマチ,ニシオオツカ,山形県東置賜郡川西町西大塚
9920602,山形県,東置賜郡川西町,大塚,ヤマガタケン,ヒガシオキタマグンカワニシマチ,オオツカ,山形県東置賜郡川西町大塚
9920603,山形県,東置賜郡川西町,東大塚,ヤマガタケン,ヒガシオキタマグンカワニシマチ,ヒガシオオツカ,山形県東置賜郡川西町東大塚
9920771,山形県,西置賜郡白鷹町,鮎貝,ヤマガタケン,ニシオキタマグンシラタカマチ,アユカイ,山形県西置賜郡白鷹町鮎貝
9920772,山形県,西置賜郡白鷹町,横田尻,ヤマガタケン,ニシオキタマグンシラタカマチ,ヨコタジリ,山形県西置賜郡白鷹町横田尻
9920773,山形県,西置賜郡白鷹町,高玉,ヤマガタケン,ニシオキタマグンシラタカマチ,タカダマ,山形県西置賜郡白鷹町高玉
9920774,山形県,西置賜郡白鷹町,山口,ヤマガタケン,ニシオキタマグンシラタカマチ,ヤマグチ,山形県西置賜郡白鷹町山口
9920775,山形県,西置賜郡白鷹町,黒鴨,ヤマガタケン,ニシオキタマグンシラタカマチ,クロガモ,山形県西置賜郡白鷹町黒鴨
9920776,山形県,西置賜郡白鷹町,深山,ヤマガタケン,ニシオキタマグンシラタカマチ,ミヤマ,山形県西置賜郡白鷹町深山
9920777,山形県,西置賜郡白鷹町,栃窪,ヤマガタケン,ニシオキタマグンシラタカマチ,トチクボ,山形県西置賜郡白鷹町栃窪
9920778,山形県,西置賜郡白鷹町,高岡,ヤマガタケン,ニシオキタマグンシラタカマチ,タカオカ,山形県西置賜郡白鷹町高岡
9920779,山形県,西置賜郡白鷹町,箕和田,ヤマガタケン,ニシオキタマグンシラタカマチ,ミノワダ,山形県西置賜郡白鷹町箕和田
9920800,山形県,西置賜郡白鷹町,,ヤマガタケン,ニシオキタマグンシラタカマチ,,山形県西置賜郡白鷹町
9920801,山形県,西置賜郡白鷹町,針生,ヤマガタケン,ニシオキタマグンシラタカマチ,ハリュウ,山形県西置賜郡白鷹町針生
9920802,山形県,西置賜郡白鷹町,中山,ヤマガタケン,ニシオキタマグンシラタカマチ,ナカヤマ,山形県西置賜郡白鷹町中山
9920811,山形県,西置賜郡白鷹町,萩野,ヤマガタケン,ニシオキタマグンシラタカマチ,ハギノ,山形県西置賜郡白鷹町萩野
9920812,山形県,西置賜郡白鷹町,滝野,ヤマガタケン,ニシオキタマグンシラタカマチ,タキノ,山形県西置賜郡白鷹町滝野
9920821,山形県,西置賜郡白鷹町,十王,ヤマガタケン,ニシオキタマグンシラタカマチ,ジュウオウ,山形県西置賜郡白鷹町十王
9920831,山形県,西置賜郡白鷹町,荒砥甲,ヤマガタケン,ニシオキタマグンシラタカマチ,アラトコウ,山形県西置賜郡白鷹町荒砥甲
9920832,山形県,西置賜郡白鷹町,荒砥乙,ヤマガタケン,ニシオキタマグンシラタカマチ,アラトオツ,山形県西置賜郡白鷹町荒砥乙
9920841,山形県,西置賜郡白鷹町,畔藤,ヤマガタケン,ニシオキタマグンシラタカマチ,クロフジ,山形県西置賜郡白鷹町畔藤
9920851,山形県,西置賜郡白鷹町,広野,ヤマガタケン,ニシオキタマグンシラタカマチ,ヒロノ,山形県西置賜郡白鷹町広野
9920852,山形県,西置賜郡白鷹町,浅立,ヤマガタケン,ニシオキタマグンシラタカマチ,アサダチ,山形県西置賜郡白鷹町浅立
9920861,山形県,西置賜郡白鷹町,大瀬,ヤマガタケン,ニシオキタマグンシラタカマチ,オオセ,山形県西置賜郡白鷹町大瀬
9920862,山形県,西置賜郡白鷹町,下山,ヤマガタケン,ニシオキタマグンシラタカマチ,シモヤマ,山形県西置賜郡白鷹町下山
9920863,山形県,西置賜郡白鷹町,菖蒲,ヤマガタケン,ニシオキタマグンシラタカマチ,ショウブ,山形県西置賜郡白鷹町菖蒲
9920864,山形県,西置賜郡白鷹町,佐野原,ヤマガタケン,ニシオキタマグンシラタカマチ,サノハラ,山形県西置賜郡白鷹町佐野原
9921121,山形県,米沢市,万世町刈安,ヤマガタケン,ヨネザワシ,バンセイチョウカリヤス,山形県米沢市万世町刈安
9921122,山形県,米沢市,万世町梓山,ヤマガタケン,ヨネザワシ,バンセイチョウズサヤマ,山形県米沢市万世町梓山
9921123,山形県,米沢市,万世町桑山,ヤマガタケン,ヨネザワシ,バンセイチョウクワヤマ,山形県米沢市万世町桑山
9921124,山形県,米沢市,万世町金谷,ヤマガタケン,ヨネザワシ,バンセイチョウカナヤ,山形県米沢市万世町金谷
9921125,山形県,米沢市,万世町片子,ヤマガタケン,ヨネザワシ,バンセイチョウカタコ,山形県米沢市万世町片子
9921126,山形県,米沢市,万世町堂森,ヤマガタケン,ヨネザワシ,バンセイチョウドウモリ,山形県米沢市万世町堂森
9921127,山形県,米沢市,万世町牛森,ヤマガタケン,ヨネザワシ,バンセイチョウウシモリ,山形県米沢市万世町牛森
9921128,山形県,米沢市,八幡原,ヤマガタケン,ヨネザワシ,ハチマンパラ,山形県米沢市八幡原
9921201,山形県,米沢市,万世町立沢,ヤマガタケン,ヨネザワシ,バンセイチョウタツザワ,山形県米沢市万世町立沢
9921202,山形県,米沢市,三沢,ヤマガタケン,ヨネザワシ,ミサワ,山形県米沢市三沢
9921203,山形県,米沢市,大沢（大沢、笠松）,ヤマガタケン,ヨネザワシ,オオサワ(オオサワ、カサマツ),山形県米沢市大沢（大沢、笠松）
9921204,山形県,米沢市,大小屋,ヤマガタケン,ヨネザワシ,オオゴヤ,山形県米沢市大小屋
9921205,山形県,米沢市,関根,ヤマガタケン,ヨネザワシ,セキネ,山形県米沢市関根
9921206,山形県,米沢市,赤崩（その他）,ヤマガタケン,ヨネザワシ,アカクズレ(ソノタ),山形県米沢市赤崩（その他）
9921303,山形県,米沢市,大沢（その他）,ヤマガタケン,ヨネザワシ,オオサワ(ソノタ),山形県米沢市大沢（その他）
9921331,山形県,米沢市,板谷,ヤマガタケン,ヨネザワシ,イタヤ,山形県米沢市板谷
9921406,山形県,米沢市,赤崩（山王浦）,ヤマガタケン,ヨネザワシ,アカクズレ(サンノウウラ),山形県米沢市赤崩（山王浦）
9921441,山形県,米沢市,笹野町,ヤマガタケン,ヨネザワシ,ササノマチ,山形県米沢市笹野町
9921442,山形県,米沢市,芳泉町,ヤマガタケン,ヨネザワシ,ホウセンマチ,山形県米沢市芳泉町
9921443,山形県,米沢市,笹野,ヤマガタケン,ヨネザワシ,ササノ,山形県米沢市笹野
9921444,山形県,米沢市,諸仏町,ヤマガタケン,ヨネザワシ,ショブツマチ,山形県米沢市諸仏町
9921445,山形県,米沢市,笹野本町,ヤマガタケン,ヨネザワシ,ササノホンチョウ,山形県米沢市笹野本町
9921446,山形県,米沢市,直江石堤,ヤマガタケン,ヨネザワシ,ナオエセキテイ,山形県米沢市直江石堤
9921451,山形県,米沢市,南原笹野町,ヤマガタケン,ヨネザワシ,ミナミハラササノマチ,山形県米沢市南原笹野町
9921452,山形県,米沢市,南原横堀町,ヤマガタケン,ヨネザワシ,ミナミハラヨコボリマチ,山形県米沢市南原横堀町
9921453,山形県,米沢市,南原石垣町,ヤマガタケン,ヨネザワシ,ミナミハライシガキマチ,山形県米沢市南原石垣町
9921454,山形県,米沢市,南原新町,ヤマガタケン,ヨネザワシ,ミナミハラシンマチ,山形県米沢市南原新町
9921455,山形県,米沢市,南原猪苗代町,ヤマガタケン,ヨネザワシ,ミナミハライナワシロマチ,山形県米沢市南原猪苗代町
9921461,山形県,米沢市,李山,ヤマガタケン,ヨネザワシ,スモモヤマ,山形県米沢市李山
9921462,山形県,米沢市,大平,ヤマガタケン,ヨネザワシ,オオダイラ,山形県米沢市大平
9921471,山形県,米沢市,立石,ヤマガタケン,ヨネザワシ,タテイシ,山形県米沢市立石
9921472,山形県,米沢市,関,ヤマガタケン,ヨネザワシ,セキ,山形県米沢市関
9921473,山形県,米沢市,関町,ヤマガタケン,ヨネザワシ,セキマチ,山形県米沢市関町
9921474,山形県,米沢市,綱木,ヤマガタケン,ヨネザワシ,ツナギ,山形県米沢市綱木
9921581,山形県,米沢市,口田沢,ヤマガタケン,ヨネザワシ,クチタザワ,山形県米沢市口田沢
9921582,山形県,米沢市,神原,ヤマガタケン,ヨネザワシ,カンバラ,山形県米沢市神原
9921583,山形県,米沢市,入田沢,ヤマガタケン,ヨネザワシ,イリタザワ,山形県米沢市入田沢
9930000,山形県,長井市,,ヤマガタケン,ナガイシ,,山形県長井市
9930001,山形県,長井市,ままの上,ヤマガタケン,ナガイシ,ママノウエ,山形県長井市ままの上
9930002,山形県,長井市,屋城町,ヤマガタケン,ナガイシ,ヤシロマチ,山形県長井市屋城町
9930003,山形県,長井市,東町,ヤマガタケン,ナガイシ,ヒガシマチ,山形県長井市東町
9930004,山形県,長井市,神明町,ヤマガタケン,ナガイシ,シンメイチョウ,山形県長井市神明町
9930005,山形県,長井市,片田町,ヤマガタケン,ナガイシ,カタタマチ,山形県長井市片田町
9930006,山形県,長井市,あら町,ヤマガタケン,ナガイシ,アラマチ,山形県長井市あら町
9930007,山形県,長井市,本町,ヤマガタケン,ナガイシ,モトマチ,山形県長井市本町
9930011,山形県,長井市,館町北,ヤマガタケン,ナガイシ,タテマチキタ,山形県長井市館町北
9930012,山形県,長井市,日の出町,ヤマガタケン,ナガイシ,ヒノデチョウ,山形県長井市日の出町
9930013,山形県,長井市,館町南,ヤマガタケン,ナガイシ,タテマチミナミ,山形県長井市館町南
9930014,山形県,長井市,小出,ヤマガタケン,ナガイシ,コイデ,山形県長井市小出
9930015,山形県,長井市,四ツ谷,ヤマガタケン,ナガイシ,ヨツヤ,山形県長井市四ツ谷
9930016,山形県,長井市,台町,ヤマガタケン,ナガイシ,ダイマチ,山形県長井市台町
9930017,山形県,長井市,花作町,ヤマガタケン,ナガイシ,ハナヅクリマチ,山形県長井市花作町
9930021,山形県,長井市,上伊佐沢,ヤマガタケン,ナガイシ,カミイサザワ,山形県長井市上伊佐沢
9930022,山形県,長井市,芦沢,ヤマガタケン,ナガイシ,アシザワ,山形県長井市芦沢
9930023,山形県,長井市,下伊佐沢,ヤマガタケン,ナガイシ,シモイサザワ,山形県長井市下伊佐沢
9930024,山形県,長井市,中伊佐沢,ヤマガタケン,ナガイシ,ナカイサザワ,山形県長井市中伊佐沢
9930031,山形県,長井市,泉,ヤマガタケン,ナガイシ,イズミ,山形県長井市泉
9930032,山形県,長井市,河井,ヤマガタケン,ナガイシ,カワイ,山形県長井市河井
9930033,山形県,長井市,今泉,ヤマガタケン,ナガイシ,イマイズミ,山形県長井市今泉
9930034,山形県,長井市,歌丸,ヤマガタケン,ナガイシ,ウタマル,山形県長井市歌丸
9930035,山形県,長井市,時庭,ヤマガタケン,ナガイシ,トキニワ,山形県長井市時庭
9930041,山形県,長井市,九野本,ヤマガタケン,ナガイシ,クノモト,山形県長井市九野本
9930042,山形県,長井市,平山,ヤマガタケン,ナガイシ,ヒラヤマ,山形県長井市平山
9930051,山形県,長井市,幸町,ヤマガタケン,ナガイシ,サイワイチョウ,山形県長井市幸町
9930052,山形県,長井市,新町,ヤマガタケン,ナガイシ,シンマチ,山形県長井市新町
9930053,山形県,長井市,中道,ヤマガタケン,ナガイシ,ナカミチ,山形県長井市中道
9930054,山形県,長井市,清水町,ヤマガタケン,ナガイシ,シミズチョウ,山形県長井市清水町
9930061,山形県,長井市,寺泉,ヤマガタケン,ナガイシ,テライズミ,山形県長井市寺泉
9930062,山形県,長井市,川原沢,ヤマガタケン,ナガイシ,カワラザワ,山形県長井市川原沢
9930063,山形県,長井市,草岡,ヤマガタケン,ナガイシ,クサオカ,山形県長井市草岡
9930064,山形県,長井市,勧進代,ヤマガタケン,ナガイシ,カンジンダイ,山形県長井市勧進代
9930071,山形県,長井市,白兎,ヤマガタケン,ナガイシ,シロウサギ,山形県長井市白兎
9930072,山形県,長井市,五十川,ヤマガタケン,ナガイシ,イカガワ,山形県長井市五十川
9930073,山形県,長井市,森,ヤマガタケン,ナガイシ,モリ,山形県長井市森
9930074,山形県,長井市,宮,ヤマガタケン,ナガイシ,ミヤ,山形県長井市宮
9930075,山形県,長井市,成田,ヤマガタケン,ナガイシ,ナリタ,山形県長井市成田
9930081,山形県,長井市,緑町,ヤマガタケン,ナガイシ,ミドリチョウ,山形県長井市緑町
9930082,山形県,長井市,舟場,ヤマガタケン,ナガイシ,フナバ,山形県長井市舟場
9930083,山形県,長井市,大町,ヤマガタケン,ナガイシ,オオマチ,山形県長井市大町
9930084,山形県,長井市,栄町,ヤマガタケン,ナガイシ,サカエマチ,山形県長井市栄町
9930085,山形県,長井市,高野町,ヤマガタケン,ナガイシ,コウヤチョウ,山形県長井市高野町
9930086,山形県,長井市,十日町,ヤマガタケン,ナガイシ,トオカマチ,山形県長井市十日町
9930087,山形県,長井市,横町,ヤマガタケン,ナガイシ,ヨコマチ,山形県長井市横町
9940000,山形県,天童市,,ヤマガタケン,テンドウシ,,山形県天童市
9940001,山形県,天童市,万代,ヤマガタケン,テンドウシ,バンダイ,山形県天童市万代
9940002,山形県,天童市,乱川,ヤマガタケン,テンドウシ,ミダレガワ,山形県天童市乱川
9940003,山形県,天童市,柏木町,ヤマガタケン,テンドウシ,カシワギチョウ,山形県天童市柏木町
9940004,山形県,天童市,小関,ヤマガタケン,テンドウシ,コセキ,山形県天童市小関
9940005,山形県,天童市,高木,ヤマガタケン,テンドウシ,タカギ,山形県天童市高木
9940006,山形県,天童市,成生,ヤマガタケン,テンドウシ,ナリウ,山形県天童市成生
9940007,山形県,天童市,大清水,ヤマガタケン,テンドウシ,オオシミズ,山形県天童市大清水
9940011,山形県,天童市,北久野本,ヤマガタケン,テンドウシ,キタクノモト,山形県天童市北久野本
9940012,山形県,天童市,久野本,ヤマガタケン,テンドウシ,クノモト,山形県天童市久野本
9940013,山形県,天童市,老野森,ヤマガタケン,テンドウシ,オイノモリ,山形県天童市老野森
9940014,山形県,天童市,糠塚,ヤマガタケン,テンドウシ,ヌカヅカ,山形県天童市糠塚
9940015,山形県,天童市,泉町,ヤマガタケン,テンドウシ,イズミチョウ,山形県天童市泉町
9940016,山形県,天童市,東久野本,ヤマガタケン,テンドウシ,ヒガシクノモト,山形県天童市東久野本
9940021,山形県,天童市,山元,ヤマガタケン,テンドウシ,ヤマモト,山形県天童市山元
9940022,山形県,天童市,貫津,ヤマガタケン,テンドウシ,ヌクヅ,山形県天童市貫津
9940023,山形県,天童市,東善寺,ヤマガタケン,テンドウシ,トウゼンジ,山形県天童市東善寺
9940024,山形県,天童市,鎌田,ヤマガタケン,テンドウシ,カマタ,山形県天童市鎌田
9940025,山形県,天童市,鎌田本町,ヤマガタケン,テンドウシ,カマタホンチョウ,山形県天童市鎌田本町
9940026,山形県,天童市,東本町,ヤマガタケン,テンドウシ,ヒガシホンチョウ,山形県天童市東本町
9940027,山形県,天童市,桜町,ヤマガタケン,テンドウシ,サクラマチ,山形県天童市桜町
9940028,山形県,天童市,鍬ノ町,ヤマガタケン,テンドウシ,クワノマチ,山形県天童市鍬ノ町
9940031,山形県,天童市,天童中,ヤマガタケン,テンドウシ,テンドウナカ,山形県天童市天童中
9940032,山形県,天童市,小路,ヤマガタケン,テンドウシ,コウジ,山形県天童市小路
9940033,山形県,天童市,三日町,ヤマガタケン,テンドウシ,ミッカマチ,山形県天童市三日町
9940034,山形県,天童市,本町,ヤマガタケン,テンドウシ,ホンチョウ,山形県天童市本町
9940041,山形県,天童市,五日町,ヤマガタケン,テンドウシ,イツカマチ,山形県天童市五日町
9940042,山形県,天童市,北目,ヤマガタケン,テンドウシ,キタメ,山形県天童市北目
9940043,山形県,天童市,松城町,ヤマガタケン,テンドウシ,マツシロチョウ,山形県天童市松城町
9940044,山形県,天童市,一日町,ヤマガタケン,テンドウシ,ヒトイチマチ,山形県天童市一日町
9940045,山形県,天童市,仲町,ヤマガタケン,テンドウシ,ナカマチ,山形県天童市仲町
9940046,山形県,天童市,田鶴町,ヤマガタケン,テンドウシ,タヅルチョウ,山形県天童市田鶴町
9940047,山形県,天童市,駅西,ヤマガタケン,テンドウシ,エキニシ,山形県天童市駅西
9940048,山形県,天童市,交り江,ヤマガタケン,テンドウシ,マジリエ,山形県天童市交り江
9940049,山形県,天童市,南町,ヤマガタケン,テンドウシ,ミナミマチ,山形県天童市南町
9940051,山形県,天童市,奈良沢,ヤマガタケン,テンドウシ,ナラザワ,山形県天童市奈良沢
9940052,山形県,天童市,下荻野戸,ヤマガタケン,テンドウシ,シモオギノト,山形県天童市下荻野戸
9940053,山形県,天童市,上荻野戸,ヤマガタケン,テンドウシ,カミオギノト,山形県天童市上荻野戸
9940054,山形県,天童市,荒谷,ヤマガタケン,テンドウシ,アラヤ,山形県天童市荒谷
9940055,山形県,天童市,原町,ヤマガタケン,テンドウシ,ハラマチ,山形県天童市原町
9940056,山形県,天童市,干布,ヤマガタケン,テンドウシ,ホシヌノ,山形県天童市干布
9940057,山形県,天童市,石鳥居,ヤマガタケン,テンドウシ,イシドリイ,山形県天童市石鳥居
9940061,山形県,天童市,東芳賀,ヤマガタケン,テンドウシ,ヒガシハガ,山形県天童市東芳賀
9940062,山形県,天童市,長岡北,ヤマガタケン,テンドウシ,ナガオカキタ,山形県天童市長岡北
9940063,山形県,天童市,東長岡,ヤマガタケン,テンドウシ,ヒガシナガオカ,山形県天童市東長岡
9940064,山形県,天童市,中里,ヤマガタケン,テンドウシ,ナカザト,山形県天童市中里
9940065,山形県,天童市,清池,ヤマガタケン,テンドウシ,ショウゲ,山形県天童市清池
9940066,山形県,天童市,長岡,ヤマガタケン,テンドウシ,ナガオカ,山形県天童市長岡
9940067,山形県,天童市,芳賀,ヤマガタケン,テンドウシ,ハガ,山形県天童市芳賀
9940068,山形県,天童市,高擶,ヤマガタケン,テンドウシ,タカダマ,山形県天童市高擶
9940069,山形県,天童市,清池東,ヤマガタケン,テンドウシ,ショウゲヒガシ,山形県天童市清池東
9940071,山形県,天童市,矢野目,ヤマガタケン,テンドウシ,ヤノメ,山形県天童市矢野目
9940072,山形県,天童市,塚野目,ヤマガタケン,テンドウシ,ツカノメ,山形県天童市塚野目
9940073,山形県,天童市,寺津,ヤマガタケン,テンドウシ,テラヅ,山形県天童市寺津
9940074,山形県,天童市,藤内新田,ヤマガタケン,テンドウシ,トウナイシンデン,山形県天童市藤内新田
9940075,山形県,天童市,蔵増,ヤマガタケン,テンドウシ,クラゾウ,山形県天童市蔵増
9940076,山形県,天童市,高野辺,ヤマガタケン,テンドウシ,タカノベ,山形県天童市高野辺
9940077,山形県,天童市,窪野目,ヤマガタケン,テンドウシ,クボノメ,山形県天童市窪野目
9940078,山形県,天童市,今町,ヤマガタケン,テンドウシ,イママチ,山形県天童市今町
9940079,山形県,天童市,大町,ヤマガタケン,テンドウシ,オオマチ,山形県天童市大町
9940081,山形県,天童市,南小畑,ヤマガタケン,テンドウシ,ミナミオバタ,山形県天童市南小畑
9940082,山形県,天童市,芳賀タウン北,ヤマガタケン,テンドウシ,ハガタウンキタ,山形県天童市芳賀タウン北
9940083,山形県,天童市,芳賀タウン南,ヤマガタケン,テンドウシ,ハガタウンミナミ,山形県天童市芳賀タウン南
9940101,山形県,天童市,山口,ヤマガタケン,テンドウシ,ヤマグチ,山形県天童市山口
9940102,山形県,天童市,道満,ヤマガタケン,テンドウシ,ドウマン,山形県天童市道満
9940103,山形県,天童市,川原子,ヤマガタケン,テンドウシ,カワラゴ,山形県天童市川原子
9940104,山形県,天童市,田麦野,ヤマガタケン,テンドウシ,タムギノ,山形県天童市田麦野
9950000,山形県,村山市,,ヤマガタケン,ムラヤマシ,,山形県村山市
9950001,山形県,村山市,土生田,ヤマガタケン,ムラヤマシ,トチウダ,山形県村山市土生田
9950002,山形県,村山市,五十沢,ヤマガタケン,ムラヤマシ,イサザワ,山形県村山市五十沢
9950003,山形県,村山市,本飯田,ヤマガタケン,ムラヤマシ,モトイイダ,山形県村山市本飯田
9950004,山形県,村山市,金谷,ヤマガタケン,ムラヤマシ,カナヤ,山形県村山市金谷
9950005,山形県,村山市,たも山,ヤマガタケン,ムラヤマシ,タモヤマ,山形県村山市たも山
9950006,山形県,村山市,林崎,ヤマガタケン,ムラヤマシ,ハヤシザキ,山形県村山市林崎
9950011,山形県,村山市,楯岡北町,ヤマガタケン,ムラヤマシ,タテオカキタマチ,山形県村山市楯岡北町
9950012,山形県,村山市,湯沢,ヤマガタケン,ムラヤマシ,ユザワ,山形県村山市湯沢
9950013,山形県,村山市,楯岡湯沢,ヤマガタケン,ムラヤマシ,タテオカユザワ,山形県村山市楯岡湯沢
9950014,山形県,村山市,楯岡鶴ケ町,ヤマガタケン,ムラヤマシ,タテオカツルガチョウ,山形県村山市楯岡鶴ケ町
9950015,山形県,村山市,楯岡二日町,ヤマガタケン,ムラヤマシ,タテオカフツカマチ,山形県村山市楯岡二日町
9950016,山形県,村山市,楯岡晦日町,ヤマガタケン,ムラヤマシ,タテオカミソカマチ,山形県村山市楯岡晦日町
9950017,山形県,村山市,楯岡十日町,ヤマガタケン,ムラヤマシ,タテオカトオカマチ,山形県村山市楯岡十日町
9950018,山形県,村山市,楯岡新高田,ヤマガタケン,ムラヤマシ,タテオカシンタカダ,山形県村山市楯岡新高田
9950021,山形県,村山市,楯岡楯,ヤマガタケン,ムラヤマシ,タテオカタテ,山形県村山市楯岡楯
9950022,山形県,村山市,楯岡馬場,ヤマガタケン,ムラヤマシ,タテオカババ,山形県村山市楯岡馬場
9950023,山形県,村山市,楯岡東沢,ヤマガタケン,ムラヤマシ,タテオカヒガシザワ,山形県村山市楯岡東沢
9950024,山形県,村山市,楯岡笛田,ヤマガタケン,ムラヤマシ,タテオカフエダ,山形県村山市楯岡笛田
9950025,山形県,村山市,楯岡,ヤマガタケン,ムラヤマシ,タテオカ,山形県村山市楯岡
9950031,山形県,村山市,楯岡大沢川,ヤマガタケン,ムラヤマシ,タテオカオオサワガワ,山形県村山市楯岡大沢川
9950032,山形県,村山市,楯岡荒町,ヤマガタケン,ムラヤマシ,タテオカアラマチ,山形県村山市楯岡荒町
9950033,山形県,村山市,楯岡新町,ヤマガタケン,ムラヤマシ,タテオカシンマチ,山形県村山市楯岡新町
9950034,山形県,村山市,楯岡五日町,ヤマガタケン,ムラヤマシ,タテオカイツカマチ,山形県村山市楯岡五日町
9950035,山形県,村山市,中央,ヤマガタケン,ムラヤマシ,チュウオウ,山形県村山市中央
9950036,山形県,村山市,楯岡中町,ヤマガタケン,ムラヤマシ,タテオカナカマチ,山形県村山市楯岡中町
9950037,山形県,村山市,楯岡俵町,ヤマガタケン,ムラヤマシ,タテオカタワラマチ,山形県村山市楯岡俵町
9950038,山形県,村山市,駅西,ヤマガタケン,ムラヤマシ,エキニシ,山形県村山市駅西
9950041,山形県,村山市,河島,ヤマガタケン,ムラヤマシ,カワシマ,山形県村山市河島
9950042,山形県,村山市,杉島,ヤマガタケン,ムラヤマシ,スギシマ,山形県村山市杉島
9950051,山形県,村山市,田沢,ヤマガタケン,ムラヤマシ,タザワ,山形県村山市田沢
9950052,山形県,村山市,名取,ヤマガタケン,ムラヤマシ,ナトリ,山形県村山市名取
9950053,山形県,村山市,西郷,ヤマガタケン,ムラヤマシ,ニシゴウ,山形県村山市西郷
9950054,山形県,村山市,大淀,ヤマガタケン,ムラヤマシ,オオヨド,山形県村山市大淀
9950055,山形県,村山市,長島,ヤマガタケン,ムラヤマシ,ナガシマ,山形県村山市長島
9950056,山形県,村山市,河島山,ヤマガタケン,ムラヤマシ,カワシマヤマ,山形県村山市河島山
9950111,山形県,村山市,大久保,ヤマガタケン,ムラヤマシ,オオクボ,山形県村山市大久保
9950112,山形県,村山市,湯野沢,ヤマガタケン,ムラヤマシ,ユノサワ,山形県村山市湯野沢
9950113,山形県,村山市,岩野,ヤマガタケン,ムラヤマシ,イワノ,山形県村山市岩野
9950201,山形県,村山市,長善寺,ヤマガタケン,ムラヤマシ,チョウゼンジ,山形県村山市長善寺
9950202,山形県,村山市,白鳥,ヤマガタケン,ムラヤマシ,シロトリ,山形県村山市白鳥
9950203,山形県,村山市,大槇,ヤマガタケン,ムラヤマシ,オオマキ,山形県村山市大槇
9950204,山形県,村山市,稲下,ヤマガタケン,ムラヤマシ,イナクダシ,山形県村山市稲下
9950205,山形県,村山市,樽石,ヤマガタケン,ムラヤマシ,タルイシ,山形県村山市樽石
9950206,山形県,村山市,山の内,ヤマガタケン,ムラヤマシ,ヤマノウチ,山形県村山市山の内
9950207,山形県,村山市,雪の観音郷,ヤマガタケン,ムラヤマシ,ユキノカンノンゴウ,山形県村山市雪の観音郷
9950208,山形県,村山市,富並,ヤマガタケン,ムラヤマシ,トミナミ,山形県村山市富並
9950209,山形県,村山市,碁点,ヤマガタケン,ムラヤマシ,ゴテン,山形県村山市碁点
9960000,山形県,新庄市,,ヤマガタケン,シンジョウシ,,山形県新庄市
9960001,山形県,新庄市,五日町,ヤマガタケン,シンジョウシ,イツカマチ,山形県新庄市五日町
9960002,山形県,新庄市,金沢,ヤマガタケン,シンジョウシ,カナザワ,山形県新庄市金沢
9960011,山形県,新庄市,東谷地田町,ヤマガタケン,シンジョウシ,ヒガシヤチタマチ,山形県新庄市東谷地田町
9960021,山形県,新庄市,常葉町,ヤマガタケン,シンジョウシ,トキハマチ,山形県新庄市常葉町
9960022,山形県,新庄市,住吉町,ヤマガタケン,シンジョウシ,スミヨシマチ,山形県新庄市住吉町
9960023,山形県,新庄市,沖の町,ヤマガタケン,シンジョウシ,オキノマチ,山形県新庄市沖の町
9960024,山形県,新庄市,多門町,ヤマガタケン,シンジョウシ,タモンマチ,山形県新庄市多門町
9960025,山形県,新庄市,若葉町,ヤマガタケン,シンジョウシ,ワカバマチ,山形県新庄市若葉町
9960026,山形県,新庄市,大町,ヤマガタケン,シンジョウシ,オオマチ,山形県新庄市大町
9960027,山形県,新庄市,本町,ヤマガタケン,シンジョウシ,ホンマチ,山形県新庄市本町
9960028,山形県,新庄市,万場町,ヤマガタケン,シンジョウシ,バンバチョウ,山形県新庄市万場町
9960031,山形県,新庄市,末広町,ヤマガタケン,シンジョウシ,スエヒロマチ,山形県新庄市末広町
9960032,山形県,新庄市,上金沢町,ヤマガタケン,シンジョウシ,カミカネザワマチ,山形県新庄市上金沢町
9960033,山形県,新庄市,下金沢町,ヤマガタケン,シンジョウシ,シモカネザワマチ,山形県新庄市下金沢町
9960034,山形県,新庄市,下田町,ヤマガタケン,シンジョウシ,シモダマチ,山形県新庄市下田町
9960035,山形県,新庄市,鉄砲町,ヤマガタケン,シンジョウシ,テッポウマチ,山形県新庄市鉄砲町
9960041,山形県,新庄市,鳥越,ヤマガタケン,シンジョウシ,トリゴエ,山形県新庄市鳥越
9960051,山形県,新庄市,松本,ヤマガタケン,シンジョウシ,マツモト,山形県新庄市松本
9960052,山形県,新庄市,角沢,ヤマガタケン,シンジョウシ,ツノザワ,山形県新庄市角沢
9960053,山形県,新庄市,福田,ヤマガタケン,シンジョウシ,フクダ,山形県新庄市福田
9960054,山形県,新庄市,仁間,ヤマガタケン,シンジョウシ,ニケン,山形県新庄市仁間
9960061,山形県,新庄市,飛田,ヤマガタケン,シンジョウシ,トビタ,山形県新庄市飛田
9960071,山形県,新庄市,小田島町,ヤマガタケン,シンジョウシ,オダシママチ,山形県新庄市小田島町
9960072,山形県,新庄市,宮内町,ヤマガタケン,シンジョウシ,ミヤウチマチ,山形県新庄市宮内町
9960073,山形県,新庄市,栄町,ヤマガタケン,シンジョウシ,サカエマチ,山形県新庄市栄町
9960074,山形県,新庄市,小田島,ヤマガタケン,シンジョウシ,オダシマ,山形県新庄市小田島
9960075,山形県,新庄市,横打町,ヤマガタケン,シンジョウシ,ヨコウチマチ,山形県新庄市横打町
9960076,山形県,新庄市,城西町,ヤマガタケン,シンジョウシ,シロニシマチ,山形県新庄市城西町
9960077,山形県,新庄市,城南町,ヤマガタケン,シンジョウシ,ジョウナンマチ,山形県新庄市城南町
9960078,山形県,新庄市,新町,ヤマガタケン,シンジョウシ,アラマチ,山形県新庄市新町
9960079,山形県,新庄市,千門町,ヤマガタケン,シンジョウシ,センモンチョウ,山形県新庄市千門町
9960081,山形県,新庄市,中道町,ヤマガタケン,シンジョウシ,ナカミチマチ,山形県新庄市中道町
9960082,山形県,新庄市,北町,ヤマガタケン,シンジョウシ,キタマチ,山形県新庄市北町
9960083,山形県,新庄市,沼田町,ヤマガタケン,シンジョウシ,ヌマタマチ,山形県新庄市沼田町
9960084,山形県,新庄市,大手町,ヤマガタケン,シンジョウシ,オオテマチ,山形県新庄市大手町
9960085,山形県,新庄市,堀端町,ヤマガタケン,シンジョウシ,ホリバタマチ,山形県新庄市堀端町
9960086,山形県,新庄市,石川町,ヤマガタケン,シンジョウシ,イシカワマチ,山形県新庄市石川町
9960087,山形県,新庄市,沼田,ヤマガタケン,シンジョウシ,ヌマタ,山形県新庄市沼田
9960088,山形県,新庄市,桧町,ヤマガタケン,シンジョウシ,ヒノキチョウ,山形県新庄市桧町
9960091,山形県,新庄市,十日町（その他）,ヤマガタケン,シンジョウシ,トオカマチ(ソノタ),山形県新庄市十日町（その他）
9960111,山形県,新庄市,升形,ヤマガタケン,シンジョウシ,マスガタ,山形県新庄市升形
9960112,山形県,新庄市,本合海,ヤマガタケン,シンジョウシ,モトアイカイ,山形県新庄市本合海
9960200,山形県,最上郡大蔵村,,ヤマガタケン,モガミグンオオクラムラ,,山形県最上郡大蔵村
9960201,山形県,最上郡大蔵村,南山（その他）,ヤマガタケン,モガミグンオオクラムラ,ミナミヤマ(ソノタ),山形県最上郡大蔵村南山（その他）
9960211,山形県,最上郡大蔵村,合海,ヤマガタケン,モガミグンオオクラムラ,アイカイ,山形県最上郡大蔵村合海
9960212,山形県,最上郡大蔵村,清水,ヤマガタケン,モガミグンオオクラムラ,シミズ,山形県最上郡大蔵村清水
9960213,山形県,最上郡大蔵村,赤松,ヤマガタケン,モガミグンオオクラムラ,アカマツ,山形県最上郡大蔵村赤松
9960301,山形県,最上郡大蔵村,南山（４３０番地以上「１７７０−１〜２、１８６２−４２、,ヤマガタケン,モガミグンオオクラムラ,ミナミヤマ(430バンチイジョウ<1770-1-2、1862-42、,山形県最上郡大蔵村南山（430-以上「1770-1〜2、1862-42、
9970000,山形県,鶴岡市,,ヤマガタケン,ツルオカシ,,山形県鶴岡市
9970001,山形県,鶴岡市,湯野沢,ヤマガタケン,ツルオカシ,ユノサワ,山形県鶴岡市湯野沢
9970002,山形県,鶴岡市,播磨,ヤマガタケン,ツルオカシ,ハリマ,山形県鶴岡市播磨
9970003,山形県,鶴岡市,文下,ヤマガタケン,ツルオカシ,ホウダシ,山形県鶴岡市文下
9970004,山形県,鶴岡市,本田,ヤマガタケン,ツルオカシ,ホンデン,山形県鶴岡市本田
9970005,山形県,鶴岡市,小京田,ヤマガタケン,ツルオカシ,コキョウデン,山形県鶴岡市小京田
9970006,山形県,鶴岡市,福田,ヤマガタケン,ツルオカシ,フクダ,山形県鶴岡市福田
9970007,山形県,鶴岡市,豊田,ヤマガタケン,ツルオカシ,トヨダ,山形県鶴岡市豊田
9970008,山形県,鶴岡市,平田,ヤマガタケン,ツルオカシ,ヒラタ,山形県鶴岡市平田
9970009,山形県,鶴岡市,中京田,ヤマガタケン,ツルオカシ,ナカキョウデン,山形県鶴岡市中京田
9970010,山形県,鶴岡市,余慶町,ヤマガタケン,ツルオカシ,ヨケイマチ,山形県鶴岡市余慶町
9970011,山形県,鶴岡市,宝田,ヤマガタケン,ツルオカシ,タカラダ,山形県鶴岡市宝田
9970012,山形県,鶴岡市,道形,ヤマガタケン,ツルオカシ,ドウガタ,山形県鶴岡市道形
9970013,山形県,鶴岡市,道形町,ヤマガタケン,ツルオカシ,ドウガタマチ,山形県鶴岡市道形町
9970014,山形県,鶴岡市,大宝寺町,ヤマガタケン,ツルオカシ,ダイホウジマチ,山形県鶴岡市大宝寺町
9970015,山形県,鶴岡市,末広町,ヤマガタケン,ツルオカシ,スエヒロマチ,山形県鶴岡市末広町
9970016,山形県,鶴岡市,日和田町,ヤマガタケン,ツルオカシ,ヒヨリダマチ,山形県鶴岡市日和田町
9970017,山形県,鶴岡市,大宝寺（その他）,ヤマガタケン,ツルオカシ,ダイホウジ(ソノタ),山形県鶴岡市大宝寺（その他）
9970018,山形県,鶴岡市,茅原町,ヤマガタケン,ツルオカシ,チワラマチ,山形県鶴岡市茅原町
9970019,山形県,鶴岡市,茅原,ヤマガタケン,ツルオカシ,チワラ,山形県鶴岡市茅原
9970021,山形県,鶴岡市,宝町,ヤマガタケン,ツルオカシ,タカラマチ,山形県鶴岡市宝町
9970022,山形県,鶴岡市,切添町,ヤマガタケン,ツルオカシ,キリゾエマチ,山形県鶴岡市切添町
9970023,山形県,鶴岡市,鳥居町,ヤマガタケン,ツルオカシ,トリイマチ,山形県鶴岡市鳥居町
9970024,山形県,鶴岡市,朝暘町,ヤマガタケン,ツルオカシ,チョウヨウマチ,山形県鶴岡市朝暘町
9970025,山形県,鶴岡市,日出,ヤマガタケン,ツルオカシ,ヒノデ,山形県鶴岡市日出
9970026,山形県,鶴岡市,大東町,ヤマガタケン,ツルオカシ,ダイトウマチ,山形県鶴岡市大東町
9970027,山形県,鶴岡市,昭和町,ヤマガタケン,ツルオカシ,ショウワマチ,山形県鶴岡市昭和町
9970028,山形県,鶴岡市,山王町,ヤマガタケン,ツルオカシ,サンノウマチ,山形県鶴岡市山王町
9970029,山形県,鶴岡市,日吉町,ヤマガタケン,ツルオカシ,ヒヨシマチ,山形県鶴岡市日吉町
9970031,山形県,鶴岡市,錦町,ヤマガタケン,ツルオカシ,ニシキマチ,山形県鶴岡市錦町
9970032,山形県,鶴岡市,上畑町,ヤマガタケン,ツルオカシ,カミハタマチ,山形県鶴岡市上畑町
9970033,山形県,鶴岡市,泉町,ヤマガタケン,ツルオカシ,イズミマチ,山形県鶴岡市泉町
9970034,山形県,鶴岡市,本町,ヤマガタケン,ツルオカシ,ホンチョウ,山形県鶴岡市本町
9970035,山形県,鶴岡市,馬場町,ヤマガタケン,ツルオカシ,ババチョウ,山形県鶴岡市馬場町
9970036,山形県,鶴岡市,家中新町,ヤマガタケン,ツルオカシ,カチュウシンマチ,山形県鶴岡市家中新町
9970037,山形県,鶴岡市,若葉町,ヤマガタケン,ツルオカシ,ワカバマチ,山形県鶴岡市若葉町
9970038,山形県,鶴岡市,北茅原町,ヤマガタケン,ツルオカシ,キタチワラマチ,山形県鶴岡市北茅原町
9970039,山形県,鶴岡市,西茅原町,ヤマガタケン,ツルオカシ,ニシチワラマチ,山形県鶴岡市西茅原町
9970041,山形県,鶴岡市,城北町,ヤマガタケン,ツルオカシ,ジョウホクマチ,山形県鶴岡市城北町
9970042,山形県,鶴岡市,新形町,ヤマガタケン,ツルオカシ,ニイガタマチ,山形県鶴岡市新形町
9970043,山形県,鶴岡市,東新斎町,ヤマガタケン,ツルオカシ,ヒガシシンサイマチ,山形県鶴岡市東新斎町
9970044,山形県,鶴岡市,新海町,ヤマガタケン,ツルオカシ,シンカイマチ,山形県鶴岡市新海町
9970045,山形県,鶴岡市,西新斎町,ヤマガタケン,ツルオカシ,ニシシンサイマチ,山形県鶴岡市西新斎町
9970046,山形県,鶴岡市,みどり町,ヤマガタケン,ツルオカシ,ミドリマチ,山形県鶴岡市みどり町
9970047,山形県,鶴岡市,大塚町,ヤマガタケン,ツルオカシ,オオツカマチ,山形県鶴岡市大塚町
9970048,山形県,鶴岡市,平京田,ヤマガタケン,ツルオカシ,ヘイキョウデン,山形県鶴岡市平京田
9970049,山形県,鶴岡市,大部町,ヤマガタケン,ツルオカシ,ダイブマチ,山形県鶴岡市大部町
9970051,山形県,鶴岡市,荒井京田,ヤマガタケン,ツルオカシ,アライキョウデン,山形県鶴岡市荒井京田
9970052,山形県,鶴岡市,覚岸寺,ヤマガタケン,ツルオカシ,カクガンジ,山形県鶴岡市覚岸寺
9970053,山形県,鶴岡市,北京田,ヤマガタケン,ツルオカシ,キタキョウデン,山形県鶴岡市北京田
9970054,山形県,鶴岡市,高田,ヤマガタケン,ツルオカシ,タカダ,山形県鶴岡市高田
9970055,山形県,鶴岡市,西京田,ヤマガタケン,ツルオカシ,ニシキョウデン,山形県鶴岡市西京田
9970056,山形県,鶴岡市,中野京田,ヤマガタケン,ツルオカシ,ナカノキョウデン,山形県鶴岡市中野京田
9970057,山形県,鶴岡市,安丹,ヤマガタケン,ツルオカシ,アンタン,山形県鶴岡市安丹
9970058,山形県,鶴岡市,林崎,ヤマガタケン,ツルオカシ,ハヤシザキ,山形県鶴岡市林崎
9970101,山形県,鶴岡市,羽黒町町屋,ヤマガタケン,ツルオカシ,ハグロマチマチヤ,山形県鶴岡市羽黒町町屋
9970102,山形県,鶴岡市,羽黒町中里,ヤマガタケン,ツルオカシ,ハグロマチナカザト,山形県鶴岡市羽黒町中里
9970103,山形県,鶴岡市,羽黒町戸野,ヤマガタケン,ツルオカシ,ハグロマチトノ,山形県鶴岡市羽黒町戸野
9970104,山形県,鶴岡市,羽黒町坂ノ下,ヤマガタケン,ツルオカシ,ハグロマチサカノシタ,山形県鶴岡市羽黒町坂ノ下
9970105,山形県,鶴岡市,羽黒町川行,ヤマガタケン,ツルオカシ,ハグロマチカワツラ,山形県鶴岡市羽黒町川行
9970106,山形県,鶴岡市,羽黒町染興屋,ヤマガタケン,ツルオカシ,ハグロマチソメコウヤ,山形県鶴岡市羽黒町染興屋
9970107,山形県,鶴岡市,羽黒町小増川,ヤマガタケン,ツルオカシ,ハグロマチコマスガワ,山形県鶴岡市羽黒町小増川
9970108,山形県,鶴岡市,羽黒町金森目,ヤマガタケン,ツルオカシ,ハグロマチカナモリメ,山形県鶴岡市羽黒町金森目
9970117,山形県,鶴岡市,大宝寺（中野）,ヤマガタケン,ツルオカシ,ダイホウジ(ナカノ),山形県鶴岡市大宝寺（中野）
9970121,山形県,鶴岡市,羽黒町玉川,ヤマガタケン,ツルオカシ,ハグロマチタマガワ,山形県鶴岡市羽黒町玉川
9970122,山形県,鶴岡市,羽黒町大口,ヤマガタケン,ツルオカシ,ハグロマチオオグチ,山形県鶴岡市羽黒町大口
9970123,山形県,鶴岡市,羽黒町市野山,ヤマガタケン,ツルオカシ,ハグロマチイチノヤマ,山形県鶴岡市羽黒町市野山
9970124,山形県,鶴岡市,羽黒町増川新田,ヤマガタケン,ツルオカシ,ハグロマチマスカワシンデン,山形県鶴岡市羽黒町増川新田
9970125,山形県,鶴岡市,羽黒町仙道,ヤマガタケン,ツルオカシ,ハグロマチセンドウ,山形県鶴岡市羽黒町仙道
9970126,山形県,鶴岡市,羽黒町野荒町,ヤマガタケン,ツルオカシ,ハグロマチノアラマチ,山形県鶴岡市羽黒町野荒町
9970127,山形県,鶴岡市,羽黒町十文字,ヤマガタケン,ツルオカシ,ハグロマチジュウモンジ,山形県鶴岡市羽黒町十文字
9970131,山形県,鶴岡市,羽黒町川代,ヤマガタケン,ツルオカシ,ハグロマチカワダイ,山形県鶴岡市羽黒町川代
9970141,山形県,鶴岡市,羽黒町荒川,ヤマガタケン,ツルオカシ,ハグロマチアラカワ,山形県鶴岡市羽黒町荒川
9970142,山形県,鶴岡市,羽黒町上野新田,ヤマガタケン,ツルオカシ,ハグロマチウワノシンデン,山形県鶴岡市羽黒町上野新田
9970143,山形県,鶴岡市,羽黒町野田,ヤマガタケン,ツルオカシ,ハグロマチノダ,山形県鶴岡市羽黒町野田
9970151,山形県,鶴岡市,羽黒町黒瀬,ヤマガタケン,ツルオカシ,ハグロマチクロセ,山形県鶴岡市羽黒町黒瀬
9970152,山形県,鶴岡市,羽黒町猪俣新田,ヤマガタケン,ツルオカシ,ハグロマチイノマタシンデン,山形県鶴岡市羽黒町猪俣新田
9970153,山形県,鶴岡市,羽黒町高寺,ヤマガタケン,ツルオカシ,ハグロマチタカデラ,山形県鶴岡市羽黒町高寺
9970154,山形県,鶴岡市,羽黒町馬渡ノ内下,ヤマガタケン,ツルオカシ,ハグロマチマワタリノウチシモ,山形県鶴岡市羽黒町馬渡ノ内下
9970155,山形県,鶴岡市,羽黒町石野新田,ヤマガタケン,ツルオカシ,ハグロマチイシノシンデン,山形県鶴岡市羽黒町石野新田
9970156,山形県,鶴岡市,羽黒町松尾,ヤマガタケン,ツルオカシ,ハグロマチマツオ,山形県鶴岡市羽黒町松尾
9970157,山形県,鶴岡市,羽黒町後田,ヤマガタケン,ツルオカシ,ハグロマチウシロダ,山形県鶴岡市羽黒町後田
9970158,山形県,鶴岡市,羽黒町松ケ岡,ヤマガタケン,ツルオカシ,ハグロマチマツガオカ,山形県鶴岡市羽黒町松ケ岡
9970161,山形県,鶴岡市,羽黒町押口,ヤマガタケン,ツルオカシ,ハグロマチオサエグチ,山形県鶴岡市羽黒町押口
9970162,山形県,鶴岡市,羽黒町細谷,ヤマガタケン,ツルオカシ,ハグロマチホソヤ,山形県鶴岡市羽黒町細谷
9970163,山形県,鶴岡市,羽黒町狩谷野目,ヤマガタケン,ツルオカシ,ハグロマチカリヤノメ,山形県鶴岡市羽黒町狩谷野目
9970164,山形県,鶴岡市,羽黒町昼田,ヤマガタケン,ツルオカシ,ハグロマチヒルダ,山形県鶴岡市羽黒町昼田
9970165,山形県,鶴岡市,羽黒町富沢,ヤマガタケン,ツルオカシ,ハグロマチトミザワ,山形県鶴岡市羽黒町富沢
9970166,山形県,鶴岡市,羽黒町三ツ橋,ヤマガタケン,ツルオカシ,ハグロマチミツハシ,山形県鶴岡市羽黒町三ツ橋
9970167,山形県,鶴岡市,羽黒町赤川,ヤマガタケン,ツルオカシ,ハグロマチアカガワ,山形県鶴岡市羽黒町赤川
9970211,山形県,鶴岡市,羽黒町手向,ヤマガタケン,ツルオカシ,ハグロマチトウゲ,山形県鶴岡市羽黒町手向
9970301,山形県,鶴岡市,馬渡,ヤマガタケン,ツルオカシ,マワタリ,山形県鶴岡市馬渡
9970302,山形県,鶴岡市,田代,ヤマガタケン,ツルオカシ,タシロ,山形県鶴岡市田代
9970303,山形県,鶴岡市,たらのき代,ヤマガタケン,ツルオカシ,タラノキダイ,山形県鶴岡市たらのき代
9970311,山形県,鶴岡市,黒川,ヤマガタケン,ツルオカシ,クロカワ,山形県鶴岡市黒川
9970321,山形県,鶴岡市,宝谷,ヤマガタケン,ツルオカシ,ホウヤ,山形県鶴岡市宝谷
9970322,山形県,鶴岡市,松根,ヤマガタケン,ツルオカシ,マツネ,山形県鶴岡市松根
9970323,山形県,鶴岡市,西片屋,ヤマガタケン,ツルオカシ,ニシカタヤ,山形県鶴岡市西片屋
9970331,山形県,鶴岡市,板井川,ヤマガタケン,ツルオカシ,イタイガワ,山形県鶴岡市板井川
9970332,山形県,鶴岡市,西荒屋,ヤマガタケン,ツルオカシ,ニシアラヤ,山形県鶴岡市西荒屋
9970333,山形県,鶴岡市,常盤木,ヤマガタケン,ツルオカシ,トキワギ,山形県鶴岡市常盤木
9970334,山形県,鶴岡市,丸岡,ヤマガタケン,ツルオカシ,マルオカ,山形県鶴岡市丸岡
9970341,山形県,鶴岡市,下山添,ヤマガタケン,ツルオカシ,シモヤマゾエ,山形県鶴岡市下山添
9970342,山形県,鶴岡市,三千刈,ヤマガタケン,ツルオカシ,サンゼンガリ,山形県鶴岡市三千刈
9970343,山形県,鶴岡市,桂荒俣,ヤマガタケン,ツルオカシ,カツラアラマタ,山形県鶴岡市桂荒俣
9970344,山形県,鶴岡市,東荒屋,ヤマガタケン,ツルオカシ,ヒガシアラヤ,山形県鶴岡市東荒屋
9970345,山形県,鶴岡市,中田,ヤマガタケン,ツルオカシ,ナカダ,山形県鶴岡市中田
9970346,山形県,鶴岡市,上山添,ヤマガタケン,ツルオカシ,カミヤマゾエ,山形県鶴岡市上山添
9970351,山形県,鶴岡市,勝福寺,ヤマガタケン,ツルオカシ,ショウフクジ,山形県鶴岡市勝福寺
9970361,山形県,鶴岡市,民田,ヤマガタケン,ツルオカシ,ミンデン,山形県鶴岡市民田
9970362,山形県,鶴岡市,中橋,ヤマガタケン,ツルオカシ,ナカハシ,山形県鶴岡市中橋
9970363,山形県,鶴岡市,寿,ヤマガタケン,ツルオカシ,コトブキ,山形県鶴岡市寿
9970364,山形県,鶴岡市,滝沢,ヤマガタケン,ツルオカシ,タキザワ,山形県鶴岡市滝沢
9970365,山形県,鶴岡市,金谷,ヤマガタケン,ツルオカシ,カナヤ,山形県鶴岡市金谷
9970366,山形県,鶴岡市,谷定,ヤマガタケン,ツルオカシ,タニサダ,山形県鶴岡市谷定
9970367,山形県,鶴岡市,上山谷,ヤマガタケン,ツルオカシ,カミヤマヤ,山形県鶴岡市上山谷
9970368,山形県,鶴岡市,青龍寺,ヤマガタケン,ツルオカシ,ショウリュウジ,山形県鶴岡市青龍寺
9970369,山形県,鶴岡市,高坂,ヤマガタケン,ツルオカシ,タカサカ,山形県鶴岡市高坂
9970401,山形県,鶴岡市,中野新田,ヤマガタケン,ツルオカシ,ナカノシンデン,山形県鶴岡市中野新田
9970402,山形県,鶴岡市,東岩本,ヤマガタケン,ツルオカシ,ヒガシイワモト,山形県鶴岡市東岩本
9970403,山形県,鶴岡市,越中山,ヤマガタケン,ツルオカシ,エッチュウヤマ,山形県鶴岡市越中山
9970404,山形県,鶴岡市,下名川,ヤマガタケン,ツルオカシ,シモナガワ,山形県鶴岡市下名川
9970405,山形県,鶴岡市,上名川,ヤマガタケン,ツルオカシ,カミナガワ,山形県鶴岡市上名川
9970411,山形県,鶴岡市,熊出,ヤマガタケン,ツルオカシ,クマイデ,山形県鶴岡市熊出
9970412,山形県,鶴岡市,本郷,ヤマガタケン,ツルオカシ,ホンゴウ,山形県鶴岡市本郷
9970413,山形県,鶴岡市,行沢,ヤマガタケン,ツルオカシ,ナメザワ,山形県鶴岡市行沢
9970414,山形県,鶴岡市,大針,ヤマガタケン,ツルオカシ,オオバリ,山形県鶴岡市大針
9970415,山形県,鶴岡市,砂川,ヤマガタケン,ツルオカシ,スナガワ,山形県鶴岡市砂川
9970531,山形県,鶴岡市,大網,ヤマガタケン,ツルオカシ,オオアミ,山形県鶴岡市大網
9970532,山形県,鶴岡市,田麦俣,ヤマガタケン,ツルオカシ,タムギマタ,山形県鶴岡市田麦俣
9970621,山形県,鶴岡市,荒沢,ヤマガタケン,ツルオカシ,アラサワ,山形県鶴岡市荒沢
9970622,山形県,鶴岡市,大鳥,ヤマガタケン,ツルオカシ,オオトリ,山形県鶴岡市大鳥
9970623,山形県,鶴岡市,上田沢,ヤマガタケン,ツルオカシ,カミタザワ,山形県鶴岡市上田沢
9970624,山形県,鶴岡市,倉沢,ヤマガタケン,ツルオカシ,クラサワ,山形県鶴岡市倉沢
9970625,山形県,鶴岡市,下田沢,ヤマガタケン,ツルオカシ,シモタザワ,山形県鶴岡市下田沢
9970626,山形県,鶴岡市,松沢,ヤマガタケン,ツルオカシ,マツザワ,山形県鶴岡市松沢
9970751,山形県,鶴岡市,藤沢,ヤマガタケン,ツルオカシ,フジサワ,山形県鶴岡市藤沢
9970752,山形県,鶴岡市,湯田川,ヤマガタケン,ツルオカシ,ユタガワ,山形県鶴岡市湯田川
9970753,山形県,鶴岡市,田川,ヤマガタケン,ツルオカシ,タガワ,山形県鶴岡市田川
9970754,山形県,鶴岡市,少連寺,ヤマガタケン,ツルオカシ,ショウレンジ,山形県鶴岡市少連寺
9970755,山形県,鶴岡市,砂谷,ヤマガタケン,ツルオカシ,イサゴダニ,山形県鶴岡市砂谷
9970756,山形県,鶴岡市,東目,ヤマガタケン,ツルオカシ,ヒガシメ,山形県鶴岡市東目
9970757,山形県,鶴岡市,坂野下,ヤマガタケン,ツルオカシ,サカノシタ,山形県鶴岡市坂野下
9970758,山形県,鶴岡市,関根,ヤマガタケン,ツルオカシ,セキネ,山形県鶴岡市関根
9970801,山形県,鶴岡市,東原町,ヤマガタケン,ツルオカシ,ヒガシハラマチ,山形県鶴岡市東原町
9970802,山形県,鶴岡市,伊勢原町,ヤマガタケン,ツルオカシ,イセハラマチ,山形県鶴岡市伊勢原町
9970803,山形県,鶴岡市,伊勢横内,ヤマガタケン,ツルオカシ,イセヨコウチ,山形県鶴岡市伊勢横内
9970804,山形県,鶴岡市,斎藤川原,ヤマガタケン,ツルオカシ,サイトウガワラ,山形県鶴岡市斎藤川原
9970805,山形県,鶴岡市,我老林,ヤマガタケン,ツルオカシ,ガロウバヤシ,山形県鶴岡市我老林
9970806,山形県,鶴岡市,遠賀原,ヤマガタケン,ツルオカシ,オガワラ,山形県鶴岡市遠賀原
9970807,山形県,鶴岡市,八ツ興屋,ヤマガタケン,ツルオカシ,ヤツゴウヤ,山形県鶴岡市八ツ興屋
9970808,山形県,鶴岡市,苗津,ヤマガタケン,ツルオカシ,ナエヅ,山形県鶴岡市苗津
9970809,山形県,鶴岡市,苗津町,ヤマガタケン,ツルオカシ,ナエヅマチ,山形県鶴岡市苗津町
9970811,山形県,鶴岡市,神明町,ヤマガタケン,ツルオカシ,シンメイチョウ,山形県鶴岡市神明町
9970812,山形県,鶴岡市,長者町,ヤマガタケン,ツルオカシ,チョウジャマチ,山形県鶴岡市長者町
9970813,山形県,鶴岡市,千石町,ヤマガタケン,ツルオカシ,センゴクマチ,山形県鶴岡市千石町
9970814,山形県,鶴岡市,城南町,ヤマガタケン,ツルオカシ,ジョウナンマチ,山形県鶴岡市城南町
9970815,山形県,鶴岡市,外内島,ヤマガタケン,ツルオカシ,トノジマ,山形県鶴岡市外内島
9970816,山形県,鶴岡市,文園町,ヤマガタケン,ツルオカシ,フミゾノマチ,山形県鶴岡市文園町
9970817,山形県,鶴岡市,睦町,ヤマガタケン,ツルオカシ,ムツミマチ,山形県鶴岡市睦町
9970818,山形県,鶴岡市,三和町,ヤマガタケン,ツルオカシ,ミワマチ,山形県鶴岡市三和町
9970819,山形県,鶴岡市,のぞみ町,ヤマガタケン,ツルオカシ,ノゾミマチ,山形県鶴岡市のぞみ町
9970821,山形県,鶴岡市,三光町,ヤマガタケン,ツルオカシ,サンコウチョウ,山形県鶴岡市三光町
9970822,山形県,鶴岡市,双葉町,ヤマガタケン,ツルオカシ,フタバチョウ,山形県鶴岡市双葉町
9970823,山形県,鶴岡市,海老島町,ヤマガタケン,ツルオカシ,エビジママチ,山形県鶴岡市海老島町
9970824,山形県,鶴岡市,日枝,ヤマガタケン,ツルオカシ,ヒエ,山形県鶴岡市日枝
9970825,山形県,鶴岡市,小真木原町,ヤマガタケン,ツルオカシ,コマギハラマチ,山形県鶴岡市小真木原町
9970826,山形県,鶴岡市,美原町,ヤマガタケン,ツルオカシ,ミハラマチ,山形県鶴岡市美原町
9970827,山形県,鶴岡市,陽光町,ヤマガタケン,ツルオカシ,ヨウコウマチ,山形県鶴岡市陽光町
9970831,山形県,鶴岡市,大西町,ヤマガタケン,ツルオカシ,オオニシマチ,山形県鶴岡市大西町
9970832,山形県,鶴岡市,青柳町,ヤマガタケン,ツルオカシ,アオヤギチョウ,山形県鶴岡市青柳町
9970833,山形県,鶴岡市,柳田,ヤマガタケン,ツルオカシ,ヤナギダ,山形県鶴岡市柳田
9970834,山形県,鶴岡市,稲生,ヤマガタケン,ツルオカシ,イナオイ,山形県鶴岡市稲生
9970835,山形県,鶴岡市,番田,ヤマガタケン,ツルオカシ,バンデン,山形県鶴岡市番田
9970836,山形県,鶴岡市,寺田,ヤマガタケン,ツルオカシ,テラダ,山形県鶴岡市寺田
9970837,山形県,鶴岡市,道田町,ヤマガタケン,ツルオカシ,ミチダマチ,山形県鶴岡市道田町
9970838,山形県,鶴岡市,淀川町,ヤマガタケン,ツルオカシ,ヨドカワマチ,山形県鶴岡市淀川町
9970839,山形県,鶴岡市,砂田町,ヤマガタケン,ツルオカシ,スナダマチ,山形県鶴岡市砂田町
9970841,山形県,鶴岡市,白山,ヤマガタケン,ツルオカシ,シラヤマ,山形県鶴岡市白山
9970842,山形県,鶴岡市,井岡,ヤマガタケン,ツルオカシ,イノオカ,山形県鶴岡市井岡
9970843,山形県,鶴岡市,岡山,ヤマガタケン,ツルオカシ,オカヤマ,山形県鶴岡市岡山
9970844,山形県,鶴岡市,森片,ヤマガタケン,ツルオカシ,モリカタ,山形県鶴岡市森片
9970845,山形県,鶴岡市,下清水,ヤマガタケン,ツルオカシ,シモシミズ,山形県鶴岡市下清水
9970846,山形県,鶴岡市,中清水,ヤマガタケン,ツルオカシ,ナカシミズ,山形県鶴岡市中清水
9970847,山形県,鶴岡市,上清水,ヤマガタケン,ツルオカシ,カミシミズ,山形県鶴岡市上清水
9970848,山形県,鶴岡市,清水新田,ヤマガタケン,ツルオカシ,シミズシンデン,山形県鶴岡市清水新田
9970851,山形県,鶴岡市,布目,ヤマガタケン,ツルオカシ,ヌノメ,山形県鶴岡市布目
9970852,山形県,鶴岡市,新斎部,ヤマガタケン,ツルオカシ,シンサイブ,山形県鶴岡市新斎部
9970853,山形県,鶴岡市,小淀川,ヤマガタケン,ツルオカシ,コヨドカワ,山形県鶴岡市小淀川
9970854,山形県,鶴岡市,大淀川,ヤマガタケン,ツルオカシ,オオヨドカワ,山形県鶴岡市大淀川
9970855,山形県,鶴岡市,矢馳,ヤマガタケン,ツルオカシ,ヤバセ,山形県鶴岡市矢馳
9970856,山形県,鶴岡市,山田,ヤマガタケン,ツルオカシ,ヤマダ,山形県鶴岡市山田
9970857,山形県,鶴岡市,美咲町,ヤマガタケン,ツルオカシ,ミサキマチ,山形県鶴岡市美咲町
9970861,山形県,鶴岡市,桜新町,ヤマガタケン,ツルオカシ,サクラシンマチ,山形県鶴岡市桜新町
9970862,山形県,鶴岡市,ほなみ町,ヤマガタケン,ツルオカシ,ホナミマチ,山形県鶴岡市ほなみ町
9971111,山形県,鶴岡市,茨新田,ヤマガタケン,ツルオカシ,バラシンデン,山形県鶴岡市茨新田
9971112,山形県,鶴岡市,西沼,ヤマガタケン,ツルオカシ,ニシヌマ,山形県鶴岡市西沼
9971113,山形県,鶴岡市,長崎,ヤマガタケン,ツルオカシ,ナガサキ,山形県鶴岡市長崎
9971114,山形県,鶴岡市,千安京田,ヤマガタケン,ツルオカシ,チヤスキョウデン,山形県鶴岡市千安京田
9971115,山形県,鶴岡市,辻興屋,ヤマガタケン,ツルオカシ,ツジコウヤ,山形県鶴岡市辻興屋
9971116,山形県,鶴岡市,面野山,ヤマガタケン,ツルオカシ,オモノヤマ,山形県鶴岡市面野山
9971117,山形県,鶴岡市,下川,ヤマガタケン,ツルオカシ,シモガワ,山形県鶴岡市下川
9971121,山形県,鶴岡市,大山（その他）,ヤマガタケン,ツルオカシ,オオヤマ(ソノタ),山形県鶴岡市大山（その他）
9971122,山形県,鶴岡市,友江,ヤマガタケン,ツルオカシ,トモエ,山形県鶴岡市友江
9971123,山形県,鶴岡市,友江町,ヤマガタケン,ツルオカシ,トモエマチ,山形県鶴岡市友江町
9971124,山形県,鶴岡市,大山（丁目）,ヤマガタケン,ツルオカシ,オオヤマ(チョウメ),山形県鶴岡市大山（丁目）
9971125,山形県,鶴岡市,馬町,ヤマガタケン,ツルオカシ,ウママチ,山形県鶴岡市馬町
9971131,山形県,鶴岡市,菱津,ヤマガタケン,ツルオカシ,ヒシヅ,山形県鶴岡市菱津
9971132,山形県,鶴岡市,栃屋,ヤマガタケン,ツルオカシ,トチヤ,山形県鶴岡市栃屋
9971133,山形県,鶴岡市,下興屋,ヤマガタケン,ツルオカシ,シモコウヤ,山形県鶴岡市下興屋
9971134,山形県,鶴岡市,下小中,ヤマガタケン,ツルオカシ,シモコナカ,山形県鶴岡市下小中
9971135,山形県,鶴岡市,中楯,ヤマガタケン,ツルオカシ,ナカダテ,山形県鶴岡市中楯
9971156,山形県,鶴岡市,平成町,ヤマガタケン,ツルオカシ,ヘイセイマチ,山形県鶴岡市平成町
9971201,山形県,鶴岡市,湯野浜,ヤマガタケン,ツルオカシ,ユノハマ,山形県鶴岡市湯野浜
9971202,山形県,鶴岡市,宮沢,ヤマガタケン,ツルオカシ,ミヤザワ,山形県鶴岡市宮沢
9971203,山形県,鶴岡市,金沢,ヤマガタケン,ツルオカシ,カネザワ,山形県鶴岡市金沢
9971204,山形県,鶴岡市,加茂,ヤマガタケン,ツルオカシ,カモ,山形県鶴岡市加茂
9971205,山形県,鶴岡市,油戸,ヤマガタケン,ツルオカシ,アブラト,山形県鶴岡市油戸
9971206,山形県,鶴岡市,今泉,ヤマガタケン,ツルオカシ,イマイズミ,山形県鶴岡市今泉
9971300,山形県,東田川郡三川町,,ヤマガタケン,ヒガシタガワグンミカワマチ,,山形県東田川郡三川町
9971301,山形県,東田川郡三川町,横山,ヤマガタケン,ヒガシタガワグンミカワマチ,ヨコヤマ,山形県東田川郡三川町横山
9971311,山形県,東田川郡三川町,青山,ヤマガタケン,ヒガシタガワグンミカワマチ,アオヤマ,山形県東田川郡三川町青山
9971312,山形県,東田川郡三川町,善阿弥,ヤマガタケン,ヒガシタガワグンミカワマチ,ゼンナミ,山形県東田川郡三川町善阿弥
9971313,山形県,東田川郡三川町,角田二口,ヤマガタケン,ヒガシタガワグンミカワマチ,カクタフタクチ,山形県東田川郡三川町角田二口
9971314,山形県,東田川郡三川町,東沼,ヤマガタケン,ヒガシタガワグンミカワマチ,ヒガシヌマ,山形県東田川郡三川町東沼
9971315,山形県,東田川郡三川町,神花,ヤマガタケン,ヒガシタガワグンミカワマチ,カンバナ,山形県東田川郡三川町神花
9971316,山形県,東田川郡三川町,猪子,ヤマガタケン,ヒガシタガワグンミカワマチ,イノコ,山形県東田川郡三川町猪子
9971317,山形県,東田川郡三川町,成田新田,ヤマガタケン,ヒガシタガワグンミカワマチ,ナリタシンデン,山形県東田川郡三川町成田新田
9971321,山形県,東田川郡三川町,押切新田,ヤマガタケン,ヒガシタガワグンミカワマチ,オシキリシンデン,山形県東田川郡三川町押切新田
9971322,山形県,東田川郡三川町,土口,ヤマガタケン,ヒガシタガワグンミカワマチ,ドグチ,山形県東田川郡三川町土口
9971331,山形県,東田川郡三川町,助川,ヤマガタケン,ヒガシタガワグンミカワマチ,スケガワ,山形県東田川郡三川町助川
9971332,山形県,東田川郡三川町,堤野,ヤマガタケン,ヒガシタガワグンミカワマチ,ツツミノ,山形県東田川郡三川町堤野
9971333,山形県,東田川郡三川町,横内,ヤマガタケン,ヒガシタガワグンミカワマチ,ヨコウチ,山形県東田川郡三川町横内
9971334,山形県,東田川郡三川町,竹原田,ヤマガタケン,ヒガシタガワグンミカワマチ,タケハラダ,山形県東田川郡三川町竹原田
9971335,山形県,東田川郡三川町,菱沼,ヤマガタケン,ヒガシタガワグンミカワマチ,ヒシヌマ,山形県東田川郡三川町菱沼
9971336,山形県,東田川郡三川町,加藤,ヤマガタケン,ヒガシタガワグンミカワマチ,カトウ,山形県東田川郡三川町加藤
9971337,山形県,東田川郡三川町,小尺,ヤマガタケン,ヒガシタガワグンミカワマチ,ショウシャク,山形県東田川郡三川町小尺
9971338,山形県,東田川郡三川町,横川,ヤマガタケン,ヒガシタガワグンミカワマチ,ヨコカワ,山形県東田川郡三川町横川
9971339,山形県,東田川郡三川町,横川新田,ヤマガタケン,ヒガシタガワグンミカワマチ,ヨコカワシンデン,山形県東田川郡三川町横川新田
9980000,山形県,酒田市,,ヤマガタケン,サカタシ,,山形県酒田市
9980001,山形県,酒田市,穂積（その他）,ヤマガタケン,サカタシ,ホヅミ(ソノタ),山形県酒田市穂積（その他）
9980002,山形県,酒田市,藤塚,ヤマガタケン,サカタシ,フジツカ,山形県酒田市藤塚
9980003,山形県,酒田市,酒井新田,ヤマガタケン,サカタシ,サカイシンデン,山形県酒田市酒井新田
9980004,山形県,酒田市,豊里,ヤマガタケン,サカタシ,トヨサト,山形県酒田市豊里
9980005,山形県,酒田市,宮海,ヤマガタケン,サカタシ,ミヤウミ,山形県酒田市宮海
9980006,山形県,酒田市,ゆたか,ヤマガタケン,サカタシ,ユタカ,山形県酒田市ゆたか
9980011,山形県,酒田市,上安町,ヤマガタケン,サカタシ,カミヤスチョウ,山形県酒田市上安町
9980012,山形県,酒田市,下安町,ヤマガタケン,サカタシ,シモヤスチョウ,山形県酒田市下安町
9980013,山形県,酒田市,東泉町,ヤマガタケン,サカタシ,ヒガシイズミチョウ,山形県酒田市東泉町
9980014,山形県,酒田市,千日町,ヤマガタケン,サカタシ,センニチチョウ,山形県酒田市千日町
9980015,山形県,酒田市,北千日堂前,ヤマガタケン,サカタシ,キタセンニチドウマエ,山形県酒田市北千日堂前
9980016,山形県,酒田市,北千日町,ヤマガタケン,サカタシ,キタセンニチチョウ,山形県酒田市北千日町
9980017,山形県,酒田市,西野町,ヤマガタケン,サカタシ,ニシノマチ,山形県酒田市西野町
9980018,山形県,酒田市,泉町,ヤマガタケン,サカタシ,イズミチョウ,山形県酒田市泉町
9980021,山形県,酒田市,旭新町,ヤマガタケン,サカタシ,アサヒシンマチ,山形県酒田市旭新町
9980022,山形県,酒田市,駅東,ヤマガタケン,サカタシ,エキヒガシ,山形県酒田市駅東
9980023,山形県,酒田市,幸町,ヤマガタケン,サカタシ,サイワイチョウ,山形県酒田市幸町
9980024,山形県,酒田市,御成町,ヤマガタケン,サカタシ,オナリチョウ,山形県酒田市御成町
9980025,山形県,酒田市,南千日町,ヤマガタケン,サカタシ,ミナミセンニチチョウ,山形県酒田市南千日町
9980026,山形県,酒田市,栄町,ヤマガタケン,サカタシ,サカエチョウ,山形県酒田市栄町
9980027,山形県,酒田市,北今町,ヤマガタケン,サカタシ,キタイママチ,山形県酒田市北今町
9980028,山形県,酒田市,北里町,ヤマガタケン,サカタシ,キタザトチョウ,山形県酒田市北里町
9980029,山形県,酒田市,住吉町,ヤマガタケン,サカタシ,スミヨシチョウ,山形県酒田市住吉町
9980031,山形県,酒田市,浜田,ヤマガタケン,サカタシ,ハマダ,山形県酒田市浜田
9980032,山形県,酒田市,相生町,ヤマガタケン,サカタシ,アイオイチョウ,山形県酒田市相生町
9980033,山形県,酒田市,中央東町,ヤマガタケン,サカタシ,チュウオウヒガシマチ,山形県酒田市中央東町
9980034,山形県,酒田市,中央西町,ヤマガタケン,サカタシ,チュウオウニシマチ,山形県酒田市中央西町
9980035,山形県,酒田市,寿町,ヤマガタケン,サカタシ,コトブキチョウ,山形県酒田市寿町
9980036,山形県,酒田市,船場町,ヤマガタケン,サカタシ,フナバチョウ,山形県酒田市船場町
9980037,山形県,酒田市,日吉町,ヤマガタケン,サカタシ,ヒヨシチョウ,山形県酒田市日吉町
9980041,山形県,酒田市,新井田町,ヤマガタケン,サカタシ,ニイダマチ,山形県酒田市新井田町
9980042,山形県,酒田市,上本町,ヤマガタケン,サカタシ,カミホンチョウ,山形県酒田市上本町
9980043,山形県,酒田市,本町（１〜３丁目）,ヤマガタケン,サカタシ,ホンチョウ(1-3チョウメ),山形県酒田市本町（1〜3-）
9980044,山形県,酒田市,中町,ヤマガタケン,サカタシ,ナカマチ,山形県酒田市中町
9980045,山形県,酒田市,二番町,ヤマガタケン,サカタシ,ニバンチョウ,山形県酒田市二番町
9980046,山形県,酒田市,一番町,ヤマガタケン,サカタシ,イチバンチョウ,山形県酒田市一番町
9980051,山形県,酒田市,高見台,ヤマガタケン,サカタシ,タカミダイ,山形県酒田市高見台
9980052,山形県,酒田市,緑ケ丘,ヤマガタケン,サカタシ,ミドリガオカ,山形県酒田市緑ケ丘
9980053,山形県,酒田市,若宮町,ヤマガタケン,サカタシ,ワカミヤチョウ,山形県酒田市若宮町
9980054,山形県,酒田市,宮野浦,ヤマガタケン,サカタシ,ミヤノウラ,山形県酒田市宮野浦
9980055,山形県,酒田市,飯森山,ヤマガタケン,サカタシ,イイモリヤマ,山形県酒田市飯森山
9980061,山形県,酒田市,光ケ丘,ヤマガタケン,サカタシ,ヒカリガオカ,山形県酒田市光ケ丘
9980062,山形県,酒田市,北新町,ヤマガタケン,サカタシ,キタシンマチ,山形県酒田市北新町
9980063,山形県,酒田市,南新町,ヤマガタケン,サカタシ,ミナミシンマチ,山形県酒田市南新町
9980064,山形県,酒田市,大浜,ヤマガタケン,サカタシ,オオハマ,山形県酒田市大浜
9980071,山形県,酒田市,古湊町,ヤマガタケン,サカタシ,コミナトチョウ,山形県酒田市古湊町
9980072,山形県,酒田市,北浜町,ヤマガタケン,サカタシ,キタハマチョウ,山形県酒田市北浜町
9980073,山形県,酒田市,松美町,ヤマガタケン,サカタシ,マツミチョウ,山形県酒田市松美町
9980074,山形県,酒田市,浜松町,ヤマガタケン,サカタシ,ハママツチョウ,山形県酒田市浜松町
9980075,山形県,酒田市,高砂,ヤマガタケン,サカタシ,タカサゴ,山形県酒田市高砂
9980101,山形県,酒田市,坂野辺新田,ヤマガタケン,サカタシ,サカノベシンデン,山形県酒田市坂野辺新田
9980102,山形県,酒田市,京田,ヤマガタケン,サカタシ,キョウデン,山形県酒田市京田
9980103,山形県,酒田市,錦町,ヤマガタケン,サカタシ,ニシキチョウ,山形県酒田市錦町
9980104,山形県,酒田市,広栄町,ヤマガタケン,サカタシ,コウエイチョウ,山形県酒田市広栄町
9980105,山形県,酒田市,広野新田,ヤマガタケン,サカタシ,ヒロノシンデン,山形県酒田市広野新田
9980111,山形県,酒田市,黒森,ヤマガタケン,サカタシ,クロモリ,山形県酒田市黒森
9980112,山形県,酒田市,浜中,ヤマガタケン,サカタシ,ハマナカ,山形県酒田市浜中
9980113,山形県,酒田市,広岡新田,ヤマガタケン,サカタシ,ヒロオカシンデン,山形県酒田市広岡新田
9980114,山形県,酒田市,十里塚,ヤマガタケン,サカタシ,ジュウリヅカ,山形県酒田市十里塚
9980125,山形県,酒田市,広野,ヤマガタケン,サカタシ,ヒロノ,山形県酒田市広野
9980281,山形県,酒田市,飛島,ヤマガタケン,サカタシ,トビシマ,山形県酒田市飛島
9980801,山形県,酒田市,北沢,ヤマガタケン,サカタシ,キタザワ,山形県酒田市北沢
9980802,山形県,酒田市,生石,ヤマガタケン,サカタシ,オイシ,山形県酒田市生石
9980803,山形県,酒田市,大槻新田,ヤマガタケン,サカタシ,オオツキシンデン,山形県酒田市大槻新田
9980804,山形県,酒田市,横代,ヤマガタケン,サカタシ,ヨコダイ,山形県酒田市横代
9980805,山形県,酒田市,関,ヤマガタケン,サカタシ,セキ,山形県酒田市関
9980806,山形県,酒田市,境興野,ヤマガタケン,サカタシ,サカイコウヤ,山形県酒田市境興野
9980811,山形県,酒田市,手蔵田,ヤマガタケン,サカタシ,テグラダ,山形県酒田市手蔵田
9980812,山形県,酒田市,本川,ヤマガタケン,サカタシ,ホンガワ,山形県酒田市本川
9980813,山形県,酒田市,茨野新田,ヤマガタケン,サカタシ,バラノシンデン,山形県酒田市茨野新田
9980814,山形県,酒田市,小牧新田,ヤマガタケン,サカタシ,コマギシンデン,山形県酒田市小牧新田
9980815,山形県,酒田市,小牧,ヤマガタケン,サカタシ,コマギ,山形県酒田市小牧
9980816,山形県,酒田市,大野新田,ヤマガタケン,サカタシ,オオノシンデン,山形県酒田市大野新田
9980817,山形県,酒田市,熊手島,ヤマガタケン,サカタシ,クマテジマ,山形県酒田市熊手島
9980818,山形県,酒田市,勝保関,ヤマガタケン,サカタシ,ガツボゼキ,山形県酒田市勝保関
9980819,山形県,酒田市,熊野田,ヤマガタケン,サカタシ,クマノダ,山形県酒田市熊野田
9980821,山形県,酒田市,遊摺部,ヤマガタケン,サカタシ,ユスルベ,山形県酒田市遊摺部
9980822,山形県,酒田市,大宮,ヤマガタケン,サカタシ,オオミヤ,山形県酒田市大宮
9980823,山形県,酒田市,卸町,ヤマガタケン,サカタシ,オロシマチ,山形県酒田市卸町
9980824,山形県,酒田市,大宮町,ヤマガタケン,サカタシ,オオミヤチョウ,山形県酒田市大宮町
9980826,山形県,酒田市,初瀬,ヤマガタケン,サカタシ,ハツセ,山形県酒田市初瀬
9980827,山形県,酒田市,草刈谷地,ヤマガタケン,サカタシ,クサカリヤチ,山形県酒田市草刈谷地
9980828,山形県,酒田市,あきほ町,ヤマガタケン,サカタシ,アキホチョウ,山形県酒田市あきほ町
9980829,山形県,酒田市,仁助谷地,ヤマガタケン,サカタシ,ニスケヤチ,山形県酒田市仁助谷地
9980831,山形県,酒田市,東両羽町,ヤマガタケン,サカタシ,ヒガシリョウウチョウ,山形県酒田市東両羽町
9980832,山形県,酒田市,両羽町,ヤマガタケン,サカタシ,リョウウチョウ,山形県酒田市両羽町
9980833,山形県,酒田市,若原町,ヤマガタケン,サカタシ,ワカハラチョウ,山形県酒田市若原町
9980834,山形県,酒田市,若竹町,ヤマガタケン,サカタシ,ワカタケチョウ,山形県酒田市若竹町
9980835,山形県,酒田市,堤町,ヤマガタケン,サカタシ,ツツミチョウ,山形県酒田市堤町
9980836,山形県,酒田市,入船町,ヤマガタケン,サカタシ,イリフネチョウ,山形県酒田市入船町
9980837,山形県,酒田市,下瀬,ヤマガタケン,サカタシ,シタセ,山形県酒田市下瀬
9980838,山形県,酒田市,山居町,ヤマガタケン,サカタシ,サンキョマチ,山形県酒田市山居町
9980841,山形県,酒田市,松原南,ヤマガタケン,サカタシ,マツバラミナミ,山形県酒田市松原南
9980842,山形県,酒田市,亀ケ崎,ヤマガタケン,サカタシ,カメガサキ,山形県酒田市亀ケ崎
9980843,山形県,酒田市,千石町,ヤマガタケン,サカタシ,センゴクチョウ,山形県酒田市千石町
9980851,山形県,酒田市,東大町,ヤマガタケン,サカタシ,ヒガシオオマチ,山形県酒田市東大町
9980852,山形県,酒田市,こがね町,ヤマガタケン,サカタシ,コガネチョウ,山形県酒田市こがね町
9980853,山形県,酒田市,みずほ,ヤマガタケン,サカタシ,ミズホ,山形県酒田市みずほ
9980854,山形県,酒田市,末広町,ヤマガタケン,サカタシ,スエヒロチョウ,山形県酒田市末広町
9980855,山形県,酒田市,東中の口町,ヤマガタケン,サカタシ,ヒガシナカノクチマチ,山形県酒田市東中の口町
9980856,山形県,酒田市,東栄町,ヤマガタケン,サカタシ,トウエイチョウ,山形県酒田市東栄町
9980857,山形県,酒田市,若浜町,ヤマガタケン,サカタシ,ワカハマチョウ,山形県酒田市若浜町
9980858,山形県,酒田市,緑町,ヤマガタケン,サカタシ,ミドリチョウ,山形県酒田市緑町
9980859,山形県,酒田市,大町,ヤマガタケン,サカタシ,オオマチ,山形県酒田市大町
9980861,山形県,酒田市,富士見町,ヤマガタケン,サカタシ,フジミチョウ,山形県酒田市富士見町
9980862,山形県,酒田市,曙町,ヤマガタケン,サカタシ,アケボノチョウ,山形県酒田市曙町
9980863,山形県,酒田市,日の出町,ヤマガタケン,サカタシ,ヒノデチョウ,山形県酒田市日の出町
9980864,山形県,酒田市,新橋,ヤマガタケン,サカタシ,シンバシ,山形県酒田市新橋
9980865,山形県,酒田市,北新橋,ヤマガタケン,サカタシ,キタシンバシ,山形県酒田市北新橋
9980871,山形県,酒田市,荻島,ヤマガタケン,サカタシ,オギジマ,山形県酒田市荻島
9980872,山形県,酒田市,中野新田,ヤマガタケン,サカタシ,ナカノシンデン,山形県酒田市中野新田
9980873,山形県,酒田市,土崎,ヤマガタケン,サカタシ,ツチザキ,山形県酒田市土崎
9980874,山形県,酒田市,四ツ興野,ヤマガタケン,サカタシ,ヨツゴヤ,山形県酒田市四ツ興野
9980875,山形県,酒田市,東町,ヤマガタケン,サカタシ,アズマチョウ,山形県酒田市東町
9980876,山形県,酒田市,古荒新田,ヤマガタケン,サカタシ,コアラシンデン,山形県酒田市古荒新田
9980877,山形県,酒田市,大多新田,ヤマガタケン,サカタシ,オオタシンデン,山形県酒田市大多新田
9980878,山形県,酒田市,こあら,ヤマガタケン,サカタシ,コアラ,山形県酒田市こあら
9990100,山形県,東置賜郡川西町,,ヤマガタケン,ヒガシオキタマグンカワニシマチ,,山形県東置賜郡川西町
9990121,山形県,東置賜郡川西町,上小松,ヤマガタケン,ヒガシオキタマグンカワニシマチ,カミコマツ,山形県東置賜郡川西町上小松
9990122,山形県,東置賜郡川西町,中小松,ヤマガタケン,ヒガシオキタマグンカワニシマチ,ナカコマツ,山形県東置賜郡川西町中小松
9990131,山形県,東置賜郡川西町,黒川,ヤマガタケン,ヒガシオキタマグンカワニシマチ,クロカワ,山形県東置賜郡川西町黒川
9990132,山形県,東置賜郡川西町,高豆蒄,ヤマガタケン,ヒガシオキタマグンカワニシマチ,コウズク,山形県東置賜郡川西町高豆蒄
9990133,山形県,東置賜郡川西町,小松,ヤマガタケン,ヒガシオキタマグンカワニシマチ,コマツ,山形県東置賜郡川西町小松
9990134,山形県,東置賜郡川西町,下小松,ヤマガタケン,ヒガシオキタマグンカワニシマチ,シモコマツ,山形県東置賜郡川西町下小松
9990141,山形県,東置賜郡川西町,高山,ヤマガタケン,ヒガシオキタマグンカワニシマチ,タカヤマ,山形県東置賜郡川西町高山
9990142,山形県,東置賜郡川西町,堀金,ヤマガタケン,ヒガシオキタマグンカワニシマチ,ホリガネ,山形県東置賜郡川西町堀金
9990143,山形県,東置賜郡川西町,莅,ヤマガタケン,ヒガシオキタマグンカワニシマチ,ノゾキ,山形県東置賜郡川西町莅
9990144,山形県,東置賜郡川西町,時田,ヤマガタケン,ヒガシオキタマグンカワニシマチ,トキダ,山形県東置賜郡川西町時田
9990145,山形県,東置賜郡川西町,下奥田,ヤマガタケン,ヒガシオキタマグンカワニシマチ,シモオクダ,山形県東置賜郡川西町下奥田
9990151,山形県,東置賜郡川西町,大舟,ヤマガタケン,ヒガシオキタマグンカワニシマチ,オオブネ,山形県東置賜郡川西町大舟
9990152,山形県,東置賜郡川西町,上奥田,ヤマガタケン,ヒガシオキタマグンカワニシマチ,カミオクダ,山形県東置賜郡川西町上奥田
9990153,山形県,東置賜郡川西町,朴沢,ヤマガタケン,ヒガシオキタマグンカワニシマチ,ホオノサワ,山形県東置賜郡川西町朴沢
9990211,山形県,東置賜郡川西町,洲島,ヤマガタケン,ヒガシオキタマグンカワニシマチ,スノシマ,山形県東置賜郡川西町洲島
9990212,山形県,東置賜郡川西町,下平柳,ヤマガタケン,ヒガシオキタマグンカワニシマチ,シモヒラヤナギ,山形県東置賜郡川西町下平柳
9990213,山形県,東置賜郡川西町,尾長島,ヤマガタケン,ヒガシオキタマグンカワニシマチ,オナガシマ,山形県東置賜郡川西町尾長島
9990214,山形県,東置賜郡川西町,吉田,ヤマガタケン,ヒガシオキタマグンカワニシマチ,ヨシタ,山形県東置賜郡川西町吉田
9990361,山形県,東置賜郡川西町,玉庭,ヤマガタケン,ヒガシオキタマグンカワニシマチ,タマニワ,山形県東置賜郡川西町玉庭
9990421,山形県,西置賜郡飯豊町,小屋,ヤマガタケン,ニシオキタマグンイイデマチ,コヤ,山形県西置賜郡飯豊町小屋
9990422,山形県,西置賜郡飯豊町,広河原,ヤマガタケン,ニシオキタマグンイイデマチ,ヒロカワラ,山形県西置賜郡飯豊町広河原
9990423,山形県,西置賜郡飯豊町,須郷,ヤマガタケン,ニシオキタマグンイイデマチ,スゴウ,山形県西置賜郡飯豊町須郷
9990424,山形県,西置賜郡飯豊町,数馬,ヤマガタケン,ニシオキタマグンイイデマチ,カズマ,山形県西置賜郡飯豊町数馬
9990425,山形県,西置賜郡飯豊町,宇津沢,ヤマガタケン,ニシオキタマグンイイデマチ,ウツサワ,山形県西置賜郡飯豊町宇津沢
9990426,山形県,西置賜郡飯豊町,遅谷,ヤマガタケン,ニシオキタマグンイイデマチ,オソダニ,山形県西置賜郡飯豊町遅谷
9990427,山形県,西置賜郡飯豊町,上原,ヤマガタケン,ニシオキタマグンイイデマチ,ウワバラ,山形県西置賜郡飯豊町上原
9990431,山形県,西置賜郡飯豊町,下屋地,ヤマガタケン,ニシオキタマグンイイデマチ,シモヤチ,山形県西置賜郡飯豊町下屋地
9990432,山形県,西置賜郡飯豊町,白川,ヤマガタケン,ニシオキタマグンイイデマチ,シラカワ,山形県西置賜郡飯豊町白川
9990433,山形県,西置賜郡飯豊町,上屋地,ヤマガタケン,ニシオキタマグンイイデマチ,カミヤチ,山形県西置賜郡飯豊町上屋地
9990434,山形県,西置賜郡飯豊町,川内戸,ヤマガタケン,ニシオキタマグンイイデマチ,カワナイド,山形県西置賜郡飯豊町川内戸
9990435,山形県,西置賜郡飯豊町,高造路,ヤマガタケン,ニシオキタマグンイイデマチ,タカゾウロ,山形県西置賜郡飯豊町高造路
9990436,山形県,西置賜郡飯豊町,岩倉,ヤマガタケン,ニシオキタマグンイイデマチ,イワクラ,山形県西置賜郡飯豊町岩倉
9990600,山形県,西置賜郡飯豊町,,ヤマガタケン,ニシオキタマグンイイデマチ,,山形県西置賜郡飯豊町
9990601,山形県,西置賜郡飯豊町,中,ヤマガタケン,ニシオキタマグンイイデマチ,ナカ,山形県西置賜郡飯豊町中
9990602,山形県,西置賜郡飯豊町,萩生,ヤマガタケン,ニシオキタマグンイイデマチ,ハギュウ,山形県西置賜郡飯豊町萩生
9990603,山形県,西置賜郡飯豊町,黒沢,ヤマガタケン,ニシオキタマグンイイデマチ,クロサワ,山形県西置賜郡飯豊町黒沢
9990604,山形県,西置賜郡飯豊町,椿,ヤマガタケン,ニシオキタマグンイイデマチ,ツバキ,山形県西置賜郡飯豊町椿
9990605,山形県,西置賜郡飯豊町,添川,ヤマガタケン,ニシオキタマグンイイデマチ,ソエガワ,山形県西置賜郡飯豊町添川
9990606,山形県,西置賜郡飯豊町,松原,ヤマガタケン,ニシオキタマグンイイデマチ,マツバラ,山形県西置賜郡飯豊町松原
9991111,山形県,西置賜郡飯豊町,手ノ子,ヤマガタケン,ニシオキタマグンイイデマチ,テノコ,山形県西置賜郡飯豊町手ノ子
9991112,山形県,西置賜郡飯豊町,高峰,ヤマガタケン,ニシオキタマグンイイデマチ,タカミネ,山形県西置賜郡飯豊町高峰
9991113,山形県,西置賜郡飯豊町,小白川,ヤマガタケン,ニシオキタマグンイイデマチ,コジラカワ,山形県西置賜郡飯豊町小白川
9991201,山形県,西置賜郡小国町,沼沢,ヤマガタケン,ニシオキタマグンオグニマチ,ヌマザワ,山形県西置賜郡小国町沼沢
9991202,山形県,西置賜郡小国町,白子沢,ヤマガタケン,ニシオキタマグンオグニマチ,シラコザワ,山形県西置賜郡小国町白子沢
9991203,山形県,西置賜郡小国町,市野々,ヤマガタケン,ニシオキタマグンオグニマチ,イチノノ,山形県西置賜郡小国町市野々
9991211,山形県,西置賜郡小国町,叶水,ヤマガタケン,ニシオキタマグンオグニマチ,カノミズ,山形県西置賜郡小国町叶水
9991212,山形県,西置賜郡小国町,大石沢,ヤマガタケン,ニシオキタマグンオグニマチ,オオイシザワ,山形県西置賜郡小国町大石沢
9991213,山形県,西置賜郡小国町,新股,ヤマガタケン,ニシオキタマグンオグニマチ,アラマタ,山形県西置賜郡小国町新股
9991214,山形県,西置賜郡小国町,河原角,ヤマガタケン,ニシオキタマグンオグニマチ,カワラヅノ,山形県西置賜郡小国町河原角
9991215,山形県,西置賜郡小国町,西滝,ヤマガタケン,ニシオキタマグンオグニマチ,ニシダキ,山形県西置賜郡小国町西滝
9991216,山形県,西置賜郡小国町,東滝,ヤマガタケン,ニシオキタマグンオグニマチ,ヒガシダキ,山形県西置賜郡小国町東滝
9991300,山形県,西置賜郡小国町,,ヤマガタケン,ニシオキタマグンオグニマチ,,山形県西置賜郡小国町
9991301,山形県,西置賜郡小国町,金目,ヤマガタケン,ニシオキタマグンオグニマチ,カナメ,山形県西置賜郡小国町金目
9991302,山形県,西置賜郡小国町,古田,ヤマガタケン,ニシオキタマグンオグニマチ,フルタ,山形県西置賜郡小国町古田
9991303,山形県,西置賜郡小国町,若山,ヤマガタケン,ニシオキタマグンオグニマチ,ワカヤマ,山形県西置賜郡小国町若山
9991311,山形県,西置賜郡小国町,貝少,ヤマガタケン,ニシオキタマグンオグニマチ,カイショウ,山形県西置賜郡小国町貝少
9991312,山形県,西置賜郡小国町,小渡,ヤマガタケン,ニシオキタマグンオグニマチ,オド,山形県西置賜郡小国町小渡
9991313,山形県,西置賜郡小国町,針生,ヤマガタケン,ニシオキタマグンオグニマチ,ハリウ,山形県西置賜郡小国町針生
9991314,山形県,西置賜郡小国町,新屋敷,ヤマガタケン,ニシオキタマグンオグニマチ,シンヤシキ,山形県西置賜郡小国町新屋敷
9991321,山形県,西置賜郡小国町,綱木箱口,ヤマガタケン,ニシオキタマグンオグニマチ,ツナギハコノグチ,山形県西置賜郡小国町綱木箱口
9991322,山形県,西置賜郡小国町,伊佐領,ヤマガタケン,ニシオキタマグンオグニマチ,イサリョウ,山形県西置賜郡小国町伊佐領
9991323,山形県,西置賜郡小国町,朝篠,ヤマガタケン,ニシオキタマグンオグニマチ,アザシノ,山形県西置賜郡小国町朝篠
9991324,山形県,西置賜郡小国町,松岡,ヤマガタケン,ニシオキタマグンオグニマチ,マツオカ,山形県西置賜郡小国町松岡
9991331,山形県,西置賜郡小国町,東原,ヤマガタケン,ニシオキタマグンオグニマチ,ヒガシハラ,山形県西置賜郡小国町東原
9991332,山形県,西置賜郡小国町,町原,ヤマガタケン,ニシオキタマグンオグニマチ,マチバラ,山形県西置賜郡小国町町原
9991333,山形県,西置賜郡小国町,芹出,ヤマガタケン,ニシオキタマグンオグニマチ,セリデ,山形県西置賜郡小国町芹出
9991334,山形県,西置賜郡小国町,黒沢,ヤマガタケン,ニシオキタマグンオグニマチ,クロサワ,山形県西置賜郡小国町黒沢
9991335,山形県,西置賜郡小国町,種沢,ヤマガタケン,ニシオキタマグンオグニマチ,タネザワ,山形県西置賜郡小国町種沢
9991336,山形県,西置賜郡小国町,大滝,ヤマガタケン,ニシオキタマグンオグニマチ,オオタキ,山形県西置賜郡小国町大滝
9991337,山形県,西置賜郡小国町,新原,ヤマガタケン,ニシオキタマグンオグニマチ,シンバラ,山形県西置賜郡小国町新原
9991338,山形県,西置賜郡小国町,杉沢,ヤマガタケン,ニシオキタマグンオグニマチ,スギサワ,山形県西置賜郡小国町杉沢
9991339,山形県,西置賜郡小国町,小倉,ヤマガタケン,ニシオキタマグンオグニマチ,コグラ,山形県西置賜郡小国町小倉
9991341,山形県,西置賜郡小国町,増岡,ヤマガタケン,ニシオキタマグンオグニマチ,マスオカ,山形県西置賜郡小国町増岡
9991342,山形県,西置賜郡小国町,大宮,ヤマガタケン,ニシオキタマグンオグニマチ,オオミヤ,山形県西置賜郡小国町大宮
9991343,山形県,西置賜郡小国町,宮の台,ヤマガタケン,ニシオキタマグンオグニマチ,ミヤノダイ,山形県西置賜郡小国町宮の台
9991344,山形県,西置賜郡小国町,田沢頭,ヤマガタケン,ニシオキタマグンオグニマチ,タザワガシラ,山形県西置賜郡小国町田沢頭
9991345,山形県,西置賜郡小国町,北,ヤマガタケン,ニシオキタマグンオグニマチ,キタ,山形県西置賜郡小国町北
9991346,山形県,西置賜郡小国町,湯ノ花,ヤマガタケン,ニシオキタマグンオグニマチ,ユノハナ,山形県西置賜郡小国町湯ノ花
9991351,山形県,西置賜郡小国町,小国町,ヤマガタケン,ニシオキタマグンオグニマチ,オグニマチ,山形県西置賜郡小国町小国町
9991352,山形県,西置賜郡小国町,岩井沢,ヤマガタケン,ニシオキタマグンオグニマチ,イワイザワ,山形県西置賜郡小国町岩井沢
9991353,山形県,西置賜郡小国町,兵庫舘,ヤマガタケン,ニシオキタマグンオグニマチ,ヒョウゴダテ,山形県西置賜郡小国町兵庫舘
9991354,山形県,西置賜郡小国町,幸町,ヤマガタケン,ニシオキタマグンオグニマチ,サイワイチョウ,山形県西置賜郡小国町幸町
9991355,山形県,西置賜郡小国町,西,ヤマガタケン,ニシオキタマグンオグニマチ,ニシ,山形県西置賜郡小国町西
9991356,山形県,西置賜郡小国町,あけぼの,ヤマガタケン,ニシオキタマグンオグニマチ,アケボノ,山形県西置賜郡小国町あけぼの
9991361,山形県,西置賜郡小国町,栄町,ヤマガタケン,ニシオキタマグンオグニマチ,サカエマチ,山形県西置賜郡小国町栄町
9991362,山形県,西置賜郡小国町,緑町,ヤマガタケン,ニシオキタマグンオグニマチ,ミドリチョウ,山形県西置賜郡小国町緑町
9991363,山形県,西置賜郡小国町,小国小坂町,ヤマガタケン,ニシオキタマグンオグニマチ,オグニコサカマチ,山形県西置賜郡小国町小国小坂町
9991401,山形県,西置賜郡小国町,舟渡,ヤマガタケン,ニシオキタマグンオグニマチ,フナト,山形県西置賜郡小国町舟渡
9991402,山形県,西置賜郡小国町,網代瀬,ヤマガタケン,ニシオキタマグンオグニマチ,アジロセ,山形県西置賜郡小国町網代瀬
9991411,山形県,西置賜郡小国町,松崎,ヤマガタケン,ニシオキタマグンオグニマチ,マツザキ,山形県西置賜郡小国町松崎
9991412,山形県,西置賜郡小国町,尻無沢,ヤマガタケン,ニシオキタマグンオグニマチ,シリナシザワ,山形県西置賜郡小国町尻無沢
9991413,山形県,西置賜郡小国町,今市,ヤマガタケン,ニシオキタマグンオグニマチ,イマイチ,山形県西置賜郡小国町今市
9991414,山形県,西置賜郡小国町,栃倉,ヤマガタケン,ニシオキタマグンオグニマチ,トチグラ,山形県西置賜郡小国町栃倉
9991421,山形県,西置賜郡小国町,越中里,ヤマガタケン,ニシオキタマグンオグニマチ,エッチュウザト,山形県西置賜郡小国町越中里
9991422,山形県,西置賜郡小国町,長沢,ヤマガタケン,ニシオキタマグンオグニマチ,ナガサワ,山形県西置賜郡小国町長沢
9991431,山形県,西置賜郡小国町,焼山,ヤマガタケン,ニシオキタマグンオグニマチ,ヤケヤマ,山形県西置賜郡小国町焼山
9991432,山形県,西置賜郡小国町,中島,ヤマガタケン,ニシオキタマグンオグニマチ,ナカジマ,山形県西置賜郡小国町中島
9991433,山形県,西置賜郡小国町,樋ノ沢,ヤマガタケン,ニシオキタマグンオグニマチ,ヒノサワ,山形県西置賜郡小国町樋ノ沢
9991434,山形県,西置賜郡小国町,荒沢,ヤマガタケン,ニシオキタマグンオグニマチ,アラサワ,山形県西置賜郡小国町荒沢
9991435,山形県,西置賜郡小国町,入折戸,ヤマガタケン,ニシオキタマグンオグニマチ,イリオリト,山形県西置賜郡小国町入折戸
9991436,山形県,西置賜郡小国町,折戸,ヤマガタケン,ニシオキタマグンオグニマチ,オリト,山形県西置賜郡小国町折戸
9991441,山形県,西置賜郡小国町,驚,ヤマガタケン,ニシオキタマグンオグニマチ,オドロク,山形県西置賜郡小国町驚
9991442,山形県,西置賜郡小国町,太鼓沢,ヤマガタケン,ニシオキタマグンオグニマチ,タイコザワ,山形県西置賜郡小国町太鼓沢
9991443,山形県,西置賜郡小国町,小股,ヤマガタケン,ニシオキタマグンオグニマチ,オマタ,山形県西置賜郡小国町小股
9991451,山形県,西置賜郡小国町,石滝,ヤマガタケン,ニシオキタマグンオグニマチ,イシダキ,山形県西置賜郡小国町石滝
9991452,山形県,西置賜郡小国町,五味沢,ヤマガタケン,ニシオキタマグンオグニマチ,ゴミザワ,山形県西置賜郡小国町五味沢
9991501,山形県,西置賜郡小国町,樽口,ヤマガタケン,ニシオキタマグンオグニマチ,タルグチ,山形県西置賜郡小国町樽口
9991502,山形県,西置賜郡小国町,滝倉,ヤマガタケン,ニシオキタマグンオグニマチ,タキグラ,山形県西置賜郡小国町滝倉
9991503,山形県,西置賜郡小国町,菅沼,ヤマガタケン,ニシオキタマグンオグニマチ,スガヌマ,山形県西置賜郡小国町菅沼
9991504,山形県,西置賜郡小国町,足水中里,ヤマガタケン,ニシオキタマグンオグニマチ,アシミズナカザト,山形県西置賜郡小国町足水中里
9991505,山形県,西置賜郡小国町,百子沢,ヤマガタケン,ニシオキタマグンオグニマチ,ヒャッコザワ,山形県西置賜郡小国町百子沢
9991506,山形県,西置賜郡小国町,市野沢,ヤマガタケン,ニシオキタマグンオグニマチ,イチノサワ,山形県西置賜郡小国町市野沢
9991507,山形県,西置賜郡小国町,足野水,ヤマガタケン,ニシオキタマグンオグニマチ,アシノミズ,山形県西置賜郡小国町足野水
9991511,山形県,西置賜郡小国町,玉川,ヤマガタケン,ニシオキタマグンオグニマチ,タマガワ,山形県西置賜郡小国町玉川
9991512,山形県,西置賜郡小国町,片貝,ヤマガタケン,ニシオキタマグンオグニマチ,カタカイ,山形県西置賜郡小国町片貝
9991513,山形県,西置賜郡小国町,中田山崎,ヤマガタケン,ニシオキタマグンオグニマチ,ナカダヤマザキ,山形県西置賜郡小国町中田山崎
9991514,山形県,西置賜郡小国町,玉川中里,ヤマガタケン,ニシオキタマグンオグニマチ,タマガワナカザト,山形県西置賜郡小国町玉川中里
9991521,山形県,西置賜郡小国町,泉岡,ヤマガタケン,ニシオキタマグンオグニマチ,イズミオカ,山形県西置賜郡小国町泉岡
9991522,山形県,西置賜郡小国町,小玉川,ヤマガタケン,ニシオキタマグンオグニマチ,コタマガワ,山形県西置賜郡小国町小玉川
9992171,山形県,東置賜郡高畠町,石岡,ヤマガタケン,ヒガシオキタマグンタカハタマチ,イシオカ,山形県東置賜郡高畠町石岡
9992172,山形県,東置賜郡高畠町,夏茂,ヤマガタケン,ヒガシオキタマグンタカハタマチ,ナツモ,山形県東置賜郡高畠町夏茂
9992173,山形県,東置賜郡高畠町,山崎,ヤマガタケン,ヒガシオキタマグンタカハタマチ,ヤマザキ,山形県東置賜郡高畠町山崎
9992174,山形県,東置賜郡高畠町,福沢,ヤマガタケン,ヒガシオキタマグンタカハタマチ,フクザワ,山形県東置賜郡高畠町福沢
9992175,山形県,東置賜郡高畠町,福沢南,ヤマガタケン,ヒガシオキタマグンタカハタマチ,フクザワミナミ,山形県東置賜郡高畠町福沢南
9992176,山形県,東置賜郡高畠町,糠野目,ヤマガタケン,ヒガシオキタマグンタカハタマチ,ヌカノメ,山形県東置賜郡高畠町糠野目
9992177,山形県,東置賜郡高畠町,小其塚,ヤマガタケン,ヒガシオキタマグンタカハタマチ,オソノヅカ,山形県東置賜郡高畠町小其塚
9992178,山形県,東置賜郡高畠町,上平柳,ヤマガタケン,ヒガシオキタマグンタカハタマチ,カミヒラヤナギ,山形県東置賜郡高畠町上平柳
9992179,山形県,東置賜郡高畠町,蛇口,ヤマガタケン,ヒガシオキタマグンタカハタマチ,ジャグチ,山形県東置賜郡高畠町蛇口
9992200,山形県,南陽市,,ヤマガタケン,ナンヨウシ,,山形県南陽市
9992201,山形県,南陽市,釜渡戸,ヤマガタケン,ナンヨウシ,カマノハタ,山形県南陽市釜渡戸
9992202,山形県,南陽市,元中山,ヤマガタケン,ナンヨウシ,モトナカヤマ,山形県南陽市元中山
9992203,山形県,南陽市,小岩沢,ヤマガタケン,ナンヨウシ,コイワサワ,山形県南陽市小岩沢
9992204,山形県,南陽市,川樋,ヤマガタケン,ナンヨウシ,カワトイ,山形県南陽市川樋
9992205,山形県,南陽市,新田,ヤマガタケン,ナンヨウシ,シンデン,山形県南陽市新田
9992211,山形県,南陽市,赤湯,ヤマガタケン,ナンヨウシ,アカユ,山形県南陽市赤湯
9992212,山形県,南陽市,金沢,ヤマガタケン,ナンヨウシ,カネザワ,山形県南陽市金沢
9992213,山形県,南陽市,松沢,ヤマガタケン,ナンヨウシ,マツザワ,山形県南陽市松沢
9992221,山形県,南陽市,椚塚,ヤマガタケン,ナンヨウシ,クヌギヅカ,山形県南陽市椚塚
9992222,山形県,南陽市,長岡,ヤマガタケン,ナンヨウシ,ナガオカ,山形県南陽市長岡
9992223,山形県,南陽市,俎柳,ヤマガタケン,ナンヨウシ,マナイタヤナギ,山形県南陽市俎柳
9992224,山形県,南陽市,大橋,ヤマガタケン,ナンヨウシ,オオハシ,山形県南陽市大橋
9992231,山形県,南陽市,二色根,ヤマガタケン,ナンヨウシ,ニイロネ,山形県南陽市二色根
9992232,山形県,南陽市,三間通,ヤマガタケン,ナンヨウシ,ミツマドオリ,山形県南陽市三間通
9992233,山形県,南陽市,上野,ヤマガタケン,ナンヨウシ,ワノ,山形県南陽市上野
9992234,山形県,南陽市,中央東,ヤマガタケン,ナンヨウシ,チュウオウヒガシ,山形県南陽市中央東
9992241,山形県,南陽市,郡山,ヤマガタケン,ナンヨウシ,コオリヤマ,山形県南陽市郡山
9992242,山形県,南陽市,中ノ目,ヤマガタケン,ナンヨウシ,ナカノメ,山形県南陽市中ノ目
9992243,山形県,南陽市,鍋田,ヤマガタケン,ナンヨウシ,ナベタ,山形県南陽市鍋田
9992244,山形県,南陽市,島貫,ヤマガタケン,ナンヨウシ,シマヌキ,山形県南陽市島貫
9992251,山形県,南陽市,高梨,ヤマガタケン,ナンヨウシ,タカナシ,山形県南陽市高梨
9992252,山形県,南陽市,沖田,ヤマガタケン,ナンヨウシ,オキタ,山形県南陽市沖田
9992253,山形県,南陽市,宮崎,ヤマガタケン,ナンヨウシ,ミヤザキ,山形県南陽市宮崎
9992254,山形県,南陽市,露橋,ヤマガタケン,ナンヨウシ,ツユハシ,山形県南陽市露橋
9992255,山形県,南陽市,関根,ヤマガタケン,ナンヨウシ,セキネ,山形県南陽市関根
9992256,山形県,南陽市,坂井,ヤマガタケン,ナンヨウシ,サカイ,山形県南陽市坂井
9992261,山形県,南陽市,蒲生田,ヤマガタケン,ナンヨウシ,カモウダ,山形県南陽市蒲生田
9992262,山形県,南陽市,若狭郷屋,ヤマガタケン,ナンヨウシ,ワカサゴウヤ,山形県南陽市若狭郷屋
9992263,山形県,南陽市,萩生田,ヤマガタケン,ナンヨウシ,ハギュウダ,山形県南陽市萩生田
9992264,山形県,南陽市,中落合,ヤマガタケン,ナンヨウシ,ナカオチアイ,山形県南陽市中落合
9992265,山形県,南陽市,西落合,ヤマガタケン,ナンヨウシ,ニシオチアイ,山形県南陽市西落合
9992266,山形県,南陽市,長瀞,ヤマガタケン,ナンヨウシ,ナガトロ,山形県南陽市長瀞
9992267,山形県,南陽市,法師柳,ヤマガタケン,ナンヨウシ,ホウシヤナギ,山形県南陽市法師柳
9993100,山形県,上山市,,ヤマガタケン,カミノヤマシ,,山形県上山市
9993101,山形県,上山市,金瓶,ヤマガタケン,カミノヤマシ,カナカメ,山形県上山市金瓶
9993102,山形県,上山市,新金谷,ヤマガタケン,カミノヤマシ,シンカナヤ,山形県上山市新金谷
9993103,山形県,上山市,金谷,ヤマガタケン,カミノヤマシ,カナヤ,山形県上山市金谷
9993104,山形県,上山市,蔵王の森,ヤマガタケン,カミノヤマシ,ザオウノモリ,山形県上山市蔵王の森
9993105,山形県,上山市,泉川,ヤマガタケン,カミノヤマシ,イズミカワ,山形県上山市泉川
9993106,山形県,上山市,旭町,ヤマガタケン,カミノヤマシ,アサヒマチ,山形県上山市旭町
9993107,山形県,上山市,みはらしの丘,ヤマガタケン,カミノヤマシ,ミハラシノオカ,山形県上山市みはらしの丘
9993111,山形県,上山市,権現堂,ヤマガタケン,カミノヤマシ,ゴンゲンドウ,山形県上山市権現堂
9993112,山形県,上山市,小倉,ヤマガタケン,カミノヤマシ,オグラ,山形県上山市小倉
9993113,山形県,上山市,蔵王,ヤマガタケン,カミノヤマシ,ザオウ,山形県上山市蔵王
9993114,山形県,上山市,永野,ヤマガタケン,カミノヤマシ,ナガノ,山形県上山市永野
9993115,山形県,上山市,高野,ヤマガタケン,カミノヤマシ,コウヤ,山形県上山市高野
9993121,山形県,上山市,東町,ヤマガタケン,カミノヤマシ,ヒガシマチ,山形県上山市東町
9993122,山形県,上山市,仙石,ヤマガタケン,カミノヤマシ,センゴク,山形県上山市仙石
9993123,山形県,上山市,美咲町,ヤマガタケン,カミノヤマシ,ミサキチョウ,山形県上山市美咲町
9993124,山形県,上山市,金生,ヤマガタケン,カミノヤマシ,カナオイ,山形県上山市金生
9993125,山形県,上山市,金生東,ヤマガタケン,カミノヤマシ,カナオイヒガシ,山形県上山市金生東
9993126,山形県,上山市,金生西,ヤマガタケン,カミノヤマシ,カナオイニシ,山形県上山市金生西
9993131,山形県,上山市,北町,ヤマガタケン,カミノヤマシ,キタマチ,山形県上山市北町
9993132,山形県,上山市,栄町,ヤマガタケン,カミノヤマシ,サカエマチ,山形県上山市栄町
9993133,山形県,上山市,八日町,ヤマガタケン,カミノヤマシ,ヨウカマチ,山形県上山市八日町
9993134,山形県,上山市,矢来,ヤマガタケン,カミノヤマシ,ヤライ,山形県上山市矢来
9993135,山形県,上山市,南町,ヤマガタケン,カミノヤマシ,ミナミマチ,山形県上山市南町
9993141,山形県,上山市,新湯,ヤマガタケン,カミノヤマシ,シンユ,山形県上山市新湯
9993142,山形県,上山市,沢丁,ヤマガタケン,カミノヤマシ,サワチョウ,山形県上山市沢丁
9993143,山形県,上山市,二日町,ヤマガタケン,カミノヤマシ,フツカマチ,山形県上山市二日町
9993144,山形県,上山市,石崎,ヤマガタケン,カミノヤマシ,イシザキ,山形県上山市石崎
9993145,山形県,上山市,河崎,ヤマガタケン,カミノヤマシ,カワサキ,山形県上山市河崎
9993146,山形県,上山市,松山,ヤマガタケン,カミノヤマシ,マツヤマ,山形県上山市松山
9993151,山形県,上山市,北町本丁,ヤマガタケン,カミノヤマシ,キタマチホンチョウ,山形県上山市北町本丁
9993152,山形県,上山市,新丁,ヤマガタケン,カミノヤマシ,シンチョウ,山形県上山市新丁
9993153,山形県,上山市,十日町,ヤマガタケン,カミノヤマシ,トオカマチ,山形県上山市十日町
9993154,山形県,上山市,元城内,ヤマガタケン,カミノヤマシ,モトジョウナイ,山形県上山市元城内
9993155,山形県,上山市,鶴脛町,ヤマガタケン,カミノヤマシ,ツルハギチョウ,山形県上山市鶴脛町
9993156,山形県,上山市,湯町,ヤマガタケン,カミノヤマシ,ユマチ,山形県上山市湯町
9993157,山形県,上山市,御井戸丁,ヤマガタケン,カミノヤマシ,オイドチョウ,山形県上山市御井戸丁
9993158,山形県,上山市,新町,ヤマガタケン,カミノヤマシ,シンマチ,山形県上山市新町
9993161,山形県,上山市,弁天,ヤマガタケン,カミノヤマシ,ベンテン,山形県上山市弁天
9993162,山形県,上山市,四ツ谷,ヤマガタケン,カミノヤマシ,ヨツヤ,山形県上山市四ツ谷
9993163,山形県,上山市,軽井沢,ヤマガタケン,カミノヤマシ,カルイザワ,山形県上山市軽井沢
9993164,山形県,上山市,朝日台,ヤマガタケン,カミノヤマシ,アサヒダイ,山形県上山市朝日台
9993165,山形県,上山市,裏町,ヤマガタケン,カミノヤマシ,ウラマチ,山形県上山市裏町
9993166,山形県,上山市,久保手,ヤマガタケン,カミノヤマシ,クボテ,山形県上山市久保手
9993167,山形県,上山市,大石,ヤマガタケン,カミノヤマシ,オオイシ,山形県上山市大石
9993171,山形県,上山市,狸森,ヤマガタケン,カミノヤマシ,ムジナモリ,山形県上山市狸森
9993172,山形県,上山市,小白府,ヤマガタケン,カミノヤマシ,オジラフ,山形県上山市小白府
9993201,山形県,上山市,宮脇,ヤマガタケン,カミノヤマシ,ミヤノワキ,山形県上山市宮脇
9993202,山形県,上山市,下生居,ヤマガタケン,カミノヤマシ,シモナマイ,山形県上山市下生居
9993203,山形県,上山市,中生居,ヤマガタケン,カミノヤマシ,ナカナマイ,山形県上山市中生居
9993204,山形県,上山市,上生居,ヤマガタケン,カミノヤマシ,カミナマイ,山形県上山市上生居
9993211,山形県,上山市,牧野,ヤマガタケン,カミノヤマシ,マギノ,山形県上山市牧野
9993212,山形県,上山市,原口,ヤマガタケン,カミノヤマシ,ハラグチ,山形県上山市原口
9993213,山形県,上山市,須田板,ヤマガタケン,カミノヤマシ,スダイタ,山形県上山市須田板
9993214,山形県,上山市,小笹,ヤマガタケン,カミノヤマシ,オザサ,山形県上山市小笹
9993215,山形県,上山市,久保川,ヤマガタケン,カミノヤマシ,クボカワ,山形県上山市久保川
9993216,山形県,上山市,大門,ヤマガタケン,カミノヤマシ,ダイモン,山形県上山市大門
9993217,山形県,上山市,菖蒲,ヤマガタケン,カミノヤマシ,ショウブ,山形県上山市菖蒲
9993221,山形県,上山市,関根,ヤマガタケン,カミノヤマシ,セキネ,山形県上山市関根
9993222,山形県,上山市,相生,ヤマガタケン,カミノヤマシ,アイオイ,山形県上山市相生
9993223,山形県,上山市,三上,ヤマガタケン,カミノヤマシ,ミカミ,山形県上山市三上
9993224,山形県,上山市,皆沢,ヤマガタケン,カミノヤマシ,ミナザワ,山形県上山市皆沢
9993225,山形県,上山市,楢下,ヤマガタケン,カミノヤマシ,ナラゲ,山形県上山市楢下
9993226,山形県,上山市,金山,ヤマガタケン,カミノヤマシ,カネヤマ,山形県上山市金山
9993231,山形県,上山市,石堂,ヤマガタケン,カミノヤマシ,イシドウ,山形県上山市石堂
9993232,山形県,上山市,長清水,ヤマガタケン,カミノヤマシ,ナガシミズ,山形県上山市長清水
9993233,山形県,上山市,三本松,ヤマガタケン,カミノヤマシ,サンボンマツ,山形県上山市三本松
9993234,山形県,上山市,藤吾,ヤマガタケン,カミノヤマシ,トウゴ,山形県上山市藤吾
9993235,山形県,上山市,阿弥陀地,ヤマガタケン,カミノヤマシ,アミダチ,山形県上山市阿弥陀地
9993236,山形県,上山市,細谷,ヤマガタケン,カミノヤマシ,ホソヤ,山形県上山市細谷
9993237,山形県,上山市,小穴,ヤマガタケン,カミノヤマシ,コアナ,山形県上山市小穴
9993241,山形県,上山市,けやきの森,ヤマガタケン,カミノヤマシ,ケヤキノモリ,山形県上山市けやきの森
9993242,山形県,上山市,葉山,ヤマガタケン,カミノヤマシ,ハヤマ,山形県上山市葉山
9993243,山形県,上山市,高松,ヤマガタケン,カミノヤマシ,タカマツ,山形県上山市高松
9993244,山形県,上山市,石曽根,ヤマガタケン,カミノヤマシ,イシゾネ,山形県上山市石曽根
9993245,山形県,上山市,川口,ヤマガタケン,カミノヤマシ,カワグチ,山形県上山市川口
9993246,山形県,上山市,中山,ヤマガタケン,カミノヤマシ,ナカヤマ,山形県上山市中山
9993301,山形県,山形市,山寺,ヤマガタケン,ヤマガタシ,ヤマデラ,山形県山形市山寺
9993500,山形県,西村山郡河北町,,ヤマガタケン,ニシムラヤマグンカホクチョウ,,山形県西村山郡河北町
9993501,山形県,西村山郡河北町,新吉田,ヤマガタケン,ニシムラヤマグンカホクチョウ,シンヨシダ,山形県西村山郡河北町新吉田
9993502,山形県,西村山郡河北町,吉田,ヤマガタケン,ニシムラヤマグンカホクチョウ,ヨシダ,山形県西村山郡河北町吉田
9993503,山形県,西村山郡河北町,岩木,ヤマガタケン,ニシムラヤマグンカホクチョウ,イワキ,山形県西村山郡河北町岩木
9993511,山形県,西村山郡河北町,谷地,ヤマガタケン,ニシムラヤマグンカホクチョウ,ヤチ,山形県西村山郡河北町谷地
9993512,山形県,西村山郡河北町,谷地中央,ヤマガタケン,ニシムラヤマグンカホクチョウ,ヤチチュウオウ,山形県西村山郡河北町谷地中央
9993513,山形県,西村山郡河北町,谷地所岡,ヤマガタケン,ニシムラヤマグンカホクチョウ,ヤチトコロオカ,山形県西村山郡河北町谷地所岡
9993514,山形県,西村山郡河北町,谷地ひな市,ヤマガタケン,ニシムラヤマグンカホクチョウ,ヤチヒナイチ,山形県西村山郡河北町谷地ひな市
9993515,山形県,西村山郡河北町,谷地荒町東,ヤマガタケン,ニシムラヤマグンカホクチョウ,ヤチアラマチヒガシ,山形県西村山郡河北町谷地荒町東
9993521,山形県,西村山郡河北町,田井,ヤマガタケン,ニシムラヤマグンカホクチョウ,ダイ,山形県西村山郡河北町田井
9993522,山形県,西村山郡河北町,溝延,ヤマガタケン,ニシムラヤマグンカホクチョウ,ミゾノベ,山形県西村山郡河北町溝延
9993531,山形県,西村山郡河北町,畑中,ヤマガタケン,ニシムラヤマグンカホクチョウ,ハタケナカ,山形県西村山郡河北町畑中
9993532,山形県,西村山郡河北町,造山,ヤマガタケン,ニシムラヤマグンカホクチョウ,ツクリヤマ,山形県西村山郡河北町造山
9993533,山形県,西村山郡河北町,西里,ヤマガタケン,ニシムラヤマグンカホクチョウ,ニシザト,山形県西村山郡河北町西里
9993700,山形県,東根市,,ヤマガタケン,ヒガシネシ,,山形県東根市
9993701,山形県,東根市,東根甲,ヤマガタケン,ヒガシネシ,ヒガシネコウ,山形県東根市東根甲
9993702,山形県,東根市,温泉町,ヤマガタケン,ヒガシネシ,オンセンマチ,山形県東根市温泉町
9993703,山形県,東根市,鷺ノ森,ヤマガタケン,ヒガシネシ,サギノモリ,山形県東根市鷺ノ森
9993704,山形県,東根市,東根丙,ヤマガタケン,ヒガシネシ,ヒガシネヘイ,山形県東根市東根丙
9993705,山形県,東根市,宮崎,ヤマガタケン,ヒガシネシ,ミヤザキ,山形県東根市宮崎
9993706,山形県,東根市,三日町,ヤマガタケン,ヒガシネシ,ミッカマチ,山形県東根市三日町
9993707,山形県,東根市,新田町,ヤマガタケン,ヒガシネシ,シンデンマチ,山形県東根市新田町
9993708,山形県,東根市,下川原,ヤマガタケン,ヒガシネシ,シモガワラ,山形県東根市下川原
9993709,山形県,東根市,六田,ヤマガタケン,ヒガシネシ,ロクタ,山形県東根市六田
9993710,山形県,東根市,小林,ヤマガタケン,ヒガシネシ,コバヤシ,山形県東根市小林
9993711,山形県,東根市,中央,ヤマガタケン,ヒガシネシ,チュウオウ,山形県東根市中央
9993712,山形県,東根市,大森,ヤマガタケン,ヒガシネシ,オオモリ,山形県東根市大森
9993713,山形県,東根市,東根丁,ヤマガタケン,ヒガシネシ,ヒガシネテイ,山形県東根市東根丁
9993714,山形県,東根市,大林,ヤマガタケン,ヒガシネシ,オオバヤシ,山形県東根市大林
9993715,山形県,東根市,大林新田,ヤマガタケン,ヒガシネシ,オオバヤシシンデン,山形県東根市大林新田
9993716,山形県,東根市,蟹沢,ヤマガタケン,ヒガシネシ,カニサワ,山形県東根市蟹沢
9993717,山形県,東根市,一本木,ヤマガタケン,ヒガシネシ,イッポンギ,山形県東根市一本木
9993718,山形県,東根市,四ツ家,ヤマガタケン,ヒガシネシ,ヨツヤ,山形県東根市四ツ家
9993719,山形県,東根市,中央西,ヤマガタケン,ヒガシネシ,チュウオウニシ,山形県東根市中央西
9993720,山形県,東根市,さくらんぼ駅前,ヤマガタケン,ヒガシネシ,サクランボエキマエ,山形県東根市さくらんぼ駅前
9993721,山形県,東根市,東根乙,ヤマガタケン,ヒガシネシ,ヒガシネオツ,山形県東根市東根乙
9993722,山形県,東根市,泉郷,ヤマガタケン,ヒガシネシ,イズミゴウ,山形県東根市泉郷
9993723,山形県,東根市,観音寺,ヤマガタケン,ヒガシネシ,カンノンジ,山形県東根市観音寺
9993724,山形県,東根市,関山,ヤマガタケン,ヒガシネシ,セキヤマ,山形県東根市関山
9993725,山形県,東根市,沼沢,ヤマガタケン,ヒガシネシ,ヌマザワ,山形県東根市沼沢
9993726,山形県,東根市,猪野沢,ヤマガタケン,ヒガシネシ,イノサワ,山形県東根市猪野沢
9993727,山形県,東根市,野川,ヤマガタケン,ヒガシネシ,ノガワ,山形県東根市野川
9993728,山形県,東根市,太田新田,ヤマガタケン,ヒガシネシ,オオタシンデン,山形県東根市太田新田
9993729,山形県,東根市,中央東,ヤマガタケン,ヒガシネシ,チュウオウヒガシ,山形県東根市中央東
9993730,山形県,東根市,中央南,ヤマガタケン,ヒガシネシ,チュウオウミナミ,山形県東根市中央南
9993731,山形県,東根市,神町営団大通り,ヤマガタケン,ヒガシネシ,ジンマチエイダンオオドオリ,山形県東根市神町営団大通り
9993732,山形県,東根市,神町営団中通り,ヤマガタケン,ヒガシネシ,ジンマチエイダンナカドオリ,山形県東根市神町営団中通り
9993733,山形県,東根市,神町営団三条通り,ヤマガタケン,ヒガシネシ,ジンマチエイダン3ジョウドオリ,山形県東根市神町営団三条通り
9993734,山形県,東根市,神町営団二条通り,ヤマガタケン,ヒガシネシ,ジンマチエイダン2ジョウドオリ,山形県東根市神町営団二条通り
9993735,山形県,東根市,神町営団一条通り,ヤマガタケン,ヒガシネシ,ジンマチエイダン1ジョウドオリ,山形県東根市神町営団一条通り
9993736,山形県,東根市,神町営団南通り,ヤマガタケン,ヒガシネシ,ジンマチエイダンミナミドオリ,山形県東根市神町営団南通り
9993737,山形県,東根市,若木,ヤマガタケン,ヒガシネシ,オサナギ,山形県東根市若木
9993738,山形県,東根市,若木大通り,ヤマガタケン,ヒガシネシ,オサナギオオドオリ,山形県東根市若木大通り
9993741,山形県,東根市,中島東通り,ヤマガタケン,ヒガシネシ,ナカジマヒガシドオリ,山形県東根市中島東通り
9993742,山形県,東根市,中島通り,ヤマガタケン,ヒガシネシ,ナカジマドオリ,山形県東根市中島通り
9993743,山形県,東根市,中島新田,ヤマガタケン,ヒガシネシ,ナカジマシンデン,山形県東根市中島新田
9993744,山形県,東根市,板垣北通り,ヤマガタケン,ヒガシネシ,イタガキキタドオリ,山形県東根市板垣北通り
9993745,山形県,東根市,板垣中通り,ヤマガタケン,ヒガシネシ,イタガキナカドオリ,山形県東根市板垣中通り
9993746,山形県,東根市,板垣新田,ヤマガタケン,ヒガシネシ,イタガキシンデン,山形県東根市板垣新田
9993747,山形県,東根市,板垣大通り,ヤマガタケン,ヒガシネシ,イタガキオオドオリ,山形県東根市板垣大通り
9993748,山形県,東根市,板垣西小路,ヤマガタケン,ヒガシネシ,イタガキニシコウジ,山形県東根市板垣西小路
9993749,山形県,東根市,板垣北小路,ヤマガタケン,ヒガシネシ,イタガキキタコウジ,山形県東根市板垣北小路
9993751,山形県,東根市,若木通り,ヤマガタケン,ヒガシネシ,オサナギドオリ,山形県東根市若木通り
9993752,山形県,東根市,若木五条通り,ヤマガタケン,ヒガシネシ,オサナギ5ジョウドオリ,山形県東根市若木五条通り
9993753,山形県,東根市,若木四条通り,ヤマガタケン,ヒガシネシ,オサナギ4ジョウドオリ,山形県東根市若木四条通り
9993754,山形県,東根市,若木三条通り,ヤマガタケン,ヒガシネシ,オサナギ3ジョウドオリ,山形県東根市若木三条通り
9993755,山形県,東根市,若木二条通り,ヤマガタケン,ヒガシネシ,オサナギ2ジョウドオリ,山形県東根市若木二条通り
9993756,山形県,東根市,若木一条通り,ヤマガタケン,ヒガシネシ,オサナギ1ジョウドオリ,山形県東根市若木一条通り
9993757,山形県,東根市,若木小路,ヤマガタケン,ヒガシネシ,オサナギコウジ,山形県東根市若木小路
9993761,山形県,東根市,神町,ヤマガタケン,ヒガシネシ,ジンマチ,山形県東根市神町
9993762,山形県,東根市,神町北,ヤマガタケン,ヒガシネシ,ジンマチキタ,山形県東根市神町北
9993763,山形県,東根市,神町中央,ヤマガタケン,ヒガシネシ,ジンマチチュウオウ,山形県東根市神町中央
9993764,山形県,東根市,神町東,ヤマガタケン,ヒガシネシ,ジンマチヒガシ,山形県東根市神町東
9993765,山形県,東根市,神町南,ヤマガタケン,ヒガシネシ,ジンマチミナミ,山形県東根市神町南
9993766,山形県,東根市,神町西,ヤマガタケン,ヒガシネシ,ジンマチニシ,山形県東根市神町西
9993770,山形県,東根市,柏原,ヤマガタケン,ヒガシネシ,カシワバラ,山形県東根市柏原
9993771,山形県,東根市,長瀞,ヤマガタケン,ヒガシネシ,ナガトロ,山形県東根市長瀞
9993772,山形県,東根市,松沢,ヤマガタケン,ヒガシネシ,マツザワ,山形県東根市松沢
9993773,山形県,東根市,島大堀,ヤマガタケン,ヒガシネシ,シマオオホリ,山形県東根市島大堀
9993774,山形県,東根市,郡山,ヤマガタケン,ヒガシネシ,コオリヤマ,山形県東根市郡山
9993775,山形県,東根市,野田,ヤマガタケン,ヒガシネシ,ノダ,山形県東根市野田
9993776,山形県,東根市,羽入,ヤマガタケン,ヒガシネシ,ハニュウ,山形県東根市羽入
9993777,山形県,東根市,荷口,ヤマガタケン,ヒガシネシ,ニクチ,山形県東根市荷口
9993778,山形県,東根市,藤助新田,ヤマガタケン,ヒガシネシ,トウスケシンデン,山形県東根市藤助新田
9993779,山形県,東根市,羽入東,ヤマガタケン,ヒガシネシ,ハニュウヒガシ,山形県東根市羽入東
9993781,山形県,東根市,本丸北,ヤマガタケン,ヒガシネシ,ホンマルキタ,山形県東根市本丸北
9993782,山形県,東根市,本丸東,ヤマガタケン,ヒガシネシ,ホンマルヒガシ,山形県東根市本丸東
9993783,山形県,東根市,本丸南,ヤマガタケン,ヒガシネシ,ホンマルミナミ,山形県東根市本丸南
9993784,山形県,東根市,本町,ヤマガタケン,ヒガシネシ,ホンチョウ,山形県東根市本町
9993785,山形県,東根市,本丸西,ヤマガタケン,ヒガシネシ,ホンマルニシ,山形県東根市本丸西
9993786,山形県,東根市,鷺の宿,ヤマガタケン,ヒガシネシ,サギノシュク,山形県東根市鷺の宿
9993787,山形県,東根市,白水,ヤマガタケン,ヒガシネシ,シロミズ,山形県東根市白水
9994100,山形県,北村山郡大石田町,,ヤマガタケン,キタムラヤマグンオオイシダマチ,,山形県北村山郡大石田町
9994101,山形県,北村山郡大石田町,鷹巣（その他）,ヤマガタケン,キタムラヤマグンオオイシダマチ,タカノス(ソノタ),山形県北村山郡大石田町鷹巣（その他）
9994102,山形県,北村山郡大石田町,海谷,ヤマガタケン,キタムラヤマグンオオイシダマチ,カイヤ,山形県北村山郡大石田町海谷
9994103,山形県,北村山郡大石田町,岩ケ袋,ヤマガタケン,キタムラヤマグンオオイシダマチ,イワガフクロ,山形県北村山郡大石田町岩ケ袋
9994111,山形県,北村山郡大石田町,大石田,ヤマガタケン,キタムラヤマグンオオイシダマチ,オオイシダ,山形県北村山郡大石田町大石田
9994112,山形県,北村山郡大石田町,緑町,ヤマガタケン,キタムラヤマグンオオイシダマチ,ミドリチョウ,山形県北村山郡大石田町緑町
9994113,山形県,北村山郡大石田町,今宿,ヤマガタケン,キタムラヤマグンオオイシダマチ,イマシュク,山形県北村山郡大石田町今宿
9994114,山形県,北村山郡大石田町,四日町,ヤマガタケン,キタムラヤマグンオオイシダマチ,ヨッカマチ,山形県北村山郡大石田町四日町
9994115,山形県,北村山郡大石田町,桂木町,ヤマガタケン,キタムラヤマグンオオイシダマチ,カツラギチョウ,山形県北村山郡大石田町桂木町
9994116,山形県,北村山郡大石田町,駅前通り,ヤマガタケン,キタムラヤマグンオオイシダマチ,エキマエドオリ,山形県北村山郡大石田町駅前通り
9994121,山形県,北村山郡大石田町,横山,ヤマガタケン,キタムラヤマグンオオイシダマチ,ヨコヤマ,山形県北村山郡大石田町横山
9994122,山形県,北村山郡大石田町,田沢,ヤマガタケン,キタムラヤマグンオオイシダマチ,タザワ,山形県北村山郡大石田町田沢
9994131,山形県,北村山郡大石田町,大浦,ヤマガタケン,キタムラヤマグンオオイシダマチ,オオウラ,山形県北村山郡大石田町大浦
9994132,山形県,北村山郡大石田町,駒籠,ヤマガタケン,キタムラヤマグンオオイシダマチ,コマゴメ,山形県北村山郡大石田町駒籠
9994133,山形県,北村山郡大石田町,川前,ヤマガタケン,キタムラヤマグンオオイシダマチ,カワマエ,山形県北村山郡大石田町川前
9994134,山形県,北村山郡大石田町,豊田,ヤマガタケン,キタムラヤマグンオオイシダマチ,トヨダ,山形県北村山郡大石田町豊田
9994141,山形県,北村山郡大石田町,次年子,ヤマガタケン,キタムラヤマグンオオイシダマチ,ジネンゴ,山形県北村山郡大石田町次年子
9994200,山形県,尾花沢市,,ヤマガタケン,オバナザワシ,,山形県尾花沢市
9994201,山形県,尾花沢市,高橋,ヤマガタケン,オバナザワシ,タカハシ,山形県尾花沢市高橋
9994202,山形県,尾花沢市,行沢,ヤマガタケン,オバナザワシ,ナメサワ,山形県尾花沢市行沢
9994203,山形県,尾花沢市,中島,ヤマガタケン,オバナザワシ,ナカジマ,山形県尾花沢市中島
9994204,山形県,尾花沢市,上ノ畑（１７５−８）,ヤマガタケン,オバナザワシ,カミノハタ(175-8),山形県尾花沢市上ノ畑（175-8）
9994205,山形県,尾花沢市,押切,ヤマガタケン,オバナザワシ,オシキリ,山形県尾花沢市押切
9994206,山形県,尾花沢市,富山,ヤマガタケン,オバナザワシ,トミヤマ,山形県尾花沢市富山
9994207,山形県,尾花沢市,岩谷沢,ヤマガタケン,オバナザワシ,イワヤサワ,山形県尾花沢市岩谷沢
9994208,山形県,尾花沢市,市野々,ヤマガタケン,オバナザワシ,イチノノ,山形県尾花沢市市野々
9994211,山形県,尾花沢市,正厳,ヤマガタケン,オバナザワシ,ショウゴン,山形県尾花沢市正厳
9994212,山形県,尾花沢市,二藤袋,ヤマガタケン,オバナザワシ,ニトウブクロ,山形県尾花沢市二藤袋
9994213,山形県,尾花沢市,丹生,ヤマガタケン,オバナザワシ,ニュウ,山形県尾花沢市丹生
9994214,山形県,尾花沢市,牛房野,ヤマガタケン,オバナザワシ,ゴボウノ,山形県尾花沢市牛房野
9994221,山形県,尾花沢市,尾花沢,ヤマガタケン,オバナザワシ,オバナザワ,山形県尾花沢市尾花沢
9994222,山形県,尾花沢市,朧気,ヤマガタケン,オバナザワシ,オボロケ,山形県尾花沢市朧気
9994223,山形県,尾花沢市,五十沢,ヤマガタケン,オバナザワシ,イサザワ,山形県尾花沢市五十沢
9994224,山形県,尾花沢市,新町,ヤマガタケン,オバナザワシ,シンマチ,山形県尾花沢市新町
9994225,山形県,尾花沢市,若葉町,ヤマガタケン,オバナザワシ,ワカバチョウ,山形県尾花沢市若葉町
9994226,山形県,尾花沢市,新町中央,ヤマガタケン,オバナザワシ,シンマチチュウオウ,山形県尾花沢市新町中央
9994227,山形県,尾花沢市,中町,ヤマガタケン,オバナザワシ,ナカマチ,山形県尾花沢市中町
9994228,山形県,尾花沢市,上町,ヤマガタケン,オバナザワシ,カンマチ,山形県尾花沢市上町
9994229,山形県,尾花沢市,横町,ヤマガタケン,オバナザワシ,ヨコマチ,山形県尾花沢市横町
9994231,山形県,尾花沢市,北町,ヤマガタケン,オバナザワシ,キタマチ,山形県尾花沢市北町
9994232,山形県,尾花沢市,梺町,ヤマガタケン,オバナザワシ,フモトマチ,山形県尾花沢市梺町
9994304,山形県,尾花沢市,上ノ畑（その他）,ヤマガタケン,オバナザワシ,カミノハタ(ソノタ),山形県尾花沢市上ノ畑（その他）
9994331,山形県,尾花沢市,母袋,ヤマガタケン,オバナザワシ,モタイ,山形県尾花沢市母袋
9994332,山形県,尾花沢市,上柳渡戸,ヤマガタケン,オバナザワシ,カミヤナギワタリド,山形県尾花沢市上柳渡戸
9994333,山形県,尾花沢市,銀山新畑,ヤマガタケン,オバナザワシ,ギンザンシンハタ,山形県尾花沢市銀山新畑
9994334,山形県,尾花沢市,下柳渡戸,ヤマガタケン,オバナザワシ,シモヤナギワタリド,山形県尾花沢市下柳渡戸
9994335,山形県,尾花沢市,原田,ヤマガタケン,オバナザワシ,ハラダ,山形県尾花沢市原田
9994336,山形県,尾花沢市,北郷,ヤマガタケン,オバナザワシ,キタゴウ,山形県尾花沢市北郷
9994337,山形県,尾花沢市,鶴巻田,ヤマガタケン,オバナザワシ,ツルマキタ,山形県尾花沢市鶴巻田
9994441,山形県,尾花沢市,延沢,ヤマガタケン,オバナザワシ,ノベサワ,山形県尾花沢市延沢
9994442,山形県,尾花沢市,六沢,ヤマガタケン,オバナザワシ,ロクサワ,山形県尾花沢市六沢
9994443,山形県,尾花沢市,鶴子,ヤマガタケン,オバナザワシ,ツルコ,山形県尾花沢市鶴子
9994444,山形県,尾花沢市,細野,ヤマガタケン,オバナザワシ,ホソノ,山形県尾花沢市細野
9994445,山形県,尾花沢市,畑沢,ヤマガタケン,オバナザワシ,ハタサワ,山形県尾花沢市畑沢
9994551,山形県,尾花沢市,寺内,ヤマガタケン,オバナザワシ,テラウチ,山形県尾花沢市寺内
9994552,山形県,尾花沢市,荻袋,ヤマガタケン,オバナザワシ,オギノフクロ,山形県尾花沢市荻袋
9994553,山形県,尾花沢市,野黒沢,ヤマガタケン,オバナザワシ,ノクロサワ,山形県尾花沢市野黒沢
9994554,山形県,北村山郡大石田町,鷹巣（岡草山）,ヤマガタケン,キタムラヤマグンオオイシダマチ,タカノス(オカクサヤマ),山形県北村山郡大石田町鷹巣（岡草山）
9994554,山形県,尾花沢市,芦沢,ヤマガタケン,オバナザワシ,アシザワ,山形県尾花沢市芦沢
9994555,山形県,尾花沢市,毒沢,ヤマガタケン,オバナザワシ,ドクサワ,山形県尾花沢市毒沢
9994556,山形県,尾花沢市,名木沢,ヤマガタケン,オバナザワシ,ナキサワ,山形県尾花沢市名木沢
9994557,山形県,尾花沢市,南沢,ヤマガタケン,オバナザワシ,ミナミサワ,山形県尾花沢市南沢
9994600,山形県,最上郡舟形町,,ヤマガタケン,モガミグンフナガタマチ,,山形県最上郡舟形町
9994601,山形県,最上郡舟形町,舟形,ヤマガタケン,モガミグンフナガタマチ,フナガタ,山形県最上郡舟形町舟形
9994602,山形県,最上郡舟形町,長者原,ヤマガタケン,モガミグンフナガタマチ,チョウジャハラ,山形県最上郡舟形町長者原
9994603,山形県,最上郡舟形町,富田,ヤマガタケン,モガミグンフナガタマチ,トミタ,山形県最上郡舟形町富田
9994604,山形県,最上郡舟形町,堀内,ヤマガタケン,モガミグンフナガタマチ,ホリウチ,山形県最上郡舟形町堀内
9994605,山形県,最上郡舟形町,長沢,ヤマガタケン,モガミグンフナガタマチ,ナガサワ,山形県最上郡舟形町長沢
9995101,山形県,新庄市,昭和,ヤマガタケン,シンジョウシ,ショウワ,山形県新庄市昭和
9995102,山形県,新庄市,萩野,ヤマガタケン,シンジョウシ,ハギノ,山形県新庄市萩野
9995103,山形県,新庄市,泉田,ヤマガタケン,シンジョウシ,イズミタ,山形県新庄市泉田
9995191,山形県,新庄市,十日町（猫屋敷３２９〜３５６）,ヤマガタケン,シンジョウシ,トオカマチ(ネコヤシキ329-356),山形県新庄市十日町（猫屋敷329〜356）
9995200,山形県,最上郡鮭川村,,ヤマガタケン,モガミグンサケガワムラ,,山形県最上郡鮭川村
9995201,山形県,最上郡鮭川村,京塚,ヤマガタケン,モガミグンサケガワムラ,キョウヅカ,山形県最上郡鮭川村京塚
9995202,山形県,最上郡鮭川村,佐渡,ヤマガタケン,モガミグンサケガワムラ,サド,山形県最上郡鮭川村佐渡
9995203,山形県,最上郡鮭川村,川口,ヤマガタケン,モガミグンサケガワムラ,カワグチ,山形県最上郡鮭川村川口
9995204,山形県,最上郡鮭川村,向居,ヤマガタケン,モガミグンサケガワムラ,ムカイ,山形県最上郡鮭川村向居
9995205,山形県,最上郡鮭川村,中渡,ヤマガタケン,モガミグンサケガワムラ,ナカワタリ,山形県最上郡鮭川村中渡
9995206,山形県,最上郡鮭川村,曲川,ヤマガタケン,モガミグンサケガワムラ,マガリガワ,山形県最上郡鮭川村曲川
9995207,山形県,最上郡鮭川村,庭月,ヤマガタケン,モガミグンサケガワムラ,ニワヅキ,山形県最上郡鮭川村庭月
9995208,山形県,最上郡鮭川村,石名坂,ヤマガタケン,モガミグンサケガワムラ,イシナザカ,山形県最上郡鮭川村石名坂
9995300,山形県,最上郡真室川町,,ヤマガタケン,モガミグンマムロガワマチ,,山形県最上郡真室川町
9995301,山形県,最上郡真室川町,川ノ内（その他）,ヤマガタケン,モガミグンマムロガワマチ,カワノウチ(ソノタ),山形県最上郡真室川町川ノ内（その他）
9995311,山形県,最上郡真室川町,平岡,ヤマガタケン,モガミグンマムロガワマチ,ヒラオカ,山形県最上郡真室川町平岡
9995312,山形県,最上郡真室川町,新町,ヤマガタケン,モガミグンマムロガワマチ,アラマチ,山形県最上郡真室川町新町
9995313,山形県,最上郡真室川町,内町,ヤマガタケン,モガミグンマムロガワマチ,ウチマチ,山形県最上郡真室川町内町
9995314,山形県,最上郡真室川町,木ノ下,ヤマガタケン,モガミグンマムロガワマチ,キノシタ,山形県最上郡真室川町木ノ下
9995400,山形県,最上郡金山町,,ヤマガタケン,モガミグンカネヤママチ,,山形県最上郡金山町
9995401,山形県,最上郡金山町,有屋,ヤマガタケン,モガミグンカネヤママチ,アリヤ,山形県最上郡金山町有屋
9995402,山形県,最上郡金山町,金山,ヤマガタケン,モガミグンカネヤママチ,カネヤマ,山形県最上郡金山町金山
9995403,山形県,最上郡金山町,安沢,ヤマガタケン,モガミグンカネヤママチ,ヤスザワ,山形県最上郡金山町安沢
9995404,山形県,最上郡金山町,下野明,ヤマガタケン,モガミグンカネヤママチ,シモノミョウ,山形県最上郡金山町下野明
9995405,山形県,最上郡金山町,上台,ヤマガタケン,モガミグンカネヤママチ,ウワダイ,山形県最上郡金山町上台
9995406,山形県,最上郡金山町,山崎,ヤマガタケン,モガミグンカネヤママチ,ヤマザキ,山形県最上郡金山町山崎
9995411,山形県,最上郡金山町,中田,ヤマガタケン,モガミグンカネヤママチ,ナカダ,山形県最上郡金山町中田
9995412,山形県,最上郡金山町,飛森,ヤマガタケン,モガミグンカネヤママチ,トビノモリ,山形県最上郡金山町飛森
9995413,山形県,最上郡金山町,谷口銀山,ヤマガタケン,モガミグンカネヤママチ,タニグチギンザン,山形県最上郡金山町谷口銀山
9995414,山形県,最上郡金山町,漆野,ヤマガタケン,モガミグンカネヤママチ,ウルシノ,山形県最上郡金山町漆野
9995415,山形県,最上郡金山町,朴山,ヤマガタケン,モガミグンカネヤママチ,ホオヤマ,山形県最上郡金山町朴山
9995521,山形県,最上郡真室川町,大沢,ヤマガタケン,モガミグンマムロガワマチ,オオサワ,山形県最上郡真室川町大沢
9995522,山形県,最上郡真室川町,差首鍋,ヤマガタケン,モガミグンマムロガワマチ,サスナベ,山形県最上郡真室川町差首鍋
9995601,山形県,最上郡真室川町,川ノ内（２〜１２８番地、４１９〜６１４番地、１７１７番地、三滝、春木）,ヤマガタケン,モガミグンマムロガワマチ,カワノウチ(2-128バンチ、419-614バンチ、1717バンチ、サンタキ、ハルキ),山形県最上郡真室川町川ノ内（2〜128-、419〜614-、1717-、三滝、春木）
9995602,山形県,最上郡真室川町,及位,ヤマガタケン,モガミグンマムロガワマチ,ノゾキ,山形県最上郡真室川町及位
9995603,山形県,最上郡真室川町,大滝,ヤマガタケン,モガミグンマムロガワマチ,オオタキ,山形県最上郡真室川町大滝
9995604,山形県,最上郡真室川町,釜渕,ヤマガタケン,モガミグンマムロガワマチ,カマブチ,山形県最上郡真室川町釜渕
9996100,山形県,最上郡最上町,,ヤマガタケン,モガミグンモガミマチ,,山形県最上郡最上町
9996101,山形県,最上郡最上町,向町,ヤマガタケン,モガミグンモガミマチ,ムカイマチ,山形県最上郡最上町向町
9996102,山形県,最上郡最上町,東法田,ヤマガタケン,モガミグンモガミマチ,ヒガシホウデン,山形県最上郡最上町東法田
9996103,山形県,最上郡最上町,黒澤,ヤマガタケン,モガミグンモガミマチ,クロサワ,山形県最上郡最上町黒澤
9996104,山形県,最上郡最上町,本城,ヤマガタケン,モガミグンモガミマチ,ホンジョウ,山形県最上郡最上町本城
9996105,山形県,最上郡最上町,富澤,ヤマガタケン,モガミグンモガミマチ,トミサワ,山形県最上郡最上町富澤
9996106,山形県,最上郡最上町,堺田,ヤマガタケン,モガミグンモガミマチ,サカイダ,山形県最上郡最上町堺田
9996107,山形県,最上郡最上町,満澤,ヤマガタケン,モガミグンモガミマチ,ミツザワ,山形県最上郡最上町満澤
9996211,山形県,最上郡最上町,大堀,ヤマガタケン,モガミグンモガミマチ,オオホリ,山形県最上郡最上町大堀
9996211,山形県,最上郡最上町,瀬見,ヤマガタケン,モガミグンモガミマチ,セミ,山形県最上郡最上町瀬見
9996212,山形県,最上郡最上町,志茂,ヤマガタケン,モガミグンモガミマチ,シモ,山形県最上郡最上町志茂
9996213,山形県,最上郡最上町,法田,ヤマガタケン,モガミグンモガミマチ,ホウデン,山形県最上郡最上町法田
9996214,山形県,最上郡最上町,若宮,ヤマガタケン,モガミグンモガミマチ,ワカミヤ,山形県最上郡最上町若宮
9996215,山形県,最上郡最上町,月楯,ヤマガタケン,モガミグンモガミマチ,ツキダテ,山形県最上郡最上町月楯
9996311,山形県,最上郡戸沢村,津谷,ヤマガタケン,モガミグントザワムラ,ツヤ,山形県最上郡戸沢村津谷
9996312,山形県,最上郡戸沢村,岩清水,ヤマガタケン,モガミグントザワムラ,イワシミズ,山形県最上郡戸沢村岩清水
9996313,山形県,最上郡戸沢村,名高,ヤマガタケン,モガミグントザワムラ,ナダカ,山形県最上郡戸沢村名高
9996314,山形県,最上郡戸沢村,松坂,ヤマガタケン,モガミグントザワムラ,マツザカ,山形県最上郡戸沢村松坂
9996315,山形県,最上郡戸沢村,神田,ヤマガタケン,モガミグントザワムラ,ジンデン,山形県最上郡戸沢村神田
9996400,山形県,最上郡戸沢村,,ヤマガタケン,モガミグントザワムラ,,山形県最上郡戸沢村
9996401,山形県,最上郡戸沢村,古口（その他）,ヤマガタケン,モガミグントザワムラ,フルクチ(ソノタ),山形県最上郡戸沢村古口（その他）
9996402,山形県,最上郡戸沢村,蔵岡,ヤマガタケン,モガミグントザワムラ,クラオカ,山形県最上郡戸沢村蔵岡
9996403,山形県,最上郡戸沢村,角川,ヤマガタケン,モガミグントザワムラ,ツノカワ,山形県最上郡戸沢村角川
9996601,山形県,東田川郡庄内町,狩川,ヤマガタケン,ヒガシタガワグンショウナイマチ,カリカワ,山形県東田川郡庄内町狩川
9996602,山形県,東田川郡庄内町,三ケ沢,ヤマガタケン,ヒガシタガワグンショウナイマチ,ミカザワ,山形県東田川郡庄内町三ケ沢
9996603,山形県,東田川郡庄内町,添津,ヤマガタケン,ヒガシタガワグンショウナイマチ,ソエヅ,山形県東田川郡庄内町添津
9996604,山形県,東田川郡庄内町,千本杉,ヤマガタケン,ヒガシタガワグンショウナイマチ,センボンスギ,山形県東田川郡庄内町千本杉
9996605,山形県,東田川郡庄内町,桑田,ヤマガタケン,ヒガシタガワグンショウナイマチ,クワダ,山形県東田川郡庄内町桑田
9996606,山形県,東田川郡庄内町,清川,ヤマガタケン,ヒガシタガワグンショウナイマチ,キヨカワ,山形県東田川郡庄内町清川
9996607,山形県,東田川郡庄内町,肝煎,ヤマガタケン,ヒガシタガワグンショウナイマチ,キモイリ,山形県東田川郡庄内町肝煎
9996608,山形県,東田川郡庄内町,科沢,ヤマガタケン,ヒガシタガワグンショウナイマチ,シナザワ,山形県東田川郡庄内町科沢
9996609,山形県,東田川郡庄内町,立谷沢,ヤマガタケン,ヒガシタガワグンショウナイマチ,タチヤザワ,山形県東田川郡庄内町立谷沢
9996652,山形県,鶴岡市,添川（渡戸沢「筍沢温泉」）,ヤマガタケン,ツルオカシ,ソエガワ(ワタトザワ<タケノコザワオンセン>),山形県鶴岡市添川（渡戸沢「筍沢温泉」）
9996701,山形県,酒田市,砂越,ヤマガタケン,サカタシ,サゴシ,山形県酒田市砂越
9996702,山形県,酒田市,砂越緑町,ヤマガタケン,サカタシ,サゴシミドリチョウ,山形県酒田市砂越緑町
9996703,山形県,酒田市,天神堂,ヤマガタケン,サカタシ,テンジンドウ,山形県酒田市天神堂
9996704,山形県,酒田市,石橋,ヤマガタケン,サカタシ,イシバシ,山形県酒田市石橋
9996705,山形県,酒田市,桜林,ヤマガタケン,サカタシ,サクラバヤシ,山形県酒田市桜林
9996706,山形県,酒田市,桜林興野,ヤマガタケン,サカタシ,サクラバヤシコウヤ,山形県酒田市桜林興野
9996707,山形県,酒田市,郡山,ヤマガタケン,サカタシ,コオリヤマ,山形県酒田市郡山
9996708,山形県,酒田市,泉興野,ヤマガタケン,サカタシ,イズミコウヤ,山形県酒田市泉興野
9996711,山形県,酒田市,飛鳥,ヤマガタケン,サカタシ,アスカ,山形県酒田市飛鳥
9996712,山形県,酒田市,楢橋,ヤマガタケン,サカタシ,ナラハシ,山形県酒田市楢橋
9996721,山形県,酒田市,堀野内,ヤマガタケン,サカタシ,ホリノウチ,山形県酒田市堀野内
9996722,山形県,酒田市,中野目,ヤマガタケン,サカタシ,ナカノメ,山形県酒田市中野目
9996723,山形県,酒田市,三之宮,ヤマガタケン,サカタシ,サンノミヤ,山形県酒田市三之宮
9996724,山形県,酒田市,山楯,ヤマガタケン,サカタシ,ヤマダテ,山形県酒田市山楯
9996725,山形県,酒田市,山谷新田,ヤマガタケン,サカタシ,ヤマヤシンデン,山形県酒田市山谷新田
9996726,山形県,酒田市,山谷,ヤマガタケン,サカタシ,ヤマヤ,山形県酒田市山谷
9996727,山形県,酒田市,中野俣,ヤマガタケン,サカタシ,ナカノマタ,山形県酒田市中野俣
9996731,山形県,酒田市,田沢,ヤマガタケン,サカタシ,タザワ,山形県酒田市田沢
9996732,山形県,酒田市,楯山,ヤマガタケン,サカタシ,タテヤマ,山形県酒田市楯山
9996733,山形県,酒田市,西坂本,ヤマガタケン,サカタシ,ニシサカモト,山形県酒田市西坂本
9996734,山形県,酒田市,山元,ヤマガタケン,サカタシ,ヤマモト,山形県酒田市山元
9996735,山形県,酒田市,小林,ヤマガタケン,サカタシ,コバヤシ,山形県酒田市小林
9996741,山形県,酒田市,北俣,ヤマガタケン,サカタシ,キタマタ,山形県酒田市北俣
9996801,山形県,最上郡戸沢村,古口（柏沢）,ヤマガタケン,モガミグントザワムラ,フルクチ(カシザワ),山形県最上郡戸沢村古口（柏沢）
9996811,山形県,酒田市,柏谷沢,ヤマガタケン,サカタシ,カシヤザワ,山形県酒田市柏谷沢
9996812,山形県,酒田市,成興野,ヤマガタケン,サカタシ,ナリコウヤ,山形県酒田市成興野
9996813,山形県,酒田市,大川渡,ヤマガタケン,サカタシ,オオカワド,山形県酒田市大川渡
9996814,山形県,酒田市,地見興屋,ヤマガタケン,サカタシ,ジミコウヤ,山形県酒田市地見興屋
9996815,山形県,酒田市,臼ケ沢,ヤマガタケン,サカタシ,ウスガサワ,山形県酒田市臼ケ沢
9996816,山形県,酒田市,大沼新田,ヤマガタケン,サカタシ,オオヌマシンデン,山形県酒田市大沼新田
9996821,山形県,酒田市,山寺,ヤマガタケン,サカタシ,ヤマデラ,山形県酒田市山寺
9996822,山形県,酒田市,南新屋敷,ヤマガタケン,サカタシ,ミナミシンヤシキ,山形県酒田市南新屋敷
9996823,山形県,酒田市,真学寺沢,ヤマガタケン,サカタシ,シンガクジサワ,山形県酒田市真学寺沢
9996824,山形県,酒田市,元新屋敷,ヤマガタケン,サカタシ,モトシンヤシキ,山形県酒田市元新屋敷
9996825,山形県,酒田市,南町,ヤマガタケン,サカタシ,ミナミマチ,山形県酒田市南町
9996826,山形県,酒田市,稲荷沢,ヤマガタケン,サカタシ,イナリザワ,山形県酒田市稲荷沢
9996827,山形県,酒田市,仲町,ヤマガタケン,サカタシ,ナカマチ,山形県酒田市仲町
9996831,山形県,酒田市,内町,ヤマガタケン,サカタシ,ウチマチ,山形県酒田市内町
9996831,山形県,酒田市,総光寺沢,ヤマガタケン,サカタシ,ソウコウジサワ,山形県酒田市総光寺沢
9996832,山形県,酒田市,新屋敷,ヤマガタケン,サカタシ,シンヤシキ,山形県酒田市新屋敷
9996833,山形県,酒田市,北町,ヤマガタケン,サカタシ,キタマチ,山形県酒田市北町
9996834,山形県,酒田市,荒町,ヤマガタケン,サカタシ,アラマチ,山形県酒田市荒町
9996835,山形県,酒田市,本町,ヤマガタケン,サカタシ,ホンマチ,山形県酒田市本町
9996835,山形県,酒田市,蔵小路,ヤマガタケン,サカタシ,クラコウジ,山形県酒田市蔵小路
9996836,山形県,酒田市,肴町,ヤマガタケン,サカタシ,サカナマチ,山形県酒田市肴町
9996837,山形県,酒田市,新町,ヤマガタケン,サカタシ,シンマチ,山形県酒田市新町
9996837,山形県,酒田市,金谷,ヤマガタケン,サカタシ,カナヤ,山形県酒田市金谷
9996838,山形県,酒田市,片町,ヤマガタケン,サカタシ,カタマチ,山形県酒田市片町
9996839,山形県,酒田市,土渕,ヤマガタケン,サカタシ,ツチブチ,山形県酒田市土渕
9996841,山形県,酒田市,茗ケ沢,ヤマガタケン,サカタシ,ミョウガサワ,山形県酒田市茗ケ沢
9996842,山形県,酒田市,上餅山,ヤマガタケン,サカタシ,カミモチヤマ,山形県酒田市上餅山
9996843,山形県,酒田市,上北目,ヤマガタケン,サカタシ,カミキタメ,山形県酒田市上北目
9996844,山形県,酒田市,中北目,ヤマガタケン,サカタシ,ナカキタメ,山形県酒田市中北目
9996845,山形県,酒田市,小見,ヤマガタケン,サカタシ,オミ,山形県酒田市小見
9996846,山形県,酒田市,下餅山,ヤマガタケン,サカタシ,シモモチヤマ,山形県酒田市下餅山
9996847,山形県,酒田市,引地,ヤマガタケン,サカタシ,ヒキジ,山形県酒田市引地
9996848,山形県,酒田市,竹田,ヤマガタケン,サカタシ,タケダ,山形県酒田市竹田
9996851,山形県,酒田市,中牧田,ヤマガタケン,サカタシ,ナカマキタ,山形県酒田市中牧田
9996852,山形県,酒田市,相沢,ヤマガタケン,サカタシ,アイサワ,山形県酒田市相沢
9996853,山形県,酒田市,石名坂,ヤマガタケン,サカタシ,イシナザカ,山形県酒田市石名坂
9996861,山形県,酒田市,山田,ヤマガタケン,サカタシ,ヤマダ,山形県酒田市山田
9996862,山形県,酒田市,西田,ヤマガタケン,サカタシ,ニシダ,山形県酒田市西田
9997121,山形県,鶴岡市,早田,ヤマガタケン,ツルオカシ,ワサダ,山形県鶴岡市早田
9997122,山形県,鶴岡市,小岩川,ヤマガタケン,ツルオカシ,コイワガワ,山形県鶴岡市小岩川
9997123,山形県,鶴岡市,大岩川,ヤマガタケン,ツルオカシ,オオイワガワ,山形県鶴岡市大岩川
9997124,山形県,鶴岡市,槇代,ヤマガタケン,ツルオカシ,マキダイ,山形県鶴岡市槇代
9997125,山形県,鶴岡市,小名部,ヤマガタケン,ツルオカシ,オナベ,山形県鶴岡市小名部
9997126,山形県,鶴岡市,鼠ケ関,ヤマガタケン,ツルオカシ,ネズガセキ,山形県鶴岡市鼠ケ関
9997201,山形県,鶴岡市,山五十川,ヤマガタケン,ツルオカシ,ヤマイラガワ,山形県鶴岡市山五十川
9997202,山形県,鶴岡市,戸沢,ヤマガタケン,ツルオカシ,トザワ,山形県鶴岡市戸沢
9997203,山形県,鶴岡市,一霞,ヤマガタケン,ツルオカシ,ヒトカスミ,山形県鶴岡市一霞
9997204,山形県,鶴岡市,湯温海,ヤマガタケン,ツルオカシ,ユアツミ,山形県鶴岡市湯温海
9997205,山形県,鶴岡市,温海,ヤマガタケン,ツルオカシ,アツミ,山形県鶴岡市温海
9997206,山形県,鶴岡市,小菅野代,ヤマガタケン,ツルオカシ,コスガノダイ,山形県鶴岡市小菅野代
9997207,山形県,鶴岡市,五十川,ヤマガタケン,ツルオカシ,イラガワ,山形県鶴岡市五十川
9997311,山形県,鶴岡市,菅野代,ヤマガタケン,ツルオカシ,スガノダイ,山形県鶴岡市菅野代
9997312,山形県,鶴岡市,温海川,ヤマガタケン,ツルオカシ,アツミガワ,山形県鶴岡市温海川
9997313,山形県,鶴岡市,木野俣,ヤマガタケン,ツルオカシ,キノマタ,山形県鶴岡市木野俣
9997314,山形県,鶴岡市,越沢,ヤマガタケン,ツルオカシ,コエサワ,山形県鶴岡市越沢
9997315,山形県,鶴岡市,関川,ヤマガタケン,ツルオカシ,セキガワ,山形県鶴岡市関川
9997316,山形県,鶴岡市,小国,ヤマガタケン,ツルオカシ,オグニ,山形県鶴岡市小国
9997461,山形県,鶴岡市,堅苔沢,ヤマガタケン,ツルオカシ,カタノリザワ,山形県鶴岡市堅苔沢
9997462,山形県,鶴岡市,小波渡,ヤマガタケン,ツルオカシ,コバト,山形県鶴岡市小波渡
9997463,山形県,鶴岡市,三瀬,ヤマガタケン,ツルオカシ,サンゼ,山形県鶴岡市三瀬
9997464,山形県,鶴岡市,由良,ヤマガタケン,ツルオカシ,ユラ,山形県鶴岡市由良
9997541,山形県,鶴岡市,西目,ヤマガタケン,ツルオカシ,ニシメ,山形県鶴岡市西目
9997542,山形県,鶴岡市,水沢,ヤマガタケン,ツルオカシ,ミズサワ,山形県鶴岡市水沢
9997543,山形県,鶴岡市,大広,ヤマガタケン,ツルオカシ,オオヒロ,山形県鶴岡市大広
9997544,山形県,鶴岡市,中山,ヤマガタケン,ツルオカシ,ナカヤマ,山形県鶴岡市中山
9997545,山形県,鶴岡市,矢引,ヤマガタケン,ツルオカシ,ヤビキ,山形県鶴岡市矢引
9997546,山形県,鶴岡市,中沢,ヤマガタケン,ツルオカシ,ナカザワ,山形県鶴岡市中沢
9997547,山形県,鶴岡市,大荒,ヤマガタケン,ツルオカシ,オオアラ,山形県鶴岡市大荒
9997548,山形県,鶴岡市,みずほ,ヤマガタケン,ツルオカシ,ミズホ,山形県鶴岡市みずほ
9997601,山形県,鶴岡市,藤島,ヤマガタケン,ツルオカシ,フジシマ,山形県鶴岡市藤島
9997602,山形県,鶴岡市,藤の花,ヤマガタケン,ツルオカシ,フジノハナ,山形県鶴岡市藤の花
9997604,山形県,鶴岡市,藤浪,ヤマガタケン,ツルオカシ,フジナミ,山形県鶴岡市藤浪
9997611,山形県,鶴岡市,上藤島,ヤマガタケン,ツルオカシ,カミフジシマ,山形県鶴岡市上藤島
9997621,山形県,鶴岡市,長沼,ヤマガタケン,ツルオカシ,ナガヌマ,山形県鶴岡市長沼
9997622,山形県,鶴岡市,豊栄,ヤマガタケン,ツルオカシ,ホウエイ,山形県鶴岡市豊栄
9997631,山形県,鶴岡市,八色木,ヤマガタケン,ツルオカシ,ヤイロギ,山形県鶴岡市八色木
9997632,山形県,鶴岡市,小中島,ヤマガタケン,ツルオカシ,コナカジマ,山形県鶴岡市小中島
9997633,山形県,鶴岡市,須走,ヤマガタケン,ツルオカシ,スバシリ,山形県鶴岡市須走
9997634,山形県,鶴岡市,三和,ヤマガタケン,ツルオカシ,ミワ,山形県鶴岡市三和
9997635,山形県,鶴岡市,越後京田,ヤマガタケン,ツルオカシ,エチゴキョウデン,山形県鶴岡市越後京田
9997636,山形県,鶴岡市,野田目,ヤマガタケン,ツルオカシ,ノダノメ,山形県鶴岡市野田目
9997637,山形県,鶴岡市,下中野目,ヤマガタケン,ツルオカシ,シモナカノメ,山形県鶴岡市下中野目
9997638,山形県,鶴岡市,藤岡,ヤマガタケン,ツルオカシ,フジオカ,山形県鶴岡市藤岡
9997641,山形県,鶴岡市,楪,ヤマガタケン,ツルオカシ,ユズリハ,山形県鶴岡市楪
9997642,山形県,鶴岡市,藤島関根,ヤマガタケン,ツルオカシ,フジシマセキネ,山形県鶴岡市藤島関根
9997643,山形県,鶴岡市,無音,ヤマガタケン,ツルオカシ,ヨバラズ,山形県鶴岡市無音
9997644,山形県,鶴岡市,川尻,ヤマガタケン,ツルオカシ,カワシリ,山形県鶴岡市川尻
9997645,山形県,鶴岡市,平足,ヤマガタケン,ツルオカシ,ヘイソク,山形県鶴岡市平足
9997646,山形県,鶴岡市,工藤,ヤマガタケン,ツルオカシ,クドウ,山形県鶴岡市工藤
9997651,山形県,鶴岡市,鷺畑,ヤマガタケン,ツルオカシ,サギハタ,山形県鶴岡市鷺畑
9997652,山形県,鶴岡市,添川（その他）,ヤマガタケン,ツルオカシ,ソエガワ(ソノタ),山形県鶴岡市添川（その他）
9997653,山形県,鶴岡市,東堀越,ヤマガタケン,ツルオカシ,ヒガシホリコシ,山形県鶴岡市東堀越
9997661,山形県,鶴岡市,大川渡,ヤマガタケン,ツルオカシ,オオカワド,山形県鶴岡市大川渡
9997662,山形県,鶴岡市,谷地興屋,ヤマガタケン,ツルオカシ,ヤチコウヤ,山形県鶴岡市谷地興屋
9997663,山形県,鶴岡市,蛸井興屋,ヤマガタケン,ツルオカシ,タコイコウヤ,山形県鶴岡市蛸井興屋
9997664,山形県,鶴岡市,上中野目,ヤマガタケン,ツルオカシ,カミナカノメ,山形県鶴岡市上中野目
9997671,山形県,鶴岡市,古郡,ヤマガタケン,ツルオカシ,フルコオリ,山形県鶴岡市古郡
9997672,山形県,鶴岡市,柳久瀬,ヤマガタケン,ツルオカシ,ヤナクセ,山形県鶴岡市柳久瀬
9997673,山形県,鶴岡市,荒俣,ヤマガタケン,ツルオカシ,アラマタ,山形県鶴岡市荒俣
9997674,山形県,鶴岡市,箕升新田,ヤマガタケン,ツルオカシ,ミマスシンデン,山形県鶴岡市箕升新田
9997675,山形県,鶴岡市,宝徳,ヤマガタケン,ツルオカシ,ホウトク,山形県鶴岡市宝徳
9997676,山形県,鶴岡市,幕野内,ヤマガタケン,ツルオカシ,マクノウチ,山形県鶴岡市幕野内
9997677,山形県,鶴岡市,大半田,ヤマガタケン,ツルオカシ,ダイハンダ,山形県鶴岡市大半田
9997681,山形県,鶴岡市,平形,ヤマガタケン,ツルオカシ,ヒラカタ,山形県鶴岡市平形
9997682,山形県,鶴岡市,新屋敷,ヤマガタケン,ツルオカシ,アラヤシキ,山形県鶴岡市新屋敷
9997683,山形県,鶴岡市,渡前,ヤマガタケン,ツルオカシ,ワタマエ,山形県鶴岡市渡前
9997684,山形県,鶴岡市,和名川,ヤマガタケン,ツルオカシ,ワナガワ,山形県鶴岡市和名川
9997685,山形県,鶴岡市,砂塚,ヤマガタケン,ツルオカシ,スナヅカ,山形県鶴岡市砂塚
9997700,山形県,東田川郡庄内町,,ヤマガタケン,ヒガシタガワグンショウナイマチ,,山形県東田川郡庄内町
9997701,山形県,東田川郡庄内町,跡,ヤマガタケン,ヒガシタガワグンショウナイマチ,アト,山形県東田川郡庄内町跡
9997702,山形県,東田川郡庄内町,榎木,ヤマガタケン,ヒガシタガワグンショウナイマチ,エノキ,山形県東田川郡庄内町榎木
9997703,山形県,東田川郡庄内町,平岡,ヤマガタケン,ヒガシタガワグンショウナイマチ,ヒラオカ,山形県東田川郡庄内町平岡
9997704,山形県,東田川郡庄内町,千河原,ヤマガタケン,ヒガシタガワグンショウナイマチ,チガワラ,山形県東田川郡庄内町千河原
9997705,山形県,東田川郡庄内町,槇島,ヤマガタケン,ヒガシタガワグンショウナイマチ,マギシマ,山形県東田川郡庄内町槇島
9997706,山形県,東田川郡庄内町,提興屋,ヤマガタケン,ヒガシタガワグンショウナイマチ,ヒサゲコウヤ,山形県東田川郡庄内町提興屋
9997707,山形県,東田川郡庄内町,廿六木,ヤマガタケン,ヒガシタガワグンショウナイマチ,トドロキ,山形県東田川郡庄内町廿六木
9997711,山形県,東田川郡庄内町,福原,ヤマガタケン,ヒガシタガワグンショウナイマチ,フクワラ,山形県東田川郡庄内町福原
9997712,山形県,東田川郡庄内町,堀野,ヤマガタケン,ヒガシタガワグンショウナイマチ,ホリノ,山形県東田川郡庄内町堀野
9997713,山形県,東田川郡庄内町,常万,ヤマガタケン,ヒガシタガワグンショウナイマチ,ジョウマン,山形県東田川郡庄内町常万
9997714,山形県,東田川郡庄内町,余目新田,ヤマガタケン,ヒガシタガワグンショウナイマチ,アマルメシンデン,山形県東田川郡庄内町余目新田
9997715,山形県,東田川郡庄内町,廻館,ヤマガタケン,ヒガシタガワグンショウナイマチ,マワタテ,山形県東田川郡庄内町廻館
9997721,山形県,東田川郡庄内町,堤新田,ヤマガタケン,ヒガシタガワグンショウナイマチ,ツツミシンデン,山形県東田川郡庄内町堤新田
9997722,山形県,東田川郡庄内町,小出新田,ヤマガタケン,ヒガシタガワグンショウナイマチ,コイデシンデン,山形県東田川郡庄内町小出新田
9997723,山形県,東田川郡庄内町,連枝,ヤマガタケン,ヒガシタガワグンショウナイマチ,レンシ,山形県東田川郡庄内町連枝
9997724,山形県,東田川郡庄内町,赤渕新田,ヤマガタケン,ヒガシタガワグンショウナイマチ,アカブチシンデン,山形県東田川郡庄内町赤渕新田
9997725,山形県,東田川郡庄内町,沢新田,ヤマガタケン,ヒガシタガワグンショウナイマチ,サワシンデン,山形県東田川郡庄内町沢新田
9997726,山形県,東田川郡庄内町,古関,ヤマガタケン,ヒガシタガワグンショウナイマチ,フルセキ,山形県東田川郡庄内町古関
9997727,山形県,東田川郡庄内町,南野,ヤマガタケン,ヒガシタガワグンショウナイマチ,ミナミノ,山形県東田川郡庄内町南野
9997731,山形県,東田川郡庄内町,主殿新田,ヤマガタケン,ヒガシタガワグンショウナイマチ,トノモシンデン,山形県東田川郡庄内町主殿新田
9997732,山形県,東田川郡庄内町,南野新田,ヤマガタケン,ヒガシタガワグンショウナイマチ,ミナミノシンデン,山形県東田川郡庄内町南野新田
9997733,山形県,東田川郡庄内町,南興屋,ヤマガタケン,ヒガシタガワグンショウナイマチ,ミナミコウヤ,山形県東田川郡庄内町南興屋
9997734,山形県,東田川郡庄内町,中野,ヤマガタケン,ヒガシタガワグンショウナイマチ,ナカノ,山形県東田川郡庄内町中野
9997735,山形県,東田川郡庄内町,前田野目,ヤマガタケン,ヒガシタガワグンショウナイマチ,マエタノメ,山形県東田川郡庄内町前田野目
9997736,山形県,東田川郡庄内町,福島,ヤマガタケン,ヒガシタガワグンショウナイマチ,フクシマ,山形県東田川郡庄内町福島
9997737,山形県,東田川郡庄内町,大真木,ヤマガタケン,ヒガシタガワグンショウナイマチ,オオマギ,山形県東田川郡庄内町大真木
9997741,山形県,東田川郡庄内町,返吉,ヤマガタケン,ヒガシタガワグンショウナイマチ,ソリヨシ,山形県東田川郡庄内町返吉
9997742,山形県,東田川郡庄内町,京島,ヤマガタケン,ヒガシタガワグンショウナイマチ,キョウジマ,山形県東田川郡庄内町京島
9997743,山形県,東田川郡庄内町,新田目,ヤマガタケン,ヒガシタガワグンショウナイマチ,アラタメ,山形県東田川郡庄内町新田目
9997744,山形県,東田川郡庄内町,本小野方,ヤマガタケン,ヒガシタガワグンショウナイマチ,モトオノカタ,山形県東田川郡庄内町本小野方
9997745,山形県,東田川郡庄内町,境興屋,ヤマガタケン,ヒガシタガワグンショウナイマチ,サカイコウヤ,山形県東田川郡庄内町境興屋
9997746,山形県,東田川郡庄内町,西袋,ヤマガタケン,ヒガシタガワグンショウナイマチ,ニシブクロ,山形県東田川郡庄内町西袋
9997747,山形県,東田川郡庄内町,大野,ヤマガタケン,ヒガシタガワグンショウナイマチ,オオノ,山形県東田川郡庄内町大野
9997748,山形県,東田川郡庄内町,田谷,ヤマガタケン,ヒガシタガワグンショウナイマチ,タヤ,山形県東田川郡庄内町田谷
9997749,山形県,東田川郡庄内町,吉方,ヤマガタケン,ヒガシタガワグンショウナイマチ,ヨシカタ,山形県東田川郡庄内町吉方
9997751,山形県,東田川郡庄内町,西小野方,ヤマガタケン,ヒガシタガワグンショウナイマチ,ニシオノカタ,山形県東田川郡庄内町西小野方
9997752,山形県,東田川郡庄内町,近江新田,ヤマガタケン,ヒガシタガワグンショウナイマチ,オオミシンデン,山形県東田川郡庄内町近江新田
9997753,山形県,東田川郡庄内町,吉岡,ヤマガタケン,ヒガシタガワグンショウナイマチ,ヨシオカ,山形県東田川郡庄内町吉岡
9997754,山形県,東田川郡庄内町,島田,ヤマガタケン,ヒガシタガワグンショウナイマチ,シマダ,山形県東田川郡庄内町島田
9997755,山形県,東田川郡庄内町,生三,ヤマガタケン,ヒガシタガワグンショウナイマチ,イクサン,山形県東田川郡庄内町生三
9997756,山形県,東田川郡庄内町,茗荷瀬,ヤマガタケン,ヒガシタガワグンショウナイマチ,ミョウガセ,山形県東田川郡庄内町茗荷瀬
9997757,山形県,東田川郡庄内町,払田,ヤマガタケン,ヒガシタガワグンショウナイマチ,ハライダ,山形県東田川郡庄内町払田
9997761,山形県,東田川郡庄内町,高田麦,ヤマガタケン,ヒガシタガワグンショウナイマチ,タカダムギ,山形県東田川郡庄内町高田麦
9997762,山形県,東田川郡庄内町,家根合,ヤマガタケン,ヒガシタガワグンショウナイマチ,カネアイ,山形県東田川郡庄内町家根合
9997763,山形県,東田川郡庄内町,落合,ヤマガタケン,ヒガシタガワグンショウナイマチ,オチアイ,山形県東田川郡庄内町落合
9997764,山形県,東田川郡庄内町,宮曽根,ヤマガタケン,ヒガシタガワグンショウナイマチ,ミヤソネ,山形県東田川郡庄内町宮曽根
9997765,山形県,東田川郡庄内町,杉浦,ヤマガタケン,ヒガシタガワグンショウナイマチ,スギウラ,山形県東田川郡庄内町杉浦
9997766,山形県,東田川郡庄内町,久田,ヤマガタケン,ヒガシタガワグンショウナイマチ,キュウデン,山形県東田川郡庄内町久田
9997767,山形県,東田川郡庄内町,深川,ヤマガタケン,ヒガシタガワグンショウナイマチ,フカガワ,山形県東田川郡庄内町深川
9997768,山形県,東田川郡庄内町,西野,ヤマガタケン,ヒガシタガワグンショウナイマチ,ニシノ,山形県東田川郡庄内町西野
9997771,山形県,酒田市,局,ヤマガタケン,サカタシ,ツボネ,山形県酒田市局
9997772,山形県,酒田市,門田,ヤマガタケン,サカタシ,カドタ,山形県酒田市門田
9997773,山形県,酒田市,木川,ヤマガタケン,サカタシ,キガワ,山形県酒田市木川
9997774,山形県,酒田市,板戸,ヤマガタケン,サカタシ,イタド,山形県酒田市板戸
9997775,山形県,酒田市,落野目,ヤマガタケン,サカタシ,オチノメ,山形県酒田市落野目
9997776,山形県,酒田市,新堀,ヤマガタケン,サカタシ,ニイボリ,山形県酒田市新堀
9997777,山形県,酒田市,丸沼,ヤマガタケン,サカタシ,マルヌマ,山形県酒田市丸沼
9997781,山形県,東田川郡庄内町,余目,ヤマガタケン,ヒガシタガワグンショウナイマチ,アマルメ,山形県東田川郡庄内町余目
9997782,山形県,東田川郡庄内町,松陽,ヤマガタケン,ヒガシタガワグンショウナイマチ,ショウヨウ,山形県東田川郡庄内町松陽
9998131,山形県,酒田市,穂積（門田）,ヤマガタケン,サカタシ,ホヅミ(モンデン),山形県酒田市穂積（門田）
9998132,山形県,酒田市,刈屋,ヤマガタケン,サカタシ,カリヤ,山形県酒田市刈屋
9998133,山形県,酒田市,大豊田,ヤマガタケン,サカタシ,オオトヨダ,山形県酒田市大豊田
9998134,山形県,酒田市,本楯,ヤマガタケン,サカタシ,モトタテ,山形県酒田市本楯
9998141,山形県,酒田市,豊原,ヤマガタケン,サカタシ,トヨハラ,山形県酒田市豊原
9998142,山形県,酒田市,城輪,ヤマガタケン,サカタシ,キノワ,山形県酒田市城輪
9998143,山形県,酒田市,刈穂,ヤマガタケン,サカタシ,カリホ,山形県酒田市刈穂
9998144,山形県,酒田市,庭田,ヤマガタケン,サカタシ,ニワタ,山形県酒田市庭田
9998145,山形県,酒田市,保岡,ヤマガタケン,サカタシ,ヤスオカ,山形県酒田市保岡
9998151,山形県,酒田市,安田,ヤマガタケン,サカタシ,ヤスダ,山形県酒田市安田
9998152,山形県,酒田市,上安田,ヤマガタケン,サカタシ,カミヤスダ,山形県酒田市上安田
9998153,山形県,酒田市,円能寺,ヤマガタケン,サカタシ,エンノウジ,山形県酒田市円能寺
9998154,山形県,酒田市,古青渡,ヤマガタケン,サカタシ,フルアオド,山形県酒田市古青渡
9998155,山形県,酒田市,曽根田,ヤマガタケン,サカタシ,ソネダ,山形県酒田市曽根田
9998156,山形県,酒田市,久保田,ヤマガタケン,サカタシ,クボタ,山形県酒田市久保田
9998157,山形県,酒田市,新青渡,ヤマガタケン,サカタシ,ニイアオド,山形県酒田市新青渡
9998158,山形県,酒田市,布目,ヤマガタケン,サカタシ,ヌノメ,山形県酒田市布目
9998161,山形県,酒田市,吉田,ヤマガタケン,サカタシ,ヨシダ,山形県酒田市吉田
9998162,山形県,酒田市,上野曽根,ヤマガタケン,サカタシ,カミノソネ,山形県酒田市上野曽根
9998163,山形県,酒田市,上興野,ヤマガタケン,サカタシ,カミコウヤ,山形県酒田市上興野
9998164,山形県,酒田市,漆曽根,ヤマガタケン,サカタシ,ウルシゾネ,山形県酒田市漆曽根
9998165,山形県,酒田市,中野曽根,ヤマガタケン,サカタシ,ナカノソネ,山形県酒田市中野曽根
9998166,山形県,酒田市,牧曽根,ヤマガタケン,サカタシ,マキソネ,山形県酒田市牧曽根
9998167,山形県,酒田市,吉田新田,ヤマガタケン,サカタシ,ヨシダシンデン,山形県酒田市吉田新田
9998168,山形県,酒田市,鶴田,ヤマガタケン,サカタシ,ツルタ,山形県酒田市鶴田
9998201,山形県,酒田市,升田,ヤマガタケン,サカタシ,マスダ,山形県酒田市升田
9998202,山形県,酒田市,泥沢,ヤマガタケン,サカタシ,ドロザワ,山形県酒田市泥沢
9998203,山形県,酒田市,赤剥,ヤマガタケン,サカタシ,アカハゲ,山形県酒田市赤剥
9998204,山形県,酒田市,新出,ヤマガタケン,サカタシ,シンデ,山形県酒田市新出
9998205,山形県,酒田市,下黒川,ヤマガタケン,サカタシ,シモクロカワ,山形県酒田市下黒川
9998206,山形県,酒田市,上黒川,ヤマガタケン,サカタシ,カミクロカワ,山形県酒田市上黒川
9998207,山形県,酒田市,草津,ヤマガタケン,サカタシ,クサツ,山形県酒田市草津
9998211,山形県,酒田市,北青沢,ヤマガタケン,サカタシ,キタアオサワ,山形県酒田市北青沢
9998212,山形県,酒田市,上青沢,ヤマガタケン,サカタシ,カミアオサワ,山形県酒田市上青沢
9998213,山形県,酒田市,下青沢,ヤマガタケン,サカタシ,シモアオサワ,山形県酒田市下青沢
9998214,山形県,酒田市,常禅寺,ヤマガタケン,サカタシ,ジョウゼンジ,山形県酒田市常禅寺
9998215,山形県,酒田市,大蕨,ヤマガタケン,サカタシ,オオワラビ,山形県酒田市大蕨
9998221,山形県,酒田市,寺田,ヤマガタケン,サカタシ,テラダ,山形県酒田市寺田
9998222,山形県,酒田市,北平沢,ヤマガタケン,サカタシ,キタヘイザワ,山形県酒田市北平沢
9998223,山形県,酒田市,南平沢,ヤマガタケン,サカタシ,ミナミヘイザワ,山形県酒田市南平沢
9998224,山形県,酒田市,前川,ヤマガタケン,サカタシ,マエカワ,山形県酒田市前川
9998225,山形県,酒田市,大島田,ヤマガタケン,サカタシ,オオシマダ,山形県酒田市大島田
9998226,山形県,酒田市,政所,ヤマガタケン,サカタシ,マンドコロ,山形県酒田市政所
9998227,山形県,酒田市,岡島田,ヤマガタケン,サカタシ,オカシマダ,山形県酒田市岡島田
9998231,山形県,酒田市,麓,ヤマガタケン,サカタシ,フモト,山形県酒田市麓
9998232,山形県,酒田市,市条,ヤマガタケン,サカタシ,イチジョウ,山形県酒田市市条
9998233,山形県,酒田市,法連寺,ヤマガタケン,サカタシ,ホウレンジ,山形県酒田市法連寺
9998234,山形県,酒田市,小泉,ヤマガタケン,サカタシ,コイズミ,山形県酒田市小泉
9998235,山形県,酒田市,観音寺,ヤマガタケン,サカタシ,カンノンジ,山形県酒田市観音寺
9998241,山形県,酒田市,福山,ヤマガタケン,サカタシ,フクヤマ,山形県酒田市福山
9998242,山形県,酒田市,橋本,ヤマガタケン,サカタシ,ハシモト,山形県酒田市橋本
9998243,山形県,酒田市,北仁田,ヤマガタケン,サカタシ,キタジンデン,山形県酒田市北仁田
9998244,山形県,酒田市,大久保,ヤマガタケン,サカタシ,オオクボ,山形県酒田市大久保
9998245,山形県,酒田市,塚淵,ヤマガタケン,サカタシ,ツカブチ,山形県酒田市塚淵
9998246,山形県,酒田市,芹田,ヤマガタケン,サカタシ,セツダ,山形県酒田市芹田
9998300,山形県,飽海郡遊佐町,,ヤマガタケン,アクミグンユザマチ,,山形県飽海郡遊佐町
9998301,山形県,飽海郡遊佐町,遊佐,ヤマガタケン,アクミグンユザマチ,ユザ,山形県飽海郡遊佐町遊佐
9998302,山形県,飽海郡遊佐町,吉出,ヤマガタケン,アクミグンユザマチ,ヨシデ,山形県飽海郡遊佐町吉出
9998303,山形県,飽海郡遊佐町,野沢,ヤマガタケン,アクミグンユザマチ,ノザワ,山形県飽海郡遊佐町野沢
9998304,山形県,飽海郡遊佐町,白井新田,ヤマガタケン,アクミグンユザマチ,シライシンデン,山形県飽海郡遊佐町白井新田
9998311,山形県,飽海郡遊佐町,小原田,ヤマガタケン,アクミグンユザマチ,オハラダ,山形県飽海郡遊佐町小原田
9998312,山形県,飽海郡遊佐町,鹿野沢,ヤマガタケン,アクミグンユザマチ,カノサワ,山形県飽海郡遊佐町鹿野沢
9998313,山形県,飽海郡遊佐町,杉沢,ヤマガタケン,アクミグンユザマチ,スギサワ,山形県飽海郡遊佐町杉沢
9998314,山形県,飽海郡遊佐町,上蕨岡,ヤマガタケン,アクミグンユザマチ,カミワラビオカ,山形県飽海郡遊佐町上蕨岡
9998315,山形県,飽海郡遊佐町,大蕨岡,ヤマガタケン,アクミグンユザマチ,オオワラビオカ,山形県飽海郡遊佐町大蕨岡
9998316,山形県,飽海郡遊佐町,豊岡,ヤマガタケン,アクミグンユザマチ,トヨオカ,山形県飽海郡遊佐町豊岡
9998317,山形県,飽海郡遊佐町,小松,ヤマガタケン,アクミグンユザマチ,コマツ,山形県飽海郡遊佐町小松
9998421,山形県,酒田市,米島,ヤマガタケン,サカタシ,ヨネシマ,山形県酒田市米島
9998422,山形県,酒田市,千代田,ヤマガタケン,サカタシ,チヨダ,山形県酒田市千代田
9998423,山形県,酒田市,宮内,ヤマガタケン,サカタシ,ミヤウチ,山形県酒田市宮内
9998431,山形県,飽海郡遊佐町,菅里（十里塚）,ヤマガタケン,アクミグンユザマチ,スガサト(ジュウリヅカ),山形県飽海郡遊佐町菅里（十里塚）
9998432,山形県,飽海郡遊佐町,宮田,ヤマガタケン,アクミグンユザマチ,ミヤダ,山形県飽海郡遊佐町宮田
9998433,山形県,飽海郡遊佐町,江地,ヤマガタケン,アクミグンユザマチ,エジ,山形県飽海郡遊佐町江地
9998434,山形県,飽海郡遊佐町,増穂,ヤマガタケン,アクミグンユザマチ,マスホ,山形県飽海郡遊佐町増穂
9998435,山形県,飽海郡遊佐町,庄泉,ヤマガタケン,アクミグンユザマチ,ショウイズミ,山形県飽海郡遊佐町庄泉
9998436,山形県,飽海郡遊佐町,岩川,ヤマガタケン,アクミグンユザマチ,イワガワ,山形県飽海郡遊佐町岩川
9998437,山形県,飽海郡遊佐町,藤崎,ヤマガタケン,アクミグンユザマチ,フジサキ,山形県飽海郡遊佐町藤崎
9998438,山形県,飽海郡遊佐町,比子,ヤマガタケン,アクミグンユザマチ,ヒコ,山形県飽海郡遊佐町比子
9998521,山形県,飽海郡遊佐町,吹浦,ヤマガタケン,アクミグンユザマチ,フクラ,山形県飽海郡遊佐町吹浦
9998522,山形県,飽海郡遊佐町,北目,ヤマガタケン,アクミグンユザマチ,キタメ,山形県飽海郡遊佐町北目
9998523,山形県,飽海郡遊佐町,当山,ヤマガタケン,アクミグンユザマチ,トウヤマ,山形県飽海郡遊佐町当山
9998524,山形県,飽海郡遊佐町,富岡,ヤマガタケン,アクミグンユザマチ,トミオカ,山形県飽海郡遊佐町富岡
9998525,山形県,飽海郡遊佐町,直世,ヤマガタケン,アクミグンユザマチ,スグセ,山形県飽海郡遊佐町直世
9998531,山形県,飽海郡遊佐町,菅里（その他）,ヤマガタケン,アクミグンユザマチ,スガサト(ソノタ),山形県飽海郡遊佐町菅里（その他）
