zipcode,prefecture_name,city,town,prefecture_kana,city_kana,town_kana,normalized_address
3000000,茨城県,土浦市,,イバラキケン,ツチウラシ,,茨城県土浦市
3000001,茨城県,土浦市,今泉,イバラキケン,ツチウラシ,イマイズミ,茨城県土浦市今泉
3000002,茨城県,土浦市,粟野町,イバラキケン,ツチウラシ,アワノマチ,茨城県土浦市粟野町
3000003,茨城県,土浦市,紫ケ丘,イバラキケン,ツチウラシ,ムラサキガオカ,茨城県土浦市紫ケ丘
3000004,茨城県,土浦市,小山崎,イバラキケン,ツチウラシ,コヤマザキ,茨城県土浦市小山崎
3000005,茨城県,土浦市,中貫,イバラキケン,ツチウラシ,ナカヌキ,茨城県土浦市中貫
3000006,茨城県,土浦市,東中貫町,イバラキケン,ツチウラシ,ヒガシナカヌキマチ,茨城県土浦市東中貫町
3000007,茨城県,土浦市,板谷,イバラキケン,ツチウラシ,イタヤ,茨城県土浦市板谷
3000008,茨城県,土浦市,笠師町,イバラキケン,ツチウラシ,カサシマチ,茨城県土浦市笠師町
3000009,茨城県,土浦市,中都町,イバラキケン,ツチウラシ,ナカツマチ,茨城県土浦市中都町
3000011,茨城県,土浦市,神立中央,イバラキケン,ツチウラシ,カンダツチュウオウ,茨城県土浦市神立中央
3000012,茨城県,土浦市,神立東,イバラキケン,ツチウラシ,カンダツヒガシ,茨城県土浦市神立東
3000013,茨城県,土浦市,神立町,イバラキケン,ツチウラシ,カンダツマチ,茨城県土浦市神立町
3000014,茨城県,土浦市,西神立,イバラキケン,ツチウラシ,ニシカンダツ,茨城県土浦市西神立
3000015,茨城県,土浦市,北神立町,イバラキケン,ツチウラシ,キタカンダツマチ,茨城県土浦市北神立町
3000016,茨城県,土浦市,中神立町,イバラキケン,ツチウラシ,ナカカンダツマチ,茨城県土浦市中神立町
3000021,茨城県,土浦市,菅谷町,イバラキケン,ツチウラシ,スゲノヤマチ,茨城県土浦市菅谷町
3000022,茨城県,土浦市,白鳥町,イバラキケン,ツチウラシ,シラトリマチ,茨城県土浦市白鳥町
3000023,茨城県,土浦市,沖宿町,イバラキケン,ツチウラシ,オキジュクマチ,茨城県土浦市沖宿町
3000024,茨城県,土浦市,田村町,イバラキケン,ツチウラシ,タムラマチ,茨城県土浦市田村町
3000025,茨城県,土浦市,手野町,イバラキケン,ツチウラシ,テノマチ,茨城県土浦市手野町
3000026,茨城県,土浦市,木田余,イバラキケン,ツチウラシ,キダマリ,茨城県土浦市木田余
3000027,茨城県,土浦市,木田余東台,イバラキケン,ツチウラシ,キダマリヒガシダイ,茨城県土浦市木田余東台
3000028,茨城県,土浦市,おおつ野,イバラキケン,ツチウラシ,オオツノ,茨城県土浦市おおつ野
3000031,茨城県,土浦市,東崎町,イバラキケン,ツチウラシ,トウザキマチ,茨城県土浦市東崎町
3000032,茨城県,土浦市,湖北,イバラキケン,ツチウラシ,コホク,茨城県土浦市湖北
3000033,茨城県,土浦市,川口,イバラキケン,ツチウラシ,カワグチ,茨城県土浦市川口
3000034,茨城県,土浦市,港町,イバラキケン,ツチウラシ,ミナトマチ,茨城県土浦市港町
3000035,茨城県,土浦市,有明町,イバラキケン,ツチウラシ,アリアケチョウ,茨城県土浦市有明町
3000036,茨城県,土浦市,大和町,イバラキケン,ツチウラシ,ヤマトチョウ,茨城県土浦市大和町
3000037,茨城県,土浦市,桜町,イバラキケン,ツチウラシ,サクラマチ,茨城県土浦市桜町
3000038,茨城県,土浦市,大町,イバラキケン,ツチウラシ,オオマチ,茨城県土浦市大町
3000041,茨城県,土浦市,立田町,イバラキケン,ツチウラシ,タツタマチ,茨城県土浦市立田町
3000042,茨城県,土浦市,城北町,イバラキケン,ツチウラシ,ジョウホクマチ,茨城県土浦市城北町
3000043,茨城県,土浦市,中央,イバラキケン,ツチウラシ,チュウオウ,茨城県土浦市中央
3000044,茨城県,土浦市,大手町,イバラキケン,ツチウラシ,オオテマチ,茨城県土浦市大手町
3000045,茨城県,土浦市,文京町,イバラキケン,ツチウラシ,ブンキョウチョウ,茨城県土浦市文京町
3000046,茨城県,土浦市,千束町,イバラキケン,ツチウラシ,センゾクチョウ,茨城県土浦市千束町
3000047,茨城県,土浦市,生田町,イバラキケン,ツチウラシ,イクタマチ,茨城県土浦市生田町
3000048,茨城県,土浦市,田中,イバラキケン,ツチウラシ,タナカ,茨城県土浦市田中
3000049,茨城県,土浦市,田中町,イバラキケン,ツチウラシ,タナカマチ,茨城県土浦市田中町
3000051,茨城県,土浦市,真鍋,イバラキケン,ツチウラシ,マナベ,茨城県土浦市真鍋
3000052,茨城県,土浦市,東真鍋町,イバラキケン,ツチウラシ,ヒガシマナベマチ,茨城県土浦市東真鍋町
3000053,茨城県,土浦市,真鍋新町,イバラキケン,ツチウラシ,マナベシンマチ,茨城県土浦市真鍋新町
3000054,茨城県,土浦市,西真鍋町,イバラキケン,ツチウラシ,ニシマナベマチ,茨城県土浦市西真鍋町
3000055,茨城県,土浦市,殿里,イバラキケン,ツチウラシ,トノサト,茨城県土浦市殿里
3000056,茨城県,土浦市,木田余西台,イバラキケン,ツチウラシ,キダマリニシダイ,茨城県土浦市木田余西台
3000061,茨城県,土浦市,並木,イバラキケン,ツチウラシ,ナミキ,茨城県土浦市並木
3000062,茨城県,土浦市,都和,イバラキケン,ツチウラシ,ツワ,茨城県土浦市都和
3000063,茨城県,土浦市,若松町,イバラキケン,ツチウラシ,ワカマツチョウ,茨城県土浦市若松町
3000064,茨城県,土浦市,東若松町,イバラキケン,ツチウラシ,ヒガシワカマツマチ,茨城県土浦市東若松町
3000065,茨城県,土浦市,常名,イバラキケン,ツチウラシ,ヒタナ,茨城県土浦市常名
3000066,茨城県,土浦市,虫掛,イバラキケン,ツチウラシ,ムシカケ,茨城県土浦市虫掛
3000067,茨城県,土浦市,東都和,イバラキケン,ツチウラシ,ヒガシツワ,茨城県土浦市東都和
3000068,茨城県,土浦市,西並木町,イバラキケン,ツチウラシ,ニシナミキマチ,茨城県土浦市西並木町
3000069,茨城県,土浦市,東並木町,イバラキケン,ツチウラシ,ヒガシナミキマチ,茨城県土浦市東並木町
3000121,茨城県,かすみがうら市,宍倉,イバラキケン,カスミガウラシ,シシクラ,茨城県かすみがうら市宍倉
3000122,茨城県,かすみがうら市,西成井,イバラキケン,カスミガウラシ,ニシナルイ,茨城県かすみがうら市西成井
3000123,茨城県,かすみがうら市,上軽部,イバラキケン,カスミガウラシ,カミカルベ,茨城県かすみがうら市上軽部
3000124,茨城県,かすみがうら市,大和田,イバラキケン,カスミガウラシ,オオワダ,茨城県かすみがうら市大和田
3000125,茨城県,かすみがうら市,三ツ木,イバラキケン,カスミガウラシ,ミツギ,茨城県かすみがうら市三ツ木
3000126,茨城県,かすみがうら市,南根本,イバラキケン,カスミガウラシ,ミナミネモト,茨城県かすみがうら市南根本
3000127,茨城県,かすみがうら市,上大堤,イバラキケン,カスミガウラシ,カミオオヅツミ,茨城県かすみがうら市上大堤
3000131,茨城県,かすみがうら市,下大堤,イバラキケン,カスミガウラシ,シモオオヅツミ,茨城県かすみがうら市下大堤
3000132,茨城県,かすみがうら市,男神,イバラキケン,カスミガウラシ,オガミ,茨城県かすみがうら市男神
3000133,茨城県,かすみがうら市,中台,イバラキケン,カスミガウラシ,ナカダイ,茨城県かすみがうら市中台
3000134,茨城県,かすみがうら市,深谷,イバラキケン,カスミガウラシ,フカヤ,茨城県かすみがうら市深谷
3000135,茨城県,かすみがうら市,加茂,イバラキケン,カスミガウラシ,カモ,茨城県かすみがうら市加茂
3000136,茨城県,かすみがうら市,戸崎,イバラキケン,カスミガウラシ,トザキ,茨城県かすみがうら市戸崎
3000201,茨城県,かすみがうら市,柏崎,イバラキケン,カスミガウラシ,カシワザキ,茨城県かすみがうら市柏崎
3000202,茨城県,かすみがうら市,田伏,イバラキケン,カスミガウラシ,タブセ,茨城県かすみがうら市田伏
3000203,茨城県,かすみがうら市,岩坪,イバラキケン,カスミガウラシ,イワツボ,茨城県かすみがうら市岩坪
3000204,茨城県,かすみがうら市,下軽部,イバラキケン,カスミガウラシ,シモカルベ,茨城県かすみがうら市下軽部
3000205,茨城県,かすみがうら市,安食,イバラキケン,カスミガウラシ,アンジキ,茨城県かすみがうら市安食
3000211,茨城県,かすみがうら市,志戸崎,イバラキケン,カスミガウラシ,シトザキ,茨城県かすみがうら市志戸崎
3000212,茨城県,かすみがうら市,有河,イバラキケン,カスミガウラシ,アルガ,茨城県かすみがうら市有河
3000213,茨城県,かすみがうら市,牛渡,イバラキケン,カスミガウラシ,ウシワタ,茨城県かすみがうら市牛渡
3000214,茨城県,かすみがうら市,坂,イバラキケン,カスミガウラシ,サカ,茨城県かすみがうら市坂
3000300,茨城県,稲敷郡阿見町,,イバラキケン,イナシキグンアミマチ,,茨城県稲敷郡阿見町
3000301,茨城県,稲敷郡阿見町,青宿,イバラキケン,イナシキグンアミマチ,アオヤド,茨城県稲敷郡阿見町青宿
3000302,茨城県,稲敷郡阿見町,廻戸,イバラキケン,イナシキグンアミマチ,ハサマド,茨城県稲敷郡阿見町廻戸
3000303,茨城県,稲敷郡阿見町,大室,イバラキケン,イナシキグンアミマチ,オオムロ,茨城県稲敷郡阿見町大室
3000304,茨城県,稲敷郡阿見町,掛馬,イバラキケン,イナシキグンアミマチ,カケウマ,茨城県稲敷郡阿見町掛馬
3000305,茨城県,稲敷郡阿見町,竹来,イバラキケン,イナシキグンアミマチ,タカク,茨城県稲敷郡阿見町竹来
3000306,茨城県,稲敷郡阿見町,曙,イバラキケン,イナシキグンアミマチ,アケボノ,茨城県稲敷郡阿見町曙
3000311,茨城県,稲敷郡阿見町,島津,イバラキケン,イナシキグンアミマチ,シマヅ,茨城県稲敷郡阿見町島津
3000312,茨城県,稲敷郡阿見町,南平台,イバラキケン,イナシキグンアミマチ,ナンペイダイ,茨城県稲敷郡阿見町南平台
3000313,茨城県,稲敷郡阿見町,石川,イバラキケン,イナシキグンアミマチ,イシカワ,茨城県稲敷郡阿見町石川
3000314,茨城県,稲敷郡阿見町,追原,イバラキケン,イナシキグンアミマチ,オッパラ,茨城県稲敷郡阿見町追原
3000315,茨城県,稲敷郡阿見町,香澄の里,イバラキケン,イナシキグンアミマチ,カスミノサト,茨城県稲敷郡阿見町香澄の里
3000321,茨城県,稲敷郡阿見町,塙,イバラキケン,イナシキグンアミマチ,ハナワ,茨城県稲敷郡阿見町塙
3000322,茨城県,稲敷郡阿見町,君島,イバラキケン,イナシキグンアミマチ,キミジマ,茨城県稲敷郡阿見町君島
3000323,茨城県,稲敷郡阿見町,大形,イバラキケン,イナシキグンアミマチ,オオガタ,茨城県稲敷郡阿見町大形
3000324,茨城県,稲敷郡阿見町,飯倉,イバラキケン,イナシキグンアミマチ,イイグラ,茨城県稲敷郡阿見町飯倉
3000325,茨城県,稲敷郡阿見町,上条,イバラキケン,イナシキグンアミマチ,ジョウジョウ,茨城県稲敷郡阿見町上条
3000326,茨城県,稲敷郡阿見町,星の里,イバラキケン,イナシキグンアミマチ,ホシノサト,茨城県稲敷郡阿見町星の里
3000331,茨城県,稲敷郡阿見町,阿見,イバラキケン,イナシキグンアミマチ,アミ,茨城県稲敷郡阿見町阿見
3000332,茨城県,稲敷郡阿見町,中央,イバラキケン,イナシキグンアミマチ,チュウオウ,茨城県稲敷郡阿見町中央
3000333,茨城県,稲敷郡阿見町,若栗,イバラキケン,イナシキグンアミマチ,ワカグリ,茨城県稲敷郡阿見町若栗
3000334,茨城県,稲敷郡阿見町,鈴木,イバラキケン,イナシキグンアミマチ,スズキ,茨城県稲敷郡阿見町鈴木
3000335,茨城県,稲敷郡阿見町,岡崎,イバラキケン,イナシキグンアミマチ,オカザキ,茨城県稲敷郡阿見町岡崎
3000336,茨城県,稲敷郡阿見町,西郷,イバラキケン,イナシキグンアミマチ,ニシゴウ,茨城県稲敷郡阿見町西郷
3000337,茨城県,稲敷郡阿見町,中郷,イバラキケン,イナシキグンアミマチ,ナカゴウ,茨城県稲敷郡阿見町中郷
3000341,茨城県,稲敷郡阿見町,うずら野,イバラキケン,イナシキグンアミマチ,ウズラノ,茨城県稲敷郡阿見町うずら野
3000400,茨城県,稲敷郡美浦村,,イバラキケン,イナシキグンミホムラ,,茨城県稲敷郡美浦村
3000401,茨城県,稲敷郡美浦村,馬掛,イバラキケン,イナシキグンミホムラ,マガキ,茨城県稲敷郡美浦村馬掛
3000402,茨城県,稲敷郡美浦村,大山,イバラキケン,イナシキグンミホムラ,オオヤマ,茨城県稲敷郡美浦村大山
3000403,茨城県,稲敷郡美浦村,馬見山,イバラキケン,イナシキグンミホムラ,マミヤマ,茨城県稲敷郡美浦村馬見山
3000404,茨城県,稲敷郡美浦村,土浦,イバラキケン,イナシキグンミホムラ,ツチウラ,茨城県稲敷郡美浦村土浦
3000405,茨城県,稲敷郡美浦村,間野,イバラキケン,イナシキグンミホムラ,マノ,茨城県稲敷郡美浦村間野
3000406,茨城県,稲敷郡美浦村,山内,イバラキケン,イナシキグンミホムラ,ヤマウチ,茨城県稲敷郡美浦村山内
3000407,茨城県,稲敷郡美浦村,八井田,イバラキケン,イナシキグンミホムラ,ヤイタ,茨城県稲敷郡美浦村八井田
3000408,茨城県,稲敷郡美浦村,根火,イバラキケン,イナシキグンミホムラ,ネビ,茨城県稲敷郡美浦村根火
3000409,茨城県,稲敷郡美浦村,牛込,イバラキケン,イナシキグンミホムラ,ウシゴメ,茨城県稲敷郡美浦村牛込
3000410,茨城県,稲敷郡美浦村,みどり台,イバラキケン,イナシキグンミホムラ,ミドリダイ,茨城県稲敷郡美浦村みどり台
3000411,茨城県,稲敷郡美浦村,太田,イバラキケン,イナシキグンミホムラ,オオタ,茨城県稲敷郡美浦村太田
3000412,茨城県,稲敷郡美浦村,宮地,イバラキケン,イナシキグンミホムラ,ミヤジ,茨城県稲敷郡美浦村宮地
3000413,茨城県,稲敷郡美浦村,大谷,イバラキケン,イナシキグンミホムラ,オオヤ,茨城県稲敷郡美浦村大谷
3000414,茨城県,稲敷郡美浦村,信太,イバラキケン,イナシキグンミホムラ,シダ,茨城県稲敷郡美浦村信太
3000415,茨城県,稲敷郡美浦村,美駒,イバラキケン,イナシキグンミホムラ,ミコマ,茨城県稲敷郡美浦村美駒
3000416,茨城県,稲敷郡美浦村,大塚,イバラキケン,イナシキグンミホムラ,オオツカ,茨城県稲敷郡美浦村大塚
3000417,茨城県,稲敷郡美浦村,谷中,イバラキケン,イナシキグンミホムラ,ヤナカ,茨城県稲敷郡美浦村谷中
3000418,茨城県,稲敷郡美浦村,花見塚,イバラキケン,イナシキグンミホムラ,ハナミヅカ,茨城県稲敷郡美浦村花見塚
3000419,茨城県,稲敷郡美浦村,山王,イバラキケン,イナシキグンミホムラ,サンノウ,茨城県稲敷郡美浦村山王
3000420,茨城県,稲敷郡美浦村,郷中,イバラキケン,イナシキグンミホムラ,ゴウナカ,茨城県稲敷郡美浦村郷中
3000421,茨城県,稲敷郡美浦村,木原,イバラキケン,イナシキグンミホムラ,キハラ,茨城県稲敷郡美浦村木原
3000422,茨城県,稲敷郡美浦村,大須賀津,イバラキケン,イナシキグンミホムラ,オオスカヅ,茨城県稲敷郡美浦村大須賀津
3000423,茨城県,稲敷郡美浦村,茂呂,イバラキケン,イナシキグンミホムラ,モロ,茨城県稲敷郡美浦村茂呂
3000424,茨城県,稲敷郡美浦村,受領,イバラキケン,イナシキグンミホムラ,ウケリョウ,茨城県稲敷郡美浦村受領
3000425,茨城県,稲敷郡美浦村,興津,イバラキケン,イナシキグンミホムラ,オキツ,茨城県稲敷郡美浦村興津
3000426,茨城県,稲敷郡美浦村,土屋,イバラキケン,イナシキグンミホムラ,ツチヤ,茨城県稲敷郡美浦村土屋
3000427,茨城県,稲敷郡美浦村,布佐,イバラキケン,イナシキグンミホムラ,フサ,茨城県稲敷郡美浦村布佐
3000428,茨城県,稲敷郡美浦村,舟子,イバラキケン,イナシキグンミホムラ,フナコ,茨城県稲敷郡美浦村舟子
3000431,茨城県,稲敷郡美浦村,本橋,イバラキケン,イナシキグンミホムラ,モトハシ,茨城県稲敷郡美浦村本橋
3000432,茨城県,稲敷郡美浦村,定光,イバラキケン,イナシキグンミホムラ,ジョウコウ,茨城県稲敷郡美浦村定光
3000433,茨城県,稲敷郡美浦村,木,イバラキケン,イナシキグンミホムラ,キ,茨城県稲敷郡美浦村木
3000434,茨城県,稲敷郡美浦村,堀田,イバラキケン,イナシキグンミホムラ,ホッタ,茨城県稲敷郡美浦村堀田
3000435,茨城県,稲敷郡美浦村,中野内,イバラキケン,イナシキグンミホムラ,ナカノウチ,茨城県稲敷郡美浦村中野内
3000436,茨城県,稲敷郡美浦村,根本,イバラキケン,イナシキグンミホムラ,ネモト,茨城県稲敷郡美浦村根本
3000437,茨城県,稲敷郡美浦村,見晴,イバラキケン,イナシキグンミホムラ,ミハル,茨城県稲敷郡美浦村見晴
3000500,茨城県,稲敷市,,イバラキケン,イナシキシ,,茨城県稲敷市
3000501,茨城県,稲敷市,鳩崎,イバラキケン,イナシキシ,ハトザキ,茨城県稲敷市鳩崎
3000502,茨城県,稲敷市,信太古渡,イバラキケン,イナシキシ,シダフット,茨城県稲敷市信太古渡
3000503,茨城県,稲敷市,稲波,イバラキケン,イナシキシ,イナミ,茨城県稲敷市稲波
3000504,茨城県,稲敷市,江戸崎甲,イバラキケン,イナシキシ,エドサキコウ,茨城県稲敷市江戸崎甲
3000505,茨城県,稲敷市,村田,イバラキケン,イナシキシ,ムラタ,茨城県稲敷市村田
3000506,茨城県,稲敷市,沼田,イバラキケン,イナシキシ,ヌマタ,茨城県稲敷市沼田
3000507,茨城県,稲敷市,犬塚,イバラキケン,イナシキシ,イヌヅカ,茨城県稲敷市犬塚
3000508,茨城県,稲敷市,佐倉,イバラキケン,イナシキシ,サクラ,茨城県稲敷市佐倉
3000509,茨城県,稲敷市,江戸崎乙,イバラキケン,イナシキシ,エドサキオツ,茨城県稲敷市江戸崎乙
3000511,茨城県,稲敷市,高田,イバラキケン,イナシキシ,タカダ,茨城県稲敷市高田
3000512,茨城県,稲敷市,椎塚,イバラキケン,イナシキシ,シイヅカ,茨城県稲敷市椎塚
3000513,茨城県,稲敷市,桑山,イバラキケン,イナシキシ,クワヤマ,茨城県稲敷市桑山
3000514,茨城県,稲敷市,駒塚,イバラキケン,イナシキシ,コマツカ,茨城県稲敷市駒塚
3000515,茨城県,稲敷市,南ケ丘,イバラキケン,イナシキシ,ミナミガオカ,茨城県稲敷市南ケ丘
3000521,茨城県,稲敷市,月出里,イバラキケン,イナシキシ,スダチ,茨城県稲敷市月出里
3000522,茨城県,稲敷市,蒲ケ山,イバラキケン,イナシキシ,カマガヤマ,茨城県稲敷市蒲ケ山
3000523,茨城県,稲敷市,時崎,イバラキケン,イナシキシ,トキザキ,茨城県稲敷市時崎
3000524,茨城県,稲敷市,小羽賀,イバラキケン,イナシキシ,コハガ,茨城県稲敷市小羽賀
3000525,茨城県,稲敷市,羽賀,イバラキケン,イナシキシ,ハガ,茨城県稲敷市羽賀
3000526,茨城県,稲敷市,松山,イバラキケン,イナシキシ,マツヤマ,茨城県稲敷市松山
3000527,茨城県,稲敷市,下君山,イバラキケン,イナシキシ,シモキミヤマ,茨城県稲敷市下君山
3000528,茨城県,稲敷市,上君山,イバラキケン,イナシキシ,カミキミヤマ,茨城県稲敷市上君山
3000529,茨城県,稲敷市,江戸崎みらい,イバラキケン,イナシキシ,エドサキミライ,茨城県稲敷市江戸崎みらい
3000601,茨城県,稲敷市,下須田,イバラキケン,イナシキシ,シモスダ,茨城県稲敷市下須田
3000602,茨城県,稲敷市,阿波崎,イバラキケン,イナシキシ,アバサキ,茨城県稲敷市阿波崎
3000603,茨城県,稲敷市,伊佐部,イバラキケン,イナシキシ,イサブ,茨城県稲敷市伊佐部
3000604,茨城県,稲敷市,釜井,イバラキケン,イナシキシ,カマイ,茨城県稲敷市釜井
3000605,茨城県,稲敷市,幸田,イバラキケン,イナシキシ,コウダ,茨城県稲敷市幸田
3000606,茨城県,稲敷市,脇川,イバラキケン,イナシキシ,ワキガワ,茨城県稲敷市脇川
3000607,茨城県,稲敷市,光葉,イバラキケン,イナシキシ,ミツバ,茨城県稲敷市光葉
3000611,茨城県,稲敷市,中島,イバラキケン,イナシキシ,ナカジマ,茨城県稲敷市中島
3000612,茨城県,稲敷市,市崎,イバラキケン,イナシキシ,イチザキ,茨城県稲敷市市崎
3000613,茨城県,稲敷市,新橋,イバラキケン,イナシキシ,シンバシ,茨城県稲敷市新橋
3000614,茨城県,稲敷市,清水,イバラキケン,イナシキシ,シミズ,茨城県稲敷市清水
3000615,茨城県,稲敷市,町田,イバラキケン,イナシキシ,マチダ,茨城県稲敷市町田
3000616,茨城県,稲敷市,東大沼,イバラキケン,イナシキシ,ヒガシオオヌマ,茨城県稲敷市東大沼
3000617,茨城県,稲敷市,福田,イバラキケン,イナシキシ,フクダ,茨城県稲敷市福田
3000621,茨城県,稲敷市,阿波,イバラキケン,イナシキシ,アバ,茨城県稲敷市阿波
3000622,茨城県,稲敷市,神宮寺,イバラキケン,イナシキシ,ジングウジ,茨城県稲敷市神宮寺
3000623,茨城県,稲敷市,四箇,イバラキケン,イナシキシ,シカ,茨城県稲敷市四箇
3000624,茨城県,稲敷市,南山来,イバラキケン,イナシキシ,ミナミヤマク,茨城県稲敷市南山来
3000625,茨城県,稲敷市,須賀津,イバラキケン,イナシキシ,スカヅ,茨城県稲敷市須賀津
3000626,茨城県,稲敷市,甘田,イバラキケン,イナシキシ,アマダ,茨城県稲敷市甘田
3000631,茨城県,稲敷市,三次,イバラキケン,イナシキシ,ミツギ,茨城県稲敷市三次
3000632,茨城県,稲敷市,飯出,イバラキケン,イナシキシ,イイデ,茨城県稲敷市飯出
3000633,茨城県,稲敷市,岡飯出,イバラキケン,イナシキシ,オカイイデ,茨城県稲敷市岡飯出
3000634,茨城県,稲敷市,柏木,イバラキケン,イナシキシ,カシワギ,茨城県稲敷市柏木
3000635,茨城県,稲敷市,堀之内,イバラキケン,イナシキシ,ホリノウチ,茨城県稲敷市堀之内
3000636,茨城県,稲敷市,羽生,イバラキケン,イナシキシ,ハニュウ,茨城県稲敷市羽生
3000637,茨城県,稲敷市,柏木古渡,イバラキケン,イナシキシ,カシワギフット,茨城県稲敷市柏木古渡
3000638,茨城県,稲敷市,古渡,イバラキケン,イナシキシ,フット,茨城県稲敷市古渡
3000641,茨城県,稲敷市,浮島,イバラキケン,イナシキシ,ウキシマ,茨城県稲敷市浮島
3000642,茨城県,稲敷市,下馬渡,イバラキケン,イナシキシ,シモマワタシ,茨城県稲敷市下馬渡
3000643,茨城県,稲敷市,上馬渡,イバラキケン,イナシキシ,カミマワタシ,茨城県稲敷市上馬渡
3000721,茨城県,稲敷市,大島,イバラキケン,イナシキシ,オオシマ,茨城県稲敷市大島
3000722,茨城県,稲敷市,三島,イバラキケン,イナシキシ,ミシマ,茨城県稲敷市三島
3000723,茨城県,稲敷市,境島,イバラキケン,イナシキシ,サカイジマ,茨城県稲敷市境島
3000724,茨城県,稲敷市,八筋川,イバラキケン,イナシキシ,ヤスジカワ,茨城県稲敷市八筋川
3000725,茨城県,稲敷市,佐原下手,イバラキケン,イナシキシ,サワラシタテ,茨城県稲敷市佐原下手
3000726,茨城県,稲敷市,西代,イバラキケン,イナシキシ,ニシシロ,茨城県稲敷市西代
3000727,茨城県,稲敷市,飯島,イバラキケン,イナシキシ,イイジマ,茨城県稲敷市飯島
3000731,茨城県,稲敷市,本新,イバラキケン,イナシキシ,モトシン,茨城県稲敷市本新
3000732,茨城県,稲敷市,上之島,イバラキケン,イナシキシ,カミノシマ,茨城県稲敷市上之島
3000733,茨城県,稲敷市,石納,イバラキケン,イナシキシ,コクノウ,茨城県稲敷市石納
3000734,茨城県,稲敷市,結佐,イバラキケン,イナシキシ,ケッサ,茨城県稲敷市結佐
3000735,茨城県,稲敷市,六角,イバラキケン,イナシキシ,ロッカク,茨城県稲敷市六角
3000736,茨城県,稲敷市,八千石,イバラキケン,イナシキシ,ハッセンゴク,茨城県稲敷市八千石
3000737,茨城県,稲敷市,上須田,イバラキケン,イナシキシ,カミスダ,茨城県稲敷市上須田
3000741,茨城県,稲敷市,手賀組新田,イバラキケン,イナシキシ,テガクミシンデン,茨城県稲敷市手賀組新田
3000742,茨城県,稲敷市,四ッ谷,イバラキケン,イナシキシ,ヨツヤ,茨城県稲敷市四ッ谷
3000743,茨城県,稲敷市,曲渕,イバラキケン,イナシキシ,マガブチ,茨城県稲敷市曲渕
3000744,茨城県,稲敷市,押砂,イバラキケン,イナシキシ,オシズナ,茨城県稲敷市押砂
3000745,茨城県,稲敷市,橋向,イバラキケン,イナシキシ,ハシムコウ,茨城県稲敷市橋向
3000746,茨城県,稲敷市,神崎本宿,イバラキケン,イナシキシ,コウザキホンジュク,茨城県稲敷市神崎本宿
3000747,茨城県,稲敷市,余津谷,イバラキケン,イナシキシ,ヨツヤ,茨城県稲敷市余津谷
3000748,茨城県,稲敷市,清久島,イバラキケン,イナシキシ,セイキュウジマ,茨城県稲敷市清久島
3000749,茨城県,稲敷市,佐原組新田,イバラキケン,イナシキシ,サワラグミシンデン,茨城県稲敷市佐原組新田
3000801,茨城県,土浦市,矢作,イバラキケン,ツチウラシ,ヤハギ,茨城県土浦市矢作
3000802,茨城県,土浦市,飯田,イバラキケン,ツチウラシ,イイダ,茨城県土浦市飯田
3000803,茨城県,土浦市,佐野子,イバラキケン,ツチウラシ,サノコ,茨城県土浦市佐野子
3000804,茨城県,土浦市,粕毛,イバラキケン,ツチウラシ,カスゲ,茨城県土浦市粕毛
3000805,茨城県,土浦市,宍塚,イバラキケン,ツチウラシ,シシツカ,茨城県土浦市宍塚
3000810,茨城県,土浦市,永国台,イバラキケン,ツチウラシ,ナガクニダイ,茨城県土浦市永国台
3000811,茨城県,土浦市,上高津,イバラキケン,ツチウラシ,カミタカツ,茨城県土浦市上高津
3000812,茨城県,土浦市,下高津,イバラキケン,ツチウラシ,シモタカツ,茨城県土浦市下高津
3000813,茨城県,土浦市,富士崎,イバラキケン,ツチウラシ,フジサキ,茨城県土浦市富士崎
3000814,茨城県,土浦市,国分町,イバラキケン,ツチウラシ,コクブチョウ,茨城県土浦市国分町
3000815,茨城県,土浦市,中高津,イバラキケン,ツチウラシ,ナカタカツ,茨城県土浦市中高津
3000816,茨城県,土浦市,永国東町,イバラキケン,ツチウラシ,ナガクニヒガシマチ,茨城県土浦市永国東町
3000817,茨城県,土浦市,永国,イバラキケン,ツチウラシ,ナガクニ,茨城県土浦市永国
3000818,茨城県,土浦市,天川,イバラキケン,ツチウラシ,アマカワ,茨城県土浦市天川
3000819,茨城県,土浦市,上高津新町,イバラキケン,ツチウラシ,カミタカツシンマチ,茨城県土浦市上高津新町
3000821,茨城県,土浦市,蓮河原新町,イバラキケン,ツチウラシ,ハスカワラシンマチ,茨城県土浦市蓮河原新町
3000822,茨城県,土浦市,蓮河原町,イバラキケン,ツチウラシ,ハスカワラマチ,茨城県土浦市蓮河原町
3000823,茨城県,土浦市,小松,イバラキケン,ツチウラシ,コマツ,茨城県土浦市小松
3000824,茨城県,土浦市,千鳥ケ丘町,イバラキケン,ツチウラシ,チドリガオカマチ,茨城県土浦市千鳥ケ丘町
3000825,茨城県,土浦市,霞ケ岡町,イバラキケン,ツチウラシ,カスミガオカマチ,茨城県土浦市霞ケ岡町
3000826,茨城県,土浦市,小松ケ丘町,イバラキケン,ツチウラシ,コマツガオカマチ,茨城県土浦市小松ケ丘町
3000831,茨城県,土浦市,小岩田,イバラキケン,ツチウラシ,コイワタ,茨城県土浦市小岩田
3000832,茨城県,土浦市,桜ケ丘町,イバラキケン,ツチウラシ,サクラガオカマチ,茨城県土浦市桜ケ丘町
3000833,茨城県,土浦市,小岩田西,イバラキケン,ツチウラシ,コイワダニシ,茨城県土浦市小岩田西
3000834,茨城県,土浦市,小岩田東,イバラキケン,ツチウラシ,コイワダヒガシ,茨城県土浦市小岩田東
3000835,茨城県,土浦市,大岩田,イバラキケン,ツチウラシ,オオイワタ,茨城県土浦市大岩田
3000836,茨城県,土浦市,烏山,イバラキケン,ツチウラシ,カラスヤマ,茨城県土浦市烏山
3000837,茨城県,土浦市,右籾,イバラキケン,ツチウラシ,ミギモミ,茨城県土浦市右籾
3000838,茨城県,土浦市,摩利山新田,イバラキケン,ツチウラシ,マリヤマシンデン,茨城県土浦市摩利山新田
3000839,茨城県,土浦市,滝田,イバラキケン,ツチウラシ,タキタ,茨城県土浦市滝田
3000841,茨城県,土浦市,中,イバラキケン,ツチウラシ,ナカ,茨城県土浦市中
3000842,茨城県,土浦市,西根南,イバラキケン,ツチウラシ,ニシネミナミ,茨城県土浦市西根南
3000843,茨城県,土浦市,中村南,イバラキケン,ツチウラシ,ナカムラミナミ,茨城県土浦市中村南
3000844,茨城県,土浦市,乙戸,イバラキケン,ツチウラシ,オット,茨城県土浦市乙戸
3000845,茨城県,土浦市,乙戸南,イバラキケン,ツチウラシ,オットミナミ,茨城県土浦市乙戸南
3000846,茨城県,土浦市,小山田,イバラキケン,ツチウラシ,オヤマダ,茨城県土浦市小山田
3000847,茨城県,土浦市,卸町,イバラキケン,ツチウラシ,オロシマチ,茨城県土浦市卸町
3000848,茨城県,土浦市,西根西,イバラキケン,ツチウラシ,ニシネニシ,茨城県土浦市西根西
3000849,茨城県,土浦市,中村西根,イバラキケン,ツチウラシ,ナカムラニシネ,茨城県土浦市中村西根
3000850,茨城県,土浦市,中村東,イバラキケン,ツチウラシ,ナカムラヒガシ,茨城県土浦市中村東
3000871,茨城県,土浦市,荒川沖東,イバラキケン,ツチウラシ,アラカワオキヒガシ,茨城県土浦市荒川沖東
3000872,茨城県,土浦市,沖新田,イバラキケン,ツチウラシ,オキシンデン,茨城県土浦市沖新田
3000873,茨城県,土浦市,荒川沖,イバラキケン,ツチウラシ,アラカワオキ,茨城県土浦市荒川沖
3000874,茨城県,土浦市,荒川沖西,イバラキケン,ツチウラシ,アラカワオキニシ,茨城県土浦市荒川沖西
3000875,茨城県,土浦市,中荒川沖町,イバラキケン,ツチウラシ,ナカアラカワオキマチ,茨城県土浦市中荒川沖町
3000876,茨城県,土浦市,北荒川沖町,イバラキケン,ツチウラシ,キタアラカワオキマチ,茨城県土浦市北荒川沖町
3000877,茨城県,土浦市,荒川本郷,イバラキケン,ツチウラシ,アラカワホンゴウ,茨城県土浦市荒川本郷
3001151,茨城県,稲敷郡阿見町,荒川沖,イバラキケン,イナシキグンアミマチ,アラカワオキ,茨城県稲敷郡阿見町荒川沖
3001152,茨城県,稲敷郡阿見町,荒川本郷,イバラキケン,イナシキグンアミマチ,アラカワホンゴウ,茨城県稲敷郡阿見町荒川本郷
3001153,茨城県,稲敷郡阿見町,実穀,イバラキケン,イナシキグンアミマチ,ジツコク,茨城県稲敷郡阿見町実穀
3001154,茨城県,稲敷郡阿見町,上長,イバラキケン,イナシキグンアミマチ,カミナガ,茨城県稲敷郡阿見町上長
3001155,茨城県,稲敷郡阿見町,吉原,イバラキケン,イナシキグンアミマチ,ヨシワラ,茨城県稲敷郡阿見町吉原
3001156,茨城県,稲敷郡阿見町,福田,イバラキケン,イナシキグンアミマチ,フクダ,茨城県稲敷郡阿見町福田
3001157,茨城県,稲敷郡阿見町,小池,イバラキケン,イナシキグンアミマチ,コイケ,茨城県稲敷郡阿見町小池
3001158,茨城県,稲敷郡阿見町,住吉,イバラキケン,イナシキグンアミマチ,スミヨシ,茨城県稲敷郡阿見町住吉
3001159,茨城県,稲敷郡阿見町,本郷,イバラキケン,イナシキグンアミマチ,ホンゴウ,茨城県稲敷郡阿見町本郷
3001161,茨城県,稲敷郡阿見町,よしわら,イバラキケン,イナシキグンアミマチ,ヨシワラ,茨城県稲敷郡阿見町よしわら
3001200,茨城県,牛久市,,イバラキケン,ウシクシ,,茨城県牛久市
3001201,茨城県,牛久市,東猯穴町,イバラキケン,ウシクシ,ヒガシマミアナチョウ,茨城県牛久市東猯穴町
3001202,茨城県,牛久市,中根町,イバラキケン,ウシクシ,ナカネチョウ,茨城県牛久市中根町
3001203,茨城県,牛久市,下根町,イバラキケン,ウシクシ,シモネチョウ,茨城県牛久市下根町
3001204,茨城県,牛久市,岡見町,イバラキケン,ウシクシ,オカミチョウ,茨城県牛久市岡見町
3001205,茨城県,牛久市,東大和田町,イバラキケン,ウシクシ,ヒガシオオワダチョウ,茨城県牛久市東大和田町
3001206,茨城県,牛久市,ひたち野西,イバラキケン,ウシクシ,ヒタチノニシ,茨城県牛久市ひたち野西
3001207,茨城県,牛久市,ひたち野東,イバラキケン,ウシクシ,ヒタチノヒガシ,茨城県牛久市ひたち野東
3001211,茨城県,牛久市,柏田町,イバラキケン,ウシクシ,カシワダチョウ,茨城県牛久市柏田町
3001212,茨城県,牛久市,結束町,イバラキケン,ウシクシ,ケッソクチョウ,茨城県牛久市結束町
3001213,茨城県,牛久市,上太田町,イバラキケン,ウシクシ,カミオオタチョウ,茨城県牛久市上太田町
3001214,茨城県,牛久市,女化町,イバラキケン,ウシクシ,オナバケチョウ,茨城県牛久市女化町
3001215,茨城県,牛久市,遠山町,イバラキケン,ウシクシ,トオヤマチョウ,茨城県牛久市遠山町
3001216,茨城県,牛久市,神谷,イバラキケン,ウシクシ,カミヤ,茨城県牛久市神谷
3001217,茨城県,牛久市,さくら台,イバラキケン,ウシクシ,サクラダイ,茨城県牛久市さくら台
3001221,茨城県,牛久市,牛久町,イバラキケン,ウシクシ,ウシクチョウ,茨城県牛久市牛久町
3001222,茨城県,牛久市,南,イバラキケン,ウシクシ,ミナミ,茨城県牛久市南
3001223,茨城県,牛久市,城中町,イバラキケン,ウシクシ,ジョウチュウチョウ,茨城県牛久市城中町
3001224,茨城県,牛久市,庄兵衛新田町,イバラキケン,ウシクシ,ショウベエシンデンチョウ,茨城県牛久市庄兵衛新田町
3001225,茨城県,牛久市,新地町,イバラキケン,ウシクシ,シンチチョウ,茨城県牛久市新地町
3001231,茨城県,牛久市,猪子町,イバラキケン,ウシクシ,シシコチョウ,茨城県牛久市猪子町
3001232,茨城県,牛久市,上柏田,イバラキケン,ウシクシ,カミカシワダ,茨城県牛久市上柏田
3001233,茨城県,牛久市,栄町,イバラキケン,ウシクシ,サカエチョウ,茨城県牛久市栄町
3001234,茨城県,牛久市,中央,イバラキケン,ウシクシ,チュウオウ,茨城県牛久市中央
3001235,茨城県,牛久市,刈谷町,イバラキケン,ウシクシ,カリヤチョウ,茨城県牛久市刈谷町
3001236,茨城県,牛久市,田宮町,イバラキケン,ウシクシ,タグウチョウ,茨城県牛久市田宮町
3001237,茨城県,牛久市,田宮,イバラキケン,ウシクシ,タグウ,茨城県牛久市田宮
3001240,茨城県,つくば市,池の台（その他）,イバラキケン,ツクバシ,イケノダイ(ソノタ),茨城県つくば市池の台（その他）
3001241,茨城県,つくば市,牧園,イバラキケン,ツクバシ,マキゾノ,茨城県つくば市牧園
3001242,茨城県,つくば市,樋の沢,イバラキケン,ツクバシ,ヒノサワ,茨城県つくば市樋の沢
3001243,茨城県,つくば市,大井,イバラキケン,ツクバシ,オオイ,茨城県つくば市大井
3001244,茨城県,つくば市,松の里（その他）,イバラキケン,ツクバシ,マツノサト(ソノタ),茨城県つくば市松の里（その他）
3001245,茨城県,つくば市,高崎,イバラキケン,ツクバシ,タカサキ,茨城県つくば市高崎
3001246,茨城県,つくば市,菅間,イバラキケン,ツクバシ,スガマ,茨城県つくば市菅間
3001247,茨城県,つくば市,西の沢（その他）,イバラキケン,ツクバシ,ニシノサワ(ソノタ),茨城県つくば市西の沢（その他）
3001248,茨城県,つくば市,若栗,イバラキケン,ツクバシ,ワカグリ,茨城県つくば市若栗
3001249,茨城県,つくば市,若葉,イバラキケン,ツクバシ,ワカバ,茨城県つくば市若葉
3001251,茨城県,つくば市,城山,イバラキケン,ツクバシ,シロヤマ,茨城県つくば市城山
3001252,茨城県,つくば市,高見原,イバラキケン,ツクバシ,タカミハラ,茨城県つくば市高見原
3001253,茨城県,つくば市,天宝喜,イバラキケン,ツクバシ,アマボウキ,茨城県つくば市天宝喜
3001254,茨城県,つくば市,宝陽台,イバラキケン,ツクバシ,ホウヨウダイ,茨城県つくば市宝陽台
3001255,茨城県,つくば市,小茎,イバラキケン,ツクバシ,オグキ,茨城県つくば市小茎
3001256,茨城県,つくば市,森の里,イバラキケン,ツクバシ,モリノサト,茨城県つくば市森の里
3001257,茨城県,つくば市,明神,イバラキケン,ツクバシ,ミョウジン,茨城県つくば市明神
3001258,茨城県,つくば市,六斗,イバラキケン,ツクバシ,ロクト,茨城県つくば市六斗
3001259,茨城県,つくば市,稲荷原,イバラキケン,ツクバシ,イナリハラ,茨城県つくば市稲荷原
3001260,茨城県,つくば市,西大井,イバラキケン,ツクバシ,ニシオオイ,茨城県つくば市西大井
3001261,茨城県,つくば市,あしび野,イバラキケン,ツクバシ,アシビノ,茨城県つくば市あしび野
3001262,茨城県,つくば市,九万坪,イバラキケン,ツクバシ,クマンツボ,茨城県つくば市九万坪
3001263,茨城県,つくば市,富士見台,イバラキケン,ツクバシ,フジミダイ,茨城県つくば市富士見台
3001264,茨城県,つくば市,泊崎,イバラキケン,ツクバシ,ハッサキ,茨城県つくば市泊崎
3001265,茨城県,つくば市,細見,イバラキケン,ツクバシ,ホソミ,茨城県つくば市細見
3001266,茨城県,つくば市,自由ケ丘,イバラキケン,ツクバシ,ジユウガオカ,茨城県つくば市自由ケ丘
3001267,茨城県,つくば市,大舟戸,イバラキケン,ツクバシ,オオフナト,茨城県つくば市大舟戸
3001268,茨城県,つくば市,中山,イバラキケン,ツクバシ,ナカヤマ,茨城県つくば市中山
3001269,茨城県,つくば市,池向,イバラキケン,ツクバシ,イケムカイ,茨城県つくば市池向
3001271,茨城県,つくば市,桜が丘,イバラキケン,ツクバシ,サクラガオカ,茨城県つくば市桜が丘
3001272,茨城県,つくば市,茎崎,イバラキケン,ツクバシ,クキザキ,茨城県つくば市茎崎
3001273,茨城県,つくば市,下岩崎,イバラキケン,ツクバシ,シモイワサキ,茨城県つくば市下岩崎
3001274,茨城県,つくば市,上岩崎,イバラキケン,ツクバシ,カミイワサキ,茨城県つくば市上岩崎
3001275,茨城県,つくば市,梅ケ丘,イバラキケン,ツクバシ,ウメガオカ,茨城県つくば市梅ケ丘
3001276,茨城県,つくば市,小山,イバラキケン,ツクバシ,コヤマ,茨城県つくば市小山
3001277,茨城県,つくば市,駒込,イバラキケン,ツクバシ,コマゴメ,茨城県つくば市駒込
3001278,茨城県,つくば市,房内,イバラキケン,ツクバシ,ボウチ,茨城県つくば市房内
3001281,茨城県,牛久市,桂町,イバラキケン,ウシクシ,カツラチョウ,茨城県牛久市桂町
3001282,茨城県,牛久市,井ノ岡町,イバラキケン,ウシクシ,イノオカチョウ,茨城県牛久市井ノ岡町
3001283,茨城県,牛久市,奥原町,イバラキケン,ウシクシ,オクバラチョウ,茨城県牛久市奥原町
3001284,茨城県,牛久市,島田町,イバラキケン,ウシクシ,シマダチョウ,茨城県牛久市島田町
3001285,茨城県,牛久市,正直町,イバラキケン,ウシクシ,ショウジキチョウ,茨城県牛久市正直町
3001286,茨城県,牛久市,小坂町,イバラキケン,ウシクシ,オサカチョウ,茨城県牛久市小坂町
3001287,茨城県,牛久市,福田町,イバラキケン,ウシクシ,フクダチョウ,茨城県牛久市福田町
3001288,茨城県,牛久市,久野町,イバラキケン,ウシクシ,クノチョウ,茨城県牛久市久野町
3001300,茨城県,稲敷郡河内町,,イバラキケン,イナシキグンカワチマチ,,茨城県稲敷郡河内町
3001311,茨城県,稲敷郡河内町,庄布川,イバラキケン,イナシキグンカワチマチ,ショウブカワ,茨城県稲敷郡河内町庄布川
3001312,茨城県,稲敷郡河内町,長竿,イバラキケン,イナシキグンカワチマチ,ナガサオ,茨城県稲敷郡河内町長竿
3001313,茨城県,稲敷郡河内町,田川（４９０５−１）,イバラキケン,イナシキグンカワチマチ,タガワ(4905-1),茨城県稲敷郡河内町田川（4905-1）
3001314,茨城県,稲敷郡河内町,下町歩,イバラキケン,イナシキグンカワチマチ,シモチョウブ,茨城県稲敷郡河内町下町歩
3001315,茨城県,稲敷郡河内町,十里,イバラキケン,イナシキグンカワチマチ,ジュウリ,茨城県稲敷郡河内町十里
3001316,茨城県,稲敷郡河内町,布鎌,イバラキケン,イナシキグンカワチマチ,フカマ,茨城県稲敷郡河内町布鎌
3001321,茨城県,稲敷郡河内町,羽子騎,イバラキケン,イナシキグンカワチマチ,ハネキ,茨城県稲敷郡河内町羽子騎
3001322,茨城県,稲敷郡河内町,古河林,イバラキケン,イナシキグンカワチマチ,コガバヤシ,茨城県稲敷郡河内町古河林
3001323,茨城県,稲敷郡河内町,手栗,イバラキケン,イナシキグンカワチマチ,テグリ,茨城県稲敷郡河内町手栗
3001324,茨城県,稲敷郡河内町,源清田,イバラキケン,イナシキグンカワチマチ,ゲンセイダ,茨城県稲敷郡河内町源清田
3001325,茨城県,稲敷郡河内町,平三郎,イバラキケン,イナシキグンカワチマチ,ヘイザブロウ,茨城県稲敷郡河内町平三郎
3001326,茨城県,稲敷郡河内町,宮淵,イバラキケン,イナシキグンカワチマチ,ミヤブチ,茨城県稲敷郡河内町宮淵
3001327,茨城県,稲敷郡河内町,猿島,イバラキケン,イナシキグンカワチマチ,サシマ,茨城県稲敷郡河内町猿島
3001331,茨城県,稲敷郡河内町,生板,イバラキケン,イナシキグンカワチマチ,マナイタ,茨城県稲敷郡河内町生板
3001332,茨城県,稲敷郡河内町,幸谷,イバラキケン,イナシキグンカワチマチ,コウヤ,茨城県稲敷郡河内町幸谷
3001333,茨城県,稲敷郡河内町,角崎町歩,イバラキケン,イナシキグンカワチマチ,スミザキチョウブ,茨城県稲敷郡河内町角崎町歩
3001334,茨城県,稲敷郡河内町,小林町歩,イバラキケン,イナシキグンカワチマチ,コバヤシチョウブ,茨城県稲敷郡河内町小林町歩
3001335,茨城県,稲敷郡河内町,生板鍋子新田,イバラキケン,イナシキグンカワチマチ,マナイタナベコシンデン,茨城県稲敷郡河内町生板鍋子新田
3001336,茨城県,稲敷郡河内町,大徳鍋子新田,イバラキケン,イナシキグンカワチマチ,ダイトクナベコシンデン,茨城県稲敷郡河内町大徳鍋子新田
3001337,茨城県,稲敷郡河内町,竜ケ崎町歩,イバラキケン,イナシキグンカワチマチ,リュウガサキチョウブ,茨城県稲敷郡河内町竜ケ崎町歩
3001401,茨城県,稲敷郡河内町,十三間戸,イバラキケン,イナシキグンカワチマチ,ジュウサンマド,茨城県稲敷郡河内町十三間戸
3001402,茨城県,稲敷郡河内町,平川,イバラキケン,イナシキグンカワチマチ,ヒラカワ,茨城県稲敷郡河内町平川
3001403,茨城県,稲敷郡河内町,金江津,イバラキケン,イナシキグンカワチマチ,カナエツ,茨城県稲敷郡河内町金江津
3001404,茨城県,稲敷郡河内町,片巻,イバラキケン,イナシキグンカワチマチ,カタマキ,茨城県稲敷郡河内町片巻
3001405,茨城県,稲敷郡河内町,田川（その他）,イバラキケン,イナシキグンカワチマチ,タガワ(ソノタ),茨城県稲敷郡河内町田川（その他）
3001406,茨城県,稲敷郡河内町,下加納,イバラキケン,イナシキグンカワチマチ,シモカノウ,茨城県稲敷郡河内町下加納
3001411,茨城県,稲敷市,伊佐津,イバラキケン,イナシキシ,イサツ,茨城県稲敷市伊佐津
3001412,茨城県,稲敷市,柴崎,イバラキケン,イナシキシ,シバサキ,茨城県稲敷市柴崎
3001413,茨城県,稲敷市,伊崎,イバラキケン,イナシキシ,イサキ,茨城県稲敷市伊崎
3001414,茨城県,稲敷市,戌渡,イバラキケン,イナシキシ,イヌワタリ,茨城県稲敷市戌渡
3001415,茨城県,稲敷市,中山,イバラキケン,イナシキシ,ナカヤマ,茨城県稲敷市中山
3001416,茨城県,稲敷市,角崎,イバラキケン,イナシキシ,スミザキ,茨城県稲敷市角崎
3001417,茨城県,稲敷市,狸穴,イバラキケン,イナシキシ,マミアナ,茨城県稲敷市狸穴
3001421,茨城県,稲敷市,堀川,イバラキケン,イナシキシ,ホリカワ,茨城県稲敷市堀川
3001422,茨城県,稲敷市,南太田,イバラキケン,イナシキシ,ミナミオオタ,茨城県稲敷市南太田
3001423,茨城県,稲敷市,太田,イバラキケン,イナシキシ,オオタ,茨城県稲敷市太田
3001424,茨城県,稲敷市,下太田,イバラキケン,イナシキシ,シモオオタ,茨城県稲敷市下太田
3001425,茨城県,稲敷市,小野,イバラキケン,イナシキシ,オノ,茨城県稲敷市小野
3001426,茨城県,稲敷市,寺内,イバラキケン,イナシキシ,テラウチ,茨城県稲敷市寺内
3001427,茨城県,稲敷市,羽賀浦,イバラキケン,イナシキシ,ハガウラ,茨城県稲敷市羽賀浦
3001501,茨城県,取手市,双葉,イバラキケン,トリデシ,フタバ,茨城県取手市双葉
3001502,茨城県,取手市,新川,イバラキケン,トリデシ,シンカワ,茨城県取手市新川
3001503,茨城県,取手市,大曲,イバラキケン,トリデシ,オオマガリ,茨城県取手市大曲
3001504,茨城県,取手市,萱場,イバラキケン,トリデシ,カヤバ,茨城県取手市萱場
3001505,茨城県,取手市,下萱場,イバラキケン,トリデシ,シモカヤバ,茨城県取手市下萱場
3001506,茨城県,取手市,上萱場,イバラキケン,トリデシ,カミカヤバ,茨城県取手市上萱場
3001507,茨城県,取手市,浜田,イバラキケン,トリデシ,ハマダ,茨城県取手市浜田
3001508,茨城県,取手市,紫水,イバラキケン,トリデシ,シスイ,茨城県取手市紫水
3001511,茨城県,取手市,椚木,イバラキケン,トリデシ,クヌギ,茨城県取手市椚木
3001512,茨城県,取手市,藤代,イバラキケン,トリデシ,フジシロ,茨城県取手市藤代
3001513,茨城県,取手市,片町,イバラキケン,トリデシ,カタマチ,茨城県取手市片町
3001514,茨城県,取手市,宮和田,イバラキケン,トリデシ,ミヤワダ,茨城県取手市宮和田
3001515,茨城県,取手市,平野,イバラキケン,トリデシ,ヒラノ,茨城県取手市平野
3001516,茨城県,取手市,藤代南,イバラキケン,トリデシ,フジシロミナミ,茨城県取手市藤代南
3001521,茨城県,取手市,押切,イバラキケン,トリデシ,オシキリ,茨城県取手市押切
3001522,茨城県,取手市,高須,イバラキケン,トリデシ,タカス,茨城県取手市高須
3001523,茨城県,取手市,大留,イバラキケン,トリデシ,オオドメ,茨城県取手市大留
3001524,茨城県,取手市,神浦,イバラキケン,トリデシ,カンノウラ,茨城県取手市神浦
3001525,茨城県,取手市,桜が丘,イバラキケン,トリデシ,サクラガオカ,茨城県取手市桜が丘
3001531,茨城県,取手市,小浮気,イバラキケン,トリデシ,コブケ,茨城県取手市小浮気
3001532,茨城県,取手市,谷中,イバラキケン,トリデシ,ヤナカ,茨城県取手市谷中
3001533,茨城県,取手市,中田,イバラキケン,トリデシ,ナカタ,茨城県取手市中田
3001534,茨城県,取手市,渋沼,イバラキケン,トリデシ,シブヌマ,茨城県取手市渋沼
3001535,茨城県,取手市,清水,イバラキケン,トリデシ,シミズ,茨城県取手市清水
3001536,茨城県,取手市,光風台,イバラキケン,トリデシ,コウフウダイ,茨城県取手市光風台
3001537,茨城県,取手市,毛有,イバラキケン,トリデシ,ケアリ,茨城県取手市毛有
3001538,茨城県,取手市,米田,イバラキケン,トリデシ,ヨネダ,茨城県取手市米田
3001539,茨城県,取手市,小泉,イバラキケン,トリデシ,コイズミ,茨城県取手市小泉
3001541,茨城県,取手市,配松,イバラキケン,トリデシ,ハイマツ,茨城県取手市配松
3001542,茨城県,取手市,神住,イバラキケン,トリデシ,カスミ,茨城県取手市神住
3001543,茨城県,取手市,中内,イバラキケン,トリデシ,ナカウチ,茨城県取手市中内
3001544,茨城県,取手市,山王,イバラキケン,トリデシ,サンノウ,茨城県取手市山王
3001545,茨城県,取手市,和田,イバラキケン,トリデシ,ワダ,茨城県取手市和田
3001546,茨城県,取手市,岡,イバラキケン,トリデシ,オカ,茨城県取手市岡
3001600,茨城県,北相馬郡利根町,,イバラキケン,キタソウマグントネマチ,,茨城県北相馬郡利根町
3001601,茨城県,北相馬郡利根町,大房,イバラキケン,キタソウマグントネマチ,ダイボウ,茨城県北相馬郡利根町大房
3001602,茨城県,北相馬郡利根町,押戸,イバラキケン,キタソウマグントネマチ,オシド,茨城県北相馬郡利根町押戸
3001603,茨城県,北相馬郡利根町,奥山,イバラキケン,キタソウマグントネマチ,オクヤマ,茨城県北相馬郡利根町奥山
3001604,茨城県,北相馬郡利根町,横須賀,イバラキケン,キタソウマグントネマチ,ヨコスカ,茨城県北相馬郡利根町横須賀
3001605,茨城県,北相馬郡利根町,大平,イバラキケン,キタソウマグントネマチ,ダイヘイ,茨城県北相馬郡利根町大平
3001606,茨城県,北相馬郡利根町,もえぎ野台,イバラキケン,キタソウマグントネマチ,モエギノダイ,茨城県北相馬郡利根町もえぎ野台
3001611,茨城県,北相馬郡利根町,惣新田,イバラキケン,キタソウマグントネマチ,ソウシンデン,茨城県北相馬郡利根町惣新田
3001612,茨城県,北相馬郡利根町,加納新田,イバラキケン,キタソウマグントネマチ,カノウシンデン,茨城県北相馬郡利根町加納新田
3001613,茨城県,北相馬郡利根町,東奥山新田,イバラキケン,キタソウマグントネマチ,ヒガシオクヤマシンデン,茨城県北相馬郡利根町東奥山新田
3001614,茨城県,北相馬郡利根町,立崎,イバラキケン,キタソウマグントネマチ,タツザキ,茨城県北相馬郡利根町立崎
3001615,茨城県,北相馬郡利根町,中谷,イバラキケン,キタソウマグントネマチ,ナカヤ,茨城県北相馬郡利根町中谷
3001616,茨城県,北相馬郡利根町,立木,イバラキケン,キタソウマグントネマチ,タツギ,茨城県北相馬郡利根町立木
3001621,茨城県,北相馬郡利根町,福木,イバラキケン,キタソウマグントネマチ,フクノキ,茨城県北相馬郡利根町福木
3001622,茨城県,北相馬郡利根町,布川,イバラキケン,キタソウマグントネマチ,フカワ,茨城県北相馬郡利根町布川
3001623,茨城県,北相馬郡利根町,八幡台,イバラキケン,キタソウマグントネマチ,ハチマンダイ,茨城県北相馬郡利根町八幡台
3001624,茨城県,北相馬郡利根町,中田切,イバラキケン,キタソウマグントネマチ,ナカタギリ,茨城県北相馬郡利根町中田切
3001625,茨城県,北相馬郡利根町,羽中,イバラキケン,キタソウマグントネマチ,ハナカ,茨城県北相馬郡利根町羽中
3001626,茨城県,北相馬郡利根町,四季の丘,イバラキケン,キタソウマグントネマチ,シキノオカ,茨城県北相馬郡利根町四季の丘
3001631,茨城県,北相馬郡利根町,早尾,イバラキケン,キタソウマグントネマチ,ハヤオ,茨城県北相馬郡利根町早尾
3001632,茨城県,北相馬郡利根町,下曽根,イバラキケン,キタソウマグントネマチ,シモゾネ,茨城県北相馬郡利根町下曽根
3001633,茨城県,北相馬郡利根町,下井,イバラキケン,キタソウマグントネマチ,シモイ,茨城県北相馬郡利根町下井
3001634,茨城県,北相馬郡利根町,押付新田,イバラキケン,キタソウマグントネマチ,オシツケシンデン,茨城県北相馬郡利根町押付新田
3001635,茨城県,北相馬郡利根町,上曽根,イバラキケン,キタソウマグントネマチ,カミゾネ,茨城県北相馬郡利根町上曽根
3001636,茨城県,北相馬郡利根町,羽根野,イバラキケン,キタソウマグントネマチ,ハネノ,茨城県北相馬郡利根町羽根野
3002300,茨城県,つくばみらい市,,イバラキケン,ツクバミライシ,,茨城県つくばみらい市
3002301,茨城県,つくばみらい市,高岡,イバラキケン,ツクバミライシ,タカオカ,茨城県つくばみらい市高岡
3002302,茨城県,つくばみらい市,狸穴,イバラキケン,ツクバミライシ,マミアナ,茨城県つくばみらい市狸穴
3002303,茨城県,つくばみらい市,大和田,イバラキケン,ツクバミライシ,オオワダ,茨城県つくばみらい市大和田
3002304,茨城県,つくばみらい市,武兵衛新田,イバラキケン,ツクバミライシ,ブヘエシンデン,茨城県つくばみらい市武兵衛新田
3002305,茨城県,つくばみらい市,重右衛門新田,イバラキケン,ツクバミライシ,ジュウエモンシンデン,茨城県つくばみらい市重右衛門新田
3002306,茨城県,つくばみらい市,南太田,イバラキケン,ツクバミライシ,ミナミオオタ,茨城県つくばみらい市南太田
3002307,茨城県,つくばみらい市,板橋,イバラキケン,ツクバミライシ,イタバシ,茨城県つくばみらい市板橋
3002308,茨城県,つくばみらい市,伊奈東,イバラキケン,ツクバミライシ,イナヒガシ,茨城県つくばみらい市伊奈東
3002311,茨城県,つくばみらい市,野堀,イバラキケン,ツクバミライシ,ノボリ,茨城県つくばみらい市野堀
3002312,茨城県,つくばみらい市,神生,イバラキケン,ツクバミライシ,カンノウ,茨城県つくばみらい市神生
3002313,茨城県,つくばみらい市,東栗山,イバラキケン,ツクバミライシ,ヒガシクリヤマ,茨城県つくばみらい市東栗山
3002314,茨城県,つくばみらい市,城中,イバラキケン,ツクバミライシ,ジョウチュウ,茨城県つくばみらい市城中
3002315,茨城県,つくばみらい市,足高,イバラキケン,ツクバミライシ,アダカ,茨城県つくばみらい市足高
3002321,茨城県,つくばみらい市,戸茂,イバラキケン,ツクバミライシ,トモ,茨城県つくばみらい市戸茂
3002322,茨城県,つくばみらい市,戸崎,イバラキケン,ツクバミライシ,トサキ,茨城県つくばみらい市戸崎
3002323,茨城県,つくばみらい市,伊丹,イバラキケン,ツクバミライシ,イタミ,茨城県つくばみらい市伊丹
3002324,茨城県,つくばみらい市,下島,イバラキケン,ツクバミライシ,シモジマ,茨城県つくばみらい市下島
3002325,茨城県,つくばみらい市,中島,イバラキケン,ツクバミライシ,ナカジマ,茨城県つくばみらい市中島
3002326,茨城県,つくばみらい市,上島,イバラキケン,ツクバミライシ,カミジマ,茨城県つくばみらい市上島
3002327,茨城県,つくばみらい市,福原,イバラキケン,ツクバミライシ,フクワラ,茨城県つくばみらい市福原
3002331,茨城県,つくばみらい市,神住新田,イバラキケン,ツクバミライシ,カスミシンデン,茨城県つくばみらい市神住新田
3002332,茨城県,つくばみらい市,山王新田,イバラキケン,ツクバミライシ,サンノウシンデン,茨城県つくばみらい市山王新田
3002333,茨城県,つくばみらい市,下平柳,イバラキケン,ツクバミライシ,シモヒラヤナギ,茨城県つくばみらい市下平柳
3002334,茨城県,つくばみらい市,中平柳,イバラキケン,ツクバミライシ,ナカヒラヤナギ,茨城県つくばみらい市中平柳
3002335,茨城県,つくばみらい市,上平柳,イバラキケン,ツクバミライシ,カミヒラヤナギ,茨城県つくばみらい市上平柳
3002336,茨城県,つくばみらい市,山谷,イバラキケン,ツクバミライシ,サンヤ,茨城県つくばみらい市山谷
3002337,茨城県,つくばみらい市,谷井田,イバラキケン,ツクバミライシ,ヤイタ,茨城県つくばみらい市谷井田
3002341,茨城県,つくばみらい市,福田,イバラキケン,ツクバミライシ,フクダ,茨城県つくばみらい市福田
3002342,茨城県,つくばみらい市,弥柳,イバラキケン,ツクバミライシ,イヨヤナギ,茨城県つくばみらい市弥柳
3002343,茨城県,つくばみらい市,狸渕,イバラキケン,ツクバミライシ,ムジナブチ,茨城県つくばみらい市狸渕
3002344,茨城県,つくばみらい市,長渡呂新田,イバラキケン,ツクバミライシ,ナガトロシンデン,茨城県つくばみらい市長渡呂新田
3002345,茨城県,つくばみらい市,長渡呂,イバラキケン,ツクバミライシ,ナガトロ,茨城県つくばみらい市長渡呂
3002346,茨城県,つくばみらい市,青木,イバラキケン,ツクバミライシ,アオキ,茨城県つくばみらい市青木
3002347,茨城県,つくばみらい市,豊体,イバラキケン,ツクバミライシ,ブタイ,茨城県つくばみらい市豊体
3002348,茨城県,つくばみらい市,青古新田,イバラキケン,ツクバミライシ,アオコシンデン,茨城県つくばみらい市青古新田
3002351,茨城県,つくばみらい市,善助新田,イバラキケン,ツクバミライシ,ゼンスケシンデン,茨城県つくばみらい市善助新田
3002352,茨城県,つくばみらい市,小島新田,イバラキケン,ツクバミライシ,オジマシンデン,茨城県つくばみらい市小島新田
3002353,茨城県,つくばみらい市,小張,イバラキケン,ツクバミライシ,オバリ,茨城県つくばみらい市小張
3002354,茨城県,つくばみらい市,新戸,イバラキケン,ツクバミライシ,アラト,茨城県つくばみらい市新戸
3002355,茨城県,つくばみらい市,市野深,イバラキケン,ツクバミライシ,イチノフカ,茨城県つくばみらい市市野深
3002356,茨城県,つくばみらい市,奉社,イバラキケン,ツクバミライシ,ビシャ,茨城県つくばみらい市奉社
3002357,茨城県,つくばみらい市,谷口,イバラキケン,ツクバミライシ,ヤグチ,茨城県つくばみらい市谷口
3002358,茨城県,つくばみらい市,陽光台,イバラキケン,ツクバミライシ,ヨウコウダイ,茨城県つくばみらい市陽光台
3002359,茨城県,つくばみらい市,紫峰ヶ丘,イバラキケン,ツクバミライシ,シホウガオカ,茨城県つくばみらい市紫峰ヶ丘
3002401,茨城県,つくばみらい市,台,イバラキケン,ツクバミライシ,ダイ,茨城県つくばみらい市台
3002402,茨城県,つくばみらい市,坂野新田,イバラキケン,ツクバミライシ,サカノシンデン,茨城県つくばみらい市坂野新田
3002403,茨城県,つくばみらい市,中原,イバラキケン,ツクバミライシ,ナカハラ,茨城県つくばみらい市中原
3002404,茨城県,つくばみらい市,南,イバラキケン,ツクバミライシ,ミナミ,茨城県つくばみらい市南
3002405,茨城県,つくばみらい市,仁左衛門新田,イバラキケン,ツクバミライシ,ニザエモンシンデン,茨城県つくばみらい市仁左衛門新田
3002406,茨城県,つくばみらい市,福岡,イバラキケン,ツクバミライシ,フクオカ,茨城県つくばみらい市福岡
3002407,茨城県,つくばみらい市,北山,イバラキケン,ツクバミライシ,キタヤマ,茨城県つくばみらい市北山
3002408,茨城県,つくばみらい市,福岡工業団地,イバラキケン,ツクバミライシ,フクオカコウギョウダンチ,茨城県つくばみらい市福岡工業団地
3002411,茨城県,つくばみらい市,押砂,イバラキケン,ツクバミライシ,オシズナ,茨城県つくばみらい市押砂
3002412,茨城県,つくばみらい市,日川,イバラキケン,ツクバミライシ,ニッカワ,茨城県つくばみらい市日川
3002413,茨城県,つくばみらい市,田村,イバラキケン,ツクバミライシ,タムラ,茨城県つくばみらい市田村
3002414,茨城県,つくばみらい市,真木,イバラキケン,ツクバミライシ,マギ,茨城県つくばみらい市真木
3002415,茨城県,つくばみらい市,西楢戸,イバラキケン,ツクバミライシ,ニシナラド,茨城県つくばみらい市西楢戸
3002416,茨城県,つくばみらい市,東楢戸,イバラキケン,ツクバミライシ,ヒガシナラド,茨城県つくばみらい市東楢戸
3002417,茨城県,つくばみらい市,富士見ヶ丘,イバラキケン,ツクバミライシ,フジミガオカ,茨城県つくばみらい市富士見ヶ丘
3002421,茨城県,つくばみらい市,西丸山,イバラキケン,ツクバミライシ,ニシマルヤマ,茨城県つくばみらい市西丸山
3002422,茨城県,つくばみらい市,古川,イバラキケン,ツクバミライシ,フルカワ,茨城県つくばみらい市古川
3002423,茨城県,つくばみらい市,成瀬,イバラキケン,ツクバミライシ,ナルセ,茨城県つくばみらい市成瀬
3002424,茨城県,つくばみらい市,加藤,イバラキケン,ツクバミライシ,カトウ,茨城県つくばみらい市加藤
3002425,茨城県,つくばみらい市,川崎,イバラキケン,ツクバミライシ,カワサキ,茨城県つくばみらい市川崎
3002426,茨城県,つくばみらい市,宮戸,イバラキケン,ツクバミライシ,ミヤド,茨城県つくばみらい市宮戸
3002431,茨城県,つくばみらい市,上小目,イバラキケン,ツクバミライシ,カミオメ,茨城県つくばみらい市上小目
3002432,茨城県,つくばみらい市,鬼長,イバラキケン,ツクバミライシ,オニオサ,茨城県つくばみらい市鬼長
3002433,茨城県,つくばみらい市,下小目,イバラキケン,ツクバミライシ,シモオメ,茨城県つくばみらい市下小目
3002434,茨城県,つくばみらい市,平沼,イバラキケン,ツクバミライシ,ヒラヌマ,茨城県つくばみらい市平沼
3002435,茨城県,つくばみらい市,筒戸,イバラキケン,ツクバミライシ,ツツド,茨城県つくばみらい市筒戸
3002436,茨城県,つくばみらい市,絹の台,イバラキケン,ツクバミライシ,キヌノダイ,茨城県つくばみらい市絹の台
3002441,茨城県,つくばみらい市,寺畑,イバラキケン,ツクバミライシ,テラハタ,茨城県つくばみらい市寺畑
3002442,茨城県,つくばみらい市,西ノ台,イバラキケン,ツクバミライシ,ニシノダイ,茨城県つくばみらい市西ノ台
3002443,茨城県,つくばみらい市,西ノ台南,イバラキケン,ツクバミライシ,ニシノダイミナミ,茨城県つくばみらい市西ノ台南
3002444,茨城県,つくばみらい市,杉下,イバラキケン,ツクバミライシ,スギシタ,茨城県つくばみらい市杉下
3002445,茨城県,つくばみらい市,小絹,イバラキケン,ツクバミライシ,コキヌ,茨城県つくばみらい市小絹
3002446,茨城県,つくばみらい市,細代,イバラキケン,ツクバミライシ,ホソシロ,茨城県つくばみらい市細代
3002451,茨城県,つくばみらい市,箕輪,イバラキケン,ツクバミライシ,ミノワ,茨城県つくばみらい市箕輪
3002452,茨城県,つくばみらい市,樛木,イバラキケン,ツクバミライシ,ツキヌキ,茨城県つくばみらい市樛木
3002453,茨城県,つくばみらい市,上長沼,イバラキケン,ツクバミライシ,カミナガヌマ,茨城県つくばみらい市上長沼
3002454,茨城県,つくばみらい市,下長沼,イバラキケン,ツクバミライシ,シモナガヌマ,茨城県つくばみらい市下長沼
3002455,茨城県,つくばみらい市,十和,イバラキケン,ツクバミライシ,ジュウワ,茨城県つくばみらい市十和
3002456,茨城県,つくばみらい市,北袋,イバラキケン,ツクバミライシ,キタブクロ,茨城県つくばみらい市北袋
3002501,茨城県,常総市,福二町,イバラキケン,ジョウソウシ,フクジマチ,茨城県常総市福二町
3002502,茨城県,常総市,上蛇町,イバラキケン,ジョウソウシ,ジョウジャマチ,茨城県常総市上蛇町
3002503,茨城県,常総市,川崎町,イバラキケン,ジョウソウシ,カワサキマチ,茨城県常総市川崎町
3002504,茨城県,常総市,沖新田町,イバラキケン,ジョウソウシ,オキシンデンマチ,茨城県常総市沖新田町
3002505,茨城県,常総市,中妻町,イバラキケン,ジョウソウシ,ナカツママチ,茨城県常総市中妻町
3002506,茨城県,常総市,三坂町,イバラキケン,ジョウソウシ,ミサカマチ,茨城県常総市三坂町
3002507,茨城県,常総市,三坂新田町,イバラキケン,ジョウソウシ,ミサカシンデンマチ,茨城県常総市三坂新田町
3002511,茨城県,常総市,花島町,イバラキケン,ジョウソウシ,ハナシママチ,茨城県常総市花島町
3002512,茨城県,常総市,大輪町,イバラキケン,ジョウソウシ,オオワマチ,茨城県常総市大輪町
3002513,茨城県,常総市,羽生町,イバラキケン,ジョウソウシ,ハニュウマチ,茨城県常総市羽生町
3002521,茨城県,常総市,大生郷町,イバラキケン,ジョウソウシ,オオノゴウマチ,茨城県常総市大生郷町
3002522,茨城県,常総市,横曽根新田町,イバラキケン,ジョウソウシ,ヨコゾネシンデンマチ,茨城県常総市横曽根新田町
3002523,茨城県,常総市,笹塚新田町,イバラキケン,ジョウソウシ,ササツカシンデンチョウ,茨城県常総市笹塚新田町
3002524,茨城県,常総市,五郎兵衛新田町,イバラキケン,ジョウソウシ,ゴロベエシンデンマチ,茨城県常総市五郎兵衛新田町
3002525,茨城県,常総市,伊左衛門新田町,イバラキケン,ジョウソウシ,イザエモンシンデンマチ,茨城県常総市伊左衛門新田町
3002526,茨城県,常総市,大生郷新田町,イバラキケン,ジョウソウシ,オオノゴウシンデンマチ,茨城県常総市大生郷新田町
3002611,茨城県,つくば市,大久保,イバラキケン,ツクバシ,オオクボ,茨城県つくば市大久保
3002612,茨城県,つくば市,大砂,イバラキケン,ツクバシ,オオスナ,茨城県つくば市大砂
3002613,茨城県,つくば市,西高野,イバラキケン,ツクバシ,ニシゴウヤ,茨城県つくば市西高野
3002614,茨城県,つくば市,上里,イバラキケン,ツクバシ,カミサト,茨城県つくば市上里
3002615,茨城県,つくば市,田倉,イバラキケン,ツクバシ,タクラ,茨城県つくば市田倉
3002616,茨城県,つくば市,五人受,イバラキケン,ツクバシ,ゴニンウケ,茨城県つくば市五人受
3002617,茨城県,つくば市,吉沼,イバラキケン,ツクバシ,ヨシヌマ,茨城県つくば市吉沼
3002621,茨城県,つくば市,南原（その他）,イバラキケン,ツクバシ,ミナミハラ(ソノタ),茨城県つくば市南原（その他）
3002622,茨城県,つくば市,要,イバラキケン,ツクバシ,カナメ,茨城県つくば市要
3002623,茨城県,つくば市,本沢,イバラキケン,ツクバシ,ホンザワ,茨城県つくば市本沢
3002624,茨城県,つくば市,西沢,イバラキケン,ツクバシ,ニシザワ,茨城県つくば市西沢
3002631,茨城県,つくば市,沼崎,イバラキケン,ツクバシ,ヌマザキ,茨城県つくば市沼崎
3002632,茨城県,つくば市,旭（その他）,イバラキケン,ツクバシ,アサヒ(ソノタ),茨城県つくば市旭（その他）
3002633,茨城県,つくば市,遠東,イバラキケン,ツクバシ,トオヒガシ,茨城県つくば市遠東
3002634,茨城県,つくば市,中東原新田,イバラキケン,ツクバシ,ナカヒガシハラシンデン,茨城県つくば市中東原新田
3002635,茨城県,つくば市,東光台,イバラキケン,ツクバシ,トウコウダイ,茨城県つくば市東光台
3002636,茨城県,つくば市,土田,イバラキケン,ツクバシ,ツチダ,茨城県つくば市土田
3002637,茨城県,つくば市,酒丸,イバラキケン,ツクバシ,サケマル,茨城県つくば市酒丸
3002638,茨城県,つくば市,百家,イバラキケン,ツクバシ,ハッケ,茨城県つくば市百家
3002639,茨城県,つくば市,中東,イバラキケン,ツクバシ,ナカヒガシ,茨城県つくば市中東
3002641,茨城県,つくば市,今鹿島,イバラキケン,ツクバシ,イマカシマ,茨城県つくば市今鹿島
3002642,茨城県,つくば市,高野,イバラキケン,ツクバシ,コウヤ,茨城県つくば市高野
3002643,茨城県,つくば市,野畑,イバラキケン,ツクバシ,ノバタ,茨城県つくば市野畑
3002644,茨城県,つくば市,木俣,イバラキケン,ツクバシ,コノマタ,茨城県つくば市木俣
3002645,茨城県,つくば市,上郷,イバラキケン,ツクバシ,カミゴウ,茨城県つくば市上郷
3002646,茨城県,つくば市,緑ケ原,イバラキケン,ツクバシ,ミドリガハラ,茨城県つくば市緑ケ原
3002647,茨城県,つくば市,手子生,イバラキケン,ツクバシ,テゴマル,茨城県つくば市手子生
3002648,茨城県,つくば市,豊里の杜,イバラキケン,ツクバシ,トヨサトノモリ,茨城県つくば市豊里の杜
3002651,茨城県,つくば市,鬼ケ窪,イバラキケン,ツクバシ,オニガクボ,茨城県つくば市鬼ケ窪
3002652,茨城県,つくば市,高田,イバラキケン,ツクバシ,タカタ,茨城県つくば市高田
3002653,茨城県,つくば市,面野井,イバラキケン,ツクバシ,オモノイ,茨城県つくば市面野井
3002654,茨城県,つくば市,水堀,イバラキケン,ツクバシ,ミズボリ,茨城県つくば市水堀
3002655,茨城県,つくば市,島名,イバラキケン,ツクバシ,シマナ,茨城県つくば市島名
3002656,茨城県,つくば市,真瀬,イバラキケン,ツクバシ,マセ,茨城県つくば市真瀬
3002657,茨城県,つくば市,香取台,イバラキケン,ツクバシ,カトリダイ,茨城県つくば市香取台
3002658,茨城県,つくば市,諏訪,イバラキケン,ツクバシ,スワ,茨城県つくば市諏訪
3002659,茨城県,つくば市,万博公園西,イバラキケン,ツクバシ,バンパクコウエンニシ,茨城県つくば市万博公園西
3002661,茨城県,つくば市,上河原崎,イバラキケン,ツクバシ,カミカワラザキ,茨城県つくば市上河原崎
3002662,茨城県,つくば市,下河原崎,イバラキケン,ツクバシ,シモカワラザキ,茨城県つくば市下河原崎
3002663,茨城県,つくば市,鍋沼新田,イバラキケン,ツクバシ,ナベヌマシンデン,茨城県つくば市鍋沼新田
3002664,茨城県,つくば市,高良田,イバラキケン,ツクバシ,タカラダ,茨城県つくば市高良田
3002665,茨城県,つくば市,高須賀,イバラキケン,ツクバシ,タカスカ,茨城県つくば市高須賀
3002666,茨城県,つくば市,下別府,イバラキケン,ツクバシ,シモベップ,茨城県つくば市下別府
3002667,茨城県,つくば市,中別府,イバラキケン,ツクバシ,ナカベップ,茨城県つくば市中別府
3002668,茨城県,つくば市,かみかわ,イバラキケン,ツクバシ,カミカワ,茨城県つくば市かみかわ
3002669,茨城県,つくば市,高山,イバラキケン,ツクバシ,タカヤマ,茨城県つくば市高山
3002701,茨城県,常総市,若宮戸,イバラキケン,ジョウソウシ,ワカミヤド,茨城県常総市若宮戸
3002702,茨城県,常総市,原宿,イバラキケン,ジョウソウシ,ハラジュク,茨城県常総市原宿
3002703,茨城県,常総市,小保川,イバラキケン,ジョウソウシ,オボカワ,茨城県常総市小保川
3002704,茨城県,常総市,舘方,イバラキケン,ジョウソウシ,タテガタ,茨城県常総市舘方
3002705,茨城県,常総市,豊田,イバラキケン,ジョウソウシ,トヨダ,茨城県常総市豊田
3002706,茨城県,常総市,新石下,イバラキケン,ジョウソウシ,シンイシゲ,茨城県常総市新石下
3002707,茨城県,常総市,本石下,イバラキケン,ジョウソウシ,モトイシゲ,茨城県常総市本石下
3002711,茨城県,常総市,本豊田,イバラキケン,ジョウソウシ,モトトヨダ,茨城県常総市本豊田
3002712,茨城県,常総市,曲田,イバラキケン,ジョウソウシ,マガッタ,茨城県常総市曲田
3002713,茨城県,常総市,収納谷,イバラキケン,ジョウソウシ,スノウヤ,茨城県常総市収納谷
3002714,茨城県,常総市,平内,イバラキケン,ジョウソウシ,ヘイナイ,茨城県常総市平内
3002715,茨城県,常総市,山口,イバラキケン,ジョウソウシ,ヤマグチ,茨城県常総市山口
3002716,茨城県,常総市,大房,イバラキケン,ジョウソウシ,ダイボウ,茨城県常総市大房
3002717,茨城県,常総市,東野原,イバラキケン,ジョウソウシ,トウノハラ,茨城県常総市東野原
3002721,茨城県,常総市,篠山,イバラキケン,ジョウソウシ,シノヤマ,茨城県常総市篠山
3002722,茨城県,常総市,蔵持,イバラキケン,ジョウソウシ,クラモチ,茨城県常総市蔵持
3002723,茨城県,常総市,蔵持新田,イバラキケン,ジョウソウシ,クラモチシンデン,茨城県常総市蔵持新田
3002724,茨城県,常総市,古間木,イバラキケン,ジョウソウシ,フルマギ,茨城県常総市古間木
3002725,茨城県,常総市,古間木沼新田,イバラキケン,ジョウソウシ,フルマギヌマシンデン,茨城県常総市古間木沼新田
3002726,茨城県,常総市,中沼,イバラキケン,ジョウソウシ,ナカヌマ,茨城県常総市中沼
3002727,茨城県,常総市,大沢,イバラキケン,ジョウソウシ,オオサワ,茨城県常総市大沢
3002731,茨城県,常総市,古間木新田,イバラキケン,ジョウソウシ,フルマギシンデン,茨城県常総市古間木新田
3002732,茨城県,常総市,鴻野山新田,イバラキケン,ジョウソウシ,コウノヤマシンデン,茨城県常総市鴻野山新田
3002733,茨城県,常総市,馬場新田,イバラキケン,ジョウソウシ,ババシンデン,茨城県常総市馬場新田
3002734,茨城県,常総市,栗山新田,イバラキケン,ジョウソウシ,クリヤマシンデン,茨城県常総市栗山新田
3002735,茨城県,常総市,左平太新田,イバラキケン,ジョウソウシ,サヘイタシンデン,茨城県常総市左平太新田
3002736,茨城県,常総市,孫兵ヱ新田,イバラキケン,ジョウソウシ,マゴベエシンデン,茨城県常総市孫兵ヱ新田
3002741,茨城県,常総市,国生,イバラキケン,ジョウソウシ,コッショウ,茨城県常総市国生
3002742,茨城県,常総市,向石下,イバラキケン,ジョウソウシ,ムコウイシゲ,茨城県常総市向石下
3002743,茨城県,常総市,岡田,イバラキケン,ジョウソウシ,オカダ,茨城県常総市岡田
3002744,茨城県,常総市,杉山,イバラキケン,ジョウソウシ,スギヤマ,茨城県常総市杉山
3002745,茨城県,常総市,大沢新田,イバラキケン,ジョウソウシ,オオサワシンデン,茨城県常総市大沢新田
3002746,茨城県,常総市,鴻野山,イバラキケン,ジョウソウシ,コウノヤマ,茨城県常総市鴻野山
3002747,茨城県,常総市,崎房,イバラキケン,ジョウソウシ,サキブサ,茨城県常総市崎房
3002748,茨城県,常総市,馬場,イバラキケン,ジョウソウシ,ババ,茨城県常総市馬場
3003251,茨城県,つくば市,佐,イバラキケン,ツクバシ,サ,茨城県つくば市佐
3003252,茨城県,つくば市,若森,イバラキケン,ツクバシ,ワカモリ,茨城県つくば市若森
3003253,茨城県,つくば市,大曽根,イバラキケン,ツクバシ,オオゾネ,茨城県つくば市大曽根
3003254,茨城県,つくば市,鹿島台,イバラキケン,ツクバシ,カシマダイ,茨城県つくば市鹿島台
3003255,茨城県,つくば市,玉取,イバラキケン,ツクバシ,タマトリ,茨城県つくば市玉取
3003256,茨城県,つくば市,大穂（その他）,イバラキケン,ツクバシ,オオホ(ソノタ),茨城県つくば市大穂（その他）
3003257,茨城県,つくば市,筑穂,イバラキケン,ツクバシ,ツクホ,茨城県つくば市筑穂
3003261,茨城県,つくば市,花畑（その他）,イバラキケン,ツクバシ,ハナバタケ(ソノタ),茨城県つくば市花畑（その他）
3003262,茨城県,つくば市,蓮沼,イバラキケン,ツクバシ,ハスヌマ,茨城県つくば市蓮沼
3003263,茨城県,つくば市,立原（その他）,イバラキケン,ツクバシ,タチハラ(ソノタ),茨城県つくば市立原（その他）
3003264,茨城県,つくば市,篠崎,イバラキケン,ツクバシ,シノザキ,茨城県つくば市篠崎
3003265,茨城県,つくば市,長高野,イバラキケン,ツクバシ,オサゴウヤ,茨城県つくば市長高野
3003266,茨城県,つくば市,北原,イバラキケン,ツクバシ,キタハラ,茨城県つくば市北原
3003267,茨城県,つくば市,前野,イバラキケン,ツクバシ,マエノ,茨城県つくば市前野
3003500,茨城県,結城郡八千代町,,イバラキケン,ユウキグンヤチヨマチ,,茨城県結城郡八千代町
3003501,茨城県,結城郡八千代町,塩本,イバラキケン,ユウキグンヤチヨマチ,シオモト,茨城県結城郡八千代町塩本
3003502,茨城県,結城郡八千代町,下山川,イバラキケン,ユウキグンヤチヨマチ,シモヤマカワ,茨城県結城郡八千代町下山川
3003503,茨城県,結城郡八千代町,粕礼,イバラキケン,ユウキグンヤチヨマチ,カスレイ,茨城県結城郡八千代町粕礼
3003504,茨城県,結城郡八千代町,西大山,イバラキケン,ユウキグンヤチヨマチ,ニシオオヤマ,茨城県結城郡八千代町西大山
3003505,茨城県,結城郡八千代町,佐野,イバラキケン,ユウキグンヤチヨマチ,サノ,茨城県結城郡八千代町佐野
3003506,茨城県,結城郡八千代町,成田,イバラキケン,ユウキグンヤチヨマチ,ナリタ,茨城県結城郡八千代町成田
3003511,茨城県,結城郡八千代町,瀬戸井,イバラキケン,ユウキグンヤチヨマチ,セトイ,茨城県結城郡八千代町瀬戸井
3003512,茨城県,結城郡八千代町,小屋,イバラキケン,ユウキグンヤチヨマチ,コヤ,茨城県結城郡八千代町小屋
3003513,茨城県,結城郡八千代町,久下田,イバラキケン,ユウキグンヤチヨマチ,クゲタ,茨城県結城郡八千代町久下田
3003514,茨城県,結城郡八千代町,大里,イバラキケン,ユウキグンヤチヨマチ,オオサト,茨城県結城郡八千代町大里
3003515,茨城県,結城郡八千代町,大渡戸,イバラキケン,ユウキグンヤチヨマチ,オオワダド,茨城県結城郡八千代町大渡戸
3003516,茨城県,結城郡八千代町,高崎,イバラキケン,ユウキグンヤチヨマチ,タカサキ,茨城県結城郡八千代町高崎
3003517,茨城県,結城郡八千代町,坪井,イバラキケン,ユウキグンヤチヨマチ,ツボイ,茨城県結城郡八千代町坪井
3003518,茨城県,結城郡八千代町,野爪,イバラキケン,ユウキグンヤチヨマチ,ノツメ,茨城県結城郡八千代町野爪
3003519,茨城県,結城郡八千代町,新井,イバラキケン,ユウキグンヤチヨマチ,アライ,茨城県結城郡八千代町新井
3003521,茨城県,結城郡八千代町,川尻,イバラキケン,ユウキグンヤチヨマチ,カワジリ,茨城県結城郡八千代町川尻
3003522,茨城県,結城郡八千代町,袋,イバラキケン,ユウキグンヤチヨマチ,フクロ,茨城県結城郡八千代町袋
3003523,茨城県,結城郡八千代町,八町,イバラキケン,ユウキグンヤチヨマチ,ハッチョウ,茨城県結城郡八千代町八町
3003524,茨城県,結城郡八千代町,兵庫,イバラキケン,ユウキグンヤチヨマチ,ヒョウゴ,茨城県結城郡八千代町兵庫
3003525,茨城県,結城郡八千代町,沼森,イバラキケン,ユウキグンヤチヨマチ,ヌマモリ,茨城県結城郡八千代町沼森
3003526,茨城県,結城郡八千代町,貝谷,イバラキケン,ユウキグンヤチヨマチ,カイヤ,茨城県結城郡八千代町貝谷
3003527,茨城県,結城郡八千代町,東原,イバラキケン,ユウキグンヤチヨマチ,ヒガシハラ,茨城県結城郡八千代町東原
3003531,茨城県,結城郡八千代町,今里,イバラキケン,ユウキグンヤチヨマチ,イマザト,茨城県結城郡八千代町今里
3003532,茨城県,結城郡八千代町,本郷,イバラキケン,ユウキグンヤチヨマチ,ホンゴウ,茨城県結城郡八千代町本郷
3003533,茨城県,結城郡八千代町,片角,イバラキケン,ユウキグンヤチヨマチ,カタカク,茨城県結城郡八千代町片角
3003534,茨城県,結城郡八千代町,太田,イバラキケン,ユウキグンヤチヨマチ,オオタ,茨城県結城郡八千代町太田
3003535,茨城県,結城郡八千代町,粟野,イバラキケン,ユウキグンヤチヨマチ,アワノ,茨城県結城郡八千代町粟野
3003536,茨城県,結城郡八千代町,中野,イバラキケン,ユウキグンヤチヨマチ,ナカノ,茨城県結城郡八千代町中野
3003537,茨城県,結城郡八千代町,苅橋,イバラキケン,ユウキグンヤチヨマチ,カリハシ,茨城県結城郡八千代町苅橋
3003538,茨城県,結城郡八千代町,東大山,イバラキケン,ユウキグンヤチヨマチ,ヒガシオオヤマ,茨城県結城郡八千代町東大山
3003539,茨城県,結城郡八千代町,仁江戸,イバラキケン,ユウキグンヤチヨマチ,ニエド,茨城県結城郡八千代町仁江戸
3003541,茨城県,結城郡八千代町,新地,イバラキケン,ユウキグンヤチヨマチ,シンチ,茨城県結城郡八千代町新地
3003542,茨城県,結城郡八千代町,福岡,イバラキケン,ユウキグンヤチヨマチ,フクオカ,茨城県結城郡八千代町福岡
3003543,茨城県,結城郡八千代町,新地新田,イバラキケン,ユウキグンヤチヨマチ,シンチシンデン,茨城県結城郡八千代町新地新田
3003544,茨城県,結城郡八千代町,若,イバラキケン,ユウキグンヤチヨマチ,ワカ,茨城県結城郡八千代町若
3003545,茨城県,結城郡八千代町,東蕗田,イバラキケン,ユウキグンヤチヨマチ,ヒガシフキダ,茨城県結城郡八千代町東蕗田
3003551,茨城県,結城郡八千代町,栗山,イバラキケン,ユウキグンヤチヨマチ,クリヤマ,茨城県結城郡八千代町栗山
3003552,茨城県,結城郡八千代町,大間木,イバラキケン,ユウキグンヤチヨマチ,オオマギ,茨城県結城郡八千代町大間木
3003553,茨城県,結城郡八千代町,蕗田,イバラキケン,ユウキグンヤチヨマチ,フキダ,茨城県結城郡八千代町蕗田
3003554,茨城県,結城郡八千代町,尾崎,イバラキケン,ユウキグンヤチヨマチ,オサキ,茨城県結城郡八千代町尾崎
3003555,茨城県,結城郡八千代町,芦ケ谷,イバラキケン,ユウキグンヤチヨマチ,アシガヤ,茨城県結城郡八千代町芦ケ谷
3003556,茨城県,結城郡八千代町,芦ケ谷新田,イバラキケン,ユウキグンヤチヨマチ,アシガヤシンデン,茨城県結城郡八千代町芦ケ谷新田
3003561,茨城県,結城郡八千代町,平塚,イバラキケン,ユウキグンヤチヨマチ,ヒラツカ,茨城県結城郡八千代町平塚
3003562,茨城県,結城郡八千代町,磯,イバラキケン,ユウキグンヤチヨマチ,イソ,茨城県結城郡八千代町磯
3003563,茨城県,結城郡八千代町,村貫,イバラキケン,ユウキグンヤチヨマチ,ムラヌキ,茨城県結城郡八千代町村貫
3003564,茨城県,結城郡八千代町,水口,イバラキケン,ユウキグンヤチヨマチ,ミノクチ,茨城県結城郡八千代町水口
3003565,茨城県,結城郡八千代町,松本,イバラキケン,ユウキグンヤチヨマチ,マツモト,茨城県結城郡八千代町松本
3003571,茨城県,結城郡八千代町,大戸新田,イバラキケン,ユウキグンヤチヨマチ,オオドシンデン,茨城県結城郡八千代町大戸新田
3003572,茨城県,結城郡八千代町,菅谷,イバラキケン,ユウキグンヤチヨマチ,スゲノヤ,茨城県結城郡八千代町菅谷
3004101,茨城県,土浦市,永井,イバラキケン,ツチウラシ,ナガイ,茨城県土浦市永井
3004102,茨城県,土浦市,本郷,イバラキケン,ツチウラシ,ホンゴウ,茨城県土浦市本郷
3004103,茨城県,土浦市,大志戸,イバラキケン,ツチウラシ,オオシト,茨城県土浦市大志戸
3004104,茨城県,土浦市,沢辺,イバラキケン,ツチウラシ,サワベ,茨城県土浦市沢辺
3004105,茨城県,土浦市,田宮,イバラキケン,ツチウラシ,タミヤ,茨城県土浦市田宮
3004106,茨城県,土浦市,小高,イバラキケン,ツチウラシ,オダカ,茨城県土浦市小高
3004107,茨城県,土浦市,東城寺,イバラキケン,ツチウラシ,トウジョウジ,茨城県土浦市東城寺
3004108,茨城県,土浦市,小野,イバラキケン,ツチウラシ,オノ,茨城県土浦市小野
3004111,茨城県,土浦市,大畑,イバラキケン,ツチウラシ,オオバタケ,茨城県土浦市大畑
3004112,茨城県,土浦市,桃園,イバラキケン,ツチウラシ,モモゾノ,茨城県土浦市桃園
3004113,茨城県,土浦市,下坂田,イバラキケン,ツチウラシ,シモサカタ,茨城県土浦市下坂田
3004114,茨城県,土浦市,上坂田,イバラキケン,ツチウラシ,カミサカタ,茨城県土浦市上坂田
3004115,茨城県,土浦市,藤沢,イバラキケン,ツチウラシ,フジサワ,茨城県土浦市藤沢
3004116,茨城県,土浦市,藤沢新田,イバラキケン,ツチウラシ,フジサワシンデン,茨城県土浦市藤沢新田
3004117,茨城県,土浦市,高岡,イバラキケン,ツチウラシ,タカオカ,茨城県土浦市高岡
3004118,茨城県,土浦市,田土部,イバラキケン,ツチウラシ,タドベ,茨城県土浦市田土部
3004201,茨城県,つくば市,寺具,イバラキケン,ツクバシ,テラグ,茨城県つくば市寺具
3004202,茨城県,つくば市,高野原新田,イバラキケン,ツクバシ,コウヤハラシンデン,茨城県つくば市高野原新田
3004203,茨城県,つくば市,明石,イバラキケン,ツクバシ,アケシ,茨城県つくば市明石
3004204,茨城県,つくば市,作谷,イバラキケン,ツクバシ,ツクリヤ,茨城県つくば市作谷
3004205,茨城県,つくば市,安食,イバラキケン,ツクバシ,アジキ,茨城県つくば市安食
3004211,茨城県,つくば市,臼井,イバラキケン,ツクバシ,ウスイ,茨城県つくば市臼井
3004212,茨城県,つくば市,神郡,イバラキケン,ツクバシ,カンゴオリ,茨城県つくば市神郡
3004213,茨城県,つくば市,平沢,イバラキケン,ツクバシ,ヒラサワ,茨城県つくば市平沢
3004214,茨城県,つくば市,山口,イバラキケン,ツクバシ,ヤマグチ,茨城県つくば市山口
3004215,茨城県,つくば市,小沢,イバラキケン,ツクバシ,オザワ,茨城県つくば市小沢
3004216,茨城県,つくば市,漆所,イバラキケン,ツクバシ,ウルシジョ,茨城県つくば市漆所
3004217,茨城県,つくば市,杉木,イバラキケン,ツクバシ,スギノキ,茨城県つくば市杉木
3004218,茨城県,つくば市,大貫,イバラキケン,ツクバシ,オオヌキ,茨城県つくば市大貫
3004221,茨城県,つくば市,大形,イバラキケン,ツクバシ,オオガタ,茨城県つくば市大形
3004222,茨城県,つくば市,下大島,イバラキケン,ツクバシ,シモオオシマ,茨城県つくば市下大島
3004223,茨城県,つくば市,小田,イバラキケン,ツクバシ,オダ,茨城県つくば市小田
3004224,茨城県,つくば市,小和田,イバラキケン,ツクバシ,コワダ,茨城県つくば市小和田
3004231,茨城県,つくば市,北条,イバラキケン,ツクバシ,ホウジョウ,茨城県つくば市北条
3004232,茨城県,つくば市,北太田,イバラキケン,ツクバシ,キタオオタ,茨城県つくば市北太田
3004233,茨城県,つくば市,君島,イバラキケン,ツクバシ,キミジマ,茨城県つくば市君島
3004234,茨城県,つくば市,山木,イバラキケン,ツクバシ,ヤマキ,茨城県つくば市山木
3004235,茨城県,つくば市,泉,イバラキケン,ツクバシ,イズミ,茨城県つくば市泉
3004236,茨城県,つくば市,小泉,イバラキケン,ツクバシ,コイズミ,茨城県つくば市小泉
3004241,茨城県,つくば市,上菅間,イバラキケン,ツクバシ,カミスガマ,茨城県つくば市上菅間
3004242,茨城県,つくば市,中菅間,イバラキケン,ツクバシ,ナカスガマ,茨城県つくば市中菅間
3004243,茨城県,つくば市,池田,イバラキケン,ツクバシ,イケダ,茨城県つくば市池田
3004244,茨城県,つくば市,田中,イバラキケン,ツクバシ,タナカ,茨城県つくば市田中
3004245,茨城県,つくば市,水守,イバラキケン,ツクバシ,ミモリ,茨城県つくば市水守
3004246,茨城県,つくば市,上沢,イバラキケン,ツクバシ,カミサワ,茨城県つくば市上沢
3004247,茨城県,つくば市,和台,イバラキケン,ツクバシ,ワダイ,茨城県つくば市和台
3004248,茨城県,つくば市,磯部,イバラキケン,ツクバシ,イソベ,茨城県つくば市磯部
3004249,茨城県,つくば市,洞下,イバラキケン,ツクバシ,ホラゲ,茨城県つくば市洞下
3004251,茨城県,つくば市,田水山,イバラキケン,ツクバシ,タミヤマ,茨城県つくば市田水山
3004351,茨城県,つくば市,上大島,イバラキケン,ツクバシ,カミオオシマ,茨城県つくば市上大島
3004352,茨城県,つくば市,筑波,イバラキケン,ツクバシ,ツクバ,茨城県つくば市筑波
3004353,茨城県,つくば市,沼田,イバラキケン,ツクバシ,ヌマタ,茨城県つくば市沼田
3004354,茨城県,つくば市,国松,イバラキケン,ツクバシ,クニマツ,茨城県つくば市国松
3004401,茨城県,桜川市,真壁町上小幡,イバラキケン,サクラガワシ,マカベチョウカミコバタ,茨城県桜川市真壁町上小幡
3004402,茨城県,桜川市,真壁町下小幡,イバラキケン,サクラガワシ,マカベチョウシモコバタ,茨城県桜川市真壁町下小幡
3004403,茨城県,桜川市,真壁町長岡,イバラキケン,サクラガワシ,マカベチョウナガオカ,茨城県桜川市真壁町長岡
3004404,茨城県,桜川市,真壁町白井,イバラキケン,サクラガワシ,マカベチョウシライ,茨城県桜川市真壁町白井
3004405,茨城県,桜川市,真壁町桜井,イバラキケン,サクラガワシ,マカベチョウサクライ,茨城県桜川市真壁町桜井
3004406,茨城県,桜川市,真壁町山尾,イバラキケン,サクラガワシ,マカベチョウヤマオ,茨城県桜川市真壁町山尾
3004407,茨城県,桜川市,真壁町古城,イバラキケン,サクラガワシ,マカベチョウフルシロ,茨城県桜川市真壁町古城
3004408,茨城県,桜川市,真壁町真壁,イバラキケン,サクラガワシ,マカベチョウマカベ,茨城県桜川市真壁町真壁
3004411,茨城県,桜川市,真壁町田,イバラキケン,サクラガワシ,マカベチョウタ,茨城県桜川市真壁町田
3004412,茨城県,桜川市,真壁町羽鳥,イバラキケン,サクラガワシ,マカベチョウハドリ,茨城県桜川市真壁町羽鳥
3004413,茨城県,桜川市,真壁町酒寄,イバラキケン,サクラガワシ,マカベチョウサカヨリ,茨城県桜川市真壁町酒寄
3004414,茨城県,桜川市,真壁町椎尾,イバラキケン,サクラガワシ,マカベチョウシイオ,茨城県桜川市真壁町椎尾
3004415,茨城県,桜川市,真壁町東山田,イバラキケン,サクラガワシ,マカベチョウヒガシヤマダ,茨城県桜川市真壁町東山田
3004416,茨城県,桜川市,真壁町伊佐々,イバラキケン,サクラガワシ,マカベチョウイサザ,茨城県桜川市真壁町伊佐々
3004417,茨城県,桜川市,真壁町飯塚,イバラキケン,サクラガワシ,マカベチョウイイツカ,茨城県桜川市真壁町飯塚
3004421,茨城県,桜川市,真壁町原方,イバラキケン,サクラガワシ,マカベチョウハラガタ,茨城県桜川市真壁町原方
3004422,茨城県,桜川市,真壁町亀熊,イバラキケン,サクラガワシ,マカベチョウカメクマ,茨城県桜川市真壁町亀熊
3004423,茨城県,桜川市,真壁町塙世,イバラキケン,サクラガワシ,マカベチョウハナワゼ,茨城県桜川市真壁町塙世
3004424,茨城県,桜川市,真壁町源法寺,イバラキケン,サクラガワシ,マカベチョウゲンボウジ,茨城県桜川市真壁町源法寺
3004425,茨城県,桜川市,真壁町細芝,イバラキケン,サクラガワシ,マカベチョウホソシバ,茨城県桜川市真壁町細芝
3004426,茨城県,桜川市,真壁町下谷貝,イバラキケン,サクラガワシ,マカベチョウシモヤガイ,茨城県桜川市真壁町下谷貝
3004427,茨城県,桜川市,真壁町上谷貝,イバラキケン,サクラガワシ,マカベチョウカミヤガイ,茨城県桜川市真壁町上谷貝
3004428,茨城県,桜川市,真壁町大塚新田,イバラキケン,サクラガワシ,マカベチョウオオツカシンデン,茨城県桜川市真壁町大塚新田
3004429,茨城県,桜川市,真壁町東矢貝,イバラキケン,サクラガワシ,マカベチョウヒガシヤガイ,茨城県桜川市真壁町東矢貝
3004501,茨城県,筑西市,猫島,イバラキケン,チクセイシ,ネコシマ,茨城県筑西市猫島
3004502,茨城県,筑西市,上西郷谷,イバラキケン,チクセイシ,カミニシゴヤ,茨城県筑西市上西郷谷
3004503,茨城県,筑西市,宮後,イバラキケン,チクセイシ,ミヤゴ,茨城県筑西市宮後
3004504,茨城県,筑西市,宮山,イバラキケン,チクセイシ,ミヤヤマ,茨城県筑西市宮山
3004505,茨城県,筑西市,田宿,イバラキケン,チクセイシ,タジュク,茨城県筑西市田宿
3004506,茨城県,筑西市,鍋山,イバラキケン,チクセイシ,ナベヤマ,茨城県筑西市鍋山
3004507,茨城県,筑西市,内淀,イバラキケン,チクセイシ,ウチヨド,茨城県筑西市内淀
3004511,茨城県,筑西市,押尾,イバラキケン,チクセイシ,オシビ,茨城県筑西市押尾
3004512,茨城県,筑西市,有田,イバラキケン,チクセイシ,アリタ,茨城県筑西市有田
3004513,茨城県,筑西市,中根,イバラキケン,チクセイシ,ナカネ,茨城県筑西市中根
3004514,茨城県,筑西市,山王堂,イバラキケン,チクセイシ,サンオウドウ,茨城県筑西市山王堂
3004515,茨城県,筑西市,倉持,イバラキケン,チクセイシ,クラモチ,茨城県筑西市倉持
3004516,茨城県,筑西市,新井新田,イバラキケン,チクセイシ,アライシンデン,茨城県筑西市新井新田
3004517,茨城県,筑西市,海老ケ島,イバラキケン,チクセイシ,エビガシマ,茨城県筑西市海老ケ島
3004521,茨城県,筑西市,東石田,イバラキケン,チクセイシ,ヒガシイシタ,茨城県筑西市東石田
3004522,茨城県,筑西市,向上野,イバラキケン,チクセイシ,ムコウウエノ,茨城県筑西市向上野
3004523,茨城県,筑西市,赤浜,イバラキケン,チクセイシ,アカハマ,茨城県筑西市赤浜
3004524,茨城県,筑西市,中上野,イバラキケン,チクセイシ,ナカウエノ,茨城県筑西市中上野
3004525,茨城県,筑西市,寺上野,イバラキケン,チクセイシ,テラウエノ,茨城県筑西市寺上野
3004531,茨城県,筑西市,築地,イバラキケン,チクセイシ,ツイジ,茨城県筑西市築地
3004532,茨城県,筑西市,鷺島,イバラキケン,チクセイシ,サギシマ,茨城県筑西市鷺島
3004533,茨城県,筑西市,成井,イバラキケン,チクセイシ,ナルイ,茨城県筑西市成井
3004534,茨城県,筑西市,高津,イバラキケン,チクセイシ,タカツ,茨城県筑西市高津
3004535,茨城県,筑西市,谷原,イバラキケン,チクセイシ,ヤワラ,茨城県筑西市谷原
3004536,茨城県,筑西市,東保末,イバラキケン,チクセイシ,ヒガシホズエ,茨城県筑西市東保末
3004537,茨城県,筑西市,大林,イバラキケン,チクセイシ,オオバヤシ,茨城県筑西市大林
3004538,茨城県,筑西市,海老江,イバラキケン,チクセイシ,エビエ,茨城県筑西市海老江
3004541,茨城県,筑西市,松原,イバラキケン,チクセイシ,マツバラ,茨城県筑西市松原
3004542,茨城県,筑西市,吉田,イバラキケン,チクセイシ,ヨシダ,茨城県筑西市吉田
3004543,茨城県,筑西市,竹垣,イバラキケン,チクセイシ,タケガキ,茨城県筑西市竹垣
3004544,茨城県,筑西市,古内,イバラキケン,チクセイシ,フルウチ,茨城県筑西市古内
3004545,茨城県,筑西市,下川中子,イバラキケン,チクセイシ,シモカワナゴ,茨城県筑西市下川中子
3004546,茨城県,筑西市,村田,イバラキケン,チクセイシ,ムラタ,茨城県筑西市村田
3010000,茨城県,龍ケ崎市,,イバラキケン,リュウガサキシ,,茨城県龍ケ崎市
3010001,茨城県,龍ケ崎市,久保台,イバラキケン,リュウガサキシ,クボダイ,茨城県龍ケ崎市久保台
3010002,茨城県,龍ケ崎市,中根台,イバラキケン,リュウガサキシ,ナカネダイ,茨城県龍ケ崎市中根台
3010003,茨城県,龍ケ崎市,平台,イバラキケン,リュウガサキシ,ヒラダイ,茨城県龍ケ崎市平台
3010004,茨城県,龍ケ崎市,馴馬町,イバラキケン,リュウガサキシ,ナレウママチ,茨城県龍ケ崎市馴馬町
3010005,茨城県,龍ケ崎市,川原代町,イバラキケン,リュウガサキシ,カワラシロマチ,茨城県龍ケ崎市川原代町
3010006,茨城県,龍ケ崎市,門倉新田町,イバラキケン,リュウガサキシ,カドクラシンデンマチ,茨城県龍ケ崎市門倉新田町
3010007,茨城県,龍ケ崎市,馴柴町,イバラキケン,リュウガサキシ,ナレシバマチ,茨城県龍ケ崎市馴柴町
3010011,茨城県,龍ケ崎市,横町,イバラキケン,リュウガサキシ,ヨコマチ,茨城県龍ケ崎市横町
3010012,茨城県,龍ケ崎市,上町,イバラキケン,リュウガサキシ,カミマチ,茨城県龍ケ崎市上町
3010013,茨城県,龍ケ崎市,水門,イバラキケン,リュウガサキシ,ミズモン,茨城県龍ケ崎市水門
3010014,茨城県,龍ケ崎市,須藤堀町,イバラキケン,リュウガサキシ,ストウホリマチ,茨城県龍ケ崎市須藤堀町
3010015,茨城県,龍ケ崎市,長沖町,イバラキケン,リュウガサキシ,ナガオキマチ,茨城県龍ケ崎市長沖町
3010016,茨城県,龍ケ崎市,長沖新田町,イバラキケン,リュウガサキシ,ナガオキシンデンマチ,茨城県龍ケ崎市長沖新田町
3010017,茨城県,龍ケ崎市,姫宮町,イバラキケン,リュウガサキシ,ヒメミヤマチ,茨城県龍ケ崎市姫宮町
3010018,茨城県,龍ケ崎市,米町,イバラキケン,リュウガサキシ,コメマチ,茨城県龍ケ崎市米町
3010021,茨城県,龍ケ崎市,北方町,イバラキケン,リュウガサキシ,キタカタマチ,茨城県龍ケ崎市北方町
3010022,茨城県,龍ケ崎市,南が丘,イバラキケン,リュウガサキシ,ミナミガオカ,茨城県龍ケ崎市南が丘
3010023,茨城県,龍ケ崎市,羽黒町,イバラキケン,リュウガサキシ,ハグロマチ,茨城県龍ケ崎市羽黒町
3010024,茨城県,龍ケ崎市,豊田町,イバラキケン,リュウガサキシ,トヨダマチ,茨城県龍ケ崎市豊田町
3010025,茨城県,龍ケ崎市,大留町,イバラキケン,リュウガサキシ,オオドメマチ,茨城県龍ケ崎市大留町
3010026,茨城県,龍ケ崎市,高須町,イバラキケン,リュウガサキシ,タカスマチ,茨城県龍ケ崎市高須町
3010031,茨城県,龍ケ崎市,庄兵衛新田町,イバラキケン,リュウガサキシ,ショウベエシンデンマチ,茨城県龍ケ崎市庄兵衛新田町
3010032,茨城県,龍ケ崎市,佐貫,イバラキケン,リュウガサキシ,サヌキ,茨城県龍ケ崎市佐貫
3010033,茨城県,龍ケ崎市,佐貫町,イバラキケン,リュウガサキシ,サヌキマチ,茨城県龍ケ崎市佐貫町
3010034,茨城県,龍ケ崎市,小通幸谷町,イバラキケン,リュウガサキシ,コドオリコウヤマチ,茨城県龍ケ崎市小通幸谷町
3010035,茨城県,龍ケ崎市,稗柄町,イバラキケン,リュウガサキシ,ヒエガラマチ,茨城県龍ケ崎市稗柄町
3010041,茨城県,龍ケ崎市,若柴町,イバラキケン,リュウガサキシ,ワカシバマチ,茨城県龍ケ崎市若柴町
3010042,茨城県,龍ケ崎市,長山,イバラキケン,リュウガサキシ,ナガヤマ,茨城県龍ケ崎市長山
3010043,茨城県,龍ケ崎市,松葉,イバラキケン,リュウガサキシ,マツバ,茨城県龍ケ崎市松葉
3010044,茨城県,龍ケ崎市,小柴,イバラキケン,リュウガサキシ,コシバ,茨城県龍ケ崎市小柴
3010045,茨城県,龍ケ崎市,稲荷新田町,イバラキケン,リュウガサキシ,イナリシンデンマチ,茨城県龍ケ崎市稲荷新田町
3010046,茨城県,龍ケ崎市,入地町,イバラキケン,リュウガサキシ,イレチマチ,茨城県龍ケ崎市入地町
3010047,茨城県,龍ケ崎市,南中島町,イバラキケン,リュウガサキシ,ミナミナカジママチ,茨城県龍ケ崎市南中島町
3010048,茨城県,龍ケ崎市,川崎町,イバラキケン,リュウガサキシ,カワサキマチ,茨城県龍ケ崎市川崎町
3010801,茨城県,龍ケ崎市,板橋町,イバラキケン,リュウガサキシ,イタバシマチ,茨城県龍ケ崎市板橋町
3010802,茨城県,龍ケ崎市,高作町,イバラキケン,リュウガサキシ,コウサマチ,茨城県龍ケ崎市高作町
3010803,茨城県,龍ケ崎市,塗戸町,イバラキケン,リュウガサキシ,ヌルトマチ,茨城県龍ケ崎市塗戸町
3010804,茨城県,龍ケ崎市,長峰町,イバラキケン,リュウガサキシ,ナガミネマチ,茨城県龍ケ崎市長峰町
3010805,茨城県,龍ケ崎市,薄倉町,イバラキケン,リュウガサキシ,ウスグラマチ,茨城県龍ケ崎市薄倉町
3010806,茨城県,龍ケ崎市,半田町,イバラキケン,リュウガサキシ,ハンダマチ,茨城県龍ケ崎市半田町
3010811,茨城県,龍ケ崎市,宮渕町,イバラキケン,リュウガサキシ,ミヤブチマチ,茨城県龍ケ崎市宮渕町
3010812,茨城県,龍ケ崎市,佐沼町,イバラキケン,リュウガサキシ,サヌママチ,茨城県龍ケ崎市佐沼町
3010813,茨城県,龍ケ崎市,新町,イバラキケン,リュウガサキシ,シンマチ,茨城県龍ケ崎市新町
3010814,茨城県,龍ケ崎市,高砂,イバラキケン,リュウガサキシ,タカスナ,茨城県龍ケ崎市高砂
3010815,茨城県,龍ケ崎市,直鮒,イバラキケン,リュウガサキシ,スウブナ,茨城県龍ケ崎市直鮒
3010816,茨城県,龍ケ崎市,大徳町,イバラキケン,リュウガサキシ,ダイトクマチ,茨城県龍ケ崎市大徳町
3010817,茨城県,龍ケ崎市,上大徳新町,イバラキケン,リュウガサキシ,カミダイトクシンマチ,茨城県龍ケ崎市上大徳新町
3010821,茨城県,龍ケ崎市,東町,イバラキケン,リュウガサキシ,アズマチョウ,茨城県龍ケ崎市東町
3010822,茨城県,龍ケ崎市,光順田,イバラキケン,リュウガサキシ,コウジュンダ,茨城県龍ケ崎市光順田
3010823,茨城県,龍ケ崎市,砂町,イバラキケン,リュウガサキシ,スナマチ,茨城県龍ケ崎市砂町
3010824,茨城県,龍ケ崎市,下町,イバラキケン,リュウガサキシ,シモマチ,茨城県龍ケ崎市下町
3010825,茨城県,龍ケ崎市,川余郷,イバラキケン,リュウガサキシ,カワヨゴウ,茨城県龍ケ崎市川余郷
3010826,茨城県,龍ケ崎市,栄町,イバラキケン,リュウガサキシ,サカエマチ,茨城県龍ケ崎市栄町
3010831,茨城県,龍ケ崎市,野原町,イバラキケン,リュウガサキシ,ヤワラマチ,茨城県龍ケ崎市野原町
3010832,茨城県,龍ケ崎市,緑町,イバラキケン,リュウガサキシ,ミドリチョウ,茨城県龍ケ崎市緑町
3010833,茨城県,龍ケ崎市,城下,イバラキケン,リュウガサキシ,シロシタ,茨城県龍ケ崎市城下
3010834,茨城県,龍ケ崎市,古城,イバラキケン,リュウガサキシ,コジョウ,茨城県龍ケ崎市古城
3010835,茨城県,龍ケ崎市,田町,イバラキケン,リュウガサキシ,タマチ,茨城県龍ケ崎市田町
3010836,茨城県,龍ケ崎市,寺後,イバラキケン,リュウガサキシ,テラゴ,茨城県龍ケ崎市寺後
3010837,茨城県,龍ケ崎市,根町,イバラキケン,リュウガサキシ,ネマチ,茨城県龍ケ崎市根町
3010838,茨城県,龍ケ崎市,愛戸町,イバラキケン,リュウガサキシ,アタドマチ,茨城県龍ケ崎市愛戸町
3010839,茨城県,龍ケ崎市,出し山町,イバラキケン,リュウガサキシ,ダシヤママチ,茨城県龍ケ崎市出し山町
3010841,茨城県,龍ケ崎市,白羽,イバラキケン,リュウガサキシ,シラハネ,茨城県龍ケ崎市白羽
3010842,茨城県,龍ケ崎市,八代町,イバラキケン,リュウガサキシ,ヤシロマチ,茨城県龍ケ崎市八代町
3010843,茨城県,龍ケ崎市,羽原町,イバラキケン,リュウガサキシ,ハバラマチ,茨城県龍ケ崎市羽原町
3010844,茨城県,龍ケ崎市,平畑,イバラキケン,リュウガサキシ,ヒラハタ,茨城県龍ケ崎市平畑
3010845,茨城県,龍ケ崎市,奈戸岡,イバラキケン,リュウガサキシ,ナトオカ,茨城県龍ケ崎市奈戸岡
3010846,茨城県,龍ケ崎市,別所町,イバラキケン,リュウガサキシ,ベッショマチ,茨城県龍ケ崎市別所町
3010847,茨城県,龍ケ崎市,城ノ内,イバラキケン,リュウガサキシ,ジョウノウチ,茨城県龍ケ崎市城ノ内
3010851,茨城県,龍ケ崎市,大塚町,イバラキケン,リュウガサキシ,オオツカマチ,茨城県龍ケ崎市大塚町
3010852,茨城県,龍ケ崎市,向陽台,イバラキケン,リュウガサキシ,コウヨウダイ,茨城県龍ケ崎市向陽台
3010853,茨城県,龍ケ崎市,松ケ丘,イバラキケン,リュウガサキシ,マツガオカ,茨城県龍ケ崎市松ケ丘
3010854,茨城県,龍ケ崎市,中里,イバラキケン,リュウガサキシ,ナカザト,茨城県龍ケ崎市中里
3010855,茨城県,龍ケ崎市,藤ケ丘,イバラキケン,リュウガサキシ,フジガオカ,茨城県龍ケ崎市藤ケ丘
3010856,茨城県,龍ケ崎市,貝原塚町,イバラキケン,リュウガサキシ,カイハラツカマチ,茨城県龍ケ崎市貝原塚町
3010857,茨城県,龍ケ崎市,泉町,イバラキケン,リュウガサキシ,イズミマチ,茨城県龍ケ崎市泉町
3010901,茨城県,稲敷市,下根本,イバラキケン,イナシキシ,シモネモト,茨城県稲敷市下根本
3010902,茨城県,稲敷市,上根本,イバラキケン,イナシキシ,カミネモト,茨城県稲敷市上根本
3020000,茨城県,取手市,,イバラキケン,トリデシ,,茨城県取手市
3020001,茨城県,取手市,小文間,イバラキケン,トリデシ,オモンマ,茨城県取手市小文間
3020002,茨城県,取手市,長兵衛新田,イバラキケン,トリデシ,チョウベエシンデン,茨城県取手市長兵衛新田
3020003,茨城県,取手市,小堀,イバラキケン,トリデシ,オオホリ,茨城県取手市小堀
3020004,茨城県,取手市,取手,イバラキケン,トリデシ,トリデ,茨城県取手市取手
3020005,茨城県,取手市,東,イバラキケン,トリデシ,ヒガシ,茨城県取手市東
3020006,茨城県,取手市,青柳,イバラキケン,トリデシ,アオヤナギ,茨城県取手市青柳
3020007,茨城県,取手市,吉田,イバラキケン,トリデシ,ヨシダ,茨城県取手市吉田
3020011,茨城県,取手市,井野,イバラキケン,トリデシ,イノ,茨城県取手市井野
3020012,茨城県,取手市,井野団地,イバラキケン,トリデシ,イノダンチ,茨城県取手市井野団地
3020013,茨城県,取手市,台宿,イバラキケン,トリデシ,ダイシュク,茨城県取手市台宿
3020014,茨城県,取手市,中央町,イバラキケン,トリデシ,チュウオウチョウ,茨城県取手市中央町
3020015,茨城県,取手市,井野台,イバラキケン,トリデシ,イノダイ,茨城県取手市井野台
3020016,茨城県,取手市,中原町,イバラキケン,トリデシ,ナカハラチョウ,茨城県取手市中原町
3020017,茨城県,取手市,桑原,イバラキケン,トリデシ,クワバラ,茨城県取手市桑原
3020021,茨城県,取手市,寺田,イバラキケン,トリデシ,テラダ,茨城県取手市寺田
3020022,茨城県,取手市,本郷,イバラキケン,トリデシ,ホンゴウ,茨城県取手市本郷
3020023,茨城県,取手市,白山,イバラキケン,トリデシ,ハクサン,茨城県取手市白山
3020024,茨城県,取手市,新町,イバラキケン,トリデシ,シンマチ,茨城県取手市新町
3020025,茨城県,取手市,西,イバラキケン,トリデシ,ニシ,茨城県取手市西
3020026,茨城県,取手市,稲,イバラキケン,トリデシ,イナ,茨城県取手市稲
3020027,茨城県,取手市,駒場,イバラキケン,トリデシ,コマバ,茨城県取手市駒場
3020031,茨城県,取手市,新取手,イバラキケン,トリデシ,シントリデ,茨城県取手市新取手
3020032,茨城県,取手市,野々井,イバラキケン,トリデシ,ノノイ,茨城県取手市野々井
3020033,茨城県,取手市,米ノ井,イバラキケン,トリデシ,コメノイ,茨城県取手市米ノ井
3020034,茨城県,取手市,戸頭,イバラキケン,トリデシ,トガシラ,茨城県取手市戸頭
3020035,茨城県,取手市,上高井,イバラキケン,トリデシ,カミタカイ,茨城県取手市上高井
3020036,茨城県,取手市,貝塚,イバラキケン,トリデシ,カイヅカ,茨城県取手市貝塚
3020037,茨城県,取手市,市之代,イバラキケン,トリデシ,イチノダイ,茨城県取手市市之代
3020038,茨城県,取手市,下高井,イバラキケン,トリデシ,シモタカイ,茨城県取手市下高井
3020039,茨城県,取手市,ゆめみ野,イバラキケン,トリデシ,ユメミノ,茨城県取手市ゆめみ野
3020100,茨城県,守谷市,,イバラキケン,モリヤシ,,茨城県守谷市
3020101,茨城県,守谷市,板戸井,イバラキケン,モリヤシ,イタトイ,茨城県守谷市板戸井
3020102,茨城県,守谷市,松前台,イバラキケン,モリヤシ,マツマエダイ,茨城県守谷市松前台
3020103,茨城県,守谷市,大山新田,イバラキケン,モリヤシ,オオヤマシンデン,茨城県守谷市大山新田
3020104,茨城県,守谷市,久保ケ丘,イバラキケン,モリヤシ,クボガオカ,茨城県守谷市久保ケ丘
3020105,茨城県,守谷市,薬師台,イバラキケン,モリヤシ,ヤクシダイ,茨城県守谷市薬師台
3020106,茨城県,守谷市,緑,イバラキケン,モリヤシ,ミドリ,茨城県守谷市緑
3020107,茨城県,守谷市,大木,イバラキケン,モリヤシ,オオキ,茨城県守谷市大木
3020108,茨城県,守谷市,松並,イバラキケン,モリヤシ,マツナミ,茨城県守谷市松並
3020109,茨城県,守谷市,本町,イバラキケン,モリヤシ,ホンチョウ,茨城県守谷市本町
3020110,茨城県,守谷市,百合ケ丘,イバラキケン,モリヤシ,ユリガオカ,茨城県守谷市百合ケ丘
3020111,茨城県,守谷市,赤法花,イバラキケン,モリヤシ,アカボツケ,茨城県守谷市赤法花
3020112,茨城県,守谷市,同地,イバラキケン,モリヤシ,ドウチ,茨城県守谷市同地
3020115,茨城県,守谷市,中央,イバラキケン,モリヤシ,チュウオウ,茨城県守谷市中央
3020116,茨城県,守谷市,大柏,イバラキケン,モリヤシ,オオガシワ,茨城県守谷市大柏
3020117,茨城県,守谷市,野木崎,イバラキケン,モリヤシ,ノギサキ,茨城県守谷市野木崎
3020118,茨城県,守谷市,立沢,イバラキケン,モリヤシ,タツザワ,茨城県守谷市立沢
3020119,茨城県,守谷市,御所ケ丘,イバラキケン,モリヤシ,ゴショガオカ,茨城県守谷市御所ケ丘
3020121,茨城県,守谷市,みずき野,イバラキケン,モリヤシ,ミズキノ,茨城県守谷市みずき野
3020122,茨城県,守谷市,小山,イバラキケン,モリヤシ,コヤマ,茨城県守谷市小山
3020123,茨城県,守谷市,乙子,イバラキケン,モリヤシ,オトゴ,茨城県守谷市乙子
3020124,茨城県,守谷市,美園,イバラキケン,モリヤシ,ミソノ,茨城県守谷市美園
3020125,茨城県,守谷市,高野,イバラキケン,モリヤシ,コウヤ,茨城県守谷市高野
3020126,茨城県,守谷市,鈴塚,イバラキケン,モリヤシ,スズツカ,茨城県守谷市鈴塚
3020127,茨城県,守谷市,松ケ丘,イバラキケン,モリヤシ,マツガオカ,茨城県守谷市松ケ丘
3020128,茨城県,守谷市,けやき台,イバラキケン,モリヤシ,ケヤキダイ,茨城県守谷市けやき台
3020131,茨城県,守谷市,ひがし野,イバラキケン,モリヤシ,ヒガシノ,茨城県守谷市ひがし野
3020132,茨城県,守谷市,松並青葉,イバラキケン,モリヤシ,マツナミアオバ,茨城県守谷市松並青葉
3030000,茨城県,常総市,,イバラキケン,ジョウソウシ,,茨城県常総市
3030001,茨城県,常総市,中山町,イバラキケン,ジョウソウシ,ナカヤママチ,茨城県常総市中山町
3030002,茨城県,常総市,相野谷町,イバラキケン,ジョウソウシ,アイノヤマチ,茨城県常総市相野谷町
3030003,茨城県,常総市,水海道橋本町,イバラキケン,ジョウソウシ,ミツカイドウハシモトチョウ,茨城県常総市水海道橋本町
3030004,茨城県,常総市,水海道元町,イバラキケン,ジョウソウシ,ミツカイドウモトマチ,茨城県常総市水海道元町
3030005,茨城県,常総市,水海道森下町,イバラキケン,ジョウソウシ,ミツカイドウモリシタマチ,茨城県常総市水海道森下町
3030006,茨城県,常総市,小山戸町,イバラキケン,ジョウソウシ,コヤマドマチ,茨城県常総市小山戸町
3030011,茨城県,常総市,東町,イバラキケン,ジョウソウシ,アズマチョウ,茨城県常総市東町
3030012,茨城県,常総市,大崎町,イバラキケン,ジョウソウシ,オオサキマチ,茨城県常総市大崎町
3030013,茨城県,常総市,箕輪町,イバラキケン,ジョウソウシ,ミノワマチ,茨城県常総市箕輪町
3030014,茨城県,常総市,兵町,イバラキケン,ジョウソウシ,ヒョウマチ,茨城県常総市兵町
3030015,茨城県,常総市,長助町,イバラキケン,ジョウソウシ,チョウスケマチ,茨城県常総市長助町
3030016,茨城県,常総市,新井木町,イバラキケン,ジョウソウシ,アライギマチ,茨城県常総市新井木町
3030017,茨城県,常総市,平町,イバラキケン,ジョウソウシ,ヘイマチ,茨城県常総市平町
3030018,茨城県,常総市,十花町,イバラキケン,ジョウソウシ,ジュッカマチ,茨城県常総市十花町
3030021,茨城県,常総市,水海道諏訪町,イバラキケン,ジョウソウシ,ミツカイドウスワマチ,茨城県常総市水海道諏訪町
3030022,茨城県,常総市,水海道淵頭町,イバラキケン,ジョウソウシ,ミツカイドウフチガシラマチ,茨城県常総市水海道淵頭町
3030023,茨城県,常総市,水海道宝町,イバラキケン,ジョウソウシ,ミツカイドウタカラマチ,茨城県常総市水海道宝町
3030024,茨城県,常総市,水海道栄町,イバラキケン,ジョウソウシ,ミツカイドウサカエチョウ,茨城県常総市水海道栄町
3030025,茨城県,常総市,水海道亀岡町,イバラキケン,ジョウソウシ,ミツカイドウカメオカチョウ,茨城県常総市水海道亀岡町
3030026,茨城県,常総市,水海道本町,イバラキケン,ジョウソウシ,ミツカイドウホンチョウ,茨城県常総市水海道本町
3030031,茨城県,常総市,水海道山田町,イバラキケン,ジョウソウシ,ミツカイドウヤマダマチ,茨城県常総市水海道山田町
3030032,茨城県,常総市,水海道川又町,イバラキケン,ジョウソウシ,ミツカイドウカワマタチョウ,茨城県常総市水海道川又町
3030033,茨城県,常総市,水海道高野町,イバラキケン,ジョウソウシ,ミツカイドウコウヤマチ,茨城県常総市水海道高野町
3030034,茨城県,常総市,水海道天満町,イバラキケン,ジョウソウシ,ミツカイドウテンマンチョウ,茨城県常総市水海道天満町
3030041,茨城県,常総市,豊岡町,イバラキケン,ジョウソウシ,トヨオカマチ,茨城県常総市豊岡町
3030042,茨城県,常総市,坂手町,イバラキケン,ジョウソウシ,サカテマチ,茨城県常総市坂手町
3030043,茨城県,常総市,内守谷町,イバラキケン,ジョウソウシ,ウチモリヤマチ,茨城県常総市内守谷町
3030044,茨城県,常総市,菅生町,イバラキケン,ジョウソウシ,スガオマチ,茨城県常総市菅生町
3030045,茨城県,常総市,大塚戸町,イバラキケン,ジョウソウシ,オオツカドマチ,茨城県常総市大塚戸町
3030046,茨城県,常総市,内守谷町きぬの里,イバラキケン,ジョウソウシ,ウチモリヤマチキヌノサト,茨城県常総市内守谷町きぬの里
3040000,茨城県,下妻市,,イバラキケン,シモツマシ,,茨城県下妻市
3040001,茨城県,下妻市,平方,イバラキケン,シモツマシ,ヒラカタ,茨城県下妻市平方
3040002,茨城県,下妻市,江,イバラキケン,シモツマシ,エ,茨城県下妻市江
3040003,茨城県,下妻市,関本下,イバラキケン,シモツマシ,セキモトシタ,茨城県下妻市関本下
3040004,茨城県,下妻市,大木,イバラキケン,シモツマシ,オオキ,茨城県下妻市大木
3040005,茨城県,下妻市,半谷,イバラキケン,シモツマシ,ハンヤ,茨城県下妻市半谷
3040006,茨城県,下妻市,柴,イバラキケン,シモツマシ,シバ,茨城県下妻市柴
3040007,茨城県,下妻市,黒駒,イバラキケン,シモツマシ,クロコマ,茨城県下妻市黒駒
3040011,茨城県,下妻市,神明,イバラキケン,シモツマシ,シンメイ,茨城県下妻市神明
3040012,茨城県,下妻市,若柳,イバラキケン,シモツマシ,ワカヤナギ,茨城県下妻市若柳
3040013,茨城県,下妻市,下宮,イバラキケン,シモツマシ,シタミヤ,茨城県下妻市下宮
3040014,茨城県,下妻市,中郷,イバラキケン,シモツマシ,ナカゴウ,茨城県下妻市中郷
3040015,茨城県,下妻市,下田,イバラキケン,シモツマシ,シモダ,茨城県下妻市下田
3040016,茨城県,下妻市,数須,イバラキケン,シモツマシ,カズス,茨城県下妻市数須
3040017,茨城県,下妻市,筑波島,イバラキケン,シモツマシ,チクワジマ,茨城県下妻市筑波島
3040018,茨城県,下妻市,平川戸,イバラキケン,シモツマシ,ヒラカワド,茨城県下妻市平川戸
3040021,茨城県,下妻市,北大宝,イバラキケン,シモツマシ,キタダイホウ,茨城県下妻市北大宝
3040022,茨城県,下妻市,大宝,イバラキケン,シモツマシ,ダイホウ,茨城県下妻市大宝
3040023,茨城県,下妻市,大串,イバラキケン,シモツマシ,オオクシ,茨城県下妻市大串
3040024,茨城県,下妻市,坂本新田,イバラキケン,シモツマシ,サカモトシンデン,茨城県下妻市坂本新田
3040025,茨城県,下妻市,大木新田,イバラキケン,シモツマシ,オオキシンデン,茨城県下妻市大木新田
3040026,茨城県,下妻市,平沼,イバラキケン,シモツマシ,ヒラヌマ,茨城県下妻市平沼
3040027,茨城県,下妻市,福田,イバラキケン,シモツマシ,フクダ,茨城県下妻市福田
3040028,茨城県,下妻市,下木戸,イバラキケン,シモツマシ,シモキド,茨城県下妻市下木戸
3040031,茨城県,下妻市,高道祖,イバラキケン,シモツマシ,タカサイ,茨城県下妻市高道祖
3040032,茨城県,下妻市,比毛,イバラキケン,シモツマシ,ヒケ,茨城県下妻市比毛
3040033,茨城県,下妻市,堀篭,イバラキケン,シモツマシ,ホリゴメ,茨城県下妻市堀篭
3040034,茨城県,下妻市,坂井,イバラキケン,シモツマシ,サカイ,茨城県下妻市坂井
3040035,茨城県,下妻市,横根,イバラキケン,シモツマシ,ヨコネ,茨城県下妻市横根
3040041,茨城県,下妻市,古沢,イバラキケン,シモツマシ,フルサワ,茨城県下妻市古沢
3040042,茨城県,下妻市,袋畑,イバラキケン,シモツマシ,フクロハタ,茨城県下妻市袋畑
3040043,茨城県,下妻市,谷田部,イバラキケン,シモツマシ,ヤタベ,茨城県下妻市谷田部
3040044,茨城県,下妻市,柳原,イバラキケン,シモツマシ,ヤギワラ,茨城県下妻市柳原
3040045,茨城県,下妻市,山尻,イバラキケン,シモツマシ,ヤマジリ,茨城県下妻市山尻
3040046,茨城県,下妻市,樋橋,イバラキケン,シモツマシ,ヒバシ,茨城県下妻市樋橋
3040047,茨城県,下妻市,肘谷,イバラキケン,シモツマシ,ヒジヤ,茨城県下妻市肘谷
3040048,茨城県,下妻市,加養,イバラキケン,シモツマシ,カヨウ,茨城県下妻市加養
3040049,茨城県,下妻市,新堀,イバラキケン,シモツマシ,ニイボリ,茨城県下妻市新堀
3040050,茨城県,下妻市,亀崎,イバラキケン,シモツマシ,カメザキ,茨城県下妻市亀崎
3040051,茨城県,下妻市,小島,イバラキケン,シモツマシ,オジマ,茨城県下妻市小島
3040052,茨城県,下妻市,二本紀,イバラキケン,シモツマシ,ニホンギ,茨城県下妻市二本紀
3040053,茨城県,下妻市,今泉,イバラキケン,シモツマシ,イマイズミ,茨城県下妻市今泉
3040054,茨城県,下妻市,中居指,イバラキケン,シモツマシ,ナカイザシ,茨城県下妻市中居指
3040055,茨城県,下妻市,砂沼新田,イバラキケン,シモツマシ,サヌマシンデン,茨城県下妻市砂沼新田
3040056,茨城県,下妻市,長塚,イバラキケン,シモツマシ,ナガツカ,茨城県下妻市長塚
3040057,茨城県,下妻市,石の宮,イバラキケン,シモツマシ,イシノミヤ,茨城県下妻市石の宮
3040061,茨城県,下妻市,下妻丙,イバラキケン,シモツマシ,シモツマヘイ,茨城県下妻市下妻丙
3040062,茨城県,下妻市,下妻戊,イバラキケン,シモツマシ,シモツマボ,茨城県下妻市下妻戊
3040063,茨城県,下妻市,小野子町,イバラキケン,シモツマシ,オノコチョウ,茨城県下妻市小野子町
3040064,茨城県,下妻市,本城町,イバラキケン,シモツマシ,モトシロチョウ,茨城県下妻市本城町
3040065,茨城県,下妻市,本宿町,イバラキケン,シモツマシ,ホンジュクチョウ,茨城県下妻市本宿町
3040066,茨城県,下妻市,下妻甲,イバラキケン,シモツマシ,シモツマコウ,茨城県下妻市下妻甲
3040067,茨城県,下妻市,下妻乙,イバラキケン,シモツマシ,シモツマオツ,茨城県下妻市下妻乙
3040068,茨城県,下妻市,下妻丁,イバラキケン,シモツマシ,シモツマテイ,茨城県下妻市下妻丁
3040069,茨城県,下妻市,田町,イバラキケン,シモツマシ,タマチ,茨城県下妻市田町
3040071,茨城県,下妻市,尻手,イバラキケン,シモツマシ,シッテ,茨城県下妻市尻手
3040072,茨城県,下妻市,渋井,イバラキケン,シモツマシ,シブイ,茨城県下妻市渋井
3040073,茨城県,下妻市,桐ケ瀬,イバラキケン,シモツマシ,キリガセ,茨城県下妻市桐ケ瀬
3040074,茨城県,下妻市,赤須,イバラキケン,シモツマシ,アカス,茨城県下妻市赤須
3040075,茨城県,下妻市,南原,イバラキケン,シモツマシ,ミナミハラ,茨城県下妻市南原
3040076,茨城県,下妻市,前河原,イバラキケン,シモツマシ,マエガワラ,茨城県下妻市前河原
3040801,茨城県,下妻市,大園木,イバラキケン,シモツマシ,オオゾノキ,茨城県下妻市大園木
3040802,茨城県,下妻市,鯨,イバラキケン,シモツマシ,クジラ,茨城県下妻市鯨
3040803,茨城県,下妻市,伊古立,イバラキケン,シモツマシ,イゴダツ,茨城県下妻市伊古立
3040804,茨城県,下妻市,長萱,イバラキケン,シモツマシ,オサガヤ,茨城県下妻市長萱
3040805,茨城県,下妻市,唐崎,イバラキケン,シモツマシ,カラサキ,茨城県下妻市唐崎
3040806,茨城県,下妻市,見田,イバラキケン,シモツマシ,ミタ,茨城県下妻市見田
3040811,茨城県,下妻市,下栗,イバラキケン,シモツマシ,シモグリ,茨城県下妻市下栗
3040812,茨城県,下妻市,田下,イバラキケン,シモツマシ,タゲ,茨城県下妻市田下
3040813,茨城県,下妻市,本宗道,イバラキケン,シモツマシ,ホンソウドウ,茨城県下妻市本宗道
3040814,茨城県,下妻市,宗道,イバラキケン,シモツマシ,ソウドウ,茨城県下妻市宗道
3040815,茨城県,下妻市,渋田,イバラキケン,シモツマシ,シブタ,茨城県下妻市渋田
3040816,茨城県,下妻市,原,イバラキケン,シモツマシ,ハラ,茨城県下妻市原
3040817,茨城県,下妻市,羽子,イバラキケン,シモツマシ,ハネゴ,茨城県下妻市羽子
3040818,茨城県,下妻市,鬼怒,イバラキケン,シモツマシ,キヌ,茨城県下妻市鬼怒
3040819,茨城県,下妻市,鎌庭,イバラキケン,シモツマシ,カマニワ,茨城県下妻市鎌庭
3040821,茨城県,下妻市,別府,イバラキケン,シモツマシ,ベップ,茨城県下妻市別府
3040822,茨城県,下妻市,皆葉,イバラキケン,シモツマシ,ミナバ,茨城県下妻市皆葉
3040823,茨城県,下妻市,五箇,イバラキケン,シモツマシ,ゴカ,茨城県下妻市五箇
3040824,茨城県,下妻市,村岡,イバラキケン,シモツマシ,ムラオカ,茨城県下妻市村岡
3050000,茨城県,つくば市,,イバラキケン,ツクバシ,,茨城県つくば市
3050001,茨城県,つくば市,栗原,イバラキケン,ツクバシ,クリハラ,茨城県つくば市栗原
3050002,茨城県,つくば市,上野,イバラキケン,ツクバシ,ウエノ,茨城県つくば市上野
3050003,茨城県,つくば市,桜,イバラキケン,ツクバシ,サクラ,茨城県つくば市桜
3050004,茨城県,つくば市,柴崎,イバラキケン,ツクバシ,シバサキ,茨城県つくば市柴崎
3050005,茨城県,つくば市,天久保,イバラキケン,ツクバシ,アマクボ,茨城県つくば市天久保
3050006,茨城県,つくば市,天王台,イバラキケン,ツクバシ,テンノウダイ,茨城県つくば市天王台
3050007,茨城県,つくば市,春風台,イバラキケン,ツクバシ,ハルカゼダイ,茨城県つくば市春風台
3050008,茨城県,つくば市,流星台,イバラキケン,ツクバシ,リュウセイダイ,茨城県つくば市流星台
3050011,茨城県,つくば市,上境,イバラキケン,ツクバシ,カミザカイ,茨城県つくば市上境
3050012,茨城県,つくば市,中根,イバラキケン,ツクバシ,ナカネ,茨城県つくば市中根
3050013,茨城県,つくば市,栄,イバラキケン,ツクバシ,サカエ,茨城県つくば市栄
3050014,茨城県,つくば市,松栄,イバラキケン,ツクバシ,ショウエイ,茨城県つくば市松栄
3050015,茨城県,つくば市,松塚,イバラキケン,ツクバシ,マツヅカ,茨城県つくば市松塚
3050016,茨城県,つくば市,大,イバラキケン,ツクバシ,オオ,茨城県つくば市大
3050017,茨城県,つくば市,横町,イバラキケン,ツクバシ,ヨコマチ,茨城県つくば市横町
3050018,茨城県,つくば市,金田,イバラキケン,ツクバシ,コンダ,茨城県つくば市金田
3050019,茨城県,つくば市,さくらの森,イバラキケン,ツクバシ,サクラノモリ,茨城県つくば市さくらの森
3050021,茨城県,つくば市,古来,イバラキケン,ツクバシ,フルク,茨城県つくば市古来
3050022,茨城県,つくば市,吉瀬,イバラキケン,ツクバシ,キセ,茨城県つくば市吉瀬
3050023,茨城県,つくば市,上ノ室,イバラキケン,ツクバシ,ウエノムロ,茨城県つくば市上ノ室
3050024,茨城県,つくば市,倉掛,イバラキケン,ツクバシ,クラカケ,茨城県つくば市倉掛
3050025,茨城県,つくば市,花室,イバラキケン,ツクバシ,ハナムロ,茨城県つくば市花室
3050026,茨城県,つくば市,岡村新田,イバラキケン,ツクバシ,オカムラシンデン,茨城県つくば市岡村新田
3050027,茨城県,つくば市,東岡,イバラキケン,ツクバシ,ヒガシオカ,茨城県つくば市東岡
3050028,茨城県,つくば市,妻木,イバラキケン,ツクバシ,サイキ,茨城県つくば市妻木
3050029,茨城県,つくば市,花園,イバラキケン,ツクバシ,ハナゾノ,茨城県つくば市花園
3050031,茨城県,つくば市,吾妻,イバラキケン,ツクバシ,アヅマ,茨城県つくば市吾妻
3050032,茨城県,つくば市,竹園,イバラキケン,ツクバシ,タケゾノ,茨城県つくば市竹園
3050033,茨城県,つくば市,東新井,イバラキケン,ツクバシ,ヒガシアライ,茨城県つくば市東新井
3050034,茨城県,つくば市,小野崎,イバラキケン,ツクバシ,オノザキ,茨城県つくば市小野崎
3050035,茨城県,つくば市,松代,イバラキケン,ツクバシ,マツシロ,茨城県つくば市松代
3050036,茨城県,つくば市,西郷,イバラキケン,ツクバシ,サイゴウ,茨城県つくば市西郷
3050041,茨城県,つくば市,上広岡,イバラキケン,ツクバシ,カミヒロオカ,茨城県つくば市上広岡
3050042,茨城県,つくば市,下広岡,イバラキケン,ツクバシ,シモヒロオカ,茨城県つくば市下広岡
3050043,茨城県,つくば市,大角豆,イバラキケン,ツクバシ,ササギ,茨城県つくば市大角豆
3050044,茨城県,つくば市,並木,イバラキケン,ツクバシ,ナミキ,茨城県つくば市並木
3050045,茨城県,つくば市,梅園,イバラキケン,ツクバシ,ウメゾノ,茨城県つくば市梅園
3050046,茨城県,つくば市,東,イバラキケン,ツクバシ,ヒガシ,茨城県つくば市東
3050047,茨城県,つくば市,千現,イバラキケン,ツクバシ,センゲン,茨城県つくば市千現
3050051,茨城県,つくば市,二の宮,イバラキケン,ツクバシ,ニノミヤ,茨城県つくば市二の宮
3050052,茨城県,つくば市,長峰,イバラキケン,ツクバシ,ナガミネ,茨城県つくば市長峰
3050053,茨城県,つくば市,小野川,イバラキケン,ツクバシ,オノガワ,茨城県つくば市小野川
3050054,茨城県,つくば市,西大沼,イバラキケン,ツクバシ,ニシオオヌマ,茨城県つくば市西大沼
3050055,茨城県,つくば市,上原,イバラキケン,ツクバシ,カミハラ,茨城県つくば市上原
3050056,茨城県,つくば市,松野木,イバラキケン,ツクバシ,マツノキ,茨城県つくば市松野木
3050061,茨城県,つくば市,稲荷前,イバラキケン,ツクバシ,イナリマエ,茨城県つくば市稲荷前
3050062,茨城県,つくば市,赤塚,イバラキケン,ツクバシ,アカツカ,茨城県つくば市赤塚
3050063,茨城県,つくば市,下原,イバラキケン,ツクバシ,シモハラ,茨城県つくば市下原
3050064,茨城県,つくば市,梶内,イバラキケン,ツクバシ,カジウチ,茨城県つくば市梶内
3050065,茨城県,つくば市,南中妻,イバラキケン,ツクバシ,ミナミナカヅマ,茨城県つくば市南中妻
3050066,茨城県,つくば市,北中妻,イバラキケン,ツクバシ,キタナカヅマ,茨城県つくば市北中妻
3050067,茨城県,つくば市,館野,イバラキケン,ツクバシ,タテノ,茨城県つくば市館野
3050068,茨城県,つくば市,中内,イバラキケン,ツクバシ,ナカウチ,茨城県つくば市中内
3050071,茨城県,つくば市,稲岡,イバラキケン,ツクバシ,イナオカ,茨城県つくば市稲岡
3050072,茨城県,つくば市,北中島,イバラキケン,ツクバシ,キタナカジマ,茨城県つくば市北中島
3050073,茨城県,つくば市,市之台,イバラキケン,ツクバシ,イチノダイ,茨城県つくば市市之台
3050074,茨城県,つくば市,高野台,イバラキケン,ツクバシ,コウヤダイ,茨城県つくば市高野台
3050075,茨城県,つくば市,下横場,イバラキケン,ツクバシ,シモヨコバ,茨城県つくば市下横場
3050076,茨城県,つくば市,新牧田,イバラキケン,ツクバシ,アラマキダ,茨城県つくば市新牧田
3050077,茨城県,つくば市,鷹野原,イバラキケン,ツクバシ,タカノハラ,茨城県つくば市鷹野原
3050801,茨城県,つくば市,大穂（１−１）,イバラキケン,ツクバシ,オオホ(1-1),茨城県つくば市大穂（1-1）
3050802,茨城県,つくば市,立原（１、２、３）,イバラキケン,ツクバシ,タチハラ(1、2、3),茨城県つくば市立原（1、2、3）
3050803,茨城県,つくば市,南原（２）,イバラキケン,ツクバシ,ミナミハラ(2),茨城県つくば市南原（2）
3050804,茨城県,つくば市,旭（１）,イバラキケン,ツクバシ,アサヒ(1),茨城県つくば市旭（1）
3050805,茨城県,つくば市,花畑（１−７−１）,イバラキケン,ツクバシ,ハナバタケ(1-7-1),茨城県つくば市花畑（1-7-1）
3050811,茨城県,つくば市,北郷,イバラキケン,ツクバシ,キタサト,茨城県つくば市北郷
3050812,茨城県,つくば市,東平塚,イバラキケン,ツクバシ,ヒガシヒラツカ,茨城県つくば市東平塚
3050813,茨城県,つくば市,下平塚,イバラキケン,ツクバシ,シモヒラツカ,茨城県つくば市下平塚
3050814,茨城県,つくば市,西平塚,イバラキケン,ツクバシ,ニシヒラツカ,茨城県つくば市西平塚
3050815,茨城県,つくば市,西原,イバラキケン,ツクバシ,ニシハラ,茨城県つくば市西原
3050816,茨城県,つくば市,学園の森,イバラキケン,ツクバシ,ガクエンノモリ,茨城県つくば市学園の森
3050817,茨城県,つくば市,研究学園,イバラキケン,ツクバシ,ケンキュウガクエン,茨城県つくば市研究学園
3050818,茨城県,つくば市,学園南,イバラキケン,ツクバシ,ガクエンミナミ,茨城県つくば市学園南
3050821,茨城県,つくば市,春日,イバラキケン,ツクバシ,カスガ,茨城県つくば市春日
3050822,茨城県,つくば市,苅間,イバラキケン,ツクバシ,カリマ,茨城県つくば市苅間
3050823,茨城県,つくば市,原,イバラキケン,ツクバシ,ハラ,茨城県つくば市原
3050824,茨城県,つくば市,葛城根崎,イバラキケン,ツクバシ,カツラギネサキ,茨城県つくば市葛城根崎
3050831,茨城県,つくば市,西大橋,イバラキケン,ツクバシ,ニシオオハシ,茨城県つくば市西大橋
3050832,茨城県,つくば市,西岡,イバラキケン,ツクバシ,ニシオカ,茨城県つくば市西岡
3050833,茨城県,つくば市,島,イバラキケン,ツクバシ,シマ,茨城県つくば市島
3050834,茨城県,つくば市,手代木,イバラキケン,ツクバシ,テシロギ,茨城県つくば市手代木
3050835,茨城県,つくば市,新井,イバラキケン,ツクバシ,アライ,茨城県つくば市新井
3050836,茨城県,つくば市,山中,イバラキケン,ツクバシ,ヤマナカ,茨城県つくば市山中
3050841,茨城県,つくば市,御幸が丘,イバラキケン,ツクバシ,ミユキガオカ,茨城県つくば市御幸が丘
3050842,茨城県,つくば市,柳橋,イバラキケン,ツクバシ,ヤギハシ,茨城県つくば市柳橋
3050843,茨城県,つくば市,八幡台,イバラキケン,ツクバシ,ハチマンダイ,茨城県つくば市八幡台
3050844,茨城県,つくば市,小白硲,イバラキケン,ツクバシ,コジラハザマ,茨城県つくば市小白硲
3050845,茨城県,つくば市,大白硲,イバラキケン,ツクバシ,オオジラハザマ,茨城県つくば市大白硲
3050846,茨城県,つくば市,平,イバラキケン,ツクバシ,タイラ,茨城県つくば市平
3050847,茨城県,つくば市,陣場,イバラキケン,ツクバシ,ジンバ,茨城県つくば市陣場
3050851,茨城県,つくば市,大わし,イバラキケン,ツクバシ,オオワシ,茨城県つくば市大わし
3050852,茨城県,つくば市,藤本,イバラキケン,ツクバシ,フジモト,茨城県つくば市藤本
3050853,茨城県,つくば市,榎戸,イバラキケン,ツクバシ,エノキド,茨城県つくば市榎戸
3050854,茨城県,つくば市,上横場,イバラキケン,ツクバシ,カミヨコバ,茨城県つくば市上横場
3050855,茨城県,つくば市,今泉,イバラキケン,ツクバシ,イマイズミ,茨城県つくば市今泉
3050856,茨城県,つくば市,観音台,イバラキケン,ツクバシ,カンノンダイ,茨城県つくば市観音台
3050857,茨城県,つくば市,羽成,イバラキケン,ツクバシ,ハナレ,茨城県つくば市羽成
3050861,茨城県,つくば市,谷田部,イバラキケン,ツクバシ,ヤタベ,茨城県つくば市谷田部
3050862,茨城県,つくば市,東丸山,イバラキケン,ツクバシ,ヒガシマルヤマ,茨城県つくば市東丸山
3050863,茨城県,つくば市,緑が丘,イバラキケン,ツクバシ,ミドリガオカ,茨城県つくば市緑が丘
3050864,茨城県,つくば市,境松,イバラキケン,ツクバシ,サカイマツ,茨城県つくば市境松
3050865,茨城県,つくば市,根崎,イバラキケン,ツクバシ,ネサキ,茨城県つくば市根崎
3050866,茨城県,つくば市,古館,イバラキケン,ツクバシ,フルダテ,茨城県つくば市古館
3050867,茨城県,つくば市,境田,イバラキケン,ツクバシ,サカイダ,茨城県つくば市境田
3050868,茨城県,つくば市,台町,イバラキケン,ツクバシ,ダイマチ,茨城県つくば市台町
3050871,茨城県,つくば市,上萱丸,イバラキケン,ツクバシ,カミカヤマル,茨城県つくば市上萱丸
3050872,茨城県,つくば市,下萱丸,イバラキケン,ツクバシ,シモカヤマル,茨城県つくば市下萱丸
3050873,茨城県,つくば市,中野,イバラキケン,ツクバシ,ナカノ,茨城県つくば市中野
3050874,茨城県,つくば市,飯田,イバラキケン,ツクバシ,イイダ,茨城県つくば市飯田
3050875,茨城県,つくば市,花島新田,イバラキケン,ツクバシ,ハナシマシンデン,茨城県つくば市花島新田
3050876,茨城県,つくば市,西栗山,イバラキケン,ツクバシ,ニシクリヤマ,茨城県つくば市西栗山
3050877,茨城県,つくば市,片田,イバラキケン,ツクバシ,カタダ,茨城県つくば市片田
3050881,茨城県,つくば市,みどりの,イバラキケン,ツクバシ,ミドリノ,茨城県つくば市みどりの
3050882,茨城県,つくば市,みどりの中央,イバラキケン,ツクバシ,ミドリノチュウオウ,茨城県つくば市みどりの中央
3050883,茨城県,つくば市,みどりの東,イバラキケン,ツクバシ,ミドリノヒガシ,茨城県つくば市みどりの東
3050884,茨城県,つくば市,みどりの南,イバラキケン,ツクバシ,ミドリノミナミ,茨城県つくば市みどりの南
3050901,茨城県,つくば市,池の台（２）,イバラキケン,ツクバシ,イケノダイ(2),茨城県つくば市池の台（2）
3050902,茨城県,つくば市,西の沢（畜産試験場圃場）,イバラキケン,ツクバシ,ニシノサワ(チクサンシケンジョウボジョウ),茨城県つくば市西の沢（畜産試験場圃場）
3050903,茨城県,つくば市,松の里（１）,イバラキケン,ツクバシ,マツノサト(1),茨城県つくば市松の里（1）
3060000,茨城県,古河市,,イバラキケン,コガシ,,茨城県古河市
3060001,茨城県,古河市,静町,イバラキケン,コガシ,シズカマチ,茨城県古河市静町
3060002,茨城県,古河市,三杉町,イバラキケン,コガシ,ミスギチョウ,茨城県古河市三杉町
3060003,茨城県,古河市,緑町,イバラキケン,コガシ,ミドリチョウ,茨城県古河市緑町
3060004,茨城県,古河市,雷電町,イバラキケン,コガシ,ライデンチョウ,茨城県古河市雷電町
3060005,茨城県,古河市,北町,イバラキケン,コガシ,キタマチ,茨城県古河市北町
3060006,茨城県,古河市,平和町,イバラキケン,コガシ,ヘイワマチ,茨城県古河市平和町
3060007,茨城県,古河市,常盤町,イバラキケン,コガシ,トキワチョウ,茨城県古河市常盤町
3060011,茨城県,古河市,東,イバラキケン,コガシ,ヒガシ,茨城県古河市東
3060012,茨城県,古河市,旭町,イバラキケン,コガシ,アサヒチョウ,茨城県古河市旭町
3060013,茨城県,古河市,東本町,イバラキケン,コガシ,ヒガシホンチョウ,茨城県古河市東本町
3060014,茨城県,古河市,下山町,イバラキケン,コガシ,シモヤマチョウ,茨城県古河市下山町
3060015,茨城県,古河市,南町,イバラキケン,コガシ,ミナミチョウ,茨城県古河市南町
3060016,茨城県,古河市,古河,イバラキケン,コガシ,コガ,茨城県古河市古河
3060021,茨城県,古河市,松並,イバラキケン,コガシ,マツナミ,茨城県古河市松並
3060022,茨城県,古河市,横山町,イバラキケン,コガシ,ヨコヤマチョウ,茨城県古河市横山町
3060023,茨城県,古河市,本町,イバラキケン,コガシ,ホンチョウ,茨城県古河市本町
3060024,茨城県,古河市,幸町,イバラキケン,コガシ,サイワイチョウ,茨城県古河市幸町
3060025,茨城県,古河市,原町,イバラキケン,コガシ,ハラマチ,茨城県古河市原町
3060026,茨城県,古河市,原,イバラキケン,コガシ,ハラ,茨城県古河市原
3060031,茨城県,古河市,宮前町,イバラキケン,コガシ,ミヤマエチョウ,茨城県古河市宮前町
3060032,茨城県,古河市,大手町,イバラキケン,コガシ,オオテマチ,茨城県古河市大手町
3060033,茨城県,古河市,中央町,イバラキケン,コガシ,チュウオウチョウ,茨城県古河市中央町
3060034,茨城県,古河市,長谷町,イバラキケン,コガシ,ハセマチ,茨城県古河市長谷町
3060035,茨城県,古河市,長谷,イバラキケン,コガシ,ハセ,茨城県古河市長谷
3060036,茨城県,古河市,桜町,イバラキケン,コガシ,サクラマチ,茨城県古河市桜町
3060037,茨城県,古河市,錦町,イバラキケン,コガシ,ニシキチョウ,茨城県古河市錦町
3060038,茨城県,古河市,西町,イバラキケン,コガシ,ニシマチ,茨城県古河市西町
3060041,茨城県,古河市,鴻巣,イバラキケン,コガシ,コウノス,茨城県古河市鴻巣
3060042,茨城県,古河市,三和,イバラキケン,コガシ,サンワ,茨城県古河市三和
3060043,茨城県,古河市,鳥喰,イバラキケン,コガシ,トリハミ,茨城県古河市鳥喰
3060044,茨城県,古河市,新久田,イバラキケン,コガシ,アラクダ,茨城県古河市新久田
3060045,茨城県,古河市,駒ケ崎,イバラキケン,コガシ,コマガサキ,茨城県古河市駒ケ崎
3060046,茨城県,古河市,牧野地,イバラキケン,コガシ,マキノジ,茨城県古河市牧野地
3060047,茨城県,古河市,立崎,イバラキケン,コガシ,タツザキ,茨城県古河市立崎
3060051,茨城県,古河市,茶屋新田,イバラキケン,コガシ,チャヤシンデン,茨城県古河市茶屋新田
3060052,茨城県,古河市,大山,イバラキケン,コガシ,オオヤマ,茨城県古河市大山
3060053,茨城県,古河市,中田,イバラキケン,コガシ,ナカダ,茨城県古河市中田
3060054,茨城県,古河市,中田新田,イバラキケン,コガシ,ナカダシンデン,茨城県古河市中田新田
3060055,茨城県,古河市,けやき平,イバラキケン,コガシ,ケヤキダイラ,茨城県古河市けやき平
3060056,茨城県,古河市,坂間,イバラキケン,コガシ,サカマ,茨城県古河市坂間
3060101,茨城県,古河市,尾崎,イバラキケン,コガシ,オサキ,茨城県古河市尾崎
3060103,茨城県,古河市,長左エ門新田,イバラキケン,コガシ,チョウザエモンシンデン,茨城県古河市長左エ門新田
3060104,茨城県,古河市,恩名,イバラキケン,コガシ,オンナ,茨城県古河市恩名
3060105,茨城県,古河市,江口,イバラキケン,コガシ,エグチ,茨城県古河市江口
3060106,茨城県,古河市,北間中橋,イバラキケン,コガシ,キタマナカバシ,茨城県古河市北間中橋
3060107,茨城県,古河市,東間中橋,イバラキケン,コガシ,ヒガシマナカバシ,茨城県古河市東間中橋
3060108,茨城県,古河市,南間中橋,イバラキケン,コガシ,ミナミマナカバシ,茨城県古河市南間中橋
3060109,茨城県,古河市,西間中橋,イバラキケン,コガシ,ニシマナカバシ,茨城県古河市西間中橋
3060110,茨城県,古河市,名崎,イバラキケン,コガシ,ナサキ,茨城県古河市名崎
3060111,茨城県,古河市,大和田,イバラキケン,コガシ,オオワダ,茨城県古河市大和田
3060112,茨城県,古河市,東山田,イバラキケン,コガシ,ヒガシヤマタ,茨城県古河市東山田
3060113,茨城県,古河市,谷貝,イバラキケン,コガシ,ヤガイ,茨城県古河市谷貝
3060114,茨城県,古河市,山田,イバラキケン,コガシ,ヤマタ,茨城県古河市山田
3060115,茨城県,古河市,北山田,イバラキケン,コガシ,キタヤマタ,茨城県古河市北山田
3060116,茨城県,古河市,新和田,イバラキケン,コガシ,シンワダ,茨城県古河市新和田
3060121,茨城県,古河市,駒込,イバラキケン,コガシ,コマゴメ,茨城県古河市駒込
3060122,茨城県,古河市,上和田,イバラキケン,コガシ,カミワダ,茨城県古河市上和田
3060123,茨城県,古河市,五部,イバラキケン,コガシ,ゴヘイ,茨城県古河市五部
3060124,茨城県,古河市,東諸川,イバラキケン,コガシ,ヒガシモロカワ,茨城県古河市東諸川
3060125,茨城県,古河市,仁連,イバラキケン,コガシ,ニレイ,茨城県古河市仁連
3060126,茨城県,古河市,諸川,イバラキケン,コガシ,モロカワ,茨城県古河市諸川
3060127,茨城県,古河市,下片田,イバラキケン,コガシ,シモカタタ,茨城県古河市下片田
3060128,茨城県,古河市,上片田,イバラキケン,コガシ,カミカタタ,茨城県古河市上片田
3060201,茨城県,古河市,上大野,イバラキケン,コガシ,カミオオノ,茨城県古河市上大野
3060202,茨城県,古河市,稲宮,イバラキケン,コガシ,イナミヤ,茨城県古河市稲宮
3060203,茨城県,古河市,柳橋,イバラキケン,コガシ,ヤギハシ,茨城県古河市柳橋
3060204,茨城県,古河市,下大野,イバラキケン,コガシ,シモオオノ,茨城県古河市下大野
3060205,茨城県,古河市,関戸,イバラキケン,コガシ,セキド,茨城県古河市関戸
3060206,茨城県,古河市,丘里,イバラキケン,コガシ,オカザト,茨城県古河市丘里
3060211,茨城県,古河市,葛生,イバラキケン,コガシ,カズロウ,茨城県古河市葛生
3060212,茨城県,古河市,久能,イバラキケン,コガシ,クノウ,茨城県古河市久能
3060213,茨城県,古河市,北利根,イバラキケン,コガシ,キタトネ,茨城県古河市北利根
3060214,茨城県,古河市,高野,イバラキケン,コガシ,コウヤ,茨城県古河市高野
3060215,茨城県,古河市,水海,イバラキケン,コガシ,ミズウミ,茨城県古河市水海
3060216,茨城県,古河市,前林,イバラキケン,コガシ,マエバヤシ,茨城県古河市前林
3060221,茨城県,古河市,駒羽根,イバラキケン,コガシ,コマハネ,茨城県古河市駒羽根
3060222,茨城県,古河市,釈迦,イバラキケン,コガシ,シャカ,茨城県古河市釈迦
3060223,茨城県,古河市,上砂井,イバラキケン,コガシ,カミイサゴイ,茨城県古河市上砂井
3060224,茨城県,古河市,砂井新田,イバラキケン,コガシ,イサゴイシンデン,茨城県古河市砂井新田
3060225,茨城県,古河市,磯部,イバラキケン,コガシ,イソベ,茨城県古河市磯部
3060226,茨城県,古河市,女沼,イバラキケン,コガシ,オナヌマ,茨城県古河市女沼
3060231,茨城県,古河市,小堤,イバラキケン,コガシ,コヅツミ,茨城県古河市小堤
3060232,茨城県,古河市,東牛谷,イバラキケン,コガシ,ヒガシウシガヤ,茨城県古河市東牛谷
3060233,茨城県,古河市,西牛谷,イバラキケン,コガシ,ニシウシガヤ,茨城県古河市西牛谷
3060234,茨城県,古河市,上辺見,イバラキケン,コガシ,カミヘミ,茨城県古河市上辺見
3060235,茨城県,古河市,下辺見,イバラキケン,コガシ,シモヘミ,茨城県古河市下辺見
3060236,茨城県,古河市,大堤,イバラキケン,コガシ,オオツツミ,茨城県古河市大堤
3060300,茨城県,猿島郡五霞町,,イバラキケン,サシマグンゴカマチ,,茨城県猿島郡五霞町
3060301,茨城県,猿島郡五霞町,山王山,イバラキケン,サシマグンゴカマチ,サンノウヤマ,茨城県猿島郡五霞町山王山
3060302,茨城県,猿島郡五霞町,山王,イバラキケン,サシマグンゴカマチ,サンノウ,茨城県猿島郡五霞町山王
3060303,茨城県,猿島郡五霞町,江川,イバラキケン,サシマグンゴカマチ,エガワ,茨城県猿島郡五霞町江川
3060304,茨城県,猿島郡五霞町,幸主,イバラキケン,サシマグンゴカマチ,コウシュ,茨城県猿島郡五霞町幸主
3060305,茨城県,猿島郡五霞町,冬木,イバラキケン,サシマグンゴカマチ,フユギ,茨城県猿島郡五霞町冬木
3060306,茨城県,猿島郡五霞町,原宿台,イバラキケン,サシマグンゴカマチ,ハラジュクダイ,茨城県猿島郡五霞町原宿台
3060307,茨城県,猿島郡五霞町,小福田,イバラキケン,サシマグンゴカマチ,コフクダ,茨城県猿島郡五霞町小福田
3060308,茨城県,猿島郡五霞町,ごかみらい,イバラキケン,サシマグンゴカマチ,ゴカミライ,茨城県猿島郡五霞町ごかみらい
3060311,茨城県,猿島郡五霞町,大福田,イバラキケン,サシマグンゴカマチ,オオフクダ,茨城県猿島郡五霞町大福田
3060312,茨城県,猿島郡五霞町,新幸谷,イバラキケン,サシマグンゴカマチ,シンコウヤ,茨城県猿島郡五霞町新幸谷
3060313,茨城県,猿島郡五霞町,元栗橋,イバラキケン,サシマグンゴカマチ,モトクリハシ,茨城県猿島郡五霞町元栗橋
3060314,茨城県,猿島郡五霞町,川妻,イバラキケン,サシマグンゴカマチ,カワツマ,茨城県猿島郡五霞町川妻
3060315,茨城県,猿島郡五霞町,小手指,イバラキケン,サシマグンゴカマチ,コテサシ,茨城県猿島郡五霞町小手指
3060316,茨城県,猿島郡五霞町,釈迦,イバラキケン,サシマグンゴカマチ,シャカ,茨城県猿島郡五霞町釈迦
3060317,茨城県,猿島郡五霞町,前林,イバラキケン,サシマグンゴカマチ,マエバヤシ,茨城県猿島郡五霞町前林
3060400,茨城県,猿島郡境町,,イバラキケン,サシマグンサカイマチ,,茨城県猿島郡境町
3060401,茨城県,猿島郡境町,志鳥,イバラキケン,サシマグンサカイマチ,シトリ,茨城県猿島郡境町志鳥
3060402,茨城県,猿島郡境町,猿山,イバラキケン,サシマグンサカイマチ,サルヤマ,茨城県猿島郡境町猿山
3060403,茨城県,猿島郡境町,蛇池,イバラキケン,サシマグンサカイマチ,ジャイケ,茨城県猿島郡境町蛇池
3060404,茨城県,猿島郡境町,長井戸,イバラキケン,サシマグンサカイマチ,ナガイド,茨城県猿島郡境町長井戸
3060405,茨城県,猿島郡境町,塚崎,イバラキケン,サシマグンサカイマチ,ツカザキ,茨城県猿島郡境町塚崎
3060406,茨城県,猿島郡境町,横塚,イバラキケン,サシマグンサカイマチ,ヨコツカ,茨城県猿島郡境町横塚
3060407,茨城県,猿島郡境町,稲尾,イバラキケン,サシマグンサカイマチ,イナオ,茨城県猿島郡境町稲尾
3060408,茨城県,猿島郡境町,みらい平,イバラキケン,サシマグンサカイマチ,ミライダイラ,茨城県猿島郡境町みらい平
3060411,茨城県,猿島郡境町,下砂井,イバラキケン,サシマグンサカイマチ,シモイサゴイ,茨城県猿島郡境町下砂井
3060412,茨城県,猿島郡境町,栗山,イバラキケン,サシマグンサカイマチ,クリヤマ,茨城県猿島郡境町栗山
3060413,茨城県,猿島郡境町,山崎,イバラキケン,サシマグンサカイマチ,ヤマザキ,茨城県猿島郡境町山崎
3060414,茨城県,猿島郡境町,内門,イバラキケン,サシマグンサカイマチ,ウチカド,茨城県猿島郡境町内門
3060415,茨城県,猿島郡境町,大歩,イバラキケン,サシマグンサカイマチ,ワゴ,茨城県猿島郡境町大歩
3060416,茨城県,猿島郡境町,伏木,イバラキケン,サシマグンサカイマチ,フセギ,茨城県猿島郡境町伏木
3060417,茨城県,猿島郡境町,若林,イバラキケン,サシマグンサカイマチ,ワカバヤシ,茨城県猿島郡境町若林
3060421,茨城県,猿島郡境町,染谷,イバラキケン,サシマグンサカイマチ,ソメヤ,茨城県猿島郡境町染谷
3060422,茨城県,猿島郡境町,一ノ谷,イバラキケン,サシマグンサカイマチ,イチノヤ,茨城県猿島郡境町一ノ谷
3060423,茨城県,猿島郡境町,百戸,イバラキケン,サシマグンサカイマチ,モド,茨城県猿島郡境町百戸
3060424,茨城県,猿島郡境町,桐ケ作,イバラキケン,サシマグンサカイマチ,キリガサク,茨城県猿島郡境町桐ケ作
3060425,茨城県,猿島郡境町,新田戸,イバラキケン,サシマグンサカイマチ,ニッタド,茨城県猿島郡境町新田戸
3060426,茨城県,猿島郡境町,金岡,イバラキケン,サシマグンサカイマチ,カネオカ,茨城県猿島郡境町金岡
3060427,茨城県,猿島郡境町,浦向,イバラキケン,サシマグンサカイマチ,ウラムコウ,茨城県猿島郡境町浦向
3060431,茨城県,猿島郡境町,西泉田,イバラキケン,サシマグンサカイマチ,ニシイズミダ,茨城県猿島郡境町西泉田
3060432,茨城県,猿島郡境町,下小橋,イバラキケン,サシマグンサカイマチ,シモコバシ,茨城県猿島郡境町下小橋
3060433,茨城県,猿島郡境町,,イバラキケン,サシマグンサカイマチ,,茨城県猿島郡境町
3060434,茨城県,猿島郡境町,上小橋,イバラキケン,サシマグンサカイマチ,カミコバシ,茨城県猿島郡境町上小橋
3060435,茨城県,猿島郡境町,陽光台,イバラキケン,サシマグンサカイマチ,ヨウコウダイ,茨城県猿島郡境町陽光台
3060501,茨城県,坂東市,逆井,イバラキケン,バンドウシ,サカサイ,茨城県坂東市逆井
3060502,茨城県,坂東市,山,イバラキケン,バンドウシ,ヤマ,茨城県坂東市山
3060503,茨城県,坂東市,生子新田,イバラキケン,バンドウシ,オイゴシンデン,茨城県坂東市生子新田
3060504,茨城県,坂東市,生子,イバラキケン,バンドウシ,オイゴ,茨城県坂東市生子
3060505,茨城県,坂東市,菅谷,イバラキケン,バンドウシ,スガヤ,茨城県坂東市菅谷
3060511,茨城県,坂東市,孫兵エ新田,イバラキケン,バンドウシ,マゴベエシンデン,茨城県坂東市孫兵エ新田
3060512,茨城県,坂東市,左平太新田,イバラキケン,バンドウシ,サヘイタシンデン,茨城県坂東市左平太新田
3060513,茨城県,坂東市,栗山新田,イバラキケン,バンドウシ,クリヤマシンデン,茨城県坂東市栗山新田
3060514,茨城県,坂東市,内野山,イバラキケン,バンドウシ,ウチノヤマ,茨城県坂東市内野山
3060515,茨城県,坂東市,沓掛,イバラキケン,バンドウシ,クツカケ,茨城県坂東市沓掛
3060600,茨城県,坂東市,,イバラキケン,バンドウシ,,茨城県坂東市
3060601,茨城県,坂東市,大馬新田,イバラキケン,バンドウシ,オオマシンデン,茨城県坂東市大馬新田
3060602,茨城県,坂東市,平八新田,イバラキケン,バンドウシ,ヘイハチシンデン,茨城県坂東市平八新田
3060603,茨城県,坂東市,勘助新田,イバラキケン,バンドウシ,カンスケシンデン,茨城県坂東市勘助新田
3060604,茨城県,坂東市,幸田新田,イバラキケン,バンドウシ,コウダシンデン,茨城県坂東市幸田新田
3060605,茨城県,坂東市,馬立,イバラキケン,バンドウシ,マタテ,茨城県坂東市馬立
3060606,茨城県,坂東市,幸田,イバラキケン,バンドウシ,コウダ,茨城県坂東市幸田
3060607,茨城県,坂東市,弓田,イバラキケン,バンドウシ,ユダ,茨城県坂東市弓田
3060608,茨城県,坂東市,幸神平,イバラキケン,バンドウシ,コウシンダイラ,茨城県坂東市幸神平
3060611,茨城県,坂東市,神田山新田,イバラキケン,バンドウシ,カドヤマシンデン,茨城県坂東市神田山新田
3060612,茨城県,坂東市,猫実新田,イバラキケン,バンドウシ,ネコザネシンデン,茨城県坂東市猫実新田
3060613,茨城県,坂東市,大口新田,イバラキケン,バンドウシ,オオグチシンデン,茨城県坂東市大口新田
3060614,茨城県,坂東市,庄右衛門新田,イバラキケン,バンドウシ,ショウエモンシンデン,茨城県坂東市庄右衛門新田
3060615,茨城県,坂東市,大口,イバラキケン,バンドウシ,オオグチ,茨城県坂東市大口
3060616,茨城県,坂東市,猫実,イバラキケン,バンドウシ,ネコザネ,茨城県坂東市猫実
3060617,茨城県,坂東市,神田山,イバラキケン,バンドウシ,カドヤマ,茨城県坂東市神田山
3060621,茨城県,坂東市,大谷口,イバラキケン,バンドウシ,オオヤグチ,茨城県坂東市大谷口
3060622,茨城県,坂東市,大崎,イバラキケン,バンドウシ,オオサキ,茨城県坂東市大崎
3060623,茨城県,坂東市,法師戸,イバラキケン,バンドウシ,ホウシト,茨城県坂東市法師戸
3060624,茨城県,坂東市,矢作,イバラキケン,バンドウシ,ヤハギ,茨城県坂東市矢作
3060625,茨城県,坂東市,莚打,イバラキケン,バンドウシ,ムシロウチ,茨城県坂東市莚打
3060626,茨城県,坂東市,小山,イバラキケン,バンドウシ,オヤマ,茨城県坂東市小山
3060631,茨城県,坂東市,岩井,イバラキケン,バンドウシ,イワイ,茨城県坂東市岩井
3060632,茨城県,坂東市,辺田,イバラキケン,バンドウシ,ヘタ,茨城県坂東市辺田
3060633,茨城県,坂東市,下出島,イバラキケン,バンドウシ,シモイズシマ,茨城県坂東市下出島
3060634,茨城県,坂東市,中里,イバラキケン,バンドウシ,ナカザト,茨城県坂東市中里
3060635,茨城県,坂東市,小泉,イバラキケン,バンドウシ,コイズミ,茨城県坂東市小泉
3060636,茨城県,坂東市,桐木,イバラキケン,バンドウシ,キリノキ,茨城県坂東市桐木
3060637,茨城県,坂東市,みどり町,イバラキケン,バンドウシ,ミドリチョウ,茨城県坂東市みどり町
3060641,茨城県,坂東市,鵠戸,イバラキケン,バンドウシ,クグイド,茨城県坂東市鵠戸
3060642,茨城県,坂東市,長谷,イバラキケン,バンドウシ,ナガヤ,茨城県坂東市長谷
3060643,茨城県,坂東市,木間ケ瀬,イバラキケン,バンドウシ,キマガセ,茨城県坂東市木間ケ瀬
3060644,茨城県,坂東市,古布内,イバラキケン,バンドウシ,コブウチ,茨城県坂東市古布内
3060645,茨城県,坂東市,長須,イバラキケン,バンドウシ,ナガス,茨城県坂東市長須
3060651,茨城県,坂東市,半谷,イバラキケン,バンドウシ,ハンヤ,茨城県坂東市半谷
3060652,茨城県,坂東市,冨田,イバラキケン,バンドウシ,トミタ,茨城県坂東市冨田
3060653,茨城県,坂東市,駒跿,イバラキケン,バンドウシ,コマハネ,茨城県坂東市駒跿
3060654,茨城県,坂東市,上出島,イバラキケン,バンドウシ,カミイズシマ,茨城県坂東市上出島
3060655,茨城県,坂東市,みむら,イバラキケン,バンドウシ,ミムラ,茨城県坂東市みむら
3060656,茨城県,坂東市,寺久,イバラキケン,バンドウシ,テラク,茨城県坂東市寺久
3060657,茨城県,坂東市,借宿,イバラキケン,バンドウシ,カリヤド,茨城県坂東市借宿
3060658,茨城県,坂東市,緑の里,イバラキケン,バンドウシ,ミドリノサト,茨城県坂東市緑の里
3070000,茨城県,結城市,,イバラキケン,ユウキシ,,茨城県結城市
3070001,茨城県,結城市,結城,イバラキケン,ユウキシ,ユウキ,茨城県結城市結城
3070002,茨城県,結城市,大谷瀬,イバラキケン,ユウキシ,オオヤゼ,茨城県結城市大谷瀬
3070003,茨城県,結城市,富士見町,イバラキケン,ユウキシ,フジミチョウ,茨城県結城市富士見町
3070004,茨城県,結城市,みどり町,イバラキケン,ユウキシ,ミドリチョウ,茨城県結城市みどり町
3070005,茨城県,結城市,川木谷,イバラキケン,ユウキシ,カワキヤ,茨城県結城市川木谷
3070006,茨城県,結城市,五助,イバラキケン,ユウキシ,ゴスケ,茨城県結城市五助
3070007,茨城県,結城市,小田林,イバラキケン,ユウキシ,オダバヤシ,茨城県結城市小田林
3070008,茨城県,結城市,下り松,イバラキケン,ユウキシ,サガリマツ,茨城県結城市下り松
3070011,茨城県,結城市,小森,イバラキケン,ユウキシ,コモリ,茨城県結城市小森
3070012,茨城県,結城市,久保田,イバラキケン,ユウキシ,クボタ,茨城県結城市久保田
3070013,茨城県,結城市,中,イバラキケン,ユウキシ,ナカ,茨城県結城市中
3070014,茨城県,結城市,林,イバラキケン,ユウキシ,ハヤシ,茨城県結城市林
3070015,茨城県,結城市,鹿窪,イバラキケン,ユウキシ,カナクボ,茨城県結城市鹿窪
3070016,茨城県,結城市,新堤仲通り,イバラキケン,ユウキシ,シンツツミナカドオリ,茨城県結城市新堤仲通り
3070017,茨城県,結城市,若宮,イバラキケン,ユウキシ,ワカミヤ,茨城県結城市若宮
3070018,茨城県,結城市,若宮西,イバラキケン,ユウキシ,ワカミヤニシ,茨城県結城市若宮西
3070021,茨城県,結城市,上山川,イバラキケン,ユウキシ,カミヤマカワ,茨城県結城市上山川
3070022,茨城県,結城市,矢畑,イバラキケン,ユウキシ,ヤバタ,茨城県結城市矢畑
3070023,茨城県,結城市,山王,イバラキケン,ユウキシ,サンノウ,茨城県結城市山王
3070024,茨城県,結城市,水海道,イバラキケン,ユウキシ,ミッカイドウ,茨城県結城市水海道
3070025,茨城県,結城市,浜野辺,イバラキケン,ユウキシ,ハマノベ,茨城県結城市浜野辺
3070026,茨城県,結城市,芳賀崎,イバラキケン,ユウキシ,ハガサキ,茨城県結城市芳賀崎
3070027,茨城県,結城市,粕礼,イバラキケン,ユウキシ,カスレイ,茨城県結城市粕礼
3070028,茨城県,結城市,今宿,イバラキケン,ユウキシ,イマジュク,茨城県結城市今宿
3070029,茨城県,結城市,新矢畑,イバラキケン,ユウキシ,シンヤバタ,茨城県結城市新矢畑
3070031,茨城県,結城市,大木,イバラキケン,ユウキシ,オオキ,茨城県結城市大木
3070032,茨城県,結城市,古宿新田,イバラキケン,ユウキシ,フルジュクシンデン,茨城県結城市古宿新田
3070033,茨城県,結城市,山川新宿,イバラキケン,ユウキシ,ヤマカワシンジュク,茨城県結城市山川新宿
3070034,茨城県,結城市,新宿新田,イバラキケン,ユウキシ,シンジュクシンデン,茨城県結城市新宿新田
3070035,茨城県,結城市,善右ヱ門新田,イバラキケン,ユウキシ,ゼンエモンシンデン,茨城県結城市善右ヱ門新田
3070036,茨城県,結城市,北南茂呂,イバラキケン,ユウキシ,ホクナンモロ,茨城県結城市北南茂呂
3070037,茨城県,結城市,東茂呂,イバラキケン,ユウキシ,ヒガシモロ,茨城県結城市東茂呂
3070038,茨城県,結城市,七五三場,イバラキケン,ユウキシ,シメバ,茨城県結城市七五三場
3070041,茨城県,結城市,江川大町,イバラキケン,ユウキシ,エガワオオマチ,茨城県結城市江川大町
3070042,茨城県,結城市,江川新宿,イバラキケン,ユウキシ,エガワシンジュク,茨城県結城市江川新宿
3070043,茨城県,結城市,武井,イバラキケン,ユウキシ,タケイ,茨城県結城市武井
3070044,茨城県,結城市,田間,イバラキケン,ユウキシ,タマ,茨城県結城市田間
3070045,茨城県,結城市,上成,イバラキケン,ユウキシ,ウエナシ,茨城県結城市上成
3070046,茨城県,結城市,結城作,イバラキケン,ユウキシ,ユウキサク,茨城県結城市結城作
3070051,茨城県,結城市,国府町,イバラキケン,ユウキシ,コクブチョウ,茨城県結城市国府町
3070052,茨城県,結城市,中央町,イバラキケン,ユウキシ,チュウオウチョウ,茨城県結城市中央町
3070053,茨城県,結城市,新福寺,イバラキケン,ユウキシ,シンプクジ,茨城県結城市新福寺
3070054,茨城県,結城市,城南町,イバラキケン,ユウキシ,ジョウナンマチ,茨城県結城市城南町
3070055,茨城県,結城市,大橋町,イバラキケン,ユウキシ,オオハシチョウ,茨城県結城市大橋町
3080000,茨城県,筑西市,,イバラキケン,チクセイシ,,茨城県筑西市
3080001,茨城県,筑西市,樋口,イバラキケン,チクセイシ,ヒグチ,茨城県筑西市樋口
3080002,茨城県,筑西市,落合,イバラキケン,チクセイシ,オチアイ,茨城県筑西市落合
3080003,茨城県,筑西市,蒔田,イバラキケン,チクセイシ,マクダ,茨城県筑西市蒔田
3080004,茨城県,筑西市,国府田,イバラキケン,チクセイシ,コウダ,茨城県筑西市国府田
3080005,茨城県,筑西市,中舘,イバラキケン,チクセイシ,ナカダテ,茨城県筑西市中舘
3080006,茨城県,筑西市,谷部,イバラキケン,チクセイシ,ヤベ,茨城県筑西市谷部
3080007,茨城県,筑西市,折本,イバラキケン,チクセイシ,オリモト,茨城県筑西市折本
3080008,茨城県,筑西市,八丁台,イバラキケン,チクセイシ,ハッチョウダイ,茨城県筑西市八丁台
3080011,茨城県,筑西市,下高田,イバラキケン,チクセイシ,シモタカダ,茨城県筑西市下高田
3080012,茨城県,筑西市,奥田,イバラキケン,チクセイシ,オクダ,茨城県筑西市奥田
3080013,茨城県,筑西市,八田,イバラキケン,チクセイシ,ハッタ,茨城県筑西市八田
3080014,茨城県,筑西市,羽方,イバラキケン,チクセイシ,ハガタ,茨城県筑西市羽方
3080015,茨城県,筑西市,大関,イバラキケン,チクセイシ,オオゼキ,茨城県筑西市大関
3080016,茨城県,筑西市,野,イバラキケン,チクセイシ,ノ,茨城県筑西市野
3080017,茨城県,筑西市,上中山,イバラキケン,チクセイシ,カミナカヤマ,茨城県筑西市上中山
3080021,茨城県,筑西市,甲,イバラキケン,チクセイシ,コウ,茨城県筑西市甲
3080031,茨城県,筑西市,丙,イバラキケン,チクセイシ,ヘイ,茨城県筑西市丙
3080041,茨城県,筑西市,乙,イバラキケン,チクセイシ,オツ,茨城県筑西市乙
3080042,茨城県,筑西市,みどり町,イバラキケン,チクセイシ,ミドリマチ,茨城県筑西市みどり町
3080051,茨城県,筑西市,岡芹,イバラキケン,チクセイシ,オカゼリ,茨城県筑西市岡芹
3080052,茨城県,筑西市,菅谷,イバラキケン,チクセイシ,スガヤ,茨城県筑西市菅谷
3080053,茨城県,筑西市,外塚,イバラキケン,チクセイシ,トノヅカ,茨城県筑西市外塚
3080054,茨城県,筑西市,西谷貝,イバラキケン,チクセイシ,ニシヤガイ,茨城県筑西市西谷貝
3080055,茨城県,筑西市,石原田,イバラキケン,チクセイシ,イシハラダ,茨城県筑西市石原田
3080056,茨城県,筑西市,谷中,イバラキケン,チクセイシ,ヤナカ,茨城県筑西市谷中
3080061,茨城県,筑西市,栗島,イバラキケン,チクセイシ,クリシマ,茨城県筑西市栗島
3080062,茨城県,筑西市,西大島,イバラキケン,チクセイシ,ニシオオシマ,茨城県筑西市西大島
3080063,茨城県,筑西市,神分,イバラキケン,チクセイシ,カミワケ,茨城県筑西市神分
3080064,茨城県,筑西市,飯島,イバラキケン,チクセイシ,イイジマ,茨城県筑西市飯島
3080065,茨城県,筑西市,笹塚,イバラキケン,チクセイシ,ササヅカ,茨城県筑西市笹塚
3080066,茨城県,筑西市,下平塚,イバラキケン,チクセイシ,シモヒラツカ,茨城県筑西市下平塚
3080067,茨城県,筑西市,上平塚,イバラキケン,チクセイシ,カミヒラツカ,茨城県筑西市上平塚
3080071,茨城県,筑西市,口戸,イバラキケン,チクセイシ,クチド,茨城県筑西市口戸
3080072,茨城県,筑西市,柴山,イバラキケン,チクセイシ,シバヤマ,茨城県筑西市柴山
3080073,茨城県,筑西市,林,イバラキケン,チクセイシ,ハヤシ,茨城県筑西市林
3080074,茨城県,筑西市,筑瀬,イバラキケン,チクセイシ,チクゼ,茨城県筑西市筑瀬
3080075,茨城県,筑西市,石塔,イバラキケン,チクセイシ,イシトウ,茨城県筑西市石塔
3080076,茨城県,筑西市,泉,イバラキケン,チクセイシ,イズミ,茨城県筑西市泉
3080077,茨城県,筑西市,子思儀,イバラキケン,チクセイシ,コシギ,茨城県筑西市子思儀
3080101,茨城県,筑西市,井上,イバラキケン,チクセイシ,イノウエ,茨城県筑西市井上
3080102,茨城県,筑西市,黒子,イバラキケン,チクセイシ,クロゴ,茨城県筑西市黒子
3080103,茨城県,筑西市,辻,イバラキケン,チクセイシ,ツジ,茨城県筑西市辻
3080104,茨城県,筑西市,木戸,イバラキケン,チクセイシ,キド,茨城県筑西市木戸
3080105,茨城県,筑西市,西保末,イバラキケン,チクセイシ,ニシホズエ,茨城県筑西市西保末
3080106,茨城県,筑西市,稲荷,イバラキケン,チクセイシ,イナリ,茨城県筑西市稲荷
3080107,茨城県,筑西市,梶内,イバラキケン,チクセイシ,カジウチ,茨城県筑西市梶内
3080108,茨城県,筑西市,中村新田,イバラキケン,チクセイシ,ナカムラシンデン,茨城県筑西市中村新田
3080111,茨城県,筑西市,舟生,イバラキケン,チクセイシ,フニュウ,茨城県筑西市舟生
3080112,茨城県,筑西市,藤ケ谷,イバラキケン,チクセイシ,フジガヤ,茨城県筑西市藤ケ谷
3080113,茨城県,筑西市,関舘,イバラキケン,チクセイシ,セキタテ,茨城県筑西市関舘
3080114,茨城県,筑西市,花田,イバラキケン,チクセイシ,ハナダ,茨城県筑西市花田
3080115,茨城県,筑西市,花橋,イバラキケン,チクセイシ,ハナバシ,茨城県筑西市花橋
3080116,茨城県,筑西市,板橋,イバラキケン,チクセイシ,イタバシ,茨城県筑西市板橋
3080117,茨城県,筑西市,犬塚,イバラキケン,チクセイシ,イヌヅカ,茨城県筑西市犬塚
3080121,茨城県,筑西市,船玉,イバラキケン,チクセイシ,フナダマ,茨城県筑西市船玉
3080122,茨城県,筑西市,関本上,イバラキケン,チクセイシ,セキモトカミ,茨城県筑西市関本上
3080123,茨城県,筑西市,関本上中,イバラキケン,チクセイシ,セキモトカミナカ,茨城県筑西市関本上中
3080124,茨城県,筑西市,関本肥土,イバラキケン,チクセイシ,セキモトアクト,茨城県筑西市関本肥土
3080125,茨城県,筑西市,関本分中,イバラキケン,チクセイシ,セキモトワケナカ,茨城県筑西市関本分中
3080126,茨城県,筑西市,関本中,イバラキケン,チクセイシ,セキモトナカ,茨城県筑西市関本中
3080127,茨城県,筑西市,関本下,イバラキケン,チクセイシ,セキモトシモ,茨城県筑西市関本下
3080128,茨城県,筑西市,江,イバラキケン,チクセイシ,エ,茨城県筑西市江
3080129,茨城県,筑西市,上野,イバラキケン,チクセイシ,ウエノ,茨城県筑西市上野
3080801,茨城県,筑西市,川澄,イバラキケン,チクセイシ,カワスミ,茨城県筑西市川澄
3080802,茨城県,筑西市,横島,イバラキケン,チクセイシ,ヨコシマ,茨城県筑西市横島
3080803,茨城県,筑西市,直井,イバラキケン,チクセイシ,ナオイ,茨城県筑西市直井
3080804,茨城県,筑西市,金丸,イバラキケン,チクセイシ,カナマル,茨城県筑西市金丸
3080805,茨城県,筑西市,稲野辺,イバラキケン,チクセイシ,イナノベ,茨城県筑西市稲野辺
3080806,茨城県,筑西市,小林,イバラキケン,チクセイシ,オバヤシ,茨城県筑西市小林
3080807,茨城県,筑西市,高島,イバラキケン,チクセイシ,タカシマ,茨城県筑西市高島
3080811,茨城県,筑西市,茂田,イバラキケン,チクセイシ,モダ,茨城県筑西市茂田
3080812,茨城県,筑西市,深見,イバラキケン,チクセイシ,フカミ,茨城県筑西市深見
3080813,茨城県,筑西市,大塚,イバラキケン,チクセイシ,オオツカ,茨城県筑西市大塚
3080814,茨城県,筑西市,川連,イバラキケン,チクセイシ,カワヅレ,茨城県筑西市川連
3080815,茨城県,筑西市,上川中子,イバラキケン,チクセイシ,カミカワナゴ,茨城県筑西市上川中子
3080816,茨城県,筑西市,徳持,イバラキケン,チクセイシ,トクモチ,茨城県筑西市徳持
3080821,茨城県,筑西市,成田,イバラキケン,チクセイシ,ナリタ,茨城県筑西市成田
3080822,茨城県,筑西市,塚原,イバラキケン,チクセイシ,ツカハラ,茨城県筑西市塚原
3080823,茨城県,筑西市,島,イバラキケン,チクセイシ,シマ,茨城県筑西市島
3080824,茨城県,筑西市,蕨,イバラキケン,チクセイシ,ワラビ,茨城県筑西市蕨
3080825,茨城県,筑西市,下中山,イバラキケン,チクセイシ,シモナカヤマ,茨城県筑西市下中山
3080826,茨城県,筑西市,下岡崎,イバラキケン,チクセイシ,シモオカザキ,茨城県筑西市下岡崎
3080827,茨城県,筑西市,市野辺,イバラキケン,チクセイシ,イチノベ,茨城県筑西市市野辺
3080831,茨城県,筑西市,東榎生,イバラキケン,チクセイシ,ヒガシヨノウ,茨城県筑西市東榎生
3080832,茨城県,筑西市,西榎生,イバラキケン,チクセイシ,ニシヨノウ,茨城県筑西市西榎生
3080833,茨城県,筑西市,野田,イバラキケン,チクセイシ,ノダ,茨城県筑西市野田
3080834,茨城県,筑西市,西石田,イバラキケン,チクセイシ,ニシイシダ,茨城県筑西市西石田
3080835,茨城県,筑西市,飯田,イバラキケン,チクセイシ,イイダ,茨城県筑西市飯田
3080836,茨城県,筑西市,旭ケ丘,イバラキケン,チクセイシ,アサヒガオカ,茨城県筑西市旭ケ丘
3080837,茨城県,筑西市,嘉家佐和,イバラキケン,チクセイシ,カゲサワ,茨城県筑西市嘉家佐和
3080838,茨城県,筑西市,榎生,イバラキケン,チクセイシ,ヨノウ,茨城県筑西市榎生
3080841,茨城県,筑西市,二木成,イバラキケン,チクセイシ,ニギナリ,茨城県筑西市二木成
3080842,茨城県,筑西市,一本松,イバラキケン,チクセイシ,イッポンマツ,茨城県筑西市一本松
3080843,茨城県,筑西市,野殿,イバラキケン,チクセイシ,ノドノ,茨城県筑西市野殿
3080844,茨城県,筑西市,下野殿,イバラキケン,チクセイシ,シモノドノ,茨城県筑西市下野殿
3080845,茨城県,筑西市,西方,イバラキケン,チクセイシ,ニシホウ,茨城県筑西市西方
3080846,茨城県,筑西市,布川,イバラキケン,チクセイシ,ヌノガワ,茨城県筑西市布川
3080847,茨城県,筑西市,玉戸,イバラキケン,チクセイシ,タマド,茨城県筑西市玉戸
3080848,茨城県,筑西市,幸町,イバラキケン,チクセイシ,サイワイチョウ,茨城県筑西市幸町
3080851,茨城県,筑西市,下江連,イバラキケン,チクセイシ,シモエヅレ,茨城県筑西市下江連
3080852,茨城県,筑西市,大谷,イバラキケン,チクセイシ,オオヤ,茨城県筑西市大谷
3080853,茨城県,筑西市,伊讃美,イバラキケン,チクセイシ,イサミ,茨城県筑西市伊讃美
3080854,茨城県,筑西市,女方,イバラキケン,チクセイシ,オザカタ,茨城県筑西市女方
3080855,茨城県,筑西市,下川島,イバラキケン,チクセイシ,シモカワシマ,茨城県筑西市下川島
3080856,茨城県,筑西市,伊佐山,イバラキケン,チクセイシ,イサヤマ,茨城県筑西市伊佐山
3080857,茨城県,筑西市,小川,イバラキケン,チクセイシ,オガワ,茨城県筑西市小川
3080861,茨城県,筑西市,森添島,イバラキケン,チクセイシ,モリソエジマ,茨城県筑西市森添島
3080862,茨城県,筑西市,小塙,イバラキケン,チクセイシ,コバナ,茨城県筑西市小塙
3080863,茨城県,筑西市,灰塚,イバラキケン,チクセイシ,ハイツカ,茨城県筑西市灰塚
3080864,茨城県,筑西市,掉ケ島,イバラキケン,チクセイシ,ソウカジマ,茨城県筑西市掉ケ島
3080865,茨城県,筑西市,山崎,イバラキケン,チクセイシ,ヤマザキ,茨城県筑西市山崎
3080866,茨城県,筑西市,五所宮,イバラキケン,チクセイシ,ゴショミヤ,茨城県筑西市五所宮
3080867,茨城県,筑西市,西山田,イバラキケン,チクセイシ,ニシヤマダ,茨城県筑西市西山田
3091101,茨城県,筑西市,小栗,イバラキケン,チクセイシ,オグリ,茨城県筑西市小栗
3091102,茨城県,筑西市,蓬田,イバラキケン,チクセイシ,ヨモギタ,茨城県筑西市蓬田
3091103,茨城県,筑西市,久地楽,イバラキケン,チクセイシ,クジラ,茨城県筑西市久地楽
3091104,茨城県,筑西市,古郡,イバラキケン,チクセイシ,フルゴオリ,茨城県筑西市古郡
3091105,茨城県,筑西市,三郷,イバラキケン,チクセイシ,サンゴウ,茨城県筑西市三郷
3091106,茨城県,筑西市,新治,イバラキケン,チクセイシ,ニイハリ,茨城県筑西市新治
3091107,茨城県,筑西市,門井,イバラキケン,チクセイシ,カドイ,茨城県筑西市門井
3091108,茨城県,筑西市,井出蛯沢,イバラキケン,チクセイシ,イデエビサワ,茨城県筑西市井出蛯沢
3091111,茨城県,筑西市,上星谷,イバラキケン,チクセイシ,カミホシヤ,茨城県筑西市上星谷
3091112,茨城県,筑西市,八幡,イバラキケン,チクセイシ,ヤハタ,茨城県筑西市八幡
3091113,茨城県,筑西市,柳,イバラキケン,チクセイシ,ヤナギ,茨城県筑西市柳
3091114,茨城県,筑西市,細田,イバラキケン,チクセイシ,ホソダ,茨城県筑西市細田
3091115,茨城県,筑西市,蓮沼,イバラキケン,チクセイシ,ハスヌマ,茨城県筑西市蓮沼
3091116,茨城県,筑西市,横塚,イバラキケン,チクセイシ,ヨコツカ,茨城県筑西市横塚
3091117,茨城県,筑西市,向川澄,イバラキケン,チクセイシ,ムコウカワスミ,茨城県筑西市向川澄
3091121,茨城県,筑西市,谷永島,イバラキケン,チクセイシ,ヤナガシマ,茨城県筑西市谷永島
3091122,茨城県,筑西市,下星谷,イバラキケン,チクセイシ,シモホシヤ,茨城県筑西市下星谷
3091123,茨城県,筑西市,下郷谷,イバラキケン,チクセイシ,シモゴウヤ,茨城県筑西市下郷谷
3091124,茨城県,筑西市,知行,イバラキケン,チクセイシ,チギョウ,茨城県筑西市知行
3091125,茨城県,筑西市,大島,イバラキケン,チクセイシ,オオシマ,茨城県筑西市大島
3091126,茨城県,筑西市,清水,イバラキケン,チクセイシ,シミズ,茨城県筑西市清水
3091127,茨城県,筑西市,桑山,イバラキケン,チクセイシ,クワヤマ,茨城県筑西市桑山
3091200,茨城県,桜川市,,イバラキケン,サクラガワシ,,茨城県桜川市
3091201,茨城県,桜川市,大泉,イバラキケン,サクラガワシ,オオイズミ,茨城県桜川市大泉
3091202,茨城県,桜川市,飯淵,イバラキケン,サクラガワシ,イイブチ,茨城県桜川市飯淵
3091203,茨城県,桜川市,富岡,イバラキケン,サクラガワシ,トミオカ,茨城県桜川市富岡
3091204,茨城県,桜川市,久原,イバラキケン,サクラガワシ,クバラ,茨城県桜川市久原
3091205,茨城県,桜川市,堤上,イバラキケン,サクラガワシ,ツツミノウエ,茨城県桜川市堤上
3091211,茨城県,桜川市,岩瀬,イバラキケン,サクラガワシ,イワセ,茨城県桜川市岩瀬
3091212,茨城県,桜川市,富士見台,イバラキケン,サクラガワシ,フジミダイ,茨城県桜川市富士見台
3091213,茨城県,桜川市,西桜川,イバラキケン,サクラガワシ,ニシサクラガワ,茨城県桜川市西桜川
3091214,茨城県,桜川市,東桜川,イバラキケン,サクラガワシ,ヒガシサクラガワ,茨城県桜川市東桜川
3091215,茨城県,桜川市,御領,イバラキケン,サクラガワシ,ゴリョウ,茨城県桜川市御領
3091216,茨城県,桜川市,明日香,イバラキケン,サクラガワシ,アスカ,茨城県桜川市明日香
3091217,茨城県,桜川市,犬田,イバラキケン,サクラガワシ,イヌタ,茨城県桜川市犬田
3091221,茨城県,桜川市,西飯岡,イバラキケン,サクラガワシ,ニシイイオカ,茨城県桜川市西飯岡
3091222,茨城県,桜川市,長方,イバラキケン,サクラガワシ,オサカタ,茨城県桜川市長方
3091223,茨城県,桜川市,鍬田,イバラキケン,サクラガワシ,クワダ,茨城県桜川市鍬田
3091224,茨城県,桜川市,中泉,イバラキケン,サクラガワシ,ナカイズミ,茨城県桜川市中泉
3091225,茨城県,桜川市,下泉,イバラキケン,サクラガワシ,シモイズミ,茨城県桜川市下泉
3091226,茨城県,桜川市,上野原地新田,イバラキケン,サクラガワシ,ウエノハラチシンデン,茨城県桜川市上野原地新田
3091227,茨城県,桜川市,本郷,イバラキケン,サクラガワシ,ホンゴウ,茨城県桜川市本郷
3091231,茨城県,桜川市,本木,イバラキケン,サクラガワシ,モトギ,茨城県桜川市本木
3091232,茨城県,桜川市,大曽根,イバラキケン,サクラガワシ,オオゾネ,茨城県桜川市大曽根
3091233,茨城県,桜川市,東飯田,イバラキケン,サクラガワシ,ヒガシイイダ,茨城県桜川市東飯田
3091234,茨城県,桜川市,阿部田,イバラキケン,サクラガワシ,アベタ,茨城県桜川市阿部田
3091241,茨城県,桜川市,青木,イバラキケン,サクラガワシ,アオキ,茨城県桜川市青木
3091242,茨城県,桜川市,羽田,イバラキケン,サクラガワシ,ハネタ,茨城県桜川市羽田
3091243,茨城県,桜川市,高久,イバラキケン,サクラガワシ,タカク,茨城県桜川市高久
3091244,茨城県,桜川市,大国玉,イバラキケン,サクラガワシ,オオクニタマ,茨城県桜川市大国玉
3091245,茨城県,桜川市,金敷,イバラキケン,サクラガワシ,カナシキ,茨城県桜川市金敷
3091246,茨城県,桜川市,高森,イバラキケン,サクラガワシ,タカモリ,茨城県桜川市高森
3091331,茨城県,桜川市,平澤,イバラキケン,サクラガワシ,ヒラサワ,茨城県桜川市平澤
3091332,茨城県,桜川市,池亀,イバラキケン,サクラガワシ,イケガメ,茨城県桜川市池亀
3091333,茨城県,桜川市,山口,イバラキケン,サクラガワシ,ヤマグチ,茨城県桜川市山口
3091334,茨城県,桜川市,坂本,イバラキケン,サクラガワシ,サカモト,茨城県桜川市坂本
3091335,茨城県,桜川市,大月,イバラキケン,サクラガワシ,オオツキ,茨城県桜川市大月
3091336,茨城県,桜川市,小塩,イバラキケン,サクラガワシ,コシオ,茨城県桜川市小塩
3091337,茨城県,桜川市,福崎,イバラキケン,サクラガワシ,フクザキ,茨城県桜川市福崎
3091341,茨城県,桜川市,門毛,イバラキケン,サクラガワシ,カドケ,茨城県桜川市門毛
3091342,茨城県,桜川市,間中,イバラキケン,サクラガワシ,マナカ,茨城県桜川市間中
3091343,茨城県,桜川市,亀岡,イバラキケン,サクラガワシ,カメオカ,茨城県桜川市亀岡
3091344,茨城県,桜川市,南飯田,イバラキケン,サクラガワシ,ミナミイイダ,茨城県桜川市南飯田
3091345,茨城県,桜川市,入野,イバラキケン,サクラガワシ,イリノ,茨城県桜川市入野
3091346,茨城県,桜川市,中里,イバラキケン,サクラガワシ,ナカザト,茨城県桜川市中里
3091347,茨城県,桜川市,富谷,イバラキケン,サクラガワシ,トミヤ,茨城県桜川市富谷
3091451,茨城県,桜川市,西小塙,イバラキケン,サクラガワシ,ニシコバナワ,茨城県桜川市西小塙
3091452,茨城県,桜川市,加茂部,イバラキケン,サクラガワシ,カモベ,茨城県桜川市加茂部
3091453,茨城県,桜川市,友部,イバラキケン,サクラガワシ,トモベ,茨城県桜川市友部
3091454,茨城県,桜川市,上城,イバラキケン,サクラガワシ,カミシロ,茨城県桜川市上城
3091455,茨城県,桜川市,水戸,イバラキケン,サクラガワシ,ミト,茨城県桜川市水戸
3091456,茨城県,桜川市,青柳,イバラキケン,サクラガワシ,アオヤギ,茨城県桜川市青柳
3091457,茨城県,桜川市,磯部,イバラキケン,サクラガワシ,イソベ,茨城県桜川市磯部
3091458,茨城県,桜川市,稲,イバラキケン,サクラガワシ,イナ,茨城県桜川市稲
3091461,茨城県,桜川市,松田,イバラキケン,サクラガワシ,マツダ,茨城県桜川市松田
3091462,茨城県,桜川市,曽根,イバラキケン,サクラガワシ,ソネ,茨城県桜川市曽根
3091463,茨城県,桜川市,高幡,イバラキケン,サクラガワシ,タカハタ,茨城県桜川市高幡
3091464,茨城県,桜川市,今泉,イバラキケン,サクラガワシ,イマイズミ,茨城県桜川市今泉
3091465,茨城県,桜川市,木植,イバラキケン,サクラガワシ,キウエ,茨城県桜川市木植
3091466,茨城県,桜川市,猿田,イバラキケン,サクラガワシ,サルダ,茨城県桜川市猿田
3091600,茨城県,笠間市,,イバラキケン,カサマシ,,茨城県笠間市
3091601,茨城県,笠間市,大橋,イバラキケン,カサマシ,オオハシ,茨城県笠間市大橋
3091602,茨城県,笠間市,池野辺,イバラキケン,カサマシ,イケノベ,茨城県笠間市池野辺
3091603,茨城県,笠間市,福田,イバラキケン,カサマシ,フクダ,茨城県笠間市福田
3091604,茨城県,笠間市,大渕,イバラキケン,カサマシ,オオブチ,茨城県笠間市大渕
3091605,茨城県,笠間市,飯田,イバラキケン,カサマシ,イイダ,茨城県笠間市飯田
3091606,茨城県,笠間市,日沢,イバラキケン,カサマシ,ヒザワ,茨城県笠間市日沢
3091607,茨城県,笠間市,石寺,イバラキケン,カサマシ,イシデラ,茨城県笠間市石寺
3091611,茨城県,笠間市,笠間,イバラキケン,カサマシ,カサマ,茨城県笠間市笠間
3091612,茨城県,笠間市,日草場,イバラキケン,カサマシ,ヒクサバ,茨城県笠間市日草場
3091613,茨城県,笠間市,石井,イバラキケン,カサマシ,イシイ,茨城県笠間市石井
3091614,茨城県,笠間市,寺崎,イバラキケン,カサマシ,テラザキ,茨城県笠間市寺崎
3091615,茨城県,笠間市,金井,イバラキケン,カサマシ,カナイ,茨城県笠間市金井
3091616,茨城県,笠間市,赤坂,イバラキケン,カサマシ,アカサカ,茨城県笠間市赤坂
3091621,茨城県,笠間市,手越,イバラキケン,カサマシ,テゴシ,茨城県笠間市手越
3091622,茨城県,笠間市,南吉原,イバラキケン,カサマシ,ミナミヨシワラ,茨城県笠間市南吉原
3091623,茨城県,笠間市,上加賀田,イバラキケン,カサマシ,カミカガダ,茨城県笠間市上加賀田
3091624,茨城県,笠間市,北吉原,イバラキケン,カサマシ,キタヨシワラ,茨城県笠間市北吉原
3091625,茨城県,笠間市,来栖,イバラキケン,カサマシ,クルス,茨城県笠間市来栖
3091626,茨城県,笠間市,下市毛,イバラキケン,カサマシ,シモイチゲ,茨城県笠間市下市毛
3091631,茨城県,笠間市,箱田,イバラキケン,カサマシ,ハコダ,茨城県笠間市箱田
3091632,茨城県,笠間市,飯合,イバラキケン,カサマシ,イイゴウ,茨城県笠間市飯合
3091633,茨城県,笠間市,本戸,イバラキケン,カサマシ,モトド,茨城県笠間市本戸
3091634,茨城県,笠間市,福原,イバラキケン,カサマシ,フクハラ,茨城県笠間市福原
3091635,茨城県,笠間市,稲田,イバラキケン,カサマシ,イナダ,茨城県笠間市稲田
3091636,茨城県,笠間市,大郷戸,イバラキケン,カサマシ,オオゴト,茨城県笠間市大郷戸
3091637,茨城県,笠間市,片庭,イバラキケン,カサマシ,カタニワ,茨城県笠間市片庭
3091701,茨城県,笠間市,小原,イバラキケン,カサマシ,オバラ,茨城県笠間市小原
3091702,茨城県,笠間市,五平,イバラキケン,カサマシ,ゴヘイ,茨城県笠間市五平
3091703,茨城県,笠間市,鯉淵,イバラキケン,カサマシ,コイブチ,茨城県笠間市鯉淵
3091704,茨城県,笠間市,美原,イバラキケン,カサマシ,ミハラ,茨城県笠間市美原
3091705,茨城県,笠間市,東平,イバラキケン,カサマシ,ヒガシダイラ,茨城県笠間市東平
3091706,茨城県,笠間市,鴻巣,イバラキケン,カサマシ,コウノス,茨城県笠間市鴻巣
3091711,茨城県,笠間市,随分附,イバラキケン,カサマシ,ナムサンヅケ,茨城県笠間市随分附
3091712,茨城県,笠間市,長兎路,イバラキケン,カサマシ,ナガトロ,茨城県笠間市長兎路
3091713,茨城県,笠間市,柏井,イバラキケン,カサマシ,カシワイ,茨城県笠間市柏井
3091714,茨城県,笠間市,仁古田,イバラキケン,カサマシ,ニコダ,茨城県笠間市仁古田
3091715,茨城県,笠間市,湯崎,イバラキケン,カサマシ,ユザキ,茨城県笠間市湯崎
3091716,茨城県,笠間市,住吉,イバラキケン,カサマシ,スミヨシ,茨城県笠間市住吉
3091717,茨城県,笠間市,旭町,イバラキケン,カサマシ,アサヒマチ,茨城県笠間市旭町
3091721,茨城県,笠間市,橋爪,イバラキケン,カサマシ,ハシヅメ,茨城県笠間市橋爪
3091722,茨城県,笠間市,平町,イバラキケン,カサマシ,タイラマチ,茨城県笠間市平町
3091723,茨城県,笠間市,矢野下,イバラキケン,カサマシ,ヤノシタ,茨城県笠間市矢野下
3091724,茨城県,笠間市,大古山,イバラキケン,カサマシ,オオゴヤマ,茨城県笠間市大古山
3091725,茨城県,笠間市,南小泉,イバラキケン,カサマシ,ミナミコイズミ,茨城県笠間市南小泉
3091726,茨城県,笠間市,下加賀田,イバラキケン,カサマシ,シモカガタ,茨城県笠間市下加賀田
3091731,茨城県,笠間市,上市原,イバラキケン,カサマシ,カミイチバラ,茨城県笠間市上市原
3091732,茨城県,笠間市,中市原,イバラキケン,カサマシ,ナカイチバラ,茨城県笠間市中市原
3091733,茨城県,笠間市,下市原,イバラキケン,カサマシ,シモイチバラ,茨城県笠間市下市原
3091734,茨城県,笠間市,南友部,イバラキケン,カサマシ,ミナミトモベ,茨城県笠間市南友部
3091735,茨城県,笠間市,友部駅前,イバラキケン,カサマシ,トモベエキマエ,茨城県笠間市友部駅前
3091736,茨城県,笠間市,八雲,イバラキケン,カサマシ,ヤクモ,茨城県笠間市八雲
3091737,茨城県,笠間市,中央,イバラキケン,カサマシ,チュウオウ,茨城県笠間市中央
3091738,茨城県,笠間市,大田町,イバラキケン,カサマシ,オオタマチ,茨城県笠間市大田町
3100000,茨城県,水戸市,,イバラキケン,ミトシ,,茨城県水戸市
3100001,茨城県,水戸市,上河内町,イバラキケン,ミトシ,カミガチチョウ,茨城県水戸市上河内町
3100002,茨城県,水戸市,中河内町,イバラキケン,ミトシ,ナカガチチョウ,茨城県水戸市中河内町
3100003,茨城県,水戸市,柳河町,イバラキケン,ミトシ,ヤナカワチョウ,茨城県水戸市柳河町
3100004,茨城県,水戸市,青柳町,イバラキケン,ミトシ,アオヤギチョウ,茨城県水戸市青柳町
3100005,茨城県,水戸市,水府町,イバラキケン,ミトシ,スイフチョウ,茨城県水戸市水府町
3100011,茨城県,水戸市,三の丸,イバラキケン,ミトシ,サンノマル,茨城県水戸市三の丸
3100012,茨城県,水戸市,城東,イバラキケン,ミトシ,ジョウトウ,茨城県水戸市城東
3100013,茨城県,水戸市,若宮,イバラキケン,ミトシ,ワカミヤ,茨城県水戸市若宮
3100014,茨城県,水戸市,若宮町,イバラキケン,ミトシ,ワカミヤチョウ,茨城県水戸市若宮町
3100015,茨城県,水戸市,宮町,イバラキケン,ミトシ,ミヤマチ,茨城県水戸市宮町
3100021,茨城県,水戸市,南町,イバラキケン,ミトシ,ミナミマチ,茨城県水戸市南町
3100022,茨城県,水戸市,梅香,イバラキケン,ミトシ,バイコウ,茨城県水戸市梅香
3100023,茨城県,水戸市,下梅香,イバラキケン,ミトシ,シモバイコウ,茨城県水戸市下梅香
3100024,茨城県,水戸市,備前町,イバラキケン,ミトシ,ビゼンマチ,茨城県水戸市備前町
3100025,茨城県,水戸市,天王町,イバラキケン,ミトシ,テンノウチョウ,茨城県水戸市天王町
3100026,茨城県,水戸市,泉町,イバラキケン,ミトシ,イズミチョウ,茨城県水戸市泉町
3100031,茨城県,水戸市,大工町,イバラキケン,ミトシ,ダイクマチ,茨城県水戸市大工町
3100032,茨城県,水戸市,元山町,イバラキケン,ミトシ,モトヤマチョウ,茨城県水戸市元山町
3100033,茨城県,水戸市,常磐町,イバラキケン,ミトシ,トキワチョウ,茨城県水戸市常磐町
3100034,茨城県,水戸市,緑町,イバラキケン,ミトシ,ミドリチョウ,茨城県水戸市緑町
3100035,茨城県,水戸市,東原,イバラキケン,ミトシ,ヒガシハラ,茨城県水戸市東原
3100036,茨城県,水戸市,新荘,イバラキケン,ミトシ,シンソウ,茨城県水戸市新荘
3100041,茨城県,水戸市,上水戸,イバラキケン,ミトシ,カミミト,茨城県水戸市上水戸
3100042,茨城県,水戸市,自由が丘,イバラキケン,ミトシ,ジユウガオカ,茨城県水戸市自由が丘
3100043,茨城県,水戸市,松が丘,イバラキケン,ミトシ,マツガオカ,茨城県水戸市松が丘
3100044,茨城県,水戸市,西原,イバラキケン,ミトシ,ニシハラ,茨城県水戸市西原
3100045,茨城県,水戸市,新原,イバラキケン,ミトシ,シンハラ,茨城県水戸市新原
3100046,茨城県,水戸市,曙町,イバラキケン,ミトシ,アケボノチョウ,茨城県水戸市曙町
3100051,茨城県,水戸市,ちとせ,イバラキケン,ミトシ,チトセ,茨城県水戸市ちとせ
3100052,茨城県,水戸市,松本町,イバラキケン,ミトシ,マツモトチョウ,茨城県水戸市松本町
3100053,茨城県,水戸市,末広町,イバラキケン,ミトシ,スエヒロチョウ,茨城県水戸市末広町
3100054,茨城県,水戸市,愛宕町,イバラキケン,ミトシ,アタゴチョウ,茨城県水戸市愛宕町
3100055,茨城県,水戸市,袴塚,イバラキケン,ミトシ,ハカマツカ,茨城県水戸市袴塚
3100056,茨城県,水戸市,文京,イバラキケン,ミトシ,ブンキョウ,茨城県水戸市文京
3100061,茨城県,水戸市,北見町,イバラキケン,ミトシ,キタミチョウ,茨城県水戸市北見町
3100062,茨城県,水戸市,大町,イバラキケン,ミトシ,オオマチ,茨城県水戸市大町
3100063,茨城県,水戸市,五軒町,イバラキケン,ミトシ,ゴケンチョウ,茨城県水戸市五軒町
3100064,茨城県,水戸市,栄町,イバラキケン,ミトシ,サカエチョウ,茨城県水戸市栄町
3100065,茨城県,水戸市,八幡町,イバラキケン,ミトシ,ハチマンチョウ,茨城県水戸市八幡町
3100066,茨城県,水戸市,金町,イバラキケン,ミトシ,カネマチ,茨城県水戸市金町
3100067,茨城県,水戸市,根本,イバラキケン,ミトシ,ネモト,茨城県水戸市根本
3100068,茨城県,水戸市,根本町,イバラキケン,ミトシ,ネモトチョウ,茨城県水戸市根本町
3100801,茨城県,水戸市,桜川,イバラキケン,ミトシ,サクラガワ,茨城県水戸市桜川
3100802,茨城県,水戸市,柵町,イバラキケン,ミトシ,サクマチ,茨城県水戸市柵町
3100803,茨城県,水戸市,城南,イバラキケン,ミトシ,ジョウナン,茨城県水戸市城南
3100804,茨城県,水戸市,白梅,イバラキケン,ミトシ,シラウメ,茨城県水戸市白梅
3100805,茨城県,水戸市,中央,イバラキケン,ミトシ,チュウオウ,茨城県水戸市中央
3100811,茨城県,水戸市,東桜川,イバラキケン,ミトシ,ヒガシサクラガワ,茨城県水戸市東桜川
3100812,茨城県,水戸市,浜田,イバラキケン,ミトシ,ハマダ,茨城県水戸市浜田
3100813,茨城県,水戸市,浜田町,イバラキケン,ミトシ,ハマダチョウ,茨城県水戸市浜田町
3100814,茨城県,水戸市,瓦谷,イバラキケン,ミトシ,カワラヤ,茨城県水戸市瓦谷
3100815,茨城県,水戸市,本町,イバラキケン,ミトシ,ホンチョウ,茨城県水戸市本町
3100816,茨城県,水戸市,紺屋町,イバラキケン,ミトシ,コンヤチョウ,茨城県水戸市紺屋町
3100817,茨城県,水戸市,柳町,イバラキケン,ミトシ,ヤナギマチ,茨城県水戸市柳町
3100818,茨城県,水戸市,東台,イバラキケン,ミトシ,ヒガシダイ,茨城県水戸市東台
3100821,茨城県,水戸市,中大野,イバラキケン,ミトシ,ナカオオノ,茨城県水戸市中大野
3100822,茨城県,水戸市,圷大野,イバラキケン,ミトシ,アクツオオノ,茨城県水戸市圷大野
3100823,茨城県,水戸市,東大野,イバラキケン,ミトシ,ヒガシオオノ,茨城県水戸市東大野
3100824,茨城県,水戸市,西大野,イバラキケン,ミトシ,ニシオオノ,茨城県水戸市西大野
3100825,茨城県,水戸市,谷田町,イバラキケン,ミトシ,ヤダチョウ,茨城県水戸市谷田町
3100826,茨城県,水戸市,渋井町,イバラキケン,ミトシ,シブイチョウ,茨城県水戸市渋井町
3100827,茨城県,水戸市,吉沼町,イバラキケン,ミトシ,ヨシヌマチョウ,茨城県水戸市吉沼町
3100831,茨城県,水戸市,朝日町,イバラキケン,ミトシ,アサヒチョウ,茨城県水戸市朝日町
3100832,茨城県,水戸市,吉田,イバラキケン,ミトシ,ヨシダ,茨城県水戸市吉田
3100833,茨城県,水戸市,藤柄町,イバラキケン,ミトシ,フジガラチョウ,茨城県水戸市藤柄町
3100834,茨城県,水戸市,宮内町,イバラキケン,ミトシ,ミヤウチチョウ,茨城県水戸市宮内町
3100835,茨城県,水戸市,元台町,イバラキケン,ミトシ,モトダイマチ,茨城県水戸市元台町
3100836,茨城県,水戸市,元吉田町,イバラキケン,ミトシ,モトヨシダチョウ,茨城県水戸市元吉田町
3100841,茨城県,水戸市,酒門町,イバラキケン,ミトシ,サカドチョウ,茨城県水戸市酒門町
3100842,茨城県,水戸市,けやき台,イバラキケン,ミトシ,ケヤキダイ,茨城県水戸市けやき台
3100843,茨城県,水戸市,元石川町,イバラキケン,ミトシ,モトイシカワチョウ,茨城県水戸市元石川町
3100844,茨城県,水戸市,住吉町,イバラキケン,ミトシ,スミヨシチョウ,茨城県水戸市住吉町
3100845,茨城県,水戸市,吉沢町,イバラキケン,ミトシ,ヨシザワチョウ,茨城県水戸市吉沢町
3100846,茨城県,水戸市,東野町,イバラキケン,ミトシ,トウノチョウ,茨城県水戸市東野町
3100847,茨城県,水戸市,米沢町,イバラキケン,ミトシ,ヨネザワチョウ,茨城県水戸市米沢町
3100851,茨城県,水戸市,千波町,イバラキケン,ミトシ,センバチョウ,茨城県水戸市千波町
3100852,茨城県,水戸市,笠原町,イバラキケン,ミトシ,カサハラチョウ,茨城県水戸市笠原町
3100853,茨城県,水戸市,平須町,イバラキケン,ミトシ,ヒラスチョウ,茨城県水戸市平須町
3100901,茨城県,水戸市,田野町,イバラキケン,ミトシ,タノチョウ,茨城県水戸市田野町
3100902,茨城県,水戸市,渡里町,イバラキケン,ミトシ,ワタリチョウ,茨城県水戸市渡里町
3100903,茨城県,水戸市,堀町,イバラキケン,ミトシ,ホリチョウ,茨城県水戸市堀町
3100904,茨城県,水戸市,石川町,イバラキケン,ミトシ,イシカワチョウ,茨城県水戸市石川町
3100905,茨城県,水戸市,石川,イバラキケン,ミトシ,イシカワ,茨城県水戸市石川
3100911,茨城県,水戸市,見和,イバラキケン,ミトシ,ミワ,茨城県水戸市見和
3100912,茨城県,水戸市,見川,イバラキケン,ミトシ,ミガワ,茨城県水戸市見川
3100913,茨城県,水戸市,見川町,イバラキケン,ミトシ,ミガワチョウ,茨城県水戸市見川町
3100914,茨城県,水戸市,小吹町,イバラキケン,ミトシ,コブキチョウ,茨城県水戸市小吹町
3110100,茨城県,那珂市,,イバラキケン,ナカシ,,茨城県那珂市
3110101,茨城県,那珂市,本米崎,イバラキケン,ナカシ,モトコメザキ,茨城県那珂市本米崎
3110102,茨城県,那珂市,向山,イバラキケン,ナカシ,ムコウヤマ,茨城県那珂市向山
3110103,茨城県,那珂市,横堀,イバラキケン,ナカシ,ヨコボリ,茨城県那珂市横堀
3110104,茨城県,那珂市,堤,イバラキケン,ナカシ,ツツミ,茨城県那珂市堤
3110105,茨城県,那珂市,菅谷,イバラキケン,ナカシ,スガヤ,茨城県那珂市菅谷
3110106,茨城県,那珂市,杉,イバラキケン,ナカシ,スギ,茨城県那珂市杉
3110107,茨城県,那珂市,額田南郷,イバラキケン,ナカシ,ヌカダミナミゴウ,茨城県那珂市額田南郷
3110108,茨城県,那珂市,額田北郷,イバラキケン,ナカシ,ヌカダキタゴウ,茨城県那珂市額田北郷
3110109,茨城県,那珂市,額田東郷,イバラキケン,ナカシ,ヌカダヒガシゴウ,茨城県那珂市額田東郷
3110110,茨城県,那珂市,竹ノ内,イバラキケン,ナカシ,タケノウチ,茨城県那珂市竹ノ内
3110111,茨城県,那珂市,後台,イバラキケン,ナカシ,ゴダイ,茨城県那珂市後台
3110112,茨城県,那珂市,津田,イバラキケン,ナカシ,ツダ,茨城県那珂市津田
3110113,茨城県,那珂市,中台,イバラキケン,ナカシ,ナカダイ,茨城県那珂市中台
3110114,茨城県,那珂市,東木倉,イバラキケン,ナカシ,ヒガシキノクラ,茨城県那珂市東木倉
3110115,茨城県,那珂市,西木倉,イバラキケン,ナカシ,ニシキノクラ,茨城県那珂市西木倉
3110116,茨城県,那珂市,上河内,イバラキケン,ナカシ,カミガチ,茨城県那珂市上河内
3110117,茨城県,那珂市,豊喰,イバラキケン,ナカシ,トヨバミ,茨城県那珂市豊喰
3110118,茨城県,那珂市,福田,イバラキケン,ナカシ,フクダ,茨城県那珂市福田
3110121,茨城県,那珂市,戸崎,イバラキケン,ナカシ,トザキ,茨城県那珂市戸崎
3110122,茨城県,那珂市,戸,イバラキケン,ナカシ,ト,茨城県那珂市戸
3110123,茨城県,那珂市,上国井,イバラキケン,ナカシ,カミクニイ,茨城県那珂市上国井
3110124,茨城県,那珂市,田崎,イバラキケン,ナカシ,タサキ,茨城県那珂市田崎
3110125,茨城県,那珂市,大内,イバラキケン,ナカシ,オオウチ,茨城県那珂市大内
3110126,茨城県,那珂市,下江戸,イバラキケン,ナカシ,シモエド,茨城県那珂市下江戸
3110131,茨城県,那珂市,北酒出,イバラキケン,ナカシ,キタサカイデ,茨城県那珂市北酒出
3110132,茨城県,那珂市,南酒出,イバラキケン,ナカシ,ミナミサカイデ,茨城県那珂市南酒出
3110133,茨城県,那珂市,鴻巣,イバラキケン,ナカシ,コウノス,茨城県那珂市鴻巣
3110134,茨城県,那珂市,飯田,イバラキケン,ナカシ,イイダ,茨城県那珂市飯田
3110135,茨城県,那珂市,鹿島,イバラキケン,ナカシ,カシマ,茨城県那珂市鹿島
3110136,茨城県,那珂市,門部,イバラキケン,ナカシ,カドベ,茨城県那珂市門部
3110301,茨城県,常陸太田市,河内西町,イバラキケン,ヒタチオオタシ,カワチニシチョウ,茨城県常陸太田市河内西町
3110311,茨城県,常陸太田市,町屋町,イバラキケン,ヒタチオオタシ,マチヤチョウ,茨城県常陸太田市町屋町
3110312,茨城県,常陸太田市,西河内下町,イバラキケン,ヒタチオオタシ,ニシゴウトシモチョウ,茨城県常陸太田市西河内下町
3110313,茨城県,常陸太田市,西河内中町,イバラキケン,ヒタチオオタシ,ニシゴウトナカチョウ,茨城県常陸太田市西河内中町
3110314,茨城県,常陸太田市,西河内上町,イバラキケン,ヒタチオオタシ,ニシゴウトカミチョウ,茨城県常陸太田市西河内上町
3110321,茨城県,常陸太田市,春友町,イバラキケン,ヒタチオオタシ,ハルトモチョウ,茨城県常陸太田市春友町
3110322,茨城県,常陸太田市,常福地町,イバラキケン,ヒタチオオタシ,ジョウフクジチョウ,茨城県常陸太田市常福地町
3110323,茨城県,常陸太田市,茅根町,イバラキケン,ヒタチオオタシ,チノネチョウ,茨城県常陸太田市茅根町
3110324,茨城県,常陸太田市,白羽町,イバラキケン,ヒタチオオタシ,シラワチョウ,茨城県常陸太田市白羽町
3110325,茨城県,常陸太田市,里野宮町,イバラキケン,ヒタチオオタシ,サトノミヤチョウ,茨城県常陸太田市里野宮町
3110401,茨城県,日立市,中深荻町,イバラキケン,ヒタチシ,ナカフカオギチョウ,茨城県日立市中深荻町
3110402,茨城県,日立市,入四間町,イバラキケン,ヒタチシ,イリシケンチョウ,茨城県日立市入四間町
3110403,茨城県,日立市,東河内町,イバラキケン,ヒタチシ,ヒガシゴウドチョウ,茨城県日立市東河内町
3110404,茨城県,日立市,下深荻町,イバラキケン,ヒタチシ,シモフカオギチョウ,茨城県日立市下深荻町
3110501,茨城県,常陸太田市,里川町,イバラキケン,ヒタチオオタシ,サトガワチョウ,茨城県常陸太田市里川町
3110502,茨城県,常陸太田市,徳田町,イバラキケン,ヒタチオオタシ,トクダチョウ,茨城県常陸太田市徳田町
3110503,茨城県,常陸太田市,小妻町,イバラキケン,ヒタチオオタシ,コヅマチョウ,茨城県常陸太田市小妻町
3110504,茨城県,常陸太田市,小中町,イバラキケン,ヒタチオオタシ,コナカチョウ,茨城県常陸太田市小中町
3110505,茨城県,常陸太田市,大中町,イバラキケン,ヒタチオオタシ,オオナカチョウ,茨城県常陸太田市大中町
3110506,茨城県,常陸太田市,折橋町,イバラキケン,ヒタチオオタシ,オリハシチョウ,茨城県常陸太田市折橋町
3110507,茨城県,常陸太田市,小菅町,イバラキケン,ヒタチオオタシ,コスゲチョウ,茨城県常陸太田市小菅町
3110508,茨城県,常陸太田市,大菅町,イバラキケン,ヒタチオオタシ,オオスゲチョウ,茨城県常陸太田市大菅町
3110509,茨城県,常陸太田市,上深荻町,イバラキケン,ヒタチオオタシ,カミフカオギチョウ,茨城県常陸太田市上深荻町
3111111,茨城県,水戸市,小泉町,イバラキケン,ミトシ,コイズミチョウ,茨城県水戸市小泉町
3111112,茨城県,水戸市,川又町,イバラキケン,ミトシ,カワマタチョウ,茨城県水戸市川又町
3111113,茨城県,水戸市,平戸町,イバラキケン,ミトシ,ヒラトチョウ,茨城県水戸市平戸町
3111114,茨城県,水戸市,塩崎町,イバラキケン,ミトシ,シオガサキチョウ,茨城県水戸市塩崎町
3111115,茨城県,水戸市,大串町,イバラキケン,ミトシ,オオクシチョウ,茨城県水戸市大串町
3111121,茨城県,水戸市,島田町,イバラキケン,ミトシ,シマダチョウ,茨城県水戸市島田町
3111122,茨城県,水戸市,秋成町,イバラキケン,ミトシ,アキナリチョウ,茨城県水戸市秋成町
3111123,茨城県,水戸市,下入野町,イバラキケン,ミトシ,シモイリノチョウ,茨城県水戸市下入野町
3111124,茨城県,水戸市,森戸町,イバラキケン,ミトシ,モリトチョウ,茨城県水戸市森戸町
3111125,茨城県,水戸市,大場町,イバラキケン,ミトシ,オオバチョウ,茨城県水戸市大場町
3111131,茨城県,水戸市,下大野町,イバラキケン,ミトシ,シモオオノチョウ,茨城県水戸市下大野町
3111132,茨城県,水戸市,東前町,イバラキケン,ミトシ,トウマエチョウ,茨城県水戸市東前町
3111133,茨城県,水戸市,栗崎町,イバラキケン,ミトシ,クリサキチョウ,茨城県水戸市栗崎町
3111134,茨城県,水戸市,百合が丘町,イバラキケン,ミトシ,ユリガオカチョウ,茨城県水戸市百合が丘町
3111135,茨城県,水戸市,六反田町,イバラキケン,ミトシ,ロクタンダチョウ,茨城県水戸市六反田町
3111136,茨城県,水戸市,東前,イバラキケン,ミトシ,トウマエ,茨城県水戸市東前
3111201,茨城県,ひたちなか市,阿字ケ浦町,イバラキケン,ヒタチナカシ,アジガウラチョウ,茨城県ひたちなか市阿字ケ浦町
3111202,茨城県,ひたちなか市,磯崎町,イバラキケン,ヒタチナカシ,イソザキチョウ,茨城県ひたちなか市磯崎町
3111203,茨城県,ひたちなか市,平磯町,イバラキケン,ヒタチナカシ,ヒライソチョウ,茨城県ひたちなか市平磯町
3111204,茨城県,ひたちなか市,平磯遠原町,イバラキケン,ヒタチナカシ,ヒライソトオハラチョウ,茨城県ひたちなか市平磯遠原町
3111205,茨城県,ひたちなか市,十三奉行,イバラキケン,ヒタチナカシ,ジュウサンブギョウ,茨城県ひたちなか市十三奉行
3111206,茨城県,ひたちなか市,西十三奉行,イバラキケン,ヒタチナカシ,ニシジュウサンブギョウ,茨城県ひたちなか市西十三奉行
3111207,茨城県,ひたちなか市,烏ケ台,イバラキケン,ヒタチナカシ,カラスガダイ,茨城県ひたちなか市烏ケ台
3111211,茨城県,ひたちなか市,沢メキ,イバラキケン,ヒタチナカシ,サワメキ,茨城県ひたちなか市沢メキ
3111212,茨城県,ひたちなか市,殿山町,イバラキケン,ヒタチナカシ,トノヤマチョウ,茨城県ひたちなか市殿山町
3111213,茨城県,ひたちなか市,牛久保,イバラキケン,ヒタチナカシ,ウシクボ,茨城県ひたちなか市牛久保
3111214,茨城県,ひたちなか市,和田町,イバラキケン,ヒタチナカシ,ワダチョウ,茨城県ひたちなか市和田町
3111215,茨城県,ひたちなか市,東本町,イバラキケン,ヒタチナカシ,ヒガシホンチョウ,茨城県ひたちなか市東本町
3111216,茨城県,ひたちなか市,湊泉町,イバラキケン,ヒタチナカシ,ミナトイズミチョウ,茨城県ひたちなか市湊泉町
3111217,茨城県,ひたちなか市,富士ノ下,イバラキケン,ヒタチナカシ,フジノシタ,茨城県ひたちなか市富士ノ下
3111218,茨城県,ひたちなか市,富士ノ上,イバラキケン,ヒタチナカシ,フジノウエ,茨城県ひたちなか市富士ノ上
3111221,茨城県,ひたちなか市,湊本町,イバラキケン,ヒタチナカシ,ミナトホンチョウ,茨城県ひたちなか市湊本町
3111222,茨城県,ひたちなか市,海門町,イバラキケン,ヒタチナカシ,カイモンチョウ,茨城県ひたちなか市海門町
3111223,茨城県,ひたちなか市,栄町,イバラキケン,ヒタチナカシ,サカエチョウ,茨城県ひたちなか市栄町
3111224,茨城県,ひたちなか市,山ノ上町,イバラキケン,ヒタチナカシ,ヤマノウエチョウ,茨城県ひたちなか市山ノ上町
3111225,茨城県,ひたちなか市,釈迦町,イバラキケン,ヒタチナカシ,シャカマチ,茨城県ひたちなか市釈迦町
3111226,茨城県,ひたちなか市,幸町,イバラキケン,ヒタチナカシ,サイワイチョウ,茨城県ひたちなか市幸町
3111227,茨城県,ひたちなか市,洞下町,イバラキケン,ヒタチナカシ,ドウシタチョウ,茨城県ひたちなか市洞下町
3111228,茨城県,ひたちなか市,八幡町,イバラキケン,ヒタチナカシ,ハチマンチョウ,茨城県ひたちなか市八幡町
3111229,茨城県,ひたちなか市,湊中央,イバラキケン,ヒタチナカシ,ミナトチュウオウ,茨城県ひたちなか市湊中央
3111231,茨城県,ひたちなか市,柳沢,イバラキケン,ヒタチナカシ,ヤナギサワ,茨城県ひたちなか市柳沢
3111232,茨城県,ひたちなか市,柳が丘,イバラキケン,ヒタチナカシ,ヤナギガオカ,茨城県ひたちなか市柳が丘
3111233,茨城県,ひたちなか市,堀川,イバラキケン,ヒタチナカシ,ホリカワ,茨城県ひたちなか市堀川
3111234,茨城県,ひたちなか市,峰後,イバラキケン,ヒタチナカシ,ミネウシロ,茨城県ひたちなか市峰後
3111235,茨城県,ひたちなか市,田中後,イバラキケン,ヒタチナカシ,タナカウシロ,茨城県ひたちなか市田中後
3111236,茨城県,ひたちなか市,国神前,イバラキケン,ヒタチナカシ,コクジンマエ,茨城県ひたちなか市国神前
3111237,茨城県,ひたちなか市,関戸,イバラキケン,ヒタチナカシ,セキド,茨城県ひたちなか市関戸
3111238,茨城県,ひたちなか市,美田多町,イバラキケン,ヒタチナカシ,ミタダチョウ,茨城県ひたちなか市美田多町
3111241,茨城県,ひたちなか市,赤坂,イバラキケン,ヒタチナカシ,アカサカ,茨城県ひたちなか市赤坂
3111242,茨城県,ひたちなか市,西赤坂,イバラキケン,ヒタチナカシ,ニシアカサカ,茨城県ひたちなか市西赤坂
3111243,茨城県,ひたちなか市,北神敷台,イバラキケン,ヒタチナカシ,キタカミシキダイ,茨城県ひたちなか市北神敷台
3111244,茨城県,ひたちなか市,南神敷台,イバラキケン,ヒタチナカシ,ミナミカミシキダイ,茨城県ひたちなか市南神敷台
3111245,茨城県,ひたちなか市,館山,イバラキケン,ヒタチナカシ,タテヤマ,茨城県ひたちなか市館山
3111246,茨城県,ひたちなか市,相金町,イバラキケン,ヒタチナカシ,ソウガネチョウ,茨城県ひたちなか市相金町
3111247,茨城県,ひたちなか市,四十発句,イバラキケン,ヒタチナカシ,シジュウホツク,茨城県ひたちなか市四十発句
3111248,茨城県,ひたちなか市,田宮原,イバラキケン,ヒタチナカシ,タミヤハラ,茨城県ひたちなか市田宮原
3111251,茨城県,ひたちなか市,山崎,イバラキケン,ヒタチナカシ,ヤマザキ,茨城県ひたちなか市山崎
3111252,茨城県,ひたちなか市,部田野,イバラキケン,ヒタチナカシ,ヘタノ,茨城県ひたちなか市部田野
3111253,茨城県,ひたちなか市,小谷金,イバラキケン,ヒタチナカシ,コヤガネ,茨城県ひたちなか市小谷金
3111254,茨城県,ひたちなか市,新堤,イバラキケン,ヒタチナカシ,ニイヅツミ,茨城県ひたちなか市新堤
3111255,茨城県,ひたちなか市,雨沢谷津,イバラキケン,ヒタチナカシ,アメザワヤツ,茨城県ひたちなか市雨沢谷津
3111261,茨城県,ひたちなか市,鶴代,イバラキケン,ヒタチナカシ,ツルシロ,茨城県ひたちなか市鶴代
3111262,茨城県,ひたちなか市,道メキ,イバラキケン,ヒタチナカシ,ドウメキ,茨城県ひたちなか市道メキ
3111263,茨城県,ひたちなか市,和尚塚,イバラキケン,ヒタチナカシ,オショウツカ,茨城県ひたちなか市和尚塚
3111264,茨城県,ひたちなか市,浅井内,イバラキケン,ヒタチナカシ,アサイナイ,茨城県ひたちなか市浅井内
3111265,茨城県,ひたちなか市,狢谷津,イバラキケン,ヒタチナカシ,ムジナヤツ,茨城県ひたちなか市狢谷津
3111266,茨城県,ひたちなか市,船窪,イバラキケン,ヒタチナカシ,フナクボ,茨城県ひたちなか市船窪
3111267,茨城県,ひたちなか市,廻り目,イバラキケン,ヒタチナカシ,マワリメ,茨城県ひたちなか市廻り目
3111268,茨城県,ひたちなか市,湊中原,イバラキケン,ヒタチナカシ,ミナトナカハラ,茨城県ひたちなか市湊中原
3111300,茨城県,東茨城郡大洗町,,イバラキケン,ヒガシイバラキグンオオアライマチ,,茨城県東茨城郡大洗町
3111301,茨城県,東茨城郡大洗町,磯浜町,イバラキケン,ヒガシイバラキグンオオアライマチ,イソハマチョウ,茨城県東茨城郡大洗町磯浜町
3111302,茨城県,東茨城郡大洗町,磯道,イバラキケン,ヒガシイバラキグンオオアライマチ,イソミチ,茨城県東茨城郡大洗町磯道
3111303,茨城県,東茨城郡大洗町,東光台,イバラキケン,ヒガシイバラキグンオオアライマチ,トウコウダイ,茨城県東茨城郡大洗町東光台
3111304,茨城県,東茨城郡大洗町,和銅,イバラキケン,ヒガシイバラキグンオオアライマチ,ワドウ,茨城県東茨城郡大洗町和銅
3111305,茨城県,東茨城郡大洗町,港中央,イバラキケン,ヒガシイバラキグンオオアライマチ,ミナトチュウオウ,茨城県東茨城郡大洗町港中央
3111306,茨城県,東茨城郡大洗町,五反田,イバラキケン,ヒガシイバラキグンオオアライマチ,ゴタンダ,茨城県東茨城郡大洗町五反田
3111307,茨城県,東茨城郡大洗町,桜道,イバラキケン,ヒガシイバラキグンオオアライマチ,サクラミチ,茨城県東茨城郡大洗町桜道
3111311,茨城県,東茨城郡大洗町,大貫町,イバラキケン,ヒガシイバラキグンオオアライマチ,オオヌキチョウ,茨城県東茨城郡大洗町大貫町
3111312,茨城県,東茨城郡大洗町,神山町,イバラキケン,ヒガシイバラキグンオオアライマチ,カミヤマチョウ,茨城県東茨城郡大洗町神山町
3111313,茨城県,東茨城郡大洗町,成田町,イバラキケン,ヒガシイバラキグンオオアライマチ,ナリタチョウ,茨城県東茨城郡大洗町成田町
3111401,茨城県,鉾田市,箕輪,イバラキケン,ホコタシ,ミノワ,茨城県鉾田市箕輪
3111402,茨城県,鉾田市,下太田,イバラキケン,ホコタシ,シモオオタ,茨城県鉾田市下太田
3111403,茨城県,鉾田市,上釜,イバラキケン,ホコタシ,カミガマ,茨城県鉾田市上釜
3111404,茨城県,鉾田市,沢尻,イバラキケン,ホコタシ,サワジリ,茨城県鉾田市沢尻
3111405,茨城県,鉾田市,上太田,イバラキケン,ホコタシ,カミオオタ,茨城県鉾田市上太田
3111406,茨城県,鉾田市,田崎,イバラキケン,ホコタシ,タサキ,茨城県鉾田市田崎
3111411,茨城県,鉾田市,荒地,イバラキケン,ホコタシ,アラジ,茨城県鉾田市荒地
3111412,茨城県,鉾田市,玉田,イバラキケン,ホコタシ,タマダ,茨城県鉾田市玉田
3111413,茨城県,鉾田市,冷水,イバラキケン,ホコタシ,ヒヤミズ,茨城県鉾田市冷水
3111414,茨城県,鉾田市,子生,イバラキケン,ホコタシ,コナジ,茨城県鉾田市子生
3111415,茨城県,鉾田市,造谷,イバラキケン,ホコタシ,ツクリヤ,茨城県鉾田市造谷
3111416,茨城県,鉾田市,鹿田,イバラキケン,ホコタシ,シカダ,茨城県鉾田市鹿田
3111421,茨城県,鉾田市,勝下新田,イバラキケン,ホコタシ,カツオリシンデン,茨城県鉾田市勝下新田
3111422,茨城県,鉾田市,勝下,イバラキケン,ホコタシ,カツオリ,茨城県鉾田市勝下
3111423,茨城県,鉾田市,滝浜,イバラキケン,ホコタシ,タキハマ,茨城県鉾田市滝浜
3111424,茨城県,鉾田市,柏熊新田,イバラキケン,ホコタシ,カシワクマシンデン,茨城県鉾田市柏熊新田
3111425,茨城県,鉾田市,湯坪,イバラキケン,ホコタシ,ユツボ,茨城県鉾田市湯坪
3111426,茨城県,鉾田市,樅山,イバラキケン,ホコタシ,モミヤマ,茨城県鉾田市樅山
3111427,茨城県,鉾田市,常磐,イバラキケン,ホコタシ,トキワ,茨城県鉾田市常磐
3111500,茨城県,鉾田市,,イバラキケン,ホコタシ,,茨城県鉾田市
3111501,茨城県,鉾田市,舟木,イバラキケン,ホコタシ,フナキ,茨城県鉾田市舟木
3111502,茨城県,鉾田市,大戸,イバラキケン,ホコタシ,オオド,茨城県鉾田市大戸
3111503,茨城県,鉾田市,徳宿,イバラキケン,ホコタシ,トクシュク,茨城県鉾田市徳宿
3111504,茨城県,鉾田市,安房,イバラキケン,ホコタシ,アンボウ,茨城県鉾田市安房
3111505,茨城県,鉾田市,駒木根,イバラキケン,ホコタシ,コマギネ,茨城県鉾田市駒木根
3111506,茨城県,鉾田市,秋山,イバラキケン,ホコタシ,アキヤマ,茨城県鉾田市秋山
3111511,茨城県,鉾田市,柏熊,イバラキケン,ホコタシ,カシワクマ,茨城県鉾田市柏熊
3111512,茨城県,鉾田市,白塚,イバラキケン,ホコタシ,シラツカ,茨城県鉾田市白塚
3111513,茨城県,鉾田市,大竹,イバラキケン,ホコタシ,オオタケ,茨城県鉾田市大竹
3111514,茨城県,鉾田市,安塚,イバラキケン,ホコタシ,ヤスヅカ,茨城県鉾田市安塚
3111515,茨城県,鉾田市,烟田,イバラキケン,ホコタシ,カマタ,茨城県鉾田市烟田
3111516,茨城県,鉾田市,新鉾田,イバラキケン,ホコタシ,シンホコタ,茨城県鉾田市新鉾田
3111517,茨城県,鉾田市,鉾田,イバラキケン,ホコタシ,ホコタ,茨城県鉾田市鉾田
3111518,茨城県,鉾田市,新鉾田西,イバラキケン,ホコタシ,シンホコタニシ,茨城県鉾田市新鉾田西
3111521,茨城県,鉾田市,飯名,イバラキケン,ホコタシ,イイナ,茨城県鉾田市飯名
3111522,茨城県,鉾田市,塔ケ崎,イバラキケン,ホコタシ,トウガサキ,茨城県鉾田市塔ケ崎
3111523,茨城県,鉾田市,串挽,イバラキケン,ホコタシ,クシヒキ,茨城県鉾田市串挽
3111524,茨城県,鉾田市,高田,イバラキケン,ホコタシ,タカダ,茨城県鉾田市高田
3111525,茨城県,鉾田市,野友,イバラキケン,ホコタシ,ノトモ,茨城県鉾田市野友
3111526,茨城県,鉾田市,半原,イバラキケン,ホコタシ,ハバラ,茨城県鉾田市半原
3111527,茨城県,鉾田市,借宿,イバラキケン,ホコタシ,カリヤド,茨城県鉾田市借宿
3111528,茨城県,鉾田市,当間,イバラキケン,ホコタシ,トウマ,茨城県鉾田市当間
3111531,茨城県,鉾田市,菅野谷,イバラキケン,ホコタシ,スゲノヤ,茨城県鉾田市菅野谷
3111532,茨城県,鉾田市,上冨田,イバラキケン,ホコタシ,カミトミタ,茨城県鉾田市上冨田
3111533,茨城県,鉾田市,下冨田,イバラキケン,ホコタシ,シモトミタ,茨城県鉾田市下冨田
3111534,茨城県,鉾田市,鳥栖,イバラキケン,ホコタシ,トリノス,茨城県鉾田市鳥栖
3111535,茨城県,鉾田市,青柳,イバラキケン,ホコタシ,アオヤギ,茨城県鉾田市青柳
3111536,茨城県,鉾田市,大和田,イバラキケン,ホコタシ,オオワダ,茨城県鉾田市大和田
3111537,茨城県,鉾田市,紅葉,イバラキケン,ホコタシ,モミジ,茨城県鉾田市紅葉
3111701,茨城県,行方市,長野江,イバラキケン,ナメガタシ,ナガノエ,茨城県行方市長野江
3111702,茨城県,行方市,三和,イバラキケン,ナメガタシ,ミワ,茨城県行方市三和
3111703,茨城県,行方市,成田,イバラキケン,ナメガタシ,ナリタ,茨城県行方市成田
3111704,茨城県,行方市,山田,イバラキケン,ナメガタシ,ヤマダ,茨城県行方市山田
3111705,茨城県,行方市,内宿,イバラキケン,ナメガタシ,ウチジュク,茨城県行方市内宿
3111711,茨城県,行方市,吉川,イバラキケン,ナメガタシ,ヨシカワ,茨城県行方市吉川
3111712,茨城県,行方市,繁昌,イバラキケン,ナメガタシ,ハンジョウ,茨城県行方市繁昌
3111713,茨城県,行方市,中根,イバラキケン,ナメガタシ,ナカネ,茨城県行方市中根
3111714,茨城県,行方市,南高岡,イバラキケン,ナメガタシ,ミナミタカオカ,茨城県行方市南高岡
3111715,茨城県,行方市,小幡,イバラキケン,ナメガタシ,オバタ,茨城県行方市小幡
3111716,茨城県,行方市,北高岡,イバラキケン,ナメガタシ,キタタカオカ,茨城県行方市北高岡
3111721,茨城県,行方市,両宿,イバラキケン,ナメガタシ,リョウシュク,茨城県行方市両宿
3111722,茨城県,行方市,次木,イバラキケン,ナメガタシ,ナミキ,茨城県行方市次木
3111723,茨城県,行方市,行戸,イバラキケン,ナメガタシ,ユクド,茨城県行方市行戸
3111724,茨城県,行方市,小貫,イバラキケン,ナメガタシ,オヌキ,茨城県行方市小貫
3112101,茨城県,鉾田市,青山,イバラキケン,ホコタシ,アオヤマ,茨城県鉾田市青山
3112102,茨城県,鉾田市,台濁沢,イバラキケン,ホコタシ,ダイニゴリサワ,茨城県鉾田市台濁沢
3112103,茨城県,鉾田市,汲上,イバラキケン,ホコタシ,クミアゲ,茨城県鉾田市汲上
3112104,茨城県,鉾田市,梶山,イバラキケン,ホコタシ,カジヤマ,茨城県鉾田市梶山
3112105,茨城県,鉾田市,二重作,イバラキケン,ホコタシ,フタエサク,茨城県鉾田市二重作
3112111,茨城県,鉾田市,上沢,イバラキケン,ホコタシ,カミザワ,茨城県鉾田市上沢
3112112,茨城県,鉾田市,飯島,イバラキケン,ホコタシ,イイジマ,茨城県鉾田市飯島
3112113,茨城県,鉾田市,上幡木,イバラキケン,ホコタシ,カミハタキ,茨城県鉾田市上幡木
3112114,茨城県,鉾田市,江川,イバラキケン,ホコタシ,エガワ,茨城県鉾田市江川
3112115,茨城県,鉾田市,中居,イバラキケン,ホコタシ,ナカイ,茨城県鉾田市中居
3112116,茨城県,鉾田市,札,イバラキケン,ホコタシ,フダ,茨城県鉾田市札
3112117,茨城県,鉾田市,大蔵,イバラキケン,ホコタシ,オオクラ,茨城県鉾田市大蔵
3112118,茨城県,鉾田市,阿玉,イバラキケン,ホコタシ,アダマ,茨城県鉾田市阿玉
3112201,茨城県,鹿嶋市,大小志崎,イバラキケン,カシマシ,ダイショウシザキ,茨城県鹿嶋市大小志崎
3112202,茨城県,鹿嶋市,武井釜,イバラキケン,カシマシ,タケイガマ,茨城県鹿嶋市武井釜
3112203,茨城県,鹿嶋市,浜津賀,イバラキケン,カシマシ,ハマツガ,茨城県鹿嶋市浜津賀
3112204,茨城県,鹿嶋市,荒井,イバラキケン,カシマシ,アライ,茨城県鹿嶋市荒井
3112205,茨城県,鹿嶋市,津賀,イバラキケン,カシマシ,ツガ,茨城県鹿嶋市津賀
3112206,茨城県,鹿嶋市,武井,イバラキケン,カシマシ,タケイ,茨城県鹿嶋市武井
3112207,茨城県,鹿嶋市,志崎,イバラキケン,カシマシ,シザキ,茨城県鹿嶋市志崎
3112211,茨城県,鹿嶋市,青塚,イバラキケン,カシマシ,アオツカ,茨城県鹿嶋市青塚
3112212,茨城県,鹿嶋市,角折,イバラキケン,カシマシ,ツノオレ,茨城県鹿嶋市角折
3112213,茨城県,鹿嶋市,中,イバラキケン,カシマシ,ナカ,茨城県鹿嶋市中
3112214,茨城県,鹿嶋市,棚木,イバラキケン,カシマシ,タナギ,茨城県鹿嶋市棚木
3112215,茨城県,鹿嶋市,和,イバラキケン,カシマシ,カズ,茨城県鹿嶋市和
3112221,茨城県,鹿嶋市,荒野,イバラキケン,カシマシ,コウヤ,茨城県鹿嶋市荒野
3112222,茨城県,鹿嶋市,小山,イバラキケン,カシマシ,コヤマ,茨城県鹿嶋市小山
3112223,茨城県,鹿嶋市,林,イバラキケン,カシマシ,ハヤシ,茨城県鹿嶋市林
3112224,茨城県,鹿嶋市,奈良毛,イバラキケン,カシマシ,ナラゲ,茨城県鹿嶋市奈良毛
3112400,茨城県,潮来市,,イバラキケン,イタコシ,,茨城県潮来市
3112401,茨城県,潮来市,大賀,イバラキケン,イタコシ,オオガ,茨城県潮来市大賀
3112402,茨城県,潮来市,大生,イバラキケン,イタコシ,オオウ,茨城県潮来市大生
3112403,茨城県,潮来市,釜谷,イバラキケン,イタコシ,カマヤ,茨城県潮来市釜谷
3112404,茨城県,潮来市,水原,イバラキケン,イタコシ,ミズハラ,茨城県潮来市水原
3112405,茨城県,潮来市,築地,イバラキケン,イタコシ,ツイジ,茨城県潮来市築地
3112406,茨城県,潮来市,新宮,イバラキケン,イタコシ,シングウ,茨城県潮来市新宮
3112407,茨城県,潮来市,下田,イバラキケン,イタコシ,シタダ,茨城県潮来市下田
3112408,茨城県,潮来市,洲崎,イバラキケン,イタコシ,スサキ,茨城県潮来市洲崎
3112409,茨城県,潮来市,延方東,イバラキケン,イタコシ,ノブカタヒガシ,茨城県潮来市延方東
3112410,茨城県,潮来市,延方西,イバラキケン,イタコシ,ノブカタニシ,茨城県潮来市延方西
3112412,茨城県,潮来市,宮前,イバラキケン,イタコシ,ミヤマエ,茨城県潮来市宮前
3112415,茨城県,潮来市,延方,イバラキケン,イタコシ,ノブカタ,茨城県潮来市延方
3112416,茨城県,潮来市,前川,イバラキケン,イタコシ,マエカワ,茨城県潮来市前川
3112417,茨城県,潮来市,米島,イバラキケン,イタコシ,ヨネジマ,茨城県潮来市米島
3112418,茨城県,潮来市,徳島,イバラキケン,イタコシ,トクシマ,茨城県潮来市徳島
3112419,茨城県,潮来市,福島,イバラキケン,イタコシ,フクシマ,茨城県潮来市福島
3112421,茨城県,潮来市,辻,イバラキケン,イタコシ,ツジ,茨城県潮来市辻
3112422,茨城県,潮来市,大洲,イバラキケン,イタコシ,オオス,茨城県潮来市大洲
3112423,茨城県,潮来市,日の出,イバラキケン,イタコシ,ヒノデ,茨城県潮来市日の出
3112424,茨城県,潮来市,潮来,イバラキケン,イタコシ,イタコ,茨城県潮来市潮来
3112425,茨城県,潮来市,あやめ,イバラキケン,イタコシ,アヤメ,茨城県潮来市あやめ
3112426,茨城県,潮来市,大塚野,イバラキケン,イタコシ,オオツカノ,茨城県潮来市大塚野
3112431,茨城県,潮来市,清水,イバラキケン,イタコシ,キヨミズ,茨城県潮来市清水
3112432,茨城県,潮来市,茂木,イバラキケン,イタコシ,モトギ,茨城県潮来市茂木
3112433,茨城県,潮来市,堀之内,イバラキケン,イタコシ,ホリノウチ,茨城県潮来市堀之内
3112434,茨城県,潮来市,島須,イバラキケン,イタコシ,シマス,茨城県潮来市島須
3112435,茨城県,潮来市,上戸,イバラキケン,イタコシ,ウワト,茨城県潮来市上戸
3112436,茨城県,潮来市,牛堀,イバラキケン,イタコシ,ウシボリ,茨城県潮来市牛堀
3112437,茨城県,潮来市,永山,イバラキケン,イタコシ,ナガヤマ,茨城県潮来市永山
3112440,茨城県,潮来市,川尾,イバラキケン,イタコシ,カワオ,茨城県潮来市川尾
3112441,茨城県,潮来市,大山,イバラキケン,イタコシ,オオヤマ,茨城県潮来市大山
3112442,茨城県,潮来市,小泉,イバラキケン,イタコシ,コイズミ,茨城県潮来市小泉
3112443,茨城県,潮来市,新宮南,イバラキケン,イタコシ,シングウミナミ,茨城県潮来市新宮南
3112444,茨城県,潮来市,小泉南,イバラキケン,イタコシ,コイズミミナミ,茨城県潮来市小泉南
3112445,茨城県,潮来市,曲松南,イバラキケン,イタコシ,マガリマツミナミ,茨城県潮来市曲松南
3112446,茨城県,潮来市,須賀南,イバラキケン,イタコシ,スカミナミ,茨城県潮来市須賀南
3112447,茨城県,潮来市,曲松,イバラキケン,イタコシ,マガリマツ,茨城県潮来市曲松
3112448,茨城県,潮来市,須賀,イバラキケン,イタコシ,スカ,茨城県潮来市須賀
3112449,茨城県,潮来市,古高,イバラキケン,イタコシ,フッタカ,茨城県潮来市古高
3113100,茨城県,東茨城郡茨城町,,イバラキケン,ヒガシイバラキグンイバラキマチ,,茨城県東茨城郡茨城町
3113101,茨城県,東茨城郡茨城町,南川又,イバラキケン,ヒガシイバラキグンイバラキマチ,ミナミカワマタ,茨城県東茨城郡茨城町南川又
3113102,茨城県,東茨城郡茨城町,南栗崎,イバラキケン,ヒガシイバラキグンイバラキマチ,ミナミクリザキ,茨城県東茨城郡茨城町南栗崎
3113103,茨城県,東茨城郡茨城町,野曽,イバラキケン,ヒガシイバラキグンイバラキマチ,ノソ,茨城県東茨城郡茨城町野曽
3113104,茨城県,東茨城郡茨城町,駒渡,イバラキケン,ヒガシイバラキグンイバラキマチ,コマワタリ,茨城県東茨城郡茨城町駒渡
3113105,茨城県,東茨城郡茨城町,蕎麦原,イバラキケン,ヒガシイバラキグンイバラキマチ,ソバハラ,茨城県東茨城郡茨城町蕎麦原
3113106,茨城県,東茨城郡茨城町,越安,イバラキケン,ヒガシイバラキグンイバラキマチ,コヤス,茨城県東茨城郡茨城町越安
3113107,茨城県,東茨城郡茨城町,小鶴,イバラキケン,ヒガシイバラキグンイバラキマチ,コヅル,茨城県東茨城郡茨城町小鶴
3113108,茨城県,東茨城郡茨城町,中央工業団地,イバラキケン,ヒガシイバラキグンイバラキマチ,チュウオウコウギョウダンチ,茨城県東茨城郡茨城町中央工業団地
3113111,茨城県,東茨城郡茨城町,馬渡,イバラキケン,ヒガシイバラキグンイバラキマチ,ウマワタリ,茨城県東茨城郡茨城町馬渡
3113112,茨城県,東茨城郡茨城町,常井,イバラキケン,ヒガシイバラキグンイバラキマチ,トコイ,茨城県東茨城郡茨城町常井
3113113,茨城県,東茨城郡茨城町,近藤,イバラキケン,ヒガシイバラキグンイバラキマチ,コンドウ,茨城県東茨城郡茨城町近藤
3113114,茨城県,東茨城郡茨城町,大戸,イバラキケン,ヒガシイバラキグンイバラキマチ,オオド,茨城県東茨城郡茨城町大戸
3113115,茨城県,東茨城郡茨城町,前田,イバラキケン,ヒガシイバラキグンイバラキマチ,マエダ,茨城県東茨城郡茨城町前田
3113116,茨城県,東茨城郡茨城町,長岡,イバラキケン,ヒガシイバラキグンイバラキマチ,ナガオカ,茨城県東茨城郡茨城町長岡
3113117,茨城県,東茨城郡茨城町,桜の郷,イバラキケン,ヒガシイバラキグンイバラキマチ,サクラノサト,茨城県東茨城郡茨城町桜の郷
3113121,茨城県,東茨城郡茨城町,谷田部,イバラキケン,ヒガシイバラキグンイバラキマチ,ヤタベ,茨城県東茨城郡茨城町谷田部
3113122,茨城県,東茨城郡茨城町,上石崎,イバラキケン,ヒガシイバラキグンイバラキマチ,カミイシザキ,茨城県東茨城郡茨城町上石崎
3113123,茨城県,東茨城郡茨城町,若宮,イバラキケン,ヒガシイバラキグンイバラキマチ,ワカミヤ,茨城県東茨城郡茨城町若宮
3113124,茨城県,東茨城郡茨城町,中石崎,イバラキケン,ヒガシイバラキグンイバラキマチ,ナカイシザキ,茨城県東茨城郡茨城町中石崎
3113125,茨城県,東茨城郡茨城町,下石崎,イバラキケン,ヒガシイバラキグンイバラキマチ,シモイシザキ,茨城県東茨城郡茨城町下石崎
3113131,茨城県,東茨城郡茨城町,小堤,イバラキケン,ヒガシイバラキグンイバラキマチ,オヅツミ,茨城県東茨城郡茨城町小堤
3113132,茨城県,東茨城郡茨城町,駒場,イバラキケン,ヒガシイバラキグンイバラキマチ,コマバ,茨城県東茨城郡茨城町駒場
3113133,茨城県,東茨城郡茨城町,南島田,イバラキケン,ヒガシイバラキグンイバラキマチ,ミナミシマダ,茨城県東茨城郡茨城町南島田
3113134,茨城県,東茨城郡茨城町,神宿,イバラキケン,ヒガシイバラキグンイバラキマチ,カミヤド,茨城県東茨城郡茨城町神宿
3113135,茨城県,東茨城郡茨城町,海老沢,イバラキケン,ヒガシイバラキグンイバラキマチ,エビサワ,茨城県東茨城郡茨城町海老沢
3113136,茨城県,東茨城郡茨城町,宮ケ崎,イバラキケン,ヒガシイバラキグンイバラキマチ,ミヤガサキ,茨城県東茨城郡茨城町宮ケ崎
3113137,茨城県,東茨城郡茨城町,網掛,イバラキケン,ヒガシイバラキグンイバラキマチ,アガケ,茨城県東茨城郡茨城町網掛
3113138,茨城県,東茨城郡茨城町,城之内,イバラキケン,ヒガシイバラキグンイバラキマチ,ジョウノウチ,茨城県東茨城郡茨城町城之内
3113141,茨城県,東茨城郡茨城町,神谷,イバラキケン,ヒガシイバラキグンイバラキマチ,カンヤ,茨城県東茨城郡茨城町神谷
3113142,茨城県,東茨城郡茨城町,鳥羽田,イバラキケン,ヒガシイバラキグンイバラキマチ,トリハタ,茨城県東茨城郡茨城町鳥羽田
3113143,茨城県,東茨城郡茨城町,生井沢,イバラキケン,ヒガシイバラキグンイバラキマチ,ナマイザワ,茨城県東茨城郡茨城町生井沢
3113144,茨城県,東茨城郡茨城町,下雨ケ谷,イバラキケン,ヒガシイバラキグンイバラキマチ,シモアマガイ,茨城県東茨城郡茨城町下雨ケ谷
3113145,茨城県,東茨城郡茨城町,上雨ケ谷,イバラキケン,ヒガシイバラキグンイバラキマチ,カミアマガイ,茨城県東茨城郡茨城町上雨ケ谷
3113146,茨城県,東茨城郡茨城町,下座,イバラキケン,ヒガシイバラキグンイバラキマチ,ゲザ,茨城県東茨城郡茨城町下座
3113147,茨城県,東茨城郡茨城町,秋葉,イバラキケン,ヒガシイバラキグンイバラキマチ,アキバ,茨城県東茨城郡茨城町秋葉
3113151,茨城県,東茨城郡茨城町,木部,イバラキケン,ヒガシイバラキグンイバラキマチ,キベ,茨城県東茨城郡茨城町木部
3113152,茨城県,東茨城郡茨城町,飯沼,イバラキケン,ヒガシイバラキグンイバラキマチ,イイヌマ,茨城県東茨城郡茨城町飯沼
3113153,茨城県,東茨城郡茨城町,上飯沼,イバラキケン,ヒガシイバラキグンイバラキマチ,カミイイヌマ,茨城県東茨城郡茨城町上飯沼
3113154,茨城県,東茨城郡茨城町,下飯沼,イバラキケン,ヒガシイバラキグンイバラキマチ,シモイイヌマ,茨城県東茨城郡茨城町下飯沼
3113155,茨城県,東茨城郡茨城町,下土師,イバラキケン,ヒガシイバラキグンイバラキマチ,シモハジ,茨城県東茨城郡茨城町下土師
3113156,茨城県,東茨城郡茨城町,奥谷,イバラキケン,ヒガシイバラキグンイバラキマチ,オクノヤ,茨城県東茨城郡茨城町奥谷
3113157,茨城県,東茨城郡茨城町,小幡,イバラキケン,ヒガシイバラキグンイバラキマチ,オバタ,茨城県東茨城郡茨城町小幡
3113401,茨城県,小美玉市,世楽,イバラキケン,オミタマシ,セラク,茨城県小美玉市世楽
3113402,茨城県,小美玉市,佐才,イバラキケン,オミタマシ,サザイ,茨城県小美玉市佐才
3113403,茨城県,小美玉市,上吉影,イバラキケン,オミタマシ,カミヨシカゲ,茨城県小美玉市上吉影
3113404,茨城県,小美玉市,飯前,イバラキケン,オミタマシ,イイサキ,茨城県小美玉市飯前
3113405,茨城県,小美玉市,上合,イバラキケン,オミタマシ,カミアイ,茨城県小美玉市上合
3113406,茨城県,小美玉市,下吉影,イバラキケン,オミタマシ,シモヨシカゲ,茨城県小美玉市下吉影
3113411,茨城県,小美玉市,野田,イバラキケン,オミタマシ,ノダ,茨城県小美玉市野田
3113412,茨城県,小美玉市,川戸,イバラキケン,オミタマシ,カワド,茨城県小美玉市川戸
3113413,茨城県,小美玉市,山野,イバラキケン,オミタマシ,ヤマノ,茨城県小美玉市山野
3113414,茨城県,小美玉市,外之内,イバラキケン,オミタマシ,トノウチ,茨城県小美玉市外之内
3113415,茨城県,小美玉市,百里,イバラキケン,オミタマシ,ヒャクリ,茨城県小美玉市百里
3113416,茨城県,小美玉市,与沢,イバラキケン,オミタマシ,ヨザワ,茨城県小美玉市与沢
3113417,茨城県,小美玉市,倉数,イバラキケン,オミタマシ,クラカズ,茨城県小美玉市倉数
3113421,茨城県,小美玉市,宮田,イバラキケン,オミタマシ,ミヤタ,茨城県小美玉市宮田
3113422,茨城県,小美玉市,中延,イバラキケン,オミタマシ,ナカノベ,茨城県小美玉市中延
3113423,茨城県,小美玉市,小川,イバラキケン,オミタマシ,オガワ,茨城県小美玉市小川
3113424,茨城県,小美玉市,幡谷,イバラキケン,オミタマシ,ハタヤ,茨城県小美玉市幡谷
3113425,茨城県,小美玉市,小塙,イバラキケン,オミタマシ,コバナワ,茨城県小美玉市小塙
3113426,茨城県,小美玉市,下馬場,イバラキケン,オミタマシ,シモババ,茨城県小美玉市下馬場
3113431,茨城県,小美玉市,川中子,イバラキケン,オミタマシ,カワナゴ,茨城県小美玉市川中子
3113432,茨城県,小美玉市,下玉里,イバラキケン,オミタマシ,シモタマリ,茨城県小美玉市下玉里
3113433,茨城県,小美玉市,高崎,イバラキケン,オミタマシ,タカサキ,茨城県小美玉市高崎
3113434,茨城県,小美玉市,栗又四ケ,イバラキケン,オミタマシ,クリマタシカ,茨城県小美玉市栗又四ケ
3113435,茨城県,小美玉市,田木谷,イバラキケン,オミタマシ,タギヤ,茨城県小美玉市田木谷
3113436,茨城県,小美玉市,上玉里,イバラキケン,オミタマシ,カミタマリ,茨城県小美玉市上玉里
3113437,茨城県,小美玉市,東田中,イバラキケン,オミタマシ,ヒガシタナカ,茨城県小美玉市東田中
3113501,茨城県,行方市,芹沢,イバラキケン,ナメガタシ,セリザワ,茨城県行方市芹沢
3113502,茨城県,行方市,若海,イバラキケン,ナメガタシ,ワカウミ,茨城県行方市若海
3113503,茨城県,行方市,捻木,イバラキケン,ナメガタシ,ネジキ,茨城県行方市捻木
3113504,茨城県,行方市,谷島,イバラキケン,ナメガタシ,ヤジマ,茨城県行方市谷島
3113505,茨城県,行方市,浜,イバラキケン,ナメガタシ,ハマ,茨城県行方市浜
3113506,茨城県,行方市,八木蒔,イバラキケン,ナメガタシ,ヤキマキ,茨城県行方市八木蒔
3113507,茨城県,行方市,羽生,イバラキケン,ナメガタシ,ハニュウ,茨城県行方市羽生
3113508,茨城県,行方市,沖洲,イバラキケン,ナメガタシ,オキス,茨城県行方市沖洲
3113511,茨城県,行方市,玉造乙,イバラキケン,ナメガタシ,タマツクリオツ,茨城県行方市玉造乙
3113512,茨城県,行方市,玉造甲,イバラキケン,ナメガタシ,タマツクリコウ,茨城県行方市玉造甲
3113513,茨城県,行方市,手賀,イバラキケン,ナメガタシ,テガ,茨城県行方市手賀
3113514,茨城県,行方市,西蓮寺,イバラキケン,ナメガタシ,サイレンジ,茨城県行方市西蓮寺
3113515,茨城県,行方市,井上,イバラキケン,ナメガタシ,イノウエ,茨城県行方市井上
3113516,茨城県,行方市,井上藤井,イバラキケン,ナメガタシ,イノウエフジイ,茨城県行方市井上藤井
3113517,茨城県,行方市,藤井,イバラキケン,ナメガタシ,フジイ,茨城県行方市藤井
3113518,茨城県,行方市,荒宿,イバラキケン,ナメガタシ,アラジュク,茨城県行方市荒宿
3113800,茨城県,行方市,,イバラキケン,ナメガタシ,,茨城県行方市
3113801,茨城県,行方市,行方,イバラキケン,ナメガタシ,ナメカタ,茨城県行方市行方
3113802,茨城県,行方市,於下,イバラキケン,ナメガタシ,オシタ,茨城県行方市於下
3113803,茨城県,行方市,井貝,イバラキケン,ナメガタシ,イガイ,茨城県行方市井貝
3113804,茨城県,行方市,小高,イバラキケン,ナメガタシ,オダカ,茨城県行方市小高
3113805,茨城県,行方市,橋門,イバラキケン,ナメガタシ,ハシカド,茨城県行方市橋門
3113806,茨城県,行方市,船子,イバラキケン,ナメガタシ,フナコ,茨城県行方市船子
3113807,茨城県,行方市,五町田,イバラキケン,ナメガタシ,ゴチョウダ,茨城県行方市五町田
3113811,茨城県,行方市,四鹿,イバラキケン,ナメガタシ,シロク,茨城県行方市四鹿
3113812,茨城県,行方市,杉平,イバラキケン,ナメガタシ,スギダイラ,茨城県行方市杉平
3113813,茨城県,行方市,籠田,イバラキケン,ナメガタシ,コモタ,茨城県行方市籠田
3113814,茨城県,行方市,天掛,イバラキケン,ナメガタシ,アマガケ,茨城県行方市天掛
3113815,茨城県,行方市,新宮,イバラキケン,ナメガタシ,シングウ,茨城県行方市新宮
3113816,茨城県,行方市,小牧,イバラキケン,ナメガタシ,コマキ,茨城県行方市小牧
3113817,茨城県,行方市,板峰,イバラキケン,ナメガタシ,イタノミネ,茨城県行方市板峰
3113821,茨城県,行方市,蔵川,イバラキケン,ナメガタシ,クラカワ,茨城県行方市蔵川
3113822,茨城県,行方市,岡,イバラキケン,ナメガタシ,オカ,茨城県行方市岡
3113823,茨城県,行方市,白浜,イバラキケン,ナメガタシ,シラハマ,茨城県行方市白浜
3113824,茨城県,行方市,宇崎,イバラキケン,ナメガタシ,ウザキ,茨城県行方市宇崎
3113825,茨城県,行方市,根小屋,イバラキケン,ナメガタシ,ネゴヤ,茨城県行方市根小屋
3113826,茨城県,行方市,矢幡,イバラキケン,ナメガタシ,ヤバタ,茨城県行方市矢幡
3113827,茨城県,行方市,石神,イバラキケン,ナメガタシ,イシガミ,茨城県行方市石神
3113831,茨城県,行方市,青沼,イバラキケン,ナメガタシ,アオヌマ,茨城県行方市青沼
3113832,茨城県,行方市,麻生,イバラキケン,ナメガタシ,アソウ,茨城県行方市麻生
3113833,茨城県,行方市,富田,イバラキケン,ナメガタシ,トミタ,茨城県行方市富田
3113834,茨城県,行方市,粗毛,イバラキケン,ナメガタシ,ホボケ,茨城県行方市粗毛
3113835,茨城県,行方市,島並,イバラキケン,ナメガタシ,シマナミ,茨城県行方市島並
3113836,茨城県,行方市,南,イバラキケン,ナメガタシ,ミナミ,茨城県行方市南
3114141,茨城県,水戸市,赤塚,イバラキケン,ミトシ,アカツカ,茨城県水戸市赤塚
3114142,茨城県,水戸市,東赤塚,イバラキケン,ミトシ,ヒガシアカツカ,茨城県水戸市東赤塚
3114143,茨城県,水戸市,大塚町,イバラキケン,ミトシ,オオツカチョウ,茨城県水戸市大塚町
3114144,茨城県,水戸市,開江町,イバラキケン,ミトシ,ヒラクエチョウ,茨城県水戸市開江町
3114145,茨城県,水戸市,双葉台,イバラキケン,ミトシ,フタバダイ,茨城県水戸市双葉台
3114146,茨城県,水戸市,中丸町,イバラキケン,ミトシ,ナカマルチョウ,茨城県水戸市中丸町
3114151,茨城県,水戸市,姫子,イバラキケン,ミトシ,ヒメゴ,茨城県水戸市姫子
3114152,茨城県,水戸市,河和田,イバラキケン,ミトシ,カワワダ,茨城県水戸市河和田
3114153,茨城県,水戸市,河和田町,イバラキケン,ミトシ,カワワダチョウ,茨城県水戸市河和田町
3114154,茨城県,水戸市,萱場町,イバラキケン,ミトシ,カヤバチョウ,茨城県水戸市萱場町
3114155,茨城県,水戸市,飯島町,イバラキケン,ミトシ,イイジマチョウ,茨城県水戸市飯島町
3114161,茨城県,水戸市,全隈町,イバラキケン,ミトシ,マタグマチョウ,茨城県水戸市全隈町
3114162,茨城県,水戸市,金谷町,イバラキケン,ミトシ,カナヤチョウ,茨城県水戸市金谷町
3114163,茨城県,水戸市,加倉井町,イバラキケン,ミトシ,カクライチョウ,茨城県水戸市加倉井町
3114164,茨城県,水戸市,谷津町,イバラキケン,ミトシ,ヤツチョウ,茨城県水戸市谷津町
3114165,茨城県,水戸市,木葉下町,イバラキケン,ミトシ,アボッケチョウ,茨城県水戸市木葉下町
3114201,茨城県,水戸市,藤井町,イバラキケン,ミトシ,フジイチョウ,茨城県水戸市藤井町
3114202,茨城県,水戸市,岩根町,イバラキケン,ミトシ,イワネチョウ,茨城県水戸市岩根町
3114203,茨城県,水戸市,上国井町,イバラキケン,ミトシ,カミクニイチョウ,茨城県水戸市上国井町
3114204,茨城県,水戸市,田谷町,イバラキケン,ミトシ,タヤチョウ,茨城県水戸市田谷町
3114205,茨城県,水戸市,下国井町,イバラキケン,ミトシ,シモクニイチョウ,茨城県水戸市下国井町
3114206,茨城県,水戸市,飯富町,イバラキケン,ミトシ,イイトミチョウ,茨城県水戸市飯富町
3114207,茨城県,水戸市,成沢町,イバラキケン,ミトシ,ナルサワチョウ,茨城県水戸市成沢町
3114208,茨城県,水戸市,藤が原,イバラキケン,ミトシ,フジガハラ,茨城県水戸市藤が原
3114300,茨城県,東茨城郡城里町,,イバラキケン,ヒガシイバラキグンシロサトマチ,,茨城県東茨城郡城里町
3114301,茨城県,東茨城郡城里町,上泉,イバラキケン,ヒガシイバラキグンシロサトマチ,カミイズミ,茨城県東茨城郡城里町上泉
3114302,茨城県,東茨城郡城里町,那珂西,イバラキケン,ヒガシイバラキグンシロサトマチ,ナカサイ,茨城県東茨城郡城里町那珂西
3114303,茨城県,東茨城郡城里町,石塚,イバラキケン,ヒガシイバラキグンシロサトマチ,イシツカ,茨城県東茨城郡城里町石塚
3114304,茨城県,東茨城郡城里町,下青山,イバラキケン,ヒガシイバラキグンシロサトマチ,シモアオヤマ,茨城県東茨城郡城里町下青山
3114305,茨城県,東茨城郡城里町,上青山,イバラキケン,ヒガシイバラキグンシロサトマチ,カミアオヤマ,茨城県東茨城郡城里町上青山
3114306,茨城県,東茨城郡城里町,春園,イバラキケン,ヒガシイバラキグンシロサトマチ,ハルソノ,茨城県東茨城郡城里町春園
3114311,茨城県,東茨城郡城里町,増井,イバラキケン,ヒガシイバラキグンシロサトマチ,マシイ,茨城県東茨城郡城里町増井
3114312,茨城県,東茨城郡城里町,磯野,イバラキケン,ヒガシイバラキグンシロサトマチ,イソノ,茨城県東茨城郡城里町磯野
3114313,茨城県,東茨城郡城里町,上入野,イバラキケン,ヒガシイバラキグンシロサトマチ,カミイリノ,茨城県東茨城郡城里町上入野
3114314,茨城県,東茨城郡城里町,下古内,イバラキケン,ヒガシイバラキグンシロサトマチ,シモフルウチ,茨城県東茨城郡城里町下古内
3114315,茨城県,東茨城郡城里町,上古内,イバラキケン,ヒガシイバラキグンシロサトマチ,カミフルウチ,茨城県東茨城郡城里町上古内
3114316,茨城県,東茨城郡城里町,小坂,イバラキケン,ヒガシイバラキグンシロサトマチ,オサカ,茨城県東茨城郡城里町小坂
3114317,茨城県,東茨城郡城里町,勝見沢,イバラキケン,ヒガシイバラキグンシロサトマチ,カツミザワ,茨城県東茨城郡城里町勝見沢
3114321,茨城県,東茨城郡城里町,粟,イバラキケン,ヒガシイバラキグンシロサトマチ,アワ,茨城県東茨城郡城里町粟
3114322,茨城県,東茨城郡城里町,下圷,イバラキケン,ヒガシイバラキグンシロサトマチ,シモアクツ,茨城県東茨城郡城里町下圷
3114323,茨城県,東茨城郡城里町,上圷,イバラキケン,ヒガシイバラキグンシロサトマチ,カミアクツ,茨城県東茨城郡城里町上圷
3114324,茨城県,東茨城郡城里町,高久,イバラキケン,ヒガシイバラキグンシロサトマチ,タカク,茨城県東茨城郡城里町高久
3114325,茨城県,東茨城郡城里町,北方,イバラキケン,ヒガシイバラキグンシロサトマチ,キタカタ,茨城県東茨城郡城里町北方
3114331,茨城県,東茨城郡城里町,岩船,イバラキケン,ヒガシイバラキグンシロサトマチ,イワフネ,茨城県東茨城郡城里町岩船
3114332,茨城県,東茨城郡城里町,高根台,イバラキケン,ヒガシイバラキグンシロサトマチ,タカネダイ,茨城県東茨城郡城里町高根台
3114333,茨城県,東茨城郡城里町,高根,イバラキケン,ヒガシイバラキグンシロサトマチ,タカネ,茨城県東茨城郡城里町高根
3114334,茨城県,東茨城郡城里町,孫根,イバラキケン,ヒガシイバラキグンシロサトマチ,マゴネ,茨城県東茨城郡城里町孫根
3114335,茨城県,東茨城郡城里町,錫高野,イバラキケン,ヒガシイバラキグンシロサトマチ,スズコウヤ,茨城県東茨城郡城里町錫高野
3114341,茨城県,東茨城郡城里町,御前山,イバラキケン,ヒガシイバラキグンシロサトマチ,ゴゼンヤマ,茨城県東茨城郡城里町御前山
3114342,茨城県,東茨城郡城里町,上阿野沢,イバラキケン,ヒガシイバラキグンシロサトマチ,カミアノサワ,茨城県東茨城郡城里町上阿野沢
3114343,茨城県,東茨城郡城里町,下阿野沢,イバラキケン,ヒガシイバラキグンシロサトマチ,シモアノサワ,茨城県東茨城郡城里町下阿野沢
3114344,茨城県,東茨城郡城里町,阿波山,イバラキケン,ヒガシイバラキグンシロサトマチ,アワヤマ,茨城県東茨城郡城里町阿波山
3114401,茨城県,東茨城郡城里町,塩子,イバラキケン,ヒガシイバラキグンシロサトマチ,シオゴ,茨城県東茨城郡城里町塩子
3114402,茨城県,東茨城郡城里町,小勝,イバラキケン,ヒガシイバラキグンシロサトマチ,オガチ,茨城県東茨城郡城里町小勝
3114403,茨城県,東茨城郡城里町,大網,イバラキケン,ヒガシイバラキグンシロサトマチ,オオアミ,茨城県東茨城郡城里町大網
3114404,茨城県,東茨城郡城里町,真端,イバラキケン,ヒガシイバラキグンシロサトマチ,サナバタ,茨城県東茨城郡城里町真端
3114405,茨城県,東茨城郡城里町,上赤沢,イバラキケン,ヒガシイバラキグンシロサトマチ,カミアカサワ,茨城県東茨城郡城里町上赤沢
3114406,茨城県,東茨城郡城里町,下赤沢,イバラキケン,ヒガシイバラキグンシロサトマチ,シモアカサワ,茨城県東茨城郡城里町下赤沢
3114407,茨城県,東茨城郡城里町,徳蔵,イバラキケン,ヒガシイバラキグンシロサトマチ,トクラ,茨城県東茨城郡城里町徳蔵
3114501,茨城県,常陸大宮市,門井,イバラキケン,ヒタチオオミヤシ,カドイ,茨城県常陸大宮市門井
3114502,茨城県,常陸大宮市,野口平,イバラキケン,ヒタチオオミヤシ,ノグチダイラ,茨城県常陸大宮市野口平
3114503,茨城県,常陸大宮市,野口,イバラキケン,ヒタチオオミヤシ,ノグチ,茨城県常陸大宮市野口
3114611,茨城県,常陸大宮市,秋田,イバラキケン,ヒタチオオミヤシ,アキタ,茨城県常陸大宮市秋田
3114612,茨城県,常陸大宮市,中居,イバラキケン,ヒタチオオミヤシ,ナカイ,茨城県常陸大宮市中居
3114613,茨城県,常陸大宮市,長倉,イバラキケン,ヒタチオオミヤシ,ナガクラ,茨城県常陸大宮市長倉
3114614,茨城県,常陸大宮市,金井,イバラキケン,ヒタチオオミヤシ,カナイ,茨城県常陸大宮市金井
3114615,茨城県,常陸大宮市,下伊勢畑,イバラキケン,ヒタチオオミヤシ,シモイセハタ,茨城県常陸大宮市下伊勢畑
3114616,茨城県,常陸大宮市,桧山,イバラキケン,ヒタチオオミヤシ,ヒヤマ,茨城県常陸大宮市桧山
3114617,茨城県,常陸大宮市,上伊勢畑,イバラキケン,ヒタチオオミヤシ,カミイセハタ,茨城県常陸大宮市上伊勢畑
3114618,茨城県,常陸大宮市,野田,イバラキケン,ヒタチオオミヤシ,ノダ,茨城県常陸大宮市野田
3120000,茨城県,ひたちなか市,,イバラキケン,ヒタチナカシ,,茨城県ひたちなか市
3120001,茨城県,ひたちなか市,佐和,イバラキケン,ヒタチナカシ,サワ,茨城県ひたちなか市佐和
3120002,茨城県,ひたちなか市,高野,イバラキケン,ヒタチナカシ,コウヤ,茨城県ひたちなか市高野
3120003,茨城県,ひたちなか市,足崎,イバラキケン,ヒタチナカシ,タラザキ,茨城県ひたちなか市足崎
3120004,茨城県,ひたちなか市,長砂,イバラキケン,ヒタチナカシ,ナガスナ,茨城県ひたちなか市長砂
3120005,茨城県,ひたちなか市,新光町,イバラキケン,ヒタチナカシ,シンコウチョウ,茨城県ひたちなか市新光町
3120006,茨城県,ひたちなか市,前浜,イバラキケン,ヒタチナカシ,マエハマ,茨城県ひたちなか市前浜
3120007,茨城県,ひたちなか市,小貫山,イバラキケン,ヒタチナカシ,オヌキヤマ,茨城県ひたちなか市小貫山
3120011,茨城県,ひたちなか市,中根,イバラキケン,ヒタチナカシ,ナカネ,茨城県ひたちなか市中根
3120012,茨城県,ひたちなか市,馬渡,イバラキケン,ヒタチナカシ,マワタリ,茨城県ひたちなか市馬渡
3120013,茨城県,ひたちなか市,上野,イバラキケン,ヒタチナカシ,カミノ,茨城県ひたちなか市上野
3120014,茨城県,ひたちなか市,後野,イバラキケン,ヒタチナカシ,ウシロノ,茨城県ひたちなか市後野
3120015,茨城県,ひたちなか市,小砂町,イバラキケン,ヒタチナカシ,コスナチョウ,茨城県ひたちなか市小砂町
3120016,茨城県,ひたちなか市,松戸町,イバラキケン,ヒタチナカシ,マツドチョウ,茨城県ひたちなか市松戸町
3120017,茨城県,ひたちなか市,長堀町,イバラキケン,ヒタチナカシ,ナガホリチョウ,茨城県ひたちなか市長堀町
3120018,茨城県,ひたちなか市,笹野町,イバラキケン,ヒタチナカシ,ササノチョウ,茨城県ひたちなか市笹野町
3120021,茨城県,ひたちなか市,三反田,イバラキケン,ヒタチナカシ,ミタンダ,茨城県ひたちなか市三反田
3120022,茨城県,ひたちなか市,金上,イバラキケン,ヒタチナカシ,カネアゲ,茨城県ひたちなか市金上
3120023,茨城県,ひたちなか市,大平,イバラキケン,ヒタチナカシ,オオダイラ,茨城県ひたちなか市大平
3120024,茨城県,ひたちなか市,勝倉,イバラキケン,ヒタチナカシ,カツクラ,茨城県ひたちなか市勝倉
3120025,茨城県,ひたちなか市,武田,イバラキケン,ヒタチナカシ,タケダ,茨城県ひたちなか市武田
3120026,茨城県,ひたちなか市,勝田本町,イバラキケン,ヒタチナカシ,カツタホンチョウ,茨城県ひたちなか市勝田本町
3120027,茨城県,ひたちなか市,勝田中原町,イバラキケン,ヒタチナカシ,カツタナカハラチョウ,茨城県ひたちなか市勝田中原町
3120031,茨城県,ひたちなか市,後台,イバラキケン,ヒタチナカシ,ゴダイ,茨城県ひたちなか市後台
3120032,茨城県,ひたちなか市,津田,イバラキケン,ヒタチナカシ,ツダ,茨城県ひたちなか市津田
3120033,茨城県,ひたちなか市,市毛,イバラキケン,ヒタチナカシ,イチゲ,茨城県ひたちなか市市毛
3120034,茨城県,ひたちなか市,堀口,イバラキケン,ヒタチナカシ,ホリグチ,茨城県ひたちなか市堀口
3120035,茨城県,ひたちなか市,枝川,イバラキケン,ヒタチナカシ,エダカワ,茨城県ひたちなか市枝川
3120036,茨城県,ひたちなか市,津田東,イバラキケン,ヒタチナカシ,ツダヒガシ,茨城県ひたちなか市津田東
3120041,茨城県,ひたちなか市,西大島,イバラキケン,ヒタチナカシ,ニシオオシマ,茨城県ひたちなか市西大島
3120042,茨城県,ひたちなか市,東大島,イバラキケン,ヒタチナカシ,ヒガシオオシマ,茨城県ひたちなか市東大島
3120043,茨城県,ひたちなか市,共栄町,イバラキケン,ヒタチナカシ,キョウエイチョウ,茨城県ひたちなか市共栄町
3120044,茨城県,ひたちなか市,元町,イバラキケン,ヒタチナカシ,モトマチ,茨城県ひたちなか市元町
3120045,茨城県,ひたちなか市,勝田中央,イバラキケン,ヒタチナカシ,カツタチュウオウ,茨城県ひたちなか市勝田中央
3120046,茨城県,ひたちなか市,勝田泉町,イバラキケン,ヒタチナカシ,カツタイズミチョウ,茨城県ひたちなか市勝田泉町
3120047,茨城県,ひたちなか市,表町,イバラキケン,ヒタチナカシ,オモテチョウ,茨城県ひたちなか市表町
3120048,茨城県,ひたちなか市,春日町,イバラキケン,ヒタチナカシ,カスガチョウ,茨城県ひたちなか市春日町
3120051,茨城県,ひたちなか市,堂端,イバラキケン,ヒタチナカシ,ドウハタ,茨城県ひたちなか市堂端
3120052,茨城県,ひたちなか市,東石川,イバラキケン,ヒタチナカシ,ヒガシイシカワ,茨城県ひたちなか市東石川
3120053,茨城県,ひたちなか市,外野,イバラキケン,ヒタチナカシ,ソトノ,茨城県ひたちなか市外野
3120054,茨城県,ひたちなか市,はしかべ,イバラキケン,ヒタチナカシ,ハシカベ,茨城県ひたちなか市はしかべ
3120055,茨城県,ひたちなか市,大成町,イバラキケン,ヒタチナカシ,タイセイチョウ,茨城県ひたちなか市大成町
3120056,茨城県,ひたちなか市,青葉町,イバラキケン,ヒタチナカシ,アオバチョウ,茨城県ひたちなか市青葉町
3120057,茨城県,ひたちなか市,石川町,イバラキケン,ヒタチナカシ,イシカワチョウ,茨城県ひたちなか市石川町
3120058,茨城県,ひたちなか市,西光地,イバラキケン,ヒタチナカシ,サイコウチ,茨城県ひたちなか市西光地
3120061,茨城県,ひたちなか市,稲田,イバラキケン,ヒタチナカシ,イナダ,茨城県ひたちなか市稲田
3120062,茨城県,ひたちなか市,高場,イバラキケン,ヒタチナカシ,タカバ,茨城県ひたちなか市高場
3120063,茨城県,ひたちなか市,田彦,イバラキケン,ヒタチナカシ,タビコ,茨城県ひたちなか市田彦
3130000,茨城県,常陸太田市,,イバラキケン,ヒタチオオタシ,,茨城県常陸太田市
3130001,茨城県,常陸太田市,上大門町,イバラキケン,ヒタチオオタシ,カミオオカドチョウ,茨城県常陸太田市上大門町
3130002,茨城県,常陸太田市,下大門町,イバラキケン,ヒタチオオタシ,シモオオカドチョウ,茨城県常陸太田市下大門町
3130003,茨城県,常陸太田市,瑞龍町,イバラキケン,ヒタチオオタシ,ズイリュウチョウ,茨城県常陸太田市瑞龍町
3130004,茨城県,常陸太田市,馬場町,イバラキケン,ヒタチオオタシ,ババチョウ,茨城県常陸太田市馬場町
3130005,茨城県,常陸太田市,栄町,イバラキケン,ヒタチオオタシ,サカエチョウ,茨城県常陸太田市栄町
3130006,茨城県,常陸太田市,宮本町,イバラキケン,ヒタチオオタシ,ミヤモトチョウ,茨城県常陸太田市宮本町
3130007,茨城県,常陸太田市,新宿町,イバラキケン,ヒタチオオタシ,アラジュクチョウ,茨城県常陸太田市新宿町
3130008,茨城県,常陸太田市,増井町,イバラキケン,ヒタチオオタシ,マシイチョウ,茨城県常陸太田市増井町
3130011,茨城県,常陸太田市,西宮町,イバラキケン,ヒタチオオタシ,ニシミヤチョウ,茨城県常陸太田市西宮町
3130012,茨城県,常陸太田市,三才町,イバラキケン,ヒタチオオタシ,サンザイチョウ,茨城県常陸太田市三才町
3130013,茨城県,常陸太田市,山下町,イバラキケン,ヒタチオオタシ,ヤマシタチョウ,茨城県常陸太田市山下町
3130014,茨城県,常陸太田市,木崎二町,イバラキケン,ヒタチオオタシ,キザキニチョウ,茨城県常陸太田市木崎二町
3130015,茨城県,常陸太田市,木崎一町,イバラキケン,ヒタチオオタシ,キザキイチチョウ,茨城県常陸太田市木崎一町
3130016,茨城県,常陸太田市,金井町,イバラキケン,ヒタチオオタシ,カナイチョウ,茨城県常陸太田市金井町
3130021,茨城県,常陸太田市,大森町,イバラキケン,ヒタチオオタシ,オオモリチョウ,茨城県常陸太田市大森町
3130022,茨城県,常陸太田市,真弓町,イバラキケン,ヒタチオオタシ,マユミチョウ,茨城県常陸太田市真弓町
3130023,茨城県,常陸太田市,亀作町,イバラキケン,ヒタチオオタシ,カメザクチョウ,茨城県常陸太田市亀作町
3130024,茨城県,常陸太田市,高貫町,イバラキケン,ヒタチオオタシ,タカヌキチョウ,茨城県常陸太田市高貫町
3130025,茨城県,常陸太田市,幡町,イバラキケン,ヒタチオオタシ,ハタチョウ,茨城県常陸太田市幡町
3130026,茨城県,常陸太田市,田渡町,イバラキケン,ヒタチオオタシ,タワタリチョウ,茨城県常陸太田市田渡町
3130027,茨城県,常陸太田市,長谷町,イバラキケン,ヒタチオオタシ,ハセチョウ,茨城県常陸太田市長谷町
3130031,茨城県,常陸太田市,岡田町,イバラキケン,ヒタチオオタシ,オカダチョウ,茨城県常陸太田市岡田町
3130032,茨城県,常陸太田市,沢目町,イバラキケン,ヒタチオオタシ,サワメチョウ,茨城県常陸太田市沢目町
3130033,茨城県,常陸太田市,小目町,イバラキケン,ヒタチオオタシ,オメチョウ,茨城県常陸太田市小目町
3130034,茨城県,常陸太田市,上土木内町,イバラキケン,ヒタチオオタシ,カミドギウチチョウ,茨城県常陸太田市上土木内町
3130035,茨城県,常陸太田市,堅磐町,イバラキケン,ヒタチオオタシ,カキワチョウ,茨城県常陸太田市堅磐町
3130036,茨城県,常陸太田市,落合町,イバラキケン,ヒタチオオタシ,オチアイチョウ,茨城県常陸太田市落合町
3130037,茨城県,常陸太田市,内田町,イバラキケン,ヒタチオオタシ,ウチダチョウ,茨城県常陸太田市内田町
3130038,茨城県,常陸太田市,小沢町,イバラキケン,ヒタチオオタシ,オザワチョウ,茨城県常陸太田市小沢町
3130041,茨城県,常陸太田市,稲木町,イバラキケン,ヒタチオオタシ,イナギチョウ,茨城県常陸太田市稲木町
3130042,茨城県,常陸太田市,磯部町,イバラキケン,ヒタチオオタシ,イソベチョウ,茨城県常陸太田市磯部町
3130043,茨城県,常陸太田市,谷河原町,イバラキケン,ヒタチオオタシ,ヤガワラチョウ,茨城県常陸太田市谷河原町
3130044,茨城県,常陸太田市,下河合町,イバラキケン,ヒタチオオタシ,シモカワイチョウ,茨城県常陸太田市下河合町
3130045,茨城県,常陸太田市,粟原町,イバラキケン,ヒタチオオタシ,アワバラチョウ,茨城県常陸太田市粟原町
3130046,茨城県,常陸太田市,上河合町,イバラキケン,ヒタチオオタシ,カミカワイチョウ,茨城県常陸太田市上河合町
3130047,茨城県,常陸太田市,島町,イバラキケン,ヒタチオオタシ,シマチョウ,茨城県常陸太田市島町
3130048,茨城県,常陸太田市,藤田町,イバラキケン,ヒタチオオタシ,フジタチョウ,茨城県常陸太田市藤田町
3130049,茨城県,常陸太田市,天神林町,イバラキケン,ヒタチオオタシ,テンジンバヤシチョウ,茨城県常陸太田市天神林町
3130051,茨城県,常陸太田市,東一町,イバラキケン,ヒタチオオタシ,ヒガシイチチョウ,茨城県常陸太田市東一町
3130052,茨城県,常陸太田市,東二町,イバラキケン,ヒタチオオタシ,ヒガシニチョウ,茨城県常陸太田市東二町
3130053,茨城県,常陸太田市,東三町,イバラキケン,ヒタチオオタシ,ヒガシサンチョウ,茨城県常陸太田市東三町
3130054,茨城県,常陸太田市,西三町,イバラキケン,ヒタチオオタシ,ニシサンチョウ,茨城県常陸太田市西三町
3130055,茨城県,常陸太田市,西二町,イバラキケン,ヒタチオオタシ,ニシニチョウ,茨城県常陸太田市西二町
3130056,茨城県,常陸太田市,西一町,イバラキケン,ヒタチオオタシ,ニシイチチョウ,茨城県常陸太田市西一町
3130061,茨城県,常陸太田市,中城町,イバラキケン,ヒタチオオタシ,ナカジョウチョウ,茨城県常陸太田市中城町
3130062,茨城県,常陸太田市,塙町,イバラキケン,ヒタチオオタシ,ハナワチョウ,茨城県常陸太田市塙町
3130063,茨城県,常陸太田市,内堀町,イバラキケン,ヒタチオオタシ,ウチボリチョウ,茨城県常陸太田市内堀町
3130064,茨城県,常陸太田市,寿町,イバラキケン,ヒタチオオタシ,コトブキチョウ,茨城県常陸太田市寿町
3130101,茨城県,常陸太田市,上宮河内町,イバラキケン,ヒタチオオタシ,カミミヤカワウチチョウ,茨城県常陸太田市上宮河内町
3130102,茨城県,常陸太田市,赤土町,イバラキケン,ヒタチオオタシ,アカヅチチョウ,茨城県常陸太田市赤土町
3130103,茨城県,常陸太田市,下宮河内町,イバラキケン,ヒタチオオタシ,シモミヤカワウチチョウ,茨城県常陸太田市下宮河内町
3130104,茨城県,常陸太田市,上利員町,イバラキケン,ヒタチオオタシ,カミトシカズチョウ,茨城県常陸太田市上利員町
3130105,茨城県,常陸太田市,中利員町,イバラキケン,ヒタチオオタシ,ナカトシカズチョウ,茨城県常陸太田市中利員町
3130106,茨城県,常陸太田市,下利員町,イバラキケン,ヒタチオオタシ,シモトシカズチョウ,茨城県常陸太田市下利員町
3130111,茨城県,常陸太田市,千寿町,イバラキケン,ヒタチオオタシ,センズチョウ,茨城県常陸太田市千寿町
3130112,茨城県,常陸太田市,岩手町,イバラキケン,ヒタチオオタシ,イワテチョウ,茨城県常陸太田市岩手町
3130113,茨城県,常陸太田市,高柿町,イバラキケン,ヒタチオオタシ,タカガキチョウ,茨城県常陸太田市高柿町
3130114,茨城県,常陸太田市,箕町,イバラキケン,ヒタチオオタシ,ミチョウ,茨城県常陸太田市箕町
3130115,茨城県,常陸太田市,竹合町,イバラキケン,ヒタチオオタシ,タケアイチョウ,茨城県常陸太田市竹合町
3130116,茨城県,常陸太田市,大方町,イバラキケン,ヒタチオオタシ,オオカタチョウ,茨城県常陸太田市大方町
3130117,茨城県,常陸太田市,宮の郷町,イバラキケン,ヒタチオオタシ,ミヤノサトチョウ,茨城県常陸太田市宮の郷町
3130121,茨城県,常陸太田市,芦間町,イバラキケン,ヒタチオオタシ,アシマチョウ,茨城県常陸太田市芦間町
3130122,茨城県,常陸太田市,玉造町,イバラキケン,ヒタチオオタシ,タマツクリチョウ,茨城県常陸太田市玉造町
3130123,茨城県,常陸太田市,久米町,イバラキケン,ヒタチオオタシ,クメチョウ,茨城県常陸太田市久米町
3130124,茨城県,常陸太田市,大平町,イバラキケン,ヒタチオオタシ,オオダイラチョウ,茨城県常陸太田市大平町
3130125,茨城県,常陸太田市,大里町,イバラキケン,ヒタチオオタシ,オオサトチョウ,茨城県常陸太田市大里町
3130126,茨城県,常陸太田市,薬谷町,イバラキケン,ヒタチオオタシ,クスリヤチョウ,茨城県常陸太田市薬谷町
3130131,茨城県,常陸太田市,花房町,イバラキケン,ヒタチオオタシ,ハナブサチョウ,茨城県常陸太田市花房町
3130132,茨城県,常陸太田市,新地町,イバラキケン,ヒタチオオタシ,アラジチョウ,茨城県常陸太田市新地町
3130133,茨城県,常陸太田市,松栄町,イバラキケン,ヒタチオオタシ,マツザカチョウ,茨城県常陸太田市松栄町
3130134,茨城県,常陸太田市,中野町,イバラキケン,ヒタチオオタシ,ナカノチョウ,茨城県常陸太田市中野町
3130135,茨城県,常陸太田市,小島町,イバラキケン,ヒタチオオタシ,オジマチョウ,茨城県常陸太田市小島町
3130211,茨城県,常陸太田市,東染町,イバラキケン,ヒタチオオタシ,ヒガシゾメチョウ,茨城県常陸太田市東染町
3130212,茨城県,常陸太田市,中染町,イバラキケン,ヒタチオオタシ,ナカゾメチョウ,茨城県常陸太田市中染町
3130213,茨城県,常陸太田市,町田町,イバラキケン,ヒタチオオタシ,マチダチョウ,茨城県常陸太田市町田町
3130214,茨城県,常陸太田市,和久町,イバラキケン,ヒタチオオタシ,ワグチョウ,茨城県常陸太田市和久町
3130215,茨城県,常陸太田市,西染町,イバラキケン,ヒタチオオタシ,ニシゾメチョウ,茨城県常陸太田市西染町
3130221,茨城県,常陸太田市,国安町,イバラキケン,ヒタチオオタシ,クニヤスチョウ,茨城県常陸太田市国安町
3130222,茨城県,常陸太田市,松平町,イバラキケン,ヒタチオオタシ,マツダイラチョウ,茨城県常陸太田市松平町
3130223,茨城県,常陸太田市,和田町,イバラキケン,ヒタチオオタシ,ワダチョウ,茨城県常陸太田市和田町
3130224,茨城県,常陸太田市,東連地町,イバラキケン,ヒタチオオタシ,トウレンジチョウ,茨城県常陸太田市東連地町
3130225,茨城県,常陸太田市,棚谷町,イバラキケン,ヒタチオオタシ,タナヤチョウ,茨城県常陸太田市棚谷町
3130351,茨城県,常陸太田市,天下野町,イバラキケン,ヒタチオオタシ,ケガノチョウ,茨城県常陸太田市天下野町
3130352,茨城県,常陸太田市,下高倉町,イバラキケン,ヒタチオオタシ,シモタカクラチョウ,茨城県常陸太田市下高倉町
3130353,茨城県,常陸太田市,上高倉町,イバラキケン,ヒタチオオタシ,カミタカクラチョウ,茨城県常陸太田市上高倉町
3140000,茨城県,鹿嶋市,,イバラキケン,カシマシ,,茨城県鹿嶋市
3140001,茨城県,鹿嶋市,清水,イバラキケン,カシマシ,シミズ,茨城県鹿嶋市清水
3140002,茨城県,鹿嶋市,明石,イバラキケン,カシマシ,アカシ,茨城県鹿嶋市明石
3140003,茨城県,鹿嶋市,小宮作,イバラキケン,カシマシ,コミヤサク,茨城県鹿嶋市小宮作
3140004,茨城県,鹿嶋市,下津,イバラキケン,カシマシ,オリツ,茨城県鹿嶋市下津
3140005,茨城県,鹿嶋市,高天原,イバラキケン,カシマシ,タカマガハラ,茨城県鹿嶋市高天原
3140006,茨城県,鹿嶋市,宮津台,イバラキケン,カシマシ,ミヤツダイ,茨城県鹿嶋市宮津台
3140007,茨城県,鹿嶋市,神向寺,イバラキケン,カシマシ,ジンコウジ,茨城県鹿嶋市神向寺
3140011,茨城県,鹿嶋市,港ケ丘,イバラキケン,カシマシ,ミナトガオカ,茨城県鹿嶋市港ケ丘
3140012,茨城県,鹿嶋市,平井,イバラキケン,カシマシ,ヒライ,茨城県鹿嶋市平井
3140013,茨城県,鹿嶋市,新浜,イバラキケン,カシマシ,シンハマ,茨城県鹿嶋市新浜
3140014,茨城県,鹿嶋市,光,イバラキケン,カシマシ,ヒカリ,茨城県鹿嶋市光
3140015,茨城県,鹿嶋市,泉川,イバラキケン,カシマシ,イズミガワ,茨城県鹿嶋市泉川
3140016,茨城県,鹿嶋市,国末,イバラキケン,カシマシ,クニスエ,茨城県鹿嶋市国末
3140017,茨城県,鹿嶋市,旭ケ丘,イバラキケン,カシマシ,アサヒガオカ,茨城県鹿嶋市旭ケ丘
3140021,茨城県,鹿嶋市,粟生,イバラキケン,カシマシ,アオウ,茨城県鹿嶋市粟生
3140022,茨城県,鹿嶋市,長栖,イバラキケン,カシマシ,ナガス,茨城県鹿嶋市長栖
3140023,茨城県,鹿嶋市,谷原,イバラキケン,カシマシ,ヤワラ,茨城県鹿嶋市谷原
3140024,茨城県,鹿嶋市,鰐川,イバラキケン,カシマシ,ワニガワ,茨城県鹿嶋市鰐川
3140025,茨城県,鹿嶋市,下塙,イバラキケン,カシマシ,シモハナワ,茨城県鹿嶋市下塙
3140026,茨城県,鹿嶋市,木滝佐田谷原入会,イバラキケン,カシマシ,キタキサダヤワライリアイ,茨城県鹿嶋市木滝佐田谷原入会
3140027,茨城県,鹿嶋市,佐田,イバラキケン,カシマシ,サダ,茨城県鹿嶋市佐田
3140028,茨城県,鹿嶋市,木滝,イバラキケン,カシマシ,キタキ,茨城県鹿嶋市木滝
3140030,茨城県,鹿嶋市,厨,イバラキケン,カシマシ,クリヤ,茨城県鹿嶋市厨
3140031,茨城県,鹿嶋市,宮中,イバラキケン,カシマシ,キュウチュウ,茨城県鹿嶋市宮中
3140032,茨城県,鹿嶋市,宮下,イバラキケン,カシマシ,ミヤシタ,茨城県鹿嶋市宮下
3140033,茨城県,鹿嶋市,鉢形台,イバラキケン,カシマシ,ハチガタダイ,茨城県鹿嶋市鉢形台
3140034,茨城県,鹿嶋市,鉢形,イバラキケン,カシマシ,ハチガタ,茨城県鹿嶋市鉢形
3140035,茨城県,鹿嶋市,根三田,イバラキケン,カシマシ,ネサンダ,茨城県鹿嶋市根三田
3140036,茨城県,鹿嶋市,大船津,イバラキケン,カシマシ,オオフナツ,茨城県鹿嶋市大船津
3140037,茨城県,鹿嶋市,神野,イバラキケン,カシマシ,カノ,茨城県鹿嶋市神野
3140038,茨城県,鹿嶋市,城山,イバラキケン,カシマシ,シロヤマ,茨城県鹿嶋市城山
3140039,茨城県,鹿嶋市,緑ヶ丘,イバラキケン,カシマシ,ミドリガオカ,茨城県鹿嶋市緑ヶ丘
3140041,茨城県,鹿嶋市,沼尾,イバラキケン,カシマシ,ヌマオ,茨城県鹿嶋市沼尾
3140042,茨城県,鹿嶋市,田野辺,イバラキケン,カシマシ,タノベ,茨城県鹿嶋市田野辺
3140043,茨城県,鹿嶋市,田谷,イバラキケン,カシマシ,タヤ,茨城県鹿嶋市田谷
3140044,茨城県,鹿嶋市,猿田,イバラキケン,カシマシ,サルタ,茨城県鹿嶋市猿田
3140045,茨城県,鹿嶋市,山之上,イバラキケン,カシマシ,ヤマノウエ,茨城県鹿嶋市山之上
3140046,茨城県,鹿嶋市,爪木,イバラキケン,カシマシ,ツマギ,茨城県鹿嶋市爪木
3140047,茨城県,鹿嶋市,須賀,イバラキケン,カシマシ,スカ,茨城県鹿嶋市須賀
3140048,茨城県,鹿嶋市,田谷沼,イバラキケン,カシマシ,タヤヌマ,茨城県鹿嶋市田谷沼
3140051,茨城県,神栖市,光,イバラキケン,カミスシ,ヒカリ,茨城県神栖市光
3140052,茨城県,神栖市,居切（１９０１、１９０９−１６、１９０９−２０）,イバラキケン,カミスシ,イギリ(1901、1909-16、1909-20),茨城県神栖市居切（1901、1909-16、1909-20）
3140100,茨城県,神栖市,,イバラキケン,カミスシ,,茨城県神栖市
3140101,茨城県,神栖市,北浜,イバラキケン,カミスシ,キタハマ,茨城県神栖市北浜
3140102,茨城県,神栖市,東和田,イバラキケン,カミスシ,トウワダ,茨城県神栖市東和田
3140103,茨城県,神栖市,東深芝,イバラキケン,カミスシ,ヒガシフカシバ,茨城県神栖市東深芝
3140111,茨城県,神栖市,南浜,イバラキケン,カミスシ,ミナミハマ,茨城県神栖市南浜
3140112,茨城県,神栖市,知手中央,イバラキケン,カミスシ,シッテチュウオウ,茨城県神栖市知手中央
3140113,茨城県,神栖市,横瀬,イバラキケン,カミスシ,ヨコセ,茨城県神栖市横瀬
3140114,茨城県,神栖市,日川,イバラキケン,カミスシ,ニッカワ,茨城県神栖市日川
3140115,茨城県,神栖市,知手,イバラキケン,カミスシ,シッテ,茨城県神栖市知手
3140116,茨城県,神栖市,奥野谷,イバラキケン,カミスシ,オクノヤ,茨城県神栖市奥野谷
3140121,茨城県,神栖市,溝口,イバラキケン,カミスシ,ミゾグチ,茨城県神栖市溝口
3140122,茨城県,神栖市,萩原,イバラキケン,カミスシ,ハギワラ,茨城県神栖市萩原
3140123,茨城県,神栖市,芝崎,イバラキケン,カミスシ,シバサキ,茨城県神栖市芝崎
3140124,茨城県,神栖市,石神,イバラキケン,カミスシ,イシガミ,茨城県神栖市石神
3140125,茨城県,神栖市,高浜,イバラキケン,カミスシ,タカハマ,茨城県神栖市高浜
3140126,茨城県,神栖市,田畑,イバラキケン,カミスシ,タバタ,茨城県神栖市田畑
3140127,茨城県,神栖市,木崎,イバラキケン,カミスシ,キサキ,茨城県神栖市木崎
3140128,茨城県,神栖市,大野原中央,イバラキケン,カミスシ,オオノハラチュウオウ,茨城県神栖市大野原中央
3140131,茨城県,神栖市,下幡木,イバラキケン,カミスシ,シモハタキ,茨城県神栖市下幡木
3140132,茨城県,神栖市,筒井,イバラキケン,カミスシ,ツツイ,茨城県神栖市筒井
3140133,茨城県,神栖市,息栖,イバラキケン,カミスシ,イキス,茨城県神栖市息栖
3140134,茨城県,神栖市,賀,イバラキケン,カミスシ,ガ,茨城県神栖市賀
3140135,茨城県,神栖市,堀割,イバラキケン,カミスシ,ホリワリ,茨城県神栖市堀割
3140141,茨城県,神栖市,居切（その他）,イバラキケン,カミスシ,イギリ(ソノタ),茨城県神栖市居切（その他）
3140142,茨城県,神栖市,深芝南,イバラキケン,カミスシ,フカシバミナミ,茨城県神栖市深芝南
3140143,茨城県,神栖市,神栖,イバラキケン,カミスシ,カミス,茨城県神栖市神栖
3140144,茨城県,神栖市,大野原,イバラキケン,カミスシ,オオノハラ,茨城県神栖市大野原
3140145,茨城県,神栖市,平泉外１２入会,イバラキケン,カミスシ,ヒライズミソト12イリアイ,茨城県神栖市平泉外12入会
3140145,茨城県,神栖市,平泉東,イバラキケン,カミスシ,ヒライズミヒガシ,茨城県神栖市平泉東
3140146,茨城県,神栖市,平泉,イバラキケン,カミスシ,ヒライズミ,茨城県神栖市平泉
3140147,茨城県,神栖市,鰐川,イバラキケン,カミスシ,ワニガワ,茨城県神栖市鰐川
3140148,茨城県,神栖市,深芝,イバラキケン,カミスシ,フカシバ,茨城県神栖市深芝
3140252,茨城県,神栖市,柳川,イバラキケン,カミスシ,ヤナガワ,茨城県神栖市柳川
3140253,茨城県,神栖市,須田,イバラキケン,カミスシ,スダ,茨城県神栖市須田
3140254,茨城県,神栖市,太田,イバラキケン,カミスシ,オオタ,茨城県神栖市太田
3140255,茨城県,神栖市,砂山,イバラキケン,カミスシ,スナヤマ,茨城県神栖市砂山
3140256,茨城県,神栖市,若松中央,イバラキケン,カミスシ,ワカマツチュウオウ,茨城県神栖市若松中央
3140257,茨城県,神栖市,太田新町,イバラキケン,カミスシ,オオタシンマチ,茨城県神栖市太田新町
3140258,茨城県,神栖市,柳川中央,イバラキケン,カミスシ,ヤナガワチュウオウ,茨城県神栖市柳川中央
3140341,茨城県,神栖市,矢田部,イバラキケン,カミスシ,ヤタベ,茨城県神栖市矢田部
3140342,茨城県,神栖市,土合北,イバラキケン,カミスシ,ドアイキタ,茨城県神栖市土合北
3140343,茨城県,神栖市,土合本町,イバラキケン,カミスシ,ドアイホンチョウ,茨城県神栖市土合本町
3140344,茨城県,神栖市,土合東,イバラキケン,カミスシ,ドアイヒガシ,茨城県神栖市土合東
3140345,茨城県,神栖市,土合南,イバラキケン,カミスシ,ドアイミナミ,茨城県神栖市土合南
3140346,茨城県,神栖市,土合西,イバラキケン,カミスシ,ドアイニシ,茨城県神栖市土合西
3140347,茨城県,神栖市,土合中央,イバラキケン,カミスシ,ドアイチュウオウ,茨城県神栖市土合中央
3140407,茨城県,神栖市,波崎新港,イバラキケン,カミスシ,ハサキシンコウ,茨城県神栖市波崎新港
3140408,茨城県,神栖市,波崎,イバラキケン,カミスシ,ハサキ,茨城県神栖市波崎
3150000,茨城県,かすみがうら市,,イバラキケン,カスミガウラシ,,茨城県かすみがうら市
3150000,茨城県,石岡市,,イバラキケン,イシオカシ,,茨城県石岡市
3150001,茨城県,石岡市,石岡,イバラキケン,イシオカシ,イシオカ,茨城県石岡市石岡
3150002,茨城県,石岡市,柏原,イバラキケン,イシオカシ,カシワバラ,茨城県石岡市柏原
3150003,茨城県,石岡市,谷向町,イバラキケン,イシオカシ,ヤムカイチョウ,茨城県石岡市谷向町
3150004,茨城県,石岡市,柏原町,イバラキケン,イシオカシ,カシワバラチョウ,茨城県石岡市柏原町
3150005,茨城県,石岡市,鹿の子,イバラキケン,イシオカシ,カノコ,茨城県石岡市鹿の子
3150006,茨城県,石岡市,並木,イバラキケン,イシオカシ,ナミキ,茨城県石岡市並木
3150007,茨城県,石岡市,染谷,イバラキケン,イシオカシ,ソメヤ,茨城県石岡市染谷
3150008,茨城県,石岡市,村上,イバラキケン,イシオカシ,ムラカミ,茨城県石岡市村上
3150009,茨城県,石岡市,大砂,イバラキケン,イシオカシ,オオスナ,茨城県石岡市大砂
3150010,茨城県,石岡市,碁石沢,イバラキケン,イシオカシ,ゴイシザワ,茨城県石岡市碁石沢
3150011,茨城県,石岡市,正上内,イバラキケン,イシオカシ,ショウジョウウチ,茨城県石岡市正上内
3150012,茨城県,石岡市,北府中,イバラキケン,イシオカシ,キタフチュウ,茨城県石岡市北府中
3150013,茨城県,石岡市,府中,イバラキケン,イシオカシ,フチュウ,茨城県石岡市府中
3150014,茨城県,石岡市,国府,イバラキケン,イシオカシ,コクフ,茨城県石岡市国府
3150015,茨城県,石岡市,貝地,イバラキケン,イシオカシ,カイジ,茨城県石岡市貝地
3150016,茨城県,石岡市,総社,イバラキケン,イシオカシ,ソウシャ,茨城県石岡市総社
3150017,茨城県,石岡市,若宮,イバラキケン,イシオカシ,ワカミヤ,茨城県石岡市若宮
3150018,茨城県,石岡市,若松,イバラキケン,イシオカシ,ワカマツ,茨城県石岡市若松
3150019,茨城県,石岡市,栄松,イバラキケン,イシオカシ,サカエマツ,茨城県石岡市栄松
3150021,茨城県,石岡市,荒金,イバラキケン,イシオカシ,アラガネ,茨城県石岡市荒金
3150022,茨城県,石岡市,行里川,イバラキケン,イシオカシ,ナメリカワ,茨城県石岡市行里川
3150023,茨城県,石岡市,東府中,イバラキケン,イシオカシ,ヒガシフチュウ,茨城県石岡市東府中
3150024,茨城県,石岡市,八軒台,イバラキケン,イシオカシ,ハチケンダイ,茨城県石岡市八軒台
3150025,茨城県,石岡市,泉町,イバラキケン,イシオカシ,イズミチョウ,茨城県石岡市泉町
3150026,茨城県,石岡市,杉の井,イバラキケン,イシオカシ,スギノイ,茨城県石岡市杉の井
3150027,茨城県,石岡市,杉並,イバラキケン,イシオカシ,スギナミ,茨城県石岡市杉並
3150028,茨城県,石岡市,半ノ木,イバラキケン,イシオカシ,ハンノキ,茨城県石岡市半ノ木
3150029,茨城県,石岡市,根当,イバラキケン,イシオカシ,ネアタリ,茨城県石岡市根当
3150030,茨城県,石岡市,池の台,イバラキケン,イシオカシ,イケノダイ,茨城県石岡市池の台
3150031,茨城県,石岡市,東大橋,イバラキケン,イシオカシ,ヒガシオオハシ,茨城県石岡市東大橋
3150032,茨城県,石岡市,小井戸,イバラキケン,イシオカシ,コイド,茨城県石岡市小井戸
3150033,茨城県,石岡市,東光台,イバラキケン,イシオカシ,トウコウダイ,茨城県石岡市東光台
3150034,茨城県,石岡市,東田中,イバラキケン,イシオカシ,ヒガシタナカ,茨城県石岡市東田中
3150035,茨城県,石岡市,南台,イバラキケン,イシオカシ,ミナミダイ,茨城県石岡市南台
3150036,茨城県,石岡市,大谷津,イバラキケン,イシオカシ,オオヤツ,茨城県石岡市大谷津
3150037,茨城県,石岡市,東石岡,イバラキケン,イシオカシ,ヒガシイシオカ,茨城県石岡市東石岡
3150038,茨城県,石岡市,旭台,イバラキケン,イシオカシ,アサヒダイ,茨城県石岡市旭台
3150041,茨城県,石岡市,田島,イバラキケン,イシオカシ,タジマ,茨城県石岡市田島
3150042,茨城県,石岡市,茨城,イバラキケン,イシオカシ,バラキ,茨城県石岡市茨城
3150043,茨城県,石岡市,中津川,イバラキケン,イシオカシ,ナカツガワ,茨城県石岡市中津川
3150044,茨城県,石岡市,北根本,イバラキケン,イシオカシ,キタネモト,茨城県石岡市北根本
3150045,茨城県,石岡市,高浜,イバラキケン,イシオカシ,タカハマ,茨城県石岡市高浜
3150046,茨城県,石岡市,石川,イバラキケン,イシオカシ,イシカワ,茨城県石岡市石川
3150047,茨城県,石岡市,井関,イバラキケン,イシオカシ,イセキ,茨城県石岡市井関
3150048,茨城県,石岡市,三村,イバラキケン,イシオカシ,ミムラ,茨城県石岡市三村
3150051,茨城県,かすみがうら市,新治,イバラキケン,カスミガウラシ,ニイハリ,茨城県かすみがうら市新治
3150052,茨城県,かすみがうら市,下稲吉,イバラキケン,カスミガウラシ,シモイナヨシ,茨城県かすみがうら市下稲吉
3150053,茨城県,かすみがうら市,稲吉東,イバラキケン,カスミガウラシ,イナヨシヒガシ,茨城県かすみがうら市稲吉東
3150054,茨城県,かすみがうら市,稲吉,イバラキケン,カスミガウラシ,イナヨシ,茨城県かすみがうら市稲吉
3150055,茨城県,かすみがうら市,稲吉南,イバラキケン,カスミガウラシ,イナヨシミナミ,茨城県かすみがうら市稲吉南
3150056,茨城県,かすみがうら市,上稲吉,イバラキケン,カスミガウラシ,カミイナヨシ,茨城県かすみがうら市上稲吉
3150057,茨城県,かすみがうら市,上土田,イバラキケン,カスミガウラシ,カミツチダ,茨城県かすみがうら市上土田
3150058,茨城県,かすみがうら市,下土田,イバラキケン,カスミガウラシ,シモツチダ,茨城県かすみがうら市下土田
3150061,茨城県,かすみがうら市,五反田,イバラキケン,カスミガウラシ,ゴタンダ,茨城県かすみがうら市五反田
3150062,茨城県,かすみがうら市,横堀,イバラキケン,カスミガウラシ,ヨコボリ,茨城県かすみがうら市横堀
3150063,茨城県,かすみがうら市,飯田,イバラキケン,カスミガウラシ,イイダ,茨城県かすみがうら市飯田
3150064,茨城県,かすみがうら市,大峰,イバラキケン,カスミガウラシ,オオミネ,茨城県かすみがうら市大峰
3150065,茨城県,かすみがうら市,上佐谷,イバラキケン,カスミガウラシ,カミサヤ,茨城県かすみがうら市上佐谷
3150066,茨城県,かすみがうら市,中佐谷,イバラキケン,カスミガウラシ,ナカサヤ,茨城県かすみがうら市中佐谷
3150067,茨城県,かすみがうら市,下佐谷,イバラキケン,カスミガウラシ,シモサヤ,茨城県かすみがうら市下佐谷
3150068,茨城県,かすみがうら市,山本,イバラキケン,カスミガウラシ,ヤマモト,茨城県かすみがうら市山本
3150069,茨城県,かすみがうら市,雪入,イバラキケン,カスミガウラシ,ユキイリ,茨城県かすみがうら市雪入
3150071,茨城県,かすみがうら市,市川,イバラキケン,カスミガウラシ,イチカワ,茨城県かすみがうら市市川
3150072,茨城県,かすみがうら市,東野寺,イバラキケン,カスミガウラシ,ヒガシノデラ,茨城県かすみがうら市東野寺
3150073,茨城県,かすみがうら市,西野寺,イバラキケン,カスミガウラシ,ニシノデラ,茨城県かすみがうら市西野寺
3150074,茨城県,かすみがうら市,下志筑,イバラキケン,カスミガウラシ,シモシヅク,茨城県かすみがうら市下志筑
3150075,茨城県,かすみがうら市,中志筑,イバラキケン,カスミガウラシ,ナカシヅク,茨城県かすみがうら市中志筑
3150076,茨城県,かすみがうら市,上志筑,イバラキケン,カスミガウラシ,カミシヅク,茨城県かすみがうら市上志筑
3150077,茨城県,かすみがうら市,高倉,イバラキケン,カスミガウラシ,タカクラ,茨城県かすみがうら市高倉
3150078,茨城県,かすみがうら市,粟田,イバラキケン,カスミガウラシ,アワダ,茨城県かすみがうら市粟田
3150101,茨城県,石岡市,大増,イバラキケン,イシオカシ,オオマス,茨城県石岡市大増
3150102,茨城県,石岡市,太田,イバラキケン,イシオカシ,オオタ,茨城県石岡市太田
3150103,茨城県,石岡市,中戸,イバラキケン,イシオカシ,ナカド,茨城県石岡市中戸
3150104,茨城県,石岡市,小見,イバラキケン,イシオカシ,オミ,茨城県石岡市小見
3150105,茨城県,石岡市,大塚,イバラキケン,イシオカシ,オオツカ,茨城県石岡市大塚
3150111,茨城県,石岡市,瓦谷,イバラキケン,イシオカシ,カワラヤ,茨城県石岡市瓦谷
3150112,茨城県,石岡市,部原,イバラキケン,イシオカシ,ヘバラ,茨城県石岡市部原
3150113,茨城県,石岡市,片岡,イバラキケン,イシオカシ,カタオカ,茨城県石岡市片岡
3150114,茨城県,石岡市,嘉良寿理,イバラキケン,イシオカシ,カラスリ,茨城県石岡市嘉良寿理
3150115,茨城県,石岡市,浦須,イバラキケン,イシオカシ,ウラス,茨城県石岡市浦須
3150116,茨城県,石岡市,柿岡,イバラキケン,イシオカシ,カキオカ,茨城県石岡市柿岡
3150117,茨城県,石岡市,佐久,イバラキケン,イシオカシ,サク,茨城県石岡市佐久
3150118,茨城県,石岡市,野田,イバラキケン,イシオカシ,ノダ,茨城県石岡市野田
3150121,茨城県,石岡市,真家,イバラキケン,イシオカシ,マイエ,茨城県石岡市真家
3150122,茨城県,石岡市,東成井,イバラキケン,イシオカシ,ヒガシナルイ,茨城県石岡市東成井
3150123,茨城県,石岡市,宮ケ崎,イバラキケン,イシオカシ,ミヤガサキ,茨城県石岡市宮ケ崎
3150124,茨城県,石岡市,柴間,イバラキケン,イシオカシ,シバマ,茨城県石岡市柴間
3150125,茨城県,石岡市,山崎,イバラキケン,イシオカシ,ヤマザキ,茨城県石岡市山崎
3150131,茨城県,石岡市,下林,イバラキケン,イシオカシ,シモバヤシ,茨城県石岡市下林
3150132,茨城県,石岡市,根小屋,イバラキケン,イシオカシ,ネゴヤ,茨城県石岡市根小屋
3150133,茨城県,石岡市,半田,イバラキケン,イシオカシ,ハンダ,茨城県石岡市半田
3150134,茨城県,石岡市,川又,イバラキケン,イシオカシ,カワマタ,茨城県石岡市川又
3150135,茨城県,石岡市,加生野,イバラキケン,イシオカシ,カヨウノ,茨城県石岡市加生野
3150136,茨城県,石岡市,片野,イバラキケン,イシオカシ,カタノ,茨城県石岡市片野
3150137,茨城県,石岡市,金指,イバラキケン,イシオカシ,カナサシ,茨城県石岡市金指
3150138,茨城県,石岡市,上林,イバラキケン,イシオカシ,カミバヤシ,茨城県石岡市上林
3150141,茨城県,石岡市,月岡,イバラキケン,イシオカシ,ツキオカ,茨城県石岡市月岡
3150142,茨城県,石岡市,弓弦,イバラキケン,イシオカシ,ユヅリ,茨城県石岡市弓弦
3150143,茨城県,石岡市,柴内,イバラキケン,イシオカシ,シバウチ,茨城県石岡市柴内
3150144,茨城県,石岡市,小野越,イバラキケン,イシオカシ,オノゴエ,茨城県石岡市小野越
3150145,茨城県,石岡市,仏生寺,イバラキケン,イシオカシ,ブッショウジ,茨城県石岡市仏生寺
3150146,茨城県,石岡市,菖蒲沢,イバラキケン,イシオカシ,ショウブザワ,茨城県石岡市菖蒲沢
3150147,茨城県,石岡市,辻,イバラキケン,イシオカシ,ツジ,茨城県石岡市辻
3150148,茨城県,石岡市,青田,イバラキケン,イシオカシ,アオタ,茨城県石岡市青田
3150151,茨城県,石岡市,須釜,イバラキケン,イシオカシ,スガマ,茨城県石岡市須釜
3150152,茨城県,石岡市,細谷,イバラキケン,イシオカシ,ホソヤ,茨城県石岡市細谷
3150153,茨城県,石岡市,下青柳,イバラキケン,イシオカシ,シモアオヤギ,茨城県石岡市下青柳
3150154,茨城県,石岡市,上青柳,イバラキケン,イシオカシ,カミアオヤギ,茨城県石岡市上青柳
3150155,茨城県,石岡市,小幡,イバラキケン,イシオカシ,オバタ,茨城県石岡市小幡
3150156,茨城県,石岡市,吉生,イバラキケン,イシオカシ,ヨシウ,茨城県石岡市吉生
3150157,茨城県,石岡市,上曽,イバラキケン,イシオカシ,ウワソ,茨城県石岡市上曽
3150161,茨城県,石岡市,小塙,イバラキケン,イシオカシ,コバナ,茨城県石岡市小塙
3150162,茨城県,石岡市,宇治会,イバラキケン,イシオカシ,ウジエ,茨城県石岡市宇治会
3150163,茨城県,石岡市,鯨岡,イバラキケン,イシオカシ,クジラオカ,茨城県石岡市鯨岡
3150164,茨城県,石岡市,小屋,イバラキケン,イシオカシ,コヤ,茨城県石岡市小屋
3150165,茨城県,石岡市,小倉,イバラキケン,イシオカシ,オグラ,茨城県石岡市小倉
3150166,茨城県,石岡市,小山田,イバラキケン,イシオカシ,オヤマダ,茨城県石岡市小山田
3150167,茨城県,石岡市,龍明,イバラキケン,イシオカシ,リュウメイ,茨城県石岡市龍明
3160001,茨城県,日立市,諏訪町,イバラキケン,ヒタチシ,スワチョウ,茨城県日立市諏訪町
3160002,茨城県,日立市,桜川町,イバラキケン,ヒタチシ,サクラガワチョウ,茨城県日立市桜川町
3160003,茨城県,日立市,多賀町,イバラキケン,ヒタチシ,タガチョウ,茨城県日立市多賀町
3160004,茨城県,日立市,東多賀町,イバラキケン,ヒタチシ,ヒガシタガチョウ,茨城県日立市東多賀町
3160005,茨城県,日立市,河原子町,イバラキケン,ヒタチシ,カワラゴチョウ,茨城県日立市河原子町
3160006,茨城県,日立市,末広町,イバラキケン,ヒタチシ,スエヒロチョウ,茨城県日立市末広町
3160007,茨城県,日立市,中丸町,イバラキケン,ヒタチシ,ナカマルチョウ,茨城県日立市中丸町
3160011,茨城県,日立市,塙山町,イバラキケン,ヒタチシ,ハナヤマチョウ,茨城県日立市塙山町
3160012,茨城県,日立市,大久保町,イバラキケン,ヒタチシ,オオクボチョウ,茨城県日立市大久保町
3160013,茨城県,日立市,千石町,イバラキケン,ヒタチシ,チコクチョウ,茨城県日立市千石町
3160014,茨城県,日立市,東金沢町,イバラキケン,ヒタチシ,ヒガシカネサワチョウ,茨城県日立市東金沢町
3160015,茨城県,日立市,金沢町,イバラキケン,ヒタチシ,カネサワチョウ,茨城県日立市金沢町
3160021,茨城県,日立市,台原町,イバラキケン,ヒタチシ,ダイハラチョウ,茨城県日立市台原町
3160022,茨城県,日立市,大沼町,イバラキケン,ヒタチシ,オオヌマチョウ,茨城県日立市大沼町
3160023,茨城県,日立市,東大沼町,イバラキケン,ヒタチシ,ヒガシオオヌマチョウ,茨城県日立市東大沼町
3160024,茨城県,日立市,水木町,イバラキケン,ヒタチシ,ミズキチョウ,茨城県日立市水木町
3160025,茨城県,日立市,森山町,イバラキケン,ヒタチシ,モリヤマチョウ,茨城県日立市森山町
3160026,茨城県,日立市,みかの原町,イバラキケン,ヒタチシ,ミカノハラチョウ,茨城県日立市みかの原町
3160031,茨城県,日立市,成沢町,イバラキケン,ヒタチシ,ナルサワチョウ,茨城県日立市成沢町
3160032,茨城県,日立市,西成沢町,イバラキケン,ヒタチシ,ニシナルサワチョウ,茨城県日立市西成沢町
3160033,茨城県,日立市,中成沢町,イバラキケン,ヒタチシ,ナカナルサワチョウ,茨城県日立市中成沢町
3160034,茨城県,日立市,東成沢町,イバラキケン,ヒタチシ,ヒガシナルサワチョウ,茨城県日立市東成沢町
3160035,茨城県,日立市,国分町,イバラキケン,ヒタチシ,コクブチョウ,茨城県日立市国分町
3160036,茨城県,日立市,鮎川町,イバラキケン,ヒタチシ,アユカワチョウ,茨城県日立市鮎川町
3170000,茨城県,日立市,,イバラキケン,ヒタチシ,,茨城県日立市
3170051,茨城県,日立市,滑川本町,イバラキケン,ヒタチシ,ナメカワホンチョウ,茨城県日立市滑川本町
3170052,茨城県,日立市,東滑川町,イバラキケン,ヒタチシ,ヒガシナメカワチョウ,茨城県日立市東滑川町
3170053,茨城県,日立市,滑川町,イバラキケン,ヒタチシ,ナメカワチョウ,茨城県日立市滑川町
3170054,茨城県,日立市,本宮町,イバラキケン,ヒタチシ,モトミヤチョウ,茨城県日立市本宮町
3170055,茨城県,日立市,宮田町,イバラキケン,ヒタチシ,ミヤタチョウ,茨城県日立市宮田町
3170056,茨城県,日立市,白銀町,イバラキケン,ヒタチシ,シロガネチョウ,茨城県日立市白銀町
3170061,茨城県,日立市,東町,イバラキケン,ヒタチシ,ヒガシチョウ,茨城県日立市東町
3170062,茨城県,日立市,平和町,イバラキケン,ヒタチシ,ヘイワチョウ,茨城県日立市平和町
3170063,茨城県,日立市,若葉町,イバラキケン,ヒタチシ,ワカバチョウ,茨城県日立市若葉町
3170064,茨城県,日立市,神峰町,イバラキケン,ヒタチシ,カミネチョウ,茨城県日立市神峰町
3170065,茨城県,日立市,助川町,イバラキケン,ヒタチシ,スケガワチョウ,茨城県日立市助川町
3170066,茨城県,日立市,高鈴町,イバラキケン,ヒタチシ,タカスズチョウ,茨城県日立市高鈴町
3170071,茨城県,日立市,鹿島町,イバラキケン,ヒタチシ,カシマチョウ,茨城県日立市鹿島町
3170072,茨城県,日立市,弁天町,イバラキケン,ヒタチシ,ベンテンチョウ,茨城県日立市弁天町
3170073,茨城県,日立市,幸町,イバラキケン,ヒタチシ,サイワイチョウ,茨城県日立市幸町
3170074,茨城県,日立市,旭町,イバラキケン,ヒタチシ,アサヒチョウ,茨城県日立市旭町
3170075,茨城県,日立市,相賀町,イバラキケン,ヒタチシ,アイガチョウ,茨城県日立市相賀町
3170076,茨城県,日立市,会瀬町,イバラキケン,ヒタチシ,オウセチョウ,茨城県日立市会瀬町
3170077,茨城県,日立市,城南町,イバラキケン,ヒタチシ,ジョウナンチョウ,茨城県日立市城南町
3180000,茨城県,高萩市,,イバラキケン,タカハギシ,,茨城県高萩市
3180001,茨城県,高萩市,赤浜,イバラキケン,タカハギシ,アカハマ,茨城県高萩市赤浜
3180002,茨城県,高萩市,高戸,イバラキケン,タカハギシ,タカド,茨城県高萩市高戸
3180003,茨城県,高萩市,下手綱,イバラキケン,タカハギシ,シモテヅナ,茨城県高萩市下手綱
3180004,茨城県,高萩市,上手綱,イバラキケン,タカハギシ,カミテヅナ,茨城県高萩市上手綱
3180005,茨城県,高萩市,望海,イバラキケン,タカハギシ,ボウカイ,茨城県高萩市望海
3180011,茨城県,高萩市,肥前町,イバラキケン,タカハギシ,ヒゼンチョウ,茨城県高萩市肥前町
3180012,茨城県,高萩市,有明町,イバラキケン,タカハギシ,アリアケチョウ,茨城県高萩市有明町
3180013,茨城県,高萩市,高浜町,イバラキケン,タカハギシ,タカハマチョウ,茨城県高萩市高浜町
3180014,茨城県,高萩市,東本町,イバラキケン,タカハギシ,ヒガシホンチョウ,茨城県高萩市東本町
3180021,茨城県,高萩市,安良川,イバラキケン,タカハギシ,アラカワ,茨城県高萩市安良川
3180022,茨城県,高萩市,石滝,イバラキケン,タカハギシ,イシタキ,茨城県高萩市石滝
3180023,茨城県,高萩市,島名,イバラキケン,タカハギシ,シマナ,茨城県高萩市島名
3180024,茨城県,高萩市,秋山,イバラキケン,タカハギシ,アキヤマ,茨城県高萩市秋山
3180025,茨城県,高萩市,福平,イバラキケン,タカハギシ,フクダイラ,茨城県高萩市福平
3180031,茨城県,高萩市,春日町,イバラキケン,タカハギシ,カスガチョウ,茨城県高萩市春日町
3180032,茨城県,高萩市,大和町,イバラキケン,タカハギシ,ヤマトチョウ,茨城県高萩市大和町
3180033,茨城県,高萩市,本町,イバラキケン,タカハギシ,ホンチョウ,茨城県高萩市本町
3180034,茨城県,高萩市,高萩,イバラキケン,タカハギシ,タカハギ,茨城県高萩市高萩
3180101,茨城県,高萩市,横川,イバラキケン,タカハギシ,ヨコカワ,茨城県高萩市横川
3180102,茨城県,高萩市,若栗,イバラキケン,タカハギシ,ワカグリ,茨城県高萩市若栗
3180103,茨城県,高萩市,大能,イバラキケン,タカハギシ,オオノ,茨城県高萩市大能
3180104,茨城県,高萩市,中戸川,イバラキケン,タカハギシ,ナカドガワ,茨城県高萩市中戸川
3180105,茨城県,高萩市,上君田,イバラキケン,タカハギシ,カミキミダ,茨城県高萩市上君田
3180106,茨城県,高萩市,下君田,イバラキケン,タカハギシ,シモキミダ,茨城県高萩市下君田
3190100,茨城県,小美玉市,,イバラキケン,オミタマシ,,茨城県小美玉市
3190101,茨城県,小美玉市,橋場美,イバラキケン,オミタマシ,ハシバミ,茨城県小美玉市橋場美
3190102,茨城県,小美玉市,西郷地,イバラキケン,オミタマシ,サイゴウチ,茨城県小美玉市西郷地
3190103,茨城県,小美玉市,柴高,イバラキケン,オミタマシ,シバタカ,茨城県小美玉市柴高
3190104,茨城県,小美玉市,三箇,イバラキケン,オミタマシ,サンガ,茨城県小美玉市三箇
3190105,茨城県,小美玉市,鶴田,イバラキケン,オミタマシ,ツルタ,茨城県小美玉市鶴田
3190106,茨城県,小美玉市,堅倉,イバラキケン,オミタマシ,カタクラ,茨城県小美玉市堅倉
3190107,茨城県,小美玉市,小岩戸,イバラキケン,オミタマシ,コイワト,茨城県小美玉市小岩戸
3190108,茨城県,小美玉市,先後,イバラキケン,オミタマシ,マツノチ,茨城県小美玉市先後
3190111,茨城県,小美玉市,中野谷,イバラキケン,オミタマシ,ナカノヤ,茨城県小美玉市中野谷
3190112,茨城県,小美玉市,竹原下郷,イバラキケン,オミタマシ,タケハラシモゴウ,茨城県小美玉市竹原下郷
3190113,茨城県,小美玉市,竹原,イバラキケン,オミタマシ,タケハラ,茨城県小美玉市竹原
3190114,茨城県,小美玉市,竹原中郷,イバラキケン,オミタマシ,タケハラナカゴウ,茨城県小美玉市竹原中郷
3190115,茨城県,小美玉市,上馬場,イバラキケン,オミタマシ,カミババ,茨城県小美玉市上馬場
3190116,茨城県,小美玉市,中台,イバラキケン,オミタマシ,ナカダイ,茨城県小美玉市中台
3190121,茨城県,小美玉市,羽刈,イバラキケン,オミタマシ,ハカリ,茨城県小美玉市羽刈
3190122,茨城県,小美玉市,江戸,イバラキケン,オミタマシ,エド,茨城県小美玉市江戸
3190123,茨城県,小美玉市,羽鳥,イバラキケン,オミタマシ,ハトリ,茨城県小美玉市羽鳥
3190124,茨城県,小美玉市,花野井,イバラキケン,オミタマシ,ハナノイ,茨城県小美玉市花野井
3190125,茨城県,小美玉市,小曽納,イバラキケン,オミタマシ,オソノウ,茨城県小美玉市小曽納
3190126,茨城県,小美玉市,大谷,イバラキケン,オミタマシ,オオヤ,茨城県小美玉市大谷
3190131,茨城県,小美玉市,寺崎,イバラキケン,オミタマシ,テラザキ,茨城県小美玉市寺崎
3190132,茨城県,小美玉市,部室,イバラキケン,オミタマシ,ヘムロ,茨城県小美玉市部室
3190133,茨城県,小美玉市,張星,イバラキケン,オミタマシ,ハリホシ,茨城県小美玉市張星
3190134,茨城県,小美玉市,納場,イバラキケン,オミタマシ,ノウバ,茨城県小美玉市納場
3190135,茨城県,小美玉市,高田,イバラキケン,オミタマシ,タカダ,茨城県小美玉市高田
3190136,茨城県,小美玉市,手堤,イバラキケン,オミタマシ,テツヅミ,茨城県小美玉市手堤
3190137,茨城県,小美玉市,大笹,イバラキケン,オミタマシ,オオザサ,茨城県小美玉市大笹
3190201,茨城県,笠間市,上郷,イバラキケン,カサマシ,カミゴウ,茨城県笠間市上郷
3190202,茨城県,笠間市,下郷,イバラキケン,カサマシ,シモゴウ,茨城県笠間市下郷
3190203,茨城県,笠間市,吉岡,イバラキケン,カサマシ,ヨシオカ,茨城県笠間市吉岡
3190204,茨城県,笠間市,土師,イバラキケン,カサマシ,ハジ,茨城県笠間市土師
3190205,茨城県,笠間市,押辺,イバラキケン,カサマシ,オシノベ,茨城県笠間市押辺
3190206,茨城県,笠間市,安居,イバラキケン,カサマシ,アゴ,茨城県笠間市安居
3190207,茨城県,笠間市,福島,イバラキケン,カサマシ,フクシマ,茨城県笠間市福島
3190208,茨城県,笠間市,市野谷,イバラキケン,カサマシ,イチノヤ,茨城県笠間市市野谷
3190209,茨城県,笠間市,泉,イバラキケン,カサマシ,イズミ,茨城県笠間市泉
3190211,茨城県,笠間市,泉市野谷入会地,イバラキケン,カサマシ,イズミイチノヤイリアイチ,茨城県笠間市泉市野谷入会地
3190301,茨城県,水戸市,田島町,イバラキケン,ミトシ,タジマチョウ,茨城県水戸市田島町
3190302,茨城県,水戸市,三野輪町,イバラキケン,ミトシ,ミノワチョウ,茨城県水戸市三野輪町
3190303,茨城県,水戸市,黒磯町,イバラキケン,ミトシ,クロイソチョウ,茨城県水戸市黒磯町
3190304,茨城県,水戸市,有賀町,イバラキケン,ミトシ,アリガチョウ,茨城県水戸市有賀町
3190305,茨城県,水戸市,中原町,イバラキケン,ミトシ,ナカハラチョウ,茨城県水戸市中原町
3190306,茨城県,水戸市,杉崎町,イバラキケン,ミトシ,スギサキチョウ,茨城県水戸市杉崎町
3190307,茨城県,水戸市,小原町,イバラキケン,ミトシ,オバラチョウ,茨城県水戸市小原町
3190311,茨城県,水戸市,牛伏町,イバラキケン,ミトシ,ウシブシチョウ,茨城県水戸市牛伏町
3190312,茨城県,水戸市,大足町,イバラキケン,ミトシ,オオダラチョウ,茨城県水戸市大足町
3190313,茨城県,水戸市,筑地町,イバラキケン,ミトシ,ツイジチョウ,茨城県水戸市筑地町
3190314,茨城県,水戸市,赤尾関町,イバラキケン,ミトシ,アカオセキチョウ,茨城県水戸市赤尾関町
3190315,茨城県,水戸市,内原町,イバラキケン,ミトシ,ウチハラチョウ,茨城県水戸市内原町
3190316,茨城県,水戸市,三湯町,イバラキケン,ミトシ,ミユチョウ,茨城県水戸市三湯町
3190317,茨城県,水戸市,内原,イバラキケン,ミトシ,ウチハラ,茨城県水戸市内原
3190321,茨城県,水戸市,高田町,イバラキケン,ミトシ,タカダチョウ,茨城県水戸市高田町
3190322,茨城県,水戸市,下野町,イバラキケン,ミトシ,シモノチョウ,茨城県水戸市下野町
3190323,茨城県,水戸市,鯉淵町,イバラキケン,ミトシ,コイブチチョウ,茨城県水戸市鯉淵町
3190324,茨城県,水戸市,五平町,イバラキケン,ミトシ,ゴヘイチョウ,茨城県水戸市五平町
3190325,茨城県,水戸市,小林町,イバラキケン,ミトシ,コバヤシチョウ,茨城県水戸市小林町
3191100,茨城県,那珂郡東海村,,イバラキケン,ナカグントウカイムラ,,茨城県那珂郡東海村
3191101,茨城県,那珂郡東海村,石神外宿,イバラキケン,ナカグントウカイムラ,イシガミトジュク,茨城県那珂郡東海村石神外宿
3191102,茨城県,那珂郡東海村,石神内宿,イバラキケン,ナカグントウカイムラ,イシガミウチジュク,茨城県那珂郡東海村石神内宿
3191103,茨城県,那珂郡東海村,竹瓦,イバラキケン,ナカグントウカイムラ,タケガワラ,茨城県那珂郡東海村竹瓦
3191104,茨城県,那珂郡東海村,亀下,イバラキケン,ナカグントウカイムラ,カメシタ,茨城県那珂郡東海村亀下
3191105,茨城県,那珂郡東海村,豊岡,イバラキケン,ナカグントウカイムラ,トヨオカ,茨城県那珂郡東海村豊岡
3191106,茨城県,那珂郡東海村,白方,イバラキケン,ナカグントウカイムラ,シラカタ,茨城県那珂郡東海村白方
3191107,茨城県,那珂郡東海村,豊白,イバラキケン,ナカグントウカイムラ,トヨシロ,茨城県那珂郡東海村豊白
3191108,茨城県,那珂郡東海村,村松北,イバラキケン,ナカグントウカイムラ,ムラマツキタ,茨城県那珂郡東海村村松北
3191109,茨城県,那珂郡東海村,白方中央,イバラキケン,ナカグントウカイムラ,シラカタチュウオウ,茨城県那珂郡東海村白方中央
3191111,茨城県,那珂郡東海村,舟石川,イバラキケン,ナカグントウカイムラ,フナイシカワ,茨城県那珂郡東海村舟石川
3191112,茨城県,那珂郡東海村,村松,イバラキケン,ナカグントウカイムラ,ムラマツ,茨城県那珂郡東海村村松
3191113,茨城県,那珂郡東海村,照沼,イバラキケン,ナカグントウカイムラ,テルヌマ,茨城県那珂郡東海村照沼
3191114,茨城県,那珂郡東海村,須和間,イバラキケン,ナカグントウカイムラ,スワマ,茨城県那珂郡東海村須和間
3191115,茨城県,那珂郡東海村,船場,イバラキケン,ナカグントウカイムラ,フナバ,茨城県那珂郡東海村船場
3191116,茨城県,那珂郡東海村,舟石川駅西,イバラキケン,ナカグントウカイムラ,フナイシカワエキニシ,茨城県那珂郡東海村舟石川駅西
3191117,茨城県,那珂郡東海村,東海,イバラキケン,ナカグントウカイムラ,トウカイ,茨城県那珂郡東海村東海
3191118,茨城県,那珂郡東海村,舟石川駅東,イバラキケン,ナカグントウカイムラ,フナイシカワエキヒガシ,茨城県那珂郡東海村舟石川駅東
3191119,茨城県,那珂郡東海村,大山台,イバラキケン,ナカグントウカイムラ,オオヤマダイ,茨城県那珂郡東海村大山台
3191221,茨城県,日立市,大みか町,イバラキケン,ヒタチシ,オオミカチョウ,茨城県日立市大みか町
3191222,茨城県,日立市,久慈町,イバラキケン,ヒタチシ,クジチョウ,茨城県日立市久慈町
3191223,茨城県,日立市,みなと町,イバラキケン,ヒタチシ,ミナトチョウ,茨城県日立市みなと町
3191224,茨城県,日立市,南高野町,イバラキケン,ヒタチシ,ミナミコウヤチョウ,茨城県日立市南高野町
3191225,茨城県,日立市,石名坂町,イバラキケン,ヒタチシ,イシナザカチョウ,茨城県日立市石名坂町
3191231,茨城県,日立市,留町,イバラキケン,ヒタチシ,トメチョウ,茨城県日立市留町
3191232,茨城県,日立市,下土木内町,イバラキケン,ヒタチシ,シモドギウチチョウ,茨城県日立市下土木内町
3191233,茨城県,日立市,神田町,イバラキケン,ヒタチシ,カンダチョウ,茨城県日立市神田町
3191234,茨城県,日立市,大和田町,イバラキケン,ヒタチシ,オオワダチョウ,茨城県日立市大和田町
3191235,茨城県,日立市,茂宮町,イバラキケン,ヒタチシ,モミヤチョウ,茨城県日立市茂宮町
3191301,茨城県,日立市,十王町伊師,イバラキケン,ヒタチシ,ジュウオウチョウイシ,茨城県日立市十王町伊師
3191302,茨城県,日立市,十王町伊師本郷,イバラキケン,ヒタチシ,ジュウオウチョウイシホンゴウ,茨城県日立市十王町伊師本郷
3191303,茨城県,日立市,十王町友部東,イバラキケン,ヒタチシ,ジュウオウチョウトモベヒガシ,茨城県日立市十王町友部東
3191304,茨城県,日立市,十王町友部,イバラキケン,ヒタチシ,ジュウオウチョウトモベ,茨城県日立市十王町友部
3191305,茨城県,日立市,十王町高原,イバラキケン,ヒタチシ,ジュウオウチョウタカハラ,茨城県日立市十王町高原
3191306,茨城県,日立市,十王町黒坂,イバラキケン,ヒタチシ,ジュウオウチョウクロサカ,茨城県日立市十王町黒坂
3191307,茨城県,日立市,十王町山部,イバラキケン,ヒタチシ,ジュウオウチョウヤマベ,茨城県日立市十王町山部
3191308,茨城県,日立市,十王町城の丘,イバラキケン,ヒタチシ,ジュウオウチョウシロノオカ,茨城県日立市十王町城の丘
3191411,茨城県,日立市,川尻町,イバラキケン,ヒタチシ,カワジリチョウ,茨城県日立市川尻町
3191412,茨城県,日立市,折笠町,イバラキケン,ヒタチシ,オリカサチョウ,茨城県日立市折笠町
3191413,茨城県,日立市,小木津町,イバラキケン,ヒタチシ,オギツチョウ,茨城県日立市小木津町
3191414,茨城県,日立市,日高町,イバラキケン,ヒタチシ,ヒダカチョウ,茨城県日立市日高町
3191415,茨城県,日立市,相田町,イバラキケン,ヒタチシ,アイダチョウ,茨城県日立市相田町
3191416,茨城県,日立市,田尻町,イバラキケン,ヒタチシ,タジリチョウ,茨城県日立市田尻町
3191417,茨城県,日立市,かみあい町,イバラキケン,ヒタチシ,カミアイチョウ,茨城県日立市かみあい町
3191418,茨城県,日立市,砂沢町,イバラキケン,ヒタチシ,イサゴザワチョウ,茨城県日立市砂沢町
3191500,茨城県,北茨城市,,イバラキケン,キタイバラキシ,,茨城県北茨城市
3191531,茨城県,北茨城市,華川町花園,イバラキケン,キタイバラキシ,ハナカワチョウハナゾノ,茨城県北茨城市華川町花園
3191532,茨城県,北茨城市,華川町上小津田,イバラキケン,キタイバラキシ,ハナカワチョウカミコツダ,茨城県北茨城市華川町上小津田
3191533,茨城県,北茨城市,華川町下小津田,イバラキケン,キタイバラキシ,ハナカワチョウシモコツダ,茨城県北茨城市華川町下小津田
3191534,茨城県,北茨城市,華川町車,イバラキケン,キタイバラキシ,ハナカワチョウクルマ,茨城県北茨城市華川町車
3191535,茨城県,北茨城市,華川町臼場,イバラキケン,キタイバラキシ,ハナカワチョウウスバ,茨城県北茨城市華川町臼場
3191536,茨城県,北茨城市,華川町中妻,イバラキケン,キタイバラキシ,ハナカワチョウナカツマ,茨城県北茨城市華川町中妻
3191537,茨城県,北茨城市,華川町下相田,イバラキケン,キタイバラキシ,ハナカワチョウシモソウダ,茨城県北茨城市華川町下相田
3191538,茨城県,北茨城市,華川町小豆畑,イバラキケン,キタイバラキシ,ハナカワチョウアズハタ,茨城県北茨城市華川町小豆畑
3191541,茨城県,北茨城市,磯原町磯原,イバラキケン,キタイバラキシ,イソハラチョウイソハラ,茨城県北茨城市磯原町磯原
3191542,茨城県,北茨城市,磯原町本町,イバラキケン,キタイバラキシ,イソハラチョウホンチョウ,茨城県北茨城市磯原町本町
3191543,茨城県,北茨城市,磯原町豊田,イバラキケン,キタイバラキシ,イソハラチョウトヨダ,茨城県北茨城市磯原町豊田
3191544,茨城県,北茨城市,磯原町上相田,イバラキケン,キタイバラキシ,イソハラチョウカミソウダ,茨城県北茨城市磯原町上相田
3191545,茨城県,北茨城市,磯原町木皿,イバラキケン,キタイバラキシ,イソハラチョウキサラ,茨城県北茨城市磯原町木皿
3191546,茨城県,北茨城市,磯原町大塚,イバラキケン,キタイバラキシ,イソハラチョウオオツカ,茨城県北茨城市磯原町大塚
3191547,茨城県,北茨城市,磯原町内野,イバラキケン,キタイバラキシ,イソハラチョウウツノ,茨城県北茨城市磯原町内野
3191551,茨城県,北茨城市,中郷町下桜井,イバラキケン,キタイバラキシ,ナカゴウチョウシモサクライ,茨城県北茨城市中郷町下桜井
3191552,茨城県,北茨城市,中郷町足洗,イバラキケン,キタイバラキシ,ナカゴウチョウアシアライ,茨城県北茨城市中郷町足洗
3191553,茨城県,北茨城市,中郷町汐見ケ丘,イバラキケン,キタイバラキシ,ナカゴウチョウシオミガオカ,茨城県北茨城市中郷町汐見ケ丘
3191554,茨城県,北茨城市,中郷町粟野,イバラキケン,キタイバラキシ,ナカゴウチョウアワノ,茨城県北茨城市中郷町粟野
3191555,茨城県,北茨城市,中郷町小野矢指,イバラキケン,キタイバラキシ,ナカゴウチョウオノヤサシ,茨城県北茨城市中郷町小野矢指
3191556,茨城県,北茨城市,中郷町日棚,イバラキケン,キタイバラキシ,ナカゴウチョウヒタナ,茨城県北茨城市中郷町日棚
3191557,茨城県,北茨城市,中郷町松井,イバラキケン,キタイバラキシ,ナカゴウチョウマツイ,茨城県北茨城市中郷町松井
3191558,茨城県,北茨城市,中郷町石岡,イバラキケン,キタイバラキシ,ナカゴウチョウイシオカ,茨城県北茨城市中郷町石岡
3191559,茨城県,北茨城市,中郷町上桜井,イバラキケン,キタイバラキシ,ナカゴウチョウカミサクライ,茨城県北茨城市中郷町上桜井
3191701,茨城県,北茨城市,平潟町,イバラキケン,キタイバラキシ,ヒラカタチョウ,茨城県北茨城市平潟町
3191702,茨城県,北茨城市,大津町,イバラキケン,キタイバラキシ,オオツチョウ,茨城県北茨城市大津町
3191703,茨城県,北茨城市,大津町五浦,イバラキケン,キタイバラキシ,オオツチョウイヅラ,茨城県北茨城市大津町五浦
3191704,茨城県,北茨城市,大津町北町,イバラキケン,キタイバラキシ,オオツチョウキタチョウ,茨城県北茨城市大津町北町
3191711,茨城県,北茨城市,関南町関本下,イバラキケン,キタイバラキシ,セキナミチョウセキモトシモ,茨城県北茨城市関南町関本下
3191712,茨城県,北茨城市,関南町里根川,イバラキケン,キタイバラキシ,セキナミチョウサトネガワ,茨城県北茨城市関南町里根川
3191713,茨城県,北茨城市,関南町仁井田,イバラキケン,キタイバラキシ,セキナミチョウニイダ,茨城県北茨城市関南町仁井田
3191714,茨城県,北茨城市,関南町神岡上,イバラキケン,キタイバラキシ,セキナミチョウカミオカカミ,茨城県北茨城市関南町神岡上
3191715,茨城県,北茨城市,関南町神岡下,イバラキケン,キタイバラキシ,セキナミチョウカミオカシモ,茨城県北茨城市関南町神岡下
3191721,茨城県,北茨城市,関本町関本上,イバラキケン,キタイバラキシ,セキモトチョウセキモトカミ,茨城県北茨城市関本町関本上
3191722,茨城県,北茨城市,関本町福田,イバラキケン,キタイバラキシ,セキモトチョウフクダ,茨城県北茨城市関本町福田
3191723,茨城県,北茨城市,関本町関本中,イバラキケン,キタイバラキシ,セキモトチョウセキモトナカ,茨城県北茨城市関本町関本中
3191724,茨城県,北茨城市,関本町八反,イバラキケン,キタイバラキシ,セキモトチョウハッタン,茨城県北茨城市関本町八反
3191725,茨城県,北茨城市,関本町富士ケ丘,イバラキケン,キタイバラキシ,セキモトチョウフジガオカ,茨城県北茨城市関本町富士ケ丘
3191726,茨城県,北茨城市,関本町才丸,イバラキケン,キタイバラキシ,セキモトチョウサイマル,茨城県北茨城市関本町才丸
3191727,茨城県,北茨城市,関本町小川,イバラキケン,キタイバラキシ,セキモトチョウオガワ,茨城県北茨城市関本町小川
3192102,茨城県,那珂市,瓜連,イバラキケン,ナカシ,ウリヅラ,茨城県那珂市瓜連
3192103,茨城県,那珂市,中里,イバラキケン,ナカシ,ナカザト,茨城県那珂市中里
3192104,茨城県,那珂市,平野,イバラキケン,ナカシ,ヒラノ,茨城県那珂市平野
3192105,茨城県,那珂市,古徳,イバラキケン,ナカシ,コトク,茨城県那珂市古徳
3192106,茨城県,那珂市,静,イバラキケン,ナカシ,シズ,茨城県那珂市静
3192107,茨城県,那珂市,下大賀,イバラキケン,ナカシ,シモオオガ,茨城県那珂市下大賀
3192131,茨城県,常陸大宮市,下村田,イバラキケン,ヒタチオオミヤシ,シモムラタ,茨城県常陸大宮市下村田
3192132,茨城県,常陸大宮市,小場,イバラキケン,ヒタチオオミヤシ,オバ,茨城県常陸大宮市小場
3192133,茨城県,常陸大宮市,小野,イバラキケン,ヒタチオオミヤシ,オノ,茨城県常陸大宮市小野
3192134,茨城県,常陸大宮市,工業団地,イバラキケン,ヒタチオオミヤシ,コウギョウダンチ,茨城県常陸大宮市工業団地
3192135,茨城県,常陸大宮市,石沢,イバラキケン,ヒタチオオミヤシ,イシザワ,茨城県常陸大宮市石沢
3192136,茨城県,常陸大宮市,上村田,イバラキケン,ヒタチオオミヤシ,カミムラタ,茨城県常陸大宮市上村田
3192141,茨城県,常陸大宮市,下岩瀬,イバラキケン,ヒタチオオミヤシ,シモイワセ,茨城県常陸大宮市下岩瀬
3192142,茨城県,常陸大宮市,上岩瀬,イバラキケン,ヒタチオオミヤシ,カミイワセ,茨城県常陸大宮市上岩瀬
3192143,茨城県,常陸大宮市,根本,イバラキケン,ヒタチオオミヤシ,ネモト,茨城県常陸大宮市根本
3192144,茨城県,常陸大宮市,泉,イバラキケン,ヒタチオオミヤシ,イズミ,茨城県常陸大宮市泉
3192145,茨城県,常陸大宮市,宇留野,イバラキケン,ヒタチオオミヤシ,ウルノ,茨城県常陸大宮市宇留野
3192200,茨城県,常陸大宮市,,イバラキケン,ヒタチオオミヤシ,,茨城県常陸大宮市
3192201,茨城県,常陸大宮市,辰ノ口,イバラキケン,ヒタチオオミヤシ,タツノクチ,茨城県常陸大宮市辰ノ口
3192202,茨城県,常陸大宮市,塩原,イバラキケン,ヒタチオオミヤシ,シオバラ,茨城県常陸大宮市塩原
3192203,茨城県,常陸大宮市,小倉,イバラキケン,ヒタチオオミヤシ,オグラ,茨城県常陸大宮市小倉
3192204,茨城県,常陸大宮市,富岡,イバラキケン,ヒタチオオミヤシ,トミオカ,茨城県常陸大宮市富岡
3192205,茨城県,常陸大宮市,宮の郷,イバラキケン,ヒタチオオミヤシ,ミヤノサト,茨城県常陸大宮市宮の郷
3192211,茨城県,常陸大宮市,岩崎,イバラキケン,ヒタチオオミヤシ,イワザキ,茨城県常陸大宮市岩崎
3192212,茨城県,常陸大宮市,上大賀,イバラキケン,ヒタチオオミヤシ,カミオオガ,茨城県常陸大宮市上大賀
3192213,茨城県,常陸大宮市,小祝,イバラキケン,ヒタチオオミヤシ,コイワイ,茨城県常陸大宮市小祝
3192214,茨城県,常陸大宮市,鷹巣,イバラキケン,ヒタチオオミヤシ,タカス,茨城県常陸大宮市鷹巣
3192221,茨城県,常陸大宮市,八田,イバラキケン,ヒタチオオミヤシ,ハッタ,茨城県常陸大宮市八田
3192222,茨城県,常陸大宮市,若林,イバラキケン,ヒタチオオミヤシ,ワカバヤシ,茨城県常陸大宮市若林
3192223,茨城県,常陸大宮市,三美,イバラキケン,ヒタチオオミヤシ,ミヨシ,茨城県常陸大宮市三美
3192224,茨城県,常陸大宮市,東野,イバラキケン,ヒタチオオミヤシ,トウノ,茨城県常陸大宮市東野
3192225,茨城県,常陸大宮市,西塩子,イバラキケン,ヒタチオオミヤシ,ニシシオゴ,茨城県常陸大宮市西塩子
3192226,茨城県,常陸大宮市,北塩子,イバラキケン,ヒタチオオミヤシ,キタシオゴ,茨城県常陸大宮市北塩子
3192227,茨城県,常陸大宮市,照田（９１７〜１４９０番地）,イバラキケン,ヒタチオオミヤシ,テルダ(917-1490バンチ),茨城県常陸大宮市照田（917〜1490-）
3192251,茨城県,常陸大宮市,姥賀町,イバラキケン,ヒタチオオミヤシ,ウバガチョウ,茨城県常陸大宮市姥賀町
3192252,茨城県,常陸大宮市,東富町,イバラキケン,ヒタチオオミヤシ,ヒガシトミチョウ,茨城県常陸大宮市東富町
3192253,茨城県,常陸大宮市,高渡町,イバラキケン,ヒタチオオミヤシ,タカワタリチョウ,茨城県常陸大宮市高渡町
3192254,茨城県,常陸大宮市,北町,イバラキケン,ヒタチオオミヤシ,キタチョウ,茨城県常陸大宮市北町
3192255,茨城県,常陸大宮市,野中町,イバラキケン,ヒタチオオミヤシ,ノナカチョウ,茨城県常陸大宮市野中町
3192256,茨城県,常陸大宮市,田子内町,イバラキケン,ヒタチオオミヤシ,タゴウチチョウ,茨城県常陸大宮市田子内町
3192261,茨城県,常陸大宮市,上町,イバラキケン,ヒタチオオミヤシ,カミチョウ,茨城県常陸大宮市上町
3192262,茨城県,常陸大宮市,下町,イバラキケン,ヒタチオオミヤシ,シモチョウ,茨城県常陸大宮市下町
3192263,茨城県,常陸大宮市,南町,イバラキケン,ヒタチオオミヤシ,ミナミチョウ,茨城県常陸大宮市南町
3192264,茨城県,常陸大宮市,栄町,イバラキケン,ヒタチオオミヤシ,サカエチョウ,茨城県常陸大宮市栄町
3192265,茨城県,常陸大宮市,中富町,イバラキケン,ヒタチオオミヤシ,ナカトミチョウ,茨城県常陸大宮市中富町
3192266,茨城県,常陸大宮市,抽ケ台町,イバラキケン,ヒタチオオミヤシ,ユガダイチョウ,茨城県常陸大宮市抽ケ台町
3192401,茨城県,常陸大宮市,上小瀬,イバラキケン,ヒタチオオミヤシ,カミオセ,茨城県常陸大宮市上小瀬
3192402,茨城県,常陸大宮市,下小瀬,イバラキケン,ヒタチオオミヤシ,シモオセ,茨城県常陸大宮市下小瀬
3192403,茨城県,常陸大宮市,那賀,イバラキケン,ヒタチオオミヤシ,ナカ,茨城県常陸大宮市那賀
3192404,茨城県,常陸大宮市,国長,イバラキケン,ヒタチオオミヤシ,クニオサ,茨城県常陸大宮市国長
3192405,茨城県,常陸大宮市,小玉,イバラキケン,ヒタチオオミヤシ,オダマ,茨城県常陸大宮市小玉
3192411,茨城県,常陸大宮市,小舟,イバラキケン,ヒタチオオミヤシ,コブネ,茨城県常陸大宮市小舟
3192412,茨城県,常陸大宮市,小瀬沢,イバラキケン,ヒタチオオミヤシ,オセザワ,茨城県常陸大宮市小瀬沢
3192413,茨城県,常陸大宮市,松之草,イバラキケン,ヒタチオオミヤシ,マツノクサ,茨城県常陸大宮市松之草
3192414,茨城県,常陸大宮市,吉丸,イバラキケン,ヒタチオオミヤシ,ヨシマル,茨城県常陸大宮市吉丸
3192415,茨城県,常陸大宮市,入本郷,イバラキケン,ヒタチオオミヤシ,イリホンゴウ,茨城県常陸大宮市入本郷
3192416,茨城県,常陸大宮市,千田,イバラキケン,ヒタチオオミヤシ,センダ,茨城県常陸大宮市千田
3192417,茨城県,常陸大宮市,油河内,イバラキケン,ヒタチオオミヤシ,ユゴウト,茨城県常陸大宮市油河内
3192418,茨城県,常陸大宮市,大岩,イバラキケン,ヒタチオオミヤシ,オオイワ,茨城県常陸大宮市大岩
3192511,茨城県,常陸大宮市,上檜沢,イバラキケン,ヒタチオオミヤシ,カミヒザワ,茨城県常陸大宮市上檜沢
3192512,茨城県,常陸大宮市,下檜沢,イバラキケン,ヒタチオオミヤシ,シモヒザワ,茨城県常陸大宮市下檜沢
3192513,茨城県,常陸大宮市,氷之沢,イバラキケン,ヒタチオオミヤシ,ヒノサワ,茨城県常陸大宮市氷之沢
3192601,茨城県,常陸大宮市,高部,イバラキケン,ヒタチオオミヤシ,タカブ,茨城県常陸大宮市高部
3192602,茨城県,常陸大宮市,小田野,イバラキケン,ヒタチオオミヤシ,オダノ,茨城県常陸大宮市小田野
3192603,茨城県,常陸大宮市,鷲子,イバラキケン,ヒタチオオミヤシ,トリノコ,茨城県常陸大宮市鷲子
3193101,茨城県,常陸大宮市,久隆,イバラキケン,ヒタチオオミヤシ,クリュウ,茨城県常陸大宮市久隆
3193102,茨城県,常陸大宮市,盛金,イバラキケン,ヒタチオオミヤシ,モリガネ,茨城県常陸大宮市盛金
3193103,茨城県,常陸大宮市,家和楽,イバラキケン,ヒタチオオミヤシ,ヤワラ,茨城県常陸大宮市家和楽
3193104,茨城県,常陸大宮市,北富田,イバラキケン,ヒタチオオミヤシ,キタトミタ,茨城県常陸大宮市北富田
3193105,茨城県,常陸大宮市,諸沢,イバラキケン,ヒタチオオミヤシ,モロザワ,茨城県常陸大宮市諸沢
3193106,茨城県,常陸大宮市,西野内,イバラキケン,ヒタチオオミヤシ,ニシノウチ,茨城県常陸大宮市西野内
3193107,茨城県,常陸大宮市,舟生,イバラキケン,ヒタチオオミヤシ,フニュウ,茨城県常陸大宮市舟生
3193111,茨城県,常陸大宮市,山方,イバラキケン,ヒタチオオミヤシ,ヤマガタ,茨城県常陸大宮市山方
3193112,茨城県,常陸大宮市,小貫,イバラキケン,ヒタチオオミヤシ,オヌキ,茨城県常陸大宮市小貫
3193113,茨城県,常陸大宮市,照山,イバラキケン,ヒタチオオミヤシ,テルヤマ,茨城県常陸大宮市照山
3193114,茨城県,常陸大宮市,野上,イバラキケン,ヒタチオオミヤシ,ノガミ,茨城県常陸大宮市野上
3193115,茨城県,常陸大宮市,照田（その他）,イバラキケン,ヒタチオオミヤシ,テルダ(ソノタ),茨城県常陸大宮市照田（その他）
3193116,茨城県,常陸大宮市,長田,イバラキケン,ヒタチオオミヤシ,オサダ,茨城県常陸大宮市長田
3193117,茨城県,常陸大宮市,長沢,イバラキケン,ヒタチオオミヤシ,ナガサワ,茨城県常陸大宮市長沢
3193361,茨城県,久慈郡大子町,頃藤,イバラキケン,クジグンダイゴマチ,コロフジ,茨城県久慈郡大子町頃藤
3193362,茨城県,久慈郡大子町,西金,イバラキケン,クジグンダイゴマチ,サイガネ,茨城県久慈郡大子町西金
3193363,茨城県,久慈郡大子町,北富田,イバラキケン,クジグンダイゴマチ,キタトミタ,茨城県久慈郡大子町北富田
3193364,茨城県,久慈郡大子町,盛金,イバラキケン,クジグンダイゴマチ,モリガネ,茨城県久慈郡大子町盛金
3193365,茨城県,久慈郡大子町,栃原,イバラキケン,クジグンダイゴマチ,トチハラ,茨城県久慈郡大子町栃原
3193366,茨城県,久慈郡大子町,大沢,イバラキケン,クジグンダイゴマチ,オオサワ,茨城県久慈郡大子町大沢
3193500,茨城県,久慈郡大子町,,イバラキケン,クジグンダイゴマチ,,茨城県久慈郡大子町
3193511,茨城県,久慈郡大子町,高柴,イバラキケン,クジグンダイゴマチ,タカシバ,茨城県久慈郡大子町高柴
3193512,茨城県,久慈郡大子町,小生瀬,イバラキケン,クジグンダイゴマチ,コナマセ,茨城県久慈郡大子町小生瀬
3193513,茨城県,久慈郡大子町,大生瀬,イバラキケン,クジグンダイゴマチ,オオナマセ,茨城県久慈郡大子町大生瀬
3193514,茨城県,久慈郡大子町,外大野,イバラキケン,クジグンダイゴマチ,ソトオオノ,茨城県久慈郡大子町外大野
3193515,茨城県,久慈郡大子町,内大野,イバラキケン,クジグンダイゴマチ,ウチオオノ,茨城県久慈郡大子町内大野
3193521,茨城県,久慈郡大子町,北田気,イバラキケン,クジグンダイゴマチ,キタタゲ,茨城県久慈郡大子町北田気
3193522,茨城県,久慈郡大子町,久野瀬,イバラキケン,クジグンダイゴマチ,クノセ,茨城県久慈郡大子町久野瀬
3193523,茨城県,久慈郡大子町,袋田,イバラキケン,クジグンダイゴマチ,フクロダ,茨城県久慈郡大子町袋田
3193524,茨城県,久慈郡大子町,下津原,イバラキケン,クジグンダイゴマチ,シモツハラ,茨城県久慈郡大子町下津原
3193525,茨城県,久慈郡大子町,南田気,イバラキケン,クジグンダイゴマチ,ミナミタゲ,茨城県久慈郡大子町南田気
3193526,茨城県,久慈郡大子町,大子,イバラキケン,クジグンダイゴマチ,ダイゴ,茨城県久慈郡大子町大子
3193531,茨城県,久慈郡大子町,上岡,イバラキケン,クジグンダイゴマチ,ウワオカ,茨城県久慈郡大子町上岡
3193532,茨城県,久慈郡大子町,山田,イバラキケン,クジグンダイゴマチ,ヤマダ,茨城県久慈郡大子町山田
3193533,茨城県,久慈郡大子町,下金沢,イバラキケン,クジグンダイゴマチ,シモカネサワ,茨城県久慈郡大子町下金沢
3193534,茨城県,久慈郡大子町,相川,イバラキケン,クジグンダイゴマチ,アイカワ,茨城県久慈郡大子町相川
3193535,茨城県,久慈郡大子町,上金沢,イバラキケン,クジグンダイゴマチ,カミカネサワ,茨城県久慈郡大子町上金沢
3193536,茨城県,久慈郡大子町,田野沢,イバラキケン,クジグンダイゴマチ,タノサワ,茨城県久慈郡大子町田野沢
3193537,茨城県,久慈郡大子町,塙,イバラキケン,クジグンダイゴマチ,ハナワ,茨城県久慈郡大子町塙
3193538,茨城県,久慈郡大子町,芦野倉,イバラキケン,クジグンダイゴマチ,アシノクラ,茨城県久慈郡大子町芦野倉
3193541,茨城県,久慈郡大子町,浅川,イバラキケン,クジグンダイゴマチ,アサカワ,茨城県久慈郡大子町浅川
3193542,茨城県,久慈郡大子町,初原,イバラキケン,クジグンダイゴマチ,ハツバラ,茨城県久慈郡大子町初原
3193543,茨城県,久慈郡大子町,左貫,イバラキケン,クジグンダイゴマチ,サヌキ,茨城県久慈郡大子町左貫
3193544,茨城県,久慈郡大子町,槇野地,イバラキケン,クジグンダイゴマチ,マギノチ,茨城県久慈郡大子町槇野地
3193551,茨城県,久慈郡大子町,池田,イバラキケン,クジグンダイゴマチ,イケダ,茨城県久慈郡大子町池田
3193552,茨城県,久慈郡大子町,矢田,イバラキケン,クジグンダイゴマチ,ヤダ,茨城県久慈郡大子町矢田
3193553,茨城県,久慈郡大子町,冥賀,イバラキケン,クジグンダイゴマチ,ミョウガ,茨城県久慈郡大子町冥賀
3193554,茨城県,久慈郡大子町,高田,イバラキケン,クジグンダイゴマチ,タカダ,茨城県久慈郡大子町高田
3193555,茨城県,久慈郡大子町,下野宮,イバラキケン,クジグンダイゴマチ,シモノミヤ,茨城県久慈郡大子町下野宮
3193556,茨城県,久慈郡大子町,川山,イバラキケン,クジグンダイゴマチ,カワヤマ,茨城県久慈郡大子町川山
3193701,茨城県,久慈郡大子町,北吉沢,イバラキケン,クジグンダイゴマチ,キタヨシザワ,茨城県久慈郡大子町北吉沢
3193702,茨城県,久慈郡大子町,町付,イバラキケン,クジグンダイゴマチ,マチツキ,茨城県久慈郡大子町町付
3193703,茨城県,久慈郡大子町,上郷,イバラキケン,クジグンダイゴマチ,カミゴウ,茨城県久慈郡大子町上郷
3193704,茨城県,久慈郡大子町,上野宮,イバラキケン,クジグンダイゴマチ,カミノミヤ,茨城県久慈郡大子町上野宮
3193705,茨城県,久慈郡大子町,中郷,イバラキケン,クジグンダイゴマチ,ナカゴウ,茨城県久慈郡大子町中郷
