zipcode,prefecture_name,city,town,prefecture_kana,city_kana,town_kana,normalized_address
3114411,栃木県,芳賀郡茂木町,桧山（道木橋）,トチギケン,ハガグンモテギマチ,ヒヤマ(ドウギバシ),栃木県芳賀郡茂木町桧山（道木橋）
3200001,栃木県,宇都宮市,横山町,トチギケン,ウツノミヤシ,ヨコヤマチョウ,栃木県宇都宮市横山町
3200002,栃木県,宇都宮市,瓦谷町,トチギケン,ウツノミヤシ,カワラヤチョウ,栃木県宇都宮市瓦谷町
3200003,栃木県,宇都宮市,豊郷台,トチギケン,ウツノミヤシ,トヨサトダイ,栃木県宇都宮市豊郷台
3200004,栃木県,宇都宮市,長岡町,トチギケン,ウツノミヤシ,ナガオカチョウ,栃木県宇都宮市長岡町
3200005,栃木県,宇都宮市,横山,トチギケン,ウツノミヤシ,ヨコヤマ,栃木県宇都宮市横山
3200011,栃木県,宇都宮市,富士見が丘,トチギケン,ウツノミヤシ,フジミガオカ,栃木県宇都宮市富士見が丘
3200012,栃木県,宇都宮市,山本,トチギケン,ウツノミヤシ,ヤマモト,栃木県宇都宮市山本
3200013,栃木県,宇都宮市,上大曽町,トチギケン,ウツノミヤシ,カミオオゾマチ,栃木県宇都宮市上大曽町
3200014,栃木県,宇都宮市,大曽,トチギケン,ウツノミヤシ,オオゾ,栃木県宇都宮市大曽
3200015,栃木県,宇都宮市,八幡台,トチギケン,ウツノミヤシ,ハチマンダイ,栃木県宇都宮市八幡台
3200016,栃木県,宇都宮市,山本町,トチギケン,ウツノミヤシ,ヤマモトマチ,栃木県宇都宮市山本町
3200017,栃木県,宇都宮市,戸祭台,トチギケン,ウツノミヤシ,トマツリダイ,栃木県宇都宮市戸祭台
3200021,栃木県,宇都宮市,東塙田,トチギケン,ウツノミヤシ,ヒガシハナワダ,栃木県宇都宮市東塙田
3200022,栃木県,宇都宮市,千波町,トチギケン,ウツノミヤシ,センナミマチ,栃木県宇都宮市千波町
3200023,栃木県,宇都宮市,仲町,トチギケン,ウツノミヤシ,ナカマチ,栃木県宇都宮市仲町
3200024,栃木県,宇都宮市,栄町,トチギケン,ウツノミヤシ,サカエチョウ,栃木県宇都宮市栄町
3200025,栃木県,宇都宮市,宮町,トチギケン,ウツノミヤシ,ミヤマチ,栃木県宇都宮市宮町
3200026,栃木県,宇都宮市,馬場通り,トチギケン,ウツノミヤシ,ババドオリ,栃木県宇都宮市馬場通り
3200027,栃木県,宇都宮市,塙田,トチギケン,ウツノミヤシ,ハナワダ,栃木県宇都宮市塙田
3200031,栃木県,宇都宮市,戸祭元町,トチギケン,ウツノミヤシ,トマツリモトチョウ,栃木県宇都宮市戸祭元町
3200032,栃木県,宇都宮市,昭和,トチギケン,ウツノミヤシ,ショウワ,栃木県宇都宮市昭和
3200033,栃木県,宇都宮市,本町,トチギケン,ウツノミヤシ,ホンチョウ,栃木県宇都宮市本町
3200034,栃木県,宇都宮市,泉町,トチギケン,ウツノミヤシ,イズミチョウ,栃木県宇都宮市泉町
3200035,栃木県,宇都宮市,伝馬町,トチギケン,ウツノミヤシ,デンマチョウ,栃木県宇都宮市伝馬町
3200036,栃木県,宇都宮市,小幡,トチギケン,ウツノミヤシ,オバタ,栃木県宇都宮市小幡
3200037,栃木県,宇都宮市,清住,トチギケン,ウツノミヤシ,キヨスミ,栃木県宇都宮市清住
3200038,栃木県,宇都宮市,星が丘,トチギケン,ウツノミヤシ,ホシガオカ,栃木県宇都宮市星が丘
3200041,栃木県,宇都宮市,松原,トチギケン,ウツノミヤシ,マツバラ,栃木県宇都宮市松原
3200042,栃木県,宇都宮市,材木町,トチギケン,ウツノミヤシ,ザイモクチョウ,栃木県宇都宮市材木町
3200043,栃木県,宇都宮市,桜,トチギケン,ウツノミヤシ,サクラ,栃木県宇都宮市桜
3200044,栃木県,宇都宮市,南一の沢町,トチギケン,ウツノミヤシ,ミナミイチノサワマチ,栃木県宇都宮市南一の沢町
3200045,栃木県,宇都宮市,中一の沢町,トチギケン,ウツノミヤシ,ナカイチノサワマチ,栃木県宇都宮市中一の沢町
3200046,栃木県,宇都宮市,西一の沢町,トチギケン,ウツノミヤシ,ニシイチノサワマチ,栃木県宇都宮市西一の沢町
3200047,栃木県,宇都宮市,一の沢,トチギケン,ウツノミヤシ,イチノサワ,栃木県宇都宮市一の沢
3200048,栃木県,宇都宮市,北一の沢町,トチギケン,ウツノミヤシ,キタイチノサワマチ,栃木県宇都宮市北一の沢町
3200049,栃木県,宇都宮市,一ノ沢町,トチギケン,ウツノミヤシ,イチノサワマチ,栃木県宇都宮市一ノ沢町
3200051,栃木県,宇都宮市,上戸祭町,トチギケン,ウツノミヤシ,カミトマツリチョウ,栃木県宇都宮市上戸祭町
3200052,栃木県,宇都宮市,中戸祭町,トチギケン,ウツノミヤシ,ナカトマツリチョウ,栃木県宇都宮市中戸祭町
3200053,栃木県,宇都宮市,戸祭町,トチギケン,ウツノミヤシ,トマツリチョウ,栃木県宇都宮市戸祭町
3200054,栃木県,宇都宮市,東戸祭,トチギケン,ウツノミヤシ,ヒガシトマツリ,栃木県宇都宮市東戸祭
3200055,栃木県,宇都宮市,下戸祭,トチギケン,ウツノミヤシ,シモトマツリ,栃木県宇都宮市下戸祭
3200056,栃木県,宇都宮市,戸祭,トチギケン,ウツノミヤシ,トマツリ,栃木県宇都宮市戸祭
3200057,栃木県,宇都宮市,中戸祭,トチギケン,ウツノミヤシ,ナカトマツリ,栃木県宇都宮市中戸祭
3200058,栃木県,宇都宮市,上戸祭,トチギケン,ウツノミヤシ,カミトマツリ,栃木県宇都宮市上戸祭
3200061,栃木県,宇都宮市,宝木町,トチギケン,ウツノミヤシ,タカラギチョウ,栃木県宇都宮市宝木町
3200062,栃木県,宇都宮市,東宝木町,トチギケン,ウツノミヤシ,ヒガシタカラギチョウ,栃木県宇都宮市東宝木町
3200063,栃木県,宇都宮市,陽西町,トチギケン,ウツノミヤシ,ヨウサイチョウ,栃木県宇都宮市陽西町
3200064,栃木県,宇都宮市,西の宮,トチギケン,ウツノミヤシ,ニシノミヤ,栃木県宇都宮市西の宮
3200065,栃木県,宇都宮市,駒生町,トチギケン,ウツノミヤシ,コマニュウマチ,栃木県宇都宮市駒生町
3200066,栃木県,宇都宮市,駒生,トチギケン,ウツノミヤシ,コマニュウ,栃木県宇都宮市駒生
3200071,栃木県,宇都宮市,野沢町,トチギケン,ウツノミヤシ,ノザワマチ,栃木県宇都宮市野沢町
3200072,栃木県,宇都宮市,若草,トチギケン,ウツノミヤシ,ワカクサ,栃木県宇都宮市若草
3200073,栃木県,宇都宮市,細谷,トチギケン,ウツノミヤシ,ホソヤ,栃木県宇都宮市細谷
3200074,栃木県,宇都宮市,細谷町,トチギケン,ウツノミヤシ,ホソヤチョウ,栃木県宇都宮市細谷町
3200075,栃木県,宇都宮市,宝木本町,トチギケン,ウツノミヤシ,タカラギホンチョウ,栃木県宇都宮市宝木本町
3200801,栃木県,宇都宮市,池上町,トチギケン,ウツノミヤシ,イケガミチョウ,栃木県宇都宮市池上町
3200802,栃木県,宇都宮市,江野町,トチギケン,ウツノミヤシ,エノマチ,栃木県宇都宮市江野町
3200803,栃木県,宇都宮市,曲師町,トチギケン,ウツノミヤシ,マゲシチョウ,栃木県宇都宮市曲師町
3200804,栃木県,宇都宮市,二荒町,トチギケン,ウツノミヤシ,フタアラマチ,栃木県宇都宮市二荒町
3200805,栃木県,宇都宮市,中央本町,トチギケン,ウツノミヤシ,チュウオウホンチョウ,栃木県宇都宮市中央本町
3200806,栃木県,宇都宮市,中央,トチギケン,ウツノミヤシ,チュウオウ,栃木県宇都宮市中央
3200807,栃木県,宇都宮市,松が峰,トチギケン,ウツノミヤシ,マツガミネ,栃木県宇都宮市松が峰
3200808,栃木県,宇都宮市,宮園町,トチギケン,ウツノミヤシ,ミヤゾノチョウ,栃木県宇都宮市宮園町
3200811,栃木県,宇都宮市,大通り,トチギケン,ウツノミヤシ,オオドオリ,栃木県宇都宮市大通り
3200812,栃木県,宇都宮市,一番町,トチギケン,ウツノミヤシ,イチバンチョウ,栃木県宇都宮市一番町
3200813,栃木県,宇都宮市,二番町,トチギケン,ウツノミヤシ,ニバンチョウ,栃木県宇都宮市二番町
3200814,栃木県,宇都宮市,三番町,トチギケン,ウツノミヤシ,サンバンチョウ,栃木県宇都宮市三番町
3200815,栃木県,宇都宮市,中河原町,トチギケン,ウツノミヤシ,ナカガワラマチ,栃木県宇都宮市中河原町
3200816,栃木県,宇都宮市,天神,トチギケン,ウツノミヤシ,テンジン,栃木県宇都宮市天神
3200817,栃木県,宇都宮市,本丸町,トチギケン,ウツノミヤシ,ホンマルチョウ,栃木県宇都宮市本丸町
3200818,栃木県,宇都宮市,旭,トチギケン,ウツノミヤシ,アサヒ,栃木県宇都宮市旭
3200821,栃木県,宇都宮市,一条,トチギケン,ウツノミヤシ,イチジョウ,栃木県宇都宮市一条
3200822,栃木県,宇都宮市,河原町,トチギケン,ウツノミヤシ,カワラマチ,栃木県宇都宮市河原町
3200823,栃木県,宇都宮市,御蔵町,トチギケン,ウツノミヤシ,オクラマチ,栃木県宇都宮市御蔵町
3200824,栃木県,宇都宮市,下河原,トチギケン,ウツノミヤシ,シモガワラ,栃木県宇都宮市下河原
3200825,栃木県,宇都宮市,下河原町,トチギケン,ウツノミヤシ,シモガワラマチ,栃木県宇都宮市下河原町
3200826,栃木県,宇都宮市,西原町,トチギケン,ウツノミヤシ,ニシハラチョウ,栃木県宇都宮市西原町
3200827,栃木県,宇都宮市,花房,トチギケン,ウツノミヤシ,ハナブサ,栃木県宇都宮市花房
3200828,栃木県,宇都宮市,花房本町,トチギケン,ウツノミヤシ,ハナブサホンチョウ,栃木県宇都宮市花房本町
3200831,栃木県,宇都宮市,新町,トチギケン,ウツノミヤシ,シンマチ,栃木県宇都宮市新町
3200832,栃木県,宇都宮市,日の出,トチギケン,ウツノミヤシ,ヒノデ,栃木県宇都宮市日の出
3200833,栃木県,宇都宮市,不動前,トチギケン,ウツノミヤシ,フドウマエ,栃木県宇都宮市不動前
3200834,栃木県,宇都宮市,陽南,トチギケン,ウツノミヤシ,ヨウナン,栃木県宇都宮市陽南
3200835,栃木県,宇都宮市,宮原,トチギケン,ウツノミヤシ,ミヤハラ,栃木県宇都宮市宮原
3200836,栃木県,宇都宮市,大和（３丁目）,トチギケン,ウツノミヤシ,ヤマト(3チョウメ),栃木県宇都宮市大和（3-）
3200837,栃木県,宇都宮市,弥生,トチギケン,ウツノミヤシ,ヤヨイ,栃木県宇都宮市弥生
3200838,栃木県,宇都宮市,吉野,トチギケン,ウツノミヤシ,ヨシノ,栃木県宇都宮市吉野
3200841,栃木県,宇都宮市,六道町,トチギケン,ウツノミヤシ,ロクドウマチ,栃木県宇都宮市六道町
3200842,栃木県,宇都宮市,京町,トチギケン,ウツノミヤシ,キョウマチ,栃木県宇都宮市京町
3200843,栃木県,宇都宮市,花園町,トチギケン,ウツノミヤシ,ハナゾノチョウ,栃木県宇都宮市花園町
3200844,栃木県,宇都宮市,菊水町,トチギケン,ウツノミヤシ,キクスイチョウ,栃木県宇都宮市菊水町
3200845,栃木県,宇都宮市,明保野町,トチギケン,ウツノミヤシ,アケボノチョウ,栃木県宇都宮市明保野町
3200846,栃木県,宇都宮市,滝の原,トチギケン,ウツノミヤシ,タキノハラ,栃木県宇都宮市滝の原
3200847,栃木県,宇都宮市,滝谷町,トチギケン,ウツノミヤシ,タキヤチョウ,栃木県宇都宮市滝谷町
3200848,栃木県,宇都宮市,幸町,トチギケン,ウツノミヤシ,サイワイチョウ,栃木県宇都宮市幸町
3200851,栃木県,宇都宮市,鶴田町,トチギケン,ウツノミヤシ,ツルタマチ,栃木県宇都宮市鶴田町
3200852,栃木県,宇都宮市,下砥上町,トチギケン,ウツノミヤシ,シモトカミチョウ,栃木県宇都宮市下砥上町
3200853,栃木県,宇都宮市,下欠町,トチギケン,ウツノミヤシ,シモカケマチ,栃木県宇都宮市下欠町
3200854,栃木県,宇都宮市,鷺の谷町,トチギケン,ウツノミヤシ,サギノヤマチ,栃木県宇都宮市鷺の谷町
3200855,栃木県,宇都宮市,上欠町,トチギケン,ウツノミヤシ,カミカケマチ,栃木県宇都宮市上欠町
3200856,栃木県,宇都宮市,砥上町,トチギケン,ウツノミヤシ,トカミチョウ,栃木県宇都宮市砥上町
3200857,栃木県,宇都宮市,鶴田,トチギケン,ウツノミヤシ,ツルタ,栃木県宇都宮市鶴田
3200861,栃木県,宇都宮市,西,トチギケン,ウツノミヤシ,ニシ,栃木県宇都宮市西
3200862,栃木県,宇都宮市,西原,トチギケン,ウツノミヤシ,ニシハラ,栃木県宇都宮市西原
3200863,栃木県,宇都宮市,操町,トチギケン,ウツノミヤシ,ミサオチョウ,栃木県宇都宮市操町
3200864,栃木県,宇都宮市,住吉町,トチギケン,ウツノミヤシ,スミヨシチョウ,栃木県宇都宮市住吉町
3200865,栃木県,宇都宮市,睦町,トチギケン,ウツノミヤシ,ムツミチョウ,栃木県宇都宮市睦町
3200866,栃木県,宇都宮市,西大寛,トチギケン,ウツノミヤシ,ニシダイカン,栃木県宇都宮市西大寛
3200867,栃木県,宇都宮市,大寛,トチギケン,ウツノミヤシ,ダイカン,栃木県宇都宮市大寛
3210000,栃木県,宇都宮市,,トチギケン,ウツノミヤシ,,栃木県宇都宮市
3210101,栃木県,宇都宮市,江曽島本町,トチギケン,ウツノミヤシ,エソジマホンチョウ,栃木県宇都宮市江曽島本町
3210102,栃木県,宇都宮市,江曽島町,トチギケン,ウツノミヤシ,エソジママチ,栃木県宇都宮市江曽島町
3210103,栃木県,宇都宮市,台新田町,トチギケン,ウツノミヤシ,ダイシンデンマチ,栃木県宇都宮市台新田町
3210104,栃木県,宇都宮市,台新田,トチギケン,ウツノミヤシ,ダイシンデン,栃木県宇都宮市台新田
3210105,栃木県,宇都宮市,横田新町,トチギケン,ウツノミヤシ,ヨコタシンマチ,栃木県宇都宮市横田新町
3210106,栃木県,宇都宮市,上横田町,トチギケン,ウツノミヤシ,カミヨコタマチ,栃木県宇都宮市上横田町
3210107,栃木県,宇都宮市,江曽島,トチギケン,ウツノミヤシ,エソジマ,栃木県宇都宮市江曽島
3210108,栃木県,宇都宮市,春日町,トチギケン,ウツノミヤシ,カスガチョウ,栃木県宇都宮市春日町
3210111,栃木県,宇都宮市,川田町,トチギケン,ウツノミヤシ,カワダマチ,栃木県宇都宮市川田町
3210112,栃木県,宇都宮市,屋板町,トチギケン,ウツノミヤシ,ヤイタマチ,栃木県宇都宮市屋板町
3210113,栃木県,宇都宮市,砂田町,トチギケン,ウツノミヤシ,スナタマチ,栃木県宇都宮市砂田町
3210114,栃木県,宇都宮市,中島町,トチギケン,ウツノミヤシ,ナカジマチョウ,栃木県宇都宮市中島町
3210115,栃木県,宇都宮市,上御田町,トチギケン,ウツノミヤシ,カミミタチョウ,栃木県宇都宮市上御田町
3210116,栃木県,宇都宮市,東横田町,トチギケン,ウツノミヤシ,ヒガシヨコタマチ,栃木県宇都宮市東横田町
3210117,栃木県,宇都宮市,城南,トチギケン,ウツノミヤシ,ジョウナン,栃木県宇都宮市城南
3210118,栃木県,宇都宮市,インターパーク,トチギケン,ウツノミヤシ,インターパーク,栃木県宇都宮市インターパーク
3210121,栃木県,宇都宮市,雀宮町,トチギケン,ウツノミヤシ,スズメノミヤチョウ,栃木県宇都宮市雀宮町
3210122,栃木県,宇都宮市,下反町町,トチギケン,ウツノミヤシ,シモソリマチチョウ,栃木県宇都宮市下反町町
3210123,栃木県,宇都宮市,東谷町,トチギケン,ウツノミヤシ,トウヤチョウ,栃木県宇都宮市東谷町
3210124,栃木県,宇都宮市,下横田町,トチギケン,ウツノミヤシ,シモヨコタチョウ,栃木県宇都宮市下横田町
3210125,栃木県,宇都宮市,御田長島町,トチギケン,ウツノミヤシ,ミタナガシマチョウ,栃木県宇都宮市御田長島町
3210126,栃木県,宇都宮市,茂原町,トチギケン,ウツノミヤシ,モバラチョウ,栃木県宇都宮市茂原町
3210127,栃木県,宇都宮市,羽牛田町,トチギケン,ウツノミヤシ,ハギュウダチョウ,栃木県宇都宮市羽牛田町
3210131,栃木県,宇都宮市,宮の内,トチギケン,ウツノミヤシ,ミヤノウチ,栃木県宇都宮市宮の内
3210132,栃木県,宇都宮市,雀の宮,トチギケン,ウツノミヤシ,スズメノミヤ,栃木県宇都宮市雀の宮
3210133,栃木県,宇都宮市,新富町,トチギケン,ウツノミヤシ,シントミチョウ,栃木県宇都宮市新富町
3210134,栃木県,宇都宮市,高砂町,トチギケン,ウツノミヤシ,タカサゴチョウ,栃木県宇都宮市高砂町
3210135,栃木県,宇都宮市,五代,トチギケン,ウツノミヤシ,ゴダイ,栃木県宇都宮市五代
3210136,栃木県,宇都宮市,みどり野町,トチギケン,ウツノミヤシ,ミドリノマチ,栃木県宇都宮市みどり野町
3210137,栃木県,宇都宮市,針ケ谷,トチギケン,ウツノミヤシ,ハリガヤ,栃木県宇都宮市針ケ谷
3210138,栃木県,宇都宮市,兵庫塚,トチギケン,ウツノミヤシ,ヒョウゴツカ,栃木県宇都宮市兵庫塚
3210139,栃木県,宇都宮市,若松原,トチギケン,ウツノミヤシ,ワカマツハラ,栃木県宇都宮市若松原
3210141,栃木県,宇都宮市,さつき,トチギケン,ウツノミヤシ,サツキ,栃木県宇都宮市さつき
3210142,栃木県,宇都宮市,南町,トチギケン,ウツノミヤシ,ミナミマチ,栃木県宇都宮市南町
3210143,栃木県,宇都宮市,南高砂町,トチギケン,ウツノミヤシ,ミナミタカサゴチョウ,栃木県宇都宮市南高砂町
3210144,栃木県,宇都宮市,末広,トチギケン,ウツノミヤシ,スエヒロ,栃木県宇都宮市末広
3210145,栃木県,宇都宮市,茂原,トチギケン,ウツノミヤシ,モバラ,栃木県宇都宮市茂原
3210146,栃木県,宇都宮市,富士見町,トチギケン,ウツノミヤシ,フジミチョウ,栃木県宇都宮市富士見町
3210147,栃木県,宇都宮市,針ケ谷町,トチギケン,ウツノミヤシ,ハリガヤチョウ,栃木県宇都宮市針ケ谷町
3210151,栃木県,宇都宮市,西川田町,トチギケン,ウツノミヤシ,ニシカワタマチ,栃木県宇都宮市西川田町
3210152,栃木県,宇都宮市,西川田,トチギケン,ウツノミヤシ,ニシカワタ,栃木県宇都宮市西川田
3210153,栃木県,宇都宮市,北若松原,トチギケン,ウツノミヤシ,キタワカマツハラ,栃木県宇都宮市北若松原
3210154,栃木県,宇都宮市,西川田東町,トチギケン,ウツノミヤシ,ニシカワタヒガシマチ,栃木県宇都宮市西川田東町
3210155,栃木県,宇都宮市,西川田南,トチギケン,ウツノミヤシ,ニシカワタミナミ,栃木県宇都宮市西川田南
3210156,栃木県,宇都宮市,兵庫塚町,トチギケン,ウツノミヤシ,ヒョウゴツカマチ,栃木県宇都宮市兵庫塚町
3210157,栃木県,宇都宮市,幕田町,トチギケン,ウツノミヤシ,マクタマチ,栃木県宇都宮市幕田町
3210158,栃木県,宇都宮市,西川田本町,トチギケン,ウツノミヤシ,ニシカワタホンチョウ,栃木県宇都宮市西川田本町
3210161,栃木県,宇都宮市,大塚町,トチギケン,ウツノミヤシ,オオツカチョウ,栃木県宇都宮市大塚町
3210162,栃木県,宇都宮市,大和（１、２丁目）,トチギケン,ウツノミヤシ,ヤマト(1、2チョウメ),栃木県宇都宮市大和（1、2-）
3210163,栃木県,宇都宮市,宮本町,トチギケン,ウツノミヤシ,ミヤモトチョウ,栃木県宇都宮市宮本町
3210164,栃木県,宇都宮市,双葉,トチギケン,ウツノミヤシ,フタバ,栃木県宇都宮市双葉
3210165,栃木県,宇都宮市,緑,トチギケン,ウツノミヤシ,ミドリ,栃木県宇都宮市緑
3210166,栃木県,宇都宮市,今宮,トチギケン,ウツノミヤシ,イマミヤ,栃木県宇都宮市今宮
3210167,栃木県,宇都宮市,東浦町,トチギケン,ウツノミヤシ,ヒガシウラマチ,栃木県宇都宮市東浦町
3210168,栃木県,宇都宮市,東原町,トチギケン,ウツノミヤシ,ヒガシハラマチ,栃木県宇都宮市東原町
3210169,栃木県,宇都宮市,八千代,トチギケン,ウツノミヤシ,ヤチヨ,栃木県宇都宮市八千代
3210200,栃木県,下都賀郡壬生町,,トチギケン,シモツガグンミブマチ,,栃木県下都賀郡壬生町
3210201,栃木県,下都賀郡壬生町,安塚,トチギケン,シモツガグンミブマチ,ヤスヅカ,栃木県下都賀郡壬生町安塚
3210202,栃木県,下都賀郡壬生町,おもちゃのまち,トチギケン,シモツガグンミブマチ,オモチャノマチ,栃木県下都賀郡壬生町おもちゃのまち
3210203,栃木県,下都賀郡壬生町,幸町,トチギケン,シモツガグンミブマチ,サイワイチョウ,栃木県下都賀郡壬生町幸町
3210204,栃木県,下都賀郡壬生町,緑町,トチギケン,シモツガグンミブマチ,ミドリチョウ,栃木県下都賀郡壬生町緑町
3210205,栃木県,下都賀郡壬生町,若草町,トチギケン,シモツガグンミブマチ,ワカクサチョウ,栃木県下都賀郡壬生町若草町
3210206,栃木県,下都賀郡壬生町,あけぼの町,トチギケン,シモツガグンミブマチ,アケボノチョウ,栃木県下都賀郡壬生町あけぼの町
3210207,栃木県,下都賀郡壬生町,北小林,トチギケン,シモツガグンミブマチ,キタコバヤシ,栃木県下都賀郡壬生町北小林
3210211,栃木県,下都賀郡壬生町,国谷,トチギケン,シモツガグンミブマチ,クニヤ,栃木県下都賀郡壬生町国谷
3210212,栃木県,下都賀郡壬生町,寿町,トチギケン,シモツガグンミブマチ,コトブキチョウ,栃木県下都賀郡壬生町寿町
3210213,栃木県,下都賀郡壬生町,いずみ町,トチギケン,シモツガグンミブマチ,イズミチョウ,栃木県下都賀郡壬生町いずみ町
3210214,栃木県,下都賀郡壬生町,壬生甲,トチギケン,シモツガグンミブマチ,ミブコウ,栃木県下都賀郡壬生町壬生甲
3210215,栃木県,下都賀郡壬生町,壬生乙,トチギケン,シモツガグンミブマチ,ミブオツ,栃木県下都賀郡壬生町壬生乙
3210216,栃木県,下都賀郡壬生町,壬生丁,トチギケン,シモツガグンミブマチ,ミブテイ,栃木県下都賀郡壬生町壬生丁
3210217,栃木県,下都賀郡壬生町,至宝,トチギケン,シモツガグンミブマチ,シホウ,栃木県下都賀郡壬生町至宝
3210218,栃木県,下都賀郡壬生町,落合,トチギケン,シモツガグンミブマチ,オチアイ,栃木県下都賀郡壬生町落合
3210219,栃木県,下都賀郡壬生町,福和田,トチギケン,シモツガグンミブマチ,フクワダ,栃木県下都賀郡壬生町福和田
3210221,栃木県,下都賀郡壬生町,藤井,トチギケン,シモツガグンミブマチ,フジイ,栃木県下都賀郡壬生町藤井
3210222,栃木県,下都賀郡壬生町,駅東町,トチギケン,シモツガグンミブマチ,エキヒガシチョウ,栃木県下都賀郡壬生町駅東町
3210223,栃木県,下都賀郡壬生町,元町,トチギケン,シモツガグンミブマチ,モトマチ,栃木県下都賀郡壬生町元町
3210224,栃木県,下都賀郡壬生町,表町,トチギケン,シモツガグンミブマチ,オモテマチ,栃木県下都賀郡壬生町表町
3210225,栃木県,下都賀郡壬生町,本丸,トチギケン,シモツガグンミブマチ,ホンマル,栃木県下都賀郡壬生町本丸
3210226,栃木県,下都賀郡壬生町,中央町,トチギケン,シモツガグンミブマチ,チュウオウチョウ,栃木県下都賀郡壬生町中央町
3210227,栃木県,下都賀郡壬生町,通町,トチギケン,シモツガグンミブマチ,トオリマチ,栃木県下都賀郡壬生町通町
3210228,栃木県,下都賀郡壬生町,大師町,トチギケン,シモツガグンミブマチ,ダイシマチ,栃木県下都賀郡壬生町大師町
3210231,栃木県,下都賀郡壬生町,上田,トチギケン,シモツガグンミブマチ,カミダ,栃木県下都賀郡壬生町上田
3210232,栃木県,下都賀郡壬生町,中泉,トチギケン,シモツガグンミブマチ,ナカイズミ,栃木県下都賀郡壬生町中泉
3210233,栃木県,下都賀郡壬生町,助谷,トチギケン,シモツガグンミブマチ,スケガイ,栃木県下都賀郡壬生町助谷
3210234,栃木県,下都賀郡壬生町,羽生田,トチギケン,シモツガグンミブマチ,ハニュウダ,栃木県下都賀郡壬生町羽生田
3210235,栃木県,下都賀郡壬生町,七ツ石,トチギケン,シモツガグンミブマチ,ナナツイシ,栃木県下都賀郡壬生町七ツ石
3210236,栃木県,下都賀郡壬生町,上稲葉,トチギケン,シモツガグンミブマチ,カミイナバ,栃木県下都賀郡壬生町上稲葉
3210237,栃木県,下都賀郡壬生町,下稲葉,トチギケン,シモツガグンミブマチ,シモイナバ,栃木県下都賀郡壬生町下稲葉
3210238,栃木県,下都賀郡壬生町,みぶ羽生田産業団地,トチギケン,シモツガグンミブマチ,ミブハニュウダサンギョウダンチ,栃木県下都賀郡壬生町みぶ羽生田産業団地
3210341,栃木県,宇都宮市,古賀志町,トチギケン,ウツノミヤシ,コガシマチ,栃木県宇都宮市古賀志町
3210342,栃木県,宇都宮市,福岡町,トチギケン,ウツノミヤシ,フクオカマチ,栃木県宇都宮市福岡町
3210343,栃木県,宇都宮市,田下町,トチギケン,ウツノミヤシ,タゲマチ,栃木県宇都宮市田下町
3210344,栃木県,宇都宮市,田野町,トチギケン,ウツノミヤシ,タノマチ,栃木県宇都宮市田野町
3210345,栃木県,宇都宮市,大谷町,トチギケン,ウツノミヤシ,オオヤマチ,栃木県宇都宮市大谷町
3210346,栃木県,宇都宮市,下荒針町,トチギケン,ウツノミヤシ,シモアラハリマチ,栃木県宇都宮市下荒針町
3210347,栃木県,宇都宮市,飯田町,トチギケン,ウツノミヤシ,イイダマチ,栃木県宇都宮市飯田町
3210401,栃木県,宇都宮市,上小倉町,トチギケン,ウツノミヤシ,カミコグラチョウ,栃木県宇都宮市上小倉町
3210402,栃木県,宇都宮市,今里町,トチギケン,ウツノミヤシ,イマザトチョウ,栃木県宇都宮市今里町
3210403,栃木県,宇都宮市,下小倉町,トチギケン,ウツノミヤシ,シモコグラチョウ,栃木県宇都宮市下小倉町
3210404,栃木県,宇都宮市,芦沼町,トチギケン,ウツノミヤシ,アシヌマチョウ,栃木県宇都宮市芦沼町
3210405,栃木県,宇都宮市,上田町,トチギケン,ウツノミヤシ,ウワダチョウ,栃木県宇都宮市上田町
3210406,栃木県,宇都宮市,金田町,トチギケン,ウツノミヤシ,カネダチョウ,栃木県宇都宮市金田町
3210407,栃木県,宇都宮市,松田新田町,トチギケン,ウツノミヤシ,マツダシンデンチョウ,栃木県宇都宮市松田新田町
3210411,栃木県,宇都宮市,宮山田町,トチギケン,ウツノミヤシ,ミヤヤマダチョウ,栃木県宇都宮市宮山田町
3210412,栃木県,宇都宮市,関白町,トチギケン,ウツノミヤシ,カンパクチョウ,栃木県宇都宮市関白町
3210413,栃木県,宇都宮市,松風台,トチギケン,ウツノミヤシ,ショウフウダイ,栃木県宇都宮市松風台
3210414,栃木県,宇都宮市,中里町,トチギケン,ウツノミヤシ,ナカザトチョウ,栃木県宇都宮市中里町
3210415,栃木県,宇都宮市,免ノ内町,トチギケン,ウツノミヤシ,メンノウチチョウ,栃木県宇都宮市免ノ内町
3210416,栃木県,宇都宮市,高松町,トチギケン,ウツノミヤシ,タカマツチョウ,栃木県宇都宮市高松町
3210417,栃木県,宇都宮市,冬室町,トチギケン,ウツノミヤシ,フユムロチョウ,栃木県宇都宮市冬室町
3210501,栃木県,那須烏山市,志鳥,トチギケン,ナスカラスヤマシ,シトリ,栃木県那須烏山市志鳥
3210502,栃木県,那須烏山市,熊田,トチギケン,ナスカラスヤマシ,クマダ,栃木県那須烏山市熊田
3210503,栃木県,那須烏山市,月次,トチギケン,ナスカラスヤマシ,ツキナミ,栃木県那須烏山市月次
3210504,栃木県,那須烏山市,下川井,トチギケン,ナスカラスヤマシ,シモカワイ,栃木県那須烏山市下川井
3210505,栃木県,那須烏山市,上川井,トチギケン,ナスカラスヤマシ,カミカワイ,栃木県那須烏山市上川井
3210511,栃木県,那須烏山市,小河原,トチギケン,ナスカラスヤマシ,コガワラ,栃木県那須烏山市小河原
3210512,栃木県,那須烏山市,高瀬,トチギケン,ナスカラスヤマシ,タカセ,栃木県那須烏山市高瀬
3210513,栃木県,那須烏山市,小塙,トチギケン,ナスカラスヤマシ,コバナ,栃木県那須烏山市小塙
3210514,栃木県,那須烏山市,森田,トチギケン,ナスカラスヤマシ,モリタ,栃木県那須烏山市森田
3210515,栃木県,那須烏山市,曲田,トチギケン,ナスカラスヤマシ,マガツタ,栃木県那須烏山市曲田
3210516,栃木県,那須烏山市,大里,トチギケン,ナスカラスヤマシ,オオサト,栃木県那須烏山市大里
3210517,栃木県,那須烏山市,東原,トチギケン,ナスカラスヤマシ,トウバラ,栃木県那須烏山市東原
3210521,栃木県,那須烏山市,岩子,トチギケン,ナスカラスヤマシ,イワコ,栃木県那須烏山市岩子
3210522,栃木県,那須烏山市,大金,トチギケン,ナスカラスヤマシ,オオガネ,栃木県那須烏山市大金
3210523,栃木県,那須烏山市,曲畑,トチギケン,ナスカラスヤマシ,ソリハタ,栃木県那須烏山市曲畑
3210524,栃木県,那須烏山市,八ケ代,トチギケン,ナスカラスヤマシ,ヤカシロ,栃木県那須烏山市八ケ代
3210525,栃木県,那須烏山市,福岡,トチギケン,ナスカラスヤマシ,フクオカ,栃木県那須烏山市福岡
3210526,栃木県,那須烏山市,田野倉,トチギケン,ナスカラスヤマシ,タノクラ,栃木県那須烏山市田野倉
3210527,栃木県,那須烏山市,宇井,トチギケン,ナスカラスヤマシ,ウイ,栃木県那須烏山市宇井
3210528,栃木県,那須烏山市,小倉,トチギケン,ナスカラスヤマシ,オグラ,栃木県那須烏山市小倉
3210531,栃木県,那須烏山市,三箇,トチギケン,ナスカラスヤマシ,サンガ,栃木県那須烏山市三箇
3210532,栃木県,那須烏山市,藤田,トチギケン,ナスカラスヤマシ,フジタ,栃木県那須烏山市藤田
3210533,栃木県,那須烏山市,南大和久,トチギケン,ナスカラスヤマシ,ミナミオオワグ,栃木県那須烏山市南大和久
3210534,栃木県,那須烏山市,鴻野山,トチギケン,ナスカラスヤマシ,コウノヤマ,栃木県那須烏山市鴻野山
3210535,栃木県,那須烏山市,小白井,トチギケン,ナスカラスヤマシ,コジロイ,栃木県那須烏山市小白井
3210600,栃木県,那須烏山市,,トチギケン,ナスカラスヤマシ,,栃木県那須烏山市
3210601,栃木県,那須烏山市,白久,トチギケン,ナスカラスヤマシ,シラク,栃木県那須烏山市白久
3210602,栃木県,那須烏山市,大桶,トチギケン,ナスカラスヤマシ,オオケ,栃木県那須烏山市大桶
3210603,栃木県,那須烏山市,谷浅見,トチギケン,ナスカラスヤマシ,ヤアザミ,栃木県那須烏山市谷浅見
3210604,栃木県,那須烏山市,中山,トチギケン,ナスカラスヤマシ,ナカヤマ,栃木県那須烏山市中山
3210605,栃木県,那須烏山市,滝田,トチギケン,ナスカラスヤマシ,タキタ,栃木県那須烏山市滝田
3210611,栃木県,那須烏山市,興野,トチギケン,ナスカラスヤマシ,キョウノ,栃木県那須烏山市興野
3210612,栃木県,那須烏山市,大沢,トチギケン,ナスカラスヤマシ,オオサワ,栃木県那須烏山市大沢
3210613,栃木県,那須烏山市,大木須,トチギケン,ナスカラスヤマシ,オオギス,栃木県那須烏山市大木須
3210614,栃木県,那須烏山市,小木須,トチギケン,ナスカラスヤマシ,コギス,栃木県那須烏山市小木須
3210615,栃木県,那須烏山市,小原沢,トチギケン,ナスカラスヤマシ,コハラザワ,栃木県那須烏山市小原沢
3210616,栃木県,那須烏山市,下境,トチギケン,ナスカラスヤマシ,シモザカイ,栃木県那須烏山市下境
3210617,栃木県,那須烏山市,上境,トチギケン,ナスカラスヤマシ,カミザカイ,栃木県那須烏山市上境
3210618,栃木県,那須烏山市,横枕,トチギケン,ナスカラスヤマシ,ヨコマクラ,栃木県那須烏山市横枕
3210621,栃木県,那須烏山市,中央,トチギケン,ナスカラスヤマシ,チュウオウ,栃木県那須烏山市中央
3210622,栃木県,那須烏山市,城東,トチギケン,ナスカラスヤマシ,ジョウトウ,栃木県那須烏山市城東
3210623,栃木県,那須烏山市,表,トチギケン,ナスカラスヤマシ,オモテ,栃木県那須烏山市表
3210624,栃木県,那須烏山市,旭,トチギケン,ナスカラスヤマシ,アサヒ,栃木県那須烏山市旭
3210625,栃木県,那須烏山市,宮原,トチギケン,ナスカラスヤマシ,ミヤバラ,栃木県那須烏山市宮原
3210626,栃木県,那須烏山市,初音,トチギケン,ナスカラスヤマシ,ハツネ,栃木県那須烏山市初音
3210627,栃木県,那須烏山市,南,トチギケン,ナスカラスヤマシ,ミナミ,栃木県那須烏山市南
3210628,栃木県,那須烏山市,金井,トチギケン,ナスカラスヤマシ,カナイ,栃木県那須烏山市金井
3210629,栃木県,那須烏山市,愛宕台,トチギケン,ナスカラスヤマシ,アタゴダイ,栃木県那須烏山市愛宕台
3210631,栃木県,那須烏山市,城山,トチギケン,ナスカラスヤマシ,シロヤマ,栃木県那須烏山市城山
3210632,栃木県,那須烏山市,神長,トチギケン,ナスカラスヤマシ,カナガ,栃木県那須烏山市神長
3210633,栃木県,那須烏山市,滝,トチギケン,ナスカラスヤマシ,タキ,栃木県那須烏山市滝
3210634,栃木県,那須烏山市,野上,トチギケン,ナスカラスヤマシ,ノガミ,栃木県那須烏山市野上
3210635,栃木県,那須烏山市,向田,トチギケン,ナスカラスヤマシ,ムカダ,栃木県那須烏山市向田
3210636,栃木県,那須烏山市,落合,トチギケン,ナスカラスヤマシ,オチアイ,栃木県那須烏山市落合
3210901,栃木県,宇都宮市,平出町,トチギケン,ウツノミヤシ,ヒライデマチ,栃木県宇都宮市平出町
3210902,栃木県,宇都宮市,柳田町,トチギケン,ウツノミヤシ,ヤナギタマチ,栃木県宇都宮市柳田町
3210903,栃木県,宇都宮市,下平出町,トチギケン,ウツノミヤシ,シモヒライデマチ,栃木県宇都宮市下平出町
3210904,栃木県,宇都宮市,陽東,トチギケン,ウツノミヤシ,ヨウトウ,栃木県宇都宮市陽東
3210905,栃木県,宇都宮市,平出工業団地,トチギケン,ウツノミヤシ,ヒライデコウギョウダンチ,栃木県宇都宮市平出工業団地
3210906,栃木県,宇都宮市,中久保,トチギケン,ウツノミヤシ,ナカクボ,栃木県宇都宮市中久保
3210911,栃木県,宇都宮市,問屋町,トチギケン,ウツノミヤシ,トンヤマチ,栃木県宇都宮市問屋町
3210912,栃木県,宇都宮市,石井町,トチギケン,ウツノミヤシ,イシイマチ,栃木県宇都宮市石井町
3210913,栃木県,宇都宮市,上桑島町,トチギケン,ウツノミヤシ,カミクワジママチ,栃木県宇都宮市上桑島町
3210914,栃木県,宇都宮市,下桑島町,トチギケン,ウツノミヤシ,シモクワジママチ,栃木県宇都宮市下桑島町
3210915,栃木県,宇都宮市,東刑部町,トチギケン,ウツノミヤシ,ヒガシオサカベマチ,栃木県宇都宮市東刑部町
3210916,栃木県,宇都宮市,東木代町,トチギケン,ウツノミヤシ,ヒガシキノシロマチ,栃木県宇都宮市東木代町
3210917,栃木県,宇都宮市,西刑部町,トチギケン,ウツノミヤシ,ニシオサカベマチ,栃木県宇都宮市西刑部町
3210918,栃木県,宇都宮市,平塚町,トチギケン,ウツノミヤシ,ヒラツカマチ,栃木県宇都宮市平塚町
3210921,栃木県,宇都宮市,瑞穂,トチギケン,ウツノミヤシ,ミズホ,栃木県宇都宮市瑞穂
3210922,栃木県,宇都宮市,さるやま町,トチギケン,ウツノミヤシ,サルヤママチ,栃木県宇都宮市さるやま町
3210923,栃木県,宇都宮市,下栗町,トチギケン,ウツノミヤシ,シモグリマチ,栃木県宇都宮市下栗町
3210924,栃木県,宇都宮市,下栗,トチギケン,ウツノミヤシ,シモグリ,栃木県宇都宮市下栗
3210925,栃木県,宇都宮市,東簗瀬,トチギケン,ウツノミヤシ,ヒガシヤナゼ,栃木県宇都宮市東簗瀬
3210931,栃木県,宇都宮市,平松町,トチギケン,ウツノミヤシ,ヒラマツチョウ,栃木県宇都宮市平松町
3210932,栃木県,宇都宮市,平松本町,トチギケン,ウツノミヤシ,ヒラマツホンチョウ,栃木県宇都宮市平松本町
3210933,栃木県,宇都宮市,簗瀬町,トチギケン,ウツノミヤシ,ヤナゼマチ,栃木県宇都宮市簗瀬町
3210934,栃木県,宇都宮市,簗瀬,トチギケン,ウツノミヤシ,ヤナゼ,栃木県宇都宮市簗瀬
3210935,栃木県,宇都宮市,城東,トチギケン,ウツノミヤシ,ジョウトウ,栃木県宇都宮市城東
3210941,栃木県,宇都宮市,東今泉,トチギケン,ウツノミヤシ,ヒガシイマイズミ,栃木県宇都宮市東今泉
3210942,栃木県,宇都宮市,峰,トチギケン,ウツノミヤシ,ミネ,栃木県宇都宮市峰
3210943,栃木県,宇都宮市,峰町,トチギケン,ウツノミヤシ,ミネマチ,栃木県宇都宮市峰町
3210944,栃木県,宇都宮市,東峰町,トチギケン,ウツノミヤシ,ヒガシミネマチ,栃木県宇都宮市東峰町
3210945,栃木県,宇都宮市,宿郷,トチギケン,ウツノミヤシ,シュクゴウ,栃木県宇都宮市宿郷
3210951,栃木県,宇都宮市,越戸,トチギケン,ウツノミヤシ,コエド,栃木県宇都宮市越戸
3210951,栃木県,宇都宮市,越戸町,トチギケン,ウツノミヤシ,コエドマチ,栃木県宇都宮市越戸町
3210952,栃木県,宇都宮市,泉が丘,トチギケン,ウツノミヤシ,イズミガオカ,栃木県宇都宮市泉が丘
3210953,栃木県,宇都宮市,東宿郷,トチギケン,ウツノミヤシ,ヒガシシュクゴウ,栃木県宇都宮市東宿郷
3210954,栃木県,宇都宮市,元今泉,トチギケン,ウツノミヤシ,モトイマイズミ,栃木県宇都宮市元今泉
3210961,栃木県,宇都宮市,今泉新町,トチギケン,ウツノミヤシ,イマイズミシンマチ,栃木県宇都宮市今泉新町
3210962,栃木県,宇都宮市,今泉町,トチギケン,ウツノミヤシ,イマイズミチョウ,栃木県宇都宮市今泉町
3210963,栃木県,宇都宮市,南大通り,トチギケン,ウツノミヤシ,ミナミオオドオリ,栃木県宇都宮市南大通り
3210964,栃木県,宇都宮市,駅前通り,トチギケン,ウツノミヤシ,エキマエドオリ,栃木県宇都宮市駅前通り
3210965,栃木県,宇都宮市,川向町,トチギケン,ウツノミヤシ,カワムコウチョウ,栃木県宇都宮市川向町
3210966,栃木県,宇都宮市,今泉,トチギケン,ウツノミヤシ,イマイズミ,栃木県宇都宮市今泉
3210967,栃木県,宇都宮市,錦,トチギケン,ウツノミヤシ,ニシキ,栃木県宇都宮市錦
3210968,栃木県,宇都宮市,中今泉,トチギケン,ウツノミヤシ,ナカイマイズミ,栃木県宇都宮市中今泉
3210969,栃木県,宇都宮市,宮みらい,トチギケン,ウツノミヤシ,ミヤミライ,栃木県宇都宮市宮みらい
3210971,栃木県,宇都宮市,海道町,トチギケン,ウツノミヤシ,カイドウマチ,栃木県宇都宮市海道町
3210972,栃木県,宇都宮市,下川俣町,トチギケン,ウツノミヤシ,シモカワマタマチ,栃木県宇都宮市下川俣町
3210973,栃木県,宇都宮市,岩曽町,トチギケン,ウツノミヤシ,イワゾマチ,栃木県宇都宮市岩曽町
3210974,栃木県,宇都宮市,竹林町,トチギケン,ウツノミヤシ,タケバヤシマチ,栃木県宇都宮市竹林町
3210975,栃木県,宇都宮市,関堀町,トチギケン,ウツノミヤシ,セキボリチョウ,栃木県宇都宮市関堀町
3210976,栃木県,宇都宮市,岩本町,トチギケン,ウツノミヤシ,イワモトチョウ,栃木県宇都宮市岩本町
3210977,栃木県,宇都宮市,川俣町,トチギケン,ウツノミヤシ,カワマタチョウ,栃木県宇都宮市川俣町
3210981,栃木県,宇都宮市,上野町,トチギケン,ウツノミヤシ,ウエノマチ,栃木県宇都宮市上野町
3210982,栃木県,宇都宮市,御幸ケ原町,トチギケン,ウツノミヤシ,ミユキガハラマチ,栃木県宇都宮市御幸ケ原町
3210983,栃木県,宇都宮市,御幸本町,トチギケン,ウツノミヤシ,ミユキホンチョウ,栃木県宇都宮市御幸本町
3210984,栃木県,宇都宮市,御幸町,トチギケン,ウツノミヤシ,ミユキチョウ,栃木県宇都宮市御幸町
3210985,栃木県,宇都宮市,東町,トチギケン,ウツノミヤシ,ヒガシマチ,栃木県宇都宮市東町
3211101,栃木県,日光市,明神,トチギケン,ニッコウシ,ミョウジン,栃木県日光市明神
3211102,栃木県,日光市,板橋,トチギケン,ニッコウシ,イタバシ,栃木県日光市板橋
3211103,栃木県,日光市,手岡,トチギケン,ニッコウシ,チョウカ,栃木県日光市手岡
3211104,栃木県,日光市,岩崎,トチギケン,ニッコウシ,イワザキ,栃木県日光市岩崎
3211105,栃木県,日光市,文挾町,トチギケン,ニッコウシ,フバサミマチ,栃木県日光市文挾町
3211106,栃木県,日光市,小倉,トチギケン,ニッコウシ,コグラ,栃木県日光市小倉
3211107,栃木県,日光市,小代,トチギケン,ニッコウシ,コシロ,栃木県日光市小代
3211108,栃木県,日光市,長畑,トチギケン,ニッコウシ,ナガハタ,栃木県日光市長畑
3211111,栃木県,鹿沼市,板荷,トチギケン,カヌマシ,イタガ,栃木県鹿沼市板荷
3211200,栃木県,日光市,,トチギケン,ニッコウシ,,栃木県日光市
3211261,栃木県,日光市,今市,トチギケン,ニッコウシ,イマイチ,栃木県日光市今市
3211262,栃木県,日光市,平ケ崎,トチギケン,ニッコウシ,ヒラガサキ,栃木県日光市平ケ崎
3211263,栃木県,日光市,瀬川,トチギケン,ニッコウシ,セガワ,栃木県日光市瀬川
3211264,栃木県,日光市,瀬尾,トチギケン,ニッコウシ,セノオ,栃木県日光市瀬尾
3211265,栃木県,日光市,小百（その他）,トチギケン,ニッコウシ,コビャク(ソノタ),栃木県日光市小百（その他）
3211266,栃木県,日光市,中央町,トチギケン,ニッコウシ,チュウオウチョウ,栃木県日光市中央町
3211271,栃木県,日光市,並木町,トチギケン,ニッコウシ,ナミキチョウ,栃木県日光市並木町
3211272,栃木県,日光市,今市本町,トチギケン,ニッコウシ,イマイチホンチョウ,栃木県日光市今市本町
3211273,栃木県,日光市,吉沢,トチギケン,ニッコウシ,キチサワ,栃木県日光市吉沢
3211274,栃木県,日光市,土沢,トチギケン,ニッコウシ,ドサワ,栃木県日光市土沢
3211275,栃木県,日光市,室瀬,トチギケン,ニッコウシ,ムロゼ,栃木県日光市室瀬
3211276,栃木県,日光市,下の内,トチギケン,ニッコウシ,シモノウチ,栃木県日光市下の内
3211277,栃木県,日光市,千本木,トチギケン,ニッコウシ,センボンギ,栃木県日光市千本木
3211351,栃木県,日光市,東小来川,トチギケン,ニッコウシ,ヒガシオコロガワ,栃木県日光市東小来川
3211352,栃木県,日光市,宮小来川,トチギケン,ニッコウシ,ミヤオコロガワ,栃木県日光市宮小来川
3211353,栃木県,日光市,南小来川,トチギケン,ニッコウシ,ミナミオコロガワ,栃木県日光市南小来川
3211354,栃木県,日光市,中小来川,トチギケン,ニッコウシ,ナカオコロガワ,栃木県日光市中小来川
3211355,栃木県,日光市,西小来川,トチギケン,ニッコウシ,ニシオコロガワ,栃木県日光市西小来川
3211356,栃木県,日光市,滝ケ原,トチギケン,ニッコウシ,タキガハラ,栃木県日光市滝ケ原
3211401,栃木県,日光市,上鉢石町,トチギケン,ニッコウシ,カミハツイシマチ,栃木県日光市上鉢石町
3211402,栃木県,日光市,中鉢石町,トチギケン,ニッコウシ,ナカハツイシマチ,栃木県日光市中鉢石町
3211403,栃木県,日光市,下鉢石町,トチギケン,ニッコウシ,シモハツイシマチ,栃木県日光市下鉢石町
3211404,栃木県,日光市,御幸町,トチギケン,ニッコウシ,ゴコウマチ,栃木県日光市御幸町
3211405,栃木県,日光市,石屋町,トチギケン,ニッコウシ,イシヤマチ,栃木県日光市石屋町
3211406,栃木県,日光市,松原町,トチギケン,ニッコウシ,マツバラチョウ,栃木県日光市松原町
3211407,栃木県,日光市,若杉町,トチギケン,ニッコウシ,ワカスギチョウ,栃木県日光市若杉町
3211411,栃木県,日光市,稲荷町,トチギケン,ニッコウシ,イナリマチ,栃木県日光市稲荷町
3211412,栃木県,日光市,東和町,トチギケン,ニッコウシ,トウワチョウ,栃木県日光市東和町
3211413,栃木県,日光市,相生町,トチギケン,ニッコウシ,アイオイチョウ,栃木県日光市相生町
3211414,栃木県,日光市,萩垣面,トチギケン,ニッコウシ,ハンガキメン,栃木県日光市萩垣面
3211415,栃木県,日光市,日光,トチギケン,ニッコウシ,ニッコウ,栃木県日光市日光
3211421,栃木県,日光市,所野,トチギケン,ニッコウシ,トコロノ,栃木県日光市所野
3211422,栃木県,日光市,宝殿,トチギケン,ニッコウシ,ホウデン,栃木県日光市宝殿
3211423,栃木県,日光市,七里,トチギケン,ニッコウシ,シチリ,栃木県日光市七里
3211424,栃木県,日光市,野口,トチギケン,ニッコウシ,ノグチ,栃木県日光市野口
3211425,栃木県,日光市,和泉,トチギケン,ニッコウシ,イズミ,栃木県日光市和泉
3211426,栃木県,日光市,山久保,トチギケン,ニッコウシ,ヤマクボ,栃木県日光市山久保
3211431,栃木県,日光市,山内,トチギケン,ニッコウシ,サンナイ,栃木県日光市山内
3211432,栃木県,日光市,安川町,トチギケン,ニッコウシ,ヤスカワチョウ,栃木県日光市安川町
3211433,栃木県,日光市,匠町,トチギケン,ニッコウシ,タクミチョウ,栃木県日光市匠町
3211434,栃木県,日光市,本町,トチギケン,ニッコウシ,ホンチョウ,栃木県日光市本町
3211435,栃木県,日光市,花石町,トチギケン,ニッコウシ,ハナイシチョウ,栃木県日光市花石町
3211436,栃木県,日光市,久次良町,トチギケン,ニッコウシ,クジラマチ,栃木県日光市久次良町
3211441,栃木県,日光市,清滝安良沢町,トチギケン,ニッコウシ,キヨタキアラサワマチ,栃木県日光市清滝安良沢町
3211442,栃木県,日光市,清滝丹勢町,トチギケン,ニッコウシ,キヨタキタンゼマチ,栃木県日光市清滝丹勢町
3211443,栃木県,日光市,清滝桜ケ丘町,トチギケン,ニッコウシ,キヨタキサクラガオカマチ,栃木県日光市清滝桜ケ丘町
3211444,栃木県,日光市,清滝,トチギケン,ニッコウシ,キヨタキ,栃木県日光市清滝
3211445,栃木県,日光市,細尾町,トチギケン,ニッコウシ,ホソオマチ,栃木県日光市細尾町
3211446,栃木県,日光市,清滝中安戸町,トチギケン,ニッコウシ,キヨタキナカヤスドマチ,栃木県日光市清滝中安戸町
3211447,栃木県,日光市,清滝和の代町,トチギケン,ニッコウシ,キヨタキワノシロマチ,栃木県日光市清滝和の代町
3211448,栃木県,日光市,清滝新細尾町,トチギケン,ニッコウシ,キヨタキシンホソオマチ,栃木県日光市清滝新細尾町
3211449,栃木県,日光市,丹勢,トチギケン,ニッコウシ,タンゼ,栃木県日光市丹勢
3211501,栃木県,日光市,足尾町愛宕下,トチギケン,ニッコウシ,アシオマチアタゴシタ,栃木県日光市足尾町愛宕下
3211502,栃木県,日光市,足尾町赤倉,トチギケン,ニッコウシ,アシオマチアカクラ,栃木県日光市足尾町赤倉
3211503,栃木県,日光市,足尾町深沢,トチギケン,ニッコウシ,アシオマチフカサワ,栃木県日光市足尾町深沢
3211504,栃木県,日光市,足尾町上間藤,トチギケン,ニッコウシ,アシオマチカミマトウ,栃木県日光市足尾町上間藤
3211505,栃木県,日光市,足尾町上の平,トチギケン,ニッコウシ,アシオマチウエノタイラ,栃木県日光市足尾町上の平
3211506,栃木県,日光市,足尾町下間藤,トチギケン,ニッコウシ,アシオマチシモマトウ,栃木県日光市足尾町下間藤
3211507,栃木県,日光市,足尾町南橋,トチギケン,ニッコウシ,アシオマチナンキョウ,栃木県日光市足尾町南橋
3211508,栃木県,日光市,足尾町本山,トチギケン,ニッコウシ,アシオマチホンザン,栃木県日光市足尾町本山
3211511,栃木県,日光市,足尾町,トチギケン,ニッコウシ,アシオマチ,栃木県日光市足尾町
3211512,栃木県,日光市,足尾町掛水,トチギケン,ニッコウシ,アシオマチカケミズ,栃木県日光市足尾町掛水
3211513,栃木県,日光市,足尾町向原,トチギケン,ニッコウシ,アシオマチムカイハラ,栃木県日光市足尾町向原
3211514,栃木県,日光市,足尾町通洞,トチギケン,ニッコウシ,アシオマチツウドウ,栃木県日光市足尾町通洞
3211515,栃木県,日光市,足尾町砂畑,トチギケン,ニッコウシ,アシオマチスナハタ,栃木県日光市足尾町砂畑
3211521,栃木県,日光市,足尾町遠下,トチギケン,ニッコウシ,アシオマチトオジモ,栃木県日光市足尾町遠下
3211522,栃木県,日光市,足尾町中才,トチギケン,ニッコウシ,アシオマチナカサイ,栃木県日光市足尾町中才
3211523,栃木県,日光市,足尾町松原,トチギケン,ニッコウシ,アシオマチマツバラ,栃木県日光市足尾町松原
3211524,栃木県,日光市,足尾町赤沢,トチギケン,ニッコウシ,アシオマチアカサワ,栃木県日光市足尾町赤沢
3211661,栃木県,日光市,中宮祠,トチギケン,ニッコウシ,チュウグウシ,栃木県日光市中宮祠
3211662,栃木県,日光市,湯元,トチギケン,ニッコウシ,ユモト,栃木県日光市湯元
3212101,栃木県,宇都宮市,飯山町,トチギケン,ウツノミヤシ,イイヤママチ,栃木県宇都宮市飯山町
3212102,栃木県,宇都宮市,篠井町,トチギケン,ウツノミヤシ,シノイマチ,栃木県宇都宮市篠井町
3212103,栃木県,宇都宮市,石那田町,トチギケン,ウツノミヤシ,イシナダマチ,栃木県宇都宮市石那田町
3212104,栃木県,宇都宮市,上小池町,トチギケン,ウツノミヤシ,カミコイケマチ,栃木県宇都宮市上小池町
3212105,栃木県,宇都宮市,下小池町,トチギケン,ウツノミヤシ,シモコイケマチ,栃木県宇都宮市下小池町
3212111,栃木県,宇都宮市,大網町,トチギケン,ウツノミヤシ,オオアミマチ,栃木県宇都宮市大網町
3212112,栃木県,宇都宮市,上横倉町,トチギケン,ウツノミヤシ,カミヨコクラマチ,栃木県宇都宮市上横倉町
3212113,栃木県,宇都宮市,下横倉町,トチギケン,ウツノミヤシ,シモヨコクラマチ,栃木県宇都宮市下横倉町
3212114,栃木県,宇都宮市,下金井町,トチギケン,ウツノミヤシ,シモカナイマチ,栃木県宇都宮市下金井町
3212115,栃木県,宇都宮市,上金井町,トチギケン,ウツノミヤシ,カミカナイマチ,栃木県宇都宮市上金井町
3212116,栃木県,宇都宮市,徳次郎町,トチギケン,ウツノミヤシ,トクジラマチ,栃木県宇都宮市徳次郎町
3212117,栃木県,宇都宮市,岩原町,トチギケン,ウツノミヤシ,イワハラマチ,栃木県宇都宮市岩原町
3212118,栃木県,宇都宮市,新里町,トチギケン,ウツノミヤシ,ニッサトマチ,栃木県宇都宮市新里町
3212331,栃木県,日光市,針貝,トチギケン,ニッコウシ,ハリガイ,栃木県日光市針貝
3212332,栃木県,日光市,大室,トチギケン,ニッコウシ,オオムロ,栃木県日光市大室
3212333,栃木県,日光市,薄井沢,トチギケン,ニッコウシ,ウスイザワ,栃木県日光市薄井沢
3212334,栃木県,日光市,水無,トチギケン,ニッコウシ,ミズナシ,栃木県日光市水無
3212335,栃木県,日光市,森友,トチギケン,ニッコウシ,モリトモ,栃木県日光市森友
3212336,栃木県,日光市,荊沢,トチギケン,ニッコウシ,オトロザワ,栃木県日光市荊沢
3212341,栃木県,日光市,大沢町,トチギケン,ニッコウシ,オオサワマチ,栃木県日光市大沢町
3212342,栃木県,日光市,根室,トチギケン,ニッコウシ,ネムロ,栃木県日光市根室
3212343,栃木県,日光市,山口,トチギケン,ニッコウシ,ヤマグチ,栃木県日光市山口
3212344,栃木県,日光市,猪倉,トチギケン,ニッコウシ,イノクラ,栃木県日光市猪倉
3212345,栃木県,日光市,木和田島,トチギケン,ニッコウシ,キワダシマ,栃木県日光市木和田島
3212351,栃木県,日光市,塩野室町,トチギケン,ニッコウシ,シオノムロマチ,栃木県日光市塩野室町
3212352,栃木県,日光市,小林,トチギケン,ニッコウシ,コバヤシ,栃木県日光市小林
3212353,栃木県,日光市,沓掛,トチギケン,ニッコウシ,クツカケ,栃木県日光市沓掛
3212354,栃木県,日光市,嘉多蔵,トチギケン,ニッコウシ,カタクラ,栃木県日光市嘉多蔵
3212355,栃木県,日光市,沢又,トチギケン,ニッコウシ,サワマタ,栃木県日光市沢又
3212356,栃木県,日光市,矢野口,トチギケン,ニッコウシ,ヤノクチ,栃木県日光市矢野口
3212401,栃木県,日光市,川室,トチギケン,ニッコウシ,カワムロ,栃木県日光市川室
3212402,栃木県,日光市,大渡,トチギケン,ニッコウシ,オオワタリ,栃木県日光市大渡
3212403,栃木県,日光市,町谷,トチギケン,ニッコウシ,マチヤ,栃木県日光市町谷
3212404,栃木県,日光市,轟,トチギケン,ニッコウシ,トドロク,栃木県日光市轟
3212405,栃木県,日光市,芹沼,トチギケン,ニッコウシ,セリヌマ,栃木県日光市芹沼
3212411,栃木県,日光市,大桑町,トチギケン,ニッコウシ,オオクワマチ,栃木県日光市大桑町
3212412,栃木県,日光市,倉ケ崎,トチギケン,ニッコウシ,クラガサキ,栃木県日光市倉ケ崎
3212413,栃木県,日光市,倉ケ崎新田,トチギケン,ニッコウシ,クラガサキシンデン,栃木県日光市倉ケ崎新田
3212414,栃木県,日光市,豊田,トチギケン,ニッコウシ,トヨダ,栃木県日光市豊田
3212421,栃木県,日光市,栗原,トチギケン,ニッコウシ,クリバラ,栃木県日光市栗原
3212422,栃木県,日光市,高柴,トチギケン,ニッコウシ,タカシバ,栃木県日光市高柴
3212423,栃木県,日光市,原宿,トチギケン,ニッコウシ,ハラジュク,栃木県日光市原宿
3212424,栃木県,日光市,小百（鳥屋下）,トチギケン,ニッコウシ,コビャク(トヤシタ),栃木県日光市小百（鳥屋下）
3212425,栃木県,日光市,小百（楢原）,トチギケン,ニッコウシ,コビャク(ナラハラ),栃木県日光市小百（楢原）
3212426,栃木県,日光市,小百（筒置）,トチギケン,ニッコウシ,コビャク(ツツオキ),栃木県日光市小百（筒置）
3212427,栃木県,日光市,佐下部,トチギケン,ニッコウシ,サゲブ,栃木県日光市佐下部
3212501,栃木県,塩谷郡塩谷町,上寺島（１６５３、１６６１、１６７８、１６９４番地）,トチギケン,シオヤグンシオヤマチ,カミテラシマ(1653、1661、1678、1694バンチ),栃木県塩谷郡塩谷町上寺島（1653、1661、1678、1694-）
3212521,栃木県,日光市,藤原（その他）,トチギケン,ニッコウシ,フジハラ(ソノタ),栃木県日光市藤原（その他）
3212522,栃木県,日光市,鬼怒川温泉大原,トチギケン,ニッコウシ,キヌガワオンセンオオハラ,栃木県日光市鬼怒川温泉大原
3212523,栃木県,日光市,高徳,トチギケン,ニッコウシ,タカトク,栃木県日光市高徳
3212524,栃木県,日光市,柄倉,トチギケン,ニッコウシ,カラクラ,栃木県日光市柄倉
3212525,栃木県,日光市,小佐越,トチギケン,ニッコウシ,コサゴエ,栃木県日光市小佐越
3212526,栃木県,日光市,鬼怒川温泉滝,トチギケン,ニッコウシ,キヌガワオンセンタキ,栃木県日光市鬼怒川温泉滝
3212601,栃木県,日光市,湯西川,トチギケン,ニッコウシ,ユニシカワ,栃木県日光市湯西川
3212602,栃木県,日光市,一ツ石,トチギケン,ニッコウシ,ヒトツイシ,栃木県日光市一ツ石
3212603,栃木県,日光市,西川,トチギケン,ニッコウシ,ニシカワ,栃木県日光市西川
3212604,栃木県,日光市,赤下,トチギケン,ニッコウシ,アカシタ,栃木県日光市赤下
3212611,栃木県,日光市,川治温泉川治,トチギケン,ニッコウシ,カワジオンセンカワジ,栃木県日光市川治温泉川治
3212612,栃木県,日光市,川治温泉高原,トチギケン,ニッコウシ,カワジオンセンタカハラ,栃木県日光市川治温泉高原
3212613,栃木県,日光市,藤原（１０４７〜１２６８及び下平）,トチギケン,ニッコウシ,フジハラ(1047-1268オヨビシモタイラ),栃木県日光市藤原（1047〜1268及び下平）
3212614,栃木県,日光市,川治温泉滝,トチギケン,ニッコウシ,カワジオンセンタキ,栃木県日光市川治温泉滝
3212615,栃木県,日光市,五十里（東山）,トチギケン,ニッコウシ,イカリ(ヒガシヤマ),栃木県日光市五十里（東山）
3212616,栃木県,日光市,高原,トチギケン,ニッコウシ,タカハラ,栃木県日光市高原
3212711,栃木県,日光市,日向,トチギケン,ニッコウシ,ヒナタ,栃木県日光市日向
3212712,栃木県,日光市,日蔭,トチギケン,ニッコウシ,ヒカゲ,栃木県日光市日蔭
3212713,栃木県,日光市,黒部,トチギケン,ニッコウシ,クロベ,栃木県日光市黒部
3212714,栃木県,日光市,土呂部,トチギケン,ニッコウシ,ドロブ,栃木県日光市土呂部
3212715,栃木県,日光市,上栗山,トチギケン,ニッコウシ,カミクリヤマ,栃木県日光市上栗山
3212716,栃木県,日光市,野門,トチギケン,ニッコウシ,ノカド,栃木県日光市野門
3212717,栃木県,日光市,川俣,トチギケン,ニッコウシ,カワマタ,栃木県日光市川俣
3212718,栃木県,日光市,若間,トチギケン,ニッコウシ,ワカマ,栃木県日光市若間
3212801,栃木県,日光市,横川,トチギケン,ニッコウシ,ヨコカワ,栃木県日光市横川
3212802,栃木県,日光市,上三依,トチギケン,ニッコウシ,カミミヨリ,栃木県日光市上三依
3212803,栃木県,日光市,中三依,トチギケン,ニッコウシ,ナカミヨリ,栃木県日光市中三依
3212804,栃木県,日光市,芹沢,トチギケン,ニッコウシ,セリサワ,栃木県日光市芹沢
3212805,栃木県,日光市,独鈷沢,トチギケン,ニッコウシ,トッコザワ,栃木県日光市独鈷沢
3212806,栃木県,日光市,五十里（その他）,トチギケン,ニッコウシ,イカリ(ソノタ),栃木県日光市五十里（その他）
3213221,栃木県,宇都宮市,板戸町,トチギケン,ウツノミヤシ,イタドマチ,栃木県宇都宮市板戸町
3213222,栃木県,宇都宮市,野高谷町,トチギケン,ウツノミヤシ,ノゴヤマチ,栃木県宇都宮市野高谷町
3213223,栃木県,宇都宮市,清原台,トチギケン,ウツノミヤシ,キヨハラダイ,栃木県宇都宮市清原台
3213224,栃木県,宇都宮市,刈沼町,トチギケン,ウツノミヤシ,カリヌママチ,栃木県宇都宮市刈沼町
3213225,栃木県,宇都宮市,満美穴町,トチギケン,ウツノミヤシ,マミアナマチ,栃木県宇都宮市満美穴町
3213226,栃木県,宇都宮市,ゆいの杜,トチギケン,ウツノミヤシ,ユイノモリ,栃木県宇都宮市ゆいの杜
3213231,栃木県,宇都宮市,清原工業団地,トチギケン,ウツノミヤシ,キヨハラコウギョウダンチ,栃木県宇都宮市清原工業団地
3213232,栃木県,宇都宮市,氷室町,トチギケン,ウツノミヤシ,ヒムロマチ,栃木県宇都宮市氷室町
3213233,栃木県,宇都宮市,上籠谷町,トチギケン,ウツノミヤシ,カミコモリヤマチ,栃木県宇都宮市上籠谷町
3213234,栃木県,宇都宮市,桑島町,トチギケン,ウツノミヤシ,クワジママチ,栃木県宇都宮市桑島町
3213235,栃木県,宇都宮市,鐺山町,トチギケン,ウツノミヤシ,コテヤママチ,栃木県宇都宮市鐺山町
3213236,栃木県,宇都宮市,竹下町,トチギケン,ウツノミヤシ,タケシタマチ,栃木県宇都宮市竹下町
3213237,栃木県,宇都宮市,道場宿町,トチギケン,ウツノミヤシ,ドウジョウジュクマチ,栃木県宇都宮市道場宿町
3213300,栃木県,芳賀郡芳賀町,,トチギケン,ハガグンハガマチ,,栃木県芳賀郡芳賀町
3213301,栃木県,芳賀郡芳賀町,給部,トチギケン,ハガグンハガマチ,キュウブ,栃木県芳賀郡芳賀町給部
3213302,栃木県,芳賀郡芳賀町,上稲毛田,トチギケン,ハガグンハガマチ,カミイナゲタ,栃木県芳賀郡芳賀町上稲毛田
3213303,栃木県,芳賀郡芳賀町,稲毛田,トチギケン,ハガグンハガマチ,イナゲタ,栃木県芳賀郡芳賀町稲毛田
3213304,栃木県,芳賀郡芳賀町,祖母井,トチギケン,ハガグンハガマチ,ウバガイ,栃木県芳賀郡芳賀町祖母井
3213305,栃木県,芳賀郡芳賀町,芳志戸,トチギケン,ハガグンハガマチ,ホウシト,栃木県芳賀郡芳賀町芳志戸
3213306,栃木県,芳賀郡芳賀町,八ツ木,トチギケン,ハガグンハガマチ,ヤツギ,栃木県芳賀郡芳賀町八ツ木
3213307,栃木県,芳賀郡芳賀町,祖母井南,トチギケン,ハガグンハガマチ,ウバガイミナミ,栃木県芳賀郡芳賀町祖母井南
3213311,栃木県,芳賀郡芳賀町,上延生,トチギケン,ハガグンハガマチ,カミノブ,栃木県芳賀郡芳賀町上延生
3213312,栃木県,芳賀郡芳賀町,下延生,トチギケン,ハガグンハガマチ,シモノブ,栃木県芳賀郡芳賀町下延生
3213313,栃木県,芳賀郡芳賀町,東高橋,トチギケン,ハガグンハガマチ,ヒガシタカハシ,栃木県芳賀郡芳賀町東高橋
3213314,栃木県,芳賀郡芳賀町,打越新田,トチギケン,ハガグンハガマチ,ウチゴシンデン,栃木県芳賀郡芳賀町打越新田
3213315,栃木県,芳賀郡芳賀町,西高橋,トチギケン,ハガグンハガマチ,ニシタカハシ,栃木県芳賀郡芳賀町西高橋
3213316,栃木県,芳賀郡芳賀町,与能,トチギケン,ハガグンハガマチ,ヨノウ,栃木県芳賀郡芳賀町与能
3213321,栃木県,芳賀郡芳賀町,下高根沢,トチギケン,ハガグンハガマチ,シモタカネザワ,栃木県芳賀郡芳賀町下高根沢
3213322,栃木県,芳賀郡芳賀町,東水沼,トチギケン,ハガグンハガマチ,ヒガシミズヌマ,栃木県芳賀郡芳賀町東水沼
3213323,栃木県,芳賀郡芳賀町,北長島,トチギケン,ハガグンハガマチ,キタナガシマ,栃木県芳賀郡芳賀町北長島
3213324,栃木県,芳賀郡芳賀町,西水沼,トチギケン,ハガグンハガマチ,ニシミズヌマ,栃木県芳賀郡芳賀町西水沼
3213325,栃木県,芳賀郡芳賀町,芳賀台,トチギケン,ハガグンハガマチ,ハガダイ,栃木県芳賀郡芳賀町芳賀台
3213400,栃木県,芳賀郡市貝町,,トチギケン,ハガグンイチカイマチ,,栃木県芳賀郡市貝町
3213401,栃木県,芳賀郡市貝町,竹内,トチギケン,ハガグンイチカイマチ,タケウチ,栃木県芳賀郡市貝町竹内
3213402,栃木県,芳賀郡市貝町,見上,トチギケン,ハガグンイチカイマチ,ミアゲ,栃木県芳賀郡市貝町見上
3213403,栃木県,芳賀郡市貝町,羽仏,トチギケン,ハガグンイチカイマチ,ハブツ,栃木県芳賀郡市貝町羽仏
3213404,栃木県,芳賀郡市貝町,続谷,トチギケン,ハガグンイチカイマチ,ツヅキヤ,栃木県芳賀郡市貝町続谷
3213405,栃木県,芳賀郡市貝町,大谷津,トチギケン,ハガグンイチカイマチ,オオヤツ,栃木県芳賀郡市貝町大谷津
3213406,栃木県,芳賀郡市貝町,塩田,トチギケン,ハガグンイチカイマチ,シオダ,栃木県芳賀郡市貝町塩田
3213411,栃木県,芳賀郡市貝町,刈生田,トチギケン,ハガグンイチカイマチ,カリウタ,栃木県芳賀郡市貝町刈生田
3213412,栃木県,芳賀郡市貝町,田野辺,トチギケン,ハガグンイチカイマチ,タノベ,栃木県芳賀郡市貝町田野辺
3213413,栃木県,芳賀郡市貝町,文谷,トチギケン,ハガグンイチカイマチ,フミヤ,栃木県芳賀郡市貝町文谷
3213414,栃木県,芳賀郡市貝町,椎谷,トチギケン,ハガグンイチカイマチ,シュウガイ,栃木県芳賀郡市貝町椎谷
3213415,栃木県,芳賀郡市貝町,杉山,トチギケン,ハガグンイチカイマチ,スギヤマ,栃木県芳賀郡市貝町杉山
3213421,栃木県,芳賀郡市貝町,笹原田,トチギケン,ハガグンイチカイマチ,ササハラダ,栃木県芳賀郡市貝町笹原田
3213422,栃木県,芳賀郡市貝町,石下,トチギケン,ハガグンイチカイマチ,イシオロシ,栃木県芳賀郡市貝町石下
3213423,栃木県,芳賀郡市貝町,市塙,トチギケン,ハガグンイチカイマチ,イチハナ,栃木県芳賀郡市貝町市塙
3213424,栃木県,芳賀郡市貝町,上根,トチギケン,ハガグンイチカイマチ,カミネ,栃木県芳賀郡市貝町上根
3213425,栃木県,芳賀郡市貝町,多田羅,トチギケン,ハガグンイチカイマチ,タタラ,栃木県芳賀郡市貝町多田羅
3213426,栃木県,芳賀郡市貝町,赤羽,トチギケン,ハガグンイチカイマチ,アカバネ,栃木県芳賀郡市貝町赤羽
3213500,栃木県,芳賀郡茂木町,,トチギケン,ハガグンモテギマチ,,栃木県芳賀郡茂木町
3213531,栃木県,芳賀郡茂木町,茂木,トチギケン,ハガグンモテギマチ,モテギ,栃木県芳賀郡茂木町茂木
3213532,栃木県,芳賀郡茂木町,三坂,トチギケン,ハガグンモテギマチ,ミサカ,栃木県芳賀郡茂木町三坂
3213533,栃木県,芳賀郡茂木町,桧山（その他）,トチギケン,ハガグンモテギマチ,ヒヤマ(ソノタ),栃木県芳賀郡茂木町桧山（その他）
3213534,栃木県,芳賀郡茂木町,青梅,トチギケン,ハガグンモテギマチ,オウメ,栃木県芳賀郡茂木町青梅
3213535,栃木県,芳賀郡茂木町,鮎田,トチギケン,ハガグンモテギマチ,アイダ,栃木県芳賀郡茂木町鮎田
3213536,栃木県,芳賀郡茂木町,神井,トチギケン,ハガグンモテギマチ,カノイ,栃木県芳賀郡茂木町神井
3213541,栃木県,芳賀郡茂木町,烏生田,トチギケン,ハガグンモテギマチ,ウゴウダ,栃木県芳賀郡茂木町烏生田
3213542,栃木県,芳賀郡茂木町,九石,トチギケン,ハガグンモテギマチ,サザラシ,栃木県芳賀郡茂木町九石
3213543,栃木県,芳賀郡茂木町,上後郷,トチギケン,ハガグンモテギマチ,カミウラゴウ,栃木県芳賀郡茂木町上後郷
3213544,栃木県,芳賀郡茂木町,坂井,トチギケン,ハガグンモテギマチ,サカノイ,栃木県芳賀郡茂木町坂井
3213545,栃木県,芳賀郡茂木町,下菅又,トチギケン,ハガグンモテギマチ,シモスガマタ,栃木県芳賀郡茂木町下菅又
3213546,栃木県,芳賀郡茂木町,上菅又,トチギケン,ハガグンモテギマチ,カミスガマタ,栃木県芳賀郡茂木町上菅又
3213547,栃木県,芳賀郡茂木町,千本,トチギケン,ハガグンモテギマチ,センボ,栃木県芳賀郡茂木町千本
3213551,栃木県,芳賀郡茂木町,生井,トチギケン,ハガグンモテギマチ,ナマイ,栃木県芳賀郡茂木町生井
3213552,栃木県,芳賀郡茂木町,竹原,トチギケン,ハガグンモテギマチ,タケワラ,栃木県芳賀郡茂木町竹原
3213553,栃木県,芳賀郡茂木町,大畑,トチギケン,ハガグンモテギマチ,オオバタケ,栃木県芳賀郡茂木町大畑
3213554,栃木県,芳賀郡茂木町,大瀬,トチギケン,ハガグンモテギマチ,オオセ,栃木県芳賀郡茂木町大瀬
3213555,栃木県,芳賀郡茂木町,所草,トチギケン,ハガグンモテギマチ,トコロクサ,栃木県芳賀郡茂木町所草
3213556,栃木県,芳賀郡茂木町,町田,トチギケン,ハガグンモテギマチ,マチダ,栃木県芳賀郡茂木町町田
3213557,栃木県,芳賀郡茂木町,黒田,トチギケン,ハガグンモテギマチ,クロダ,栃木県芳賀郡茂木町黒田
3213561,栃木県,芳賀郡茂木町,後郷,トチギケン,ハガグンモテギマチ,ウラゴウ,栃木県芳賀郡茂木町後郷
3213562,栃木県,芳賀郡茂木町,馬門,トチギケン,ハガグンモテギマチ,マカド,栃木県芳賀郡茂木町馬門
3213563,栃木県,芳賀郡茂木町,林,トチギケン,ハガグンモテギマチ,ハヤシ,栃木県芳賀郡茂木町林
3213564,栃木県,芳賀郡茂木町,増井,トチギケン,ハガグンモテギマチ,マシイ,栃木県芳賀郡茂木町増井
3213565,栃木県,芳賀郡茂木町,塩田,トチギケン,ハガグンモテギマチ,シオダ,栃木県芳賀郡茂木町塩田
3213566,栃木県,芳賀郡茂木町,小井戸,トチギケン,ハガグンモテギマチ,コイド,栃木県芳賀郡茂木町小井戸
3213621,栃木県,芳賀郡茂木町,天子,トチギケン,ハガグンモテギマチ,アマコ,栃木県芳賀郡茂木町天子
3213622,栃木県,芳賀郡茂木町,北高岡,トチギケン,ハガグンモテギマチ,キタタカオカ,栃木県芳賀郡茂木町北高岡
3213623,栃木県,芳賀郡茂木町,木幡,トチギケン,ハガグンモテギマチ,キバタ,栃木県芳賀郡茂木町木幡
3213624,栃木県,芳賀郡茂木町,小山,トチギケン,ハガグンモテギマチ,オヤマ,栃木県芳賀郡茂木町小山
3213625,栃木県,芳賀郡茂木町,福手,トチギケン,ハガグンモテギマチ,フグテ,栃木県芳賀郡茂木町福手
3213626,栃木県,芳賀郡茂木町,飯,トチギケン,ハガグンモテギマチ,イイ,栃木県芳賀郡茂木町飯
3213627,栃木県,芳賀郡茂木町,小貫,トチギケン,ハガグンモテギマチ,オヌキ,栃木県芳賀郡茂木町小貫
3213628,栃木県,芳賀郡茂木町,深沢,トチギケン,ハガグンモテギマチ,フカサワ,栃木県芳賀郡茂木町深沢
3213701,栃木県,芳賀郡茂木町,山内,トチギケン,ハガグンモテギマチ,ヤマウチ,栃木県芳賀郡茂木町山内
3213702,栃木県,芳賀郡茂木町,飯野,トチギケン,ハガグンモテギマチ,イイノ,栃木県芳賀郡茂木町飯野
3213703,栃木県,芳賀郡茂木町,河井,トチギケン,ハガグンモテギマチ,カワイ,栃木県芳賀郡茂木町河井
3213704,栃木県,芳賀郡茂木町,牧野,トチギケン,ハガグンモテギマチ,マギノ,栃木県芳賀郡茂木町牧野
3213705,栃木県,芳賀郡茂木町,入郷,トチギケン,ハガグンモテギマチ,イリゴウ,栃木県芳賀郡茂木町入郷
3213706,栃木県,芳賀郡茂木町,河又,トチギケン,ハガグンモテギマチ,カワマタ,栃木県芳賀郡茂木町河又
3213707,栃木県,芳賀郡茂木町,小深,トチギケン,ハガグンモテギマチ,オブカ,栃木県芳賀郡茂木町小深
3214101,栃木県,芳賀郡益子町,小宅,トチギケン,ハガグンマシコマチ,オヤケ,栃木県芳賀郡益子町小宅
3214102,栃木県,芳賀郡益子町,芦沼,トチギケン,ハガグンマシコマチ,アシヌマ,栃木県芳賀郡益子町芦沼
3214103,栃木県,芳賀郡益子町,大平,トチギケン,ハガグンマシコマチ,オオヒラ,栃木県芳賀郡益子町大平
3214104,栃木県,芳賀郡益子町,大沢,トチギケン,ハガグンマシコマチ,オオサワ,栃木県芳賀郡益子町大沢
3214105,栃木県,芳賀郡益子町,北中,トチギケン,ハガグンマシコマチ,キタナカ,栃木県芳賀郡益子町北中
3214106,栃木県,芳賀郡益子町,七井,トチギケン,ハガグンマシコマチ,ナナイ,栃木県芳賀郡益子町七井
3214107,栃木県,芳賀郡益子町,七井中央,トチギケン,ハガグンマシコマチ,ナナイチュウオウ,栃木県芳賀郡益子町七井中央
3214200,栃木県,芳賀郡益子町,,トチギケン,ハガグンマシコマチ,,栃木県芳賀郡益子町
3214211,栃木県,芳賀郡益子町,下大羽,トチギケン,ハガグンマシコマチ,シモオオバ,栃木県芳賀郡益子町下大羽
3214212,栃木県,芳賀郡益子町,上大羽,トチギケン,ハガグンマシコマチ,カミオオバ,栃木県芳賀郡益子町上大羽
3214213,栃木県,芳賀郡益子町,山本,トチギケン,ハガグンマシコマチ,ヤマモト,栃木県芳賀郡益子町山本
3214214,栃木県,芳賀郡益子町,前沢,トチギケン,ハガグンマシコマチ,マエザワ,栃木県芳賀郡益子町前沢
3214215,栃木県,芳賀郡益子町,生田目,トチギケン,ハガグンマシコマチ,ナバタメ,栃木県芳賀郡益子町生田目
3214216,栃木県,芳賀郡益子町,塙,トチギケン,ハガグンマシコマチ,ハナワ,栃木県芳賀郡益子町塙
3214217,栃木県,芳賀郡益子町,益子,トチギケン,ハガグンマシコマチ,マシコ,栃木県芳賀郡益子町益子
3214218,栃木県,芳賀郡益子町,城内坂,トチギケン,ハガグンマシコマチ,ジョウナイザカ,栃木県芳賀郡益子町城内坂
3214221,栃木県,芳賀郡益子町,大郷戸,トチギケン,ハガグンマシコマチ,オオゴウド,栃木県芳賀郡益子町大郷戸
3214222,栃木県,芳賀郡益子町,小泉,トチギケン,ハガグンマシコマチ,コイズミ,栃木県芳賀郡益子町小泉
3214223,栃木県,芳賀郡益子町,梅ケ内,トチギケン,ハガグンマシコマチ,ウメガウチ,栃木県芳賀郡益子町梅ケ内
3214224,栃木県,芳賀郡益子町,本沼,トチギケン,ハガグンマシコマチ,モトヌマ,栃木県芳賀郡益子町本沼
3214225,栃木県,芳賀郡益子町,長堤,トチギケン,ハガグンマシコマチ,ナガツツミ,栃木県芳賀郡益子町長堤
3214226,栃木県,芳賀郡益子町,上山,トチギケン,ハガグンマシコマチ,カミヤマ,栃木県芳賀郡益子町上山
3214227,栃木県,芳賀郡益子町,東田井,トチギケン,ハガグンマシコマチ,ヒガシダイ,栃木県芳賀郡益子町東田井
3214300,栃木県,真岡市,,トチギケン,モオカシ,,栃木県真岡市
3214301,栃木県,真岡市,西田井,トチギケン,モオカシ,ニシダイ,栃木県真岡市西田井
3214302,栃木県,真岡市,鶴田,トチギケン,モオカシ,ツルタ,栃木県真岡市鶴田
3214303,栃木県,真岡市,八條,トチギケン,モオカシ,ハチジョウ,栃木県真岡市八條
3214304,栃木県,真岡市,東郷,トチギケン,モオカシ,ヒガシゴウ,栃木県真岡市東郷
3214305,栃木県,真岡市,荒町,トチギケン,モオカシ,アラマチ,栃木県真岡市荒町
3214306,栃木県,真岡市,台町,トチギケン,モオカシ,ダイマチ,栃木県真岡市台町
3214307,栃木県,真岡市,西郷,トチギケン,モオカシ,ニシゴウ,栃木県真岡市西郷
3214308,栃木県,真岡市,中郷,トチギケン,モオカシ,ナカゴウ,栃木県真岡市中郷
3214309,栃木県,真岡市,東光寺,トチギケン,モオカシ,トウコウジ,栃木県真岡市東光寺
3214311,栃木県,真岡市,根本,トチギケン,モオカシ,ネモト,栃木県真岡市根本
3214312,栃木県,真岡市,青谷,トチギケン,モオカシ,アオヤ,栃木県真岡市青谷
3214313,栃木県,真岡市,須釜,トチギケン,モオカシ,スガマ,栃木県真岡市須釜
3214314,栃木県,真岡市,南高岡,トチギケン,モオカシ,ミナミタカオカ,栃木県真岡市南高岡
3214315,栃木県,真岡市,道祖土,トチギケン,モオカシ,サヤド,栃木県真岡市道祖土
3214316,栃木県,真岡市,君島,トチギケン,モオカシ,キミジマ,栃木県真岡市君島
3214321,栃木県,真岡市,小林,トチギケン,モオカシ,コバヤシ,栃木県真岡市小林
3214322,栃木県,真岡市,東大島,トチギケン,モオカシ,ヒガシオオシマ,栃木県真岡市東大島
3214323,栃木県,真岡市,東沼,トチギケン,モオカシ,ヒガシヌマ,栃木県真岡市東沼
3214324,栃木県,真岡市,西沼,トチギケン,モオカシ,ニシヌマ,栃木県真岡市西沼
3214325,栃木県,真岡市,田町,トチギケン,モオカシ,タマチ,栃木県真岡市田町
3214326,栃木県,真岡市,島,トチギケン,モオカシ,シマ,栃木県真岡市島
3214331,栃木県,真岡市,白布ケ丘,トチギケン,モオカシ,ハクフガオカ,栃木県真岡市白布ケ丘
3214332,栃木県,真岡市,大谷新町,トチギケン,モオカシ,オオヤシンマチ,栃木県真岡市大谷新町
3214333,栃木県,真岡市,大谷本町,トチギケン,モオカシ,オオヤホンマチ,栃木県真岡市大谷本町
3214334,栃木県,真岡市,八木岡,トチギケン,モオカシ,ヤギオカ,栃木県真岡市八木岡
3214335,栃木県,真岡市,下高間木,トチギケン,モオカシ,シモコウマギ,栃木県真岡市下高間木
3214336,栃木県,真岡市,西高間木,トチギケン,モオカシ,ニシコウマギ,栃木県真岡市西高間木
3214337,栃木県,真岡市,上高間木,トチギケン,モオカシ,カミコウマギ,栃木県真岡市上高間木
3214338,栃木県,真岡市,大谷台町,トチギケン,モオカシ,オオヤダイマチ,栃木県真岡市大谷台町
3214341,栃木県,真岡市,高勢町,トチギケン,モオカシ,タカセチョウ,栃木県真岡市高勢町
3214342,栃木県,真岡市,伊勢崎,トチギケン,モオカシ,イセサキ,栃木県真岡市伊勢崎
3214343,栃木県,真岡市,小橋,トチギケン,モオカシ,コバシ,栃木県真岡市小橋
3214344,栃木県,真岡市,茅堤,トチギケン,モオカシ,カヤツツミ,栃木県真岡市茅堤
3214345,栃木県,真岡市,寺内,トチギケン,モオカシ,テラウチ,栃木県真岡市寺内
3214346,栃木県,真岡市,松山町,トチギケン,モオカシ,マツヤマチョウ,栃木県真岡市松山町
3214347,栃木県,真岡市,加倉,トチギケン,モオカシ,カクラ,栃木県真岡市加倉
3214351,栃木県,真岡市,中,トチギケン,モオカシ,ナカ,栃木県真岡市中
3214352,栃木県,真岡市,若旅（その他）,トチギケン,モオカシ,ワカタビ(ソノタ),栃木県真岡市若旅（その他）
3214353,栃木県,真岡市,粕田,トチギケン,モオカシ,カスダ,栃木県真岡市粕田
3214354,栃木県,真岡市,寺分,トチギケン,モオカシ,テラブン,栃木県真岡市寺分
3214355,栃木県,真岡市,上大沼,トチギケン,モオカシ,カミオオヌマ,栃木県真岡市上大沼
3214356,栃木県,真岡市,大沼,トチギケン,モオカシ,オオヌマ,栃木県真岡市大沼
3214357,栃木県,真岡市,下大沼,トチギケン,モオカシ,シモオオヌマ,栃木県真岡市下大沼
3214361,栃木県,真岡市,並木町,トチギケン,モオカシ,ナミキチョウ,栃木県真岡市並木町
3214362,栃木県,真岡市,熊倉町,トチギケン,モオカシ,クマクラチョウ,栃木県真岡市熊倉町
3214363,栃木県,真岡市,亀山,トチギケン,モオカシ,カメヤマ,栃木県真岡市亀山
3214364,栃木県,真岡市,長田,トチギケン,モオカシ,ナガタ,栃木県真岡市長田
3214365,栃木県,真岡市,柳林,トチギケン,モオカシ,ヤナギバヤシ,栃木県真岡市柳林
3214366,栃木県,真岡市,勝瓜,トチギケン,モオカシ,カツウリ,栃木県真岡市勝瓜
3214367,栃木県,真岡市,鬼怒ケ丘,トチギケン,モオカシ,キヌガオカ,栃木県真岡市鬼怒ケ丘
3214368,栃木県,真岡市,寺久保,トチギケン,モオカシ,テラクボ,栃木県真岡市寺久保
3214369,栃木県,真岡市,熊倉,トチギケン,モオカシ,クマクラ,栃木県真岡市熊倉
3214401,栃木県,真岡市,赤羽,トチギケン,モオカシ,アカバネ,栃木県真岡市赤羽
3214402,栃木県,真岡市,清水,トチギケン,モオカシ,シミズ,栃木県真岡市清水
3214403,栃木県,真岡市,原町,トチギケン,モオカシ,ハラマチ,栃木県真岡市原町
3214404,栃木県,真岡市,田島,トチギケン,モオカシ,タジマ,栃木県真岡市田島
3214405,栃木県,真岡市,飯貝,トチギケン,モオカシ,イイガイ,栃木県真岡市飯貝
3214406,栃木県,真岡市,京泉,トチギケン,モオカシ,キョウセン,栃木県真岡市京泉
3214411,栃木県,真岡市,上大田和,トチギケン,モオカシ,カミオオダワ,栃木県真岡市上大田和
3214412,栃木県,真岡市,堀内,トチギケン,モオカシ,ホリウチ,栃木県真岡市堀内
3214413,栃木県,真岡市,下大田和,トチギケン,モオカシ,シモオオダワ,栃木県真岡市下大田和
3214414,栃木県,真岡市,下鷺谷,トチギケン,モオカシ,シモサギノヤ,栃木県真岡市下鷺谷
3214415,栃木県,真岡市,下籠谷,トチギケン,モオカシ,シモコモリヤ,栃木県真岡市下籠谷
3214416,栃木県,真岡市,上鷺谷,トチギケン,モオカシ,カミサギノヤ,栃木県真岡市上鷺谷
3214501,栃木県,真岡市,横田,トチギケン,モオカシ,ヨコタ,栃木県真岡市横田
3214502,栃木県,真岡市,物井,トチギケン,モオカシ,モノイ,栃木県真岡市物井
3214503,栃木県,真岡市,桑ノ川,トチギケン,モオカシ,クワノガワ,栃木県真岡市桑ノ川
3214504,栃木県,真岡市,鹿,トチギケン,モオカシ,シカ,栃木県真岡市鹿
3214505,栃木県,真岡市,沖,トチギケン,モオカシ,オキ,栃木県真岡市沖
3214506,栃木県,真岡市,大根田,トチギケン,モオカシ,オオネダ,栃木県真岡市大根田
3214507,栃木県,真岡市,石島,トチギケン,モオカシ,イシジマ,栃木県真岡市石島
3214508,栃木県,真岡市,大和田,トチギケン,モオカシ,オオワダ,栃木県真岡市大和田
3214511,栃木県,真岡市,高田,トチギケン,モオカシ,タカダ,栃木県真岡市高田
3214512,栃木県,真岡市,阿部岡,トチギケン,モオカシ,アベオカ,栃木県真岡市阿部岡
3214513,栃木県,真岡市,三谷,トチギケン,モオカシ,ミヤ,栃木県真岡市三谷
3214514,栃木県,真岡市,水戸部,トチギケン,モオカシ,ミトベ,栃木県真岡市水戸部
3214515,栃木県,真岡市,反町,トチギケン,モオカシ,ソリマチ,栃木県真岡市反町
3214516,栃木県,真岡市,根小屋,トチギケン,モオカシ,ネゴヤ,栃木県真岡市根小屋
3214517,栃木県,真岡市,阿部品,トチギケン,モオカシ,アベシナ,栃木県真岡市阿部品
3214521,栃木県,真岡市,久下田,トチギケン,モオカシ,クゲタ,栃木県真岡市久下田
3214522,栃木県,真岡市,久下田西,トチギケン,モオカシ,クゲタニシ,栃木県真岡市久下田西
3214523,栃木県,真岡市,さくら,トチギケン,モオカシ,サクラ,栃木県真岡市さくら
3214531,栃木県,真岡市,青田,トチギケン,モオカシ,アオタ,栃木県真岡市青田
3214532,栃木県,真岡市,長島,トチギケン,モオカシ,ナガシマ,栃木県真岡市長島
3214533,栃木県,真岡市,程島,トチギケン,モオカシ,ホドシマ,栃木県真岡市程島
3214534,栃木県,真岡市,境,トチギケン,モオカシ,サカイ,栃木県真岡市境
3214535,栃木県,真岡市,古山,トチギケン,モオカシ,コヤマ,栃木県真岡市古山
3214536,栃木県,真岡市,上江連,トチギケン,モオカシ,カミエヅラ,栃木県真岡市上江連
3214537,栃木県,真岡市,西大島,トチギケン,モオカシ,ニシオオジマ,栃木県真岡市西大島
3214538,栃木県,真岡市,鷲巣,トチギケン,モオカシ,ワシノス,栃木県真岡市鷲巣
3214539,栃木県,真岡市,長沼,トチギケン,モオカシ,ナガヌマ,栃木県真岡市長沼
3214541,栃木県,真岡市,上谷貝,トチギケン,モオカシ,カミヤガイ,栃木県真岡市上谷貝
3214542,栃木県,真岡市,上大曽,トチギケン,モオカシ,カミオオゾ,栃木県真岡市上大曽
3214543,栃木県,真岡市,下大曽,トチギケン,モオカシ,シモオオゾ,栃木県真岡市下大曽
3214544,栃木県,真岡市,堀込,トチギケン,モオカシ,ホリゴメ,栃木県真岡市堀込
3214545,栃木県,真岡市,大道泉,トチギケン,モオカシ,ダイドウイズミ,栃木県真岡市大道泉
3214546,栃木県,真岡市,砂ケ原,トチギケン,モオカシ,イサガハラ,栃木県真岡市砂ケ原
3214547,栃木県,真岡市,谷貝新田,トチギケン,モオカシ,ヤガイシンデン,栃木県真岡市谷貝新田
3214551,栃木県,真岡市,若旅（五丁歩）,トチギケン,モオカシ,ワカタビ(5チョウブ),栃木県真岡市若旅（五丁歩）
3220000,栃木県,鹿沼市,,トチギケン,カヌマシ,,栃木県鹿沼市
3220001,栃木県,鹿沼市,栃窪,トチギケン,カヌマシ,トチクボ,栃木県鹿沼市栃窪
3220002,栃木県,鹿沼市,千渡,トチギケン,カヌマシ,センド,栃木県鹿沼市千渡
3220003,栃木県,鹿沼市,仁神堂町,トチギケン,カヌマシ,ニガミドウマチ,栃木県鹿沼市仁神堂町
3220004,栃木県,鹿沼市,下武子町,トチギケン,カヌマシ,シモタケシマチ,栃木県鹿沼市下武子町
3220005,栃木県,鹿沼市,御成橋町,トチギケン,カヌマシ,オナリバシチョウ,栃木県鹿沼市御成橋町
3220006,栃木県,鹿沼市,富岡,トチギケン,カヌマシ,トミオカ,栃木県鹿沼市富岡
3220007,栃木県,鹿沼市,武子,トチギケン,カヌマシ,タケシ,栃木県鹿沼市武子
3220008,栃木県,鹿沼市,古賀志町,トチギケン,カヌマシ,コガシマチ,栃木県鹿沼市古賀志町
3220009,栃木県,鹿沼市,高谷,トチギケン,カヌマシ,コウヤ,栃木県鹿沼市高谷
3220011,栃木県,鹿沼市,白桑田,トチギケン,カヌマシ,シラクワダ,栃木県鹿沼市白桑田
3220012,栃木県,鹿沼市,松原,トチギケン,カヌマシ,マツバラ,栃木県鹿沼市松原
3220013,栃木県,鹿沼市,深津,トチギケン,カヌマシ,フカヅ,栃木県鹿沼市深津
3220014,栃木県,鹿沼市,さつき町,トチギケン,カヌマシ,サツキチョウ,栃木県鹿沼市さつき町
3220015,栃木県,鹿沼市,上石川,トチギケン,カヌマシ,カミイシカワ,栃木県鹿沼市上石川
3220016,栃木県,鹿沼市,流通センター,トチギケン,カヌマシ,リュウツウセンター,栃木県鹿沼市流通センター
3220017,栃木県,鹿沼市,下石川,トチギケン,カヌマシ,シモイシカワ,栃木県鹿沼市下石川
3220018,栃木県,鹿沼市,池ノ森,トチギケン,カヌマシ,イケノモリ,栃木県鹿沼市池ノ森
3220021,栃木県,鹿沼市,上野町,トチギケン,カヌマシ,ウワノマチ,栃木県鹿沼市上野町
3220022,栃木県,鹿沼市,東町,トチギケン,カヌマシ,アズマチョウ,栃木県鹿沼市東町
3220023,栃木県,鹿沼市,幸町,トチギケン,カヌマシ,サイワイチョウ,栃木県鹿沼市幸町
3220024,栃木県,鹿沼市,晃望台,トチギケン,カヌマシ,コウボウダイ,栃木県鹿沼市晃望台
3220025,栃木県,鹿沼市,緑町,トチギケン,カヌマシ,ミドリチョウ,栃木県鹿沼市緑町
3220026,栃木県,鹿沼市,茂呂,トチギケン,カヌマシ,モロ,栃木県鹿沼市茂呂
3220027,栃木県,鹿沼市,貝島町,トチギケン,カヌマシ,カイジママチ,栃木県鹿沼市貝島町
3220028,栃木県,鹿沼市,栄町,トチギケン,カヌマシ,サカエチョウ,栃木県鹿沼市栄町
3220029,栃木県,鹿沼市,西茂呂,トチギケン,カヌマシ,ニシモロ,栃木県鹿沼市西茂呂
3220031,栃木県,鹿沼市,睦町,トチギケン,カヌマシ,ムツミチョウ,栃木県鹿沼市睦町
3220032,栃木県,鹿沼市,府所本町,トチギケン,カヌマシ,フドコロホンチョウ,栃木県鹿沼市府所本町
3220033,栃木県,鹿沼市,府所町,トチギケン,カヌマシ,フドコロチョウ,栃木県鹿沼市府所町
3220034,栃木県,鹿沼市,府中町,トチギケン,カヌマシ,フチュウマチ,栃木県鹿沼市府中町
3220035,栃木県,鹿沼市,朝日町,トチギケン,カヌマシ,アサヒチョウ,栃木県鹿沼市朝日町
3220036,栃木県,鹿沼市,下田町,トチギケン,カヌマシ,シモタマチ,栃木県鹿沼市下田町
3220037,栃木県,鹿沼市,中田町,トチギケン,カヌマシ,ナカタマチ,栃木県鹿沼市中田町
3220038,栃木県,鹿沼市,末広町,トチギケン,カヌマシ,スエヒロチョウ,栃木県鹿沼市末広町
3220039,栃木県,鹿沼市,東末広町,トチギケン,カヌマシ,ヒガシスエヒロチョウ,栃木県鹿沼市東末広町
3220041,栃木県,鹿沼市,三幸町,トチギケン,カヌマシ,サンコウチョウ,栃木県鹿沼市三幸町
3220042,栃木県,鹿沼市,蓬莱町,トチギケン,カヌマシ,ホウライチョウ,栃木県鹿沼市蓬莱町
3220043,栃木県,鹿沼市,万町,トチギケン,カヌマシ,ヨロズチョウ,栃木県鹿沼市万町
3220044,栃木県,鹿沼市,鳥居跡町,トチギケン,カヌマシ,トリイドチョウ,栃木県鹿沼市鳥居跡町
3220045,栃木県,鹿沼市,上殿町,トチギケン,カヌマシ,カミドノマチ,栃木県鹿沼市上殿町
3220046,栃木県,鹿沼市,樅山町,トチギケン,カヌマシ,モミヤママチ,栃木県鹿沼市樅山町
3220047,栃木県,鹿沼市,酒野谷,トチギケン,カヌマシ,サケノヤ,栃木県鹿沼市酒野谷
3220048,栃木県,鹿沼市,村井町,トチギケン,カヌマシ,ムライマチ,栃木県鹿沼市村井町
3220049,栃木県,鹿沼市,花岡町,トチギケン,カヌマシ,ハナオカマチ,栃木県鹿沼市花岡町
3220051,栃木県,鹿沼市,久保町,トチギケン,カヌマシ,クボチョウ,栃木県鹿沼市久保町
3220052,栃木県,鹿沼市,銀座,トチギケン,カヌマシ,ギンザ,栃木県鹿沼市銀座
3220053,栃木県,鹿沼市,仲町,トチギケン,カヌマシ,ナカマチ,栃木県鹿沼市仲町
3220054,栃木県,鹿沼市,下横町,トチギケン,カヌマシ,シモヨコマチ,栃木県鹿沼市下横町
3220055,栃木県,鹿沼市,石橋町,トチギケン,カヌマシ,イシバシチョウ,栃木県鹿沼市石橋町
3220056,栃木県,鹿沼市,下材木町,トチギケン,カヌマシ,シモザイモクチョウ,栃木県鹿沼市下材木町
3220057,栃木県,鹿沼市,寺町,トチギケン,カヌマシ,テラマチ,栃木県鹿沼市寺町
3220058,栃木県,鹿沼市,麻苧町,トチギケン,カヌマシ,アサウチョウ,栃木県鹿沼市麻苧町
3220061,栃木県,鹿沼市,千手町,トチギケン,カヌマシ,センジュマチ,栃木県鹿沼市千手町
3220062,栃木県,鹿沼市,泉町,トチギケン,カヌマシ,イズミチョウ,栃木県鹿沼市泉町
3220063,栃木県,鹿沼市,戸張町,トチギケン,カヌマシ,トハリチョウ,栃木県鹿沼市戸張町
3220064,栃木県,鹿沼市,文化橋町,トチギケン,カヌマシ,ブンカバシチョウ,栃木県鹿沼市文化橋町
3220065,栃木県,鹿沼市,上材木町,トチギケン,カヌマシ,カミザイモクチョウ,栃木県鹿沼市上材木町
3220066,栃木県,鹿沼市,上田町,トチギケン,カヌマシ,カミタマチ,栃木県鹿沼市上田町
3220067,栃木県,鹿沼市,天神町,トチギケン,カヌマシ,テンジンチョウ,栃木県鹿沼市天神町
3220068,栃木県,鹿沼市,今宮町,トチギケン,カヌマシ,イマミヤチョウ,栃木県鹿沼市今宮町
3220069,栃木県,鹿沼市,坂田山,トチギケン,カヌマシ,サカタヤマ,栃木県鹿沼市坂田山
3220071,栃木県,鹿沼市,見野,トチギケン,カヌマシ,ミノ,栃木県鹿沼市見野
3220072,栃木県,鹿沼市,玉田町,トチギケン,カヌマシ,タマダマチ,栃木県鹿沼市玉田町
3220073,栃木県,鹿沼市,西鹿沼町,トチギケン,カヌマシ,ニシカヌママチ,栃木県鹿沼市西鹿沼町
3220074,栃木県,鹿沼市,日吉町,トチギケン,カヌマシ,ヒヨシチョウ,栃木県鹿沼市日吉町
3220075,栃木県,鹿沼市,下日向,トチギケン,カヌマシ,シモヒナタ,栃木県鹿沼市下日向
3220076,栃木県,鹿沼市,上日向,トチギケン,カヌマシ,カミヒナタ,栃木県鹿沼市上日向
3220077,栃木県,鹿沼市,深岩,トチギケン,カヌマシ,フカイワ,栃木県鹿沼市深岩
3220078,栃木県,鹿沼市,笹原田,トチギケン,カヌマシ,ササハラダ,栃木県鹿沼市笹原田
3220079,栃木県,鹿沼市,下遠部,トチギケン,カヌマシ,シモトオベ,栃木県鹿沼市下遠部
3220101,栃木県,鹿沼市,草久,トチギケン,カヌマシ,クサギュウ,栃木県鹿沼市草久
3220102,栃木県,鹿沼市,上大久保,トチギケン,カヌマシ,カミオオクボ,栃木県鹿沼市上大久保
3220103,栃木県,鹿沼市,下大久保,トチギケン,カヌマシ,シモオオクボ,栃木県鹿沼市下大久保
3220251,栃木県,鹿沼市,野尻,トチギケン,カヌマシ,ノジリ,栃木県鹿沼市野尻
3220252,栃木県,鹿沼市,加園,トチギケン,カヌマシ,カゾノ,栃木県鹿沼市加園
3220253,栃木県,鹿沼市,下久我,トチギケン,カヌマシ,シモクガ,栃木県鹿沼市下久我
3220254,栃木県,鹿沼市,上久我,トチギケン,カヌマシ,カミクガ,栃木県鹿沼市上久我
3220255,栃木県,鹿沼市,引田,トチギケン,カヌマシ,ヒキダ,栃木県鹿沼市引田
3220256,栃木県,鹿沼市,下沢,トチギケン,カヌマシ,シモザワ,栃木県鹿沼市下沢
3220301,栃木県,鹿沼市,北半田,トチギケン,カヌマシ,キタハンダ,栃木県鹿沼市北半田
3220302,栃木県,鹿沼市,深程,トチギケン,カヌマシ,フカホド,栃木県鹿沼市深程
3220303,栃木県,鹿沼市,久野,トチギケン,カヌマシ,クノ,栃木県鹿沼市久野
3220304,栃木県,鹿沼市,柏木,トチギケン,カヌマシ,カシワギ,栃木県鹿沼市柏木
3220305,栃木県,鹿沼市,口粟野,トチギケン,カヌマシ,クチアワノ,栃木県鹿沼市口粟野
3220306,栃木県,鹿沼市,中粟野,トチギケン,カヌマシ,ナカアワノ,栃木県鹿沼市中粟野
3220307,栃木県,鹿沼市,入粟野,トチギケン,カヌマシ,イリアワノ,栃木県鹿沼市入粟野
3220341,栃木県,鹿沼市,下南摩町,トチギケン,カヌマシ,シモナンママチ,栃木県鹿沼市下南摩町
3220342,栃木県,鹿沼市,油田町,トチギケン,カヌマシ,アブラデンマチ,栃木県鹿沼市油田町
3220343,栃木県,鹿沼市,佐目町,トチギケン,カヌマシ,サメマチ,栃木県鹿沼市佐目町
3220344,栃木県,鹿沼市,西沢町,トチギケン,カヌマシ,ニシザワマチ,栃木県鹿沼市西沢町
3220345,栃木県,鹿沼市,旭が丘,トチギケン,カヌマシ,アサヒガオカ,栃木県鹿沼市旭が丘
3220346,栃木県,鹿沼市,上南摩町,トチギケン,カヌマシ,カミナンママチ,栃木県鹿沼市上南摩町
3220421,栃木県,鹿沼市,下粕尾,トチギケン,カヌマシ,シモカスオ,栃木県鹿沼市下粕尾
3220422,栃木県,鹿沼市,中粕尾,トチギケン,カヌマシ,ナカカスオ,栃木県鹿沼市中粕尾
3220423,栃木県,鹿沼市,上粕尾,トチギケン,カヌマシ,カミカスオ,栃木県鹿沼市上粕尾
3220521,栃木県,鹿沼市,日光奈良部町,トチギケン,カヌマシ,ニッコウナラブマチ,栃木県鹿沼市日光奈良部町
3220522,栃木県,鹿沼市,上奈良部町,トチギケン,カヌマシ,カミナラブマチ,栃木県鹿沼市上奈良部町
3220523,栃木県,鹿沼市,下奈良部町,トチギケン,カヌマシ,シモナラブマチ,栃木県鹿沼市下奈良部町
3220524,栃木県,鹿沼市,みなみ町,トチギケン,カヌマシ,ミナミチョウ,栃木県鹿沼市みなみ町
3220525,栃木県,鹿沼市,大和田町,トチギケン,カヌマシ,オオワダマチ,栃木県鹿沼市大和田町
3220526,栃木県,鹿沼市,楡木町,トチギケン,カヌマシ,ニレギマチ,栃木県鹿沼市楡木町
3220527,栃木県,鹿沼市,塩山町,トチギケン,カヌマシ,シオヤママチ,栃木県鹿沼市塩山町
3220528,栃木県,鹿沼市,奈佐原町,トチギケン,カヌマシ,ナサハラマチ,栃木県鹿沼市奈佐原町
3220531,栃木県,鹿沼市,南上野町,トチギケン,カヌマシ,ミナミウエノマチ,栃木県鹿沼市南上野町
3220532,栃木県,鹿沼市,藤江町,トチギケン,カヌマシ,フジエマチ,栃木県鹿沼市藤江町
3220533,栃木県,鹿沼市,北赤塚町,トチギケン,カヌマシ,キタアカヅカマチ,栃木県鹿沼市北赤塚町
3220534,栃木県,鹿沼市,亀和田町,トチギケン,カヌマシ,カメワダマチ,栃木県鹿沼市亀和田町
3220535,栃木県,鹿沼市,野沢町,トチギケン,カヌマシ,ノザワマチ,栃木県鹿沼市野沢町
3220536,栃木県,鹿沼市,磯町,トチギケン,カヌマシ,イソマチ,栃木県鹿沼市磯町
3220601,栃木県,栃木市,西方町金崎,トチギケン,トチギシ,ニシカタマチカナサキ,栃木県栃木市西方町金崎
3220602,栃木県,栃木市,西方町金井,トチギケン,トチギシ,ニシカタマチカナイ,栃木県栃木市西方町金井
3220603,栃木県,栃木市,西方町本郷,トチギケン,トチギシ,ニシカタマチホンゴウ,栃木県栃木市西方町本郷
3220604,栃木県,栃木市,西方町元,トチギケン,トチギシ,ニシカタマチモト,栃木県栃木市西方町元
3220605,栃木県,栃木市,西方町真名子,トチギケン,トチギシ,ニシカタマチマナゴ,栃木県栃木市西方町真名子
3220606,栃木県,栃木市,西方町本城,トチギケン,トチギシ,ニシカタマチホンジョウ,栃木県栃木市西方町本城
3230000,栃木県,小山市,,トチギケン,オヤマシ,,栃木県小山市
3230001,栃木県,小山市,小宅,トチギケン,オヤマシ,オヤケ,栃木県小山市小宅
3230002,栃木県,小山市,黒本,トチギケン,オヤマシ,クロモト,栃木県小山市黒本
3230003,栃木県,小山市,東島田,トチギケン,オヤマシ,ヒガシシマダ,栃木県小山市東島田
3230004,栃木県,小山市,島田,トチギケン,オヤマシ,シマダ,栃木県小山市島田
3230005,栃木県,小山市,渋井,トチギケン,オヤマシ,シブイ,栃木県小山市渋井
3230006,栃木県,小山市,荒川,トチギケン,オヤマシ,アラカワ,栃木県小山市荒川
3230007,栃木県,小山市,松沼,トチギケン,オヤマシ,マツヌマ,栃木県小山市松沼
3230008,栃木県,小山市,小薬,トチギケン,オヤマシ,コグスリ,栃木県小山市小薬
3230009,栃木県,小山市,大本,トチギケン,オヤマシ,オオモト,栃木県小山市大本
3230011,栃木県,小山市,南半田,トチギケン,オヤマシ,ミナミハンダ,栃木県小山市南半田
3230012,栃木県,小山市,羽川,トチギケン,オヤマシ,ハネカワ,栃木県小山市羽川
3230013,栃木県,小山市,荒井,トチギケン,オヤマシ,アライ,栃木県小山市荒井
3230014,栃木県,小山市,喜沢,トチギケン,オヤマシ,キザワ,栃木県小山市喜沢
3230015,栃木県,小山市,三拝川岸,トチギケン,オヤマシ,サンバイカワギシ,栃木県小山市三拝川岸
3230016,栃木県,小山市,扶桑,トチギケン,オヤマシ,フソウ,栃木県小山市扶桑
3230017,栃木県,小山市,飯塚,トチギケン,オヤマシ,イイヅカ,栃木県小山市飯塚
3230021,栃木県,小山市,稲葉郷,トチギケン,オヤマシ,イナバゴウ,栃木県小山市稲葉郷
3230022,栃木県,小山市,駅東通り,トチギケン,オヤマシ,エキヒガシドオリ,栃木県小山市駅東通り
3230023,栃木県,小山市,中央町,トチギケン,オヤマシ,チュウオウチョウ,栃木県小山市中央町
3230024,栃木県,小山市,宮本町,トチギケン,オヤマシ,ミヤモトチョウ,栃木県小山市宮本町
3230025,栃木県,小山市,城山町,トチギケン,オヤマシ,シロヤマチョウ,栃木県小山市城山町
3230026,栃木県,小山市,本郷町,トチギケン,オヤマシ,ホンゴウチョウ,栃木県小山市本郷町
3230027,栃木県,小山市,花垣町,トチギケン,オヤマシ,ハナガキチョウ,栃木県小山市花垣町
3230028,栃木県,小山市,若木町,トチギケン,オヤマシ,ワカギチョウ,栃木県小山市若木町
3230029,栃木県,小山市,城北,トチギケン,オヤマシ,ジョウホク,栃木県小山市城北
3230031,栃木県,小山市,八幡町,トチギケン,オヤマシ,ヤハタチョウ,栃木県小山市八幡町
3230032,栃木県,小山市,天神町,トチギケン,オヤマシ,テンジンチョウ,栃木県小山市天神町
3230033,栃木県,小山市,神明町,トチギケン,オヤマシ,シンメイチョウ,栃木県小山市神明町
3230034,栃木県,小山市,神鳥谷（丁目）,トチギケン,オヤマシ,ヒトトノヤ(チョウメ),栃木県小山市神鳥谷（丁目）
3230041,栃木県,小山市,大行寺,トチギケン,オヤマシ,ダイギョウジ,栃木県小山市大行寺
3230042,栃木県,小山市,外城,トチギケン,オヤマシ,トジョウ,栃木県小山市外城
3230043,栃木県,小山市,塩沢,トチギケン,オヤマシ,シオザワ,栃木県小山市塩沢
3230044,栃木県,小山市,間中,トチギケン,オヤマシ,マナカ,栃木県小山市間中
3230045,栃木県,小山市,石ノ上,トチギケン,オヤマシ,イシノウエ,栃木県小山市石ノ上
3230046,栃木県,小山市,萩島,トチギケン,オヤマシ,ハギシマ,栃木県小山市萩島
3230051,栃木県,小山市,生駒,トチギケン,オヤマシ,イコマ,栃木県小山市生駒
3230052,栃木県,小山市,下河原田,トチギケン,オヤマシ,シモカワラダ,栃木県小山市下河原田
3230053,栃木県,小山市,小袋,トチギケン,オヤマシ,コブクロ,栃木県小山市小袋
3230054,栃木県,小山市,井岡,トチギケン,オヤマシ,イオカ,栃木県小山市井岡
3230055,栃木県,小山市,下泉,トチギケン,オヤマシ,シモイズミ,栃木県小山市下泉
3230056,栃木県,小山市,上泉,トチギケン,オヤマシ,カミイズミ,栃木県小山市上泉
3230057,栃木県,小山市,南小林,トチギケン,オヤマシ,ミナミオバヤシ,栃木県小山市南小林
3230058,栃木県,小山市,大川島,トチギケン,オヤマシ,オオカワシマ,栃木県小山市大川島
3230061,栃木県,小山市,卒島,トチギケン,オヤマシ,ソシマ,栃木県小山市卒島
3230062,栃木県,小山市,立木,トチギケン,オヤマシ,タツギ,栃木県小山市立木
3230063,栃木県,小山市,上石塚,トチギケン,オヤマシ,カミイシヅカ,栃木県小山市上石塚
3230064,栃木県,小山市,下石塚,トチギケン,オヤマシ,シモイシヅカ,栃木県小山市下石塚
3230065,栃木県,小山市,下国府塚,トチギケン,オヤマシ,シモコウヅカ,栃木県小山市下国府塚
3230066,栃木県,小山市,上国府塚,トチギケン,オヤマシ,カミコウヅカ,栃木県小山市上国府塚
3230067,栃木県,小山市,今里,トチギケン,オヤマシ,イマザト,栃木県小山市今里
3230068,栃木県,小山市,下初田,トチギケン,オヤマシ,シモハツダ,栃木県小山市下初田
3230069,栃木県,小山市,上初田,トチギケン,オヤマシ,カミハツダ,栃木県小山市上初田
3230101,栃木県,下野市,三王山,トチギケン,シモツケシ,サンノウヤマ,栃木県下野市三王山
3230102,栃木県,下野市,上吉田,トチギケン,シモツケシ,カミヨシダ,栃木県下野市上吉田
3230103,栃木県,下野市,上川島,トチギケン,シモツケシ,カミカワシマ,栃木県下野市上川島
3230104,栃木県,下野市,中川島,トチギケン,シモツケシ,ナカカワシマ,栃木県下野市中川島
3230105,栃木県,下野市,本吉田,トチギケン,シモツケシ,モトヨシダ,栃木県下野市本吉田
3230106,栃木県,下野市,下吉田,トチギケン,シモツケシ,シモヨシダ,栃木県下野市下吉田
3230107,栃木県,下野市,別当河原,トチギケン,シモツケシ,ベットウガワラ,栃木県下野市別当河原
3230111,栃木県,下野市,磯部,トチギケン,シモツケシ,イソベ,栃木県下野市磯部
3230112,栃木県,下野市,東根,トチギケン,シモツケシ,ヒガシネ,栃木県下野市東根
3230113,栃木県,下野市,上坪山,トチギケン,シモツケシ,カミツボヤマ,栃木県下野市上坪山
3230114,栃木県,下野市,絹板,トチギケン,シモツケシ,キヌイタ,栃木県下野市絹板
3230115,栃木県,下野市,下坪山,トチギケン,シモツケシ,シモツボヤマ,栃木県下野市下坪山
3230116,栃木県,下野市,花田,トチギケン,シモツケシ,ハナダ,栃木県下野市花田
3230151,栃木県,小山市,田川,トチギケン,オヤマシ,タガワ,栃木県小山市田川
3230152,栃木県,小山市,延島,トチギケン,オヤマシ,ノブシマ,栃木県小山市延島
3230153,栃木県,小山市,延島新田,トチギケン,オヤマシ,ノブシマシンデン,栃木県小山市延島新田
3230154,栃木県,小山市,高椅,トチギケン,オヤマシ,タカハシ,栃木県小山市高椅
3230155,栃木県,小山市,福良,トチギケン,オヤマシ,フクラ,栃木県小山市福良
3230156,栃木県,小山市,中島,トチギケン,オヤマシ,ナカジマ,栃木県小山市中島
3230157,栃木県,小山市,中河原,トチギケン,オヤマシ,ナカガワラ,栃木県小山市中河原
3230158,栃木県,小山市,梁,トチギケン,オヤマシ,ヤナ,栃木県小山市梁
3230801,栃木県,小山市,鉢形,トチギケン,オヤマシ,ハチガタ,栃木県小山市鉢形
3230802,栃木県,小山市,東山田,トチギケン,オヤマシ,ヒガシヤマダ,栃木県小山市東山田
3230803,栃木県,小山市,北飯田,トチギケン,オヤマシ,キタイイダ,栃木県小山市北飯田
3230804,栃木県,小山市,萱橋,トチギケン,オヤマシ,カヤバシ,栃木県小山市萱橋
3230805,栃木県,小山市,向野,トチギケン,オヤマシ,ムカイノ,栃木県小山市向野
3230806,栃木県,小山市,中久喜,トチギケン,オヤマシ,ナカクキ,栃木県小山市中久喜
3230807,栃木県,小山市,城東,トチギケン,オヤマシ,ジョウトウ,栃木県小山市城東
3230808,栃木県,小山市,出井,トチギケン,オヤマシ,イデイ,栃木県小山市出井
3230811,栃木県,小山市,犬塚,トチギケン,オヤマシ,イヌヅカ,栃木県小山市犬塚
3230812,栃木県,小山市,土塔,トチギケン,オヤマシ,ドトウ,栃木県小山市土塔
3230813,栃木県,小山市,横倉,トチギケン,オヤマシ,ヨコクラ,栃木県小山市横倉
3230814,栃木県,小山市,田間,トチギケン,オヤマシ,タマ,栃木県小山市田間
3230815,栃木県,小山市,武井,トチギケン,オヤマシ,タケイ,栃木県小山市武井
3230816,栃木県,小山市,南和泉,トチギケン,オヤマシ,ミナミイズミ,栃木県小山市南和泉
3230817,栃木県,小山市,東野田,トチギケン,オヤマシ,ヒガシノダ,栃木県小山市東野田
3230818,栃木県,小山市,塚崎,トチギケン,オヤマシ,ツカザキ,栃木県小山市塚崎
3230819,栃木県,小山市,横倉新田,トチギケン,オヤマシ,ヨコクラシンデン,栃木県小山市横倉新田
3230820,栃木県,小山市,西城南,トチギケン,オヤマシ,ニシジョウナン,栃木県小山市西城南
3230821,栃木県,小山市,三峯,トチギケン,オヤマシ,ミツミネ,栃木県小山市三峯
3230822,栃木県,小山市,駅南町,トチギケン,オヤマシ,エキミナミチョウ,栃木県小山市駅南町
3230823,栃木県,小山市,向原新田,トチギケン,オヤマシ,ムカイハラシンデン,栃木県小山市向原新田
3230824,栃木県,小山市,雨ケ谷新田,トチギケン,オヤマシ,アマガヤシンデン,栃木県小山市雨ケ谷新田
3230825,栃木県,小山市,小山,トチギケン,オヤマシ,オヤマ,栃木県小山市小山
3230826,栃木県,小山市,雨ケ谷,トチギケン,オヤマシ,アマガヤ,栃木県小山市雨ケ谷
3230827,栃木県,小山市,神鳥谷（番地）,トチギケン,オヤマシ,ヒトトノヤ(バンチ),栃木県小山市神鳥谷（番地）
3230828,栃木県,小山市,神山,トチギケン,オヤマシ,カミヤマ,栃木県小山市神山
3230829,栃木県,小山市,東城南,トチギケン,オヤマシ,ヒガシジョウナン,栃木県小山市東城南
3230831,栃木県,小山市,雨ケ谷町,トチギケン,オヤマシ,アマガヤチョウ,栃木県小山市雨ケ谷町
3231101,栃木県,栃木市,藤岡町大前,トチギケン,トチギシ,フジオカマチオオマエ,栃木県栃木市藤岡町大前
3231102,栃木県,栃木市,藤岡町赤麻,トチギケン,トチギシ,フジオカマチアカマ,栃木県栃木市藤岡町赤麻
3231103,栃木県,栃木市,藤岡町内野,トチギケン,トチギシ,フジオカマチウチノ,栃木県栃木市藤岡町内野
3231104,栃木県,栃木市,藤岡町藤岡,トチギケン,トチギシ,フジオカマチフジオカ,栃木県栃木市藤岡町藤岡
3231105,栃木県,栃木市,藤岡町甲,トチギケン,トチギシ,フジオカマチコウ,栃木県栃木市藤岡町甲
3231106,栃木県,栃木市,藤岡町都賀,トチギケン,トチギシ,フジオカマチツガ,栃木県栃木市藤岡町都賀
3231107,栃木県,栃木市,藤岡町大田和,トチギケン,トチギシ,フジオカマチオオダワ,栃木県栃木市藤岡町大田和
3231108,栃木県,栃木市,藤岡町太田,トチギケン,トチギシ,フジオカマチオオタ,栃木県栃木市藤岡町太田
3240000,栃木県,大田原市,,トチギケン,オオタワラシ,,栃木県大田原市
3240001,栃木県,大田原市,乙連沢,トチギケン,オオタワラシ,オトレザワ,栃木県大田原市乙連沢
3240002,栃木県,大田原市,羽田,トチギケン,オオタワラシ,ハンダ,栃木県大田原市羽田
3240003,栃木県,大田原市,小滝,トチギケン,オオタワラシ,コダキ,栃木県大田原市小滝
3240004,栃木県,大田原市,富池,トチギケン,オオタワラシ,トミイケ,栃木県大田原市富池
3240005,栃木県,大田原市,練貫,トチギケン,オオタワラシ,ネリヌキ,栃木県大田原市練貫
3240006,栃木県,大田原市,市野沢,トチギケン,オオタワラシ,イチノサワ,栃木県大田原市市野沢
3240011,栃木県,大田原市,北金丸,トチギケン,オオタワラシ,キタカネマル,栃木県大田原市北金丸
3240012,栃木県,大田原市,南金丸,トチギケン,オオタワラシ,ミナミカネマル,栃木県大田原市南金丸
3240013,栃木県,大田原市,鹿畑,トチギケン,オオタワラシ,カバタ,栃木県大田原市鹿畑
3240014,栃木県,大田原市,倉骨,トチギケン,オオタワラシ,クラホネ,栃木県大田原市倉骨
3240015,栃木県,大田原市,赤瀬,トチギケン,オオタワラシ,アカゼ,栃木県大田原市赤瀬
3240016,栃木県,大田原市,北大和久,トチギケン,オオタワラシ,キタオオワグ,栃木県大田原市北大和久
3240017,栃木県,大田原市,奥沢,トチギケン,オオタワラシ,オクサワ,栃木県大田原市奥沢
3240018,栃木県,大田原市,上奥沢,トチギケン,オオタワラシ,カミオクサワ,栃木県大田原市上奥沢
3240021,栃木県,大田原市,若草,トチギケン,オオタワラシ,ワカクサ,栃木県大田原市若草
3240022,栃木県,大田原市,宇田川,トチギケン,オオタワラシ,ウダガワ,栃木県大田原市宇田川
3240023,栃木県,大田原市,花園,トチギケン,オオタワラシ,ハナゾノ,栃木県大田原市花園
3240024,栃木県,大田原市,福原,トチギケン,オオタワラシ,フクワラ,栃木県大田原市福原
3240025,栃木県,大田原市,大神,トチギケン,オオタワラシ,オオガミ,栃木県大田原市大神
3240026,栃木県,大田原市,滝岡,トチギケン,オオタワラシ,タキオカ,栃木県大田原市滝岡
3240027,栃木県,大田原市,荻野目,トチギケン,オオタワラシ,オギノメ,栃木県大田原市荻野目
3240028,栃木県,大田原市,富士見,トチギケン,オオタワラシ,フジミ,栃木県大田原市富士見
3240031,栃木県,大田原市,藤沢,トチギケン,オオタワラシ,フジサワ,栃木県大田原市藤沢
3240032,栃木県,大田原市,佐久山,トチギケン,オオタワラシ,サクヤマ,栃木県大田原市佐久山
3240033,栃木県,大田原市,滝沢,トチギケン,オオタワラシ,タキザワ,栃木県大田原市滝沢
3240034,栃木県,大田原市,平沢,トチギケン,オオタワラシ,ヒラサワ,栃木県大田原市平沢
3240035,栃木県,大田原市,薄葉,トチギケン,オオタワラシ,ウスバ,栃木県大田原市薄葉
3240036,栃木県,大田原市,下石上,トチギケン,オオタワラシ,シモイシガミ,栃木県大田原市下石上
3240037,栃木県,大田原市,上石上,トチギケン,オオタワラシ,カミイシガミ,栃木県大田原市上石上
3240038,栃木県,大田原市,野崎,トチギケン,オオタワラシ,ノザキ,栃木県大田原市野崎
3240041,栃木県,大田原市,本町,トチギケン,オオタワラシ,ホンチョウ,栃木県大田原市本町
3240042,栃木県,大田原市,末広,トチギケン,オオタワラシ,スエヒロ,栃木県大田原市末広
3240043,栃木県,大田原市,浅香,トチギケン,オオタワラシ,アサカ,栃木県大田原市浅香
3240044,栃木県,大田原市,親園,トチギケン,オオタワラシ,チカソノ,栃木県大田原市親園
3240045,栃木県,大田原市,実取,トチギケン,オオタワラシ,ミドリ,栃木県大田原市実取
3240046,栃木県,大田原市,加治屋,トチギケン,オオタワラシ,カジヤ,栃木県大田原市加治屋
3240047,栃木県,大田原市,美原,トチギケン,オオタワラシ,ミハラ,栃木県大田原市美原
3240051,栃木県,大田原市,山の手,トチギケン,オオタワラシ,ヤマノテ,栃木県大田原市山の手
3240052,栃木県,大田原市,城山,トチギケン,オオタワラシ,シロヤマ,栃木県大田原市城山
3240053,栃木県,大田原市,元町,トチギケン,オオタワラシ,モトマチ,栃木県大田原市元町
3240054,栃木県,大田原市,若松町,トチギケン,オオタワラシ,ワカマツチョウ,栃木県大田原市若松町
3240055,栃木県,大田原市,新富町,トチギケン,オオタワラシ,シントミチョウ,栃木県大田原市新富町
3240056,栃木県,大田原市,中央,トチギケン,オオタワラシ,チュウオウ,栃木県大田原市中央
3240057,栃木県,大田原市,住吉町,トチギケン,オオタワラシ,スミヨシチョウ,栃木県大田原市住吉町
3240058,栃木県,大田原市,紫塚,トチギケン,オオタワラシ,ムラサキヅカ,栃木県大田原市紫塚
3240061,栃木県,大田原市,荒井,トチギケン,オオタワラシ,アライ,栃木県大田原市荒井
3240062,栃木県,大田原市,中田原,トチギケン,オオタワラシ,ナカダワラ,栃木県大田原市中田原
3240063,栃木県,大田原市,町島,トチギケン,オオタワラシ,マチジマ,栃木県大田原市町島
3240064,栃木県,大田原市,今泉,トチギケン,オオタワラシ,イマイズミ,栃木県大田原市今泉
3240065,栃木県,大田原市,岡,トチギケン,オオタワラシ,オカ,栃木県大田原市岡
3240066,栃木県,大田原市,戸野内,トチギケン,オオタワラシ,トノウチ,栃木県大田原市戸野内
3240201,栃木県,大田原市,両郷,トチギケン,オオタワラシ,リョウゴウ,栃木県大田原市両郷
3240202,栃木県,大田原市,木佐美,トチギケン,オオタワラシ,キザミ,栃木県大田原市木佐美
3240203,栃木県,大田原市,寺宿,トチギケン,オオタワラシ,テラジュク,栃木県大田原市寺宿
3240204,栃木県,大田原市,大久保,トチギケン,オオタワラシ,オオクボ,栃木県大田原市大久保
3240205,栃木県,大田原市,久野又,トチギケン,オオタワラシ,クノマタ,栃木県大田原市久野又
3240206,栃木県,大田原市,中野内,トチギケン,オオタワラシ,ナカノウチ,栃木県大田原市中野内
3240207,栃木県,大田原市,河原,トチギケン,オオタワラシ,カワラ,栃木県大田原市河原
3240208,栃木県,大田原市,川田,トチギケン,オオタワラシ,カワダ,栃木県大田原市川田
3240211,栃木県,大田原市,須賀川,トチギケン,オオタワラシ,スカガワ,栃木県大田原市須賀川
3240212,栃木県,大田原市,須佐木,トチギケン,オオタワラシ,スサギ,栃木県大田原市須佐木
3240213,栃木県,大田原市,雲岩寺,トチギケン,オオタワラシ,ウンガンジ,栃木県大田原市雲岩寺
3240214,栃木県,大田原市,川上,トチギケン,オオタワラシ,カワカミ,栃木県大田原市川上
3240215,栃木県,大田原市,南方,トチギケン,オオタワラシ,ナンボウ,栃木県大田原市南方
3240221,栃木県,大田原市,亀久,トチギケン,オオタワラシ,カメヒサ,栃木県大田原市亀久
3240222,栃木県,大田原市,矢倉,トチギケン,オオタワラシ,ヤグラ,栃木県大田原市矢倉
3240223,栃木県,大田原市,片田,トチギケン,オオタワラシ,カタタ,栃木県大田原市片田
3240224,栃木県,大田原市,北滝,トチギケン,オオタワラシ,キタタキ,栃木県大田原市北滝
3240231,栃木県,大田原市,北野上,トチギケン,オオタワラシ,キタノガミ,栃木県大田原市北野上
3240232,栃木県,大田原市,八塩,トチギケン,オオタワラシ,ヤシオ,栃木県大田原市八塩
3240233,栃木県,大田原市,黒羽田町,トチギケン,オオタワラシ,クロバネタマチ,栃木県大田原市黒羽田町
3240234,栃木県,大田原市,前田,トチギケン,オオタワラシ,マエタ,栃木県大田原市前田
3240235,栃木県,大田原市,堀之内,トチギケン,オオタワラシ,ホリノウチ,栃木県大田原市堀之内
3240236,栃木県,大田原市,大輪,トチギケン,オオタワラシ,オオワ,栃木県大田原市大輪
3240241,栃木県,大田原市,黒羽向町,トチギケン,オオタワラシ,クロバネムコウマチ,栃木県大田原市黒羽向町
3240242,栃木県,大田原市,大豆田,トチギケン,オオタワラシ,オオマメダ,栃木県大田原市大豆田
3240243,栃木県,大田原市,余瀬,トチギケン,オオタワラシ,ヨゼ,栃木県大田原市余瀬
3240244,栃木県,大田原市,蜂巣,トチギケン,オオタワラシ,ハチス,栃木県大田原市蜂巣
3240245,栃木県,大田原市,桧木沢,トチギケン,オオタワラシ,ヒノキザワ,栃木県大田原市桧木沢
3240246,栃木県,大田原市,寒井,トチギケン,オオタワラシ,サブイ,栃木県大田原市寒井
3240401,栃木県,大田原市,狭原,トチギケン,オオタワラシ,セバハラ,栃木県大田原市狭原
3240402,栃木県,大田原市,小船渡,トチギケン,オオタワラシ,コブナト,栃木県大田原市小船渡
3240403,栃木県,大田原市,湯津上,トチギケン,オオタワラシ,ユヅカミ,栃木県大田原市湯津上
3240404,栃木県,大田原市,佐良土,トチギケン,オオタワラシ,サラド,栃木県大田原市佐良土
3240405,栃木県,大田原市,中の原,トチギケン,オオタワラシ,ナカノハラ,栃木県大田原市中の原
3240411,栃木県,大田原市,蛭畑,トチギケン,オオタワラシ,ヒルハタ,栃木県大田原市蛭畑
3240412,栃木県,大田原市,蛭田,トチギケン,オオタワラシ,ヒルタ,栃木県大田原市蛭田
3240413,栃木県,大田原市,新宿,トチギケン,オオタワラシ,アラジュク,栃木県大田原市新宿
3240414,栃木県,大田原市,片府田,トチギケン,オオタワラシ,カタフタ,栃木県大田原市片府田
3240415,栃木県,大田原市,品川,トチギケン,オオタワラシ,シナガワ,栃木県大田原市品川
3240501,栃木県,那須郡那珂川町,小川,トチギケン,ナスグンナカガワマチ,オガワ,栃木県那須郡那珂川町小川
3240502,栃木県,那須郡那珂川町,三輪,トチギケン,ナスグンナカガワマチ,ミワ,栃木県那須郡那珂川町三輪
3240503,栃木県,那須郡那珂川町,恩田,トチギケン,ナスグンナカガワマチ,オンダ,栃木県那須郡那珂川町恩田
3240504,栃木県,那須郡那珂川町,薬利,トチギケン,ナスグンナカガワマチ,クズリ,栃木県那須郡那珂川町薬利
3240505,栃木県,那須郡那珂川町,芳井,トチギケン,ナスグンナカガワマチ,ヨシイ,栃木県那須郡那珂川町芳井
3240506,栃木県,那須郡那珂川町,浄法寺,トチギケン,ナスグンナカガワマチ,ジョウホウジ,栃木県那須郡那珂川町浄法寺
3240511,栃木県,那須郡那珂川町,吉田,トチギケン,ナスグンナカガワマチ,ヨシダ,栃木県那須郡那珂川町吉田
3240512,栃木県,那須郡那珂川町,谷田,トチギケン,ナスグンナカガワマチ,ヤダ,栃木県那須郡那珂川町谷田
3240513,栃木県,那須郡那珂川町,白久,トチギケン,ナスグンナカガワマチ,シラク,栃木県那須郡那珂川町白久
3240514,栃木県,那須郡那珂川町,高岡,トチギケン,ナスグンナカガワマチ,タカオカ,栃木県那須郡那珂川町高岡
3240515,栃木県,那須郡那珂川町,片平,トチギケン,ナスグンナカガワマチ,カタヒラ,栃木県那須郡那珂川町片平
3240516,栃木県,那須郡那珂川町,東戸田,トチギケン,ナスグンナカガワマチ,ヒガシトダ,栃木県那須郡那珂川町東戸田
3240600,栃木県,那須郡那珂川町,,トチギケン,ナスグンナカガワマチ,,栃木県那須郡那珂川町
3240601,栃木県,那須郡那珂川町,大山田上郷,トチギケン,ナスグンナカガワマチ,オオヤマダカミゴウ,栃木県那須郡那珂川町大山田上郷
3240602,栃木県,那須郡那珂川町,大山田下郷,トチギケン,ナスグンナカガワマチ,オオヤマダシモゴウ,栃木県那須郡那珂川町大山田下郷
3240603,栃木県,那須郡那珂川町,谷川,トチギケン,ナスグンナカガワマチ,ヤカワ,栃木県那須郡那珂川町谷川
3240604,栃木県,那須郡那珂川町,盛泉,トチギケン,ナスグンナカガワマチ,モリイズミ,栃木県那須郡那珂川町盛泉
3240605,栃木県,那須郡那珂川町,大内,トチギケン,ナスグンナカガワマチ,オオウチ,栃木県那須郡那珂川町大内
3240606,栃木県,那須郡那珂川町,大那地,トチギケン,ナスグンナカガワマチ,オオナチ,栃木県那須郡那珂川町大那地
3240607,栃木県,那須郡那珂川町,矢又,トチギケン,ナスグンナカガワマチ,ヤマタ,栃木県那須郡那珂川町矢又
3240608,栃木県,那須郡那珂川町,健武,トチギケン,ナスグンナカガワマチ,タケブ,栃木県那須郡那珂川町健武
3240611,栃木県,那須郡那珂川町,小砂,トチギケン,ナスグンナカガワマチ,コイサゴ,栃木県那須郡那珂川町小砂
3240612,栃木県,那須郡那珂川町,和見,トチギケン,ナスグンナカガワマチ,ワミ,栃木県那須郡那珂川町和見
3240613,栃木県,那須郡那珂川町,馬頭,トチギケン,ナスグンナカガワマチ,バトウ,栃木県那須郡那珂川町馬頭
3240614,栃木県,那須郡那珂川町,久那瀬,トチギケン,ナスグンナカガワマチ,クナセ,栃木県那須郡那珂川町久那瀬
3240615,栃木県,那須郡那珂川町,松野,トチギケン,ナスグンナカガワマチ,マツノ,栃木県那須郡那珂川町松野
3240616,栃木県,那須郡那珂川町,富山,トチギケン,ナスグンナカガワマチ,トミヤマ,栃木県那須郡那珂川町富山
3240617,栃木県,那須郡那珂川町,北向田,トチギケン,ナスグンナカガワマチ,キタムカダ,栃木県那須郡那珂川町北向田
3240618,栃木県,那須郡那珂川町,小口,トチギケン,ナスグンナカガワマチ,コグチ,栃木県那須郡那珂川町小口
3250000,栃木県,那須塩原市,,トチギケン,ナスシオバラシ,,栃木県那須塩原市
3250001,栃木県,那須郡那須町,高久甲（その他）,トチギケン,ナスグンナスマチ,タカクコウ(ソノタ),栃木県那須郡那須町高久甲（その他）
3250002,栃木県,那須郡那須町,高久丙（穂積、山梨子）,トチギケン,ナスグンナスマチ,タカクヘイ(ホヅミ、ヤマナシ),栃木県那須郡那須町高久丙（穂積、山梨子）
3250003,栃木県,那須郡那須町,寺子乙（７２０番地）,トチギケン,ナスグンナスマチ,テラコオツ(720バンチ),栃木県那須郡那須町寺子乙（720-）
3250011,栃木県,那須塩原市,寺子,トチギケン,ナスシオバラシ,テラゴ,栃木県那須塩原市寺子
3250012,栃木県,那須塩原市,越堀,トチギケン,ナスシオバラシ,コエボリ,栃木県那須塩原市越堀
3250013,栃木県,那須塩原市,鍋掛,トチギケン,ナスシオバラシ,ナベカケ,栃木県那須塩原市鍋掛
3250014,栃木県,那須塩原市,野間,トチギケン,ナスシオバラシ,ノマ,栃木県那須塩原市野間
3250015,栃木県,那須塩原市,原町,トチギケン,ナスシオバラシ,ハラマチ,栃木県那須塩原市原町
3250016,栃木県,那須塩原市,東栄,トチギケン,ナスシオバラシ,トウエイ,栃木県那須塩原市東栄
3250017,栃木県,那須塩原市,黒磯,トチギケン,ナスシオバラシ,クロイソ,栃木県那須塩原市黒磯
3250021,栃木県,那須塩原市,安藤町,トチギケン,ナスシオバラシ,アンドウチョウ,栃木県那須塩原市安藤町
3250022,栃木県,那須塩原市,東豊浦,トチギケン,ナスシオバラシ,ヒガシトヨウラ,栃木県那須塩原市東豊浦
3250023,栃木県,那須塩原市,豊浦,トチギケン,ナスシオバラシ,トヨウラ,栃木県那須塩原市豊浦
3250024,栃木県,那須塩原市,渡辺,トチギケン,ナスシオバラシ,ワタナベ,栃木県那須塩原市渡辺
3250025,栃木県,那須塩原市,下厚崎,トチギケン,ナスシオバラシ,シモアツサキ,栃木県那須塩原市下厚崎
3250026,栃木県,那須塩原市,上厚崎,トチギケン,ナスシオバラシ,カミアツサキ,栃木県那須塩原市上厚崎
3250027,栃木県,那須塩原市,共墾社,トチギケン,ナスシオバラシ,キョウコンシャ,栃木県那須塩原市共墾社
3250031,栃木県,那須塩原市,並木町,トチギケン,ナスシオバラシ,ナミキチョウ,栃木県那須塩原市並木町
3250032,栃木県,那須塩原市,若草町,トチギケン,ナスシオバラシ,ワカクサチョウ,栃木県那須塩原市若草町
3250033,栃木県,那須塩原市,埼玉,トチギケン,ナスシオバラシ,サキタマ,栃木県那須塩原市埼玉
3250034,栃木県,那須塩原市,東原,トチギケン,ナスシオバラシ,ヒガシハラ,栃木県那須塩原市東原
3250035,栃木県,那須塩原市,小結,トチギケン,ナスシオバラシ,コユイ,栃木県那須塩原市小結
3250036,栃木県,那須塩原市,鳥野目,トチギケン,ナスシオバラシ,トリノメ,栃木県那須塩原市鳥野目
3250037,栃木県,那須塩原市,美原町,トチギケン,ナスシオバラシ,ミハラチョウ,栃木県那須塩原市美原町
3250038,栃木県,那須塩原市,豊浦北町,トチギケン,ナスシオバラシ,トヨウラキタマチ,栃木県那須塩原市豊浦北町
3250039,栃木県,那須塩原市,北栄町,トチギケン,ナスシオバラシ,キタサカエチョウ,栃木県那須塩原市北栄町
3250041,栃木県,那須塩原市,東大和町,トチギケン,ナスシオバラシ,ヒガシヤマトチョウ,栃木県那須塩原市東大和町
3250042,栃木県,那須塩原市,桜町,トチギケン,ナスシオバラシ,サクラチョウ,栃木県那須塩原市桜町
3250043,栃木県,那須塩原市,橋本町,トチギケン,ナスシオバラシ,ハシモトチョウ,栃木県那須塩原市橋本町
3250044,栃木県,那須塩原市,弥生町,トチギケン,ナスシオバラシ,ヤヨイチョウ,栃木県那須塩原市弥生町
3250045,栃木県,那須塩原市,高砂町,トチギケン,ナスシオバラシ,タカサゴチョウ,栃木県那須塩原市高砂町
3250046,栃木県,那須塩原市,大黒町,トチギケン,ナスシオバラシ,ダイコクチョウ,栃木県那須塩原市大黒町
3250047,栃木県,那須塩原市,若葉町,トチギケン,ナスシオバラシ,ワカバチョウ,栃木県那須塩原市若葉町
3250048,栃木県,那須塩原市,材木町,トチギケン,ナスシオバラシ,ザイモクチョウ,栃木県那須塩原市材木町
3250051,栃木県,那須塩原市,豊町,トチギケン,ナスシオバラシ,ユタカチョウ,栃木県那須塩原市豊町
3250052,栃木県,那須塩原市,中央町,トチギケン,ナスシオバラシ,チュウオウチョウ,栃木県那須塩原市中央町
3250053,栃木県,那須塩原市,本郷町,トチギケン,ナスシオバラシ,ホンゴウチョウ,栃木県那須塩原市本郷町
3250054,栃木県,那須塩原市,新朝日,トチギケン,ナスシオバラシ,シンアサヒ,栃木県那須塩原市新朝日
3250055,栃木県,那須塩原市,宮町,トチギケン,ナスシオバラシ,ミヤチョウ,栃木県那須塩原市宮町
3250056,栃木県,那須塩原市,本町,トチギケン,ナスシオバラシ,ホンチョウ,栃木県那須塩原市本町
3250057,栃木県,那須塩原市,黒磯幸町,トチギケン,ナスシオバラシ,クロイソサイワイチョウ,栃木県那須塩原市黒磯幸町
3250058,栃木県,那須塩原市,錦町,トチギケン,ナスシオバラシ,ニシキチョウ,栃木県那須塩原市錦町
3250061,栃木県,那須塩原市,末広町,トチギケン,ナスシオバラシ,スエヒロチョウ,栃木県那須塩原市末広町
3250062,栃木県,那須塩原市,住吉町,トチギケン,ナスシオバラシ,スミヨシチョウ,栃木県那須塩原市住吉町
3250063,栃木県,那須塩原市,豊浦中町,トチギケン,ナスシオバラシ,トヨウラナカマチ,栃木県那須塩原市豊浦中町
3250064,栃木県,那須塩原市,豊浦町,トチギケン,ナスシオバラシ,トヨウラチョウ,栃木県那須塩原市豊浦町
3250065,栃木県,那須塩原市,豊浦南町,トチギケン,ナスシオバラシ,トヨウラミナミチョウ,栃木県那須塩原市豊浦南町
3250066,栃木県,那須塩原市,新緑町,トチギケン,ナスシオバラシ,シンミドリチョウ,栃木県那須塩原市新緑町
3250067,栃木県,那須塩原市,清住町,トチギケン,ナスシオバラシ,キヨスミチョウ,栃木県那須塩原市清住町
3250071,栃木県,那須塩原市,新町,トチギケン,ナスシオバラシ,シンマチ,栃木県那須塩原市新町
3250072,栃木県,那須塩原市,豊住町,トチギケン,ナスシオバラシ,トヨスミチョウ,栃木県那須塩原市豊住町
3250073,栃木県,那須塩原市,阿波町,トチギケン,ナスシオバラシ,アワチョウ,栃木県那須塩原市阿波町
3250074,栃木県,那須塩原市,松浦町,トチギケン,ナスシオバラシ,マツウラチョウ,栃木県那須塩原市松浦町
3250075,栃木県,那須塩原市,春日町,トチギケン,ナスシオバラシ,カスガチョウ,栃木県那須塩原市春日町
3250076,栃木県,那須塩原市,西新町,トチギケン,ナスシオバラシ,ニシシンマチ,栃木県那須塩原市西新町
3250101,栃木県,那須塩原市,西岩崎,トチギケン,ナスシオバラシ,ニシイワザキ,栃木県那須塩原市西岩崎
3250102,栃木県,那須塩原市,亀山,トチギケン,ナスシオバラシ,カメヤマ,栃木県那須塩原市亀山
3250103,栃木県,那須塩原市,青木,トチギケン,ナスシオバラシ,アオキ,栃木県那須塩原市青木
3250104,栃木県,那須塩原市,鹿野崎新田,トチギケン,ナスシオバラシ,カノサキシンデン,栃木県那須塩原市鹿野崎新田
3250105,栃木県,那須塩原市,箕輪,トチギケン,ナスシオバラシ,ミノワ,栃木県那須塩原市箕輪
3250106,栃木県,那須塩原市,洞島,トチギケン,ナスシオバラシ,ドウジマ,栃木県那須塩原市洞島
3250107,栃木県,那須塩原市,高林,トチギケン,ナスシオバラシ,タカバヤシ,栃木県那須塩原市高林
3250108,栃木県,那須塩原市,箭坪,トチギケン,ナスシオバラシ,ヤツボ,栃木県那須塩原市箭坪
3250111,栃木県,那須塩原市,板室,トチギケン,ナスシオバラシ,イタムロ,栃木県那須塩原市板室
3250112,栃木県,那須塩原市,油井,トチギケン,ナスシオバラシ,ユイ,栃木県那須塩原市油井
3250113,栃木県,那須塩原市,細竹,トチギケン,ナスシオバラシ,ホソダケ,栃木県那須塩原市細竹
3250114,栃木県,那須塩原市,戸田,トチギケン,ナスシオバラシ,トダ,栃木県那須塩原市戸田
3250115,栃木県,那須塩原市,百村,トチギケン,ナスシオバラシ,モムラ,栃木県那須塩原市百村
3250116,栃木県,那須塩原市,木綿畑,トチギケン,ナスシオバラシ,キワタハタ,栃木県那須塩原市木綿畑
3250117,栃木県,那須塩原市,湯宮,トチギケン,ナスシオバラシ,ユグウ,栃木県那須塩原市湯宮
3250118,栃木県,那須塩原市,鴫内,トチギケン,ナスシオバラシ,シギウチ,栃木県那須塩原市鴫内
3250301,栃木県,那須郡那須町,湯本,トチギケン,ナスグンナスマチ,ユモト,栃木県那須郡那須町湯本
3250302,栃木県,那須郡那須町,高久丙（その他）,トチギケン,ナスグンナスマチ,タカクヘイ(ソノタ),栃木県那須郡那須町高久丙（その他）
3250303,栃木県,那須郡那須町,高久乙,トチギケン,ナスグンナスマチ,タカクオツ,栃木県那須郡那須町高久乙
3250304,栃木県,那須郡那須町,高久甲（２８８８、４５９５、５２３５〜６０１９、６０２１〜６１１２、,トチギケン,ナスグンナスマチ,タカクコウ(2888、4595、5235-6019、6021-6112、,栃木県那須郡那須町高久甲（2888、4595、5235〜6019、6021〜6112、
3260000,栃木県,足利市,,トチギケン,アシカガシ,,栃木県足利市
3260001,栃木県,足利市,名草上町,トチギケン,アシカガシ,ナグサカミチョウ,栃木県足利市名草上町
3260002,栃木県,足利市,名草中町,トチギケン,アシカガシ,ナグサナカチョウ,栃木県足利市名草中町
3260003,栃木県,足利市,名草下町,トチギケン,アシカガシ,ナグサシモチョウ,栃木県足利市名草下町
3260004,栃木県,足利市,樺崎町,トチギケン,アシカガシ,カバサキチョウ,栃木県足利市樺崎町
3260005,栃木県,足利市,大月町,トチギケン,アシカガシ,オオツキチョウ,栃木県足利市大月町
3260006,栃木県,足利市,利保町,トチギケン,アシカガシ,カカボチョウ,栃木県足利市利保町
3260007,栃木県,足利市,菅田町,トチギケン,アシカガシ,スゲタチョウ,栃木県足利市菅田町
3260011,栃木県,足利市,大沼田町,トチギケン,アシカガシ,オオヌマタチョウ,栃木県足利市大沼田町
3260012,栃木県,足利市,大久保町,トチギケン,アシカガシ,オオクボチョウ,栃木県足利市大久保町
3260013,栃木県,足利市,川崎町,トチギケン,アシカガシ,カワサキチョウ,栃木県足利市川崎町
3260014,栃木県,足利市,鵤木町,トチギケン,アシカガシ,イカルギチョウ,栃木県足利市鵤木町
3260015,栃木県,足利市,八椚町,トチギケン,アシカガシ,ヤツクヌギチョウ,栃木県足利市八椚町
3260016,栃木県,足利市,毛野新町,トチギケン,アシカガシ,ケノシンマチ,栃木県足利市毛野新町
3260021,栃木県,足利市,山川町,トチギケン,アシカガシ,ヤマガワチョウ,栃木県足利市山川町
3260022,栃木県,足利市,常見町,トチギケン,アシカガシ,ツネミチョウ,栃木県足利市常見町
3260023,栃木県,足利市,猿田町,トチギケン,アシカガシ,サルタチョウ,栃木県足利市猿田町
3260024,栃木県,足利市,若草町,トチギケン,アシカガシ,ワカクサチョウ,栃木県足利市若草町
3260025,栃木県,足利市,寿町,トチギケン,アシカガシ,コトブキチョウ,栃木県足利市寿町
3260026,栃木県,足利市,常盤町,トチギケン,アシカガシ,トキワチョウ,栃木県足利市常盤町
3260027,栃木県,足利市,宮北町,トチギケン,アシカガシ,ミヤキタチョウ,栃木県足利市宮北町
3260031,栃木県,足利市,末広町,トチギケン,アシカガシ,スエヒロチョウ,栃木県足利市末広町
3260032,栃木県,足利市,真砂町,トチギケン,アシカガシ,マサゴチョウ,栃木県足利市真砂町
3260033,栃木県,足利市,花園町,トチギケン,アシカガシ,ハナゾノチョウ,栃木県足利市花園町
3260034,栃木県,足利市,久松町,トチギケン,アシカガシ,ヒサマツチョウ,栃木県足利市久松町
3260035,栃木県,足利市,芳町,トチギケン,アシカガシ,ヨシチョウ,栃木県足利市芳町
3260036,栃木県,足利市,弥生町,トチギケン,アシカガシ,ヤヨイチョウ,栃木県足利市弥生町
3260037,栃木県,足利市,富士見町,トチギケン,アシカガシ,フジミチョウ,栃木県足利市富士見町
3260041,栃木県,足利市,助戸新山町,トチギケン,アシカガシ,スケドシンヤマチョウ,栃木県足利市助戸新山町
3260042,栃木県,足利市,助戸東山町,トチギケン,アシカガシ,スケドヒガシヤマチョウ,栃木県足利市助戸東山町
3260043,栃木県,足利市,助戸仲町,トチギケン,アシカガシ,スケドナカチョウ,栃木県足利市助戸仲町
3260044,栃木県,足利市,助戸,トチギケン,アシカガシ,スケド,栃木県足利市助戸
3260045,栃木県,足利市,千歳町,トチギケン,アシカガシ,チトセチョウ,栃木県足利市千歳町
3260046,栃木県,足利市,岩井町,トチギケン,アシカガシ,イワイチョウ,栃木県足利市岩井町
3260047,栃木県,足利市,錦町,トチギケン,アシカガシ,ニシキチョウ,栃木県足利市錦町
3260048,栃木県,足利市,助戸大橋町,トチギケン,アシカガシ,スケドオオハシチョウ,栃木県足利市助戸大橋町
3260051,栃木県,足利市,大橋町,トチギケン,アシカガシ,オオハシチョウ,栃木県足利市大橋町
3260052,栃木県,足利市,相生町,トチギケン,アシカガシ,アイオイチョウ,栃木県足利市相生町
3260053,栃木県,足利市,伊勢町,トチギケン,アシカガシ,イセチョウ,栃木県足利市伊勢町
3260054,栃木県,足利市,伊勢南町,トチギケン,アシカガシ,イセミナミチョウ,栃木県足利市伊勢南町
3260055,栃木県,足利市,永楽町,トチギケン,アシカガシ,エイラクチョウ,栃木県足利市永楽町
3260056,栃木県,足利市,大町,トチギケン,アシカガシ,ダイチョウ,栃木県足利市大町
3260057,栃木県,足利市,丸山町,トチギケン,アシカガシ,マルヤマチョウ,栃木県足利市丸山町
3260058,栃木県,足利市,元学町,トチギケン,アシカガシ,モトガクチョウ,栃木県足利市元学町
3260061,栃木県,足利市,田島町,トチギケン,アシカガシ,タジマチョウ,栃木県足利市田島町
3260062,栃木県,足利市,赤松台,トチギケン,アシカガシ,アカマツダイ,栃木県足利市赤松台
3260063,栃木県,足利市,新山町,トチギケン,アシカガシ,シンヤマチョウ,栃木県足利市新山町
3260064,栃木県,足利市,東砂原後町,トチギケン,アシカガシ,ヒガシサワラゴチョウ,栃木県足利市東砂原後町
3260065,栃木県,足利市,西砂原後町,トチギケン,アシカガシ,ニシサワラゴチョウ,栃木県足利市西砂原後町
3260066,栃木県,足利市,田所町,トチギケン,アシカガシ,タドコロチョウ,栃木県足利市田所町
3260067,栃木県,足利市,江川町,トチギケン,アシカガシ,エガワチョウ,栃木県足利市江川町
3260068,栃木県,足利市,月谷町,トチギケン,アシカガシ,ツキヤチョウ,栃木県足利市月谷町
3260101,栃木県,足利市,松田町,トチギケン,アシカガシ,マツダチョウ,栃木県足利市松田町
3260102,栃木県,足利市,板倉町,トチギケン,アシカガシ,イタクラチョウ,栃木県足利市板倉町
3260103,栃木県,足利市,粟谷町,トチギケン,アシカガシ,アワノヤチョウ,栃木県足利市粟谷町
3260141,栃木県,足利市,小俣町,トチギケン,アシカガシ,オマタチョウ,栃木県足利市小俣町
3260142,栃木県,足利市,小俣南町,トチギケン,アシカガシ,オマタミナミチョウ,栃木県足利市小俣南町
3260143,栃木県,足利市,葉鹿町,トチギケン,アシカガシ,ハジカチョウ,栃木県足利市葉鹿町
3260144,栃木県,足利市,葉鹿南町,トチギケン,アシカガシ,ハジカミナミチョウ,栃木県足利市葉鹿南町
3260321,栃木県,足利市,梁田町,トチギケン,アシカガシ,ヤナダチョウ,栃木県足利市梁田町
3260322,栃木県,足利市,野田町,トチギケン,アシカガシ,ノダチョウ,栃木県足利市野田町
3260323,栃木県,足利市,瑞穂野町,トチギケン,アシカガシ,ミズホノチョウ,栃木県足利市瑞穂野町
3260324,栃木県,足利市,久保田町,トチギケン,アシカガシ,クボタチョウ,栃木県足利市久保田町
3260325,栃木県,足利市,高松町,トチギケン,アシカガシ,タカマツチョウ,栃木県足利市高松町
3260326,栃木県,足利市,小曽根町,トチギケン,アシカガシ,オゾネチョウ,栃木県足利市小曽根町
3260327,栃木県,足利市,羽刈町,トチギケン,アシカガシ,ハカリチョウ,栃木県足利市羽刈町
3260328,栃木県,足利市,県町,トチギケン,アシカガシ,アガタチョウ,栃木県足利市県町
3260331,栃木県,足利市,福富町,トチギケン,アシカガシ,フクトミチョウ,栃木県足利市福富町
3260332,栃木県,足利市,福富新町,トチギケン,アシカガシ,フクトミシンチョウ,栃木県足利市福富新町
3260333,栃木県,足利市,問屋町,トチギケン,アシカガシ,トンヤチョウ,栃木県足利市問屋町
3260334,栃木県,足利市,下渋垂町,トチギケン,アシカガシ,シモシブタレチョウ,栃木県足利市下渋垂町
3260335,栃木県,足利市,上渋垂町,トチギケン,アシカガシ,カミシブタレチョウ,栃木県足利市上渋垂町
3260336,栃木県,足利市,百頭町,トチギケン,アシカガシ,モモガシラチョウ,栃木県足利市百頭町
3260337,栃木県,足利市,島田町,トチギケン,アシカガシ,シマダチョウ,栃木県足利市島田町
3260338,栃木県,足利市,福居町,トチギケン,アシカガシ,フクイチョウ,栃木県足利市福居町
3260801,栃木県,足利市,有楽町,トチギケン,アシカガシ,ユウラクチョウ,栃木県足利市有楽町
3260802,栃木県,足利市,旭町,トチギケン,アシカガシ,アサヒチョウ,栃木県足利市旭町
3260803,栃木県,足利市,家富町,トチギケン,アシカガシ,イエトミチョウ,栃木県足利市家富町
3260804,栃木県,足利市,雪輪町,トチギケン,アシカガシ,ユキワチョウ,栃木県足利市雪輪町
3260805,栃木県,足利市,巴町,トチギケン,アシカガシ,トモエチョウ,栃木県足利市巴町
3260806,栃木県,足利市,柳原町,トチギケン,アシカガシ,ヤナギワラチョウ,栃木県足利市柳原町
3260807,栃木県,足利市,大正町,トチギケン,アシカガシ,タイショウチョウ,栃木県足利市大正町
3260808,栃木県,足利市,本城,トチギケン,アシカガシ,ホンジョウ,栃木県足利市本城
3260811,栃木県,足利市,井草町,トチギケン,アシカガシ,イグサチョウ,栃木県足利市井草町
3260812,栃木県,足利市,大門通,トチギケン,アシカガシ,ダイモンドオリ,栃木県足利市大門通
3260813,栃木県,足利市,昌平町,トチギケン,アシカガシ,ショウヘイチョウ,栃木県足利市昌平町
3260814,栃木県,足利市,通,トチギケン,アシカガシ,トオリ,栃木県足利市通
3260815,栃木県,足利市,栄町,トチギケン,アシカガシ,サカエチョウ,栃木県足利市栄町
3260816,栃木県,足利市,緑町,トチギケン,アシカガシ,ミドリチョウ,栃木県足利市緑町
3260817,栃木県,足利市,西宮町,トチギケン,アシカガシ,ニシノミヤチョウ,栃木県足利市西宮町
3260821,栃木県,足利市,南町,トチギケン,アシカガシ,ミナミチョウ,栃木県足利市南町
3260822,栃木県,足利市,田中町,トチギケン,アシカガシ,タナカチョウ,栃木県足利市田中町
3260823,栃木県,足利市,朝倉町,トチギケン,アシカガシ,アサクラチョウ,栃木県足利市朝倉町
3260824,栃木県,足利市,八幡町,トチギケン,アシカガシ,ヤワタチョウ,栃木県足利市八幡町
3260825,栃木県,足利市,中川町,トチギケン,アシカガシ,ナカガワチョウ,栃木県足利市中川町
3260826,栃木県,足利市,借宿町,トチギケン,アシカガシ,カリヤドチョウ,栃木県足利市借宿町
3260831,栃木県,足利市,堀込町,トチギケン,アシカガシ,ホリゴメチョウ,栃木県足利市堀込町
3260832,栃木県,足利市,荒金町,トチギケン,アシカガシ,アラカネチョウ,栃木県足利市荒金町
3260833,栃木県,足利市,藤本町,トチギケン,アシカガシ,フジモトチョウ,栃木県足利市藤本町
3260834,栃木県,足利市,新宿町,トチギケン,アシカガシ,アラジュクチョウ,栃木県足利市新宿町
3260835,栃木県,足利市,里矢場町,トチギケン,アシカガシ,サトヤバチョウ,栃木県足利市里矢場町
3260836,栃木県,足利市,南大町,トチギケン,アシカガシ,ミナミオオマチ,栃木県足利市南大町
3260837,栃木県,足利市,西新井町,トチギケン,アシカガシ,ニシアライチョウ,栃木県足利市西新井町
3260841,栃木県,足利市,大岩町,トチギケン,アシカガシ,オオイワチョウ,栃木県足利市大岩町
3260842,栃木県,足利市,今福町,トチギケン,アシカガシ,イマフクチョウ,栃木県足利市今福町
3260843,栃木県,足利市,五十部町,トチギケン,アシカガシ,ヨベチョウ,栃木県足利市五十部町
3260844,栃木県,足利市,鹿島町,トチギケン,アシカガシ,カシマチョウ,栃木県足利市鹿島町
3260845,栃木県,足利市,大前町,トチギケン,アシカガシ,オオマエチョウ,栃木県足利市大前町
3260846,栃木県,足利市,山下町,トチギケン,アシカガシ,ヤマシタチョウ,栃木県足利市山下町
3270000,栃木県,佐野市,,トチギケン,サノシ,,栃木県佐野市
3270001,栃木県,佐野市,小中町,トチギケン,サノシ,コナカチョウ,栃木県佐野市小中町
3270002,栃木県,佐野市,並木町,トチギケン,サノシ,ナミキチョウ,栃木県佐野市並木町
3270003,栃木県,佐野市,大橋町,トチギケン,サノシ,オオハシチョウ,栃木県佐野市大橋町
3270004,栃木県,佐野市,赤坂町,トチギケン,サノシ,アカサカチョウ,栃木県佐野市赤坂町
3270005,栃木県,佐野市,七軒町,トチギケン,サノシ,シチケンチョウ,栃木県佐野市七軒町
3270006,栃木県,佐野市,上台町,トチギケン,サノシ,カミダイチョウ,栃木県佐野市上台町
3270007,栃木県,佐野市,金吹町,トチギケン,サノシ,カナフキチョウ,栃木県佐野市金吹町
3270011,栃木県,佐野市,朝日町,トチギケン,サノシ,アサヒチョウ,栃木県佐野市朝日町
3270012,栃木県,佐野市,大蔵町,トチギケン,サノシ,オオクラチョウ,栃木県佐野市大蔵町
3270013,栃木県,佐野市,本町,トチギケン,サノシ,ホンチョウ,栃木県佐野市本町
3270014,栃木県,佐野市,天明町,トチギケン,サノシ,テンミョウチョウ,栃木県佐野市天明町
3270015,栃木県,佐野市,金井上町,トチギケン,サノシ,カナイカミチョウ,栃木県佐野市金井上町
3270016,栃木県,佐野市,大祝町,トチギケン,サノシ,ダイシュクチョウ,栃木県佐野市大祝町
3270017,栃木県,佐野市,大町,トチギケン,サノシ,ダイチョウ,栃木県佐野市大町
3270021,栃木県,佐野市,伊賀町,トチギケン,サノシ,イガチョウ,栃木県佐野市伊賀町
3270022,栃木県,佐野市,高砂町,トチギケン,サノシ,タカサゴチョウ,栃木県佐野市高砂町
3270023,栃木県,佐野市,相生町,トチギケン,サノシ,アイオイチョウ,栃木県佐野市相生町
3270024,栃木県,佐野市,亀井町,トチギケン,サノシ,カメイチョウ,栃木県佐野市亀井町
3270025,栃木県,佐野市,金屋下町,トチギケン,サノシ,カナヤシモチョウ,栃木県佐野市金屋下町
3270026,栃木県,佐野市,金屋仲町,トチギケン,サノシ,カナヤナカチョウ,栃木県佐野市金屋仲町
3270027,栃木県,佐野市,大和町,トチギケン,サノシ,ヤマトチョウ,栃木県佐野市大和町
3270028,栃木県,佐野市,万町,トチギケン,サノシ,ヨロズチョウ,栃木県佐野市万町
3270031,栃木県,佐野市,田島町,トチギケン,サノシ,タジマチョウ,栃木県佐野市田島町
3270032,栃木県,佐野市,庚申塚町,トチギケン,サノシ,カネヅカチョウ,栃木県佐野市庚申塚町
3270033,栃木県,佐野市,大古屋町,トチギケン,サノシ,オオゴヤチョウ,栃木県佐野市大古屋町
3270034,栃木県,佐野市,伊保内町,トチギケン,サノシ,イボウチチョウ,栃木県佐野市伊保内町
3270035,栃木県,佐野市,船津川町,トチギケン,サノシ,フナツガワチョウ,栃木県佐野市船津川町
3270041,栃木県,佐野市,免鳥町,トチギケン,サノシ,メンドリチョウ,栃木県佐野市免鳥町
3270042,栃木県,佐野市,上羽田町,トチギケン,サノシ,カミハネダチョウ,栃木県佐野市上羽田町
3270043,栃木県,佐野市,君田町,トチギケン,サノシ,キミタチョウ,栃木県佐野市君田町
3270044,栃木県,佐野市,下羽田町,トチギケン,サノシ,シモハネダチョウ,栃木県佐野市下羽田町
3270045,栃木県,佐野市,高橋町,トチギケン,サノシ,タカハシチョウ,栃木県佐野市高橋町
3270046,栃木県,佐野市,村上町,トチギケン,サノシ,ムラカミチョウ,栃木県佐野市村上町
3270101,栃木県,佐野市,寺久保町,トチギケン,サノシ,テラクボチョウ,栃木県佐野市寺久保町
3270102,栃木県,佐野市,出流原町,トチギケン,サノシ,イズルハラチョウ,栃木県佐野市出流原町
3270103,栃木県,佐野市,石塚町,トチギケン,サノシ,イシヅカチョウ,栃木県佐野市石塚町
3270104,栃木県,佐野市,赤見町,トチギケン,サノシ,アカミチョウ,栃木県佐野市赤見町
3270231,栃木県,佐野市,飛駒町,トチギケン,サノシ,ヒコマチョウ,栃木県佐野市飛駒町
3270301,栃木県,佐野市,作原町,トチギケン,サノシ,サクハラチョウ,栃木県佐野市作原町
3270302,栃木県,佐野市,白岩町,トチギケン,サノシ,シライワチョウ,栃木県佐野市白岩町
3270303,栃木県,佐野市,長谷場町,トチギケン,サノシ,ハセバチョウ,栃木県佐野市長谷場町
3270304,栃木県,佐野市,御神楽町,トチギケン,サノシ,ミカグラチョウ,栃木県佐野市御神楽町
3270305,栃木県,佐野市,船越町,トチギケン,サノシ,フナコシチョウ,栃木県佐野市船越町
3270306,栃木県,佐野市,戸室町,トチギケン,サノシ,トムロチョウ,栃木県佐野市戸室町
3270307,栃木県,佐野市,岩崎町,トチギケン,サノシ,イワザキチョウ,栃木県佐野市岩崎町
3270311,栃木県,佐野市,多田町,トチギケン,サノシ,タダチョウ,栃木県佐野市多田町
3270312,栃木県,佐野市,栃本町,トチギケン,サノシ,トチモトチョウ,栃木県佐野市栃本町
3270313,栃木県,佐野市,吉水町,トチギケン,サノシ,ヨシミズチョウ,栃木県佐野市吉水町
3270314,栃木県,佐野市,新吉水町,トチギケン,サノシ,シンヨシミズチョウ,栃木県佐野市新吉水町
3270315,栃木県,佐野市,吉水駅前,トチギケン,サノシ,ヨシミズエキマエ,栃木県佐野市吉水駅前
3270316,栃木県,佐野市,小見町,トチギケン,サノシ,オミチョウ,栃木県佐野市小見町
3270317,栃木県,佐野市,田沼町,トチギケン,サノシ,タヌマチョウ,栃木県佐野市田沼町
3270318,栃木県,佐野市,山越町,トチギケン,サノシ,ヤマコシチョウ,栃木県佐野市山越町
3270321,栃木県,佐野市,閑馬町,トチギケン,サノシ,カンマチョウ,栃木県佐野市閑馬町
3270322,栃木県,佐野市,梅園町,トチギケン,サノシ,ウメゾノチョウ,栃木県佐野市梅園町
3270323,栃木県,佐野市,戸奈良町,トチギケン,サノシ,トナラチョウ,栃木県佐野市戸奈良町
3270324,栃木県,佐野市,山形町,トチギケン,サノシ,ヤマガタチョウ,栃木県佐野市山形町
3270325,栃木県,佐野市,下彦間町,トチギケン,サノシ,シモヒコマチョウ,栃木県佐野市下彦間町
3270501,栃木県,佐野市,葛生東,トチギケン,サノシ,クズウヒガシ,栃木県佐野市葛生東
3270502,栃木県,佐野市,築地町,トチギケン,サノシ,ツイジチョウ,栃木県佐野市築地町
3270503,栃木県,佐野市,富士見町,トチギケン,サノシ,フジミチョウ,栃木県佐野市富士見町
3270504,栃木県,佐野市,中町,トチギケン,サノシ,ナカチョウ,栃木県佐野市中町
3270505,栃木県,佐野市,山菅町,トチギケン,サノシ,ヤマスゲチョウ,栃木県佐野市山菅町
3270507,栃木県,佐野市,葛生西,トチギケン,サノシ,クズウニシ,栃木県佐野市葛生西
3270508,栃木県,佐野市,鉢木町,トチギケン,サノシ,ハチノキチョウ,栃木県佐野市鉢木町
3270509,栃木県,佐野市,宮下町,トチギケン,サノシ,ミヤシタチョウ,栃木県佐野市宮下町
3270511,栃木県,佐野市,会沢町,トチギケン,サノシ,アイサワチョウ,栃木県佐野市会沢町
3270512,栃木県,佐野市,豊代町,トチギケン,サノシ,トヨシロチョウ,栃木県佐野市豊代町
3270513,栃木県,佐野市,牧町,トチギケン,サノシ,マギチョウ,栃木県佐野市牧町
3270514,栃木県,佐野市,仙波町（その他）,トチギケン,サノシ,センバチョウ(ソノタ),栃木県佐野市仙波町（その他）
3270515,栃木県,佐野市,柿平町,トチギケン,サノシ,カキダイラチョウ,栃木県佐野市柿平町
3270516,栃木県,佐野市,水木町,トチギケン,サノシ,ミズキチョウ,栃木県佐野市水木町
3270517,栃木県,佐野市,秋山町,トチギケン,サノシ,アキヤマチョウ,栃木県佐野市秋山町
3270523,栃木県,佐野市,嘉多山町,トチギケン,サノシ,カタヤマチョウ,栃木県佐野市嘉多山町
3270524,栃木県,佐野市,長坂町,トチギケン,サノシ,ナガサカチョウ,栃木県佐野市長坂町
3270525,栃木県,佐野市,あくと町,トチギケン,サノシ,アクトチョウ,栃木県佐野市あくと町
3270801,栃木県,佐野市,富士町,トチギケン,サノシ,フジチョウ,栃木県佐野市富士町
3270802,栃木県,佐野市,韮川町,トチギケン,サノシ,ニラガワチョウ,栃木県佐野市韮川町
3270803,栃木県,佐野市,犬伏新町,トチギケン,サノシ,イヌブシシンマチ,栃木県佐野市犬伏新町
3270804,栃木県,佐野市,犬伏下町,トチギケン,サノシ,イヌブシシモチョウ,栃木県佐野市犬伏下町
3270805,栃木県,佐野市,犬伏中町,トチギケン,サノシ,イヌブシナカチョウ,栃木県佐野市犬伏中町
3270806,栃木県,佐野市,犬伏上町,トチギケン,サノシ,イヌブシカミチョウ,栃木県佐野市犬伏上町
3270807,栃木県,佐野市,大栗町,トチギケン,サノシ,オオグリチョウ,栃木県佐野市大栗町
3270811,栃木県,佐野市,関川町,トチギケン,サノシ,セキガワチョウ,栃木県佐野市関川町
3270812,栃木県,佐野市,町谷町,トチギケン,サノシ,マチヤチョウ,栃木県佐野市町谷町
3270813,栃木県,佐野市,黒袴町,トチギケン,サノシ,クロハカマチョウ,栃木県佐野市黒袴町
3270814,栃木県,佐野市,西浦町,トチギケン,サノシ,ニシウラチョウ,栃木県佐野市西浦町
3270815,栃木県,佐野市,鐙塚町,トチギケン,サノシ,アブツカチョウ,栃木県佐野市鐙塚町
3270816,栃木県,佐野市,栄町,トチギケン,サノシ,サカエチョウ,栃木県佐野市栄町
3270817,栃木県,佐野市,伊勢山町,トチギケン,サノシ,イセヤマチョウ,栃木県佐野市伊勢山町
3270818,栃木県,佐野市,米山南町,トチギケン,サノシ,ヨネヤマミナミチョウ,栃木県佐野市米山南町
3270821,栃木県,佐野市,高萩町,トチギケン,サノシ,タカハギチョウ,栃木県佐野市高萩町
3270822,栃木県,佐野市,越名町,トチギケン,サノシ,コエナチョウ,栃木県佐野市越名町
3270823,栃木県,佐野市,高山町,トチギケン,サノシ,タカヤマチョウ,栃木県佐野市高山町
3270824,栃木県,佐野市,馬門町,トチギケン,サノシ,マカドチョウ,栃木県佐野市馬門町
3270825,栃木県,佐野市,飯田町,トチギケン,サノシ,イイタチョウ,栃木県佐野市飯田町
3270826,栃木県,佐野市,茂呂山町,トチギケン,サノシ,モロヤマチョウ,栃木県佐野市茂呂山町
3270827,栃木県,佐野市,北茂呂町,トチギケン,サノシ,キタモロチョウ,栃木県佐野市北茂呂町
3270831,栃木県,佐野市,浅沼町,トチギケン,サノシ,アサヌマチョウ,栃木県佐野市浅沼町
3270832,栃木県,佐野市,植上町,トチギケン,サノシ,ウエカミチョウ,栃木県佐野市植上町
3270833,栃木県,佐野市,若宮上町,トチギケン,サノシ,ワカミヤカミチョウ,栃木県佐野市若宮上町
3270834,栃木県,佐野市,若宮下町,トチギケン,サノシ,ワカミヤシモチョウ,栃木県佐野市若宮下町
3270835,栃木県,佐野市,植下町,トチギケン,サノシ,ウエシモチョウ,栃木県佐野市植下町
3270836,栃木県,佐野市,寺中町,トチギケン,サノシ,ジチュウチョウ,栃木県佐野市寺中町
3270837,栃木県,佐野市,植野町,トチギケン,サノシ,ウエノチョウ,栃木県佐野市植野町
3270841,栃木県,佐野市,田之入町,トチギケン,サノシ,タノイリチョウ,栃木県佐野市田之入町
3270842,栃木県,佐野市,奈良渕町,トチギケン,サノシ,ナラブチチョウ,栃木県佐野市奈良渕町
3270843,栃木県,佐野市,堀米町,トチギケン,サノシ,ホリゴメチョウ,栃木県佐野市堀米町
3270844,栃木県,佐野市,富岡町,トチギケン,サノシ,トミオカチョウ,栃木県佐野市富岡町
3270845,栃木県,佐野市,久保町,トチギケン,サノシ,クボチョウ,栃木県佐野市久保町
3270846,栃木県,佐野市,若松町,トチギケン,サノシ,ワカマツチョウ,栃木県佐野市若松町
3270847,栃木県,佐野市,天神町,トチギケン,サノシ,テンジンチョウ,栃木県佐野市天神町
3280000,栃木県,栃木市,,トチギケン,トチギシ,,栃木県栃木市
3280001,栃木県,栃木市,柳原町,トチギケン,トチギシ,ヤナギハラマチ,栃木県栃木市柳原町
3280002,栃木県,栃木市,惣社町,トチギケン,トチギシ,ソウジャマチ,栃木県栃木市惣社町
3280003,栃木県,栃木市,大光寺町,トチギケン,トチギシ,ダイコウジマチ,栃木県栃木市大光寺町
3280004,栃木県,栃木市,田村町,トチギケン,トチギシ,タムラマチ,栃木県栃木市田村町
3280005,栃木県,栃木市,寄居町,トチギケン,トチギシ,ヨリイマチ,栃木県栃木市寄居町
3280006,栃木県,栃木市,国府町,トチギケン,トチギシ,コウマチ,栃木県栃木市国府町
3280007,栃木県,栃木市,大塚町,トチギケン,トチギシ,オオツカマチ,栃木県栃木市大塚町
3280011,栃木県,栃木市,大宮町,トチギケン,トチギシ,オオミヤマチ,栃木県栃木市大宮町
3280012,栃木県,栃木市,平柳町,トチギケン,トチギシ,ヒラヤナギマチ,栃木県栃木市平柳町
3280013,栃木県,栃木市,昭和町,トチギケン,トチギシ,ショウワチョウ,栃木県栃木市昭和町
3280014,栃木県,栃木市,泉町,トチギケン,トチギシ,イズミチョウ,栃木県栃木市泉町
3280015,栃木県,栃木市,万町,トチギケン,トチギシ,ヨロズチョウ,栃木県栃木市万町
3280016,栃木県,栃木市,入舟町,トチギケン,トチギシ,イリフネチョウ,栃木県栃木市入舟町
3280017,栃木県,栃木市,錦町,トチギケン,トチギシ,ニシキチョウ,栃木県栃木市錦町
3280021,栃木県,栃木市,久保田町,トチギケン,トチギシ,クボタマチ,栃木県栃木市久保田町
3280022,栃木県,栃木市,宮田町,トチギケン,トチギシ,ミヤタマチ,栃木県栃木市宮田町
3280023,栃木県,栃木市,高谷町,トチギケン,トチギシ,コウヤマチ,栃木県栃木市高谷町
3280024,栃木県,栃木市,樋ノ口町,トチギケン,トチギシ,ヒノクチマチ,栃木県栃木市樋ノ口町
3280025,栃木県,栃木市,仲仕上町,トチギケン,トチギシ,ナカシアゲマチ,栃木県栃木市仲仕上町
3280026,栃木県,栃木市,藤田町,トチギケン,トチギシ,フジタマチ,栃木県栃木市藤田町
3280027,栃木県,栃木市,今泉町,トチギケン,トチギシ,イマイズミマチ,栃木県栃木市今泉町
3280031,栃木県,栃木市,日ノ出町,トチギケン,トチギシ,ヒノデチョウ,栃木県栃木市日ノ出町
3280032,栃木県,栃木市,神田町,トチギケン,トチギシ,カンダチョウ,栃木県栃木市神田町
3280033,栃木県,栃木市,城内町,トチギケン,トチギシ,ジョウナイチョウ,栃木県栃木市城内町
3280034,栃木県,栃木市,本町,トチギケン,トチギシ,ホンチョウ,栃木県栃木市本町
3280035,栃木県,栃木市,旭町,トチギケン,トチギシ,アサヒチョウ,栃木県栃木市旭町
3280036,栃木県,栃木市,室町,トチギケン,トチギシ,ムロマチ,栃木県栃木市室町
3280037,栃木県,栃木市,倭町,トチギケン,トチギシ,ヤマトチョウ,栃木県栃木市倭町
3280041,栃木県,栃木市,河合町,トチギケン,トチギシ,カワイチョウ,栃木県栃木市河合町
3280042,栃木県,栃木市,沼和田町,トチギケン,トチギシ,ヌマワダチョウ,栃木県栃木市沼和田町
3280043,栃木県,栃木市,境町,トチギケン,トチギシ,サカイチョウ,栃木県栃木市境町
3280044,栃木県,栃木市,富士見町,トチギケン,トチギシ,フジミチョウ,栃木県栃木市富士見町
3280045,栃木県,栃木市,湊町,トチギケン,トチギシ,ミナトチョウ,栃木県栃木市湊町
3280051,栃木県,栃木市,柳橋町,トチギケン,トチギシ,ヤナギバシチョウ,栃木県栃木市柳橋町
3280052,栃木県,栃木市,祝町,トチギケン,トチギシ,イワイチョウ,栃木県栃木市祝町
3280053,栃木県,栃木市,片柳町,トチギケン,トチギシ,カタヤナギチョウ,栃木県栃木市片柳町
3280054,栃木県,栃木市,平井町,トチギケン,トチギシ,ヒライチョウ,栃木県栃木市平井町
3280061,栃木県,栃木市,新井町,トチギケン,トチギシ,アライマチ,栃木県栃木市新井町
3280062,栃木県,栃木市,泉川町,トチギケン,トチギシ,イズミガワマチ,栃木県栃木市泉川町
3280063,栃木県,栃木市,岩出町,トチギケン,トチギシ,イワデマチ,栃木県栃木市岩出町
3280064,栃木県,栃木市,志鳥町,トチギケン,トチギシ,シトリマチ,栃木県栃木市志鳥町
3280065,栃木県,栃木市,小野口町,トチギケン,トチギシ,オノグチマチ,栃木県栃木市小野口町
3280066,栃木県,栃木市,柏倉町,トチギケン,トチギシ,カシワグラマチ,栃木県栃木市柏倉町
3280067,栃木県,栃木市,皆川城内町,トチギケン,トチギシ,ミナガワジョウナイマチ,栃木県栃木市皆川城内町
3280068,栃木県,栃木市,大皆川町,トチギケン,トチギシ,オオミナガワマチ,栃木県栃木市大皆川町
3280071,栃木県,栃木市,大町,トチギケン,トチギシ,ダイチョウ,栃木県栃木市大町
3280072,栃木県,栃木市,嘉右衛門町,トチギケン,トチギシ,カウエモンチョウ,栃木県栃木市嘉右衛門町
3280073,栃木県,栃木市,小平町,トチギケン,トチギシ,コヒラチョウ,栃木県栃木市小平町
3280074,栃木県,栃木市,薗部町,トチギケン,トチギシ,ソノベチョウ,栃木県栃木市薗部町
3280075,栃木県,栃木市,箱森町,トチギケン,トチギシ,ハコノモリマチ,栃木県栃木市箱森町
3280101,栃木県,栃木市,都賀町大柿,トチギケン,トチギシ,ツガマチオオガキ,栃木県栃木市都賀町大柿
3280102,栃木県,栃木市,都賀町富張,トチギケン,トチギシ,ツガマチトミハリ,栃木県栃木市都賀町富張
3280103,栃木県,栃木市,都賀町原宿,トチギケン,トチギシ,ツガマチハラジュク,栃木県栃木市都賀町原宿
3280104,栃木県,栃木市,都賀町木,トチギケン,トチギシ,ツガマチキ,栃木県栃木市都賀町木
3280105,栃木県,栃木市,都賀町臼久保,トチギケン,トチギシ,ツガマチウスクボ,栃木県栃木市都賀町臼久保
3280106,栃木県,栃木市,都賀町大橋,トチギケン,トチギシ,ツガマチオオハシ,栃木県栃木市都賀町大橋
3280107,栃木県,栃木市,都賀町深沢,トチギケン,トチギシ,ツガマチフカサワ,栃木県栃木市都賀町深沢
3280111,栃木県,栃木市,都賀町家中,トチギケン,トチギシ,ツガマチイエナカ,栃木県栃木市都賀町家中
3280112,栃木県,栃木市,都賀町平川,トチギケン,トチギシ,ツガマチヒラカワ,栃木県栃木市都賀町平川
3280113,栃木県,栃木市,都賀町合戦場,トチギケン,トチギシ,ツガマチカッセンバ,栃木県栃木市都賀町合戦場
3280114,栃木県,栃木市,都賀町升塚,トチギケン,トチギシ,ツガマチマスヅカ,栃木県栃木市都賀町升塚
3280121,栃木県,栃木市,細堀町,トチギケン,トチギシ,ホソボリマチ,栃木県栃木市細堀町
3280122,栃木県,栃木市,木野地町,トチギケン,トチギシ,キノジマチ,栃木県栃木市木野地町
3280123,栃木県,栃木市,川原田町,トチギケン,トチギシ,カワラダマチ,栃木県栃木市川原田町
3280124,栃木県,栃木市,野中町,トチギケン,トチギシ,ノナカマチ,栃木県栃木市野中町
3280125,栃木県,栃木市,吹上町,トチギケン,トチギシ,フキアゲマチ,栃木県栃木市吹上町
3280131,栃木県,栃木市,梓町,トチギケン,トチギシ,アズサマチ,栃木県栃木市梓町
3280132,栃木県,栃木市,仲方町,トチギケン,トチギシ,ナカガタマチ,栃木県栃木市仲方町
3280133,栃木県,栃木市,大森町,トチギケン,トチギシ,オオモリマチ,栃木県栃木市大森町
3280134,栃木県,栃木市,宮町,トチギケン,トチギシ,ミヤマチ,栃木県栃木市宮町
3280135,栃木県,栃木市,千塚町,トチギケン,トチギシ,チヅカマチ,栃木県栃木市千塚町
3280201,栃木県,栃木市,星野町,トチギケン,トチギシ,ホシノマチ,栃木県栃木市星野町
3280202,栃木県,栃木市,大久保町,トチギケン,トチギシ,オオクボマチ,栃木県栃木市大久保町
3280203,栃木県,栃木市,尻内町,トチギケン,トチギシ,シリウチマチ,栃木県栃木市尻内町
3280204,栃木県,栃木市,梅沢町,トチギケン,トチギシ,ウメザワマチ,栃木県栃木市梅沢町
3280205,栃木県,栃木市,鍋山町,トチギケン,トチギシ,ナベヤママチ,栃木県栃木市鍋山町
3280206,栃木県,栃木市,出流町,トチギケン,トチギシ,イズルマチ,栃木県栃木市出流町
3280211,栃木県,鹿沼市,上永野,トチギケン,カヌマシ,カミナガノ,栃木県鹿沼市上永野
3280212,栃木県,鹿沼市,下永野,トチギケン,カヌマシ,シモナガノ,栃木県鹿沼市下永野
3280221,栃木県,佐野市,仙波町（坂東、松ケ坂）,トチギケン,サノシ,センバチョウ(バンドウ、マツガサカ),栃木県佐野市仙波町（坂東、松ケ坂）
3290100,栃木県,下都賀郡野木町,,トチギケン,シモツガグンノギマチ,,栃木県下都賀郡野木町
3290101,栃木県,下都賀郡野木町,友沼,トチギケン,シモツガグンノギマチ,トモヌマ,栃木県下都賀郡野木町友沼
3290102,栃木県,下都賀郡野木町,潤島,トチギケン,シモツガグンノギマチ,ウルウジマ,栃木県下都賀郡野木町潤島
3290103,栃木県,下都賀郡野木町,若林,トチギケン,シモツガグンノギマチ,ワカバヤシ,栃木県下都賀郡野木町若林
3290104,栃木県,下都賀郡野木町,佐川野,トチギケン,シモツガグンノギマチ,サガワノ,栃木県下都賀郡野木町佐川野
3290105,栃木県,下都賀郡野木町,川田,トチギケン,シモツガグンノギマチ,カワダ,栃木県下都賀郡野木町川田
3290111,栃木県,下都賀郡野木町,丸林,トチギケン,シモツガグンノギマチ,マルバヤシ,栃木県下都賀郡野木町丸林
3290112,栃木県,下都賀郡野木町,南赤塚,トチギケン,シモツガグンノギマチ,ミナミアカツカ,栃木県下都賀郡野木町南赤塚
3290113,栃木県,下都賀郡野木町,中谷,トチギケン,シモツガグンノギマチ,ナカヤ,栃木県下都賀郡野木町中谷
3290114,栃木県,下都賀郡野木町,野木,トチギケン,シモツガグンノギマチ,ノギ,栃木県下都賀郡野木町野木
3290115,栃木県,下都賀郡野木町,野渡,トチギケン,シモツガグンノギマチ,ノワタ,栃木県下都賀郡野木町野渡
3290201,栃木県,小山市,粟宮,トチギケン,オヤマシ,アワノミヤ,栃木県小山市粟宮
3290202,栃木県,小山市,千駄塚,トチギケン,オヤマシ,センダヅカ,栃木県小山市千駄塚
3290203,栃木県,小山市,西黒田,トチギケン,オヤマシ,ニシクロダ,栃木県小山市西黒田
3290204,栃木県,小山市,東黒田,トチギケン,オヤマシ,ヒガシクロダ,栃木県小山市東黒田
3290205,栃木県,小山市,間々田,トチギケン,オヤマシ,ママダ,栃木県小山市間々田
3290206,栃木県,小山市,東間々田,トチギケン,オヤマシ,ヒガシママダ,栃木県小山市東間々田
3290207,栃木県,小山市,美しが丘,トチギケン,オヤマシ,ウツクシガオカ,栃木県小山市美しが丘
3290211,栃木県,小山市,暁,トチギケン,オヤマシ,アカツキ,栃木県小山市暁
3290212,栃木県,小山市,平和,トチギケン,オヤマシ,ヒラワ,栃木県小山市平和
3290213,栃木県,小山市,南飯田,トチギケン,オヤマシ,ミナミイイダ,栃木県小山市南飯田
3290214,栃木県,小山市,乙女,トチギケン,オヤマシ,オトメ,栃木県小山市乙女
3290215,栃木県,小山市,網戸,トチギケン,オヤマシ,アジト,栃木県小山市網戸
3290216,栃木県,小山市,楢木,トチギケン,オヤマシ,ナラノキ,栃木県小山市楢木
3290217,栃木県,小山市,南乙女,トチギケン,オヤマシ,ミナミオトメ,栃木県小山市南乙女
3290221,栃木県,小山市,生良,トチギケン,オヤマシ,キラ,栃木県小山市生良
3290222,栃木県,小山市,上生井,トチギケン,オヤマシ,カミナマイ,栃木県小山市上生井
3290223,栃木県,小山市,下生井,トチギケン,オヤマシ,シモナマイ,栃木県小山市下生井
3290224,栃木県,小山市,白鳥,トチギケン,オヤマシ,シラトリ,栃木県小山市白鳥
3290225,栃木県,小山市,迫間田,トチギケン,オヤマシ,ハサマダ,栃木県小山市迫間田
3290226,栃木県,小山市,寒川,トチギケン,オヤマシ,サムカワ,栃木県小山市寒川
3290227,栃木県,小山市,中里,トチギケン,オヤマシ,ナカザト,栃木県小山市中里
3290228,栃木県,小山市,押切,トチギケン,オヤマシ,オシキリ,栃木県小山市押切
3290229,栃木県,小山市,鏡,トチギケン,オヤマシ,カガミ,栃木県小山市鏡
3290311,栃木県,栃木市,藤岡町富吉,トチギケン,トチギシ,フジオカマチトミヨシ,栃木県栃木市藤岡町富吉
3290312,栃木県,栃木市,藤岡町蛭沼,トチギケン,トチギシ,フジオカマチヒルヌマ,栃木県栃木市藤岡町蛭沼
3290313,栃木県,栃木市,藤岡町緑川,トチギケン,トチギシ,フジオカマチミドリカワ,栃木県栃木市藤岡町緑川
3290314,栃木県,栃木市,藤岡町新波,トチギケン,トチギシ,フジオカマチニッパ,栃木県栃木市藤岡町新波
3290315,栃木県,栃木市,藤岡町部屋,トチギケン,トチギシ,フジオカマチヘヤ,栃木県栃木市藤岡町部屋
3290316,栃木県,栃木市,藤岡町石川,トチギケン,トチギシ,フジオカマチイシカワ,栃木県栃木市藤岡町石川
3290317,栃木県,栃木市,藤岡町帯刀,トチギケン,トチギシ,フジオカマチタテワキ,栃木県栃木市藤岡町帯刀
3290318,栃木県,栃木市,藤岡町西前原,トチギケン,トチギシ,フジオカマチニシマエハラ,栃木県栃木市藤岡町西前原
3290319,栃木県,栃木市,藤岡町中根,トチギケン,トチギシ,フジオカマチナカネ,栃木県栃木市藤岡町中根
3290400,栃木県,下野市,,トチギケン,シモツケシ,,栃木県下野市
3290401,栃木県,下野市,箕輪,トチギケン,シモツケシ,ミノワ,栃木県下野市箕輪
3290402,栃木県,下野市,笹原,トチギケン,シモツケシ,ササハラ,栃木県下野市笹原
3290403,栃木県,下野市,医大前,トチギケン,シモツケシ,イダイマエ,栃木県下野市医大前
3290411,栃木県,下野市,烏ケ森,トチギケン,シモツケシ,カラスガモリ,栃木県下野市烏ケ森
3290412,栃木県,下野市,柴,トチギケン,シモツケシ,シバ,栃木県下野市柴
3290413,栃木県,下野市,駅東,トチギケン,シモツケシ,エキヒガシ,栃木県下野市駅東
3290414,栃木県,下野市,小金井,トチギケン,シモツケシ,コガネイ,栃木県下野市小金井
3290415,栃木県,下野市,川中子,トチギケン,シモツケシ,カワナゴ,栃木県下野市川中子
3290417,栃木県,下野市,国分寺,トチギケン,シモツケシ,コクブンジ,栃木県下野市国分寺
3290418,栃木県,下野市,紫,トチギケン,シモツケシ,ムラサキ,栃木県下野市紫
3290421,栃木県,下野市,成田,トチギケン,シモツケシ,ナリタ,栃木県下野市成田
3290422,栃木県,下野市,町田,トチギケン,シモツケシ,マチダ,栃木県下野市町田
3290423,栃木県,下野市,谷地賀,トチギケン,シモツケシ,ヤジツカ,栃木県下野市谷地賀
3290424,栃木県,下野市,下文狹,トチギケン,シモツケシ,シモフバサミ,栃木県下野市下文狹
3290425,栃木県,下野市,田中,トチギケン,シモツケシ,タナカ,栃木県下野市田中
3290431,栃木県,下野市,薬師寺,トチギケン,シモツケシ,ヤクシジ,栃木県下野市薬師寺
3290432,栃木県,下野市,仁良川,トチギケン,シモツケシ,ニラガワ,栃木県下野市仁良川
3290433,栃木県,下野市,緑,トチギケン,シモツケシ,ミドリ,栃木県下野市緑
3290434,栃木県,下野市,祇園,トチギケン,シモツケシ,ギオン,栃木県下野市祇園
3290501,栃木県,下野市,上古山,トチギケン,シモツケシ,カミコヤマ,栃木県下野市上古山
3290502,栃木県,下野市,下古山,トチギケン,シモツケシ,シモコヤマ,栃木県下野市下古山
3290503,栃木県,下野市,下長田,トチギケン,シモツケシ,シモナガタ,栃木県下野市下長田
3290504,栃木県,下野市,上台,トチギケン,シモツケシ,カミダイ,栃木県下野市上台
3290505,栃木県,下野市,細谷,トチギケン,シモツケシ,ホソヤ,栃木県下野市細谷
3290506,栃木県,下野市,橋本,トチギケン,シモツケシ,ハシモト,栃木県下野市橋本
3290507,栃木県,下野市,文教,トチギケン,シモツケシ,ブンキョウ,栃木県下野市文教
3290511,栃木県,下野市,石橋,トチギケン,シモツケシ,イシバシ,栃木県下野市石橋
3290512,栃木県,下野市,下石橋,トチギケン,シモツケシ,シモイシバシ,栃木県下野市下石橋
3290513,栃木県,下野市,下大領,トチギケン,シモツケシ,シモダイリョウ,栃木県下野市下大領
3290514,栃木県,下野市,東前原,トチギケン,シモツケシ,ヒガシマエハラ,栃木県下野市東前原
3290515,栃木県,下野市,中大領,トチギケン,シモツケシ,ナカダイリョウ,栃木県下野市中大領
3290516,栃木県,下野市,大光寺,トチギケン,シモツケシ,ダイコウジ,栃木県下野市大光寺
3290517,栃木県,下野市,上大領,トチギケン,シモツケシ,カミダイリョウ,栃木県下野市上大領
3290518,栃木県,下野市,花の木,トチギケン,シモツケシ,ハナノキ,栃木県下野市花の木
3290519,栃木県,下野市,大松山,トチギケン,シモツケシ,オオマツヤマ,栃木県下野市大松山
3290521,栃木県,河内郡上三川町,石田,トチギケン,カワチグンカミノカワマチ,イシタ,栃木県河内郡上三川町石田
3290522,栃木県,河内郡上三川町,川中子,トチギケン,カワチグンカミノカワマチ,カワナゴ,栃木県河内郡上三川町川中子
3290523,栃木県,河内郡上三川町,梁,トチギケン,カワチグンカミノカワマチ,ヤナ,栃木県河内郡上三川町梁
3290524,栃木県,河内郡上三川町,多功,トチギケン,カワチグンカミノカワマチ,タコウ,栃木県河内郡上三川町多功
3290525,栃木県,河内郡上三川町,大山,トチギケン,カワチグンカミノカワマチ,オオヤマ,栃木県河内郡上三川町大山
3290526,栃木県,河内郡上三川町,鞘堂,トチギケン,カワチグンカミノカワマチ,サヤドウ,栃木県河内郡上三川町鞘堂
3290527,栃木県,河内郡上三川町,上神主,トチギケン,カワチグンカミノカワマチ,カミコウヌシ,栃木県河内郡上三川町上神主
3290528,栃木県,河内郡上三川町,ゆうきが丘,トチギケン,カワチグンカミノカワマチ,ユウキガオカ,栃木県河内郡上三川町ゆうきが丘
3290529,栃木県,河内郡上三川町,下神主,トチギケン,カワチグンカミノカワマチ,シモコウヌシ,栃木県河内郡上三川町下神主
3290530,栃木県,河内郡上三川町,天神町,トチギケン,カワチグンカミノカワマチ,テンジンチョウ,栃木県河内郡上三川町天神町
3290600,栃木県,河内郡上三川町,,トチギケン,カワチグンカミノカワマチ,,栃木県河内郡上三川町
3290601,栃木県,河内郡上三川町,上文挾,トチギケン,カワチグンカミノカワマチ,カミフバサミ,栃木県河内郡上三川町上文挾
3290602,栃木県,河内郡上三川町,東汗,トチギケン,カワチグンカミノカワマチ,ヒガシフザカシ,栃木県河内郡上三川町東汗
3290603,栃木県,河内郡上三川町,東蓼沼,トチギケン,カワチグンカミノカワマチ,ヒガシタテヌマ,栃木県河内郡上三川町東蓼沼
3290604,栃木県,河内郡上三川町,上郷,トチギケン,カワチグンカミノカワマチ,カミゴウ,栃木県河内郡上三川町上郷
3290605,栃木県,河内郡上三川町,西蓼沼,トチギケン,カワチグンカミノカワマチ,ニシタテヌマ,栃木県河内郡上三川町西蓼沼
3290606,栃木県,河内郡上三川町,磯岡,トチギケン,カワチグンカミノカワマチ,イソオカ,栃木県河内郡上三川町磯岡
3290607,栃木県,河内郡上三川町,西汗,トチギケン,カワチグンカミノカワマチ,ニシフザカシ,栃木県河内郡上三川町西汗
3290608,栃木県,河内郡上三川町,西木代,トチギケン,カワチグンカミノカワマチ,ニシキノシロ,栃木県河内郡上三川町西木代
3290611,栃木県,河内郡上三川町,上三川,トチギケン,カワチグンカミノカワマチ,カミノカワ,栃木県河内郡上三川町上三川
3290612,栃木県,河内郡上三川町,三本木,トチギケン,カワチグンカミノカワマチ,サンボンギ,栃木県河内郡上三川町三本木
3290613,栃木県,河内郡上三川町,坂上,トチギケン,カワチグンカミノカワマチ,サカウエ,栃木県河内郡上三川町坂上
3290614,栃木県,河内郡上三川町,五分一,トチギケン,カワチグンカミノカワマチ,ゴブイチ,栃木県河内郡上三川町五分一
3290615,栃木県,河内郡上三川町,三村,トチギケン,カワチグンカミノカワマチ,ミムラ,栃木県河内郡上三川町三村
3290616,栃木県,河内郡上三川町,下蒲生,トチギケン,カワチグンカミノカワマチ,シモカモウ,栃木県河内郡上三川町下蒲生
3290617,栃木県,河内郡上三川町,上蒲生,トチギケン,カワチグンカミノカワマチ,カミカモウ,栃木県河内郡上三川町上蒲生
3290618,栃木県,河内郡上三川町,しらさぎ,トチギケン,カワチグンカミノカワマチ,シラサギ,栃木県河内郡上三川町しらさぎ
3291101,栃木県,宇都宮市,下ケ橋町,トチギケン,ウツノミヤシ,サゲハシチョウ,栃木県宇都宮市下ケ橋町
3291102,栃木県,宇都宮市,白沢町,トチギケン,ウツノミヤシ,シラサワチョウ,栃木県宇都宮市白沢町
3291103,栃木県,宇都宮市,東岡本町,トチギケン,ウツノミヤシ,ヒガシオカモトチョウ,栃木県宇都宮市東岡本町
3291104,栃木県,宇都宮市,下岡本町,トチギケン,ウツノミヤシ,シモオカモトチョウ,栃木県宇都宮市下岡本町
3291105,栃木県,宇都宮市,中岡本町,トチギケン,ウツノミヤシ,ナカオカモトチョウ,栃木県宇都宮市中岡本町
3291106,栃木県,宇都宮市,上大塚町,トチギケン,ウツノミヤシ,カミオオツカチョウ,栃木県宇都宮市上大塚町
3291107,栃木県,宇都宮市,長峰町,トチギケン,ウツノミヤシ,ナガミネチョウ,栃木県宇都宮市長峰町
3291108,栃木県,宇都宮市,古田町,トチギケン,ウツノミヤシ,フルタチョウ,栃木県宇都宮市古田町
3291111,栃木県,宇都宮市,逆面町,トチギケン,ウツノミヤシ,サカヅラチョウ,栃木県宇都宮市逆面町
3291112,栃木県,宇都宮市,上田原町,トチギケン,ウツノミヤシ,カミタワラチョウ,栃木県宇都宮市上田原町
3291113,栃木県,宇都宮市,相野沢町,トチギケン,ウツノミヤシ,アイノサワチョウ,栃木県宇都宮市相野沢町
3291114,栃木県,宇都宮市,宝井町,トチギケン,ウツノミヤシ,タカライチョウ,栃木県宇都宮市宝井町
3291115,栃木県,宇都宮市,下田原町,トチギケン,ウツノミヤシ,シモタワラチョウ,栃木県宇都宮市下田原町
3291116,栃木県,宇都宮市,立伏町,トチギケン,ウツノミヤシ,リュウブクチョウ,栃木県宇都宮市立伏町
3291117,栃木県,宇都宮市,叶谷町,トチギケン,ウツノミヤシ,カノウヤチョウ,栃木県宇都宮市叶谷町
3291200,栃木県,塩谷郡高根沢町,,トチギケン,シオヤグンタカネザワマチ,,栃木県塩谷郡高根沢町
3291201,栃木県,塩谷郡高根沢町,柿木沢,トチギケン,シオヤグンタカネザワマチ,カキノキザワ,栃木県塩谷郡高根沢町柿木沢
3291202,栃木県,塩谷郡高根沢町,狭間田,トチギケン,シオヤグンタカネザワマチ,ハサマタ,栃木県塩谷郡高根沢町狭間田
3291203,栃木県,塩谷郡高根沢町,伏久,トチギケン,シオヤグンタカネザワマチ,フスク,栃木県塩谷郡高根沢町伏久
3291204,栃木県,塩谷郡高根沢町,文挾,トチギケン,シオヤグンタカネザワマチ,フバサミ,栃木県塩谷郡高根沢町文挾
3291205,栃木県,塩谷郡高根沢町,飯室,トチギケン,シオヤグンタカネザワマチ,イイムロ,栃木県塩谷郡高根沢町飯室
3291206,栃木県,塩谷郡高根沢町,平田,トチギケン,シオヤグンタカネザワマチ,ヒラタ,栃木県塩谷郡高根沢町平田
3291207,栃木県,塩谷郡高根沢町,花岡,トチギケン,シオヤグンタカネザワマチ,ハナオカ,栃木県塩谷郡高根沢町花岡
3291211,栃木県,塩谷郡高根沢町,亀梨,トチギケン,シオヤグンタカネザワマチ,カメナシ,栃木県塩谷郡高根沢町亀梨
3291212,栃木県,塩谷郡高根沢町,上柏崎,トチギケン,シオヤグンタカネザワマチ,カミカシワザキ,栃木県塩谷郡高根沢町上柏崎
3291213,栃木県,塩谷郡高根沢町,下柏崎,トチギケン,シオヤグンタカネザワマチ,シモカシワザキ,栃木県塩谷郡高根沢町下柏崎
3291214,栃木県,塩谷郡高根沢町,中柏崎,トチギケン,シオヤグンタカネザワマチ,ナカカシワザキ,栃木県塩谷郡高根沢町中柏崎
3291215,栃木県,塩谷郡高根沢町,給部,トチギケン,シオヤグンタカネザワマチ,キュウブ,栃木県塩谷郡高根沢町給部
3291216,栃木県,塩谷郡高根沢町,桑窪,トチギケン,シオヤグンタカネザワマチ,クワクボ,栃木県塩谷郡高根沢町桑窪
3291217,栃木県,塩谷郡高根沢町,太田,トチギケン,シオヤグンタカネザワマチ,オオタ,栃木県塩谷郡高根沢町太田
3291221,栃木県,塩谷郡高根沢町,西高谷,トチギケン,シオヤグンタカネザワマチ,ニシゴウヤ,栃木県塩谷郡高根沢町西高谷
3291222,栃木県,塩谷郡高根沢町,寺渡戸,トチギケン,シオヤグンタカネザワマチ,テラワタド,栃木県塩谷郡高根沢町寺渡戸
3291223,栃木県,塩谷郡高根沢町,栗ケ島,トチギケン,シオヤグンタカネザワマチ,クリガシマ,栃木県塩谷郡高根沢町栗ケ島
3291224,栃木県,塩谷郡高根沢町,上高根沢,トチギケン,シオヤグンタカネザワマチ,カミタカネザワ,栃木県塩谷郡高根沢町上高根沢
3291225,栃木県,塩谷郡高根沢町,石末,トチギケン,シオヤグンタカネザワマチ,イシズエ,栃木県塩谷郡高根沢町石末
3291226,栃木県,塩谷郡高根沢町,大谷,トチギケン,シオヤグンタカネザワマチ,オオヤ,栃木県塩谷郡高根沢町大谷
3291231,栃木県,塩谷郡高根沢町,宝石台,トチギケン,シオヤグンタカネザワマチ,ホウセキダイ,栃木県塩谷郡高根沢町宝石台
3291232,栃木県,塩谷郡高根沢町,光陽台,トチギケン,シオヤグンタカネザワマチ,コウヨウダイ,栃木県塩谷郡高根沢町光陽台
3291233,栃木県,塩谷郡高根沢町,宝積寺,トチギケン,シオヤグンタカネザワマチ,ホウシャクジ,栃木県塩谷郡高根沢町宝積寺
3291234,栃木県,塩谷郡高根沢町,中阿久津,トチギケン,シオヤグンタカネザワマチ,ナカアクツ,栃木県塩谷郡高根沢町中阿久津
3291235,栃木県,塩谷郡高根沢町,上阿久津,トチギケン,シオヤグンタカネザワマチ,カミアクツ,栃木県塩谷郡高根沢町上阿久津
3291300,栃木県,さくら市,,トチギケン,サクラシ,,栃木県さくら市
3291301,栃木県,さくら市,箱森新田,トチギケン,サクラシ,ハコノモリシンデン,栃木県さくら市箱森新田
3291302,栃木県,さくら市,松山新田,トチギケン,サクラシ,マツヤマシンデン,栃木県さくら市松山新田
3291303,栃木県,さくら市,松山,トチギケン,サクラシ,マツヤマ,栃木県さくら市松山
3291304,栃木県,さくら市,鍛冶ケ沢,トチギケン,サクラシ,カジガサワ,栃木県さくら市鍛冶ケ沢
3291305,栃木県,さくら市,狹間田,トチギケン,サクラシ,ハサマダ,栃木県さくら市狹間田
3291306,栃木県,さくら市,上野,トチギケン,サクラシ,ウワノ,栃木県さくら市上野
3291311,栃木県,さくら市,氏家,トチギケン,サクラシ,ウジイエ,栃木県さくら市氏家
3291312,栃木県,さくら市,櫻野,トチギケン,サクラシ,サクラノ,栃木県さくら市櫻野
3291313,栃木県,さくら市,柿木沢新田,トチギケン,サクラシ,カキノキザワシンデン,栃木県さくら市柿木沢新田
3291314,栃木県,さくら市,柿木沢,トチギケン,サクラシ,カキノキザワ,栃木県さくら市柿木沢
3291315,栃木県,さくら市,氏家新田,トチギケン,サクラシ,ウジイエシンデン,栃木県さくら市氏家新田
3291316,栃木県,さくら市,上阿久津,トチギケン,サクラシ,カミアクツ,栃木県さくら市上阿久津
3291321,栃木県,さくら市,馬場,トチギケン,サクラシ,ババ,栃木県さくら市馬場
3291322,栃木県,さくら市,北草川,トチギケン,サクラシ,キタクサガワ,栃木県さくら市北草川
3291323,栃木県,さくら市,卯の里,トチギケン,サクラシ,ウノサト,栃木県さくら市卯の里
3291324,栃木県,さくら市,草川,トチギケン,サクラシ,クサガワ,栃木県さくら市草川
3291325,栃木県,さくら市,大中,トチギケン,サクラシ,オオナカ,栃木県さくら市大中
3291326,栃木県,さくら市,向河原,トチギケン,サクラシ,ムコウガワラ,栃木県さくら市向河原
3291327,栃木県,さくら市,富野岡,トチギケン,サクラシ,トミノオカ,栃木県さくら市富野岡
3291331,栃木県,さくら市,松島,トチギケン,サクラシ,マツシマ,栃木県さくら市松島
3291332,栃木県,さくら市,蒲須坂,トチギケン,サクラシ,カマスサカ,栃木県さくら市蒲須坂
3291333,栃木県,さくら市,長久保,トチギケン,サクラシ,ナガクボ,栃木県さくら市長久保
3291334,栃木県,さくら市,押上,トチギケン,サクラシ,オシアゲ,栃木県さくら市押上
3291401,栃木県,さくら市,上河戸,トチギケン,サクラシ,カミコウド,栃木県さくら市上河戸
3291402,栃木県,さくら市,下河戸,トチギケン,サクラシ,シモコウド,栃木県さくら市下河戸
3291403,栃木県,さくら市,穂積,トチギケン,サクラシ,ホヅミ,栃木県さくら市穂積
3291404,栃木県,さくら市,鹿子畑,トチギケン,サクラシ,カノコハタ,栃木県さくら市鹿子畑
3291405,栃木県,さくら市,金枝,トチギケン,サクラシ,カナエダ,栃木県さくら市金枝
3291406,栃木県,さくら市,南和田,トチギケン,サクラシ,ミナミワダ,栃木県さくら市南和田
3291411,栃木県,さくら市,鷲宿,トチギケン,サクラシ,ワシジュク,栃木県さくら市鷲宿
3291412,栃木県,さくら市,喜連川,トチギケン,サクラシ,キツレガワ,栃木県さくら市喜連川
3291413,栃木県,さくら市,葛城,トチギケン,サクラシ,カツラギ,栃木県さくら市葛城
3291414,栃木県,さくら市,早乙女,トチギケン,サクラシ,ソウトメ,栃木県さくら市早乙女
3291415,栃木県,さくら市,小入,トチギケン,サクラシ,オイレ,栃木県さくら市小入
3291416,栃木県,さくら市,桜ケ丘,トチギケン,サクラシ,サクラガオカ,栃木県さくら市桜ケ丘
3291417,栃木県,さくら市,フィオーレ喜連川,トチギケン,サクラシ,フィオーレキツレガワ,栃木県さくら市フィオーレ喜連川
3291571,栃木県,矢板市,片岡,トチギケン,ヤイタシ,カタオカ,栃木県矢板市片岡
3291572,栃木県,矢板市,安沢,トチギケン,ヤイタシ,アンザワ,栃木県矢板市安沢
3291573,栃木県,矢板市,越畑,トチギケン,ヤイタシ,コエハタ,栃木県矢板市越畑
3291574,栃木県,矢板市,乙畑,トチギケン,ヤイタシ,オツハタ,栃木県矢板市乙畑
3291575,栃木県,矢板市,大槻,トチギケン,ヤイタシ,オオツキ,栃木県矢板市大槻
3291576,栃木県,矢板市,石関,トチギケン,ヤイタシ,イシゼキ,栃木県矢板市石関
3291577,栃木県,矢板市,玉田,トチギケン,ヤイタシ,タマダ,栃木県矢板市玉田
3291578,栃木県,矢板市,山苗代,トチギケン,ヤイタシ,ヤマナワシロ,栃木県矢板市山苗代
3291579,栃木県,矢板市,こぶし台,トチギケン,ヤイタシ,コブシダイ,栃木県矢板市こぶし台
3292100,栃木県,矢板市,,トチギケン,ヤイタシ,,栃木県矢板市
3292121,栃木県,矢板市,荒井,トチギケン,ヤイタシ,アライ,栃木県矢板市荒井
3292122,栃木県,矢板市,針生,トチギケン,ヤイタシ,ハリウ,栃木県矢板市針生
3292123,栃木県,矢板市,上町,トチギケン,ヤイタシ,カミチョウ,栃木県矢板市上町
3292124,栃木県,矢板市,下太田,トチギケン,ヤイタシ,シモオオタ,栃木県矢板市下太田
3292131,栃木県,矢板市,土屋,トチギケン,ヤイタシ,ツチヤ,栃木県矢板市土屋
3292132,栃木県,矢板市,沢,トチギケン,ヤイタシ,サワ,栃木県矢板市沢
3292133,栃木県,矢板市,豊田,トチギケン,ヤイタシ,トヨダ,栃木県矢板市豊田
3292134,栃木県,矢板市,成田,トチギケン,ヤイタシ,ナリタ,栃木県矢板市成田
3292135,栃木県,矢板市,中,トチギケン,ヤイタシ,ナカ,栃木県矢板市中
3292136,栃木県,矢板市,東町,トチギケン,ヤイタシ,アズマチョウ,栃木県矢板市東町
3292141,栃木県,矢板市,早川町,トチギケン,ヤイタシ,ハヤカワチョウ,栃木県矢板市早川町
3292142,栃木県,矢板市,木幡,トチギケン,ヤイタシ,キバタ,栃木県矢板市木幡
3292143,栃木県,矢板市,境林,トチギケン,ヤイタシ,サカイバヤシ,栃木県矢板市境林
3292144,栃木県,矢板市,川崎反町,トチギケン,ヤイタシ,カワサキソリマチ,栃木県矢板市川崎反町
3292145,栃木県,矢板市,富田,トチギケン,ヤイタシ,トミタ,栃木県矢板市富田
3292151,栃木県,矢板市,幸岡,トチギケン,ヤイタシ,コウオカ,栃木県矢板市幸岡
3292152,栃木県,矢板市,館ノ川,トチギケン,ヤイタシ,タテノカワ,栃木県矢板市館ノ川
3292153,栃木県,矢板市,高塩,トチギケン,ヤイタシ,タカシオ,栃木県矢板市高塩
3292154,栃木県,矢板市,倉掛,トチギケン,ヤイタシ,クラカケ,栃木県矢板市倉掛
3292155,栃木県,矢板市,片俣,トチギケン,ヤイタシ,カタマタ,栃木県矢板市片俣
3292156,栃木県,矢板市,塩田,トチギケン,ヤイタシ,シオダ,栃木県矢板市塩田
3292161,栃木県,矢板市,扇町,トチギケン,ヤイタシ,オウギチョウ,栃木県矢板市扇町
3292162,栃木県,矢板市,末広町,トチギケン,ヤイタシ,スエヒロチョウ,栃木県矢板市末広町
3292163,栃木県,矢板市,鹿島町,トチギケン,ヤイタシ,カシマチョウ,栃木県矢板市鹿島町
3292164,栃木県,矢板市,本町,トチギケン,ヤイタシ,ホンチョウ,栃木県矢板市本町
3292165,栃木県,矢板市,矢板,トチギケン,ヤイタシ,ヤイタ,栃木県矢板市矢板
3292200,栃木県,塩谷郡塩谷町,,トチギケン,シオヤグンシオヤマチ,,栃木県塩谷郡塩谷町
3292211,栃木県,塩谷郡塩谷町,鳥羽新田,トチギケン,シオヤグンシオヤマチ,トバシンデン,栃木県塩谷郡塩谷町鳥羽新田
3292212,栃木県,塩谷郡塩谷町,喜佐見,トチギケン,シオヤグンシオヤマチ,キザミ,栃木県塩谷郡塩谷町喜佐見
3292213,栃木県,塩谷郡塩谷町,熊ノ木,トチギケン,シオヤグンシオヤマチ,クマノキ,栃木県塩谷郡塩谷町熊ノ木
3292214,栃木県,塩谷郡塩谷町,東房,トチギケン,シオヤグンシオヤマチ,ヒガシボウ,栃木県塩谷郡塩谷町東房
3292215,栃木県,塩谷郡塩谷町,下寺島,トチギケン,シオヤグンシオヤマチ,シモテラシマ,栃木県塩谷郡塩谷町下寺島
3292216,栃木県,塩谷郡塩谷町,上寺島（その他）,トチギケン,シオヤグンシオヤマチ,カミテラシマ(ソノタ),栃木県塩谷郡塩谷町上寺島（その他）
3292221,栃木県,塩谷郡塩谷町,玉生,トチギケン,シオヤグンシオヤマチ,タマニュウ,栃木県塩谷郡塩谷町玉生
3292222,栃木県,塩谷郡塩谷町,道下,トチギケン,シオヤグンシオヤマチ,ドウシタ,栃木県塩谷郡塩谷町道下
3292223,栃木県,塩谷郡塩谷町,原荻野目,トチギケン,シオヤグンシオヤマチ,ハラオギノメ,栃木県塩谷郡塩谷町原荻野目
3292224,栃木県,塩谷郡塩谷町,金枝,トチギケン,シオヤグンシオヤマチ,カナエダ,栃木県塩谷郡塩谷町金枝
3292225,栃木県,塩谷郡塩谷町,飯岡,トチギケン,シオヤグンシオヤマチ,イイオカ,栃木県塩谷郡塩谷町飯岡
3292226,栃木県,塩谷郡塩谷町,芦場新田,トチギケン,シオヤグンシオヤマチ,ヨシバシンデン,栃木県塩谷郡塩谷町芦場新田
3292331,栃木県,塩谷郡塩谷町,田所,トチギケン,シオヤグンシオヤマチ,タドコロ,栃木県塩谷郡塩谷町田所
3292332,栃木県,塩谷郡塩谷町,大宮,トチギケン,シオヤグンシオヤマチ,オオミヤ,栃木県塩谷郡塩谷町大宮
3292333,栃木県,塩谷郡塩谷町,肘内,トチギケン,シオヤグンシオヤマチ,ヒジウチ,栃木県塩谷郡塩谷町肘内
3292334,栃木県,塩谷郡塩谷町,大久保,トチギケン,シオヤグンシオヤマチ,オオクボ,栃木県塩谷郡塩谷町大久保
3292335,栃木県,塩谷郡塩谷町,上平,トチギケン,シオヤグンシオヤマチ,ウワタイラ,栃木県塩谷郡塩谷町上平
3292336,栃木県,塩谷郡塩谷町,風見,トチギケン,シオヤグンシオヤマチ,カザミ,栃木県塩谷郡塩谷町風見
3292337,栃木県,塩谷郡塩谷町,泉,トチギケン,シオヤグンシオヤマチ,イズミ,栃木県塩谷郡塩谷町泉
3292338,栃木県,塩谷郡塩谷町,風見山田,トチギケン,シオヤグンシオヤマチ,カザミヤマダ,栃木県塩谷郡塩谷町風見山田
3292339,栃木県,塩谷郡塩谷町,上沢,トチギケン,シオヤグンシオヤマチ,ウワサワ,栃木県塩谷郡塩谷町上沢
3292441,栃木県,塩谷郡塩谷町,船生,トチギケン,シオヤグンシオヤマチ,フニュウ,栃木県塩谷郡塩谷町船生
3292442,栃木県,塩谷郡塩谷町,佐貫,トチギケン,シオヤグンシオヤマチ,サヌキ,栃木県塩谷郡塩谷町佐貫
3292501,栃木県,矢板市,上伊佐野,トチギケン,ヤイタシ,カミイサノ,栃木県矢板市上伊佐野
3292502,栃木県,矢板市,下伊佐野,トチギケン,ヤイタシ,シモイサノ,栃木県矢板市下伊佐野
3292503,栃木県,矢板市,田野原,トチギケン,ヤイタシ,タノハラ,栃木県矢板市田野原
3292504,栃木県,矢板市,泉,トチギケン,ヤイタシ,イズミ,栃木県矢板市泉
3292505,栃木県,矢板市,立足,トチギケン,ヤイタシ,タツアシ,栃木県矢板市立足
3292506,栃木県,矢板市,平野,トチギケン,ヤイタシ,ヒラノ,栃木県矢板市平野
3292511,栃木県,矢板市,山田,トチギケン,ヤイタシ,ヤマダ,栃木県矢板市山田
3292512,栃木県,矢板市,東泉,トチギケン,ヤイタシ,ヒガシイズミ,栃木県矢板市東泉
3292513,栃木県,矢板市,上太田,トチギケン,ヤイタシ,カミオオタ,栃木県矢板市上太田
3292514,栃木県,矢板市,長井,トチギケン,ヤイタシ,ナガイ,栃木県矢板市長井
3292701,栃木県,那須塩原市,関根,トチギケン,ナスシオバラシ,セキネ,栃木県那須塩原市関根
3292702,栃木県,那須塩原市,東関根,トチギケン,ナスシオバラシ,ヒガシセキネ,栃木県那須塩原市東関根
3292703,栃木県,那須塩原市,槻沢,トチギケン,ナスシオバラシ,ツキヌキザワ,栃木県那須塩原市槻沢
3292704,栃木県,那須塩原市,新南,トチギケン,ナスシオバラシ,シンナン,栃木県那須塩原市新南
3292705,栃木県,那須塩原市,南郷屋,トチギケン,ナスシオバラシ,ミナミゴウヤ,栃木県那須塩原市南郷屋
3292706,栃木県,那須塩原市,睦,トチギケン,ナスシオバラシ,ムツミ,栃木県那須塩原市睦
3292707,栃木県,那須塩原市,高柳,トチギケン,ナスシオバラシ,タカヤナギ,栃木県那須塩原市高柳
3292711,栃木県,那須塩原市,石林,トチギケン,ナスシオバラシ,イシバヤシ,栃木県那須塩原市石林
3292712,栃木県,那須塩原市,下永田,トチギケン,ナスシオバラシ,シモナガタ,栃木県那須塩原市下永田
3292713,栃木県,那須塩原市,緑,トチギケン,ナスシオバラシ,ミドリ,栃木県那須塩原市緑
3292721,栃木県,那須塩原市,東町,トチギケン,ナスシオバラシ,アズマチョウ,栃木県那須塩原市東町
3292722,栃木県,那須塩原市,西朝日町,トチギケン,ナスシオバラシ,ニシアサヒチョウ,栃木県那須塩原市西朝日町
3292723,栃木県,那須塩原市,南町,トチギケン,ナスシオバラシ,ミナミチョウ,栃木県那須塩原市南町
3292724,栃木県,那須塩原市,西幸町,トチギケン,ナスシオバラシ,ニシサイワイチョウ,栃木県那須塩原市西幸町
3292725,栃木県,那須塩原市,あたご町,トチギケン,ナスシオバラシ,アタゴチョウ,栃木県那須塩原市あたご町
3292726,栃木県,那須塩原市,扇町,トチギケン,ナスシオバラシ,オウギチョウ,栃木県那須塩原市扇町
3292727,栃木県,那須塩原市,永田町,トチギケン,ナスシオバラシ,ナガタチョウ,栃木県那須塩原市永田町
3292728,栃木県,那須塩原市,西栄町,トチギケン,ナスシオバラシ,ニシサカエチョウ,栃木県那須塩原市西栄町
3292731,栃木県,那須塩原市,二つ室,トチギケン,ナスシオバラシ,フタツムロ,栃木県那須塩原市二つ室
3292732,栃木県,那須塩原市,一区町,トチギケン,ナスシオバラシ,イックチョウ,栃木県那須塩原市一区町
3292733,栃木県,那須塩原市,二区町,トチギケン,ナスシオバラシ,ニクチョウ,栃木県那須塩原市二区町
3292734,栃木県,那須塩原市,北二つ室,トチギケン,ナスシオバラシ,キタフタツムロ,栃木県那須塩原市北二つ室
3292735,栃木県,那須塩原市,太夫塚,トチギケン,ナスシオバラシ,タユウヅカ,栃木県那須塩原市太夫塚
3292741,栃木県,那須塩原市,北赤田,トチギケン,ナスシオバラシ,キタアカダ,栃木県那須塩原市北赤田
3292742,栃木県,那須塩原市,東赤田,トチギケン,ナスシオバラシ,ヒガシアカダ,栃木県那須塩原市東赤田
3292743,栃木県,那須塩原市,南赤田,トチギケン,ナスシオバラシ,ミナミアカダ,栃木県那須塩原市南赤田
3292744,栃木県,那須塩原市,西赤田,トチギケン,ナスシオバラシ,ニシアカダ,栃木県那須塩原市西赤田
3292745,栃木県,那須塩原市,三区町,トチギケン,ナスシオバラシ,サンクチョウ,栃木県那須塩原市三区町
3292746,栃木県,那須塩原市,四区町,トチギケン,ナスシオバラシ,ヨンクチョウ,栃木県那須塩原市四区町
3292747,栃木県,那須塩原市,千本松,トチギケン,ナスシオバラシ,センボンマツ,栃木県那須塩原市千本松
3292748,栃木県,那須塩原市,上赤田,トチギケン,ナスシオバラシ,カミアカダ,栃木県那須塩原市上赤田
3292751,栃木県,那須塩原市,東三島,トチギケン,ナスシオバラシ,ヒガシミシマ,栃木県那須塩原市東三島
3292752,栃木県,那須塩原市,三島,トチギケン,ナスシオバラシ,ミシマ,栃木県那須塩原市三島
3292753,栃木県,那須塩原市,五軒町,トチギケン,ナスシオバラシ,ゴケンチョウ,栃木県那須塩原市五軒町
3292754,栃木県,那須塩原市,西大和,トチギケン,ナスシオバラシ,ニシヤマト,栃木県那須塩原市西大和
3292755,栃木県,那須塩原市,西原町,トチギケン,ナスシオバラシ,ニシハラチョウ,栃木県那須塩原市西原町
3292756,栃木県,那須塩原市,西三島,トチギケン,ナスシオバラシ,ニシミシマ,栃木県那須塩原市西三島
3292761,栃木県,那須塩原市,東遅沢,トチギケン,ナスシオバラシ,ヒガシオソザワ,栃木県那須塩原市東遅沢
3292762,栃木県,那須塩原市,西富山,トチギケン,ナスシオバラシ,ニシトミヤマ,栃木県那須塩原市西富山
3292763,栃木県,那須塩原市,井口,トチギケン,ナスシオバラシ,イグチ,栃木県那須塩原市井口
3292764,栃木県,那須塩原市,西遅沢,トチギケン,ナスシオバラシ,ニシオソザワ,栃木県那須塩原市西遅沢
3292801,栃木県,那須塩原市,関谷,トチギケン,ナスシオバラシ,セキヤ,栃木県那須塩原市関谷
3292802,栃木県,那須塩原市,蟇沼,トチギケン,ナスシオバラシ,ヒキヌマ,栃木県那須塩原市蟇沼
3292803,栃木県,那須塩原市,遅野沢,トチギケン,ナスシオバラシ,オソノサワ,栃木県那須塩原市遅野沢
3292804,栃木県,那須塩原市,折戸,トチギケン,ナスシオバラシ,オリド,栃木県那須塩原市折戸
3292805,栃木県,那須塩原市,上横林,トチギケン,ナスシオバラシ,カミヨコバヤシ,栃木県那須塩原市上横林
3292806,栃木県,那須塩原市,横林,トチギケン,ナスシオバラシ,ヨコバヤシ,栃木県那須塩原市横林
3292807,栃木県,那須塩原市,接骨木,トチギケン,ナスシオバラシ,ニワトコ,栃木県那須塩原市接骨木
3292811,栃木県,那須塩原市,下田野,トチギケン,ナスシオバラシ,シモタノ,栃木県那須塩原市下田野
3292812,栃木県,那須塩原市,金沢,トチギケン,ナスシオバラシ,カネザワ,栃木県那須塩原市金沢
3292813,栃木県,那須塩原市,高阿津,トチギケン,ナスシオバラシ,タカアツ,栃木県那須塩原市高阿津
3292814,栃木県,那須塩原市,上大貫,トチギケン,ナスシオバラシ,カミオオヌキ,栃木県那須塩原市上大貫
3292815,栃木県,那須塩原市,下大貫,トチギケン,ナスシオバラシ,シモオオヌキ,栃木県那須塩原市下大貫
3292816,栃木県,那須塩原市,宇都野,トチギケン,ナスシオバラシ,ウツノ,栃木県那須塩原市宇都野
3292921,栃木県,那須塩原市,塩原,トチギケン,ナスシオバラシ,シオバラ,栃木県那須塩原市塩原
3292922,栃木県,那須塩原市,湯本塩原,トチギケン,ナスシオバラシ,ユモトシオバラ,栃木県那須塩原市湯本塩原
3292923,栃木県,那須塩原市,上塩原,トチギケン,ナスシオバラシ,カミシオバラ,栃木県那須塩原市上塩原
3292924,栃木県,那須塩原市,中塩原,トチギケン,ナスシオバラシ,ナカシオバラ,栃木県那須塩原市中塩原
3293121,栃木県,那須塩原市,鹿野崎,トチギケン,ナスシオバラシ,カノサキ,栃木県那須塩原市鹿野崎
3293122,栃木県,那須塩原市,塩野崎,トチギケン,ナスシオバラシ,シオノサキ,栃木県那須塩原市塩野崎
3293123,栃木県,那須塩原市,塩野崎新田,トチギケン,ナスシオバラシ,シオノサキシンデン,栃木県那須塩原市塩野崎新田
3293124,栃木県,那須塩原市,波立,トチギケン,ナスシオバラシ,ハッタチ,栃木県那須塩原市波立
3293125,栃木県,那須塩原市,無栗屋,トチギケン,ナスシオバラシ,ムクリヤ,栃木県那須塩原市無栗屋
3293126,栃木県,那須塩原市,中内,トチギケン,ナスシオバラシ,ナカウチ,栃木県那須塩原市中内
3293127,栃木県,那須塩原市,上郷屋,トチギケン,ナスシオバラシ,カミゴウヤ,栃木県那須塩原市上郷屋
3293131,栃木県,那須塩原市,唐杉,トチギケン,ナスシオバラシ,カラスギ,栃木県那須塩原市唐杉
3293132,栃木県,那須塩原市,北弥六,トチギケン,ナスシオバラシ,キタヤロク,栃木県那須塩原市北弥六
3293133,栃木県,那須塩原市,沓掛,トチギケン,ナスシオバラシ,クツカケ,栃木県那須塩原市沓掛
3293134,栃木県,那須塩原市,上大塚新田,トチギケン,ナスシオバラシ,カミオオツカシンデン,栃木県那須塩原市上大塚新田
3293135,栃木県,那須塩原市,前弥六,トチギケン,ナスシオバラシ,マエヤロク,栃木県那須塩原市前弥六
3293136,栃木県,那須塩原市,前弥六南町,トチギケン,ナスシオバラシ,マエヤロクミナミチョウ,栃木県那須塩原市前弥六南町
3293141,栃木県,那須塩原市,山中新田,トチギケン,ナスシオバラシ,ヤマナカシンデン,栃木県那須塩原市山中新田
3293142,栃木県,那須塩原市,佐野,トチギケン,ナスシオバラシ,サノ,栃木県那須塩原市佐野
3293143,栃木県,那須塩原市,三本木,トチギケン,ナスシオバラシ,サンボンギ,栃木県那須塩原市三本木
3293144,栃木県,那須塩原市,沼野田和,トチギケン,ナスシオバラシ,ヌマノタワ,栃木県那須塩原市沼野田和
3293145,栃木県,那須塩原市,木曾畑中,トチギケン,ナスシオバラシ,キソハタナカ,栃木県那須塩原市木曾畑中
3293146,栃木県,那須塩原市,下中野,トチギケン,ナスシオバラシ,シモナカノ,栃木県那須塩原市下中野
3293147,栃木県,那須塩原市,東小屋,トチギケン,ナスシオバラシ,ヒガシコヤ,栃木県那須塩原市東小屋
3293151,栃木県,那須塩原市,北和田,トチギケン,ナスシオバラシ,キタワダ,栃木県那須塩原市北和田
3293152,栃木県,那須塩原市,島方,トチギケン,ナスシオバラシ,シマカタ,栃木県那須塩原市島方
3293153,栃木県,那須塩原市,大原間,トチギケン,ナスシオバラシ,オオハラマ,栃木県那須塩原市大原間
3293154,栃木県,那須塩原市,上中野,トチギケン,ナスシオバラシ,カミナカノ,栃木県那須塩原市上中野
3293155,栃木県,那須塩原市,笹沼,トチギケン,ナスシオバラシ,ササヌマ,栃木県那須塩原市笹沼
3293156,栃木県,那須塩原市,方京,トチギケン,ナスシオバラシ,ホウキョウ,栃木県那須塩原市方京
3293157,栃木県,那須塩原市,大原間西,トチギケン,ナスシオバラシ,オオハラマニシ,栃木県那須塩原市大原間西
3293200,栃木県,那須郡那須町,,トチギケン,ナスグンナスマチ,,栃木県那須郡那須町
3293211,栃木県,那須郡那須町,豊原甲,トチギケン,ナスグンナスマチ,トヨハラコウ,栃木県那須郡那須町豊原甲
3293212,栃木県,那須郡那須町,富岡,トチギケン,ナスグンナスマチ,トミオカ,栃木県那須郡那須町富岡
3293213,栃木県,那須郡那須町,豊原,トチギケン,ナスグンナスマチ,トヨハラ,栃木県那須郡那須町豊原
3293214,栃木県,那須郡那須町,横岡（１５６３、１６６０、１６７０、１７２８、１７３６、１７４,トチギケン,ナスグンナスマチ,ヨコオカ(1563、1660、1670、1728、1736、174,栃木県那須郡那須町横岡（1563、1660、1670、1728、1736、174
3293215,栃木県,那須郡那須町,寺子乙（その他）,トチギケン,ナスグンナスマチ,テラコオツ(ソノタ),栃木県那須郡那須町寺子乙（その他）
3293221,栃木県,那須郡那須町,漆塚,トチギケン,ナスグンナスマチ,ウルシツカ,栃木県那須郡那須町漆塚
3293222,栃木県,那須郡那須町,寺子丙,トチギケン,ナスグンナスマチ,テラコヘイ,栃木県那須郡那須町寺子丙
3293223,栃木県,那須郡那須町,大島,トチギケン,ナスグンナスマチ,オオシマ,栃木県那須郡那須町大島
3293224,栃木県,那須郡那須町,豊原乙,トチギケン,ナスグンナスマチ,トヨハラオツ,栃木県那須郡那須町豊原乙
3293225,栃木県,那須郡那須町,豊原丙,トチギケン,ナスグンナスマチ,トヨハラヘイ,栃木県那須郡那須町豊原丙
3293431,栃木県,那須郡那須町,大畑,トチギケン,ナスグンナスマチ,オオハタ,栃木県那須郡那須町大畑
3293432,栃木県,那須郡那須町,梓,トチギケン,ナスグンナスマチ,アズサ,栃木県那須郡那須町梓
3293433,栃木県,那須郡那須町,大和須,トチギケン,ナスグンナスマチ,オオワス,栃木県那須郡那須町大和須
3293434,栃木県,那須郡那須町,梁瀬,トチギケン,ナスグンナスマチ,ヤナゼ,栃木県那須郡那須町梁瀬
3293435,栃木県,那須郡那須町,睦家,トチギケン,ナスグンナスマチ,ムツヤ,栃木県那須郡那須町睦家
3293436,栃木県,那須郡那須町,伊王野,トチギケン,ナスグンナスマチ,イオウノ,栃木県那須郡那須町伊王野
3293437,栃木県,那須郡那須町,蓑沢,トチギケン,ナスグンナスマチ,ミノザワ,栃木県那須郡那須町蓑沢
3293441,栃木県,那須郡那須町,寄居,トチギケン,ナスグンナスマチ,ヨリイ,栃木県那須郡那須町寄居
3293442,栃木県,那須郡那須町,横岡（その他）,トチギケン,ナスグンナスマチ,ヨコオカ(ソノタ),栃木県那須郡那須町横岡（その他）
3293443,栃木県,那須郡那須町,芦野,トチギケン,ナスグンナスマチ,アシノ,栃木県那須郡那須町芦野
3293444,栃木県,那須郡那須町,寺子（７０〜１８０番地）,トチギケン,ナスグンナスマチ,テラコ(70-180バンチ),栃木県那須郡那須町寺子（70〜180-）
3293445,栃木県,那須郡那須町,東岩崎,トチギケン,ナスグンナスマチ,ヒガシイワザキ,栃木県那須郡那須町東岩崎
3293446,栃木県,那須郡那須町,沼野井,トチギケン,ナスグンナスマチ,ヌマノイ,栃木県那須郡那須町沼野井
3293447,栃木県,那須郡那須町,稲沢,トチギケン,ナスグンナスマチ,イナザワ,栃木県那須郡那須町稲沢
3294211,栃木県,足利市,西場町,トチギケン,アシカガシ,ニシバチョウ,栃木県足利市西場町
3294212,栃木県,足利市,稲岡町,トチギケン,アシカガシ,イナオカチョウ,栃木県足利市稲岡町
3294213,栃木県,足利市,寺岡町,トチギケン,アシカガシ,テラオカチョウ,栃木県足利市寺岡町
3294214,栃木県,足利市,多田木町,トチギケン,アシカガシ,タダキチョウ,栃木県足利市多田木町
3294215,栃木県,足利市,奥戸町,トチギケン,アシカガシ,オクドチョウ,栃木県足利市奥戸町
3294216,栃木県,足利市,迫間町,トチギケン,アシカガシ,ハサマチョウ,栃木県足利市迫間町
3294217,栃木県,足利市,駒場町,トチギケン,アシカガシ,コマバチョウ,栃木県足利市駒場町
3294301,栃木県,栃木市,岩舟町鷲巣,トチギケン,トチギシ,イワフネマチワシノス,栃木県栃木市岩舟町鷲巣
3294302,栃木県,栃木市,岩舟町五十畑,トチギケン,トチギシ,イワフネマチイカバタ,栃木県栃木市岩舟町五十畑
3294303,栃木県,栃木市,岩舟町和泉,トチギケン,トチギシ,イワフネマチイズミ,栃木県栃木市岩舟町和泉
3294304,栃木県,栃木市,岩舟町静和,トチギケン,トチギシ,イワフネマチシズワ,栃木県栃木市岩舟町静和
3294305,栃木県,栃木市,岩舟町静戸,トチギケン,トチギシ,イワフネマチシズコ,栃木県栃木市岩舟町静戸
3294306,栃木県,栃木市,岩舟町曲ケ島,トチギケン,トチギシ,イワフネマチマガノシマ,栃木県栃木市岩舟町曲ケ島
3294307,栃木県,栃木市,岩舟町静,トチギケン,トチギシ,イワフネマチシズカ,栃木県栃木市岩舟町静
3294308,栃木県,栃木市,岩舟町下津原,トチギケン,トチギシ,イワフネマチシモツバラ,栃木県栃木市岩舟町下津原
3294309,栃木県,栃木市,岩舟町畳岡,トチギケン,トチギシ,イワフネマチタタミオカ,栃木県栃木市岩舟町畳岡
3294311,栃木県,栃木市,岩舟町古江,トチギケン,トチギシ,イワフネマチフルエ,栃木県栃木市岩舟町古江
3294312,栃木県,栃木市,岩舟町下岡,トチギケン,トチギシ,イワフネマチシモオカ,栃木県栃木市岩舟町下岡
3294313,栃木県,栃木市,岩舟町上岡,トチギケン,トチギシ,イワフネマチカミオカ,栃木県栃木市岩舟町上岡
3294314,栃木県,栃木市,岩舟町小野寺,トチギケン,トチギシ,イワフネマチオノデラ,栃木県栃木市岩舟町小野寺
3294315,栃木県,栃木市,岩舟町三谷,トチギケン,トチギシ,イワフネマチミヤ,栃木県栃木市岩舟町三谷
3294316,栃木県,栃木市,岩舟町新里,トチギケン,トチギシ,イワフネマチニッサト,栃木県栃木市岩舟町新里
3294401,栃木県,栃木市,大平町牛久,トチギケン,トチギシ,オオヒラマチウシク,栃木県栃木市大平町牛久
3294402,栃木県,栃木市,大平町土与,トチギケン,トチギシ,オオヒラマチドヨ,栃木県栃木市大平町土与
3294403,栃木県,栃木市,大平町蔵井,トチギケン,トチギシ,オオヒラマチクライ,栃木県栃木市大平町蔵井
3294404,栃木県,栃木市,大平町富田,トチギケン,トチギシ,オオヒラマチトミダ,栃木県栃木市大平町富田
3294405,栃木県,栃木市,大平町西山田,トチギケン,トチギシ,オオヒラマチニシヤマダ,栃木県栃木市大平町西山田
3294406,栃木県,栃木市,大平町下皆川,トチギケン,トチギシ,オオヒラマチシモミナガワ,栃木県栃木市大平町下皆川
3294407,栃木県,栃木市,大平町川連,トチギケン,トチギシ,オオヒラマチカワツレ,栃木県栃木市大平町川連
3294411,栃木県,栃木市,大平町横堀,トチギケン,トチギシ,オオヒラマチヨコボリ,栃木県栃木市大平町横堀
3294412,栃木県,栃木市,大平町北武井,トチギケン,トチギシ,オオヒラマチキタタケイ,栃木県栃木市大平町北武井
3294413,栃木県,栃木市,大平町上高島,トチギケン,トチギシ,オオヒラマチカミタカシマ,栃木県栃木市大平町上高島
3294414,栃木県,栃木市,大平町下高島,トチギケン,トチギシ,オオヒラマチシモタカシマ,栃木県栃木市大平町下高島
3294415,栃木県,栃木市,大平町真弓,トチギケン,トチギシ,オオヒラマチマユミ,栃木県栃木市大平町真弓
3294421,栃木県,栃木市,大平町西野田,トチギケン,トチギシ,オオヒラマチニシノダ,栃木県栃木市大平町西野田
3294422,栃木県,栃木市,大平町榎本,トチギケン,トチギシ,オオヒラマチエノモト,栃木県栃木市大平町榎本
3294423,栃木県,栃木市,大平町西水代,トチギケン,トチギシ,オオヒラマチニシミズシロ,栃木県栃木市大平町西水代
3294424,栃木県,栃木市,大平町伯仲,トチギケン,トチギシ,オオヒラマチハクチュウ,栃木県栃木市大平町伯仲
3294425,栃木県,栃木市,大平町新,トチギケン,トチギシ,オオヒラマチアライ,栃木県栃木市大平町新
3491221,栃木県,栃木市,藤岡町下宮,トチギケン,トチギシ,フジオカマチシタミヤ,栃木県栃木市藤岡町下宮
